0198821980999992002010100004-01710-045400FM-12+004499999V0200501N005710450019N0020001N1+02751+02421100951ADDAA199000091GF105991021011017501031001KA1240M+03171MA1999999100441MD1999999-0141REMSYN088AAXX  01004 82198 32795 50511 10275 20242 30044 40095 82130 333 10317 29077 55054 59014;EQDQ01  00002PRCP99
0186821980999992002010112004-01710-045400FM-12+004499999V0200501N002610450019N0100001N1+02961+02491101061ADDAA199000091GF108991041021017501031011KA1240N+02581MA1999999100551MD1999999-0011REMSYN076AAXX  01124 82198 32797 80505 10296 20249 30055 40106 84231 333 20258 59001;EQDQ01  00002PRCP99
0182821980999992002010118004-01710-045400FM-12+004499999V0200501N005710450019N0100001N1+03071+02371100771ADDAA106000591AY161061AY221061GF107991041021017501011011MA1999999100261MD1999999-0071MW1021REMSYN082AAXX  01184 82198 21797 70511 10307 20237 30026 40077 70262 84211 333 59007 69941;
0198821980999992002010200004-01710-045400FM-12+004499999V0200501N002612200019N0020001N1+02691+02371100961ADDAA199000091GF103991021021017501011001KA1240M+03161MA1999999100451MD1999999-0131REMSYN088AAXX  02004 82198 32795 30505 10269 20237 30045 40096 82210 333 10316 29079 55030 59013;EQDQ01  00002PRCP99
0173821980999992002010212004-01710-045400FM-12+004499999V0200501N003110450019N0100001N1+02881+02521101121ADDAA124000591GF108991041051017501011041KA1240N+02561MA1999999100611MD1999999+0051REMSYN082AAXX  02124 82198 32797 80506 10288 20252 30061 40112 84514 333 20256 58005 69944;
0167821980999992002010218004-01710-045400FM-12+004499999V0200501N005710150019N0100001N1+03041+02381100931ADDAA199000091GF108991051051017501011041MA1999999100321MD1999999+0061REMSYN070AAXX  02184 82198 32797 80511 10304 20238 30032 40093 85514 333 58006;EQDQ01  00002PRCP99
0208821980999992002010300004-01710-045400FM-12+004499999V0200501N003112200019N0020001N1+02701+02451101161ADDAA199000091GA1001+999999999GF100991001001999999001001KA1240M+03261MA1999999100651MD1999999+0201REMSYN082AAXX  03004 82198 32995 00506 10270 20245 30065 40116 333 10326 29080 55023 58020;EQDQ01  00002PRCP99
0186821980999992002010312004-01710-045400FM-12+004499999V0200501N004110450019N0100001N1+02791+02461101191ADDAA199000091GF108991041051017501031011KA1240N+02541MA1999999100681MD1999999+0071REMSYN076AAXX  03124 82198 32797 80508 10279 20246 30068 40119 84531 333 20254 58007;EQDQ01  00002PRCP99
0167821980999992002010318004-01710-045400FM-12+004499999V0200501N005710450019N0100001N1+03091+02191100871ADDAA199000091GF106991041021017501041011MA1999999100361MD1999999+0041REMSYN070AAXX  03184 82198 32797 60511 10309 20219 30036 40087 84241 333 58004;EQDQ01  00002PRCP99
0208821980999992002010400004-01710-045400FM-12+004499999V0200501N003612200019N0020001N1+02701+02541101051ADDAA199000091GA1001+999999999GF100991001001999999001001KA1240M+03251MA1999999100541MD1999999-0111REMSYN082AAXX  04004 82198 32995 00507 10270 20254 30054 40105 333 10325 29082 55035 59011;EQDQ01  00002PRCP99
0186821980999992002010412004-01710-045400FM-12+004499999V0200901N003112200019N0100001N1+02961+02471101251ADDAA199000091GF105991031021017501001011KA1240N+02571MA1999999100741MD1999999+0061REMSYN076AAXX  04124 82198 32797 50906 10296 20247 30074 40125 83201 333 20257 58006;EQDQ01  00002PRCP99
0167821980999992002010418004-01710-045400FM-12+004499999V0200501N006710450019N0100001N1+03091+02271100861ADDAA199000091GF107991041021017501041061MA1999999100351MD1999999-0011REMSYN070AAXX  04184 82198 32797 70513 10309 20227 30035 40086 84246 333 59001;EQDQ01  00002PRCP99
0226821980999992002010500004-01710-045400FM-12+004499999V0200501N001512200019N0020001N1+02721+02481101161ADDAA199000091AY111061AY221061GF103991031021017501001001KA1240M+03351MA1999999100651MD1999999+0111MW1131REMSYN094AAXX  05004 82198 31795 30503 10272 20248 30065 40116 71312 83200 333 10335 29078 55076 58011;EQDQ01  00002PRCP99
0182821980999992002010518004-01710-045400FM-12+004499999V0200501N002610150019N0100001N1+02661+02561100951ADDAA106013091AY161061AY291061GF108991051071017501061011MA1999999100441MD1999999+0091MW1021REMSYN082AAXX  05184 82198 21797 80505 10266 20256 30044 40095 70269 85761 333 58009 60131;
0182821980999992002010618004-01710-045400FM-12+004499999V0200501N003110450019N0100001N1+02551+02511100901ADDAA106023991AY161061AY221061GF108991041051017501011041MA1999999100381MD1999999-0061MW1021REMSYN082AAXX  06184 82198 21797 80506 10255 20251 30038 40090 70262 84514 333 59006 60241;
0198821980999992002010700004-01710-045400FM-12+004499999V0203601N001010450019N0020001N1+02491+02351101151ADDAA199000091GF105991021021017501061001KA1240M+02701MA1999999100631MD1999999-0021REMSYN088AAXX  07004 82198 32795 53602 10249 20235 30063 40115 82260 333 10270 29096 55001 59002;EQDQ01  00002PRCP99
0201821980999992002010712004-01710-045400FM-12+004499999V0202701N001510450019N0100001N1+02391+02211101321ADDAA124034091AY161061AY221061GF108991041071017501021001KA1240N+02261MA1999999100801MD1999999+0061MW1031REMSYN088AAXX  07124 82198 21797 82703 10239 20221 30080 40132 70362 84720 333 20226 58006 60344;
0167821980999992002010718004-01710-045400FM-12+004499999V0202301N000510150019N0100001N1+02881+02521100901ADDAA199000091GF108991051071017501021001MA1999999100381MD1999999+0001REMSYN070AAXX  07184 82198 32797 82301 10288 20252 30038 40090 85720 333 58000;EQDQ01  00002PRCP99
0213821980999992002010800004-01710-045400FM-12+004499999V0200501N001510150019N0020001N1+02441+02391101111ADDAA106001091AY161061AY251061GF108991051071017501021001KA1240M+02911MA1999999100591MD1999999-0041MW1151REMSYN100AAXX  08004 82198 21795 80503 10244 20239 30059 40111 71565 85720 333 10291 29091 55000 59004 60011;
0201821980999992002010812004-01710-045400FM-12+004499999V0203601N002110150019N0100001N1+02421+02331101241ADDAA124002091AY161061AY221061GF108991051051017501021001KA1240N+02351MA1999999100721MD1999999-0081MW1021REMSYN088AAXX  08124 82198 21797 83604 10242 20233 30072 40124 70262 85520 333 20235 59008 60024;
0182821980999992002010818004-01710-045400FM-12+004499999V0200501N001510150019N0100001N1+02361+02271100911ADDAA106006191AY161061AY221061GF108991051021017501041001MA1999999100401MD1999999+0021MW1021REMSYN082AAXX  08184 82198 21797 80503 10236 20227 30040 40091 70262 85240 333 58002 60061;
0213821980999992002010900004-01710-045400FM-12+004499999V0209999C000010150019N0020001N1+02281+02231101231ADDAA106004191AY161061AY251061GF108991051051017501021001KA1240M+02951MA1999999100711MD1999999+0121MW1021REMSYN100AAXX  09004 82198 21795 80000 10228 20223 30071 40123 70265 85520 333 10295 29096 55012 58012 60041;
0201821980999992002010912004-01710-045400FM-12+004499999V0200901N001010150019N0100001N1+02271+02231101341ADDAA124037191AY161061AY221061GF108991051011017501071001KA1240N+02101MA1999999100821MD1999999+0101MW1021REMSYN088AAXX  09124 82198 21797 80902 10227 20223 30082 40134 70262 85170 333 20210 58010 60374;
0182821980999992002010918004-01710-045400FM-12+004499999V0200501N002612200019N0100001N1+02931+02171101051ADDAA106000191AY151061AY221061GF104991021021017501061001MA1999999100541MD1999999+0141MW1011REMSYN082AAXX  09184 82198 21797 40505 10293 20217 30054 40105 70152 82260 333 58014 69921;
0198821980999992002011000004-01710-045400FM-12+004499999V0200501N001012200019N0020001N1+02541+02291101261ADDAA199000091GF103991031001017501061001KA1240M+03021MA1999999100741MD1999999+0031REMSYN088AAXX  10004 82198 32795 30502 10254 20229 30074 40126 83060 333 10302 29083 55051 58003;EQDQ01  00002PRCP99
0173821980999992002011012004-01710-045400FM-12+004499999V0200901N002610450019N0100001N1+02691+02371101291ADDAA124000191GF108991021011017501031001KA1240N+02311MA1999999100781MD1999999-0041REMSYN082AAXX  10124 82198 22797 80905 10269 20237 30078 40129 82130 333 20231 59004 69924;
0167821980999992002011018004-01710-045400FM-12+004499999V0200501N006210450019N0100001N1+03061+02301101211ADDAA199000091GF106991031021017501061001MA1999999100501MD1999999-0041REMSYN070AAXX  10184 82198 32797 60512 10306 20230 30050 40121 83260 333 59004;EQDQ01  00002PRCP99
0201821980999992002011112004-01710-045400FM-12+004499999V0201801N002110450019N0100001N1+02421+02301101441ADDAA124004191AY161061AY221061GF108991041071017501011001KA1240N+02251MA1999999100931MD1999999+0151MW1031REMSYN088AAXX  11124 82198 21797 81804 10242 20230 30093 40144 70362 84710 333 20225 58015 60044;
0182821980999992002011218004-01710-045400FM-12+004499999V0200901N002110450019N0100001N1+02461+02281101091ADDAA106004191AY161061AY221061GF108991041021017501041001MA1999999100571MD1999999-0011MW1031REMSYN082AAXX  12184 82198 21797 80904 10246 20228 30057 40109 70362 84240 333 59001 60041;
0173821980999992002011412004-01710-045400FM-12+004499999V0200501N002610150019N0100001N1+02861+02541101251ADDAA124003091GF106991061021017501001001KA1240N+02301MA1999999100741MD1999999+0011REMSYN082AAXX  14124 82198 22797 60505 10286 20254 30074 40125 86200 333 20230 58001 60034;
0170821980999992002011418004-01710-045400FM-12+004499999V0201401N003110450019N0100001N1+02621+02481100941ADDAY161061AY251061GF107991041021017501041001MA1999999100421MD1999999-0031MW1021REMSYN081AAXX  14184 82198 21797 71406 10262 20248 30042 40094 70265 84240 333 59003 0631;
0213821980999992002011500004-01710-045400FM-12+004499999V0203201N001512200019N0020001N1+02561+02401101091ADDAA106016091AY161061AY221061GF103991031001017501061001KA1240M+03041MA1999999100581MD1999999-0101MW1011REMSYN100AAXX  15004 82198 21795 33203 10256 20240 30058 40109 70162 83060 333 10304 29089 55043 59010 60161;
0173821980999992002011512004-01710-045400FM-12+004499999V0203201N001010450019N0100001N1+02641+02541101121ADDAA124079091GF108991041051017501031041KA1240N+02321MA1999999100601MD1999999-0141REMSYN082AAXX  15124 82198 22797 83202 10264 20254 30060 40112 84534 333 20232 59014 60794;
0198821980999992002011600004-01710-045400FM-12+004499999V0200501N001510450019N0020001N1+02571+02461100931ADDAA199000091GF106991041021017501061001KA1240M+03001MA1999999100421MD1999999-0161REMSYN088AAXX  16004 82198 32795 60503 10257 20246 30042 40093 84260 333 10300 29088 55029 59016;EQDQ01  00002PRCP99
0201821980999992002011612004-01710-045400FM-12+004499999V0202701N001510450019N0100001N1+02411+02351101131ADDAA124017091AY161061AY221061GF108991041071017501021001KA1240N+02321MA1999999100611MD1999999+0011MW1021REMSYN088AAXX  16124 82198 21797 82703 10241 20235 30061 40113 70262 84720 333 20232 58001 60174;
0182821980999992002011618004-01710-045400FM-12+004499999V0209999C000010450019N0100001N1+02481+02301100891ADDAA106013091AY161061AY221061GF108991041051017501011011MA1999999100371MD1999999+0151MW1021REMSYN082AAXX  16184 82198 21797 80000 10248 20230 30037 40089 70262 84511 333 58015 60131;
0198821980999992002011700004-01710-045400FM-12+004499999V0203601N002110450019N0020001N1+02401+02311101081ADDAA199000091GF106991041021017501061001KA1240M+02661MA1999999100561MD1999999+0141REMSYN088AAXX  17004 82198 32795 63604 10240 20231 30056 40108 84260 333 10266 29094 55012 58014;EQDQ01  00002PRCP99
0173821980999992002011712004-01710-045400FM-12+004499999V0201401N001510450019N0100001N1+02761+02421101151ADDAA124013091GF106991031021017501041041KA1240N+02251MA1999999100631MD1999999+0021REMSYN082AAXX  17124 82198 22797 61403 10276 20242 30063 40115 83244 333 20225 58002 60134;
0213821980999992002011800004-01710-045400FM-12+004499999V0200501N001010450019N0020001N1+02581+02441101161ADDAA106003091AY161061AY221061GF105991031021017501061001KA1240M+03131MA1999999100641MD1999999+0081MW1131REMSYN100AAXX  18004 82198 21795 50502 10258 20244 30064 40116 71362 83260 333 10313 29086 55045 58008 60031;
0201821980999992002011812004-01710-045400FM-12+004499999V0200901N003610150019N0100001N1+02411+02351101261ADDAA124004191AY161061AY221061GF108991051071017501021001KA1240N+02311MA1999999100741MD1999999+0111MW1031REMSYN088AAXX  18124 82198 21797 80907 10241 20235 30074 40126 70362 85720 333 20231 58011 60044;
0182821980999992002011818004-01710-045400FM-12+004499999V0200901N003110450019N0100001N1+02431+02371101011ADDAA106009991AY161061AY221061GF108991041071017501021001MA1999999100491MD1999999+0091MW1611REMSYN082AAXX  18184 82198 21797 80906 10243 20237 30049 40101 76162 84720 333 58009 60101;
0213821980999992002011900004-01710-045400FM-12+004499999V0200501N001010150019N0020001N1+02421+02321101071ADDAA106000591AY161061AY221061GF105991051021017501001001KA1240M+03291MA1999999100551MD1999999-0091MW1011REMSYN100AAXX  19004 82198 21795 50502 10242 20232 30055 40107 70162 85200 333 10329 29096 55000 59009 69961;
0173821980999992002011912004-01710-045400FM-12+004499999V0201401N001510450019N0100001N1+02601+02501101101ADDAA124009991GF106991031051017501031011KA1240N+02331MA1999999100581MD1999999-0161REMSYN082AAXX  19124 82198 22797 61403 10260 20250 30058 40110 83531 333 20233 59016 60104;
0182821980999992002011918004-01710-045400FM-12+004499999V0200901N004110450019N0100001N1+02421+02281100961ADDAA106004191AY161061AY221061GF108991041071017501061041MA1999999100441MD1999999-0051MW1031REMSYN082AAXX  19184 82198 21797 80908 10242 20228 30044 40096 70362 84764 333 59005 60041;
0173821980999992002012012004-01710-045400FM-12+004499999V0200501N000510450019N0100001N1+02681+02521101201ADDAA124005191GF107991031051017501031041KA1240N+02321MA1999999100681MD1999999+0101REMSYN082AAXX  20124 82198 32797 70501 10268 20252 30068 40120 83534 333 20232 58010 60054;
0198821980999992002012100004-01710-045400FM-12+004499999V0200501N004112200019N0020001N1+02611+02331101221ADDAA199000091GF103991011021017501011011KA1240M+03171MA1999999100701MD1999999+0131REMSYN088AAXX  21004 82198 32795 30508 10261 20233 30070 40122 81211 333 10317 29084 55052 58013;EQDQ01  00002PRCP99
0173821980999992002012112004-01710-045400FM-12+004499999V0200901N002610450019N0100001N1+02851+02501101411ADDAA124000591GF107991041021017501041041KA1240N+02341MA1999999100891MD1999999+0211REMSYN082AAXX  21124 82198 22797 70905 10285 20250 30089 40141 84244 333 20234 58021 69954;
0182821980999992002012118004-01710-045400FM-12+004499999V0203201N001510150019N0100001N1+02591+02421101061ADDAA106018091AY161061AY221061GF108991061071017501021001MA1999999100541MD1999999+0101MW1291REMSYN082AAXX  21184 82198 21797 83203 10259 20242 30054 40106 72962 86720 333 58010 60181;
0213821980999992002012200004-01710-045400FM-12+004499999V0202301N002610450019N0020001N1+02491+02371101401ADDAA106014091AY161061AY221061GF107991041071017501011001KA1240M+02981MA1999999100881MD1999999+0181MW1131REMSYN100AAXX  22004 82198 21795 72305 10249 20237 30088 40140 71362 84710 333 10298 29092 55016 58018 60141;
0201821980999992002012212004-01710-045400FM-12+004499999V0200901N002610450019N0100001N1+02261+02181101571ADDAA124054191AY161061AY221061GF108991031051017501021001KA1240N+02191MA1999999101051MD1999999+0161MW1531REMSYN088AAXX  22124 82198 21797 80905 10226 20218 30105 40157 75362 83520 333 20219 58016 60544;
0182821980999992002012218004-01710-045400FM-12+004499999V0200501N002110450019N0100001N1+02721+02301101341ADDAA106000891AY161061AY221061GF108991041021017501071001MA1999999100831MD1999999+0291MW1021REMSYN082AAXX  22184 82198 21797 80504 10272 20230 30083 40134 70262 84270 333 58029 69981;
0213821980999992002012300004-01710-045400FM-12+004499999V0200901N002610450019N0020001N1+02391+02241101411ADDAA106000391AY161061AY221061GF107991041021017501031041KA1240M+02741MA1999999100891MD1999999+0011MW1021REMSYN100AAXX  23004 82198 21795 70905 10239 20224 30089 40141 70262 84234 333 10274 29088 55000 58001 69931;
0173821980999992002012312004-01710-045400FM-12+004499999V0200901N003110450019N0100001N1+02771+02381101391ADDAA124001091GF105991031021017501061011KA1240N+02221MA1999999100871MD1999999-0181REMSYN082AAXX  23124 82198 22797 50906 10277 20238 30087 40139 83261 333 20222 59018 60014;
0167821980999992002012318004-01710-045400FM-12+004499999V0200501N005712200019N0100001N1+03041+02311101091ADDAA199000091GF104991041021017501001001MA1999999100581MD1999999-0251REMSYN070AAXX  23184 82198 32797 40511 10304 20231 30058 40109 84200 333 59025;EQDQ01  00002PRCP99
0198821980999992002012400004-01710-045400FM-12+004499999V0200501N007012200019N0020001N1+02561+02381101361ADDAA199000091GF104991031021017501061001KA1240M+03121MA1999999100851MD1999999-0041REMSYN088AAXX  24001 82198 32795 40507 10256 20238 30085 40136 83260 333 10312 29081 55093 59004;EQDQ01  00002PRCP99
0156821980999992002012412004-01710-045400FM-12+004499999V0200501N003610450019N0100001N1+02811+02381101361ADDGF106991041021017501061001KA1240N+02401MA1999999100851MD1999999-0021REMSYN076AAXX  24124 82198 22797 60507 10281 20238 30085 40136 84260 333 20240 59002;
0182821980999992002012418004-01710-045400FM-12+004499999V0200501N006210450019N0100001N1+02891+02361100971ADDAA106000391AY161061AY221061GF106991031021017501061011MA1999999100461MD1999999-0121MW1021REMSYN082AAXX  24184 82198 21797 60512 10289 20236 30046 40097 70262 83261 333 59012 69931;
0198821980999992002012500004-01710-045400FM-12+004499999V0200501N002610450019N0020001N1+02661+02411101231ADDAA199000091GF107991041021017501061001KA1240M+03081MA1999999100721MD1999999-0131REMSYN088AAXX  25004 82198 32795 70505 10266 20241 30072 40123 84260 333 10308 29081 55056 59013;EQDQ01  00002PRCP99
0173821980999992002012512004-01710-045400FM-12+004499999V0200501N003610150019N0100001N1+02871+02461101321ADDAA124000391GF106991051021017501061001KA1240N+02451MA1999999100811MD1999999-0041REMSYN082AAXX  25124 82198 22797 60507 10287 20246 30081 40132 85260 333 20245 59004 69934;
0167821980999992002012518004-01710-045400FM-12+004499999V0200501N005110450019N0100001N1+03081+02351100931ADDAA199000091GF105991041021017501061001MA1999999100421MD1999999-0041REMSYN070AAXX  25184 82198 32797 50510 10308 20235 30042 40093 84260 333 59004;EQDQ01  00002PRCP99
0213821980999992002012600004-01710-045400FM-12+004499999V0200501N002110450019N0020001N1+02561+02441101281ADDAA106001091AY161061AY221061GF107991031011017501071001KA1240M+03211MA1999999100761MD1999999+0041MW1031REMSYN100AAXX  26004 82198 21795 70504 10256 20244 30076 40128 70362 83170 333 10321 29082 55073 58004 60011;
0173821980999992002012612004-01710-045400FM-12+004499999V0200901N004610150019N0100001N1+02861+02461101331ADDAA124001091GF106991061021017501001001KA1240N+02441MA1999999100821MD1999999+0011REMSYN082AAXX  26124 82198 22797 60909 10286 20246 30082 40133 86200 333 20244 58001 60014;
0182821980999992002012618004-01710-045400FM-12+004499999V0200501N006210450019N0100001N1+02721+02371101041ADDAA106004191AY161061AY221061GF107991031011017501041001MA1999999100531MD1999999+0111MW1021REMSYN082AAXX  26184 82198 21797 70512 10272 20237 30053 40104 70262 83140 333 58011 60041;
0198821980999992002012700004-01710-045400FM-12+004499999V0200501N003110450019N0020001N1+02641+02441101291ADDAA199000091GF106991031011017501061001KA1240M+03031MA1999999100771MD1999999+0011REMSYN088AAXX  27004 82198 32795 60506 10264 20244 30077 40129 83160 333 10303 29082 55053 58001;EQDQ01  00002PRCP99
0201821980999992002012712004-01710-045400FM-12+004499999V0200901N005110450019N0100001N1+02841+02311101251ADDAA124006191AY161061AY221061GF106991021011017501061011KA1240N+02381MA1999999100741MD1999999-0081MW1021REMSYN088AAXX  27124 82198 21797 60910 10284 20231 30074 40125 70262 82161 333 20238 59008 60064;
0167821980999992002012718004-01710-045400FM-12+004499999V0200901N004110450019N0100001N1+03171+02211100941ADDAA199000091GF105991031021017501061011MA1999999100431MD1999999-0101REMSYN070AAXX  27184 82198 32797 50908 10317 20221 30043 40094 83261 333 59010;EQDQ01  00002PRCP99
0198821980999992002012800004-01710-045400FM-12+004499999V0200901N002612200019N0020001N1+02681+02431101131ADDAA199000091GF104991021021017501061001KA1240M+03231MA1999999100621MD1999999-0151REMSYN088AAXX  28004 82198 32795 40905 10268 20243 30062 40113 82260 333 10323 29076 55079 59015;EQDQ01  00002PRCP99
0186821980999992002012812004-01710-045400FM-12+004499999V0200901N003110450019N0100001N1+02891+02561101181ADDAA199000091GF106991041021017501061001KA1240N+02451MA1999999100671MD1999999-0071REMSYN076AAXX  28124 82198 32797 60906 10289 20256 30067 40118 84260 333 20245 59007;EQDQ01  00002PRCP99
0167821980999992002012818004-01710-045400FM-12+004499999V0200501N003610150019N0100001N1+03051+02501100871ADDAA199000091GF108991051021017501061001MA1999999100361MD1999999-0071REMSYN070AAXX  28184 82198 32797 80507 10305 20250 30036 40087 85260 333 59007;EQDQ01  00002PRCP99
0198821980999992002012900004-01710-045400FM-12+004499999V0200901N003110450019N0020001N1+02701+02481101071ADDAA199000091GF106991031021017501061001KA1240M+03211MA1999999100561MD1999999-0061REMSYN088AAXX  29004 82198 32795 60906 10270 20248 30056 40107 83260 333 10321 29083 55056 59006;EQDQ01  00002PRCP99
0186821980999992002012912004-01710-045400FM-12+004499999V0200901N003110450019N0100001N1+02771+02561101121ADDAA199000091GF107991041051017501061011KA1240N+02541MA1999999100611MD1999999-0061REMSYN076AAXX  29124 82198 32797 70906 10277 20256 30061 40112 84561 333 20254 59006;EQDQ01  00002PRCP99
0182821980999992002012918004-01710-045400FM-12+004499999V0200501N005710450019N0100001N1+02881+02521100881ADDAA106022191AY161061AY221061GF107991041051017501011041MA1999999100361MD1999999+0001MW1021REMSYN082AAXX  29184 82198 21797 70511 10288 20252 30036 40088 70262 84514 333 58000 60221;
0198821980999992002013000004-01710-045400FM-12+004499999V0200501N003110450019N0020001N1+02701+02481101081ADDAA199000091GF108991041051017501011001KA1240M+03111MA1999999100561MD1999999+0001REMSYN088AAXX  30004 82198 32795 80506 10270 20248 30056 40108 84510 333 10311 29086 55027 58000;EQDQ01  00002PRCP99
0173821980999992002013012004-01710-045400FM-12+004499999V0200501N003610450019N0100001N1+02771+02441101121ADDAA124022191GF107991031021017501011041KA1240N+02531MA1999999100601MD1999999-0011REMSYN082AAXX  30124 82198 22797 70507 10277 20244 30060 40112 83214 333 20253 59001 60224;
0182821980999992002013018004-01710-045400FM-12+004499999V0200501N002610150019N0100001N1+02711+02481100961ADDAA106000891AY161061AY221061GF108991061071017501011001MA1999999100441MD1999999+0081MW1021REMSYN082AAXX  30184 82198 21797 80505 10271 20248 30044 40096 70262 86710 333 58008 69981;
0198821980999992002013100004-01710-045400FM-12+004499999V0200501N002610450019N0020001N1+02641+02481101041ADDAA199000091GF107991041021017501011011KA1240M+03041MA1999999100521MD1999999-0041REMSYN088AAXX  31004 82198 32795 70505 10264 20248 30052 40104 84211 333 10304 29088 55017 59004;EQDQ01  00002PRCP99
0173821980999992002013112004-01710-045400FM-12+004499999V0200501N002110450019N0100001N1+02891+02461101141ADDAA124000891GF106991041021017501061011KA1240N+02511MA1999999100621MD1999999+0021REMSYN082AAXX  31124 82198 22797 60504 10289 20246 30062 40114 84261 333 20251 58002 69984;
0167821980999992002013118004-01710-045400FM-12+004499999V0203601N006210450019N0100001N1+03071+02371100851ADDAA199000091GF106991031021017501031091MA1999999100331MD1999999-0111REMSYN070AAXX  31184 82198 32797 63612 10307 20237 30033 40085 83239 333 59011;EQDQ01  00002PRCP99
0226821980999992002020100004-01710-045400FM-12+004499999V0200501N006710450019N0020001N1+02651+02391101131ADDAA199000091AY121061AY221061GF108991041021017501061001KA1240M+03181MA1999999100621MD1999999+0101MW1131REMSYN094AAXX  01004 82198 31795 80513 10265 20239 30062 40113 71322 84260 333 10318 29080 55082 58010;EQDQ01  00002PRCP99
0186821980999992002020112004-01710-045400FM-12+004499999V0200501N001010450019N0100001N1+02711+02411101251ADDAA199000091GF107991041021017501031041KA1240N+02401MA1999999100731MD1999999+0111REMSYN076AAXX  01124 82198 32797 70502 10271 20241 30073 40125 84234 333 20240 58011;EQDQ01  00002PRCP99
0182821980999992002020118004-01710-045400FM-12+004499999V0200901N004110150019N0100001N1+02721+02341101051ADDAA106002091AY161061AY221061GF108991051071017501061001MA1999999100531MD1999999+0201MW1201REMSYN082AAXX  01184 82198 21797 80908 10272 20234 30053 40105 72062 85760 333 58020 60021;
0213821980999992002020200004-01710-045400FM-12+004499999V0200901N003610450019N0020001N1+02581+02381101211ADDAA106000191AY121061AY251061GF108991041021017501061001KA1240M+03041MA1999999100691MD1999999+0071MW1021REMSYN100AAXX  02004 82198 21795 80907 10258 20238 30069 40121 70225 84260 333 10304 29086 55012 58007 69911;
0173821980999992002020212004-01710-045400FM-12+004499999V0200501N004110450019N0100001N1+02861+02461101191ADDAA124002091GF107991041021017501031011KA1240N+02311MA1999999100671MD1999999-0061REMSYN082AAXX  02124 82198 21797 70508 10286 20246 30067 40119 84231 333 20231 59006 60024;
0182821980999992002020218004-01710-045400FM-12+004499999V0200501N004610150019N0100001N1+02791+02421101061ADDAA106000191AY121061AY251061GF107991051051017501011001MA1999999100541MD1999999+0011MW1021REMSYN082AAXX  02184 82198 21797 70509 10279 20242 30054 40106 70225 85510 333 58001 69911;
0201821980999992002020300004-01710-045400FM-12+004499999V0200501N006210450019N0100001N1+02341+02201101411ADDAA124009991AY161061AY221061GF108991041051017501061011KA1240N+02191MA1999999100891MD1999999+0221MW1031REMSYN088AAXX  03004 82198 21797 80512 10234 20220 30089 40141 70362 84561 333 20219 58022 60104;
0201821980999992002020312004-01710-045400FM-12+004499999V0200501N006210450019N0100001N1+02341+02201101411ADDAA124009991AY161061AY221061GF108991041051017501061011KA1240N+02191MA1999999100891MD1999999+0221MW1031REMSYN088AAXX  03124 82198 21797 80512 10234 20220 30089 40141 70362 84561 333 20219 58022 60104;
0167821980999992002020318004-01710-045400FM-12+004499999V0200501N004610450019N0100001N1+02951+02291101031ADDAA199000091GF108991041051017501031011MA1999999100511MD1999999-0031REMSYN070AAXX  03184 82198 32797 80509 10295 20229 30051 40103 84531 333 59003;EQDQ01  00002PRCP99
0186821980999992002020412004-01710-045400FM-12+004499999V0200501N003112200019N0100001N1+02901+02521101241ADDAA199000091GF104991031021017501001011KA1240N+02221MA1999999100721MD1999999-0171REMSYN076AAXX  04124 82198 32797 40506 10290 20252 30072 40124 83201 333 20222 59017;EQDQ01  00002PRCP99
0167821980999992002020418004-01710-045400FM-12+004499999V0200501N005112200019N0100001N1+03001+02321100961ADDAA199000091GF104991041021017501001001MA1999999100441MD1999999-0071REMSYN070AAXX  04184 82198 32797 40510 10300 20232 30044 40096 84200 333 59007;EQDQ01  00002PRCP99
0198821980999992002020500004-01710-045400FM-12+004499999V0200501N003612200019N0020001N1+02601+02271101161ADDAA199000091GF103991031021017501001001KA1240M+03141MA1999999100641MD1999999+0021REMSYN088AAXX  05004 82198 32795 30507 10260 20227 30064 40116 83200 333 10314 29080 55090 58002;EQDQ01  00002PRCP99
0201821980999992002020512004-01710-045400FM-12+004499999V0200901N002110450019N0100001N1+02531+02421101331ADDAA124003091AY161061AY221061GF108991041021017501061001KA1240N+02351MA1999999100821MD1999999+0101MW1031REMSYN088AAXX  05124 82198 21797 80904 10253 20242 30082 40133 70362 84260 333 20235 58010 60034;
0167821980999992002020518004-01710-045400FM-12+004499999V0200901N006710150019N0100001N1+03121+02281101061ADDAA199000091GF105991051021017501001001MA1999999100551MD1999999+0111REMSYN070AAXX  05184 82198 32797 50913 10312 20228 30055 40106 85200 333 58011;EQDQ01  00002PRCP99
0198821980999992002020600004-01710-045400FM-12+004499999V0200501N007012200019N0020001N1+02621+02331101231ADDAA199000091GF103991031001017501061001KA1240M+03211MA1999999100721MD1999999+0081REMSYN088AAXX  06000 82198 32795 30507 10262 20233 30072 40123 83060 333 10321 29081 55084 58008;EQDQ01  00002PRCP99
0186821980999992002020612004-01710-045400FM-12+004499999V0200501N005710450019N0100001N1+02831+02381101291ADDAA199000091GF105991041021017501061001KA1240N+02451MA1999999100781MD1999999-0041REMSYN076AAXX  06124 82198 32797 50511 10283 20238 30078 40129 84260 333 20245 59004;EQDQ01  00002PRCP99
0167821980999992002020618004-01710-045400FM-12+004499999V0200501N005110150019N0100001N1+02911+02341101041ADDAA199000091GF108991051021017501061001MA1999999100531MD1999999-0021REMSYN070AAXX  06184 82198 32797 80510 10291 20234 30053 40104 85260 333 59002;EQDQ01  00002PRCP99
0182821980999992002020718004-01710-045400FM-12+004499999V0200501N005710150019N0100001N1+02561+02361100821ADDAA106011991AY161061AY221061GF108991051051017501021001MA1999999100311MD1999999-0221MW1021REMSYN082AAXX  07184 82198 21797 80511 10256 20236 30031 40082 70262 85520 333 59022 60121;
0198821980999992002020800004-01710-045400FM-12+004499999V0200901N002112200019N0020001N1+02551+02441101061ADDAA199000091GF103991031001017501061001KA1240M+03141MA1999999100541MD1999999-0101REMSYN088AAXX  08004 82198 32795 30904 10255 20244 30054 40106 83060 333 10314 29088 55066 59010;EQDQ01  00002PRCP99
0201821980999992002020812004-01710-045400FM-12+004499999V0200901N003610450019N0100001N1+02831+02441101121ADDAA124014091AY161061AY221061GF106991031021017501061001KA1240N+02421MA1999999100601MD1999999-0051MW1021REMSYN088AAXX  08124 82198 21797 60907 10283 20244 30060 40112 70262 83260 333 20242 59005 60144;
0167821980999992002020818004-01710-045400FM-12+004499999V0200501N003110450019N0100001N1+02661+02411100941ADDAA199000091GF108991041051017501041001MA1999999100421MD1999999+0111REMSYN070AAXX  08184 82198 32797 80506 10266 20241 30042 40094 84540 333 58011;EQDQ01  00002PRCP99
0183821980999992002020900004-01710-045400FM-12+004499999V0203601N003110450019N0020001N1+02521+02341101191ADDAA199000091GF105991021011017501061001KA1240M+03111MA1999999100671REMSYN087AAXX  09004 82198 32795 53606 10252 20234 30067 40119 82160 333 10311 29086 55037 5801;EQDQ01  00002PRCP99
0186821980999992002020912004-01710-045400FM-12+004499999V0202301N002110180019N0100001N1+02521+02431101371ADDAA199000091GF108991051081017501041001KA1240N+02411MA1999999100861MD1999999+0261REMSYN076AAXX  09124 82198 32797 82304 10252 20243 30086 40137 85840 333 20241 58026;EQDQ01  00002PRCP99
0167821980999992002020918004-01710-045400FM-12+004499999V0202301N002610450019N0100001N1+02701+02241101111ADDAA199000091GF108991041021017501041001MA1999999100601MD1999999+0181REMSYN070AAXX  09184 82198 32797 82305 10270 20224 30060 40111 84240 333 58018;EQDQ01  00002PRCP99
0198821980999992002021000004-01710-045400FM-12+004499999V0203601N001512200019N0020001N1+02641+02411101221ADDAA199000091GF104991041001017501061001KA1240M+03011MA1999999100701MD1999999+0031REMSYN088AAXX  10004 82198 32795 43603 10264 20241 30070 40122 84060 333 10301 29086 55011 58003;EQDQ01  00002PRCP99
0201821980999992002021012004-01710-045400FM-12+004499999V0201401N001510450019N0100001N1+02741+02481101291ADDAA124000591AY161061AY221061GF105991031021017501031001KA1240N+02331MA1999999100781MD1999999+0001MW1021REMSYN088AAXX  10124 82198 21797 51403 10274 20248 30078 40129 70262 83230 333 20233 59000 69944;
0167821980999992002021018004-01710-045400FM-12+004499999V0200501N005112200019N0100001N1+02951+02351100931ADDAA199000091GF104991021021017501061001MA1999999100421MD1999999-0181REMSYN070AAXX  10184 82198 32797 40510 10295 20235 30042 40093 82260 333 59018;EQDQ01  00002PRCP99
0182821980999992002021118004-01710-045400FM-12+004499999V0200501N003610450019N0100001N1+02751+02501100851ADDAA106005191AY161061AY221061GF108991041051017501021001MA1999999100341MD1999999-0061MW1021REMSYN082AAXX  11184 82198 21797 80507 10275 20250 30034 40085 70262 84520 333 59006 60051;
0232821980999992002021200004-01710-045400FM-12+004499999V0200501N005110150019N0020001N1+02581+02421101141ADDAA106000591AY161061AY221061GF108991051051017501041001KA1240M+99999MA1999999100631MD1999999-0031MW1021REMSYN100AAXX  12004 82198 21795 80510 10258 20242 30063 40114 70262 85540 333 10217 29087 55053 59003 69941;EQDQ01 +02172ATMX  
0201821980999992002021212004-01710-045400FM-12+004499999V0200501N001510150019N0100001N1+02381+02281101391ADDAA124009991AY161061AY221061GF108991061051017501011001KA1240N+02251MA1999999100871MD1999999+0201MW1021REMSYN088AAXX  12124 82198 21797 80503 10238 20228 30087 40139 70262 86510 333 20225 58020 60104;
0182821980999992002021218004-01710-045400FM-12+004499999V0201401N004610150019N0100001N1+02671+02391101171ADDAA106001091AY161061AY251061GF108991051071017501061001MA1999999100581MD1999999+0241MW1021REMSYN082AAXX  12184 82198 21797 81409 10267 20239 30058 40117 70265 85760 333 58024 60011;
0198821980999992002021300004-01710-045400FM-12+004499999V0200901N002110150019N0020001N1+02491+02191101281ADDAA199000091GF108991061071017501021001KA1240M+03081MA1999999100761MD1999999+0071REMSYN088AAXX  13004 82198 32795 80904 10249 20219 30076 40128 86720 333 10308 29090 55009 58007;EQDQ01  00002PRCP99
0173821980999992002021312004-01710-045400FM-12+004499999V0200901N003010450019N0100001N1+02851+02291101241ADDAA124001091GF106991041021017501031011KA1240N+02401MA1999999100721MD1999999-0151REMSYN082AAXX  13120 82198 22797 60903 10285 20229 30072 40124 84231 333 20240 59015 60014;
0148821980999992002021318004-01710-045400FM-12+004499999V0203601N000519999999N0100001N1+02571+02531101071ADDGF108991999999017501999999MA1999999100551MD1999999-0151REMSYN081AAXX  13184 82198 21797 83601 10257 20253 30055 40107 7362 84510 333 59015 60091;
0198821980999992002021400004-01710-045400FM-12+004499999V0201401N001010150019N0020001N1+02551+02461101261ADDAA199000091GF108991061051017501061001KA1240M+02971MA1999999100741MD1999999+0011REMSYN088AAXX  14004 82198 32795 81402 10255 20246 30074 40126 86560 333 10297 29088 55009 58001;EQDQ01  00002PRCP99
0201821980999992002021412004-01710-045400FM-12+004499999V0200901N004110450019N0100001N1+02871+02381101251ADDAA124008991AY161061AY251061GF106991031021017501031011KA1240N+02451MA1999999100731MD1999999+0011MW1011REMSYN088AAXX  14124 82198 21797 60908 10287 20238 30073 40125 70165 83231 333 20245 58001 60094;
0213821980999992002021500004-01710-045400FM-12+004499999V0200501N001510150019N0020001N1+02481+02431101231ADDAA106003091AY161061AY221061GF105991051021017501001001KA1240M+03141MA1999999100711MD1999999-0031MW1011REMSYN100AAXX  15004 82198 21795 50503 10248 20243 30071 40123 70162 85200 333 10314 29090 55043 59003 60031;
0201821980999992002021512004-01710-045400FM-12+004499999V0200501N003610450019N0100001N1+02771+02521101391ADDAA124005191AY161061AY251061GF106991041051017501041091KA1240N+02311MA1999999100871MD1999999+0141MW1031REMSYN088AAXX  15124 82198 21797 60507 10277 20252 30087 40139 70365 84549 333 20231 58014 60054;
0182821980999992002021518004-01710-045400FM-12+004499999V0200501N001510150019N0100001N1+02491+02281101091ADDAA106032091AY161061AY221061GF108991061071017501021001MA1999999100571MD1999999+0101MW1031REMSYN082AAXX  15184 82198 21797 80503 10249 20228 30057 40109 70362 86720 333 58010 60321;
0167821980999992002021618004-01710-045400FM-12+004499999V0200501N005712200019N0100001N1+03061+02451101011ADDAA199000091GF105991031021017501001041MA1999999100491MD1999999-0081REMSYN070AAXX  16184 82198 32797 50511 10306 20245 30049 40101 83204 333 59008;EQDQ01  00002PRCP99
0198821980999992002021700004-01710-045400FM-12+004499999V0200501N003112200019N0020001N1+02671+02391101121ADDAA199000091GF103991031021017501001001KA1240M+03281MA1999999100601MD1999999-0131REMSYN088AAXX  17004 82198 32795 30506 10267 20239 30060 40112 83200 333 10328 29082 55084 59013;EQDQ01  00002PRCP99
0186821980999992002021712004-01710-045400FM-12+004499999V0200901N004112200019N0100001N1+02911+02481101211ADDAA199000091GF105991031021017501001011KA1240N+02431MA1999999100691MD1999999-0051REMSYN076AAXX  17124 82198 32797 50908 10291 20248 30069 40121 83201 333 20243 59005;EQDQ01  00002PRCP99
0167821980999992002021718004-01710-045400FM-12+004499999V0200501N004610450019N0100001N1+03151+02461100961ADDAA199000091GF105991031021017501011041MA1999999100441MD1999999-0051REMSYN070AAXX  17184 82198 32797 50509 10315 20246 30044 40096 83214 333 59005;EQDQ01  00002PRCP99
0198821980999992002021800004-01710-045400FM-12+004499999V0200501N001012200019N0020001N1+02601+02441101051ADDAA199000091GF103991011021017501031011KA1240M+03291MA1999999100531MD1999999-0071REMSYN088AAXX  18004 82198 32795 30502 10260 20244 30053 40105 81231 333 10329 29082 55092 59007;EQDQ01  00002PRCP99
0186821980999992002021812004-01710-045400FM-12+004499999V0200901N002610150019N0100001N1+02911+02581101091ADDAA199000091GF105991051021017501001001KA1240N+02221MA1999999100571MD1999999-0121REMSYN076AAXX  18124 82198 32797 50905 10291 20258 30057 40109 85200 333 20222 59012;EQDQ01  00002PRCP99
0167821980999992002021818004-01710-045400FM-12+004499999V0203601N004610450019N0100001N1+03051+02441100761ADDAA199000091GF105991031021017501041041MA1999999100241MD1999999-0201REMSYN070AAXX  18184 82198 32797 53609 10305 20244 30024 40076 83244 333 59020;EQDQ01  00002PRCP99
0198821980999992002021900004-01710-045400FM-12+004499999V0200501N006210450019N0020001N1+02701+02451101071ADDAA199000091GF106991041021017501061001KA1240M+03171MA1999999100551MD1999999+0021REMSYN088AAXX  19004 82198 32795 60512 10270 20245 30055 40107 84260 333 10317 29082 55077 58002;EQDQ01  00002PRCP99
0186821980999992002021912004-01710-045400FM-12+004499999V0200501N004110150019N0100001N1+02881+02491101151ADDAA199000091GF107991051021017501061001KA1240N+02521MA1999999100641MD1999999+0071REMSYN076AAXX  19124 82198 32797 70508 10288 20249 30064 40115 85260 333 20252 58007;EQDQ01  00002PRCP99
0182821980999992002021918004-01710-045400FM-12+004499999V0200501N004110150019N0100001N1+02831+02521100791ADDAA106002091AY161061AY221061GF108991051051017501041001MA1999999100281MD1999999+0041MW1021REMSYN082AAXX  19184 82198 21797 80508 10283 20252 30028 40079 70262 85540 333 58004 60021;
0213821980999992002022000004-01710-045400FM-12+004499999V0200501N003610450019N0020001N1+02611+02481101041ADDAA106000591AY161061AY221061GF105991021011017501061001KA1240M+03221MA1999999100521MD1999999-0031MW1021REMSYN100AAXX  20004 82198 21795 50507 10261 20248 30052 40104 70262 82160 333 10322 29087 55052 59003 69961;
0173821980999992002022012004-01710-045400FM-12+004499999V0200501N004110150019N0100001N1+02951+02511101191ADDAA124002091GF106991051021017501031001KA1240N+02461MA1999999100681MD1999999+0041REMSYN082AAXX  20124 82198 22797 60508 10295 20251 30068 40119 85230 333 20246 58004 60024;
0167821980999992002022018004-01710-045400FM-12+004499999V0200901N005710150019N0100001N1+03171+02441100831ADDAA199000091GF105991051021017501001001MA1999999100321MD1999999+0041REMSYN070AAXX  20184 82198 32797 50911 10317 20244 30032 40083 85200 333 58004;EQDQ01  00002PRCP99
0198821980999992002022100004-01710-045400FM-12+004499999V0200501N002612200019N0020001N1+02641+02421101011ADDAA199000091GF102991021011017501001001KA1240M+03241MA1999999100501MD1999999-0021REMSYN088AAXX  21004 82198 32795 20505 10264 20242 30050 40101 82100 333 10324 29080 55103 59002;EQDQ01  00002PRCP99
0186821980999992002022112004-01710-045400FM-12+004499999V0200901N003610150019N0100001N1+02941+02491101151ADDAA199000091GF106991061021017501001001KA1240N+02461MA1999999100641MD1999999-0041REMSYN076AAXX  21124 82198 32797 60907 10294 20249 30064 40115 86200 333 20246 59004;EQDQ01  00002PRCP99
0167821980999992002022118004-01710-045400FM-12+004499999V0200901N005112200019N0100001N1+03211+02381100791ADDAA199000091GF104991041021017501001001MA1999999100281MD1999999-0041REMSYN070AAXX  21184 82198 32797 40910 10321 20238 30028 40079 84200 333 59004;EQDQ01  00002PRCP99
0208821980999992002022200004-01710-045400FM-12+004499999V0200901N004112200019N0020001N1+02671+02351100981ADDAA199000091GA1001+999999999GF100991001001999999001001KA1240M+03291MA1999999100471MD1999999-0031REMSYN082AAXX  22004 82198 32995 00908 10267 20235 30047 40098 333 10329 29076 55107 59003;EQDQ01  00002PRCP99
0186821980999992002022212004-01710-045400FM-12+004499999V0200901N003112200019N0100001N1+02951+02421101021ADDAA199000091GF102991021011017501001001KA1240N+02431MA1999999100511MD1999999-0131REMSYN076AAXX  22124 82198 32797 20906 10295 20242 30051 40102 82100 333 20243 59013;EQDQ01  00002PRCP99
0167821980999992002022218004-01710-045400FM-12+004499999V0200901N003110150019N0100001N1+03241+02391100671ADDAA199000091GF105991051021017501001001MA1999999100161MD1999999-0121REMSYN070AAXX  22184 82198 32797 50906 10324 20239 30016 40067 85200 333 59012;EQDQ01  00002PRCP99
0208821980999992002022300004-01710-045400FM-12+004499999V0200501N002612200019N0020001N1+02691+02411100881ADDAA199000091GA1001+999999999GF100991001001999999001001KA1240M+03391MA1999999100371MD1999999-0101REMSYN082AAXX  23004 82198 32995 00505 10269 20241 30037 40088 333 10339 29076 55105 59010;EQDQ01  00002PRCP99
0186821980999992002022312004-01710-045400FM-12+004499999V0200501N003110450019N0100001N1+02961+02491101131ADDAA199000091GF106991041021017501061001KA1240N+02491MA1999999100621MD1999999+0111REMSYN076AAXX  23124 82198 32797 60506 10296 20249 30062 40113 84260 333 20249 58011;EQDQ01  00002PRCP99
0182821980999992002022318004-01710-045400FM-12+004499999V0203601N003110150019N0100001N1+02911+02521100811ADDAA106009991AY161061AY221061GF107991051051017501021001MA1999999100301MD1999999+0141MW1161REMSYN082AAXX  23184 82198 21797 73606 10291 20252 30030 40081 71662 85520 333 58014 60101;
0213821980999992002022400004-01710-045400FM-12+004499999V0200501N003612200019N0020001N1+02671+02461101091ADDAA106002091AY161061AY221061GF102991021011017501001001KA1240M+03261MA1999999100581MD1999999+0211MW1021REMSYN100AAXX  24004 82198 21795 20507 10267 20246 30058 40109 70262 82100 333 10326 29083 55029 58021 60021;
0173821980999992002022412004-01710-045400FM-12+004499999V0200501N002610450019N0100001N1+02811+02541101311ADDAA124010991GF107991021011017501031001KA1240N+02411MA1999999100801MD1999999+0181REMSYN082AAXX  24124 82198 22797 70505 10281 20254 30080 40131 82130 333 20241 58018 60114;
0182821980999992002022418004-01710-045400FM-12+004499999V0200501N004110450019N0100001N1+02831+02581100991ADDAA106016091AY161061AY221061GF107991031021017501041001MA1999999100481MD1999999+0181MW1021REMSYN082AAXX  24184 82198 21797 70508 10283 20258 30048 40099 70262 83240 333 58018 60161;
0167821980999992002022518004-01710-045400FM-12+004499999V0200501N005710150019N0100001N1+03031+02391100891ADDAA199000091GF105991051021017501001001MA1999999100381MD1999999-0101REMSYN070AAXX  25184 82198 32797 50511 10303 20239 30038 40089 85200 333 59010;EQDQ01  00002PRCP99
0198821980999992002022600004-01710-045400FM-12+004499999V0200501N003610450019N0020001N1+02721+02471101161ADDAA199000091GF106991031021017501061001KA1240M+03181MA1999999100641MD1999999-0071REMSYN088AAXX  26004 82198 32795 60507 10272 20247 30064 40116 83260 333 10318 29080 55072 59007;EQDQ01  00002PRCP99
0202821980999992002022612004-01710-045400FM-12+004499999V0200901N005710450019N0100001N1+02951+02441101161ADDAA199000091GF106991041021017501061001KA1240M+99999MA1999999100641MD1999999-0071REMSYN076AAXX  26124 82198 32797 60911 10295 20244 30064 40116 84260 333 10258 59007;EQDQ01  00002PRCP99Q02 +02582ATMX  
0182821980999992002022618004-01710-045400FM-12+004499999V0200501N006710450019N0100001N1+03121+02281100921ADDAA106000891AY161061AY221061GF105991031011017501011001MA1999999100401MD1999999+0021MW1011REMSYN082AAXX  26184 82198 21797 50513 10312 20228 30040 40092 70162 83110 333 58002 69981;
0198821980999992002022700004-01710-045400FM-12+004499999V0200501N004112200019N0020001N1+02681+02391101071ADDAA199000091GF103991021011017501001011KA1240M+03181MA1999999100551MD1999999-0091REMSYN088AAXX  27004 82198 32795 30508 10268 20239 30055 40107 82101 333 10318 29075 55087 59009;EQDQ01  00002PRCP99
0173821980999992002022712004-01710-045400FM-12+004499999V0200501N003610150019N0100001N1+02951+02551101151ADDAA124000891GF105991051021017501001001KA1240N+02511MA1999999100631MD1999999-0011REMSYN082AAXX  27124 82198 22797 50507 10295 20255 30063 40115 85200 333 20251 59001 69984;
0182821980999992002022718004-01710-045400FM-12+004499999V0200501N004610150019N0100001N1+03171+02431100911ADDAA106000591AY161061AY221061GF105991051021017501001001MA1999999100391MD1999999-0011MW1021REMSYN082AAXX  27184 82198 21797 50509 10317 20243 30039 40091 70262 85200 333 59001 69941;
0198821980999992002022800004-01710-045400FM-12+004499999V0200501N003112200019N0020001N1+02691+02401101011ADDAA199000091GF103991021021017501001011KA1240M+03311MA1999999100491MD1999999-0061REMSYN088AAXX  28004 82198 32795 30506 10269 20240 30049 40101 82201 333 10331 29080 55099 59006;EQDQ01  00002PRCP99
0173821980999992002022812004-01710-045400FM-12+004499999V0200901N004610450019N0100001N1+02931+02431101091ADDAA124000591GF106991041021017501061001KA1240N+02561MA1999999100571MD1999999-0061REMSYN082AAXX  28124 82198 22797 60909 10293 20243 30057 40109 84260 333 20256 59006 69944;
0167821980999992002022818004-01710-045400FM-12+004499999V0200901N007210450019N0100001N1+03131+02151100791ADDAA199000091GF106991031021017501011041MA1999999100271MD1999999-0121REMSYN070AAXX  28184 82198 32797 60914 10313 20215 30027 40079 83214 333 59012;EQDQ01  00002PRCP99
0198821980999992002030100004-01710-045400FM-12+004499999V0200501N003610450019N0020001N1+02681+02391100941ADDAA199000091GF106991031021017501011011KA1240M+03291MA1999999100421MD1999999-0071REMSYN088AAXX  01004 82198 32795 60507 10268 20239 30042 40094 83211 333 10329 29075 55064 59007;EQDQ01  00002PRCP99
0186821980999992002030112004-01710-045400FM-12+004499999V0200501N003610450019N0100001N1+02901+02501101101ADDAA199000091GF106991031021017501031091KA1240N+02541MA1999999100581MD1999999+0011REMSYN076AAXX  01124 82198 32797 60507 10290 20250 30058 40110 83239 333 20254 58001;EQDQ01  00002PRCP99
0167821980999992002030118004-01710-045400FM-12+004499999V0200501N005110450019N0100001N1+03151+02411100891ADDAA199000091GF108991041021017501041041MA1999999100371MD1999999+0101REMSYN070AAXX  01184 82198 32797 80510 10315 20241 30037 40089 84244 333 58010;EQDQ01  00002PRCP99
0213821980999992002030400004-01710-045400FM-12+004499999V0202701N001010450019N0100001N1+02541+02491101031ADDAA106003091AY161061AY221061GF106991041071017501061001KA1240M+03091MA1999999100511MD1999999-0051MW1011REMSYN100AAXX  04004 82198 21797 62702 10254 20249 30051 40103 70162 84760 333 10309 29090 55015 59005 60031;
0201821980999992002030412004-01710-045400FM-12+004499999V0202701N000510150019N0100001N1+02391+02211101271ADDAA124007191AY161061AY221061GF108991051071017501021001KA1240N+02211MA1999999100751MD1999999+0121MW1201REMSYN088AAXX  04124 82198 21797 82701 10239 20221 30075 40127 72062 85720 333 20221 58012 60074;
0182821980999992002030418004-01710-045400FM-12+004499999V0200501N006710450019N0100001N1+02561+02401101061ADDAA106003091AY161061AY221061GF108991041071017501021001MA1999999100541MD1999999+0191MW1211REMSYN082AAXX  04184 82198 21797 80513 10256 20240 30054 40106 72162 84720 333 58019 60031;
0173821980999992002030512004-01710-045400FM-12+004499999V0200901N000510150019N0100001N1+02471+02381101391ADDAA124007191GF107991051051017501061001KA1240N+02251MA1999999100871MD1999999+0121REMSYN082AAXX  05124 82198 22797 70901 10247 20238 30087 40139 85560 333 20225 58012 60074;
0182821980999992002030518004-01710-045400FM-12+004499999V0203201N001010150019N0100001N1+02461+02341101161ADDAA106003091AY161061AY221061GF108991051041017501021001MA1999999100641MD1999999+0101MW1021REMSYN082AAXX  05184 82198 21797 83202 10246 20234 30064 40116 70262 85420 333 58010 60031;
0213821980999992002030600004-01710-045400FM-12+004499999V0202701N001510450019N0020001N1+02311+02231101291ADDAA106004191AY161061AY221061GF108991041051017501021001KA1240M+02731MA1999999100761MD1999999+0101MW1021REMSYN100AAXX  06004 82198 21795 82703 10231 20223 30076 40129 70262 84520 333 10273 29095 55004 58010 60041;
0167821980999992002030618004-01710-045400FM-12+004499999V0200501N004110450019N0100001N1+02941+02241100931ADDAA199000091GF108991041021017501061001MA1999999100421MD1999999-0221REMSYN070AAXX  06184 82198 32797 80508 10294 20224 30042 40093 84260 333 59022;EQDQ01  00002PRCP99
0198821980999992002030700004-01710-045400FM-12+004499999V0203601N002110450019N0020001N1+02581+02371101171ADDAA199000091GF105991031021017501061001KA1240M+03171MA1999999100661MD1999999-0101REMSYN088AAXX  07004 82198 32795 53604 10258 20237 30066 40117 83260 333 10317 29084 55041 59010;EQDQ01  00002PRCP99
0201821980999992002030712004-01710-045400FM-12+004499999V0203601N002610450019N0100001N1+02801+02421101331ADDAA124000891AY161061AY221061GF106991041021017501061041KA1240N+02401MA1999999100811MD1999999+0011MW1021REMSYN088AAXX  07124 82198 21797 63605 10280 20242 30081 40133 70262 84264 333 20240 58001 69974;
0167821980999992002030718004-01710-045400FM-12+004499999V0200501N004610450019N0100001N1+02971+02391100981ADDAA199000091GF106991041021017501011041MA1999999100461MD1999999+0041REMSYN070AAXX  07184 82198 32797 60509 10297 20239 30046 40098 84214 333 58004;EQDQ01  00002PRCP99
0226821980999992002030800004-01710-045400FM-12+004499999V0202701N001510450019N0020001N1+02651+02391101301ADDAA199000091AY121061AY211061GF105991031021017501061001KA1240M+03061MA1999999100781MD1999999+0121MW1131REMSYN094AAXX  08004 82198 31795 52703 10265 20239 30078 40130 71321 83260 333 10306 29082 55052 58012;EQDQ01  00002PRCP99
0201821980999992002030812004-01710-045400FM-12+004499999V0202301N001510450019N0100001N1+02501+02451101451ADDAA124007991AY161061AY221061GF108991041071017501061001KA1240N+02341MA1999999100931MD1999999+0121MW1031REMSYN088AAXX  08124 82198 21797 82303 10250 20245 30093 40145 70362 84760 333 20234 58012 60084;
0182821980999992002030818004-01710-045400FM-12+004499999V0200501N001010150019N0100001N1+02491+02311101131ADDAA106003091AY161061AY221061GF108991051051017501041041MA1999999100611MD1999999+0151MW1021REMSYN082AAXX  08184 82198 21797 80502 10249 20231 30061 40113 70262 85544 333 58015 60031;
0226821980999992002030900004-01710-045400FM-12+004499999V0200501N001012200019N0020001N1+02451+02311101351ADDAA199000091AY111061AY221061GF103991031021017501001001KA1240M+02921MA1999999100831MD1999999+0051MW1131REMSYN094AAXX  09004 82198 31795 30502 10245 20231 30083 40135 71312 83200 333 10292 29096 55005 58005;EQDQ01  00002PRCP99
0201821980999992002030912004-01710-045400FM-12+004499999V0202301N001010150019N0100001N1+02481+02411101361ADDAA124004191AY161061AY221061GF108991051071017501061001KA1240N+02241MA1999999100851MD1999999-0081MW1031REMSYN088AAXX  09124 82198 21797 82302 10248 20241 30085 40136 70362 85760 333 20224 59008 60044;
0182821980999992002030918004-01710-045400FM-12+004499999V0203201N002110150019N0100001N1+02661+02441101051ADDAA106007991AY161061AY221061GF108991051021017501061001MA1999999100541MD1999999-0071MW1021REMSYN082AAXX  09184 82198 21797 83204 10266 20244 30054 40105 70262 85260 333 59007 60081;
0198821980999992002031000004-01710-045400FM-12+004499999V0200501N000510450019N0020001N1+02571+02461101291ADDAA199000091GF105991031071017501061001KA1240M+03291MA1999999100781MD1999999-0051REMSYN088AAXX  10004 82198 32795 50501 10257 20246 30078 40129 83760 333 10329 29092 55012 59005;EQDQ01  00002PRCP99
0173821980999992002031012004-01710-045400FM-12+004499999V0200501N001010450019N0100001N1+02641+02481101281ADDAA124007991GF106991041021017501061001KA1240N+02281MA1999999100771MD1999999-0081REMSYN082AAXX  10124 82198 22797 60502 10264 20248 30077 40128 84260 333 20228 59008 60084;
0198821980999992002031100004-01710-045400FM-12+004499999V0200901N002612200019N0020001N1+02631+02411101201ADDAA199000091GF104991041001017501061001KA1240M+03181MA1999999100691MD1999999-0081REMSYN088AAXX  11004 82198 32795 40905 10263 20241 30069 40120 84060 333 10318 29083 55037 59008;EQDQ01  00002PRCP99
0201821980999992002031112004-01710-045400FM-12+004499999V0202301N002110150019N0100001N1+02431+02251101291ADDAA124014091AY161061AY221061GF108991051071017501021001KA1240N+02291MA1999999100771MD1999999+0001MW1031REMSYN088AAXX  11124 82198 21797 82304 10243 20225 30077 40129 70362 85720 333 20229 58000 60144;
0182821980999992002031118004-01710-045400FM-12+004499999V0201401N002110450019N0100001N1+03001+02441100971ADDAA106000191AY151061AY221061GF106991031021017501061001MA1999999100461MD1999999+0121MW1011REMSYN082AAXX  11184 82198 21797 61404 10300 20244 30046 40097 70152 83260 333 58012 69921;
0198821980999992002031200004-01710-045400FM-12+004499999V0200501N001512200019N0020001N1+02581+02401101311ADDAA199000091GF102991021001017501061001KA1240M+03081MA1999999100801MD1999999+0111REMSYN088AAXX  12004 82198 32795 20503 10258 20240 30080 40131 82060 333 10308 29086 55021 58011;EQDQ01  00002PRCP99
0201821980999992002031212004-01710-045400FM-12+004499999V0203201N000510450019N0100001N1+02361+02281101441ADDAA124010991AY161061AY221061GF107991031011017501071001KA1240N+02231MA1999999100931MD1999999+0161MW1031REMSYN088AAXX  12124 82198 21797 73201 10236 20228 30093 40144 70362 83170 333 20223 58016 60114;
0167821980999992002031218004-01710-045400FM-12+004499999V0200901N003110450019N0100001N1+02811+02381101141ADDAA199000091GF108991041021017501041001MA1999999100631MD1999999+0171REMSYN070AAXX  12184 82198 32797 80906 10281 20238 30063 40114 84240 333 58017;EQDQ01  00002PRCP99
0198821980999992002031300004-01710-045400FM-12+004499999V0200501N002112200019N0020001N1+02611+02401101271ADDAA199000091GF103991031001017501061001KA1240M+02881MA1999999100761MD1999999-0041REMSYN088AAXX  13004 82198 32795 30504 10261 20240 30076 40127 83060 333 10288 29083 55003 59004;EQDQ01  00002PRCP99
0201821980999992002031312004-01710-045400FM-12+004499999V0200901N003610150019N0100001N1+02901+02481101391ADDAA124002091AY161061AY221061GF105991051021017501001001KA1240N+02371MA1999999100881MD1999999-0051MW1031REMSYN088AAXX  13124 82198 21797 50907 10290 20248 30088 40139 70362 85200 333 20237 59005 60024;
0182821980999992002031318004-01710-045400FM-12+004499999V0200501N005110150019N0100001N1+03021+02441101021ADDAA106003091AY161061AY221061GF105991051021017501001001MA1999999100501MD1999999-0131MW1021REMSYN082AAXX  13184 82198 21797 50510 10302 20244 30050 40102 70262 85200 333 59013 60031;
0208821980999992002031400004-01710-045400FM-12+004499999V0200501N003112200019N0020001N1+02681+02391101251ADDAA199000091GA1001+999999999GF100991001001999999001001KA1240M+03251MA1999999100741MD1999999-0021REMSYN082AAXX  14004 82198 32995 00506 10268 20239 30074 40125 333 10325 29079 55098 59002;EQDQ01  00002PRCP99
0173821980999992002031412004-01710-045400FM-12+004499999V0200501N005110150019N0100001N1+02821+02381101281ADDAA124003091GF105991051021017501001001KA1240N+02541MA1999999100761MD1999999-0121REMSYN082AAXX  14124 82198 22797 50510 10282 20238 30076 40128 85200 333 20254 59012 60034;
0167821980999992002031418004-01710-045400FM-12+004499999V0203601N007212200019N0100001N1+03021+02361101001ADDAA199000091GF105991041021017501001011MA1999999100481MD1999999-0021REMSYN070AAXX  14184 82198 32797 53614 10302 20236 30048 40100 84201 333 59002;EQDQ01  00002PRCP99
0208821980999992002031500004-01710-045400FM-12+004499999V0200501N003112200019N0020001N1+02641+02411101091ADDAA199000091GA1001+999999999GF100991001001999999001001KA1240M+03151MA1999999100571MD1999999-0171REMSYN082AAXX  15004 82198 32995 00506 10264 20241 30057 40109 333 10315 29080 55104 59017;EQDQ01  00002PRCP99
0186821980999992002031512004-01710-045400FM-12+004499999V0200501N004110450019N0100001N1+02831+02441101181ADDAA199000091GF106991041021017501061001KA1240N+02491MA1999999100671MD1999999-0091REMSYN076AAXX  15124 82198 32797 60508 10283 20244 30067 40118 84260 333 20249 59009;EQDQ01  00002PRCP99
0182821980999992002031518004-01710-045400FM-12+004499999V0201801N002110450019N0100001N1+02911+02431100891ADDAA106019191AY161061AY221061GF108991041071017501061001MA1999999100371MD1999999-0111MW1211REMSYN082AAXX  15184 82198 21797 81804 10291 20243 30037 40089 72162 84760 333 59011 60191;
0213821980999992002031600004-01710-045400FM-12+004499999V0200901N003112200019N0020001N1+02621+02441101141ADDAA106000391AY161061AY221061GF103991031021017501001001KA1240M+03041MA1999999100621MD1999999+0051MW1011REMSYN100AAXX  16004 82198 21795 30906 10262 20244 30062 40114 70162 83200 333 10304 29084 55029 58005 69931;
0173821980999992002031612004-01710-045400FM-12+004499999V0200501N003110450019N0100001N1+02841+02481101191ADDAA124019191GF106991041021017501041041KA1240N+02471MA1999999100671MD1999999+0001REMSYN082AAXX  16124 82198 22797 60506 10284 20248 30067 40119 84244 333 20247 58000 60194;
0182821980999992002031618004-01710-045400FM-12+004499999V0200501N001010150019N0100001N1+02571+02501100991ADDAA106009991AY161061AY221061GF108991051071017501061001MA1999999100471MD1999999+0101MW1031REMSYN082AAXX  16184 82198 21797 80502 10257 20250 30047 40099 70362 85760 333 58010 60101;
0213821980999992002031700004-01710-045400FM-12+004499999V0200501N003110450019N0020001N1+02591+02461101131ADDAA106000191AY151061AY221061GF106991041021017501061001KA1240M+03021MA1999999100611MD1999999-0011MW1131REMSYN100AAXX  17004 82198 21795 60506 10259 20246 30061 40113 71352 84260 333 10302 29090 55022 59001 69911;
0201821980999992002031712004-01710-045400FM-12+004499999V0200501N001010450019N0100001N1+02501+02341101171ADDAA124010991AY161061AY221061GF108991041021017501041061KA1240N+02281MA1999999100651MD1999999-0021MW1031REMSYN088AAXX  17124 82198 21797 80502 10250 20234 30065 40117 70362 84246 333 20228 59002 60114;
0167821980999992002031718004-01710-045400FM-12+004499999V0200501N005710450019N0100001N1+02931+02321100881ADDAA199000091GF107991041021017501041061MA1999999100361MD1999999-0111REMSYN070AAXX  17184 82198 32797 70511 10293 20232 30036 40088 84246 333 59011;EQDQ01  00002PRCP99
0213821980999992002031800004-01710-045400FM-12+004499999V0200901N003112200019N0020001N1+02621+02521101081ADDAA106000391AY161061AY251061GF104991041021017501001001KA1240M+03131MA1999999100561MD1999999-0051MW1011REMSYN100AAXX  18004 82198 21795 40906 10262 20252 30056 40108 70165 84200 333 10313 29088 55045 59005 69931;
0201821980999992002031812004-01710-045400FM-12+004499999V0202301N001010450019N0100001N1+02631+02331101401ADDAA124000591AY161061AY251061GF107991041051017501041061KA1240N+02351MA1999999100881MD1999999-0041MW1031REMSYN088AAXX  18124 82198 21797 72302 10263 20233 30088 40140 70365 84546 333 20235 59004 69964;
0182821980999992002031818004-01710-045400FM-12+004499999V0200501N003110450019N0100001N1+02441+02371100891ADDAA106037191AY161061AY291061GF108991041071017501061011MA1999999100371MD1999999+0011MW1171REMSYN082AAXX  18184 82198 21797 80506 10244 20237 30037 40089 71769 84761 333 58001 60371;
0198821980999992002031900004-01710-045400FM-12+004499999V0201401N002110450019N0020001N1+02511+02451100991ADDAA199000091GF105991031021017501061001KA1240M+03231MA1999999100471MD1999999-0091REMSYN088AAXX  19004 82198 32795 51404 10251 20245 30047 40099 83260 333 10323 29094 55037 59009;EQDQ01  00002PRCP99
0201821980999992002031912004-01710-045400FM-12+004499999V0203201N000510150019N0100001N1+02521+02401101131ADDAA124041991AY161061AY221061GF108991051071017501051001KA1240N+02351MA1999999100621MD1999999+0011MW1611REMSYN088AAXX  19124 82198 21797 83201 10252 20240 30062 40113 76162 85750 333 20235 58001 60424;
0182821980999992002031918004-01710-045400FM-12+004499999V0200501N003110450019N0100001N1+02661+02411100721ADDAA106000191AY151061AY221061GF108991041051017501041001MA1999999100211MD1999999-0161MW1021REMSYN082AAXX  19184 82198 21797 80506 10266 20241 30021 40072 70252 84540 333 59016 69921;
0213821980999992002032000004-01710-045400FM-12+004499999V0201401N001512200019N0020001N1+02521+02431100861ADDAA106001091AY161061AY221061GF103991031001017501061001KA1240M+02831MA1999999100351MD1999999-0121MW1011REMSYN100AAXX  20004 82198 21795 31403 10252 20243 30035 40086 70162 83060 333 10283 29092 55001 59012 60011;
0173821980999992002032012004-01710-045400FM-12+004499999V0200501N002612200019N0100001N1+02881+02481101121ADDAA124001091GF105991031021017501001011KA1240N+02301MA1999999100601MD1999999-0021REMSYN082AAXX  20124 82198 22797 50505 10288 20248 30060 40112 83201 333 20230 59002 60014;
0182821980999992002032018004-01710-045400FM-12+004499999V0200501N002110150019N0100001N1+02841+02501100781ADDAA106008991AY161061AY221061GF108991051051017501041001MA1999999100271MD1999999+0061MW1031REMSYN082AAXX  20184 82198 21797 80504 10284 20250 30027 40078 70362 85540 333 58006 60091;
0198821980999992002032100004-01710-045400FM-12+004499999V0201401N001010450019N0020001N1+02621+02481101041ADDAA199000091GF106991031011017501041001KA1240M+03191MA1999999100531MD1999999+0181REMSYN088AAXX  21004 82198 32795 61402 10262 20248 30053 40104 83140 333 10319 29080 55056 58018;EQDQ01  00002PRCP99
0173821980999992002032112004-01710-045400FM-12+004499999V0200501N005112200019N0100001N1+02971+02471101131ADDAA124008991GF104991031021017501001011KA1240N+02421MA1999999100621MD1999999+0021REMSYN082AAXX  21124 82198 22797 40510 10297 20247 30062 40113 83201 333 20242 58002 60094;
0167821980999992002032118004-01710-045400FM-12+004499999V0200501N006212200019N0100001N1+03081+02441100771ADDAA199000091GF105991031021017501001011MA1999999100261MD1999999-0011REMSYN070AAXX  21184 82198 32797 50512 10308 20244 30026 40077 83201 333 59001;EQDQ01  00002PRCP99
0198821980999992002032200004-01710-045400FM-12+004499999V0200501N003112200019N0020001N1+02661+02461100991ADDAA199000091GF103991031001017501061001KA1240M+03231MA1999999100481MD1999999-0051REMSYN088AAXX  22004 82198 32795 30506 10266 20246 30048 40099 83060 333 10323 29080 55090 59005;EQDQ01  00002PRCP99
0186821980999992002032212004-01710-045400FM-12+004499999V0200501N003610450019N0100001N1+02921+02501101091ADDAA199000091GF107991041021017501061011KA1240N+02481MA1999999100581MD1999999-0041REMSYN076AAXX  22124 82198 32797 70507 10292 20250 30058 40109 84261 333 20248 59004;EQDQ01  00002PRCP99
0167821980999992002032218004-01710-045400FM-12+004499999V0200501N004610450019N0100001N1+03041+02481100801ADDAA199000091GF107991041021017501061001MA1999999100291MD1999999+0031REMSYN070AAXX  22184 82198 32797 70509 10304 20248 30029 40080 84260 333 58003;EQDQ01  00002PRCP99
0213821980999992002032300004-01710-045400FM-12+004499999V0201401N002110450019N0020001N1+02631+02511101121ADDAA106003091AY161061AY221061GF105991031051017501061011KA1240M+03301MA1999999100601MD1999999+0121MW1171REMSYN100AAXX  23004 82198 21795 51404 10263 20251 30060 40112 71762 83561 333 10330 29085 55072 58012 60031;
0201821980999992002032312004-01710-045400FM-12+004499999V0200501N003610450019N0100001N1+02691+02461101291ADDAA124008991AY161061AY221061GF106991031021017501061011KA1240N+02371MA1999999100781MD1999999+0201MW1021REMSYN088AAXX  23124 82198 21797 60507 10269 20246 30078 40129 70262 83261 333 20237 58020 60094;
0182821980999992002032318004-01710-045400FM-12+004499999V0200501N005110150019N0100001N1+02901+02581100971ADDAA106000891AY161061AY221061GF108991051021017501041001MA1999999100461MD1999999+0171MW1021REMSYN082AAXX  23184 82198 21797 80510 10290 20258 30046 40097 70262 85240 333 58017 69971;
0213821980999992002032400004-01710-045400FM-12+004499999V0200501N004110150019N0020001N1+02391+02171101321ADDAA106036191AY161061AY221061GF108991051051017501021001KA1240M+03071MA1999999100801MD1999999+0201MW1611REMSYN100AAXX  24004 82198 21795 80508 10239 20217 30080 40132 76162 85520 333 10307 29087 55028 58020 60361;
0167821980999992002032418004-01710-045400FM-12+004499999V0203601N003610450019N0100001N1+03021+02361101011ADDAA199000091GF106991031011017501011041MA1999999100491MD1999999+0031REMSYN070AAXX  24184 82198 32797 63607 10302 20236 30049 40101 83114 333 58003;EQDQ01  00002PRCP99
0198821980999992002032500004-01710-045400FM-12+004499999V0203601N002112200019N0020001N1+02581+02441101171ADDAA199000091GF104991021011017501031001KA1240M+03081MA1999999100661MD1999999-0141REMSYN088AAXX  25004 82198 32795 43604 10258 20244 30066 40117 82130 333 10308 29086 55046 59014;EQDQ01  00002PRCP99
0186821980999992002032512004-01710-045400FM-12+004499999V0203601N004110450019N0100001N1+02821+02381101161ADDAA199000091GF106991031021017501061001KA1240N+02381MA1999999100651MD1999999-0201REMSYN076AAXX  25124 82198 32797 63608 10282 20238 30065 40116 83260 333 20238 59020;EQDQ01  00002PRCP99
0167821980999992002032518004-01710-045400FM-12+004499999V0200501N005110450019N0100001N1+02991+02121100831ADDAA199000091GF105991031021017501061001MA1999999100321MD1999999-0171REMSYN070AAXX  25184 82198 32797 50510 10299 20212 30032 40083 83260 333 59017;EQDQ01  00002PRCP99
0198821980999992002032600004-01710-045400FM-12+004499999V0203601N002112200019N0020001N1+02601+02271101091ADDAA199000091GF103991031021017501001001KA1240M+03081MA1999999100581MD1999999-0081REMSYN088AAXX  26004 82198 32795 33604 10260 20227 30058 40109 83200 333 10308 29075 55053 59008;EQDQ01  00002PRCP99
0186821980999992002032612004-01710-045400FM-12+004499999V0200901N001510150019N0100001N1+02681+02451101171ADDAA199000091GF107991051021017501061001KA1240N+02391MA1999999100661MD1999999+0011REMSYN076AAXX  26124 82198 32797 70903 10268 20245 30066 40117 85260 333 20239 58001;EQDQ01  00002PRCP99
0182821980999992002032618004-01710-045400FM-12+004499999V0203201N000510150019N0100001N1+02581+02441100821ADDAA106023191AY161061AY221061GF108991051051017501021001MA1999999100311MD1999999-0011MW1021REMSYN082AAXX  26184 82198 21797 83201 10258 20244 30031 40082 70262 85520 333 59001 60231;
0213821980999992002032700004-01710-045400FM-12+004499999V0209999C000010450019N0020001N1+02471+02301101161ADDAA106037191AY161061AY221061GF106991041051017501031011KA1240M+03021MA1999999100641MD1999999+0061MW1011REMSYN100AAXX  27004 82198 21795 60000 10247 20230 30064 40116 70162 84531 333 10302 29092 55016 58006 60371;
0173821980999992002032712004-01710-045400FM-12+004499999V0200501N002112200019N0100001N1+02921+02501101091ADDAA124059991GF104991021011017501031041KA1240N+02271MA1999999100571MD1999999-0091REMSYN082AAXX  27124 82198 22797 40504 10292 20250 30057 40109 82134 333 20227 59009 60604;
0182821980999992002032718004-01710-045400FM-12+004499999V0203201N002610150019N0100001N1+02691+02401100891ADDAA106006191AY161061AY221061GF108991051071017501061041MA1999999100371MD1999999+0061MW1171REMSYN082AAXX  27184 82198 21797 83205 10269 20240 30037 40089 71762 85764 333 58006 60061;
0226821980999992002032800004-01710-045400FM-12+004499999V0200501N002610450019N0020001N1+02591+02441101061ADDAA199000091AY121061AY221061GF106991031021017501041041KA1240M+03121MA1999999100541MD1999999-0101MW1131REMSYN094AAXX  28004 82198 31795 60505 10259 20244 30054 40106 71322 83244 333 10312 29092 55046 59010;EQDQ01  00002PRCP99
0201821980999992002032812004-01710-045400FM-12+004499999V0200901N003610450019N0100001N1+02821+02401101191ADDAA124007191AY161061AY221061GF106991011011017501041091KA1240N+02361MA1999999100671MD1999999+0101MW1021REMSYN088AAXX  28124 82198 21797 60907 10282 20240 30067 40119 70262 81149 333 20236 58010 60074;
0195821980999992002032818004-01710-045400FM-12+004499999V0200501N005110150019N0100001N1+02871+02421100881ADDAA199000091AY121061AY221061GF108991061071017501061001MA1999999100361MD1999999-0011MW1171REMSYN076AAXX  28184 82198 31797 80510 10287 20242 30036 40088 71722 86760 333 59001;EQDQ01  00002PRCP99
0213821980999992002032900004-01710-045400FM-12+004499999V0200501N002110450019N0020001N1+02601+02461101041ADDAA106000191AY161061AY221061GF106991041021017501031011KA1240M+03261MA1999999100521MD1999999-0021MW1011REMSYN100AAXX  29004 82198 21795 60504 10260 20246 30052 40104 70162 84231 333 10326 29059 55086 59002 69921;
0173821980999992002032912004-01710-045400FM-12+004499999V0200901N003610450019N0100001N1+02931+02461101071ADDAA124000191GF106991031021017501061001KA1240N+02391MA1999999100561MD1999999-0111REMSYN082AAXX  29124 82198 22797 60907 10293 20246 30056 40107 83260 333 20239 59011 69924;
0182821980999992002032918004-01710-045400FM-12+004499999V0200501N001010450019N0100001N1+02641+02521100821ADDAA106009991AY161061AY221061GF108991041021017501041061MA1999999100301MD1999999-0061MW1291REMSYN082AAXX  29184 82198 21797 80502 10264 20252 30030 40082 72962 84246 333 59006 60101;
0226821980999992002033000004-01710-045400FM-12+004499999V0200901N002110450019N0020001N1+02581+02491101071ADDAA199000091AY121061AY221061GF106991031051017501041061KA1240M+03091MA1999999100551MD1999999+0031MW1131REMSYN094AAXX  30004 82198 31795 60904 10258 20249 30055 40107 71322 83546 333 10309 29090 55027 58003;EQDQ01  00002PRCP99
0201821980999992002033012004-01710-045400FM-12+004499999V0200901N000510450019N0100001N1+02601+02401101091ADDAA124014091AY161061AY221061GF108991041051017501061041KA1240N+02311MA1999999100571MD1999999+0011MW1171REMSYN088AAXX  30124 82198 21797 80901 10260 20240 30057 40109 71762 84564 333 20231 58001 60144;
0182821980999992002033018004-01710-045400FM-12+004499999V0200501N001010450019N0100001N1+02531+02411100811ADDAA106004191AY161061AY221061GF108991041071017501011011MA1999999100291MD1999999-0011MW1021REMSYN082AAXX  30184 82198 21797 80502 10253 20241 30029 40081 70262 84711 333 59001 60041;
0198821980999992002033100004-01710-045400FM-12+004499999V0200501N000510450019N0020001N1+02491+02451101091ADDAA199000091GF105991031021017501011041KA1240M+02791MA1999999100571MD1999999+0021REMSYN088AAXX  31004 82198 32795 50501 10249 20245 30057 40109 83214 333 10279 29094 55000 58002;EQDQ01  00002PRCP99
0173821980999992002033112004-01710-045400FM-12+004499999V0200901N001510450019N0100001N1+02831+02521101231ADDAA124004191GF108991041051017501061011KA1240N+02461MA1999999100711MD1999999+0141REMSYN082AAXX  31124 82198 22797 80903 10283 20252 30071 40123 84561 333 20246 58014 60044;
0173821980999992002040112004-01710-045400FM-12+004499999V0200901N001510450019N0100001N1+02881+02521101171ADDAA124001091GF106991041011017501041061KA1240N+02361MA1999999100661MD1999999-0051REMSYN082AAXX  01124 82198 22797 60903 10288 20252 30066 40117 84146 333 20236 59005 60014;
0182821980999992002040118004-01710-045400FM-12+004499999V0200501N002110450019N0100001N1+02991+02601100821ADDAA106005191AY161061AY221061GF108991041031017501061011MA1999999100301MD1999999+0011MW1151REMSYN082AAXX  01184 82198 21797 80504 10299 20260 30030 40082 71562 84361 333 58001 60051;
0213821980999992002040200004-01710-045400FM-12+004499999V0200901N001512200019N0020001N1+02611+02481101081ADDAA106004191AY161061AY211061GF103991031021017501001001KA1240M+03281MA1999999100561MD1999999-0011MW1131REMSYN100AAXX  02004 82198 21795 30903 10261 20248 30056 40108 71361 83200 333 10328 29086 55073 59001 60041;
0173821980999992002040212004-01710-045400FM-12+004499999V0200901N002610450019N0100001N1+02751+02421101111ADDAA124008991GF105991021011017501061001KA1240N+02371MA1999999100601MD1999999-0061REMSYN082AAXX  02124 82198 22797 50905 10275 20242 30060 40111 82160 333 20237 59006 60094;
0182821980999992002040218004-01710-045400FM-12+004499999V0200901N003110450019N0100001N1+02831+02461100861ADDAA106007191AY161061AY291061GF108991041071017501041001MA1999999100351MD1999999+0051MW1151REMSYN082AAXX  02184 82198 21797 80906 10283 20246 30035 40086 71569 84740 333 58005 60071;
0198821980999992002040300004-01710-045400FM-12+004499999V0200901N003112200019N0020001N1+02601+02481101081ADDAA199000091GF104991021011017501061001KA1240M+03091MA1999999100571MD1999999+0011REMSYN088AAXX  03004 82198 32795 40906 10260 20248 30057 40108 82160 333 10309 29086 55023 58001;EQDQ01  00002PRCP99
0173821980999992002040312004-01710-045400FM-12+004499999V0200501N002610150019N0100001N1+02711+02501101271ADDAA124007191GF108991051051017501071001KA1240N+02441MA1999999100761MD1999999+0161REMSYN082AAXX  03124 82198 22797 80505 10271 20250 30076 40127 85570 333 20244 58016 60074;
0182821980999992002040318004-01710-045400FM-12+004499999V0200901N005710150019N0100001N1+02881+02391100941ADDAA106016091AY161061AY221061GF108991051051017501041001MA1999999100431MD1999999+0081MW1021REMSYN082AAXX  03184 82198 21797 80911 10288 20239 30043 40094 70262 85540 333 58008 60161;
0213821980999992002040400004-01710-045400FM-12+004499999V0200901N001510450019N0020001N1+02531+02381101281ADDAA124000191AY151061AY221061GF106991031051017501041001KA1240M+02941MA1999999100761MD1999999+0191MW1011REMSYN100AAXX  04004 82198 21795 60903 10253 20238 30076 40128 70152 83540 333 10294 29087 55005 58019 69914;
0190821980999992002040412004-01710-045400FM-12+004499999V0200901N002110150019N0100001N1+02641+02501101261ADDAY161061AY221061GF108991061051017501041001KA1240N+02361MA1999999100751MD1999999-0011MW1031REMSYN088AAXX  04124 82198 21797 80904 10264 20250 30075 40126 70362 86540 333 20236 59001 00174;
0182821980999992002040418004-01710-045400FM-12+004499999V0200901N003610150019N0100001N1+02631+02441100911ADDAA106010991AY161061AY221061GF108991051051017501021001MA1999999100401MD1999999-0031MW1151REMSYN082AAXX  04184 82198 21797 80907 10263 20244 30040 40091 71562 85520 333 59003 60111;
0201821980999992002040512004-01710-045400FM-12+004499999V0200901N003110150019N0100001N1+02401+02261101291ADDAA124064091AY161061AY221061GF108991061071017501011001KA1240N+02291MA1999999100781MD1999999+0031MW1021REMSYN088AAXX  05124 82198 21797 80906 10240 20226 30078 40129 70262 86710 333 20229 58003 60644;
0182821980999992002040518004-01710-045400FM-12+004499999V0200501N001510450019N0100001N1+02821+02401100831ADDAA106000591AY151061AY221061GF108991041021017501041001MA1999999100321MD1999999-0081MW1021REMSYN082AAXX  05184 82198 21797 80503 10282 20240 30032 40083 70252 84240 333 59008 69951;
0198821980999992002040600004-01710-045400FM-12+004499999V0200901N002112200019N0020001N1+02531+02381101091ADDAA199000091GF104991021011017501071001KA1240M+02871MA1999999100581MD1999999-0041REMSYN088AAXX  06004 82198 32795 40904 10253 20238 30058 40109 82170 333 10287 29088 55003 59004;EQDQ01  00002PRCP99
0173821980999992002040612004-01710-045400FM-12+004499999V0200501N001510450019N0100001N1+02761+02461101131ADDAA124000591GF107991041021017501061011KA1240N+02381MA1999999100621MD1999999-0161REMSYN082AAXX  06124 82198 22797 70503 10276 20246 30062 40113 84261 333 20238 59016 69954;
0182821980999992002040618004-01710-045400FM-12+004499999V0200901N002110150019N0100001N1+02521+02421100821ADDAA106023991AY161061AY221061GF108991051051017501021001MA1999999100301MD1999999-0021MW1511REMSYN082AAXX  06184 82198 21797 80904 10252 20242 30030 40082 75162 85520 333 59002 60241;
0213821980999992002040700004-01710-045400FM-12+004499999V0200501N002110150019N0020001N1+02411+02331101091ADDAA106100191AY161061AY251061GF108991051051017501021001KA1240M+02861MA1999999100581MD1999999+0001MW1161REMSYN100AAXX  07004 82198 21795 80504 10241 20233 30058 40109 71665 85520 333 10286 29018 55091 58000 61001;
0201821980999992002040712004-01710-045400FM-12+004499999V0201801N004110450019N0100001N1+02251+02161101421ADDAA124173091AY161061AY221061GF108991031051017501021001KA1240N+02201MA1999999100911MD1999999+0301MW1631REMSYN088AAXX  07124 82198 21797 81808 10225 20216 30091 40142 76362 83520 333 20220 58030 61734;
0182821980999992002040718004-01710-045400FM-12+004499999V0203201N002110150019N0100001N1+02701+02431100961ADDAA106003091AY161061AY221061GF108991051021017501041001MA1999999100451MD1999999+0151MW1021REMSYN082AAXX  07184 82198 21797 83204 10270 20243 30045 40096 70262 85240 333 58015 60031;
0179821980999992002040800004-01710-045400FM-12+004499999V0200501N000510450019N0020001N1+02471+02391101031ADDAA199000021GF105991031021017501041001KA1240M+02711MA1999999100521MD1999999-0061REMSYN088AAXX  08004 82198 32795 50501 10247 20239 30052 40103 83240 333 10271 29090 55000 59006;
0173821980999992002040812004-01710-045400FM-12+004499999V0200501N001510450019N0100001N1+02661+02411101161ADDAA124003091GF106991021021017501031001KA1240N+02241MA1999999100651MD1999999-0271REMSYN082AAXX  08124 82198 22797 60503 10266 20241 30065 40116 82230 333 20224 59027 60034;
0167821980999992002040818004-01710-045400FM-12+004499999V0200501N006212200019N0100001N1+02981+02331100811ADDAA199000091GF104991021021017501061001MA1999999100301MD1999999-0151REMSYN070AAXX  08184 82198 32797 40512 10298 20233 30030 40081 82260 333 59015;EQDQ01  00002PRCP99
0198821980999992002040900004-01710-045400FM-12+004499999V0200501N001512200019N0020001N1+02601+02391101031ADDAA199000091GF103991031021017501001001KA1240M+03261MA1999999100521MD1999999+0001REMSYN088AAXX  09004 82198 32795 30503 10260 20239 30052 40103 83200 333 10326 29082 55067 58000;EQDQ01  00002PRCP99
0186821980999992002040912004-01710-045400FM-12+004499999V0200501N002110450019N0100001N1+02821+02581101051ADDAA199000091GF106991041021017501061011KA1240N+02251MA1999999100531MD1999999-0121REMSYN076AAXX  09124 82198 32797 60504 10282 20258 30053 40105 84261 333 20225 59012;EQDQ01  00002PRCP99
0182821980999992002040918004-01710-045400FM-12+004499999V0200501N005010450019N0100001N1+02651+02401100791ADDAA106002091AY161061AY221061GF108991041071017501061011MA1999999100271MD1999999-0031MW1031REMSYN082AAXX  09181 82198 21797 80505 10265 20240 30027 40079 70362 84761 333 59003 60021;
0173821980999992002041012004-01710-045400FM-12+004499999V0200501N001010450019N0100001N1+02741+02581101081ADDAA124002091GF106991031021017501061041KA1240N+02311MA1999999100561MD1999999+0031REMSYN082AAXX  10124 82198 22797 60502 10274 20258 30056 40108 83264 333 20231 58003 60024;
0195821980999992002041018004-01710-045400FM-12+004499999V0200501N004110450019N0100001N1+02791+02441100721ADDAA199000091AY121061AY221061GF108991041021017501011061MA1999999100201MD1999999-0071MW1171REMSYN076AAXX  10184 82198 31797 80508 10279 20244 30020 40072 71722 84216 333 59007;EQDQ01  00002PRCP99
0213821980999992002041100004-01710-045400FM-12+004499999V0203201N000510450019N0020001N1+02461+02341101131ADDAA106004191AY161061AY221061GF106991031021017501061001KA1240M+03181MA1999999100611MD1999999+0101MW1131REMSYN100AAXX  11004 82198 21795 63201 10246 20234 30061 40113 71362 83260 333 10318 29090 55056 58010 60041;
0201821980999992002041112004-01710-045400FM-12+004499999V0203201N002610450019N0100001N1+02471+02311101231ADDAA124017091AY161061AY221061GF108991041051017501061001KA1240N+02321MA1999999100711MD1999999+0151MW1031REMSYN088AAXX  11124 82198 21797 83205 10247 20231 30071 40123 70362 84560 333 20232 58015 60174;
0182821980999992002041118004-01710-045400FM-12+004499999V0203201N003610450019N0100001N1+02661+02451100901ADDAA106004191AY151061AY221061GF108991041071017501021001MA1999999100381MD1999999+0181MW1631REMSYN082AAXX  11184 82198 21797 83207 10266 20245 30038 40090 76352 84720 333 58018 60041;
0213821980999992002041200004-01710-045400FM-12+004499999V0209999C000010150019N0020001N1+02341+02311101171ADDAA106029091AY161061AY221061GF108991051051017501061001KA1240M+03041MA1999999100651MD1999999+0041MW1021REMSYN100AAXX  12004 82198 21795 80000 10234 20231 30065 40117 70262 85560 333 10304 29094 55011 58004 60291;
0201821980999992002041212004-01710-045400FM-12+004499999V0202701N001010450019N0100001N1+02441+02371101311ADDAA124038191AY161061AY221061GF108991041051017501011001KA1240N+02261MA1999999100791MD1999999+0081MW1021REMSYN088AAXX  12124 82198 21797 82702 10244 20237 30079 40131 70262 84510 333 20226 58008 60384;
0167821980999992002041218004-01710-045400FM-12+004499999V0202301N001010450019N0100001N1+03191+02581100991ADDAA199000091GF108991041021017501011041MA1999999100471MD1999999+0091REMSYN070AAXX  12184 82198 32797 82302 10319 20258 30047 40099 84214 333 58009;EQDQ01  00002PRCP99
0186821980999992002041312004-01710-045400FM-12+004499999V0200501N003110450019N0020001N1+02891+02361101101ADDAA199000091GF107991031011017501041091KA1240N+02411MA1999999100581MD1999999-0211REMSYN076AAXX  13124 82198 32795 70506 10289 20236 30058 40110 83149 333 20241 59021;EQDQ01  00002PRCP99
0167821980999992002041318004-01710-045400FM-12+004499999V0203601N004610450019N0100001N1+02941+02361100951ADDAA199000091GF107991031011017501041061MA1999999100431MD1999999-0041REMSYN070AAXX  13184 82198 32797 73609 10294 20236 30043 40095 83146 333 59004;EQDQ01  00002PRCP99
0213821980999992002041400004-01710-045400FM-12+004499999V0200501N003112200019N0020001N1+02571+02461101141ADDAA106000191AY151061AY221061GF104991021051017501061001KA1240M+03161MA1999999100621MD1999999-0041MW1131REMSYN100AAXX  14004 82198 21795 40506 10257 20246 30062 40114 71352 82560 333 10316 29083 55044 59004 69911;
0173821980999992002041412004-01710-045400FM-12+004499999V0203601N003612200019N0100001N1+02881+02441101281ADDAA124000191GF106991041021017501001041KA1240N+02371MA1999999100771MD1999999+0191REMSYN082AAXX  14124 82198 22797 63607 10288 20244 30077 40128 84204 333 20237 58019 69914;
0167821980999992002041418004-01710-045400FM-12+004499999V0203601N005110150019N0100001N1+03081+02401100861ADDAA199000091GF106991061021017501001001MA1999999100341MD1999999-0091REMSYN070AAXX  14184 82198 32797 63610 10308 20240 30034 40086 86200 333 59009;EQDQ01  00002PRCP99
0198821980999992002041500004-01710-045400FM-12+004499999V0200501N004112200019N0020001N1+02651+02371101061ADDAA199000091GF102991021021017501001001KA1240M+03151MA1999999100551MD1999999-0071REMSYN088AAXX  15004 82198 32795 20508 10265 20237 30055 40106 82200 333 10315 29080 55083 59007;EQDQ01  00002PRCP99
0186821980999992002041512004-01710-045400FM-12+004499999V0200501N002610450019N0100001N1+02901+02601101321ADDAA199000091GF106991031021017501031041KA1240N+02361MA1999999100801MD1999999+0031REMSYN076AAXX  15124 82198 32797 60505 10290 20260 30080 40132 83234 333 20236 58003;EQDQ01  00002PRCP99
0213821980999992002041600004-01710-045400FM-12+004499999V0203201N002610450019N0020001N1+02551+02501101221ADDAA106001091AY161061AY221061GF105991031021017501061001KA1240M+03071MA1999999100701MD1999999+0151MW1011REMSYN100AAXX  16004 82198 21795 53205 10255 20250 30070 40122 70162 83260 333 10307 29090 55031 58015 60011;
0201821980999992002041612004-01710-045400FM-12+004499999V0202701N004110150019N0100001N1+02471+02341101441ADDAA124027991AY161061AY221061GF108991061051017501041001KA1240N+02281MA1999999100921MD1999999+0121MW1161REMSYN088AAXX  16124 82198 21797 82708 10247 20234 30092 40144 71662 86540 333 20228 58012 60284;
0182821980999992002041618004-01710-045400FM-12+004499999V0201401N002610150019N0100001N1+02461+02341101191ADDAA106006191AY161061AY221061GF108991051071017501041001MA1999999100681MD1999999+0281MW1021REMSYN082AAXX  16184 82198 21797 81405 10246 20234 30068 40119 70262 85740 333 58028 60061;
0167821980999992002041718004-01710-045400FM-12+004499999V0203601N003110450019N0100001N1+02881+02501101011ADDAA199000091GF107991031021017501041001MA1999999100501MD1999999-0181REMSYN070AAXX  17184 82198 32797 73606 10288 20250 30050 40101 83240 333 59018;EQDQ01  00002PRCP99
0208821980999992002041800004-01710-045400FM-12+004499999V0200501N003112200019N0020001N1+02581+02441101261ADDAA199000091GA1001+999999999GF100991001001999999001001KA1240M+03221MA1999999100751MD1999999-0111REMSYN082AAXX  18004 82198 32995 00506 10258 20244 30075 40126 333 10322 29086 55062 59011;EQDQ01  00002PRCP99
0186821980999992002041812004-01710-045400FM-12+004499999V0200501N001510150019N0100001N1+02901+02541101271ADDAA199000091GF106991061021017501001001KA1240N+02291MA1999999100761MD1999999-0121REMSYN076AAXX  18124 82198 32797 60503 10290 20254 30076 40127 86200 333 20229 59012;EQDQ01  00002PRCP99
0182821980999992002041818004-01710-045400FM-12+004499999V0201801N003110450019N0100001N1+02401+02311100961ADDAA106037191AY161061AY221061GF108991041051017501041001MA1999999100451MD1999999-0051MW1161REMSYN082AAXX  18184 82198 21797 81806 10240 20231 30045 40096 71662 84540 333 59005 60371;
0198821980999992002041900004-01710-045400FM-12+004499999V0200501N002612200019N0020001N1+02541+02381101121ADDAA199000091GF104991021011017501061001KA1240M+03191MA1999999100601MD1999999-0151REMSYN088AAXX  19004 82198 32795 40505 10254 20238 30060 40112 82160 333 10319 29089 55059 59015;EQDQ01  00002PRCP99
0201821980999992002041912004-01710-045400FM-12+004499999V0200501N004110150019N0100001N1+02931+02501101131ADDAA124037191AY151061AY221061GF106991051021017501001011KA1240N+02351MA1999999100621MD1999999-0141MW1031REMSYN088AAXX  19124 82198 21797 60508 10293 20250 30062 40113 70352 85201 333 20235 59014 60374;
0182821980999992002041918004-01710-045400FM-12+004499999V0200501N001510450019N0100001N1+02741+02431100811ADDAA106001091AY161061AY221061GF108991031011017501041001MA1999999100301MD1999999-0151MW1031REMSYN082AAXX  19184 82198 21797 80503 10274 20243 30030 40081 70362 83140 333 59015 60011;
0213821980999992002042000004-01710-045400FM-12+004499999V0200501N001512200019N0020001N1+02541+02451101021ADDAA106000591AY161061AY221061GF104991021011017501061001KA1240M+03111MA1999999100511MD1999999-0091MW1011REMSYN100AAXX  20004 82198 21795 40503 10254 20245 30051 40102 70162 82160 333 10311 29088 55035 59009 69961;
0201821980999992002042012004-01710-045400FM-12+004499999V0200501N002610450019N0100001N1+02821+02481101131ADDAA124002091AY161061AY221061GF106991031021017501031011KA1240N+02371MA1999999100621MD1999999+0001MW1021REMSYN088AAXX  20124 82198 21797 60505 10282 20248 30062 40113 70262 83231 333 20237 58000 60024;
0182821980999992002042018004-01710-045400FM-12+004499999V0203201N001010450019N0100001N1+02541+02451100761ADDAA106026991AY161061AY221061GF107991031021017501061001MA1999999100251MD1999999-0051MW1021REMSYN082AAXX  20184 82198 21797 73202 10254 20245 30025 40076 70262 83260 333 59005 60271;
0182821980999992002042118004-01710-045400FM-12+004499999V0200501N000510150019N0100001N1+02411+02331100871ADDAA106040991AY161061AY291061GF108991051051017501021001MA1999999100361MD1999999+0111MW1511REMSYN082AAXX  21184 82198 21797 80501 10241 20233 30036 40087 75169 85520 333 58011 60411;
0213821980999992002042200004-01710-045400FM-12+004499999V0201401N001510450019N0020001N1+02501+02471101041ADDAA106000391AY151061AY221061GF106991031051017501041001KA1240M+02941MA1999999100531MD1999999+0031MW1021REMSYN100AAXX  22004 82198 21795 61403 10250 20247 30053 40104 70252 83540 333 10294 29090 55003 58003 69931;
0201821980999992002042212004-01710-045400FM-12+004499999V0200501N002611050019N0100001N1+02651+02441101011ADDAA124058991AY161061AY221061GF105991021021017501061011KA1240N+02331MA1999999100501MD1999999-0161MW1011REMSYN088AAXX  22124 82198 21797 50505 10265 20244 30050 40101 70162 82261 333 20233 59016 60594;
0182821980999992002042218004-01710-045400FM-12+004499999V0200501N005110150019N0100001N1+02931+02451100711ADDAA106000591AY161061AY221061GF108991051071017501041001MA1999999100201MD1999999-0161MW1031REMSYN082AAXX  22184 82198 21797 80510 10293 20245 30020 40071 70362 85740 333 59016 69941;
0201821980999992002042312004-01710-045400FM-12+004499999V0200501N001010450019N0100001N1+02621+02501101021ADDAA124007991AY161061AY221061GF108991041051017501011041KA1240N+02331MA1999999100501MD1999999+0001MW1021REMSYN088AAXX  23124 82198 21797 80502 10262 20250 30050 40102 70262 84514 333 20233 58000 60084;
0182821980999992002042318004-01710-045400FM-12+004499999V0203601N003110450019N0100001N1+02951+02461100691ADDAA106000591AY161061AY221061GF107991041021017501011041MA1999999100171MD1999999-0031MW1021REMSYN082AAXX  23184 82198 21797 73606 10295 20246 30017 40069 70262 84214 333 59003 69951;
0213821980999992002042400004-01710-045400FM-12+004499999V0201401N001010450019N0020001N1+02411+02351101091ADDAA106032091AY161061AY221061GF108991041071017501061001KA1240M+03001MA1999999100571MD1999999+0071MW1131REMSYN100AAXX  24004 82198 21795 81402 10241 20235 30057 40109 71362 84760 333 10300 29090 55025 58007 60321;
0201821980999992002042412004-01710-045400FM-12+004499999V0202301N001010150019N0100001N1+02541+02491101031ADDAA124036191AY161061AY251061GF108991061031017501011001KA1240N+02351MA1999999100511MD1999999+0011MW1021REMSYN088AAXX  24124 82198 21797 82302 10254 20249 30051 40103 70265 86310 333 20235 58001 60364;
0167821980999992002042418004-01710-045400FM-12+004499999V0200501N002110450019N0100001N1+02711+02431100721ADDAA199000091GF108991041051017501011001MA1999999100201MD1999999+0031REMSYN070AAXX  24184 82198 32797 80504 10271 20243 30020 40072 84510 333 58003;EQDQ01  00002PRCP99
0198821980999992002042500004-01710-045400FM-12+004499999V0203201N002110450019N0020001N1+02521+02421101041ADDAA199000091GF108991041021017501031001KA1240M+02791MA1999999100521MD1999999-0051REMSYN088AAXX  25004 82198 32795 83204 10252 20242 30052 40104 84230 333 10279 29092 55000 59005;EQDQ01  00002PRCP99
0186821980999992002042512004-01710-045400FM-12+004499999V0200501N001510450019N0100001N1+02541+02511101251ADDAA199000091GF108991041031017501011041KA1240N+02311MA1999999100731MD1999999-0221REMSYN076AAXX  25124 82198 32797 80503 10254 20251 30073 40125 84314 333 20231 59022;EQDQ01  00002PRCP99
0182821980999992002042518004-01710-045400FM-12+004499999V0200501N001010450019N0100001N1+02471+02331100901ADDAA106009991AY161061AY221061GF108991041031017501061001MA1999999100381MD1999999+0181MW1511REMSYN082AAXX  25184 82198 21797 80502 10247 20233 30038 40090 75162 84360 333 58018 60101;
0173821980999992002042612004-01710-045400FM-12+004499999V0201401N003112200019N0100001N1+02721+02471101101ADDAA124009991GF104991031021017501061061KA1240N+02421MA1999999100681MD1999999-0051REMSYN082AAXX  26124 82198 22797 41406 10272 20247 30068 40110 83266 333 20242 59005 60104;
0182821980999992002042618004-01710-045400FM-12+004499999V0200501N002610450019N0100001N1+02701+02411100851ADDAA106001091AY161061AY221061GF107991041071017501061011MA1999999100331MD1999999-0051MW1171REMSYN082AAXX  26184 82198 21797 70505 10270 20241 30033 40085 71762 84761 333 59005 60011;
0198821980999992002042700004-01710-045400FM-12+004499999V0200501N002110450019N0020001N1+02581+02441101131ADDAA199000091GF108991041021017501041061KA1240M+03291MA1999999100611MD1999999+0041REMSYN088AAXX  27004 82198 32795 80504 10258 20244 30061 40113 84246 333 10329 29088 55051 58004;EQDQ01  00002PRCP99
0173821980999992002042712004-01710-045400FM-12+004499999V0203201N001010450019N0100001N1+02621+02441101221ADDAA124001091GF107991031021017501041061KA1240N+02291MA1999999100701MD1999999+0021REMSYN082AAXX  27124 82198 22797 73202 10262 20244 30070 40122 83246 333 20229 58002 60014;
0167821980999992002042718004-01710-045400FM-12+004499999V0203601N004611050019N0100001N1+03101+02361100841ADDAA199000091GF105991021021017501041041MA1999999100321MD1999999+0021REMSYN070AAXX  27184 82198 32797 53609 10310 20236 30032 40084 82244 333 58002;EQDQ01  00002PRCP99
0226821980999992002042800004-01710-045400FM-12+004499999V0202701N001010450019N0020001N1+02521+02431101081ADDAA199000091AY121061AY221061GF108991041071017501061001KA1240M+03311MA1999999100561MD1999999-0051MW1131REMSYN094AAXX  28004 82198 31795 82702 10252 20243 30056 40108 71322 84760 333 10331 29086 55075 59005;EQDQ01  00002PRCP99
0201821980999992002042812004-01710-045400FM-12+004499999V0200501N004610450019N0100001N1+02691+02401101221ADDAA124030091AY161061AY221061GF108991041051017501041061KA1240N+02311MA1999999100701MD1999999+0001MW1021REMSYN088AAXX  28124 82198 21797 80509 10269 20240 30070 40122 70262 84546 333 20231 58000 60304;
0167821980999992002042818004-01710-045400FM-12+004499999V0200501N002610450019N0100001N1+02691+02371100891ADDAA199000091GF108991031071017501061041MA1999999100371MD1999999+0051REMSYN070AAXX  28184 82198 32797 80505 10269 20237 30037 40089 83764 333 58005;EQDQ01  00002PRCP99
0198821980999992002042900004-01710-045400FM-12+004499999V0200501N004110450019N0020001N1+02551+02501101131ADDAA199000091GF106991031021017501011041KA1240M+03141MA1999999100611MD1999999+0051REMSYN088AAXX  29004 82198 32795 60508 10255 20250 30061 40113 83214 333 10314 29091 55015 58005;EQDQ01  00002PRCP99
0201821980999992002042912004-01710-045400FM-12+004499999V0200901N001510450019N0100001N1+02731+02461101181ADDAA124001091AY161061AY221061GF107991031051017501061001KA1240N+02351MA1999999100661MD1999999-0041MW1021REMSYN088AAXX  29124 82198 21797 70903 10273 20246 30066 40118 70262 83560 333 20235 59004 60014;
0182821980999992002042918004-01710-045400FM-12+004499999V0201401N001010450019N0100001N1+02901+02641100981ADDAA106009991AY161061AY221061GF108991041071017501061001MA1999999100461MD1999999+0091MW1601REMSYN082AAXX  29184 82198 21797 81402 10290 20264 30046 40098 76062 84760 333 58009 60101;
0213821980999992002043000004-01710-045400FM-12+004499999V0200501N002612200019N0020001N1+02551+02531101221ADDAA106008991AY161061AY221061GF103991021011017501041041KA1240M+03131MA1999999100701MD1999999+0091MW1131REMSYN100AAXX  30004 82198 21795 30505 10255 20253 30070 40122 71362 82144 333 10313 29091 55045 58009 60091;
0173821980999992002043012004-01710-045400FM-12+004499999V0200501N002112200019N0100001N1+02931+02501101441ADDAA124019191GF106991041021017501001011KA1240N+02351MA1999999100931MD1999999+0201REMSYN082AAXX  30124 82198 22797 60504 10293 20250 30093 40144 84201 333 20235 58020 60194;
0182821980999992002043018004-01710-045400FM-12+004499999V0202701N001010150019N0100001N1+02581+02441101181ADDAA106025991AY161061AY221061GF107991051021017501041001MA1999999100671MD1999999+0211MW1031REMSYN082AAXX  30184 82198 21797 72702 10258 20244 30067 40118 70362 85240 333 58021 60261;
0198821980999992002050100004-01710-045400FM-12+004499999V0200501N001510450019N0020001N1+02541+02471101331ADDAA199000091GF105991031051017501041001KA1240M+03021MA1999999100821MD1999999+0121REMSYN088AAXX  01004 82198 32795 50503 10254 20247 30082 40133 83540 333 10302 29090 55029 58012;EQDQ01  00002PRCP99
0173821980999992002050112004-01710-045400FM-12+004499999V0203601N003612200019N0100001N1+02861+02541101331ADDAA124025991GF104991021011017501061001KA1240N+02341MA1999999100821MD1999999-0111REMSYN082AAXX  01124 82198 32797 43607 10286 20254 30082 40133 82160 333 20234 59011 60264;
0167821980999992002050118004-01710-045400FM-12+004499999V0203601N005112200019N0100001N1+03041+02481100961ADDAA199000091GF104991041021017501001001MA1999999100451MD1999999-0221REMSYN070AAXX  01184 82198 32797 43610 10304 20248 30045 40096 84200 333 59022;EQDQ01  00002PRCP99
0182821980999992002050218004-01710-045400FM-12+004499999V0203601N004610150019N0100001N1+02641+02331101041ADDAA106000591AY161061AY221061GF108991051051017501041001MA1999999100531MD1999999+0081MW1021REMSYN082AAXX  02184 82198 21797 83609 10264 20233 30053 40104 70262 85540 333 58008 69941;
0198821980999992002050300004-01710-045400FM-12+004499999V0201801N002610450019N0020001N1+02521+02421101211ADDAA199000091GF106991041051017501041001KA1240M+03021MA1999999100701MD1999999-0021REMSYN088AAXX  03004 82198 32795 61805 10252 20242 30070 40121 84540 333 10302 29088 55040 59002;EQDQ01  00002PRCP99
0201821980999992002050312004-01710-045400FM-12+004499999V0200501N002110450019N0100001N1+02761+02501101281ADDAA124002091AY161061AY221061GF108991041021017501031001KA1240N+02331MA1999999100771MD1999999-0051MW1031REMSYN088AAXX  03124 82198 21797 80504 10276 20250 30077 40128 70362 84230 333 20233 59005 60024;
0167821980999992002050318004-01710-045400FM-12+004499999V0203601N005112200019N0100001N1+03051+02281100831ADDAA199000091GF105991041021017501001011MA1999999100321MD1999999-0211REMSYN070AAXX  03184 82198 32797 53610 10305 20228 30032 40083 84201 333 59021;EQDQ01  00002PRCP99
0208821980999992002050400004-01710-045400FM-12+004499999V0200501N003112200019N0020001N1+02631+02411101091ADDAA199000091GA1001+999999999GF100991001001999999001001KA1240M+03151MA1999999100581MD1999999-0121REMSYN082AAXX  04004 82198 32995 00506 10263 20241 30058 40109 333 10315 29082 55061 59012;EQDQ01  00002PRCP99
0186821980999992002050412004-01710-045400FM-12+004499999V0200501N004112200019N0100001N1+02981+02511101311ADDAA199000091GF104991031021017501001011KA1240N+02401MA1999999100801MD1999999+0031REMSYN076AAXX  04124 82198 32797 40508 10298 20251 30080 40131 83201 333 20240 58003;EQDQ01  00002PRCP99
0182821980999992002050418004-01710-045400FM-12+004499999V0200501N005110150019N0100001N1+02641+02461101121ADDAA106018091AY161061AY221061GF108991051051017501021001MA1999999100601MD1999999+0281MW1031REMSYN082AAXX  04184 82198 21797 80510 10264 20246 30060 40112 70362 85520 333 58028 60181;
0208821980999992002050500004-01710-045400FM-12+004499999V0200501N002612200019N0020001N1+02601+02461101281ADDAA199000091GA1001+999999999GF100991001001999999001001KA1240M+03161MA1999999100771MD1999999+0191REMSYN082AAXX  05004 82198 32995 00505 10260 20246 30077 40128 333 10316 29088 55053 58019;EQDQ01  00002PRCP99
0173821980999992002050512004-01710-045400FM-12+004499999V0200501N006210150019N0100001N1+02931+02451101381ADDAA124018091GF105991051021017501001001KA1240N+02491MA1999999100871MD1999999-0071REMSYN082AAXX  05124 82198 22797 50512 10293 20245 30087 40138 85200 333 20249 59007 60184;
0182821980999992002050518004-01710-045400FM-12+004499999V0200501N005110150019N0100001N1+02551+02331101131ADDAA106003091AY161061AY221061GF106991051021017501061001MA1999999100621MD1999999+0021MW1151REMSYN082AAXX  05184 82198 21797 60510 10255 20233 30062 40113 71562 85260 333 58002 60031;
0173821980999992002050612004-01710-045400FM-12+004499999V0200501N004110150019N0100001N1+02941+02621101461ADDAA124003091GF106991061021017501001001KA1240N+02491MA1999999100951MD1999999+0081REMSYN082AAXX  06124 82198 22797 60508 10294 20262 30095 40146 86200 333 20249 58008 60034;
0182821980999992002050618004-01710-045400FM-12+004499999V0201401N004610150019N0100001N1+02561+02401101111ADDAA106033091AY161061AY221061GF108991051051017501021001MA1999999100601MD1999999-0021MW1631REMSYN082AAXX  06184 82198 21797 81409 10256 20240 30060 40111 76362 85520 333 59002 60331;
0213821980999992002050700004-01710-045400FM-12+004499999V0200501N002612200019N0020001N1+02601+02401101311ADDAA106050091AY161061AY221061GF102991021001017501061001KA1240M+03151MA1999999100801MD1999999-0021MW1021REMSYN100AAXX  07004 82198 21795 20505 10260 20240 30080 40131 70262 82060 333 10315 29088 55058 59002 60501;
0173821980999992002050712004-01710-045400FM-12+004499999V0203601N003610450019N0100001N1+02881+02521101361ADDAA124082091GF107991031021017501041041KA1240N+02351MA1999999100841MD1999999-0111REMSYN082AAXX  07124 82198 22797 73607 10288 20252 30084 40136 83244 333 20235 59011 60824;
0182821980999992002050718004-01710-045400FM-12+004499999V0203601N005710450019N0100001N1+02881+02391100961ADDAA106004191AY161061AY221061GF106991031051017501011061MA1999999100401MD1999999-0201MW1021REMSYN082AAXX  07184 82198 21797 63611 10288 20239 30040 40096 70262 83516 333 59020 60041;
0198821980999992002050800004-01710-045400FM-12+004499999V0209999C000010450019N0020001N1+02521+02421101251ADDAA199000091GF105991031021017501061001KA1240M+03081MA1999999100731MD1999999-0071REMSYN088AAXX  08004 82198 32795 50000 10252 20242 30073 40125 83260 333 10308 29086 55061 59007;EQDQ01  00002PRCP99
0173821980999992002050812004-01710-045400FM-12+004499999V0200501N003112200019N0100001N1+02971+02571101341ADDAA124004191GF106991041021017501001041KA1240N+02351MA1999999100821MD1999999-0021REMSYN082AAXX  08124 82198 22797 60506 10297 20257 30082 40134 84204 333 20235 59002 60044;
0182821980999992002050818004-01710-045400FM-12+004499999V0200501N003110450019N0100001N1+02491+02331101051ADDAA106019191AY161061AY251061GF108991041071017501061001MA1999999100531MD1999999+0131MW1201REMSYN082AAXX  08184 82198 21797 80506 10249 20233 30053 40105 72065 84760 333 58013 60191;
0179821980999992002050900004-01710-045400FM-12+004499999V0200501N001510450019N0020001N1+02501+02471101221ADDAA199000021GF106991041021017501061001KA1240M+03041MA1999999100701MD1999999-0031REMSYN088AAXX  09004 82198 32795 60503 10250 20247 30070 40122 84260 333 10304 29092 55032 59003;
0201821980999992002050912004-01710-045400FM-12+004499999V0200501N001512200019N0100001N1+02941+02541101381ADDAA124020191AY161061AY251061GF106991031021017501001011KA1240N+02361MA1999999100861MD1999999+0041MW1021REMSYN088AAXX  09124 82198 21797 60503 10294 20254 30086 40138 70265 83201 333 20236 58004 60204;
0182821980999992002050918004-01710-045400FM-12+004499999V0202301N001510150019N0100001N1+02601+02501101171ADDAA106011991AY161061AY221061GF108991051071017501011001MA1999999100651MD1999999+0121MW1031REMSYN082AAXX  09184 82198 21797 82303 10260 20250 30065 40117 70362 85710 333 58012 60121;
0198821980999992002051000004-01710-045400FM-12+004499999V0209999C000012200019N0020001N1+02421+02351101221ADDAA199000091GF102991021011017501001001KA1240M+03161MA1999999100701MD1999999+0001REMSYN088AAXX  10000 82198 32795 20000 10242 20235 30070 40122 82100 333 10316 29092 55035 58000;EQDQ01  00002PRCP99
0201821980999992002051012004-01710-045400FM-12+004499999V0200501N002610150019N0100001N1+02471+02331101451ADDAA124015091AY161061AY251061GF108991061071017501011001KA1240N+02311MA1999999100931MD1999999+0071MW1021REMSYN088AAXX  10124 82198 21797 80505 10247 20233 30093 40145 70265 86710 333 20231 58007 60154;
0167821980999992002051018004-01710-045400FM-12+004499999V0200901N003110450019N0100001N1+02991+02571101061ADDAA199000091GF106991041051017501041091MA1999999100541MD1999999-0111REMSYN070AAXX  10184 82198 32797 60906 10299 20257 30054 40106 84549 333 59011;EQDQ01  00002PRCP99
0208821980999992002051100004-01710-045400FM-12+004499999V0200501N002112200019N0020001N1+02641+02461101341ADDAA199000091GA1001+999999999GF100991001001999999001001KA1240M+03171MA1999999100821MD1999999+0121REMSYN082AAXX  11004 82198 32995 00504 10264 20246 30082 40134 333 10317 29088 55006 58012;EQDQ01  00002PRCP99
0186821980999992002051112004-01710-045400FM-12+004499999V0200501N004110150019N0100001N1+02851+02481101371ADDAA199000091GF108991051051017501031061KA1240N+02471MA1999999100851MD1999999-0081REMSYN076AAXX  11124 82198 32797 80508 10285 20248 30085 40137 85536 333 20247 59008;EQDQ01  00002PRCP99
0182821980999992002051118004-01710-045400FM-12+004499999V0200501N005110450019N0100001N1+03001+02441100911ADDAA106001091AY161061AY221061GF107991041021017501041011MA1999999100491MD1999999-0051MW1021REMSYN082AAXX  11184 82198 21797 70510 10300 20244 30049 40091 70262 84241 333 59005 60011;
0226821980999992002051200004-01710-045400FM-12+004499999V0200501N003112200019N0020001N1+02681+02541101231ADDAA199000091AY121061AY211061GF102991021011017501001001KA1240M+03331MA1999999100711MD1999999-0111MW1131REMSYN094AAXX  12004 82198 32795 20506 10268 20254 30071 40123 71321 82100 333 10333 29084 55033 59011;EQDQ01  00002PRCP99
0201821980999992002051212004-01710-045400FM-12+004499999V0200501N003110150019N0100001N1+02671+02391101441ADDAA124003091AY161061AY251061GF108991051051017501041041KA1240N+02411MA1999999100921MD1999999+0071MW1031REMSYN088AAXX  12124 82198 21797 80506 10267 20239 30092 40144 70365 85544 333 20241 58007 60034;
0198821980999992002051300004-01710-045400FM-12+004499999V0200501N002112200019N0020001N1+02671+02391101291ADDAA199000091GF102991021021017501001001KA1240M+03241MA1999999100771MD1999999+0061REMSYN088AAXX  13004 82198 32795 20504 10267 20239 30077 40129 82200 333 10324 29084 55045 58006;EQDQ01  00002PRCP99
0173821980999992002051312004-01710-045400FM-12+004499999V0200501N003110450019N0100001N1+02801+02521101341ADDAA124000391GF106991031021017501041091KA1240N+02521MA1999999100821MD1999999-0101REMSYN082AAXX  13124 82198 22797 60506 10280 20252 30082 40134 83249 333 20252 59010 69934;
0182821980999992002051318004-01710-045400FM-12+004499999V0202701N002110450019N0100001N1+02621+02481101071ADDAA106003091AY161061AY221061GF108991041031017501041041MA1999999100551MD1999999+0021MW1171REMSYN082AAXX  13184 82198 21797 82704 10262 20248 30055 40107 71762 84344 333 58002 60031;
0173821980999992002051412004-01710-045400FM-12+004499999V0200501N003110150019N0100001N1+02901+02561101211ADDAA124003091GF107991051021017501061001KA1240N+02351MA1999999100701MD1999999-0121REMSYN082AAXX  14124 82198 22797 70506 10290 20256 30070 40121 85260 333 20235 59012 60034;
0182821980999992002051418004-01710-045400FM-12+004499999V0203201N003610150019N0100001N1+03121+02581100931ADDAA106001091AY161061AY221061GF106991061021017501001001MA1999999100421MD1999999-0131MW1021REMSYN082AAXX  14184 82198 21797 63207 10312 20258 30042 40093 70262 86200 333 59013 60011;
0208821980999992002051500004-01710-045400FM-12+004499999V0200501N001512200019N0020001N1+02641+02441101171ADDAA199000091GA1001+999999999GF100991001001999999001001KA1240M+03241MA1999999100661MD1999999-0071REMSYN082AAXX  15004 82198 32995 00503 10264 20244 30066 40117 333 10324 29083 55055 59007;EQDQ01  00002PRCP99
0201821980999992002051512004-01710-045400FM-12+004499999V0200901N003110450019N0100001N1+02891+02601101231ADDAA124001091AY161061AY221061GF105991041021017501061001KA1240N+02441MA1999999100721MD1999999+0021MW1031REMSYN088AAXX  15124 82198 21797 50906 10289 20260 30072 40123 70362 84260 333 20244 58002 60014;
0182821980999992002051518004-01710-045400FM-12+004499999V0200501N004610450019N0100001N1+03041+02501100931ADDAA106001091AY161061AY221061GF108991041071017501041001MA1999999100421MD1999999+0001MW1031REMSYN082AAXX  15184 82198 21797 80509 10304 20250 30042 40093 70362 84740 333 58000 60011;
0198821980999992002051600004-01710-045400FM-12+004499999V0200501N002610450019N0020001N1+02701+02521101191ADDAA199000091GF106991031021017501061001KA1240M+03241MA1999999100671MD1999999+0011REMSYN088AAXX  16004 82198 32795 60505 10270 20252 30067 40119 83260 333 10324 29084 55034 58001;EQDQ01  00002PRCP99
0201821980999992002051612004-01710-045400FM-12+004499999V0209999C000010150019N0100001N1+02441+02391101291ADDAA124024991AY161061AY221061GF108991051051017501041001KA1240N+02381MA1999999100771MD1999999+0051MW1511REMSYN088AAXX  16124 82198 21797 80000 10244 20239 30077 40129 75162 85540 333 20238 58005 60254;
0182821980999992002051618004-01710-045400FM-12+004499999V0203201N000510180019N0100001N1+02531+02421100891ADDAA106010991AY161061AY221061GF108991051081017501041001MA1999999100381MD1999999-0041MW1021REMSYN082AAXX  16184 82198 21797 83201 10253 20242 30038 40089 70262 85840 333 59004 60111;
0179821980999992002051700004-01710-045400FM-12+004499999V0200501N001010450019N0020001N1+02541+02451101141ADDAA199000021GF106991041071017501041001KA1240M+03071MA1999999100621MD1999999-0041REMSYN088AAXX  17004 82198 32795 60502 10254 20245 30062 40114 84740 333 10307 29095 55000 59004;
0173821980999992002051712004-01710-045400FM-12+004499999V0200501N002610150019N0100001N1+02871+02601101051ADDAA124010991GF106991051021017501001011KA1240N+02381MA1999999100541MD1999999-0231REMSYN082AAXX  17124 82198 22797 60505 10287 20260 30054 40105 85201 333 20238 59023 60114;
0182821980999992002051718004-01710-045400FM-12+004499999V0200901N002110150019N0100001N1+02561+02461100761ADDAA106019191AY161061AY221061GF108991051071017501041001MA1999999100251MD1999999-0131MW1021REMSYN082AAXX  17184 82198 21797 80904 10256 20246 30025 40076 70262 85740 333 59013 60191;
0198821980999992002051800004-01710-045400FM-12+004499999V0202301N000510150019N0020001N1+02531+02451101041ADDAA199000091GF106991051051017501041001KA1240M+03171MA1999999100531MD1999999-0101REMSYN088AAXX  18004 82198 32795 62301 10253 20245 30053 40104 85540 333 10317 29093 55039 59010;EQDQ01  00002PRCP99
0173821980999992002051812004-01710-045400FM-12+004499999V0200501N004610150019N0100001N1+02931+02501101091ADDAA124019191GF106991061021017501001001KA1240N+02371MA1999999100581MD1999999+0041REMSYN082AAXX  18124 82198 22797 60509 10293 20250 30058 40109 86200 333 20237 58004 60194;
0167821980999992002051818004-01710-045400FM-12+004499999V0200501N004610450019N0100001N1+02821+02461100791ADDAA199000091GF105991031021017501061011MA1999999100281MD1999999+0031REMSYN070AAXX  18184 82198 32797 50509 10282 20246 30028 40079 83261 333 58003;EQDQ01  00002PRCP99
0198821980999992002051900004-01710-045400FM-12+004499999V0200501N002610150019N0020001N1+02631+02441101051ADDAA199000091GF105991051001017501061001KA1240M+03221MA1999999100541MD1999999+0011REMSYN088AAXX  19004 82198 32795 50505 10263 20244 30054 40105 85060 333 10322 29085 55086 58001;EQDQ01  00002PRCP99
0186821980999992002051912004-01710-045400FM-12+004499999V0200501N005110150019N0100001N1+02991+02471101191ADDAA199000091GF106991061021017501001001KA1240N+02481MA1999999100681MD1999999+0101REMSYN076AAXX  19124 82198 32797 60510 10299 20247 30068 40119 86200 333 20248 58010;EQDQ01  00002PRCP99
0167821980999992002051918004-01710-045400FM-12+004499999V0200501N005112200019N0100001N1+03111+02341100911ADDAA199000091GF104991031021017501001011MA1999999100401MD1999999+0121REMSYN070AAXX  19184 82198 32797 40510 10311 20234 30040 40091 83201 333 58012;EQDQ01  00002PRCP99
0208821980999992002052000004-01710-045400FM-12+004499999V0200501N003112200019N0020001N1+02641+02421101081ADDAA199000091GA1001+999999999GF100991001001999999001001KA1240M+03241MA1999999100571MD1999999+0031REMSYN082AAXX  20004 82198 32995 00506 10264 20242 30057 40108 333 10324 29078 55099 58003;EQDQ01  00002PRCP99
0186821980999992002052012004-01710-045400FM-12+004499999V0200501N004610150019N0100001N1+02981+02661101271ADDAA199000091GF105991051021017501001001KA1240N+02481MA1999999100761MD1999999+0081REMSYN076AAXX  20124 82198 32797 50509 10298 20266 30076 40127 85200 333 20248 58008;EQDQ01  00002PRCP99
0167821980999992002052018004-01710-045400FM-12+004499999V0200501N004112200019N0100001N1+03201+02461100951ADDAA199000091GF104991041021017501001001MA1999999100441MD1999999+0041REMSYN070AAXX  20184 82198 32797 40508 10320 20246 30044 40095 84200 333 58004;EQDQ01  00002PRCP99
0208821980999992002052100004-01710-045400FM-12+004499999V0200501N002612200019N0020001N1+02651+02461101111ADDAA199000091GA1001+999999999GF100991001001999999001001KA1240M+03281MA1999999100601MD1999999+0031REMSYN082AAXX  21004 82198 32995 00505 10265 20246 30060 40111 333 10328 29082 55097 58003;EQDQ01  00002PRCP99
0186821980999992002052112004-01710-045400FM-12+004499999V0200901N002112200019N0100001N1+02971+02531101201ADDAA199000091GF103991031011017501001001KA1240N+02461MA1999999100681MD1999999+0081REMSYN076AAXX  21124 82198 32797 30904 10297 20253 30068 40120 83100 333 20246 58008;EQDQ01  00002PRCP99
0167821980999992002052118004-01710-045400FM-12+004499999V0200501N004112200019N0100001N1+03201+02581100931ADDAA199000091GF104991041021017501001001MA1999999100411MD1999999-0031REMSYN070AAXX  21184 82198 32797 40508 10320 20258 30041 40093 84200 333 59003;EQDQ01  00002PRCP99
0198821980999992002052200004-01710-045400FM-12+004499999V0200501N003612200019N0020001N1+02661+02441101111ADDAA199000091GF104991031021017501001041KA1240M+03241MA1999999100591MD1999999-0011REMSYN088AAXX  22004 82198 32795 40507 10266 20244 30059 40111 83204 333 10324 29080 55099 59001;EQDQ01  00002PRCP99
0186821980999992002052212004-01710-045400FM-12+004499999V0200501N004112200019N0100001N1+02881+02521101231ADDAA199000091GF104991031021017501001011KA1240N+02531MA1999999100711MD1999999+0031REMSYN076AAXX  22124 82198 32797 40508 10288 20252 30071 40123 83201 333 20253 58003;EQDQ01  00002PRCP99
0167821980999992002052218004-01710-045400FM-12+004499999V0200501N004611050019N0100001N1+03181+02471100871ADDAA199000091GF105991021021017501011011MA1999999100351MD1999999-0061REMSYN070AAXX  22184 82198 32797 50509 10318 20247 30035 40087 82211 333 59006;EQDQ01  00002PRCP99
0198821980999992002052300004-01710-045400FM-12+004499999V0200501N003612200019N0020001N1+02651+02371101061ADDAA199000091GF103991021011017501001011KA1240M+03241MA1999999100541MD1999999-0051REMSYN088AAXX  23004 82198 32795 30507 10265 20237 30054 40106 82101 333 10324 29080 55074 59005;EQDQ01  00002PRCP99
0173821980999992002052312004-01710-045400FM-12+004499999V0200501N003610150019N0100001N1+02941+02451101151ADDAA124000191GF105991051021017501001001KA1240N+02481MA1999999100631MD1999999-0081REMSYN082AAXX  23124 82198 22797 50507 10294 20245 30063 40115 85200 333 20248 59008 69924;
0167821980999992002052318004-01710-045400FM-12+004499999V0203601N002610150019N0100001N1+02761+02581100901ADDAA199000091GF108991051051017501011011MA1999999100381MD1999999+0031REMSYN070AAXX  23184 82198 32797 83605 10276 20258 30038 40090 85511 333 58003;EQDQ01  00002PRCP99
0198821980999992002052400004-01710-045400FM-12+004499999V0200501N002610450019N0020001N1+02651+02421101161ADDAA199000091GF108991041011017501011011KA1240M+03181MA1999999100641MD1999999+0101REMSYN088AAXX  24004 82198 32795 80505 10265 20242 30064 40116 84111 333 10318 29087 55047 58010;EQDQ01  00002PRCP99
0186821980999992002052412004-01710-045400FM-12+004499999V0203601N004112200019N0100001N1+02961+02511101271ADDAA199000091GF106991031011017501001011KA1240N+02521MA1999999100751MD1999999+0121REMSYN076AAXX  24124 82198 32797 63608 10296 20251 30075 40127 83101 333 20252 58012;EQDQ01  00002PRCP99
0167821980999992002052418004-01710-045400FM-12+004499999V0203601N008710450019N0100001N1+02901+02341100951ADDAA199000091GF107991041051017501011011MA1999999100431MD1999999+0051REMSYN070AAXX  24184 82198 32797 73617 10290 20234 30043 40095 84511 333 58005;EQDQ01  00002PRCP99
0198821980999992002052500004-01710-045400FM-12+004499999V0203601N004110450019N0020001N1+02721+02341101181ADDAA199000091GF108991041021017501061011KA1240M+03151MA1999999100661MD1999999+0021REMSYN088AAXX  25004 82198 32795 83608 10272 20234 30066 40118 84261 333 10315 29077 55069 58002;EQDQ01  00002PRCP99
0186821980999992002052512004-01710-045400FM-12+004499999V0203601N002610150019N0100001N1+02891+02421101371ADDAA199000091GF108991061031017501061041KA1240N+02471MA1999999100851MD1999999+0101REMSYN076AAXX  25124 82198 32797 83605 10289 20242 30085 40137 86364 333 20247 58010;EQDQ01  00002PRCP99
0198821980999992002052600004-01710-045400FM-12+004499999V0200501N003110450019N0020001N1+02621+02351101231ADDAA199000091GF106991041011017501031011KA1240M+03061MA1999999100711MD1999999+0051REMSYN088AAXX  26004 82198 32795 60506 10262 20235 30071 40123 84131 333 10306 29080 55025 58005;EQDQ01  00002PRCP99
0186821980999992002052612004-01710-045400FM-12+004499999V0201401N002110150019N0100001N1+02551+02501101351ADDAA199000091GF108991051051017501011041KA1240N+02241MA1999999100831MD1999999-0021REMSYN076AAXX  26124 82198 32797 81404 10255 20250 30083 40135 85514 333 20224 59002;EQDQ01  00002PRCP99
0182821980999992002052618004-01710-045400FM-12+004499999V0201801N002110450019N0100001N1+02771+02521101031ADDAA106000891AY161061AY221061GF107991041021017501041041MA1999999100511MD1999999-0021MW1031REMSYN082AAXX  26184 82198 21797 71804 10277 20252 30051 40103 70362 84244 333 59002 69981;
0213821980999992002052700004-01710-045400FM-12+004499999V0200501N002112200019N0020001N1+02521+02451101241ADDAA106008991AY161061AY221061GF103991011011017501031011KA1240M+03191MA1999999100721MD1999999+0011MW1011REMSYN100AAXX  27004 82198 21795 30504 10252 20245 30072 40124 70162 81131 333 10319 29092 55054 58001 60091;
0201821980999992002052712004-01710-045400FM-12+004499999V0200901N002110450019N0100001N1+02751+02521101191ADDAA124009991AY151061AY221061GF106991041021017501031011KA1240N+02381MA1999999100671MD1999999-0161MW1031REMSYN088AAXX  27124 82198 21797 60904 10275 20252 30067 40119 70352 84231 333 20238 59016 60104;
0182821980999992002052718004-01710-045400FM-12+004499999V0203201N001010450019N0100001N1+02661+02561100881ADDAA106004191AY161061AY221061GF107991031071017501061011MA1999999100361MD1999999-0151MW1031REMSYN082AAXX  27184 82198 21797 73202 10266 20256 30036 40088 70362 83761 333 59015 60041;
0201821980999992002052812004-01710-045400FM-12+004499999V0200901N002112200019N0100001N1+02831+02541101131ADDAA124033091AY161061AY221061GF104991021011017501001011KA1240N+02341MA1999999100621MD1999999-0071MW1021REMSYN088AAXX  28124 82198 21797 40904 10283 20254 30062 40113 70262 82101 333 20234 59007 60334;
0182821980999992002052818004-01710-045400FM-12+004499999V0201401N001010150019N0100001N1+02881+02501100891ADDAA106010991AY161061AY221061GF108991051051017501041001MA1999999100381MD1999999+0021MW1031REMSYN082AAXX  28184 82198 21797 81402 10288 20250 30038 40089 70362 85540 333 58002 60111;
0213821980999992002052900004-01710-045400FM-12+004499999V0200901N001010450019N0020001N1+02531+02431101031ADDAA106007191AY161061AY221061GF107991041071017501041001KA1240M+03041MA1999999100521MD1999999-0071MW1021REMSYN100AAXX  29004 82198 21795 70902 10253 20243 30052 40103 70262 84740 333 10304 29089 55032 59007 60071;
0201821980999992002052912004-01710-045400FM-12+004499999V0200501N002110450019N0100001N1+02701+02501101151ADDAA124019191AY161061AY221061GF106991021011017501031001KA1240N+02331MA1999999100641MD1999999+0021MW1011REMSYN088AAXX  29124 82198 21797 60504 10270 20250 30064 40115 70162 82130 333 20233 58002 60194;
0182821980999992002052918004-01710-045400FM-12+004499999V0200501N001510450019N0100001N1+02611+02481100921ADDAA106004191AY161061AY221061GF106991021021017501061001MA1999999100411MD1999999+0031MW1021REMSYN082AAXX  29184 82198 21797 60503 10261 20248 30041 40092 70262 82260 333 58003 60041;
0208821980999992002053000004-01710-045400FM-12+004499999V0200501N002112200019N0020001N1+02591+02421101091ADDAA199000091GA1001+999999999GF100991001001999999001001KA1240M+03121MA1999999100581MD1999999+0061REMSYN082AAXX  30004 82198 32995 00504 10259 20242 30058 40109 333 10312 29091 55052 58006;EQDQ01  00002PRCP99
0173821980999992002053012004-01710-045400FM-12+004499999V0200901N003610150019N0100001N1+02901+02581101151ADDAA124004191GF105991051021017501001001KA1240N+02381MA1999999100641MD1999999+0001REMSYN082AAXX  30124 82198 22797 50907 10290 20258 30064 40115 85200 333 20238 58000 60044;
0167821980999992002053018004-01710-045400FM-12+004499999V0200501N005712200019N0100001N1+03101+02461100911ADDAA199000091GF105991041021017501001011MA1999999100401MD1999999-0011REMSYN070AAXX  30184 82198 32797 50511 10310 20246 30040 40091 84201 333 59001;EQDQ01  00002PRCP99
0208821980999992002053100004-01710-045400FM-12+004499999V0200501N002612200019N0020001N1+02621+02441101231ADDAA199000091GA1001+999999999GF100991001001999999001001KA1240M+03191MA1999999100721MD1999999+0141REMSYN082AAXX  31004 82198 32995 00505 10262 20244 30072 40123 333 10319 29083 55093 58014;EQDQ01  00002PRCP99
0186821980999992002053112004-01710-045400FM-12+004499999V0200501N004612200019N0100001N1+02911+02561101281ADDAA199000091GF105991041021017501001011KA1240N+02441MA1999999100771MD1999999+0131REMSYN076AAXX  31124 82198 32797 50509 10291 20256 30077 40128 84201 333 20244 58013;EQDQ01  00002PRCP99
0198821980999992002060100004-01710-045400FM-12+004499999V0203201N001512200019N0020001N1+02551+02381101271ADDAA199000091GF103991031001017501061001KA1240M+03251MA1999999100761MD1999999+0041REMSYN088AAXX  01004 82198 32795 33203 10255 20238 30076 40127 83060 333 10325 29083 55082 58004;EQDQ01  00002PRCP99
0213821980999992002060200004-01710-045400FM-12+004499999V0200501N001010150019N0020001N1+02261+02181101441ADDAA106008991AY161061AY221061GF108991051051017501031001KA1240M+02971MA1999999100931MD1999999+0171MW1021REMSYN100AAXX  02004 82198 21795 80502 10226 20218 30093 40144 70262 85530 333 10297 29095 55014 58017 60091;
0173821980999992002060212004-01710-045400FM-12+004499999V0200901N001511050019N0100001N1+02681+02521101391ADDAA124013091GF105991021011017501031011KA1240N+02211MA1999999100881MD1999999-0051REMSYN082AAXX  02124 82198 22797 50903 10268 20252 30088 40139 82131 333 20221 59005 60134;
0167821980999992002060218004-01710-045400FM-12+004499999V0200501N000510450019N0100001N1+02801+02481101111ADDAA199000091GF108991031021017501061011MA1999999100601MD1999999-0071REMSYN070AAXX  02184 82198 32797 80501 10280 20248 30060 40111 83261 333 59007;EQDQ01  00002PRCP99
0198821980999992002060300004-01710-045400FM-12+004499999V0200501N001510450019N0020001N1+02591+02381101461ADDAA199000091GF105991021011017501041001KA1240M+03181MA1999999100951MD1999999+0021REMSYN088AAXX  03004 82198 32795 50503 10259 20238 30095 40146 82140 333 10318 29088 55045 58002;EQDQ01  00002PRCP99
0186821980999992002060312004-01710-045400FM-12+004499999V0200501N004110150019N0100001N1+02921+02641101291ADDAA199000091GF106991061021017501001001KA1240N+02431MA1999999100771MD1999999-0111REMSYN076AAXX  03124 82198 32797 60508 10292 20264 30077 40129 86200 333 20243 59011;EQDQ01  00002PRCP99
0167821980999992002060318004-01710-045400FM-12+004499999V0200501N005110150019N0100001N1+03111+02311100991ADDAA199000091GF105991051021017501001001MA1999999100391MD1999999-0211REMSYN070AAXX  03184 82198 32797 50510 10311 20231 30039 40099 85200 333 59021;EQDQ01  00002PRCP99
0208821980999992002060400004-01720-045400FM-12+004499999V0200501N002612200019N0020001N1+02621+02411101221ADDAA199000091GA1001+999999999GF100991001001999999001001KA1240M+03261MA1999999100711MD1999999-0241REMSYN082AAXX  04004 82198 32995 00505 10262 20241 30071 40122 333 10326 29081 55094 59024;EQDQ01  00002PRCP99
0186821980999992002060412004-01720-045400FM-12+004499999V0200501N003610150019N0100001N1+02941+02491101271ADDAA199000091GF105991051021017501001001KA1240N+02461MA1999999100751MD1999999-0021REMSYN076AAXX  04124 82198 32797 50507 10294 20249 30075 40127 85200 333 20246 59002;EQDQ01  00002PRCP99
0167821980999992002060418004-01720-045400FM-12+004499999V0200501N004112200019N0100001N1+03141+02381100981ADDAA199000091GF105991031021017501001011MA1999999100461MD1999999+0071REMSYN070AAXX  04184 82198 32797 50508 10314 20238 30046 40098 83201 333 58007;EQDQ01  00002PRCP99
0198821980999992002060500004-01720-045400FM-12+004499999V0200501N002112200019N0020001N1+02641+02461101241ADDAA199000091GF103991031021017501001001KA1240M+03271MA1999999100721MD1999999+0011REMSYN088AAXX  05004 82198 32795 30504 10264 20246 30072 40124 83200 333 10327 29080 55096 58001;EQDQ01  00002PRCP99
0186821980999992002060512004-01720-045400FM-12+004499999V0200501N003610150019N0100001N1+02921+02451101171ADDAA199000091GF106991061021017501001001KA1240N+02471MA1999999100661MD1999999-0091REMSYN076AAXX  05124 82198 32797 60507 10292 20245 30066 40117 86200 333 20247 59009;EQDQ01  00002PRCP99
0182821980999992002060518004-01720-045400FM-12+004499999V0201801N002610450019N0100001N1+02681+02371100971ADDAA106001091AY161061AY221061GF108991031061017501071001MA1999999100451MD1999999-0011MW1161REMSYN082AAXX  05184 82198 21797 81805 10268 20237 30045 40097 71662 83670 333 59001 60011;
0198821980999992002060600004-01720-045400FM-12+004499999V0201401N002110450019N0020001N1+02511+02411101161ADDAA199000091GF105991031021017501061001KA1240M+03281MA1999999100641MD1999999-0081REMSYN088AAXX  06004 82198 32795 51404 10251 20241 30064 40116 83260 333 10328 29087 55056 59008;EQDQ01  00002PRCP99
0167821980999992002060618004-01720-045400FM-12+004499999V0201401N002110450019N0100001N1+02771+02441100931ADDAA199000091GF107991031021017501011041MA1999999100411MD1999999-0041REMSYN070AAXX  06184 82198 32797 71404 10277 20244 30041 40093 83214 333 59004;EQDQ01  00002PRCP99
0198821980999992002060700004-01720-045400FM-12+004499999V0200501N001512200019N0020001N1+02611+02401101211ADDAA199000091GF103991031021017501001001KA1240M+03261MA1999999100691MD1999999+0051REMSYN088AAXX  07004 82198 32795 30503 10261 20240 30069 40121 83200 333 10326 29084 55060 58005;EQDQ01  00002PRCP99
0190821980999992002060712004-01720-045400FM-12+004499999V0200501N003610450019N0100001N1+02841+02481101291ADDAY161061AY221061GF106991031021017501041061KA1240N+02321MA1999999100771MD1999999+0051MW1031REMSYN088AAXX  07124 82198 21797 60507 10284 20248 30077 40129 70362 83246 333 20232 58005 60034;
0171821980999992002060718004-01720-045400FM-12+004499999V0200501N003610450019N0100001N1+02981+02431101021ADDAY161061AY221061GF106991041021017501061001MA1999999100501MD1999999+0091MW1171REMSYN082AAXX  07184 82198 21797 60507 10298 20243 30050 40102 71762 84260 333 58009 69991;
0198821980999992002060800004-01720-045400FM-12+004499999V0200901N002610450019N0020001N1+02601+02311101301ADDAA199000091GF105991031021017501061001KA1240M+03071MA1999999100781MD1999999+0091REMSYN088AAXX  08004 82198 32795 50905 10260 20231 30078 40130 83260 333 10307 29081 55050 58009;EQDQ01  00002PRCP99
0162821980999992002060812004-01720-045400FM-12+004499999V0200901N001510450019N0100001N1+02541+02451101131ADDGF108991041051017501061001KA1240N+02351MA1999999100911MD1999999+0141REMSYN082AAXX  08124 82198 22797 80903 10254 20245 30091 40113 84560 333 20235 58014 69994;
0171821980999992002060818004-01720-045400FM-12+004499999V0200501N001510450019N0100001N1+02701+02431101191ADDAY161061AY221061GF108991041031017501011001MA1999999100671MD1999999+0171MW1581REMSYN082AAXX  08184 82198 21797 80503 10270 20243 30067 40119 75862 84310 333 58017 60161;
0202821980999992002060900004-01720-045400FM-12+004499999V0200501N001010150019N0020001N1+02481+02411101351ADDAY151061AY221061GF105991051021017501001001KA1240M+02731MA1999999100831MD1999999+0051MW1011REMSYN100AAXX  09004 82198 21795 50502 10248 20241 30083 40135 70152 85200 333 10273 29093 55002 58005 69921;
0162821980999992002060912004-01720-045400FM-12+004499999V0200901N002110150019N0100001N1+02851+02361101461ADDGF106991061021017501001001KA1240N+02311MA1999999100941MD1999999+0031REMSYN082AAXX  09124 82198 22797 60904 10285 20236 30094 40146 86200 333 20231 58003 60158;
0167821980999992002060918004-01720-045400FM-12+004499999V0203601N003612200019N0100001N1+03151+02381101111ADDAA199000091GF103991021011017501001011MA1999999100601MD1999999-0071REMSYN070AAXX  09184 82198 32797 33607 10315 20238 30060 40111 82101 333 59007;EQDQ01  00002PRCP99
0198821980999992002061000004-01720-045400FM-12+004499999V0200501N002612200019N0020001N1+02581+02331101321ADDAA199000091GF102991021011017501001001KA1240M+03291MA1999999100801MD1999999-0031REMSYN088AAXX  10004 82198 32795 20505 10258 20233 30080 40132 82100 333 10329 29078 55105 59003;EQDQ01  00002PRCP99
0186821980999992002061012004-01720-045400FM-12+004499999V0203601N003612200019N0100001N1+02851+02501101421ADDAA199000091GF105991031021017501001011KA1240N+02251MA1999999100901MD1999999-0041REMSYN076AAXX  10124 82198 32797 53607 10285 20250 30090 40142 83201 333 20225 59004;EQDQ01  00002PRCP99
0195821980999992002061018004-01720-045400FM-12+004499999V0203601N005110450019N0100001N1+03021+02311101111ADDAA199000091AY121061AY221061GF105991031021017501061011MA1999999100591MD1999999-0011MW1171REMSYN076AAXX  10184 82198 31797 53610 10302 20231 30059 40111 71722 83261 333 59001;EQDQ01  00002PRCP99
0226821980999992002061100004-01720-045400FM-12+004499999V0203201N001512200019N0020001N1+02561+02401101321ADDAA199000091AY121061AY211061GF103991031021017501001001KA1240M+03241MA1999999100801MD1999999+0001MW1131REMSYN094AAXX  11004 82198 31795 33203 10256 20240 30080 40132 71321 83200 333 10324 29083 55086 58000;EQDQ01  00002PRCP99
0186821980999992002061112004-01720-045400FM-12+004499999V0200501N003612200019N0100001N1+02871+02461101311ADDAA199000091GF103991021021017501061001KA1240N+02271MA1999999100801MD1999999-0101REMSYN076AAXX  11124 82198 32797 30507 10287 20246 30080 40131 82260 333 20227 59010;EQDQ01  00002PRCP99
0171821980999992002061118004-01720-045400FM-12+004499999V0200501N005110150019N0100001N1+02601+02441101081ADDAY161061AY221061GF108991051071017501041001MA1999999100571MD1999999-0021MW1151REMSYN082AAXX  11184 82198 21797 80510 10260 20244 30057 40108 71562 85740 333 59002 69981;
0198821980999992002061200004-01720-045400FM-12+004499999V0200501N001512200019N0020001N1+02431+02321101271ADDAA199000091GF102991021001017501061001KA1240M+03281MA1999999100761MD1999999-0041REMSYN088AAXX  12004 82198 32795 20503 10243 20232 30076 40127 82060 333 10328 29089 55059 59004;EQDQ01  00002PRCP99
0162821980999992002061212004-01720-045400FM-12+004499999V0200501N003610150019N0100001N1+02861+02521101271ADDGF105991051011017501001001KA1240N+02291MA1999999100761MD1999999-0041REMSYN082AAXX  12124 82198 22797 50507 10286 20252 30076 40127 85100 333 20229 59004 69984;
0171821980999992002061218004-01720-045400FM-12+004499999V0201401N004610150019N0100001N1+02591+02371101231ADDAY161061AY221061GF108991051071017501021001MA1999999100521MD1999999-0051MW1161REMSYN082AAXX  12184 82198 21797 81409 10259 20237 30052 40123 71662 85720 333 59005 60081;
0202821980999992002061300004-01720-045400FM-12+004499999V0201801N002612200019N0020001N1+02341+02271101321ADDAY161061AY221061GF103991031001017501061001KA1240M+03181MA1999999100801MD1999999+0041MW1021REMSYN100AAXX  13004 82198 21795 31805 10234 20227 30080 40132 70262 83060 333 10318 29090 55058 58004 60181;
0162821980999992002061312004-01720-045400FM-12+004499999V0200501N004110150019N0100001N1+02831+02501101371ADDGF106991061021017501001001KA1240N+02201MA1999999100861MD1999999+0101REMSYN082AAXX  13124 82198 22797 60508 10283 20250 30086 40137 86200 333 20220 58010 60264;
0162821980999992002061412004-01720-045400FM-12+004499999V0200501N001510450019N0100001N1+02761+02461101461ADDGF106991031011017501031001KA1240N+02391MA1999999100951MD1999999+0091REMSYN082AAXX  14124 82198 22797 60503 10276 20246 30095 40146 83130 333 20239 58009 60134;
0171821980999992002061418004-01720-045400FM-12+004499999V0200501N006212200019N0100001N1+03051+02381101141ADDAY151061AY221061GF104991041021017501001001MA1999999100631MD1999999+0151MW1021REMSYN082AAXX  14184 82198 21797 40512 10305 20238 30063 40114 70252 84200 333 58015 69921;
0212821980999992002061500004-01720-045400FM-12+004499999V0200501N001512200019N0020001N1+02541+02381101401ADDAY161061AY221061GA1001+999999999GF100991001001999999001001KA1240M+03151MA1999999100891MD1999999+0071MW1021REMSYN094AAXX  15004 82198 21795 00503 10254 20238 30089 40140 70262 333 10315 29083 55076 58007 69961;
0162821980999992002061512004-01720-045400FM-12+004499999V0200501N002112200019N0100001N1+02871+02541101451ADDGF104991041021017501001001KA1240N+02271MA1999999100941MD1999999-0011REMSYN082AAXX  15124 82198 22797 40504 10287 20254 30094 40145 84200 333 20227 59001 69984;
0208821980999992002061600004-01720-045400FM-12+004499999V0200501N002112200019N0020001N1+02581+02371101431ADDAA199000091GA1001+999999999GF100991001001999999001001KA1240M+03161MA1999999100921MD1999999+0031REMSYN082AAXX  16004 82198 32995 00504 10258 20237 30092 40143 333 10316 29083 55083 58003;EQDQ01  00002PRCP99
0162821980999992002061612004-01720-045400FM-12+004499999V0200501N002610150019N0100001N1+02871+02461101471ADDGF105991051021017501001001KA1240N+02371MA1999999100961MD1999999+0021REMSYN082AAXX  16124 82198 22797 50505 10287 20246 30096 40147 85200 333 20237 58002 60024;
0171821980999992002061618004-01720-045400FM-12+004499999V0201801N001510150019N0100001N1+02551+02361101231ADDAY161061AY221061GF108991051071017501021001MA1999999100721MD1999999+0011MW1021REMSYN082AAXX  16184 82198 21797 81803 10255 20236 30072 40123 70262 85720 333 58001 60191;
0202821980999992002061700004-01720-045400FM-12+004499999V0200901N001512200019N0020001N1+02421+02301101491ADDAY161061AY221061GF104991041001017501061001KA1240M+03101MA1999999100981MD1999999+0061MW1021REMSYN100AAXX  17004 82198 21795 40903 10242 20230 30098 40149 70262 84060 333 10310 29088 55036 58006 60011;
0171821980999992002061718004-01720-045400FM-12+004499999V0200901N003610150019N0100001N1+02461+02271101211ADDAY161061AY221061GF108991051051017501021001MA1999999100701MD1999999-0021MW1161REMSYN082AAXX  17184 82198 21797 80907 10246 20227 30070 40121 71662 85520 333 59002 60191;
0202821980999992002061800004-01720-045400FM-12+004499999V0201401N002110450019N0020001N1+02381+02281101381ADDAY161061AY221061GF105991021011017501061001KA1240M+03141MA1999999100871MD1999999-0111MW1021REMSYN100AAXX  18004 82198 21795 51404 10238 20228 30087 40138 70262 82160 333 10314 29091 55034 59011 69921;
0162821980999992002061812004-01710-045400FM-12+004499999V0200501N001011050019N0100001N1+02691+02541101381ADDGF105991021021017501041041KA1240N+02191MA1999999100861MD1999999-0111REMSYN082AAXX  18124 82198 22797 50502 10269 20254 30086 40138 82244 333 20219 59011 60194;
0192821980999992002061900004-01710-045400FM-12+004499999V0200501N002612200019N0020001N1+02541+02421101391ADDAA199000091GF103991999999017501999999KA1240M+03211MA1999999100871MD1999999+0001REMSYN082AAXX  19004 82198 31795 30505 10254 20242 30087 40139 333 10321 29035 55092 58000;EQDQ01  00002PRCP99
0190821980999992002061912004-01710-045400FM-12+004499999V0200901N002110450019N0100001N1+02441+02301101461ADDAY161061AY221061GF107991041021017501041041KA1240N+02311MA1999999100941MD1999999+0081MW1031REMSYN088AAXX  19124 82198 21797 70904 10244 20230 30094 40146 70362 84244 333 20231 58008 60214;
0198821980999992002062000004-01710-045400FM-12+004499999V0200501N003110450019N0020001N1+02581+02331101401ADDAA199000091GF107991041021017501031001KA1240M+03081MA1999999100881MD1999999+0011REMSYN088AAXX  20004 82198 32795 70506 10258 20233 30088 40140 84230 333 10308 29082 55061 58001;EQDQ01  00002PRCP99
0186821980999992002062012004-01710-045400FM-12+004499999V0200501N003110150019N0100001N1+02701+02591101421ADDAA199000091GF108991061071017501061001KA1240N+02311MA1999999100901MD1999999-0041REMSYN076AAXX  20124 82198 32797 80506 10270 20259 30090 40142 86760 333 20231 59004;EQDQ01  00002PRCP99
0171821980999992002062018004-01710-045400FM-12+004499999V0200501N002110150019N0100001N1+02791+02501101171ADDAY161061AY221061GF108991051071017501061001MA1999999100651MD1999999+0041MW1161REMSYN082AAXX  20184 82198 21797 80504 10279 20250 30065 40117 71662 85760 333 58004 60051;
0171821980999992002062118004-01720-045400FM-12+004499999V0200901N005110450019N0100001N1+02981+02251101161ADDAY161061AY221061GF105991031021017501011011MA1999999100641MD1999999-0011MW1021REMSYN082AAXX  21184 82198 21797 50910 10298 20225 30064 40116 70262 83211 333 59001 60011;
0198821980999992002062200004-01720-045400FM-12+004499999V0200501N004112200019N0020001N1+02541+02361101441ADDAA199000091GF106991041051017501001011KA1240M+03151MA1999999100921MD1999999+0051REMSYN088AAXX  22004 82198 32795 60508 10254 20236 30092 40144 84501 333 10315 29082 55077 58005;EQDQ01  00002PRCP99
0162821980999992002062212004-01720-045400FM-12+004499999V0200901N003110150019N0100001N1+02771+02461101531ADDGF108991061011017501031011KA1240N+02271MA1999999101011MD1999999+0081REMSYN082AAXX  22124 82198 22797 80906 10277 20246 30101 40153 86131 333 20227 58008 60014;
0171821980999992002062218004-01720-045400FM-12+004499999V0200901N003110150019N0100001N1+02841+02461101271ADDAY161061AY221061GF108991061071017501061011MA1999999100751MD1999999+0111MW1021REMSYN082AAXX  22184 82198 21797 80906 10284 20246 30075 40127 70262 86761 333 58011 60041;
0198821980999992002062300004-01720-045400FM-12+004499999V0203601N001010150019N0020001N1+02541+02451101531ADDAA199000091GF108991061071017501061001KA1240M+03131MA1999999101011MD1999999+0091REMSYN088AAXX  23004 82198 32795 83602 10254 20245 30101 40153 86760 333 10313 29088 55002 58009;EQDQ01  00002PRCP99
0162821980999992002062312004-01720-045400FM-12+004499999V0200501N002610450019N0100001N1+02741+02431101591ADDGF106991031021017501041041KA1240N+02291MA1999999101071MD1999999+0061REMSYN082AAXX  23124 82198 22797 60505 10274 20243 30107 40159 83244 333 20229 58006 60044;
0167821980999992002062318004-01720-045400FM-12+004499999V0200501N003610150019N0100001N1+02961+02421101211ADDAA199000091GF108991051051017501011011MA1999999100691MD1999999-0061REMSYN070AAXX  23184 82198 32797 80507 10296 20242 30069 40121 85511 333 59006;EQDQ01  00002PRCP99
0198821980999992002062400004-01720-045400FM-12+004499999V0200501N002612200019N0020001N1+02581+02401101401ADDAA199000091GF105991031001017501031011KA1240M+03141MA1999999100981MD1999999-0031REMSYN088AAXX  24004 82198 32795 50505 10258 20240 30098 40140 83031 333 10314 29084 55043 59003;EQDQ01  00002PRCP99
0186821980999992002062412004-01720-045400FM-12+004499999V0200501N004610150019N0100001N1+02871+02501101571ADDAA199000091GF105991051021017501001001KA1240N+02411MA1999999101051MD1999999-0021REMSYN076AAXX  24124 82198 32797 50509 10287 20250 30105 40157 85200 333 20241 59002;EQDQ01  00002PRCP99
0167821980999992002062418004-01720-045400FM-12+004499999V0200501N004610150019N0100001N1+03131+02651101251ADDAA199000091GF105991051021017501001001MA1999999100731MD1999999+0041REMSYN070AAXX  24184 82198 32797 50509 10313 20265 30073 40125 85200 333 58004;EQDQ01  00002PRCP99
0226821980999992002062500004-01720-045400FM-12+004499999V0200501N004112200019N0020001N1+02561+02381101551ADDAA199000091AY121061AY211061GF103991021001017501031011KA1240M+03231MA1999999101031MD1999999+0051MW1131REMSYN094AAXX  25004 82198 31795 30508 10256 20238 30103 40155 71321 82031 333 10323 29085 55089 58005;EQDQ01  00002PRCP99
0186821980999992002062512004-01720-045400FM-12+004499999V0200501N002610150019N0100001N1+02711+02521101601ADDAA199000091GF108991051071017501041001KA1240N+02391MA1999999101091MD1999999+0031REMSYN076AAXX  25124 82198 32797 80505 10271 20252 30109 40160 85740 333 20239 58003;EQDQ01  00002PRCP99
0171821980999992002062518004-01720-045400FM-12+004499999V0200501N005110150019N0100001N1+02921+02501101341ADDAY161061AY221061GF108991051021017501031001MA1999999100831MD1999999+0101MW1021REMSYN082AAXX  25184 82198 21797 80510 10292 20250 30083 40134 70262 85230 333 58010 60031;
0198821980999992002062600004-01720-045400FM-12+004499999V0200501N003610450019N0020001N1+02601+02391101631ADDAA199000091GF107991011011017501031001KA1240M+03181MA1999999101121MD1999999+0091REMSYN088AAXX  26004 82198 32795 70507 10260 20239 30112 40163 81130 333 10318 29086 55023 58009;EQDQ01  00002PRCP99
0162821980999992002062612004-01720-045400FM-12+004499999V0200901N002110450019N0100001N1+02771+02541101641ADDGF107991031011017501031001KA1240N+02421MA1999999101131MD1999999+0051REMSYN082AAXX  26124 82198 22797 70904 10277 20254 30113 40164 83130 333 20242 58005 60034;
0186821980999992002062712004-01720-045400FM-12+004499999V0200901N004112200019N0100001N1+02821+02541101541ADDAA199000091GF104991031011017501061001KA1240N+02271MA1999999101021MD1999999-0101REMSYN076AAXX  27124 82198 32797 40908 10282 20254 30102 40154 83160 333 20227 59010;EQDQ01  00002PRCP99
0171821980999992002062718004-01720-045400FM-12+004499999V0200901N005710150019N0100001N1+03001+02551101231ADDAY161061AY221061GF105991051021017501001001MA1999999100721MD1999999-0081MW1021REMSYN082AAXX  27184 82198 21797 50911 10300 20255 30072 40123 70262 85200 333 59008 60011;
0208821980999992002062800004-01720-045400FM-12+004499999V0200501N004612200019N0020001N1+02561+02401101391ADDAA199000091GA1001+999999999GF100991001001999999001001KA1240M+03061MA1999999100881MD1999999-0201REMSYN082AAXX  28004 82198 32995 00509 10256 20240 30088 40139 333 10306 29086 55079 59020;EQDQ01  00002PRCP99
0162821980999992002062812004-01720-045400FM-12+004499999V0200501N004612200019N0100001N1+02861+02541101441ADDGF104991041011017501001001KA1240N+02381MA1999999100931MD1999999-0101REMSYN082AAXX  28124 82198 22797 40509 10286 20254 30093 40144 84100 333 20238 59010 60014;
0167821980999992002062818004-01720-045400FM-12+004499999V0200901N003610150019N0100001N1+03161+02551101121ADDAA199000091GF105991051021017501001001MA1999999100611MD1999999-0111REMSYN070AAXX  28184 82198 32797 50907 10316 20255 30061 40112 85200 333 59011;EQDQ01  00002PRCP99
0208821980999992002062900004-01720-045400FM-12+004499999V0200501N002112200019N0020001N1+02581+02401101331ADDAA199000091GA1001+999999999GF100991001001999999001001KA1240M+03211MA1999999100821MD1999999+0061REMSYN082AAXX  29004 82198 32995 00504 10258 20240 30082 40133 333 10321 29083 55103 58006;EQDQ01  00002PRCP99
0186821980999992002062912004-01720-045400FM-12+004499999V0200901N003612200019N0100001N1+02861+02541101401ADDAA199000091GF104991041011017501001001KA1240N+02381MA1999999100891MD1999999-0041REMSYN076AAXX  29124 82198 32797 40907 10286 20254 30089 40140 84100 333 20238 59004;EQDQ01  00002PRCP99
0167821980999992002062918004-01720-045400FM-12+004499999V0200901N003112200019N0100001N1+03141+02621101071ADDAA199000091GF104991041021017501001001MA1999999100561MD1999999-0051REMSYN070AAXX  29184 82198 32797 40906 10314 20262 30056 40107 84200 333 59005;EQDQ01  00002PRCP99
0208821980999992002063000004-01720-045400FM-12+004499999V0200501N002612200019N0020001N1+02601+02421101441ADDAA199000091GA1001+999999999GF100991001001999999001001KA1240M+03241MA1999999100931MD1999999+0111REMSYN082AAXX  30004 82198 32995 00505 10260 20242 30093 40144 333 10324 29084 55092 58011;EQDQ01  00002PRCP99
0186821980999992002063012004-01720-045400FM-12+004499999V0200501N004112200019N0100001N1+02891+02601101591ADDAA199000091GF104991041021017501001001KA1240N+02441MA1999999101081MD1999999+0191REMSYN076AAXX  30124 82198 32797 40508 10289 20260 30108 40159 84200 333 20244 58019;EQDQ01  00002PRCP99
0171821980999992002063018004-01720-045400FM-12+004499999V0200501N004610150019N0100001N1+03041+02631101281ADDAY161061AY221061GF105991051021017501001001MA1999999100771MD1999999+0211MW1021REMSYN082AAXX  30184 82198 21797 50509 10304 20263 30077 40128 70262 85200 333 58021 60031;
0190821980999992002070112004-01720-045400FM-12+004499999V0201401N004110150019N0100001N1+02351+02191101661ADDAY161061AY221061GF108991051051017501021001KA1240N+02271MA1999999101151MD1999999+0071MW1031REMSYN088AAXX  01124 82198 21797 81408 10235 20219 30115 40166 70362 85520 333 20227 58007 60084;
0171821980999992002070118004-01720-045400FM-12+004499999V0200501N004110150019N0100001N1+03081+02541101271ADDAY161061AY221061GF105991051021017501001001MA1999999100761MD1999999-0011MW1021REMSYN082AAXX  01184 82198 21797 50508 10308 20254 30076 40127 70262 85200 333 59001 60031;
0202821980999992002070200004-01720-045400FM-12+004499999V0201401N001012200019N0020001N1+02441+02351101561ADDAY161061AY221061GF104991041021017501001001KA1240M+03131MA1999999101051MD1999999+0041MW1011REMSYN100AAXX  02004 82198 21795 41402 10244 20235 30105 40156 70162 84200 333 10313 29088 55062 58004 60011;
0190821980999992002070212004-01720-045400FM-12+004499999V0201401N002110450019N0100001N1+02641+02481101541ADDAY161061AY221061GF105991031021017501041061KA1240N+02281MA1999999101021MD1999999-0131MW1031REMSYN088AAXX  02124 82198 21797 51404 10264 20248 30102 40154 70362 83246 333 20228 59013 60094;
0167821980999992002070218004-01720-045400FM-12+004499999V0200901N003610150019N0100001N1+03011+02531101211ADDAA199000091GF105991051021017501001001MA1999999100691MD1999999-0071REMSYN070AAXX  02184 82198 32797 50907 10301 20253 30069 40121 85200 333 59007;EQDQ01  00002PRCP99
0198821980999992002070300004-01720-045400FM-12+004499999V0200501N002612200019N0020001N1+02621+02421101371ADDAA199000091GF103991031021017501001001KA1240M+03081MA1999999100851MD1999999-0201REMSYN088AAXX  03004 82198 32795 30505 10262 20242 30085 40137 83200 333 10308 29086 55082 59020;EQDQ01  00002PRCP99
0186821980999992002070312004-01720-045400FM-12+004499999V0200501N003110150019N0100001N1+02911+02561101431ADDAA199000091GF105991051021017501001001KA1240N+02441MA1999999100911MD1999999-0111REMSYN076AAXX  03124 82198 32797 50506 10291 20256 30091 40143 85200 333 20244 59011;EQDQ01  00002PRCP99
0171821980999992002070318004-01720-045400FM-12+004499999V0201401N002110450019N0100001N1+02941+02561101131ADDAY151061AY221061GF106991031021017501061061MA1999999100611MD1999999-0081MW1021REMSYN082AAXX  03184 82198 21797 61404 10294 20256 30061 40113 70252 83266 333 59008 69911;
0198821980999992002070400004-01720-045400FM-12+004499999V0200501N002112200019N0020001N1+02581+02441101391ADDAA199000091GF103991031021017501001001KA1240M+03251MA1999999100871MD1999999+0021REMSYN088AAXX  04004 82198 32795 30504 10258 20244 30087 40139 83200 333 10325 29086 55085 58002;EQDQ01  00002PRCP99
0162821980999992002070412004-01720-045400FM-12+004499999V0200501N004110150019N0100001N1+02821+02541101441ADDGF105991051011017501001001KA1240N+02341MA1999999100921MD1999999+0011REMSYN082AAXX  04124 82198 22797 50508 10282 20254 30092 40144 85100 333 20234 58001 60014;
0167821980999992002070418004-01720-045400FM-12+004499999V0200901N003610150019N0100001N1+03081+02491101191ADDAA199000091GF105991051021017501001001MA1999999100671MD1999999+0061REMSYN070AAXX  04184 82198 32797 50907 10308 20249 30067 40119 85200 333 58006;EQDQ01  00002PRCP99
0198821980999992002070500004-01720-045400FM-12+004499999V0200501N002612200019N0020001N1+02571+02461101431ADDAA199000091GF102991021011017501001001KA1240M+03181MA1999999100911MD1999999+0041REMSYN088AAXX  05004 82198 32795 20505 10257 20246 30091 40143 82100 333 10318 29085 55106 58004;EQDQ01  00002PRCP99
0186821980999992002070512004-01720-045400FM-12+004499999V0200501N005110150019N0100001N1+02861+02521101431ADDAA199000091GF106991061021017501001001KA1240N+02411MA1999999100911MD1999999-0011REMSYN076AAXX  05124 82198 32797 60510 10286 20252 30091 40143 86200 333 20241 59001;EQDQ01  00002PRCP99
0167821980999992002070518004-01720-045400FM-12+004499999V0200501N006710150019N0100001N1+03061+02521101071ADDAA199000091GF105991051021017501001001MA1999999100551MD1999999-0121REMSYN070AAXX  05184 82198 32797 50513 10306 20252 30055 40107 85200 333 59012;EQDQ01  00002PRCP99
0198821980999992002070600004-01720-045400FM-12+004499999V0200501N002112200019N0020001N1+02531+02311101291ADDAA199000091GF102991021011017501001001KA1240M+03171MA1999999100771MD1999999-0141REMSYN088AAXX  06004 82198 32795 20504 10253 20231 30077 40129 82100 333 10317 29083 55105 59014;EQDQ01  00002PRCP99
0186821980999992002070612004-01720-045400FM-12+004499999V0200501N003110150019N0100001N1+02841+02481101401ADDAA199000091GF105991051021017501001001KA1240N+02331MA1999999100881MD1999999-0031REMSYN076AAXX  06124 82198 32797 50506 10284 20248 30088 40140 85200 333 20233 59003;EQDQ01  00002PRCP99
0167821980999992002070618004-01720-045400FM-12+004499999V0200501N003612200019N0100001N1+03061+02541101021ADDAA199000091GF105991031021017501001011MA1999999100501MD1999999-0051REMSYN070AAXX  06184 82198 32797 50507 10306 20254 30050 40102 83201 333 59005;EQDQ01  00002PRCP99
0162821980999992002070712004-01720-045400FM-12+004499999V0200501N001510150019N0100001N1+02781+02601101441ADDGF107991051011017501031001KA1240N+02311MA1999999100921MD1999999+0041REMSYN082AAXX  07124 82198 22797 70503 10278 20260 30092 40144 85130 333 20231 58004 69954;
0171821980999992002070718004-01720-045400FM-12+004499999V0200501N004110150019N0100001N1+02511+02311101171ADDAY161061AY221061GF108991051031017501061001MA1999999100651MD1999999+0151MW1021REMSYN082AAXX  07184 82198 21797 80508 10251 20231 30065 40117 70262 85360 333 58015 60051;
0198821980999992002070800004-01720-045400FM-12+004499999V0203201N003110450019N0020001N1+02491+02351101431ADDAA199000091GF105991031011017501061001KA1240M+03241MA1999999100911MD1999999+0101REMSYN088AAXX  08004 82198 32795 53206 10249 20235 30091 40143 83160 333 10324 29093 55039 58010;EQDQ01  00002PRCP99
0162821980999992002070812004-01720-045400FM-12+004499999V0200501N003110450019N0100001N1+02701+02451101511ADDGF108991031011017501031001KA1240N+02391MA1999999100991MD1999999+0071REMSYN082AAXX  08124 82198 22797 80506 10270 20245 30099 40151 83130 333 20239 58007 60054;
0171821980999992002070818004-01720-045400FM-12+004499999V0203601N005110150019N0100001N1+02761+02581101231ADDAY161061AY221061GF108991051021017501061001MA1999999100711MD1999999+0061MW1021REMSYN082AAXX  08184 82198 21797 83610 10276 20258 30071 40123 70262 85260 333 58006 60061;
0202821980999992002070900004-01720-045400FM-12+004499999V0200501N003112200019N0020001N1+02551+02501101471ADDAY161061AY211061GF102991021011017501001001KA1240M+03001MA1999999100951MD1999999+0041MW1011REMSYN100AAXX  09004 82198 21795 20506 10255 20250 30095 40147 70161 82100 333 10300 29091 55011 58004 69961;
0162821980999992002070912004-01720-045400FM-12+004499999V0200501N004110150019N0100001N1+02881+02561101531ADDGF106991061021017501001001KA1240N+02421MA1999999101021MD1999999+0031REMSYN082AAXX  09124 82198 22797 60508 10288 20256 30102 40153 86200 333 20242 58003 60064;
0167821980999992002070918004-01720-045400FM-12+004499999V0200501N005112200019N0100001N1+03141+02641101231ADDAA199000091GF104991041021017501001001MA1999999100721MD1999999+0011REMSYN070AAXX  09184 82198 32797 40510 10314 20264 30072 40123 84200 333 58001;EQDQ01  00002PRCP99
0208821980999992002071000004-01720-045400FM-12+004499999V0200501N003112200019N0020001N1+02621+02461101511ADDAA199000091GA1001+999999999GF100991001001999999001001KA1240M+03221MA1999999101001MD1999999+0051REMSYN082AAXX  10004 82198 32995 00506 10262 20246 30100 40151 333 10322 29085 55102 58005;EQDQ01  00002PRCP99
0186821980999992002071012004-01720-045400FM-12+004499999V0200501N004610150019N0100001N1+02891+02581101561ADDAA199000091GF106991061021017501001001KA1240N+02451MA1999999101051MD1999999+0031REMSYN076AAXX  10124 82198 32797 60509 10289 20258 30105 40156 86200 333 20245 58003;EQDQ01  00002PRCP99
0167821980999992002071018004-01720-045400FM-12+004499999V0200501N005110150019N0100001N1+03071+02581101261ADDAA199000091GF105991051021017501001001MA1999999100751MD1999999+0031REMSYN070AAXX  10184 82198 32797 50510 10307 20258 30075 40126 85200 333 58003;EQDQ01  00002PRCP99
0208821980999992002071100004-01720-045400FM-12+004499999V0200501N002612200019N0020001N1+02591+02421101451ADDAA199000091GA1001+999999999GF100991001001999999001001KA1240M+03151MA1999999100941MD1999999-0061REMSYN082AAXX  11004 82198 32995 00505 10259 20242 30094 40145 333 10315 29085 55096 59006;EQDQ01  00002PRCP99
0186821980999992002071112004-01720-045400FM-12+004499999V0200501N004110150019N0100001N1+02831+02541101491ADDAA199000091GF106991051021017501031001KA1240N+02441MA1999999100981MD1999999-0071REMSYN076AAXX  11124 82198 32797 60508 10283 20254 30098 40149 85230 333 20244 59007;EQDQ01  00002PRCP99
0171821980999992002071118004-01720-045400FM-12+004499999V0200501N006712200019N0100001N1+02921+02581101131ADDAY151061AY221061GF104991041021017501001001MA1999999100621MD1999999-0131MW1021REMSYN082AAXX  11184 82198 21797 40513 10292 20258 30062 40113 70252 84200 333 59013 69921;
0208821980999992002071200004-01720-045400FM-12+004499999V0200501N003612200019N0020001N1+02541+02381101341ADDAA199000091GA1001+999999999GF100991001001999999001001KA1240M+03061MA1999999100831MD1999999-0111REMSYN082AAXX  12004 82198 32995 00507 10254 20238 30083 40134 333 10306 29087 55060 59011;EQDQ01  00002PRCP99
0162821980999992002071212004-01720-045400FM-12+004499999V0200501N003112200019N0100001N1+02841+02521101451ADDGF104991041021017501001001KA1240N+02401MA1999999100941MD1999999-0041REMSYN082AAXX  12124 82198 22797 40506 10284 20252 30094 40145 84200 333 20240 59004 60104;
0167821980999992002071218004-01720-045400FM-12+004499999V0200501N004110150019N0100001N1+03081+02561101181ADDAA199000091GF105991051021017501001001MA1999999100671MD1999999+0051REMSYN070AAXX  12184 82198 32797 50508 10308 20256 30067 40118 85200 333 58005;EQDQ01  00002PRCP99
0212821980999992002071300004-01720-045400FM-12+004499999V0200501N003112200019N0020001N1+02541+02381101381ADDAY161061AY221061GA1001+999999999GF100991001001999999001001KA1240M+03121MA1999999100871MD1999999+0041MW1011REMSYN094AAXX  13004 82198 21995 00506 10254 20238 30087 40138 70162 333 10312 29085 55089 58004 60031;
0162821980999992002071312004-01720-045400FM-12+004499999V0200501N003612200019N0100001N1+02871+02541101431ADDGF104991021011017501001011KA1240N+02291MA1999999100921MD1999999-0021REMSYN082AAXX  13124 82198 22797 40507 10287 20254 30092 40143 82101 333 20229 59002 60024;
0167821980999992002071318004-01720-045400FM-12+004499999V0203601N003612200019N0100001N1+03091+02651101211ADDAA199000091GF104991041021017501001001MA1999999100701MD1999999+0031REMSYN070AAXX  13184 82198 32797 43607 10309 20265 30070 40121 84200 333 58003;EQDQ01  00002PRCP99
0186821980999992002071412004-01720-045400FM-12+004499999V0200501N003610150019N0100001N1+02801+02501101481ADDAA199000091GF105991051021017501001001KA1240N+02451MA1999999100971MD1999999+0051REMSYN076AAXX  14124 82198 32797 50507 10280 20250 30097 40148 85200 333 20245 58005;EQDQ01  00002PRCP99
0167821980999992002071418004-01720-045400FM-12+004499999V0203601N005112200019N0100001N1+02941+02561101271ADDAA199000091GF104991041021017501001001MA1999999100761MD1999999+0061REMSYN070AAXX  14184 82198 32797 43610 10294 20256 30076 40127 84200 333 58006;EQDQ01  00002PRCP99
0208821980999992002071500004-01720-045400FM-12+004499999V0200501N003612200019N0020001N1+02541+02421101421ADDAA199000091GA1001+999999999GF100991001001999999001001KA1240M+03041MA1999999100911MD1999999+0011REMSYN082AAXX  15004 82198 32995 00507 10254 20242 30091 40142 333 10304 29087 55099 58001;EQDQ01  00002PRCP99
0186821980999992002071512004-01720-045400FM-12+004499999V0200501N003612200019N0100001N1+02841+02461101511ADDAA199000091GF104991041011017501001001KA1240N+02381MA1999999101001MD1999999+0031REMSYN076AAXX  15124 82198 32797 40507 10284 20246 30100 40151 84100 333 20238 58003;EQDQ01  00002PRCP99
0167821980999992002071618004-01720-045400FM-12+004499999V0200501N006210150019N0100001N1+03101+02581101201ADDAA199000091GF105991051021017501001001MA1999999100681MD1999999-0041REMSYN070AAXX  16184 82198 32797 50512 10310 20258 30068 40120 85200 333 59004;EQDQ01  00002PRCP99
0208821980999992002071700004-01720-045400FM-12+004499999V0200501N002612200019N0020001N1+02591+02441101421ADDAA199000091GA1001+999999999GF100991001001999999001001KA1240M+03181MA1999999100901MD1999999+0071REMSYN082AAXX  17004 82198 32995 00505 10259 20244 30090 40142 333 10318 29085 55100 58007;EQDQ01  00002PRCP99
0186821980999992002071712004-01720-045400FM-12+004499999V0200501N004110150019N0100001N1+02871+02541101531ADDAA199000091GF106991061021017501001001KA1240N+02401MA1999999101021MD1999999+0091REMSYN076AAXX  17124 82198 32797 60508 10287 20254 30102 40153 86200 333 20240 58009;EQDQ01  00002PRCP99
0167821980999992002071718004-01720-045400FM-12+004499999V0200501N004612200019N0100001N1+03111+02601101221ADDAA199000091GF104991041021017501001001MA1999999100711MD1999999+0031REMSYN070AAXX  17184 82198 32797 40509 10311 20260 30071 40122 84200 333 58003;EQDQ01  00002PRCP99
0198821980999992002071800004-01720-045400FM-12+004499999V0200501N004112200019N0020001N1+02561+02401101431ADDAA199000091GF102991021001017501001011KA1240M+03171MA1999999100911MD1999999+0011REMSYN088AAXX  18004 82198 32795 20508 10256 20240 30091 40143 82001 333 10317 29084 55094 58001;EQDQ01  00002PRCP99
0186821980999992002071812004-01720-045400FM-12+004499999V0200501N003110450019N0100001N1+02871+02441101591ADDAA199000091GF107991041021017501061001KA1240N+02451MA1999999101071MD1999999+0051REMSYN076AAXX  18124 82198 32797 70506 10287 20244 30107 40159 84260 333 20245 58005;EQDQ01  00002PRCP99
0167821980999992002071818004-01720-045400FM-12+004499999V0200501N004610150019N0100001N1+03041+02521101241ADDAA199000091GF105991051021017501001001MA1999999100721MD1999999+0011REMSYN070AAXX  18184 82198 32797 50509 10304 20252 30072 40124 85200 333 58001;EQDQ01  00002PRCP99
0186821980999992002071912004-01720-045400FM-12+004499999V0200501N003610450019N0100001N1+02821+02541101481ADDAA199000091GF106991031021017501061001KA1240N+02411MA1999999100961MD1999999-0101REMSYN076AAXX  19124 82198 32797 60507 10282 20254 30096 40148 83260 333 20241 59010;EQDQ01  00002PRCP99
0171821980999992002071918004-01720-045400FM-12+004499999V0200501N004110450019N0040001N1+02841+02541101161ADDAY111061AY221061GF105991031021017501061001MA1999999100641MD1999999-0081MW1601REMSYN082AAXX  19184 82198 21796 50508 10284 20254 30064 40116 76012 83260 333 59008 69921;
0201821980999992002072000004-01720-045400FM-12+004499999V0200501N003112200019N0005001N1+02581+02421101351ADDAA199000021AY111061AY221061GF103991021001017501011011KA1240M+03241MA1999999100831MD1999999-0061MW1131REMSYN088AAXX  20004 82198 31793 30506 10258 20242 30083 40135 71312 82011 333 10324 55085 59006;
0162821980999992002072012004-01720-045400FM-12+004499999V0200501N003610150019N0100001N1+02851+02461101491ADDGF105991051021017501001001KA1240N+02421MA1999999100971MD1999999+0071REMSYN082AAXX  20124 82198 22797 50507 10285 20246 30097 40149 85200 333 20242 58007 69924;
0171821980999992002072018004-01720-045400FM-12+004499999V0200501N003610450019N0040001N1+02961+02621101101ADDAY161061AY221061GF107991041051017501061001MA1999999100581MD1999999-0061MW1621REMSYN082AAXX  20184 82198 21796 70507 10296 20262 30058 40110 76262 84560 333 59006 60031;
0198821980999992002072400004-01720-045400FM-12+004499999V0200501N003112200019N0040001N1+02581+02421101311ADDAA199000091GF104991021011017501001011KA1240M+03221MA1999999100791MD1999999-0101REMSYN088AAXX  24004 82198 32796 40506 10258 20242 30079 40131 82101 333 10322 29084 55098 59010;EQDQ01  00002PRCP99
0186821980999992002072912004-01720-045400FM-12+004499999V0200501N004610150019N0100001N1+02811+02481101571ADDAA199000091GF106991061021017501001001KA1240N+02421MA1999999101051MD1999999-0131REMSYN076AAXX  29124 82198 32797 60509 10281 20248 30105 40157 86200 333 20242 59013;EQDQ01  00002PRCP99
0167821980999992002080618004-01720-045400FM-12+004499999V0200501N005710150019N0100001N1+03131+02331101121ADDAA199000091GF105991051021017501001001MA1999999100601MD1999999+0031REMSYN070AAXX  06184 82198 32797 50511 10313 20233 30060 40112 85200 333 58003;EQDQ01  00002PRCP99
0186821980999992002080712004-01720-045400FM-12+004499999V0200501N004610150019N0100001N1+02891+02441101531ADDAA199000091GF105991051021017501001001KA1240N+02431MA1999999100991MD1999999+0061REMSYN076AAXX  07124 82198 32797 50509 10289 20244 30099 40153 85200 333 20243 58006;EQDQ01  00002PRCP99
0167821980999992002080718004-01720-045400FM-12+004499999V0203601N005110150019N0100001N1+03041+02431101161ADDAA199000091GF105991051021017501001001MA1999999100641MD1999999+0041REMSYN070AAXX  07184 82198 32797 53610 10304 20243 30064 40116 85200 333 58004;EQDQ01  00002PRCP99
0171821980999992002080818004-01720-045400FM-12+004499999V0200901N005110150019N0100001N1+03021+02481101101ADDAY161061AY221061GF105991051021017501001001MA1999999100581MD1999999-0061MW1021REMSYN082AAXX  08184 82198 21797 50910 10302 20248 30058 40110 70262 85200 333 59006 69941;
0208821980999992002080900004-01720-045400FM-12+004499999V0200501N002612200019N0002001N1+02551+02251101331ADDAA199000091GA1001+999999999GF100991001001999999001001KA1240M+03261MA1999999100811MD1999999-0041REMSYN082AAXX  09004 82198 32992 00505 10255 20225 30081 40133 333 10326 29079 55088 59004;EQDQ01  00002PRCP99
0162821980999992002080912004-01720-045400FM-12+004499999V0200501N005110150019N0100001N1+02891+02461101411ADDGF106991061021017501001001KA1240N+02441MA1999999100891MD1999999-0011REMSYN082AAXX  09124 82198 22797 60510 10289 20246 30089 40141 86200 333 20244 59001 69944;
0167821980999992002080918004-01720-045400FM-12+004499999V0200501N004110450019N0100001N1+03051+02501101161ADDAA199000091GF106991041021017501061001MA1999999100641MD1999999+0061REMSYN070AAXX  09184 82198 32797 60508 10305 20250 30064 40116 84260 333 58006;EQDQ01  00002PRCP99
0162821980999992002081012004-01720-045400FM-12+004499999V0200501N004610150019N0100001N1+02881+02441101451ADDGF107991061021017501061001KA1240N+02461MA1999999100931MD1999999+0041REMSYN082AAXX  10124 82198 22797 70509 10288 20244 30093 40145 86260 333 20246 58004 69924;
0167821980999992002081018004-01720-045400FM-12+004499999V0209999C000010150019N0100001N1+03131+02381101151ADDAA199000091GF106991061021017501001001MA1999999100631MD1999999-0011REMSYN070AAXX  10184 82198 32797 60500 10313 20238 30063 40115 86200 333 59001;EQDQ01  00002PRCP99
0208821980999992002081100004-01720-045400FM-12+004499999V0200501N004112200019N0005001N1+02581+02311101341ADDAA199000091GA1001+999999999GF100991001001999999001001KA1240M+03261MA1999999100821MD1999999-0031REMSYN082AAXX  11004 82198 32993 00508 10258 20231 30082 40134 333 10326 29078 55086 59003;EQDQ01  00002PRCP99
0186821980999992002081112004-01720-045400FM-12+004499999V0200501N004112200019N0100001N1+02861+02421101421ADDAA199000091GF102991021011017501001001KA1240N+02381MA1999999100921MD1999999-0011REMSYN076AAXX  11124 82198 32797 20508 10286 20242 30092 40142 82100 333 20238 59001;EQDQ01  00002PRCP99
0167821980999992002081118004-01720-045400FM-12+004499999V0200501N004612200019N0100001N1+03131+02361101291ADDAA199000091GF104991041021017501001001MA1999999100771MD1999999+0141REMSYN070AAXX  11184 82198 32797 40509 10313 20236 30077 40129 84200 333 58014;EQDQ01  00002PRCP99
0162821980999992002081212004-01720-045400FM-12+004499999V0200501N004610150019N0100001N1+02801+02461101551ADDGF107991071021017501001001KA1240N+02401MA1999999101031MD1999999+0111REMSYN082AAXX  12124 82198 22797 70509 10280 20246 30103 40155 87200 333 20240 58011 60034;
0167821980999992002081218004-01720-045400FM-12+004499999V0200501N005112200019N0100001N1+03161+02341101241ADDAA199000091GF104991041021017501001001MA1999999100721MD1999999-0051REMSYN070AAXX  12184 82198 32797 40510 10316 20234 30072 40124 84200 333 59005;EQDQ01  00002PRCP99
0208821980999992002081300004-01720-045400FM-12+004499999V0200501N003612200019N0005001N1+02581+02371101491ADDAA199000091GA1001+999999999GF100991001001999999001001KA1240M+03241MA1999999100971MD1999999+0011REMSYN082AAXX  13004 82198 32993 00507 10258 20237 30097 40149 333 10324 29080 55100 58001;EQDQ01  00002PRCP99
0186821980999992002081312004-01720-045400FM-12+004499999V0200501N005110150019N0100001N1+02831+02361101591ADDAA199000091GF105991051021017501001001KA1240N+02431MA1999999101071MD1999999+0041REMSYN076AAXX  13124 82198 32797 50510 10283 20236 30107 40159 85200 333 20243 58004;EQDQ01  00002PRCP99
0167821980999992002081318004-01720-045400FM-12+004499999V0200501N005110150019N0100001N1+03101+02231101301ADDAA199000091GF105991051021017501001001MA1999999100781MD1999999+0061REMSYN070AAXX  13184 82198 32797 50510 10310 20223 30078 40130 85200 333 58006;EQDQ01  00002PRCP99
0208821980999992002081400004-01720-045400FM-12+004499999V0200501N002612200019N0005001N1+02531+02251101441ADDAA199000091GA1001+999999999GF100991001001999999001001KA1240M+03211MA1999999100921MD1999999-0051REMSYN082AAXX  14004 82198 32993 00505 10253 20225 30092 40144 333 10321 29077 55095 59005;EQDQ01  00002PRCP99
0186821980999992002081412004-01720-045400FM-12+004499999V0200501N004610150019N0100001N1+02821+02331101601ADDAA199000091GF105991051021017501001001KA1240N+02401MA1999999101081MD1999999+0011REMSYN076AAXX  14124 82198 32797 50509 10282 20233 30108 40160 85200 333 20240 58001;EQDQ01  00002PRCP99
0167821980999992002081418004-01720-045400FM-12+004499999V0200501N005112200019N0100001N1+03131+02251101321ADDAA199000091GF104991041021017501001001MA1999999100801MD1999999+0021REMSYN070AAXX  14184 82198 32797 40510 10313 20225 30080 40132 84200 333 58002;EQDQ01  00002PRCP99
0208821980999992002081500004-01720-045400FM-12+004499999V0200501N002612200019N0020001N1+02541+02231101421ADDAA199000091GA1001+999999999GF100991001001999999001001KA1240M+03231MA1999999100901MD1999999-0021REMSYN082AAXX  15004 82198 32995 00505 10254 20223 30090 40142 333 10323 29075 55102 59002;EQDQ01  00002PRCP99
0186821980999992002081512004-01720-045400FM-12+004499999V0200501N004610450019N0100001N1+02771+02291101621ADDAA199000091GF105991031021017501061001KA1240N+02411MA1999999101101MD1999999+0021REMSYN076AAXX  15124 82198 32797 50509 10277 20229 30110 40162 83260 333 20241 58002;EQDQ01  00002PRCP99
0167821980999992002081518004-01720-045400FM-12+004499999V0200501N006710150019N0100001N1+03041+02121101611ADDAA199000091GF106991061021017501001001MA1999999101091MD1999999+0021REMSYN070AAXX  15184 82198 32797 60513 10304 20212 30109 40161 86200 333 58002;EQDQ01  00002PRCP99
0208821980999992002081600004-01720-045400FM-12+004499999V0200501N002112200019N0020001N1+02521+02231101511ADDAA199000091GA1001+999999999GF100991001001999999001001KA1240M+03131MA1999999100991MD1999999+0091REMSYN082AAXX  16004 82198 32995 00504 10252 20223 30099 40151 333 10313 29075 55099 58009;EQDQ01  00002PRCP99
0186821980999992002081612004-01720-045400FM-12+004499999V0200501N004610450019N0100001N1+02861+02371101551ADDAA199000091GF106991041021017501061001KA1240N+02421MA1999999101031MD1999999-0071REMSYN076AAXX  16124 82198 32797 60509 10286 20237 30103 40155 84260 333 20242 59007;EQDQ01  00002PRCP99
0171821980999992002081618004-01720-045400FM-12+004499999V0200501N005710150019N0100001N1+03071+02141101241ADDAY161061AY221061GF105991051021017501001001MA1999999100721MD1999999-0101MW1211REMSYN082AAXX  16184 82198 21797 50511 10307 20214 30072 40124 72162 85200 333 59010 69981;
0189821980999992002081700004-01720-045400FM-12+004499999V0200501N003112200019N0020001N1+02581+02351101401ADDAA199000021GA1001+999999999GF100991001001999999001001KA1240M+03261MA1999999100881MD1999999-0111REMSYN082AAXX  17004 82198 32995 00506 10258 20235 30088 40140 333 10326 29077 55090 59011;
0162821980999992002081712004-01720-045400FM-12+004499999V0200501N004610450019N0100001N1+02881+02441101481ADDGF106991041021017501061001KA1240N+02411MA1999999100971MD1999999-0061REMSYN082AAXX  17124 82198 22797 60509 10288 20244 30097 40148 84260 333 20241 59006 69984;
0171821980999992002081718004-01720-045400FM-12+004499999V0200501N004110150019N0100001N1+03151+02411101091ADDAY161061AY221061GF105991051021017501001001MA1999999100571MD1999999-0051MW1211REMSYN082AAXX  17184 82198 21797 50508 10315 20241 30057 40109 72162 85200 333 59005 69961;
0179821980999992002081800004-01720-045400FM-12+004499999V0200501N003112200019N0020001N1+02591+02401101301ADDAA199000021GF103991031001017501001011KA1240M+03311MA1999999100781MD1999999-0101REMSYN088AAXX  18004 82198 32795 30506 10259 20240 30078 40130 83001 333 10331 29080 55087 59010;
0162821980999992002081812004-01720-045400FM-12+004499999V0200501N005110450019N0100001N1+02841+02341101471ADDGF106991041021017501061001KA1240N+02441MA1999999100951MD1999999-0021REMSYN082AAXX  18124 82198 22797 60510 10284 20234 30095 40147 84260 333 20244 59002 69964;
0171821980999992002081818004-01720-045400FM-12+004499999V0200501N005112200019N0100001N1+03101+02261101141ADDAY161061AY221061GF105991031021017501001011MA1999999100621MD1999999+0071MW1621REMSYN082AAXX  18184 82198 21797 50510 10310 20226 30062 40114 76262 83201 333 58007 69971;
0179821980999992002081900004-01720-045400FM-12+004499999V0200501N003112200019N0020001N1+02571+02331101241ADDAA199000021GF102991021011017501001001KA1240M+03211MA1999999100721MD1999999-0061REMSYN088AAXX  19004 82198 32795 20506 10257 20233 30072 40124 82100 333 10321 29076 55091 59006;
0162821980999992002081912004-01720-045400FM-12+004499999V0200501N004110450019N0100001N1+02841+02521101471ADDGF106991031021017501061001KA1240N+02441MA1999999100951MD1999999+0001REMSYN082AAXX  19124 82198 22797 60508 10284 20252 30095 40147 83260 333 20244 58000 69974;
0171821980999992002081918004-01720-045400FM-12+004499999V0200501N004110450019N0100001N1+02841+02401101131ADDAY161061AY221061GF106991031021017501061001MA1999999100611MD1999999-0011MW1621REMSYN082AAXX  19184 82198 21797 60508 10284 20240 30061 40113 76262 83260 333 59001 60041;
0202821980999992002082000004-01720-045400FM-12+004499999V0200501N003112200019N0020001N1+02521+02381101261ADDAY161061AY221061GF104991041001017501001011KA1240M+03041MA1999999100741MD1999999+0021MW1031REMSYN100AAXX  20004 82198 21795 40506 10252 20238 30074 40126 70362 84001 333 10304 29086 55050 58002 69971;
0162821980999992002082012004-01720-045400FM-12+004499999V0200901N005110150019N0100001N1+02801+02401101401ADDGF106991061021017501001001KA1240N+02391MA1999999100881MD1999999-0071REMSYN082AAXX  20124 82198 22797 60910 10280 20240 30088 40140 86200 333 20239 59007 60044;
0167821980999992002082018004-01720-045400FM-12+004499999V0200501N003612200019N0100001N1+03261+02381101041ADDAA199000091GF104991041021017501001001MA1999999100521MD1999999-0091REMSYN070AAXX  20184 82198 32797 40507 10326 20238 30052 40104 84200 333 59009;EQDQ01  00002PRCP99
0198821980999992002082100004-01720-045400FM-12+004499999V0200501N003112200019N0020001N1+02651+02411101301ADDAA199000091GF102991021001017501061001KA1240M+03351MA1999999100781MD1999999+0041REMSYN088AAXX  21004 82198 32795 20506 10265 20241 30078 40130 82060 333 10335 29078 55101 58004;EQDQ01  00002PRCP99
0167821980999992002082118004-01720-045400FM-12+004499999V0200501N005712200019N0100001N1+03141+02381101141ADDAA199000091GF102991021021017501001001MA1999999100631MD1999999+0111REMSYN070AAXX  21184 82198 32797 20511 10314 20238 30063 40114 82200 333 58011;EQDQ01  00002PRCP99
0198821980999992002082200004-01720-045400FM-12+004499999V0200501N002610150019N0020001N1+02591+02311101431ADDAA199000091GF106991061021017501001001KA1240M+03181MA1999999100911MD1999999+0131REMSYN088AAXX  22004 82198 32795 60505 10259 20231 30091 40143 86200 333 10318 29077 55091 58013;EQDQ01  00002PRCP99
0186821980999992002082212004-01720-045400FM-12+004499999V0200501N006710150019N0100001N1+02891+02481101491ADDAA199000091GF106991061021017501001001KA1240N+02421MA1999999100971MD1999999+0011REMSYN076AAXX  22124 82198 32797 60513 10289 20248 30097 40149 86200 333 20242 58001;EQDQ01  00002PRCP99
0167821980999992002082218004-01720-045400FM-12+004499999V0200501N006712200019N0100001N1+03121+02281101161ADDAA199000091GF103991031021017501001001MA1999999100641MD1999999+0011REMSYN070AAXX  22184 82198 32797 30513 10312 20228 30064 40116 83200 333 58001;EQDQ01  00002PRCP99
0208821980999992002082300004-01720-045400FM-12+004499999V0200501N003612200019N0020001N1+02541+02231101331ADDAA199000091GA1001+999999999GF100991001001999999001001KA1240M+03231MA1999999100801MD1999999-0111REMSYN082AAXX  23004 82198 32995 00507 10254 20223 30080 40133 333 10323 29076 55102 59011;EQDQ01  00002PRCP99
0186821980999992002082312004-01720-045400FM-12+004499999V0200501N005710150019N0100001N1+02901+02431101391ADDAA199000091GF105991051021017501001001KA1240N+02371MA1999999100871MD1999999-0101REMSYN076AAXX  23124 82198 32797 50511 10290 20243 30087 40139 85200 333 20237 59010;EQDQ01  00002PRCP99
0167821980999992002082318004-01720-045400FM-12+004499999V0200501N006212200019N0100001N1+03121+02361101071ADDAA199000091GF103991031021017501001001MA1999999100551MD1999999-0091REMSYN070AAXX  23184 82198 32797 30512 10312 20236 30055 40107 83200 333 59009;EQDQ01  00002PRCP99
0208821980999992002082400004-01720-045400FM-12+004499999V0202501N002612200019N0020001N1+02551+02311101291ADDAA199000091GA1001+999999999GF100991001001999999001001KA1240M+03251MA1999999100771MD1999999-0031REMSYN082AAXX  24004 82198 32995 02505 10255 20231 30077 40129 333 10325 29078 55101 59003;EQDQ01  00002PRCP99
0186821980999992002082412004-01720-045400FM-12+004499999V0200501N003610150019N0100001N1+02871+02391101361ADDAA199000091GF107991071021017501001001KA1240N+02391MA1999999100841MD1999999-0031REMSYN076AAXX  24124 82198 32797 70507 10287 20239 30084 40136 87200 333 20239 59003;EQDQ01  00002PRCP99
0171821980999992002082418004-01720-045400FM-12+004499999V0200901N001510150019N0100001N1+02831+02441101041ADDAY161061AY221061GF106991061021017501001001MA1999999100521MD1999999-0031MW1021REMSYN082AAXX  24184 82198 21797 60903 10283 20244 30052 40104 70262 86200 333 59003 60051;
0208821980999992002082500004-01720-045400FM-12+004499999V0200501N003612200019N0020001N1+02541+02311101321ADDAA199000091GA1001+999999999GF100991001001999999001001KA1240M+03251MA1999999100801MD1999999+0031REMSYN082AAXX  25004 82198 32995 00507 10254 20231 30080 40132 333 10325 29080 55085 58003;EQDQ01  00002PRCP99
0167821980999992002082518004-01720-045400FM-12+004499999V0200501N004610150019N0100001N1+03121+02361101071ADDAA199000091GF105991051021017501001001MA1999999100561MD1999999+0041REMSYN070AAXX  25184 82198 32797 50509 10312 20236 30056 40107 85200 333 58004;EQDQ01  00002PRCP99
0208821980999992002082600004-01720-045400FM-12+004499999V0200501N002612200019N0020001N1+02541+02291101341ADDAA199000091GA1001+999999999GF100991001001999999001001KA1240M+03371MA1999999100821MD1999999+0101REMSYN082AAXX  26004 82198 32995 00505 10254 20229 30082 40134 333 10337 29078 55094 58010;EQDQ01  00002PRCP99
0186821980999992002082612004-01720-045400FM-12+004499999V0200501N004110150019N0100001N1+02891+02501101471ADDAA199000091GF106991061021017501001001KA1240N+02351MA1999999100951MD1999999+0091REMSYN076AAXX  26124 82198 32797 60508 10289 20250 30095 40147 86200 333 20235 58009;EQDQ01  00002PRCP99
0167821980999992002082618004-01720-045400FM-12+004499999V0203601N004610150019N0100001N1+03031+02361101151ADDAA199000091GF105991051021017501001001MA1999999100631MD1999999+0071REMSYN070AAXX  26184 82198 32797 53609 10303 20236 30063 40115 85200 333 58007;EQDQ01  00002PRCP99
0208821980999992002082700004-01720-045400FM-12+004499999V0200501N002612200019N0005001N1+02551+02351101291ADDAA199000091GA1001+999999999GF100991001001999999001001KA1240M+03311MA1999999100771MD1999999+0051REMSYN082AAXX  27004 82198 32993 00505 10255 20235 30077 40129 333 10331 29081 55084 58005;EQDQ01  00002PRCP99
0186821980999992002082712004-01720-045400FM-12+004499999V0200501N004610450019N0100001N1+02901+02371101391ADDAA199000091GF106991041021017501061001KA1240N+02551MA1999999100871MD1999999-0081REMSYN076AAXX  27124 82198 32797 60509 10290 20237 30087 40139 84260 333 20255 59008;EQDQ01  00002PRCP99
0167821980999992002082718004-01720-045400FM-12+004499999V0200501N004110450019N0100001N1+03131+02231101161ADDAA199000091GF106991041021017501061001MA1999999100641MD1999999+0011REMSYN070AAXX  27184 82198 32797 60508 10313 20223 30064 40116 84260 333 58001;EQDQ01  00002PRCP99
0208821980999992002082800004-01720-045400FM-12+004499999V0200501N002612200019N0005001N1+02541+02271101251ADDAA199000091GA1001+999999999GF100991001001999999001001KA1240M+03331MA1999999100731MD1999999-0041REMSYN082AAXX  28004 82198 32993 00505 10254 20227 30073 40125 333 10333 29076 55091 59004;EQDQ01  00002PRCP99
0186821980999992002082812004-01720-045400FM-12+004499999V0200501N004110450019N0100001N1+02871+02291101191ADDAA199000091GF106991041021017501061001KA1240N+02361MA1999999100671MD1999999-0201REMSYN076AAXX  28124 82198 32797 60508 10287 20229 30067 40119 84260 333 20236 59020;EQDQ01  00002PRCP99
0167821980999992002082818004-01720-045400FM-12+004499999V0200501N004610450019N0100001N1+03121+02331100931ADDAA199000091GF106991041021017501061001MA1999999100421MD1999999-0221REMSYN070AAXX  28184 82198 32797 60509 10312 20233 30042 40093 84260 333 59022;EQDQ01  00002PRCP99
0208821980999992002082900004-01720-045400FM-12+004499999V0200501N002612200019N0005001N1+02601+02351101071ADDAA199000091GA1001+999999999GF100991001001999999001001KA1240M+03331MA1999999100561MD1999999-0171REMSYN082AAXX  29004 82198 32993 00505 10260 20235 30056 40107 333 10333 29077 55072 59017;EQDQ01  00002PRCP99
0186821980999992002082912004-01720-045400FM-12+004499999V0200501N004610450019N0100001N1+02841+02361101091ADDAA199000091GF108991041021017501061001KA1240N+02511MA1999999100581MD1999999-0091REMSYN076AAXX  29124 82198 32797 80509 10284 20236 30058 40109 84260 333 20251 59009;EQDQ01  00002PRCP99
0167821980999992002082918004-01720-045400FM-12+004499999V0200501N004110450019N0100001N1+03201+02301100861ADDAA106000091GF106991041021017501011001MA1999999100351MD1999999-0071REMSYN070AAXX  29184 82198 32797 60508 10320 20230 30035 40086 84210 333 59007;EQDQ01  00002PRCP06
0208821980999992002083000004-01720-045400FM-12+004499999V0200501N003612200019N0002001N1+02601+02311101131ADDAA106000091GA1001+999999999GF100991001001999999001001KA1240M+03301MA1999999100611MD1999999+0051REMSYN082AAXX  30004 82198 32992 00507 10260 20231 30061 40113 333 10330 29076 55063 58005;EQDQ01  00002PRCP06
0186821980999992002083012004-01720-045400FM-12+004499999V0200501N006710150019N0100001N1+02901+02341101171ADDAA106000091GF108991081021017501001001KA1240N+02401MA1999999100671MD1999999-0091REMSYN076AAXX  30124 82198 32797 80513 10290 20234 30067 40117 88200 333 20240 59009;EQDQ01  00002PRCP06
0171821980999992002083018004-01720-045400FM-12+004499999V0200501N005110150019N0100001N1+02991+02371100951ADDAY161061AY221061GF105991051021017501001001MA1999999100431MD1999999+0081MW1021REMSYN082AAXX  30184 82198 21797 50510 10299 20237 30043 40095 70262 85200 333 58008 69941;
0208821980999992002083100004-01720-045400FM-12+004499999V0200501N003612200019N0005001N1+02551+02291101111ADDAA106000091GA1001+999999999GF100991001001999999001001KA1240M+03191MA1999999100601MD1999999-0011REMSYN082AAXX  31004 82198 32993 00507 10255 20229 30060 40111 333 10319 29077 55071 59001;EQDQ01  00002PRCP06
0162821980999992002083112004-01720-045400FM-12+004499999V0200501N005110450019N0100001N1+02861+02391101281ADDGF106991041021017501061001KA1240N+02401MA1999999100761MD1999999+0091REMSYN082AAXX  31124 82198 22797 60510 10286 20239 30076 40128 84260 333 20240 58009 69944;
0167821980999992002083118004-01720-045400FM-12+004499999V0200501N005710150019N0100001N1+03241+02121101031ADDAA106000091GF106991061021017501001001MA1999999100511MD1999999+0081REMSYN070AAXX  31184 82198 32797 60511 10324 20212 30051 40103 86200 333 58008;EQDQ01  00002PRCP06
0208821980999992002090100004-01720-045400FM-12+004499999V0200501N003612200019N0005001N1+02581+02271101251ADDAA106000091GA1001+999999999GF100991001001999999001001KA1240M+03361MA1999999100731MD1999999+0131REMSYN082AAXX  01004 82198 32993 00507 10258 20227 30073 40125 333 10336 29073 55086 58013;EQDQ01  00002PRCP06
0186821980999992002090112004-01720-045400FM-12+004499999V0200501N004610150019N0100001N1+02921+02341101281ADDAA106000091GF106991061021017501001001KA1240N+02441MA1999999100761MD1999999+0001REMSYN076AAXX  01124 82198 32797 60509 10292 20234 30076 40128 86200 333 20244 58000;EQDQ01  00002PRCP06
0167821980999992002090118004-01720-045400FM-12+004499999V0200501N005112200019N0100001N1+03261+02151100911ADDAA106000091GF105991031021017501001011MA1999999100391MD1999999-0121REMSYN070AAXX  01184 82198 32797 50510 10326 20215 30039 40091 83201 333 59012;EQDQ01  00002PRCP06
0208821980999992002090200004-01720-045400FM-12+004499999V0200501N002612200019N0005001N1+02581+02311101141ADDAA106000091GA1001+999999999GF100991001001999999001001KA1240M+03391MA1999999100621MD1999999-0111REMSYN082AAXX  02004 82198 32993 00505 10258 20231 30062 40114 333 10339 29074 55095 59011;EQDQ01  00002PRCP06
0186821980999992002090212004-01720-045400FM-12+004499999V0200501N004112200019N0100001N1+02941+02291101341ADDAA106000091GF103991031021017501001001KA1240N+02431MA1999999100821MD1999999+0061REMSYN076AAXX  02124 82198 32797 30508 10294 20229 30082 40134 83200 333 20243 58006;EQDQ01  00002PRCP06
0167821980999992002090218004-01720-045400FM-12+004499999V0203601N005710150019N0100001N1+02961+02311100991ADDAA106000091GF106991061021017501001001MA1999999100481MD1999999+0091REMSYN070AAXX  02184 82198 32797 63611 10296 20231 30048 40099 86200 333 58009;EQDQ01  00002PRCP06
0208821980999992002090300004-01720-045400FM-12+004499999V0203601N004112200019N0005001N1+02611+02251101221ADDAA106000091GA1001+999999999GF100991001001999999001001KA1240M+03331MA1999999100711MD1999999+0091REMSYN082AAXX  03004 82198 32993 03608 10261 20225 30071 40122 333 10333 29075 55096 58009;EQDQ01  00002PRCP06
0186821980999992002090312004-01720-045400FM-12+004499999V0200501N004110450019N0100001N1+02941+02291101431ADDAA106000091GF106991041021017501061001KA1240N+02441MA1999999100911MD1999999+0091REMSYN076AAXX  03124 82198 32797 60508 10294 20229 30091 40143 84260 333 20244 58009;EQDQ01  00002PRCP06
0167821980999992002090318004-01720-045400FM-12+004499999V0200501N004610150019N0100001N1+03131+02311101151ADDAA106000091GF105991051021017501001001MA1999999100641MD1999999+0161REMSYN070AAXX  03184 82198 32797 50509 10313 20231 30064 40115 85200 333 58016;EQDQ01  00002PRCP06
0208821980999992002090400004-01720-045400FM-12+004499999V0200501N004112200019N0005001N1+02581+02291101411ADDAA106000091GA1001+999999999GF100991001001999999001001KA1240M+03311MA1999999100891MD1999999+0181REMSYN082AAXX  04004 82198 32993 00508 10258 20229 30089 40141 333 10331 29074 55073 58018;EQDQ01  00002PRCP06
0186821980999992002090412004-01720-045400FM-12+004499999V0200501N005110150019N0100001N1+02921+02171101541ADDAA106000091GF105991051021017501001001KA1240N+02451MA1999999101021MD1999999+0111REMSYN076AAXX  04124 82198 32797 50510 10292 20217 30102 40154 85200 333 20245 58011;EQDQ01  00002PRCP06
0167821980999992002090418004-01720-045400FM-12+004499999V0200501N004610150019N0100001N1+02971+02191101201ADDAA106000091GF107991071021017501001001MA1999999100691MD1999999+0051REMSYN070AAXX  04184 82198 32797 70509 10297 20219 30069 40120 87200 333 58005;EQDQ01  00002PRCP06
0208821980999992002090500004-01720-045400FM-12+004499999V0200501N002612200019N0005001N1+02591+02271101451ADDAA106000091GA1001+999999999GF100991001001999999001001KA1240M+03281MA1999999100931MD1999999+0041REMSYN082AAXX  05004 82198 32993 00505 10259 20227 30093 40145 333 10328 29072 55088 58004;EQDQ01  00002PRCP06
0186821980999992002090512004-01720-045400FM-12+004499999V0200501N004110150019N0100001N1+02951+02291101521ADDAA106000091GF107991051021017501061001KA1240N+02451MA1999999101001MD1999999-0021REMSYN076AAXX  05124 82198 32797 70508 10295 20229 30100 40152 85260 333 20245 59002;EQDQ01  00002PRCP06
0208821980999992002090600004-01720-045400FM-12+004499999V0200501N003112200019N0005001N1+02561+02311101341ADDAA106000091GA1001+999999999GF100991001001999999001001KA1240M+03301MA1999999100821MD1999999-0111REMSYN082AAXX  06004 82198 32993 00506 10256 20231 30082 40134 333 10330 29074 55095 59011;EQDQ01  00002PRCP06
0156821980999992002090612004-01720-045400FM-12+004499999V0200501N004112200019N0100001N1+99999+99999999999ADDAA106000091GF103991999999017501999999KA1240N+02451REMSYN075AAXX  06124 82198 32797 30508 1092 20219 30106 40158 82210 333 20245 58006;EQDQ01  00002PRCP06
0167821980999992002090618004-01720-045400FM-12+004499999V0203601N004112200019N0100001N1+03121+02191101261ADDAA106000091GF102991011021017501001011MA1999999100751MD1999999+0071REMSYN070AAXX  06184 82198 32797 23608 10312 20219 30075 40126 81201 333 58007;EQDQ01  00002PRCP06
0208821980999992002090700004-01720-045400FM-12+004499999V0200501N003612200019N0002001N1+02551+02291101371ADDAA106000091GA1001+999999999GF100991001001999999001001KA1240M+03281MA1999999100851MD1999999+0031REMSYN082AAXX  07004 82198 32992 00507 10255 20229 30085 40137 333 10328 29072 55106 58003;EQDQ01  00002PRCP06
0186821980999992002090712004-01720-045400FM-12+004499999V0200501N003610450019N0100001N1+02881+02281101531ADDAA106000091GF105991041021017501011001KA1240N+02481MA1999999101011MD1999999-0051REMSYN076AAXX  07124 82198 32797 50507 10288 20228 30101 40153 84210 333 20248 59005;EQDQ01  00002PRCP06
0167821980999992002090718004-01720-045400FM-12+004499999V0203601N007712200019N0100001N1+03051+02081101211ADDAA106000091GF104991031021017501011001MA1999999100701MD1999999-0051REMSYN070AAXX  07184 82198 32797 43615 10305 20208 30070 40121 83210 333 59005;EQDQ01  00002PRCP06
0208821980999992002090800004-01720-045400FM-12+004499999V0200501N003612200019N0005001N1+02581+02251101351ADDAA106000091GA1001+999999999GF100991001001999999001001KA1240M+03311MA1999999100831MD1999999-0021REMSYN082AAXX  08004 82198 32993 00507 10258 20225 30083 40135 333 10331 29073 55016 59002;EQDQ01  00002PRCP06
0186821980999992002090812004-01720-045400FM-12+004499999V0200501N003610450019N0100001N1+02951+02441101421ADDAA106000091GF106991031021017501061011KA1240N+02411MA1999999100901MD1999999-0111REMSYN076AAXX  08124 82198 32797 60507 10295 20244 30090 40142 83261 333 20241 59011;EQDQ01  00002PRCP06
0167821980999992002090818004-01720-045400FM-12+004499999V0203601N004110450019N0100001N1+03101+02341101131ADDAA106000091GF106991041021017501011001MA1999999100621MD1999999-0081REMSYN070AAXX  08184 82198 32797 63608 10310 20234 30062 40113 84210 333 59008;EQDQ01  00002PRCP06
0208821980999992002090900004-01720-045400FM-12+004499999V0200501N002112200019N0005001N1+02591+02351101291ADDAA106000091GA1001+999999999GF100991001001999999001001KA1240M+03231MA1999999100781MD1999999-0051REMSYN082AAXX  09004 82198 32993 00504 10259 20235 30078 40129 333 10323 29077 55081 59005;EQDQ01  00002PRCP06
0186821980999992002090912004-01720-045400FM-12+004499999V0200501N005110150019N0100001N1+02931+02301101421ADDAA106000091GF105991051021017501001001KA1240N+02471MA1999999100901MD1999999+0001REMSYN076AAXX  09124 82198 32797 50510 10293 20230 30090 40142 85200 333 20247 58000;EQDQ01  00002PRCP06
0167821980999992002090918004-01720-045400FM-12+004499999V0200501N004110450019N0040001N1+03061+02251101141ADDAA106000091GF106991041021017501011001MA1999999100631MD1999999+0011REMSYN070AAXX  09184 82198 32796 60508 10306 20225 30063 40114 84210 333 58001;EQDQ01  00002PRCP06
0208821980999992002091000004-01720-045400FM-12+004499999V0200501N003612200019N0005001N1+02581+02311101241ADDAA106000091GA1001+999999999GF100991001001999999001001KA1240M+03231MA1999999100731MD1999999-0051REMSYN082AAXX  10004 82198 32993 00507 10258 20231 30073 40124 333 10323 29076 55078 59005;EQDQ01  00002PRCP06
0186821980999992002091012004-01720-045400FM-12+004499999V0200501N006210150019N0040001N1+02921+02291101441ADDAA106000091GF106991061021017501001001KA1240N+02491MA1999999100921MD1999999+0021REMSYN076AAXX  10124 82198 32796 60512 10292 20229 30092 40144 86200 333 20249 58002;EQDQ01  00002PRCP06
0167821980999992002091018004-01720-045400FM-12+004499999V0200501N006212200019N0040001N1+03071+02171101111ADDAA106000091GF105991041021017501001011MA1999999100601MD1999999-0031REMSYN070AAXX  10184 82198 32796 50512 10307 20217 30060 40111 84201 333 59003;EQDQ01  00002PRCP06
0186821980999992002091112004-01720-045400FM-12+004499999V0200501N003610450019N0100001N1+02841+02311101451ADDAA106000091GF107991041021017501061001KA1240N+02431MA1999999100931MD1999999+0011REMSYN076AAXX  11124 82198 32797 70507 10284 20231 30093 40145 84260 333 20243 58001;EQDQ01  00002PRCP06
0167821980999992002091118004-01720-045400FM-12+004499999V0200501N005110150019N0040001N1+03181+02251101111ADDAA106000091GF106991061021017501001001MA1999999100601MD1999999+0001REMSYN070AAXX  11184 82198 32796 60510 10318 20225 30060 40111 86200 333 58000;EQDQ01  00002PRCP06
0198821980999992002091200004-01720-045400FM-12+004499999V0200501N003112200019N0002001N1+02581+02311101241ADDAA106000091GF102991011001017501011011KA1240M+03301MA1999999100731MD1999999-0021REMSYN088AAXX  12004 82198 32792 20506 10258 20231 30073 40124 81011 333 10330 29075 55096 59002;EQDQ01  00002PRCP06
0186821980999992002091212004-01720-045400FM-12+004499999V0200501N005110150019N0020001N1+02831+02311101321ADDAA106000091GF106991061021017501001001KA1240N+02431MA1999999100811MD1999999-0121REMSYN076AAXX  12124 82198 32795 60510 10283 20231 30081 40132 86200 333 20243 59012;EQDQ01  00002PRCP06
0167821980999992002091218004-01720-045400FM-12+004499999V0200501N005110450019N0040001N1+03001+02241101061ADDAA106000091GF106991031021017501061001MA1999999100531MD1999999-0071REMSYN070AAXX  12184 82198 32796 60510 10300 20224 30053 40106 83260 333 59007;EQDQ01  00002PRCP06
0198821980999992002091300004-01720-045400FM-12+004499999V0200501N002112200019N0002001N1+02601+02351101261ADDAA106000091GF102991021001017501001011KA1240M+03251MA1999999100751MD1999999+0021REMSYN088AAXX  13004 82198 32792 20504 10260 20235 30075 40126 82001 333 10325 29078 55073 58002;EQDQ01  00002PRCP06
0186821980999992002091312004-01720-045400FM-12+004499999V0200501N004610450019N0040001N1+02871+02151101271ADDAA106000091GF106991031021017501061001KA1240N+02431MA1999999100761MD1999999-0051REMSYN076AAXX  13124 82198 32796 60509 10287 20215 30076 40127 83260 333 20243 59005;EQDQ01  00002PRCP06
0167821980999992002091318004-01720-045400FM-12+004499999V0200501N003610150019N0020001N1+03081+02211101001ADDAA106000091GF106991061021017501001001MA1999999100491MD1999999-0041REMSYN070AAXX  13184 82198 32795 60507 10308 20221 30049 40100 86200 333 59004;EQDQ01  00002PRCP06
0198821980999992002091400004-01720-045400FM-12+004499999V0200501N003112200019N0005001N1+02591+02311101241ADDAA106000091GF104991021011017501001011KA1240M+03261MA1999999100731MD1999999-0021REMSYN088AAXX  14004 82198 32793 40506 10259 20231 30073 40124 82101 333 10326 29074 55084 59002;EQDQ01  00002PRCP06
0186821980999992002091412004-01720-045400FM-12+004499999V0203601N004110450019N0020001N1+02821+02341101291ADDAA106000091GF106991041021017501061001KA1240N+02431MA1999999100781MD1999999+0021REMSYN076AAXX  14124 82198 32795 63608 10282 20234 30078 40129 84260 333 20243 58002;EQDQ01  00002PRCP06
0167821980999992002091418004-01720-045400FM-12+004499999V0203601N005710150019N0040001N1+03061+02301101001ADDAA106000091GF106991061021017501001001MA1999999100481MD1999999-0011REMSYN070AAXX  14184 82198 32796 63611 10306 20230 30048 40100 86200 333 59001;EQDQ01  00002PRCP06
0198821980999992002091500004-01720-045400FM-12+004499999V0203601N003612200019N0005001N1+02591+02351101221ADDAA106000091GF102991011011017501001011KA1240M+03281MA1999999100711MD1999999-0021REMSYN088AAXX  15004 82198 32793 23607 10259 20235 30071 40122 81101 333 10328 29078 55066 59002;EQDQ01  00002PRCP06
0186821980999992002091512004-01720-045400FM-12+004499999V0200501N005710150019N0040001N1+02831+02291101391ADDAA106000091GF108991051021017501061001KA1240N+02541MA1999999100871MD1999999+0091REMSYN076AAXX  15124 82198 32796 80511 10283 20229 30087 40139 85260 333 20254 58009;EQDQ01  00002PRCP06
0167821980999992002091518004-01720-045400FM-12+004499999V0200501N005110150019N0040001N1+02961+02231101191ADDAA106000091GF108991051021017501061001MA1999999100671MD1999999+0191REMSYN070AAXX  15184 82198 32796 80510 10296 20223 30067 40119 85260 333 58019;EQDQ01  00002PRCP06
0186821980999992002091612004-01720-045400FM-12+004499999V0200501N005710150019N0040001N1+02831+02221101441ADDAA106000091GF108991051021017501061001KA1240N+02421MA1999999100921MD1999999+0051REMSYN076AAXX  16124 82198 32796 80511 10283 20222 30092 40144 85260 333 20242 58005;EQDQ01  00002PRCP06
0167821980999992002091618004-01720-045400FM-12+004499999V0200501N007210450019N0040001N1+03071+02111101151ADDAA106000091GF106991041021017501011001MA1999999100631MD1999999-0041REMSYN070AAXX  16184 82198 32796 60514 10307 20211 30063 40115 84210 333 59004;EQDQ01  00002PRCP06
0208821980999992002091700004-01720-045400FM-12+004499999V0200501N005112200019N0005001N1+02601+02391101371ADDAA106000091GA1001+999999999GF100991001001999999001001KA1240M+03261MA1999999100851MD1999999+0101REMSYN082AAXX  17004 82198 32993 00510 10260 20239 30085 40137 333 10326 29076 55088 58010;EQDQ01  00002PRCP06
0186821980999992002091712004-01720-045400FM-12+004499999V0200901N006710150019N0020001N1+02891+02271101441ADDAA106000091GF106991061021017501001001KA1240N+02471MA1999999100921MD1999999+0001REMSYN076AAXX  17124 82198 32795 60913 10289 20227 30092 40144 86200 333 20247 58000;EQDQ01  00002PRCP06
0167821980999992002091718004-01720-045400FM-12+004499999V0200501N007210450019N0040001N1+03071+02111101151ADDAA106000091GF106991041021017501011001MA1999999100631MD1999999+0041REMSYN070AAXX  17184 82198 32796 60514 10307 20211 30063 40115 84210 333 58004;EQDQ01  00002PRCP06
0186821980999992002091812004-01720-045400FM-12+004499999V0200901N008210450019N0020001N1+02831+02061101331ADDAA106000091GF107991041021017501061001KA1240N+02441MA1999999100811MD1999999-0111REMSYN076AAXX  18124 82198 32795 70916 10283 20206 30081 40133 84260 333 20244 59011;EQDQ01  00002PRCP06
0167821980999992002091818004-01720-045400FM-12+004499999V0200901N006210450019N0040001N1+03131+02061101021ADDAA106000091GF106991031021017501061001MA1999999100511MD1999999-0111REMSYN070AAXX  18184 82198 32796 60912 10313 20206 30051 40102 83260 333 59011;EQDQ01  00002PRCP06
0198821980999992002091900004-01720-045400FM-12+004499999V0200501N002612200019N0040001N1+02571+02271101271ADDAA106000091GF104991021001017501011011KA1240M+03251MA1999999100761MD1999999-0071REMSYN088AAXX  19004 82198 32796 40505 10257 20227 30076 40127 82011 333 10325 29070 55103 59007;EQDQ01  00002PRCP06
0186821980999992002091912004-01720-045400FM-12+004499999V0200501N004610450019N0020001N1+02811+02311101371ADDAA106000091GF107991041021017501061001KA1240N+02501MA1999999100851MD1999999+0041REMSYN076AAXX  19124 82198 32795 70509 10281 20231 30085 40137 84260 333 20250 58004;EQDQ01  00002PRCP06
0167821980999992002091918004-01720-045400FM-12+004499999V0200901N006710450019N0040001N1+03181+02251100981ADDAA106000091GF106991031021017501061001MA1999999100471MD1999999-0041REMSYN070AAXX  19184 82198 32796 60913 10318 20225 30047 40098 83260 333 59004;EQDQ01  00002PRCP06
0198821980999992002092000004-01720-045400FM-12+004499999V0200501N004612200019N0005001N1+02611+02401101241ADDAA106000091GF102991021011017501001001KA1240M+03381MA1999999100731MD1999999-0031REMSYN088AAXX  20004 82198 32793 20509 10261 20240 30073 40124 82100 333 10338 29078 55088 59003;EQDQ01  00002PRCP06
0186821980999992002092012004-01720-045400FM-12+004499999V0200501N004110450019N0020001N1+02811+02291101401ADDAA106000091GF106991041021017501011001KA1240N+02521MA1999999100881MD1999999+0031REMSYN076AAXX  20124 82198 32795 60508 10281 20229 30088 40140 84210 333 20252 58003;EQDQ01  00002PRCP06
0167821980999992002092018004-01720-045400FM-12+004499999V0203601N006710450019N0020001N1+02961+02231101161ADDAA106000091GF106991031021017501011001MA1999999100651MD1999999+0181REMSYN070AAXX  20184 82198 32795 63613 10296 20223 30065 40116 83210 333 58018;EQDQ01  00002PRCP06
0198821980999992002092100004-01720-045400FM-12+004499999V0200501N002112200019N0005001N1+02631+02291101371ADDAA106000091GF103991031011017501001001KA1240M+03251MA1999999100851MD1999999+0121REMSYN088AAXX  21004 82198 32793 30504 10263 20229 30085 40137 83100 333 10325 29076 55091 58012;EQDQ01  00002PRCP06
0186821980999992002092112004-01720-045400FM-12+004499999V0200501N004110450019N0020001N1+02851+02271101351ADDAA106000091GF106991031021017501061001KA1240N+02441MA1999999100831MD1999999-0051REMSYN076AAXX  21124 82198 32795 60508 10285 20227 30083 40135 83260 333 20244 59005;EQDQ01  00002PRCP06
0167821980999992002092118004-01720-045400FM-12+004499999V0203601N005110450019N0005001N1+02991+02271101061ADDAA106000091GF106991031021017501061001MA1999999100551MD1999999-0101REMSYN070AAXX  21184 82198 32793 63610 10299 20227 30055 40106 83260 333 59010;EQDQ01  00002PRCP06
0198821980999992002092200004-01720-045400FM-12+004499999V0200501N002612200019N0005001N1+02601+02331101231ADDAA106000091GF102991021011017501001001KA1240M+03251MA1999999100721MD1999999-0131REMSYN088AAXX  22004 82198 32793 20505 10260 20233 30072 40123 82100 333 10325 29077 55081 59013;EQDQ01  00002PRCP06
0186821980999992002092212004-01720-045400FM-12+004499999V0200501N003110150019N0020001N1+02841+02291101301ADDAA106000091GF105991051021017501001001KA1240N+02431MA1999999100791MD1999999-0041REMSYN076AAXX  22124 82198 32795 50506 10284 20229 30079 40130 85200 333 20243 59004;EQDQ01  00002PRCP06
0167821980999992002092218004-01720-045400FM-12+004499999V0200501N005110150019N0040001N1+03121+02221101051ADDAA106000091GF107991051021017501061001MA1999999100541MD1999999-0011REMSYN070AAXX  22184 82198 32796 70510 10312 20222 30054 40105 85260 333 59001;EQDQ01  00002PRCP06
0186821980999992002092312004-01720-045400FM-12+004499999V0200501N006210150019N0020001N1+02861+02331101241ADDAA106000091GF105991051021017501001001KA1240N+02451MA1999999100731MD1999999-0061REMSYN076AAXX  23124 82198 32795 50512 10286 20233 30073 40124 85200 333 20245 59006;EQDQ01  00002PRCP06
0167821980999992002092318004-01720-045400FM-12+004499999V0200501N004110450019N0005001N1+02971+02221101041ADDAA106000091GF107991041021017501061001MA1999999100531MD1999999-0011REMSYN070AAXX  23184 82198 32793 70508 10297 20222 30053 40104 84260 333 59001;EQDQ01  00002PRCP06
0198821980999992002092400004-01720-045400FM-12+004499999V0200501N003612200019N0005001N1+02561+02251101151ADDAA106000091GF101991011011017501001001KA1240M+03251MA1999999100641MD1999999+0021REMSYN088AAXX  24004 82198 32793 10507 10256 20225 30064 40115 81100 333 10325 29076 55072 58002;EQDQ01  00002PRCP06
0186821980999992002092412004-01720-045400FM-12+004499999V0200501N004610150019N0020001N1+02931+02071101331ADDAA106000091GF106991061021017501001001KA1240N+02461MA1999999100811MD1999999+0081REMSYN076AAXX  24124 82198 32795 60509 10293 20207 30081 40133 86200 333 20246 58008;EQDQ01  00002PRCP06
0167821980999992002092418004-01720-045400FM-12+004499999V0200501N003110450019N0005001N1+03021+02161101021ADDAA106000091GF106991041021017501061001MA1999999100511MD1999999-0021REMSYN070AAXX  24184 82198 32793 60506 10302 20216 30051 40102 84260 333 59002;EQDQ01  00002PRCP06
0202821980999992002092500004-01720-045400FM-12+004499999V0200501N003112200019N0002001N1+02511+02211101131ADDAY111061AY221061GF103991021001017501011011KA1240M+03271MA1999999100621MD1999999-0021MW1011REMSYN100AAXX  25004 82198 21792 30506 10251 20221 30062 40113 70112 82011 333 10327 29072 55076 59002 69941;
0162821980999992002092512004-01720-045400FM-12+004499999V0200501N004610150019N0020001N1+02841+02331101321ADDGF105991051021017501001001KA1240N+02351MA1999999100801MD1999999-0011REMSYN082AAXX  25124 82198 22795 50509 10284 20233 30080 40132 85200 333 20235 59001 69944;
0167821980999992002092518004-01720-045400FM-12+004499999V0200501N004112200019N0040001N1+03291+02031100931ADDAA106000091GF104991041021017501001001MA1999999100421MD1999999-0091REMSYN070AAXX  25184 82198 32796 40508 10329 20203 30042 40093 84200 333 59009;EQDQ01  00002PRCP06
0198821980999992002092600004-01720-045400FM-12+004499999V0200501N002612200019N0002001N1+02581+02331101151ADDAA106000091GF101991011021017501001001KA1240M+03381MA1999999100641MD1999999+0021REMSYN088AAXX  26004 82198 32792 10505 10258 20233 30064 40115 81200 333 10338 29074 55106 58002;EQDQ01  00002PRCP06
0186821980999992002092612004-01720-045400FM-12+004499999V0200901N005710450019N0020001N1+02821+02171101271ADDAA106000091GF106991041021017501061001KA1240N+02391MA1999999100761MD1999999-0041REMSYN076AAXX  26124 82198 32795 60911 10282 20217 30076 40127 84260 333 20239 59004;EQDQ01  00002PRCP06
0167821980999992002092618004-01720-045400FM-12+004499999V0200501N005110150019N0020001N1+03141+02181100991ADDAA106000091GF105991051021017501001001MA1999999100471MD1999999+0051REMSYN070AAXX  26184 82198 32795 50510 10314 20218 30047 40099 85200 333 58005;EQDQ01  00002PRCP06
0186821980999992002092712004-01720-045400FM-12+004499999V0200501N006210450019N0020001N1+02921+02171101321ADDAA106000091GF106991031021017501061001KA1240N+02471MA1999999100861MD1999999+0101REMSYN076AAXX  27124 82198 32795 60512 10292 20217 30086 40132 83260 333 20247 58010;EQDQ01  00002PRCP06
0167821980999992002092718004-01720-045400FM-12+004499999V0200901N005110450019N0040001N1+03021+02181101161ADDAA106000091GF107991041021017501061001MA1999999100641MD1999999+0171REMSYN070AAXX  27184 82198 32796 70910 10302 20218 30064 40116 84260 333 58017;EQDQ01  00002PRCP06
0208821980999992002092800004-01720-045400FM-12+004499999V0200501N004612200019N0002001N1+02611+02171101411ADDAA106000091GA1001+999999999GF100991001001999999001001KA1240M+03161MA1999999100891MD1999999+0161REMSYN082AAXX  28004 82198 32992 00509 10261 20217 30089 40141 333 10316 29070 55085 58016;EQDQ01  00002PRCP06
0186821980999992002092812004-01720-045400FM-12+004499999V0200501N003110150019N0040001N1+02871+02251101381ADDAA106000091GF106991061021017501001001KA1240N+02381MA1999999100861MD1999999+0001REMSYN076AAXX  28124 82198 32796 60506 10287 20225 30086 40138 86200 333 20238 58000;EQDQ01  00002PRCP06
0167821980999992002092818004-01720-045400FM-12+004499999V0200501N005110150019N0040001N1+03191+01931101111ADDAA106000091GF105991051021017501001001MA1999999100601MD1999999-0041REMSYN070AAXX  28184 82198 32796 50510 10319 20193 30060 40111 85200 333 59004;EQDQ01  00002PRCP06
0208821980999992002092900004-01720-045400FM-12+004499999V0200501N004112200019N0002001N1+02621+02271101261ADDAA106000091GA1001+999999999GF100991001001999999001001KA1240M+03391MA1999999100751MD1999999-0141REMSYN082AAXX  29004 82198 32992 00508 10262 20227 30075 40126 333 10339 29070 55102 59014;EQDQ01  00002PRCP06
0186821980999992002092912004-01720-045400FM-12+004499999V0200501N006210450019N0020001N1+02901+02271101401ADDAA106000091GF106991041021017501061001KA1240N+02481MA1999999100881MD1999999+0021REMSYN076AAXX  29124 82198 32795 60512 10290 20227 30088 40140 84260 333 20248 58002;EQDQ01  00002PRCP06
0167821980999992002092918004-01720-045400FM-12+004499999V0200501N007212200019N0040001N1+03081+02211101111ADDAA106000091GF105991031021017501001011MA1999999100601MD1999999+0001REMSYN070AAXX  29184 82198 32796 50514 10308 20221 30060 40111 83201 333 58000;EQDQ01  00002PRCP06
0198821980999992002093000004-01720-045400FM-12+004499999V0200501N003612200019N0002001N1+02601+02271101261ADDAA106000091GF102991021011017501001001KA1240M+03241MA1999999100751MD1999999+0001REMSYN088AAXX  30004 82198 32792 20507 10260 20227 30075 40126 82100 333 10324 29073 55075 58000;EQDQ01  00002PRCP06
0186821980999992002093012004-01720-045400FM-12+004499999V0200501N004610450019N0020001N1+02821+02291101431ADDAA106000091GF106991031021017501061001KA1240N+02431MA1999999100911MD1999999+0031REMSYN076AAXX  30124 82198 32795 60509 10282 20229 30091 40143 83260 333 20243 58003;EQDQ01  00002PRCP06
0167821980999992002093018004-01720-045400FM-12+004499999V0200501N005112200019N0040001N1+03281+02071101181ADDAA106000091GF104991041021017501001001MA1999999100671MD1999999+0071REMSYN070AAXX  30184 82198 32796 40510 10328 20207 30067 40118 84200 333 58007;EQDQ01  00002PRCP06
0186821980999992002100112004-01720-045400FM-12+004499999V0200901N004110150019N0100001N1+02941+02361101541ADDAA106000091GF105991051021017501001001KA1240N+02431MA1999999101031MD1999999+0121REMSYN076AAXX  01124 82198 32797 50908 10294 20236 30103 40154 85200 333 20243 58012;EQDQ01  00002PRCP06
0167821980999992002100118004-01720-045400FM-12+004499999V0200501N006712200019N0100001N1+03091+02211101221ADDAA106000091GF102991021021017501001001MA1999999100701MD1999999+0031REMSYN070AAXX  01184 82198 32797 20513 10309 20221 30070 40122 82200 333 58003;EQDQ01  00002PRCP06
0208821980999992002100200004-01720-045400FM-12+004499999V0200501N005112200019N0005001N1+02591+02231101411ADDAA106000091GA1001+999999999GF100991001001999999001001KA1240M+03221MA1999999100891MD1999999+0041REMSYN082AAXX  02004 82198 32993 00510 10259 20223 30089 40141 333 10322 29073 55102 58004;EQDQ01  00002PRCP06
0186821980999992002100212004-01720-045400FM-12+004499999V0200501N005110150019N0100001N1+02831+02291101421ADDAA106000091GF105991051021017501001001KA1240N+02441MA1999999100901MD1999999-0131REMSYN076AAXX  02124 82198 32797 50510 10283 20229 30090 40142 85200 333 20244 59013;EQDQ01  00002PRCP06
0167821980999992002100218004-01720-045400FM-12+004499999V0200501N005110150019N0100001N1+03031+02241101161ADDAA106000091GF105991051021017501001001MA1999999100641MD1999999-0061REMSYN070AAXX  02184 82198 32797 50510 10303 20224 30064 40116 85200 333 59006;EQDQ01  00002PRCP06
0208821980999992002100300004-01720-045400FM-12+004499999V0200501N002612200019N0005001N1+02591+02311101321ADDAA106000091GA1001+999999999GF100991001001999999001001KA1240M+03171MA1999999100801MD1999999-0091REMSYN082AAXX  03004 82198 32993 00505 10259 20231 30080 40132 333 10317 29077 55100 59009;EQDQ01  00002PRCP06
0186821980999992002100312004-01720-045400FM-12+004499999V0200501N005110150019N0100001N1+02921+02271101351ADDAA106000091GF106991061021017501001001KA1240N+02451MA1999999100831MD1999999-0071REMSYN076AAXX  03124 82198 32797 60510 10292 20227 30083 40135 86200 333 20245 59007;EQDQ01  00002PRCP06
0167821980999992002100318004-01720-045400FM-12+004499999V0200901N006712200019N0100001N1+03221+02231100951ADDAA106000091GF103991031021017501001001MA1999999100431MD1999999-0211REMSYN070AAXX  03184 82198 32797 30913 10322 20223 30043 40095 83200 333 59021;EQDQ01  00002PRCP06
0208821980999992002100400004-01720-045400FM-12+004499999V0200501N003112200019N0002001N1+02581+02291101191ADDAA106000091GA1001+999999999GF100991001001999999001001KA1240M+03281MA1999999100681MD1999999-0121REMSYN082AAXX  04004 82198 32992 00506 10258 20229 30068 40119 333 10328 29073 55099 59012;EQDQ01  00002PRCP06
0186821980999992002100412004-01720-045400FM-12+004499999V0200901N005710150019N0100001N1+02981+02251101401ADDAA106000091GF105991051021017501001001KA1240N+02421MA1999999100881MD1999999+0051REMSYN076AAXX  04124 82198 32797 50911 10298 20225 30088 40140 85200 333 20242 58005;EQDQ01  00002PRCP06
0167821980999992002100418004-01720-045400FM-12+004499999V0200501N004110450019N0100001N1+03091+02271101061ADDAA106000091GF106991041021017501061001MA1999999100541MD1999999+0111REMSYN070AAXX  04184 82198 32797 60508 10309 20227 30054 40106 84260 333 58011;EQDQ01  00002PRCP06
0208821980999992002100500004-01720-045400FM-12+004499999V0200501N004112200019N0002001N1+02601+02391101171ADDAA106000091GA1001+999999999GF100991001001999999001001KA1240M+03211MA1999999100651MD1999999-0031REMSYN082AAXX  05004 82198 32992 00508 10260 20239 30065 40117 333 10321 29076 55065 59003;EQDQ01  00002PRCP06
0186821980999992002100512004-01720-045400FM-12+004499999V0200501N005110450019N0100001N1+02891+02301101301ADDAA106000091GF106991041021017501061001KA1240N+02491MA1999999100781MD1999999-0101REMSYN076AAXX  05124 82198 32797 60510 10289 20230 30078 40130 84260 333 20249 59010;EQDQ01  00002PRCP06
0167821980999992002100518004-01720-045400FM-12+004499999V0200501N008210150019N0100001N1+03121+02361100981ADDAA106000091GF106991061021017501001001MA1999999100461MD1999999-0081REMSYN070AAXX  05184 82198 32797 60516 10312 20236 30046 40098 86200 333 59008;EQDQ01  00002PRCP06
0208821980999992002100600004-01720-045400FM-12+004499999V0200501N003112200019N0002001N1+02601+02421101151ADDAA106000091GA1001+999999999GF100991001001999999001001KA1240M+03211MA1999999100631MD1999999-0021REMSYN082AAXX  06004 82198 32792 00506 10260 20242 30063 40115 333 10321 29080 55088 59002;EQDQ01  00002PRCP06
0186821980999992002100612004-01720-045400FM-12+004499999V0200901N007210150019N0100001N1+02871+02321101291ADDAA106000091GF106991061021017501001001KA1240N+02461MA1999999100771MD1999999-0011REMSYN076AAXX  06124 82198 32797 60914 10287 20232 30077 40129 86200 333 20246 59001;EQDQ01  00002PRCP06
0167821980999992002100618004-01720-045400FM-12+004499999V0200501N007210150019N0100001N1+03141+02271100991ADDAA106000091GF105991051021017501001001MA1999999100471MD1999999+0011REMSYN070AAXX  06184 82198 32797 50514 10314 20227 30047 40099 85200 333 58001;EQDQ01  00002PRCP06
0208821980999992002100700004-01720-045400FM-12+004499999V0200501N003612200019N0002001N1+99999+99999101151ADDAA106000091GA1001+999999999GF100991001001999999001001KA1240M+03241MA1999999100631MD1999999+0001REMSYN082AAXX  07004 82198 32992 00507 10926 20229 30063 40115 333 10324 29075 55092 58000;EQDQ01  00002PRCP06
0167821980999992002100718004-01720-045400FM-12+004499999V0200901N008212200019N0100001N1+03151+02141100981ADDAA106000091GF104991041021017501001001MA1999999100941MD1999999-0011REMSYN070AAXX  07184 82198 32797 40916 10315 20214 30094 40098 84200 333 59001;EQDQ01  00002PRCP06
0208821980999992002100800004-01720-045400FM-12+004499999V0200501N002612200019N0002001N1+02571+02351101121ADDAA106000091GA1001+999999999GF100991001001999999001001KA1240M+03331MA1999999100601MD1999999-0061REMSYN082AAXX  08004 82198 32992 00505 10257 20235 30060 40112 333 10333 29070 55104 59006;EQDQ01  00002PRCP06
0186821980999992002100812004-01720-045400FM-12+004499999V0200901N006710450019N0100001N1+02861+02231101321ADDAA106000091GF106991041021017501061001KA1240N+02411MA1999999100801MD1999999+0041REMSYN076AAXX  08124 82198 32797 60913 10286 20223 30080 40132 84260 333 20241 58004;EQDQ01  00002PRCP06
0167821980999992002100818004-01720-045400FM-12+004499999V0200901N005712200019N0100001N1+03201+02301100961ADDAA106000091GF103991021021017501001011MA1999999100451MD1999999-0011REMSYN070AAXX  08184 82198 32797 30911 10320 20230 30045 40096 82201 333 59001;EQDQ01  00002PRCP06
0208821980999992002100900004-01720-045400FM-12+004499999V0200501N004612200019N0005001N1+02621+02351101121ADDAA106000091GA1001+999999999GF100991001001999999001001KA1240M+03281MA1999999100601MD1999999+0001REMSYN082AAXX  09004 82198 32993 00509 10262 20235 30060 40112 333 10328 29074 55098 58000;EQDQ01  00002PRCP06
0186821980999992002100912004-01720-045400FM-12+004499999V0200901N006210150019N0100001N1+02971+02301101251ADDAA106000091GF107991051021017501061001KA1240N+02481MA1999999100731MD1999999-0071REMSYN076AAXX  09124 82198 32797 70912 10297 20230 30073 40125 85260 333 20248 59007;EQDQ01  00002PRCP06
0167821980999992002100918004-01720-045400FM-12+004499999V0200501N005712200019N0100001N1+03251+02251100981ADDAA106000091GF104991041021017501001001MA1999999100471MD1999999+0021REMSYN070AAXX  09184 82198 32797 40511 10325 20225 30047 40098 84200 333 58002;EQDQ01  00002PRCP06
0208821980999992002101000004-01720-045400FM-12+004499999V0200501N004112200019N0005001N1+02581+02371101161ADDAA106000091GA1001+999999999GF100991001001999999001001KA1240M+03391MA1999999100641MD1999999+0041REMSYN082AAXX  10004 82198 32993 00508 10258 20237 30064 40116 333 10339 29075 55098 58004;EQDQ01  00002PRCP06
0186821980999992002101012004-01720-045400FM-12+004499999V0200901N007210150019N0100001N1+02881+02371101251ADDAA106000091GF106991051021017501001011KA1240N+02441MA1999999100731MD1999999+0001REMSYN076AAXX  10124 82198 32797 60914 10288 20237 30073 40125 85201 333 20244 58000;EQDQ01  00002PRCP06
0167821980999992002101018004-01720-045400FM-12+004499999V0200901N005112200019N0100001N1+03171+02281100951ADDAA106000091GF104991041021017501001001MA1999999100441MD1999999-0031REMSYN070AAXX  10184 82198 32797 40910 10317 20228 30044 40095 84200 333 59003;EQDQ01  00002PRCP06
0208821980999992002101100004-01720-045400FM-12+004499999V0200501N004112200019N0005001N1+02621+02331101191ADDAA106000091GA1001+999999999GF100991001001999999001001KA1240M+03291MA1999999100681MD1999999+0041REMSYN082AAXX  11004 82198 32993 00508 10262 20233 30068 40119 333 10329 29076 55098 58004;EQDQ01  00002PRCP06
0186821980999992002101112004-01720-045400FM-12+004499999V0200501N006710450019N0100001N1+02841+02311101341ADDAA106000091GF108991041021017501031001KA1240N+02471MA1999999100861MD1999999+0131REMSYN076AAXX  11124 82198 32797 80513 10284 20231 30086 40134 84230 333 20247 58013;EQDQ01  00002PRCP06
0167821980999992002101118004-01720-045400FM-12+004499999V0200501N005712200019N0100001N1+03191+02221101071ADDAA106000091GF103991031021017501001001MA1999999100551MD1999999+0111REMSYN070AAXX  11184 82198 32797 30511 10319 20222 30055 40107 83200 333 58011;EQDQ01  00002PRCP06
0208821980999992002101200004-01720-045400FM-12+004499999V0200501N004612200019N0010001N1+02631+02331101181ADDAA106000091GA1001+999999999GF100991001001999999001001KA1240M+03271MA1999999100661MD1999999-0021REMSYN082AAXX  12004 82198 32994 00509 10263 20233 30066 40118 333 10327 29074 55081 59002;EQDQ01  00002PRCP06
0186821980999992002101212004-01720-045400FM-12+004499999V0200901N005710150019N0100001N1+02821+02331101151ADDAA106000091GF108991051021017501031001KA1240N+02461MA1999999100831MD1999999-0031REMSYN076AAXX  12124 82198 32797 80911 10282 20233 30083 40115 85230 333 20246 59003;EQDQ01  00002PRCP06
0167821980999992002101218004-01720-045400FM-12+004499999V0200901N005112200019N0100001N1+03161+02321101121ADDAA106000091GF103991031021017501001001MA1999999100601MD1999999+0051REMSYN070AAXX  12184 82198 32797 30910 10316 20232 30060 40112 83200 333 58005;EQDQ01  00002PRCP06
0208821980999992002101300004-01720-045400FM-12+004499999V0200501N002612200019N0005001N1+02611+02401101331ADDAA106000091GA1001+999999999GF100991001001999999001001KA1240M+03271MA1999999100811MD1999999+0151REMSYN082AAXX  13004 82198 32993 00505 10261 20240 30081 40133 333 10327 29078 55053 58015;EQDQ01  00002PRCP06
0186821980999992002101312004-01720-045400FM-12+004499999V0200901N008210150019N0100001N1+02931+02341101361ADDAA106000091GF106991061021017501001001KA1240N+02461MA1999999100841MD1999999+0011REMSYN076AAXX  13124 82198 32797 60916 10293 20234 30084 40136 86200 333 20246 58001;EQDQ01  00002PRCP06
0167821980999992002101318004-01720-045400FM-12+004499999V0200901N006712200019N0100001N1+03141+02271101071ADDAA106000091GF104991041021017501001001MA1999999100561MD1999999-0041REMSYN070AAXX  13184 82198 32797 40913 10314 20227 30056 40107 84200 333 59004;EQDQ01  00002PRCP06
0208821980999992002101400004-01720-045400FM-12+004499999V0200501N003612200019N0005001N1+02581+02291101191ADDAA106000091GA1001+999999999GF100991001001999999001001KA1240M+03241MA1999999100671MD1999999+0141REMSYN082AAXX  14004 82198 32993 00507 10258 20229 30067 40119 333 10324 29075 55087 58014;EQDQ01  00002PRCP06
0186821980999992002101412004-01720-045400FM-12+004499999V0200501N006210150019N0100001N1+02841+02311101381ADDAA106000091GF106991061021017501001001KA1240N+02491MA1999999100861MD1999999+0021REMSYN076AAXX  14124 82198 32797 60512 10284 20231 30086 40138 86200 333 20249 58002;EQDQ01  00002PRCP06
0167821980999992002101418004-01720-045400FM-12+004499999V0200501N004610150019N0100001N1+03191+02281100961ADDAA106000091GF105991051021017501001001MA1999999100451MD1999999-0111REMSYN070AAXX  14184 82198 32797 50509 10319 20228 30045 40096 85200 333 59011;EQDQ01  00002PRCP06
0208821980999992002101500004-01720-045400FM-12+004499999V0200501N003612200019N0005001N1+02611+02291101171ADDAA106000091GA1001+999999999GF100991001001999999001001KA1240M+03231MA1999999100651MD1999999-0021REMSYN082AAXX  15004 82198 32993 00507 10261 20229 30065 40117 333 10323 29074 55072 59002;EQDQ01  00002PRCP06
0186821980999992002101512004-01720-045400FM-12+004499999V0200501N004110150019N0100001N1+02871+02281101391ADDAA106000091GF107991071021017501001001KA1240N+02481MA1999999100871MD1999999+0011REMSYN076AAXX  15124 82198 32797 70508 10287 20228 30087 40139 87200 333 20248 58001;EQDQ01  00002PRCP06
0167821980999992002101518004-01720-045400FM-12+004499999V0200501N004610150019N0100001N1+03061+02331100971ADDAA106000091GF105991051021017501001001MA1999999100461MD1999999+0011REMSYN070AAXX  15184 82198 32797 50509 10306 20233 30046 40097 85200 333 58001;EQDQ01  00002PRCP06
0208821980999992002101600004-01720-045400FM-12+004499999V0200501N004112200019N0020001N1+02611+02331101171ADDAA106000091GA1001+999999999GF100991001001999999001001KA1240M+03261MA1999999100651MD1999999+0001REMSYN082AAXX  16004 82198 32995 00508 10261 20233 30065 40117 333 10326 29076 55060 58000;EQDQ01  00002PRCP06
0186821980999992002101612004-01720-045400FM-12+004499999V0200501N004112200019N0100001N1+02951+02311101371ADDAA106000091GF104991041021017501001001KA1240N+02481MA1999999100851MD1999999-0021REMSYN076AAXX  16124 82198 32797 40508 10295 20231 30085 40137 84200 333 20248 59002;EQDQ01  00002PRCP06
0167821980999992002101618004-01720-045400FM-12+004499999V0200501N006710150019N0100001N1+03021+02341101061ADDAA106000091GF105991051021017501001001MA1999999100541MD1999999+0081REMSYN070AAXX  16184 82198 32797 50513 10302 20234 30054 40106 85200 333 58008;EQDQ01  00002PRCP06
0208821980999992002101700004-01720-045400FM-12+004499999V0200501N003612200019N0020001N1+02641+02421101251ADDAA106000091GA1001+999999999GF100991001001999999001001KA1240M+03251MA1999999100731MD1999999+0081REMSYN082AAXX  17004 82198 32995 00507 10264 20242 30073 40125 333 10325 29078 55095 58008;EQDQ01  00002PRCP06
0186821980999992002101712004-01720-045400FM-12+004499999V0200901N004112200019N0100001N1+02991+02331101301ADDAA106000091GF104991041021017501001001KA1240N+02431MA1999999100781MD1999999-0071REMSYN076AAXX  17124 82198 32797 40908 10299 20233 30078 40130 84200 333 20243 59007;EQDQ01  00002PRCP06
0167821980999992002101718004-01720-045400FM-12+004499999V0200501N007212200019N0100001N1+03261+02271100871ADDAA106000091GF103991031021017501001001MA1999999100361MD1999999+0181REMSYN070AAXX  17184 82198 32797 30514 10326 20227 30036 40087 83200 333 58018;EQDQ01  00002PRCP06
0208821980999992002101800004-01720-045400FM-12+004499999V0200501N004612200019N0020001N1+02641+02331101101ADDAA106000091GA1001+999999999GF100991001001999999001001KA1240M+03291MA1999999100581MD1999999-0151REMSYN082AAXX  18004 82198 32995 00509 10264 20233 30058 40110 333 10329 29072 55099 59015;EQDQ01  00002PRCP06
0186821980999992002101812004-01720-045400FM-12+004499999V0200901N006210150019N0100001N1+02931+02341101201ADDAA106000091GF107991071021017501001001KA1240N+02491MA1999999100681MD1999999-0101REMSYN076AAXX  18124 82198 32797 70912 10293 20234 30068 40120 87200 333 20249 59010;EQDQ01  00002PRCP06
0167821980999992002101818004-01720-045400FM-12+004499999V0200501N005710150019N0100001N1+03121+02381100791ADDAA106000091GF106991051021017501061001MA1999999100281MD1999999-0081REMSYN070AAXX  18184 82198 32797 60511 10312 20238 30028 40079 85260 333 59008;EQDQ01  00002PRCP06
0198821980999992002101900004-01720-045400FM-12+004499999V0200501N003112200019N0020001N1+02631+02351101051ADDAA106000091GF104991041011017501001001KA1240M+03301MA1999999100531MD1999999-0051REMSYN088AAXX  19004 82198 32795 40506 10263 20235 30053 40105 84100 333 10330 29076 55072 59005;EQDQ01  00002PRCP06
0186821980999992002101912004-01720-045400FM-12+004499999V0200901N006210150019N0100001N1+02861+02311101281ADDAA106000091GF108991051021017501061001KA1240N+02481MA1999999100761MD1999999+0081REMSYN076AAXX  19124 82198 32797 80912 10286 20231 30076 40128 85260 333 20248 58008;EQDQ01  00002PRCP06
0167821980999992002101918004-01720-045400FM-12+004499999V0200501N007210450019N0100001N1+03141+02271100841ADDAA106000091GF106991041021017501061001MA1999999100321MD1999999+0041REMSYN070AAXX  19184 82198 32797 60514 10314 20227 30032 40084 84260 333 58004;EQDQ01  00002PRCP06
0186821980999992002102012004-01720-045400FM-12+004499999V0200901N006710150019N0100001N1+02861+02281101141ADDAA106000091GF107991071021017501001001KA1240N+02481MA1999999100621MD1999999-0141REMSYN076AAXX  20124 82198 32797 70913 10286 20228 30062 40114 87200 333 20248 59014;EQDQ01  00002PRCP06
0167821980999992002102018004-01720-045400FM-12+004499999V0200901N005710450019N0100001N1+03131+02171100921ADDAA106000091GF105991031021017501061011MA1999999100401MD1999999+0081REMSYN070AAXX  20184 82198 32797 50911 10313 20217 30040 40092 83261 333 58008;EQDQ01  00002PRCP06
0208821980999992002102100004-01720-045400FM-12+004499999V0200501N003112200019N0020001N1+02601+02311101081ADDAA106000091GA1001+999999999GF100991001001999999001001KA1240M+03201MA1999999100561MD1999999+0071REMSYN082AAXX  21004 82198 32995 00506 10260 20231 30056 40108 333 10320 29076 55086 58007;EQDQ01  00002PRCP06
0186821980999992002102112004-01720-045400FM-12+004499999V0200901N006710150019N0100001N1+02861+02351101221ADDAA106000091GF108991051021017501061001KA1240N+02421MA1999999100701MD1999999+0081REMSYN076AAXX  21124 82198 32797 80913 10286 20235 30070 40122 85260 333 20242 58008;EQDQ01  00002PRCP06
0167821980999992002102118004-01720-045400FM-12+004499999V0200901N006212200019N0100001N1+03171+02281100991ADDAA106000091GF104991031021017501001011MA1999999100471MD1999999+0071REMSYN070AAXX  21184 82198 32797 40912 10317 20228 30047 40099 83201 333 58007;EQDQ01  00002PRCP06
0198821980999992002102200004-01720-045400FM-12+004499999V0200501N003612200019N0020001N1+02591+02251101151ADDAA106000091GF102991021011017501001001KA1240M+03271MA1999999100631MD1999999+0071REMSYN088AAXX  22004 82198 32795 20507 10259 20225 30063 40115 82100 333 10327 29074 55082 58007;EQDQ01  00002PRCP06
0186821980999992002102212004-01720-045400FM-12+004499999V0200901N005112200019N0100001N1+03011+02291101241ADDAA106000091GF105991031011017501001011KA1240N+02431MA1999999100731MD1999999+0031REMSYN076AAXX  22124 82198 32797 50910 10301 20229 30073 40124 83101 333 20243 58003;EQDQ01  00002PRCP06
0167821980999992002102218004-01720-045400FM-12+004499999V0200901N005112200019N0100001N1+03191+02281101011ADDAA106000091GF104991031021017501001011MA1999999100501MD1999999+0031REMSYN070AAXX  22184 82198 32797 40910 10319 20228 30050 40101 83201 333 58003;EQDQ01  00002PRCP06
0198821980999992002102300004-01720-045400FM-12+004499999V0200501N003612200019N0005001N1+02641+02391101211ADDAA106000091GF102991021021017501001001KA1240M+03381MA1999999100691MD1999999+0061REMSYN088AAXX  23004 82198 32793 20507 10264 20239 30069 40121 82200 333 10338 29074 55105 58006;EQDQ01  00002PRCP06
0186821980999992002102312004-01720-045400FM-12+004499999V0200501N004110150019N0100001N1+02921+02391101191ADDAA106000091GF105991051021017501001001KA1240N+02451MA1999999100671MD1999999-0061REMSYN076AAXX  23124 82198 32797 50508 10292 20239 30067 40119 85200 333 20245 59006;EQDQ01  00002PRCP06
0167821980999992002102318004-01720-045400FM-12+004499999V0200901N005710150019N0100001N1+03201+02351100931ADDAA106000091GF105991051021017501001001MA1999999100421MD1999999-0081REMSYN070AAXX  23184 82198 32797 50911 10320 20235 30042 40093 85200 333 59008;EQDQ01  00002PRCP06
0198821980999992002102400004-01720-045400FM-12+004499999V0200501N004610150019N0005001N1+02641+02391101121ADDAA106000091GF106991061021017501001001KA1240M+03281MA1999999100601MD1999999-0091REMSYN088AAXX  24004 82198 32793 60509 10264 20239 30060 40112 86200 333 10328 29076 55080 59009;EQDQ01  00002PRCP06
0186821980999992002102412004-01720-045400FM-12+004499999V0200901N005110150019N0100001N1+02971+02281101301ADDAA106000091GF107991071021017501001001KA1240N+02421MA1999999100781MD1999999+0111REMSYN076AAXX  24124 82198 32797 70910 10297 20228 30078 40130 87200 333 20242 58011;EQDQ01  00002PRCP06
0167821980999992002102418004-01720-045400FM-12+004499999V0200901N005712200019N0100001N1+03131+02221100871ADDAA106000091GF104991031021017501001011MA1999999100361MD1999999+0061REMSYN070AAXX  24184 82198 32797 40911 10313 20222 30036 40087 83201 333 58006;EQDQ01  00002PRCP06
0186821980999992002102512004-01720-045400FM-12+004499999V0200501N003110150019N0100001N1+02881+02371101121ADDAA106000091GF108991051021017501061001KA1240N+02451MA1999999100601MD1999999-0181REMSYN076AAXX  25124 82198 32797 80506 10288 20237 30060 40112 85260 333 20245 59018;EQDQ01  00002PRCP06
0167821980999992002102518004-01720-045400FM-12+004499999V0200501N005710150019N0100001N1+03141+02321100831ADDAA106000091GF105991051021017501001001MA1999999100321MD1999999-0041REMSYN070AAXX  25184 82198 32797 50511 10314 20232 30032 40083 85200 333 59004;EQDQ01  00002PRCP06
0167821980999992002102618004-01720-045400FM-12+004499999V0200501N005110450019N0100001N1+03021+02311100931ADDAA106000091GF105991031021017501061001MA1999999100421MD1999999+0101REMSYN070AAXX  26184 82198 32797 50510 10302 20231 30042 40093 83260 333 58010;EQDQ01  00002PRCP06
0186821980999992002102712004-01720-045400FM-12+004499999V0200901N005110150019N0100001N1+02801+02251101181ADDAA106000091GF108991051041017501041001KA1240N+02411MA1999999100661MD1999999-0071REMSYN076AAXX  27124 82198 32797 80910 10280 20225 30066 40118 85440 333 20241 59007;EQDQ01  00002PRCP06
0167821980999992002102718004-01720-045400FM-12+004499999V0200501N003610150019N0100001N1+02941+02241100981ADDAA106000091GF108991061051017501041001MA1999999100471MD1999999+0051REMSYN070AAXX  27184 82198 32797 80507 10294 20224 30047 40098 86540 333 58005;EQDQ01  00002PRCP06
0212821980999992002102800004-01720-045400FM-12+004499999V0200501N003112200019N0005001N1+02521+02231101031ADDAY151061AY221061GA1001+999999999GF100991001001999999001001KA1240M+03051MA1999999100501MD1999999-0051MW1021REMSYN094AAXX  28004 82198 21993 00506 10252 20223 30050 40103 70252 333 10305 29070 55004 59005 69931;
0162821980999992002102812004-01720-045400FM-12+004499999V0200501N006210150019N0100001N1+02821+02381101191ADDGF105991051021017501001001KA1240N+02401MA1999999100671MD1999999+0011REMSYN082AAXX  28124 82198 22797 50512 10282 20238 30067 40119 85200 333 20240 58001 69934;
0167821980999992002102818004-01720-045400FM-12+004499999V0200501N006212200019N0100001N1+03091+02271100811ADDAA106000091GF103991031021017501001001MA1999999100301MD1999999-0171REMSYN070AAXX  28184 82198 32797 30512 10309 20227 30030 40081 83200 333 59017;EQDQ01  00002PRCP06
0208821980999992002102900004-01720-045400FM-12+004499999V0200501N003112200019N0005001N1+02601+02311100971ADDAA106000091GA1001+999999999GF100991001001999999001001KA1240M+03241MA1999999100451MD1999999-0051REMSYN082AAXX  29004 82198 32993 00506 10260 20231 30045 40097 333 10324 29077 55092 59005;EQDQ01  00002PRCP06
0186821980999992002102912004-01720-045400FM-12+004499999V0200501N002610450019N0100001N1+02841+02401101141ADDAA106000091GF108991041021017501031001KA1240N+02481MA1999999100621MD1999999-0051REMSYN076AAXX  29124 82198 32797 80505 10284 20240 30062 40114 84230 333 20248 59005;EQDQ01  00002PRCP06
0167821980999992002102918004-01720-045400FM-12+004499999V0200901N005710450019N0100001N1+03061+02191100891ADDAA106000091GF108991041021017501061001MA1999999100381MD1999999+0081REMSYN070AAXX  29184 82198 32797 80911 10306 20219 30038 40089 84260 333 58008;EQDQ01  00002PRCP06
0208821980999992002103000004-01720-045400FM-12+004499999V0200501N003112200019N0005001N1+02591+02311100991ADDAA106000091GA1001+999999999GF100991001001999999001001KA1240M+03421MA1999999100481MD1999999+0031REMSYN082AAXX  30004 82198 32993 00506 10259 20231 30048 40099 333 10342 29077 55048 58003;EQDQ01  00002PRCP06
0186821980999992002103012004-01720-045400FM-12+004499999V0200501N005110150019N0100001N1+02971+02351101121ADDAA106000091GF105991051021017501001001KA1240N+02501MA1999999100601MD1999999-0021REMSYN076AAXX  30124 82198 32797 50510 10297 20235 30060 40112 85200 333 20250 59002;EQDQ01  00002PRCP06
0167821980999992002103018004-01720-045400FM-12+004499999V0200901N005112200019N0100001N1+03171+02251100841ADDAA106000091GF104991041021017501001001MA1999999100331MD1999999-0051REMSYN070AAXX  30184 82198 32797 40910 10317 20225 30033 40084 84200 333 59005;EQDQ01  00002PRCP06
0208821980999992002103100004-01720-045400FM-12+004499999V0200501N002612200019N0005001N1+02621+02331100991ADDAA106000091GA1001+999999999GF100991001001999999001001KA1240M+03281MA1999999100481MD1999999+0001REMSYN082AAXX  31004 82198 32993 00505 10262 20233 30048 40099 333 10328 29074 55075 58000;EQDQ01  00002PRCP06
0186821980999992002103112004-01720-045400FM-12+004499999V0200501N004610150019N0100001N1+02901+02301101181ADDAA106000091GF105991051021017501001001KA1240N+02461MA1999999100661MD1999999+0061REMSYN076AAXX  31124 82198 32797 50509 10290 20230 30066 40118 85200 333 20246 58006;EQDQ01  00002PRCP06
0167821980999992002103118004-01720-045400FM-12+004499999V0200501N006212200019N0100001N1+03111+02291100771ADDAA106000091GF103991031021017501001001MA1999999100261MD1999999-0071REMSYN070AAXX  31184 82198 32797 30512 10311 20229 30026 40077 83200 333 59007;EQDQ01  00002PRCP06
0208821980999992002110100004-01720-045400FM-12+004499999V0200501N003612200019N0005001N1+02621+02351101021ADDAA106000091GA1001+999999999GF100991001001999999001001KA1240M+03261MA1999999100501MD1999999+0021REMSYN082AAXX  01004 82198 32993 00507 10262 20235 30050 40102 333 10326 29076 55107 58002;EQDQ01  00002PRCP06
0186821980999992002110112004-01720-045400FM-12+004499999V0200501N002610450019N0020001N1+03031+02421101131ADDAA106000091GF105991041021017501031001KA1240N+02481MA1999999100621MD1999999-0041REMSYN076AAXX  01124 82198 32795 50505 10303 20242 30062 40113 84230 333 20248 59004;EQDQ01  00002PRCP06
0167821980999992002110118004-01720-045400FM-12+004499999V0203601N004612200019N0040001N1+03141+02301100801ADDAA106000091GF103991031021017501001001MA1999999100291MD1999999+0031REMSYN070AAXX  01184 82198 32796 33609 10314 20230 30029 40080 83200 333 58003;EQDQ01  00002PRCP06
0208821980999992002110200004-01720-045400FM-12+004499999V0200501N004112200019N0002001N1+02601+02291101071ADDAA106000091GA1001+999999999GF100991001001999999001001KA1240M+03401MA1999999100561MD1999999+0261REMSYN082AAXX  02004 82198 32992 00508 10260 20229 30056 40107 333 10340 29074 55104 58026;EQDQ01  00002PRCP06
0186821980999992002110212004-01720-045400FM-12+004499999V0200501N005110150019N0020001N1+02941+02291101221ADDAA106000091GF105991051021017501001001KA1240N+02441MA1999999100711MD1999999+0091REMSYN076AAXX  02124 82198 32795 50510 10294 20229 30071 40122 85200 333 20244 58009;EQDQ01  00002PRCP06
0167821980999992002110218004-01720-045400FM-12+004499999V0200501N007210150019N0040001N1+03041+02261100841ADDAA106000091GF106991061021017501001001MA1999999100321MD1999999+0031REMSYN070AAXX  02184 82198 32796 60514 10304 20226 30032 40084 86200 333 58003;EQDQ01  00002PRCP06
0186821980999992002110312004-01720-045400FM-12+004499999V0203601N004610450019N0040001N1+02971+02341101191ADDAA106000091GF106991041021017501061001KA1240N+02551MA1999999100681MD1999999-0031REMSYN076AAXX  03124 82198 32796 63609 10297 20234 30068 40119 84260 333 20255 59003;EQDQ01  00002PRCP06
0167821980999992002110318004-01720-045400FM-12+004499999V0200501N005712200019N0100001N1+03091+02161100961ADDAA106000091GF104991031021017501001011MA1999999100451MD1999999+0131REMSYN070AAXX  03184 82198 32797 40511 10309 20216 30045 40096 83201 333 58013;EQDQ01  00002PRCP06
0208821980999992002110400004-01720-045400FM-12+004499999V0200501N003612200019N0005001N1+02641+02331101241ADDAA106000091GA1001+999999999GF100991001001999999001001KA1240M+03241MA1999999100721MD1999999+0221REMSYN082AAXX  04004 82198 32993 00507 10264 20233 30072 40124 333 10324 29073 55076 58022;EQDQ01  00002PRCP06
0186821980999992002110412004-01720-045400FM-12+004499999V0200501N004112200019N0100001N1+02971+02471101271ADDAA106000091GF104991041021017501001001KA1240N+02411MA1999999100751MD1999999+0071REMSYN076AAXX  04124 82198 32797 40508 10297 20247 30075 40127 84200 333 20241 58007;EQDQ01  00002PRCP06
0167821980999992002110418004-01720-045400FM-12+004499999V0200501N007212200019N0100001N1+03141+02271100961ADDAA106000091GF103991031021017501001001MA1999999100451MD1999999+0001REMSYN070AAXX  04184 82198 32797 30514 10314 20227 30045 40096 83200 333 58000;EQDQ01  00002PRCP06
0208821980999992002110500004-01720-045400FM-12+004499999V0200501N003612200019N0005001N1+02611+02331101241ADDAA106000091GA1001+999999999GF100991001001999999001001KA1240M+03311MA1999999100721MD1999999+0001REMSYN082AAXX  05004 82198 32993 00507 10261 20233 30072 40124 333 10331 29076 55110 58000;EQDQ01  00002PRCP06
0186821980999992002110512004-01720-045400FM-12+004499999V0200501N001510150019N0040001N1+02901+02411101351ADDAA106000091GF106991061021017501001001KA1240N+02481MA1999999100831MD1999999+0081REMSYN076AAXX  05124 82198 32796 60503 10290 20241 30083 40135 86200 333 20248 58008;EQDQ01  00002PRCP06
0167821980999992002110518004-01720-045400FM-12+004499999V0203601N005112200019N0040001N1+03151+02351101051ADDAA106000091GF103991021021017501001011MA1999999100531MD1999999+0081REMSYN070AAXX  05184 82198 32796 33610 10315 20235 30053 40105 82201 333 58008;EQDQ01  00002PRCP06
0226821980999992002110600004-01720-045400FM-12+004499999V0200501N002612200019N0002001N1+02651+02331101091ADDAA106000091AY101061AY211061GF102991021011017501001001KA1240M+03311MA1999999100581MD1999999-0141MW1131REMSYN094AAXX  06004 82198 31792 20505 10265 20233 30058 40109 71301 82100 333 10331 29076 55098 59014;EQDQ01  00002PRCP06
0186821980999992002110612004-01720-045400FM-12+004499999V0200501N003110150019N0040001N1+02821+02311101361ADDAA106000091GF108991051021017501061001KA1240N+02511MA1999999100841MD1999999+0011REMSYN076AAXX  06124 82198 32796 80506 10282 20231 30084 40136 85260 333 20251 58001;EQDQ01  00002PRCP06
0167821980999992002110618004-01720-045400FM-12+004499999V0203601N006210450019N0100001N1+03061+02221101061ADDAA106000091GF106991031021017501041011MA1999999100551MD1999999+0021REMSYN070AAXX  06184 82198 32797 63612 10306 20222 30055 40106 83241 333 58002;EQDQ01  00002PRCP06
0186821980999992002110712004-01720-045400FM-12+004499999V0200501N002610450019N0100001N1+02911+02431101261ADDAA106000091GF105991031021017501011011KA1240N+02491MA1999999100751MD1999999-0091REMSYN076AAXX  07124 82198 32797 50505 10291 20243 30075 40126 83211 333 20249 59009;EQDQ01  00002PRCP06
0167821980999992002110718004-01720-045400FM-12+004499999V0200501N006210450019N0040001N1+03051+02051101021ADDAA106000091GF106991031021017501011011MA1999999100511MD1999999-0041REMSYN070AAXX  07184 82198 32796 60512 10305 20205 30051 40102 83211 333 59004;EQDQ01  00002PRCP06
0198821980999992002110800004-01720-045400FM-12+004499999V0200501N004612200019N0002001N1+02681+02281101231ADDAA106000091GF103991031021017501001001KA1240M+03241MA1999999100721MD1999999-0041REMSYN088AAXX  08004 82198 32792 30509 10268 20228 30072 40123 83200 333 10324 29072 55086 59004;EQDQ01  00002PRCP06
0186821980999992002110812004-01720-045400FM-12+004499999V0200501N003110450019N0040001N1+02941+02431101341ADDAA106000091GF106991031021017501061011KA1240N+02551MA1999999100831MD1999999+0081REMSYN076AAXX  08124 82198 32796 60506 10294 20243 30083 40134 83261 333 20255 58008;EQDQ01  00002PRCP06
0167821980999992002110818004-01720-045400FM-12+004499999V0203601N008711050019N0040001N1+03081+02241101021ADDAA106000091GF106991021021017501061041MA1999999100511MD1999999+0001REMSYN070AAXX  08184 82198 32796 63617 10308 20224 30051 40102 82264 333 58000;EQDQ01  00002PRCP06
0198821980999992002110900004-01720-045400FM-12+004499999V0200501N005712200019N0002001N1+02681+02241101221ADDAA106000091GF102991021021017501001001KA1240M+03221MA1999999100711MD1999999-0011REMSYN088AAXX  09004 82198 32792 20511 10268 20224 30071 40122 82200 333 10322 29072 55053 59001;EQDQ01  00002PRCP06
0186821980999992002110912004-01720-045400FM-12+004499999V0200501N004610450019N0040001N1+02901+02341101401ADDAA106000091GF105991031021017501061011KA1240N+02541MA1999999100891MD1999999+0061REMSYN076AAXX  09124 82198 32796 50509 10290 20234 30089 40140 83261 333 20254 58006;EQDQ01  00002PRCP06
0167821980999992002110918004-01720-045400FM-12+004499999V0203601N004110450019N0040001N1+03101+02181101111ADDAA106000091GF106991031021017501011011MA1999999100601MD1999999-0181REMSYN070AAXX  09184 82198 32796 63608 10310 20218 30060 40111 83211 333 59018;EQDQ01  00002PRCP06
0198821980999992002111000004-01720-045400FM-12+004499999V0200501N002112200019N0002001N1+02661+02371101181ADDAA106000091GF103991021011017501001011KA1240M+03221MA1999999100671MD1999999-0041REMSYN088AAXX  10004 82198 32792 30504 10266 20237 30067 40118 82101 333 10322 29074 55102 59004;EQDQ01  00002PRCP06
0186821980999992002111012004-01720-045400FM-12+004499999V0200501N003110450019N0040001N1+02921+02361101281ADDAA106000091GF107991041021017501061001KA1240N+02461MA1999999100771MD1999999-0121REMSYN076AAXX  10124 82198 32796 70506 10292 20236 30077 40128 84260 333 20246 59012;EQDQ01  00002PRCP06
0167821980999992002111018004-01720-045400FM-12+004499999V0203601N006210450019N0040001N1+03101+02311101001ADDAA106000091GF107991041021017501061011MA1999999100491MD1999999-0111REMSYN070AAXX  10184 82198 32796 73612 10310 20231 30049 40100 84261 333 59011;EQDQ01  00002PRCP06
0198821980999992002111100004-01720-045400FM-12+004499999V0200501N005112200019N0002001N1+02641+02271101131ADDAA106000091GF102991021001017501011001KA1240M+03221MA1999999100621MD1999999-0051REMSYN088AAXX  11004 82198 32792 20510 10264 20227 30062 40113 82010 333 10322 29074 55073 59005;EQDQ01  00002PRCP06
0186821980999992002111112004-01720-045400FM-12+004499999V0200501N004610450019N0100001N1+02851+02381101291ADDAA106000091GF108991041021017501061001KA1240N+02521MA1999999100781MD1999999+0011REMSYN076AAXX  11124 82198 32797 80509 10285 20238 30078 40129 84260 333 20252 58001;EQDQ01  00002PRCP06
0167821980999992002111118004-01720-045400FM-12+004499999V0203601N006710450019N0040001N1+03081+02291100981ADDAA106000091GF106991041021017501061001MA1999999100471MD1999999-0021REMSYN070AAXX  11184 82198 32796 63613 10308 20229 30047 40098 84260 333 59002;EQDQ01  00002PRCP06
0186821980999992002111212004-01720-045400FM-12+004499999V0200901N006710150019N0100001N1+02971+02251101271ADDAA106000091GF106991061021017501001001KA1240N+02481MA1999999100761MD1999999-0021REMSYN076AAXX  12124 82198 32797 60913 10297 20225 30076 40127 86200 333 20248 59002;EQDQ01  00002PRCP06
0171821980999992002111218004-01720-045400FM-12+004499999V0200901N005112200019N0100001N1+03101+02311100971ADDAY161061AY221061GF104991031021017501001011MA1999999100461MD1999999-0011MW1021REMSYN082AAXX  12184 82198 21797 40910 10310 20231 30046 40097 70262 83201 333 59001 60031;
0208821980999992002111300004-01720-045400FM-12+004499999V0200501N004112200019N0002001N1+02641+02331101181ADDAA106000091GA1001+999999999GF100991001001999999001001KA1240M+03361MA1999999100671MD1999999-0111REMSYN082AAXX  13004 82198 32992 00508 10264 20233 30067 40118 333 10336 29074 55093 59011;EQDQ01  00002PRCP06
0174821980999992002111312004-01720-045400FM-12+004499999V0200501N006210150019N0100001N1+02971+02281101331ADDGF107991071021017501001001KA1240N+02501MA1999999100821MD1999999+0061REMSYN094AAXX  13124 82198 22797 70512 10297 20228 30082 40133 87200 333 20250 29050 55108 58006 60034;
0171821980999992002111318004-01720-045400FM-12+004499999V0200901N007210450019N0100001N1+03141+02321101061ADDAY161061AY221061GF106991041021017501061001MA1999999100551MD1999999+0091MW1021REMSYN082AAXX  13184 82198 21797 60914 10314 20232 30055 40106 70262 84260 333 58009 60021;
0208821980999992002111400004-01720-045400FM-12+004499999V0200501N002612200019N0005001N1+02601+02311101231ADDAA106000091GA1001+999999999GF100991001001999999001001KA1240M+03201MA1999999100721MD1999999+0051REMSYN082AAXX  14004 82198 32993 00505 10260 20231 30072 40123 333 10320 29074 55091 58005;EQDQ01  00002PRCP06
0162821980999992002111412004-01720-045400FM-12+004499999V0200901N006710150019N0100001N1+02921+02191101341ADDGF107991051021017501061001KA1240N+02481MA1999999100831MD1999999+0011REMSYN082AAXX  14124 82198 22797 70913 10292 20219 30083 40134 85260 333 20248 58001 60024;
0167821980999992002111418004-01720-045400FM-12+004499999V0200901N006212200019N0100001N1+03211+02181101081ADDAA106000091GF104991041021017501001001MA1999999100571MD1999999+0021REMSYN070AAXX  14184 82198 32797 40912 10321 20218 30057 40108 84200 333 58002;EQDQ01  00002PRCP06
0186821980999992002111512004-01720-045400FM-12+004499999V0200501N005110150019N0040001N1+02891+02211101341ADDAA106000091GF106991061021017501001001KA1240N+02491MA1999999100831MD1999999+0001REMSYN076AAXX  15124 82198 32796 60510 10289 20221 30083 40134 86200 333 20249 58000;EQDQ01  00002PRCP06
0167821980999992002111518004-01720-045400FM-12+004499999V0200501N004110150019N0100001N1+03091+02351100941ADDAA106000091GF106991051021017501061001MA1999999100431MD1999999-0141REMSYN070AAXX  15184 82198 32797 60508 10309 20235 30043 40094 85260 333 59014;EQDQ01  00002PRCP06
0198821980999992002111600004-01720-045400FM-12+004499999V0200501N003612200019N0005001N1+02641+02331101131ADDAA106000091GF103991031001017501031001KA1240M+03241MA1999999100621MD1999999-0081REMSYN088AAXX  16004 82198 32793 30507 10264 20233 30062 40113 83030 333 10324 29074 55084 59008;EQDQ01  00002PRCP06
0186821980999992002111612004-01720-045400FM-12+004499999V0200501N005110450019N0100001N1+02901+02271101331ADDAA106000091GF106991041021017501061001KA1240N+02501MA1999999100821MD1999999-0011REMSYN076AAXX  16124 82198 32797 60510 10290 20227 30082 40133 84260 333 20250 59001;EQDQ01  00002PRCP06
0171821980999992002111618004-01720-045400FM-12+004499999V0200501N002110150019N0100001N1+02591+02401101031ADDAY161061AY221061GF108991051071017501041001MA1999999100521MD1999999+0111MW1021REMSYN082AAXX  16184 82198 21797 80504 10259 20240 30052 40103 70262 85740 333 58011 69941;
0214821980999992002111700004-01720-045400FM-12+004499999V0200501N003112200019N0005001N1+02581+02401101181ADDAA106000091GF103991999031017501061001KA1240M+03171MA1999999100671MD1999999+0051REMSYN088AAXX  17004 82198 32793 30506 10258 20240 30067 40118 80360 333 10317 29085 55034 58005;EQDQ01+000002SCOTLCQ02  00002PRCP06
0162821980999992002111712004-01720-045400FM-12+004499999V0200501N005110150019N0100001N1+02941+02331101261ADDGF105991051021017501001001KA1240N+02481MA1999999100751MD1999999-0071REMSYN082AAXX  17124 82198 22797 50510 10294 20233 30075 40126 85200 333 20248 59007 69944;
0198821980999992002111800004-01720-045400FM-12+004499999V0200501N003112200019N0005001N1+02611+02311101141ADDAA106000091GF103991011011017501001011KA1240M+03331MA1999999100631MD1999999-0041REMSYN088AAXX  18004 82198 32793 30506 10261 20231 30063 40114 81101 333 10333 29076 55105 59004;EQDQ01  00002PRCP06
0186821980999992002111812004-01720-045400FM-12+004499999V0200501N006210150019N0100001N1+02901+02411101241ADDAA106000091GF108991061021017501061001KA1240N+02461MA1999999100731MD1999999-0021REMSYN076AAXX  18124 82198 32797 80512 10290 20241 30073 40124 86260 333 20246 59002;EQDQ01  00002PRCP06
0167821980999992002111818004-01720-045400FM-12+004499999V0200501N005112200019N0100001N1+03111+02191100961ADDAA106000091GF104991041021017501001001MA1999999100451MD1999999-0031REMSYN070AAXX  18184 82198 32797 40510 10311 20219 30045 40096 84200 333 59003;EQDQ01  00002PRCP06
0208821980999992002111900004-01720-045400FM-12+004499999V0200501N003112200019N0005001N1+02581+02371101091ADDAA106000091GA1001+999999999GF100991001001999999001001KA1240M+03261MA1999999100581MD1999999-0051REMSYN082AAXX  19004 82198 32993 00506 10258 20237 30058 40109 333 10326 29077 55076 59005;EQDQ01  00002PRCP06
0186821980999992002111912004-01720-045400FM-12+004499999V0200901N006210450019N0040001N1+02891+02181101121ADDAA106000091GF106991041021017501061001KA1240N+02491MA1999999100611MD1999999-0051REMSYN076AAXX  19124 82198 32796 60912 10289 20218 30061 40112 84260 333 20249 59005;EQDQ01  00002PRCP06
0167821980999992002111918004-01720-045400FM-12+004499999V0200901N005112200019N0040001N1+03261+02181100941ADDAA106000091GF105991031021017501001011MA1999999100431MD1999999-0021REMSYN070AAXX  19184 82198 32796 50910 10326 20218 30043 40094 83201 333 59002;EQDQ01  00002PRCP06
0198821980999992002112000004-01720-045400FM-12+004499999V0200501N003612200019N0040001N1+02621+02271101061ADDAA106000091GF102991021011017501001001KA1240M+03381MA1999999100551MD1999999-0031REMSYN088AAXX  20004 82198 32796 20507 10262 20227 30055 40106 82100 333 10338 29070 55103 59003;EQDQ01  00002PRCP06
0186821980999992002112012004-01720-045400FM-12+004499999V0200501N005110450019N0040001N1+02971+02271101161ADDAA106000091GF106991031021017501011011KA1240N+02441MA1999999100651MD1999999-0031REMSYN076AAXX  20124 82198 32796 60510 10297 20227 30065 40116 83211 333 20244 59003;EQDQ01  00002PRCP06
0167821980999992002112018004-01720-045400FM-12+004499999V0200501N005110150019N0040001N1+03221+02091100891ADDAA106000091GF106991051021017501011001MA1999999100381MD1999999-0051REMSYN070AAXX  20184 82198 32796 60510 10322 20209 30038 40089 85210 333 59005;EQDQ01  00002PRCP06
0198821980999992002112100004-01720-045400FM-12+004499999V0200501N003612200019N0005001N1+02621+02291101091ADDAA106000091GF102991021021017501001001KA1240M+03411MA1999999100581MD1999999+0031REMSYN088AAXX  21004 82198 32793 20507 10262 20229 30058 40109 82200 333 10341 29070 55103 58003;EQDQ01  00002PRCP06
0186821980999992002112112004-01720-045400FM-12+004499999V0200501N007210150019N0040001N1+02981+02071101251ADDAA106000091GF106991061021017501001001KA1240N+02491MA1999999100741MD1999999+0091REMSYN076AAXX  21124 82198 32796 60514 10298 20207 30074 40125 86200 333 20249 58009;EQDQ01  00002PRCP06
0167821980999992002112118004-01720-045400FM-12+004499999V0200501N004110450019N0005001N1+03001+02141101041ADDAA106000091GF108991041071017501061001MA1999999100531MD1999999+0151REMSYN070AAXX  21184 82198 32793 80508 10300 20214 30053 40104 84760 333 58015;EQDQ01  00002PRCP06
0198821980999992002112200004-01720-045400FM-12+004499999V0203601N005112200019N0002001N1+02621+02351101101ADDAA106000091GF105991031001017501011011KA1240M+03111MA1999999100591MD1999999+0011REMSYN088AAXX  22004 82198 32792 53610 10262 20235 30059 40110 83011 333 10311 29072 55031 58001;EQDQ01  00002PRCP06
0186821980999992002112212004-01720-045400FM-12+004499999V0200501N005110150019N0040001N1+02841+02221101311ADDAA106000091GF108991051021017501061001KA1240N+02501MA1999999100801MD1999999+0061REMSYN076AAXX  22124 82198 32796 80510 10284 20222 30080 40131 85260 333 20250 58006;EQDQ01  00002PRCP06
0167821980999992002112218004-01720-045400FM-12+004499999V0200501N005110150019N0040001N1+03131+02151101081ADDAA106000091GF106991061021017501001001MA1999999100571MD1999999+0041REMSYN070AAXX  22184 82198 32796 60510 10313 20215 30057 40108 86200 333 58004;EQDQ01  00002PRCP06
0198821980999992002112300004-01720-045400FM-12+004499999V0200501N003112200019N0005001N1+02621+02291101201ADDAA106000091GF103991021011017501011001KA1240M+03211MA1999999100691MD1999999+0101REMSYN088AAXX  23004 82198 32793 30506 10262 20229 30069 40120 82110 333 10321 29072 55083 58010;EQDQ01  00002PRCP06
0186821980999992002112312004-01720-045400FM-12+004499999V0200501N005110450019N0005001N1+02861+02131101311ADDAA106000091GF106991041021017501061001KA1240N+02441MA1999999100801MD1999999+0001REMSYN076AAXX  23124 82198 32793 60510 10286 20213 30080 40131 84260 333 20244 58000;EQDQ01  00002PRCP06
0167821980999992002112318004-01720-045400FM-12+004499999V0200901N004610450019N0005001N1+03251+02061100981ADDAA106000091GF106991031021017501011041MA1999999100471MD1999999-0101REMSYN070AAXX  23184 82198 32793 60909 10325 20206 30047 40098 83214 333 59010;EQDQ01  00002PRCP06
0167821980999992002112418004-01720-045400FM-12+004499999V0200501N005710450019N0020001N1+02971+02321101051ADDAA106000091GF107991041021017501011011MA1999999100541MD1999999+0071REMSYN070AAXX  24184 82198 32795 70511 10297 20232 30054 40105 84211 333 58007;EQDQ01  00002PRCP06
0208821980999992002112500004-01720-045400FM-12+004499999V0200501N004112200019N0002001N1+02671+02231101251ADDAA106000091GA1001+999999999GF100991001001999999001001KA1240M+03161MA1999999100741MD1999999+0081REMSYN082AAXX  25004 82198 32992 00508 10267 20223 30074 40125 333 10316 29075 55053 58008;EQDQ01  00002PRCP06
0186821980999992002112512004-01720-045400FM-12+004499999V0200501N005710150019N0040001N1+02821+02241101371ADDAA106000091GF105991051021017501001001KA1240N+02491MA1999999100851MD1999999+0021REMSYN076AAXX  25124 82198 32796 50511 10282 20224 30085 40137 85200 333 20249 58002;EQDQ01  00002PRCP06
0167821980999992002112518004-01720-045400FM-12+004499999V0200501N006710150019N0040001N1+03201+02151101001ADDAA106000091GF105991051021017501001001MA1999999100491MD1999999-0051REMSYN070AAXX  25184 82198 32796 50513 10320 20215 30049 40100 85200 333 59005;EQDQ01  00002PRCP06
0208821980999992002112600004-01720-045400FM-12+004499999V0203601N005712200019N0002001N1+02671+02231101171ADDAA106000091GA1001+999999999GF100991001001999999001001KA1240M+03331MA1999999100661MD1999999-0081REMSYN082AAXX  26004 82198 32992 03611 10267 20223 30066 40117 333 10333 29071 55106 59008;EQDQ01  00002PRCP06
0186821980999992002112612004-01720-045400FM-12+004499999V0200501N006210150019N0040001N1+02871+02391101361ADDAA106000091GF106991061021017501001001KA1240N+02501MA1999999100841MD1999999-0011REMSYN076AAXX  26124 82198 32796 60512 10287 20239 30084 40136 86200 333 20250 59001;EQDQ01  00002PRCP06
0167821980999992002112618004-01720-045400FM-12+004499999V0200501N006212200019N0020001N1+03161+02261100971ADDAA106000091GF104991041021017501001001MA1999999100461MD1999999-0031REMSYN070AAXX  26184 82198 32795 40512 10316 20226 30046 40097 84200 333 59003;EQDQ01  00002PRCP06
0208821980999992002112700004-01720-045400FM-12+004499999V0200501N005112200019N0002001N1+02641+02331101191ADDAA106000091GA1001+999999999GF100991001001999999001001KA1240M+03321MA1999999100671MD1999999+0011REMSYN082AAXX  27004 82198 32992 00510 10264 20233 30067 40119 333 10332 29075 55091 58001;EQDQ01  00002PRCP06
0186821980999992002112712004-01720-045400FM-12+004499999V0200501N004610150019N0020001N1+02931+02271101251ADDAA106000091GF106991061021017501001001KA1240N+02501MA1999999100741MD1999999-0101REMSYN076AAXX  27124 82198 32795 60509 10293 20227 30074 40125 86200 333 20250 59010;EQDQ01  00002PRCP06
0167821980999992002112718004-01720-045400FM-12+004499999V0200901N006212200019N0020001N1+03171+02331100961ADDAA106000091GF104991041021017501001001MA1999999100451MD1999999-0011REMSYN070AAXX  27184 82198 32795 40912 10317 20233 30045 40096 84200 333 59001;EQDQ01  00002PRCP06
0208821980999992002112800004-01720-045400FM-12+004499999V0200501N003612200019N0002001N1+02621+02311101081ADDAA106000091GA1001+999999999GF100991001001999999001001KA1240M+03291MA1999999100561MD1999999-0111REMSYN082AAXX  28004 82198 32992 00507 10262 20231 30056 40108 333 10329 29074 55093 59011;EQDQ01  00002PRCP06
0186821980999992002112812004-01720-045400FM-12+004499999V0200901N006210150019N0020001N1+02861+02261101141ADDAA106000091GF107991051021017501061001KA1240N+02471MA1999999100631MD1999999-0111REMSYN076AAXX  28124 82198 32795 70912 10286 20226 30063 40114 85260 333 20247 59011;EQDQ01  00002PRCP06
0167821980999992002112818004-01720-045400FM-12+004499999V0200501N004610150019N0020001N1+03151+02291100881ADDAA106000091GF105991051021017501001001MA1999999100371MD1999999-0081REMSYN070AAXX  28184 82198 32795 50509 10315 20229 30037 40088 85200 333 59008;EQDQ01  00002PRCP06
0208821980999992002112900004-01720-045400FM-12+004499999V0200501N003612200019N0002001N1+02621+02311101091ADDAA106000091GA1001+999999999GF100991001001999999001001KA1240M+03281MA1999999100571MD1999999+0011REMSYN082AAXX  29004 82198 32992 00507 10262 20231 30057 40109 333 10328 29074 55073 58001;EQDQ01  00002PRCP06
0186821980999992002112912004-01720-045400FM-12+004499999V0200901N006210150019N0020001N1+02951+02261101261ADDAA106000091GF106991051021017501061001KA1240N+02511MA1999999100751MD1999999+0121REMSYN076AAXX  29124 82198 32795 60912 10295 20226 30075 40126 85260 333 20251 58012;EQDQ01  00002PRCP06
0183821980999992002112918004-01720-045400FM-12+004499999V0200901N005112200019N0020001N1+03291+02161100851ADDAA106000091GF103991999031017501021001MA1999999100341MD1999999-0031REMSYN070AAXX  29184 82198 32795 30910 10329 20216 30034 40085 88320 333 59003;EQDQ01+000082SCOTLCQ02  00002PRCP06
0198821980999992002113000004-01720-045400FM-12+004499999V0200501N004110450019N0002001N1+02661+02411101141ADDAA106000091GF105991041021017501061001KA1240M+03361MA1999999100621MD1999999+0051REMSYN088AAXX  30004 82198 32792 50508 10266 20241 30062 40114 84260 333 10336 29072 55105 58005;EQDQ01  00002PRCP06
0186821980999992002113012004-01720-045400FM-12+004499999V0200501N004610150019N0040001N1+02931+02291101321ADDAA106000091GF106991061021017501001001KA1240N+02531MA1999999100811MD1999999+0061REMSYN076AAXX  30124 82198 32796 60509 10293 20229 30081 40132 86200 333 20253 58006;EQDQ01  00002PRCP06
0167821980999992002113018004-01720-045400FM-12+004499999V0200901N005112200019N0040001N1+03221+02111101041ADDAA106000091GF104991041021017501001001MA1999999100531MD1999999+0191REMSYN070AAXX  30184 82198 32796 40910 10322 20211 30053 40104 84200 333 58019;EQDQ01  00002PRCP06
0208821980999992002120100004-01720-045400FM-12+004499999V0200501N002612200019N0002001N1+02621+02371101191ADDAA106000091GA1001+999999999GF100991001001999999001001KA1240M+03281MA1999999100671MD1999999+0051REMSYN082AAXX  01004 82198 32992 00505 10262 20237 30067 40119 333 10328 29073 55103 58005;EQDQ01  00002PRCP06
0186821980999992002120112004-01720-045400FM-12+004499999V0200901N004110150019N0020001N1+03021+02291101281ADDAA106000091GF105991051021017501001001KA1240N+02501MA1999999100771MD1999999-0041REMSYN076AAXX  01124 82198 32795 50908 10302 20229 30077 40128 85200 333 20250 59004;EQDQ01  00002PRCP06
0198821980999992002120200004-01720-045400FM-12+004499999V0200501N002612200019N0002001N1+02661+02431101181ADDAA106000091GF103991031001017501061001KA1240M+03191MA1999999100661MD1999999-0011REMSYN088AAXX  02004 82198 32792 30505 10266 20243 30066 40118 83060 333 10319 29074 55096 59001;EQDQ01  00002PRCP06
0186821980999992002120212004-01720-045400FM-12+004499999V0200501N002610450019N0020001N1+02781+02341101261ADDAA106000091GF108991041081017501041001KA1240N+02491MA1999999100751MD1999999-0021REMSYN076AAXX  02124 82198 32795 80505 10278 20234 30075 40126 84840 333 20249 59002;EQDQ01  00002PRCP06
0167821980999992002120218004-01720-045400FM-12+004499999V0200501N006210180019N0020001N1+02901+02371100951ADDAA106000091GF108991051081017501061001MA1999999100941MD1999999-0041REMSYN070AAXX  02184 82198 32795 80512 10290 20237 30094 40095 85860 333 59004;EQDQ01  00002PRCP06
0198821980999992002120300004-01720-045400FM-12+004499999V0200501N002110450019N0002001N1+02651+02421101101ADDAA106000091GF105991021011017501061001KA1240M+03111MA1999999100581MD1999999-0081REMSYN088AAXX  03004 82198 32792 50504 10265 20242 30058 40110 82160 333 10311 29082 55005 59008;EQDQ01  00002PRCP06
0186821980999992002120312004-01720-045400FM-12+004499999V0200501N003610450019N0020001N1+02941+02431101211ADDAA106000091GF107991041021017501061001KA1240N+02541MA1999999100701MD1999999-0051REMSYN076AAXX  03124 82198 32795 70507 10294 20243 30070 40121 84260 333 20254 59005;EQDQ01  00002PRCP06
0167821980999992002120318004-01720-045400FM-12+004499999V0200501N006210450019N0005001N1+03201+02531100871ADDAA106000091GF107991041051017501061011MA1999999100361MD1999999-0081REMSYN070AAXX  03184 82198 32793 70512 10320 20253 30036 40087 84561 333 59008;EQDQ01  00002PRCP06
0208821980999992002120400004-01720-045400FM-12+004499999V0200501N003610003019N0002001N1+02661+02411101081ADDAA106000091GA1091+999999999GF109991091999999999999999KA1240M+03291MA1999999100571MD1999999-0011REMSYN082AAXX  04004 82198 32992 90507 10266 20241 30057 40108 333 10329 29076 55069 59001;EQDQ01  00002PRCP06
0186821980999992002120412004-01720-045400FM-12+004499999V0200501N005710450019N0005001N1+02871+02221101211ADDAA106000091GF106991041011017501061001KA1240N+02491MA1999999100701MD1999999+0001REMSYN076AAXX  04124 82198 32793 60511 10287 20222 30070 40121 84160 333 20249 58000;EQDQ01  00002PRCP06
0167821980999992002120418004-01720-045400FM-12+004499999V0200501N004112200019N0040001N1+03231+02611100931ADDAA106000091GF103991031021017501001001MA1999999100421MD1999999+0061REMSYN070AAXX  04184 82198 32796 30508 10323 20261 30042 40093 83200 333 58006;EQDQ01  00002PRCP06
0208821980999992002120500004-01720-045400FM-12+004499999V0200501N004112200019N0002001N1+02651+02271101061ADDAA106000091GA1001+999999999GF100991001001999999001001KA1240M+03331MA1999999100551MD1999999-0021REMSYN082AAXX  05004 82198 32992 00508 10265 20227 30055 40106 333 10333 29072 55107 59002;EQDQ01  00002PRCP06
0186821980999992002120512004-01720-045400FM-12+004499999V0203601N006710450019N0040001N1+02861+02411101171ADDAA106000091GF105991031021017501011061KA1240N+02511MA1999999100661MD1999999-0041REMSYN076AAXX  05124 82198 32796 53613 10286 20241 30066 40117 83216 333 20251 59004;EQDQ01  00002PRCP06
0167821980999992002120518004-01720-045400FM-12+004499999V0203601N006710150019N0040001N1+03081+02291100921ADDAA106000091GF107991051021017501011001MA1999999100411MD1999999-0011REMSYN070AAXX  05184 82198 32796 73613 10308 20229 30041 40092 85210 333 59001;EQDQ01  00002PRCP06
0208821980999992002120600004-01720-045400FM-12+004499999V0200501N004112200019N0002001N1+02681+02351101061ADDAA106000091GA1001+999999999GF100991001001999999001001KA1240M+03331MA1999999100551MD1999999+0001REMSYN082AAXX  06004 82198 32992 00508 10268 20235 30055 40106 333 10333 29076 55089 58000;EQDQ01  00002PRCP06
0186821980999992002120612004-01720-045400FM-12+004499999V0200501N004110450019N0005001N1+02931+02371101151ADDAA106000091GF106991041021017501061001KA1240N+02551MA1999999100641MD1999999-0021REMSYN076AAXX  06124 82198 32793 60508 10293 20237 30064 40115 84260 333 20255 59002;EQDQ01  00002PRCP06
0167821980999992002120618004-01720-045400FM-12+004499999V0203601N005110450019N0005001N1+03081+02351100841ADDAA106000091GF107991041021017501011001MA1999999100331MD1999999-0081REMSYN070AAXX  06184 82198 32793 73610 10308 20235 30033 40084 84210 333 59008;EQDQ01  00002PRCP06
0208821980999992002120700004-01720-045400FM-12+004499999V0200501N003612200019N0002001N1+02651+02291100961ADDAA106000091GA1001+999999999GF100991001001999999001001KA1240M+03181MA1999999100451MD1999999-0101REMSYN082AAXX  07004 82198 32992 00507 10265 20229 30045 40096 333 10318 29076 55084 59010;EQDQ01  00002PRCP06
0186821980999992002120712004-01720-045400FM-12+004499999V0200501N004610450019N0040001N1+02931+02301101231ADDAA106000091GF105991031021017501011001KA1240N+02561MA1999999100721MD1999999+0081REMSYN076AAXX  07124 82198 32796 50509 10293 20230 30072 40123 83210 333 20256 58008;EQDQ01  00002PRCP06
0167821980999992002120718004-01720-045400FM-12+004499999V0203601N007210450019N0040001N1+03051+02221100851ADDAA106000091GF105991031021017501011011MA1999999100341MD1999999+0011REMSYN070AAXX  07184 82198 32796 53614 10305 20222 30034 40085 83211 333 58001;EQDQ01  00002PRCP06
0198821980999992002120800004-01720-045400FM-12+004499999V0203601N002612200019N0002001N1+02631+02331101031ADDAA106000091GF103991031021017501001001KA1240M+03191MA1999999100521MD1999999+0071REMSYN088AAXX  08004 82198 32792 33605 10263 20233 30052 40103 83200 333 10319 29076 55093 58007;EQDQ01  00002PRCP06
0186821980999992002120812004-01720-045400FM-12+004499999V0203601N003610450019N0100001N1+02941+02271101131ADDAA106000091GF105991031021017501061001KA1240N+02491MA1999999100621MD1999999-0101REMSYN076AAXX  08124 82198 32797 53607 10294 20227 30062 40113 83260 333 20249 59010;EQDQ01  00002PRCP06
0167821980999992002120818004-01720-045400FM-12+004499999V0203601N007210450019N0040001N1+03021+02341100911ADDAA106000091GF106991031021017501041041MA1999999100401MD1999999+0061REMSYN070AAXX  08184 82198 32796 63614 10302 20234 30040 40091 83244 333 58006;EQDQ01  00002PRCP06
0198821980999992002120900004-01720-045400FM-12+004499999V0200501N005112200019N0002001N1+02661+02371101111ADDAA106000091GF103991031011017501001001KA1240M+03211MA1999999100601MD1999999+0081REMSYN088AAXX  09004 82198 32792 30510 10266 20237 30060 40111 83100 333 10321 29076 55096 58008;EQDQ01  00002PRCP06
0190821980999992002120912004-01720-045400FM-12+004499999V0200501N002610450019N0040001N1+02741+02301101241ADDAY121061AY261061GF107991041071017501061001KA1240N+02521MA1999999100731MD1999999+0111MW1031REMSYN088AAXX  09124 82198 21796 70505 10274 20230 30073 40124 70326 84760 333 20252 58011 69974;
0171821980999992002120918004-01720-045400FM-12+004499999V0200501N003610450019N0005001N1+02811+02401101021ADDAY161061AY221061GF108991041031017501021001MA1999999100511MD1999999+0111MW1031REMSYN082AAXX  09184 82198 21793 80507 10281 20240 30051 40102 70362 84320 333 58011 60031;
0162821980999992002121012004-01720-045400FM-12+004499999V0200901N003110150019N0040001N1+02741+02501101381ADDGF108991051041017501031001KA1240N+02411MA1999999100871MD1999999+0141REMSYN082AAXX  10124 82198 22796 80906 10274 20250 30087 40138 85430 333 20241 58014 60054;
0167821980999992002121018004-01720-045400FM-12+004499999V0200501N006210450019N0040001N1+03141+02181101111ADDAA106000091GF107991041021017501031001MA1999999100601MD1999999+0091REMSYN070AAXX  10184 82198 32796 70512 10314 20218 30060 40111 84230 333 58009;EQDQ01  00002PRCP06
0198821980999992002121100004-01720-045400FM-12+004499999V0200501N002110150019N0005001N1+02701+02451101371ADDAA106000091GF108991051051017501041001KA1240M+03221MA1999999100851MD1999999+0131REMSYN088AAXX  11004 82198 32793 80504 10270 20245 30085 40137 85540 333 10322 29079 55025 58013;EQDQ01  00002PRCP06
0186821980999992002121112004-01720-045400FM-12+004499999V0200501N003110180019N0020001N1+02861+02371101481ADDAA106000091GF108991051081017501041001KA1240N+02501MA1999999100971MD1999999+0101REMSYN076AAXX  11124 82198 32795 80506 10286 20237 30097 40148 85840 333 20250 58010;EQDQ01  00002PRCP06
0167821980999992002121118004-01720-045400FM-12+004499999V0203601N003110450019N0020001N1+03011+02441101061ADDAA106000091GF105991031021017501061001MA1999999100551MD1999999-0051REMSYN070AAXX  11184 82198 32795 53606 10301 20244 30055 40106 83260 333 59005;EQDQ01  00002PRCP06
0198821980999992002121200004-01720-045400FM-12+004499999V0200501N003610450019N0002001N1+02671+02461101281ADDAA106000091GF107991021011017501031001KA1240M+03261MA1999999100761MD1999999-0091REMSYN088AAXX  12004 82198 32792 70507 10267 20246 30076 40128 82130 333 10326 29080 55022 59009;EQDQ01  00002PRCP06
0186821980999992002121212004-01720-045400FM-12+004499999V0200501N003110450019N0040001N1+02841+02401101371ADDAA106000091GF108991041021017501031001KA1240N+02531MA1999999100861MD1999999-0111REMSYN076AAXX  12124 82198 32796 80506 10284 20240 30086 40137 84230 333 20253 59011;EQDQ01  00002PRCP06
0167821980999992002121218004-01720-045400FM-12+004499999V0200501N005710450019N0020001N1+03021+02391101031ADDAA106000091GF105991031021017501061001MA1999999100521MD1999999-0031REMSYN070AAXX  12184 82198 32795 50511 10302 20239 30052 40103 83260 333 59003;EQDQ01  00002PRCP06
0198821980999992002121300004-01720-045400FM-12+004499999V0200501N003612200019N0002001N1+02691+02391101291ADDAA106000091GF103991021021017501061001KA1240M+03261MA1999999100681MD1999999-0081REMSYN088AAXX  13004 82198 32792 30507 10269 20239 30068 40129 82260 333 10326 29078 55061 59008;EQDQ01  00002PRCP06
0186821980999992002121312004-01720-045400FM-12+004499999V0200501N004610150019N0040001N1+02971+02421101331ADDAA106000091GF107991051021017501061001KA1240N+02531MA1999999100821MD1999999-0041REMSYN076AAXX  13124 82198 32796 70509 10297 20242 30082 40133 85260 333 20253 59004;EQDQ01  00002PRCP06
0208821980999992002121400004-01720-045400FM-12+004499999V0200501N003112200019N0005001N1+02661+02411101151ADDAA106000091GA1001+999999999GF100991001001999999001001KA1240M+03241MA1999999100631MD1999999-0051REMSYN082AAXX  14004 82198 32993 00506 10266 20241 30063 40115 333 10324 29078 55060 59005;EQDQ01  00002PRCP06
0186821980999992002121412004-01720-045400FM-12+004499999V0200501N005710150019N0040001N1+02991+02401101311ADDAA106000091GF105991051021017501001001KA1240N+02521MA1999999100801MD1999999-0021REMSYN076AAXX  14124 82198 32796 50511 10299 20240 30080 40131 85200 333 20252 59002;EQDQ01  00002PRCP06
0167821980999992002121418004-01720-045400FM-12+004499999V0200501N006710150019N0040001N1+03201+02411100991ADDAA106000091GF105991051021017501001001MA1999999100481MD1999999-0061REMSYN070AAXX  14184 82198 32796 50513 10320 20241 30048 40099 85200 333 59006;EQDQ01  00002PRCP06
0198821980999992002121500004-01720-045400FM-12+004499999V0200501N002612200019N0005001N1+02711+02371101131ADDAA106000091GF103991031001017501061001KA1240M+03381MA1999999100611MD1999999-0021REMSYN088AAXX  15004 82198 32793 30505 10271 20237 30061 40113 83060 333 10338 29075 55105 59002;EQDQ01  00002PRCP06
0186821980999992002121512004-01720-045400FM-12+004499999V0200501N006712200019N0040001N1+03051+02351101231ADDAA106000091GF104991021021017501001011KA1240N+02551MA1999999100721MD1999999-0081REMSYN076AAXX  15124 82198 32796 40513 10305 20235 30072 40123 82201 333 20255 59008;EQDQ01  00002PRCP06
0167821980999992002121518004-01720-045400FM-12+004499999V0200901N006712200019N0040001N1+03321+02261100941ADDAA106000091GF104991031021017501001011MA1999999100431MD1999999-0051REMSYN070AAXX  15184 82198 32796 40913 10332 20226 30043 40094 83201 333 59005;EQDQ01  00002PRCP06
0208821980999992002121600004-01720-045400FM-12+004499999V0200501N004612200019N0005001N1+02721+02411101021ADDAA106000091GA1001+999999999GF100991001001999999001001KA1240M+03391MA1999999100501MD1999999-0111REMSYN082AAXX  16004 82198 32993 00509 10272 20241 30050 40102 333 10339 29071 55110 59011;EQDQ01  00002PRCP06
0186821980999992002121612004-01720-045400FM-12+004499999V0200901N006710150019N0040001N1+03041+02381101131ADDAA106000091GF105991051021017501001001KA1240N+02551MA1999999100621MD1999999-0101REMSYN076AAXX  16124 82198 32796 50913 10304 20238 30062 40113 85200 333 20255 59010;EQDQ01  00002PRCP06
0167821980999992002121618004-01720-045400FM-12+004499999V0200901N006212200019N0020001N1+03291+02291100871ADDAA106000091GF104991041021017501001001MA1999999100361MD1999999-0071REMSYN070AAXX  16184 82198 32795 40912 10329 20229 30036 40087 84200 333 59007;EQDQ01  00002PRCP06
0208821980999992002121700004-01720-045400FM-12+004499999V0200501N002612200019N0002001N1+02741+02451101101ADDAA106000091GA1001+999999999GF100991001001999999001001KA1240M+03371MA1999999100581MD1999999+0081REMSYN082AAXX  17004 82198 32992 00505 10274 20245 30058 40110 333 10337 29073 55105 58008;EQDQ01  00002PRCP06
0186821980999992002121712004-01720-045400FM-12+004499999V0200501N004612200019N0005001N1+03001+02461101131ADDAA106000091GF104991041021017501001001KA1240N+02611MA1999999100621MD1999999+0001REMSYN076AAXX  17124 82198 32793 40509 10300 20246 30062 40113 84200 333 20261 58000;EQDQ01  00002PRCP06
0167821980999992002121718004-01720-045400FM-12+004499999V0200501N005110450019N0005001N1+03201+02351100961ADDAA106000091GF106991041021017501011001MA1999999100451MD1999999+0091REMSYN070AAXX  17184 82198 32793 60510 10320 20235 30045 40096 84210 333 58009;EQDQ01  00002PRCP06
0198821980999992002121800004-01720-045400FM-12+004499999V0200501N003610450019N0002001N1+02751+02461101111ADDAA106000091GF107991041021017501011011KA1240M+03331MA1999999100601MD1999999+0021REMSYN088AAXX  18004 82198 32792 70507 10275 20246 30060 40111 84211 333 10333 29074 55092 58002;EQDQ01  00002PRCP06
0186821980999992002121812004-01720-045400FM-12+004499999V0200501N005110150019N0005001N1+02971+02441101191ADDAA106000091GF105991051021017501001001KA1240N+02541MA1999999100681MD1999999+0061REMSYN076AAXX  18124 82198 32793 50510 10297 20244 30068 40119 85200 333 20254 58006;EQDQ01  00002PRCP06
0167821980999992002121818004-01720-045400FM-12+004499999V0200501N004610450019N0005001N1+03311+02211100951ADDAA106000091GF106991031021017501011091MA1999999100441MD1999999-0011REMSYN070AAXX  18184 82198 32793 60509 10331 20221 30044 40095 83219 333 59001;EQDQ01  00002PRCP06
0198821980999992002121900004-01720-045400FM-12+004499999V0200501N004610450019N0005001N1+02731+02331101041ADDAA106000091GF105991031021017501011011KA1240M+03381MA1999999100531MD1999999-0071REMSYN088AAXX  19004 82198 32793 50509 10273 20233 30053 40104 83211 333 10338 29071 55102 59007;EQDQ01  00002PRCP06
0186821980999992002121912004-01720-045400FM-12+004499999V0200901N004610450019N0005001N1+02901+02461101171ADDAA106000091GF107991041021017501011011KA1240N+02561MA1999999100661MD1999999-0021REMSYN076AAXX  19124 82198 32793 70909 10290 20246 30066 40117 84211 333 20256 59002;EQDQ01  00002PRCP06
0167821980999992002121918004-01720-045400FM-12+004499999V0200501N005110450019N0005001N1+03291+02121100991ADDAA106000091GF106991041021017501011011MA1999999100481MD1999999+0041REMSYN070AAXX  19184 82198 32793 60510 10329 20212 30048 40099 84211 333 58004;EQDQ01  00002PRCP06
0186821980999992002122012004-01720-045400FM-12+004499999V0200501N002110450019N0005001N1+02871+02381101371ADDAA106000091GF108991041051017501011011KA1240N+02541MA1999999100861MD1999999+0201REMSYN076AAXX  20124 82198 32793 80504 10287 20238 30086 40137 84511 333 20254 58020;EQDQ01  00002PRCP06
0167821980999992002122018004-01720-045400FM-12+004499999V0200501N006210450019N0005001N1+03231+02211101141ADDAA106000091GF107991041021017501041041MA1999999100631MD1999999+0151REMSYN070AAXX  20184 82198 32793 70512 10323 20221 30063 40114 84244 333 58015;EQDQ01  00002PRCP06
0198821980999992002122100004-01720-045400FM-12+004499999V0200501N003610150019N0002001N1+02741+02431101401ADDAA106000091GF108991051021017501011041KA1240M+03351MA1999999100891MD1999999+0201REMSYN088AAXX  21004 82198 32792 80507 10274 20243 30089 40140 85214 333 10335 29075 55023 58020;EQDQ01  00002PRCP06
0167821980999992002122118004-01720-045400FM-12+004499999V0200901N005710450019N0005001N1+03081+02271101141ADDAA106000091GF108991041071017501011001MA1999999100621MD1999999-0011REMSYN070AAXX  21184 82198 32793 80911 10308 20227 30062 40114 84710 333 59001;EQDQ01  00002PRCP06
0198821980999992002122300004-01720-045400FM-12+004499999V0200501N003612200019N0002001N1+02721+02431101211ADDAA106000091GF103991031021017501001001KA1240M+03251MA1999999100701MD1999999-0041REMSYN088AAXX  23004 82198 32792 30507 10272 20243 30070 40121 83200 333 10325 29077 55070 59004;EQDQ01  00002PRCP06
0162821980999992002122312004-01720-045400FM-12+004499999V0200501N004610450019N0005001N1+02961+02401101291ADDGF107991041051017501061001KA1240N+02591MA1999999100781MD1999999+0021REMSYN082AAXX  23124 82198 22793 70509 10296 20240 30078 40129 84560 333 20259 58002 69954;
0167821980999992002122318004-01720-045400FM-12+004499999V0203601N007710450019N0040001N1+03161+02151101051ADDAA106000091GF107991041021017501031041MA1999999100541MD1999999+0021REMSYN070AAXX  23184 82198 32796 73615 10316 20215 30054 40105 84234 333 58002;EQDQ01  00002PRCP06
0186821980999992002122412004-01720-045400FM-12+004499999V0200501N005710450019N0005001N1+02881+02411101351ADDAA106000091GF106991041021017501061021KA1240N+02581MA1999999100841MD1999999+0061REMSYN076AAXX  24124 82198 32793 60511 10288 20241 30084 40135 84262 333 20258 58006;EQDQ01  00002PRCP06
0171821980999992002122418004-01720-045400FM-12+004499999V0200501N005710150019N0005001N1+02801+02401101081ADDAY151061AY221061GF108991051021017501041001MA1999999100571MD1999999+0031MW1151REMSYN082AAXX  24184 82198 21793 80511 10280 20240 30057 40108 71552 85240 333 58003 69921;
0202821980999992002122500004-01720-045400FM-12+004499999V0200501N004610450019N0002001N1+02651+02411101231ADDAY161061AY221061GF106991031051017501041001KA1240M+03141MA1999999100711MD1999999-0021MW1021REMSYN100AAXX  25004 82198 21792 60509 10265 20241 30071 40123 70262 83540 333 10314 29082 55027 59002 60121;
0162821980999992002122512004-01720-045400FM-12+004499999V0200501N004110150019N0020001N1+02821+02361101371ADDGF108991051021017501061001KA1240N+02541MA1999999100861MD1999999+0021REMSYN082AAXX  25124 82198 22795 80508 10282 20236 30086 40137 85260 333 20254 58002 60124;
0167821980999992002122518004-01720-045400FM-12+004499999V0203601N007712200019N0020001N1+02971+02421101111ADDAA106000091GF104991041021017501001001MA1999999100601MD1999999+0031REMSYN070AAXX  25184 82198 32795 43615 10297 20242 30060 40111 84200 333 58003;EQDQ01  00002PRCP06
0208821980999992002122600004-01720-045400FM-12+004499999V0200501N003112200019N0002001N1+02681+02451101351ADDAA106000091GA1001+999999999GF100991001001999999001001KA1240M+03081MA1999999100831MD1999999+0121REMSYN082AAXX  26004 82198 32992 00506 10268 20245 30083 40135 333 10308 29080 55076 58012;EQDQ01  00002PRCP06
0167821980999992002122618004-01720-045400FM-12+004499999V0203601N006712200019N0020001N1+03061+02381101061ADDAA106000091GF103991031021017501001001MA1999999100551MD1999999-0051REMSYN070AAXX  26184 82198 32795 33613 10306 20238 30055 40106 83200 333 59005;EQDQ01  00002PRCP06
0208821980999992002122700004-01720-045400FM-12+004499999V0200501N004112200019N0005001N1+02701+02391101341ADDAA106000091GA1001+999999999GF100991001001999999001001KA1240M+03161MA1999999100821MD1999999-0011REMSYN082AAXX  27004 82198 32993 00508 10270 20239 30082 40134 333 10316 29078 55101 59001;EQDQ01  00002PRCP06
0186821980999992002122712004-01720-045400FM-12+004499999V0200501N003610450019N0020001N1+02861+02441101311ADDAA106000091GF105991041021017501061001KA1240N+02521MA1999999100801MD1999999-0181REMSYN076AAXX  27124 82198 32795 50507 10286 20244 30080 40131 84260 333 20252 59018;EQDQ01  00002PRCP06
0167821980999992002122718004-01720-045400FM-12+004499999V0200501N007712200019N0020001N1+03061+02451100961ADDAA106000091GF104991041021017501001001MA1999999100451MD1999999-0101REMSYN070AAXX  27184 82198 32795 40515 10306 20245 30045 40096 84200 333 59010;EQDQ01  00002PRCP06
0198821980999992002122800004-01720-045400FM-12+004499999V0200501N004112200019N0002001N1+02701+02451101231ADDAA106000091GF103991031021017501001001KA1240M+03211MA1999999100731MD1999999-0091REMSYN088AAXX  28004 82198 32792 30508 10270 20245 30073 40123 83200 333 10321 29080 55097 59009;EQDQ01  00002PRCP06
0186821980999992002122812004-01720-045400FM-12+004499999V0200501N003110150019N0020001N1+02921+02391101251ADDAA106000091GF106991051021017501031001KA1240N+02541MA1999999100741MD1999999-0061REMSYN076AAXX  28124 82198 32795 60506 10292 20239 30074 40125 85230 333 20254 59006;EQDQ01  00002PRCP06
0171821980999992002122818004-01720-045400FM-12+004499999V0200501N006710450019N0020001N1+03001+02441100931ADDAY161061AY221061GF106991041021017501061001MA1999999100421MD1999999-0031MW1021REMSYN082AAXX  28184 82198 21795 60513 10300 20244 30042 40093 70262 84260 333 59003 69981;
0162821980999992002122912004-01720-045400FM-12+004499999V0200501N006710450019N0020001N1+02891+02301101211ADDGF108991021021017501031001KA1240N+02501MA1999999100701MD1999999-0041REMSYN082AAXX  29124 82198 22795 80513 10289 20230 30070 40121 82230 333 20250 59004 69984;
0167821980999992002122918004-01720-045400FM-12+004499999V0200501N005712200019N0020001N1+03141+02321100951ADDAA106000091GF103991021021017501001011MA1999999100441MD1999999+0021REMSYN070AAXX  29184 82198 32795 30511 10314 20232 30044 40095 82201 333 58002;EQDQ01  00002PRCP06
0208821980999992002123000004-01720-045400FM-12+004499999V0200501N002112200019N0005001N1+02701+02301101211ADDAA106000091GA1001+999999999GF100991001001999999001001KA1240M+03411MA1999999100701MD1999999+0031REMSYN082AAXX  30004 82198 32993 00504 10270 20230 30070 40121 333 10341 29073 55076 58003;EQDQ01  00002PRCP06
0186821980999992002123012004-01720-045400FM-12+004499999V0200501N003610150019N0020001N1+02891+02321101321ADDAA106000091GF105991051021017501001001KA1240N+02501MA1999999100811MD1999999+0111REMSYN076AAXX  30124 82198 32795 50507 10289 20232 30081 40132 85200 333 20250 58011;EQDQ01  00002PRCP06
0167821980999992002123018004-01720-045400FM-12+004499999V0200501N007212200019N0040001N1+03181+02311100941ADDAA106000091GF103991031021017501001001MA1999999100431MD1999999-0011REMSYN070AAXX  30184 82198 32796 30514 10318 20231 30043 40094 83200 333 59001;EQDQ01  00002PRCP06
0208821980999992002123100004-01720-045400FM-12+004499999V0200501N004612200019N0002001N1+02721+02371101281ADDAA106000091GA1001+999999999GF100991001001999999001001KA1240M+03341MA1999999100761MD1999999+0061REMSYN082AAXX  31004 82198 32992 00509 10272 20237 30076 40128 333 10334 29074 55104 58006;EQDQ01  00002PRCP06
0186821980999992002123112004-01720-045400FM-12+004499999V0200501N004612200019N0100001N1+02941+02381101391ADDAA106000091GF104991031021017501001011KA1240N+02511MA1999999100881MD1999999+0071REMSYN076AAXX  31124 82198 32797 40509 10294 20238 30088 40139 83201 333 20251 58007;EQDQ01  00002PRCP06
0167821980999992002123118004-01720-045400FM-12+004499999V0203601N005712200019N0040001N1+03171+02331101051ADDAA106000091GF102991011021017501041001MA1999999100541MD1999999+0111REMSYN070AAXX  31184 82198 32796 23611 10317 20233 30054 40105 81240 333 58011;EQDQ01  00002PRCP06
