0198823920999992002010100004-03690-040340FM-12+008399999V0200501N005110450019N0040001N1+02821+02221100911ADDAA199000091GF106991041041004501031001KA1240M+03681MA1999999099901MD1999999-0051REMSYN088AAXX  01004 82392 32496 60510 10282 20222 39990 40091 84430 333 10368 29062 55044 59005;EQDQ01  00002PRCP99
0167823920999992002010118004-03690-040340FM-12+008399999V0200901N001510450019N0500001N1+03421+02091100601ADDAA199000091GF105991031021004501031001MA1999999099601MD1999999+0021REMSYN070AAXX  01184 82392 32499 50903 10342 20209 39960 40060 83230 333 58002;EQDQ01  00002PRCP99
0198823920999992002010200004-03690-040340FM-12+008399999V0200501N005710450019N0040001N1+02801+02311100911ADDAA199000091GF106991041041004501031001KA1240M+03561MA1999999099901MD1999999+0001REMSYN088AAXX  02004 82392 32496 60511 10280 20231 39990 40091 84430 333 10356 29066 55066 58000;EQDQ01  00002PRCP99
0186823920999992002010212004-03690-040340FM-12+008399999V0201401N001010042019N0500001N1+02941+02211101061ADDAA199000091GF106991051021004501031001KA1240N+02591MA1999999100051MD1999999-0031REMSYN076AAXX  02124 82392 32499 61402 10294 20221 30005 40106 85230 333 20259 59003;EQDQ01  00002PRCP99
0167823920999992002010218004-03690-040340FM-12+008399999V0200901N001510450019N0500001N1+03161+01991100751ADDAA199000091GF108991041061004501021999MA1999999099741MD1999999+0141REMSYN070AAXX  02184 82392 32499 80903 10316 20199 39974 40075 8462/ 333 58014;EQDQ01  00002PRCP99
0198823920999992002010300004-03690-040340FM-12+008399999V0200501N005710450019N0040001N1+02881+02281101111ADDAA199000091GF107991041051004501031001KA1240M+03381MA1999999100101MD1999999+0201REMSYN088AAXX  03004 82392 32496 70511 10288 20228 30010 40111 84530 333 10338 29064 55020 58020;EQDQ01  00002PRCP99
0186823920999992002010312004-03690-040340FM-12+008399999V0203201N000510450019N0500001N1+02741+02341101201ADDAA199000091GF108991031071004501021999KA1240N+02491MA1999999100181MD1999999+0131REMSYN076AAXX  03124 82392 32499 83201 10274 20234 30018 40120 8372/ 333 20249 58013;EQDQ01  00002PRCP99
0167823920999992002010318004-03690-040340FM-12+008399999V0201401N001010042019N0500001N1+03421+01911100761ADDAA199000091GF107991051041004501031001MA1999999099751MD1999999+0011REMSYN070AAXX  03184 82392 32499 71402 10342 20191 39975 40076 85430 333 58001;EQDQ01  00002PRCP99
0208823920999992002010400004-03690-040340FM-12+008399999V0203601N001512200019N0040001N1+02801+02251101071ADDAA199000091GA1001+999999999GF100991001001999999001001KA1240M+03501MA1999999100051MD1999999-0051REMSYN082AAXX  04004 82392 32996 03603 10280 20225 30005 40107 333 10350 29066 55031 59005;EQDQ01  00002PRCP99
0186823920999992002010412004-03690-040340FM-12+008399999V0200501N002612200019N0500001N1+03001+02271101161ADDAA199000091GF104991031021004501031001KA1240N+02281MA1999999100151MD1999999-0031REMSYN076AAXX  04124 82392 32499 40505 10300 20227 30015 40116 83230 333 20228 59003;EQDQ01  00002PRCP99
0167823920999992002010418004-03690-040340FM-12+008399999V0200501N004610450019N0500001N1+03521+01601100691ADDAA199000091GF108991031051004501021999MA1999999099681MD1999999-0071REMSYN070AAXX  04184 82392 32499 80509 10352 20160 39968 40069 8352/ 333 59007;EQDQ01  00002PRCP99
0198823920999992002010500004-03690-040340FM-12+008399999V0200501N005710450019N0040001N1+02821+02221101111ADDAA199000091GF106991041041004501031001KA1240M+03661MA1999999100101MD1999999+0051REMSYN088AAXX  05004 82392 32496 60511 10282 20222 30010 40111 84430 333 10366 29059 55061 58005;EQDQ01  00002PRCP99
0186823920999992002010512004-03690-040340FM-12+008399999V0200901N000510450019N0500001N1+02881+02181101201ADDAA199000091GF106991031051004501031001KA1240N+02541MA1999999100191MD1999999+0041REMSYN076AAXX  05124 82392 32499 60901 10288 20218 30019 40120 83530 333 20254 58004;EQDQ01  00002PRCP99
0167823920999992002010518004-03690-040340FM-12+008399999V0200901N002610450019N0500001N1+03471+01921100761ADDAA199000091GF106991031041004501031001MA1999999099751MD1999999+0071REMSYN070AAXX  05184 82392 32499 60905 10347 20192 39975 40076 83430 333 58007;EQDQ01  00002PRCP99
0198823920999992002010600004-03690-040340FM-12+008399999V0203601N004110450019N0040001N1+02761+02231101091ADDAA199000091GF106991031041004501031001KA1240M+03541MA1999999100071MD1999999-0031REMSYN088AAXX  06004 82392 32496 63608 10276 20223 30007 40109 83430 333 10354 29063 55046 59003;EQDQ01  00002PRCP99
0186823920999992002010612004-03690-040340FM-12+008399999V0200901N001010450019N0500001N1+02801+02251101121ADDAA199000091GF108991031061004501021999KA1240N+02501MA1999999100101MD1999999-0091REMSYN076AAXX  06124 82392 32499 80902 10280 20225 30010 40112 8362/ 333 20250 59009;EQDQ01  00002PRCP99
0167823920999992002010618004-03690-040340FM-12+008399999V0200901N002110450019N0500001N1+03241+02101100611ADDAA199000091GF106991041041004501031001MA1999999099611MD1999999-0141REMSYN070AAXX  06184 82392 32499 60904 10324 20210 39961 40061 84430 333 59014;EQDQ01  00002PRCP99
0213823920999992002010700004-03690-040340FM-12+008399999V0202301N000510042019N0040001N1+02321+02291101221ADDAA106023991AY161061AY261061GF108991051051004501021999KA1240M+03301MA1999999100201MD1999999+0131MW1611REMSYN100AAXX  07004 82392 21496 82301 10232 20229 30020 40122 76166 8552/ 333 10330 29080 55005 58013 60241;
0201823920999992002010712004-03690-040340FM-12+008399999V0202301N000510450019N0200001N1+02341+02311101181ADDAA124035191AY161061AY261061GF108991031061004501021999KA1240N+02101MA1999999100151MD1999999+0051MW1031REMSYN088AAXX  07124 82392 21498 82301 10234 20231 30015 40118 70366 8362/ 333 20210 58005 60354;
0167823920999992002010718004-03690-040340FM-12+008399999V0202701N000510450019N0500001N1+03011+02101100761ADDAA199000091GF106991041041004501031001MA1999999099741MD1999999+0131REMSYN070AAXX  07184 82392 32499 62701 10301 20210 39974 40076 84430 333 58013;EQDQ01  00002PRCP99
0213823920999992002010800004-03690-040340FM-12+008399999V0203601N002610042019N0040001N1+02441+02341101171ADDAA106002091AY161061AY261061GF108991071051004501021999KA1240M+03101MA1999999100141MD1999999-0061MW1611REMSYN100AAXX  08004 82392 21496 83605 10244 20234 30014 40117 76166 8752/ 333 10310 29086 55013 59006 60021;
0201823920999992002010812004-03690-040340FM-12+008399999V0202301N000510450019N0500001N1+02481+02271101231ADDAA124033091AY161061AY261061GF106991041041004501031001KA1240N+02201MA1999999100201MD1999999+0051MW1021REMSYN088AAXX  08124 82392 21499 62301 10248 20227 30020 40123 70266 84430 333 20220 58005 60334;
0182823920999992002010818004-03690-040340FM-12+008399999V0203601N000510042019N0500001N1+02961+02131100741ADDAA106000191AY151061AY251061GF107991051051004501031001MA1999999099721MD1999999-0021MW1021REMSYN082AAXX  08184 82392 21499 73601 10296 20213 39972 40074 70255 85530 333 59002 69921;
0198823920999992002010900004-03690-040340FM-12+008399999V0203601N003110450019N0040001N1+02631+02271101091ADDAA199000091GF108991021051004501021999KA1240M+03001MA1999999100071MD1999999-0071REMSYN088AAXX  09004 82392 32496 83606 10263 20227 30007 40109 8252/ 333 10300 29077 55004 59007;EQDQ01  00002PRCP99
0201823920999992002010912004-03690-040340FM-12+008399999V0202301N003610042019N0500001N1+02481+02191101401ADDAA124038191AY161061AY261061GF107991051041004501031001KA1240N+02101MA1999999100381MD1999999+0181MW1021REMSYN088AAXX  09124 82392 21499 72307 10248 20219 30038 40140 70266 85430 333 20210 58018 60384;
0167823920999992002010918004-03690-040340FM-12+008399999V0200501N002610042019N0500001N1+02821+02221101091ADDAA199000091GF108991051041004501031001MA1999999100061MD1999999+0341REMSYN070AAXX  09184 82392 32499 80505 10282 20222 30006 40109 85430 333 58034;EQDQ01  00002PRCP99
0198823920999992002011000004-03690-040340FM-12+008399999V0200501N001010450019N0040001N1+02561+02361101241ADDAA199000091GF106991031051004501021001KA1240M+02941MA1999999100211MD1999999+0141REMSYN088AAXX  10004 82392 32496 60502 10256 20236 30021 40124 83520 333 10294 29080 55003 58014;EQDQ01  00002PRCP99
0186823920999992002011012004-03690-040340FM-12+008399999V0201401N001010450019N0500001N1+02801+02081101371ADDAA199000091GF105991041021004501021001KA1240N+02301MA1999999100351MD1999999-0031REMSYN076AAXX  10124 82392 32499 51402 10280 20208 30035 40137 84220 333 20230 59003;EQDQ01  00002PRCP99
0167823920999992002011018004-03690-040340FM-12+008399999V0201401N002610450019N0500001N1+03161+02021100871ADDAA199000091GF106991031051004501021011MA1999999099851MD1999999-0211REMSYN070AAXX  10184 82392 32499 61405 10316 20202 39985 40087 83521 333 59021;EQDQ01  00002PRCP99
0182823920999992002011118004-03690-040340FM-12+008399999V0200901N002611050019N0500001N1+03171+02191101021ADDAA106000591AY161061AY261061GF105991021051004501031021MA1999999100001MD1999999+0151MW1021REMSYN082AAXX  11184 82392 21499 50905 10317 20219 30000 40102 70266 82532 333 58015 69941;
0223823920999992002011200004-03690-040340FM-12+008399999V0203601N001512200019N0040001N1+02521+02341101321ADDAA106001091AY161061AY251061GA1001+999999999GF100991001001999999001001KA1240M+03281MA1999999100301MD1999999+0021MW1021REMSYN094AAXX  12004 82392 21996 03603 10252 20234 30030 40132 70265 333 10328 29079 55074 58002 60011;
0173823920999992002011212004-03690-040340FM-12+008399999V0201401N001010042019N0500001N1+02821+02221101371ADDAA124002091GF105991051041004501031001KA1240N+02301MA1999999100351MD1999999-0051REMSYN082AAXX  12124 82392 22499 51402 10282 20222 30035 40137 85430 333 20230 59005 60024;
0167823920999992002011218004-03690-040340FM-12+008399999V0201401N001010450019N0500001N1+03121+01601100921ADDAA199000091GF105991041041004501031001MA1999999099901MD1999999-0101REMSYN070AAXX  12184 82392 32499 51402 10312 20160 39990 40092 84430 333 59010;EQDQ01  00002PRCP99
0198823920999992002011300004-03690-040340FM-12+008399999V0200501N003110042019N0040001N1+02701+02431101271ADDAA199000091GF107991051051004501031001KA1240M+03281MA1999999100251MD1999999-0051REMSYN088AAXX  13004 82392 32496 70506 10270 20243 30025 40127 85530 333 10328 29070 55073 59005;EQDQ01  00002PRCP99
0201823920999992002011312004-03690-040340FM-12+008399999V0201401N001010450019N0500001N1+02701+02301101301ADDAA124002091AY161061AY261061GF107991041041004501031001KA1240N+02321MA1999999100281MD1999999-0071MW1021REMSYN088AAXX  13124 82392 21499 71402 10270 20230 30028 40130 70266 84430 333 20232 59007 60024;
0182823920999992002011318004-03690-040340FM-12+008399999V0203601N003110021019N0040001N1+02541+02381100941ADDAA106005191AY101061AY221061GF108991081061002501999999MA1999999099911MD1999999+0011MW1651REMSYN082AAXX  13184 82392 21396 83606 10254 20238 39991 40094 76502 886// 333 58001 60051;
0213823920999992002011400004-03690-040340FM-12+008399999V0202301N000510450019N0040001N1+02301+02251101271ADDAA106008991AY161061AY261061GF107991041071004501011999KA1240M+03281MA1999999100241MD1999999-0011MW1021REMSYN100AAXX  14004 82392 21496 72301 10230 20225 30024 40127 70266 8471/ 333 10328 29091 55038 59001 60091;
0173823920999992002011412004-03690-040340FM-12+008399999V0201401N000512200019N0500001N1+02741+02471101231ADDAA124015091GF104991041021004501001001KA1240N+02201MA1999999100201MD1999999-0081REMSYN082AAXX  14124 82392 22499 41401 10274 20247 30020 40123 84200 333 20220 59008 60154;
0167823920999992002011418004-03690-040340FM-12+008399999V0200501N005710042019N0500001N1+03181+02441100771ADDAA199000091GF106991051051004501031001MA1999999099751MD1999999-0161REMSYN070AAXX  14184 82392 32499 60511 10318 20244 39975 40077 85530 333 59016;EQDQ01  00002PRCP99
0198823920999992002011500004-03690-040340FM-12+008399999V0201801N000512200019N0040001N1+02461+02251100871ADDAA199000091GF103991021021004501031001KA1240M+03261MA1999999099951MD1999999-0291REMSYN088AAXX  15004 82392 32496 31801 10246 20225 39995 40087 82230 333 10326 29082 55082 59029;EQDQ01  00002PRCP99
0186823920999992002011512004-03690-040340FM-12+008399999V0201401N001010450019N0500001N1+02741+02361101071ADDAA199000091GF106991041041004501031001KA1240N+02301MA1999999100051MD1999999-0151REMSYN076AAXX  15124 82392 32499 61402 10274 20236 30005 40107 84430 333 20230 59015;EQDQ01  00002PRCP99
0213823920999992002011600004-03690-040340FM-12+008399999V0203601N000510042019N0040001N1+02381+02291100951ADDAA106106991AY161061AY261061GF108991081061004501999999KA1240M+03301MA1999999099941MD1999999-0011MW1631REMSYN100AAXX  16004 82392 21496 83601 10238 20229 39994 40095 76366 886// 333 10330 29080 55083 59001 61071;
0201823920999992002011612004-03690-040340FM-12+008399999V0202701N000510042019N0500001N1+02461+02391101091ADDAA124024991AY161061AY261061GF107991051041004501031001KA1240N+02261MA1999999100061MD1999999+0011MW1021REMSYN088AAXX  16124 82392 21499 72701 10246 20239 30006 40109 70266 85430 333 20226 58001 60254;
0167823920999992002011618004-03690-040340FM-12+008399999V0203201N001510042019N0500001N1+02901+02431100741ADDAA199000091GF107991051051004501031001MA1999999099721MD1999999+0191REMSYN070AAXX  16184 82392 32499 73203 10290 20243 39972 40074 85530 333 58019;EQDQ01  00002PRCP99
0213823920999992002011700004-03690-040340FM-12+008399999V0200901N000510042019N0040001N1+02401+02331101121ADDAA106002091AY161061AY261061GF108991061061004501999999KA1240M+03061MA1999999100091MD1999999+0151MW1021REMSYN100AAXX  17004 82392 21496 80901 10240 20233 30009 40112 70266 866// 333 10306 29091 55030 58015 60021;
0201823920999992002011712004-03690-040340FM-12+008399999V0201401N000510450019N0500001N1+02701+02351101111ADDAA124002091AY151061AY251061GF106991031041004501031001KA1240N+02341MA1999999100091MD1999999+0031MW1021REMSYN088AAXX  17124 82392 21499 61401 10270 20235 30009 40111 70255 83430 333 20234 58003 60024;
0182823920999992002011718004-03690-040340FM-12+008399999V0200901N003110021019N0100001N1+02531+02331100931ADDAA106004191AY101061AY221061GF108991061061002501021999MA1999999099901MD1999999+0081MW1631REMSYN082AAXX  17184 82392 21397 80906 10253 20233 39990 40093 76302 8662/ 333 58008 60041;
0213823920999992002011800004-03690-040340FM-12+008399999V0209999C000010042019N0040001N1+02381+02331101201ADDAA106005191AY161061AY261061GF108991051061004501021999KA1240M+03061MA1999999100171MD1999999+0081MW1021REMSYN100AAXX  18004 82392 21496 80000 10238 20233 30017 40120 70266 8562/ 333 10306 29091 55018 58008 60051;
0201823920999992002011812004-03690-040340FM-12+008399999V0202701N000510450019N0500001N1+02281+02261101321ADDAA124038191AY161061AY261061GF108991041061004501021999KA1240N+02101MA1999999100301MD1999999+0211MW1021REMSYN088AAXX  18124 82392 21499 82701 10228 20226 30030 40132 70266 8462/ 333 20210 58021 60384;
0167823920999992002011818004-03690-040340FM-12+008399999V0201401N000510450019N0500001N1+02881+02181100921ADDAA199000091GF106991041021004501031001MA1999999099901MD1999999+0001REMSYN070AAXX  18184 82392 32499 61401 10288 20218 39990 40092 84230 333 58000;EQDQ01  00002PRCP99
0198823920999992002011900004-03690-040340FM-12+008399999V0202301N000512200019N0040001N1+02461+02391101031ADDAA199000091GF103991021021004501031001KA1240M+03001MA1999999100001MD1999999-0171REMSYN088AAXX  19004 82392 32496 32301 10246 20239 30000 40103 82230 333 10300 29089 55035 59017;EQDQ01  00002PRCP99
0186823920999992002011912004-03690-040340FM-12+008399999V0200501N000510450019N0500001N1+02671+02331101121ADDAA199000091GF106991031041004501011001KA1240N+02281MA1999999100101MD1999999-0201REMSYN076AAXX  19124 82392 32499 60501 10267 20233 30010 40112 83410 333 20228 59020;EQDQ01  00002PRCP99
0167823920999992002011918004-03690-040340FM-12+008399999V0209999C000010450019N0500001N1+02951+02101100841ADDAA199000091GF106991021021004501011011MA1999999099821MD1999999-0081REMSYN070AAXX  19184 82392 32499 60000 10295 20210 39982 40084 82211 333 59008;EQDQ01  00002PRCP99
0198823920999992002012000004-03690-040340FM-12+008399999V0203601N000512200019N0040001N1+02521+02251101101ADDAA199000091GF103991011021004501011001KA1240M+02981MA1999999100081MD1999999+0081REMSYN088AAXX  20004 82392 32496 33601 10252 20225 30008 40110 81210 333 10298 29078 55030 58008;EQDQ01  00002PRCP99
0186823920999992002012012004-03690-040340FM-12+008399999V0201401N001012200019N0500001N1+02661+02331101271ADDAA199000091GF103991021011004501031001KA1240N+02181MA1999999100251MD1999999+0151REMSYN076AAXX  20124 82392 32499 31402 10266 20233 30025 40127 82130 333 20218 58015;EQDQ01  00002PRCP99
0167823920999992002012018004-03690-040340FM-12+008399999V0201401N001010042019N0500001N1+02921+02271100921ADDAA199000091GF107991051041004501031001MA1999999099901MD1999999+0081REMSYN070AAXX  20184 82392 32499 71402 10292 20227 39990 40092 85430 333 58008;EQDQ01  00002PRCP99
0197823920999992002012100004-03690-040340FM-12+008399999V0202301N000510450019N0040001N1+02481+02411101241ADDAA199000091GF106991041041004501031001KA1240M+03181MA1999999100221MD1999999+0141REMSYN087AAXX  21004 82392 32496 62301 10248 20241 30022 4012484430 333 10318 29085 55078 58014;EQDQ01  00002PRCP99
0186823920999992002012112004-03690-040340FM-12+008399999V0200501N002612200019N0500001N1+02781+02361101361ADDAA199000091GF104991031021004501031001KA1240N+02281MA1999999100341MD1999999+0091REMSYN076AAXX  21124 82392 32499 40505 10278 20236 30034 40136 83230 333 20228 58009;EQDQ01  00002PRCP99
0182823920999992002012118004-03690-040340FM-12+008399999V0203201N000510450019N0500001N1+02881+02541100981ADDAA106000891AY151061AY251061GF107991041071004501011001MA1999999099961MD1999999+0061MW1031REMSYN082AAXX  21184 82392 21499 73201 10288 20254 39996 40098 70355 84710 333 58006 69981;
0213823920999992002012200004-03690-040340FM-12+008399999V0209999C000010042019N0040001N1+02421+02331101461ADDAA106014091AY161061AY261061GF108991051071004501011999KA1240M+03141MA1999999100441MD1999999+0221MW1021REMSYN100AAXX  22004 82392 21496 80000 10242 20233 30044 40146 70266 8571/ 333 10314 29088 55064 58022 60141;
0201823920999992002012212004-03690-040340FM-12+008399999V0202701N000510450019N0500001N1+02221+02151101501ADDAA124033091AY161061AY261061GF108991031061004501021999KA1240N+02001MA1999999100471MD1999999+0131MW1021REMSYN088AAXX  22124 82392 21499 82701 10222 20215 30047 40150 70266 8362/ 333 20200 58013 60334;
0198823920999992002012300004-03690-040340FM-12+008399999V0209999C000010450019N0040001N1+02461+02361101451ADDAA199000091GF106991031061004501011001KA1240M+02711MA1999999100421MD1999999-0021REMSYN088AAXX  23000 82392 32496 60000 10246 20236 30042 40145 83610 333 10271 29090 55001 59002;EQDQ01  00002PRCP99
0186823920999992002012312004-03690-040340FM-12+008399999V0209999C000010450019N0500001N1+02501+02431101451ADDAA199000091GF108991041061004501021999KA1240N+02161MA1999999100421MD1999999-0051REMSYN076AAXX  23124 82392 32499 80000 10250 20243 30042 40145 8462/ 333 20216 59005;EQDQ01  00002PRCP99
0167823920999992002012318004-03690-040340FM-12+008399999V0200901N001512200019N0500001N1+02121+02111101071ADDAA199000091GF103991021011004501031001MA1999999100051MD1999999-0201REMSYN070AAXX  23184 82392 32499 30903 10212 20211 30005 40107 82130 333 59020;EQDQ01  00002PRCP99
0198823920999992002012400004-03690-040340FM-12+008399999V0203601N003110450019N0040001N1+02611+02251101301ADDAA199000091GF106991031041004501031001KA1240M+03161MA1999999100281MD1999999-0141REMSYN088AAXX  24004 82392 32496 63606 10261 20225 30028 40130 83430 333 10316 29078 55077 59014;EQDQ01  00002PRCP99
0186823920999992002012412004-03690-040340FM-12+008399999V0209999C000011050019N0500001N1+02661+02241101361ADDAA199000091GF105991021021004501011011KA1240N+02151MA1999999100341MD1999999-0081REMSYN076AAXX  24124 82392 32499 50000 10266 20224 30034 40136 82211 333 20215 59008;EQDQ01  00002PRCP99
0167823920999992002012418004-03690-040340FM-12+008399999V0200901N001010450019N0500001N1+03071+02351100961ADDAA199000091GF106991031061004501011011MA1999999099941MD1999999-0111REMSYN070AAXX  24184 82392 32499 60902 10307 20235 39994 40096 83611 333 59011;EQDQ01  00002PRCP99
0198823920999992002012500004-03690-040340FM-12+008399999V0200501N003112200019N0040001N1+02581+02311101221ADDAA199000091GF103991031001004501031001KA1240M+03101MA1999999100201MD1999999-0081REMSYN088AAXX  25004 82392 32496 30506 10258 20231 30020 40122 83030 333 10310 29078 55049 59008;EQDQ01  00002PRCP99
0186823920999992002012512004-03690-040340FM-12+008399999V0201401N001012200019N0500001N1+02721+02341101361ADDAA199000091GF104991041021004501001001KA1240N+02301MA1999999100341MD1999999+0001REMSYN076AAXX  25124 82392 32499 41402 10272 20234 30034 40136 84200 333 20230 58000;EQDQ01  00002PRCP99
0182823920999992002012518004-03690-040340FM-12+008399999V0201401N000510450019N0500001N1+02761+02461100971ADDAA106020191AY161061AY261061GF106991041071004501011001MA1999999099961MD1999999+0021MW1021REMSYN082AAXX  25184 82392 21499 61401 10276 20246 39996 40097 70266 84710 333 58002 60201;
0198823920999992002012600004-03690-040340FM-12+008399999V0202301N000510450019N0040001N1+02521+02431101361ADDAA199000091GF106991041041004501031001KA1240M+03021MA1999999100341MD1999999+0001REMSYN088AAXX  26004 82392 32496 62301 10252 20243 30034 40136 84430 333 10302 29088 55067 58000;EQDQ01  00002PRCP99
0156823920999992002012612004-03690-040340FM-12+008399999V0202701N000510450019N0500001N1+02761+02481101421ADDGF107991041051004501031001KA1240N+02301MA1999999100401MD1999999+0061REMSYN076AAXX  26124 82392 22499 72701 10276 20248 30040 40142 84530 333 20230 58006;
0182823920999992002012618004-03690-040340FM-12+008399999V0203601N003112200019N0500001N1+02841+02351101071ADDAA106000591AY151061AY221061GF103991021011004501031001MA1999999100051MD1999999+0091MW1031REMSYN082AAXX  26184 82392 21499 33606 10284 20235 30005 40107 70352 82130 333 58009 69941;
0232823920999992002012700004-03690-040340FM-12+008399999V0200201N036022200019N0040001N1+02201+02161101381ADDAA106020191AY161061AY251061GF104991031041004501031001KA1240M+02981MA1999999100351MD1999999+0011MW1031REMSYN100AAXX  27004 82392 21496 40270 10220 20216 30035 40138 70365 83430 333 10298 29088 55067 58001 60201;EQDQ01+003603WOSPD 
0201823920999992002012712004-03690-040340FM-12+008399999V0201801N000510450019N0100001N1+02561+02361101351ADDAA124022191AY161061AY261061GF106991041041002501031001KA1240N+02181MA1999999100321MD1999999-0081MW1021REMSYN088AAXX  27124 82392 21397 61801 10256 20236 30032 40135 70266 84430 333 20218 59008 60224;
0182823920999992002012718004-03690-040340FM-12+008399999V0200901N000510042019N0500001N1+02541+02441101021ADDAA106013091AY161061AY261061GF107991051071004501031001MA1999999099991MD1999999-0061MW1021REMSYN082AAXX  27184 82392 21499 70901 10254 20244 39999 40102 70266 85730 333 59006 60131;
0198823920999992002012800004-03690-040340FM-12+008399999V0203601N000512200019N0040001N1+02441+02341101151ADDAA199000091GF103991021021004501031001KA1240M+02831MA1999999100121MD1999999-0231REMSYN088AAXX  28004 82392 32496 33601 10244 20234 30012 40115 82230 333 10283 29093 55039 59023;EQDQ01  00002PRCP99
0173823920999992002012812004-03690-040340FM-12+008399999V0202301N000510450019N0500001N1+02621+02531101271ADDAA124013091GF107991041041004501031001KA1240N+02211MA1999999100241MD1999999-0081REMSYN082AAXX  28124 82392 22499 72301 10262 20253 30024 40127 84430 333 20221 59008 60134;
0182823920999992002012818004-03690-040340FM-12+008399999V0202301N000510450019N0500001N1+02761+02381100951ADDAA106013091AY161061AY221061GF106991031041004501031001MA1999999099931MD1999999-0061MW1021REMSYN082AAXX  28184 82392 21499 62301 10276 20238 39993 40095 70262 83430 333 59006 60131;
0198823920999992002012900004-03690-040340FM-12+008399999V0209999C000010450019N0040001N1+02531+02401101141ADDAA199000091GF108991031071004501011999KA1240M+02901MA1999999100121MD1999999+0001REMSYN088AAXX  29004 82392 32496 80000 10253 20240 30012 40114 8371/ 333 10290 29090 55052 58000;EQDQ01  00002PRCP99
0172823920999992002012912004-03690-040340FM-12+008399999V0202701N000512200019N0500001N1+02701+02521101181ADDAA124013091GF104991031021004501031001KA1240N+02291MA1999999100161MD1999999-0081REMSYN081AAXX  29124 82392 2249942701 10270 20252 30016 40118 83230 333 20229 59008 60134;
0182823920999992002012918004-03690-040340FM-12+008399999V0203601N001510021019N0040001N1+02301+02251101001ADDAA106025991AY101061AY221061GF108991081071002501999999MA1999999099971MD1999999+0041MW1971REMSYN082AAXX  29184 82392 21396 83603 10230 20225 39997 40100 79702 887// 333 58004 60261;
0213823920999992002013000004-03690-040340FM-12+008399999V0200901N000510450019N0040001N1+02401+02351101171ADDAA106006191AY161061AY261061GF107991031071004501011001KA1240M+03091MA1999999100151MD1999999+0031MW1021REMSYN100AAXX  30004 82392 21496 70901 10240 20235 30015 40117 70266 83710 333 10309 29095 55056 58003 60061;
0200823920999992002013012004-03690-040340FM-12+008399999V0201801N001010450019N0500001N1+02661+02481101231ADDAA124032091AY161061AY261061GF105991041021004501031001KA1999N+02261MA1999999100201MD1999999+0041MW1021REMSYN087AAXX  30124 82392 21499 51802 10266 20248 30020 40123 70266 84230333 20226 58004 60324;
0167823920999992002013018004-03690-040340FM-12+008399999V0203201N002610450019N0500001N1+02821+02361100981ADDAA199000091GF108991031071004501021999MA1999999099961MD1999999-0011REMSYN070AAXX  30184 82392 32499 83205 10282 20236 39996 40098 8372/ 333 59001;EQDQ01  00002PRCP99
0198823920999992002013100004-03690-040340FM-12+008399999V0200501N000512200019N0040001N1+02521+02401101181ADDAA199000091GF103991011021004501011001KA1240M+03141MA1999999100161MD1999999+0011REMSYN088AAXX  31004 82392 32496 30501 10252 20240 30016 40118 81210 333 10314 29088 55061 58001;EQDQ01  00002PRCP99
0186823920999992002013112004-03690-040340FM-12+008399999V0200901N001010450019N0500001N1+02681+02371101131ADDAA199000091GF107991041061004501011001KA1240N+02201MA1999999100111MD1999999-0091REMSYN076AAXX  31124 82392 32499 70902 10268 20237 30011 40113 84610 333 20220 59009;EQDQ01  00002PRCP99
0167823920999992002013118004-03690-040340FM-12+008399999V0203601N001510042019N0500001N1+02981+02491100801ADDAA199000091GF107991051061004501031001MA1999999099781MD1999999-0181REMSYN070AAXX  31184 82392 32499 73603 10298 20249 39978 40080 85630 333 59018;EQDQ01  00002PRCP99
0232823920999992002020100004-03690-040340FM-12+008399999V0203601N002619999999N0040001N1+02461+02391101081ADDAA106000891AY161061AY261061GF107991999021004501001001KA1240M+03041MA1999999100061MD1999999-0101MW1021REMSYN100AAXX  01004 82392 21496 73605 10246 20239 30006 40108 70266 83200 333 10304 29087 55047 59010 69981;EQDQ01+000032SCOTLC
0173823920999992002020112004-03690-040340FM-12+008399999V0209999C000010450019N0500001N1+02401+02371101351ADDAA124000891GF108991031071004501021999KA1240N+02241MA1999999100321MD1999999+0211REMSYN082AAXX  01124 82392 22499 80000 10240 20237 30032 40135 8372/ 333 20224 58021 69984;
0167823920999992002020118004-03690-040340FM-12+008399999V0200901N000510450019N0500001N1+02841+02311100971ADDAA199000091GF107991041061004501031001MA1999999099951MD1999999+0171REMSYN070AAXX  01184 82392 32499 70901 10284 20231 39995 40097 84630 333 58017;EQDQ01  00002PRCP99
0208823920999992002020200004-03690-040340FM-12+008399999V0202701N000512200019N0040001N1+02501+02431101091ADDAA199000091GA1001+999999999GF100991001001999999001001KA1240M+02901MA1999999100061MD1999999+0001REMSYN082AAXX  02004 82392 32996 02701 10250 20243 30006 40109 333 10290 29091 55013 58000;EQDQ01  00002PRCP99
0202823920999992002020212004-03690-040340FM-12+008399999V0209999C000019999999N0020001N1+02741+02341101311ADDAA199000091GF106991999011008001001001KA1240N+02141MA1999999100291MD1999999-0031REMSYN076AAXX  02124 82392 32595 60000 10274 20234 30029 40131 82100 333 20214 59003;EQDQ01+000022SCOTLCQ02  00002PRCP99
0167823920999992002020218004-03690-040340FM-12+008399999V0201401N002612200019N0500001N1+03201+02301100991ADDAA199000091GF102991021011004501001001MA1999999099971MD1999999+0021REMSYN070AAXX  02184 82392 32499 21405 10320 20230 39997 40099 82100 333 58002;EQDQ01  00002PRCP99
0198823920999992002020300004-03690-040340FM-12+008399999V0203601N002612200019N0040001N1+02511+02361101241ADDAA199000091GF101991011041004501001001KA1240M+03241MA1999999100281MD1999999+0061REMSYN088AAXX  03004 82392 32496 13605 10251 20236 30028 40124 81400 333 10324 29081 55100 58006;EQDQ01  00002PRCP99
0201823920999992002020312004-03690-040340FM-12+008399999V0203601N001010450019N0100001N1+02431+02341101361ADDAA124002091AY161061AY261061GF107991041061004501031001KA1240N+02291MA1999999100331MD1999999+0041MW1021REMSYN088AAXX  03124 82392 21497 73602 10243 20234 30033 40136 70266 84630 333 20229 58004 60024;
0182823920999992002020318004-03690-040340FM-12+008399999V0203601N001010450019N0500001N1+02791+02401101031ADDAA106001091AY161061AY261061GF107991041061004501031001MA1999999100011MD1999999+0041MW1021REMSYN082AAXX  03184 82392 21499 73602 10279 20240 30001 40103 70266 84630 333 58004 60011;
0198823920999992002020400004-03690-040340FM-12+008399999V0202701N000510450019N0040001N1+02441+02371101231ADDAA199000091GF108991041061004501031999KA1240M+02821MA1999999100201MD1999999-0021REMSYN088AAXX  04004 82392 32496 82701 10244 20237 30020 40123 8463/ 333 10282 29091 55008 59002;EQDQ01  00002PRCP99
0173823920999992002020412004-03690-040340FM-12+008399999V0201401N001010450019N0500001N1+02721+02391101321ADDAA124001091GF105991041021004501031001KA1240N+02221MA1999999100301MD1999999-0031REMSYN082AAXX  04124 82392 22499 51402 10272 20239 30030 40132 84230 333 20222 59003 60014;
0167823920999992002020418004-03690-040340FM-12+008399999V0200501N002610450019N0500001N1+03021+02141100921ADDAA199000091GF106991041041004501031001MA1999999099901MD1999999-0111REMSYN070AAXX  04184 82392 32499 60505 10302 20214 39990 40092 84430 333 59011;EQDQ01  00002PRCP99
0214823920999992002020500004-03690-040340FM-12+008399999V0200501N000519999999N0040001N1+02501+02151101221ADDAA199000091GF106991999021008001001001KA1240M+03141MA1999999100201MD1999999+0001REMSYN088AAXX  05004 82392 32596 60501 10250 20215 30020 40122 83200 333 10314 29075 55081 58000;EQDQ01+000032SCOTLCQ02  00002PRCP99
0186823920999992002020512004-03690-040340FM-12+008399999V0203201N000512200019N0500001N1+02721+02391101391ADDAA199000091GF104991041021004501001001KA1240N+02261MA1999999100371MD1999999+0071REMSYN076AAXX  05124 82392 32499 43201 10272 20239 30037 40139 84200 333 20226 58007;EQDQ01  00002PRCP99
0167823920999992002020518004-03690-040340FM-12+008399999V0200501N000512200019N0500001N1+03091+02361101001ADDAA199000091GF103991021021004501031001MA1999999099981MD1999999+0081REMSYN070AAXX  05184 82392 32499 30501 10309 20236 39998 40100 82230 333 58008;EQDQ01  00002PRCP99
0198823920999992002020600004-03690-040340FM-12+008399999V0203601N000512200019N0040001N1+02531+02271101261ADDAA199000091GF102991021021004501001001KA1240M+03141MA1999999100241MD1999999+0041REMSYN088AAXX  06004 82392 32496 23601 10253 20227 30024 40126 82200 333 10314 29079 55093 58004;EQDQ01  00002PRCP99
0186823920999992002020612004-03690-040340FM-12+008399999V0209999C000012200019N0500001N1+02681+02311101271ADDAA199000091GF101991011011004501001001KA1240N+02221MA1999999100251MD1999999-0121REMSYN076AAXX  06124 82392 32499 10000 10268 20231 30025 40127 81100 333 20222 59012;EQDQ01  00002PRCP99
0182823920999992002020618004-03690-040340FM-12+008399999V0209999C000010450019N0500001N1+02501+02411100951ADDAA106002091AY161061AY221061GF108991031071004501021999MA1999999099921MD1999999-0061MW1211REMSYN082AAXX  06184 82392 21499 80000 10250 20241 39992 40095 72162 8372/ 333 59006 60021;
0167823920999992002020718004-03690-040340FM-12+008399999V0201401N000510450019N0500001N1+03091+02311100841ADDAA199000091GF106991021021004501011011MA1999999099821MD1999999-0101REMSYN070AAXX  07184 82392 32499 61401 10309 20231 39982 40084 82211 333 59010;EQDQ01  00002PRCP99
0208823920999992002020800004-03690-040340FM-12+008399999V0203601N001512200019N0040001N1+02421+02281101061ADDAA199000091GA1001+999999999GF100991001001999999001001KA1240M+03161MA1999999100041MD1999999-0061REMSYN082AAXX  08004 82392 32996 03603 10242 20228 30004 40106 333 10316 29082 55068 59006;EQDQ01  00002PRCP99
0186823920999992002020812004-03690-040340FM-12+008399999V0201801N001012200019N0500001N1+02721+02241101181ADDAA199000091GF103991031021004501001001KA1240N+02161MA1999999100161MD1999999-0041REMSYN076AAXX  08124 82392 32499 31802 10272 20224 30016 40118 83200 333 20216 59004;EQDQ01  00002PRCP99
0167823920999992002020818004-03690-040340FM-12+008399999V0200901N001012200019N0500001N1+03091+99999100851ADDAA199000091GF104991041021004501001001MA1999999099831MD1999999+0011REMSYN070AAXX  08184 82392 32499 40902 10309 20323 39983 40085 84200 333 58001;EQDQ01  00002PRCP99
0208823920999992002020900004-03690-040340FM-12+008399999V0200501N002612200019N0040001N1+02501+02401101151ADDAA199000091GA1001+999999999GF100991001001999999001001KA1240M+03181MA1999999100131MD1999999+0091REMSYN082AAXX  09004 82392 32996 00505 10250 20240 30013 40115 333 10318 29081 55100 58009;EQDQ01  00002PRCP99
0186823920999992002020912004-03690-040340FM-12+008399999V0200901N001012200019N0500001N1+02721+02391101281ADDAA199000091GF102991021011004501001001KA1240N+02301MA1999999100261MD1999999+0101REMSYN076AAXX  09124 82392 32499 20902 10272 20239 30026 40128 82100 333 20230 58010;EQDQ01  00002PRCP99
0167823920999992002020918004-03690-040340FM-12+008399999V0200501N001012200019N0500001N1+03241+02101100931ADDAA199000091GF102991021011004501001001MA1999999099911MD1999999+0081REMSYN070AAXX  09184 82392 32499 20502 10324 20210 39991 40093 82100 333 58008;EQDQ01  00002PRCP99
0208823920999992002021000004-03690-040340FM-12+008399999V0203601N001012200019N0040001N1+02521+02381101261ADDAA199000091GA1001+999999999GF100991001001999999001001KA1240M+03321MA1999999100241MD1999999+0111REMSYN082AAXX  10004 82392 32996 03602 10252 20238 30024 40126 333 10332 29079 55101 58011;EQDQ01  00002PRCP99
0186823920999992002021012004-03690-040340FM-12+008399999V0200901N001012200019N0500001N1+02641+02311101371ADDAA199000091GF103991031021004501001001KA1240N+02361MA1999999100351MD1999999+0091REMSYN076AAXX  10124 82392 32499 30902 10264 20231 30035 40137 83200 333 20236 58009;EQDQ01  00002PRCP99
0183823920999992002021018004-03690-040340FM-12+008399999V0200901N002610042019N0500001N1+03201+02061100921ADDAA199000091GF106991999021004501001001MA1999999099901MD1999999-0011REMSYN070AAXX  10184 82392 32499 60905 10320 20206 39990 40092 85200 333 59001;EQDQ01+000052SCOTLCQ02  00002PRCP99
0198823920999992002021100004-03690-040340FM-12+008399999V0200901N002110450019N0040001N1+02401+02351101191ADDAA199000091GF105991041041008001031001KA1240M+03201MA1999999100161MD1999999-0081REMSYN088AAXX  11004 82392 32596 50904 10240 20235 30016 40119 84430 333 10320 29082 55080 59008;EQDQ01  00002PRCP99
0186823920999992002021112004-03690-040340FM-12+008399999V0202701N000510450019N0500001N1+02581+02311101231ADDAA199000091GF106991021021004501031001KA1240N+02141MA1999999100201MD1999999-0151REMSYN076AAXX  11124 82392 32499 62701 10258 20231 30020 40123 82230 333 20214 59015;EQDQ01  00002PRCP99
0167823920999992002021118004-03690-040340FM-12+008399999V0200901N000512200019N0500001N1+03211+02341100821ADDAA199000091GF104991021021004501031001MA1999999099801MD1999999-0101REMSYN070AAXX  11184 82392 32499 40901 10321 20234 39980 40082 82230 333 59010;EQDQ01  00002PRCP99
0198823920999992002021200004-03690-040340FM-12+008399999V0203601N001012200019N0040001N1+02441+02251101151ADDAA199000091GF104991021021004501031001KA1240M+03241MA1999999100121MD1999999-0041REMSYN088AAXX  12004 82392 32496 43602 10244 20225 30012 40115 82230 333 10324 29081 55088 59004;EQDQ01  00002PRCP99
0186823920999992002021212004-03690-040340FM-12+008399999V0201401N001012200019N0500001N1+02661+02201101341ADDAA199000091GF101991011011004501001001KA1240N+02341MA1999999100321MD1999999+0121REMSYN076AAXX  12124 82392 32499 11402 10266 20220 30032 40134 81100 333 20234 58012;EQDQ01  00002PRCP99
0167823920999992002021218004-03690-040340FM-12+008399999V0201801N001012200019N0500001N1+03121+02081101021ADDAA199000091GF104991031021004501031001MA1999999100001MD1999999+0201REMSYN070AAXX  12184 82392 32499 41802 10312 20208 30000 40102 83230 333 58020;EQDQ01  00002PRCP99
0213823920999992002021300004-03690-040340FM-12+008399999V0202301N000510450019N0040001N1+02241+02171101281ADDAA106001091AY161061AY221061GF108991041071004501021999KA1240M+03221MA1999999100251MD1999999+0131MW1021REMSYN100AAXX  13004 82392 21496 82301 10224 20217 30025 40128 70262 8472/ 333 10322 29080 55081 58013 60011;
0173823920999992002021312004-03690-040340FM-12+008399999V0201801N000512200019N0500001N1+02661+02351101301ADDAA124001091GF103991031021004501001001KA1240N+02211MA1999999100271MD1999999-0051REMSYN082AAXX  13124 82392 22499 31801 10266 20235 30027 40130 83200 333 20221 59005 60014;
0167823920999992002021318004-03690-040340FM-12+008399999V0200501N002610450019N0500001N1+02981+02491101021ADDAA199000091GF107991041051004501031001MA1999999100001MD1999999+0001REMSYN070AAXX  13184 82392 32499 70505 10298 20249 30000 40102 84530 333 58000;EQDQ01  00002PRCP99
0213823920999992002021400004-03690-040340FM-12+008399999V0203601N000510450019N0040001N1+02341+02291101371ADDAA106002091AY161061AY261061GF108991041061004501021999KA1240M+03081MA1999999100341MD1999999+0091MW1021REMSYN100AAXX  14004 82392 21496 83601 10234 20229 30034 40137 70266 8462/ 333 10308 29088 55036 58009 60021;
0167823920999992002021418004-03690-040340FM-12+008399999V0200501N000510450019N0500001N1+02821+02331101011ADDAA199000091GF107991041061004501031001MA1999999099991MD1999999-0011REMSYN070AAXX  14184 82392 32499 70501 10282 20233 39999 40101 84630 333 59001;EQDQ01  00002PRCP99
0232823920999992002021500004-03690-040340FM-12+008399999V0209999C000019999999N0040001N1+02481+02411101281ADDAA106002091AY161061AY221061GF108991999021004501001001KA1240M+02901MA1999999100251MD1999999-0091MW1021REMSYN100AAXX  15004 82392 21496 80000 10248 20241 30025 40128 70262 84200 333 10290 29090 55007 59009 60021;EQDQ01+000042SCOTLC
0201823920999992002021512004-03690-040340FM-12+008399999V0201801N000512200019N0500001N1+02581+02491101431ADDAA124002091AY161061AY251061GF101991011011004501001001KA1240N+02301MA1999999100401MD1999999+0121MW1021REMSYN088AAXX  15124 82392 21499 11801 10258 20249 30040 40143 70265 81100 333 20230 58012 60024;
0167823920999992002021518004-03690-040340FM-12+008399999V0200501N000510450019N0500001N1+02921+02411100971ADDAA199000091GF107991041061004501031001MA1999999099951MD1999999-0041REMSYN070AAXX  15184 82392 32499 70501 10292 20241 39995 40097 84630 333 59004;EQDQ01  00002PRCP99
0198823920999992002021600004-03690-040340FM-12+008399999V0200501N001510450019N0040001N1+02501+02411101281ADDAA199000091GF106991041041004501031001KA1240M+03081MA1999999100251MD1999999+0001REMSYN088AAXX  16004 82392 32496 60503 10250 20241 30025 40128 84430 333 10308 29090 55063 58000;EQDQ01  00002PRCP99
0202823920999992002021612004-03690-040340FM-12+008399999V0200501N000519999999N0500001N1+02731+02451101331ADDAA199000091GF106991999021004501001001KA1240N+02241MA1999999100311MD1999999-0091REMSYN076AAXX  16124 82392 32499 60501 10273 20245 30031 40133 84200 333 20224 59009;EQDQ01+000042SCOTLCQ02  00002PRCP99
0183823920999992002021618004-03690-040340FM-12+008399999V0200901N000519999999N0500001N1+03241+02391100971ADDAA199000091GF105991999011004501001001MA1999999099961MD1999999+0001REMSYN070AAXX  16184 82392 32499 50901 10324 20239 39996 40097 82100 333 58000;EQDQ01+000022SCOTLCQ02  00002PRCP99
0214823920999992002021700004-03690-040340FM-12+008399999V0203601N000512200019N0040001N1+02561+02351101141ADDAA199000091GF101991999011008001001001KA1240M+03271MA1999999100121MD1999999-0131REMSYN088AAXX  17004 82392 32596 13601 10256 20235 30012 40114 82100 333 10327 29080 55094 59013;EQDQ01+000022SCOTLCQ02  00002PRCP99
0186823920999992002021712004-03690-040340FM-12+008399999V0201401N002010450019N0500001N1+02801+02381101301ADDAA199000091GF106991041021004501031001KA1240N+02201MA1999999100281MD1999999-0031REMSYN076AAXX  17121 82392 32499 61402 10280 20238 30028 40130 84230 333 20220 59003;EQDQ01  00002PRCP99
0167823920999992002021718004-03690-040340FM-12+008399999V0200901N001512200019N0500001N1+03281+02261100901ADDAA199000091GF101991011011004501001001MA1999999099881MD1999999-0071REMSYN070AAXX  17184 82392 32499 10903 10328 20226 39988 40090 81100 333 59007;EQDQ01  00002PRCP99
0208823920999992002021800004-03690-040340FM-12+008399999V0203601N001512200019N0040001N1+02541+02401101071ADDAA199000091GA1001+999999999GF100991001001999999001001KA1240M+03341MA1999999100051MD1999999-0071REMSYN082AAXX  18004 82392 32996 03603 10254 20240 30005 40107 333 10334 29079 55106 59007;EQDQ01  00002PRCP99
0186823920999992002021812004-03690-040340FM-12+008399999V0200901N002612200019N0500001N1+02741+02031101141ADDAA199000091GF103991031021004501001001KA1240N+02261MA1999999100121MD1999999-0161REMSYN076AAXX  18124 82392 32499 30905 10274 20203 30012 40114 83200 333 20226 59016;EQDQ01  00002PRCP99
0167823920999992002021818004-03690-040340FM-12+008399999V0200901N001012200019N0500001N1+03361+02271100721ADDAA199000091GF103991031021004501001001MA1999999099711MD1999999-0171REMSYN070AAXX  18184 82392 32499 30902 10336 20227 39971 40072 83200 333 59017;EQDQ01  00002PRCP99
0214823920999992002021900004-03690-040340FM-12+008399999V0203601N001012200019N0040001N1+02621+02411101021ADDAA199000091GF103991999021017501001001KA1240M+03321MA1999999100001MD1999999-0051REMSYN088AAXX  19004 82392 32796 33602 10262 20241 30000 40102 81200 333 10332 29077 55097 59005;EQDQ01+000012SCOTLCQ02  00002PRCP99
0186823920999992002021912004-03690-040340FM-12+008399999V0201801N000510450019N0500001N1+02701+02521101181ADDAA199000091GF108991041061004501021999KA1240N+02341MA1999999100161MD1999999+0041REMSYN076AAXX  19124 82392 32499 81801 10270 20252 30016 40118 8462/ 333 20234 58004;EQDQ01  00002PRCP99
0167823920999992002021918004-03690-040340FM-12+008399999V0200901N001510450019N0500001N1+03241+02391100791ADDAA199000091GF105991031041004501031001MA1999999099771MD1999999+0061REMSYN070AAXX  19184 82392 32499 50903 10324 20239 39977 40079 83430 333 58006;EQDQ01  00002PRCP99
0208823920999992002022000004-03690-040340FM-12+008399999V0203601N000512200019N0040001N1+02601+02391101011ADDAA199000091GA1001+999999999GF100991001001999999001001KA1240M+03301MA1999999099991MD1999999-0011REMSYN082AAXX  20004 82392 32996 03601 10260 20239 39999 40101 333 10330 29082 55076 59001;EQDQ01  00002PRCP99
0186823920999992002022012004-03690-040340FM-12+008399999V0200901N002612200019N0500001N1+02821+02331101231ADDAA199000091GF101991011011004501001001KA1240N+02201MA1999999100211MD1999999+0051REMSYN076AAXX  20124 82392 32499 10905 10282 20233 30021 40123 81100 333 20220 58005;EQDQ01  00002PRCP99
0167823920999992002022018004-03690-040340FM-12+008399999V0200901N003112200019N0500001N1+03261+02111100861ADDAA199000091GF103991031021004501001001MA1999999099841MD1999999+0071REMSYN070AAXX  20184 82392 32499 30906 10326 20211 39984 40086 83200 333 58007;EQDQ01  00002PRCP99
0208823920999992002022100004-03690-040340FM-12+008399999V0203601N000512200019N0040001N1+02531+02271101031ADDAA199000091GA1001+999999999GF100991001001999999001001KA1240M+03341MA1999999100011MD1999999+0021REMSYN082AAXX  21004 82392 32996 03601 10253 20227 30001 40103 333 10334 29074 55100 58002;EQDQ01  00002PRCP99
0186823920999992002022112004-03690-040340FM-12+008399999V0209999C000010042019N0500001N1+02731+02401101181ADDAA199000091GF105991051041004501001001KA1240N+02181MA1999999100161MD1999999-0051REMSYN076AAXX  21124 82392 32499 50000 10273 20240 30016 40118 85400 333 20218 59005;EQDQ01  00002PRCP99
0167823920999992002022118004-03690-040340FM-12+008399999V0200901N001012200019N0500001N1+03351+02211100741ADDAA199000091GF104991041021004501001001MA1999999099721MD1999999-0121REMSYN070AAXX  21184 82392 32499 40902 10335 20221 39972 40074 84200 333 59012;EQDQ01  00002PRCP99
0198823920999992002022200004-03690-040340FM-12+008399999V0200501N002612200019N0040001N1+02561+02381100981ADDAA199000091GF104991041021004501001001KA1240M+03381MA1999999099961MD1999999-0051REMSYN088AAXX  22004 82392 32496 40505 10256 20238 39996 40098 84200 333 10338 29078 55106 59005;EQDQ01  00002PRCP99
0186823920999992002022212004-03690-040340FM-12+008399999V0200901N001012200019N0500001N1+02741+02361101071ADDAA199000091GF101991011011004501001001KA1240N+02011MA1999999100051MD1999999-0111REMSYN076AAXX  22124 82392 32499 10902 10274 20236 30005 40107 81100 333 20201 59011;EQDQ01  00002PRCP99
0167823920999992002022218004-03690-040340FM-12+008399999V0200901N000512200019N0500001N1+03421+01911100651ADDAA199000091GF102991021011004501001001MA1999999099641MD1999999-0081REMSYN070AAXX  22184 82392 32499 20901 10342 20191 39964 40065 82100 333 59008;EQDQ01  00002PRCP99
0208823920999992002022300004-03690-040340FM-12+008399999V0203601N001512200019N0040001N1+02621+02421100921ADDAA199000091GA1001+999999999GF100991001001999999001001KA1240M+03481MA1999999099901MD1999999-0061REMSYN082AAXX  23004 82392 32996 03603 10262 20242 39990 40092 333 10348 29075 55108 59006;EQDQ01  00002PRCP99
0186823920999992002022312004-03690-040340FM-12+008399999V0200901N000512200019N0500001N1+02641+02461101221ADDAA199000091GF104991031021004501031001KA1240N+02141MA1999999100201MD1999999+0151REMSYN076AAXX  23124 82392 32499 40901 10264 20246 30020 40122 83230 333 20214 58015;EQDQ01  00002PRCP99
0167823920999992002022318004-03690-040340FM-12+008399999V0201401N001012200019N0500001N1+03341+02151100791ADDAA199000091GF102991021021004501001001MA1999999099771MD1999999+0131REMSYN070AAXX  23184 82392 32499 21402 10334 20215 39977 40079 82200 333 58013;EQDQ01  00002PRCP99
0198823920999992002022400004-03690-040340FM-12+008399999V0200501N001512200019N0040001N1+02681+02261101101ADDAA199000091GF102991021001008001031001KA1240M+03441MA1999999100081MD1999999+0181REMSYN088AAXX  24004 82392 32596 20503 10268 20226 30008 40110 82030 333 10344 29074 55082 58018;EQDQ01  00002PRCP99
0186823920999992002022412004-03690-040340FM-12+008399999V0200901N000512200019N0500001N1+02891+02321101321ADDAA199000091GF103991031021004501001001KA1240N+02161MA1999999100301MD1999999+0101REMSYN076AAXX  24124 82392 32499 30901 10289 20232 30030 40132 83200 333 20216 58010;EQDQ01  00002PRCP99
0167823920999992002022418004-03690-040340FM-12+008399999V0200501N000512200019N0500001N1+03481+02111100851ADDAA199000091GF103991031021004501001001MA1999999099841MD1999999+0071REMSYN070AAXX  24184 82392 32499 30501 10348 20211 39984 40085 83200 333 58007;EQDQ01  00002PRCP99
0167823920999992002022518004-03690-040340FM-12+008399999V0200501N001512200019N0500001N1+03461+02091100811ADDAA199000091GF104991031021004501031001MA1999999099801MD1999999-0041REMSYN070AAXX  25184 82392 32499 40503 10346 20209 39980 40081 83230 333 59004;EQDQ01  00002PRCP99
0198823920999992002022600004-03690-040340FM-12+008399999V0203601N000519999999N0040001N1+02541+02381101151ADDAA199000091GF106991061001008001031001KA1240M+03491MA1999999100131MD1999999+0031REMSYN088AAXX  26004 82392 32596 63601 10254 20238 30013 40115 86030 333 10349 29075 55083 58003;EQDQ01  00002PRCP99
0173823920999992002022612004-03690-040340FM-12+008399999V0200901N001512200019N0500001N1+02781+02401101261ADDAA124000591GF103991031021004501001001KA1240N+02341MA1999999100241MD1999999-0021REMSYN082AAXX  26124 82392 22499 30903 10278 20240 30024 40126 83200 333 20234 59002 69964;
0167823920999992002022618004-03690-040340FM-12+008399999V0200901N002612200019N0500001N1+03351+02111100811ADDAA199000091GF104991041021004501001001MA1999999099801MD1999999+0001REMSYN070AAXX  26184 82392 32499 40905 10335 20211 39980 40081 84200 333 58000;EQDQ01  00002PRCP99
0208823920999992002022700004-03690-040340FM-12+008399999V0200501N001012200019N0040001N1+02491+02111101081ADDAA199000091GA1001+999999999GF100991001001999999001001KA1240M+03421MA1999999100061MD1999999-0071REMSYN082AAXX  27004 82392 32996 00502 10249 20211 30006 40108 333 10342 29072 55102 59007;EQDQ01  00002PRCP99
0186823920999992002022712004-03690-040340FM-12+008399999V0201401N001010450019N0500001N1+02601+02331101251ADDAA199000091GF105991031021004501031001KA1240N+02151MA1999999100221MD1999999-0021REMSYN076AAXX  27124 82392 32499 51402 10260 20233 30022 40125 83230 333 20215 59002;EQDQ01  00002PRCP99
0167823920999992002022718004-03690-040340FM-12+008399999V0201401N001512200019N0500001N1+03461+01981100771ADDAA199000091GF104991041021004501001001MA1999999099761MD1999999-0041REMSYN070AAXX  27184 82392 32499 41403 10346 20198 39976 40077 84200 333 59004;EQDQ01  00002PRCP99
0198823920999992002022800004-03690-040340FM-12+008399999V0203601N001512200019N0040001N1+02731+02261101041ADDAA199000091GF102991021001008001031001KA1240M+03481MA1999999100021MD1999999-0041REMSYN088AAXX  28004 82392 32596 23603 10273 20226 30002 40104 82030 333 10348 29069 55096 59004;EQDQ01  00002PRCP99
0186823920999992002022812004-03690-040340FM-12+008399999V0200901N000512200019N0500001N1+02881+02131101141ADDAA199000091GF104991041021004501001001KA1240N+02441MA1999999100121MD1999999-0101REMSYN076AAXX  28124 82392 32499 40901 10288 20213 30012 40114 84200 333 20244 59010;EQDQ01  00002PRCP99
0167823920999992002022818004-03690-040340FM-12+008399999V0200901N001012200019N0500001N1+03441+01531100731ADDAA199000091GF101991011011004501001001MA1999999099721MD1999999-0041REMSYN070AAXX  28184 82392 32499 10902 10344 20153 39972 40073 81100 333 59004;EQDQ01  00002PRCP99
0208823920999992002030100004-03690-040340FM-12+008399999V0203601N001512200019N0040001N1+02581+02211100891ADDAA199000091GA1001+999999999GF100991001001999999001001KA1240M+03481MA1999999099871MD1999999-0151REMSYN082AAXX  01004 82392 32996 03603 10258 20221 39987 40089 333 10348 29064 55110 59015;EQDQ01  00002PRCP99
0186823920999992002030112004-03690-040340FM-12+008399999V0200501N002612200019N0040001N1+02801+02311101121ADDAA199000091GF101991011011004501001001KA1240N+02221MA1999999100101MD1999999-0021REMSYN076AAXX  01124 82392 32496 10505 10280 20231 30010 40112 81100 333 20222 59002;EQDQ01  00002PRCP99
0167823920999992002030118004-03690-040340FM-12+008399999V0200901N000512200019N0500001N1+03441+01841100781ADDAA199000091GF104991041021004501001001MA1999999099771MD1999999+0051REMSYN070AAXX  01184 82392 32499 40901 10344 20184 39977 40078 84200 333 58005;EQDQ01  00002PRCP99
0198823920999992002030300004-03690-040340FM-12+008399999V0203601N001012200019N0040001N1+02641+02331101031ADDAA199000091GF103991021061004501011001KA1240M+03521MA1999999100011MD1999999+0021REMSYN088AAXX  03004 82392 32496 33602 10264 20233 30001 40103 82610 333 10352 29070 55084 58002;EQDQ01  00002PRCP99
0201823920999992002030318004-03690-040340FM-12+008399999V0202301N000519999999N0500001N1+02701+02431100871ADDAA106034091AY161061AY221061GF108991999021004501001001MA1999999099851MD1999999+0151MW1021REMSYN082AAXX  03184 82392 21499 82301 10270 20243 39985 40087 70262 83200 333 58015 60341;EQDQ01+000032SCOTLC
0201823920999992002030412004-03690-040340FM-12+008399999V0202301N000512200019N0500001N1+02661+02371101201ADDAA124036191AY161061AY261061GF103991031021004501001001KA1240N+02191MA1999999100181MD1999999+0081MW1021REMSYN088AAXX  04124 82392 21499 32301 10266 20237 30018 40120 70266 83200 333 20219 58008 60364;
0182823920999992002030418004-03690-040340FM-12+008399999V0203201N000510450019N0500001N1+02281+02211100881ADDAA106026991AY161061AY221061GF108991031061004501021999MA1999999099851MD1999999+0001MW1631REMSYN082AAXX  04184 82392 21499 83201 10228 20221 39985 40088 76362 8362/ 333 58000 60271;
0213823920999992002030500004-03690-040340FM-12+008399999V0200901N000510450019N0040001N1+02351+02331101181ADDAA106000391AY151061AY251061GF106991041061004501021001KA1240M+03021MA1999999100151MD1999999+0111MW1021REMSYN100AAXX  05004 82392 21496 60901 10235 20233 30015 40118 70255 84620 333 10302 29094 55047 58011 69931;
0201823920999992002030512004-03690-040340FM-12+008399999V0203201N000510450019N0500001N1+02301+02271101331ADDAA124027991AY161061AY261061GF108991031061004501021999KA1240N+02271MA1999999100301MD1999999+0121MW1021REMSYN088AAXX  05124 82392 21499 83201 10230 20227 30030 40133 70266 8362/ 333 20227 58012 60284;
0182823920999992002030518004-03690-040340FM-12+008399999V0202701N000510042019N0100001N1+02701+02351101011ADDAA106003091AY101061AY221061GF107991051061004501021001MA1999999099981MD1999999+0131MW1211REMSYN082AAXX  05184 82392 21497 72701 10270 20235 39998 40101 72102 85620 333 58013 60031;
0232823920999992002030600004-03690-040340FM-12+008399999V0201801N000519999999N0040001N1+02281+02261101341ADDAA106019191AY161061AY261061GF108991999011004501001001KA1240M+03001MA1999999100321MD1999999+0151MW1211REMSYN100AAXX  06004 82392 21496 81801 10228 20226 30032 40134 72166 82100 333 10300 29094 55024 58015 60191;EQDQ01+000022SCOTLC
0201823920999992002030612004-03690-040340FM-12+008399999V0203201N000510450019N0500001N1+02361+02331101281ADDAA124050091AY161061AY261061GF106991041041004501031001KA1240N+02101MA1999999100251MD1999999-0051MW1021REMSYN088AAXX  06124 82392 21499 63201 10236 20233 30025 40128 70266 84430 333 20210 59005 60504;
0167823920999992002030618004-03690-040340FM-12+008399999V0201401N001012200019N0500001N1+03081+02241100841ADDAA199000091GF104991031021004501031001MA1999999099821MD1999999-0161REMSYN070AAXX  06184 82392 32499 41402 10308 20224 39982 40084 83230 333 59016;EQDQ01  00002PRCP99
0198823920999992002030700004-03690-040340FM-12+008399999V0200501N001010042019N0040001N1+02561+02351101191ADDAA199000091GF107991051061004501011001KA1240M+03181MA1999999100161MD1999999-0161REMSYN088AAXX  07004 82392 32496 70502 10256 20235 30016 40119 85610 333 10318 29084 55075 59016;EQDQ01  00002PRCP99
0201823920999992002030712004-03690-040340FM-12+008399999V0200901N000510042019N0200001N1+02741+02451101291ADDAA124001091AY161061AY261061GF107991051061004501031001KA1240N+02381MA1999999100271MD1999999+0021MW1021REMSYN088AAXX  07124 82392 21498 70901 10274 20245 30027 40129 70266 85630 333 20238 58002 60014;
0182823920999992002030718004-03690-040340FM-12+008399999V0201801N000510042019N0200001N1+02531+02421101051ADDAA106002091AY161061AY261061GF108991071071004501011999MA1999999100021MD1999999+0201MW1021REMSYN082AAXX  07184 82392 21498 81801 10253 20242 30002 40105 70266 8771/ 333 58020 60021;
0214823920999992002030800004-03690-040340FM-12+008399999V0202301N000510042019N0040001N1+02461+02431101281ADDAA199000091GF107991999021004501001001KA1240M+03001MA1999999100261MD1999999+0101REMSYN088AAXX  08004 82392 32496 72301 10246 20243 30026 40128 85200 333 10300 29093 55020 58010;EQDQ01+000052SCOTLCQ02  00002PRCP99
0201823920999992002030812004-03690-040340FM-12+008399999V0202301N001010450019N0500001N1+02581+02511101401ADDAA124009991AY161061AY261061GF107991041061004501011001KA1240N+02261MA1999999100371MD1999999+0101MW1031REMSYN088AAXX  08124 82392 21499 72302 10258 20251 30037 40140 70366 84610 333 20226 58010 60104;
0182823920999992002030818004-03690-040340FM-12+008399999V0200501N001010042019N0500001N1+02481+02341101131ADDAA106018091AY161061AY261061GF108991061061004501011999MA1999999100101MD1999999+0081MW1021REMSYN082AAXX  08184 82392 21499 80502 10248 20234 30010 40113 70266 8661/ 333 58008 60181;
0213823920999992002030900004-03690-040340FM-12+008399999V0203201N000510450019N0040001N1+02321+99999101371ADDAA106000891AY161061AY221061GF108991041071004501021081KA1240M+02961MA1999999100341MD1999999+0081MW1021REMSYN100AAXX  09004 82392 21496 83201 10232 20239 30034 40137 70262 84728 333 10296 29096 55028 58008 69981;
0192823920999992002030912004-03690-040340FM-12+008399999V0202701N000519999999N0500001N1+02521+02381101351ADDAA124018091GF108991999011004501001001KA1240N+02161MA1999999100321MD1999999-0051REMSYN082AAXX  09124 82392 22499 82701 10252 20238 30032 40135 82100 333 20216 59005 60184;EQDQ01+000022SCOTLC
0183823920999992002030918004-03690-040340FM-12+008399999V0201401N001019999999N0500001N1+02821+02331100991ADDAA199000091GF108991999021004501001001MA1999999099961MD1999999-0041REMSYN070AAXX  09184 82392 32499 81402 10282 20233 39996 40099 83200 333 59004;EQDQ01+000032SCOTLCQ02  00002PRCP99
0214823920999992002031000004-03690-040340FM-12+008399999V0209999C000019999999N0040001N1+02441+02411101291ADDAA199000091GF106991999021004501001001KA1240M+03041MA1999999100261MD1999999-0081REMSYN088AAXX  10004 82392 32496 60000 10244 20241 30026 40129 84200 333 10304 29091 55050 59008;EQDQ01+000042SCOTLCQ02  00002PRCP99
0201823920999992002031012004-03690-040340FM-12+008399999V0201801N000510042019N0500001N1+02721+02321101271ADDAA124000191AY151061AY251061GF106991051041004501031001KA1240N+02341MA1999999100351MD1999999-0071MW1021REMSYN088AAXX  10124 82392 21499 61801 10272 20232 30035 40127 70255 85430 333 20234 59007 69924;
0167823920999992002031018004-03690-040340FM-12+008399999V0201401N001010450019N0500001N1+03061+02221100851ADDAA199000091GF106991041041004501011001MA1999999099831MD1999999-0131REMSYN070AAXX  10184 82392 32499 61402 10306 20222 39983 40085 84410 333 59013;EQDQ01  00002PRCP99
0198823920999992002031100004-03690-040340FM-12+008399999V0203601N000510450019N0040001N1+02561+99999101131ADDAA199000091GF108991041061004501011999KA1240M+03131MA1999999100111MD1999999-0151REMSYN088AAXX  11004 82392 32496 83601 10256 20342 30011 40113 8461/ 333 10313 29081 55061 59015;EQDQ01  00002PRCP99
0186823920999992002031112004-03690-040340FM-12+008399999V0201401N001012200019N0500001N1+02761+02441101241ADDAA199000091GF102991021021004501001001KA1240N+02281MA1999999100221MD1999999-0031REMSYN076AAXX  11124 82392 32499 21402 10276 20244 30022 40124 82200 333 20228 59003;EQDQ01  00002PRCP99
0167823920999992002031118004-03690-040340FM-12+008399999V0201401N001512200019N0500001N1+03201+02241100871ADDAA199000091GF104991041021004501001001MA1999999099851MD1999999+0021REMSYN070AAXX  11184 82392 32499 41403 10320 20224 39985 40087 84200 333 58002;EQDQ01  00002PRCP99
0214823920999992002031200004-03690-040340FM-12+008399999V0203601N001019999999N0040001N1+02591+02401101241ADDAA199000091GF106991999021004501001001KA1240M+03231MA1999999100221MD1999999+0111REMSYN088AAXX  12004 82392 32496 63602 10259 20240 30022 40124 83200 333 10323 29080 55082 58011;EQDQ01+000032SCOTLCQ02  00002PRCP99
0186823920999992002031212004-03690-040340FM-12+008399999V0201401N001512200019N0500001N1+02801+02251101421ADDAA199000091GF103991031021004501001001KA1240N+02301MA1999999100401MD1999999+0181REMSYN076AAXX  12124 82392 32499 31403 10280 20225 30040 40142 83200 333 20230 58018;EQDQ01  00002PRCP99
0167823920999992002031218004-03690-040340FM-12+008399999V0200901N001010042019N0500001N1+03181+02161101051ADDAA199000091GF105991051021004501001001MA1999999100031MD1999999+0181REMSYN070AAXX  12184 82392 32499 50902 10318 20216 30003 40105 85200 333 58018;EQDQ01  00002PRCP99
0198823920999992002031300004-03690-040340FM-12+008399999V0203601N000512200019N0500001N1+02541+02231101321ADDAA199000091GF101991011011004501001001KA1240M+03221MA1999999100301MD1999999+0081REMSYN088AAXX  13004 82392 32499 13601 10254 20223 30030 40132 81100 333 10322 29073 55097 58008;EQDQ01  00002PRCP99
0186823920999992002031312004-03690-040340FM-12+008399999V0200901N001012200019N0500001N1+02681+02351101341ADDAA199000091GF103991031021008001001001KA1240N+02201MA1999999100321MD1999999+0081REMSYN076AAXX  13124 82392 32599 30902 10268 20235 30032 40134 83200 333 20220 58008;EQDQ01  00002PRCP99
0167823920999992002031318004-03690-040340FM-12+008399999V0200901N001512200019N0500001N1+03161+02201101061ADDAA199000091GF101991011011004501001001MA1999999100041MD1999999+0011REMSYN070AAXX  13184 82392 32499 10903 10316 20220 30004 40106 81100 333 58001;EQDQ01  00002PRCP99
0208823920999992002031400004-03690-040340FM-12+008399999V0203601N000512200019N0040001N1+02541+02241101281ADDAA199000091GA1001+999999999GF100991001001999999001001KA1240M+03211MA1999999100261MD1999999-0041REMSYN082AAXX  14004 82392 32996 03601 10254 20224 30026 40128 333 10321 29077 55103 59004;EQDQ01  00002PRCP99
0186823920999992002031412004-03690-040340FM-12+008399999V0209999C000010450019N0500001N1+02681+02331101341ADDAA199000091GF106991021021004501031001KA1240N+02181MA1999999100321MD1999999+0001REMSYN076AAXX  14124 82392 32499 60000 10268 20233 30032 40134 82230 333 20218 58000;EQDQ01  00002PRCP99
0167823920999992002031418004-03690-040340FM-12+008399999V0200901N001010450019N0500001N1+03201+02331100921ADDAA199000091GF105991031021004501031001MA1999999099901MD1999999-0141REMSYN070AAXX  14184 82392 32499 50902 10320 20233 39990 40092 83230 333 59014;EQDQ01  00002PRCP99
0212823920999992002031500004-03690-040340FM-12+008399999V0202301N000510450019N0040001N1+02461+02431101161ADDAA106000591AY151061AY221061GF107991041051004501031001KA1240M+03241MA1999999100141MD1999999-0121MW1021REMSYN099AAXX  15004 82392 21496 72301 10246 20243 30014 40116 7025284530 333 10324 29084 55082 59012 69961;
0173823920999992002031512004-03690-040340FM-12+008399999V0201401N001010450019N0500001N1+02681+02541101261ADDAA124000591GF106991041041004501031001KA1240N+02321MA1999999100241MD1999999-0081REMSYN082AAXX  15124 82392 22499 61402 10268 20254 30024 40126 84430 333 20232 59008 69964;
0167823920999992002031518004-03690-040340FM-12+008399999V0200901N001010042019N0500001N1+02621+02411100991ADDAA199000091GF107991061071004501011001MA1999999099961MD1999999+0061REMSYN070AAXX  15184 82392 32499 70902 10262 20241 39996 40099 86710 333 58006;EQDQ01  00002PRCP99
0232823920999992002031600004-03690-040340FM-12+008399999V0202301N000519999999N0040001N1+02401+02371101201ADDAA106019191AY161061AY221061GF108991999021004501001001KA1240M+03161MA1999999100171MD1999999+0031MW1021REMSYN100AAXX  16004 82392 21496 82301 10240 20237 30017 40120 70262 83200 333 10316 29094 55062 58003 60191;EQDQ01+000032SCOTLC
0173823920999992002031612004-03690-040340FM-12+008399999V0209999C000010450019N0500001N1+02611+02371101261ADDAA124019191GF106991031041004501031001KA1240N+02301MA1999999100241MD1999999+0001REMSYN082AAXX  16124 82392 22499 60000 10261 20237 30024 40126 83430 333 20230 58000 60194;
0182823920999992002031618004-03690-040340FM-12+008399999V0200501N000510042019N0500001N1+02661+02541100921ADDAA106000391AY151061AY251061GF107991051061004501031001MA1999999099891MD1999999-0071MW1201REMSYN082AAXX  16184 82392 21499 70501 10266 20254 39989 40092 72055 85630 333 59007 69931;
0192823920999992002031712004-03690-040340FM-12+008399999V0202701N000519999999N0500001N1+02481+02451101231ADDAA124003091GF108991999021004501001001KA1240N+02101MA1999999100201MD1999999-0041REMSYN082AAXX  17124 82392 22499 82701 10248 20245 30020 40123 83200 333 20210 59004 60034;EQDQ01+000032SCOTLC
0201823920999992002031718004-03690-040340FM-12+008399999V0202701N000510042019N0200001N1+02501+02411100891ADDAA106007191AY161061AY261061GF108991999021004501001001MA1999999099861MD1999999-0031MW1021REMSYN082AAXX  17184 82392 21498 82701 10250 20241 39986 40089 70266 86200 333 59003 60071;EQDQ01+000062SCOTLC
0232823920999992002031800004-03690-040340FM-12+008399999V0203201N000519999999N0040001N1+02421+02391101131ADDAA106001091AY161061AY261061GF108991999021004501001001KA1240M+03081MA1999999100101MD1999999-0051MW1021REMSYN100AAXX  18004 82392 21496 83201 10242 20239 30010 40113 70266 83200 333 10308 29097 55033 59005 60011;EQDQ01+000032SCOTLC
0173823920999992002031812004-03690-040340FM-12+008399999V0202301N000510450019N0500001N1+02581+02441101181ADDAA124007991GF107991041051004501031001KA1240N+02201MA1999999100181MD1999999-0051REMSYN082AAXX  18124 82392 22499 72301 10258 20244 30018 40118 84530 333 20220 59005 60084;
0182823920999992002031818004-03690-040340FM-12+008399999V0202701N000510450019N0500001N1+02761+02601100731ADDAA106000391AY151061AY221061GF107991041041004501031001MA1999999099701MD1999999-0161MW1201REMSYN082AAXX  18184 82392 21499 72701 10276 20260 39970 40073 72052 84430 333 59016 69931;
0213823920999992002031900004-03690-040340FM-12+008399999V0203601N000510450019N0040001N1+02441+02411101111ADDAA106003091AY161061AY261061GF106991031041004501011001KA1240M+03131MA1999999100081MD1999999-0021MW1021REMSYN100AAXX  19004 82392 21496 63601 10244 20241 30008 40111 70266 83410 333 10313 29035 55053 59002 60031;
0173823920999992002031912004-03690-040340FM-12+008399999V0202301N001010450019N0500001N1+02661+02501101101ADDAA124003091GF107991041051004501031001KA1240N+02281MA1999999100081MD1999999-0071REMSYN082AAXX  19124 82392 22499 72302 10266 20250 30008 40110 84530 333 20228 59007 60034;
0182823920999992002031918004-03690-040340FM-12+008399999V0200901N000510042019N0500001N1+02691+02461100821ADDAA106000591AY151061AY251061GF108991061061004501011999MA1999999099791MD1999999+0091MW1021REMSYN082AAXX  19184 82392 21499 80901 10269 20246 39979 40082 70255 8661/ 333 58009 69941;
0213823920999992002032000004-03690-040340FM-12+008399999V0203601N000510450019N0040001N1+02401+02351101001ADDAA106000891AY151061AY251061GF106991041061004501011001KA1240M+03041MA1999999099931MD1999999-0111MW1201REMSYN100AAXX  20004 82392 21496 63601 10240 20235 39993 40100 72055 84610 333 10304 29093 55041 59011 69971;
0173823920999992002032012004-03690-040340FM-12+008399999V0200901N001010450019N0500001N1+02601+02551101171ADDAA124001091GF106991041041004501031001KA1240N+02181MA1999999100141MD1999999+0061REMSYN082AAXX  20124 82392 22499 60902 10260 20255 30014 40117 84430 333 20218 58006 60014;
0167823920999992002032018004-03690-040340FM-12+008399999V0201401N001510450019N0500001N1+03141+02381100741ADDAA199000091GF105991041021004501031001MA1999999099721MD1999999-0071REMSYN070AAXX  20184 82392 32499 51403 10314 20238 39972 40074 84230 333 59007;EQDQ01  00002PRCP99
0213823920999992002032100004-03690-040340FM-12+008399999V0203601N000512200019N0040001N1+02531+02421101021ADDAA106000191AY151061AY251061GF102991011021004501011001KA1240M+03221MA1999999100001MD1999999+0031MW1021REMSYN100AAXX  21004 82392 21496 23601 10253 20242 30000 40102 70255 81210 333 10322 29087 55083 58003 69911;
0173823920999992002032112004-03690-040340FM-12+008399999V0200901N001012200019N0500001N1+02781+02461101231ADDAA124001091GF104991021041004501031001KA1240N+02281MA1999999100211MD1999999+0071REMSYN082AAXX  21124 82392 22499 40902 10278 20246 30021 40123 82430 333 20228 58007 69994;
0167823920999992002032118004-03690-040340FM-12+008399999V0200501N001012200019N0500001N1+03181+02311100821ADDAA199000091GF104991041041004501001001MA1999999099801MD1999999+0081REMSYN070AAXX  21184 82392 32499 40502 10318 20231 39980 40082 84400 333 58008;EQDQ01  00002PRCP99
0213823920999992002032200004-03690-040340FM-12+008399999V0200501N001512200019N0040001N1+02401+02331101101ADDAA106000591AY161061AY221061GF102991021011008001001001KA1240M+03241MA1999999100081MD1999999+0081MW1021REMSYN100AAXX  22004 82392 21596 20503 10240 20233 30008 40110 70262 82100 333 10324 29084 55082 58008 69961;
0173823920999992002032212004-03690-040340FM-12+008399999V0201801N001012200019N0500001N1+02741+02401101141ADDAA124000591GF103991031021004501001001KA1240N+02161MA1999999100121MD1999999-0091REMSYN082AAXX  22124 82392 22499 31802 10274 20240 30012 40114 83200 333 20216 59009 69964;
0167823920999992002032218004-03690-040340FM-12+008399999V0200501N000512200019N0500001N1+03121+02381100771ADDAA199000091GF104991021061004501031001MA1999999099761MD1999999-0041REMSYN070AAXX  22184 82392 32499 40501 10312 20238 39976 40077 82630 333 59004;EQDQ01  00002PRCP99
0192823920999992002032312004-03690-040340FM-12+008399999V0203601N000519999999N0200001N1+02501+02451101391ADDAA124001091GF108991999021004501001001KA1240N+02301MA1999999100361MD1999999+0241REMSYN082AAXX  23124 82392 22498 83601 10250 20245 30036 40139 83200 333 20230 58024 69994;EQDQ01+000032SCOTLC
0182823920999992002032318004-03690-040340FM-12+008399999V0202701N000510450019N0500001N1+02481+02451101131ADDAA106021191AY161061AY261061GF108991031071004501021001MA1999999100101MD1999999+0341MW1511REMSYN082AAXX  23184 82392 21499 82701 10248 20245 30010 40113 75166 83720 333 58034 60211;
0232823920999992002032400004-03690-040340FM-12+008399999V0202701N000519999999N0040001N1+02261+02231101231ADDAA106001091AY161061AY261061GF108991999021004501001001KA1240M+02591MA1999999100201MD1999999+0101MW1021REMSYN100AAXX  24004 82392 21496 82701 10226 20223 30020 40123 70266 83200 333 10259 29098 55001 58010 60011;EQDQ01+000032SCOTLC
0173823920999992002032412004-03690-040340FM-12+008399999V0201801N000512200019N0500001N1+02641+02371101331ADDAA124022191GF103991021021004501031001KA1240N+02161MA1999999100301MD1999999-0061REMSYN082AAXX  24124 82392 22499 31801 10264 20237 30030 40133 82230 333 20216 59006 60224;
0167823920999992002032418004-03690-040340FM-12+008399999V0202701N000511050019N0500001N1+03181+02371100861ADDAA199000091GF105991021021004501011011MA1999999099841MD1999999-0261REMSYN070AAXX  24184 82392 32499 52701 10318 20237 39984 40086 82211 333 59026;EQDQ01  00002PRCP99
0213823920999992002032500004-03690-040340FM-12+008399999V0201801N000510450019N0040001N1+02221+02171101201ADDAA106034091AY161061AY261061GF106991041071004501031001KA1240M+03241MA1999999100171MD1999999-0031MW1021REMSYN100AAXX  25004 82392 21496 61801 10222 20217 30017 40120 70266 84730 333 10324 29085 55090 59003 60341;
0173823920999992002032512004-03690-040340FM-12+008399999V0202301N000512200019N0500001N1+02541+02401101231ADDAA124034091GF102991021011004501001001KA1240N+02021MA1999999100201MD1999999-0101REMSYN082AAXX  25124 82392 22499 22301 10254 20240 30020 40123 82100 333 20202 59010 60344;
0167823920999992002032518004-03690-040340FM-12+008399999V0201401N001012200019N0500001N1+03121+02361100771ADDAA199000091GF104991041021004501001001MA1999999099751MD1999999-0091REMSYN070AAXX  25184 82392 32499 41402 10312 20236 39975 40077 84200 333 59009;EQDQ01  00002PRCP99
0214823920999992002032600004-03690-040340FM-12+008399999V0203601N001019999999N0040001N1+02531+02421101191ADDAA199000091GF107991999021004501001001KA1240M+03171MA1999999100161MD1999999-0011REMSYN088AAXX  26004 82392 32496 73602 10253 20242 30016 40119 83200 333 10317 29086 55091 59001;EQDQ01+000032SCOTLCQ02  00002PRCP99
0186823920999992002032612004-03690-040340FM-12+008399999V0200901N002110450019N0500001N1+02701+02431101171ADDAA199000091GF106991041051004501031001KA1240N+02381MA1999999100151MD1999999-0051REMSYN076AAXX  26124 82392 32499 60904 10270 20243 30015 40117 84530 333 20238 59005;EQDQ01  00002PRCP99
0167823920999992002032618004-03690-040340FM-12+008399999V0200901N001012200019N0500001N1+03181+02221100751ADDAA199000091GF104991041021004501001001MA1999999099731MD1999999-0021REMSYN070AAXX  26184 82392 32499 40902 10318 20222 39973 40075 84200 333 59002;EQDQ01  00002PRCP99
0170823920999992002032700004-03690-040340FM-12+008399999V0200501N001011050019N0040001N1+02551+02331101061ADDAA199000091GF105991011021004501031011MA1999999100041REMSYN087AAXX  27004 82392 32496 50502 10255 20233 30004 40106 81231 33 10318 29079 55090 59012;EQDQ01  00002PRCP99
0186823920999992002032712004-03690-040340FM-12+008399999V0201401N001010450019N0500001N1+02741+02401101201ADDAA199000091GF105991041041004501031001KA1240N+02301MA1999999100181MD1999999+0031REMSYN076AAXX  27124 82392 32499 51402 10274 20240 30018 40120 84430 333 20230 58003;EQDQ01  00002PRCP99
0182823920999992002032718004-03690-040340FM-12+008399999V0202301N000510450019N0200001N1+02561+02471100881ADDAA106007191AY161061AY221061GF108991041071004501021999MA1999999099851MD1999999+0121MW1021REMSYN082AAXX  27184 82392 21498 82301 10256 20247 39985 40088 70262 8472/ 333 58012 60071;
0232823920999992002032800004-03690-040340FM-12+008399999V0203601N000519999999N0040001N1+02281+02101101331ADDAA106001091AY151061AY251061GF108991999011004501001001KA1240M+03081MA1999999100301MD1999999+0021MW1611REMSYN100AAXX  28004 82392 21496 83601 10228 20210 30030 40133 76155 82100 333 10308 29091 55058 58002 60011;EQDQ01+000022SCOTLC
0173823920999992002032812004-03690-040340FM-12+008399999V0202301N000510450019N0500001N1+02461+02341101221ADDAA124007991GF106991021041004501031001KA1240N+02101MA1999999100191MD1999999+0011REMSYN082AAXX  28124 82392 22499 62301 10246 20234 30019 40122 82430 333 20210 58001 60084;
0182823920999992002032818004-03690-040340FM-12+008399999V0202301N000510450019N0500001N1+02881+02371100991ADDAA106000191AY151061AY251061GF107991031041004501031001MA1999999099961MD1999999+0111MW1021REMSYN082AAXX  28184 82392 21499 72301 10288 20237 39996 40099 70255 83430 333 58011 69911;
0232823920999992002032900004-03690-040340FM-12+008399999V0203201N000519999999N0500001N1+02201+02171101151ADDAA106020191AY161061AY221061GF108991999011004501001001KA1240M+02981MA1999999100131MD1999999-0181MW1211REMSYN100AAXX  29004 82392 21499 83201 10220 20217 30013 40115 72162 82100 333 10298 29091 55019 59018 60201;EQDQ01+000022SCOTLC
0201823920999992002032912004-03690-040340FM-12+008399999V0201401N001512200019N0500001N1+02601+02421101051ADDAA124020191AY161061AY221061GF103991031011004501001001KA1240N+02121MA1999999100021MD1999999-0171MW1021REMSYN088AAXX  29124 82392 21499 31403 10260 20242 30002 40105 70262 83100 333 20212 59017 60204;
0167823920999992002032918004-03690-040340FM-12+008399999V0200501N000510450019N0500001N1+03141+02351100771ADDAA199000091GF106991031061004501031011MA1999999099751MD1999999-0211REMSYN070AAXX  29184 82392 32499 60501 10314 20235 39975 40077 83631 333 59021;EQDQ01  00002PRCP99
0213823920999992002033000004-03690-040340FM-12+008399999V0202301N000510450019N0040001N1+02521+02491101021ADDAA106006191AY161061AY221061GF108991031061004501021999KA1240M+03161MA1999999100001MD1999999-0121MW1021REMSYN100AAXX  30004 82392 21496 82301 10252 20249 30000 40102 70262 8362/ 333 10316 29087 55071 59012 60061;
0173823920999992002033012004-03690-040340FM-12+008399999V0200901N000512200019N0500001N1+02781+02461101031ADDAA124006191GF104991031041004501031001KA1240N+02301MA1999999100011MD1999999-0011REMSYN082AAXX  30124 82392 22499 40901 10278 20246 30001 40103 83430 333 20230 59001 60064;
0167823920999992002033018004-03690-040340FM-12+008399999V0200901N001510450019N0500001N1+03141+02301100741ADDAA199000091GF105991031041004501031001MA1999999099721MD1999999-0031REMSYN070AAXX  30184 82392 32499 50903 10314 20230 39972 40074 83430 333 59003;EQDQ01  00002PRCP99
0198823920999992002033100004-03690-040340FM-12+008399999V0203601N001010042019N0040001N1+02601+02251101141ADDAA199000091GF108991051061004501011999KA1240M+03191MA1999999100121MD1999999+0121REMSYN088AAXX  31004 82392 32496 83602 10260 20225 30012 40114 8561/ 333 10319 29077 55089 58012;EQDQ01  00002PRCP99
0186823920999992002033112004-03690-040340FM-12+008399999V0201401N001010042019N0500001N1+02681+02541101261ADDAA199000091GF107991051051004501031001KA1240N+02281MA1999999100241MD1999999+0231REMSYN076AAXX  31124 82392 32499 71402 10268 20254 30024 40126 85530 333 20228 58023;EQDQ01  00002PRCP99
0201823920999992002033118004-03690-040340FM-12+008399999V0202301N000519999999N0500001N1+02461+02411100991ADDAA106000891AY161061AY221061GF108991999021004501001001MA1999999099961MD1999999+0241MW1021REMSYN082AAXX  31184 82392 21499 82301 10246 20241 39996 40099 70262 83200 333 58024 69971;EQDQ01+000032SCOTLC
0198823920999992002040100004-03690-040340FM-12+008399999V0203601N001012200019N0040001N1+02501+02451101151ADDAA199000091GF103991031021004501001001KA1240M+03101MA1999999100131MD1999999+0011REMSYN088AAXX  01004 82392 32496 33602 10250 20245 30013 40115 83200 333 10310 29096 55027 58001;EQDQ01  00002PRCP99
0186823920999992002040112004-03690-040340FM-12+008399999V0201401N001012200019N0500001N1+02701+02541101121ADDAA199000091GF102991021011004501001001KA1240N+02281MA1999999100101MD1999999-0141REMSYN076AAXX  01124 82392 32499 21402 10270 20254 30010 40112 82100 333 20228 59014;EQDQ01  00002PRCP99
0182823920999992002040118004-03690-040340FM-12+008399999V0200901N002110042019N0500001N1+03081+02401100761ADDAA106000391AY151061AY221061GF106991051041004501031001MA1999999099741MD1999999-0221MW1031REMSYN082AAXX  01184 82392 21499 60904 10308 20240 39974 40076 70352 85430 333 59022 69931;
0214823920999992002040200004-03690-040340FM-12+008399999V0203601N000519999999N0040001N1+02561+02441101091ADDAA199000091GF107991999021004501001001KA1240M+03121MA1999999100071MD1999999-0061REMSYN088AAXX  02004 82392 32496 73601 10256 20244 30007 40109 83200 333 10312 29086 55096 59006;EQDQ01+000032SCOTLCQ02  00002PRCP99
0173823920999992002040212004-03690-040340FM-12+008399999V0200901N001012200019N0500001N1+02781+02441101171ADDAA124000391GF104991031021004501031001KA1240N+02401MA1999999100151MD1999999+0051REMSYN082AAXX  02124 82392 22499 40902 10278 20244 30015 40117 83230 333 20240 58005 69934;
0167823920999992002040218004-03690-040340FM-12+008399999V0203601N000510450019N0500001N1+02931+02491100871ADDAA199000091GF106991031061004501011001MA1999999099851MD1999999-0111REMSYN070AAXX  02184 82392 32499 63601 10293 20249 39985 40087 83610 333 59011;EQDQ01  00002PRCP99
0198823920999992002040300004-03690-040340FM-12+008399999V0200501N000510450019N0040001N1+02541+02441101171ADDAA199000091GF106991031061004501011001KA1240M+03021MA1999999100151MD1999999+0081REMSYN088AAXX  03004 82392 32496 60501 10254 20244 30015 40117 83610 333 10302 29087 55068 58008;EQDQ01  00002PRCP99
0186823920999992002040312004-03690-040340FM-12+008399999V0201801N000512200019N0500001N1+02781+02321101271ADDAA199000091GF104991031021004501001011KA1240N+02301MA1999999100251MD1999999+0101REMSYN076AAXX  03124 82392 32499 41801 10278 20232 30025 40127 83201 333 20230 58010;EQDQ01  00002PRCP99
0167823920999992002040318004-03690-040340FM-12+008399999V0202301N000510042019N0500001N1+02881+02251101021ADDAA199000091GF107991051051004501031001MA1999999100001MD1999999+0151REMSYN070AAXX  03184 82392 32499 72301 10288 20225 30000 40102 85530 333 58015;EQDQ01  00002PRCP99
0232823920999992002040400004-03690-040340FM-12+008399999V0203601N000519999999N0040001N1+02461+02431101291ADDAA106000591AY151061AY251061GF105991999021004501001001KA1240M+03041MA1999999100271MD1999999+0121MW1021REMSYN100AAXX  04004 82392 21496 53601 10246 20243 30027 40129 70255 83200 333 10304 29085 55069 58012 69941;EQDQ01+000032SCOTLC
0201823920999992002040412004-03690-040340FM-12+008399999V0200501N000510042019N0500001N1+02681+02451101301ADDAA124000891AY151061AY251061GF107991051061004501031001KA1240N+02301MA1999999100281MD1999999+0031MW1021REMSYN088AAXX  04124 82392 21499 70501 10268 20245 30028 40130 70255 85630 333 20230 58003 69984;
0182823920999992002040418004-03690-040340FM-12+008399999V0200501N000510042019N0500001N1+02481+02381100951ADDAA106000591AY101061AY221061GF107991061061004501011001MA1999999099921MD1999999-0081MW1211REMSYN082AAXX  04184 82392 21499 70501 10248 20238 39992 40095 72102 86610 333 59008 69961;
0179823920999992002040500004-03690-040340FM-12+008399999V0202301N000510042019N0040001N1+02481+02431101121ADDAA199000021GF106991051051004501031001KA1240M+02981MA1999999100101MD1999999-0171REMSYN088AAXX  05004 82392 32496 62301 10248 20243 30010 40112 85530 333 10298 29094 55036 59017;
0173823920999992002040512004-03690-040340FM-12+008399999V0202301N000512200019N0500001N1+02621+02441101131ADDAA124000591GF104991011011004501031001KA1240N+02241MA1999999100111MD1999999-0171REMSYN082AAXX  05124 82392 22499 42301 10262 20244 30011 40113 81130 333 20224 59017 69964;
0182823920999992002040518004-03690-040340FM-12+008399999V0203601N000510042019N0500001N1+02631+02481101001ADDAA106007991AY101061AY221061GF107991051071004501011001MA1999999099701MD1999999-0221MW1211REMSYN082AAXX  05184 82392 21499 73601 10263 20248 39970 40100 72102 85710 333 59022 60081;
0198823920999992002040600004-03690-040340FM-12+008399999V0202301N000519999999N0040001N1+02421+02331101061ADDAA199000021GF108991999021004501001001KA1240M+03181MA1999999100031MD1999999-0071REMSYN088AAXX  06004 82392 32496 82301 10242 20233 30003 40106 84200 333 10318 29094 55051 59007;EQDQ01+000042SCOTLC
0201823920999992002040612004-03690-040340FM-12+008399999V0203201N000512200019N0500001N1+02501+02401101031ADDAA124025991AY161061AY261061GF102991021011004501001001KA1240N+02181MA1999999100001MD1999999-0111MW1021REMSYN088AAXX  06124 82392 21499 23201 10250 20240 30000 40103 70266 82100 333 20218 59011 60264;
0213823920999992002040700004-03690-040340FM-12+008399999V0202301N000510450019N0040001N1+02241+02191101171ADDAA106013091AY161061AY261061GF108991041061004501021999KA1240M+03001MA1999999100141MD1999999+0111MW1511REMSYN100AAXX  07004 82392 21496 82301 10224 20219 30014 40117 75166 8462/ 333 10300 29092 55055 58011 60131;
0220823920999992002040712004-03690-040340FM-12+008399999V0209999C000019999999N0500001N1+02581+02301101211ADDAA124013091AY151061AY251061GF107991999011004501001001KA1240N+02181MA1999999100181MD1999999+0181MW1021REMSYN088AAXX  07124 82392 21499 70000 10258 20230 30018 40121 70255 82100 333 20218 58018 60134;EQDQ01+000022SCOTLC
0183823920999992002040718004-03690-040340FM-12+008399999V0203201N000510042019N0500001N1+02901+02431100781ADDAA199000091GF107991999061004501001001MA1999999099761MD1999999+0051REMSYN070AAXX  07184 82392 32499 73201 10290 20243 39976 40078 85600 333 58005;EQDQ01+000052SCOTLCQ02  00002PRCP99
0232823920999992002040800004-03690-040340FM-12+008399999V0201801N000519999999N0040001N1+02431+02411101121ADDAA106001091AY151061AY251061GF108991999011004501001001KA1240M+03171MA1999999100091MD1999999-0151MW1021REMSYN100AAXX  08004 82392 21496 81801 10243 20241 30009 40112 70255 82100 333 10317 29090 55057 59015 60011;EQDQ01+000022SCOTLC
0173823920999992002040812004-03690-040340FM-12+008399999V0202301N000512200019N0500001N1+02601+02391101151ADDAA124001091GF103991031021004501001001KA1240N+02311MA1999999100121MD1999999-0061REMSYN082AAXX  08124 82392 22499 32301 10260 20239 30012 40115 83200 333 20231 59006 60014;
0167823920999992002040818004-03690-040340FM-12+008399999V0201801N001010450019N0500001N1+02881+02321100791ADDAA199000091GF106991041021004501031001MA1999999099771MD1999999+0011REMSYN070AAXX  08184 82392 32499 61802 10288 20232 39977 40079 84230 333 58001;EQDQ01  00002PRCP99
0213823920999992002040900004-03690-040340FM-12+008399999V0200501N001012200019N0040001N1+02421+02281101081ADDAA106007991AY161061AY261061GF104991021061004501001011KA1240M+02981MA1999999100051MD1999999-0041MW1021REMSYN100AAXX  09004 82392 21496 40502 10242 20228 30005 40108 70266 82601 333 10298 29086 55062 59004 60081;
0173823920999992002040912004-03690-040340FM-12+008399999V0200901N001010450019N0500001N1+02701+02331101121ADDAA124007991GF105991041021004501031001KA1240N+02281MA1999999100101MD1999999-0021REMSYN082AAXX  09124 82392 22499 50902 10270 20233 30010 40112 84230 333 20228 59002 60084;
0182823920999992002040918004-03690-040340FM-12+008399999V0203601N000510450019N0500001N1+02601+02481100751ADDAA106000591AY151061AY251061GF107991041061004501011001MA1999999099721MD1999999-0051MW1201REMSYN082AAXX  09184 82392 21499 73601 10260 20248 39972 40075 72055 84610 333 59005 69941;
0232823920999992002041000004-03690-040340FM-12+008399999V0200501N000519999999N0040001N1+02401+02351101021ADDAA106005191AY161061AY261061GF106991999021004501001001KA1240M+03081MA1999999100001MD1999999-0051MW1021REMSYN100AAXX  10004 82392 21496 60501 10240 20235 30000 40102 70266 83200 333 10308 29092 55058 59005 60051;EQDQ01+000032SCOTLC
0201823920999992002041012004-03690-040340FM-12+008399999V0203201N000510450019N0200001N1+02401+02331101151ADDAA124020191AY161061AY261061GF108991041071004501021999KA1240N+02301MA1999999100121MD1999999-0021MW1511REMSYN088AAXX  10124 82392 21498 83201 10240 20233 30012 40115 75166 8472/ 333 20230 59002 60204;
0182823920999992002041018004-03690-040340FM-12+008399999V0203201N000510450019N0500001N1+02581+02401100781ADDAA106006191AY161061AY261061GF108991031061004501021999MA1999999099751MD1999999+0081MW1021REMSYN082AAXX  10184 82392 21499 83201 10258 20240 39975 40078 70266 8362/ 333 58008 60061;
0223823920999992002041100004-03690-040340FM-12+008399999V02099999999992200019N0040001N1+02351+02331101081ADDAA106000391AY151061AY251061GA1001+999999999GF100991001001999999001001KA1240M+02601MA1999999100051MD1999999+0051MW1021REMSYN094AAXX  11004 82392 21496 05011 10235 20233 30005 40108 70255 333 10260 29096 55000 58005 69931;
0173823920999992002041112004-03690-040340FM-12+008399999V0201401N000510450019N0500001N1+02641+02331101181ADDAA124007191GF106991021021004501011011KA1240N+02101MA1999999100151MD1999999+0031REMSYN082AAXX  11124 82392 22499 61401 10264 20233 30015 40118 82211 333 20210 58003 60074;
0167823920999992002041118004-03690-040340FM-12+008399999V0201801N000510450019N0500001N1+03081+02161100791ADDAA199000091GF106991021021004501011011MA1999999099771MD1999999+0021REMSYN070AAXX  11184 82392 32499 61801 10308 20216 39977 40079 82211 333 58002;EQDQ01  00002PRCP99
0198823920999992002041200004-03690-040340FM-12+008399999V0203601N002112200019N0010001N1+02421+02281101111ADDAA199000091GF102991021011008001001001KA1240M+03121MA1999999100081MD1999999+0031REMSYN088AAXX  12004 82392 32594 23604 10242 20228 30008 40111 82100 333 10312 29081 55094 58003;EQDQ01  00002PRCP99
0186823920999992002041212004-03690-040340FM-12+008399999V0201401N001010450019N0200001N1+02441+02301101331ADDAA199000091GF108991041061004501021999KA1240N+02241MA1999999100331MD1999999+0151REMSYN076AAXX  12124 82392 32498 81402 10244 20230 30033 40133 8462/ 333 20224 58015;EQDQ01  00002PRCP99
0167823920999992002041218004-03690-040340FM-12+008399999V0200501N001010450019N0500001N1+02701+02351101071ADDAA199000091GF108991041061004501011999MA1999999100041MD1999999+0271REMSYN070AAXX  12184 82392 32499 80502 10270 20235 30004 40107 8461/ 333 58027;EQDQ01  00002PRCP99
0198823920999992002041300004-03690-040340FM-12+008399999V0200501N001510450019N0040001N1+02421+02281101251ADDAA199000091GF108991031071004501021999KA1240M+02721MA1999999100221MD1999999+0141REMSYN088AAXX  13004 82392 32496 80503 10242 20228 30022 40125 8372/ 333 10272 29089 55000 58014;EQDQ01  00002PRCP99
0220823920999992002041312004-03690-040340FM-12+008399999V0209999C000019999999N0500001N1+02501+02311101271ADDAA124000191AY151061AY251061GF106991999021008001001001KA1240N+02241MA1999999100241MD1999999-0061MW1021REMSYN088AAXX  13124 82392 21599 60000 10250 20231 30024 40127 70255 83200 333 20224 59006 69914;EQDQ01+000032SCOTLC
0183823920999992002041318004-03690-040340FM-12+008399999V0209999C000019999999N0500001N1+03131+02401100861ADDAA199000091GF105991999021008001001001MA1999999099841MD1999999-0201REMSYN070AAXX  13184 82392 32599 50000 10313 20240 39984 40086 83200 333 59020;EQDQ01+000032SCOTLCQ02  00002PRCP99
0232823920999992002041400004-03690-040340FM-12+008399999V0202301N000519999999N0040001N1+02321+02201101251ADDAA106000191AY151061AY251061GF108991999021004501001001KA1240M+03141MA1999999100221MD1999999+0001MW1021REMSYN100AAXX  14004 82392 21496 82301 10232 20220 30022 40125 70255 84200 333 10314 29085 55072 58000 69911;EQDQ01+000042SCOTLC
0201823920999992002041412004-03690-040340FM-12+008399999V0201401N001012200019N0500001N1+02681+02411101331ADDAA124003091AY161061AY221061GF103991031021004501001001KA1240N+02201MA1999999100301MD1999999+0061MW1031REMSYN088AAXX  14124 82392 21499 31402 10268 20241 30030 40133 70362 83200 333 20220 58006 60034;
0182823920999992002041418004-03690-040340FM-12+008399999V0200101N001012200019N0500001N1+02501+02291100881ADDAA106000891AY151061AY251061GF104991041021004501001001MA1999999099851MD1999999+0011MW1031REMSYN082AAXX  14184 82392 21499 40102 10250 20229 39985 40088 70355 84200 333 58001 69971;
0198823920999992002041500004-03690-040340FM-12+008399999V0203601N001012200019N0040001N1+02441+02271101081ADDAA199000091GF103991031001004501031001KA1240M+02881MA1999999100061MD1999999-0161REMSYN088AAXX  15004 82392 32496 33602 10244 20227 30006 40108 83030 333 10288 29088 55049 59016;EQDQ01  00002PRCP99
0173823920999992002041512004-03690-040340FM-12+008399999V0203201N000510450019N0500001N1+02581+02401101301ADDAA124000891GF108991041071004501021999KA1240N+02281MA1999999100271MD1999999-0031REMSYN082AAXX  15124 82392 22499 83201 10258 20240 30027 40130 8472/ 333 20228 59003 69974;
0214823920999992002041600004-03690-040340FM-12+008399999V0200501N000512200019N0040001N1+02531+02441101061ADDAA199000091GF101991999011008001001001KA1240M+03161MA1999999100041MD1999999-0021REMSYN088AAXX  16004 82392 32596 10501 10253 20244 30004 40106 82100 333 10316 29084 55063 59002;EQDQ01+000022SCOTLCQ02  00002PRCP99
0186823920999992002041612004-03690-040340FM-12+008399999V0200901N001512200019N0500001N1+02741+02401101181ADDAA199000091GF103991031021004501001001KA1240N+02241MA1999999100161MD1999999+0111REMSYN076AAXX  16124 82392 32499 30903 10274 20240 30016 40118 83200 333 20224 58011;EQDQ01  00002PRCP99
0167823920999992002041618004-03690-040340FM-12+008399999V0201801N000512200019N0500001N1+03241+02441100881ADDAA199000091GF104991041021004501001001MA1999999099861MD1999999+0101REMSYN070AAXX  16184 82392 32499 41801 10324 20244 39986 40088 84200 333 58010;EQDQ01  00002PRCP99
0198823920999992002041700004-03690-040340FM-12+008399999V0200501N000512200019N0040001N1+02521+02251101251ADDAA199000091GF104991031061004501011001KA1240M+03311MA1999999100231MD1999999+0191REMSYN088AAXX  17004 82392 32496 40501 10252 20225 30023 40125 83610 333 10331 29079 55101 58019;EQDQ01  00002PRCP99
0214823920999992002041800004-03690-040340FM-12+008399999V0209999C000019999999N0040001N1+02431+02321101311ADDAA199000091GF106991999021008001001001KA1240M+03181MA1999999100281MD1999999+0051REMSYN088AAXX  18004 82392 32596 60000 10243 20232 30028 40131 84200 333 10318 29085 55057 58005;EQDQ01+000042SCOTLCQ02  00002PRCP99
0186823920999992002041812004-03690-040340FM-12+008399999V0202701N000510042019N0500001N1+02621+02371101241ADDAA199000091GF105991051021004501001001KA1240N+02141MA1999999100211MD1999999-0091REMSYN076AAXX  18124 82392 32499 52701 10262 20237 30021 40124 85200 333 20214 59009;EQDQ01  00002PRCP99
0167823920999992002041818004-03690-040340FM-12+008399999V0203601N000510450019N0500001N1+03001+02511100801ADDAA199000091GF106991041071004501011001MA1999999099781MD1999999-0151REMSYN070AAXX  18184 82392 32499 63601 10300 20251 39978 40080 84710 333 59015;EQDQ01  00002PRCP99
0173823920999992002041912004-03690-040340FM-12+008399999V0200901N001512200019N0500001N1+02701+02331101031ADDAA124001091GF103991031021004501001001KA1240N+02241MA1999999100011MD1999999-0201REMSYN082AAXX  19124 82392 22499 30903 10270 20233 30001 40103 83200 333 20224 59020 60014;
0167823920999992002041918004-03690-040340FM-12+008399999V0200901N000512200019N0500001N1+03141+02131100751ADDAA199000091GF104991031021004501001011MA1999999099731MD1999999-0051REMSYN070AAXX  19184 82392 32499 40901 10314 20213 39973 40075 83201 333 59005;EQDQ01  00002PRCP99
0186823920999992002042012004-03690-040340FM-12+008399999V0200901N001512200019N0500001N1+02701+02431101071ADDAA199000091GF104991041021004501001001KA1240N+02221MA1999999100051MD1999999+0041REMSYN076AAXX  20124 82392 32499 40903 10270 20243 30005 40107 84200 333 20222 58004;EQDQ01  00002PRCP99
0167823920999992002042018004-03690-040340FM-12+008399999V0201401N001010450019N0500001N1+02881+02411100631ADDAA199000091GF108991031051004501021999MA1999999099621MD1999999-0111REMSYN070AAXX  20184 82392 32499 81402 10288 20241 39962 40063 8352/ 333 59011;EQDQ01  00002PRCP99
0198823920999992002042100004-03690-040340FM-12+008399999V0203601N000510450019N0040001N1+02461+02321100961ADDAA199000091GF106991041041004501031001KA1240M+02961MA1999999099941MD1999999+0031REMSYN088AAXX  21004 82392 32496 63601 10246 20232 39994 40096 84430 333 10296 29086 55042 58003;EQDQ01  00002PRCP99
0202823920999992002042112004-03690-040340FM-12+008399999V0201801N000519999999N0500001N1+02741+02321101171ADDAA199000091GF106991999011008001001001KA1240N+02321MA1999999100151MD1999999+0101REMSYN076AAXX  21124 82392 32599 61801 10274 20232 30015 40117 82100 333 20232 58010;EQDQ01+000022SCOTLCQ02  00002PRCP99
0183823920999992002042118004-03690-040340FM-12+008399999V0200901N001019999999N0500001N1+03111+02331100741ADDAA199000091GF105991999011004501001001MA1999999099721MD1999999+0101REMSYN070AAXX  21184 82392 32499 50902 10311 20233 39972 40074 82100 333 58010;EQDQ01+000022SCOTLCQ02  00002PRCP99
0232823920999992002042200004-03690-040340FM-12+008399999V0209999C000019999999N0040001N1+02421+02331101101ADDAA106001091AY151061AY251061GF107991999011008001001001KA1240M+03121MA1999999100081MD1999999+0041MW1031REMSYN100AAXX  22004 82392 21596 70000 10242 20233 30008 40110 70355 82100 333 10312 29083 55087 58004 60011;EQDQ01+000022SCOTLC
0173823920999992002042212004-03690-040340FM-12+008399999V0200901N001012200019N0500001N1+02661+02291101051ADDAA124001091GF104991031021004501031001KA1240N+02221MA1999999100021MD1999999-0131REMSYN082AAXX  22124 82392 22499 40902 10266 20229 30002 40105 83230 333 20222 59013 60014;
0167823920999992002042218004-03690-040340FM-12+008399999V0201401N000512200019N0500001N1+03121+02191100681ADDAA199000091GF102991021021004501001001MA1999999099661MD1999999-0061REMSYN070AAXX  22184 82392 32499 21401 10312 20219 39966 40068 82200 333 59006;EQDQ01  00002PRCP99
0198823920999992002042300004-03690-040340FM-12+008399999V0203601N000512200019N0040001N1+02581+02371100971ADDAA199000091GF102991011011004501031001KA1240M+03121MA1999999099951MD1999999-0131REMSYN088AAXX  23004 82392 32496 23601 10258 20237 39995 40097 81130 333 10312 29083 55087 59013;EQDQ01  00002PRCP99
0186823920999992002042312004-03690-040340FM-12+008399999V0201401N001010042019N0500001N1+02701+02331101011ADDAA199000091GF107991051041004501031001KA1240N+02261MA1999999099991MD1999999-0031REMSYN076AAXX  23124 82392 32499 71402 10270 20233 39999 40101 85430 333 20226 59003;EQDQ01  00002PRCP99
0182823920999992002042318004-03690-040340FM-12+008399999V0202301N000510450019N0500001N1+02861+02761100621ADDAA106002091AY161061AY261061GF106991031051004501031001MA1999999099611MD1999999-0051MW1021REMSYN082AAXX  23184 82392 21499 62301 10286 20276 39961 40062 70266 83530 333 59005 60021;
0214823920999992002042400004-03690-040340FM-12+008399999V0200501N000519999999N0040001N1+02521+02431100991ADDAA199000091GF108991999011008001001001KA1240M+02891MA1999999099971MD1999999+0021REMSYN088AAXX  24004 82392 32596 80501 10252 20243 39997 40099 82100 333 10289 29087 55039 58002;EQDQ01+000022SCOTLCQ02  00002PRCP99
0173823920999992002042412004-03690-040340FM-12+008399999V0200901N001510450019N0500001N1+02601+02391101031ADDAA124002091GF105991041021004501031001KA1240N+02381MA1999999100011MD1999999+0021REMSYN082AAXX  24124 82392 22499 50903 10260 20239 30001 40103 84230 333 20238 58002 60024;
0167823920999992002042418004-03690-040340FM-12+008399999V0200501N001512200019N0500001N1+03101+02201100591ADDAA199000091GF104991041021004501001001MA1999999099581MD1999999-0031REMSYN070AAXX  24184 82392 32499 40503 10310 20220 39958 40059 84200 333 59003;EQDQ01  00002PRCP99
0213823920999992002042500004-03690-040340FM-12+008399999V0209999C000010450019N0040001N1+02581+02421100981ADDAA106000191AY151061AY251061GF107991021041004501031001KA1240M+03211MA1999999099961MD1999999-0011MW1021REMSYN100AAXX  25004 82392 21496 70000 10258 20242 39996 40098 70255 82430 333 10321 29082 55074 59001 69911;
0201823920999992002042512004-03690-040340FM-12+008399999V0203601N000510450019N0500001N1+02641+02391101201ADDAA124000591AY151061AY251061GF108991021041004501031999KA1240N+02381MA1999999100181MD1999999+0171MW1021REMSYN088AAXX  25124 82392 21499 83601 10264 20239 30018 40120 70255 8243/ 333 20238 58017 69954;
0182823920999992002042518004-03690-040340FM-12+008399999V0203601N000510450019N0500001N1+02461+02391100881ADDAA106018091AY161061AY261061GF108991041061004501011999MA1999999099851MD1999999+0271MW1021REMSYN082AAXX  25184 82392 21499 83601 10246 20239 39985 40088 70266 8461/ 333 58027 60181;
0232823920999992002042600004-03690-040340FM-12+008399999V0203201N000519999999N0040001N1+02401+02231101151ADDAA106002091AY161061AY221061GF108991999021004501001001KA1240M+02901MA1999999100141MD1999999+0121MW1021REMSYN100AAXX  26004 82392 21496 83201 10240 20223 30014 40115 70262 84200 333 10290 29019 55012 58012 60021;EQDQ01+000042SCOTLC
0173823920999992002042612004-03690-040340FM-12+008399999V0201801N000510450019N0200001N1+02501+02361101281ADDAA124019191GF108991041061004501021999KA1240N+02281MA1999999100251MD1999999+0071REMSYN082AAXX  26124 82392 22498 81801 10250 20236 30025 40128 8462/ 333 20228 58007 60194;
0167823920999992002042618004-03690-040340FM-12+008399999V0202301N000510450019N0500001N1+02621+02231100921ADDAA199000091GF107991031061004501011001MA1999999099891MD1999999+0041REMSYN070AAXX  26184 82392 32499 72301 10262 20223 39989 40092 83610 333 58004;EQDQ01  00002PRCP99
0198823920999992002042700004-03690-040340FM-12+008399999V0202301N000510450019N0040001N1+02341+02201101171ADDAA199000091GF106991041041004501031001KA1240M+02781MA1999999100141MD1999999+0001REMSYN088AAXX  27004 82392 32496 62301 10234 20220 30014 40117 84430 333 10278 29089 55016 58000;EQDQ01  00002PRCP99
0202823920999992002042712004-03690-040340FM-12+008399999V0209999C000012200019N0500001N1+02681+02221101201ADDAA199000091GF104991999011008001001001KA1240N+02101MA1999999100141MD1999999-0081REMSYN076AAXX  27124 82392 32599 40000 10268 20222 30014 40120 82100 333 20210 59008;EQDQ01+000022SCOTLCQ02  00002PRCP99
0182823920999992002042718004-03690-040340FM-12+008399999V0203601N001010450019N0500001N1+02961+02531100481ADDAA106000591AY161061AY261061GF106991031061008001031001MA1999999099821MD1999999-0071MW1021REMSYN082AAXX  27184 82392 21599 63602 10296 20253 39982 40048 70266 83630 333 59007 69961;
0214823920999992002042800004-03690-040340FM-12+008399999V0202301N000512200019N0040001N1+02351+02281101031ADDAA199000091GF103991999021008001001001KA1240M+02981MA1999999100001MD1999999-0141REMSYN088AAXX  28004 82392 32596 32301 10235 20228 30000 40103 81200 333 10298 29086 55078 59014;EQDQ01+000012SCOTLCQ02  00002PRCP99
0173823920999992002042812004-03690-040340FM-12+008399999V0200901N000510042019N0500001N1+02641+02371101181ADDAA124000591GF107991051041004501031001KA1240N+02281MA1999999100151MD1999999-0021REMSYN082AAXX  28124 82392 22499 70901 10264 20237 30015 40118 85430 333 20228 59002 69964;
0182823920999992002042818004-03690-040340FM-12+008399999V0203201N000510450019N0200001N1+02321+02151100931ADDAA106015091AY161061AY261061GF108991041061004501021999MA1999999099901MD1999999+0081MW1511REMSYN082AAXX  28184 82392 21498 83201 10232 20215 39990 40093 75166 8462/ 333 58008 60151;
0173823920999992002042912004-03690-040340FM-12+008399999V0200901N001010042019N0500001N1+02581+02311101331ADDAA124022191GF107991051051004501031001KA1240N+02281MA1999999100301MD1999999+0151REMSYN082AAXX  29124 82392 22499 70902 10258 20231 30030 40133 85530 333 20228 58015 60224;
0167823920999992002042918004-03690-040340FM-12+008399999V0201401N001010450019N0500001N1+02641+02271100981ADDAA199000091GF106991041041004501031001MA1999999099951MD1999999+0051REMSYN070AAXX  29184 82392 32499 61402 10264 20227 39995 40098 84430 333 58005;EQDQ01  00002PRCP99
0214823920999992002043000004-03690-040340FM-12+008399999V0201501N001012200019N0020001N1+02341+02221101161ADDAA199000091GF104991999061008001001001KA1240M+02821MA1999999100131MD1999999-0071REMSYN088AAXX  30004 82392 32595 41502 10234 20222 30013 40116 82600 333 10282 29081 55015 59007;EQDQ01+000022SCOTLCQ02  00002PRCP99
0186823920999992002043012004-03690-040340FM-12+008399999V0201401N001012200019N0500001N1+02661+02391101431ADDAA199000091GF104991041021004501001001KA1240N+02161MA1999999100401MD1999999+0101REMSYN076AAXX  30124 82392 32499 41402 10266 20239 30040 40143 84200 333 20216 58010;EQDQ01  00002PRCP99
0182823920999992002043018004-03690-040340FM-12+008399999V0203601N000510042019N0500001N1+02821+02581101011ADDAA106002091AY161061AY261061GF106991051061004501031001MA1999999099981MD1999999+0031MW1201REMSYN082AAXX  30184 82392 21499 63601 10282 20258 39998 40101 72066 85630 333 58003 60021;
0179823920999992002050100004-03690-040340FM-12+008399999V0201801N000512200019N0040001N1+02391+02331101301ADDAA199000021GF102991021001004501031001KA1240M+02991MA1999999100271MD1999999+0141REMSYN088AAXX  01004 82392 32496 21801 10239 20233 30027 40130 82030 333 10299 29091 55041 58014;
0173823920999992002050112004-03690-040340FM-12+008399999V0202701N000510450019N0500001N1+02481+02341101361ADDAA124002091GF108991031061004501021999KA1240N+02241MA1999999100331MD1999999-0071REMSYN082AAXX  01124 82392 22499 82701 10248 20234 30033 40136 8362/ 333 20224 59007 60024;
0201823920999992002050118004-03690-040340FM-12+008399999V0200501N000510042019N0100001N1+02301+02181101131ADDAA106025991AY161061AY221061GF108991999041004501061021MA1999999100101MD1999999+0121MW1631REMSYN082AAXX  01184 82392 21497 80501 10230 20218 30010 40113 76362 88462 333 58012 60261;EQDQ01+000082SCOTLC
0213823920999992002050200004-03690-040340FM-12+008399999V0209999C000010042019N0040001N1+02281+02251101211ADDAA106006191AY161061AY261061GF106991061021004501001001KA1240M+03001MA1999999100181MD1999999-0091MW1021REMSYN100AAXX  02004 82392 21496 60000 10228 20225 30018 40121 70266 86200 333 10300 29095 55019 59009 60061;
0173823920999992002050212004-03690-040340FM-12+008399999V0209999C000010042019N0500001N1+02561+02401101241ADDAA124032091GF107991061061004501031001KA1240N+02161MA1999999100211MD1999999-0121REMSYN082AAXX  02124 82392 22499 70000 10256 20240 30021 40124 86630 333 20216 59012 60324;
0182823920999992002050218004-03690-040340FM-12+008399999V0203601N001010450019N0500001N1+02601+02401100911ADDAA106001091AY161061AY261061GF107991041061004501011001MA1999999099881MD1999999-0121MW1021REMSYN082AAXX  02184 82392 21499 73602 10260 20240 39988 40091 70266 84610 333 59012 60011;
0213823920999992002050300004-03690-040340FM-12+008399999V0202701N000510450019N0040001N1+02401+02301101191ADDAA106014091AY161061AY261061GF108991041071004501021999KA1240M+02981MA1999999100161MD1999999-0021MW1021REMSYN100AAXX  03004 82392 21496 82701 10240 20230 30016 40119 70266 8472/ 333 10298 29092 55039 59002 60141;
0173823920999992002050312004-03690-040340FM-12+008399999V0202301N000510042019N0500001N1+02541+02441101231ADDAA124016091GF106991051021004501031001KA1240N+02181MA1999999100201MD1999999-0011REMSYN082AAXX  03124 82392 22499 62301 10254 20244 30020 40123 85230 333 20218 59001 60164;
0167823920999992002050318004-03690-040340FM-12+008399999V0209999C000010450019N0500001N1+03171+02411100771ADDAA199000091GF106991031021004501031001MA1999999099751MD1999999-0131REMSYN070AAXX  03184 82392 32499 60000 10317 20241 39975 40077 83230 333 59013;EQDQ01  00002PRCP99
0198823920999992002050400004-03690-040340FM-12+008399999V0209999C000012200019N0040001N1+02481+02301101131ADDAA199000091GF102991021001008001031001KA1240M+03201MA1999999100101MD1999999-0061REMSYN088AAXX  04004 82392 32596 20000 10248 20230 30010 40113 82030 333 10320 29084 55079 59006;EQDQ01  00002PRCP99
0186823920999992002050412004-03690-040340FM-12+008399999V0200901N001512200019N0500001N1+02601+02251101331ADDAA199000091GF104991041021004501001001KA1240N+02041MA1999999100301MD1999999+0101REMSYN076AAXX  04124 82392 32499 40903 10260 20225 30030 40133 84200 333 20204 58010;EQDQ01  00002PRCP99
0182823920999992002050418004-03690-040340FM-12+008399999V0200501N001510042019N0500001N1+03041+02121100961ADDAA106000191AY121061AY221061GF106991051061004501031001MA1999999099941MD1999999+0191MW1511REMSYN082AAXX  04184 82392 21499 60503 10304 20212 39994 40096 75122 85630 333 58019 69911;
0189823920999992002050500004-03690-040340FM-12+008399999V0200501N002612200019N0040001N1+02481+02341101291ADDAA199000021GA1001+999999999GF100991001001999999001001KA1240M+03201MA1999999100261MD1999999+0161REMSYN082AAXX  05004 82392 32996 00505 10248 20234 30026 40129 333 10320 29081 55093 58016;
0202823920999992002050512004-03690-040340FM-12+008399999V0201401N001019999999N0500001N1+02721+02371101331ADDAA199000091GF106991999021008001001001KA1240N+02241MA1999999100311MD1999999+0011REMSYN076AAXX  05124 82392 32599 61402 10272 20237 30031 40133 83200 333 20224 58001;EQDQ01+000032SCOTLCQ02  00002PRCP99
0183823920999992002050518004-03690-040340FM-12+008399999V0209999C000019999999N0500001N1+03131+02401101041ADDAA199000091GF105991999021008001001001MA1999999100021MD1999999+0081REMSYN070AAXX  05184 82392 32599 50000 10313 20240 30002 40104 83200 333 58008;EQDQ01+000032SCOTLCQ02  00002PRCP99
0208823920999992002050600004-03690-040340FM-12+008399999V0200501N000512200019N0040001N1+02481+02341101311ADDAA199000091GA1001+999999999GF100991001001999999001001KA1240M+03181MA1999999100291MD1999999+0091REMSYN082AAXX  06004 82392 32996 00501 10248 20234 30029 40131 333 10318 29083 55098 58009;EQDQ01  00002PRCP99
0202823920999992002050612004-03690-040340FM-12+008399999V0201801N000519999999N0500001N1+02621+02291101501ADDAA199000091GF108991999021004501001001KA1240N+02221MA1999999100461MD1999999+0151REMSYN076AAXX  06124 82392 32499 81801 10262 20229 30046 40150 84200 333 20222 58015;EQDQ01+000042SCOTLCQ02  00002PRCP99
0182823920999992002050618004-03690-040340FM-12+008399999V0202301N000510450019N0500001N1+02581+02371101091ADDAA106000391AY151061AY221061GF108991041061004501021999MA1999999100061MD1999999+0041MW1021REMSYN082AAXX  06184 82392 21499 82301 10258 20237 30006 40109 70252 8462/ 333 58004 69931;
0213823920999992002050700004-03690-040340FM-12+008399999V0209999C000010042019N0040001N1+02321+02271101341ADDAA106021191AY161061AY261061GF108991081061004501999999KA1240M+02981MA1999999100311MD1999999+0021MW1021REMSYN100AAXX  07004 82392 21496 80000 10232 20227 30031 40134 70266 886// 333 10298 29091 55057 58002 60211;
0173823920999992002050712004-03690-040340FM-12+008399999V0201801N000512200019N0500001N1+02601+02251101331ADDAA124021191GF103991031021004501001001KA1240N+02201MA1999999100301MD1999999-0161REMSYN082AAXX  07124 82392 22499 31801 10260 20225 30030 40133 83200 333 20220 59016 60214;
0167823920999992002050718004-03690-040340FM-12+008399999V0200901N000511050019N0500001N1+03071+02321100871ADDAA199000091GF105991031021004501001021MA1999999099851MD1999999-0211REMSYN070AAXX  07184 82392 32499 50901 10307 20232 39985 40087 83202 333 59021;EQDQ01  00002PRCP99
0180823920999992002050800004-03690-040340FM-12+008399999V0209999C000019999999N0040001N1+02461+02361101291ADDGF108991999011008001001001KA1240M+03101MA1999999100261MD1999999-0011REMSYN100AAXX  08004 82392 21596 80000 10246 20236 30026 40129 82100 82100 333 10310 29083 55093 59001 60011;
0173823920999992002050812004-03690-040340FM-12+008399999V0201801N001012200019N0500001N1+02561+02291101381ADDAA124001091GF103991031021004501001001KA1240N+02241MA1999999100351MD1999999+0051REMSYN082AAXX  08124 82392 22499 31802 10256 20229 30035 40138 83200 333 20224 58005 60014;
0167823920999992002050818004-03690-040340FM-12+008399999V0201401N001010450019N0500001N1+03001+02001100971ADDAA199000091GF105991041021004501031001MA1999999099951MD1999999+0101REMSYN070AAXX  08184 82392 32499 51402 10300 20200 39995 40097 84230 333 58010;EQDQ01  00002PRCP99
0198823920999992002050900004-03690-040340FM-12+008399999V0200501N000510450019N0040001N1+02521+02361101301ADDAA199000091GF108991041051004501021999KA1240M+03081MA1999999100271MD1999999+0011REMSYN088AAXX  09004 82392 32496 80501 10252 20236 30027 40130 8452/ 333 10308 29081 55097 58001;EQDQ01  00002PRCP99
0186823920999992002050912004-03690-040340FM-12+008399999V0209999C000010450019N0500001N1+02701+02451101451ADDAA199000091GF106991041041004501031001KA1240N+02241MA1999999100431MD1999999+0081REMSYN076AAXX  09124 82392 32499 60000 10270 20245 30043 40145 84430 333 20224 58008;EQDQ01  00002PRCP99
0167823920999992002050918004-03690-040340FM-12+008399999V0200901N000512200019N0500001N1+03071+02291101051ADDAA199000091GF102991021021004501001001MA1999999100031MD1999999+0081REMSYN070AAXX  09184 82392 32499 20901 10307 20229 30003 40105 82200 333 58008;EQDQ01  00002PRCP99
0232823920999992002051000004-03690-040340FM-12+008399999V0203601N001012200019N0040001N1+02501+02401101321ADDAA106000591AY161061AY221061GF102991999021008001001001KA1240M+03161MA1999999100301MD1999999+0031MW1031REMSYN100AAXX  10004 82392 21596 23602 10250 20240 30030 40132 70362 83200 333 10316 29084 55096 58003 69961;EQDQ01+000032SCOTLC
0173823920999992002051012004-03690-040340FM-12+008399999V0201401N001012200019N0500001N1+02781+02441101441ADDAA124000591GF103991031021004501001001KA1240N+02281MA1999999100421MD1999999-0011REMSYN082AAXX  10124 82392 22499 31402 10278 20244 30042 40144 83200 333 20228 59001 69964;
0167823920999992002051018004-03690-040340FM-12+008399999V0201401N001012200019N0500001N1+03061+02381101071ADDAA199000091GF103991021021004501001011MA1999999100051MD1999999+0021REMSYN070AAXX  10184 82392 32499 31402 10306 20238 30005 40107 82201 333 58002;EQDQ01  00002PRCP99
0208823920999992002051100004-03690-040340FM-12+008399999V0203601N001012200019N0040001N1+02481+02301101381ADDAA199000091GA1001+999999999GF100991001001999999001001KA1240M+03141MA1999999100361MD1999999+0061REMSYN082AAXX  11004 82392 32996 03602 10248 20230 30036 40138 333 10314 29082 55096 58006;EQDQ01  00002PRCP99
0220823920999992002051112004-03690-040340FM-12+008399999V0201401N002619999999N0500001N1+02721+02411101501ADDAA124000391AY151061AY251061GF105991999021008001001001KA1240N+02211MA1999999100481MD1999999+0061MW1021REMSYN088AAXX  11124 82392 21599 51405 10272 20241 30048 40150 70255 83200 333 20221 58006 69934;EQDQ01+000032SCOTLC
0201823920999992002051118004-03690-040340FM-12+008399999V0200501N001010042019N0500001N1+02921+02431101021ADDAA106005191AY161061AY261061GF107991999061004501001001MA1999999100001MD1999999+0061MW1211REMSYN082AAXX  11184 82392 21499 70502 10292 20243 30000 40102 72166 85600 333 58006 60051;EQDQ01+000052SCOTLC
0198823920999992002051200004-03690-040340FM-12+008399999V0209999C000019999999N0040001N1+02541+02331101341ADDAA199000021GF106991999021008001001001KA1240M+03101MA1999999100341MD1999999-0041REMSYN088AAXX  12004 82392 32596 60000 10254 20233 30034 40134 83200 333 10310 29084 55071 59004;EQDQ01+000032SCOTLC
0173823920999992002051212004-03690-040340FM-12+008399999V0201401N001010450019N0500001N1+02701+02391101421ADDAA124005191GF105991041021004501031001KA1240N+02241MA1999999100401MD1999999-0081REMSYN082AAXX  12124 82392 22499 51402 10270 20239 30040 40142 84230 333 20224 59008 60054;
0208823920999992002051300004-03690-040340FM-12+008399999V0203601N001012200019N0040001N1+02401+02231101271ADDAA199000091GA1001+999999999GF100991001001999999001001KA1240M+03161MA1999999100251MD1999999-0071REMSYN082AAXX  13004 82392 32996 03602 10240 20223 30025 40127 333 10316 29080 55096 59007;EQDQ01  00002PRCP99
0186823920999992002051312004-03690-040340FM-12+008399999V0201801N001012200019N0500001N1+02441+02371101381ADDAA199000091GF104991031021004501031001KA1240N+02101MA1999999100351MD1999999-0051REMSYN076AAXX  13124 82392 32499 41802 10244 20237 30035 40138 83230 333 20210 59005;EQDQ01  00002PRCP99
0167823920999992002051318004-03690-040340FM-12+008399999V0201401N001010450019N0500001N1+02981+02171101101ADDAA199000091GF106991041021004501031001MA1999999100071MD1999999+0031REMSYN070AAXX  13184 82392 32499 61402 10298 20217 30007 40110 84230 333 58003;EQDQ01  00002PRCP99
0198823920999992002051400004-03690-040340FM-12+008399999V0209999C000012200019N0040001N1+02341+02201101401ADDAA199000091GF103991031001008001031001KA1240M+03021MA1999999100371MD1999999+0121REMSYN088AAXX  14004 82392 32596 30000 10234 20220 30037 40140 83030 333 10302 29086 55040 58012;EQDQ01  00002PRCP99
0186823920999992002051412004-03690-040340FM-12+008399999V0202301N000512200019N0500001N1+02601+01941101281ADDAA199000091GF101991011011004501001001KA1240N+02101MA1999999100251MD1999999-0101REMSYN076AAXX  14124 82392 32499 12301 10260 20194 30025 40128 81100 333 20210 59010;EQDQ01  00002PRCP99
0167823920999992002051418004-03690-040340FM-12+008399999V0201401N000512200019N0500001N1+03111+02191100961ADDAA199000091GF104991021021004501031001MA1999999099941MD1999999-0131REMSYN070AAXX  14184 82392 32499 41401 10311 20219 39994 40096 82230 333 59013;EQDQ01  00002PRCP99
0198823920999992002051500004-03690-040340FM-12+008399999V0201401N000512200019N0040001N1+02501+02091101191ADDAA199000091GF102991021001008001031001KA1240M+03181MA1999999100171MD1999999-0201REMSYN088AAXX  15004 82392 32596 21401 10250 20209 30017 40119 82030 333 10318 29070 55087 59020;EQDQ01  00002PRCP99
0186823920999992002051512004-03690-040340FM-12+008399999V0201801N000512200019N0500001N1+02701+02281101321ADDAA199000091GF101991011011004501001001KA1240N+02281MA1999999100301MD1999999+0051REMSYN076AAXX  15124 82392 32499 11801 10270 20228 30030 40132 81100 333 20228 58005;EQDQ01  00002PRCP99
0182823920999992002051518004-03690-040340FM-12+008399999V0202301N001010450019N0500001N1+02801+02541101021ADDAA106000391AY151061AY221061GF105991041021004501031001MA1999999100001MD1999999+0061MW1201REMSYN082AAXX  15184 82392 21499 52302 10280 20254 30000 40102 72052 84230 333 58006 69931;
0213823920999992002051600004-03690-040340FM-12+008399999V0203601N000512200019N0040001N1+02761+02371101231ADDAA106000591AY161061AY261061GF101991011001008001011001KA1240M+03121MA1999999100201MD1999999+0031MW1021REMSYN100AAXX  16004 82392 21596 13601 10276 20237 30020 40123 70266 81010 333 10312 29089 55085 58003 69961;
0173823920999992002051612004-03690-040340FM-12+008399999V0201801N000510450019N0500001N1+02661+02431101231ADDAA124001091GF106991041051004501031001KA1240N+02281MA1999999100211MD1999999-0091REMSYN082AAXX  16124 82392 22499 61801 10266 20243 30021 40123 84530 333 20228 59009 60014;
0167823920999992002051618004-03690-040340FM-12+008399999V0200901N000512200019N0500001N1+03171+02411100831ADDAA199000091GF104991021011004501001011MA1999999099811MD1999999-0191REMSYN070AAXX  16184 82392 32499 40901 10317 20241 39981 40083 82101 333 59019;EQDQ01  00002PRCP99
0198823920999992002051700004-03690-040340FM-12+008399999V0209999C000010450019N0040001N1+02581+02441101121ADDAA199000091GF106991041041004501031001KA1240M+03241MA1999999100101MD1999999-0101REMSYN088AAXX  17004 82392 32496 60000 10258 20244 30010 40112 84430 333 10324 29084 55088 59010;EQDQ01  00002PRCP99
0186823920999992002051712004-03690-040340FM-12+008399999V0202301N000512200019N0500001N1+02641+02411101161ADDAA199000091GF103991031021004501001001KA1240N+02271MA1999999100141MD1999999-0071REMSYN076AAXX  17124 82392 32499 32301 10264 20241 30014 40116 83200 333 20227 59007;EQDQ01  00002PRCP99
0167823920999992002051718004-03690-040340FM-12+008399999V0203601N000510450019N0500001N1+03031+02311101751ADDAA199000091GF106991031011004501071051MA1999999099731MD1999999-0081REMSYN070AAXX  17184 82392 32499 63601 10303 20231 39973 40175 83175 333 59008;EQDQ01  00002PRCP99
0208823920999992002051800004-03690-040340FM-12+008399999V0203601N000512200019N0040001N1+02401+02331101071ADDAA199000091GA1001+999999999GF100991001001999999001001KA1240M+03071MA1999999100041MD1999999-0061REMSYN082AAXX  18004 82392 32996 03601 10240 20233 30004 40107 333 10307 29086 55062 59006;EQDQ01  00002PRCP99
0186823920999992002051812004-03690-040340FM-12+008399999V0200901N002612200019N0500001N1+02781+02301101161ADDAA199000091GF103991031021008001001001KA1240N+02211MA1999999100141MD1999999+0001REMSYN076AAXX  18124 82392 32599 30905 10278 20230 30014 40116 83200 333 20221 58000;EQDQ01  00002PRCP99
0183823920999992002051818004-03690-040340FM-12+008399999V0200501N003119999999N0500001N1+03081+02071100881ADDAA199000091GF106991999021004501001001MA1999999099861MD1999999+0131REMSYN070AAXX  18184 82392 32499 60506 10308 20207 39986 40088 84200 333 58013;EQDQ01+000042SCOTLCQ02  00002PRCP99
0198823920999992002051900004-03690-040340FM-12+008399999V0200501N001512200019N0040001N1+02501+02321101171ADDAA199000091GF103991031021008001001001KA1240M+03181MA1999999100151MD1999999+0111REMSYN088AAXX  19004 82392 32596 30503 10250 20232 30015 40117 83200 333 10318 29077 55089 58011;EQDQ01  00002PRCP99
0202823920999992002051912004-03690-040340FM-12+008399999V0200901N001019999999N0500001N1+02761+02361101281ADDAA199000091GF105991999021008001001001KA1240N+02111MA1999999100261MD1999999+0101REMSYN076AAXX  19124 82392 32599 50902 10276 20236 30026 40128 83200 333 20211 58010;EQDQ01+000032SCOTLCQ02  00002PRCP99
0183823920999992002051918004-03690-040340FM-12+008399999V0200901N000512200019N0500001N1+03011+02271100931ADDAA199000091GF104991999011004501001001MA1999999099911MD1999999+0051REMSYN070AAXX  19184 82392 32499 40901 10301 20227 39991 40093 82100 333 58005;EQDQ01+000022SCOTLCQ02  00002PRCP99
0208823920999992002052000004-03690-040340FM-12+008399999V0200901N001012200019N0040001N1+02491+02231101151ADDAA199000091GA1001+999999999GF100991001001999999001001KA1240M+03281MA1999999100131MD1999999-0021REMSYN082AAXX  20004 82392 32996 00902 10249 20223 30013 40115 333 10328 29077 55102 59002;EQDQ01  00002PRCP99
0186823920999992002052012004-03690-040340FM-12+008399999V0200901N002612200019N0500001N1+02781+02231101361ADDAA199000091GF101991011011004501001001KA1240N+02121MA1999999100341MD1999999+0081REMSYN076AAXX  20124 82392 32499 10905 10278 20223 30034 40136 81100 333 20212 58008;EQDQ01  00002PRCP99
0167823920999992002052018004-03690-040340FM-12+008399999V0200901N001512200019N0500001N1+03181+01871100971ADDAA199000091GF104991041021004501001001MA1999999099951MD1999999+0041REMSYN070AAXX  20184 82392 32499 40903 10318 20187 39995 40097 84200 333 58004;EQDQ01  00002PRCP99
0214823920999992002052100004-03690-040340FM-12+008399999V0203601N000519999999N0040001N1+02441+02271101201ADDAA199000091GF106991999001008001031001KA1240M+03241MA1999999100181MD1999999+0051REMSYN088AAXX  21004 82392 32596 63601 10244 20227 30018 40120 83030 333 10324 29075 55096 58005;EQDQ01+000032SCOTLCQ02  00002PRCP99
0186823920999992002052112004-03690-040340FM-12+008399999V0200901N002112200019N0500001N1+02741+02241101271ADDAA199000091GF101991011011004501001001KA1240N+02141MA1999999100251MD1999999-0091REMSYN076AAXX  21124 82392 32499 10904 10274 20224 30025 40127 81100 333 20214 59009;EQDQ01  00002PRCP99
0167823920999992002052118004-03690-040340FM-12+008399999V0200901N001512200019N0500001N1+03261+02081100881ADDAA199000091GF105991031021004501001011MA1999999099861MD1999999-0091REMSYN070AAXX  21184 82392 32499 50903 10326 20208 39986 40088 83201 333 59009;EQDQ01  00002PRCP99
0214823920999992002052200004-03690-040340FM-12+008399999V0209999C000019999999N0040001N1+02541+02251101151ADDAA199000091GF107991999011008001001001KA1240M+03121MA1999999100131MD1999999-0051REMSYN088AAXX  22004 82392 32596 70000 10254 20225 30013 40115 82100 333 10312 29073 55090 59005;EQDQ01+000022SCOTLCQ02  00002PRCP99
0186823920999992002052212004-03690-040340FM-12+008399999V0201401N001012200019N0500001N1+02761+02281101281ADDAA199000091GF103991031021004501001001KA1240N+02101MA1999999100261MD1999999+0011REMSYN076AAXX  22124 82392 32499 31402 10276 20228 30026 40128 83200 333 20210 58001;EQDQ01  00002PRCP99
0167823920999992002052218004-03690-040340FM-12+008399999V0200901N002110450019N0500001N1+03001+02241100841ADDAA199000091GF105991041021004501031001MA1999999099821MD1999999-0041REMSYN070AAXX  22184 82392 32499 50904 10300 20224 39982 40084 84230 333 59004;EQDQ01  00002PRCP99
0198823920999992002052300004-03690-040340FM-12+008399999V0203601N000512200019N0040001N1+02461+02301101111ADDAA199000091GF102991021001008001031001KA1240M+03291MA1999999100091MD1999999-0041REMSYN088AAXX  23004 82392 32596 23601 10246 20230 30009 40111 82030 333 10329 29080 55091 59004;EQDQ01  00002PRCP99
0186823920999992002052312004-03690-040340FM-12+008399999V0200901N000512200019N0500001N1+02681+02371101241ADDAA199000091GF104991021021004501031001KA1240N+02101MA1999999100221MD1999999-0041REMSYN076AAXX  23124 82392 32499 40901 10268 20237 30022 40124 82230 333 20210 59004;EQDQ01  00002PRCP99
0167823920999992002052318004-03690-040340FM-12+008399999V0203601N000510450019N0500001N1+02801+02501100841ADDAA199000091GF106991031051004501031001MA1999999099811MD1999999-0011REMSYN070AAXX  23184 82392 32499 63601 10280 20250 39981 40084 83530 333 59001;EQDQ01  00002PRCP99
0232823920999992002052400004-03690-040340FM-12+008399999V0202301N000519999999N0040001N1+02421+02281101181ADDAA106007991AY161061AY221061GF106991999021008001001001KA1240M+03261MA1999999100161MD1999999+0071MW1021REMSYN100AAXX  24004 82392 21596 62301 10242 20228 30016 40118 70262 84200 333 10326 29088 55061 58007 60081;EQDQ01+000042SCOTLC
0192823920999992002052412004-03690-040340FM-12+008399999V0201401N001012200019N0500001N1+02661+02391101241ADDAA124007991GF103991999011004501001001KA1240N+02181MA1999999100211MD1999999-0011REMSYN082AAXX  24124 82392 22499 31402 10266 20239 30021 40124 82100 333 20218 59001 60084;EQDQ01+000022SCOTLC
0182823920999992002052418004-03690-040340FM-12+008399999V0203601N002110042019N0200001N1+02501+02411100901ADDAA106000591AY101061AY221061GF108991061061004501011999MA1999999099871MD1999999+0061MW1611REMSYN082AAXX  24184 82392 21498 83604 10250 20241 39987 40090 76102 8661/ 333 58006 69951;
0213823920999992002052500004-03690-040340FM-12+008399999V0202301N000510450019N0040001N1+02421+02281101241ADDAA106002091AY161061AY251061GF108991041061004501021999KA1240M+03261MA1999999100211MD1999999+0051MW1031REMSYN100AAXX  25004 82392 21496 82301 10242 20228 30021 40124 70365 8462/ 333 10326 29091 55063 58005 60021;
0192823920999992002052512004-03690-040340FM-12+008399999V0202701N000519999999N0500001N1+02621+02421101361ADDAA124003091GF107991999021008001001001KA1240N+02211MA1999999100331MD1999999+0121REMSYN082AAXX  25124 82392 22599 72701 10262 20242 30033 40136 83200 333 20221 58012 60034;EQDQ01+000032SCOTLC
0182823920999992002052518004-03690-040340FM-12+008399999V0203601N000510450019N0500001N1+02631+02371100921ADDAA106001091AY161061AY261061GF106991041061004501031001MA1999999099891MD1999999+0021MW1021REMSYN082AAXX  25184 82392 21499 63601 10263 20237 39989 40092 70266 84630 333 58002 60011;
0232823920999992002052600004-03690-040340FM-12+008399999V0209999C000019999999N0040001N1+02461+02371101311ADDAA106000391AY151061AY251061GF108991999021008001001001KA1240M+03011MA1999999100281MD1999999+0071MW1021REMSYN100AAXX  26004 82392 21596 80000 10246 20237 30028 40131 70255 83200 333 10301 29091 55034 58007 69931;EQDQ01+000032SCOTLC
0173823920999992002052612004-03690-040340FM-12+008399999V0202701N000510042019N0500001N1+02521+02311101351ADDAA124001091GF107991051051004501031001KA1240N+02201MA1999999100321MD1999999-0011REMSYN082AAXX  26124 82392 22499 72701 10252 20231 30032 40135 85530 333 20220 59001 60014;
0182823920999992002052618004-03690-040340FM-12+008399999V0202701N000510450019N0500001N1+02801+02201101051ADDAA106000591AY151061AY221061GF108991041061004501021999MA1999999100021MD1999999+0131MW1021REMSYN082AAXX  26184 82392 21499 82701 10280 20220 30002 40105 70252 8462/ 333 58013 69961;
0213823920999992002052700004-03690-040340FM-12+008399999V0203201N000510450019N0040001N1+02401+02261101271ADDAA106002091AY161061AY251061GF108991041071004501021999KA1240M+02921MA1999999100241MD1999999-0041MW1021REMSYN100AAXX  27004 82392 21496 83201 10240 20226 30024 40127 70265 8472/ 333 10292 29855 55021 59004 60021;
0173823920999992002052712004-03690-040340FM-12+008399999V0201801N001010450019N0500001N1+02481+02051101351ADDAA124003091GF108991041061004501021999KA1240N+02141MA1999999100321MD1999999+0001REMSYN082AAXX  27124 82392 22499 81802 10248 20205 30032 40135 8462/ 333 20214 58000 60034;
0167823920999992002052718004-03690-040340FM-12+008399999V0201401N001512200019N0500001N1+03001+01911100961ADDAA199000091GF103991031021004501001001MA1999999099941MD1999999-0081REMSYN070AAXX  27184 82392 32499 31403 10300 20191 39994 40096 83200 333 59008;EQDQ01  00002PRCP99
0214823920999992002052800004-03690-040340FM-12+008399999V0209999C000012200019N0040001N1+02341+02151101141ADDAA199000091GF101991999011008001001001KA1240M+03061MA1999999100111MD1999999-0131REMSYN088AAXX  28004 82392 32596 10000 10234 20215 30011 40114 82100 333 10306 29077 55056 59013;EQDQ01+000022SCOTLCQ02  00002PRCP99
0186823920999992002052812004-03690-040340FM-12+008399999V0201801N001012200019N0500001N1+02701+02221101191ADDAA199000091GF101991011011004501001001KA1240N+02041MA1999999100161MD1999999-0161REMSYN076AAXX  28124 82392 32499 11802 10270 20222 30016 40119 81100 333 20204 59016;EQDQ01  00002PRCP99
0167823920999992002052818004-03690-040340FM-12+008399999V0200901N000512200019N0500001N1+03181+02161100891ADDAA199000091GF104991021021004501031001MA1999999099871MD1999999-0071REMSYN070AAXX  28184 82392 32499 40901 10318 20216 39987 40089 82230 333 59007;EQDQ01  00002PRCP99
0198823920999992002052900004-03690-040340FM-12+008399999V0209999C000012200019N0040001N1+02431+02281101121ADDAA199000091GF102991011021004501011001KA1240M+03221MA1999999100101MD1999999-0011REMSYN088AAXX  29004 82392 32496 20000 10243 20228 30010 40112 81210 333 10322 29078 55094 59001;EQDQ01  00002PRCP99
0167823920999992002052918004-03690-040340FM-12+008399999V0200901N002612200019N0500001N1+03201+02031100921ADDAA199000091GF103991031021004501001001MA1999999099901MD1999999+0031REMSYN070AAXX  29184 82392 32499 30905 10320 20203 39990 40092 83200 333 58003;EQDQ01  00002PRCP99
0214823920999992002053000004-03690-040340FM-12+008399999V0209999C000019999999N0040001N1+02531+02251101201ADDAA199000091GF105991999021008001001001KA1240M+03231MA1999999100181MD1999999+0081REMSYN088AAXX  30004 82392 32596 50000 10253 20225 30018 40120 83200 333 10323 29074 55095 58008;EQDQ01+000032SCOTLCQ02  00002PRCP99
0186823920999992002053012004-03690-040340FM-12+008399999V0201401N000510450019N0500001N1+02741+02321101211ADDAA199000091GF106991041061004501031001KA1240N+02141MA1999999100191MD1999999+0031REMSYN076AAXX  30124 82392 32499 61401 10274 20232 30019 40121 84630 333 20214 58003;EQDQ01  00002PRCP99
0167823920999992002053018004-03690-040340FM-12+008399999V0201401N001010450019N0500001N1+03211+02201100901ADDAA199000091GF105991021061004501031001MA1999999099881MD1999999-0021REMSYN070AAXX  30184 82392 32499 51402 10321 20220 39988 40090 82630 333 59002;EQDQ01  00002PRCP99
0198823920999992002053100004-03690-040340FM-12+008399999V0203601N002112200019N0040001N1+02481+02211101221ADDAA199000091GF102991021011004501001001KA1240M+03261MA1999999100201MD1999999-0021REMSYN088AAXX  31004 82392 32496 23604 10248 20221 30020 40122 82100 333 10326 29076 55084 59002;EQDQ01  00002PRCP99
0186823920999992002053112004-03690-040340FM-12+008399999V0201801N000512200019N0500001N1+02721+02171101351ADDAA199000091GF104991031021004501031001KA1240N+02161MA1999999100331MD1999999+0141REMSYN076AAXX  31124 82392 32499 41801 10272 20217 30033 40135 83230 333 20216 58014;EQDQ01  00002PRCP99
0167823920999992002053118004-03690-040340FM-12+008399999V0203601N000510450019N0500001N1+02741+02261101011ADDAA199000091GF105991031051004501031001MA1999999099981MD1999999+0101REMSYN070AAXX  31184 82392 32499 53601 10274 20226 39998 40101 83530 333 58010;EQDQ01  00002PRCP99
0198823920999992002060100004-03690-040340FM-12+008399999V0203601N001012200019N0040001N1+02341+02201101271ADDAA199000091GF103991031021008001001001KA1240M+03181MA1999999100241MD1999999+0041REMSYN088AAXX  01004 82392 32596 33602 10234 20220 30024 40127 83200 333 10318 29083 55063 58004;EQDQ01  00002PRCP99
0201823920999992002060112004-03690-040340FM-12+008399999V0201801N001010042019N0500001N1+02581+02231101431ADDAA124000591AY151061AY221061GF106991051021004501031001KA1240N+02201MA1999999100401MD1999999+0071MW1021REMSYN088AAXX  01124 82392 21499 61802 10258 20223 30040 40143 70252 85230 333 20220 58007 69944;
0167823920999992002060118004-03690-040340FM-12+008399999V0202301N000510042019N0500001N1+03101+01971101121ADDAA199000091GF106991051041004501031001MA1999999100101MD1999999+0121REMSYN070AAXX  01184 82392 32499 62301 10310 20197 30010 40112 85430 333 58012;EQDQ01  00002PRCP99
0198823920999992002060200004-03690-040340FM-12+008399999V0202301N000510042019N0040001N1+02541+02381101371ADDAA199000091GF107991051061004501021011KA1240M+03201MA1999999100351MD1999999+0111REMSYN088AAXX  02004 82392 32496 72301 10254 20238 30035 40137 85621 333 10320 29078 55071 58011;EQDQ01  00002PRCP99
0202823920999992002060212004-03690-040340FM-12+008399999V0200901N000512200019N0500001N1+02861+02311101461ADDAA199000091GF104991999011008001001001KA1240N+02221MA1999999100441MD1999999+0041REMSYN076AAXX  02124 82392 32599 40901 10286 20231 30044 40146 82100 333 20222 58004;EQDQ01+000022SCOTLCQ02  00002PRCP99
0183823920999992002060218004-03690-040340FM-12+008399999V0200901N001019999999N0500001N1+03101+02181101071ADDAA199000091GF105991999011004501001001MA1999999100051MD1999999-0051REMSYN070AAXX  02184 82392 32499 50902 10310 20218 30005 40107 82100 333 59005;EQDQ01+000022SCOTLCQ02  00002PRCP99
0214823920999992002060300004-03690-040340FM-12+008399999V0200501N001012200019N0040001N1+02501+02301101381ADDAA199000091GF104991999011008001001001KA1240M+03241MA1999999100361MD1999999+0011REMSYN088AAXX  03004 82392 32596 40502 10250 20230 30036 40138 82100 333 10324 29077 55077 58001;EQDQ01+000022SCOTLCQ02  00002PRCP99
0186823920999992002060312004-03690-040340FM-12+008399999V0200901N001512200019N0500001N1+02701+02131101381ADDAA199000091GF103991031021004501001001KA1240N+02201MA1999999100361MD1999999-0081REMSYN076AAXX  03124 82392 32499 30903 10270 20213 30036 40138 83200 333 20220 59008;EQDQ01  00002PRCP99
0167823920999992002060318004-03690-040340FM-12+008399999V0201401N001012200019N0500001N1+03241+01751100981ADDAA199000091GF101991011011004501001001MA1999999099961MD1999999-0091REMSYN070AAXX  03184 82392 32499 11402 10324 20175 39996 40098 81100 333 59009;EQDQ01  00002PRCP99
0208823920999992002060400004-03700-040350FM-12+008399999V0203601N000512200019N0040001N1+02541+02231101291ADDAA199000091GA1001+999999999GF100991001001999999001001KA1240M+03291MA1999999100271MD1999999-0091REMSYN082AAXX  04004 82392 32996 03601 10254 20223 30027 40129 333 10329 29070 55094 59009;EQDQ01  00002PRCP99
0186823920999992002060412004-03700-040350FM-12+008399999V0201401N001012200019N0500001N1+02721+02081101371ADDAA199000091GF102991011011004501031001KA1240N+02181MA1999999100351MD1999999-0011REMSYN076AAXX  04124 82392 32499 21402 10272 20208 30035 40137 81130 333 20218 59001;EQDQ01  00002PRCP99
0167823920999992002060418004-03700-040350FM-12+008399999V0201401N000510450019N0500001N1+03311+01821100861ADDAA199000091GF105991031021004501011001MA1999999099841MD1999999-0121REMSYN070AAXX  04184 82392 32499 51401 10331 20182 39984 40086 83210 333 59012;EQDQ01  00002PRCP99
0214823920999992002060500004-03700-040350FM-12+008399999V0203601N000519999999N0040001N1+02541+02351101231ADDAA199000091GF106991999011008001001001KA1240M+03341MA1999999100211MD1999999-0061REMSYN088AAXX  05004 82392 32596 63601 10254 20235 30021 40123 82100 333 10334 29072 55097 59006;EQDQ01+000022SCOTLCQ02  00002PRCP99
0186823920999992002060512004-03700-040350FM-12+008399999V0201801N001010042019N0500001N1+02681+02261101321ADDAA199000091GF105991051021004501001001KA1240N+02141MA1999999100301MD1999999-0051REMSYN076AAXX  05124 82392 32499 51802 10268 20226 30030 40132 85200 333 20214 59005;EQDQ01  00002PRCP99
0167823920999992002060518004-03700-040350FM-12+008399999V0201401N001012200019N0500001N1+03321+01781100891ADDAA199000091GF103991031021004501001001MA1999999099871MD1999999+0031REMSYN070AAXX  05184 82392 32499 31402 10332 20178 39987 40089 83200 333 58003;EQDQ01  00002PRCP99
0208823920999992002060600004-03700-040350FM-12+008399999V0203601N000512200019N0040001N1+02501+02071101141ADDAA199000091GA1001+999999999GF100991001001999999001001KA1240M+03361MA1999999100121MD1999999-0091REMSYN082AAXX  06004 82392 32996 03601 10250 20207 30012 40114 333 10336 29068 55093 59009;EQDQ01  00002PRCP99
0167823920999992002060618004-03700-040350FM-12+008399999V0201401N000510450019N0500001N1+03241+01931100901ADDAA199000091GF106991031021004501031001MA1999999099881MD1999999+0011REMSYN070AAXX  06184 82392 32499 61401 10324 20193 39988 40090 83230 333 58001;EQDQ01  00002PRCP99
0208823920999992002060700004-03700-040350FM-12+008399999V0203601N001012200019N0040001N1+02421+02251101201ADDAA199000091GA1001+999999999GF100991001001999999001001KA1240M+03401MA1999999100181MD1999999+0061REMSYN082AAXX  07004 82392 32996 03602 10242 20225 30018 40120 333 10340 29076 55072 58006;EQDQ01  00002PRCP99
0186823920999992002060712004-03700-040350FM-12+008399999V0202301N000512200019N0500001N1+02541+01951101871ADDAA199000091GF103991021011004501031001KA1240N+02121MA1999999100261MD1999999-0011REMSYN076AAXX  07124 82392 32499 32301 10254 20195 30026 40187 82130 333 20212 59001;EQDQ01  00002PRCP99
0183823920999992002060718004-03700-040350FM-12+008399999V0200901N000512200019N0500001N1+03071+01881101062ADDAA199000091GF104991021011004501031001MA1999999100041MD1999999-0161REMSYN070AAXX  07184 82392 32499 40901 10307 20188 30004 40106 82130 333 59016;EQDQ01+101063APOSLPQ02  00002PRCP99
0198823920999992002060800004-03700-040350FM-12+008399999V0200501N001012200019N0040001N1+02481+01901101331ADDAA199000091GF101991011001008001031001KA1240M+03121MA1999999100301MD1999999+0121REMSYN088AAXX  08004 82392 32596 10502 10248 20190 30030 40133 81030 333 10312 29065 55075 58012;EQDQ01  00002PRCP99
0209823920999992002060812004-03700-040350FM-12+008399999V0201801N001019999999N0500001N1+02671+02241101511ADDAY151061AY251061GF106991999021004501001001KA1240N+02161MA1999999100481MD1999999+0221MW1021REMSYN088AAXX  08124 82392 21499 61802 10267 20224 30048 40151 70255 83200 333 20216 58022 69924;EQDQ01+000032SCOTLC
0183823920999992002060818004-03700-040350FM-12+008399999V0200901N001519999999N0500001N1+02721+02161101241ADDAA199000091GF107991999011008001001001MA1999999100241MD1999999+0171REMSYN070AAXX  08184 82392 32599 70903 10272 20216 30024 40124 82100 333 58017;EQDQ01+000022SCOTLCQ02  00002PRCP99
0198823920999992002060900004-03700-040350FM-12+008399999V0200501N000510450019N0040001N1+02481+02151101441ADDAA199000091GF106991041061008001031001KA1240M+02921MA1999999100421MD1999999+0121REMSYN088AAXX  09004 82392 32596 60501 10248 20215 30042 40144 84630 333 10292 29079 55040 58012;EQDQ01  00002PRCP99
0186823920999992002060912004-03700-040350FM-12+008399999V0202301N000512200019N0500001N1+02661+02201101431ADDAA199000091GF101991011011004501001001KA1240N+01981MA1999999100411MD1999999-0071REMSYN076AAXX  09124 82392 32499 12301 10266 20220 30041 40143 81100 333 20198 59007;EQDQ01  00002PRCP99
0167823920999992002060918004-03700-040350FM-12+008399999V0201801N001012200019N0500001N1+03281+01741101001ADDAA199000091GF101991011011004501001001MA1999999099981MD1999999-0231REMSYN070AAXX  09184 82392 32499 11802 10328 20174 39998 40100 81100 333 59023;EQDQ01  00002PRCP99
0198823920999992002061000004-03700-040350FM-12+008399999V0203601N001512200019N0040001N1+02581+02441101281ADDAA199000091GF103991031001008001031001KA1240M+03341MA1999999100261MD1999999-0161REMSYN088AAXX  10004 82392 32596 33603 10258 20244 30026 40128 83030 333 10334 29075 55100 59016;EQDQ01  00002PRCP99
0186823920999992002061012004-03700-040350FM-12+008399999V0201401N001512200019N0500001N1+02681+02221101441ADDAA199000091GF102991021021004501001001KA1240N+02181MA1999999100421MD1999999+0011REMSYN076AAXX  10124 82392 32499 21403 10268 20222 30042 40144 82200 333 20218 58001;EQDQ01  00002PRCP99
0167823920999992002061018004-03700-040350FM-12+008399999V0201401N002112200019N0500001N1+03221+01911101021ADDAA199000091GF103991021021004501031001MA1999999100001MD1999999+0021REMSYN070AAXX  10184 82392 32499 31404 10322 20191 30000 40102 82230 333 58002;EQDQ01  00002PRCP99
0214823920999992002061100004-03700-040350FM-12+008399999V0200501N001012200019N0040001N1+02501+02291101281ADDAA199000091GF101991999011008001001001KA1240M+03301MA1999999100261MD1999999+0021REMSYN088AAXX  11004 82392 32596 10502 10250 20229 30026 40128 82100 333 10330 29075 55084 58002;EQDQ01+000022SCOTLCQ02  00002PRCP99
0186823920999992002061112004-03700-040350FM-12+008399999V0201401N002112200019N0500001N1+02801+02251101361ADDAA199000091GF103991031021004501001001KA1240N+02241MA1999999100341MD1999999-0081REMSYN076AAXX  11124 82392 32499 31404 10280 20225 30034 40136 83200 333 20224 59008;EQDQ01  00002PRCP99
0167823920999992002061118004-03700-040350FM-12+008399999V0200901N000510450019N0500001N1+03151+02081100961ADDAA199000091GF106991041061004501031001MA1999999099941MD1999999-0061REMSYN070AAXX  11184 82392 32499 60901 10315 20208 39994 40096 84630 333 59006;EQDQ01  00002PRCP99
0198823920999992002061200004-03700-040350FM-12+008399999V0200501N000512200019N0040001N1+02551+02311101271ADDAA199000091GF103991021061004501021001KA1240M+03371MA1999999100251MD1999999-0011REMSYN088AAXX  12004 82392 32496 30501 10255 20231 30025 40127 82620 333 10337 29074 55076 59001;EQDQ01  00002PRCP99
0186823920999992002061212004-03700-040350FM-12+008399999V0201401N001012200019N0500001N1+02741+02261101361ADDAA199000091GF104991031021004501031001KA1240N+02001MA1999999100341MD1999999+0001REMSYN076AAXX  12124 82392 32499 41402 10274 20226 30034 40136 83230 333 20200 58000;EQDQ01  00002PRCP99
0167823920999992002061218004-03700-040350FM-12+008399999V0200901N000510042019N0500001N1+03021+02261101021ADDAA199000091GF106991051041004501031001MA1999999100001MD1999999+0061REMSYN070AAXX  12184 82392 32499 60901 10302 20226 30000 40102 85430 333 58006;EQDQ01  00002PRCP99
0202823920999992002061300004-03700-040350FM-12+008399999V0200501N001010450019N0040001N1+02361+02331101371ADDAY161061AY261061GF106991041061004501021001KA1240M+03261MA1999999100351MD1999999+0101MW1021REMSYN100AAXX  13004 82392 21496 60502 10236 20233 30035 40137 70266 84620 333 10326 29084 55065 58010 60171;
0190823920999992002061312004-03700-040350FM-12+008399999V0201801N000510450019N0500001N1+02631+02351101451ADDAY151061AY251061GF106991041061004501031001KA1240N+02281MA1999999100421MD1999999+0081MW1021REMSYN088AAXX  13124 82392 21499 61801 10263 20235 30042 40145 70255 84630 333 20228 58008 60184;
0167823920999992002061318004-03700-040350FM-12+008399999V0203601N000512200019N0500001N1+02451+02201101001ADDAA199000091GF104991021051004501031001MA1999999099981MD1999999-0021REMSYN070AAXX  13184 82392 32499 43601 10245 20220 39998 40100 82530 333 59002;EQDQ01  00002PRCP99
0162823920999992002061412004-03700-040350FM-12+008399999V0202701N000510042019N0500001N1+02581+02211101541ADDGF108991051061004501021999KA1240N+02241MA1999999100501MD1999999+0081REMSYN082AAXX  14124 82392 22499 82701 10258 20221 30050 40154 8562/ 333 20224 58008 69914;
0167823920999992002061418004-03700-040350FM-12+008399999V0200901N001510450019N0500001N1+03171+01941101181ADDAA199000091GF106991031021004501031001MA1999999100161MD1999999+0181REMSYN070AAXX  14184 82392 32499 60903 10317 20194 30016 40118 83230 333 58018;EQDQ01  00002PRCP99
0198823920999992002061500004-03700-040350FM-12+008399999V0203601N000512200019N0040001N1+02321+02291101451ADDAA199000091GF102991021011008001001001KA1240M+03201MA1999999100421MD1999999+0101REMSYN088AAXX  15004 82392 32596 23601 10232 20229 30042 40145 82100 333 10320 29081 55076 58010;EQDQ01  00002PRCP99
0186823920999992002061512004-03700-040350FM-12+008399999V0202301N001512200019N0500001N1+02621+02271101501ADDAA199000091GF101991011011004501001001KA1240N+02001MA1999999100461MD1999999-0041REMSYN076AAXX  15124 82392 32499 12303 10262 20227 30046 40150 81100 333 20200 59004;EQDQ01  00002PRCP99
0198823920999992002061600004-03700-040350FM-12+008399999V0203601N001010450019N0040001N1+02581+02441101421ADDAA199000091GF106991041021004501031001KA1240M+03301MA1999999100401MD1999999-0021REMSYN088AAXX  16004 82392 32496 63602 10258 20244 30040 40142 84230 333 10330 29076 55085 59002;EQDQ01  00002PRCP99
0209823920999992002061612004-03700-040350FM-12+008399999V0201401N001010042019N0500001N1+02521+02361101591ADDAY161061AY261061GF107991999021004501001001KA1240N+02211MA1999999100561MD1999999+0101MW1201REMSYN088AAXX  16124 82392 21499 71402 10252 20236 30056 40159 72066 86200 333 20221 58010 60074;EQDQ01+000062SCOTLC
0190823920999992002061618004-03700-040350FM-12+008399999V0201801N001019999999N0500001N1+02711+02001101241ADDAY161061AY261061GF107991999011004501001001MA1999999100241MD1999999+0071MW1061REMSYN082AAXX  16184 82392 21499 71802 10271 20200 30024 40124 70666 82100 333 58007 60021;EQDQ01+000022SCOTLC
0198823920999992002061700004-03700-040350FM-12+008399999V0200501N001019999999N0040001N1+02461+02361101461ADDAA199000021GF107991999011004501001001KA1240M+02821MA1999999100431MD1999999+0031REMSYN088AAXX  17004 82392 32496 70502 10246 20236 30043 40146 82100 333 10282 29089 55024 58003;EQDQ01+000022SCOTLC
0162823920999992002061712004-03700-040350FM-12+008399999V0202301N000510042019N0500001N1+02561+02291101521ADDGF106991051041004501031001KA1240N+02201MA1999999100481MD1999999-0071REMSYN082AAXX  17124 82392 22499 62301 10256 20229 30048 40152 85430 333 20220 59007 60024;
0167823920999992002061718004-03700-040350FM-12+008399999V0201401N001010042019N0500001N1+03141+01801101111ADDAA199000091GF106991051021004501031001MA1999999100091MD1999999-0121REMSYN070AAXX  17184 82392 32499 61402 10314 20180 30009 40111 85230 333 59012;EQDQ01  00002PRCP99
0198823920999992002061800004-03700-040350FM-12+008399999V0200501N000510450019N0040001N1+02621+01981101351ADDAA199000091GF105991021061004501031001KA1240M+03341MA1999999100331MD1999999-0101REMSYN088AAXX  18004 82392 32496 50501 10262 20198 30033 40135 82630 333 10334 29067 55087 59010;EQDQ01  00002PRCP99
0186823920999992002061812004-03690-040340FM-12+008399999V0201401N001012200019N0500001N1+02721+02151101481ADDAA199000091GF103991031021004501001001KA1240N+02301MA1999999100451MD1999999-0041REMSYN076AAXX  18124 82392 32499 31402 10272 20215 30045 40148 83200 333 20230 59004;EQDQ01  00002PRCP99
0221823920999992002061900004-03690-040340FM-12+008399999V0200901N001019999999N0040001N1+02281+02231101571ADDAY151061AY251061GF108991999011004501001001KA1240M+03111MA1999999100531MD1999999+0201MW1611REMSYN100AAXX  19004 82392 21496 80902 10228 20223 30053 40157 76155 82100 333 10311 29082 55064 58020 60031;EQDQ01+000022SCOTLC
0190823920999992002061912004-03690-040340FM-12+008399999V0202301N000512200019N0500001N1+02481+02321101591ADDAY161061AY221061GF103991031021004501001001KA1240N+02181MA1999999100551MD1999999+0101MW1021REMSYN088AAXX  19124 82392 21499 32301 10248 20232 30055 40159 70262 83200 333 20218 58010 60134;
0198823920999992002062000004-03690-040340FM-12+008399999V0209999C000012200019N0040001N1+02421+01991101501ADDAA199000091GF101991011001008001031001KA1240M+03081MA1999999100461MD1999999-0071REMSYN088AAXX  20004 82392 32596 10000 10242 20199 30046 40150 81030 333 10308 29076 55087 59007;EQDQ01  00002PRCP99
0186823920999992002062012004-03690-040340FM-12+008399999V0202301N000510450019N0500001N1+02641+02181101521ADDAA199000091GF106991021021004501031001KA1240N+02081MA1999999100481MD1999999-0071REMSYN076AAXX  20124 82392 32499 62301 10264 20218 30048 40152 82230 333 20208 59007;EQDQ01  00002PRCP99
0167823920999992002062018004-03690-040340FM-12+008399999V0200901N001010450019N0500001N1+03041+02151101191ADDAA199000091GF106991021021004501031001MA1999999100171MD1999999-0061REMSYN070AAXX  20184 82392 32499 60902 10304 20215 30017 40119 82230 333 59006;EQDQ01  00002PRCP99
0167823920999992002062118004-03700-040350FM-12+008399999V0200901N000510042019N0500001N1+02881+02161101181ADDAA199000091GF108991051061004501031001MA1999999100151MD1999999-0021REMSYN070AAXX  21184 82392 32499 80901 10288 20216 30015 40118 85630 333 59002;EQDQ01  00002PRCP99
0198823920999992002062200004-03700-040350FM-12+008399999V0200901N000510450019N0040001N1+02421+02391101541ADDAA199000091GF108991031071004501021999KA1240M+03061MA1999999100501MD1999999+0001REMSYN088AAXX  22004 82392 32496 80901 10242 20239 30050 40154 8372/ 333 10306 29086 55055 58000;EQDQ01  00002PRCP99
0202823920999992002062212004-03700-040350FM-12+008399999V0200501N001019999999N0500001N1+02711+02171101591ADDAA199000091GF105991999011008001001001KA1240N+02281MA1999999100561MD1999999+0001REMSYN076AAXX  22124 82392 32599 50502 10271 20217 30056 40159 82100 333 20228 58000;EQDQ01+000022SCOTLCQ02  00002PRCP99
0183823920999992002062218004-03700-040350FM-12+008399999V0200901N000519999999N0500001N1+03101+01971101181ADDAA199000091GF105991999011004501001001MA1999999100161MD1999999+0011REMSYN070AAXX  22184 82392 32499 50901 10310 20197 30016 40118 82100 333 58001;EQDQ01+000022SCOTLCQ02  00002PRCP99
0214823920999992002062300004-03700-040350FM-12+008399999V0209999C000012200019N0500001N1+02441+02031101491ADDAA199000091GF102991021011008001001001KA1240M+03201MA1999999999999MD1999999-0041REMSYN088AAXX  23004 82392 32599 20000 10244 20203 39046 40149 82100 333 10320 29070 55077 59004;EQDQ01  00002PRCP99Q02 090463APOSP 
0186823920999992002062312004-03700-040350FM-12+008399999V0200901N001012200019N0020001N1+02621+02181101681ADDAA199000091GF101991011011004501001001KA1240N+01941MA1999999100641MD1999999+0081REMSYN076AAXX  23124 82392 32495 10902 10262 20218 30064 40168 81100 333 20194 58008;EQDQ01  00002PRCP99
0078823920999992002062318004-03700-040350FM-12+008399999V02099999999999999999N9999999N1+99999+99999999999REMSYN069AAXX  23184 82392 2495 10903 10328 20166 30020 40122 82100 333 58004;
0214823920999992002062400004-03700-040350FM-12+008399999V0203601N000519999999N0020001N1+02361+01991101581ADDAA199000091GF106991999011008001001001KA1240M+03321MA1999999100541MD1999999+0081REMSYN088AAXX  24004 82392 32595 63601 10236 20199 30054 40158 82100 333 10332 29069 55102 58008;EQDQ01+000022SCOTLCQ02  00002PRCP99
0183823920999992002062418004-03700-040350FM-12+008399999V0200901N001019999999N0500001N1+03121+01791101371ADDAA199000091GF105991999021004501001001MA1999999100351MD1999999+0141REMSYN070AAXX  24184 82392 32499 50902 10312 20179 30035 40137 84200 333 58014;EQDQ01+000042SCOTLCQ02  00002PRCP99
0208823920999992002062500004-03700-040350FM-12+008399999V0200501N000512200019N0040001N1+02301+02031101641ADDAA199000091GA1001+999999999GF100991001001999999001001KA1240M+03241MA1999999100601MD1999999+0041REMSYN082AAXX  25004 82392 32996 00501 10230 20203 30060 40164 333 10324 29071 55092 58004;EQDQ01  00002PRCP99
0186823920999992002062512004-03700-040350FM-12+008399999V0201401N000512200019N0500001N1+02601+01941101771ADDAA199000091GF103991031021004501001001KA1240N+01991MA1999999100731MD1999999+0021REMSYN076AAXX  25124 82392 32499 31401 10260 20194 30073 40177 83200 333 20199 58002;EQDQ01  00002PRCP99
0167823920999992002062518004-03700-040350FM-12+008399999V0200501N000510450019N0500001N1+03121+01791101381ADDAA199000091GF106991021021004501031001MA1999999100361MD1999999+0011REMSYN070AAXX  25184 82392 32499 60501 10312 20179 30036 40138 82230 333 58001;EQDQ01  00002PRCP99
0198823920999992002062600004-03700-040350FM-12+008399999V0203601N001010042019N0040001N1+02561+02171101691ADDAA199000091GF107991051051004501031001KA1240M+03241MA1999999100651MD1999999+0051REMSYN088AAXX  26004 82392 32496 73602 10256 20217 30065 40169 85530 333 10324 29068 55061 58005;EQDQ01  00002PRCP99
0186823920999992002062612004-03700-040350FM-12+008399999V0202301N000510450019N0500001N1+02521+02311101801ADDAA199000091GF108991041051004501021999KA1240N+02241MA1999999100761MD1999999+0031REMSYN076AAXX  26124 82392 32499 82301 10252 20231 30076 40180 8452/ 333 20224 58003;EQDQ01  00002PRCP99
0186823920999992002062712004-03700-040350FM-12+008399999V0200901N003110450019N0500001N1+02671+02121101701ADDAA199000091GF106991041051004501031001KA1240N+02021MA1999999100661MD1999999-0111REMSYN076AAXX  27124 82392 32499 60906 10267 20212 30066 40170 84530 333 20202 59011;EQDQ01  00002PRCP99
0167823920999992002062718004-03700-040350FM-12+008399999V0200901N000510042019N0500001N1+03201+01821101231ADDAA199000091GF106991061061004501001001MA1999999100211MD1999999-0241REMSYN070AAXX  27184 82392 32499 60901 10320 20182 30021 40123 86600 333 59024;EQDQ01  00002PRCP99
0198823920999992002062800004-03700-040350FM-12+008399999V0203601N001010450019N0040001N1+02501+02131101551ADDAA199000091GF106991041051004501031001KA1240M+03361MA1999999100521MD1999999-0131REMSYN088AAXX  28004 82392 32496 63602 10250 20213 30052 40155 84530 333 10336 29069 55076 59013;EQDQ01  00002PRCP99
0186823920999992002062812004-03700-040350FM-12+008399999V0201401N001510450019N0500001N1+02601+02191101611ADDAA199000091GF106991041021004501031001KA1240N+02061MA1999999100581MD1999999-0081REMSYN076AAXX  28124 82392 32499 61403 10260 20219 30058 40161 84230 333 20206 59008;EQDQ01  00002PRCP99
0167823920999992002062818004-03700-040350FM-12+008399999V0200901N001010042019N0500001N1+03111+01951101151ADDAA199000091GF108991061051004501031001MA1999999100131MD1999999-0081REMSYN070AAXX  28184 82392 32499 80902 10311 20195 30013 40115 86530 333 59008;EQDQ01  00002PRCP99
0214823920999992002062900004-03700-040350FM-12+008399999V0203601N001012200019N0040001N1+02321+02181101431ADDAA199000091GF101991999011008001001001KA1240M+03181MA1999999100401MD1999999-0121REMSYN088AAXX  29004 82392 32596 13602 10232 20218 30040 40143 82100 333 10318 29078 55035 59012;EQDQ01+000022SCOTLCQ02  00002PRCP99
0186823920999992002062912004-03700-040350FM-12+008399999V0200901N001512200019N0500001N1+02701+02131101601ADDAA199000091GF104991041021004501001001KA1240N+02001MA1999999100561MD1999999-0021REMSYN076AAXX  29124 82392 32499 40903 10270 20213 30056 40160 84200 333 20200 59002;EQDQ01  00002PRCP99
0167823920999992002062918004-03700-040350FM-12+008399999V0200901N001012200019N0500001N1+03381+01621101121ADDAA199000091GF103991031021004501001001MA1999999100101MD1999999-0031REMSYN070AAXX  29184 82392 32499 30902 10338 20162 30010 40112 83200 333 59003;EQDQ01  00002PRCP99
0208823920999992002063000004-03700-040350FM-12+008399999V0203601N001012200019N0040001N1+02521+02311101511ADDAA199000091GA1001+999999999GF100991001001999999001001KA1240M+03481MA1999999100481MD1999999+0081REMSYN082AAXX  30004 82392 32996 03602 10252 20231 30048 40151 333 10348 29070 55096 58008;EQDQ01  00002PRCP99
0186823920999992002063012004-03700-040350FM-12+008399999V0200901N000510042019N0500001N1+02731+02121101661ADDAA199000091GF106991061041004501001001KA1240N+02101MA1999999100631MD1999999+0071REMSYN076AAXX  30124 82392 32499 60901 10273 20212 30063 40166 86400 333 20210 58007;EQDQ01  00002PRCP99
0167823920999992002063018004-03700-040350FM-12+008399999V0200901N001010450019N0500001N1+03271+01781101231ADDAA199000091GF105991041041004501031001MA1999999100211MD1999999+0111REMSYN070AAXX  30184 82392 32499 50902 10327 20178 30021 40123 84430 333 58011;EQDQ01  00002PRCP99
0198823920999992002070100004-03700-040350FM-12+008399999V0203601N000512200019N0040001N1+02581+02211101591ADDAA199000091GF102991021011004501001001KA1240M+03341MA1999999100561MD1999999+0081REMSYN088AAXX  01004 82392 32496 23601 10258 20221 30056 40159 82100 333 10334 29068 55090 58008;EQDQ01  00002PRCP99
0190823920999992002070112004-03700-040350FM-12+008399999V0202701N000510450019N0500001N1+02401+02351101781ADDAY161061AY221061GF108991031071004501021999KA1240N+02281MA1999999100741MD1999999+0111MW1021REMSYN088AAXX  01124 82392 21499 82701 10240 20235 30074 40178 70262 8372/ 333 20228 58011 60064;
0171823920999992002070118004-03700-040350FM-12+008399999V0202701N000510450019N0200001N1+02401+02391101541ADDAY161061AY261061GF108991041061004501021999MA1999999100501MD1999999+0291MW1511REMSYN082AAXX  01184 82392 21498 82701 10240 20239 30050 40154 75166 8462/ 333 58029 60051;
0221823920999992002070200004-03700-040350FM-12+008399999V0203601N000510042019N0040001N1+02341+02311101621ADDAY161061AY261061GF108991999061004501021999KA1240M+02621MA1999999100581MD1999999+0021MW1021REMSYN100AAXX  02004 82392 21496 83601 10234 20231 30058 40162 70266 8862/ 333 10262 29097 55002 58002 60021;EQDQ01+000082SCOTLC
0190823920999992002070212004-03700-040350FM-12+008399999V0202301N000512200019N0500001N1+02501+02341101651ADDAY151061AY251061GF104991041021004501001001KA1240N+02301MA1999999100611MD1999999-0131MW1021REMSYN088AAXX  02124 82392 21499 42301 10250 20234 30061 40165 70255 84200 333 20230 59013 60074;
0167823920999992002070218004-03700-040350FM-12+008399999V0200901N000510042019N0500001N1+03241+01861101151ADDAA199000091GF105991051021004501001001MA1999999100131MD1999999-0371REMSYN070AAXX  02184 82392 32499 50901 10324 20186 30013 40115 85200 333 59037;EQDQ01  00002PRCP99
0214823920999992002070300004-03700-040350FM-12+008399999V0203601N001012200019N0040001N1+02541+01931101381ADDAA199000091GF101991999011008001001001KA1240M+03301MA1999999100351MD1999999-0231REMSYN088AAXX  03004 82392 32596 13602 10254 20193 30035 40138 82100 333 10330 29068 55074 59023;EQDQ01+000022SCOTLCQ02  00002PRCP99
0186823920999992002070312004-03700-040350FM-12+008399999V0200901N001012200019N0500001N1+02601+01711101561ADDAA199000091GF101991011011004501001001KA1240N+01901MA1999999100531MD1999999-0081REMSYN076AAXX  03124 82392 32499 10902 10260 20171 30053 40156 81100 333 20190 59008;EQDQ01  00002PRCP99
0138823920999992002070318004-03700-040350FM-12+008399999V0201401N001512200019N0500001N1+03101+99999999999ADDAA199000091GF101991999999004501999999REMSYN070AAXX  03184 82392 32499 11403 10310 10128 30008 40110 81100 333 59005;EQDQ01  00002PRCP99
0198823920999992002070400004-03700-040350FM-12+008399999V0209999C000012200019N0040001N1+02461+01971101401ADDAA199000091GF101991011001008001031001KA1240M+03341MA1999999100371MD1999999+0021REMSYN088AAXX  04004 82392 32596 10000 10246 20197 30037 40140 81030 333 10334 29060 55103 58002;EQDQ01  00002PRCP99
0186823920999992002070412004-03700-040350FM-12+008399999V0200901N000510042019N0200001N1+02501+02211101611ADDAA199000091GF108991081051004501999999KA1240N+02011MA1999999100571MD1999999+0041REMSYN076AAXX  04124 82392 32498 80901 10250 20221 30057 40161 885// 333 20201 58004;EQDQ01  00002PRCP99
0171823920999992002070418004-03700-040350FM-12+008399999V0209999C000010042019N0500001N1+02671+02371101291ADDAY101061AY221061GF107991071051004501001001MA1999999100261MD1999999+0081MW1201REMSYN082AAXX  04184 82392 21499 70000 10267 20237 30026 40129 72002 87500 333 58008 69921;
0221823920999992002070500004-03700-040350FM-12+008399999V0202301N000512200019N0040001N1+02301+02161101551ADDAY151061AY251061GF101991999011008001001001KA1240M+02961MA1999999100511MD1999999+0141MW1021REMSYN100AAXX  05004 82392 21596 12301 10230 20216 30051 40155 70255 82100 333 10296 29087 55013 58014 69921;EQDQ01+000022SCOTLC
0162823920999992002070512004-03700-040350FM-12+008399999V0200901N000512200019N0500001N1+02581+02171101621ADDGF101991011011004501001001KA1240N+01801MA1999999100581MD1999999+0011REMSYN082AAXX  05124 82392 22499 10901 10258 20217 30058 40162 81100 333 20180 58001 69944;
0167823920999992002070518004-03700-040350FM-12+008399999V0200901N000512200019N0500001N1+03341+01671101981ADDAA199000091GF104991041021004501001001MA1999999099961MD1999999-0301REMSYN070AAXX  05184 82392 32499 40901 10334 20167 39996 40198 84200 333 59030;EQDQ01  00002PRCP99
0198823920999992002070600004-03700-040350FM-12+008399999V0203601N001012200019N0040001N1+02401+02231101331ADDAA199000091GF101991011001008001031001KA1240M+03361MA1999999100301MD1999999-0211REMSYN088AAXX  06004 82392 32596 13602 10240 20223 30030 40133 81030 333 10336 29074 55104 59021;EQDQ01  00002PRCP99
0183823920999992002070618004-03700-040350FM-12+008399999V0201401N000512200019N0500001N1+03331+01751100931ADDAA199000091GF104991999011008001001001MA1999999099911MD1999999-0051REMSYN070AAXX  06184 82392 32599 41401 10333 20175 39991 40093 82100 333 59005;EQDQ01+000022SCOTLCQ02  00002PRCP99
0214823920999992002070700004-03700-040350FM-12+008399999V0203601N001012200019N0020001N1+02561+02111101291ADDAA199000091GF101991999011008001001001KA1240M+03421MA1999999100241MD1999999-0031REMSYN088AAXX  07004 82392 32595 13602 10256 20211 30024 40129 82100 333 10342 29065 55098 59003;EQDQ01+000022SCOTLCQ02  00002PRCP99
0186823920999992002070712004-03700-040350FM-12+008399999V0200901N000512200019N0500001N1+02761+02091101561ADDAA199000091GF104991041021004501001001KA1240N+02081MA1999999100531MD1999999+0041REMSYN076AAXX  07124 82392 32499 40901 10276 20209 30053 40156 84200 333 20208 58004;EQDQ01  00002PRCP99
0167823920999992002070718004-03700-040350FM-12+008399999V0201801N000512200019N0500001N1+03411+01701101021ADDAA199000091GF104991041021004501001001MA1999999100001MD1999999+0091REMSYN070AAXX  07184 82392 32499 41801 10341 20170 30000 40102 84200 333 58009;EQDQ01  00002PRCP99
0208823920999992002070800004-03700-040350FM-12+008399999V0209999C000012200019N0040001N1+02581+02191101381ADDAA199000091GA1001+999999999GF100991001001999999001001KA1240M+03481MA1999999100361MD1999999+0091REMSYN082AAXX  08004 82392 32996 00000 10258 20219 30036 40138 333 10348 29062 55084 58009;EQDQ01  00002PRCP99
0186823920999992002070812004-03700-040350FM-12+008399999V0200901N000510042019N0500001N1+02821+02151101601ADDAA199000091GF105991051021004501001001KA1240N+02101MA1999999100571MD1999999+0041REMSYN076AAXX  08124 82392 32499 50901 10282 20215 30057 40160 85200 333 20210 58004;EQDQ01  00002PRCP99
0167823920999992002070818004-03700-040350FM-12+008399999V0200501N001012200019N0500001N1+03461+01821101161ADDAA199000091GF104991041021004501001001MA1999999100041MD1999999+0041REMSYN070AAXX  08184 82392 32499 40502 10346 20182 30004 40116 84200 333 58004;EQDQ01  00002PRCP99
0198823920999992002070900004-03700-040350FM-12+008399999V0200501N000512200019N0040001N1+02641+02251101411ADDAA199000091GF102991021011008001001001KA1240M+03491MA1999999100391MD1999999+0031REMSYN088AAXX  09004 82392 32596 20501 10264 20225 30039 40141 82100 333 10349 29066 55089 58003;EQDQ01  00002PRCP99
0186823920999992002070912004-03700-040350FM-12+008399999V0209999C000010042019N0500001N1+02641+02251101661ADDAA199000091GF107991051041004501011001KA1240N+02131MA1999999100631MD1999999+0061REMSYN076AAXX  09124 82392 32499 70000 10264 20225 30063 40166 85410 333 20213 58006;EQDQ01  00002PRCP99
0167823920999992002070918004-03700-040350FM-12+008399999V0201801N000510450019N0500001N1+03391+02001101161ADDAA199000091GF106991041051004501011001MA1999999100141MD1999999+0101REMSYN070AAXX  09184 82392 32499 61801 10339 20200 30014 40116 84510 333 58010;EQDQ01  00002PRCP99
0212823920999992002071000004-03700-040350FM-12+008399999V0203601N000512200019N0040001N1+02501+02291101561ADDAY161061AY261061GA1001+999999999GF100991001001999999001001KA1240M+03401MA1999999100531MD1999999+0141MW1021REMSYN094AAXX  10004 82392 21996 03601 10250 20229 30053 40156 70266 333 10340 29058 55075 58014 69961;
0190823920999992002071012004-03700-040350FM-12+008399999V0209999C000010450019N0500001N1+02701+02281101711ADDAY161061AY261061GF106991041051004501031001KA1240N+02181MA1999999100681MD1999999+0051MW1021REMSYN088AAXX  10124 82392 21499 60000 10270 20228 30068 40171 70266 84530 333 20218 58005 69994;
0167823920999992002071018004-03700-040350FM-12+008399999V0203601N001010450019N0500001N1+02961+02151101311ADDAA199000091GF106991041071004501031001MA1999999100291MD1999999+0151REMSYN070AAXX  10184 82392 32499 63602 10296 20215 30029 40131 84730 333 58015;EQDQ01  00002PRCP99
0214823920999992002071100004-03700-040350FM-12+008399999V0200501N001019999999N0040001N1+02441+02211101621ADDAA199000091GF107991999011008001001001KA1240M+03161MA1999999100591MD1999999+0061REMSYN088AAXX  11004 82392 32596 70502 10244 20221 30059 40162 82100 333 10316 29079 55053 58006;EQDQ01+000022SCOTLCQ02  00002PRCP99
0186823920999992002071112004-03700-040350FM-12+008399999V0200901N000510042019N0500001N1+02691+02171101631ADDAA199000091GF106991061041004501001001KA1240N+02121MA1999999100601MD1999999-0081REMSYN076AAXX  11124 82392 32499 60901 10269 20217 30060 40163 86400 333 20212 59008;EQDQ01  00002PRCP99
0167823920999992002071118004-03700-040350FM-12+008399999V0201401N001510450019N0500001N1+03271+01931101061ADDAA199000091GF106991041041004501031001MA1999999100041MD1999999-0251REMSYN070AAXX  11184 82392 32499 61403 10327 20193 30004 40106 84430 333 59025;EQDQ01  00002PRCP99
0208823920999992002071200004-03700-040350FM-12+008399999V0203601N001012200019N0040001N1+02501+02151101361ADDAA199000091GA1001+999999999GF100991001001999999001001KA1240M+03361MA1999999100341MD1999999-0251REMSYN082AAXX  12004 82392 32996 03602 10250 20215 30034 40136 333 10336 29070 55074 59025;EQDQ01  00002PRCP99
0186823920999992002071212004-03700-040350FM-12+008399999V0200501N000512200019N0500001N1+02761+02021101551ADDAA199000091GF104991041021004501001001KA1240N+02011MA1999999100521MD1999999-0081REMSYN076AAXX  12124 82392 32499 40501 10276 20202 30052 40155 84200 333 20201 59008;EQDQ01  00002PRCP99
0183823920999992002071218004-03700-040350FM-12+008399999V0203601N000519999999N0500001N1+03391+01811101071ADDAA199000091GF105991999011008001001001MA1999999100051MD1999999+0011REMSYN070AAXX  12184 82392 32599 53601 10339 20181 30005 40107 82100 333 58001;EQDQ01+000022SCOTLCQ02  00002PRCP99
0208823920999992002071300004-03700-040350FM-12+008399999V0203601N000512200019N0020001N1+02461+02151101351ADDAA199000091GA1001+999999999GF100991001001999999001001KA1240M+03401MA1999999100331MD1999999-0011REMSYN082AAXX  13004 82392 32595 03601 10246 20215 30033 40135 333 10340 29067 55090 59001;EQDQ01  00002PRCP99
0186823920999992002071312004-03700-040350FM-12+008399999V0201401N000510450019N0500001N1+02721+02051101531ADDAA199000091GF105991041021004501031001KA1240N+01921MA1999999100501MD1999999-0021REMSYN076AAXX  13124 82392 32499 51401 10272 20205 30050 40153 84230 333 20192 59002;EQDQ01  00002PRCP99
0167823920999992002071318004-03700-040350FM-12+008399999V0209999C000012200019N0500001N1+03371+01791101041ADDAA199000091GF104991041021004501001001MA1999999100021MD1999999-0031REMSYN070AAXX  13184 82392 32499 40000 10337 20179 30002 40104 84200 333 59003;EQDQ01  00002PRCP99
0198823920999992002071400004-03700-040350FM-12+008399999V0203601N001512200019N0040001N1+02521+02351101361ADDAA199000091GF102991021001008001031001KA1240M+03481MA1999999100341MD1999999+0011REMSYN088AAXX  14004 82392 32596 23603 10252 20235 30034 40136 82030 333 10348 29068 55098 58001;EQDQ01  00002PRCP99
0202823920999992002071412004-03700-040350FM-12+008399999V0200501N001019999999N0500001N1+02691+02171101571ADDAA199000091GF106991999011008001001001KA1240N+02101MA1999999100541MD1999999+0041REMSYN076AAXX  14124 82392 32599 60502 10269 20217 30054 40157 82100 333 20210 58004;EQDQ01+000022SCOTLCQ02  00002PRCP99
0167823920999992002071418004-03700-040350FM-12+008399999V0203601N000512200019N0500001N1+03411+01701101041ADDAA199000091GF104991041021004501001001MA1999999100021MD1999999+0001REMSYN070AAXX  14184 82392 32499 43601 10341 20170 30002 40104 84200 333 58000;EQDQ01  00002PRCP99
0214823920999992002071500004-03700-040350FM-12+008399999V0200301N030822200019N0040001N1+02531+02251101401ADDAA199000091GF101991999011008001001001KA1240M+03421MA1999999100381MD1999999+0041REMSYN088AAXX  15004 82392 32596 10360 10253 20225 30038 40140 82100 333 10342 29069 55104 58004;EQDQ01+000022SCOTLCQ02  00002PRCP99
0186823920999992002071512004-03700-040350FM-12+008399999V0200901N001510450019N0500001N1+02721+02151101601ADDAA199000091GF106991041021004501031001KA1240N+02111MA1999999100571MD1999999+0031REMSYN076AAXX  15124 82392 32499 60903 10272 20215 30057 40160 84230 333 20211 58003;EQDQ01  00002PRCP99
0167823920999992002071618004-03700-040350FM-12+008399999V0200501N001012200019N0200001N1+03461+01691101081ADDAA199000091GF102991021011008001001001MA1999999100061MD1999999+0011REMSYN070AAXX  16184 82392 32598 20502 10346 20169 30006 40108 82100 333 58001;EQDQ01  00002PRCP99
0208823920999992002071700004-03700-040350FM-12+008399999V0203601N001012200019N0040001N1+02521+02021101421ADDAA199000091GA1001+999999999GF100991001001999999001001KA1240M+03461MA1999999100401MD1999999+0061REMSYN082AAXX  17004 82392 32996 03602 10252 20202 30040 40142 333 10346 29071 55108 58006;EQDQ01  00002PRCP99
0186823920999992002071712004-03700-040350FM-12+008399999V0201401N001012200019N0500001N1+02761+01801101691ADDAA199000091GF102991021011004501001001KA1240N+01881MA1999999100631MD1999999+0071REMSYN076AAXX  17124 82392 32499 21402 10276 20180 30063 40169 82100 333 20188 58007;EQDQ01  00002PRCP99
0167823920999992002071718004-03700-040350FM-12+008399999V0200901N000512200019N0500001N1+03491+01581101111ADDAA199000091GF102991021011004501001001MA1999999100091MD1999999+0031REMSYN070AAXX  17184 82392 32499 20901 10349 20158 30009 40111 82100 333 58003;EQDQ01  00002PRCP99
0208823920999992002071800004-03700-040350FM-12+008399999V0203601N000512200019N0040001N1+02561+01991101361ADDAA199000091GA1001+999999999GF100991001001999999001001KA1240M+03521MA1999999100341MD1999999-0061REMSYN082AAXX  18004 82392 32996 03601 10256 20199 30034 40136 333 10352 29058 55103 59006;EQDQ01  00002PRCP99
0186823920999992002071812004-03700-040350FM-12+008399999V0201401N001012200019N0500001N1+02831+01961101621ADDAA199000091GF104991041021004501001001KA1240N+01961MA1999999100591MD1999999-0041REMSYN076AAXX  18124 82392 32499 41402 10283 20196 30059 40162 84200 333 20196 59004;EQDQ01  00002PRCP99
0161823920999992002071818004-03700-040350FM-12+008399999V0209999C000012200019N0500001N1+03441+01531101101ADDAA199000091GF104991999999999999999999MA1999999100081MD1999999-0011REMSYN064AAXX  18184 82392 32999 40000 10344 20153 30008 40110 333 59001;EQDQ01  00002PRCP99
0208823920999992002071900004-03700-040350FM-12+008399999V0203601N000512200019N0040001N1+02591+01991101321ADDAA199000091GA1001+999999999GF100991001001999999001001KA1240M+03481MA1999999100301MD1999999-0041REMSYN082AAXX  19004 82392 32996 03601 10259 20199 30030 40132 333 10348 29057 55097 59004;EQDQ01  00002PRCP99
0186823920999992002071912004-03700-040350FM-12+008399999V0201401N000510042019N0500001N1+02811+02001101521ADDAA199000091GF106991061021004501001001KA1240N+02021MA1999999100491MD1999999-0101REMSYN076AAXX  19124 82392 32499 61401 10281 20200 30049 40152 86200 333 20202 59010;EQDQ01  00002PRCP99
0167823920999992002071918004-03700-040350FM-12+008399999V0203201N000512200019N0500001N1+03411+01741101001ADDAA199000091GF103991031011004501001001MA1999999099981MD1999999-0101REMSYN070AAXX  19184 82392 32499 33201 10341 20174 39998 40100 83100 333 59010;EQDQ01  00002PRCP99
0198823920999992002072000004-03700-040350FM-12+008399999V0203601N001012200019N0040001N1+02541+01931101291ADDAA199000091GF101991011001008001031001KA1240M+03441MA1999999100271MD1999999-0031REMSYN088AAXX  20004 82392 32596 13602 10254 20193 30027 40129 81030 333 10344 29059 55102 59003;EQDQ01  00002PRCP99
0186823920999992002072012004-03700-040350FM-12+008399999V0200901N001012200019N0500001N1+02841+01991101551ADDAA199000091GF104991041021008001001001KA1240N+02181MA1999999100521MD1999999+0031REMSYN076AAXX  20124 82392 32599 40902 10284 20199 30052 40155 84200 333 20218 58003;EQDQ01  00002PRCP99
0183823920999992002072018004-03700-040350FM-12+008399999V0201801N000512200019N0500001N1+03491+01631100991ADDAA199000091GF104991999011008001001001MA1999999099951MD1999999+0001REMSYN070AAXX  20184 82392 32599 41801 10349 20163 39995 40099 82100 333 58000;EQDQ01+000022SCOTLCQ02  00002PRCP99
0208823920999992002072100004-03700-040350FM-12+008399999V0200501N000512200019N0040001N1+02571+02081101291ADDAA199000091GA1001+999999999GF100991001001999999001001KA1240M+03551MA1999999100241MD1999999+0001REMSYN082AAXX  21004 82392 32996 00501 10257 20208 30024 40129 333 10355 29060 55101 58000;EQDQ01  00002PRCP99
0186823920999992002072112004-03700-040350FM-12+008399999V0200901N000510450019N0500001N1+02741+02071101451ADDAA199000091GF105991041041004501011001KA1240N+02011MA1999999100431MD1999999-0091REMSYN076AAXX  21124 82392 32499 50901 10274 20207 30043 40145 84410 333 20201 59009;EQDQ01  00002PRCP99
0167823920999992002072118004-03700-040350FM-12+008399999V0200901N001012200019N0500001N1+03431+01581100931ADDAA199000091GF104991041021004501001001MA1999999099911MD1999999-0071REMSYN070AAXX  21184 82392 32499 40902 10343 20158 39991 40093 84200 333 59007;EQDQ01  00002PRCP99
0186823920999992002072312004-03700-040350FM-12+008399999V0202301N000510042019N0500001N1+02641+02071101591ADDAA199000091GF105991051021004501001001KA1240N+02251MA1999999100561MD1999999+0071REMSYN076AAXX  23124 82392 32499 52301 10264 20207 30056 40159 85200 333 20225 58007;EQDQ01  00002PRCP99
0167823920999992002072318004-03700-040350FM-12+008399999V0200901N001012200019N0500001N1+03451+01691101051ADDAA199000091GF104991041021004501001001MA1999999100031MD1999999+0001REMSYN070AAXX  23184 82392 32499 40902 10345 20169 30003 40105 84200 333 58000;EQDQ01  00002PRCP99
0208823920999992002072400004-03700-040350FM-12+008399999V0203601N000512200019N0040001N1+02631+02071101271ADDAA199000091GA1001+999999999GF100991001001999999001001KA1240M+03491MA1999999100251MD1999999-0061REMSYN082AAXX  24004 82392 32996 03601 10263 20207 30025 40127 333 10349 29062 55080 59006;EQDQ01  00002PRCP99
0186823920999992002072412004-03700-040350FM-12+008399999V0200501N001010042019N0500001N1+02861+02061101521ADDAA199000091GF105991051021004501001001KA1240N+02041MA1999999100491MD1999999-0071REMSYN076AAXX  24124 82392 32499 50502 10286 20206 30049 40152 85200 333 20204 59007;EQDQ01  00002PRCP99
0167823920999992002072418004-03700-040350FM-12+008399999V0200901N000512200019N0500001N1+03471+01751101001ADDAA199000091GF104991041021004501001001MA1999999099991MD1999999-0041REMSYN070AAXX  24184 82392 32499 40901 10347 20175 39999 40100 84200 333 59004;EQDQ01  00002PRCP99
0214823920999992002072500004-03700-040350FM-12+008399999V0200501N000519999999N0040001N1+02641+02091101441ADDAA199000091GF106991999011008001001001KA1240M+03551MA1999999100421MD1999999+0071REMSYN088AAXX  25004 82392 32596 60501 10264 20209 30042 40144 82100 333 10355 29096 55106 58007;EQDQ01+000022SCOTLCQ02  00002PRCP99
0190823920999992002072512004-03700-040350FM-12+008399999V0200501N001010042019N0500001N1+02411+99999101601ADDAY161061AY261061GF107991051051004501021001KA1240N+02261MA1999999100571MD1999999+0081MW1211REMSYN088AAXX  25124 82392 21499 70502 10241 20262 30057 40160 72166 85520 333 20226 58008 60074;
0179823920999992002072600004-03700-040350FM-12+008399999V0200501N000510450019N0040001N1+02541+02041101401ADDAA199000021GF106991021051004501031001KA1240M+03221MA1999999100371MD1999999-0051REMSYN088AAXX  26004 82392 32496 60501 10254 20204 30037 40140 82530 333 10322 29073 55016 59005;
0186823920999992002072612004-03700-040350FM-12+008399999V0200901N000510042019N0500001N1+02791+02131101561ADDAA199000091GF106991061021004501001001KA1240N+02111MA1999999100531MD1999999-0041REMSYN076AAXX  26124 82392 32499 60901 10279 20213 30053 40156 86200 333 20211 59004;EQDQ01  00002PRCP99
0167823920999992002072618004-03700-040350FM-12+008399999V0200501N001010450019N0500001N1+03341+01671101161ADDAA199000091GF106991031051004501031001MA1999999100141MD1999999-0101REMSYN070AAXX  26184 82392 32499 60502 10334 20167 30014 40116 83530 333 59010;EQDQ01  00002PRCP99
0162823920999992002072712004-03700-040350FM-12+008399999V0200901N000510450019N0500001N1+02721+02051101631ADDGF106991041041004501031001KA1240N+02061MA1999999100601MD1999999+0071REMSYN082AAXX  27124 82392 22499 60901 10272 20205 30060 40163 84430 333 20206 58007 69924;
0167823920999992002072718004-03700-040350FM-12+008399999V0200901N001512200019N0500001N1+03411+01651101191ADDAA199000091GF104991041021004501001001MA1999999100171MD1999999+0131REMSYN070AAXX  27184 82392 32499 40903 10341 20165 30017 40119 84200 333 58013;EQDQ01  00002PRCP99
0198823920999992002072800004-03700-040350FM-12+008399999V0203601N000512200019N0040001N1+02581+02121101531ADDAA199000091GF101991011001008001031001KA1240M+03511MA1999999100501MD1999999+0041REMSYN088AAXX  28004 82392 32596 13601 10258 20212 30050 40153 81030 333 10351 29064 55096 58004;EQDQ01  00002PRCP99
0202823920999992002072812004-03700-040350FM-12+008399999V0200901N001019999999N0500001N1+02841+02071101721ADDAA199000091GF107991999011008001001001KA1240N+02121MA1999999100681MD1999999+0081REMSYN076AAXX  28124 82392 32599 70902 10284 20207 30068 40172 82100 333 20212 58008;EQDQ01+000022SCOTLCQ02  00002PRCP99
0183823920999992002072818004-03700-040350FM-12+008399999V0200901N001019999999N0020001N1+03441+01831101271ADDAA199000091GF106991999011004501001001MA1999999100261MD1999999+0091REMSYN070AAXX  28184 82392 32495 60902 10344 20183 30026 40127 82100 333 58009;EQDQ01+000022SCOTLCQ02  00002PRCP99
0208823920999992002072900004-03700-040350FM-12+008399999V0203601N001012200019N0040001N1+02581+02011101491ADDAA199000091GA1001+999999999GF100991001001999999001001KA1240M+03421MA1999999100461MD1999999-0041REMSYN082AAXX  29004 82392 32596 03602 10258 20201 30046 40149 333 10342 29064 55065 59004;EQDQ01  00002PRCP99
0186823920999992002072912004-03700-040350FM-12+008399999V0201401N000510450019N0500001N1+02691+02131101691ADDAA199000091GF106991041041004501031001KA1240N+02101MA1999999100661MD1999999+0201REMSYN076AAXX  29124 82392 32499 61401 10269 20213 30066 40169 84430 333 20210 58020;EQDQ01  00002PRCP99
0167823920999992002072918004-03700-040350FM-12+008399999V0200901N001012200019N0500001N1+03441+01581101181ADDAA199000091GF104991041021004501001001MA1999999100161MD1999999-0101REMSYN070AAXX  29184 82392 32499 40902 10344 20158 30016 40118 84200 333 59010;EQDQ01  00002PRCP99
0208823920999992002073000004-03700-040350FM-12+008399999V0203601N000512200019N0040001N1+02561+02021101461ADDAA199000091GA1001+999999999GF100991001001999999001001KA1240M+03571MA1999999100441MD1999999-0021REMSYN082AAXX  30004 82392 32996 03601 10256 20202 30044 40146 333 10357 29062 55092 59002;EQDQ01  00002PRCP99
0186823920999992002073012004-03700-040350FM-12+008399999V0200901N002612200019N0500001N1+02951+01791101621ADDAA199000091GF102991011011004501031001KA1240N+02101MA1999999100591MD1999999-0071REMSYN076AAXX  30124 82392 32499 20905 10295 20179 30059 40162 81130 333 20210 59007;EQDQ01  00002PRCP99
0167823920999992002073018004-03700-040350FM-12+008399999V0200901N003110450019N0500001N1+03261+01601101291ADDAA199000091GF108991031051004501021999MA1999999100271MD1999999+0111REMSYN070AAXX  30184 82392 32499 80906 10326 20160 30027 40129 8352/ 333 58011;EQDQ01  00002PRCP99
0214823920999992002073100004-03700-040350FM-12+008399999V0209999C000019999999N0040001N1+02541+01831101511ADDAA199000091GF106991999011008001001001KA1240M+03401MA1999999100481MD1999999+0041REMSYN088AAXX  31004 82392 32596 60000 10254 20183 30048 40151 82100 333 10340 29054 55074 58004;EQDQ01+000022SCOTLCQ02  00002PRCP99
0186823920999992002073112004-03700-040350FM-12+008399999V0200901N000512200019N0500001N1+02761+01861101581ADDAA199000091GF102991021041004501011001KA1240N+02041MA1999999100551MD1999999-0041REMSYN076AAXX  31124 82392 32499 20901 10276 20186 30055 40158 82410 333 20204 59004;EQDQ01  00002PRCP99
0167823920999992002073118004-03700-040350FM-12+008399999V0201401N002612200019N0500001N1+03451+01451101011ADDAA199000091GF103991031011004501001001MA1999999099991MD1999999-0281REMSYN070AAXX  31184 82392 32499 31405 10345 20145 39999 40101 83100 333 59028;EQDQ01  00002PRCP99
0208823920999992002080100004-03700-040350FM-12+008399999V0203601N000512200019N0040001N1+02551+01801101271ADDAA199000091GA1001+999999999GF100991001001999999001001KA1240M+03471MA1999999100251MD1999999-0231REMSYN082AAXX  01004 82392 32996 03601 10255 20180 30025 40127 333 10347 29054 55103 59023;EQDQ01  00002PRCP99
0186823920999992002080112004-03700-040350FM-12+008399999V0200901N002612200019N0500001N1+02841+01851101441ADDAA199000091GF103991031011004501001001KA1240N+02081MA1999999100421MD1999999-0131REMSYN076AAXX  01124 82392 32499 30905 10284 20185 30042 40144 83100 333 20208 59013;EQDQ01  00002PRCP99
0167823920999992002080118004-03700-040350FM-12+008399999V0200901N001010042019N0500001N1+03361+01561100961ADDAA199000091GF105991051021004501001001MA1999999099941MD1999999-0051REMSYN070AAXX  01184 82392 32499 50902 10336 20156 39994 40096 85200 333 59005;EQDQ01  00002PRCP99
0208823920999992002080200004-03700-040350FM-12+008399999V0203601N000512200019N0040001N1+02511+02011101351ADDAA199000091GA1001+999999999GF100991001001999999001001KA1240M+03501MA1999999100331MD1999999+0081REMSYN082AAXX  02004 82392 32996 03601 10251 20201 30033 40135 333 10350 29058 55096 58008;EQDQ01  00002PRCP99
0186823920999992002080212004-03700-040350FM-12+008399999V0200901N000512200019N0500001N1+02841+01991101631ADDAA199000091GF101991011011004501001001KA1240N+01961MA1999999100601MD1999999+0181REMSYN076AAXX  02124 82392 32499 10901 10284 20199 30060 40163 81100 333 20196 58018;EQDQ01  00002PRCP99
0167823920999992002080218004-03700-040350FM-12+008399999V0200501N000510450019N0500001N1+03541+01521101161ADDAA199000091GF106991031021004501031001MA1999999100151MD1999999+0211REMSYN070AAXX  02184 82392 32499 60501 10354 20152 30015 40116 83230 333 58021;EQDQ01  00002PRCP99
0198823920999992002080300004-03700-040350FM-12+008399999V0203601N000512200019N0040001N1+02821+02051101491ADDAA199000091GF103991021021004501031001KA1240M+03581MA1999999100461MD1999999+0131REMSYN088AAXX  03004 82392 32496 33601 10282 20205 30046 40149 82230 333 10358 29054 55088 58013;EQDQ01  00002PRCP99
0202823920999992002080312004-03700-040350FM-12+008399999V0200901N001012200019N0500001N1+02841+01991101711ADDAA199000091GF104991999011008001001001KA1240N+02181MA1999999100641MD1999999+0021REMSYN076AAXX  03124 82392 32599 40902 10284 20199 30064 40171 82100 333 20218 58002;EQDQ01+000022SCOTLCQ02  00002PRCP99
0183823920999992002080318004-03700-040350FM-12+008399999V0201401N001512200019N0500001N1+03461+01501101081ADDAA199000091GF104991999011008001001001MA1999999100071MD1999999-0021REMSYN070AAXX  03184 82392 32599 41403 10346 20150 30007 40108 82100 333 59002;EQDQ01+000022SCOTLCQ02  00002PRCP99
0208823920999992002080400004-03700-040350FM-12+008399999V0203601N002612200019N0040001N1+02601+02011101431ADDAA199000091GA1001+999999999GF100991001001999999001001KA1240M+03561MA1999999100411MD1999999-0051REMSYN082AAXX  04004 82392 32996 03605 10260 20201 30041 40143 333 10356 29058 55101 59005;EQDQ01  00002PRCP99
0186823920999992002080412004-03700-040350FM-12+008399999V0200901N000512200019N0500001N1+02821+01911101611ADDAA199000091GF104991041021004501001001KA1240N+02101MA1999999100581MD1999999-0101REMSYN076AAXX  04124 82392 32499 40901 10282 20191 30058 40161 84200 333 20210 59010;EQDQ01  00002PRCP99
0208823920999992002080500004-03700-040350FM-12+008399999V0203601N002612200019N0040001N1+02601+01541101231ADDAA199000091GA1001+999999999GF100991001001999999001001KA1240M+03561MA1999999100211MD1999999-0301REMSYN082AAXX  05004 82392 32996 03605 10260 20154 30021 40123 333 10356 29048 55087 59030;EQDQ01  00002PRCP99
0186823920999992002080512004-03700-040350FM-12+008399999V0201401N001010042019N0500001N1+02701+02061101571ADDAA199000091GF105991051021004501001001KA1240N+02091MA1999999100541MD1999999-0041REMSYN076AAXX  05124 82392 32499 51402 10270 20206 30054 40157 85200 333 20209 59004;EQDQ01  00002PRCP99
0167823920999992002080518004-03700-040350FM-12+008399999V0200901N001012200019N0500001N1+03441+01631101021ADDAA199000091GF102991021011004501001001MA1999999100011MD1999999-0011REMSYN070AAXX  05184 82392 32499 20902 10344 20163 30001 40102 82100 333 59001;EQDQ01  00002PRCP99
0208823920999992002080600004-03700-040350FM-12+008399999V0203601N001012200019N0040001N1+02561+01961101271ADDAA199000091GA1001+999999999GF100991001001999999001001KA1240M+03251MA1999999100241MD1999999-0061REMSYN082AAXX  06004 82392 32596 03602 10256 20196 30024 40127 333 10325 29060 55086 59006;EQDQ01  00002PRCP99
0186823920999992002080612004-03700-040350FM-12+008399999V0200901N002610042019N0500001N1+02721+02051101571ADDAA199000091GF106991051021004501031001KA1240N+02001MA1999999100541MD1999999+0001REMSYN076AAXX  06124 82392 32499 60905 10272 20205 30054 40157 85230 333 20200 58000;EQDQ01  00002PRCP99
0167823920999992002080618004-03700-040350FM-12+008399999V0201401N000512200019N0500001N1+03471+01521100991ADDAA199000091GF104991041021004501001001MA1999999099971MD1999999-0041REMSYN070AAXX  06184 82392 32499 41401 10347 20152 39997 40099 84200 333 59004;EQDQ01  00002PRCP99
0208823920999992002080700004-03700-040350FM-12+008399999V0203601N001012200019N0040001N1+02561+01971101351ADDAA199000091GA1001+999999999GF100991001001999999001001KA1240M+03481MA1999999100331MD1999999+0081REMSYN082AAXX  07004 82392 32996 03602 10256 20197 30033 40135 333 10348 29060 55082 58008;EQDQ01  00002PRCP99
0186823920999992002080712004-03700-040350FM-12+008399999V0201401N002112200019N0500001N1+02801+02001101631ADDAA199000091GF102991021021004501001001KA1240N+01901MA1999999100601MD1999999+0061REMSYN076AAXX  07124 82392 32499 21404 10280 20200 30060 40163 82200 333 20190 58006;EQDQ01  00002PRCP99
0167823920999992002080718004-03700-040350FM-12+008399999V0201401N003112200019N0500001N1+03501+01581101011ADDAA199000091GF102991021011004501001001MA1999999100001MD1999999+0031REMSYN070AAXX  07184 82392 32499 21406 10350 20158 30000 40101 82100 333 58003;EQDQ01  00002PRCP99
0208823920999992002080800004-03700-040350FM-12+008399999V0203601N001012200019N0040001N1+02541+01831101351ADDAA199000091GA1001+999999999GF100991001001999999001001KA1240M+03541MA1999999100331MD1999999+0001REMSYN082AAXX  08004 82392 32996 03602 10254 20183 30033 40135 333 10354 29056 55104 58000;EQDQ01  00002PRCP99
0186823920999992002080812004-03700-040350FM-12+008399999V0201401N000512200019N0500001N1+02841+01791101501ADDAA199000091GF103991031021004501001001KA1240N+01881MA1999999100471MD1999999-0131REMSYN076AAXX  08124 82392 32499 31401 10284 20179 30047 40150 83200 333 20188 59013;EQDQ01  00002PRCP99
0167823920999992002080818004-03700-040350FM-12+008399999V0201801N001012200019N0500001N1+03541+01351100941ADDAA199000091GF103991031011004501001001MA1999999099921MD1999999-0081REMSYN070AAXX  08184 82392 32499 31802 10354 20135 39992 40094 83100 333 59008;EQDQ01  00002PRCP99
0198823920999992002080900004-03700-040350FM-12+008399999V0200501N004612200019N0040001N1+02641+02051101301ADDAA199000091GF101991011001008001031001KA1240M+03101MA1999999100281MD1999999-0051REMSYN088AAXX  09004 82392 32596 10509 10264 20205 30028 40130 81030 333 10310 29055 55105 59005;EQDQ01  00002PRCP99
0186823920999992002080912004-03700-040350FM-12+008399999V0201401N001012200019N0500001N1+02801+02001101511ADDAA199000091GF103991031021004501001001KA1240N+02121MA1999999100481MD1999999+0011REMSYN076AAXX  09124 82392 32499 31402 10280 20200 30048 40151 83200 333 20212 58001;EQDQ01  00002PRCP99
0167823920999992002080918004-03700-040350FM-12+008399999V0200501N001510042019N0500001N1+03491+01681101021ADDAA199000091GF105991051021004501001001MA1999999100011MD1999999+0091REMSYN070AAXX  09184 82392 32499 50503 10349 20168 30001 40102 85200 333 58009;EQDQ01  00002PRCP99
0198823920999992002081000004-03700-040350FM-12+008399999V0200501N003112200019N0040001N1+02621+01881101301ADDAA199000091GF102991021011008001001001KA1240M+03541MA1999999100281MD1999999+0001REMSYN088AAXX  10004 82392 32596 20506 10262 20188 30028 40130 82100 333 10354 29056 55067 58000;EQDQ01  00002PRCP99
0186823920999992002081012004-03700-040350FM-12+008399999V0200901N001512200019N0500001N1+02841+01761101531ADDAA199000091GF104991041021004501001001KA1240N+02101MA1999999100501MD1999999+0021REMSYN076AAXX  10124 82392 32499 40903 10284 20176 30050 40153 84200 333 20210 58002;EQDQ01  00002PRCP99
0167823920999992002081018004-03700-040350FM-12+008399999V0200901N001012200019N0500001N1+03521+01501100981ADDAA199000091GF104991041021004501001001MA1999999099971MD1999999-0041REMSYN070AAXX  10184 82392 32499 40902 10352 20150 39997 40098 84200 333 59004;EQDQ01  00002PRCP99
0208823920999992002081100004-03700-040350FM-12+008399999V0203601N001512200019N0040001N1+02641+01901101321ADDAA199000091GA1001+999999999GF100991001001999999001001KA1240M+03591MA1999999101402MD1999999+0021REMSYN082AAXX  11004 82392 32996 03603 10264 20190 30140 40132 333 10359 29053 55104 58002;EQDQ01  00002PRCP99
0202823920999992002081112004-03700-040350FM-12+008399999V0201401N003112200019N0500001N1+02821+01861101611ADDAA199000091GF103991999011004501001001KA1240N+02041MA1999999100581MD1999999+0081REMSYN076AAXX  11124 82392 32499 31406 10282 20186 30058 40161 82100 333 20204 58008;EQDQ01+000022SCOTLCQ02  00002PRCP99
0183823920999992002081118004-03700-040350FM-12+008399999V0200901N001512200019N0500001N1+03381+01481101191ADDAA199000091GF101991999021008001001001MA1999999100151MD1999999+0201REMSYN070AAXX  11184 82392 32599 10903 10338 20148 30015 40119 83200 333 58020;EQDQ01+000032SCOTLCQ02  00002PRCP99
0208823920999992002081200004-03700-040350FM-12+008399999V0203601N002612200019N0040001N1+02641+01951101381ADDAA199000091GA1001+999999999GF100991001001999999001001KA1240M+03481MA1999999100361MD1999999+0061REMSYN082AAXX  12004 82392 32996 03605 10264 20195 30036 40138 333 10348 29052 55099 58006;EQDQ01  00002PRCP99
0186823920999992002081212004-03700-040350FM-12+008399999V0201401N001512200019N0500001N1+02841+01991101671ADDAA199000091GF103991031021004501001001KA1240N+02101MA1999999100641MD1999999+0061REMSYN076AAXX  12124 82392 32499 31403 10284 20199 30064 40167 83200 333 20210 58006;EQDQ01  00002PRCP99
0167823920999992002081218004-03700-040350FM-12+008399999V0200901N002112200019N0500001N1+03321+01851101221ADDAA199000091GF103991031021004501001001MA1999999100201MD1999999+0031REMSYN070AAXX  12184 82392 32499 30904 10332 20185 30020 40122 83200 333 58003;EQDQ01  00002PRCP99
0208823920999992002081300004-03700-040350FM-12+008399999V0203601N001012200019N0040001N1+02581+01941101491ADDAA199000091GA1001+999999999GF100991001001999999001001KA1240M+03381MA1999999100461MD1999999+0101REMSYN082AAXX  13004 82392 32996 03602 10258 20194 30046 40149 333 10338 29060 55101 58010;EQDQ01  00002PRCP99
0167823920999992002081318004-03700-040350FM-12+008399999V0200901N001012200019N0500001N1+03391+01721101161ADDAA199000091GF104991041021004501001001MA1999999100141MD1999999-0061REMSYN070AAXX  13184 82392 32499 40902 10339 20172 30014 40116 84200 333 59006;EQDQ01  00002PRCP99
0208823920999992002081400004-03700-040350FM-12+008399999V0203601N001012200019N0040001N1+02511+01981101461ADDAA199000091GA1001+999999999GF100991001001999999001001KA1240M+03481MA1999999100441MD1999999-0021REMSYN082AAXX  14004 82392 32596 03602 10251 20198 30044 40146 333 10348 29061 55079 59002;EQDQ01  00002PRCP99
0186823920999992002081412004-03700-040350FM-12+008399999V0200901N002612200019N0500001N1+02821+01941101671ADDAA199000091GF104991031021004501031001KA1240N+01901MA1999999100641MD1999999+0041REMSYN076AAXX  14124 82392 32499 40905 10282 20194 30064 40167 83230 333 20190 58004;EQDQ01  00002PRCP99
0167823920999992002081418004-03700-040350FM-12+008399999V0200901N003112200019N0500001N1+03521+01391101141ADDAA199000091GF101991011011004501001001MA1999999100121MD1999999-0021REMSYN070AAXX  14184 82392 32499 10906 10352 20139 30012 40114 81100 333 59002;EQDQ01  00002PRCP99
0208823920999992002081500004-03700-040350FM-12+008399999V0203601N001512200019N0040001N1+02541+01761101431ADDAA199000091GA1001+999999999GF100991001001999999001001KA1240M+03591MA1999999100411MD1999999-0031REMSYN082AAXX  15004 82392 32996 03603 10254 20176 30041 40143 333 10359 29053 55108 59003;EQDQ01  00002PRCP99
0186823920999992002081512004-03700-040350FM-12+008399999V0200901N000512200019N0500001N1+02701+99999101731ADDAA199000091GF104991041021004501001001KA1240N+02181MA1999999100701MD1999999+0061REMSYN076AAXX  15124 82392 32499 40901 10270 20299 30070 40173 84200 333 20218 58006;EQDQ01  00002PRCP99
0167823920999992002081518004-03700-040350FM-12+008399999V0201401N000512200019N0500001N1+03521+01451101171ADDAA199000091GF104991041021004501001001MA1999999100151MD1999999+0031REMSYN070AAXX  15184 82392 32499 41401 10352 20145 30015 40117 84200 333 58003;EQDQ01  00002PRCP99
0208823920999992002081600004-03700-040350FM-12+008399999V0200501N004612200019N0040001N1+02621+02051101491ADDAA199000091GA1001+999999999GF100991001001999999001001KA1240M+03581MA1999999100461MD1999999+0051REMSYN082AAXX  16004 82392 32996 00509 10262 20205 30046 40149 333 10358 29059 55103 58005;EQDQ01  00002PRCP99
0186823920999992002081612004-03700-040350FM-12+008399999V0200901N002612200019N0500001N1+02941+01911101591ADDAA199000091GF103991021011004501031001KA1240N+02281MA1999999100561MD1999999-0141REMSYN076AAXX  16124 82392 32499 30905 10294 20191 30056 40159 82130 333 20228 59014;EQDQ01  00002PRCP99
0167823920999992002081618004-03700-040350FM-12+008399999V0200901N003112200019N0500001N1+03631+00981101041ADDAA199000091GF101991011011004501001001MA1999999100031MD1999999-0121REMSYN070AAXX  16184 82392 32499 10906 10363 20098 30003 40104 81100 333 59012;EQDQ01  00002PRCP99
0208823920999992002081700004-03700-040350FM-12+008399999V0203601N002612200019N0040001N1+02721+02151101361ADDAA199000091GA1001+999999999GF100991001001999999001001KA1240M+03641MA1999999100341MD1999999-0121REMSYN082AAXX  17004 82392 32496 03605 10272 20215 30034 40136 333 10364 29054 55102 59012;EQDQ01  00002PRCP99
0202823920999992002081712004-03700-040350FM-12+008399999V0200901N003112200019N0500001N1+02881+01941101551ADDAA199000091GF103991999011008001001001KA1240N+02101MA1999999100521MD1999999-0041REMSYN076AAXX  17124 82392 32599 30906 10288 20194 30052 40155 82100 333 20210 59004;EQDQ01+000022SCOTLCQ02  00002PRCP99
0183823920999992002081718004-03700-040350FM-12+008399999V0200901N001519999999N0500001N1+03581+01441101011ADDAA199000091GF105991999021004501001001MA1999999100001MD1999999-0031REMSYN070AAXX  17184 82392 32499 50903 10358 20144 30000 40101 84200 333 59003;EQDQ01+000042SCOTLCQ02  00002PRCP99
0186823920999992002081812004-03700-040350FM-12+008399999V0200901N001510042019N0500001N1+02781+01961101551ADDAA199000091GF108991061051004501021001KA1240N+02301MA1999999100521MD1999999+0001REMSYN076AAXX  18124 82392 32499 80903 10278 20196 30052 40155 86520 333 20230 58000;EQDQ01  00002PRCP99
0167823920999992002081818004-03700-040350FM-12+008399999V0200901N002610450019N0500001N1+03371+01791100981ADDAA199000091GF105991031041004501031001MA1999999099971MD1999999-0031REMSYN070AAXX  18184 82392 32499 50905 10337 20179 39997 40098 83430 333 59003;EQDQ01  00002PRCP99
0198823920999992002081900004-03700-040350FM-12+008399999V0203601N000510450019N0040001N1+02601+02101101311ADDAA199000091GF106991021021004501031001KA1240M+03491MA1999999100291MD1999999+0011REMSYN088AAXX  19004 82392 32496 63601 10260 20210 30029 40131 82230 333 10349 29062 55077 58001;EQDQ01  00002PRCP99
0186823920999992002081912004-03700-040350FM-12+008399999V0201401N003112200019N0500001N1+02801+01951101531ADDAA199000091GF103991031021004501001001KA1240N+02301MA1999999100501MD1999999-0021REMSYN076AAXX  19124 82392 32499 31406 10280 20195 30050 40153 83200 333 20230 59002;EQDQ01  00002PRCP99
0208823920999992002082000004-03700-040350FM-12+008399999V0203601N000512200019N0040001N1+02681+01761101241ADDAA199000091GA1001+999999999GF100991001001999999001001KA1240M+03631MA1999999100221MD1999999-0071REMSYN082AAXX  20004 82392 32996 03601 10268 20176 30022 40124 333 10363 29051 55105 59007;EQDQ01  00002PRCP99
0186823920999992002082012004-03700-040350FM-12+008399999V0201401N001012200019N0500001N1+02801+02081101431ADDAA199000091GF104991031021004501031001KA1240N+02211MA1999999100411MD1999999-0091REMSYN076AAXX  20124 82392 32499 41402 10280 20208 30041 40143 83230 333 20221 59009;EQDQ01  00002PRCP99
0167823920999992002082018004-03700-040350FM-12+008399999V0200901N002610042019N0500001N1+03381+01621100951ADDAA199000091GF105991051021004501001001MA1999999099931MD1999999-0021REMSYN070AAXX  20184 82392 32499 50905 10338 20162 39993 40095 85200 333 59002;EQDQ01  00002PRCP99
0208823920999992002082100004-03700-040350FM-12+008399999V0203601N001012200019N0040001N1+02731+02071101331ADDAA199000091GA1001+999999999GF100991001001999999001001KA1240M+03521MA1999999100311MD1999999+0091REMSYN082AAXX  21004 82392 32996 03602 10273 20207 30031 40133 333 10352 29059 55093 58009;EQDQ01  00002PRCP99
0167823920999992002082118004-03700-040350FM-12+008399999V0200501N001012200019N0500001N1+03381+01751101121ADDAA199000091GF103991031021004501001001MA1999999100111MD1999999-0181REMSYN070AAXX  21184 82392 32499 30502 10338 20175 30011 40112 83200 333 59018;EQDQ01  00002PRCP99
0185823920999992002082200004-03700-040350FM-12+008399999V0203601N001012200019N0040001N1+02641+01881999999ADDAA199000091GA1001+999999999GF100991001001999999001001KA1240M+03441REMSYN088AAXX  22004 82392 32596 03602 10264 20188 10344 30042 40144 333 10344 29055 55104 58011;EQDQ01  00002PRCP99
0186823920999992002082212004-03700-040350FM-12+008399999V0200901N001512200019N0500001N1+02861+01681101641ADDAA199000091GF102991021011004501001001KA1240N+02141MA1999999100611MD1999999+0031REMSYN076AAXX  22124 82392 32499 20903 10286 20168 30061 40164 82100 333 20214 58003;EQDQ01  00002PRCP99
0167823920999992002082218004-03700-040350FM-12+008399999V0200901N002612200019N0500001N1+03451+01501101051ADDAA199000091GF104991041011004501001001MA1999999100031MD1999999-0081REMSYN070AAXX  22184 82392 32499 40905 10345 20150 30003 40105 84100 333 59008;EQDQ01  00002PRCP99
0208823920999992002082300004-03700-040350FM-12+008399999V0203601N001512200019N0040001N1+02581+01801101331ADDAA199000091GA1001+999999999GF100991001001999999001001KA1240M+03521MA1999999100311MD1999999-0111REMSYN082AAXX  23004 82392 32996 03603 10258 20180 30031 40133 333 10352 29051 55102 59011;EQDQ01  00002PRCP99
0186823920999992002082312004-03700-040350FM-12+008399999V0200901N003112200019N0500001N1+02941+01971101441ADDAA199000091GF103991031021004501001001KA1240N+02001MA1999999100451MD1999999-0191REMSYN076AAXX  23124 82392 32499 30906 10294 20197 30045 40144 83200 333 20200 59019;EQDQ01  00002PRCP99
0167823920999992002082318004-03700-040350FM-12+008399999V0200901N001012200019N0500001N1+03521+01551100961ADDAA199000091GF104991041021004501001001MA1999999099941MD1999999-0091REMSYN070AAXX  23184 82392 32499 40902 10352 20155 39994 40096 84200 333 59009;EQDQ01  00002PRCP99
0208823920999992002082400004-03700-040350FM-12+008399999V0203601N002612200019N0040001N1+02641+02231101321ADDAA199000091GA1001+999999999GF100991001001999999001001KA1240M+03541MA1999999100301MD1999999-0011REMSYN082AAXX  24004 82392 32996 03605 10264 20223 30030 40132 333 10354 29061 55106 59001;EQDQ01  00002PRCP99
0186823920999992002082412004-03700-040350FM-12+008399999V0201401N003112200019N0500001N1+02941+01621101391ADDAA199000091GF102991021011004501001001KA1240N+02141MA1999999100371MD1999999-0051REMSYN076AAXX  24124 82392 32499 21406 10294 20162 30037 40139 82100 333 20214 59005;EQDQ01  00002PRCP99
0167823920999992002082418004-03700-040350FM-12+008399999V0201401N000512200019N0500001N1+03571+01441100861ADDAA199000091GF102991021011004501001001MA1999999099851MD1999999-0091REMSYN070AAXX  24184 82392 32499 21401 10357 20144 39985 40086 82100 333 59009;EQDQ01  00002PRCP99
0208823920999992002082500004-03700-040350FM-12+008399999V0203601N001512200019N0040001N1+02621+01641101251ADDAA199000091GA1001+999999999GF100991001001999999001001KA1240M+03621MA1999999100231MD1999999-0071REMSYN082AAXX  25004 82392 32996 03603 10262 20164 30023 40125 333 10362 29046 55108 59007;EQDQ01  00002PRCP99
0202823920999992002082512004-03700-040350FM-12+008399999V0201801N001012200019N0500001N1+02721+01821101491ADDAA199000091GF101991999011004501001001KA1240N+01901MA1999999100461MD1999999+0091REMSYN076AAXX  25124 82392 32499 11802 10272 20182 30046 40149 82100 333 20190 58009;EQDQ01+000022SCOTLCQ02  00002PRCP99
0183823920999992002082518004-03700-040350FM-12+008399999V0201401N002612200019N0500001N1+03541+01541100981ADDAA199000091GF101991999011004501001001MA1999999099961MD1999999+0111REMSYN070AAXX  25184 82392 32499 11405 10354 20154 39996 40098 82100 333 58011;EQDQ01+000022SCOTLCQ02  00002PRCP99
0208823920999992002082600004-03700-040350FM-12+008399999V0200501N005712200019N0040001N1+02641+01951101281ADDAA199000091GA1001+999999999GF100991001001999999001001KA1240M+03541MA1999999100261MD1999999+0021REMSYN082AAXX  26004 82392 32996 00511 10264 20195 30026 40128 333 10354 29055 55109 58002;EQDQ01  00002PRCP99
0186823920999992002082612004-03700-040350FM-12+008399999V0200901N003112200019N0500001N1+02961+02051101511ADDAA199000091GF102991021011004501001001KA1240N+02121MA1999999100481MD1999999+0021REMSYN076AAXX  26124 82392 32499 20906 10296 20205 30048 40151 82100 333 20212 58002;EQDQ01  00002PRCP99
0167823920999992002082618004-03700-040350FM-12+008399999V0200901N000512200019N0500001N1+03651+01571101911ADDAA199000091GF104991041011004501001001MA1999999099901MD1999999-0061REMSYN070AAXX  26184 82392 32499 40901 10365 20157 39990 40191 84100 333 59006;EQDQ01  00002PRCP99
0208823920999992002082700004-03700-040350FM-12+008399999V0200501N002612200019N0040001N1+02701+02111101231ADDAA199000091GA1001+999999999GF100991001001999999001001KA1240M+03721MA1999999100211MD1999999-0051REMSYN082AAXX  27004 82392 32996 00505 10270 20211 30021 40123 333 10372 29048 55098 59005;EQDQ01  00002PRCP99
0186823920999992002082712004-03700-040350FM-12+008399999V0201401N002612200019N0500001N1+02841+02041101491ADDAA199000091GF101991011011004501001001KA1240N+02141MA1999999100461MD1999999-0021REMSYN076AAXX  27124 82392 32499 11405 10284 20204 30046 40149 81100 333 20214 59002;EQDQ01  00002PRCP99
0167823920999992002082718004-03700-040350FM-12+008399999V0201801N000512200019N0500001N1+03521+01651100961ADDAA199000091GF104991041011004501001001MA1999999099951MD1999999+0051REMSYN070AAXX  27184 82392 32499 41801 10352 20165 39995 40096 84100 333 58005;EQDQ01  00002PRCP99
0208823920999992002082800004-03700-040350FM-12+008399999V0200501N005112200019N0040001N1+02601+02231101201ADDAA199000091GA1001+999999999GF100991001001999999001001KA1240M+03601MA1999999100181MD1999999-0031REMSYN082AAXX  28004 82392 32996 00510 10260 20223 30018 40120 333 10360 29064 55105 59003;EQDQ01  00002PRCP99
0186823920999992002082812004-03700-040350FM-12+008399999V0201401N002110450019N0500001N1+02761+01971101181ADDAA199000091GF105991041021004501031001KA1240N+02181MA1999999100261MD1999999-0201REMSYN076AAXX  28124 82392 32499 51404 10276 20197 30026 40118 84230 333 20218 59020;EQDQ01  00002PRCP99
0167823920999992002082818004-03700-040350FM-12+008399999V0201401N001012200019N0500001N1+03591+01771100721ADDAA199000091GF104991041021004501001001MA1999999099711MD1999999-0241REMSYN070AAXX  28184 82392 32499 41402 10359 20177 39971 40072 84200 333 59024;EQDQ01  00002PRCP99
0208823920999992002082900004-03700-040350FM-12+008399999V0200501N005112200019N0040001N1+02601+02231101201ADDAA199000091GA1001+999999999GF100991001001999999001001KA1240M+03601MA1999999100181MD1999999-0031REMSYN082AAXX  29004 82392 32996 00510 10260 20223 30018 40120 333 10360 29064 55105 59003;EQDQ01  00002PRCP99
0186823920999992002082912004-03700-040350FM-12+008399999V0201801N003612200019N0500001N1+02861+01951101161ADDAA199000091GF104991041011004501001001KA1240N+02081MA1999999100141MD1999999-0121REMSYN076AAXX  29124 82392 32499 41807 10286 20195 30014 40116 84100 333 20208 59012;EQDQ01  00002PRCP99
0167823920999992002082918004-03700-040350FM-12+008399999V0200901N000512200019N0500001N1+03611+01641100601ADDAA106000091GF104991041011004501001001MA1999999099601MD1999999-0111REMSYN070AAXX  29184 82392 32499 40901 10361 20164 39960 40060 84100 333 59011;EQDQ01  00002PRCP06
0208823920999992002083000004-03700-040350FM-12+008399999V0200501N003112200019N0040001N1+02541+02061101121ADDAA106000091GA1001+999999999GF100991001001999999001001KA1240M+03801MA1999999100101MD1999999+0041REMSYN082AAXX  30004 82392 32996 00506 10254 20206 30010 40112 333 10380 29060 55101 58004;EQDQ01  00002PRCP06
0186823920999992002083012004-03700-040350FM-12+008399999V0200901N001512200019N0500001N1+02501+01871101271ADDAA106000091GF102991021011004501001001KA1240N+02211MA1999999100251MD1999999+0111REMSYN076AAXX  30124 82392 32499 20903 10250 20187 30025 40127 82100 333 20221 58011;EQDQ01  00002PRCP06
0167823920999992002083018004-03700-040350FM-12+008399999V0201401N001012200019N0500001N1+03581+01441100721ADDAA106000091GF102991011011004501001011MA1999999099711MD1999999+0111REMSYN070AAXX  30184 82392 32499 21402 10358 20144 39971 40072 81101 333 58011;EQDQ01  00002PRCP06
0208823920999992002083100004-03700-040350FM-12+008399999V0200501N002612200019N0040001N1+02581+02171101181ADDAA106000091GA1001+999999999GF100991001001999999001001KA1240M+03641MA1999999100161MD1999999+0061REMSYN082AAXX  31004 82392 32996 00505 10258 20217 30016 40118 333 10364 29059 55105 58006;EQDQ01  00002PRCP06
0186823920999992002083112004-03700-040350FM-12+008399999V0201801N001012200019N0500001N1+02801+02151101381ADDAA106000091GF103991031021004501001001KA1240N+02301MA1999999100361MD1999999+0111REMSYN076AAXX  31124 82392 32499 31802 10280 20215 30036 40138 83200 333 20230 58011;EQDQ01  00002PRCP06
0167823920999992002083118004-03700-040350FM-12+008399999V0200901N001012200019N0500001N1+03521+01501100871ADDAA106000091GF103991031021008001001001MA1999999099861MD1999999+0151REMSYN070AAXX  31184 82392 32599 30902 10352 20150 39986 40087 83200 333 58015;EQDQ01  00002PRCP06
0208823920999992002090100004-03700-040350FM-12+008399999V0200501N005112200019N0040001N1+02661+02091101221ADDAA106000091GA1001+999999999GF100991001001999999001001KA1240M+03621MA1999999100201MD1999999+0041REMSYN082AAXX  01004 82392 32996 00510 10266 20209 30020 40122 333 10362 29060 55098 58004;EQDQ01  00002PRCP06
0186823920999992002090112004-03700-040350FM-12+008399999V0200901N001010075019N0500001N1+02981+01981101351ADDAA106000091GF106991061021008001001001KA1240N+02211MA1999999100301MD1999999+0101REMSYN076AAXX  01124 82392 32599 60902 10298 20198 30030 40135 86200 333 20221 58010;EQDQ01  00002PRCP06
0167823920999992002090118004-03700-040350FM-12+008399999V0200901N001012200019N0500001N1+03631+01501100631ADDAA106000091GF102991011011004501031001MA1999999099631MD1999999-0231REMSYN070AAXX  01184 82392 32499 20902 10363 20150 39963 40063 81130 333 59023;EQDQ01  00002PRCP06
0208823920999992002090200004-03700-040350FM-12+008399999V0203601N002612200019N0040001N1+02581+02101101101ADDAA106000091GA1001+999999999GF100991001001999999001001KA1240M+03651MA1999999100081MD1999999-0121REMSYN082AAXX  02004 82392 32596 03605 10258 20210 30008 40110 333 10365 29058 55109 59012;EQDQ01  00002PRCP06
0186823920999992002090212004-03700-040350FM-12+008399999V0200901N001012200019N0500001N1+02821+01911101421ADDAA106000091GF101991011011004501001001KA1240N+02001MA1999999100401MD1999999+0101REMSYN076AAXX  02124 82392 32499 10902 10282 20191 30040 40142 81100 333 20200 58010;EQDQ01  00002PRCP06
0167823920999992002090218004-03700-040350FM-12+008399999V0200901N000512200019N0500001N1+03681+01531100771ADDAA106000091GF101991011011004501001001MA1999999099761MD1999999+0131REMSYN070AAXX  02184 82392 32499 10901 10368 20153 39976 40077 81100 333 58013;EQDQ01  00002PRCP06
0208823920999992002090300004-03700-040350FM-12+008399999V0200501N003112200019N0040001N1+02561+01951101201ADDAA106000091GA1001+999999999GF100991001001999999001001KA1240M+03701MA1999999100181MD1999999+0101REMSYN082AAXX  03004 82392 32996 00506 10256 20195 30018 40120 333 10370 29056 55100 58010;EQDQ01  00002PRCP06
0186823920999992002090312004-03700-040350FM-12+008399999V0200901N001512200019N0500001N1+02681+02091101531ADDAA106000091GF103991031021004501001001KA1240N+02201MA1999999100501MD1999999+0101REMSYN076AAXX  03124 82392 32499 30903 10268 20209 30050 40153 83200 333 20220 58010;EQDQ01  00002PRCP06
0167823920999992002090318004-03700-040350FM-12+008399999V0203601N000512200019N0500001N1+03541+01761100981ADDAA106000091GF104991041011004501001001MA1999999099971MD1999999+0211REMSYN070AAXX  03184 82392 32499 43601 10354 20176 39997 40098 84100 333 58021;EQDQ01  00002PRCP06
0198823920999992002090400004-03700-040350FM-12+008399999V0203601N004112200019N0040001N1+02561+02061101451ADDAA106000091GF101991011011004501001001KA1240M+03591MA1999999100431MD1999999+0251REMSYN088AAXX  04004 82392 32496 13608 10256 20206 30043 40145 81100 333 10359 29063 55075 58025;EQDQ01  00002PRCP06
0186823920999992002090412004-03700-040350FM-12+008399999V0200901N001010450019N0500001N1+02881+02111101631ADDAA106000091GF106991041021004501031001KA1240N+02281MA1999999100601MD1999999+0101REMSYN076AAXX  04124 82392 32499 60902 10288 20211 30060 40163 84230 333 20228 58010;EQDQ01  00002PRCP06
0167823920999992002090418004-03700-040350FM-12+008399999V0200901N001512200019N0500001N1+03301+01951101121ADDAA106000091GF103991031021004501001001MA1999999100101MD1999999+0131REMSYN070AAXX  04184 82392 32499 30903 10330 20195 30010 40112 83200 333 58013;EQDQ01  00002PRCP06
0208823920999992002090500004-03700-040350FM-12+008399999V0203601N001012200019N0040001N1+02541+02001101501ADDAA106000091GA1001+999999999GF100991001001999999001001KA1240M+03391MA1999999100471MD1999999+0041REMSYN082AAXX  05004 82392 32996 03602 10254 20200 30047 40150 333 10339 29064 55078 58004;EQDQ01  00002PRCP06
0186823920999992002090512004-03700-040350FM-12+008399999V0200901N002612200019N0500001N1+02851+01811101641ADDAA106000091GF104991041021004501001001KA1240N+01911MA1999999100611MD1999999+0011REMSYN076AAXX  05124 82392 32499 40905 10285 20181 30061 40164 84200 333 20191 58001;EQDQ01  00002PRCP06
0208823920999992002090600004-03700-040350FM-12+008399999V0200501N002612200019N0040001N1+02541+01951101381ADDAA106000091GA1001+999999999GF100991001001999999001001KA1240M+03541MA1999999100361MD1999999-0111REMSYN082AAXX  06004 82392 32996 00505 10254 20195 30036 40138 333 10354 29055 55108 59011;EQDQ01  00002PRCP06
0186823920999992002090612004-03700-040350FM-12+008399999V0201401N001512200019N0500001N1+02761+01891101671ADDAA106000091GF103991031021004501001001KA1240N+01921MA1999999100641MD1999999-0031REMSYN076AAXX  06124 82392 32499 31403 10276 20189 30064 40167 83200 333 20192 59003;EQDQ01  00002PRCP06
0167823920999992002090618004-03700-040350FM-12+008399999V0200901N001012200019N0500001N1+03521+01451101071ADDAA106000091GF104991041021004501001001MA1999999100051MD1999999+0061REMSYN070AAXX  06184 82392 32499 40902 10352 20145 30005 40107 84200 333 58006;EQDQ01  00002PRCP06
0208823920999992002090700004-03700-040350FM-12+008399999V0200501N004612200019N0040001N1+02501+01981101331ADDAA106000091GA1001+999999999GF100991001001999999001001KA1240M+03601MA1999999100311MD1999999-0051REMSYN082AAXX  07004 82392 32996 00509 10250 20198 30031 40133 333 10360 29058 55106 59005;EQDQ01  00002PRCP06
0186823920999992002090712004-03700-040350FM-12+008399999V0200901N001010042019N0500001N1+02821+02001101671ADDAA106000091GF105991051021004501001001KA1240N+02101MA1999999100571MD1999999-0071REMSYN076AAXX  07124 82392 32499 50902 10282 20200 30057 40167 85200 333 20210 59007;EQDQ01  00002PRCP06
0167823920999992002090718004-03700-040350FM-12+008399999V0200501N001012200019N0500001N1+03641+01501100951ADDAA106000091GF104991041011004501001001MA1999999099941MD1999999-0111REMSYN070AAXX  07184 82392 32499 40502 10364 20150 39994 40095 84100 333 59011;EQDQ01  00002PRCP06
0198823920999992002090800004-03700-040350FM-12+008399999V0203601N002612200019N0040001N1+02601+01961101261ADDAA106000091GF101991011001008001031001KA1240M+03711MA1999999100241MD1999999-0071REMSYN088AAXX  08004 82392 32596 13605 10260 20196 30024 40126 81030 333 10371 29056 55092 59007;EQDQ01  00002PRCP06
0186823920999992002090812004-03700-040350FM-12+008399999V0200901N001012200019N0500001N1+02721+02081101531ADDAA106000091GF103991031021004501001001KA1240N+02341MA1999999100501MD1999999-0071REMSYN076AAXX  08124 82392 32499 30902 10272 20208 30050 40153 83200 333 20234 59007;EQDQ01  00002PRCP06
0167823920999992002090818004-03700-040350FM-12+008399999V0200501N001012200019N0500001N1+03621+01591100921ADDAA106000091GF104991031021004501031001MA1999999099911MD1999999-0031REMSYN070AAXX  08184 82392 32499 40502 10362 20159 39991 40092 83230 333 59003;EQDQ01  00002PRCP06
0208823920999992002090900004-03700-040350FM-12+008399999V0200501N005712200019N0040001N1+02561+02081101321ADDAA106000091GA1001+999999999GF100991001001999999001001KA1240M+03701MA1999999100301MD1999999+0061REMSYN082AAXX  09004 82392 32996 00511 10256 20208 30030 40132 333 10370 29062 55090 58006;EQDQ01  00002PRCP06
0186823920999992002090912004-03700-040350FM-12+008399999V0200901N001510450019N0500001N1+02861+02091101591ADDAA106000091GF105991041021004501031001KA1240N+02341MA1999999100561MD1999999+0061REMSYN076AAXX  09124 82392 32499 50903 10286 20209 30056 40159 84230 333 20234 58006;EQDQ01  00002PRCP06
0167823920999992002090918004-03700-040350FM-12+008399999V0201401N001012200019N0500001N1+03501+01581101061ADDAA106000091GF103991031021004501001001MA1999999100051MD1999999+0141REMSYN070AAXX  09184 82392 32499 31402 10350 20158 30005 40106 83200 333 58014;EQDQ01  00002PRCP06
0208823920999992002091000004-03700-040350FM-12+008399999V0200501N001012200019N0040001N1+02561+02061101441ADDAA106000091GA1001+999999999GF100991001001999999001001KA1240M+03531MA1999999100421MD1999999+0121REMSYN082AAXX  10004 82392 32996 00502 10256 20206 30042 40144 333 10353 29061 55101 58012;EQDQ01  00002PRCP06
0186823920999992002091012004-03700-040350FM-12+008399999V0201401N001512200019N0500001N1+02801+01841101581ADDAA106000091GF101991011011004501001001KA1240N+02201MA1999999100051MD1999999-0011REMSYN076AAXX  10124 82392 32499 11403 10280 20184 30005 40158 81100 333 20220 59001;EQDQ01  00002PRCP06
0167823920999992002091018004-03700-040350FM-12+008399999V0200901N001012200019N0500001N1+03571+01391100961ADDAA106000091GF103991031011004501001001MA1999999099951MD1999999-0101REMSYN070AAXX  10184 82392 32499 30902 10357 20139 39995 40096 83100 333 59010;EQDQ01  00002PRCP06
0208823920999992002091100004-03700-040350FM-12+008399999V0200501N002612200019N0040001N1+02641+01751101281ADDAA106000091GA1001+999999999GF100991001001999999001001KA1240M+03641MA1999999100261MD1999999-0191REMSYN082AAXX  11004 82392 32996 00505 10264 20175 30026 40128 333 10364 29061 55108 59019;EQDQ01  00002PRCP06
0186823920999992002091112004-03700-040350FM-12+008399999V0201401N002612200019N0500001N1+02821+01831101481ADDAA106000091GF101991011011004501001001KA1240N+02071MA1999999100451MD1999999-0101REMSYN076AAXX  11124 82392 32499 11405 10282 20183 30045 40148 81100 333 20207 59010;EQDQ01  00002PRCP06
0167823920999992002091118004-03700-040350FM-12+008399999V0200901N001512200019N0500001N1+03581+01551100961ADDAA106000091GF102991021011004501001001MA1999999099941MD1999999-0011REMSYN070AAXX  11184 82392 32499 20903 10358 20155 39994 40096 82100 333 59001;EQDQ01  00002PRCP06
0198823920999992002091200004-03700-040350FM-12+008399999V0203601N002612200019N0040001N1+02631+01951101241ADDAA106000091GF101991011001008001031001KA1240M+03651MA1999999100221MD1999999-0041REMSYN088AAXX  12004 82392 32596 13605 10263 20195 30022 40124 81030 333 10365 29054 55089 59004;EQDQ01  00002PRCP06
0186823920999992002091212004-03700-040350FM-12+008399999V0201401N000512200019N0500001N1+02751+01971101401ADDAA106000091GF104991041021004501001001KA1240N+02171MA1999999100381MD1999999-0071REMSYN076AAXX  12124 82392 32499 41401 10275 20197 30038 40140 84200 333 20217 59007;EQDQ01  00002PRCP06
0167823920999992002091218004-03700-040350FM-12+008399999V0209999C000010042019N0500001N1+03621+01531100771ADDAA106000091GF105991051021004501001001MA1999999099761MD1999999-0181REMSYN070AAXX  12184 82392 32499 50000 10362 20153 39976 40077 85200 333 59018;EQDQ01  00002PRCP06
0214823920999992002091300004-03700-040350FM-12+008399999V0200501N004619999999N0040001N1+02601+01921101231ADDAA106000091GF106991999011004501001001KA1240M+03701MA1999999100211MD1999999-0011REMSYN088AAXX  13004 82392 32496 60509 10260 20192 30021 40123 82100 333 10370 29059 55086 59001;EQDQ01+000022SCOTLCQ02  00002PRCP06
0202823920999992002091312004-03700-040350FM-12+008399999V0200901N008212200019N0500001N1+02901+02041100331ADDAA106000091GF102991999021004501001001KA1240N+02141MA1999999100311MD1999999-0041REMSYN076AAXX  13124 82392 32499 20916 10290 20204 30031 40033 86200 333 20214 59004;EQDQ01+000062SCOTLCQ02  00002PRCP06
0167823920999992002091318004-03700-040350FM-12+008399999V0202701N000512200019N0500001N1+03571+01601100761ADDAA106000091GF103991021011004501031001MA1999999099751MD1999999-0011REMSYN070AAXX  13184 82392 32499 32701 10357 20160 39975 40076 82130 333 59001;EQDQ01  00002PRCP06
0208823920999992002091400004-03700-040350FM-12+008399999V0200501N005712200019N0040001N1+02561+02151101191ADDAA106000091GA1001+999999999GF100991001001999999001001KA1240M+03601MA1999999100171MD1999999-0041REMSYN082AAXX  14004 82392 32996 00511 10256 20215 30017 40119 333 10360 29062 55084 59004;EQDQ01  00002PRCP06
0186823920999992002091412004-03700-040350FM-12+008399999V0200501N001512200019N0200001N1+02781+01961101481ADDAA106000091GF103991031021004501001001KA1240N+02241MA1999999100451MD1999999+0141REMSYN076AAXX  14124 82392 32498 30503 10278 20196 30045 40148 83200 333 20224 58014;EQDQ01  00002PRCP06
0167823920999992002091418004-03700-040350FM-12+008399999V0201401N001012200019N0500001N1+03521+01601100851ADDAA106000091GF103991031021008001001001MA1999999099841MD1999999+0091REMSYN070AAXX  14184 82392 32599 31402 10352 20160 39984 40085 83200 333 58009;EQDQ01  00002PRCP06
0208823920999992002091500004-03700-040350FM-12+008399999V0200501N005112200019N0020001N1+02521+02151101221ADDAA106000091GA1001+999999999GF100991001001999999001001KA1240M+03701MA1999999100201MD1999999+0031REMSYN082AAXX  15004 82392 32495 00510 10252 20215 30020 40122 333 10370 29063 55088 58003;EQDQ01  00002PRCP06
0186823920999992002091512004-03700-040350FM-12+008399999V0200901N001010042019N0500001N1+02761+02021101521ADDAA106000091GF108991061041004501031001KA1240N+02321MA1999999100491MD1999999+0051REMSYN076AAXX  15124 82392 32499 80902 10276 20202 30049 40152 86430 333 20232 58005;EQDQ01  00002PRCP06
0183823920999992002091518004-03700-040350FM-12+008399999V0200501N001012200019N0500001N1+03551+01821100921ADDAA106000091GF102991999011004501001001MA1999999099911MD1999999+0071REMSYN070AAXX  15184 82392 32499 20502 10355 20182 39991 40092 84100 333 58007;EQDQ01+000042SCOTLCQ02  00002PRCP06
0208823920999992002091600004-03700-040350FM-12+008399999V0203601N001512200019N0040001N1+02531+01931101331ADDAA106000091GA1001+999999999GF100991001001999999001001KA1240M+03651MA1999999100311MD1999999+0111REMSYN082AAXX  16004 82392 32996 03603 10253 20193 30031 40133 333 10365 29060 55070 58011;EQDQ01  00002PRCP06
0186823920999992002091612004-03700-040350FM-12+008399999V0200901N003112200019N0500001N1+02921+02061101631ADDAA106000091GF104991041021004501001001KA1240N+02341MA1999999100601MD1999999+0111REMSYN076AAXX  16124 82392 32499 40906 10292 20206 30060 40163 84200 333 20234 58011;EQDQ01  00002PRCP06
0167823920999992002091618004-03700-040350FM-12+008399999V0200501N002612200019N0500001N1+03561+01531101061ADDAA106000091GF102991021011004501001001MA1999999100051MD1999999+0141REMSYN070AAXX  16184 82392 32499 20505 10356 20153 30005 40106 82100 333 58014;EQDQ01  00002PRCP06
0208823920999992002091700004-03700-040350FM-12+008399999V0203601N001012200019N0040001N1+02561+01901101441ADDAA106000091GA1001+999999999GF100991001001999999001001KA1240M+03561MA1999999100421MD1999999+0111REMSYN082AAXX  17004 82392 32996 03602 10256 20190 30042 40144 333 10356 29056 55098 58011;EQDQ01  00002PRCP06
0186823920999992002091712004-03700-040350FM-12+008399999V0200901N002612200019N0500001N1+02881+01861101631ADDAA199000091GF101991011011004501001001KA1240N+02221MA1999999100601MD1999999+0001REMSYN076AAXX  17124 82392 32499 10905 10288 20186 30060 40163 81100 333 20222 58000;EQDQ01  00002PRCP99
0167823920999992002091718004-03700-040350FM-12+008399999V0200901N001012200019N0500001N1+03501+01481101041ADDAA106000091GF103991031011004501001001MA1999999100031MD1999999-0021REMSYN070AAXX  17184 82392 32499 30902 10350 20148 30003 40104 83100 333 59002;EQDQ01  00002PRCP06
0208823920999992002091800004-03700-040350FM-12+008399999V0203601N001012200019N0040001N1+02601+01941101411ADDAA106000091GA1001+999999999GF100991001001999999001001KA1240M+03541MA1999999100391MD1999999-0031REMSYN082AAXX  18004 82392 32996 03602 10260 20194 30039 40141 333 10354 29055 55109 59003;EQDQ01  00002PRCP06
0186823920999992002091812004-03700-040350FM-12+008399999V0200901N005712200019N0500001N1+02901+01961101421ADDAA106000091GF101991011011004501001001KA1240N+02141MA1999999100401MD1999999-0201REMSYN076AAXX  18124 82392 32499 10911 10290 20196 30040 40142 81100 333 20214 59020;EQDQ01  00002PRCP06
0167823920999992002091818004-03700-040350FM-12+008399999V0200901N000512200019N0500001N1+03571+01141100821ADDAA106000091GF102991021011004501001001MA1999999099811MD1999999-0221REMSYN070AAXX  18184 82392 32499 20901 10357 20114 39981 40082 82100 333 59022;EQDQ01  00002PRCP06
0208823920999992002091900004-03700-040350FM-12+008399999V0203601N000512200019N0040001N1+02741+01701101231ADDAA106000091GA1001+999999999GF100991001001999999001001KA1240M+03681MA1999999100211MD1999999-0181REMSYN082AAXX  19004 82392 32996 03601 10274 20170 30021 40123 333 10368 29047 55107 59018;EQDQ01  00002PRCP06
0186823920999992002091912004-03700-040350FM-12+008399999V0200901N000512200019N0500001N1+02961+01741101371ADDAA106000091GF102991021011004501001001KA1240N+02181MA1999999100361MD1999999-0041REMSYN076AAXX  19124 82392 32499 20901 10296 20174 30036 40137 82100 333 20218 59004;EQDQ01  00002PRCP06
0167823920999992002091918004-03700-040350FM-12+008399999V0200901N000512200019N0500001N1+03521+01391100821ADDAA106000091GF103991021011004501001011MA1999999099811MD1999999+0001REMSYN070AAXX  19184 82392 32499 30901 10352 20139 39981 40082 82101 333 58000;EQDQ01  00002PRCP06
0208823920999992002092000004-03700-040350FM-12+008399999V0200501N005712200019N0040001N1+02601+02121101181ADDAA106000091GA1001+999999999GF100991001001999999001001KA1240M+03681MA1999999100161MD1999999-0051REMSYN082AAXX  20004 82392 32996 00511 10260 20212 30016 40118 333 10368 29056 55104 59005;EQDQ01  00002PRCP06
0186823920999992002092012004-03700-040350FM-12+008399999V0201401N001012200019N0500001N1+02801+02001101491ADDAA106000091GF103991031021004501001001KA1240N+02171MA1999999100461MD1999999+0101REMSYN076AAXX  20124 82392 32499 31402 10280 20200 30046 40149 83200 333 20217 58010;EQDQ01  00002PRCP06
0167823920999992002092018004-03700-040350FM-12+008399999V0200901N000512200019N0500001N1+03641+01551100861ADDAA106000091GF103991021011004501001011MA1999999099851MD1999999+0041REMSYN070AAXX  20184 82392 32499 30901 10364 20155 39985 40086 82101 333 58004;EQDQ01  00002PRCP06
0208823920999992002092100004-03700-040350FM-12+008399999V0203601N000512200019N0040001N1+02601+01821101321ADDAA106000091GA1001+999999999GF100991001001999999001001KA1240M+03721MA1999999100301MD1999999+0141REMSYN082AAXX  21004 82392 32996 03601 10260 20182 30030 40132 333 10372 29054 55089 58014;EQDQ01  00002PRCP06
0186823920999992002092112004-03700-040350FM-12+008399999V0201801N000510042019N0500001N1+02881+02031101491ADDAA106000091GF105991051021004501001001KA1240N+02161MA1999999100461MD1999999+0001REMSYN076AAXX  21124 82392 32499 51801 10288 20203 30046 40149 85200 333 20216 58000;EQDQ01  00002PRCP06
0167823920999992002092118004-03700-040350FM-12+008399999V0200901N000512200019N0500001N1+02491+01631100841ADDAA106000091GF103991021011004501001011MA1999999099831MD1999999-0021REMSYN070AAXX  21184 82392 32499 30901 10249 20163 39983 40084 82101 333 59002;EQDQ01  00002PRCP06
0208823920999992002092200004-03700-040350FM-12+008399999V0203601N002612200019N0040001N1+02561+01951101211ADDAA106000091GA1001+999999999GF100991001001999999001001KA1240M+03611MA1999999100191MD1999999-0111REMSYN082AAXX  22004 82392 32996 03605 10256 20195 30019 40121 333 10361 29058 55097 59011;EQDQ01  00002PRCP06
0202823920999992002092212004-03700-040350FM-12+008399999V0200901N003112200019N0500001N1+02901+02121101841ADDAA106000091GF104991999021004501001001KA1240N+02321MA1999999100451MD1999999-0011REMSYN076AAXX  22124 82392 32499 40906 10290 20212 30045 40184 83200 333 20232 59001;EQDQ01+000032SCOTLCQ02  00002PRCP06
0183823920999992002092218004-03700-040350FM-12+008399999V0200901N001512200019N0500001N1+03501+01771100922ADDAA106000091GF103991031021004501001001MA1999999099911MD1999999+0081REMSYN070AAXX  22184 82392 32499 30903 10350 20177 39991 40092 83200 333 58008;EQDQ01+100923APOSLPQ02  00002PRCP06
0208823920999992002092300004-03700-040350FM-12+008399999V0200501N002612200019N0040001N1+02581+02101101221ADDAA106000091GA1001+999999999GF100991001001999999001001KA1240M+03581MA1999999100201MD1999999+0011REMSYN082AAXX  23004 82392 32996 00505 10258 20210 30020 40122 333 10358 29062 55061 58001;EQDQ01  00002PRCP06
0186823920999992002092312004-03700-040350FM-12+008399999V0201401N001012200019N0500001N1+02881+02031101371ADDAA106000091GF103991031021004501001001KA1240N+02161MA1999999100351MD1999999-0101REMSYN076AAXX  23124 82392 32499 31402 10288 20203 30035 40137 83200 333 20216 59010;EQDQ01  00002PRCP06
0167823920999992002092318004-03700-040350FM-12+008399999V0201401N001512200019N0500001N1+03601+01811100881ADDAA106000091GF103991031021004501001001MA1999999099871MD1999999-0041REMSYN070AAXX  23184 82392 32499 31403 10360 20181 39987 40088 83200 333 59004;EQDQ01  00002PRCP06
0208823920999992002092400004-03700-040350FM-12+008399999V0200501N000512200019N0040001N1+02561+02081101151ADDAA106000091GA1001+999999999GF100991001001999999001001KA1240M+03611MA1999999100131MD1999999-0071REMSYN082AAXX  24004 82392 32996 00501 10256 20208 30013 40115 333 10361 29061 55098 59007;EQDQ01  00002PRCP06
0186823920999992002092412004-03700-040350FM-12+008399999V0201401N002612200019N0500001N1+02701+02031101371ADDAA106000091GF103991021021004501031001KA1240N+02181MA1999999100351MD1999999+0001REMSYN076AAXX  24124 82392 32499 31405 10270 20203 30035 40137 82230 333 20218 58000;EQDQ01  00002PRCP06
0183823920999992002092418004-03700-040350FM-12+008399999V0200501N002619999999N0500001N1+03311+01571100821ADDAA106000091GF105991999021004501001001MA1999999099801MD1999999-0071REMSYN070AAXX  24184 82392 32499 50505 10331 20157 39980 40082 84200 333 59007;EQDQ01+000042SCOTLCQ02  00002PRCP06
0208823920999992002092500004-03700-040350FM-12+008399999V0203601N001012200019N0040001N1+02541+01951101151ADDAA106000091GA1001+999999999GF100991001001999999001001KA1240M+03521MA1999999100131MD1999999+0001REMSYN082AAXX  25004 82392 32996 03602 10254 20195 30013 40115 333 10352 29061 55076 58000;EQDQ01  00002PRCP06
0186823920999992002092512004-03700-040350FM-12+008399999V0201801N000512200019N0500001N1+02761+02041101361ADDAA106000091GF102991021011004501001001KA1240N+02001MA1999999100341MD1999999-0011REMSYN076AAXX  25124 82392 32499 21801 10276 20204 30034 40136 82100 333 20200 59001;EQDQ01  00002PRCP06
0167823920999992002092518004-03700-040350FM-12+008399999V0200501N005712200019N0500001N1+03621+01591100811ADDAA106000091GF101991011011004501001001MA1999999099801MD1999999+0001REMSYN070AAXX  25184 82392 32499 10511 10362 20159 39980 40081 81100 333 58000;EQDQ01  00002PRCP06
0198823920999992002092600004-03700-040350FM-12+008399999V0200501N001012200019N0040001N1+02551+01971101151ADDAA106000091GF101991011001008001011001KA1240M+03711MA1999999100131MD1999999+0001REMSYN088AAXX  26004 82392 32596 10502 10255 20197 30013 40115 81010 333 10371 29059 55104 58000;EQDQ01  00002PRCP06
0186823920999992002092612004-03700-040350FM-12+008399999V0200901N002612200019N0500001N1+02911+01891101341ADDAA106000091GF104991041021004501001001KA1240N+01901MA1999999100321MD1999999-0021REMSYN076AAXX  26124 82392 32499 40905 10291 20189 30032 40134 84200 333 20190 59002;EQDQ01  00002PRCP06
0167823920999992002092618004-03700-040350FM-12+008399999V0200901N001012200019N0500001N1+03671+01411100741ADDAA106000091GF102991021011004501001001MA1999999099731MD1999999-0071REMSYN070AAXX  26184 82392 32499 20902 10367 20141 39973 40074 82100 333 59007;EQDQ01  00002PRCP06
0186823920999992002092712004-03700-040350FM-12+008399999V0201401N001512200019N0500001N1+02801+02001101531ADDAA106000091GF103991031021004501001001KA1240N+02181MA1999999100501MD1999999+0181REMSYN076AAXX  27124 82392 32499 31403 10280 20200 30050 40153 83200 333 20218 58018;EQDQ01  00002PRCP06
0167823920999992002092718004-03700-040350FM-12+008399999V0200501N000512200019N0500001N1+03551+01591100961ADDAA106000091GF104991041021004501001001MA1999999099941MD1999999+0211REMSYN070AAXX  27184 82392 32499 40501 10355 20159 39994 40096 84200 333 58021;EQDQ01  00002PRCP06
0208823920999992002092800004-03700-040350FM-12+008399999V0200501N002112200019N0040001N1+02581+02041101421ADDAA106000091GA1001+999999999GF100991001001999999001001KA1240M+03641MA1999999100401MD1999999+0201REMSYN082AAXX  28004 82392 32996 00504 10258 20204 30040 40142 333 10364 29059 55103 58020;EQDQ01  00002PRCP06
0186823920999992002092812004-03700-040350FM-12+008399999V0201401N001012200019N0500001N1+02881+02031101491ADDAA106000091GF102991021011004501001001KA1240N+02181MA1999999100461MD1999999-0041REMSYN076AAXX  28124 82392 32499 21402 10288 20203 30046 40149 82100 333 20218 59004;EQDQ01  00002PRCP06
0167823920999992002092818004-03700-040350FM-12+008399999V0200901N002612200019N0500001N1+03601+01721100961ADDAA106000091GF101991011011008001001001MA1999999099951MD1999999-0011REMSYN070AAXX  28184 82392 32599 10905 10360 20172 39995 40096 81100 333 59001;EQDQ01  00002PRCP06
0208823920999992002092900004-03700-040350FM-12+008399999V0200501N001512200019N0040001N1+02561+02191101301ADDAA106000091GA1001+999999999GF100991001001999999001001KA1240M+03641MA1999999100281MD1999999-0121REMSYN082AAXX  29004 82392 32996 00503 10256 20219 30028 40130 333 10364 29063 55106 59012;EQDQ01  00002PRCP06
0186823920999992002092912004-03700-040350FM-12+008399999V0200901N001012200019N0500001N1+02881+01811101501ADDAA106000091GF104991041021004501001001KA1240N+02101MA1999999100471MD1999999+0011REMSYN076AAXX  29124 82392 32499 40902 10288 20181 30047 40150 84200 333 20210 58001;EQDQ01  00002PRCP06
0167823920999992002092918004-03700-040350FM-12+008399999V0200901N001012200019N0500001N1+03491+01481101001ADDAA106000091GF104991031021004501001011MA1999999099981MD1999999+0031REMSYN070AAXX  29184 82392 32499 40902 10349 20148 39998 40100 83201 333 58003;EQDQ01  00002PRCP06
0208823920999992002093000004-03700-040350FM-12+008399999V0203601N001012200019N0040001N1+02541+01931101281ADDAA106000091GA1001+999999999GF100991001001999999001001KA1240M+03551MA1999999100261MD1999999-0021REMSYN082AAXX  30004 82392 32996 03602 10254 20193 30026 40128 333 10355 29055 55018 59002;EQDQ01  00002PRCP06
0186823920999992002093012004-03700-040350FM-12+008399999V0200901N005112200019N0500001N1+02801+01951101571ADDAA106000091GF103991021011004501031001KA1240N+02101MA1999999100541MD1999999+0071REMSYN076AAXX  30124 82392 32499 30910 10280 20195 30054 40157 82130 333 20210 58007;EQDQ01  00002PRCP06
0167823920999992002093018004-03700-040350FM-12+008399999V0200901N002612200019N0500001N1+03501+01481101041ADDAA106000091GF104991041021004501001001MA1999999100021MD1999999+0041REMSYN070AAXX  30184 82392 32499 40905 10350 20148 30002 40104 84200 333 58004;EQDQ01  00002PRCP06
0208823920999992002100100004-03700-040350FM-12+008399999V0203601N002612200019N0040001N1+02581+01641101301ADDAA106000091GA1001+999999999GF100991001001999999001001KA1240M+03601MA1999999100281MD1999999+0021REMSYN082AAXX  01004 82392 32996 03605 10258 20164 30028 40130 333 10360 29051 55106 58002;EQDQ01  00002PRCP06
0186823920999992002100112004-03700-040350FM-12+008399999V0200901N001512200019N0500001N1+02901+01961101581ADDAA106000091GF101991011011004501001001KA1240N+01981MA1999999100551MD1999999+0011REMSYN076AAXX  01124 82392 32499 10903 10290 20196 30055 40158 81100 333 20198 58001;EQDQ01  00002PRCP06
0167823920999992002100118004-03700-040350FM-12+008399999V0201401N001512200019N0500001N1+03521+01391101031ADDAA106000091GF103991031021004501001001MA1999999100011MD1999999-0011REMSYN070AAXX  01184 82392 32499 31403 10352 20139 30001 40103 83200 333 59001;EQDQ01  00002PRCP06
0208823920999992002100200004-03700-040350FM-12+008399999V0203601N002612200019N0040001N1+02641+01981101381ADDAA106000091GA1001+999999999GF100991001001999999001001KA1240M+03641MA1999999100361MD1999999+0081REMSYN082AAXX  02004 82392 32996 03605 10264 20198 30036 40138 333 10364 29053 55109 58008;EQDQ01  00002PRCP06
0186823920999992002100212004-03700-040350FM-12+008399999V0200901N002612200019N0500001N1+02981+02041101451ADDAA106000091GF103991031021004501001001KA1240N+02081MA1999999100431MD1999999-0121REMSYN076AAXX  02124 82392 32499 30905 10298 20204 30043 40145 83200 333 20208 59012;EQDQ01  00002PRCP06
0167823920999992002100218004-03700-040350FM-12+008399999V0200901N000510450019N0500001N1+02601+01571100861ADDAA106000091GF106991041021004501031001MA1999999099851MD1999999-0061REMSYN070AAXX  02184 82392 32499 60901 10260 20157 39985 40086 84230 333 59006;EQDQ01  00002PRCP06
0208823920999992002100300004-03700-040350FM-12+008399999V0203601N002612200019N0020001N1+02581+02101101261ADDAA106000091GA1001+999999999GF100991001001999999001001KA1240M+03671MA1999999100241MD1999999-0121REMSYN082AAXX  03004 82392 32595 03605 10258 20210 30024 40126 333 10367 29059 55071 59012;EQDQ01  00002PRCP06
0167823920999992002100318004-03700-040350FM-12+008399999V0200501N001012200019N0500001N1+03581+01751100751ADDAA106000091GF104991041021004501001001MA1999999099741MD1999999-0111REMSYN070AAXX  03184 82392 32499 40502 10358 20175 39974 40075 84200 333 59011;EQDQ01  00002PRCP06
0208823920999992002100400004-03700-040350FM-12+008399999V0200501N002612200019N0040001N1+02421+02271101181ADDAA106000091GA1001+999999999GF100991001001999999001001KA1240M+03681MA1999999100161MD1999999-0081REMSYN082AAXX  04004 82392 32996 00505 10242 20227 30016 40118 333 10368 29067 55079 59008;EQDQ01  00002PRCP06
0186823920999992002100412004-03700-040350FM-12+008399999V0201801N000512200019N0500001N1+02901+02041101421ADDAA106000091GF103991031021004501001001KA1240N+02401MA1999999100401MD1999999+0051REMSYN076AAXX  04124 82392 32499 31801 10290 20204 30040 40142 83200 333 20240 58005;EQDQ01  00002PRCP06
0167823920999992002100418004-03700-040350FM-12+008399999V0201401N000512200019N0500001N1+03611+01781100801ADDAA106000091GF103991031011004501001001MA1999999099791MD1999999+0051REMSYN070AAXX  04184 82392 32499 31401 10361 20178 39979 40080 83100 333 58005;EQDQ01  00002PRCP06
0208823920999992002100500004-03700-040350FM-12+008399999V0200501N004112200019N0040001N1+02481+02191101181ADDAA106000091GA1001+999999999GF100991001001999999001001KA1240M+03661MA1999999100161MD1999999+0001REMSYN082AAXX  05004 82392 32596 00508 10248 20219 30016 40118 333 10366 29066 55095 58000;EQDQ01  00002PRCP06
0186823920999992002100512004-03700-040350FM-12+008399999V0200901N002610450019N0500001N1+02881+02031101351ADDAA106000091GF107991041041004501031001KA1240N+02481MA1999999100331MD1999999-0071REMSYN076AAXX  05124 82392 32499 70905 10288 20203 30033 40135 84430 333 20248 59007;EQDQ01  00002PRCP06
0167823920999992002100518004-03700-040350FM-12+008399999V0200901N002612200019N0500001N1+03541+01571100801ADDAA106000091GF102991021011004501001001MA1999999099791MD1999999+0081REMSYN070AAXX  05184 82392 32499 20905 10354 20157 39979 40080 82100 333 58008;EQDQ01  00002PRCP06
0208823920999992002100600004-03700-040350FM-12+008399999V0203601N002612200019N0040001N1+02661+01961101281ADDAA106000091GA1001+999999999GF100991001001999999001001KA1240M+03611MA1999999100261MD1999999+0101REMSYN082AAXX  06004 82392 32996 03605 10266 20196 30026 40128 333 10361 29057 55080 58010;EQDQ01  00002PRCP06
0186823920999992002100612004-03700-040350FM-12+008399999V0200901N002112200019N0500001N1+02901+02041101371ADDAA106000091GF103991031021004501001001KA1240N+02341MA1999999100351MD1999999+0021REMSYN076AAXX  06124 82392 32499 30904 10290 20204 30035 40137 83200 333 20234 58002;EQDQ01  00002PRCP06
0167823920999992002100618004-03700-040350FM-12+008399999V0200501N002612200019N0500001N1+03521+01791100841ADDAA106000091GF101991011011004501001001MA1999999099831MD1999999+0041REMSYN070AAXX  06184 82392 32499 10505 10352 20179 39983 40084 81100 333 58004;EQDQ01  00002PRCP06
0208823920999992002100700004-03700-040350FM-12+008399999V0200501N001012200019N0040001N1+02641+01851101181ADDAA106000091GA1001+999999999GF100991001001999999001001KA1240M+03601MA1999999100161MD1999999-0101REMSYN082AAXX  07004 82392 32996 00502 10264 20185 30016 40118 333 10360 29055 55097 59010;EQDQ01  00002PRCP06
0186823920999992002100712004-03700-040350FM-12+008399999V0201401N003112200019N0500001N1+02981+02121101321ADDAA106000091GF101991011011004501001001KA1240N+02101MA1999999100301MD1999999-0051REMSYN076AAXX  07124 82392 32499 11406 10298 20212 30030 40132 81100 333 20210 59005;EQDQ01  00002PRCP06
0167823920999992002100718004-03700-040350FM-12+008399999V0201401N001012200019N0500001N1+03621+01641100811ADDAA106000091GF102991021021004501001001MA1999999099801MD1999999-0031REMSYN070AAXX  07184 82392 32499 21402 10362 20164 39980 40081 82200 333 59003;EQDQ01  00002PRCP06
0208823920999992002100800004-03700-040350FM-12+008399999V0200501N002612200019N0040001N1+02581+02081101111ADDAA106000091GA1001+999999999GF100991001001999999001001KA1240M+03661MA1999999100091MD1999999-0071REMSYN082AAXX  08004 82392 32996 00505 10258 20208 30009 40111 333 10366 29060 55104 59007;EQDQ01  00002PRCP06
0202823920999992002100812004-03700-040350FM-12+008399999V0200901N001512200019N0500001N1+02001+02001101321ADDAA106000091GF104991041021004501001001KA1240N+99999MA1999999100301MD1999999+0001REMSYN076AAXX  08124 82392 32499 40903 10200 20200 30030 40132 84200 333 20233 58000;EQDQ01  00002PRCP06Q02 +02332ATMN  
0167823920999992002100818004-03700-040350FM-12+008399999V0200901N000510450019N0500001N1+03561+01681100801ADDAA106000091GF106991031041004501031011MA1999999099791MD1999999-0011REMSYN070AAXX  08184 82392 32499 60901 10356 20168 39979 40080 83431 333 59001;EQDQ01  00002PRCP06
0208823920999992002100900004-03700-040350FM-12+008399999V0203601N001012200019N0040001N1+02641+02041101131ADDAA106000091GA1001+999999999GF100991001001999999001001KA1240M+03611MA1999999100111MD1999999+0021REMSYN082AAXX  09004 82392 32996 03602 10264 20204 30011 40113 333 10361 29057 55084 58002;EQDQ01  00002PRCP06
0186823920999992002100912004-03700-040350FM-12+008399999V0201401N001012200019N0500001N1+02961+02101101271ADDAA106000091GF102991021021004501001001KA1240N+02371MA1999999100251MD1999999-0051REMSYN076AAXX  09124 82392 32499 21402 10296 20210 30025 40127 82200 333 20237 59005;EQDQ01  00002PRCP06
0208823920999992002101000004-03700-040350FM-12+008399999V0203601N001012200019N0040001N1+02581+02101101171ADDAA106000091GA1001+999999999GF100991001001999999001001KA1240M+03671MA1999999100151MD1999999+0041REMSYN082AAXX  10004 82392 32996 03602 10258 20210 30015 40117 333 10367 29060 55108 58004;EQDQ01  00002PRCP06
0186823920999992002101012004-03700-040350FM-12+008399999V0201401N002112200019N0500001N1+03091+01841101271ADDAA106000091GF102991021011004501001001KA1240N+02231MA1999999100251MD1999999+0001REMSYN076AAXX  10124 82392 32499 21404 10309 20184 30025 40127 82100 333 20223 58000;EQDQ01  00002PRCP06
0152823920999992002101018004-03700-040350FM-12+008399999V0201401N001012200019N0500001N1+03651+01511999999ADDAA106000091GF102991999999004501999999MA1999999099721REMSYN069AAXX  10184 82392 32499 21402 10365 20151 39972 4007 82100 333 59012;EQDQ01  00002PRCP06
0208823920999992002101100004-03700-040350FM-12+008399999V0200501N005112200019N0040001N1+02621+02121101171ADDAA106000091GA1001+999999999GF100991001001999999001001KA1240M+03621MA1999999100161MD1999999+0011REMSYN082AAXX  11004 82392 33296 00510 10262 20212 30016 40117 333 10362 29056 55108 58001;EQDQ01  00002PRCP06
0186823920999992002101112004-03700-040350FM-12+008399999V0200901N001012200019N0500001N1+02961+02021101381ADDAA106000091GF101991011011004501001001KA1240N+02381MA1999999100361MD1999999+0111REMSYN076AAXX  11124 82392 32499 10902 10296 20202 30036 40138 81100 333 20238 58011;EQDQ01  00002PRCP06
0167823920999992002101118004-03700-040350FM-12+008399999V0200901N001012200019N0500001N1+03651+01511100771ADDAA106000091GF101991011011004501001001MA1999999099761MD1999999+0041REMSYN070AAXX  11184 82392 32499 10902 10365 20151 39976 40077 81100 333 58004;EQDQ01  00002PRCP06
0208823920999992002101200004-03700-040350FM-12+008399999V0200501N002612200019N0040001N1+02601+02101101181ADDAA106000091GA1001+999999999GF100991001001999999001001KA1240M+03701MA1999999100161MD1999999+0001REMSYN082AAXX  12004 82392 32996 00505 10260 20210 30016 40118 333 10370 29058 55105 58000;EQDQ01  00002PRCP06
0186823920999992002101212004-03700-040350FM-12+008399999V0200901N003112200019N0500001N1+02981+01891101381ADDAA106000091GF101991011011004501001001KA1240N+02351MA1999999100361MD1999999+0001REMSYN076AAXX  12124 82392 32499 10906 10298 20189 30036 40138 81100 333 20235 59000;EQDQ01  00002PRCP06
0167823920999992002101218004-03700-040350FM-12+008399999V0200501N002612200019N0500001N1+03741+01281100871ADDAA106000091GF101991011011004501001001MA1999999099861MD1999999+0101REMSYN070AAXX  12184 82392 32499 10505 10374 20128 39986 40087 81100 333 58010;EQDQ01  00002PRCP06
0208823920999992002101300004-03700-040350FM-12+008399999V0200501N003112200019N0040001N1+02661+02181101271ADDAA106000091GA1001+999999999GF100991001001999999001001KA1240M+03681MA1999999100251MD1999999+0091REMSYN082AAXX  13004 82392 32996 00506 10266 20218 30025 40127 333 10368 29057 55109 58009;EQDQ01  00002PRCP06
0202823920999992002101312004-03700-040350FM-12+008399999V0200501N001019999999N0500001N1+02901+02041101401ADDAA106000091GF107991999041008001001001KA1240N+02411MA1999999100381MD1999999+0021REMSYN076AAXX  13124 82392 32599 70502 10290 20204 30038 40140 84400 333 20241 58002;EQDQ01+000042SCOTLCQ02  00002PRCP06
0167823920999992002101318004-03700-040350FM-12+008399999V0200501N001012200019N0500001N1+03561+01641100851ADDAA106000091GF104991041021004501001001MA1999999099841MD1999999-0021REMSYN070AAXX  13184 82392 32499 40502 10356 20164 39984 40085 84200 333 59002;EQDQ01  00002PRCP06
0208823920999992002101400004-03700-040350FM-12+008399999V0203601N002612200019N0040001N1+02631+02031101201ADDAA106000091GA1001+999999999GF100991001001999999001001KA1240M+03651MA1999999100181MD1999999-0071REMSYN082AAXX  14004 82392 32996 03605 10263 20203 30018 40120 333 10365 29058 55091 59007;EQDQ01  00002PRCP06
0186823920999992002101412004-03700-040350FM-12+008399999V0201401N001012200019N0500001N1+02881+01891101441ADDAA106000091GF101991011011004501001001KA1240N+02101MA1999999100421MD1999999+0041REMSYN076AAXX  14124 82392 32499 11402 10288 20189 30042 40144 81100 333 20210 58004;EQDQ01  00002PRCP06
0167823920999992002101418004-03700-040350FM-12+008399999V0200901N000512200019N0500001N1+03661+01721100711ADDAA106000091GF101991011011004501001001MA1999999099701MD1999999-0141REMSYN070AAXX  14184 82392 32499 10901 10366 20172 39970 40071 81100 333 59014;EQDQ01  00002PRCP06
0208823920999992002101500004-03700-040350FM-12+008399999V0203601N002612200019N0040001N1+02561+02061101111ADDAA106000091GA1001+999999999GF100991001001999999001001KA1240M+03701MA1999999100091MD1999999-0091REMSYN082AAXX  15004 82392 32996 03605 10256 20206 30009 40111 333 10370 29059 55107 59009;EQDQ01  00002PRCP06
0186823920999992002101512004-03700-040350FM-12+008399999V0201401N000512200019N0500001N1+02921+02041101391ADDAA106000091GF103991031021004501001001KA1240N+02321MA1999999100371MD1999999-0051REMSYN076AAXX  15124 82392 32499 31401 10292 20204 30037 40139 83200 333 20232 59005;EQDQ01  00002PRCP06
0167823920999992002101518004-03700-040350FM-12+008399999V0200901N001512200019N0500001N1+03501+01581100751ADDAA106000091GF104991041021004501001001MA1999999099741MD1999999+0041REMSYN070AAXX  15184 82392 32499 40903 10350 20158 39974 40075 84200 333 58004;EQDQ01  00002PRCP06
0208823920999992002101600004-03700-040350FM-12+008399999V0203601N002612200019N0040001N1+02661+01131101131ADDAA106000091GA1001+999999999GF100991001001999999001001KA1240M+03651MA1999999100111MD1999999+0021REMSYN082AAXX  16004 82392 32996 03605 10266 20113 30011 40113 333 10365 29055 55091 58002;EQDQ01  00002PRCP06
0186823920999992002101612004-03700-040350FM-12+008399999V0201401N000510450019N0500001N1+02881+02031101381ADDAA106000091GF105991041021004501031001KA1240N+02121MA1999999100361MD1999999-0011REMSYN076AAXX  16124 82392 32499 51401 10288 20203 30036 40138 84230 333 20212 59001;EQDQ01  00002PRCP06
0167823920999992002101618004-03700-040350FM-12+008399999V0201401N000512200019N0500001N1+03561+01731100771ADDAA106000091GF102991021021004501001001MA1999999099761MD1999999+0021REMSYN070AAXX  16184 82392 32499 21401 10356 20173 39976 40077 82200 333 58002;EQDQ01  00002PRCP06
0208823920999992002101700004-03700-040350FM-12+008399999V0203601N003112200019N0020001N1+02641+01901101211ADDAA106000091GA1001+999999999GF100991001001999999001001KA1240M+03631MA1999999100191MD1999999+0081REMSYN082AAXX  17004 82392 32595 03606 10264 20190 30019 40121 333 10363 29056 55079 58008;EQDQ01  00002PRCP06
0186823920999992002101712004-03700-040350FM-12+008399999V0200901N010310042019N0500001N1+02881+02281101321ADDAA106000091GF107991051041004501031001KA1240N+02301MA1999999100301MD1999999-0021REMSYN076AAXX  17124 82392 32499 70920 10288 20228 30030 40132 85430 333 20230 59002;EQDQ01  00002PRCP06
0167823920999992002101718004-03700-040350FM-12+008399999V0200901N001012200019N0500001N1+03631+01551100691ADDAA106000091GF104991041011004501001001MA1999999099681MD1999999-0081REMSYN070AAXX  17184 82392 32499 40902 10363 20155 39968 40069 84100 333 59008;EQDQ01  00002PRCP06
0208823920999992002101800004-03700-040350FM-12+008399999V0200501N003112200019N0040001N1+02621+02141101021ADDAA106000091GA1001+999999999GF100991001001999999001001KA1240M+03741MA1999999100001MD1999999+0191REMSYN082AAXX  18004 82392 32996 00506 10262 20214 30000 40102 333 10374 29062 55081 58019;EQDQ01  00002PRCP06
0186823920999992002101812004-03700-040350FM-12+008399999V0201401N001010042019N0500001N1+02841+02041101221ADDAA106000091GF106991051021004501031001KA1240N+02301MA1999999100201MD1999999-0101REMSYN076AAXX  18124 82392 32499 61402 10284 20204 30020 40122 85230 333 20230 59010;EQDQ01  00002PRCP06
0167823920999992002101818004-03700-040350FM-12+008399999V0200901N001512200019N0500001N1+03591+01621100671ADDAA106000091GF104991041021004501001001MA1999999099661MD1999999-0021REMSYN070AAXX  18184 82392 32499 40903 10359 20162 39966 40067 84200 333 59002;EQDQ01  00002PRCP06
0208823920999992002101900004-03700-040350FM-12+008399999V0200501N002612200019N0040001N1+02621+02141101071ADDAA106000091GA1001+999999999GF100991001001999999001001KA1240M+03611MA1999999100051MD1999999+0051REMSYN082AAXX  19004 82392 32996 00505 10262 20214 30005 40107 333 10361 29061 55082 58005;EQDQ01  00002PRCP06
0186823920999992002101912004-03700-040350FM-12+008399999V0201401N001010450019N0500001N1+03011+01921101271ADDAA106000091GF106991041021004501031001KA1240N+02331MA1999999100251MD1999999+0051REMSYN076AAXX  19124 82392 32499 61402 10301 20192 30025 40127 84230 333 20233 58005;EQDQ01  00002PRCP06
0167823920999992002101918004-03700-040350FM-12+008399999V0200901N001010450019N0500001N1+03581+01501100621ADDAA106000091GF105991021041004501071001MA1999999099621MD1999999-0041REMSYN070AAXX  19184 82392 32499 50902 10358 20150 39962 40062 82470 333 59004;EQDQ01  00002PRCP06
0198823920999992002102000004-03700-040350FM-12+008399999V0203601N001012200019N0040001N1+02691+02031101051ADDAA106000091GF102991021001008001031001KA1240M+03631MA1999999100041MD1999999-0011REMSYN088AAXX  20004 82392 32596 23602 10269 20203 30004 40105 82030 333 10363 29054 55088 59001;EQDQ01  00002PRCP06
0202823920999992002102012004-03700-040350FM-12+008399999V0200901N001512200019N0500001N1+02981+01831101161ADDAA106000091GF103991999011004501001001KA1240N+02271MA1999999100141MD1999999-0111REMSYN076AAXX  20124 82392 32499 30903 10298 20183 30014 40116 82100 333 20227 59011;EQDQ01+000022SCOTLCQ02  00002PRCP06
0167823920999992002102018004-03700-040350FM-12+008399999V0200901N001012200019N0500001N1+03521+01651100671ADDAA106000091GF103991031021004501001001MA1999999099661MD1999999+0041REMSYN070AAXX  20184 82392 32499 30902 10352 20165 39966 40067 83200 333 58004;EQDQ01  00002PRCP06
0208823920999992002102100004-03700-040350FM-12+008399999V0200501N002612200019N0020001N1+02601+02031101141ADDAA106000091GA1001+999999999GF100991001001999999001001KA1240M+03601MA1999999100121MD1999999+0081REMSYN082AAXX  21004 82392 32595 00505 10260 20203 30012 40114 333 10360 29056 55109 58008;EQDQ01  00002PRCP06
0186823920999992002102112004-03700-040350FM-12+008399999V0201801N003610042019N0500001N1+02861+02011101321ADDAA106000091GF107991051051004501031001KA1240N+02321MA1999999100301MD1999999+0161REMSYN076AAXX  21124 82392 32499 71807 10286 20201 30030 40132 85530 333 20232 58016;EQDQ01  00002PRCP06
0167823920999992002102118004-03700-040350FM-12+008399999V0200501N002612200019N0500001N1+03601+01721100761ADDAA106000091GF102991021011004501001001MA1999999099751MD1999999+0091REMSYN070AAXX  21184 82392 32499 20505 10360 20172 39975 40076 82100 333 58009;EQDQ01  00002PRCP06
0198823920999992002102200004-03700-040350FM-12+008399999V0203601N000512200019N0040001N1+02761+01691101151ADDAA106000091GF102991021001012501001011KA1240M+03611MA1999999100131MD1999999+0011REMSYN088AAXX  22004 82392 32696 23601 10276 20169 30013 40115 82001 333 10361 29049 55088 58001;EQDQ01  00002PRCP06
0186823920999992002102212004-03700-040350FM-12+008399999V0200901N001512200019N0500001N1+03001+02001101251ADDAA106000091GF102991021011004501001001KA1240N+02201MA1999999101241MD1999999-0061REMSYN076AAXX  22124 82392 32499 20903 10300 20200 30124 40125 82100 333 20220 59006;EQDQ01  00002PRCP06
0183823920999992002102218004-03700-040350FM-12+008399999V0200901N001012200019N0500001N1+03701+01491100781ADDAA106000091GF104991041021004501001001MA1999999099772MD1999999+0021REMSYN070AAXX  22184 82392 32499 40902 10370 20149 39977 40078 84200 333 58002;EQDQ01+099773APOSP Q02  00002PRCP06
0184823920999992002102300004-03700-040350FM-12+008399999V0203601N001012200019N0040001N1+02761+01801101131ADDAA106000091GF102991021011012501001001KA1240M+03761MA1999999100121REMSYN088AAXX  23004 82392 32696 23602 10276 20180 30012 40113 82100 333 10376 29049 55108 59901;EQDQ01  00002PRCP06
0186823920999992002102312004-03700-040350FM-12+008399999V0201401N001010450019N0500001N1+02941+02111101211ADDAA106000091GF106991041041004501031001KA1240N+02341MA1999999100201MD1999999-0041REMSYN076AAXX  23124 82392 32499 61402 10294 20211 30020 40121 84430 333 20234 59004;EQDQ01  00002PRCP06
0167823920999992002102318004-03700-040350FM-12+008399999V0200901N002112200019N0500001N1+03721+01671100601ADDAA106000091GF101991011011004501001001MA1999999099601MD1999999-0171REMSYN070AAXX  23184 82392 32499 10904 10372 20167 39960 40060 81100 333 59017;EQDQ01  00002PRCP06
0198823920999992002102400004-03700-040350FM-12+008399999V0203601N002612200019N0040001N1+02651+01951101091ADDAA106000091GF101991011001008001011001KA1240M+03751MA1999999100071MD1999999-0051REMSYN088AAXX  24004 82392 32596 13605 10265 20195 30007 40109 81010 333 10375 29055 55087 59005;EQDQ01  00002PRCP06
0186823920999992002102412004-03700-040350FM-12+008399999V0200901N000510450019N0500001N1+02931+01851101291ADDAA106000091GF106991031021004501011001KA1240N+02301MA1999999100271MD1999999+0071REMSYN076AAXX  24124 82392 32499 60901 10293 20185 30027 40129 83210 333 20230 58007;EQDQ01  00002PRCP06
0167823920999992002102418004-03700-040350FM-12+008399999V0200901N000510450019N0500001N1+03591+01721100691ADDAA106000091GF105991031021004501011001MA1999999099681MD1999999+0081REMSYN070AAXX  24184 82392 32499 50901 10359 20172 39968 40069 83210 333 58008;EQDQ01  00002PRCP06
0186823920999992002102512004-03700-040350FM-12+008399999V0200901N001512200019N0500001N1+02841+01881101121ADDAA106000091GF101991011011004501001001KA1240N+02211MA1999999100101MD1999999-0171REMSYN076AAXX  25124 82392 32499 10903 10284 20188 30010 40112 81100 333 20221 59017;EQDQ01  00002PRCP06
0167823920999992002102518004-03700-040350FM-12+008399999V0200901N000512200019N0500001N1+03651+01341100531ADDAA106000091GF105991021011004501001011MA1999999099531MD1999999-0151REMSYN070AAXX  25184 82392 32499 50901 10365 20134 39953 40053 82101 333 59015;EQDQ01  00002PRCP06
0167823920999992002102618004-03700-040350FM-12+008399999V0200901N002612200019N0500001N1+03721+01671100601ADDAA106000091GF101991011011008001001001MA1999999099601MD1999999+0071REMSYN070AAXX  26184 82392 32599 10905 10372 20167 39960 40060 81100 333 58007;EQDQ01  00002PRCP06
0208823920999992002102700004-03700-040350FM-12+008399999V0200501N003112200019N0040001N1+02541+02171101031ADDAA106000091GA1001+999999999GF100991001001999999001001KA1240M+03741MA1999999100001MD1999999+0101REMSYN082AAXX  27004 82392 32996 00506 10254 20217 30000 40103 333 10374 29062 55105 58010;EQDQ01  00002PRCP06
0186823920999992002102712004-03700-040350FM-12+008399999V0200901N000510042019N0500001N1+02831+01961101141ADDAA106000091GF106991061021004501001001KA1240N+02101MA1999999100121MD1999999-0041REMSYN076AAXX  27124 82392 32499 60901 10283 20196 30012 40114 86200 333 20210 59004;EQDQ01  00002PRCP06
0167823920999992002102718004-03700-040350FM-12+008399999V0200901N000512200019N0500001N1+03601+01571100681ADDAA106000091GF104991041021004501001001MA1999999099671MD1999999+0071REMSYN070AAXX  27184 82392 32499 40901 10360 20157 39967 40068 84200 333 58007;EQDQ01  00002PRCP06
0208823920999992002102800004-03700-040350FM-12+008399999V0203601N002612200019N0040001N1+02661+01921101011ADDAA106000091GA1001+999999999GF100991001001999999001001KA1240M+03631MA1999999099091MD1999999-0011REMSYN082AAXX  28004 82392 32996 03605 10266 20192 39909 40101 333 10363 29054 55088 59001;EQDQ01  00002PRCP06
0186823920999992002102812004-03700-040350FM-12+008399999V0200901N001010450019N0500001N1+02861+02011101171ADDAA106000091GF106991041041004501031001KA1240N+02231MA1999999100151MD1999999+0031REMSYN076AAXX  28124 82392 32499 60902 10286 20201 30015 40117 84430 333 20223 58003;EQDQ01  00002PRCP06
0167823920999992002102818004-03700-040350FM-12+008399999V0200901N001512200019N0500001N1+03521+01791100641ADDAA106000091GF103991031021004501001001MA1999999099641MD1999999-0031REMSYN070AAXX  28184 82392 32499 30903 10352 20179 39964 40064 83200 333 59003;EQDQ01  00002PRCP06
0208823920999992002102900004-03700-040350FM-12+008399999V0203601N001012200019N0040001N1+02661+01901100961ADDAA106000091GA1001+999999999GF100991001001999999001001KA1240M+03581MA1999999099941MD1999999-0051REMSYN082AAXX  29004 82392 32996 03602 10266 20190 39994 40096 333 10358 29056 55092 59005;EQDQ01  00002PRCP06
0186823920999992002102912004-03700-040350FM-12+008399999V0200501N002612200019N0500001N1+02881+01971101121ADDAA106000091GF103991031021004501001001KA1240N+02201MA1999999100101MD1999999-0051REMSYN076AAXX  29124 82392 32499 30505 10288 20197 30010 40112 83200 333 20220 59005;EQDQ01  00002PRCP06
0167823920999992002102918004-03700-040350FM-12+008399999V0200901N000510042019N0500001N1+03541+01621100611ADDAA106000091GF105991051021004501001001MA1999999099611MD1999999-0031REMSYN070AAXX  29184 82392 32499 50901 10354 20162 39961 40061 85200 333 59003;EQDQ01  00002PRCP06
0208823920999992002103000004-03700-040350FM-12+008399999V0203601N000512200019N0040001N1+02681+01781100981ADDAA106000091GA1001+999999999GF100991001001999999001001KA1240M+03591MA1999999099961MD1999999+0021REMSYN082AAXX  30004 82392 32996 03601 10268 20178 39996 40098 333 10359 29052 55096 58002;EQDQ01  00002PRCP06
0186823920999992002103012004-03700-040350FM-12+008399999V0201401N000512200019N0500001N1+02821+02021101121ADDAA106000091GF102991021011004501001001KA1240N+02071MA1999999100101MD1999999+0001REMSYN076AAXX  30124 82392 32499 21401 10282 20202 30010 40112 82100 333 20207 58000;EQDQ01  00002PRCP06
0167823920999992002103018004-03700-040350FM-12+008399999V0200501N001012200019N0500001N1+03521+01701100601ADDAA106000091GF102991021011004501001001MA1999999099601MD1999999-0011REMSYN070AAXX  30184 82392 32499 20502 10352 20170 39960 40060 82100 333 59001;EQDQ01  00002PRCP06
0208823920999992002103100004-03700-040350FM-12+008399999V0203601N002612200019N0040001N1+02641+01981100991ADDAA106000091GA1001+999999999GF100991001001999999001001KA1240M+03621MA1999999099971MD1999999+0011REMSYN082AAXX  31004 82392 32996 03605 10264 20198 39997 40099 333 10362 29058 55100 58001;EQDQ01  00002PRCP06
0186823920999992002103112004-03700-040350FM-12+008399999V0200501N001010450019N0500001N1+02931+01971101201ADDAA106000091GF106991041021004501031001KA1240N+02171MA1999999100181MD1999999+0081REMSYN076AAXX  31124 82392 32499 60502 10293 20197 30018 40120 84230 333 20217 58008;EQDQ01  00002PRCP06
0167823920999992002103118004-03700-040350FM-12+008399999V0200501N000512200019N0500001N1+03111+01641100521ADDAA106000091GF103991031011004501001001MA1999999099521MD1999999-0081REMSYN070AAXX  31184 82392 32499 30501 10311 20164 39952 40052 83100 333 59008;EQDQ01  00002PRCP06
0208823920999992002110100004-03700-040350FM-12+008399999V0200501N002612200019N0040001N1+02501+02151100961ADDAA106000091GA1001+999999999GF100991001001999999001001KA1240M+03781MA1999999099941MD1999999-0031REMSYN082AAXX  01004 82392 32996 00505 10250 20215 39994 40096 333 10378 29062 55105 59003;EQDQ01  00002PRCP06
0186823920999992002110112004-03700-040350FM-12+008399999V0200501N001012200019N0500001N1+02921+01921101161ADDAA106000091GF102991021011004501001001KA1240N+02021MA1999999100141MD1999999-0041REMSYN076AAXX  01124 82392 32499 20502 10292 20192 30014 40116 82100 333 20202 59004;EQDQ01  00002PRCP06
0167823920999992002110118004-03700-040350FM-12+008399999V0203601N001012200019N0500001N1+03611+01741100601ADDAA106000091GF103991031011004501001001MA1999999099741MD1999999+0001REMSYN070AAXX  01184 82392 32499 33602 10361 20174 39974 40060 83100 333 58000;EQDQ01  00002PRCP06
0208823920999992002110200004-03700-040350FM-12+008399999V0200501N001012200019N0020001N1+02601+01871101071ADDAA106000091GA1001+999999999GF100991001001999999001001KA1240M+03721MA1999999100051MD1999999+0111REMSYN082AAXX  02004 82392 32595 00502 10260 20187 30005 40107 333 10372 29054 55105 58011;EQDQ01  00002PRCP06
0202823920999992002110212004-03700-040350FM-12+008399999V0201401N001019999999N0500001N1+02961+01961101271ADDAA106000091GF106991999011008001001001KA1240N+02121MA1999999100251MD1999999+0011REMSYN076AAXX  02124 82392 32599 61402 10296 20196 30025 40127 82100 333 20212 58001;EQDQ01+000022SCOTLCQ02  00002PRCP06
0183823920999992002110218004-03700-040350FM-12+008399999V0200901N000512200019N0500001N1+03601+01811100581ADDAA106000091GF102991999011008001001001MA1999999099581MD1999999-0021REMSYN070AAXX  02184 82392 32599 20901 10360 20181 39958 40058 81100 333 59002;EQDQ01+000012SCOTLCQ02  00002PRCP06
0208823920999992002110300004-03700-040350FM-12+008399999V0203601N001512200019N0040001N1+02591+02101100981ADDAA106000091GA1001+999999999GF100991001001999999001001KA1240M+03651MA1999999099961MD1999999-0091REMSYN082AAXX  03004 82392 32996 03603 10259 20210 39996 40098 333 10365 29056 55093 59009;EQDQ01  00002PRCP06
0202823920999992002110312004-03700-040350FM-12+008399999V0200501N001519999999N0500001N1+02821+02021101161ADDAA106000091GF106991999021004501001001KA1240N+02391MA1999999100141MD1999999-0111REMSYN076AAXX  03124 82392 32499 60503 10282 20202 30014 40116 84200 333 20239 59011;EQDQ01+000042SCOTLCQ02  00002PRCP06
0183823920999992002110318004-03700-040350FM-12+008399999V0200501N003112200019N0500001N1+03381+02711100751ADDAA106000091GF104991999021004501001001MA1999999099741MD1999999+0161REMSYN070AAXX  03184 82392 32499 40506 10338 20271 39974 40075 83200 333 58016;EQDQ01+000032SCOTLCQ02  00002PRCP06
0208823920999992002110400004-03700-040350FM-12+008399999V0200501N005112200019N0040001N1+02601+02011101161ADDAA106000091GA1001+999999999GF100991001001999999001001KA1240M+03601MA1999999100141MD1999999+0181REMSYN082AAXX  04004 82392 32596 00510 10260 20201 30014 40116 333 10360 29060 55088 58018;EQDQ01  00002PRCP06
0186823920999992002110412004-03700-040350FM-12+008399999V0200501N001012200019N0500001N1+02201+02041101271ADDAA106000091GF101991011011004501001001KA1240N+02001MA1999999100251MD1999999+0111REMSYN076AAXX  04124 82392 32499 10502 10220 20204 30025 40127 81100 333 20200 58011;EQDQ01  00002PRCP06
0167823920999992002110418004-03700-040350FM-12+008399999V0200901N000512200019N0500001N1+03521+01501100741ADDAA106000091GF102991021021004501001001MA1999999099721MD1999999-0021REMSYN070AAXX  04184 82392 32499 20901 10352 20150 39972 40074 82200 333 59002;EQDQ01  00002PRCP06
0208823920999992002110500004-03700-040350FM-12+008399999V0203601N000512200019N0040001N1+02671+02091101171ADDAA106000091GA1001+999999999GF100991001001999999001001KA1240M+03641MA1999999100151MD1999999+0011REMSYN082AAXX  05004 82392 32996 03601 10267 20209 30015 40117 333 10364 29058 55102 58001;EQDQ01  00002PRCP06
0186823920999992002110512004-03700-040350FM-12+008399999V0200901N000512200019N0500001N1+02901+01931101371ADDAA106000091GF102991021011004501001001KA1240N+02201MA1999999100351MD1999999+0111REMSYN076AAXX  05124 82392 32499 20901 10290 20193 30035 40137 82100 333 20220 58011;EQDQ01  00002PRCP06
0167823920999992002110518004-03700-040350FM-12+008399999V0200501N000512200019N0500001N1+03571+01441100781ADDAA106000091GF103991021011004501001011MA1999999099771MD1999999+0051REMSYN070AAXX  05184 82392 32499 30501 10357 20144 39977 40078 82101 333 58005;EQDQ01  00002PRCP06
0208823920999992002110600004-03700-040350FM-12+008399999V0203601N001012200019N0040001N1+02631+02071101071ADDAA106000091GA1001+999999999GF100991001001999999001001KA1240M+03711MA1999999100051MD1999999-0101REMSYN082AAXX  06004 82392 32996 03602 10263 20207 30005 40107 333 10371 29057 55105 59010;EQDQ01  00002PRCP06
0186823920999992002110612004-03700-040350FM-12+008399999V0200901N000510450019N0500001N1+02821+02021101321ADDAA106000091GF106991041021004501031001KA1240N+02201MA1999999100301MD1999999-0051REMSYN076AAXX  06124 82392 32499 60901 10282 20202 30030 40132 84230 333 20220 59005;EQDQ01  00002PRCP06
0167823920999992002110618004-03700-040350FM-12+008399999V0200901N001012200019N0500001N1+03521+01741100831ADDAA106000091GF101991011011004501001001MA1999999099821MD1999999+0051REMSYN070AAXX  06184 82392 32499 10902 10352 20174 39982 40083 81100 333 58005;EQDQ01  00002PRCP06
0208823920999992002110700004-03700-040350FM-12+008399999V0203601N002612200019N0040001N1+02601+02031101151ADDAA106000091GA1001+999999999GF100991001001999999001001KA1240M+03571MA1999999100131MD1999999+0081REMSYN082AAXX  07004 82392 32996 03605 10260 20203 30013 40115 333 10357 29060 55065 58008;EQDQ01  00002PRCP06
0186823920999992002110712004-03700-040350FM-12+008399999V0203601N000510450019N0500001N1+02871+02081101361ADDAA106000091GF107991041041004501031001KA1240N+02281MA1999999100341MD1999999+0041REMSYN076AAXX  07124 82392 32499 73601 10287 20208 30034 40136 84430 333 20228 58004;EQDQ01  00002PRCP06
0167823920999992002110718004-03700-040350FM-12+008399999V0201801N000512200019N0500001N1+03531+01931100821ADDAA106000091GF105991031021004501001011MA1999999099811MD1999999-0011REMSYN070AAXX  07184 82392 32499 51801 10353 20193 39981 40082 83201 333 59001;EQDQ01  00002PRCP06
0208823920999992002110800004-03700-040350FM-12+008399999V0200501N011012200019N0040001N1+02601+02121101171ADDAA106000091GA1001+999999999GF100991001001999999001001KA1240M+03601MA1999999100151MD1999999+0021REMSYN082AAXX  08001 82392 32996 00511 10260 20212 30015 40117 333 10360 29063 55059 58002;EQDQ01  00002PRCP06
0186823920999992002110812004-03700-040350FM-12+008399999V0201401N001010450019N0500001N1+02881+01941101421ADDAA106000091GF106991041041004501031001KA1240N+02311MA1999999100401MD1999999+0061REMSYN076AAXX  08124 82392 32499 61402 10288 20194 30040 40142 84430 333 20231 58006;EQDQ01  00002PRCP06
0167823920999992002110818004-03700-040350FM-12+008399999V0200501N000510450019N0500001N1+03441+01721100851ADDAA106000091GF105991031021004501011001MA1999999099841MD1999999+0031REMSYN070AAXX  08184 82392 32499 50501 10344 20172 39984 40085 83210 333 58003;EQDQ01  00002PRCP06
0208823920999992002110900004-03700-040350FM-12+008399999V0200501N005712200019N0040001N1+02561+02111101221ADDAA106000091GA1001+999999999GF100991001001999999001001KA1240M+03641MA1999999100201MD1999999+0051REMSYN082AAXX  09004 82392 32996 00511 10256 20211 30020 40122 333 10364 29061 55074 58005;EQDQ01  00002PRCP06
0186823920999992002110912004-03700-040350FM-12+008399999V0200901N001512200019N0500001N1+02981+01981101381ADDAA106000091GF103991011011004501031001KA1240N+02161MA1999999100361MD1999999-0041REMSYN076AAXX  09124 82392 32499 30903 10298 20198 30036 40138 81130 333 20216 59004;EQDQ01  00002PRCP06
0167823920999992002110918004-03700-040350FM-12+008399999V0200901N001012200019N0500001N1+03521+01601100881ADDAA106000091GF102991021021004501001001MA1999999099871MD1999999+0031REMSYN070AAXX  09184 82392 32499 20902 10352 20160 39987 40088 82200 333 58003;EQDQ01  00002PRCP06
0208823920999992002111000004-03700-040350FM-12+008399999V0200501N004612200019N0040001N1+02621+01881101141ADDAA106000091GA1001+999999999GF100991001001999999001001KA1240M+03601MA1999999100121MD1999999-0081REMSYN082AAXX  10004 82392 32996 00509 10262 20188 30012 40114 333 10360 29054 55092 59008;EQDQ01  00002PRCP06
0186823920999992002111012004-03700-040350FM-12+008399999V0200501N000510450019N0500001N1+02961+02071101371ADDAA106000091GF106991041021004501031001KA1240N+02191MA1999999100351MD1999999-0011REMSYN076AAXX  10124 82392 32499 60501 10296 20207 30035 40137 84230 333 20219 59001;EQDQ01  00002PRCP06
0167823920999992002111018004-03700-040350FM-12+008399999V0201401N000512200019N0500001N1+03541+01521100781ADDAA106000091GF104991041021004501001001MA1999999099771MD1999999-0101REMSYN070AAXX  10184 82392 32499 41401 10354 20152 39977 40078 84200 333 59010;EQDQ01  00002PRCP06
0208823920999992002111100004-03700-040350FM-12+008399999V0203601N001012200019N0040001N1+02651+02091101121ADDAA106000091GA1001+999999999GF100991001001999999001001KA1240M+03701MA1999999100101MD1999999-0021REMSYN082AAXX  11004 82392 32996 03602 10265 20209 30010 40112 333 10370 29058 55090 59002;EQDQ01  00002PRCP06
0186823920999992002111112004-03700-040350FM-12+008399999V0200901N002610042019N0500001N1+02921+02061101301ADDAA106000091GF106991051041004501031001KA1240N+02191MA1999999100281MD1999999-0041REMSYN076AAXX  11124 82392 32499 60905 10292 20206 30028 40130 85430 333 20219 59004;EQDQ01  00002PRCP06
0167823920999992002111118004-03700-040350FM-12+008399999V0201401N001010042019N0500001N1+03641+01551100761ADDAA106000091GF105991051021004501001001MA1999999099751MD1999999-0021REMSYN070AAXX  11184 82392 32499 51402 10364 20155 39975 40076 85200 333 59002;EQDQ01  00002PRCP06
0208823920999992002111200004-03700-040350FM-12+008399999V0203601N000512200019N0040001N1+02671+01891101121ADDAA106000091GA1001+999999999GF100991001001999999001001KA1240M+03671MA1999999100101MD1999999+0001REMSYN082AAXX  12004 82392 32996 03601 10267 20189 30010 40112 333 10367 29053 55094 58000;EQDQ01  00002PRCP06
0186823920999992002111212004-03700-040350FM-12+008399999V0200901N001510450019N0500001N1+02921+02141101261ADDAA106000091GF105991041021004501031001KA1240N+02311MA1999999100241MD1999999-0041REMSYN076AAXX  12124 82392 32499 50903 10292 20214 30024 40126 84230 333 20231 59004;EQDQ01  00002PRCP06
0171823920999992002111218004-03700-040350FM-12+008399999V0203601N000510450019N0500001N1+03321+02041100861ADDAY151061AY251061GF106991041041004501031001MA1999999099851MD1999999+0101MW1021REMSYN082AAXX  12184 82392 21499 63601 10332 20204 39985 40086 70255 84430 333 58010 69931;
0208823920999992002111300004-03700-040350FM-12+008399999V0203601N001012200019N0040001N1+02641+02031101221ADDAA106000091GA1001+999999999GF100991001001999999001001KA1240M+03451MA1999999100201MD1999999+0101REMSYN082AAXX  13004 82392 32996 03602 10264 20203 30020 40122 333 10345 29062 55064 58010;EQDQ01  00002PRCP06
0162823920999992002111312004-03700-040350FM-12+008399999V0200501N002610450019N0500001N1+02801+02151101371ADDGF107991041051004501011001KA1240N+02221MA1999999100351MD1999999+0111REMSYN082AAXX  13124 82392 22499 70505 10280 20215 30035 40137 84510 333 20222 58011 69934;
0167823920999992002111318004-03700-040350FM-12+008399999V0201401N001012200019N0500001N1+03501+01811100911ADDAA106000091GF104991041021004501001001MA1999999099901MD1999999+0051REMSYN070AAXX  13184 82392 32499 41402 10350 20181 39990 40091 84200 333 58005;EQDQ01  00002PRCP06
0208823920999992002111400004-03700-040350FM-12+008399999V0200501N000512200019N0040001N1+02661+02041101261ADDAA106000091GA1001+999999999GF100991001001999999001001KA1240M+03551MA1999999100241MD1999999+0041REMSYN082AAXX  14004 82392 32996 00501 10266 20204 30024 40126 333 10355 29061 55082 58004;EQDQ01  00002PRCP06
0186823920999992002111412004-03700-040350FM-12+008399999V0200901N000510042019N0500001N1+02861+02031101371ADDAA106000091GF106991061041004501001001KA1240N+02221MA1999999100351MD1999999+0001REMSYN076AAXX  14124 82392 32499 60901 10286 20203 30035 40137 86400 333 20222 58000;EQDQ01  00002PRCP06
0167823920999992002111418004-03700-040350FM-12+008399999V0200901N000512200019N0500001N1+03611+01481100821ADDAA106000091GF104991031021004501001011MA1999999099811MD1999999-0091REMSYN070AAXX  14184 82392 32499 40901 10361 20148 39981 40082 83201 333 59009;EQDQ01  00002PRCP06
0208823920999992002111500004-03700-040350FM-12+008399999V0200501N002612200019N0040001N1+02621+02121101171ADDAA106000091GA1001+999999999GF100991001001999999001001KA1240M+03681MA1999999100151MD1999999-0091REMSYN082AAXX  15004 82392 32996 00505 10262 20212 30015 40117 333 10368 29059 55088 59009;EQDQ01  00002PRCP06
0186823920999992002111512004-03700-040350FM-12+008399999V0200501N001012200019N0500001N1+03041+01941101271ADDAA106000091GF102991021011004501001001KA1240N+02161MA1999999100251MD1999999-0101REMSYN076AAXX  15124 82392 32499 20502 10304 20194 30025 40127 82100 333 20216 59010;EQDQ01  00002PRCP06
0167823920999992002111518004-03700-040350FM-12+008399999V0209999C000012200019N0500001N1+03681+01691100681ADDAA106000091GF104991021021004501031001MA1999999099671MD1999999-0141REMSYN070AAXX  15184 82392 32499 40000 10368 20169 39967 40068 82230 333 59014;EQDQ01  00002PRCP06
0208823920999992002111600004-03700-040350FM-12+008399999V0200501N002612200019N0040001N1+02701+02221101031ADDAA106000091GA1001+999999999GF100991001001999999001001KA1240M+03741MA1999999100021MD1999999-0131REMSYN082AAXX  16004 82392 32996 00505 10270 20222 30002 40103 333 10374 29058 55092 59013;EQDQ01  00002PRCP06
0186823920999992002111612004-03700-040350FM-12+008399999V0200901N000510450019N0500001N1+02941+02001101331ADDAA106000091GF106991041021004501031001KA1240N+02371MA1999999100311MD1999999+0061REMSYN076AAXX  16124 82392 32499 60901 10294 20200 30031 40133 84230 333 20237 58006;EQDQ01  00002PRCP06
0167823920999992002111618004-03700-040350FM-12+008399999V0203601N000512200019N0500001N1+03661+01671100741ADDAA106000091GF104991041021004501001001MA1999999099731MD1999999+0061REMSYN070AAXX  16184 82392 32499 43601 10366 20167 39973 40074 84200 333 58006;EQDQ01  00002PRCP06
0198823920999992002111700004-03700-040350FM-12+008399999V0203601N001012200019N0040001N1+02661+02041101111ADDAA106000091GF102991021001008001031001KA1240M+03691MA1999999100091MD1999999+0071REMSYN088AAXX  17004 82392 32596 23602 10266 20204 30009 40111 82030 333 10369 29057 55097 58007;EQDQ01  00002PRCP06
0186823920999992002111712004-03700-040350FM-12+008399999V0200501N005112200019N0500001N1+02981+02231101221ADDAA106000091GF103991031021004501001001KA1240N+02411MA1999999100201MD1999999-0111REMSYN076AAXX  17124 82392 32499 30510 10298 20223 30020 40122 83200 333 20241 59011;EQDQ01  00002PRCP06
0183823920999992002111718004-03700-040350FM-12+008399999V0200501N001012200019N0500001N1+03401+01721100731ADDAA106000091GF104991999011004501001001MA1999999099721MD1999999-0101REMSYN070AAXX  17184 82392 32499 40502 10340 20172 39972 40073 82100 333 59010;EQDQ01+000022SCOTLCQ02  00002PRCP06
0208823920999992002111800004-03700-040350FM-12+008399999V0200501N005712200019N0040001N1+02601+01871101121ADDAA106000091GA1001+999999999GF100991001001999999001001KA1240M+03621MA1999999100101MD1999999+0011REMSYN082AAXX  18004 82392 32996 00511 10260 20187 30010 40112 333 10362 29057 55083 58001;EQDQ01  00002PRCP06
0186823920999992002111812004-03700-040350FM-12+008399999V0200901N001510042019N0500001N1+02921+02041101271ADDAA106000091GF106991051021004501031001KA1240N+02011MA1999999100251MD1999999+0051REMSYN076AAXX  18124 82392 32499 60903 10292 20204 30025 40127 85230 333 20201 58005;EQDQ01  00002PRCP06
0167823920999992002111818004-03700-040350FM-12+008399999V0200901N001012200019N0500001N1+03541+01801100721ADDAA106000091GF103991031021004501001001MA1999999099711MD1999999-0011REMSYN070AAXX  18184 82392 32499 30902 10354 20180 39971 40072 83200 333 59001;EQDQ01  00002PRCP06
0208823920999992002111900004-03700-040350FM-12+008399999V0203601N001012200019N0040001N1+02661+02001101131ADDAA106000091GA1001+999999999GF100991001001999999001001KA1240M+03591MA1999999100111MD1999999+0011REMSYN082AAXX  19004 82392 32996 03602 10266 20200 30011 40113 333 10359 29058 55099 58001;EQDQ01  00002PRCP06
0186823920999992002111912004-03700-040350FM-12+008399999V0200901N000512200019N0500001N1+02901+02041101231ADDAA106000091GF104991041021004501001001KA1240N+02141MA1999999100211MD1999999-0041REMSYN076AAXX  19124 82392 32499 40901 10290 20204 30021 40123 84200 333 20214 59004;EQDQ01  00002PRCP06
0167823920999992002111918004-03700-040350FM-12+008399999V0200901N001012200019N0500001N1+03661+01461100691ADDAA106000091GF103991021011004501011001MA1999999099681MD1999999-0031REMSYN070AAXX  19184 82392 32499 30902 10366 20146 39968 40069 82110 333 59003;EQDQ01  00002PRCP06
0214823920999992002112000004-03700-040350FM-12+008399999V0203601N001512200019N0040001N1+02631+01931101091ADDAA106000091GF102991999001008001031001KA1240M+03711MA1999999100071MD1999999-0041REMSYN088AAXX  20004 82392 32596 23603 10263 20193 30007 40109 81030 333 10371 29054 55108 59004;EQDQ01+000012SCOTLCQ02  00002PRCP06
0186823920999992002112012004-03700-040350FM-12+008399999V0200901N001512200019N0500001N1+02901+02041101141ADDAA106000091GF103991031021004501001001KA1240N+02131MA1999999100121MD1999999-0091REMSYN076AAXX  20124 82392 32499 30903 10290 20204 30012 40114 83200 333 20213 59009;EQDQ01  00002PRCP06
0167823920999992002112018004-03700-040350FM-12+008399999V0200501N001512200019N0500001N1+03961+01741100601ADDAA106000091GF101991011011004501001001MA1999999099601MD1999999-0081REMSYN070AAXX  20184 82392 32499 10503 10396 20174 39960 40060 81100 333 59008;EQDQ01  00002PRCP06
0208823920999992002112100004-03700-040350FM-12+008399999V0203601N002612200019N0040001N1+02661+01871101081ADDAA106000091GA1001+999999999GF100991001001999999001001KA1240M+03731MA1999999100061MD1999999-0011REMSYN082AAXX  21004 82392 32996 03605 10266 20187 30006 40108 333 10373 29054 55097 59001;EQDQ01  00002PRCP06
0186823920999992002112112004-03700-040350FM-12+008399999V0200901N002610450019N0500001N1+02901+02071101291ADDAA106000091GF106991041041004501031001KA1240N+02221MA1999999100271MD1999999+0151REMSYN076AAXX  21124 82392 32499 60905 10290 20207 30027 40129 84430 333 20222 58015;EQDQ01  00002PRCP06
0167823920999992002112118004-03700-040350FM-12+008399999V0200901N001012200019N0500001N1+03531+01711100801ADDAA106000091GF104991041021004501001001MA1999999099791MD1999999-0191REMSYN070AAXX  21184 82392 32499 40902 10353 20171 39979 40080 84200 333 59019;EQDQ01  00002PRCP06
0208823920999992002112200004-03700-040350FM-12+008399999V0200501N005112200019N0040001N1+02641+02201101041ADDAA106000091GA1001+999999999GF100991001001999999001001KA1240M+03681MA1999999100021MD1999999-0041REMSYN082AAXX  22004 82392 32996 00510 10264 20220 30002 40104 333 10368 29062 55093 59004;EQDQ01  00002PRCP06
0186823920999992002112212004-03700-040350FM-12+008399999V0200901N001512200019N0500001N1+03081+01941101231ADDAA106000091GF101991011011004501001001KA1240N+02341MA1999999100211MD1999999-0061REMSYN076AAXX  22124 82392 32499 10903 10308 20194 30021 40123 81100 333 20234 59006;EQDQ01  00002PRCP06
0167823920999992002112218004-03700-040350FM-12+008399999V0209999C000010042019N0500001N1+03621+01741100841ADDAA106000091GF105991051021004501001001MA1999999099831MD1999999+0041REMSYN070AAXX  22184 82392 32499 50000 10362 20174 39983 40084 85200 333 58004;EQDQ01  00002PRCP06
0208823920999992002112300004-03700-040350FM-12+008399999V0200501N005712200019N0040001N1+02641+02181101201ADDAA106000091GA1001+999999999GF100991001001999999001001KA1240M+03701MA1999999100181MD1999999+0161REMSYN082AAXX  23004 82392 32996 00511 10264 20218 30018 40120 333 10370 29059 55091 58016;EQDQ01  00002PRCP06
0186823920999992002112312004-03700-040350FM-12+008399999V0201401N003112200019N0500001N1+03021+02101101301ADDAA106000091GF101991011011008001001001KA1240N+02241MA1999999100281MD1999999+0071REMSYN076AAXX  23124 82392 32599 11406 10302 20210 30028 40130 81100 333 20224 58007;EQDQ01  00002PRCP06
0183823920999992002112318004-03700-040350FM-12+008399999V0201401N000512200019N0500001N1+03701+01651100771ADDAA106000091GF103991999011004501001001MA1999999099761MD1999999-0071REMSYN070AAXX  23184 82392 32499 31401 10370 20165 39976 40077 82100 333 59007;EQDQ01+000022SCOTLCQ02  00002PRCP06
0208823920999992002112400004-03700-040350FM-12+008399999V0200501N005112200019N0040001N1+02761+01911101111ADDAA106000091GA1001+999999999GF100991001001999999001001KA1240M+03741MA1999999100101MD1999999-0081REMSYN082AAXX  24004 82392 32996 00510 10276 20191 30010 40111 333 10374 29052 55107 59008;EQDQ01  00002PRCP06
0167823920999992002112418004-03700-040350FM-12+008399999V0200901N000510042019N0500001N1+03531+01801100791ADDAA106000091GF106991061021004501001001MA1999999099781MD1999999+0021REMSYN070AAXX  24184 82392 32499 60901 10353 20180 39978 40079 86200 333 58002;EQDQ01  00002PRCP06
0198823920999992002112500004-03700-040350FM-12+008399999V0203601N002612200019N0040001N1+02681+02111101251ADDAA106000091GF101991011001008001021001KA1240M+03711MA1999999100241MD1999999+0141REMSYN088AAXX  25004 82392 32596 13605 10268 20211 30024 40125 81020 333 10371 29059 55088 58014;EQDQ01  00002PRCP06
0186823920999992002112512004-03700-040350FM-12+008399999V0200901N004610450019N0500001N1+02861+02161101271ADDAA106000091GF107991041041004501031001KA1240N+02381MA1999999100251MD1999999-0041REMSYN076AAXX  25124 82392 32499 70909 10286 20216 30025 40127 84430 333 20238 59004;EQDQ01  00002PRCP06
0167823920999992002112518004-03700-040350FM-12+008399999V0200901N001512200019N0500001N1+03421+02091100841ADDAA106000091GF102991021011004501001001MA1999999099831MD1999999+0051REMSYN070AAXX  25184 82392 32499 20903 10342 20209 39983 40084 82100 333 58005;EQDQ01  00002PRCP06
0198823920999992002112600004-03700-040350FM-12+008399999V0203601N002612200019N0040001N1+02721+02121101201ADDAA106000091GF102991021011008001001001KA1240M+03491MA1999999100181MD1999999-0061REMSYN088AAXX  26004 82392 32596 23605 10272 20212 30018 40120 82100 333 10349 29063 55066 59006;EQDQ01  00002PRCP06
0186823920999992002112612004-03700-040350FM-12+008399999V0200901N001012200019N0500001N1+03021+02161101311ADDAA106000091GF103991031021004501001001KA1240N+02381MA1999999100301MD1999999-0051REMSYN076AAXX  26124 82392 32499 30902 10302 20216 30030 40131 83200 333 20238 59005;EQDQ01  00002PRCP06
0167823920999992002112618004-03700-040350FM-12+008399999V0200501N001012200019N0500001N1+03561+01591100721ADDAA106000091GF103991021011004501011001MA1999999099711MD1999999-0121REMSYN070AAXX  26184 82392 32499 30502 10356 20159 39971 40072 82110 333 59012;EQDQ01  00002PRCP06
0208823920999992002112700004-03700-040350FM-12+008399999V0203601N002612200019N0040001N1+02721+01931101101ADDAA106000091GA1001+999999999GF100991001001999999001001KA1240M+03671MA1999999100091MD1999999-0091REMSYN082AAXX  27004 82392 32996 03605 10272 20193 30009 40110 333 10367 29054 55112 59009;EQDQ01  00002PRCP06
0186823920999992002112712004-03700-040350FM-12+008399999V0200901N001010450019N0500001N1+02881+02101101271ADDAA106000091GF105991041021004501031001KA1240N+02201MA1999999100251MD1999999-0051REMSYN076AAXX  27124 82392 32499 50902 10288 20210 30025 40127 84230 333 20220 59005;EQDQ01  00002PRCP06
0167823920999992002112718004-03700-040350FM-12+008399999V0201401N001012200019N0500001N1+03581+01841100771ADDAA106000091GF102991021011004501001001MA1999999099761MD1999999+0051REMSYN070AAXX  27184 82392 32499 21402 10358 20184 39976 40077 82100 333 58005;EQDQ01  00002PRCP06
0208823920999992002112800004-03700-040350FM-12+008399999V0200501N001512200019N0040001N1+02661+02141101041ADDAA106000091GA1001+999999999GF100991001001999999001001KA1240M+03611MA1999999100021MD1999999-0071REMSYN082AAXX  28004 82392 32996 00503 10266 20214 30002 40104 333 10361 29061 55087 59007;EQDQ01  00002PRCP06
0186823920999992002112812004-03700-040350FM-12+008399999V0200501N001510042019N0500001N1+02941+02051101191ADDAA106000091GF106991061021004501001001KA1240N+02121MA1999999100171MD1999999-0081REMSYN076AAXX  28124 82392 32499 60503 10294 20205 30017 40119 86200 333 20212 59008;EQDQ01  00002PRCP06
0167823920999992002112818004-03700-040350FM-12+008399999V0200501N002612200019N0500001N1+03711+01561100601ADDAA106000091GF102991011011004501001011MA1999999099601MD1999999-0161REMSYN070AAXX  28184 82392 32499 20505 10371 20156 39960 40060 81101 333 59016;EQDQ01  00002PRCP06
0208823920999992002112900004-03700-040350FM-12+008399999V0200501N005112200019N0040001N1+02601+02061101061ADDAA106000091GA1001+999999999GF100991001001999999001001KA1240M+03741MA1999999100041MD1999999+0021REMSYN082AAXX  29004 82392 32996 00510 10260 20206 30004 40106 333 10374 29058 55102 58002;EQDQ01  00002PRCP06
0186823920999992002112912004-03700-040350FM-12+008399999V0201401N001012200019N0500001N1+03021+02101101241ADDAA106000091GF103991031021004501001001KA1240N+02401MA1999999100221MD1999999+0051REMSYN076AAXX  29124 82392 32499 31402 10302 20210 30022 40124 83200 333 20240 58005;EQDQ01  00002PRCP06
0167823920999992002112918004-03700-040350FM-12+008399999V0200901N001012200019N0500001N1+03521+01651100681ADDAA106000091GF104991031011004501031001MA1999999099671MD1999999+0071REMSYN070AAXX  29184 82392 32499 40902 10352 20165 39967 40068 83130 333 58007;EQDQ01  00002PRCP06
0208823920999992002113000004-03700-040350FM-12+008399999V0200501N004612200019N0040001N1+02741+02021101071ADDAA106000091GA1001+999999999GF100991001001999999001001KA1240M+03701MA1999999100061MD1999999+0021REMSYN082AAXX  30004 82392 32996 00509 10274 20202 30006 40107 333 10370 29055 55105 58002;EQDQ01  00002PRCP06
0202823920999992002113012004-03700-040350FM-12+008399999V0202301N001019999999N0500001N1+02881+02161101331ADDAA106000091GF106991999021008001001001KA1240N+02341MA1999999100311MD1999999+0091REMSYN076AAXX  30124 82392 32599 62302 10288 20216 30031 40133 82200 333 20234 58009;EQDQ01+000022SCOTLCQ02  00002PRCP06
0167823920999992002113018004-03700-040350FM-12+008399999V0200501N002612200019N0500001N1+03521+01991100821ADDAA106000091GF104991031021004501031001MA1999999099811MD1999999+0141REMSYN070AAXX  30184 82392 32499 40505 10352 20199 39981 40082 83230 333 58014;EQDQ01  00002PRCP06
0208823920999992002120100004-03700-040350FM-12+008399999V0200501N001012200019N0040001N1+02701+02081101181ADDAA106000091GA1001+999999999GF100991001001999999001001KA1240M+03601MA1999999100161MD1999999+0101REMSYN082AAXX  01004 82392 32996 00502 10270 20208 30016 40118 333 10360 29061 55089 58010;EQDQ01  00002PRCP06
0186823920999992002120112004-03700-040350FM-12+008399999V0202301N000510450019N0500001N1+02781+02181101261ADDAA106000091GF108991041071004501021999KA1240N+02301MA1999999100241MD1999999-0071REMSYN076AAXX  01124 82392 32499 82301 10278 20218 30024 40126 8472/ 333 20230 59007;EQDQ01  00002PRCP06
0186823920999992002120212004-03700-040350FM-12+008399999V0201401N001010450019N0500001N1+02841+02241101241ADDAA106000091GF106991041041004501031001KA1240N+02381MA1999999100221MD1999999-0021REMSYN076AAXX  02124 82392 32499 61402 10284 20224 30022 40124 84430 333 20238 59002;EQDQ01  00002PRCP06
0167823920999992002120218004-03700-040350FM-12+008399999V0201401N001512200019N0500001N1+03601+01721100671ADDAA106000091GF103991031021004501001001MA1999999099661MD1999999-0041REMSYN070AAXX  02184 82392 32499 31403 10360 20172 39966 40067 83200 333 59004;EQDQ01  00002PRCP06
0208823920999992002120300004-03700-040350FM-12+008399999V0203601N002612200019N0040001N1+02681+01971101011ADDAA106000091GA1001+999999999GF100991001001999999001001KA1240M+03671MA1999999099991MD1999999-0111REMSYN082AAXX  03004 82392 32996 03605 10268 20197 39999 40101 333 10367 29058 55081 59011;EQDQ01  00002PRCP06
0186823920999992002120312004-03700-040350FM-12+008399999V0202301N000510042019N0500001N1+02861+02091101221ADDAA106000091GF107991051041004501031001KA1240N+02301MA1999999100201MD1999999-0021REMSYN076AAXX  03124 82392 32499 72301 10286 20209 30020 40122 85430 333 20230 59002;EQDQ01  00002PRCP06
0167823920999992002120318004-03700-040350FM-12+008399999V0200901N000510450019N0500001N1+03541+01711100721ADDAA106000091GF105991041041004501031001MA1999999099711MD1999999+0051REMSYN070AAXX  03184 82392 32499 50901 10354 20171 39971 40072 84430 333 58005;EQDQ01  00002PRCP06
0208823920999992002120400004-03700-040350FM-12+008399999V0200501N001012200019N0040001N1+02701+02131101091ADDAA106000091GA1001+999999999GF100991001001999999001001KA1240M+03651MA1999999100071MD1999999+0081REMSYN082AAXX  04004 82392 32996 00502 10270 20213 30007 40109 333 10365 29060 55069 58008;EQDQ01  00002PRCP06
0186823920999992002120412004-03700-040350FM-12+008399999V0200901N001012200019N0500001N1+03021+02021101211ADDAA106000091GF103991031021004501001001KA1240N+02301MA1999999100201MD1999999+0001REMSYN076AAXX  04124 82392 32499 30902 10302 20202 30020 40121 83200 333 20230 58000;EQDQ01  00002PRCP06
0167823920999992002120418004-03700-040350FM-12+008399999V0200901N000512200019N0500001N1+03541+01621100721ADDAA106000091GF103991031021004501001001MA1999999099711MD1999999+0001REMSYN070AAXX  04184 82392 32499 30901 10354 20162 39971 40072 83200 333 58000;EQDQ01  00002PRCP06
0208823920999992002120500004-03700-040350FM-12+008399999V0200501N001512200019N0040001N1+02741+01951101061ADDAA106000091GA1001+999999999GF100991001001999999001001KA1240M+03671MA1999999100051MD1999999-0021REMSYN082AAXX  05004 82392 32996 00503 10274 20195 30005 40106 333 10367 29054 55100 59002;EQDQ01  00002PRCP06
0186823920999992002120512004-03700-040350FM-12+008399999V0201401N000512200019N0500001N1+03041+01941101171ADDAA106000091GF101991011011004501001001KA1240N+02281MA1999999100161MD1999999-0041REMSYN076AAXX  05124 82392 32499 11401 10304 20194 30016 40117 81100 333 20228 59004;EQDQ01  00002PRCP06
0167823920999992002120518004-03700-040350FM-12+008399999V0201401N001012200019N0500001N1+03681+01741100641ADDAA106000091GF101991011011004501001001MA1999999099641MD1999999-0071REMSYN070AAXX  05184 82392 32499 11402 10368 20174 39964 40064 81100 333 59007;EQDQ01  00002PRCP06
0208823920999992002120600004-03700-040350FM-12+008399999V0200501N005112200019N0040001N1+02721+02121101011ADDAA106000091GA1001+999999999GF100991001001999999001001KA1240M+03721MA1999999100001MD1999999-0051REMSYN082AAXX  06004 82392 32596 00510 10272 20212 30000 40101 333 10372 29056 55111 59005;EQDQ01  00002PRCP06
0186823920999992002120612004-03700-040350FM-12+008399999V0201801N000512200019N0500001N1+03021+02021101071ADDAA106000091GF102991021011004501001001KA1240N+02301MA1999999100061MD1999999-0101REMSYN076AAXX  06124 82392 32499 21801 10302 20202 30006 40107 82100 333 20230 59010;EQDQ01  00002PRCP06
0167823920999992002120618004-03700-040350FM-12+008399999V0200501N004612200019N0500001N1+03721+01451100551ADDAA106000091GF101991011011004501001001MA1999999099551MD1999999-0091REMSYN070AAXX  06184 82392 32499 10509 10372 20145 39955 40055 81100 333 59009;EQDQ01  00002PRCP06
0208823920999992002120700004-03700-040350FM-12+008399999V0200501N005112200019N0040001N1+02601+02101100871ADDAA106000091GA1001+999999999GF100991001001999999001001KA1240M+03761MA1999999099851MD1999999-0151REMSYN082AAXX  07004 82392 32996 00510 10260 20210 39985 40087 333 10376 29057 55110 59015;EQDQ01  00002PRCP06
0202823920999992002120712004-03700-040350FM-12+008399999V0203201N000510042019N0500001N1+02841+02121101171ADDAA106000091GF107991999041004501001001KA1240N+02301MA1999999100151MD1999999+0091REMSYN076AAXX  07124 82392 32499 73201 10284 20212 30015 40117 85400 333 20230 58009;EQDQ01+000052SCOTLCQ02  00002PRCP06
0183823920999992002120718004-03700-040350FM-12+008399999V0201401N001019999999N0500001N1+03501+01861100601ADDAA106000091GF106991999021004501001001MA1999999099601MD1999999+0051REMSYN070AAXX  07184 82392 32499 61402 10350 20186 39960 40060 84200 333 58005;EQDQ01+000042SCOTLCQ02  00002PRCP06
0208823920999992002120800004-03700-040350FM-12+008399999V0200501N004612200019N0040001N1+02621+02271100941ADDAA106000091GA1001+999999999GF100991001001999999001001KA1240M+03621MA1999999099921MD1999999+0071REMSYN082AAXX  08004 82392 32996 00509 10262 20227 39992 40094 333 10362 29066 55072 58007;EQDQ01  00002PRCP06
0186823920999992002120812004-03700-040350FM-12+008399999V0201401N001512200019N0500001N1+02881+02211101121ADDAA106000091GF104991031021004501031001KA1240N+02311MA1999999100101MD1999999-0051REMSYN076AAXX  08124 82392 32499 41403 10288 20221 30010 40112 83230 333 20231 59005;EQDQ01  00002PRCP06
0167823920999992002120818004-03700-040350FM-12+008399999V0200501N005712200019N0500001N1+03401+01931100721ADDAA106000091GF103991031021004501001001MA1999999099711MD1999999+0111REMSYN070AAXX  08184 82392 32499 30511 10340 20193 39971 40072 83200 333 58011;EQDQ01  00002PRCP06
0208823920999992002120900004-03700-040350FM-12+008399999V0200501N002612200019N0040001N1+02701+02281101071ADDAA106000091GA1001+999999999GF100991001001999999001001KA1240M+03541MA1999999100051MD1999999+0131REMSYN082AAXX  09004 82392 32996 00505 10270 20228 30005 40107 333 10354 29066 55086 58013;EQDQ01  00002PRCP06
0186823920999992002120912004-03700-040350FM-12+008399999V0200501N001510450019N0500001N1+02861+02091101241ADDAA106000091GF108991041051004501021999KA1240N+02491MA1999999100221MD1999999+0121REMSYN076AAXX  09124 82392 32499 80503 10286 20209 30022 40124 8452/ 333 20249 58012;EQDQ01  00002PRCP06
0167823920999992002120918004-03700-040350FM-12+008399999V0200501N002610450019N0500001N1+03521+01791100851ADDAA106000091GF106991041041004501031001MA1999999099841MD1999999+0131REMSYN070AAXX  09184 82392 32499 60505 10352 20179 39984 40085 84430 333 58013;EQDQ01  00002PRCP06
0214823920999992002121000004-03700-040350FM-12+008399999V0200501N004610042019N0040001N1+02761+02071101261ADDAA106000091GF107991999051004501001001KA1240M+03581MA1999999100211MD1999999+0161REMSYN088AAXX  10004 82392 32496 70509 10276 20207 30021 40126 85500 333 10358 29058 55041 58016;EQDQ01+000052SCOTLCQ02  00002PRCP06
0186823920999992002121012004-03700-040350FM-12+008399999V0200901N001010450019N0500001N1+02921+02191101291ADDAA106000091GF107991041051004501031001KA1240N+02461MA1999999100271MD1999999+0051REMSYN076AAXX  10124 82392 32499 70902 10292 20219 30027 40129 84530 333 20246 58005;EQDQ01  00002PRCP06
0167823920999992002121018004-03700-040350FM-12+008399999V0200901N002612200019N0500001N1+03581+01841100861ADDAA106000091GF104991031021004501031001MA1999999099851MD1999999+0011REMSYN070AAXX  10184 82392 32499 40905 10358 20184 39985 40086 83230 333 58001;EQDQ01  00002PRCP06
0198823920999992002121100004-03700-040350FM-12+008399999V0200501N004610450019N0040001N1+02821+02221101271ADDAA106000091GF106991041021004501031001KA1240M+03681MA1999999100261MD1999999+0051REMSYN088AAXX  11004 82392 32496 60509 10282 20222 30026 40127 84230 333 10368 29060 55039 58005;EQDQ01  00002PRCP06
0186823920999992002121112004-03700-040350FM-12+008399999V0200901N002612200019N0040001N1+02941+02241101371ADDAA106000091GF101991011011004501001001KA1240N+02501MA1999999100361MD1999999+0091REMSYN076AAXX  11124 82392 32496 10905 10294 20224 30036 40137 81100 333 20250 58009;EQDQ01  00002PRCP06
0167823920999992002121118004-03700-040350FM-12+008399999V0200901N001012200019N0500001N1+03621+01921100931ADDAA106000091GF103991021021004501031001MA1999999099921MD1999999+0071REMSYN070AAXX  11184 82392 32499 30902 10362 20192 39992 40093 82230 333 58007;EQDQ01  00002PRCP06
0214823920999992002121200004-03700-040350FM-12+008399999V0200501N005119999999N0040001N1+02881+02281101171ADDAA106000091GF106991999021004501001001KA1240M+03701MA1999999100161MD1999999-0101REMSYN088AAXX  12004 82392 32496 60510 10288 20228 30016 40117 83200 333 10370 29061 55097 59010;EQDQ01+000032SCOTLCQ02  00002PRCP06
0186823920999992002121212004-03700-040350FM-12+008399999V0200901N001512200019N0500001N1+03001+02171101311ADDAA106000091GF102991021011004501001001KA1240N+02501MA1999999100301MD1999999-0061REMSYN076AAXX  12124 82392 32499 20903 10300 20217 30030 40131 82100 333 20250 59006;EQDQ01  00002PRCP06
0167823920999992002121218004-03700-040350FM-12+008399999V0201401N001012200019N0500001N1+03641+01751100751ADDAA106000091GF103991021011004501051001MA1999999099741MD1999999-0181REMSYN070AAXX  12184 82392 32499 31402 10364 20175 39974 40075 82150 333 59018;EQDQ01  00002PRCP06
0198823920999992002121300004-03700-040350FM-12+008399999V0200501N003612200019N0040001N1+02701+02221101131ADDAA106000091GF102991021001008001031001KA1240M+03721MA1999999100121MD1999999-0041REMSYN088AAXX  13004 82392 32596 20507 10270 20222 30012 40113 82030 333 10372 29061 55075 59004;EQDQ01  00002PRCP06
0186823920999992002121312004-03700-040350FM-12+008399999V0200901N002612200019N0500001N1+03001+02271101311ADDAA106000091GF104991031021004501031001KA1240N+02501MA1999999100301MD1999999+0001REMSYN076AAXX  13124 82392 32499 40905 10300 20227 30030 40131 83230 333 20250 58000;EQDQ01  00002PRCP06
0208823920999992002121400004-03700-040350FM-12+008399999V0200901N002612200019N0040001N1+02761+02231101151ADDAA106000091GA1001+999999999GF100991001001999999001001KA1240M+03781MA1999999100141MD1999999+0021REMSYN082AAXX  14004 82392 32996 00905 10276 20223 30014 40115 333 10378 29061 55088 58002;EQDQ01  00002PRCP06
0186823920999992002121412004-03700-040350FM-12+008399999V0201401N001012200019N0500001N1+03001+02221101261ADDAA106000091GF104991041021004501001001KA1240N+02371MA1999999100251MD1999999-0051REMSYN076AAXX  14124 82392 32499 41402 10300 20222 30025 40126 84200 333 20237 59005;EQDQ01  00002PRCP06
0167823920999992002121418004-03700-040350FM-12+008399999V0200501N004610042019N0500001N1+03581+02131100821ADDAA106000091GF106991051021004501031001MA1999999099811MD1999999-0011REMSYN070AAXX  14184 82392 32499 60509 10358 20213 39981 40082 85230 333 59001;EQDQ01  00002PRCP06
0198823920999992002121500004-03700-040350FM-12+008399999V0200501N004612200019N0040001N1+02821+02101101151ADDAA106000091GF102991021001004501031001KA1240M+03721MA1999999100141MD1999999+0001REMSYN088AAXX  15004 82392 32496 20509 10282 20210 30014 40115 82030 333 10372 29059 55095 58000;EQDQ01  00002PRCP06
0202823920999992002121512004-03700-040350FM-12+008399999V0200901N003610075019N0040001N1+03021+02241101261ADDAA106000091GF106991999021008001001001KA1240N+02481MA1999999100251MD1999999+0001REMSYN076AAXX  15124 82392 32596 60907 10302 20224 30025 40126 85200 333 20248 58000;EQDQ01+000052SCOTLCQ02  00002PRCP06
0183823920999992002121518004-03700-040350FM-12+008399999V0200501N002612200019N0500001N1+03621+01921100761ADDAA106000091GF104991999021004501001001MA1999999099751MD1999999-0061REMSYN070AAXX  15184 82392 32499 40505 10362 20192 39975 40076 86200 333 59006;EQDQ01+000062SCOTLCQ02  00002PRCP06
0198823920999992002121600004-03700-040350FM-12+008399999V0200501N004112200019N0040001N1+02841+02121101041ADDAA106000091GF103991031021008001001001KA1240M+03721MA1999999100031MD1999999-0111REMSYN088AAXX  16004 82392 32596 30508 10284 20212 30003 40104 83200 333 10372 29057 55100 59011;EQDQ01  00002PRCP06
0186823920999992002121612004-03700-040350FM-12+008399999V0201801N001010450019N0500001N1+03061+02301101131ADDAA106000091GF106991041041004501031001KA1240N+02341MA1999999100121MD1999999-0131REMSYN076AAXX  16124 82392 32499 61802 10306 20230 30012 40113 84430 333 20234 59013;EQDQ01  00002PRCP06
0167823920999992002121618004-03700-040350FM-12+008399999V0200501N002612200019N0500001N1+03581+02051100621ADDAA106000091GF103991031021004501001001MA1999999099621MD1999999-0131REMSYN070AAXX  16184 82392 32499 30505 10358 20205 39962 40062 83200 333 59013;EQDQ01  00002PRCP06
0208823920999992002121700004-03700-040350FM-12+008399999V0203601N002612200019N0040001N1+02841+02121101001ADDAA106000091GA1001+999999999GF100991001001999999001001KA1240M+03701MA1999999099991MD1999999-0041REMSYN082AAXX  17004 82392 32996 03605 10284 20212 39999 40100 333 10370 29059 55095 59004;EQDQ01  00002PRCP06
0186823920999992002121712004-03700-040350FM-12+008399999V0200901N003112200019N0500001N1+03101+02181101121ADDAA106000091GF102991021021004501001001KA1240N+02321MA1999999100111MD1999999-0011REMSYN076AAXX  17124 82392 32499 20906 10310 20218 30011 40112 82200 333 20232 59001;EQDQ01  00002PRCP06
0167823920999992002121718004-03700-040350FM-12+008399999V0200901N002610450019N0500001N1+03681+01931100691ADDAA106000091GF105991041021004501031001MA1999999099681MD1999999+0061REMSYN070AAXX  17184 82392 32499 50905 10368 20193 39968 40069 84230 333 58006;EQDQ01  00002PRCP06
0214823920999992002121800004-03700-040350FM-12+008399999V0200901N001012200019N0040001N1+02801+02151101131ADDAA106000091GF101991999011008001001001KA1240M+03681MA1999999100121MD1999999-0131REMSYN088AAXX  18004 82392 32596 10902 10280 20215 30012 40113 82100 333 10368 29058 55095 59013;EQDQ01+000022SCOTLCQ02  00002PRCP06
0186823920999992002121812004-03700-040350FM-12+008399999V0200901N001012200019N0500001N1+02961+02211101161ADDAA106000091GF101991011011004501001001KA1240N+02211MA1999999100151MD1999999+0041REMSYN076AAXX  18124 82392 32499 10902 10296 20221 30015 40116 81100 333 20221 58004;EQDQ01  00002PRCP06
0167823920999992002121818004-03700-040350FM-12+008399999V0200901N002612200019N0500001N1+03541+01621100711ADDAA106000091GF104991031021004501031001MA1999999099701MD1999999+0021REMSYN070AAXX  18184 82392 32499 40905 10354 20162 39970 40071 83230 333 58002;EQDQ01  00002PRCP06
0208823920999992002121900004-03700-040350FM-12+008399999V0203601N004612200019N0040001N1+02821+02021101051ADDAA106000091GA1001+999999999GF100991001001999999001001KA1240M+03721MA1999999100041MD1999999-0081REMSYN082AAXX  19004 82392 32996 03609 10282 20202 30004 40105 333 10372 29055 55101 59008;EQDQ01  00002PRCP06
0186823920999992002121912004-03700-040350FM-12+008399999V0201401N001012200019N0500001N1+02981+02231101121ADDAA106000091GF104991041021004501001001KA1240N+02271MA1999999100111MD1999999-0041REMSYN076AAXX  19124 82392 32499 41402 10298 20223 30011 40112 84200 333 20227 59004;EQDQ01  00002PRCP06
0167823920999992002121918004-03700-040350FM-12+008399999V0200901N002610450019N0500001N1+03521+01701100761ADDAA106000091GF106991041021004501031001MA1999999099751MD1999999+0051REMSYN070AAXX  19184 82392 32499 60905 10352 20170 39975 40076 84230 333 58005;EQDQ01  00002PRCP06
0198823920999992002122000004-03700-040350FM-12+008399999V0200501N005112200019N0040001N1+02701+02151101161ADDAA106000091GF102991021011008001001001KA1240M+03681MA1999999100141MD1999999+0101REMSYN088AAXX  20004 82392 32596 20510 10270 20215 30014 40116 82100 333 10368 29060 55071 58010;EQDQ01  00002PRCP06
0186823920999992002122012004-03700-040350FM-12+008399999V0200901N002612200019N0500001N1+03021+02161101311ADDAA106000091GF102991011011004501001011KA1240N+02231MA1999999100301MD1999999+0191REMSYN076AAXX  20124 82392 32499 20905 10302 20216 30030 40131 81101 333 20223 58019;EQDQ01  00002PRCP06
0152823920999992002122018004-03700-040350FM-12+008399999V0201401N001019999999N0500001N1+03521+01791999999ADDAA106000091GF106991999999004501999999MA1999999099921REMSYN069AAXX  20184 82392 32499 61402 10352 20179 39992 0093 84230 333 58017;EQDQ01  00002PRCP06
0198823920999992002122100004-03700-040350FM-12+008399999V0200501N002612200019N0040001N1+02801+02081101261ADDAA106000091GF104991041021004501051001KA1240M+03681MA1999999100251MD1999999+0141REMSYN088AAXX  21004 82392 32496 40505 10280 20208 30025 40126 84250 333 10368 29056 55089 58014;EQDQ01  00002PRCP06
0202823920999992002122112004-03700-040350FM-12+008399999V0200901N003119999999N0500001N1+02981+02151101481ADDAA106000091GF106991999021008001001001KA1240N+02441MA1999999100461MD1999999+0161REMSYN076AAXX  21124 82392 32599 60906 10298 20215 30046 40148 84200 333 20244 58016;EQDQ01+000042SCOTLCQ02  00002PRCP06
0183823920999992002122118004-03700-040350FM-12+008399999V0200901N001510042019N0500001N1+03701+01741100901ADDAA106000091GF106991999021004501001001MA1999999099891MD1999999-0031REMSYN070AAXX  21184 82392 32499 60903 10370 20174 39989 40090 85200 333 59003;EQDQ01+000052SCOTLCQ02  00002PRCP06
0198823920999992002122200004-03700-040350FM-12+008399999V0203601N002612200019N0500001N1+02801+02131101191ADDAA106000091GF104991031041004501051001KA1240M+03721MA1999999100181MD1999999-0071REMSYN088AAXX  22004 82392 32499 43605 10280 20213 30018 40119 83450 333 10372 29058 55075 59007;EQDQ01  00002PRCP06
0221823920999992002122300004-03700-040350FM-12+008399999V0200501N003612200019N0040001N1+02721+02331101181ADDAY151061AY221061GF101991999011008001001001KA1240M+03501MA1999999100161MD1999999-0021MW1021REMSYN100AAXX  23004 82392 21596 10507 10272 20233 30016 40118 70252 82100 333 10350 29070 55030 59002 69911;EQDQ01+000022SCOTLC
0162823920999992002122312004-03700-040350FM-12+008399999V0200901N001510450019N0500001N1+02881+02231101221ADDGF106991041041004501031001KA1240N+02411MA1999999100201MD1999999-0061REMSYN082AAXX  23124 82392 22499 60903 10288 20223 30020 40122 84430 333 20241 59006 69914;
0167823920999992002122318004-03700-040350FM-12+008399999V0200901N001012200019N0500001N1+03681+01841100761ADDAA106000091GF104991041021004501001001MA1999999099751MD1999999-0131REMSYN070AAXX  23184 82392 32499 40902 10368 20184 39975 40076 84200 333 59013;EQDQ01  00002PRCP06
0198823920999992002122400004-03700-040350FM-12+008399999V0203601N005112200019N0040001N1+02701+02261101221ADDAA106000091GF101991011001008001021001KA1240M+03701MA1999999100201MD1999999+0041REMSYN088AAXX  24004 82392 32596 13610 10270 20226 30020 40122 81020 333 10370 29064 55069 58004;EQDQ01  00002PRCP06
0186823920999992002122412004-03700-040350FM-12+008399999V0201801N001010450019N0500001N1+02881+02281101321ADDAA106000091GF106991041051004501031001KA1240N+02471MA1999999100301MD1999999+0101REMSYN076AAXX  24124 82392 32499 61802 10288 20228 30030 40132 84530 333 20247 58010;EQDQ01  00002PRCP06
0167823920999992002122418004-03700-040350FM-12+008399999V0201401N001012200019N0500001N1+03581+02131100831ADDAA106000091GF102991021011004501001001MA1999999099821MD1999999+0071REMSYN070AAXX  24184 82392 32499 21402 10358 20213 39982 40083 82100 333 58007;EQDQ01  00002PRCP06
0198823920999992002122500004-03700-040350FM-12+008399999V0203601N004612200019N0040001N1+02701+02371101181ADDAA106000091GF102991021001008001031001KA1240M+03601MA1999999100161MD1999999-0041REMSYN088AAXX  25004 82392 32596 23609 10270 20237 30016 40118 82030 333 10360 29069 55068 59004;EQDQ01  00002PRCP06
0209823920999992002122512004-03700-040350FM-12+008399999V0201401N001010042019N0500001N1+02621+02481101321ADDAY121061AY221061GF107991999021004501001001KA1240N+02411MA1999999100301MD1999999+0001MW1211REMSYN088AAXX  25124 82392 21499 71402 10262 20248 30030 40132 72122 86200 333 20241 58000 69964;EQDQ01+000062SCOTLC
0148823920999992002122518004-03700-040350FM-12+008399999V0201401N001012200019N0500001N1+03401+02111100911ADDAA106000021GF102991021011004501001001MA1999999099901MD1999999+0081REMSYN070AAXX  25184 82392 32499 21402 10340 20211 39990 40091 82100 333 58008;
0214823920999992002122600004-03700-040350FM-12+008399999V0203601N002612200019N0040001N1+02681+02311101241ADDAA106000091GF104991999021004501001001KA1240M+03501MA1999999100221MD1999999+0061REMSYN088AAXX  26004 82392 32496 43605 10268 20231 30022 40124 83200 333 10350 29075 55080 58006;EQDQ01+000032SCOTLCQ02  00002PRCP06
0186823920999992002122612004-03700-040350FM-12+008399999V0200901N001512200019N0500001N1+02881+02251101391ADDAA106000091GF104991041021004501001001KA1240N+02291MA1999999100371MD1999999+0071REMSYN076AAXX  26124 82392 32499 40903 10288 20225 30037 40139 84200 333 20229 58007;EQDQ01  00002PRCP06
0167823920999992002122618004-03700-040350FM-12+008399999V0203601N004610042019N0500001N1+03221+01841100961ADDAA106000091GF107991051041004501031001MA1999999099941MD1999999+0041REMSYN070AAXX  26184 82392 32499 73609 10322 20184 39994 40096 85430 333 58004;EQDQ01  00002PRCP06
0208823920999992002122700004-03700-040350FM-12+008399999V0203601N002612200019N0040001N1+02701+02221101221ADDAA106000091GA1001+999999999GF100991001001999999001001KA1240M+03521MA1999999100201MD1999999-0021REMSYN082AAXX  27004 82392 32996 03605 10270 20222 30020 40122 333 10352 29066 55070 59002;EQDQ01  00002PRCP06
0186823920999992002122712004-03700-040350FM-12+008399999V0201401N001012200019N0500001N1+02871+02081101301ADDAA106000091GF104991041021004501001001KA1240N+02271MA1999999100281MD1999999-0091REMSYN076AAXX  27124 82392 32499 41402 10287 20208 30028 40130 84200 333 20227 59009;EQDQ01  00002PRCP06
0167823920999992002122718004-03700-040350FM-12+008399999V0200501N002610450019N0500001N1+03521+01601100851ADDAA106000091GF106991041021004501031001MA1999999099841MD1999999-0101REMSYN070AAXX  27184 82392 32499 60505 10352 20160 39984 40085 84230 333 59010;EQDQ01  00002PRCP06
0198823920999992002122800004-03700-040350FM-12+008399999V0200501N005112200019N0040001N1+02781+02181101161ADDAA106000091GF101991011021008001001001KA1240M+03601MA1999999100141MD1999999-0061REMSYN088AAXX  28004 82392 32596 10510 10278 20218 30014 40116 81200 333 10360 29058 55089 59006;EQDQ01  00002PRCP06
0186823920999992002122812004-03700-040350FM-12+008399999V0201801N000512200019N0500001N1+02821+02101101241ADDAA106000091GF104991041021004501001001KA1240N+02301MA1999999100221MD1999999-0061REMSYN076AAXX  28124 82392 32499 41801 10282 20210 30022 40124 84200 333 20230 59006;EQDQ01  00002PRCP06
0167823920999992002122818004-03700-040350FM-12+008399999V0201401N001010450019N0500001N1+03441+01431100781ADDAA106000091GF106991041021004501031001MA1999999099771MD1999999-0071REMSYN070AAXX  28184 82392 32499 61402 10344 20143 39977 40078 84230 333 59007;EQDQ01  00002PRCP06
0208823920999992002122900004-03700-040350FM-12+008399999V0200501N004612200019N0040001N1+02721+02001101131ADDAA106000091GA1001+999999999GF100991001001999999001001KA1240M+03581MA1999999100111MD1999999-0031REMSYN082AAXX  29004 82392 32996 00509 10272 20200 30011 40113 333 10358 29056 55094 59003;EQDQ01  00002PRCP06
0202823920999992002122912004-03700-040350FM-12+008399999V0201401N001019999999N0500001N1+02901+02171101211ADDAA106000091GF105991999021004501001001KA1240N+02271MA1999999100191MD1999999-0031REMSYN076AAXX  29124 82392 32499 51402 10290 20217 30019 40121 84200 333 20227 59003;EQDQ01+000042SCOTLCQ02  00002PRCP06
0167823920999992002122918004-03700-040350FM-12+008399999V0201401N001512200019N0500001N1+03541+01711100751ADDAA106000091GF103991031021004501001001MA1999999099741MD1999999-0031REMSYN070AAXX  29184 82392 32499 31403 10354 20171 39974 40075 83200 333 59003;EQDQ01  00002PRCP06
0198823920999992002123000004-03700-040350FM-12+008399999V0200501N003612200019N0040001N1+02721+02031101121ADDAA106000091GF102991021011008001001001KA1240M+03621MA1999999100101MD1999999-0011REMSYN088AAXX  30004 82392 32596 20507 10272 20203 30010 40112 82100 333 10362 29058 55092 59001;EQDQ01  00002PRCP06
0186823920999992002123012004-03700-040350FM-12+008399999V0200901N001512200019N0500001N1+02941+02001101281ADDAA106000091GF103991021011004501031001KA1240N+02101MA1999999100261MD1999999+0051REMSYN076AAXX  30124 82392 32499 30903 10294 20200 30026 40128 82130 333 20210 58005;EQDQ01  00002PRCP06
0167823920999992002123018004-03700-040350FM-12+008399999V0200901N001012200019N0500001N1+03521+01691100791ADDAA106000091GF104991031021004501031001MA1999999099781MD1999999+0041REMSYN070AAXX  30184 82392 32499 40902 10352 20169 39978 40079 83230 333 58004;EQDQ01  00002PRCP06
0208823920999992002123100004-03700-040350FM-12+008399999V0200501N003112200019N0040001N1+02801+01871101161ADDAA106000091GA1001+999999999GF100991001001999999001001KA1240M+03701MA1999999100151MD1999999+0051REMSYN082AAXX  31004 82392 32996 00506 10280 20187 30015 40116 333 10370 29051 55104 58005;EQDQ01  00002PRCP06
0186823920999992002123112004-03700-040350FM-12+008399999V0201801N000512200019N0500001N1+02901+02041101351ADDAA106000091GF102991021011004501001001KA1240N+02241MA1999999100341MD1999999+0081REMSYN076AAXX  31124 82392 32499 21801 10290 20204 30034 40135 82100 333 20224 58008;EQDQ01  00002PRCP06
0167823920999992002123118004-03700-040350FM-12+008399999V0201401N001012200019N0500001N1+03561+01781100911ADDAA106000091GF103991031021004501001001MA1999999099901MD1999999+0121REMSYN070AAXX  31184 82392 32499 31402 10356 20178 39990 40091 83200 333 58012;EQDQ01  00002PRCP06
