0139825640999992002020608004-05520-047440FM-15+0131SBIZ V0201201N002110300019N0070001N1+02301+02201999999ADDGA1071+030009999GF107991999999999999999999MA1101081999999MW1001REMMET045SBIZ 060800Z 12004KT 7000 BKN100 23/22 Q1011;EQDQ01+000000PRSWM2
0162825640999992002020609004-05520-047440FM-15+0131SBIZ V0201201N002110300019N0070001N1+02301+02201999999ADDGA1071+030009999GA2071+120009999GF107991999999999999999999MA1101081999999MW1001REMMET052SBIZ 060900Z 12004KT 7000 BKN100 BKN400 23/22 Q1011;EQDQ01+000000PRSWM2
0185825640999992002020610004-05520-047440FM-15+0131SBIZ V0201801N002110300019N0070001N1+02401+02201999999ADDGA1021+004509999GA2071+030009999GA3071+120009999GF107991999999999999999999MA1101191999999MW1001REMMET059SBIZ 061000Z 18004KT 7000 SCT015 BKN100 BKN400 24/22 Q1012;EQDQ01+000000PRSWM2
0185825640999992002020612004-05520-047440FM-15+0131SBIZ V0209999C000010210019N0080001N1+02501+02201999999ADDGA1021+004509999GA2071+021009999GA3081+120009999GF108991999999999999999999MA1101391999999MW1001REMMET059SBIZ 061200Z 00000KT 8000 SCT015 BKN070 OVC400 25/22 Q1014;EQDQ01+000000PRSWM2
0185825640999992002020613004-05520-047440FM-15+0131SBIZ V0201801N002110210019N0080001N1+02701+02301999999ADDGA1021+004509999GA2071+021009999GA3081+120009999GF108991999999999999999999MA1101491999999MW1001REMMET059SBIZ 061300Z 18004KT 8000 SCT015 BKN070 OVC400 27/23 Q1015;EQDQ01+000000PRSWM2
0081825640999992002020708004-05520-047440FM-15+0131SBIZ V02099999999992200019N9999999N1+99999+99999999999ADDMW1001REMMET044SBIZ 070800Z 8000 SCT010 BKN070 22/22 Q1011;EQDQ01+000000PRSWM2
0162825640999992002020709004-05520-047440FM-15+0131SBIZ V0201801N003110210019N0080001N1+02301+02201999999ADDGA1021+003009999GA2081+021009999GF108991999999999999999999MA1101081999999MW1001REMMET052SBIZ 070900Z 18006KT 8000 SCT010 OVC070 23/22 Q1011;EQDQ01+000000PRSWM2
0162825640999992002020710004-05520-047440FM-15+0131SBIZ V0201601N005110045019N0080001N1+02301+02201999999ADDGA1071+004509999GA2081+021009999GF108991999999999999999999MA1101191999999MW1001REMMET052SBIZ 071000Z 16010KT 8000 BKN015 OVC070 23/22 Q1012;EQDQ01+000000PRSWM2
0215825640999992002020711004-05520-047440FM-15+0131SBIZ V0202601N004110045019N0080001N1+02301+02201999999ADDGA1071+004509999GA2021+007509099GA3081+021009999GF108991999999999999999999MA1101191999999MW1801MW2951REMMET067SBIZ 071100Z 26008KT 8000 -TSRA BKN015 FEW025CB OVC070 23/22 Q1012;EQDQ01+000003PRSWM1Q02    003PRSWM1
0173825640999992002021012004-05520-047440FM-12+0131SBIZ V0201401N001010450019N0040001N1+02581+02291101381ADDAA124007191GF106991021041008001051001KA1240N+02201MA1999999099961MD1999999-0301REMSYN082AAXX  10124 82564 22596 61402 10258 20229 39996 40138 82450 333 20220 59030 60074;
0139825640999992002021013004-05520-047440FM-15+0131SBIZ V0201501N001510060019N0112651N1+02901+02301999999ADDGA1071+006009999GF107991999999999999999999MA1101391999999MW1001REMMET045SBIZ 101300Z 15003KT 9999 BKN020 29/23 Q1014;EQDQ01+000000PRSWM2
0162825640999992002021922004-05520-047440FM-15+0131SBIZ V0200601N004112200019N0112651N1+03101+02401999999ADDGA1021+006009999GA2021+120009999GF104991999999999999999999MA1100811999999MW1001REMMET052SBIZ 192200Z 06008KT 9999 FEW020 SCT400 31/24 Q1008;EQDQ01+000000PRSWM2
0139825640999992002030709004-05520-047440FM-15+0131SBIZ V0209999C000010045019N0112651N1+02401+02301999999ADDGA1071+004509999GF107991999999999999999999MA1101081999999MW1001REMMET045SBIZ 070900Z 00000KT 9999 BKN015 24/23 Q1011;EQDQ01+000000PRSWM2
0162825640999992002030710004-05520-047440FM-15+0131SBIZ V0209999C000010060019N0112651N1+02401+02301999999ADDGA1021+004509999GA2071+006009999GF107991999999999999999999MA1101191999999MW1001REMMET052SBIZ 071000Z 00000KT 9999 FEW015 BKN020 24/23 Q1012;EQDQ01+000000PRSWM2
0139825640999992002030914004-05520-047440FM-15+0131SBIZ V0200901N001010060019N0112651N1+03101+02301999999ADDGA1071+006009999GF107991999999999999999999MA1101391999999MW1001REMMET045SBIZ 091400Z 09002KT 9999 BKN020 31/23 Q1014;EQDQ01+000000PRSWM2
0139825640999992002030915004-05520-047440FM-15+0131SBIZ V0201201N004110060019N0112651N1+03201+02301999999ADDGA1071+006009999GF107991999999999999999999MA1101291999999MW1001REMMET045SBIZ 091500Z 12008KT 9999 BKN020 32/23 Q1013;EQDQ01+000000PRSWM2
0139825640999992002030916004-05520-047440FM-15+0131SBIZ V0200901N005112200019N0112651N1+03301+02301999999ADDGA1021+006009999GF104991999999999999999999MA1101191999999MW1001REMMET045SBIZ 091600Z 09010KT 9999 SCT020 33/23 Q1012;EQDQ01+000000PRSWM2
0139825640999992002030917004-05520-047440FM-15+0131SBIZ V0201201N005110060019N0112651N1+03201+02301999999ADDGA1071+006009999GF107991999999999999999999MA1101081999999MW1001REMMET045SBIZ 091700Z 12010KT 9999 BKN020 32/23 Q1011;EQDQ01+000000PRSWM2
0162825640999992002030918004-05520-047440FM-15+0131SBIZ V0200901N004110210019N0112651N1+02801+02501999999ADDGA1021+006009999GA2071+021009999GF107991999999999999999999MA1101081999999MW1001REMMET052SBIZ 091800Z 09008KT 9999 SCT020 BKN070 28/25 Q1011;EQDQ01+000000PRSWM2
0173825640999992002031012004-05520-047440FM-12+0131SBIZ V0203601N000510450019N0040001N1+02631+02391101251ADDAA124000191GF108991021051008001091051KA1240N+02471MA1999999099851MD1999999-0041REMSYN082AAXX  10124 82564 22596 83601 10263 20239 39985 40125 82595 333 20247 59004 69924;
0295825640999992002031118004-05520-047440SY-MT+0131SBIZ V0202301N001510450019N9999999N1+03051+02271101091ADDAA199000091GA1021+006009999GA2021+030009999GF108991021041008001091031MA1101021099691MD1999999+0221MW1001REMSYN070AAXX  11184 82564 32596 82303 10305 20227 39969 40109 82493 333 58022;MET052SBIZ 111800Z 04002KT 9999 SCT020 SCT100 33/21 Q1010;EQDQ01+040002VODIS Q02+000000PRSWM2Q03  00002PRCP99
0215825640999992002031123154-05520-047440FM-16+0131SBIZ V0201801N010310210019N0040001N1+02601+02301999999ADDGA1021+003009999GA2021+007509099GA3071+021009999GF107991999999999999999999MA1101391999999MW1801MW2951REMMET067SBIZ 112315Z 18020KT 4000 -TSRA SCT010 FEW025CB BKN070 26/23 Q1014;EQDQ01+000003PRSWM1Q02    003PRSWM1
0192825640999992002031123164-05520-047440FM-16+0131SBIZ V0201801N010310210019N0040001N1+02601+02301999999ADDGA1021+007509099GA2071+021009999GF107991999999999999999999MA1101391999999MW1801MW2951REMMET060SBIZ 112316Z 18020KT 4000 -TSRA FEW025CB BKN070 26/23 Q1014;EQDQ01+000003PRSWM1Q02    003PRSWM1
0215825640999992002031123254-05520-047440FM-15+0131SBIZ V0201501N005110210019N0050001N1+02501+02401999999ADDGA1021+003009999GA2021+007509099GA3071+021009999GF107991999999999999999999MA1101391999999MW1801MW2951REMMET067SBIZ 112325Z 15010KT 5000 -TSRA SCT010 FEW025CB BKN070 25/24 Q1014;EQDQ01+000003PRSWM1Q02    003PRSWM1
0195825640999992002031818004-05520-047440FM-12+0131SBIZ V0202001N002110450019N0100001N1+03111+02411100851ADDAA199000091AY121061AY211061GF106991021071008001061001MA1999999099451MD1999999+0011MW1151REMSYN076AAXX  18184 82564 31597 62004 10311 20241 39945 40085 71521 82760 333 58001;EQDQ01  00002PRCP99
0242825640999992002031900004-05520-047440FM-12+0131SBIZ V0200901N001512200019N0040001N1+02731+02451100891ADDAA199000091AY121061AY211061GF102991999091004501001001KA1240M+03311MA1999999099491MD1999999-0221MW1131REMSYN094AAXX  19004 82564 31496 20903 10273 20245 39949 40089 71321 81900 333 10331 29080 55044 59022;EQDQ01+000012SCOTLCQ02  00002PRCP99
0215825640999992002031909004-05520-047440FM-15+0131SBIZ V0200301N006210210019N0080001N1+02201+02201999999ADDGA1021+003009999GA2021+007509099GA3081+021009999GF108991999999999999999999MA1100911999999MW1801MW2951REMMET067SBIZ 190900Z 03012KT 8000 -TSRA SCT010 FEW025CB OVC070 22/22 Q1009;EQDQ01+000003PRSWM1Q02    003PRSWM1
0215825640999992002031910004-05520-047440FM-15+0131SBIZ V0202001N001010210019N0006001N1+02201+02101999999ADDGA1021+003009999GA2021+007509099GA3081+021009999GF108991999999999999999999MA1101021999999MW1801MW2951REMMET067SBIZ 191000Z 20002KT 0600 -TSRA SCT010 FEW025CB OVC070 22/21 Q1010;EQDQ01+000003PRSWM1Q02    003PRSWM1
0218825640999992002031910404-05520-047440FM-15+0131SBIZ V0201401N001010210019N0080001N1+02201+02101999999ADDGA1021+003009999GA2021+007509099GA3081+021009999GF108991999999999999999999MA1101021999999MW1611REMMET076METAR SBIZ 191040Z 14002KT 8000 -RA SCT010 FEW025CB OVC070 22/21 Q1010 RETS;EQDQ01+000003PRSWM1Q02    003PRSWM1
0168825640999992002031912004-05520-047440FM-15+0131SBIZ V0209999C000010210019N0112651N1+02301+02201999999ADDGA1021+006009999GA2081+021009999GF108991999999999999999999MA1101081999999MW1001REMMET058METAR SBIZ 191200Z 00000KT 9999 SCT020 OVC070 23/22 Q1011;EQDQ01+000000PRSWM2
0168825640999992002031913004-05520-047440FM-15+0131SBIZ V0203601N002110210019N0112651N1+02401+02201999999ADDGA1021+003009999GA2071+021009999GF107991999999999999999999MA1101081999999MW1001REMMET058METAR SBIZ 191300Z 36004KT 9999 SCT010 BKN070 24/22 Q1011;EQDQ01+000000PRSWM2
0168825640999992002031914004-05520-047440FM-15+0131SBIZ V0200201N004112200019N0112651N1+02901+02201999999ADDGA1021+004509999GA2021+006009999GF104991999999999999999999MA1101081999999MW1001REMMET058METAR SBIZ 191400Z 02008KT 9999 FEW015 SCT020 29/22 Q1011;EQDQ01+000000PRSWM2
0162825640999992002031915004-05520-047440FM-15+0131SBIZ V0200801N003110060019N0112651N1+03001+02201999999ADDGA1021+004509999GA2071+006009999GF107991999999999999999999MA1101081999999MW1001REMMET052SBIZ 191500Z 08006KT 9999 SCT015 BKN020 30/22 Q1011;EQDQ01+000000PRSWM2
0139825640999992002031916004-05520-047440FM-15+0131SBIZ V0202701N004112200019N0112651N1+03101+02301999999ADDGA1021+006009999GF104991999999999999999999MA1100911999999MW1001REMMET045SBIZ 191600Z 27008KT 9999 SCT020 31/23 Q1009;EQDQ01+000000PRSWM2
0164825640999992002031917004-05520-047440FM-15+0131SBIZ V0201801N002112200019N0112651N1+03301+02401999999ADDGA1021+006009999GA2021+007509099GF102991999999999999999999MA1100811999999MW1001REMMET054SBIZ 191700Z 18004KT 9999 SCT020 FEW025CB 33/24 Q1008;EQDQ01+000000PRSWM2
0185825640999992002031921004-05520-047440FM-15+0131SBIZ V0200601N003610210019N0112651N1+02601+02401999999ADDGA1021+004509999GA2021+006009999GA3071+021009999GF107991999999999999999999MA1100711999999MW1001REMMET059SBIZ 192100Z 06007KT 9999 FEW015 SCT020 BKN070 26/24 Q1007;EQDQ01+000000PRSWM2
0201825640999992002041012004-05520-047440FM-12+0131SBIZ V0209999C000010450019N0040001N1+02571+02351101331ADDAA124019191AY161061AY221061GF107991021051004501031001KA1240N+02271MA1999999099931MD1999999+0261MW1021REMSYN088AAXX  10124 82564 21496 70000 10257 20235 39993 40133 70262 82530 333 20227 58026 60194;
0186825640999992002043012004-05520-047440FM-12+0131SBIZ V0203601N000510450019N0100001N1+02611+02331101391ADDAA199000091GF107991021041008001091001KA1240N+02481MA1999999099991MD1999999+0171REMSYN076AAXX  30124 82564 32597 73601 10261 20233 39999 40139 82490 333 20248 58017;EQDQ01  00002PRCP99
0158825640999992002050409204-05520-047440FM-15+0131SBIZ V0209999C000010003019N0015001N1+02301+02301999999ADDGA1071+000309999GF107991999999999999999999MA1101191999999MW1101REMMET048SBIZ 040920Z 00000KT 1500 BR BKN001 23/23 Q1012;EQDQ01+000003PRSWM1Q02    003PRSWM1
0198825640999992002051018004-05520-047440FM-12+0131SBIZ V0200501N005012200019N9999999N1+01381+00191101771ADDAA199000091GA1001+999999999GF100991001001999999001001KA1999M+01561MA1999999101071MD1710071+9999REMSYN072AAXX  10181 82564 3258/ 00505 10138 20019 30107 40177 57007 333 10156. ;EQDQ01  00002PRCP99
0182825640999992002051218004-05520-047440FM-12+0131SBIZ V0203201N002010450019N0040001N1+02821+02401101081ADDAA106003091AY161061AY221061GF108991011081004501091001MA1999999099671MD1999999-0011MW1021REMSYN082AAXX  12180 82564 21496 83202 10282 20240 39967 40108 70262 81890 333 59001 60031;
0232825640999992002051300004-05520-047440FM-12+0131SBIZ V0209999C000012200019N0020001N1+02461+02361101321ADDAA106008991AY161061AY221061GF102991999061004501001001KA1240M+03241MA1999999099921MD1999999+0121MW1021REMSYN100AAXX  13004 82564 21495 20000 10246 20236 39992 40132 70262 81600 333 10324 29085 55043 58012 60091;EQDQ01+000012SCOTLC
0173825640999992002051312004-05520-047440FM-12+0131SBIZ V0209999C000010450019N0020001N1+02431+02351101421ADDAA124011991GF108991011061004501071001KA1240N+02241MA1999999100011MD1999999-0041REMSYN082AAXX  13124 82564 22495 80000 10243 20235 30001 40142 81670 333 20224 59004 60124;
0186825640999992002051612004-05520-047440FM-12+0131SBIZ V0200901N000510450019N0100001N1+02571+02291101231ADDAA199000091GF107991031061008001071001KA1240N+02381MA1999999099831MD1999999-0161REMSYN076AAXX  16124 82564 32597 70901 10257 20229 39983 40123 83670 333 20238 59016;EQDQ01  00002PRCP99
0167825640999992002051618004-05520-047440FM-12+0131SBIZ V0200901N001510450019N0200001N1+03411+02271100911ADDAA199000091GF106991031021012501061061MA1999999099511MD1999999-0161REMSYN070AAXX  16184 82564 32698 60903 10341 20227 39951 40091 83266 333 59016;EQDQ01  00002PRCP99
0213825640999992002052422154-05520-047440FM-16+0131SBIZ V0201201N005110210019N0070001N1+02401+02301999999ADDGA1021+003009999GA2021+007509099GA3071+021009999GF107991999999999999999999MA1101191999999MW1161REMMET071SBIZ 242215Z 12010KT 7000 VCSH SCT010 FEW025CB BKN070 24/23 Q1012 RETS;EQDQ01+000003PRSWM1Q02    003PRSWM1
0208825640999992002061100004-05530-047450FM-12+0131SBIZ V0209999C000012200019N0200001N1+02771+02461101261ADDAA199000091GA1001+999999999GF100991001001999999001001KA1240M+03421MA1999999099861MD1999999-0061REMSYN082AAXX  11004 82564 32998 00000 10277 20246 39986 40126 333 10342 29074 55097 59006;EQDQ01  00002PRCP99
0091825640999992002061103004-05530-047450FM-15+0131SBIZ V0209999C00001220001CN0099001N1+02401+02301999999ADDMA1101291999999MW1001REMMET039SBIZ 110300Z 00000KT CAVOK 24/23 Q1013;EQDQ01+000000PRSWM2
0145825640999992002061109004-05530-047450FM-15+0131SBIZ V0209999C000012200019N0060001N1+02101+02101999999ADDGA1021+001509999GF102991999999999999999999MA1101291999999MW1001REMMET051METAR SBIZ 110900Z 00000KT 6000 FEW005 21/21 Q1013;EQDQ01+000000PRSWM2
0158825640999992002061109104-05530-047450FM-16+0131SBIZ V0209999C000012200019N0015001N1+02101+02101999999ADDGA1021+000909999GF102991999999999999999999MA1101291999999MW1101REMMET048SBIZ 110910Z 00000KT 1500 BR FEW003 21/21 Q1013;EQDQ01+000003PRSWM1Q02    003PRSWM1
0158825640999992002061109154-05530-047450FM-16+0131SBIZ V0209999C000012200019N0008001N1+02101+02101999999ADDGA1021+000909999GF104991999999999999999999MA1101291999999MW1441REMMET048SBIZ 110915Z 00000KT 0800 FG SCT003 21/21 Q1013;EQDQ01+000003PRSWM1Q02    003PRSWM1
0157825640999992002061110004-05530-047450FM-15+0131SBIZ V0209999C000010006019N0000001N1+02101+02101999999ADDGA1091+000609999GF109991999999000251999999MA1101291999999MW1451REMMET047SBIZ 111000Z 00000KT 0000 FG VV002 21/21 Q1013;EQDQ01+000003PRSWM1Q02    003PRSWM1
0158825640999992002061110204-05530-047450FM-15+0131SBIZ V0209999C000012200019N0008001N1+02201+02101999999ADDGA1021+000909999GF104991999999999999999999MA1101291999999MW1441REMMET048SBIZ 111020Z 00000KT 0800 FG SCT003 22/21 Q1013;EQDQ01+000003PRSWM1Q02    003PRSWM1
0160825640999992002061110354-05530-047450FM-16+0131SBIZ V0209999C000012200019N0015001N1+02301+02201999999ADDGA1021+000909999GF104991999999999999999999MA1101291999999MW1101REMMET050SBIZ 111035Z 00000KT 1500NE BR SCT003 23/22 Q1013;EQDQ01+000003PRSWM1Q02    003PRSWM1
0164825640999992002061110454-05530-047450FM-15+0131SBIZ V0201001N002112200019N0050001N1+02301+02201999999ADDGA1021+000909999GF102991999999999999999999MA1101291999999MW1101REMMET054SPECI SBIZ 111045Z 10004KT 5000 BR FEW003 23/22 Q1013;EQDQ01+000003PRSWM1Q02    003PRSWM1
0139825640999992002061111004-05530-047450FM-15+0131SBIZ V0201201N003112200019N0112651N1+02501+02201999999ADDGA1021+001509999GF102991999999999999999999MA1101291999999MW1001REMMET045SBIZ 111100Z 12006KT 9999 FEW005 25/22 Q1013;EQDQ01+000000PRSWM2
0247825640999992002061112004-05530-047450SY-MT+0131SBIZ V0209999C00001220001CN0200001N1+02751+02301101331ADDAA199000091GF100991001001999999001001KA1240N+02261MA1101391099931MD1999999-0131MW1001REMSYN070AAXX  11124 82564 32998 00000 10275 20230 39993 40133 333 20226 59013;MET039SBIZ 111200Z 12004KT CAVOK 29/23 Q1014;EQDQ01+000000PRSWM2Q02  00002PRCP99
0139825640999992002061113004-05530-047450FM-15+0131SBIZ V0201501N002112200019N0112651N1+03101+02301999999ADDGA1021+006009999GF102991999999999999999999MA1101391999999MW1001REMMET045SBIZ 111300Z 15004KT 9999 FEW020 31/23 Q1014;EQDQ01+000000PRSWM2
0091825640999992002061711004-05530-047450FM-15+0131SBIZ V0202001N00311220001CN0099001N1+02501+02201999999ADDMA1101391999999MW1001REMMET039SBIZ 171100Z 20006KT CAVOK 25/22 Q1014;EQDQ01+000000PRSWM2
0162825640999992002061712004-05530-047450FM-15+0131SBIZ V0201201N006212200019N0112651N1+02801+02201999999ADDGA1021+006009999GA2041+030009999GF104991999999999999999999MA1101491999999MW1001REMMET052SBIZ 171200Z 12012KT 9999 FEW020 SCT100 28/22 Q1015;EQDQ01+000000PRSWM2
0162825640999992002062709004-05530-047450FM-15+0131SBIZ V0209999C000010300019N0112651N1+02101+02101999999ADDGA1021+004509999GA2071+030009999GF107991999999999999999999MA1101591999999MW1001REMMET052SBIZ 270900Z 00000KT 9999 FEW015 BKN100 21/21 Q1016;EQDQ01+000000PRSWM2
0162825640999992002062710004-05530-047450FM-15+0131SBIZ V0209999C000010300019N0112651N1+02101+02101999999ADDGA1021+004509999GA2071+030009999GF107991999999999999999999MA1101591999999MW1001REMMET052SBIZ 271000Z 00000KT 9999 FEW015 BKN100 21/21 Q1016;EQDQ01+000000PRSWM2
0253825640999992002062712004-05530-047450SY-MT+0131SBIZ V0201801N000512200019N0200001N1+02711+02171101641ADDAA199000091GF104991021011008001061061KA1240N+02201MA1101691100241MD1999999-0041MW1001REMSYN076AAXX  27124 82564 32598 41801 10271 20217 30024 40164 82166 333 20220 59004;MET039SBIZ 271200Z 18002KT CAVOK 28/22 Q1017;EQDQ01+000000PRSWM2Q02  00002PRCP99
0139825640999992002062713004-05530-047450FM-15+0131SBIZ V0201301N010312200019N0112651N1+03101+02001999999ADDGA1041+006009999GF104991999999999999999999MA1101591999999MW1001REMMET045SBIZ 271300Z 13020KT 9999 SCT020 31/20 Q1016;EQDQ01+000000PRSWM2
0139825640999992002062714004-05530-047450FM-15+0131SBIZ V0201501N009312200019N0112651N1+03201+01901999999ADDGA1041+006009999GF104991999999999999999999MA1101591999999MW1001REMMET045SBIZ 271400Z 15018KT 9999 SCT020 32/19 Q1016;EQDQ01+000000PRSWM2
0083825640999992002070412004-05530-047450FM-15+0131SBIZ V0209999C00001220001CN0099001N1+02301+02001999999ADDMA1101491999999MW1001REMMET031SBIZ 00000KT CAVOK 23/20 Q1015;EQDQ01+000000PRSWM2
0083825640999992002070413004-05530-047450FM-15+0131SBIZ V0209999C00001220001CN0099001N1+03101+01801999999ADDMA1101491999999MW1001REMMET031SBIZ 00000KT CAVOK 31/18 Q1015;EQDQ01+000000PRSWM2
0083825640999992002070414004-05530-047450FM-15+0131SBIZ V0201201N00621220001CN0099001N1+03201+01601999999ADDMA1101491999999MW1001REMMET031SBIZ 12012KT CAVOK 32/16 Q1015;EQDQ01+000000PRSWM2
0139825640999992002071118004-05530-047450FM-15+0131SBIZ V0201001N005112200019N0112651N1+03501+02001999999ADDGA1041+006009999GF104991999999999999999999MA1101191999999MW1001REMMET045SBIZ 111800Z 10010KT 9999 SCT020 35/20 Q1012;EQDQ01+000000PRSWM2
0275825640999992002071312004-05530-047450SY-MT+0131SBIZ V0209999C00001004501CN0040001N1+02621+02331101541ADDAA199000091GA1071+004509999GF108991011071004501071001KA1240N+02241MA1101491100141MD1999999+0051MW1001REMSYN076AAXX  13124 82564 32496 80000 10262 20233 30014 40154 81770 333 20224 58005;MET045SBIZ 131200Z 03003KT 9999 BKN015 27/22 Q1015;EQDQ01+000000PRSWM2Q02  00002PRCP99
0091825640999992002081212004-05530-047450FM-15+0131SBIZ V0202401N00211220001CN0099001N1+02701+01901999999ADDMA1101491999999MW1001REMMET039SBIZ 121200Z 24004KT CAVOK 27/19 Q1015;EQDQ01+000000PRSWM2
0139825640999992002090521004-05530-047450FM-15+0131SBIZ V0200601N005112200019N0112651N1+03101+02101999999ADDGA1021+006009999GF102991999999999999999999MA1101021999999MW1001REMMET045SBIZ 052100Z 06010KT 9999 FEW020 31/21 Q1010;EQDQ01+000000PRSWM2
0154825640999992002091522004-05530-047450FM-15+0131SBIZ V0200601N005110060019N0112651N1+03101+02001999999ADDGA1021+004509999GA2071+006009999GF107991999999999999999999MA1101081999999MW1001REMMET044SBIZ 06010KT 9999 FEW015 BKN020 31/20 Q1011;EQDQ01+000000PRSWM2
0196825640999992002110800404-05530-047450FM-16+0131SBIZ V0200201N00511220001CN0080001N1+03001+02301999999ADDGA1041+004509999GA2071+006009999GA3021+007509099MA1101081999999MW1171REMMET064SBIZ 080040Z 02010KT 8000 TS SCT015 BKN020 FEW025CB 30/23 Q1011;EQDQ01+000022SCOTCVQ02+000003PRSWM1Q03    003PRSWM1
