0198825860999992002010100004-05190-039300FM-12+021199999V0200501N001512200019N0010001N1+02981+02131100871ADDAA199000091GF104991041021008001001001KA1240M+03351MA1999999098521MD1999999-0061REMSYN088AAXX  01004 82586 32594 40503 10298 20213 39852 40087 84200 333 10335 29062 55027 59006;EQDQ01  00002PRCP99
0182825860999992002010218004-05190-039300FM-12+021199999V0203601N005110075019N0200001N1+03021+02071100891ADDAA106002091AY161061AY221061GF108991081071008001999999MA1999999098531MD1999999+0151MW1031REMSYN082AAXX  02184 82586 21598 83610 10302 20207 39853 40089 70362 887// 333 58015 60021;
0214825860999992002010300004-05190-039300FM-12+021199999V0200501N004119999999N0010001N1+02761+02211101051ADDAA199000091GF106991999041008001001001KA1240M+03101MA1999999098681MD1999999+0151REMSYN088AAXX  03004 82586 32594 60508 10276 20221 39868 40105 83400 333 10310 29073 55000 58015;EQDQ01+000032SCOTLCQ02  00002PRCP99
0167825860999992002010318004-05190-039300FM-12+021199999V0203601N005710450019N0200001N1+03201+02091100801ADDAA199000091GF108991041041008001021999MA1999999098451MD1999999-0081REMSYN070AAXX  03184 82586 32598 83611 10320 20209 39845 40080 8442/ 333 59008;EQDQ01  00002PRCP99
0198825860999992002010400004-05190-039300FM-12+021199999V0200501N005710075019N0010001N1+02721+02241101001ADDAA199000091GF106991061041008001001001KA1240M+03341MA1999999098641MD1999999-0041REMSYN088AAXX  04004 82586 32594 60511 10272 20224 39864 40100 86400 333 10334 29067 55016 59004;EQDQ01  00002PRCP99
0186825860999992002010412004-05190-039300FM-12+021199999V0200901N004610075019N0200001N1+02941+02241101031ADDAA199000091GF106991061041008001001001KA1240N+02521MA1999999098671MD1999999-0081REMSYN076AAXX  04124 82586 32598 60909 10294 20224 39867 40103 86400 333 20252 59008;EQDQ01  00002PRCP99
0167825860999992002010418004-05190-039300FM-12+021199999V0200501N003110450019N0200001N1+03431+01741100801ADDAA199000091GF108991041041008001021999MA1999999098461MD1999999+0011REMSYN070AAXX  04184 82586 32598 80506 10343 20174 39846 40080 8442/ 333 58001;EQDQ01  00002PRCP99
0198825860999992002010500004-05190-039300FM-12+021199999V0200501N005112200019N0010001N1+02941+02141101051ADDAA199000091GF104991041041008001001001KA1240M+03601MA1999999098691MD1999999+0051REMSYN088AAXX  05004 82586 32594 40510 10294 20214 39869 40105 84400 333 10360 29057 55058 58005;EQDQ01  00002PRCP99
0202825860999992002010512004-05190-039300FM-12+021199999V0200901N005119999999N0200001N1+02901+02341101151ADDAA199000091GF106991999041008001001001KA1240N+02601MA1999999098801MD1999999+0131REMSYN076AAXX  05124 82586 32598 60910 10290 20234 39880 40115 87400 333 20260 58013;EQDQ01+000072SCOTLCQ02  00002PRCP99
0167825860999992002010518004-05190-039300FM-12+021199999V0201401N003110450019N0200001N1+03441+01881100851ADDAA199000091GF107991031021008001021999MA1999999098511MD1999999+0051REMSYN070AAXX  05184 82586 32598 71406 10344 20188 39851 40085 8322/ 333 58005;EQDQ01  00002PRCP99
0226825860999992002010600004-05190-039300FM-12+021199999V0200501N002610075019N0010001N1+02901+02301101001ADDAA199000091AY121061AY221061GF108991081091008001999999KA1240M+03661MA1999999098651MD1999999-0041MW1131REMSYN094AAXX  06004 82586 31594 80505 10290 20230 39865 40100 71322 889// 333 10366 29063 55070 59004;EQDQ01  00002PRCP99
0201825860999992002010612004-05190-039300FM-12+021199999V02099999999990075019N0200001N1+02481+02321101091ADDAA124037191AY161061AY261061GF108991081071008001999999KA1240N+02231MA1999999098731MD1999999-0071MW1031REMSYN088AAXX  06124 82586 21598 814// 10248 20232 39873 40109 70366 887// 333 20223 59007 60374;
0182825860999992002010618004-05190-039300FM-12+021199999V0201801N002110450019N0200001N1+02861+02231100881ADDAA106000591AY151061AY221061GF107991041041008001021999MA1999999098521MD1999999+0011MW1031REMSYN082AAXX  06184 82586 21598 71804 10286 20223 39852 40088 70352 8442/ 333 58001 69961;
0198825860999992002010700004-05190-039300FM-12+021199999V0209999C000010075019N0010001N1+02381+02351101081ADDAA199000091GF108991081071008001999999KA1240M+03031MA1999999098681MD1999999-0031REMSYN088AAXX  07004 82586 32594 80000 10238 20235 39868 40108 887// 333 10303 29089 55005 59003;EQDQ01  00002PRCP99
0173825860999992002010712004-05190-039300FM-12+021199999V0200901N001510075019N0200001N1+02541+02211101191ADDAA124000591GF108991081071008001999999KA1240N+02361MA1999999098791MD1999999+0061REMSYN082AAXX  07124 82586 22598 80903 10254 20221 39879 40119 887// 333 20236 58006 69964;
0167825860999992002010718004-05190-039300FM-12+021199999V0201401N001510075019N0200001N1+02961+01871100831ADDAA199000091GF108991061041008001021999MA1999999098471MD1999999-0051REMSYN070AAXX  07184 82586 32598 81403 10296 20187 39847 40083 8642/ 333 59005;EQDQ01  00002PRCP99
0213825860999992002010800004-05190-039300FM-12+021199999V0203601N000510075019N0010001N1+02281+02251101081ADDAA106018091AY161061AY221061GF108991081071008001999999KA1240M+03031MA1999999098681MD1999999+0001MW1031REMSYN100AAXX  08004 82586 21594 83601 10228 20225 39868 40108 70362 887// 333 10303 29083 55012 58000 60181;
0201825860999992002010812004-05190-039300FM-12+021199999V0202301N001010075019N0200001N1+02861+02771101161ADDAA124023991AY161061AY251061GF108991081071008001999999KA1240N+02181MA1999999098781MD1999999-0021MW1031REMSYN088AAXX  08124 82586 21598 82302 10286 20277 39878 40116 70365 887// 333 20218 59002 60244;
0167825860999992002010818004-05190-039300FM-12+021199999V0200901N002110075019N0200001N1+03001+01911100851ADDAA199000091GF108991081071008001999999MA1999999098481MD1999999+0011REMSYN070AAXX  08184 82586 32598 80904 10300 20191 39848 40085 887// 333 58001;EQDQ01  00002PRCP99
0213825860999992002010900004-05190-039300FM-12+021199999V0202701N001510042019N0020001N1+02211+02191101221ADDAA106016091AY161061AY261061GF108991081051004501999999KA1240M+02831MA1999999097801MD1999999+0051MW1631REMSYN100AAXX  09004 82586 21495 82703 10221 20219 39780 40122 76366 885// 333 10283 29089 55001 58005 60161;
0182825860999992002010918004-05190-039300FM-12+021199999V0202701N002110450019N0200001N1+02621+02021101071ADDAA106000591AY151061AY221061GF106991031021008001021001MA1999999098671MD1999999+0191MW1031REMSYN082AAXX  09184 82586 21598 62704 10262 20202 39867 40107 70352 83220 333 58019 69961;
0198825860999992002011000004-05190-039300FM-12+021199999V0209999C000010075019N0010001N1+02531+02191101201ADDAA199000091GF106991061041008001001001KA1240M+02831MA1999999098801MD1999999+0231REMSYN088AAXX  10004 82586 32594 60000 10253 20219 39880 40120 86400 333 10283 29083 55004 58023;EQDQ01  00002PRCP99
0173825860999992002011012004-05190-039300FM-12+021199999V0200901N003110075019N0200001N1+02661+02031101231ADDAA124000591GF106991061041008001001001KA1240N+02241MA1999999098851MD1999999+0011REMSYN082AAXX  10124 82586 22598 60906 10266 20203 39885 40123 86400 333 20224 58001 69964;
0167825860999992002011018004-05190-039300FM-12+021199999V0200501N002110075019N0200001N1+03121+01601100961ADDAA199000091GF106991061041008001001001MA1999999098601MD1999999-0071REMSYN070AAXX  10184 82586 32598 60504 10312 20160 39860 40096 86400 333 59007;EQDQ01  00002PRCP99
0167825860999992002011118004-05190-039300FM-12+021199999V0200901N003112200019N0200001N1+03161+01991101041ADDAA199000091GF104991041021008001001001MA1999999098681MD1999999+0081REMSYN070AAXX  11184 82586 32598 40906 10316 20199 39868 40104 84200 333 58008;EQDQ01  00002PRCP99
0198825860999992002011200004-05190-039300FM-12+021199999V0203601N002110075019N0010001N1+02701+02151101171ADDAA199000091GF106991061041008001001001KA1240M+03321MA1999999098811MD1999999+0081REMSYN088AAXX  12004 82586 32594 63604 10270 20215 39881 40117 86400 333 10332 29066 55095 58008;EQDQ01  00002PRCP99
0186825860999992002011212004-05190-039300FM-12+021199999V0200901N004610075019N0200001N1+02801+02081101251ADDAA199000091GF106991061041008001001001KA1240N+02501MA1999999098881MD1999999-0021REMSYN076AAXX  12124 82586 32598 60909 10280 20208 39888 40125 86400 333 20250 59002;EQDQ01  00002PRCP99
0167825860999992002011218004-05190-039300FM-12+021199999V0201801N001510075019N0200001N1+03141+01791100921ADDAA199000091GF106991061041008001001001MA1999999098561MD1999999-0121REMSYN070AAXX  12184 82586 32598 61803 10314 20179 39856 40092 86400 333 59012;EQDQ01  00002PRCP99
0213825860999992002011300004-05190-039300FM-12+021199999V0200901N003110075019N0010001N1+02241+02221101271ADDAA106045091AY191061AY261061GF108991081091008001999999KA1240M+03361MA1999999098881MD1999999+0071MW1611REMSYN100AAXX  13004 82586 21594 80906 10224 20222 39888 40127 76196 889// 333 10336 29079 55083 58007 60451;
0201825860999992002011312004-05190-039300FM-12+021199999V0200901N003110075019N0200001N1+02581+02151101271ADDAA124049091AY161061AY251061GF106991061041008001001001KA1240N+02261MA1999999098871MD1999999-0011MW1031REMSYN088AAXX  13124 82586 21598 60906 10258 20215 39887 40127 70365 86400 333 20226 59001 60494;
0167825860999992002011318004-05190-039300FM-12+021199999V0201401N001512200019N0200001N1+03111+01971100981ADDAA199000091GF106991041021008001001041MA1999999098621MD1999999-0061REMSYN070AAXX  13184 82586 32598 61403 10311 20197 39862 40098 84204 333 59006;EQDQ01  00002PRCP99
0198825860999992002011400004-05190-039300FM-12+021199999V0203601N002110075019N0010001N1+02651+02141101101ADDAA199000091GF106991061041008001001001KA1240M+03241MA1999999098731MD1999999-0151REMSYN088AAXX  14004 82586 32594 63604 10265 20214 39873 40110 86400 333 10324 29069 55090 59015;EQDQ01  00002PRCP99
0186825860999992002011412004-05190-039300FM-12+021199999V0200901N001010075019N0200001N1+02581+02271101191ADDAA199000091GF106991061041008001001001KA1240N+02321MA1999999098821MD1999999-0051REMSYN076AAXX  14124 82586 32598 60902 10258 20227 39882 40119 86400 333 20232 59005;EQDQ01  00002PRCP99
0167825860999992002011418004-05190-039300FM-12+021199999V0201401N001510075019N0200001N1+03141+01971100871ADDAA199000091GF106991061021008001001001MA1999999098511MD1999999-0111REMSYN070AAXX  14184 82586 32598 61403 10314 20197 39851 40087 86200 333 59011;EQDQ01  00002PRCP99
0198825860999992002011500004-05190-039300FM-12+021199999V0200501N005110075019N0010001N1+02701+02041100941ADDAA199000091GF105991051021008001001001KA1240M+03221MA1999999098581MD1999999-0151REMSYN088AAXX  15004 82586 32594 50510 10270 20204 39858 40094 85200 333 10322 29069 55065 59015;EQDQ01  00002PRCP99
0186825860999992002011512004-05190-039300FM-12+021199999V0200901N000510075019N0200001N1+02741+02261101041ADDAA199000091GF106991061041008001001001KA1240N+02421MA1999999098681MD1999999-0141REMSYN076AAXX  15124 82586 32598 60901 10274 20226 39868 40104 86400 333 20242 59014;EQDQ01  00002PRCP99
0198825860999992002011600004-05190-039300FM-12+021199999V0200501N004112200019N0010001N1+02701+02261100911ADDAA199000091GF104991041021008001001001KA1240M+03091MA1999999098551MD1999999-0031REMSYN088AAXX  16004 82586 32594 40508 10270 20226 39855 40091 84200 333 10309 29070 55062 59003;EQDQ01  00002PRCP99
0186825860999992002011612004-05190-039300FM-12+021199999V0209999C000010075019N0200001N1+02601+02331100991ADDAA199000091GF108991081071008001999999KA1240N+02401MA1999999098631MD1999999-0051REMSYN076AAXX  16124 82586 32598 80000 10260 20233 39863 40099 887// 333 20240 59005;EQDQ01  00002PRCP99
0182825860999992002011618004-05190-039300FM-12+021199999V0209999C000010075019N0200001N1+02421+02391100831ADDAA106021191AY161061AY261061GF108991081071008001999999MA1999999098431MD1999999+0101MW1031REMSYN082AAXX  16184 82586 21598 80000 10242 20239 39843 40083 70366 887// 333 58010 60211;
0232825860999992002011700004-05190-039300FM-12+021199999V0209999C000019999999N0010001N1+02481+02451100991ADDAA106000191AY151061AY221061GF108991999999008001999999KA1240M+03151MA1999999098631MD1999999+0081MW1131REMSYN100AAXX  17004 82586 21594 80000 10248 20245 39863 40099 71352 89/// 333 10315 29050 55023 58008 69921;EQDQ01+000092SCOTLC
0201825860999992002011712004-05190-039300FM-12+021199999V0201801N001510075019N0200001N1+02521+02361101021ADDAA124021191AY151061AY221061GF108991081071008001999999KA1240N+02261MA1999999098631MD1999999+0001MW1031REMSYN088AAXX  17124 82586 21598 81803 10252 20236 39863 40102 70352 887// 333 20226 58000 60214;
0182825860999992002011718004-05190-039300FM-12+021199999V0203601N003110075019N0200001N1+02721+02391100981ADDAA106002091AY161061AY221061GF108991081071008001999999MA1999999098591MD1999999+0161MW1171REMSYN082AAXX  17184 82586 21598 83606 10272 20239 39859 40098 71762 887// 333 58016 60021;
0213825860999992002011800004-05190-039300FM-12+021199999V0209999C000010075019N0010001N1+02241+02211101141ADDAA106031091AY191061AY261061GF108991081091008001999999KA1240M+03091MA1999999098741MD1999999+0111MW1611REMSYN100AAXX  18004 82586 21594 80000 10224 20221 39874 40114 76196 889// 333 10309 29092 55027 58011 60311;
0201825860999992002011812004-05190-039300FM-12+021199999V0202701N001510075019N0200001N1+02501+02211101221ADDAA124057991AY161061AY261061GF108991081071008001999999KA1240N+02241MA1999999098821MD1999999+0191MW1031REMSYN088AAXX  18124 82586 21598 82703 10250 20221 39882 40122 70366 887// 333 20224 58019 60584;
0182825860999992002011818004-05190-039300FM-12+021199999V0202701N001512200019N0200001N1+02921+02011100951ADDAA106005191AY161061AY221061GF106991031021008001001041MA1999999098581MD1999999-0011MW1031REMSYN082AAXX  18184 82586 21598 62703 10292 20201 39858 40095 70362 83204 333 59001 60051;
0213825860999992002011900004-05190-039300FM-12+021199999V0203601N001510075019N0010001N1+02391+02351101031ADDAA106003091AY161061AY221061GF106991061041008001001001KA1240M+03661MA1999999098931MD1999999-0111MW1031REMSYN100AAXX  19004 82586 21594 63603 10239 20235 39893 40103 70362 86400 333 10366 29085 55027 59011 60031;
0201825860999992002011912004-05190-039300FM-12+021199999V0203601N002610075019N0200001N1+02661+02161101131ADDAA124010991AY161061AY221061GF107991071041008001001001KA1240N+02281MA1999999098741MD1999999-0081MW1031REMSYN088AAXX  19124 82586 21598 73605 10266 20216 39874 40113 70362 87400 333 20228 59008 60114;
0167825860999992002011918004-05190-039300FM-12+021199999V0201801N001010075019N0200001N1+02811+02131100951ADDAA199000091GF105991051041008001001001MA1999999098571MD1999999-0011REMSYN070AAXX  19184 82586 32598 51802 10281 20213 39857 40095 85400 333 59001;EQDQ01  00002PRCP99
0213825860999992002012000004-05190-039300FM-12+021199999V0203601N001510075019N0010001N1+02621+02591100991ADDAA106011991AY191061AY261061GF108991081091008001999999KA1240M+03151MA1999999098631MD1999999+0001MW1611REMSYN100AAXX  20004 82586 21594 83603 10262 20259 39863 40099 76196 889// 333 10315 29084 55065 58000 60121;
0201825860999992002012012004-05190-039300FM-12+021199999V0200501N002110075019N0200001N1+02521+02391101191ADDAA106013091AY151061AY221061GF108991071011008001999999KA1240N+02201MA1999999098811MD1999999+0071MW1031REMSYN088AAXX  20124 82586 21598 80504 10252 20239 39881 40119 70352 871// 333 20220 58007 60131;
0167825860999992002012018004-05190-039300FM-12+021199999V0200901N002610075019N0200001N1+03071+01661100971ADDAA199000091GF105991051041008001001001MA1999999098611MD1999999+0041REMSYN070AAXX  20184 82586 32598 50905 10307 20166 39861 40097 85400 333 58004;EQDQ01  00002PRCP99
0208825860999992002012100004-05190-039300FM-12+021199999V0209999C000012200019N0010001N1+02621+02071101101ADDAA199000091GA1001+999999999GF100991001001999999001001KA1240M+03221MA1999999098721MD1999999+0091REMSYN082AAXX  21004 82586 32994 00000 10262 20207 39872 40110 333 10322 29069 55073 58009;EQDQ01  00002PRCP99
0186825860999992002012112004-05190-039300FM-12+021199999V0200501N003110075019N0200001N1+02701+02131101251ADDAA199000091GF106991061041008001001001KA1240N+02181MA1999999098871MD1999999-0061REMSYN076AAXX  21124 82586 32598 60506 10270 20213 39887 40125 86400 333 20218 59006;EQDQ01  00002PRCP99
0167825860999992002012118004-05190-039300FM-12+021199999V0201401N003112200019N0200001N1+03161+01791100981ADDAA199000091GF104991041021008001001001MA1999999098621MD1999999+0011REMSYN070AAXX  21184 82586 32598 41406 10316 20179 39862 40098 84200 333 58001;EQDQ01  00002PRCP99
0226825860999992002012200004-05190-039300FM-12+021199999V0200501N003110075019N0010001N1+02561+02251101201ADDAA199000091AY121061AY221061GF106991061031008001001001KA1240M+03221MA1999999098821MD1999999+0101MW1131REMSYN094AAXX  22004 82586 31594 60506 10256 20225 39882 40120 71322 86300 333 10322 29070 55078 58010;EQDQ01  00002PRCP99
0201825860999992002012212004-05190-039300FM-12+021199999V0201801N001510075019N0200001N1+02261+02181101481ADDAA124020191AY161061AY251061GF108991081071008001999999KA1240N+02001MA1999999099071MD1999999+0201MW1031REMSYN088AAXX  22124 82586 21598 81803 10226 20218 39907 40148 70365 887// 333 20200 58020 60204;
0198825860999992002012300004-05190-039300FM-12+021199999V0209999C000012200019N0010001N1+02541+02321101231ADDAA199000091GF105991021021008001001041KA1240M+03031MA1999999098851MD1999999+0031REMSYN088AAXX  23000 82586 32594 50000 10254 20232 39885 40123 82204 333 10303 29082 55045 58003;EQDQ01  00002PRCP99
0186825860999992002012312004-05190-039300FM-12+021199999V0209999C000010075019N0200001N1+02601+02231101421ADDAA199000091GF107991071041008001001001KA1240N+02321MA1999999099031MD1999999-0041REMSYN076AAXX  23124 82586 32598 70000 10260 20223 39903 40142 87400 333 20232 59004;EQDQ01  00002PRCP99
0167825860999992002012318004-05190-039300FM-12+021199999V0201401N003112200019N0200001N1+03141+01871101071ADDAA199000091GF104991041021008001001001MA1999999098711MD1999999-0111REMSYN070AAXX  23184 82586 32598 41406 10314 20187 39871 40107 84200 333 59011;EQDQ01  00002PRCP99
0192825860999992002012400004-05190-039300FM-12+021199999V0200501N003112200019N0010001N1+02661+02221101201ADDAA199000091GF102991999999999999999999KA1240M+03221MA1999999098821MD1999999-0031REMSYN082AAXX  24004 82586 32994 20506 10266 20222 39882 40120 333 10322 29070 55098 59003;EQDQ01  00002PRCP99
0186825860999992002012412004-05190-039300FM-12+021199999V0200501N002610075019N0200001N1+02781+02231101231ADDAA199000091GF107991071041008001001001KA1240N+02441MA1999999098861MD1999999-0211REMSYN076AAXX  24124 82586 32598 70505 10278 20223 39886 40123 87400 333 20244 59021;EQDQ01  00002PRCP99
0167825860999992002012418004-05190-039300FM-12+021199999V0201401N003112200019N0200001N1+03081+02011101041ADDAA199000091GF105991031021008001001041MA1999999098681MD1999999-0031REMSYN070AAXX  24184 82586 32598 51406 10308 20201 39868 40104 83204 333 59003;EQDQ01  00002PRCP99
0198825860999992002012500004-05190-039300FM-12+021199999V0200501N002612200019N0010001N1+02681+02411101121ADDAA199000091GF104991031001012501051041KA1240M+03181MA1999999098761MD1999999-0061REMSYN088AAXX  25004 82586 32694 40505 10268 20241 39876 40112 83054 333 10318 29074 55070 59006;EQDQ01  00002PRCP99
0186825860999992002012512004-05190-039300FM-12+021199999V0200501N003112200019N0200001N1+02801+02081101241ADDAA199000091GF105991031021008001001011KA1240N+02381MA1999999098871MD1999999+0011REMSYN076AAXX  25124 82586 32598 50506 10280 20208 39887 40124 83201 333 20238 58001;EQDQ01  00002PRCP99
0167825860999992002012518004-05190-039300FM-12+021199999V0200901N002112200019N0200001N1+03161+01861101021ADDAA199000091GF104991041021008001001001MA1999999098661MD1999999-0021REMSYN070AAXX  25184 82586 32598 40904 10316 20186 39866 40102 84200 333 59002;EQDQ01  00002PRCP99
0213825860999992002012600004-05190-039300FM-12+021199999V0209999C000510075019N0010001N1+02361+02291101261ADDAA106010991AY191061AY261061GF106991061041008001001001KA1240M+03221MA1999999098881MD1999999+0121MW1031REMSYN100AAXX  26004 82586 21594 60001 10236 20229 39888 40126 70396 86400 333 10322 29076 55090 58012 60111;
0173825860999992002012612004-05190-039300FM-12+021199999V0200901N006212200019N0200001N1+02781+02111101341ADDAA124010991GF104991021021008001001011KA1240N+02181MA1999999098951MD1999999+0081REMSYN082AAXX  26124 82586 22598 40912 10278 20211 39895 40134 82201 333 20218 58008 60114;
0167825860999992002012618004-05190-039300FM-12+021199999V0200901N003110075019N0200001N1+03171+01891101011ADDAA199000091GF106991061041008001001001MA1999999098651MD1999999-0011REMSYN070AAXX  26184 82586 32598 60906 10317 20189 39865 40101 86400 333 59001;EQDQ01  00002PRCP99
0213825860999992002012700004-05190-039300FM-12+021199999V0209999C000010075019N0010001N1+02211+02171101311ADDAA106102191AY161061AY221061GF108991081071008001999999KA1240M+03221MA1999999098921MD1999999+0041MW1031REMSYN100AAXX  27004 82586 21594 80000 10221 20217 39892 40131 70362 887// 333 10322 29076 55103 58004 61021;
0173825860999992002012712004-05190-039300FM-12+021199999V0200901N003110075019N0200001N1+02591+02211101311ADDAA124011991GF106991061041008001001001KA1240N+02121MA1999999098911MD1999999-0041REMSYN082AAXX  27124 82586 22598 60906 10259 20221 39891 40131 86400 333 20212 59004 60124;
0167825860999992002012718004-05190-039300FM-12+021199999V0200501N002110075019N0200001N1+03071+02051100981ADDAA199000091GF106991061041008001001001MA1999999098621MD1999999-0031REMSYN070AAXX  27184 82586 32598 60504 10307 20205 39862 40098 86400 333 59003;EQDQ01  00002PRCP99
0226825860999992002012800004-05190-039300FM-12+021199999V0201401N005110075019N0010001N1+02581+02221101101ADDAA199000091AY121061AY221061GF107991071031008001001001KA1240M+03221MA1999999098771MD1999999-0191MW1131REMSYN094AAXX  28004 82586 31594 71410 10258 20222 39877 40110 71322 87300 333 10322 29078 55075 59019;EQDQ01  00002PRCP99
0201825860999992002012812004-05190-039300FM-12+021199999V0200501N002610075019N0200001N1+02481+02431101231ADDAA124017091AY161061AY251061GF108991081071008001999999KA1240N+02371MA1999999098851MD1999999-0061MW1031REMSYN088AAXX  28124 82586 21598 80505 10248 20243 39885 40123 70365 887// 333 20237 59006 60174;
0182825860999992002012818004-05190-039300FM-12+021199999V0201801N002110075019N0200001N1+02861+02231101041ADDAA106000891AY151061AY221061GF107991071071008001001001MA1999999098671MD1999999+0051MW1031REMSYN082AAXX  28184 82586 21598 71804 10286 20223 39867 40104 70352 87700 333 58005 69981;
0226825860999992002012900004-05190-039300FM-12+021199999V0209999C000010075019N0010001N1+02501+02361101201ADDAA199000091AY121061AY221061GF107991071031008001001001KA1240M+03001MA1999999098811MD1999999+0081MW1131REMSYN094AAXX  29004 82586 31594 70000 10250 20236 39881 40120 71322 87300 333 10300 29088 55023 58008;EQDQ01  00002PRCP99
0201825860999992002012912004-05190-039300FM-12+021199999V0200501N002610075019N0200001N1+02601+02461101181ADDAA124002091AY161061AY251061GF108991081071008001999999KA1240N+02421MA1999999098801MD1999999-0051MW1031REMSYN088AAXX  29124 82586 21598 80505 10260 20246 39880 40118 70365 887// 333 20242 59005 60024;
0167825860999992002012918004-05190-039300FM-12+021199999V0200501N005110075019N0200001N1+02951+02321100881ADDAA199000091GF107991071041008001001001MA1999999098521MD1999999-0151REMSYN070AAXX  29184 82586 32598 70510 10295 20232 39852 40088 87400 333 59015;EQDQ01  00002PRCP99
0213825860999992002013000004-05190-039300FM-12+021199999V0201801N003110075019N0010001N1+02181+02161101191ADDAA106022191AY191061AY261061GF108991081091008001999999KA1240M+03221MA1999999098791MD1999999-0021MW1511REMSYN100AAXX  30004 82586 21594 81806 10218 20216 39879 40119 75196 889// 333 10322 29091 55068 59002 60221;
0201825860999992002013012004-05190-039300FM-12+021199999V0200901N003110075019N0200001N1+02621+02251101221ADDAA124022191AY151061AY221061GF107991071071008001001001KA1240N+02121MA1999999098821MD1999999+0021MW1031REMSYN088AAXX  30124 82586 21598 70906 10262 20225 39882 40122 70352 87700 333 20212 58002 60224;
0167825860999992002013018004-05190-039300FM-12+021199999V0200901N002112200019N0200001N1+03081+01951101041ADDAA199000091GF106991031021008001001041MA1999999098681MD1999999+0161REMSYN070AAXX  30184 82586 32598 60904 10308 20195 39868 40104 83204 333 58016;EQDQ01  00002PRCP99
0198825860999992002013100004-05190-039300FM-12+021199999V0203601N001512200019N0010001N1+02621+02351101141ADDAA199000091GF104991021021008001001041KA1240M+03181MA1999999098761MD1999999-0021REMSYN088AAXX  31004 82586 32594 43603 10262 20235 39876 40114 82204 333 10318 29075 55068 59002;EQDQ01  00002PRCP99
0186825860999992002013112004-05190-039300FM-12+021199999V0200901N002610075019N0200001N1+02741+02171101101ADDAA199000091GF106991061041008001001001KA1240N+02401MA1999999098741MD1999999-0081REMSYN076AAXX  31124 82586 32598 60905 10274 20217 39874 40110 86400 333 20240 59008;EQDQ01  00002PRCP99
0167825860999992002013118004-05190-039300FM-12+021199999V0201401N003110075019N0200001N1+03101+02141100911ADDAA199000091GF106991061041008001001001MA1999999098551MD1999999-0131REMSYN070AAXX  31184 82586 32598 61406 10310 20214 39855 40091 86400 333 59013;EQDQ01  00002PRCP99
0198825860999992002020100004-05190-039300FM-12+021199999V0200501N000512200019N0010001N1+02521+02361100981ADDAA199000091GF104991041021008001001001KA1240M+03201MA1999999098621MD1999999-0101REMSYN088AAXX  01004 82586 32594 40501 10252 20236 39862 40098 84200 333 10320 29077 55082 59010;EQDQ01  00002PRCP99
0186825860999992002020112004-05190-039300FM-12+021199999V0200901N002110075019N0200001N1+02661+02221101261ADDAA199000091GF108991081071008001999999KA1240N+02481MA1999999098881MD1999999+0041REMSYN076AAXX  01124 82586 32598 80904 10266 20222 39888 40126 887// 333 20248 58004;EQDQ01  00002PRCP99
0167825860999992002020118004-05190-039300FM-12+021199999V0200901N003110075019N0200001N1+02981+02041101011ADDAA199000091GF108991081071008001999999MA1999999098651MD1999999+0101REMSYN070AAXX  01184 82586 32598 80906 10298 20204 39865 40101 887// 333 58010;EQDQ01  00002PRCP99
0208825860999992002020200004-05190-039300FM-12+021199999V0209999C000012200019N0010001N1+02641+02331101071ADDAA199000091GA1001+999999999GF100991001001999999001001KA1240M+03091MA1999999098691MD1999999+0071REMSYN082AAXX  02004 82586 32994 00000 10264 20233 39869 40107 333 10309 29075 55024 58007;EQDQ01  00002PRCP99
0202825860999992002020212004-05190-039300FM-12+021199999V0200901N001510075019N0200001N1+02761+02041101251ADDAA199000091GF107991999021008001001001KA1240N+02341MA1999999098881MD1999999+0041REMSYN076AAXX  02124 82586 32598 70903 10276 20204 39888 40125 85200 333 20234 58004;EQDQ01+000052SCOTLCQ02  00002PRCP99
0183825860999992002020218004-05190-039300FM-12+021199999V0200901N003119999999N0200001N1+03101+01621101081ADDAA199000091GF106991999011008001001001MA1999999098691MD1999999+0041REMSYN070AAXX  02184 82586 32598 60906 10310 20162 39869 40108 82100 333 58004;EQDQ01+000022SCOTLCQ02  00002PRCP99
0208825860999992002020300004-05190-039300FM-12+021199999V0209999C000012200019N0010001N1+02691+02231101191ADDAA199000091GA1001+999999999GF100991001001999999001001KA1240M+03221MA1999999098761MD1999999+0101REMSYN082AAXX  03004 82586 32994 00000 10269 20223 39876 40119 333 10322 29067 55088 58010;EQDQ01  00002PRCP99
0186825860999992002020312004-05190-039300FM-12+021199999V0203601N002110075019N0200001N1+02721+02281101181ADDAA199000091GF108991081071008001999999KA1240N+02381MA1999999098841MD1999999-0041REMSYN076AAXX  03124 82586 32598 83604 10272 20228 39884 40118 887// 333 20238 59004;EQDQ01  00002PRCP99
0182825860999992002020318004-05190-039300FM-12+021199999V0200901N005110075019N0200001N1+02901+02341100991ADDAA106000191AY151061AY221061GF108991081071008001999999MA1999999098641MD1999999-0051MW1031REMSYN082AAXX  03184 82586 21598 80910 10290 20234 39864 40099 70352 887// 333 59005 69921;
0213825860999992002020400004-05190-039300FM-12+021199999V0200901N003610075019N0010001N1+02341+02321101201ADDAA106005191AY161061AY221061GF108991081071008001999999KA1240M+03121MA1999999098821MD1999999+0031MW1031REMSYN100AAXX  04004 82586 21594 80907 10234 20232 39882 40120 70362 887// 333 10312 29087 55050 58003 60051;
0173825860999992002020412004-05190-039300FM-12+021199999V0200901N003610075019N0200001N1+02321+02181101291ADDAA124005191GF108991081071008001999999KA1240N+02281MA1999999098891MD1999999+0051REMSYN082AAXX  04124 82586 22598 80907 10232 20218 39889 40129 887// 333 20228 58005 60054;
0167825860999992002020418004-05190-039300FM-12+021199999V0200901N003110075019N0200001N1+03001+01911101091ADDAA199000091GF108991081071008001999999MA1999999098731MD1999999+0091REMSYN070AAXX  04184 82586 32598 80906 10300 20191 39873 40109 887// 333 58009;EQDQ01  00002PRCP99
0198825860999992002020500004-05190-039300FM-12+021199999V0203601N002112200019N0010001N1+02521+02191101211ADDAA199000091GF102991021011008001001001KA1240M+03151MA1999999098831MD1999999+0011REMSYN088AAXX  05004 82586 32594 23604 10252 20219 39883 40121 82100 333 10315 29077 55077 58001;EQDQ01  00002PRCP99
0202825860999992002020512004-05190-039300FM-12+021199999V0200501N002119999999N0200001N1+02661+02241101311ADDAA199000091GF106991999071008001001001KA1240N+02321MA1999999098931MD1999999+0041REMSYN076AAXX  05124 82586 32598 60504 10266 20224 39893 40131 87700 333 20232 58004;EQDQ01+000072SCOTLCQ02  00002PRCP99
0167825860999992002020518004-05190-039300FM-12+021199999V0200901N003110075019N0200001N1+03111+01871101091ADDAA199000091GF105991051021008001001001MA1999999098731MD1999999+0001REMSYN070AAXX  05184 82586 32598 50906 10311 20187 39873 40109 85200 333 58000;EQDQ01  00002PRCP99
0208825860999992002020600004-05190-039300FM-12+021199999V0200501N002612200019N0010001N1+02601+02171101241ADDAA199000091GA1001+999999999GF100991001001999999001001KA1240M+03221MA1999999098861MD1999999+0031REMSYN082AAXX  06004 82586 32994 00505 10260 20217 39886 40124 333 10322 29070 55071 58003;EQDQ01  00002PRCP99
0202825860999992002020618004-05190-039300FM-12+021199999V0201401N001519999999N0200001N1+03071+02141101021ADDAA106003091AY161061AY221061GF106991999071008001001001MD1999999-0071MW1031REMSYN082AAXX  06184 82586 21598 61403 10307 20214 32866 40102 70362 87700 333 59007 60031;EQDQ01+000072SCOTLCQ02+028661APOSP 
0167825860999992002020718004-05190-039300FM-12+021199999V0201401N003112200019N0200001N1+03181+01691100991ADDAA199000091GF104991041021008001001001MA1999999098631MD1999999-0031REMSYN070AAXX  07184 82586 32598 41406 10318 20169 39863 40099 84200 333 59003;EQDQ01  00002PRCP99
0208825860999992002020800004-05190-039300FM-12+021199999V0209999C000012200019N0010001N1+02701+01961101041ADDAA199000091GA1001+999999999GF100991001001999999001001KA1240M+03301MA1999999098681MD1999999-0091REMSYN082AAXX  08004 82586 32994 00000 10270 20196 39868 40104 333 10330 29058 55107 59009;EQDQ01  00002PRCP99
0186825860999992002020812004-05190-039300FM-12+021199999V0201401N004112200019N0200001N1+02761+01821101181ADDAA199000091GF104991041021008001001001KA1240N+02321MA1999999098821MD1999999-0061REMSYN076AAXX  08124 82586 32598 41408 10276 20182 39882 40118 84200 333 20232 59006;EQDQ01  00002PRCP99
0167825860999992002020818004-05190-039300FM-12+021199999V0201401N003110075019N0200001N1+03141+01801100971ADDAA199000091GF105991051041008001001001MA1999999098611MD1999999-0021REMSYN070AAXX  08184 82586 32598 51406 10314 20180 39861 40097 85400 333 59002;EQDQ01  00002PRCP99
0213825860999992002020900004-05190-039300FM-12+021199999V0201801N001010075019N0010001N1+02521+02451101161ADDAA106001091AY161061AY221061GF106991061021008001001001KA1240M+03221MA1999999098781MD1999999+0101MW1031REMSYN100AAXX  09004 82586 21594 61802 10252 20245 39878 40116 70362 86200 333 10322 29074 55107 58010 60011;
0173825860999992002020912004-05190-039300FM-12+021199999V0203601N002110075019N0200001N1+02781+02061101251ADDAA124001091GF106991061041008001001001KA1240N+02381MA1999999098871MD1999999+0051REMSYN082AAXX  09124 82586 22598 63604 10278 20206 39887 40125 86400 333 20238 58005 60014;
0167825860999992002020918004-05190-039300FM-12+021199999V0203601N003112200019N0200001N1+03221+01731101031ADDAA199000091GF102991021011008001001001MA1999999098671MD1999999+0061REMSYN070AAXX  09184 82586 32598 23606 10322 20173 39867 40103 82100 333 58006;EQDQ01  00002PRCP99
0198825860999992002021000004-05190-039300FM-12+021199999V0200501N005110075019N0010001N1+02721+02281101151ADDAA199000091GF106991061041008001001001KA1240M+03321MA1999999098791MD1999999+0011REMSYN088AAXX  10004 82586 32594 60510 10272 20228 39879 40115 86400 333 10332 29065 55093 58001;EQDQ01  00002PRCP99
0201825860999992002021012004-05190-039300FM-12+021199999V0203601N000510075019N0200001N1+02381+02311101311ADDAA124001091AY191061AY261061GF108991081051008001999999KA1240N+02271MA1999999098931MD1999999+0061MW1031REMSYN088AAXX  10124 82586 21598 83601 10238 20231 39893 40131 70396 885// 333 20227 58006 60014;
0182825860999992002021018004-05190-039300FM-12+021199999V0209999C000010075019N0200001N1+02701+02371101071ADDAA106005191AY191061AY221061GF107991071041008001001001MA1999999098701MD1999999+0031MW1031REMSYN082AAXX  10184 82586 21598 70000 10270 20237 39870 40107 70392 87400 333 58003 60051;
0214825860999992002021100004-05190-039300FM-12+021199999V0200501N001519999999N0010001N1+02521+02001101231ADDAA199000091GF106991999021008001001001KA1240M+03031MA1999999098831MD1999999+0041REMSYN088AAXX  11004 82586 32594 60503 10252 20200 39883 40123 83200 333 10303 29081 55017 58004;EQDQ01+000032SCOTLCQ02  00002PRCP99
0173825860999992002021112004-05190-039300FM-12+021199999V0200901N001012200019N0200001N1+02621+01911101221ADDAA124005191GF104991041021008001001001KA1240N+02201MA1999999098881MD1999999-0091REMSYN082AAXX  11124 82586 22598 40902 10262 20191 39888 40122 84200 333 20220 59009 60054;
0167825860999992002021118004-05190-039300FM-12+021199999V0201401N002612200019N0200001N1+03131+01681100971ADDAA199000091GF103991031021008001001001MA1999999098601MD1999999-0101REMSYN070AAXX  11184 82586 32598 31405 10313 20168 39860 40097 83200 333 59010;EQDQ01  00002PRCP99
0213825860999992002021200004-05190-039300FM-12+021199999V0203601N001510075019N0010001N1+02381+02351101121ADDAA106003091AY161061AY221061GF106991061041008001001001KA1240M+03221MA1999999098731MD1999999-0101MW1031REMSYN100AAXX  12004 82586 21594 63603 10238 20235 39873 40112 70362 86400 333 10322 29077 55096 59010 60031;
0173825860999992002021212004-05190-039300FM-12+021199999V0201401N001510075019N0200001N1+02561+02081101291ADDAA124003091GF106991061041008001001001KA1240N+02181MA1999999098891MD1999999+0051REMSYN082AAXX  12124 82586 22598 61403 10256 20208 39889 40129 86400 333 20218 58005 60034;
0167825860999992002021218004-05190-039300FM-12+021199999V0200501N001012200019N0200001N1+03071+02221101031ADDAA199000091GF104991041021008001001001MA1999999098661MD1999999+0061REMSYN070AAXX  12184 82586 32598 40502 10307 20222 39866 40103 84200 333 58006;EQDQ01  00002PRCP99
0198825860999992002021300004-05190-039300FM-12+021199999V0203601N001510075019N0010001N1+02261+02211101251ADDAA199000091GF106991061021008001001001KA1240M+03161MA1999999098851MD1999999+0121REMSYN088AAXX  13004 82586 32594 63603 10226 20221 39885 40125 86200 333 10316 29083 55095 58012;EQDQ01  00002PRCP99
0201825860999992002021312004-05190-039300FM-12+021199999V0201401N002110075019N0200001N1+02381+02011101261ADDAA124015091AY191061AY261061GF106991061041008001001001KA1240N+02181MA1999999098851MD1999999-0041MW1031REMSYN088AAXX  13124 82586 21598 61404 10238 20201 39885 40126 70396 86400 333 20218 59004 60154;
0167825860999992002021318004-05190-039300FM-12+021199999V0201401N001510075019N0200001N1+02881+02081101201ADDAA199000091GF108991081071008001999999MA1999999098821MD1999999+0161REMSYN070AAXX  13184 82586 32598 81403 10288 20208 39882 40120 887// 333 58016;EQDQ01  00002PRCP99
0213825860999992002021400004-05190-039300FM-12+021199999V0200501N001010075019N0010001N1+02181+02161101341ADDAA106031091AY161061AY251061GF108991081071008001999999KA1240M+02971MA1999999098931MD1999999+0081MW1031REMSYN100AAXX  14004 82586 21594 80502 10218 20216 39893 40134 70365 887// 333 10297 29085 55026 58008 60311;
0173825860999992002021412004-05190-039300FM-12+021199999V0201401N001010075019N0200001N1+02401+02241101321ADDAA124031091GF108991081071008001999999KA1240N+02201MA1999999098901MD1999999+0051REMSYN082AAXX  14124 82586 22598 81402 10240 20224 39890 40132 887// 333 20220 58005 60314;
0198825860999992002021500004-05190-039300FM-12+021199999V0203601N001510075019N0010001N1+02501+02341101191ADDAA199000091GF106991061021008001001001KA1240M+02821MA1999999098791MD1999999-0141REMSYN088AAXX  15004 82586 32594 63603 10250 20234 39879 40119 86200 333 10282 29098 55000 59014;EQDQ01  00002PRCP99
0167825860999992002021518004-05190-039300FM-12+021199999V0200901N004612200019N0200001N1+03061+01961101061ADDAA199000091GF104991021021008001001041MA1999999098701MD1999999+0031REMSYN070AAXX  15184 82586 32598 40909 10306 20196 39870 40106 82204 333 58003;EQDQ01  00002PRCP99
0198825860999992002021600004-05190-039300FM-12+021199999V0209999C000010075019N0010001N1+02581+02371101201ADDAA199000091GF106991061021008001001001KA1240M+03161MA1999999098821MD1999999+0031REMSYN088AAXX  16004 82586 32594 60000 10258 20237 39882 40120 86200 333 10316 29078 55075 58003;EQDQ01  00002PRCP99
0202825860999992002021612004-05190-039300FM-12+021199999V0200901N004619999999N0200001N1+02781+02231101291ADDAA199000091GF106991999021008001001001KA1240N+02401MA1999999098921MD1999999+0001REMSYN076AAXX  16124 82586 32598 60909 10278 20223 39892 40129 84200 333 20240 58000;EQDQ01+000042SCOTLCQ02  00002PRCP99
0167825860999992002021618004-05190-039300FM-12+021199999V0200901N002112200019N0200001N1+03101+01791101071ADDAA199000091GF104991041021008001001001MA1999999098711MD1999999+0011REMSYN070AAXX  16184 82586 32598 40904 10310 20179 39871 40107 84200 333 58001;EQDQ01  00002PRCP99
0208825860999992002021700004-05190-039300FM-12+021199999V0203601N001512200019N0010001N1+02621+02211101121ADDAA199000091GA1001+999999999GF100991001001999999001001KA1240M+03241MA1999999098751MD1999999-0071REMSYN082AAXX  17004 82586 32994 03603 10262 20221 39875 40112 333 10324 29068 55110 59007;EQDQ01  00002PRCP99
0186825860999992002021712004-05190-039300FM-12+021199999V0200901N004110075019N0200001N1+02781+02211101251ADDAA199000091GF107991071041008001001001KA1240N+02421MA1999999098881MD1999999-0041REMSYN076AAXX  17124 82586 32598 70908 10278 20221 39888 40125 87400 333 20242 59004;EQDQ01  00002PRCP99
0167825860999992002021718004-05190-039300FM-12+021199999V0201401N003112200019N0200001N1+03221+01911101001ADDAA199000091GF103991031021008001001001MA1999999098641MD1999999-0071REMSYN070AAXX  17184 82586 32598 31406 10322 20191 39864 40100 83200 333 59007;EQDQ01  00002PRCP99
0226825860999992002021800004-05190-039300FM-12+021199999V0203601N001512200019N0010001N1+02741+02171101161ADDAA199000091AY121061AY221061GF103991031031008001001001KA1240M+03221MA1999999098801MD1999999+0051MW1131REMSYN094AAXX  18004 82586 31594 33603 10274 20217 39880 40116 71322 83300 333 10322 29065 55105 58005;EQDQ01  00002PRCP99
0186825860999992002021812004-05190-039300FM-12+021199999V0200501N003610075019N0200001N1+02641+02231101121ADDAA199000091GF108991081071008001999999KA1240N+02361MA1999999098751MD1999999-0161REMSYN076AAXX  18124 82586 32598 80507 10264 20223 39875 40112 887// 333 20236 59016;EQDQ01  00002PRCP99
0167825860999992002021818004-05190-039300FM-12+021199999V0201401N002612200019N0200001N1+03241+02051100911ADDAA199000091GF103991031021008001001001MA1999999098551MD1999999-0091REMSYN070AAXX  18184 82586 32598 31405 10324 20205 39855 40091 83200 333 59009;EQDQ01  00002PRCP99
0226825860999992002021900004-05190-039300FM-12+021199999V0203601N003110075019N0010001N1+02731+02151101031ADDAA199000091AY121061AY221061GF106991061021008001001001KA1240M+03381MA1999999098671MD1999999-0131MW1131REMSYN094AAXX  19004 82586 31594 63606 10273 20215 39867 40103 71322 86200 333 10338 29067 55087 59013;EQDQ01  00002PRCP99
0186825860999992002021912004-05190-039300FM-12+021199999V0200501N003110075019N0200001N1+02741+02261101151ADDAA199000091GF107991071041008001001001KA1240N+02481MA1999999098791MD1999999+0041REMSYN076AAXX  19124 82586 32598 70506 10274 20226 39879 40115 87400 333 20248 58004;EQDQ01  00002PRCP99
0167825860999992002021918004-05190-039300FM-12+021199999V0200901N003112200019N0200001N1+03221+02081100831ADDAA199000091GF103991031001008001001001MA1999999098481MD1999999-0071REMSYN070AAXX  19184 82586 32598 30906 10322 20208 39848 40083 83000 333 59007;EQDQ01  00002PRCP99
0208825860999992002022000004-05190-039300FM-12+021199999V0203601N002612200019N0010001N1+02721+02281101031ADDAA199000091GA1001+999999999GF100991001001999999001001KA1240M+03291MA1999999098671MD1999999+0001REMSYN082AAXX  20004 82586 32994 03605 10272 20228 39867 40103 333 10329 29070 55082 58000;EQDQ01  00002PRCP99
0186825860999992002022012004-05190-039300FM-12+021199999V0200901N003110075019N0200001N1+02771+02201101201ADDAA199000091GF108991081071008001999999KA1240N+02481MA1999999098831MD1999999+0041REMSYN076AAXX  20124 82586 32598 80906 10277 20220 39883 40120 887// 333 20248 58004;EQDQ01  00002PRCP99
0167825860999992002022018004-05190-039300FM-12+021199999V0200901N003110075019N0200001N1+03201+01751100971ADDAA199000091GF105991051041008001001001MA1999999098611MD1999999-0061REMSYN070AAXX  20184 82586 32598 50906 10320 20175 39861 40097 85400 333 59006;EQDQ01  00002PRCP99
0208825860999992002022100004-05190-039300FM-12+021199999V0203601N005112200019N0010001N1+02721+02151101041ADDAA199000091GA1001+999999999GF100991001001999999001001KA1240M+03321MA1999999098681MD1999999+0011REMSYN082AAXX  21004 82586 32994 03610 10272 20215 39868 40104 333 10332 29065 55087 58001;EQDQ01  00002PRCP99
0186825860999992002022112004-05190-039300FM-12+021199999V0200501N003110075019N0200001N1+02721+02151101151ADDAA199000091GF106991061041008001001001KA1240N+02421MA1999999098781MD1999999-0051REMSYN076AAXX  21124 82586 32598 60506 10272 20215 39878 40115 86400 333 20242 59005;EQDQ01  00002PRCP99
0167825860999992002022118004-05190-039300FM-12+021199999V0200901N002112200019N0200001N1+03221+01771100971ADDAA199000091GF104991041021008001001001MA1999999098571MD1999999-0041REMSYN070AAXX  21184 82586 32598 40904 10322 20177 39857 40097 84200 333 59004;EQDQ01  00002PRCP99
0208825860999992002022200004-05190-039300FM-12+021199999V0209999C000012200019N0010001N1+02671+02241100961ADDAA199000091GA1001+999999999GF100991001001999999001001KA1240M+03321MA1999999098601MD1999999-0081REMSYN082AAXX  22004 82586 32994 00000 10267 20224 39860 40096 333 10332 29067 55099 59008;EQDQ01  00002PRCP99
0186825860999992002022212004-05190-039300FM-12+021199999V0200501N004612200019N0200001N1+02841+02121101051ADDAA199000091GF103991031021008001001001KA1240N+02421MA1999999098691MD1999999-0091REMSYN076AAXX  22124 82586 32598 30509 10284 20212 39869 40105 83200 333 20242 59009;EQDQ01  00002PRCP99
0167825860999992002022218004-05190-039300FM-12+021199999V0200901N003112200019N0200001N1+03301+01681100821ADDAA199000091GF103991031021008001001001MA1999999098481MD1999999-0091REMSYN070AAXX  22184 82586 32598 30906 10330 20168 39848 40082 83200 333 59009;EQDQ01  00002PRCP99
0208825860999992002022300004-05190-039300FM-12+021199999V0203601N000512200019N0010001N1+02631+02291100951ADDAA199000091GA1001+999999999GF100991001001999999001001KA1240M+03421MA1999999098591MD1999999-0011REMSYN082AAXX  23004 82586 32994 03601 10263 20229 39859 40095 333 10342 29067 55111 59001;EQDQ01  00002PRCP99
0186825860999992002022312004-05190-039300FM-12+021199999V0200901N005110075019N0200001N1+02821+02101101171ADDAA199000091GF106991061041008001001001KA1240N+02401MA1999999098801MD1999999+0111REMSYN076AAXX  23124 82586 32598 60910 10282 20210 39880 40117 86400 333 20240 58011;EQDQ01  00002PRCP99
0167825860999992002022318004-05190-039300FM-12+021199999V0200901N001512200019N0200001N1+03261+01801100941ADDAA199000091GF105991031021008001001041MA1999999098581MD1999999+0101REMSYN070AAXX  23184 82586 32598 50903 10326 20180 39858 40094 83204 333 58010;EQDQ01  00002PRCP99
0208825860999992002022400004-05190-039300FM-12+021199999V0203601N002612200019N0010001N1+02741+02401101061ADDAA199000091GA1001+999999999GF100991001001999999001001KA1240M+03361MA1999999098701MD1999999+0111REMSYN082AAXX  24004 82586 32994 03605 10274 20240 39870 40106 333 10336 29068 55105 58011;EQDQ01  00002PRCP99
0186825860999992002022412004-05190-039300FM-12+021199999V0200501N003110075019N0200001N1+02661+02331101281ADDAA199000091GF108991081051008001999999KA1240N+02461MA1999999098611MD1999999+0111REMSYN076AAXX  24124 82586 32598 80506 10266 20233 39861 40128 885// 333 20246 58011;EQDQ01  00002PRCP99
0167825860999992002022418004-05190-039300FM-12+021199999V0201801N001512200019N0200001N1+02411+01771100971ADDAA199000091GF102991021011008001001001MA1999999098631MD1999999+0051REMSYN070AAXX  24184 82586 32598 21803 10241 20177 39863 40097 82100 333 58005;EQDQ01  00002PRCP99
0167825860999992002022518004-05190-039300FM-12+021199999V0200501N001512200019N0200001N1+03281+02001100971ADDAA199000091GF104991041021008001001001MA1999999098621MD1999999-0011REMSYN070AAXX  25184 82586 32598 40503 10328 20200 39862 40097 84200 333 59001;EQDQ01  00002PRCP99
0198825860999992002022600004-05190-039300FM-12+021199999V0200501N005110075019N0010001N1+02681+02411101151ADDAA199000091GF108991081071008001999999KA1240M+03421MA1999999098781MD1999999+0061REMSYN088AAXX  26004 82586 32594 80510 10268 20241 39878 40115 887// 333 10342 29073 55051 58006;EQDQ01  00002PRCP99
0186825860999992002022612004-05190-039300FM-12+021199999V0200901N006712200019N0200001N1+02801+02081101271ADDAA199000091GF106991031041008001001011KA1240N+02501MA1999999098901MD1999999+0041REMSYN076AAXX  26124 82586 32598 60913 10280 20208 39890 40127 83401 333 20250 58004;EQDQ01  00002PRCP99
0167825860999992002022618004-05190-039300FM-12+021199999V0200901N003612200019N0200001N1+03331+01701100911ADDAA199000091GF104991041021008001001001MA1999999098571MD1999999-0051REMSYN070AAXX  26184 82586 32598 40907 10333 20170 39857 40091 84200 333 59005;EQDQ01  00002PRCP99
0208825860999992002022700004-05190-039300FM-12+021199999V0200501N005112200019N0010001N1+02801+01841101021ADDAA199000091GA1001+999999999GF100991001001999999001001KA1240M+03421MA1999999098661MD1999999-0121REMSYN082AAXX  27004 82586 32994 00510 10280 20184 39866 40102 333 10342 29055 55091 59012;EQDQ01  00002PRCP99
0186825860999992002022712004-05190-039300FM-12+021199999V0200901N004612200019N0200001N1+02801+02081101211ADDAA199000091GF103991031011008001001001KA1240N+02421MA1999999098851MD1999999-0051REMSYN076AAXX  27124 82586 32598 30909 10280 20208 39885 40121 83100 333 20242 59005;EQDQ01  00002PRCP99
0167825860999992002022718004-05190-039300FM-12+021199999V0201401N003110075019N0200001N1+03461+01551100921ADDAA199000091GF105991051021008001001001MA1999999098581MD1999999+0011REMSYN070AAXX  27184 82586 32598 51406 10346 20155 39858 40092 85200 333 58001;EQDQ01  00002PRCP99
0198825860999992002022800004-05190-039300FM-12+021199999V0203601N006712200019N0010001N1+02871+02111101041ADDAA199000091GF104991041041008001001001KA1240M+03521MA1999999098681MD1999999+0021REMSYN088AAXX  28004 82586 32594 43613 10287 20211 39868 40104 84400 333 10352 29056 55108 58002;EQDQ01  00002PRCP99
0186825860999992002022812004-05190-039300FM-12+021199999V0200901N005112200019N0200001N1+02901+01961101071ADDAA199000091GF102991021011008001001001KA1240N+02441MA1999999098721MD1999999-0131REMSYN076AAXX  28124 82586 32598 20910 10290 20196 39872 40107 82100 333 20244 59013;EQDQ01  00002PRCP99
0167825860999992002022818004-05190-039300FM-12+021199999V0200901N003112200019N0200001N1+03361+01601100881ADDAA199000091GF103991031021008001001001MA1999999098541MD1999999-0041REMSYN070AAXX  28184 82586 32598 30906 10336 20160 39854 40088 83200 333 59004;EQDQ01  00002PRCP99
0208825860999992002030100004-05190-039300FM-12+021199999V0201801N001012200019N0010001N1+02701+01991100941ADDAA199000091GA1001+999999999GF100991001001999999001001KA1240M+03431MA1999999098581MD1999999-0101REMSYN082AAXX  01004 82586 32994 01802 10270 20199 39858 40094 333 10343 29056 55109 59010;EQDQ01  00002PRCP99
0186825860999992002030112004-05190-039300FM-12+021199999V0200901N005112200019N0200001N1+02821+01941101121ADDAA199000091GF102991021011008001001001KA1240N+02461MA1999999098761MD1999999+0041REMSYN076AAXX  01124 82586 32598 20910 10282 20194 39876 40112 82100 333 20246 58004;EQDQ01  00002PRCP99
0167825860999992002030118004-05190-039300FM-12+021199999V0201801N003112200019N0200001N1+03401+01501100911ADDAA199000091GF102991021011008001001001MA1999999098571MD1999999+0031REMSYN070AAXX  01184 82586 32598 21806 10340 20150 39857 40091 82100 333 58003;EQDQ01  00002PRCP99
0167825860999992002030218004-05190-039300FM-12+021199999V0200901N003112200019N0200001N1+03431+01511100851ADDAA199000091GF106991031021008001001041MA1999999098511MD1999999-0061REMSYN070AAXX  02184 82586 32598 60906 10343 20151 39851 40085 83204 333 59006;EQDQ01  00002PRCP99
0208825860999992002030300004-05190-039300FM-12+021199999V0200501N003112200019N0010001N1+02761+02191100981ADDAA199000091GA1001+999999999GF100991001001999999001001KA1240M+03541MA1999999098621MD1999999-0011REMSYN082AAXX  03004 82586 32994 00506 10276 20219 39862 40098 333 10354 29061 55084 59001;EQDQ01  00002PRCP99
0183825860999992002030318004-05190-039300FM-12+021199999V0201801N003119999999N0200001N1+03271+01881100821ADDAA199000091GF106991999021008001001001MA1999999098471MD1999999-0041REMSYN070AAXX  03184 82586 32598 61806 10327 20188 39847 40082 83200 333 59004;EQDQ01+000032SCOTLCQ02  00002PRCP99
0201825860999992002030412004-05190-039300FM-12+021199999V0200901N002110075019N0200001N1+02601+02191101131ADDAA124018091AY191061AY261061GF108991081071008001999999KA1240N+02161MA1999999098751MD1999999+0011MW1031REMSYN088AAXX  04124 82586 21598 80904 10260 20219 39875 40113 70396 887// 333 20216 58001 60184;
0167825860999992002030418004-05190-039300FM-12+021199999V0201401N001010075019N0200001N1+03031+02111100931ADDAA199000091GF106991061041008001001001MA1999999098561MD1999999+0091REMSYN070AAXX  04184 82586 32598 61402 10303 20211 39856 40093 86400 333 58009;EQDQ01  00002PRCP99
0201825860999992002030512004-05190-039300FM-12+021199999V0201401N002110075019N0200001N1+02301+02271101251ADDAA124013091AY161061AY251061GF108991081071008001999999KA1240N+02201MA1999999098851MD1999999+0101MW1201REMSYN088AAXX  05124 82586 21598 81404 10230 20227 39885 40125 72065 887// 333 20220 58010 60134;
0182825860999992002030518004-05190-039300FM-12+021199999V0202701N001510450019N0200001N1+02601+02351101061ADDAA124002091AY161061AY221061GF108991041041008001021999MA1999999098661MD1999999+0101MW1031REMSYN082AAXX  05184 82586 21598 82703 10260 20235 39866 40106 70362 8442/ 333 58010 60024;
0232825860999992002030600004-05190-039300FM-12+021199999V0203601N001510075019N0010001N1+02301+02221101201ADDAA106011991AY161061AY221061GF108991999041008001001001KA1240M+02931MA1999999098791MD1999999+0071MW1201REMSYN100AAXX  06004 82586 21594 83603 10230 20222 39879 40120 72062 85400 333 10293 29095 55022 58007 60121;EQDQ01+000052SCOTLC
0201825860999992002030612004-05190-039300FM-12+021199999V0200901N001510075019N0200001N1+02541+02251101231ADDAA124017091AY161061AY251061GF107991071071008001001001KA1240N+02221MA1999999098831MD1999999-0021MW1031REMSYN088AAXX  06124 82586 21598 70903 10254 20225 39883 40123 70365 87700 333 20222 59002 60174;
0167825860999992002030618004-05190-039300FM-12+021199999V0201401N003110075019N0200001N1+02981+01891100941ADDAA199000091GF106991061041008001001001MA1999999098571MD1999999-0091REMSYN070AAXX  06184 82586 32598 61406 10298 20189 39857 40094 86400 333 59009;EQDQ01  00002PRCP99
0226825860999992002030700004-05190-039300FM-12+021199999V0203601N001010075019N0010001N1+02641+02271101071ADDAA199000091AY121061AY221061GF105991051031008001001001KA1240M+03191MA1999999098701MD1999999-0091MW1131REMSYN094AAXX  07004 82586 31594 53602 10264 20227 39870 40107 71322 85300 333 10319 29076 55068 59009;EQDQ01  00002PRCP99
0201825860999992002030712004-05190-039300FM-12+021199999V0200901N003110450019N0200001N1+02601+02331101241ADDAA124000591AY151061AY221061GF107991041041008001021001KA1240N+02441MA1999999098861MD1999999+0031MW1031REMSYN088AAXX  07124 82586 21598 70906 10260 20233 39886 40124 70352 84420 333 20244 58003 69944;
0182825860999992002030718004-05190-039300FM-12+021199999V0200901N002110075019N0200001N1+02781+02361101091ADDAA106003091AY161061AY221061GF108991081071008001999999MA1999999098721MD1999999+0151MW1031REMSYN082AAXX  07184 82586 21598 80904 10278 20236 39872 40109 70362 887// 333 58015 60031;
0232825860999992002030800004-05190-039300FM-12+021199999V0209999C000010075019N0010001N1+02361+02341101231ADDAA106002091AY161061AY221061GF108991999051008001071999KA1240M+03021MA1999999098841MD1999999+0141MW1031REMSYN100AAXX  08004 82586 21594 80000 10236 20234 39884 40123 70362 8857/ 333 10302 29090 55029 58014 60021;EQDQ01+000082SCOTLC
0201825860999992002030812004-05190-039300FM-12+021199999V0202301N001010075019N0200001N1+02501+02361101391ADDAA124006191AY161061AY251061GF108991081071008001999999KA1240N+02321MA1999999098901MD1999999+0041MW1031REMSYN088AAXX  08124 82586 21598 82302 10250 20236 39890 40139 70365 887// 333 20232 58004 60064;
0182825860999992002030818004-05190-039300FM-12+021199999V0201801N000510075019N0200001N1+02741+02471101081ADDAA124007991AY161061AY251061GF108991081071008001999999MA1999999098691MD1999999-0031MW1031REMSYN082AAXX  08184 82586 21598 81801 10274 20247 39869 40108 70365 887// 333 59003 60084;
0214825860999992002030900004-05190-039300FM-12+021199999V0201401N001010075019N0200001N1+02561+02531101231ADDAA199000091GF108991999041008001001001KA1240M+03011MA1999999098851MD1999999+0011REMSYN088AAXX  09004 82586 32598 81402 10256 20253 39885 40123 87400 333 10301 29093 55017 58001;EQDQ01+000072SCOTLCQ02  00002PRCP99
0192825860999992002030912004-05190-039300FM-12+021199999V0200901N004119999999N0200001N1+02661+02321101271ADDAA124007991GF106991999021008001001001KA1240N+02361MA1999999098891MD1999999-0011REMSYN082AAXX  09124 82586 22598 60908 10266 20232 39889 40127 83200 333 20236 59001 60084;EQDQ01+000032SCOTLC
0167825860999992002030918004-05190-039300FM-12+021199999V0200501N001510075019N0200001N1+03061+01931101051ADDAA199000091GF106991061021008001001001MA1999999098691MD1999999+0001REMSYN070AAXX  09184 82586 32598 60503 10306 20193 39869 40105 86200 333 58000;EQDQ01  00002PRCP99
0198825860999992002031000004-05190-039300FM-12+021199999V0203601N002110075019N0010001N1+02661+02291101181ADDAA199000091GF106991061021008001001001KA1240M+03221MA1999999098801MD1999999-0051REMSYN088AAXX  10004 82586 32594 63604 10266 20229 39880 40118 86200 333 10322 29072 55052 59005;EQDQ01  00002PRCP99
0186825860999992002031012004-05190-039300FM-12+021199999V0201401N003110075019N0200001N1+02771+02141101201ADDAA199000091GF106991061041008001001001KA1240N+02381MA1999999098831MD1999999-0061REMSYN076AAXX  10124 82586 32598 61406 10277 20214 39883 40120 86400 333 20238 59006;EQDQ01  00002PRCP99
0198825860999992002031100004-05190-039300FM-12+021199999V0203601N000510075019N0200001N1+02601+02291101151ADDAA199000091GF106991061041008001001001KA1240M+03221MA1999999098771MD1999999-0031REMSYN088AAXX  11004 82586 32598 63601 10260 20229 39877 40115 86400 333 10322 29072 55082 59003;EQDQ01  00002PRCP99
0186825860999992002031112004-05190-039300FM-12+021199999V0200901N004110075019N0200001N1+02741+02021101191ADDAA199000091GF106991061041008001001001KA1240N+02461MA1999999098831MD1999999+0001REMSYN076AAXX  11124 82586 32598 60908 10274 20202 39883 40119 86400 333 20246 58000;EQDQ01  00002PRCP99
0167825860999992002031118004-05190-039300FM-12+021199999V0201801N002610075019N0200001N1+03141+01801100941ADDAA199000091GF105991051021008001001001MA1999999098581MD1999999-0081REMSYN070AAXX  11184 82586 32598 51805 10314 20180 39858 40094 85200 333 59008;EQDQ01  00002PRCP99
0198825860999992002031200004-05190-039300FM-12+021199999V0201801N001510075019N0200001N1+02601+02291101171ADDAA199000091GF106991061041008001001001KA1240M+03221MA1999999098791MD1999999+0021REMSYN088AAXX  12004 82586 32598 61803 10260 20229 39879 40117 86400 333 10322 29069 55087 58002;EQDQ01  00002PRCP99
0186825860999992002031212004-05190-039300FM-12+021199999V0200901N003110075019N0200001N1+02841+01961101291ADDAA199000091GF106991061041008001001001KA1240N+02421MA1999999098921MD1999999+0091REMSYN076AAXX  12124 82586 32598 60906 10284 20196 39892 40129 86400 333 20242 58009;EQDQ01  00002PRCP99
0167825860999992002031218004-05190-039300FM-12+021199999V0200901N002612200019N0200001N1+03161+01861101051ADDAA199000091GF104991041021008001001001MA1999999098691MD1999999+0111REMSYN070AAXX  12184 82586 32598 40905 10316 20186 39869 40105 84200 333 58011;EQDQ01  00002PRCP99
0198825860999992002031300004-05190-039300FM-12+021199999V0203601N003112200019N0010001N1+02621+02351101271ADDAA199000091GF102991021021008001001001KA1240M+03301MA1999999098901MD1999999+0111REMSYN088AAXX  13004 82586 32594 23606 10262 20235 39890 40127 82200 333 10330 29069 55097 58011;EQDQ01  00002PRCP99
0186825860999992002031312004-05190-039300FM-12+021199999V0200901N003112200019N0200001N1+02801+01921101241ADDAA199000091GF103991031011008001001001KA1240N+02361MA1999999098871MD1999999-0051REMSYN076AAXX  13124 82586 32598 30906 10280 20192 39887 40124 83100 333 20236 59005;EQDQ01  00002PRCP99
0167825860999992002031318004-05190-039300FM-12+021199999V0201401N003612200019N0200001N1+03321+01171101061ADDAA199000091GF102991021011008001001001MA1999999098711MD1999999+0011REMSYN070AAXX  13184 82586 32598 21407 10332 20117 39871 40106 82100 333 58001;EQDQ01  00002PRCP99
0198825860999992002031400004-05190-039300FM-12+021199999V0203601N002112200019N0010001N1+02561+01901101151ADDAA199000091GF104991041021008001001001KA1240M+03371MA1999999098781MD1999999-0121REMSYN088AAXX  14004 82586 32594 43604 10256 20190 39878 40115 84200 333 10337 29055 55087 59012;EQDQ01  00002PRCP99
0186825860999992002031412004-05190-039300FM-12+021199999V0200501N005110075019N0200001N1+02821+02051101261ADDAA199000091GF106991061041008001001001KA1240N+02381MA1999999098891MD1999999+0021REMSYN076AAXX  14124 82586 32598 60510 10282 20205 39889 40126 86400 333 20238 58002;EQDQ01  00002PRCP99
0167825860999992002031418004-05190-039300FM-12+021199999V0201401N003112200019N0200001N1+03161+01671101031ADDAA199000091GF104991041021008001001001MA1999999098671MD1999999-0031REMSYN070AAXX  14184 82586 32598 41406 10316 20167 39867 40103 84200 333 59003;EQDQ01  00002PRCP99
0208825860999992002031500004-05190-039300FM-12+021199999V0203601N001512200019N0010001N1+02631+02251101091ADDAA199000091GA1001+999999999GF100991001001999999001001KA1240M+03321MA1999999098731MD1999999-0051REMSYN082AAXX  15004 82586 32994 03603 10263 20225 39873 40109 333 10332 29066 55088 59005;EQDQ01  00002PRCP99
0186825860999992002031512004-05190-039300FM-12+021199999V0200901N003110075019N0200001N1+02741+02171101171ADDAA199000091GF106991061041008001001001KA1240N+02301MA1999999098801MD1999999-0091REMSYN076AAXX  15124 82586 32598 60906 10274 20217 39880 40117 86400 333 20230 59009;EQDQ01  00002PRCP99
0167825860999992002031518004-05190-039300FM-12+021199999V0203601N001510075019N0200001N1+02981+02041100961ADDAA199000091GF108991081041008001999999MA1999999098601MD1999999-0071REMSYN070AAXX  15184 82586 32598 83603 10298 20204 39860 40096 884// 333 59007;EQDQ01  00002PRCP99
0208825860999992002031600004-05190-039300FM-12+021199999V0201801N000512200019N0010001N1+02501+02171101081ADDAA199000091GA1001+999999999GF100991001001999999001001KA1240M+03121MA1999999098711MD1999999-0021REMSYN082AAXX  16004 82586 32994 01801 10250 20217 39871 40108 333 10312 29073 55043 59002;EQDQ01  00002PRCP99
0202825860999992002031612004-05190-039300FM-12+021199999V0202301N001010075019N0200001N1+02601+02191101281ADDAA199000091GF108991999041008001001001KA1240N+02221MA1999999098831MD1999999+0031REMSYN076AAXX  16124 82586 32598 82302 10260 20219 39883 40128 86400 333 20222 58003;EQDQ01+000062SCOTLCQ02  00002PRCP99
0167825860999992002031618004-05190-039300FM-12+021199999V0200501N003110075019N0200001N1+02941+02241100991ADDAA199000091GF108991051041008001021999MA1999999098611MD1999999+0011REMSYN070AAXX  16184 82586 32598 80506 10294 20224 39861 40099 8542/ 333 58001;EQDQ01  00002PRCP99
0186825860999992002031712004-05190-039300FM-12+021199999V0201401N003112200019N0200001N1+02721+02101101171ADDAA199000091GF104991041021008001001001KA1240N+02251MA1999999098791MD1999999-0041REMSYN076AAXX  17124 82586 32598 41406 10272 20210 39879 40117 84200 333 20225 59004;EQDQ01  00002PRCP99
0167825860999992002031718004-05190-039300FM-12+021199999V0201801N003110075019N0200001N1+02601+02251100981ADDAA199000091GF108991081051008001999999MA1999999098351MD1999999-0061REMSYN070AAXX  17184 82586 32598 81806 10260 20225 39835 40098 885// 333 59006;EQDQ01  00002PRCP99
0213825860999992002031800004-05190-039300FM-12+021199999V0201801N003110075019N0100001N1+02351+02201101171ADDAA106002091AY191061AY261061GF108991081091008001999999KA1240M+03321MA1999999098791MD1999999+0061MW1131REMSYN100AAXX  18004 82586 21597 81806 10235 20220 39879 40117 71396 889// 333 10332 29084 55065 58006 60021;
0201825860999992002031812004-05190-039300FM-12+021199999V0201401N001510075019N0200001N1+02541+02251101201ADDAA124007991AY161061AY251061GF107991071041008001001001KA1240N+02241MA1999999098801MD1999999+0011MW1031REMSYN088AAXX  18124 82586 21598 71403 10254 20225 39880 40120 70365 87400 333 20224 58001 60084;
0182825860999992002031818004-05190-039300FM-12+021199999V0200901N002112200019N0200001N1+03051+02121100851ADDAA106007191AY161061AY221061GF102991021021008001001001MA1999999098491MD1999999-0041MW1031REMSYN082AAXX  18184 82586 21598 20904 10305 20212 39849 40085 70362 82200 333 59004 60071;
0213825860999992002031900004-05190-039300FM-12+021199999V0203601N001510075019N0010001N1+02491+02451101061ADDAA106002091AY161061AY221061GF106991061031008001001001KA1240M+03181MA1999999098671MD1999999-0121MW1131REMSYN100AAXX  19004 82586 21594 63603 10249 20245 39867 40106 71362 86300 333 10318 29085 55077 59012 60021;
0192825860999992002031912004-05190-039300FM-12+021199999V0200901N003110075019N0200001N1+02721+02221101041ADDAA124008991GF107991999041008001001001KA1240N+02401MA1999999098671MD1999999-0131REMSYN082AAXX  19124 82586 22598 70906 10272 20222 39867 40104 86400 333 20240 59013 60094;EQDQ01+000062SCOTLC
0167825860999992002031918004-05190-039300FM-12+021199999V0200501N004610075019N0200001N1+03171+02201100781ADDAA199000091GF106991061041008001001001MA1999999098431MD1999999-0061REMSYN070AAXX  19184 82586 32598 60509 10317 20220 39843 40078 86400 333 59006;EQDQ01  00002PRCP99
0198825860999992002032000004-05190-039300FM-12+021199999V0203601N002112200019N0010001N1+02621+02051101031ADDAA199000091GF104991041021008001001001KA1240M+03301MA1999999098691MD1999999+0021REMSYN088AAXX  20004 82586 32594 43604 10262 20205 39869 40103 84200 333 10330 29068 55075 58002;EQDQ01  00002PRCP99
0186825860999992002032012004-05190-039300FM-12+021199999V0200901N003610075019N0200001N1+02741+02171101101ADDAA199000091GF107991071041008001001001KA1240N+02441MA1999999098741MD1999999+0071REMSYN076AAXX  20124 82586 32598 70907 10274 20217 39874 40110 87400 333 20244 58007;EQDQ01  00002PRCP99
0182825860999992002032018004-05190-039300FM-12+021199999V0200501N002610075019N0200001N1+03121+01991100881ADDAA106000891AY151061AY251061GF106991061041008001001001MA1999999098521MD1999999+0091MW1031REMSYN082AAXX  20184 82586 21598 60505 10312 20199 39852 40088 70355 86400 333 58009 69971;
0226825860999992002032100004-05190-039300FM-12+021199999V0203601N002110075019N0010001N1+02641+02311100951ADDAA199000091AY121061AY221061GF105991051031008001001001KA1240M+03321MA1999999098591MD1999999-0101MW1131REMSYN094AAXX  21004 82586 31594 53604 10264 20231 39859 40095 71322 85300 333 10332 29072 55083 59010;EQDQ01  00002PRCP99
0192825860999992002032112004-05190-039300FM-12+021199999V0201401N003119999999N0200001N1+02681+02331101131ADDAA124000891GF105991999041008001001001KA1240N+02381MA1999999098751MD1999999+0011REMSYN082AAXX  21124 82586 22598 51406 10268 20233 39875 40113 86400 333 20238 58001 69974;EQDQ01+000062SCOTLC
0167825860999992002032118004-05190-039300FM-12+021199999V0200501N003112200019N0200001N1+03201+01751100951ADDAA199000091GF104991041021008001001001MA1999999098591MD1999999+0071REMSYN070AAXX  21184 82586 32598 40506 10320 20175 39859 40095 84200 333 58007;EQDQ01  00002PRCP99
0208825860999992002032200004-05190-039300FM-12+021199999V0203601N002612200019N0010001N1+02641+01981101061ADDAA199000091GA1001+999999999GF100991001001999999001001KA1240M+03321MA1999999098691MD1999999+0101REMSYN082AAXX  22004 82586 32994 03605 10264 20198 39869 40106 333 10332 29064 55081 58010;EQDQ01  00002PRCP99
0186825860999992002032212004-05190-039300FM-12+021199999V0200501N007210075019N0200001N1+02801+02001101151ADDAA199000091GF106991061041008001001001KA1240N+02281MA1999999098781MD1999999+0031REMSYN076AAXX  22124 82586 32598 60514 10280 20200 39878 40115 86400 333 20228 58003;EQDQ01  00002PRCP99
0167825860999992002032218004-05190-039300FM-12+021199999V0201401N002612200019N0200001N1+03271+01721100881ADDAA199000091GF104991021021008001001041MA1999999098531MD1999999-0061REMSYN070AAXX  22184 82586 32598 41405 10327 20172 39853 40088 82204 333 59006;EQDQ01  00002PRCP99
0208825860999992002032300004-05190-039300FM-12+021199999V0209999C000012200019N0010001N1+02561+02231101081ADDAA199000091GA1001+999999999GF100991001001999999001001KA1240M+03351MA1999999098721MD1999999+0031REMSYN082AAXX  23004 82586 32994 00000 10256 20223 39872 40108 333 10335 29067 55095 58003;EQDQ01  00002PRCP99
0186825860999992002032312004-05190-039300FM-12+021199999V0200501N004610075019N0200001N1+02801+02311101251ADDAA199000091GF108991081041008001999999KA1240N+02421MA1999999098881MD1999999+0101REMSYN076AAXX  23124 82586 32598 80509 10280 20231 39888 40125 884// 333 20242 58010;EQDQ01  00002PRCP99
0182825860999992002032318004-05190-039300FM-12+021199999V0203601N002610075019N0200001N1+02301+02271101131ADDAA106007991AY161061AY221061GF108991081051008001999999MA1999999098731MD1999999+0201MW1611REMSYN082AAXX  23184 82586 21598 83605 10230 20227 39873 40113 76162 885// 333 58020 60081;
0179825860999992002032400004-05190-039300FM-12+021199999V0203601N000510075019N0010001N1+02361+02331101161ADDAA199000021GF108991081071008001999999KA1240M+03141MA1999999098781MD1999999+0061REMSYN088AAXX  24004 82586 32594 83601 10236 20233 39878 40116 887// 333 10314 29092 55037 58006;
0173825860999992002032412004-05190-039300FM-12+021199999V0200901N002110075019N0200001N1+02581+02251101291ADDAA124007991GF106991061041008001001001KA1240N+02321MA1999999098891MD1999999+0011REMSYN082AAXX  24124 82586 22598 60904 10258 20225 39889 40129 86400 333 20232 58001 60084;
0167825860999992002032418004-05190-039300FM-12+021199999V0200901N001510075019N0200001N1+03241+01751100951ADDAA199000091GF106991061041008001001001MA1999999098591MD1999999-0141REMSYN070AAXX  24184 82586 32598 60903 10324 20175 39859 40095 86400 333 59014;EQDQ01  00002PRCP99
0198825860999992002032500004-05190-039300FM-12+021199999V0209999C000010075019N0010001N1+02681+02261101061ADDAA199000091GF106991061041008001001001KA1240M+03321MA1999999098691MD1999999-0091REMSYN088AAXX  25004 82586 32594 60000 10268 20226 39869 40106 86400 333 10332 29070 55091 59009;EQDQ01  00002PRCP99
0201825860999992002032512004-05190-039300FM-12+021199999V0200901N002110075019N0200001N1+02741+02171101181ADDAA124000191AY151061AY221061GF105991051041008001001001KA1240N+02341MA1999999098811MD1999999-0081MW1031REMSYN088AAXX  25124 82586 21598 50904 10274 20217 39881 40118 70352 85400 333 20234 59008 69924;
0167825860999992002032518004-05190-039300FM-12+021199999V0200501N003110075019N0200001N1+02721+02501100861ADDAA199000091GF106991061041008001001001MA1999999098481MD1999999-0111REMSYN070AAXX  25184 82586 32598 60506 10272 20250 39848 40086 86400 333 59011;EQDQ01  00002PRCP99
0213825860999992002032600004-05190-039300FM-12+021199999V0203601N001510075019N0010001N1+02441+02211101071ADDAA106001091AY161061AY221061GF106991061021008001001001KA1240M+03331MA1999999098701MD1999999+0011MW1131REMSYN100AAXX  26004 82586 21594 63603 10244 20221 39870 40107 71362 86200 333 10333 29084 55070 58001 60011;
0201825860999992002032612004-05190-039300FM-12+021199999V0200501N002110075019N0200001N1+02681+02311101111ADDAA124002091AY151061AY221061GF108991081071008001999999KA1240N+02341MA1999999098731MD1999999-0081MW1031REMSYN088AAXX  26124 82586 21598 80504 10268 20231 39873 40111 70352 887// 333 20234 59008 60024;
0167825860999992002032618004-05190-039300FM-12+021199999V0200901N004110075019N0200001N1+03271+01721100841ADDAA199000091GF105991051041008001001001MA1999999098491MD1999999+0011REMSYN070AAXX  26184 82586 32598 50908 10327 20172 39849 40084 85400 333 58001;EQDQ01  00002PRCP99
0198825860999992002032700004-05190-039300FM-12+021199999V0203601N004112200019N0010001N1+02561+02231101061ADDAA199000091GF103991031041008001001001KA1240M+03361MA1999999098691MD1999999-0011REMSYN088AAXX  27004 82586 32594 33608 10256 20223 39869 40106 83400 333 10336 29071 55074 59001;EQDQ01  00002PRCP99
0186825860999992002032712004-05190-039300FM-12+021199999V0200901N003110075019N0200001N1+02821+02101101121ADDAA199000091GF106991061041008001001001KA1240N+02361MA1999999098751MD1999999+0021REMSYN076AAXX  27124 82586 32598 60906 10282 20210 39875 40112 86400 333 20236 58002;EQDQ01  00002PRCP99
0167825860999992002032718004-05190-039300FM-12+021199999V0200901N003112200019N0200001N1+03201+01751100881ADDAA199000091GF104991041021008001001001MA1999999098531MD1999999+0041REMSYN070AAXX  27184 82586 32598 40906 10320 20175 39853 40088 84200 333 58004;EQDQ01  00002PRCP99
0213825860999992002032800004-05190-039300FM-12+021199999V0203601N002110075019N0010001N1+02341+02301101201ADDAA106000191AY151061AY221061GF108991081071008001999999KA1240M+03321MA1999999098821MD1999999+0161MW1031REMSYN100AAXX  28004 82586 21594 83604 10234 20230 39882 40120 70352 887// 333 10332 29073 55080 58016 69921;
0173825860999992002032812004-05190-039300FM-12+021199999V0201401N005110075019N0200001N1+02541+02251101171ADDAA124000191GF106991061041008001001001KA1240N+02201MA1999999098781MD1999999+0021REMSYN082AAXX  28124 82586 22598 61410 10254 20225 39878 40117 86400 333 20220 58002 69924;
0182825860999992002032818004-05190-039300FM-12+021199999V0203601N002610075019N0200001N1+02681+02541100971ADDAA106005191AY161061AY251061GF108991081071008001999999MA1999999098571MD1999999+0041MW1611REMSYN082AAXX  28184 82586 21598 83605 10268 20254 39857 40097 76165 887// 333 58004 60051;
0179825860999992002032900004-05190-039300FM-12+021199999V0202701N003110075019N0200001N1+02521+02491101061ADDAA199000021GF106991061021008001001001KA1240M+03181MA1999999098681MD1999999-0101REMSYN088AAXX  29004 82586 32598 62706 10252 20249 39868 40106 86200 333 10318 29094 55028 59010;
0201825860999992002032912004-05190-039300FM-12+021199999V02099999999990075019N0200001N1+02601+02331101091ADDAA124029091AY191061AY261061GF106991061041008001001001KA1240N+02121MA1999999098711MD1999999-0061MW1031REMSYN088AAXX  29124 82586 21598 6//// 10260 20233 39871 40109 70396 86400 333 20212 59006 60294;
0167825860999992002032918004-05190-039300FM-12+021199999V02099999999990075019N0200001N1+03181+02011100921ADDAA199000091GF105991051041008001001001MA1999999098551MD1999999-0021REMSYN070AAXX  29184 82586 32598 5//// 10318 20201 39855 40092 85400 333 59002;EQDQ01  00002PRCP99
0198825860999992002033000004-05190-039300FM-12+021199999V0209999C000010075019N0010001N1+02641+02391101051ADDAA199000091GF108991081051008001999999KA1240M+03181MA1999999098671MD1999999-0011REMSYN088AAXX  30004 82586 32594 80000 10264 20239 39867 40105 885// 333 10318 29078 55080 59001;EQDQ01  00002PRCP99
0186825860999992002033012004-05190-039300FM-12+021199999V0200901N003612200019N0200001N1+02861+02111101081ADDAA199000091GF104991041021008001001001KA1240N+02461MA1999999098721MD1999999+0011REMSYN076AAXX  30124 82586 32598 40907 10286 20211 39872 40108 84200 333 20246 58001;EQDQ01  00002PRCP99
0167825860999992002033018004-05190-039300FM-12+021199999V0200901N003610075019N0200001N1+03181+01871100881ADDAA199000091GF105991051021008001001001MA1999999098531MD1999999-0021REMSYN070AAXX  30184 82586 32598 50907 10318 20187 39853 40088 85200 333 59002;EQDQ01  00002PRCP99
0192825860999992002033100004-05190-039300FM-12+021199999V0203601N001512200019N0010001N1+02601+02191101021ADDAA199000091GF103991999999999999999999KA1240M+03261MA1999999098761MD1999999-0011REMSYN082AAXX  31004 82586 32994 33603 10260 20219 39876 40102 333 10326 29067 55099 59001;EQDQ01  00002PRCP99
0186825860999992002033112004-05190-039300FM-12+021199999V0201401N003610075019N0500001N1+02621+02351101211ADDAA199000091GF108991081021008001001001KA1240N+02521MA1999999098831MD1999999+0111REMSYN076AAXX  31124 82586 32599 81407 10262 20235 39883 40121 88200 333 20252 58011;EQDQ01  00002PRCP99
0182825860999992002033118004-05190-039300FM-12+021199999V0200501N004610075019N0200001N1+02961+02281101011ADDAA106000191AY161061AY221061GF108991081051008001999999MA1999999098651MD1999999+0121MW1031REMSYN082AAXX  31184 82586 21598 80509 10296 20228 39865 40101 70362 885// 333 58012 69921;
0198825860999992002040100004-05190-039300FM-12+021199999V0200901N002612200019N0010001N1+02501+02211101181ADDAA199000091GF104991041021008001001001KA1240M+03131MA1999999098801MD1999999+0141REMSYN088AAXX  01004 82586 32594 40905 10250 20221 39880 40118 84200 333 10313 29080 55052 58014;EQDQ01  00002PRCP99
0173825860999992002040112004-05190-039300FM-12+021199999V0200901N002110075019N0200001N1+02801+02081101261ADDAA124000191GF106991061021008001001001KA1240N+02221MA1999999098881MD1999999+0051REMSYN082AAXX  01124 82586 22598 60904 10280 20208 39888 40126 86200 333 20222 58005 69924;
0167825860999992002040118004-05190-039300FM-12+021199999V0200901N002110075019N0200001N1+03141+01001100911ADDAA199000091GF106991061041008001001001MA1999999098551MD1999999-0101REMSYN070AAXX  01184 82586 32598 60904 10314 20100 39855 40091 86400 333 59010;EQDQ01  00002PRCP99
0198825860999992002040200004-05190-039300FM-12+021199999V0203601N002610075019N0010001N1+02661+02351101051ADDAA199000091GF106991061021008001001001KA1240M+03221MA1999999098691MD1999999-0011REMSYN088AAXX  02004 82586 32594 63605 10266 20235 39869 40105 86200 333 10322 29070 55098 59001;EQDQ01  00002PRCP99
0186825860999992002040212004-05190-039300FM-12+021199999V02099999999990075019N0200001N1+02821+02101101121ADDAA199000091GF106991061041008001001001KA1240N+02321MA1999999098761MD1999999-0121REMSYN076AAXX  02124 82586 32598 6//// 10282 20210 39876 40112 86400 333 20232 59012;EQDQ01  00002PRCP99
0182825860999992002040218004-05190-039300FM-12+021199999V02099999999990075019N0200001N1+02801+02311100951ADDAA106001091AY121061AY221061GF106991061041008001001001MA1999999098571MD1999999+0021MW1611REMSYN082AAXX  02184 82586 21598 6//// 10280 20231 39857 40095 76122 86400 333 58002 60011;
0213825860999992002040300004-05190-039300FM-12+021199999V02099999999990075019N0010001N1+02501+02451101151ADDAA106000591AY151061AY221061GF108991081091008001999999KA1240M+03221MA1999999098791MD1999999+0081MW1131REMSYN100AAXX  03004 82586 21594 8//// 10250 20245 39879 40115 71352 889// 333 10322 29084 55081 58008 69961;
0220825860999992002040312004-05190-039300FM-12+021199999V0200901N005119999999N0200001N1+02761+02041101211ADDAA124003091AY151061AY221061GF106991999021008001001001KA1240N+02441MA1999999098831MD1999999+0071MW1031REMSYN088AAXX  03124 82586 21598 60910 10276 20204 39883 40121 70352 87200 333 20244 58007 60034;EQDQ01+000072SCOTLC
0167825860999992002040318004-05190-039300FM-12+021199999V0200901N003610075019N0200001N1+03201+01891100981ADDAA199000091GF105991051041008001001001MA1999999098631MD1999999+0061REMSYN070AAXX  03184 82586 32598 50907 10320 20189 39863 40098 85400 333 58006;EQDQ01  00002PRCP99
0213825860999992002040400004-05190-039300FM-12+021199999V0209999C000010075019N0010001N1+02561+02491101191ADDAA106000191AY161061AY221061GF106991061021008001001001KA1240M+03221MA1999999098811MD1999999+0041MW1031REMSYN100AAXX  04004 82586 21594 60000 10256 20249 39881 40119 70362 86200 333 10322 29077 55094 58004 69921;
0201825860999992002040412004-05190-039300FM-12+021199999V0200901N004110075019N0200001N1+02621+02351101211ADDAA124013091AY161061AY251061GF108991081071008001999999KA1240N+02381MA1999999098831MD1999999+0001MW1031REMSYN088AAXX  04124 82586 21598 80908 10262 20235 39883 40121 70365 887// 333 20238 58000 60134;
0167825860999992002040418004-05190-039300FM-12+021199999V0200501N003110075019N0200001N1+03021+01911100891ADDAA199000091GF106991061041008001001001MA1999999098531MD1999999-0101REMSYN070AAXX  04184 82586 32598 60506 10302 20191 39853 40089 86400 333 59010;EQDQ01  00002PRCP99
0213825860999992002040500004-05190-039300FM-12+021199999V02099999999990075019N0010001N1+02371+02331101121ADDAA106013091AY191061AY261061GF108991081071008001999999KA1240M+03141MA1999999098731MD1999999-0081MW1201REMSYN100AAXX  05004 82586 21594 8//// 10237 20233 39873 40112 72096 887// 333 10314 29083 55043 59008 60131;
0201825860999992002040512004-05190-039300FM-12+021199999V0201801N002112200019N0200001N1+02461+02321101151ADDAA124014091AY161061AY251061GF106991031041008001001011KA1240N+02301MA1999999098731MD1999999-0081MW1031REMSYN088AAXX  05124 82586 21598 61804 10246 20232 39873 40115 70365 83401 333 20230 59008 60144;
0167825860999992002040518004-05190-039300FM-12+021199999V0201801N003110075019N0200001N1+03031+02241100851ADDAA199000091GF107991071041008001001001MA1999999098491MD1999999-0041REMSYN070AAXX  05184 82586 32598 71806 10303 20224 39849 40085 87400 333 59004;EQDQ01  00002PRCP99
0213825860999992002040600004-05190-039300FM-12+021199999V02099999999990075019N0010001N1+02371+02341101121ADDAA106015091AY191061AY261061GF108991081091008001999999KA1240M+03161MA1999999097871MD1999999-0011MW1211REMSYN100AAXX  06004 82586 21594 8//// 10237 20234 39787 40112 72196 889// 333 10316 29088 55056 59001 60151;
0201825860999992002040612004-05190-039300FM-12+021199999V02099999999990075019N0200001N1+02301+02231101071ADDAA124022191AY161061AY251061GF108991081071008001999999KA1240N+02281MA1999999098671MD1999999-0081MW1611REMSYN088AAXX  06124 82586 21598 8//// 10230 20223 39867 40107 76165 887// 333 20228 59008 60224;
0148825860999992002040618004-05190-039300FM-12+021199999V02099999999990075019N0200001N1+03031+02021100831ADDAA199000021GF106991061041008001001001MA1999999098471MD1999999-0021REMSYN070AAXX  06184 82586 32598 6//// 10303 20202 39847 40083 86400 333 59002;
0232825860999992002040700004-05190-039300FM-12+021199999V02099999999990075019N0010001N1+02431+02401101081ADDAA106005191AY161061AY221061GF107991999071008001001001KA1240M+03151MA1999999098681MD1999999-0041MW1031REMSYN100AAXX  07004 82586 21594 7//// 10243 20240 39868 40108 70362 86700 333 10315 29087 55032 59004 60051;EQDQ01+000062SCOTLC
0192825860999992002040712004-05190-039300FM-12+021199999V02099999999999999999N0200001N1+02641+02231101161ADDAA124005191GF106991999021008001001001KA1240N+02321MA1999999098781MD1999999+0111REMSYN082AAXX  07124 82586 22598 6//// 10264 20223 39878 40116 83200 333 20232 58011 60054;EQDQ01+000032SCOTLC
0167825860999992002040718004-05190-039300FM-12+021199999V0209999C000010075019N0200001N1+03071+02221100871ADDAA199000091GF106991061021008001001001MA1999999098511MD1999999+0041REMSYN070AAXX  07184 82586 32598 60000 10307 20222 39851 40087 86200 333 58004;EQDQ01  00002PRCP99
0213825860999992002040800004-05190-039300FM-12+021199999V0202601N003110075019N0010001N1+02481+02451101101ADDAA106016091AY191061AY261061GF108991081051008001999999KA1240M+03181MA1999999098721MD1999999+0071MW1631REMSYN100AAXX  08004 82586 21594 82606 10248 20245 39872 40110 76396 885// 333 10318 29084 55060 58007 60161;
0201825860999992002040812004-05190-039300FM-12+021199999V02099999999990075019N0200001N1+02421+02331101171ADDAA124032091AY161061AY251061GF106991061041008001001001KA1240N+02221MA1999999098771MD1999999-0011MW1031REMSYN088AAXX  08124 82586 21598 6//// 10242 20233 39877 40117 70365 86400 333 20222 59001 60324;
0167825860999992002040818004-05190-039300FM-12+021199999V02099999999990075019N0200001N1+03011+02221100881ADDAA199000091GF106991061041008001001001MA1999999098511MD1999999+0001REMSYN070AAXX  08184 82586 32598 6//// 10301 20222 39851 40088 86400 333 58000;EQDQ01  00002PRCP99
0198825860999992002040900004-05190-039300FM-12+021199999V02099999999992200019N0010001N1+02541+02291101071ADDAA199000091GF103991031021008001001001KA1240M+03131MA1999999098681MD1999999-0041REMSYN088AAXX  09004 82586 32594 3//// 10254 20229 39868 40107 83200 333 10313 29084 55055 59004;EQDQ01  00002PRCP99
0220825860999992002040912004-05190-039300FM-12+021199999V02099999999999999999N0200001N1+02441+02391101101ADDAA124000191AY151061AY221061GF107991999071008001001001KA1240N+02281MA1999999098711MD1999999-0061MW1031REMSYN088AAXX  09124 82586 21598 7//// 10244 20239 39871 40110 70352 88700 333 20228 59006 69924;EQDQ01+000082SCOTLC
0167825860999992002040918004-05190-039300FM-12+021199999V02099999999990075019N0200001N1+03071+02221100821ADDAA199000091GF105991051021008001001001MA1999999098461MD1999999-0051REMSYN070AAXX  09181 82586 32598 5//// 10307 20222 39846 40082 85200 333 59005;EQDQ01  00002PRCP99
0198825860999992002041000004-05190-039300FM-12+021199999V0200901N001510075019N0200001N1+02581+02441100971ADDAA199000091GF106991061021008001001001KA1240M+03191MA1999999098581MD1999999-0101REMSYN088AAXX  10004 82586 32598 60903 10258 20244 39858 40097 86200 333 10319 29086 55067 59010;EQDQ01  00002PRCP99
0186825860999992002041012004-05190-039300FM-12+021199999V0200501N002610075019N0200001N1+02821+02101101041ADDAA199000091GF106991061041008001001001KA1240N+02361MA1999999098681MD1999999-0031REMSYN076AAXX  10124 82586 32598 60505 10282 20210 39868 40104 86400 333 20236 59003;EQDQ01  00002PRCP99
0182825860999992002041018004-05190-039300FM-12+021199999V0203601N002110075019N0200001N1+02421+02391100861ADDAA106007991AY161061AY221061GF108991081091008001999999MA1999999098471MD1999999+0011MW1611REMSYN082AAXX  10184 82586 21598 83604 10242 20239 39847 40086 76162 889// 333 58001 60081;
0213825860999992002041100004-05190-039300FM-12+021199999V0200501N000510075019N0010001N1+02321+02301101001ADDAA106001091AY161061AY251061GF106991061031008001001001KA1240M+03091MA1999999098631MD1999999+0051MW1131REMSYN100AAXX  11004 82586 21594 60501 10232 20230 39863 40100 71365 86300 333 10309 29090 55058 58005 60011;
0173825860999992002041112004-05190-039300FM-12+021199999V0201801N001010075019N0200001N1+02511+02341101111ADDAA124009991GF107991071041008001001001KA1240N+02201MA1999999098711MD1999999+0031REMSYN082AAXX  11124 82586 22598 71802 10251 20234 39871 40111 87400 333 20220 58003 60104;
0167825860999992002041118004-05190-039300FM-12+021199999V0200901N001511050019N0200001N1+02961+02101100881ADDAA199000091GF106991031021008001001051MA1999999098531MD1999999+0061REMSYN070AAXX  11184 82586 32598 60903 10296 20210 39853 40088 83205 333 58006;EQDQ01  00002PRCP99
0198825860999992002041200004-05190-039300FM-12+021199999V0209999C000012200019N0010001N1+02521+02491101081ADDAA199000091GF104991041021008001001001KA1240M+03121MA1999999098631MD1999999+0001REMSYN088AAXX  12004 82586 32594 40000 10252 20249 39863 40108 84200 333 10312 29087 55047 58000;EQDQ01  00002PRCP99
0201825860999992002041212004-05190-039300FM-12+021199999V0203601N003110075019N0200001N1+02321+02291101321ADDAA124005191AY191061AY261061GF108991081091008001999999KA1240N+02201MA1999999098921MD1999999+0211MW1611REMSYN088AAXX  12124 82586 21598 83606 10232 20229 39892 40132 76196 889// 333 20220 58021 60054;
0182825860999992002041218004-05190-039300FM-12+021199999V0201801N001510075019N0200001N1+02241+02191101091ADDAA106059991AY161061AY261061GF108991081071008001999999MA1999999098691MD1999999+0161MW1031REMSYN082AAXX  12184 82586 21598 81803 10224 20219 39869 40109 70366 887// 333 58016 60601;
0179825860999992002041300004-05190-039300FM-12+021199999V0209999C000010075019N0200001N1+02231+02201101231ADDAA199000021GF106991061041008001001001KA1240M+02601MA1999999098821MD1999999+0191REMSYN088AAXX  13004 82586 32598 60000 10223 20220 39882 40123 86400 333 10260 29098 55000 58019;
0173825860999992002041312004-05190-039300FM-12+021199999V0201401N001010075019N0200001N1+02381+02311101251ADDAA124058991GF106991061021008001001001KA1240N+02121MA1999999098841MD1999999-0081REMSYN082AAXX  13124 82586 22598 61402 10238 20231 39884 40125 86200 333 20212 59008 60594;
0183825860999992002041318004-05190-039300FM-12+021199999V0201401N002119999999N0200001N1+02921+02221101021ADDAA199000091GF106991999011008001001001MA1999999098601MD1999999-0061REMSYN070AAXX  13184 82586 32598 61404 10292 20222 39860 40102 82100 333 59006;EQDQ01+000022SCOTLCQ02  00002PRCP99
0214825860999992002041400004-05190-039300FM-12+021199999V0201801N001519999999N0010001N1+02651+02251101131ADDAA199000091GF106991999021008001001001KA1240M+03021MA1999999097421MD1999999-0081REMSYN088AAXX  14004 82586 32594 61803 10265 20225 39742 40113 83200 333 10302 29088 55025 59008;EQDQ01+000032SCOTLCQ02  00002PRCP99
0186825860999992002041412004-05190-039300FM-12+021199999V0200901N003110075019N0200001N1+02661+02461101251ADDAA199000091GF107991071071008001001001KA1240N+02331MA1999999098871MD1999999+0031REMSYN076AAXX  14124 82586 32598 70906 10266 20246 39887 40125 87700 333 20233 58003;EQDQ01  00002PRCP99
0167825860999992002041418004-05190-039300FM-12+021199999V0201801N003110450019N0200001N1+02901+02341100991ADDAA199000091GF106991021011008001051001MA1999999098631MD1999999+0001REMSYN070AAXX  14184 82586 32598 61806 10290 20234 39863 40099 82150 333 58000;EQDQ01  00002PRCP99
0198825860999992002041500004-05190-039300FM-12+021199999V0203601N000510075019N0010001N1+02541+02511101091ADDAA199000091GF106991061041008001001001KA1240M+02991MA1999999098721MD1999999-0041REMSYN088AAXX  15004 82586 32594 63601 10254 20251 39872 40109 86400 333 10299 29089 55041 59004;EQDQ01  00002PRCP99
0201825860999992002041512004-05190-039300FM-12+021199999V0200901N003112200019N0200001N1+02721+02001101191ADDAA124007191AY161061AY251061GF105991031021008001001011KA1240N+02361MA1999999098811MD1999999-0061MW1031REMSYN088AAXX  15124 82586 21598 50906 10272 20200 39881 40119 70365 83201 333 20236 59006 60074;
0167825860999992002041518004-05190-039300FM-12+021199999V0201401N002610075019N0200001N1+03041+01751100911ADDAA199000091GF105991051011008001001001MA1999999098551MD1999999-0081REMSYN070AAXX  15184 82586 32598 51405 10304 20175 39855 40091 85100 333 59008;EQDQ01  00002PRCP99
0198825860999992002041600004-05190-039300FM-12+021199999V0202701N000512200019N0010001N1+02631+02441100991ADDAA199000091GF103991031021008001001001KA1240M+03151MA1999999098631MD1999999-0091REMSYN088AAXX  16004 82586 32594 32701 10263 20244 39863 40099 83200 333 10315 29073 55101 59009;EQDQ01  00002PRCP99
0186825860999992002041612004-05190-039300FM-12+021199999V0201801N003110075019N0200001N1+02681+02261101161ADDAA199000091GF107991071041008001001001KA1240N+02361MA1999999098781MD1999999-0031REMSYN076AAXX  16124 82586 32598 71806 10268 20226 39878 40116 87400 333 20236 59003;EQDQ01  00002PRCP99
0167825860999992002041618004-05190-039300FM-12+021199999V0200901N003112200019N0200001N1+03131+02051100921ADDAA199000091GF104991041021008001001001MA1999999098561MD1999999+0011REMSYN070AAXX  16184 82586 32598 40906 10313 20205 39856 40092 84200 333 58001;EQDQ01  00002PRCP99
0198825860999992002041700004-05190-039300FM-12+021199999V0202301N001512200019N0010001N1+02521+02251101151ADDAA199000091GF102991021021008001001001KA1240M+03201MA1999999098771MD1999999+0101REMSYN088AAXX  17004 82586 32594 22303 10252 20225 39877 40115 82200 333 10320 29075 55097 58010;EQDQ01  00002PRCP99
0214825860999992002041800004-05190-039300FM-12+021199999V0209999C000019999999N0010001N1+02761+02331101161ADDAA199000091GF106991999011008001001001KA1240M+03221MA1999999098761MD1999999-0011REMSYN088AAXX  18004 82586 32594 60000 10276 20233 39876 40116 82100 333 10322 29075 55090 59001;EQDQ01+000022SCOTLCQ02  00002PRCP99
0201825860999992002041812004-05190-039300FM-12+021199999V0201401N003112200019N0200001N1+02821+01941101151ADDAA124000191AY151061AY221061GF104991031011008001001011KA1240N+02321MA1999999098791MD1999999-0081MW1031REMSYN088AAXX  18124 82586 21598 41406 10282 20194 39879 40115 70352 83101 333 20232 59008 69924;
0167825860999992002041818004-05190-039300FM-12+021199999V0201401N003112200019N0200001N1+03111+01971100931ADDAA199000091GF104991041021008001001001MA1999999098571MD1999999-0051REMSYN070AAXX  18184 82586 32598 41406 10311 20197 39857 40093 84200 333 59005;EQDQ01  00002PRCP99
0220825860999992002041912004-05190-039300FM-12+021199999V0200901N003119999999N0200001N1+02701+02281101081ADDAA124000191AY151061AY221061GF107991999041008001001001KA1240N+02481MA1999999098771MD1999999-0081MW1031REMSYN088AAXX  19124 82586 21598 70906 10270 20228 39877 40108 70352 82400 333 20248 59008 69914;EQDQ01+000022SCOTLC
0167825860999992002041918004-05190-039300FM-12+021199999V0200901N003112200019N0200001N1+03101+01771100861ADDAA199000091GF102991021011008001001001MA1999999098511MD1999999-0061REMSYN070AAXX  19184 82586 32598 20906 10310 20177 39851 40086 82100 333 59006;EQDQ01  00002PRCP99
0208825860999992002042000004-05190-039300FM-12+021199999V0209999C000012200019N0010001N1+02601+02341100961ADDAA199000091GA1001+999999999GF100991001001999999001001KA1240M+03181MA1999999098601MD1999999-0091REMSYN082AAXX  20004 82586 32994 00000 10260 20234 39860 40096 333 10318 29074 55084 59009;EQDQ01  00002PRCP99
0201825860999992002042012004-05190-039300FM-12+021199999V0202301N001519999999N0200001N1+02421+02391101131ADDAA124017091AY161061AY251061GF108991081001008001001001KA1240N+02201MA1999999098741MD1999999+0031MW1031REMSYN088AAXX  20124 82586 21598 82303 10242 20239 39874 40113 70365 88000 333 20220 58003 60174;
0182825860999992002042018004-05190-039300FM-12+021199999V0200901N002110075019N0200001N1+02781+02381100841ADDAA106001091AY161061AY221061GF106991061041008001001001MA1999999098481MD1999999-0031MW1031REMSYN082AAXX  20184 82586 21598 60904 10278 20238 39848 40084 70362 86400 333 59003 60011;
0198825860999992002042100004-05190-039300FM-12+021199999V0201401N001010075019N0010001N1+02521+02451101131ADDAA199000091GF106991061041008001001001KA1240M+03001MA1999999098731MD1999999+0131REMSYN088AAXX  21004 82586 32594 61402 10252 20245 39873 40113 86400 333 10300 29092 55035 58013;EQDQ01  00002PRCP99
0173825860999992002042112004-05190-039300FM-12+021199999V0201401N003610075019N0200001N1+02671+02091101161ADDAA124001091GF106991061021008001001001KA1240N+02321MA1999999098741MD1999999+0041REMSYN082AAXX  21124 82586 22598 61407 10267 20209 39874 40116 86200 333 20232 58004 60014;
0167825860999992002042118004-05190-039300FM-12+021199999V0201401N003110075019N0200001N1+02801+02081100951ADDAA199000091GF106991061021008001001001MA1999999098571MD1999999+0091REMSYN070AAXX  21184 82586 32598 61406 10280 20208 39857 40095 86200 333 58009;EQDQ01  00002PRCP99
0198825860999992002042200004-05190-039300FM-12+021199999V0202301N001510075019N0010001N1+02641+02421101051ADDAA199000091GF107991071051008001001001KA1240M+03031MA1999999098681MD1999999-0051REMSYN088AAXX  22004 82586 32594 72303 10264 20242 39868 40105 87500 333 10303 29078 55063 59005;EQDQ01  00002PRCP99
0186825860999992002042212004-05190-039300FM-12+021199999V0200901N004112200019N0200001N1+02781+02061101051ADDAA199000091GF103991031011008001001001KA1240N+02361MA1999999098691MD1999999-0091REMSYN076AAXX  22124 82586 32598 30908 10278 20206 39869 40105 83100 333 20236 59009;EQDQ01  00002PRCP99
0167825860999992002042218004-05190-039300FM-12+021199999V0201401N003110075019N0200001N1+03001+01941100871ADDAA199000091GF106991061041008001001001MA1999999098511MD1999999-0061REMSYN070AAXX  22184 82586 32598 61406 10300 20194 39851 40087 86400 333 59006;EQDQ01  00002PRCP99
0198825860999992002042300004-05190-039300FM-12+021199999V0209999C000010075019N0010001N1+02611+02441100971ADDAA199000091GF106991061051008001001001KA1240M+03121MA1999999098571MD1999999-0111REMSYN088AAXX  23004 82586 32594 60000 10261 20244 39857 40097 86500 333 10312 29075 55084 59011;EQDQ01  00002PRCP99
0201825860999992002042312004-05190-039300FM-12+021199999V0201801N002110075019N0200001N1+02521+02311101031ADDAA124021191AY161061AY221061GF108991081071008001999999KA1240N+02261MA1999999098651MD1999999-0041MW1031REMSYN088AAXX  23124 82586 21598 81804 10252 20231 39865 40103 70362 887// 333 20226 59004 60214;
0167825860999992002042318004-05190-039300FM-12+021199999V0201401N007210450019N0200001N1+02961+02131100761ADDAA199000091GF105991031021008001051001MA1999999098421MD1999999-0091REMSYN070AAXX  23184 82586 32598 51414 10296 20213 39842 40076 83250 333 59009;EQDQ01  00002PRCP99
0214825860999992002042400004-05190-039300FM-12+021199999V0209999C000019999999N0010001N1+02561+02401100951ADDAA199000091GF108991999011008001001001KA1240M+03071MA1999999098571MD1999999+0001REMSYN088AAXX  24004 82586 32594 80000 10256 20240 39857 40095 82100 333 10307 29085 55074 58000;EQDQ01+000022SCOTLCQ02  00002PRCP99
0202825860999992002042412004-05190-039300FM-12+021199999V0201401N003610075019N0200001N1+02671+02331101001ADDAA199000091GF106991999041008001001001KA1240N+02361MA1999999098631MD1999999-0021REMSYN076AAXX  24124 82586 32598 61407 10267 20233 39863 40100 85400 333 20236 59002;EQDQ01+000052SCOTLCQ02  00002PRCP99
0167825860999992002042418004-05190-039300FM-12+021199999V0201801N003112200019N0200001N1+03021+02021100791ADDAA199000091GF104991041021008001001001MA1999999098431MD1999999+0011REMSYN070AAXX  24184 82586 32598 41806 10302 20202 39843 40079 84200 333 58001;EQDQ01  00002PRCP99
0198825860999992002042500004-05190-039300FM-12+021199999V0209999C000012200019N0010001N1+02551+02471100951ADDAA199000091GF104991041001012501051001KA1240M+03111MA1999999098521MD1999999-0011REMSYN088AAXX  25004 82586 32694 40000 10255 20247 39852 40095 84050 333 10311 29082 55095 59001;EQDQ01  00002PRCP99
0186825860999992002042512004-05190-039300FM-12+021199999V0200501N002610075019N0200001N1+02821+02331101101ADDAA199000091GF107991071041008001001001KA1240N+02421MA1999999098741MD1999999+0111REMSYN076AAXX  25124 82586 32598 70505 10282 20233 39874 40110 87400 333 20242 58011;EQDQ01  00002PRCP99
0182825860999992002042518004-05190-039300FM-12+021199999V0209999C000010075019N0200001N1+02341+02321100981ADDAA106027991AY191061AY261061GF108991081071008001999999MA1999999098581MD1999999+0151MW1611REMSYN082AAXX  25184 82586 21598 80000 10234 20232 39858 40098 76196 887// 333 58015 60281;
0179825860999992002042600004-05190-039300FM-12+021199999V0202701N001510075019N0010001N1+02301+02271101051ADDAA199000021GF108991081051008001999999KA1240M+02991MA1999999098671MD1999999+0091REMSYN088AAXX  26004 82586 32594 82703 10230 20227 39867 40105 885// 333 10299 29093 55034 58009;
0201825860999992002042612004-05190-039300FM-12+021199999V0200501N001510075019N0200001N1+02101+02071101351ADDAA124087191AY191061AY261061GF108991081071008001999999KA1240N+02041MA1999999098931MD1999999+0191MW1611REMSYN088AAXX  26124 82586 21598 80503 10210 20207 39893 40135 76196 887// 333 20204 58019 60874;
0182825860999992002042618004-05190-039300FM-12+021199999V0201801N002110075019N0200001N1+02481+02301101081ADDAA106000891AY151061AY251061GF108991081071008001999999MA1999999098691MD1999999+0111MW1031REMSYN082AAXX  26184 82586 21598 81804 10248 20230 39869 40108 70355 887// 333 58011 69981;
0198825860999992002042700004-05190-039300FM-12+021199999V0203601N003619999999N0010001N1+02321+02301101121ADDAA199000021GF106991999021012501001001KA1240M+02571MA1999999098711MD1999999+0041REMSYN088AAXX  27004 82586 32694 63607 10232 20230 39871 40112 83200 333 10257 29097 55000 58004;EQDQ01+000032SCOTLC
0173825860999992002042712004-05190-039300FM-12+021199999V0200901N003610075019N0200001N1+02521+02231101211ADDAA124000891GF108991081071008001999999KA1240N+02141MA1999999098811MD1999999-0121REMSYN082AAXX  27124 82586 22598 80907 10252 20223 39881 40121 887// 333 20214 59012 69984;
0167825860999992002042718004-05190-039300FM-12+021199999V0201401N003610075019N0200001N1+02801+02251100901ADDAA199000091GF106991061021008001001001MA1999999098551MD1999999-0171REMSYN070AAXX  27184 82586 32598 61407 10280 20225 39855 40090 86200 333 59017;EQDQ01  00002PRCP99
0214825860999992002042800004-05190-039300FM-12+021199999V0203601N001012200019N0010001N1+02501+02271101021ADDAA199000091GF103991999011008001001001KA1240M+02931MA1999999098631MD1999999-0011REMSYN088AAXX  28004 82586 32594 33602 10250 20227 39863 40102 82100 333 10293 29083 55038 59001;EQDQ01+000022SCOTLCQ02  00002PRCP99
0186825860999992002042812004-05190-039300FM-12+021199999V0200901N003110075019N0200001N1+02781+02061101161ADDAA199000091GF105991051041008001001001KA1240N+02251MA1999999098781MD1999999-0031REMSYN076AAXX  28124 82586 32598 50906 10278 20206 39878 40116 85400 333 20225 59003;EQDQ01  00002PRCP99
0182825860999992002042818004-05190-039300FM-12+021199999V0201801N001510075019N0200001N1+02921+02221100961ADDAA106001091AY161061AY221061GF106991061041008001001001MA1999999098591MD1999999+0071MW1031REMSYN082AAXX  28184 82586 21598 61803 10292 20222 39859 40096 70362 86400 333 58007 60011;
0213825860999992002042900004-05190-039300FM-12+021199999V0203601N003610075019N0010001N1+02331+02301101151ADDAA106006191AY191061AY261061GF108991081091008001999999KA1240M+03161MA1999999098771MD1999999+0141MW1611REMSYN100AAXX  29004 82586 21594 83607 10233 20230 39877 40115 76196 889// 333 10316 29082 55070 58014 60061;
0201825860999992002042912004-05190-039300FM-12+021199999V0200901N002110075019N0200001N1+02581+02231101251ADDAA124019191AY161061AY251061GF107991071041008001001001KA1240N+02261MA1999999098851MD1999999+0071MW1031REMSYN088AAXX  29124 82586 21598 70904 10258 20223 39885 40125 70365 87400 333 20226 58007 60194;
0167825860999992002042918004-05190-039300FM-12+021199999V0200901N002110075019N0200001N1+02861+02211101001ADDAA199000091GF106991061051008001001001MA1999999098631MD1999999+0041REMSYN070AAXX  29184 82586 32598 60904 10286 20221 39863 40100 86500 333 58004;EQDQ01  00002PRCP99
0198825860999992002043000004-05190-039300FM-12+021199999V0209999C000010120019N0010001N1+02521+02491101071ADDAA199000091GF105991051021012501001001KA1240M+02991MA1999999098691MD1999999-0021REMSYN088AAXX  30004 82586 32694 50000 10252 20249 39869 40107 85200 333 10299 29086 55047 59002;EQDQ01  00002PRCP99
0186825860999992002043012004-05190-039300FM-12+021199999V0200501N003610075019N0200001N1+02621+02351101261ADDAA199000091GF108991071071008001999999KA1240N+02321MA1999999098881MD1999999+0031REMSYN076AAXX  30124 82586 32598 80507 10262 20235 39888 40126 877// 333 20232 58003;EQDQ01  00002PRCP99
0182825860999992002043018004-05190-039300FM-12+021199999V0203601N001010075019N0200001N1+03001+02321101051ADDAA106000591AY151061AY221061GF106991061041008001001001MA1999999098681MD1999999+0051MW1031REMSYN082AAXX  30184 82586 21598 63602 10300 20232 39868 40105 70352 86400 333 58005 69941;
0198825860999992002050100004-05190-039300FM-12+021199999V0202701N001512200019N0010001N1+02561+02531101291ADDAA199000091GF103991031021008001001001KA1240M+03131MA1999999098811MD1999999+0121REMSYN088AAXX  01004 82586 32594 32703 10256 20253 39881 40129 83200 333 10313 29087 55040 58012;EQDQ01  00002PRCP99
0201825860999992002050112004-05190-039300FM-12+021199999V0201801N001510075019N0200001N1+02561+02531101261ADDAA124003091AY161061AY221061GF108991081071008001999999KA1240N+02251MA1999999098881MD1999999+0001MW1031REMSYN088AAXX  01124 82586 21598 81803 10256 20253 39888 40126 70362 887// 333 20225 58000 60034;
0201825860999992002050118004-05190-039300FM-12+021199999V0201401N001510075019N0200001N1+02981+02421100981ADDAA106009991AY161061AY261061GF108991999041008001001001MA1999999098621MD1999999-0061MW1031REMSYN082AAXX  01184 82586 21598 81403 10298 20242 39862 40098 70366 86400 333 59006 60101;EQDQ01+000062SCOTLC
0226825860999992002050200004-05190-039300FM-12+021199999V0203601N001010075019N0010001N1+02531+02451101111ADDAA199000091AY121061AY221061GF106991061021008001001001KA1240M+03151MA1999999098721MD1999999-0081MW1131REMSYN094AAXX  02004 82586 31594 63602 10253 20245 39872 40111 71322 86200 333 10315 29092 55037 59008;EQDQ01  00002PRCP99
0201825860999992002050212004-05190-039300FM-12+021199999V0201401N000510075019N0200001N1+02421+02391101181ADDAA124023191AY161061AY261061GF108991081071008001999999KA1240N+02281MA1999999098791MD1999999-0091MW1031REMSYN088AAXX  02124 82586 21598 81401 10242 20239 39879 40118 70366 887// 333 20228 59009 60234;
0182825860999992002050218004-05190-039300FM-12+021199999V0200901N003111050019N0200001N1+02881+02281100931ADDAA106007191AY161061AY251061GF106991031021008001001021MA1999999098561MD1999999-0061MW1031REMSYN082AAXX  02184 82586 21598 60906 10288 20228 39856 40093 70365 83202 333 59006 60071;
0213825860999992002050300004-05190-039300FM-12+021199999V0203601N001510075019N0010001N1+02441+02411101071ADDAA106005191AY161061AY251061GF106991061031008001001001KA1240M+03011MA1999999098671MD1999999-0061MW1131REMSYN100AAXX  03004 82586 21594 63603 10244 20241 39867 40107 71365 86300 333 10301 29091 55031 59006 60051;
0173825860999992002050312004-05190-039300FM-12+021199999V0200501N003110075019N0200001N1+02761+02041101111ADDAA124011991GF106991061021008001001001KA1240N+02321MA1999999098741MD1999999-0051REMSYN082AAXX  03124 82586 22598 60506 10276 20204 39874 40111 86200 333 20232 59005 60124;
0167825860999992002050318004-05190-039300FM-12+021199999V0201401N002112200019N0200001N1+03031+01991100911ADDAA199000091GF104991041021008001001001MA1999999098551MD1999999-0011REMSYN070AAXX  03184 82586 32598 41404 10303 20199 39855 40091 84200 333 59001;EQDQ01  00002PRCP99
0208825860999992002050400004-05190-039300FM-12+021199999V0203601N000512200019N0010001N1+02521+02451101021ADDAA199000091GA1001+999999999GF100991001001999999001001KA1240M+03161MA1999999098651MD1999999-0021REMSYN082AAXX  04004 82586 32994 03601 10252 20245 39865 40102 333 10316 29078 55102 59002;EQDQ01  00002PRCP99
0186825860999992002050412004-05190-039300FM-12+021199999V0200501N002110075019N0200001N1+02781+02301101211ADDAA199000091GF106991061021008001001001KA1240N+02341MA1999999098831MD1999999+0091REMSYN076AAXX  04124 82586 32598 60504 10278 20230 39883 40121 86200 333 20234 58009;EQDQ01  00002PRCP99
0167825860999992002050418004-05190-039300FM-12+021199999V0201801N000512200019N0200001N1+03021+02071101031ADDAA199000091GF102991021021008001001001MA1999999098661MD1999999+0111REMSYN070AAXX  04184 82586 32598 21801 10302 20207 39866 40103 82200 333 58011;EQDQ01  00002PRCP99
0208825860999992002050500004-05190-039300FM-12+021199999V0203601N001512200019N0010001N1+02501+02451101131ADDAA199000091GA1001+999999999GF100991001001999999001001KA1240M+03171MA1999999098851MD1999999+0101REMSYN082AAXX  05004 82586 32994 03603 10250 20245 39885 40113 333 10317 29082 55094 58010;EQDQ01  00002PRCP99
0186825860999992002050512004-05190-039300FM-12+021199999V0200901N003612200019N0200001N1+02781+02501101231ADDAA199000091GF102991021011008001001001KA1240N+02321MA1999999098851MD1999999+0021REMSYN076AAXX  05124 82586 32598 20907 10278 20250 39885 40123 82100 333 20232 58002;EQDQ01  00002PRCP99
0167825860999992002050518004-05190-039300FM-12+021199999V0200501N002112200019N0200001N1+03031+02111101161ADDAA199000091GF103991031021008001001001MA1999999098781MD1999999+0121REMSYN070AAXX  05184 82586 32598 30504 10303 20211 39878 40116 83200 333 58012;EQDQ01  00002PRCP99
0208825860999992002050600004-05190-039300FM-12+021199999V0209999C000012200019N0010001N1+02461+02431101161ADDAA199000091GA1001+999999999GF100991001001999999001001KA1240M+03281MA1999999098801MD1999999+0051REMSYN082AAXX  06004 82586 32994 00000 10246 20243 39880 40116 333 10328 29083 55100 58005;EQDQ01  00002PRCP99
0186825860999992002050612004-05190-039300FM-12+021199999V0202701N001510075019N0200001N1+02681+02411101381ADDAA199000091GF106991061041008001001001KA1240N+02221MA1999999098991MD1999999+0141REMSYN076AAXX  06124 82586 32598 62703 10268 20241 39899 40138 86400 333 20222 58014;EQDQ01  00002PRCP99
0167825860999992002050618004-05190-039300FM-12+021199999V0203601N003110075019N0200001N1+02821+02351101121ADDAA199000091GF106991061041008001001001MA1999999098731MD1999999-0031REMSYN070AAXX  06184 82586 32598 63606 10282 20235 39873 40112 86400 333 59003;EQDQ01  00002PRCP99
0213825860999992002050700004-05190-039300FM-12+021199999V0200501N001510075019N0010001N1+02261+02231101241ADDAA106007191AY161061AY251061GF108991081071008001999999KA1240M+02931MA1999999098841MD1999999+0041MW1031REMSYN100AAXX  07004 82586 21594 80503 10226 20223 39884 40124 70365 887// 333 10293 29089 55025 58004 60071;
0173825860999992002050712004-05190-039300FM-12+021199999V0200901N003110075019N0200001N1+02601+02231101271ADDAA124007191GF106991061041008001001001KA1240N+02241MA1999999098871MD1999999-0121REMSYN082AAXX  07124 82586 22598 60906 10260 20223 39887 40127 86400 333 20224 59012 60074;
0182825860999992002050718004-05190-039300FM-12+021199999V0201801N003610075019N0200001N1+02561+02321101161ADDAA106002091AY161061AY251061GF108991081071008001999999MA1999999098761MD1999999+0031MW1031REMSYN082AAXX  07184 82586 21598 81807 10256 20232 39876 40116 70365 887// 333 58003 60021;
0213825860999992002050800004-05190-039300FM-12+021199999V0203601N001510075019N0010001N1+02341+02321101281ADDAA106026991AY161061AY251061GF108991081051008001999999KA1240M+02991MA1999999098881MD1999999+0011MW1031REMSYN100AAXX  08004 82586 21594 83603 10234 20232 39888 40128 70365 885// 333 10299 29094 55069 58001 60271;
0173825860999992002050812004-05190-039300FM-12+021199999V0201401N003110075019N0200001N1+02561+02271101301ADDAA124027991GF107991071041008001001001KA1240N+02261MA1999999098901MD1999999+0031REMSYN082AAXX  08124 82586 22598 71406 10256 20227 39890 40130 87400 333 20226 58003 60284;
0167825860999992002050818004-05190-039300FM-12+021199999V0200501N001512200019N0200001N1+02961+01871101141ADDAA199000091GF102991021011008001001001MA1999999098761MD1999999+0001REMSYN070AAXX  08184 82586 32598 20503 10296 20187 39876 40114 82100 333 58000;EQDQ01  00002PRCP99
0208825860999992002050900004-05190-039300FM-12+021199999V0209999C000012200019N0010001N1+02481+02151101231ADDAA199000091GA1001+999999999GF100991001001999999001001KA1240M+03031MA1999999098841MD1999999-0041REMSYN082AAXX  09004 82586 32994 00000 10248 20215 39884 40123 333 10303 29075 55079 59004;EQDQ01  00002PRCP99
0186825860999992002050912004-05190-039300FM-12+021199999V0200901N001510075019N0200001N1+02521+02341101361ADDAA199000091GF106991061041008001001001KA1240N+02241MA1999999098961MD1999999+0061REMSYN076AAXX  09124 82586 32598 60903 10252 20234 39896 40136 86400 333 20224 58006;EQDQ01  00002PRCP99
0167825860999992002050918004-05190-039300FM-12+021199999V0200901N001512200019N0200001N1+03031+01921101141ADDAA199000091GF102991021021008001001001MA1999999098761MD1999999+0001REMSYN070AAXX  09184 82586 32598 20903 10303 20192 39876 40114 82200 333 58000;EQDQ01  00002PRCP99
0208825860999992002051000004-05190-039300FM-12+021199999V0209999C000012200019N0010001N1+02541+02511101261ADDAA199000091GA1001+999999999GF100991001001999999001001KA1240M+03131MA1999999098881MD1999999+0041REMSYN082AAXX  10004 82586 32994 00000 10254 20251 39888 40126 333 10313 29084 55076 58004;EQDQ01  00002PRCP99
0186825860999992002051012004-05190-039300FM-12+021199999V0200901N007210075019N0200001N1+02721+02221101371ADDAA199000091GF106991061041008001001001KA1240N+02381MA1999999098991MD1999999+0031REMSYN076AAXX  10124 82586 32598 60914 10272 20222 39899 40137 86400 333 20238 58003;EQDQ01  00002PRCP99
0161825860999992002051018004-05190-039300FM-12+021199999V0200901N002612200019N0200001N1+03031+99999101121ADDAA199000091GF102991021021008001001001MA1999999098751MD1999999-0011REMSYN064AAXX  10184 82586 32598 20905 10303 39875 40112 82200 333 59001;EQDQ01  00002PRCP99
0198825860999992002051100004-05190-039300FM-12+021199999V0200501N003110120019N0010001N1+02601+02461101291ADDAA199000091GF106991061041012501001001KA1240M+03141MA1999999098911MD1999999-0031REMSYN088AAXX  11004 82586 32694 60506 10260 20246 39891 40129 86400 333 10314 29079 55081 59003;EQDQ01  00002PRCP99
0201825860999992002051112004-05190-039300FM-12+021199999V0200501N003610075019N0200001N1+02591+02441101381ADDAA124001091AY161061AY221061GF108991081071008001999999KA1240N+02341MA1999999099001MD1999999-0011MW1031REMSYN088AAXX  11124 82586 21598 80507 10259 20244 39900 40138 70362 887// 333 20234 59001 60014;
0167825860999992002051118004-05190-039300FM-12+021199999V0201401N003110075019N0200001N1+03001+02221101131ADDAA199000091GF105991051021008001001001MA1999999098751MD1999999+0001REMSYN070AAXX  11184 82586 32598 51406 10300 20222 39875 40113 85200 333 58000;EQDQ01  00002PRCP99
0214825860999992002051200004-05190-039300FM-12+021199999V0200501N001519999999N0010001N1+02521+02451101261ADDAA199000091GF106991999011008001001001KA1240M+03071MA1999999098881MD1999999-0031REMSYN088AAXX  12004 82586 32594 60503 10252 20245 39888 40126 82100 333 10307 29087 55062 59003;EQDQ01+000022SCOTLCQ02  00002PRCP99
0201825860999992002051212004-05190-039300FM-12+021199999V0201801N003112200019N0200001N1+02681+02111101331ADDAA124007191AY161061AY221061GF106991031041008001001041KA1240N+02301MA1999999098951MD1999999-0051MW1031REMSYN088AAXX  12124 82586 21598 61806 10268 20211 39895 40133 70362 83404 333 20230 59005 60074;
0208825860999992002051300004-05190-039300FM-12+021199999V0209999C000012200019N0010001N1+02441+02351101261ADDAA199000091GA1001+999999999GF100991001001999999001001KA1240M+03071MA1999999098881MD1999999+0001REMSYN082AAXX  13004 82586 32994 00000 10244 20235 39888 40126 333 10307 29081 55101 58000;EQDQ01  00002PRCP99
0186825860999992002051312004-05190-039300FM-12+021199999V0200901N001510075019N0200001N1+02501+02151101361ADDAA199000091GF107991071071008001001001KA1240N+02221MA1999999098961MD1999999+0011REMSYN076AAXX  13124 82586 32598 70903 10250 20215 39896 40136 87700 333 20222 58001;EQDQ01  00002PRCP99
0167825860999992002051318004-05190-039300FM-12+021199999V0201801N001519999999N0200001N1+02701+01751101241ADDAA199000091GF108991081001008001051999MA1999999098841MD1999999+0081REMSYN070AAXX  13184 82586 32598 81803 10270 20175 39884 40124 8805/ 333 58008;EQDQ01  00002PRCP99
0208825860999992002051400004-05190-039300FM-12+021199999V0209999C000012200019N0010001N1+02261+02141101331ADDAA199000091GA1001+999999999GF100991001001999999001001KA1240M+02841MA1999999098931MD1999999+0051REMSYN082AAXX  14004 82586 32994 00000 10226 20214 39893 40133 333 10284 29081 55017 58005;EQDQ01  00002PRCP99
0186825860999992002051412004-05190-039300FM-12+021199999V0201401N002612200019N0200001N1+02561+02041101341ADDAA199000091GF106991021011008001001011KA1240N+02101MA1999999098941MD1999999-0021REMSYN076AAXX  14124 82586 32598 61405 10256 20204 39894 40134 82101 333 20210 59002;EQDQ01  00002PRCP99
0167825860999992002051418004-05190-039300FM-12+021199999V0201401N002112200019N0200001N1+03001+02001101131ADDAA199000091GF104991041011008001001001MA1999999098751MD1999999-0091REMSYN070AAXX  14184 82586 32598 41404 10300 20200 39875 40113 84100 333 59009;EQDQ01  00002PRCP99
0208825860999992002051500004-05190-039300FM-12+021199999V0209999C000012200019N0010001N1+02611+02331101221ADDAA199000091GA1001+999999999GF100991001001999999001001KA1240M+03091MA1999999098841MD1999999-0091REMSYN082AAXX  15004 82586 32994 00000 10261 20233 39884 40122 333 10309 29075 55090 59009;EQDQ01  00002PRCP99
0201825860999992002051512004-05190-039300FM-12+021199999V0200901N003112200019N0200001N1+02721+02081101341ADDAA124000191AY151061AY221061GF102991021011008001001001KA1240N+02321MA1999999098921MD1999999-0021MW1031REMSYN088AAXX  15124 82586 21598 20906 10272 20208 39892 40134 70352 82100 333 20232 59002 69924;
0167825860999992002051518004-05190-039300FM-12+021199999V0200901N002110075019N0200001N1+03021+02081101081ADDAA199000091GF106991061041008001001001MA1999999098711MD1999999-0041REMSYN070AAXX  15184 82586 32598 60904 10302 20208 39871 40108 86400 333 59004;EQDQ01  00002PRCP99
0226825860999992002051600004-05190-039300FM-12+021199999V0203601N002610075019N0010001N1+02601+02391101201ADDAA199000091AY121061AY221061GF106991061031008001001001KA1240M+03161MA1999999098821MD1999999-0041MW1131REMSYN094AAXX  16004 82586 31594 63605 10260 20239 39882 40120 71322 86300 333 10316 29076 55083 59004;EQDQ01  00002PRCP99
0201825860999992002051612004-05190-039300FM-12+021199999V0200901N003110075019N0200001N1+02581+02311101221ADDAA124021191AY161061AY251061GF106991061041008001001001KA1240N+02301MA1999999098841MD1999999-0081MW1031REMSYN088AAXX  16124 82586 21598 60906 10258 20231 39884 40122 70365 86400 333 20230 59008 60214;
0167825860999992002051618004-05190-039300FM-12+021199999V0201401N003110075019N0200001N1+03001+02291101021ADDAA199000091GF105991051041008001001001MA1999999098651MD1999999-0061REMSYN070AAXX  16184 82586 32598 51406 10300 20229 39865 40102 85400 333 59006;EQDQ01  00002PRCP99
0198825860999992002051700004-05190-039300FM-12+021199999V0209999C000010075019N0010001N1+02541+02521101111ADDAA199000091GF106991061041008001001001KA1240M+03111MA1999999098731MD1999999-0091REMSYN088AAXX  17004 82586 32594 60000 10254 20252 39873 40111 86400 333 10311 29087 55092 59009;EQDQ01  00002PRCP99
0186825860999992002051712004-05190-039300FM-12+021199999V0200901N002612200019N0200001N1+02721+02241101221ADDAA199000091GF106991021011008001001011KA1240N+02401MA1999999098841MD1999999+0001REMSYN076AAXX  17124 82586 32598 60905 10272 20224 39884 40122 82101 333 20240 58000;EQDQ01  00002PRCP99
0167825860999992002051718004-05190-039300FM-12+021199999V0201401N001512200019N0200001N1+03021+02021100891ADDAA199000091GF104991041041008001001001MA1999999098531MD1999999-0121REMSYN070AAXX  17184 82586 32598 41403 10302 20202 39853 40089 84400 333 59012;EQDQ01  00002PRCP99
0198825860999992002051800004-05190-039300FM-12+021199999V0209999C000012200019N0010001N1+02561+02471101041ADDAA199000091GF102991021021008001001001KA1240M+03201MA1999999098671MD1999999-0041REMSYN088AAXX  18004 82586 32594 20000 10256 20247 39867 40104 82200 333 10320 29081 55095 59004;EQDQ01  00002PRCP99
0202825860999992002051812004-05190-039300FM-12+021199999V0200901N002119999999N0200001N1+02601+02331101171ADDAA199000091GF108991999011008001001001KA1240N+02381MA1999999098791MD1999999-0051REMSYN076AAXX  18124 82586 32598 80904 10260 20233 39879 40117 82100 333 20238 59005;EQDQ01+000022SCOTLCQ02  00002PRCP99
0167825860999992002051818004-05190-039300FM-12+021199999V0200501N003110075019N0200001N1+02961+02121100941ADDAA199000091GF106991061021008001001001MA1999999098681MD1999999+0011REMSYN070AAXX  18184 82586 32598 60506 10296 20212 39868 40094 86200 333 58001;EQDQ01  00002PRCP99
0192825860999992002051900004-05190-039300FM-12+021199999V0203601N003119999999N0010001N1+02461+02371101181ADDAA199000091GF105991999999999999999999KA1240M+03011MA1999999098781MD1999999+0111REMSYN082AAXX  19004 82586 32994 53606 10246 20237 39878 40118 333 10301 29084 55030 58011;EQDQ01  00002PRCP99
0202825860999992002051912004-05190-039300FM-12+021199999V0201401N003112200019N0200001N1+02771+02211101261ADDAA199000091GF104991999011008001001001KA1240N+02321MA1999999098881MD1999999+0091REMSYN076AAXX  19124 82586 32598 41406 10277 20221 39888 40126 82100 333 20232 58009;EQDQ01+000022SCOTLCQ02  00002PRCP99
0167825860999992002051918004-05190-039300FM-12+021199999V0200901N004112200019N0200001N1+03081+01921101041ADDAA199000091GF103991031021008001001001MA1999999098681MD1999999+0101REMSYN070AAXX  19184 82586 32598 30908 10308 20192 39868 40104 83200 333 58010;EQDQ01  00002PRCP99
0208825860999992002052000004-05190-039300FM-12+021199999V0209999C000012200019N0020001N1+02521+02451101161ADDAA199000091GA1001+999999999GF100991001001999999001001KA1240M+03161MA1999999098781MD1999999+0001REMSYN082AAXX  20004 82586 32595 00000 10252 20245 39878 40116 333 10316 29079 55102 58000;EQDQ01  00002PRCP99
0186825860999992002052012004-05190-039300FM-12+021199999V0201401N003110075019N0200001N1+02801+02311101261ADDAA199000091GF106991061041008001001001KA1240N+02381MA1999999098881MD1999999+0001REMSYN076AAXX  20124 82586 32598 61406 10280 20231 39888 40126 86400 333 20238 58000;EQDQ01  00002PRCP99
0167825860999992002052018004-05190-039300FM-12+021199999V0200901N003112200019N0200001N1+03061+02141101091ADDAA199000091GF103991031021008001001001MA1999999098731MD1999999+0051REMSYN070AAXX  20184 82586 32598 30906 10306 20214 39873 40109 83200 333 58005;EQDQ01  00002PRCP99
0198825860999992002052100004-05190-039300FM-12+021199999V0200501N001510075019N0010001N1+02621+02481101181ADDAA199000091GF106991061041008001001001KA1240M+03201MA1999999098811MD1999999+0031REMSYN088AAXX  21004 82586 32594 60503 10262 20248 39881 40118 86400 333 10320 29079 55106 58003;EQDQ01  00002PRCP99
0186825860999992002052112004-05190-039300FM-12+021199999V0200901N004610075019N0200001N1+02741+02101101241ADDAA199000091GF105991051021008001001001KA1240N+02361MA1999999098871MD1999999-0011REMSYN076AAXX  21124 82586 32598 50909 10274 20210 39887 40124 85200 333 20236 59001;EQDQ01  00002PRCP99
0167825860999992002052118004-05190-039300FM-12+021199999V0200501N003112200019N0200001N1+03101+01971101061ADDAA199000091GF102991021021008001001001MA1999999098701MD1999999-0031REMSYN070AAXX  21184 82586 32598 20506 10310 20197 39870 40106 82200 333 59003;EQDQ01  00002PRCP99
0214825860999992002052200004-05190-039300FM-12+021199999V0203601N003112200019N0200001N1+02501+02051101171ADDAA199000091GF103991999011012501001001KA1240M+03221MA1999999098791MD1999999-0021REMSYN088AAXX  22004 82586 32698 33606 10250 20205 39879 40117 82100 333 10322 29068 55102 59002;EQDQ01+000022SCOTLCQ02  00002PRCP99
0186825860999992002052212004-05190-039300FM-12+021199999V0200901N002610075019N0200001N1+02741+02171101261ADDAA199000091GF106991061021008001001001KA1240N+02381MA1999999098881MD1999999+0011REMSYN076AAXX  22124 82586 32598 60905 10274 20217 39888 40126 86200 333 20238 58001;EQDQ01  00002PRCP99
0167825860999992002052218004-05190-039300FM-12+021199999V0200501N002612200019N0200001N1+03071+02111100991ADDAA199000091GF103991031011008001001001MA1999999098631MD1999999-0071REMSYN070AAXX  22184 82586 32598 30505 10307 20211 39863 40099 83100 333 59007;EQDQ01  00002PRCP99
0198825860999992002052300004-05190-039300FM-12+021199999V0200501N003110075019N0010001N1+02521+02451101221ADDAA199000091GF106991061071008001001001KA1240M+03181MA1999999098851MD1999999+0061REMSYN088AAXX  23004 82586 32594 60506 10252 20245 39885 40122 86700 333 10318 29080 55098 58006;EQDQ01  00002PRCP99
0186825860999992002052312004-05190-039300FM-12+021199999V0200501N003110075019N0200001N1+02801+02181101211ADDAA199000091GF106991061021008001001001KA1240N+02421MA1999999098831MD1999999-0051REMSYN076AAXX  23124 82586 32598 60506 10280 20218 39883 40121 86200 333 20242 59005;EQDQ01  00002PRCP99
0167825860999992002052318004-05190-039300FM-12+021199999V0200501N002112200019N0200001N1+03061+02101100941ADDAA199000091GF106991041041008001001041MA1999999098581MD1999999-0051REMSYN070AAXX  23184 82586 32598 60504 10306 20210 39858 40094 84404 333 59005;EQDQ01  00002PRCP99
0214825860999992002052400004-05190-039300FM-12+021199999V0203601N001510075019N0010001N1+02521+02451101101ADDAA199000091GF108991071061008001021001KA1240M+03181MA1999999999999MD1999999-0121REMSYN088AAXX  24004 82586 32594 83603 10252 20245 39573 40110 87620 333 10318 29080 55094 59012;EQDQ01  00002PRCP99Q02 095733APOSP 
0186825860999992002052412004-05190-039300FM-12+021199999V0200901N005110075019N0200001N1+02721+02281101231ADDAA199000091GF107991071041008001001001KA1240N+02441MA1999999098851MD1999999+0021REMSYN076AAXX  24124 82586 32598 70910 10272 20228 39885 40123 87400 333 20244 58002;EQDQ01  00002PRCP99
0183825860999992002052418004-05190-039300FM-12+021199999V0200501N002112200019N0200001N1+02991+01981101001ADDAA199000091GF104991999071008001001001MA1999999098641MD1999999+0061REMSYN070AAXX  24184 82586 32598 40504 10299 20198 39864 40100 87700 333 58006;EQDQ01+000072SCOTLCQ02  00002PRCP99
0198825860999992002052500004-05190-039300FM-12+021199999V0203601N001010075019N0010001N1+02571+02491101151ADDAA199000091GF106991061071008001001001KA1240M+03111MA1999999098771MD1999999-0041REMSYN088AAXX  25004 82586 32594 63602 10257 20249 39877 40115 86700 333 10311 29081 55063 59004;EQDQ01  00002PRCP99
0201825860999992002052512004-05190-039300FM-12+021199999V0200901N005710075019N0200001N1+02761+02191101261ADDAA124000591AY151061AY221061GF106991061041008001001001KA1240N+02261MA1999999098881MD1999999+0031MW1031REMSYN088AAXX  25124 82586 21598 60911 10276 20219 39888 40126 70352 86400 333 20226 58003 69944;
0167825860999992002052518004-05190-039300FM-12+021199999V0201401N002610075019N0200001N1+02911+02041101051ADDAA199000091GF106991061021008001001001MA1999999098681MD1999999+0041REMSYN070AAXX  25184 82586 32598 61405 10291 20204 39868 40105 86200 333 58004;EQDQ01  00002PRCP99
0198825860999992002052600004-05190-039300FM-12+021199999V0201401N001510075019N0010001N1+02541+02491101231ADDAA199000091GF106991061021008001001001KA1240M+03151MA1999999098851MD1999999+0081REMSYN088AAXX  26004 82586 32594 61403 10254 20249 39885 40123 86200 333 10315 29081 55081 58008;EQDQ01  00002PRCP99
0186825860999992002052612004-05190-039300FM-12+021199999V0201801N006710075019N0200001N1+02601+02061101301ADDAA199000091GF106991061051008001001001KA1240N+02321MA1999999098921MD1999999+0041REMSYN076AAXX  26124 82586 32598 61813 10260 20206 39892 40130 86500 333 20232 58004;EQDQ01  00002PRCP99
0167825860999992002052618004-05190-039300FM-12+021199999V0201801N003110075019N0200001N1+02881+02081101081ADDAA199000091GF106991061021008001001001MA1999999098711MD1999999+0031REMSYN070AAXX  26184 82586 32598 61806 10288 20208 39871 40108 86200 333 58003;EQDQ01  00002PRCP99
0198825860999992002052700004-05190-039300FM-12+021199999V0201801N001519999999N0010001N1+02501+02271101221ADDAA199000091GF105991051001012501051001KA1240M+02931MA1999999098841MD1999999-0011REMSYN088AAXX  27004 82586 32694 51803 10250 20227 39884 40122 85050 333 10293 29077 55037 59001;EQDQ01  00002PRCP99
0186825860999992002052712004-05190-039300FM-12+021199999V0201401N002612200019N0200001N1+02521+01771101281ADDAA199000091GF103991031011008001001001KA1240N+02261MA1999999098891MD1999999-0031REMSYN076AAXX  27124 82586 32598 31405 10252 20177 39889 40128 83100 333 20226 59003;EQDQ01  00002PRCP99
0167825860999992002052718004-05190-039300FM-12+021199999V0201401N003112200019N0200001N1+02991+01691101051ADDAA199000091GF102991021011008001001001MA1999999098681MD1999999-0031REMSYN070AAXX  27184 82586 32598 21406 10299 20169 39868 40105 82100 333 59003;EQDQ01  00002PRCP99
0214825860999992002052800004-05190-039300FM-12+021199999V0209999C000019999999N0010001N1+02501+02361101141ADDAA199000091GF106991999021008001001001KA1240M+03161MA1999999098761MD1999999-0081REMSYN088AAXX  28004 82586 32594 60000 10250 20236 39876 40114 83200 333 10316 29073 55105 59008;EQDQ01+000032SCOTLCQ02  00002PRCP99
0186825860999992002052812004-05190-039300FM-12+021199999V0201401N002610075019N0200001N1+02561+01991101221ADDAA199000091GF107991071071008001001001KA1240N+02321MA1999999098841MD1999999-0051REMSYN076AAXX  28124 82586 32598 71405 10256 20199 39884 40122 87700 333 20232 59005;EQDQ01  00002PRCP99
0167825860999992002052818004-05190-039300FM-12+021199999V0201401N001510075019N0200001N1+02831+02021101041ADDAA199000091GF107991071051008001001001MA1999999098671MD1999999-0011REMSYN070AAXX  28184 82586 32598 71403 10283 20202 39867 40104 87500 333 59001;EQDQ01  00002PRCP99
0198825860999992002052900004-05190-039300FM-12+021199999V0203601N001510075019N0010001N1+02561+02351101121ADDAA199000091GF108991081071008001999999KA1240M+02991MA1999999098741MD1999999-0021REMSYN088AAXX  29004 82586 32594 83603 10256 20235 39874 40112 887// 333 10299 29077 55064 59002;EQDQ01  00002PRCP99
0167825860999992002052918004-05190-039300FM-12+021199999V0200501N001510075019N0200001N1+02991+01981101011ADDAA199000091GF108991081071008001999999MA1999999098651MD1999999-0021REMSYN070AAXX  29184 82586 32598 80503 10299 20198 39865 40101 887// 333 59002;EQDQ01  00002PRCP99
0214825860999992002053000004-05190-039300FM-12+021199999V0209999C000019999999N0010001N1+02621+02181101141ADDAA199000091GF105991999011008001001001KA1240M+03231MA1999999098771MD1999999+0031REMSYN088AAXX  30004 82586 32594 50000 10262 20218 39877 40114 82100 333 10323 29067 55074 58003;EQDQ01+000022SCOTLCQ02  00002PRCP99
0186825860999992002053012004-05190-039300FM-12+021199999V0200901N004612200019N0200001N1+02801+02251101171ADDAA199000091GF104991041021008001001001KA1240N+02421MA1999999098801MD1999999-0011REMSYN076AAXX  30124 82586 32598 40909 10280 20225 39880 40117 84200 333 20242 59001;EQDQ01  00002PRCP99
0167825860999992002053018004-05190-039300FM-12+021199999V0200501N003610075019N0200001N1+03061+01901101051ADDAA199000091GF106991061051008001001001MA1999999098691MD1999999+0041REMSYN070AAXX  30184 82586 32598 60507 10306 20190 39869 40105 86500 333 58004;EQDQ01  00002PRCP99
0198825860999992002053100004-05190-039300FM-12+021199999V0203601N000510075019N0010001N1+02561+02081101161ADDAA199000091GF105991051021008001001001KA1240M+03221MA1999999098791MD1999999+0021REMSYN088AAXX  31004 82586 32594 53601 10256 20208 39879 40116 85200 333 10322 29068 55054 58002;EQDQ01  00002PRCP99
0186825860999992002053112004-05190-039300FM-12+021199999V0201801N003110075019N0200001N1+02631+02271101311ADDAA199000091GF108991081071008001999999KA1240N+02401MA1999999098931MD1999999+0131REMSYN076AAXX  31124 82586 32598 81806 10263 20227 39893 40131 887// 333 20240 58013;EQDQ01  00002PRCP99
0167825860999992002053118004-05190-039300FM-12+021199999V0200901N003110075019N0200001N1+03161+01631101071ADDAA199000091GF105991051021008001001001MA1999999098711MD1999999+0021REMSYN070AAXX  31184 82586 32598 50906 10316 20163 39871 40107 85200 333 58002;EQDQ01  00002PRCP99
0226825860999992002060100004-05190-039300FM-12+021199999V0209999C000010075019N0010001N1+02571+02421101161ADDAA199000091AY121061AY221061GF106991061021008001001011KA1240M+03221MA1999999098781MD1999999-0011MW1131REMSYN094AAXX  01004 82586 31594 60000 10257 20242 39878 40116 71322 86201 333 10322 29077 55083 59001;EQDQ01  00002PRCP99
0201825860999992002060112004-05190-039300FM-12+021199999V0201401N002110075019N0200001N1+02501+02211101381ADDAA124029091AY161061AY251061GF106991061041008001001001KA1240N+02251MA1999999098991MD1999999+0011MW1031REMSYN088AAXX  01124 82586 21598 61404 10250 20221 39899 40138 70365 86400 333 20225 58001 60294;
0167825860999992002060118004-05190-039300FM-12+021199999V0201401N002610075019N0200001N1+02891+02081101201ADDAA199000091GF106991061041008001001001MA1999999098821MD1999999+0091REMSYN070AAXX  01184 82586 32598 61405 10289 20208 39882 40120 86400 333 58009;EQDQ01  00002PRCP99
0213825860999992002060200004-05190-039300FM-12+021199999V0203601N001010075019N0010001N1+02391+02351101291ADDAA106000191AY151061AY221061GF106991061041008001001001KA1240M+03001MA1999999098891MD1999999+0111MW1031REMSYN100AAXX  02004 82586 21594 63602 10239 20235 39889 40129 70352 86400 333 10300 29086 55079 58011 69921;
0192825860999992002060212004-05190-039300FM-12+021199999V0201801N004112200019N0200001N1+02671+02091101411ADDAA124000191GF103991999011008001001001KA1240N+02321MA1999999099021MD1999999+0031REMSYN082AAXX  02124 82586 22598 31808 10267 20209 39902 40141 82100 333 20232 58003 69924;EQDQ01+000022SCOTLC
0167825860999992002060218004-05190-039300FM-12+021199999V0201401N002112200019N0200001N1+02861+01871101241ADDAA199000091GF102991021011008001001001MA1999999098861MD1999999+0071REMSYN070AAXX  02184 82586 32598 21404 10286 20187 39886 40124 82100 333 58007;EQDQ01  00002PRCP99
0208825860999992002060300004-05190-039300FM-12+021199999V0203601N001512200019N0010001N1+02481+02151101321ADDAA199000091GA1001+999999999GF100991001001999999001001KA1240M+03061MA1999999098941MD1999999+0051REMSYN082AAXX  03004 82586 32994 03603 10248 20215 39894 40132 333 10306 29072 55090 58005;EQDQ01  00002PRCP99
0186825860999992002060312004-05190-039300FM-12+021199999V0200901N002110450019N0200001N1+02541+02171101351ADDAA199000091GF107991041041008001021001KA1240N+02221MA1999999098951MD1999999-0071REMSYN076AAXX  03124 82586 32598 70904 10254 20217 39895 40135 84420 333 20222 59007;EQDQ01  00002PRCP99
0208825860999992002060400004-05200-039300FM-12+021199999V0203601N001012200019N0010001N1+02341+02271101311ADDAA199000091GA1001+999999999GF100991001001999999001001KA1240M+02891MA1999999098911MD1999999-0031REMSYN082AAXX  04004 82586 32994 03602 10234 20227 39891 40131 333 10289 29084 55004 59003;EQDQ01  00002PRCP99
0186825860999992002060412004-05200-039300FM-12+021199999V0200501N003110075019N0200001N1+02501+02211101311ADDAA199000091GF105991051021008001001001KA1240N+02121MA1999999098911MD1999999-0041REMSYN076AAXX  04124 82586 32598 50506 10250 20221 39891 40131 85200 333 20212 59004;EQDQ01  00002PRCP99
0167825860999992002060418004-05200-039300FM-12+021199999V0201801N003112200019N0200001N1+03061+01801101041ADDAA199000091GF104991041011008001001001MA1999999098671MD1999999-0101REMSYN070AAXX  04184 82586 32598 41806 10306 20180 39867 40104 84100 333 59010;EQDQ01  00002PRCP99
0214825860999992002060500004-05200-039300FM-12+021199999V0209999C000019999999N0010001N1+02561+02291101161ADDAA199000091GF105991999011008001001001KA1240M+03161MA1999999097871MD1999999-0131REMSYN088AAXX  05004 82586 32594 50000 10256 20229 39787 40116 82100 333 10316 29075 55093 59013;EQDQ01+000022SCOTLCQ02  00002PRCP99
0186825860999992002060512004-05200-039300FM-12+021199999V0200501N003110075019N0200001N1+02701+02261101261ADDAA199000091GF106991061041008001001001KA1240N+02321MA1999999098881MD1999999-0031REMSYN076AAXX  05124 82586 32598 60506 10270 20226 39888 40126 86400 333 20232 59003;EQDQ01  00002PRCP99
0167825860999992002060518004-05200-039300FM-12+021199999V0201801N003110075019N0200001N1+03061+01661101051ADDAA199000091GF106991061021008001001001MA1999999098691MD1999999+0021REMSYN070AAXX  05184 82586 32598 61806 10306 20166 39869 40105 86200 333 58002;EQDQ01  00002PRCP99
0208825860999992002060600004-05200-039300FM-12+021199999V0203601N000512200019N0010001N1+02561+02291101031ADDAA199000091GA1001+999999999GF100991001001999999001001KA1240M+03191MA1999999098661MD1999999-0121REMSYN082AAXX  06004 82586 32994 03601 10256 20229 39866 40103 333 10319 29073 55087 59012;EQDQ01  00002PRCP99
0167825860999992002060618004-05200-039300FM-12+021199999V0200901N004110075019N0200001N1+03101+01871101041ADDAA199000091GF105991051021008001001001MA1999999098681MD1999999-0011REMSYN070AAXX  06184 82586 32598 50908 10310 20187 39868 40104 85200 333 59001;EQDQ01  00002PRCP99
0214825860999992002060700004-05200-039300FM-12+021199999V0200501N002112200019N0010001N1+02441+02311101231ADDAA199000091GF104991999011008001001001KA1240M+03221MA1999999098841MD1999999+0181REMSYN088AAXX  07004 82586 32594 40504 10244 20231 39884 40123 82100 333 10322 29078 55099 58018;EQDQ01+000022SCOTLCQ02  00002PRCP99
0186825860999992002060712004-05200-039300FM-12+021199999V0201401N001510075019N0200001N1+02401+02191101311ADDAA199000091GF106991061041008001001001KA1240N+02221MA1999999098911MD1999999+0031REMSYN076AAXX  07124 82586 32598 61403 10240 20219 39891 40131 86400 333 20222 58003;EQDQ01  00002PRCP99
0167825860999992002060718004-05200-039300FM-12+021199999V0200501N002610075019N0200001N1+02801+01811101161ADDAA199000091GF106991061041008001001001MA1999999098771MD1999999+0091REMSYN070AAXX  07184 82586 32598 60505 10280 20181 39877 40116 86400 333 58009;EQDQ01  00002PRCP99
0198825860999992002060800004-05200-039300FM-12+021199999V0202701N001512200019N0010001N1+02341+02271101271ADDAA199000091GF103991031021008001001001KA1240M+02931MA1999999098871MD1999999+0001REMSYN088AAXX  08004 82586 32594 32703 10234 20227 39887 40127 83200 333 10293 29084 55027 58000;EQDQ01  00002PRCP99
0209825860999992002060812004-05200-039300FM-12+021199999V0201401N003119999999N0200001N1+02501+02171101411ADDAY151061AY221061GF106991999021008001001001KA1240N+02251MA1999999099001MD1999999+0091MW1031REMSYN088AAXX  08124 82586 21598 61406 10250 20217 39900 40141 70352 83200 333 20225 58009 69964;EQDQ01+000032SCOTLC
0183825860999992002060818004-05200-039300FM-12+021199999V0200901N003119999999N0200001N1+02731+02151101181ADDAA199000091GF107991999011008001001001MA1999999098781MD1999999+0011REMSYN070AAXX  08184 82586 32598 70906 10273 20215 39878 40118 82100 333 58001;EQDQ01+000022SCOTLCQ02  00002PRCP99
0198825860999992002060900004-05200-039300FM-12+021199999V0209999C000012200019N0010001N1+02401+02261101311ADDAA199000091GF102991021011008001001001KA1240M+02831MA1999999098981MD1999999+0111REMSYN088AAXX  09004 82586 32594 20000 10240 20226 39898 40131 82100 333 10283 29084 55025 58011;EQDQ01  00002PRCP99
0190825860999992002060912004-05200-039300FM-12+021199999V0201801N002610075019N0200001N1+02521+02291101411ADDAY161061AY221061GF106991061041008001001001KA1240N+02201MA1999999099011MD1999999+0011MW1031REMSYN088AAXX  09124 82586 21598 61805 10252 20229 39901 40141 70362 86400 333 20220 58001 60034;
0167825860999992002060918004-05200-039300FM-12+021199999V0201401N003110075019N0200001N1+03061+01661101141ADDAA199000091GF105991051021008001001001MA1999999098761MD1999999-0021REMSYN070AAXX  09184 82586 32598 51406 10306 20166 39876 40114 85200 333 59002;EQDQ01  00002PRCP99
0198825860999992002061000004-05200-039300FM-12+021199999V0209999C000012200019N0010001N1+02601+02391101231ADDAA199000091GF102991021011008001001001KA1240M+03221MA1999999098851MD1999999-0131REMSYN088AAXX  10004 82586 32594 20000 10260 20239 39885 40123 82100 333 10322 29077 55090 59013;EQDQ01  00002PRCP99
0186825860999992002061012004-05200-039300FM-12+021199999V0200901N002110075019N0200001N1+02641+01981101351ADDAA199000091GF106991061041008001001001KA1240N+02161MA1999999098971MD1999999-0041REMSYN076AAXX  10124 82586 32598 60904 10264 20198 39897 40135 86400 333 20216 59004;EQDQ01  00002PRCP99
0167825860999992002061018004-05200-039300FM-12+021199999V0201801N001510075019N0200001N1+02991+01831101091ADDAA199000091GF106991061041008001001001MA1999999098721MD1999999-0041REMSYN070AAXX  10184 82586 32598 61803 10299 20183 39872 40109 86400 333 59004;EQDQ01  00002PRCP99
0198825860999992002061100004-05200-039300FM-12+021199999V0209999C000012200019N0010001N1+02561+02351101251ADDAA199000091GF102991021011008001001001KA1240M+03101MA1999999098871MD1999999+0021REMSYN088AAXX  11004 82586 32594 20000 10256 20235 39887 40125 82100 333 10310 29073 55080 58002;EQDQ01  00002PRCP99
0186825860999992002061112004-05200-039300FM-12+021199999V0200901N003610075019N0200001N1+02701+02131101281ADDAA199000091GF106991061041008001001001KA1240N+02241MA1999999098901MD1999999-0071REMSYN076AAXX  11124 82586 32598 60907 10270 20213 39890 40128 86400 333 20224 59007;EQDQ01  00002PRCP99
0167825860999992002061118004-05200-039300FM-12+021199999V0201801N001512200019N0200001N1+03041+01411101081ADDAA199000091GF104991041011008001001001MA1999999098721MD1999999+0001REMSYN070AAXX  11184 82586 32598 41803 10304 20141 39872 40108 84100 333 58000;EQDQ01  00002PRCP99
0208825860999992002061200004-05200-039300FM-12+021199999V0209999C000012200019N0200001N1+02461+02091101201ADDAA199000091GA1001+999999999GF100991001001999999001001KA1240M+03201MA1999999098821MD1999999-0051REMSYN082AAXX  12004 82586 32598 00000 10246 20209 39882 40120 333 10320 29067 55093 59005;EQDQ01  00002PRCP99
0186825860999992002061212004-05200-039300FM-12+021199999V0201401N003110075019N0200001N1+02491+02271101321ADDAA199000091GF108991081041008001999999KA1240N+02191MA1999999098931MD1999999+0031REMSYN076AAXX  12124 82586 32598 81406 10249 20227 39893 40132 884// 333 20219 58003;EQDQ01  00002PRCP99
0167825860999992002061218004-05200-039300FM-12+021199999V0201401N003110075019N0200001N1+03111+01841101121ADDAA199000091GF105991051021008001001001MA1999999098751MD1999999+0031REMSYN070AAXX  12184 82586 32598 51406 10311 20184 39875 40112 85200 333 58003;EQDQ01  00002PRCP99
0208825860999992002061300004-05200-039300FM-12+021199999V0203601N003112200019N0020001N1+02501+02291101271ADDAA199000091GA1001+999999999GF100991001001999999001001KA1240M+03201MA1999999098881MD1999999+0061REMSYN082AAXX  13004 82586 32995 03606 10250 20229 39888 40127 333 10320 29078 55068 58006;EQDQ01  00002PRCP99
0186825860999992002061312004-05200-039300FM-12+021199999V0201401N001010075019N0200001N1+02661+02021101331ADDAA199000091GF106991061041008001001001KA1240N+02321MA1999999098951MD1999999+0021REMSYN076AAXX  13124 82586 32598 61402 10266 20202 39895 40133 86400 333 20232 58002;EQDQ01  00002PRCP99
0162825860999992002061412004-05200-039300FM-12+021199999V0200901N005110075019N0200001N1+02581+02011101431ADDGF106991061021008001001001KA1240N+02281MA1999999099031MD1999999+0081REMSYN082AAXX  14124 82586 22598 60910 10258 20201 39903 40143 86200 333 20228 58008 69924;
0167825860999992002061418004-05200-039300FM-12+021199999V0201401N002610075019N0200001N1+02941+01851101231ADDAA199000091GF106991061041008001001001MA1999999098851MD1999999+0071REMSYN070AAXX  14184 82586 32598 61405 10294 20185 39885 40123 86400 333 58007;EQDQ01  00002PRCP99
0208825860999992002061500004-05200-039300FM-12+021199999V0209999C000012200019N0010001N1+02401+02191101321ADDAA199000091GA1001+999999999GF100991001001999999001001KA1240M+03121MA1999999098951MD1999999+0081REMSYN082AAXX  15004 82586 32994 00000 10240 20219 39895 40132 333 10312 29075 55065 58008;EQDQ01  00002PRCP99
0186825860999992002061512004-05200-039300FM-12+021199999V0201401N003110075019N0200001N1+02541+02001101441ADDAA199000091GF106991061021008001001021KA1240N+02141MA1999999099051MD1999999+0021REMSYN076AAXX  15124 82586 32598 61406 10254 20200 39905 40144 86202 333 20214 58002;EQDQ01  00002PRCP99
0202825860999992002061600004-05200-039300FM-12+021199999V0201801N002110075019N0010001N1+02421+02401101431ADDAY191061AY261061GF106991061031008001001001KA1240M+03131MA1999999099031MD1999999+0081MW1131REMSYN100AAXX  16004 82586 21594 61804 10242 20240 39903 40143 71396 86300 333 10313 29079 55081 58008 60021;
0190825860999992002061612004-05200-039300FM-12+021199999V0201801N002110075019N0200001N1+02301+02201101481ADDAY161061AY221061GF106991061021008001001021KA1240N+02131MA1999999099081MD1999999+0031MW1031REMSYN088AAXX  16124 82586 21598 61804 10230 20220 39908 40148 70362 86202 333 20213 58003 60134;
0199825860999992002061618004-05200-039300FM-12+021199999V0201801N001512200019N0200001N1+02801+01841102282ADDAA199000091GF104991999011008001001001MA1999999098891MD1999999+0021REMSYN070AAXX  16184 82586 32598 41803 10280 20184 39889 40228 82100 333 58002;EQDQ01+000022SCOTLCQ02+102283APOSLPQ03  00002PRCP99
0208825860999992002061700004-05200-039300FM-12+021199999V0209999C000012200019N0010001N1+02361+02331101371ADDAA199000091GA1001+999999999GF100991001001999999001001KA1240M+02961MA1999999098951MD1999999-0081REMSYN082AAXX  17004 82586 32994 00000 10236 20233 39895 40137 333 10296 29087 55049 59008;EQDQ01  00002PRCP99
0190825860999992002061712004-05200-039300FM-12+021199999V0200901N002110075019N0200001N1+02551+02271101421ADDAY161061AY221061GF106991061041008001001001KA1240N+02231MA1999999099021MD1999999-0061MW1031REMSYN088AAXX  17124 82586 21598 60904 10255 20227 39902 40142 70362 86400 333 20223 59006 60034;
0167825860999992002061718004-05200-039300FM-12+021199999V0201401N003110075019N0200001N1+02801+01841101271ADDAA199000091GF106991061041008001001001MA1999999098881MD1999999-0011REMSYN070AAXX  17184 82586 32598 61406 10280 20184 39888 40127 86400 333 59001;EQDQ01  00002PRCP99
0198825860999992002061800004-05200-039300FM-12+021199999V0203601N001510075019N0010001N1+02531+02091101341ADDAA199000091GF106991061051008001001001KA1240M+03001MA1999999098951MD1999999+0001REMSYN088AAXX  18004 82586 32594 63603 10253 20209 39895 40134 86500 333 10300 29074 55056 58000;EQDQ01  00002PRCP99
0190825860999992002061812004-05190-039300FM-12+021199999V0201401N003110075019N0200001N1+02521+02091101441ADDAY151061AY221061GF107991071071008001001001KA1240N+02281MA1999999099041MD1999999+0021MW1031REMSYN088AAXX  18124 82586 21598 71406 10252 20209 39904 40144 70352 87700 333 20228 58002 69914;
0202825860999992002061900004-05190-039300FM-12+021199999V0200501N004110075019N0010001N1+02301+02271101461ADDAY151061AY221061GF108991081051008001999999KA1240M+02951MA1999999099051MD1999999+0101MW1031REMSYN100AAXX  19004 82586 21594 80508 10230 20227 39905 40146 70352 885// 333 10295 29084 55031 58010 69961;
0190825860999992002061912004-05190-039300FM-12+021199999V0201401N002110075019N0200001N1+02441+02151101501ADDAY161061AY251061GF106991061041008001001001KA1240N+02161MA1999999099091MD1999999+0051MW1031REMSYN088AAXX  19124 82586 21598 61404 10244 20215 39909 40150 70365 86400 333 20216 58005 60034;
0198825860999992002062000004-05190-039300FM-12+021199999V0209999C000012200019N0010001N1+02441+02231101391ADDAA199000091GF102991021011008001001001KA1240M+03111MA1999999098991MD1999999-0061REMSYN088AAXX  20004 82586 32594 20000 10244 20223 39899 40139 82100 333 10311 29076 55072 59006;EQDQ01  00002PRCP99
0186825860999992002062012004-05190-039300FM-12+021199999V0200901N003610075019N0200001N1+02501+01911101451ADDAA199000091GF108991081071008001999999KA1240N+02181MA1999999099061MD1999999-0031REMSYN076AAXX  20124 82586 32598 80907 10250 20191 39906 40145 887// 333 20218 59003;EQDQ01  00002PRCP99
0167825860999992002062018004-05190-039300FM-12+021199999V0203601N001010075019N0200001N1+02721+01931101291ADDAA199000091GF106991061021008001001001MA1999999098891MD1999999+0001REMSYN070AAXX  20184 82586 32598 63602 10272 20193 39889 40129 86200 333 58000;EQDQ01  00002PRCP99
0167825860999992002062118004-05200-039300FM-12+021199999V0201801N003110075019N0200001N1+02941+01851101211ADDAA199000091GF106991061041008001001001MA1999999098831MD1999999-0061REMSYN070AAXX  21184 82586 32598 61806 10294 20185 39883 40121 86400 333 59006;EQDQ01  00002PRCP99
0198825860999992002062200004-05200-039300FM-12+021199999V0209999C000012200019N0010001N1+02521+02291101321ADDAA199000091GF104991041001012501051001KA1240M+03031MA1999999098941MD1999999-0011REMSYN088AAXX  22004 82586 32694 40000 10252 20229 39894 40132 84050 333 10303 29074 55077 59001;EQDQ01  00002PRCP99
0167825860999992002062218004-05200-039300FM-12+021199999V0201401N003110075019N0200001N1+02951+01691101241ADDAA199000091GF106991061021008001001001MA1999999098861MD1999999+0031REMSYN070AAXX  22184 82586 32598 61406 10295 20169 39886 40124 86200 333 58003;EQDQ01  00002PRCP99
0208825860999992002062300004-05200-039300FM-12+021199999V0209999C000012200019N0010001N1+02481+02251101401ADDAA199000091GA1001+999999999GF100991001001999999001001KA1240M+03051MA1999999099021MD1999999+0081REMSYN082AAXX  23004 82586 32994 00000 10248 20225 39902 40140 333 10305 29072 55080 58008;EQDQ01  00002PRCP99
0202825860999992002062312004-05200-039300FM-12+021199999V0201801N002619999999N0200001N1+02541+02001101481ADDAA199000091GF105991999021008001001001KA1240N+02121MA1999999099081MD1999999+0001REMSYN076AAXX  23124 82586 32598 51805 10254 20200 39908 40148 86200 333 20212 58000;EQDQ01+000062SCOTLCQ02  00002PRCP99
0183825860999992002062318004-05200-039300FM-12+021199999V0200901N003612200019N0200001N1+03141+01321101241ADDAA199000091GF101991999011008001001001MA1999999098861MD1999999+0001REMSYN070AAXX  23184 82586 32598 10907 10314 20132 39886 40124 82100 333 58000;EQDQ01+000022SCOTLCQ02  00002PRCP99
0198825860999992002062400004-05200-039300FM-12+021199999V0203601N001512200019N0010001N1+02481+01731101361ADDAA199000091GF102991021011008001001001KA1240M+03221MA1999999098981MD1999999-0041REMSYN088AAXX  24004 82586 32594 23603 10248 20173 39898 40136 82100 333 10322 29058 55103 59004;EQDQ01  00002PRCP99
0183825860999992002062418004-05200-039300FM-12+021199999V0200501N004119999999N0200001N1+03021+01591101351ADDAA199000091GF105991999011008001001001MA1999999098971MD1999999+0111REMSYN070AAXX  24184 82586 32598 50508 10302 20159 39897 40135 82100 333 58011;EQDQ01+000022SCOTLCQ02  00002PRCP99
0198825860999992002062500004-05200-039300FM-12+021199999V0209999C000012200019N0010001N1+02441+01991101521ADDAA199000091GF102991021011008001001001KA1240M+03131MA1999999099121MD1999999+0141REMSYN088AAXX  25004 82586 32594 20000 10244 20199 39912 40152 82100 333 10313 29065 55067 58014;EQDQ01  00002PRCP99
0186825860999992002062512004-05200-039300FM-12+021199999V0201401N002612200019N0200001N1+02541+02111101571ADDAA199000091GF104991041011008001001001KA1240N+02341MA1999999099171MD1999999+0001REMSYN076AAXX  25124 82586 32598 41405 10254 20211 39917 40157 84100 333 20234 58000;EQDQ01  00002PRCP99
0167825860999992002062518004-05200-039300FM-12+021199999V0200501N003112200019N0200001N1+03171+01471101371ADDAA199000091GF105991031021008001001041MA1999999099001MD1999999+0031REMSYN070AAXX  25184 82586 32598 50506 10317 20147 39900 40137 83204 333 58003;EQDQ01  00002PRCP99
0198825860999992002062600004-05200-039300FM-12+021199999V0203601N002112200019N0010001N1+02501+02131101571ADDAA199000091GF103991031001012501051001KA1240M+03241MA1999999099131MD1999999+0011REMSYN088AAXX  26004 82586 32694 33604 10250 20213 39913 40157 83050 333 10324 29068 55090 58001;EQDQ01  00002PRCP99
0186825860999992002062612004-05200-039300FM-12+021199999V0200901N003110075019N0200001N1+02581+02081101651ADDAA199000091GF106991061041008001001001KA1240N+02241MA1999999099251MD1999999+0081REMSYN076AAXX  26124 82586 32598 60906 10258 20208 39925 40165 86400 333 20224 58008;EQDQ01  00002PRCP99
0186825860999992002062712004-05200-039300FM-12+021199999V0201401N003110075019N0200001N1+02601+02031101571ADDAA199000091GF106991061041008001001001KA1240N+02221MA1999999099171MD1999999-0011REMSYN076AAXX  27124 82586 32598 61406 10260 20203 39917 40157 86400 333 20222 59001;EQDQ01  00002PRCP99
0167825860999992002062718004-05200-039300FM-12+021199999V0201801N001510075019N0200001N1+03041+01571101281ADDAA199000091GF106991061041008001001001MA1999999098901MD1999999-0131REMSYN070AAXX  27184 82586 32598 61803 10304 20157 39890 40128 86400 333 59013;EQDQ01  00002PRCP99
0198825860999992002062800004-05200-039300FM-12+021199999V0209999C000010075019N0010001N1+02441+01991101421ADDAA199000091GF106991061051008001001001KA1240M+03161MA1999999099021MD1999999-0111REMSYN088AAXX  28004 82586 32594 60000 10244 20199 39902 40142 86500 333 10316 29066 55081 59011;EQDQ01  00002PRCP99
0190825860999992002062812004-05200-039300FM-12+021199999V0201801N002110075019N0200001N1+02401+01891101561ADDAY151061AY221061GF107991071071008001001001KA1240N+02181MA1999999099151MD1999999-0021MW1031REMSYN088AAXX  28124 82586 21598 71804 10240 20189 39915 40156 70352 87700 333 20218 59002 69924;
0167825860999992002062818004-05200-039300FM-12+021199999V0201401N003110075019N0200001N1+03111+01621101211ADDAA199000091GF106991061041008001001001MA1999999098851MD1999999-0051REMSYN070AAXX  28184 82586 32598 61406 10311 20162 39885 40121 86400 333 59005;EQDQ01  00002PRCP99
0208825860999992002062900004-05200-039300FM-12+021199999V0209999C000012200019N0010001N1+02381+02031101331ADDAA199000091GA1001+999999999GF100991001001999999001001KA1240M+03191MA1999999098931MD1999999-0091REMSYN082AAXX  29004 82586 32994 00000 10238 20203 39893 40133 333 10319 29069 55084 59009;EQDQ01  00002PRCP99
0186825860999992002062912004-05200-039300FM-12+021199999V0201401N003110075019N0200001N1+02601+02141101481ADDAA199000091GF105991051021008001001001KA1240N+02221MA1999999099081MD1999999-0071REMSYN076AAXX  29124 82586 32598 51406 10260 20214 39908 40148 85200 333 20222 59007;EQDQ01  00002PRCP99
0167825860999992002062918004-05200-039300FM-12+021199999V0201801N002612200019N0200001N1+03161+01341101181ADDAA199000091GF103991031011008001001001MA1999999098821MD1999999-0031REMSYN070AAXX  29184 82586 32598 31805 10316 20134 39882 40118 83100 333 59003;EQDQ01  00002PRCP99
0208825860999992002063000004-05200-039300FM-12+021199999V0203601N004612200019N0010001N1+02621+02211101371ADDAA199000091GA1001+999999999GF100991001001999999001001KA1240M+03281MA1999999098991MD1999999+0061REMSYN082AAXX  30004 82586 32994 03609 10262 20221 39899 40137 333 10328 29066 55103 58006;EQDQ01  00002PRCP99
0186825860999992002063012004-05200-039300FM-12+021199999V0201401N002610075019N0200001N1+02601+02031101581ADDAA199000091GF106991061041008001001001KA1240N+02221MA1999999099191MD1999999+0111REMSYN076AAXX  30124 82586 32598 61405 10260 20203 39919 40158 86400 333 20222 58011;EQDQ01  00002PRCP99
0167825860999992002063018004-05200-039300FM-12+021199999V0200901N004610075019N0200001N1+03111+01661101271ADDAA199000091GF105991051021008001001001MA1999999098911MD1999999+0091REMSYN070AAXX  30184 82586 32598 50909 10311 20166 39891 40127 85200 333 58009;EQDQ01  00002PRCP99
0198825860999992002070100004-05200-039300FM-12+021199999V0203601N003110075019N0010001N1+02651+02201101451ADDAA199000091GF108991081071008001999999KA1240M+03201MA1999999099071MD1999999+0081REMSYN088AAXX  01004 82586 32594 83606 10265 20220 39907 40145 887// 333 10320 29067 55081 58008;EQDQ01  00002PRCP99
0190825860999992002070112004-05200-039300FM-12+021199999V0201401N003610075019N0200001N1+02401+02191101581ADDAY161061AY251061GF108991081071008001999999KA1240N+02181MA1999999099181MD1999999-0011MW1031REMSYN088AAXX  01124 82586 21598 81407 10240 20219 39918 40158 70365 887// 333 20218 59001 60204;
0167825860999992002070118004-05200-039300FM-12+021199999V0200901N002110075019N0200001N1+02801+02001101481ADDAA199000091GF106991061041008001001001MA1999999099081MD1999999+0141REMSYN070AAXX  01184 82586 32598 60904 10280 20200 39908 40148 86400 333 58014;EQDQ01  00002PRCP99
0198825860999992002070200004-05200-039300FM-12+021199999V0201801N002110075019N0010001N1+02501+02471101531ADDAA199000091GF108991081071008001999999KA1240M+02891MA1999999099131MD1999999+0061REMSYN088AAXX  02004 82586 32594 81804 10250 20247 39913 40153 887// 333 10289 29087 55004 58006;EQDQ01  00002PRCP99
0209825860999992002070212004-05200-039300FM-12+021199999V0201401N004112200019N0200001N1+02501+01751101581ADDAY161061AY221061GF104991999011008001001001KA1240N+02241MA1999999099181MD1999999+0001MW1031REMSYN088AAXX  02124 82586 21598 41408 10250 20175 39918 40158 70362 87100 333 20224 58000 60014;EQDQ01+000072SCOTLC
0167825860999992002070218004-05200-039300FM-12+021199999V0201801N003112200019N0200001N1+02981+01401101311ADDAA199000091GF103991031051008001001001MA1999999098931MD1999999-0151REMSYN070AAXX  02184 82586 32598 31806 10298 20140 39893 40131 83500 333 59015;EQDQ01  00002PRCP99
0198825860999992002070300004-05200-039300FM-12+021199999V0209999C000010075019N0010001N1+02531+01861101411ADDAA199000091GF106991061021008001001001KA1240M+03081MA1999999099011MD1999999-0121REMSYN088AAXX  03004 82586 32594 60000 10253 20186 39901 40141 86200 333 10308 29059 55089 59012;EQDQ01  00002PRCP99
0196825860999992002070312004-05200-039300FM-12+021199999V0201801N003112200019N0200001N1+02461+01551101491ADDAA199000091GA1001+999999999GF100991001001999999001001KA1240N+01901MA1999999099091MD1999999-0091REMSYN070AAXX  03124 82586 32998 01806 10246 20155 39909 40149 333 20190 59009;EQDQ01  00002PRCP99
0167825860999992002070318004-05200-039300FM-12+021199999V0201401N003110075019N0200001N1+02881+01671101271ADDAA199000091GF108991081071008001999999MA1999999098871MD1999999-0061REMSYN070AAXX  03184 82586 32598 81406 10288 20167 39887 40127 887// 333 59006;EQDQ01  00002PRCP99
0186825860999992002070412004-05200-039300FM-12+021199999V0200901N003610075019N0200001N1+02441+02011101511ADDAA199000091GF107991071041008001001001KA1240N+02281MA1999999099111MD1999999+0021REMSYN076AAXX  04124 82586 32598 70907 10244 20201 39911 40151 87400 333 20228 58002;EQDQ01  00002PRCP99
0171825860999992002070418004-05200-039300FM-12+021199999V0201401N003110075019N0200001N1+02861+01581101331ADDAY151061AY221061GF106991061051008001001001MA1999999098951MD1999999+0071MW1031REMSYN082AAXX  04184 82586 21598 61406 10286 20158 39895 40133 70352 86500 333 58007 69981;
0198825860999992002070500004-05200-039300FM-12+021199999V0209999C000010075019N0010001N1+02341+02111101441ADDAA199000091GF105991051021008001001001KA1240M+02931MA1999999099031MD1999999+0081REMSYN088AAXX  05004 82586 32594 50000 10234 20211 39903 40144 85200 333 10293 29074 55024 58008;EQDQ01  00002PRCP99
0162825860999992002070512004-05200-039300FM-12+021199999V0200901N002610075019N0200001N1+02441+02211101501ADDGF107991071041008001001001KA1240N+02161MA1999999099091MD1999999-0021REMSYN082AAXX  05124 82586 22598 70905 10244 20221 39909 40150 87400 333 20216 59002 69984;
0167825860999992002070518004-05200-039300FM-12+021199999V0201401N003110075019N0200001N1+03061+01621101161ADDAA199000091GF105991051021008001001001MA1999999098781MD1999999-0171REMSYN070AAXX  05184 82586 32598 51406 10306 20162 39878 40116 85200 333 59017;EQDQ01  00002PRCP99
0208825860999992002070600004-05200-039300FM-12+021199999V0203601N001012200019N0010001N1+02441+02131101281ADDAA199000091GA1001+999999999GF100991001001999999001001KA1240M+03201MA1999999098881MD1999999-0151REMSYN082AAXX  06004 82586 32994 03602 10244 20213 39888 40128 333 10320 29074 55070 59015;EQDQ01  00002PRCP99
0202825860999992002070612004-05200-039300FM-12+021199999V0201401N003119999999N0200001N1+02481+02191101431ADDAA199000091GF107991999021008001001001KA1240N+02321MA1999999099031MD1999999-0011REMSYN076AAXX  06124 82586 32598 71406 10248 20219 39903 40143 83200 333 20232 59001;EQDQ01+000032SCOTLCQ02  00002PRCP99
0167825860999992002070618004-05200-039300FM-12+021199999V0200901N001512200019N0200001N1+03011+01641101151ADDAA199000091GF104991041021008001001001MA1999999098771MD1999999-0011REMSYN070AAXX  06184 82586 32598 40903 10301 20164 39877 40115 84200 333 59001;EQDQ01  00002PRCP99
0198825860999992002070700004-05200-039300FM-12+021199999V0209999C000012200019N0010001N1+02461+02031101291ADDAA199000091GF102991021011008001001001KA1240M+03151MA1999999098891MD1999999+0011REMSYN088AAXX  07004 82586 32594 20000 10246 20203 39889 40129 82100 333 10315 29071 55076 58001;EQDQ01  00002PRCP99
0186825860999992002070712004-05200-039300FM-12+021199999V0201801N005112200019N0200001N1+02621+01811101511ADDAA199000091GF101991011011008001001001KA1240N+02151MA1999999099121MD1999999+0091REMSYN076AAXX  07124 82586 32598 11810 10262 20181 39912 40151 81100 333 20215 58009;EQDQ01  00002PRCP99
0167825860999992002070718004-05200-039300FM-12+021199999V0201401N002612200019N0200001N1+02201+01321101241ADDAA199000091GF101991011011008001011001MA1999999098871MD1999999+0101REMSYN070AAXX  07184 82586 32598 11405 10220 20132 39887 40124 81110 333 58010;EQDQ01  00002PRCP99
0208825860999992002070800004-05200-039300FM-12+021199999V0209999C000012200019N0010001N1+02501+01591101361ADDAA199000091GA1001+999999999GF100991001001999999001001KA1240M+03271MA1999999098971MD1999999+0081REMSYN082AAXX  08004 82586 32994 00000 10250 20159 39897 40136 333 10327 29052 55098 58008;EQDQ01  00002PRCP99
0186825860999992002070812004-05200-039300FM-12+021199999V0200901N002110075019N0200001N1+02661+01951101481ADDAA199000091GF105991051021008001001001KA1240N+02061MA1999999099101MD1999999-0021REMSYN076AAXX  08124 82586 32598 50904 10266 20195 39910 40148 85200 333 20206 59002;EQDQ01  00002PRCP99
0167825860999992002070818004-05200-039300FM-12+021199999V0201401N002112200019N0200001N1+03261+01421101241ADDAA199000091GF102991021021008001001001MA1999999098871MD1999999+0001REMSYN070AAXX  08184 82586 32598 21404 10326 20142 39887 40124 82200 333 58000;EQDQ01  00002PRCP99
0214825860999992002070900004-05200-039300FM-12+021199999V0200501N002112200019N0010001N1+02501+02051101531ADDAA199000091GF104991999011008001001001KA1240M+03331MA1999999098971MD1999999+0001REMSYN088AAXX  09004 82586 32594 40504 10250 20205 39897 40153 82100 333 10333 29063 55104 58000;EQDQ01+000022SCOTLCQ02  00002PRCP99
0186825860999992002070912004-05200-039300FM-12+021199999V0200901N002610075019N0200001N1+02621+02121101591ADDAA199000091GF107991071041008001001001KA1240N+02341MA1999999098191MD1999999+0091REMSYN076AAXX  09124 82586 32598 70905 10262 20212 39819 40159 87400 333 20234 58009;EQDQ01  00002PRCP99
0208825860999992002071000004-05200-039300FM-12+021199999V0200501N004112200019N0010001N1+02541+02331101041ADDAA199000091GA1001+999999999GF100991001001999999001001KA1240M+03301MA1999999099061MD1999999+0091REMSYN082AAXX  10004 82586 32994 00508 10254 20233 39906 40104 333 10330 29073 55013 58009;EQDQ01  00002PRCP99
0186825860999992002071012004-05200-039300FM-12+021199999V0200901N004110075019N0200001N1+02641+01161101611ADDAA199000091GF108991081071008001999999KA1240N+02381MA1999999099221MD1999999+0031REMSYN076AAXX  10124 82586 32598 80908 10264 20116 39922 40161 887// 333 20238 58003;EQDQ01  00002PRCP99
0167825860999992002071018004-05200-039300FM-12+021199999V0200501N004610075019N0200001N1+03091+01951101291ADDAA199000091GF106991061041008001001001MA1999999098921MD1999999-0011REMSYN070AAXX  10184 82586 32598 60509 10309 20195 39892 40129 86400 333 59001;EQDQ01  00002PRCP99
0221825860999992002071100004-05200-039300FM-12+021199999V0209999C000010075019N0010001N1+02281+02261101581ADDAY161061AY221061GF108991081051008001999999KA1240M+03221MA1999999099812MD1999999+0121MW1031REMSYN100AAXX  11004 82586 21594 80000 10228 20226 39981 40158 70362 885// 333 10322 29081 55062 58012 60021;EQDQ01+099813APOSP 
0172825860999992002080112004-05200-039300FM-12+021199999V0200901N003112200019N0200001N1+02781+02251999999ADDAA199000091GF104991041051008001001001KA1240N+02111MA1999999098991REMSYN076AAXX  01124 82586 32598 40906 10278 20225 39899 4//// 84500 333 20211 5////;EQDQ01  00002PRCP99
0153825860999992002080118004-05200-039300FM-12+021199999V0200901N003110075019N0200001N1+03281+02001101041ADDAA199000091GF106991061051008001001001MA1999999098681REMSYN070AAXX  01184 82586 32598 60906 10328 20200 39868 40104 86500 333 5////;EQDQ01  00002PRCP99
0194825860999992002080200004-05200-039300FM-12+021199999V0200501N005712200019N0010001N1+02581+02191101261ADDAA199000091GA1001+999999999GF100991001001999999001001KA1240M+03441MA1999999098841REMSYN082AAXX  02004 82586 32994 00511 10258 20219 39884 40126 333 10344 29070 55000 58///;EQDQ01  00002PRCP99
0186825860999992002080212004-05200-039300FM-12+021199999V0200901N002612200019N0200001N1+02761+02211101291ADDAA199000091GF106991041021008001001011KA1240N+02341MA1999999098911MD1999999-0081REMSYN076AAXX  02124 82586 32598 60905 10276 20221 39891 40129 84201 333 20234 59008;EQDQ01  00002PRCP99
0167825860999992002080218004-05200-039300FM-12+021199999V0200901N003110075019N0200001N1+03241+02131101041ADDAA199000091GF108991081071008001999999MA1999999098681MD1999999+0001REMSYN070AAXX  02184 82586 32598 80906 10324 20213 39868 40104 887// 333 58000;EQDQ01  00002PRCP99
0208825860999992002080300004-05200-039300FM-12+021199999V0203601N005112200019N0010001N1+02681+02211101291ADDAA199000091GA1001+999999999GF100991001001999999001001KA1240M+03321MA1999999098921MD1999999+0081REMSYN082AAXX  03004 82586 32994 03610 10268 20221 39892 40129 333 10332 29071 55060 58008;EQDQ01  00002PRCP99
0186825860999992002080312004-05200-039300FM-12+021199999V0201401N003110075019N0200001N1+02741+02171101331ADDAA199000091GF106991061021008001001001KA1240N+02331MA1999999098951MD1999999+0041REMSYN076AAXX  03124 82586 32598 61406 10274 20217 39895 40133 86200 333 20233 58004;EQDQ01  00002PRCP99
0167825860999992002080318004-05200-039300FM-12+021199999V0201401N002612200019N0200001N1+03441+01961100961ADDAA199000091GF102991021011008001001001MA1999999099501MD1999999-0081REMSYN070AAXX  03184 82586 32598 21405 10344 20196 39950 40096 82100 333 59008;EQDQ01  00002PRCP99
0186825860999992002080412004-05200-039300FM-12+021199999V0201401N004612200019N0200001N1+02721+02001101211ADDAA199000091GF102991021011008001001001KA1240N+02241MA1999999098841MD1999999-0111REMSYN076AAXX  04124 82586 32598 21409 10272 20200 39884 40121 82100 333 20224 59011;EQDQ01  00002PRCP99
0167825860999992002080418004-05200-039300FM-12+021199999V0200501N002612200019N0200001N1+03361+01651100931ADDAA199000091GF102991021011008001001001MA1999999098571MD1999999-0031REMSYN070AAXX  04184 82586 32598 20505 10336 20165 39857 40093 82100 333 59003;EQDQ01  00002PRCP99
0208825860999992002080500004-05200-039300FM-12+021199999V0200501N003112200019N0010001N1+02601+02061101291ADDAA199000091GA1001+999999999GF100991001001999999001001KA1240M+03451MA1999999098911MD1999999+0131REMSYN082AAXX  05004 82586 32994 00506 10260 20206 39891 40129 333 10345 29061 55103 58013;EQDQ01  00002PRCP99
0186825860999992002080512004-05200-039300FM-12+021199999V0200901N004112200019N0200001N1+02621+01731101331ADDAA199000091GF102991021011008001001001KA1240N+02141MA1999999098951MD1999999+0111REMSYN076AAXX  05124 82586 32598 20908 10262 20173 39895 40133 82100 333 20214 58011;EQDQ01  00002PRCP99
0167825860999992002080518004-05200-039300FM-12+021199999V0201801N001512200019N0200001N1+03281+01341101051ADDAA199000091GF104991041011008001001001MA1999999098691MD1999999+0121REMSYN070AAXX  05184 82586 32598 41803 10328 20134 39869 40105 84100 333 58012;EQDQ01  00002PRCP99
0208825860999992002080600004-05200-039300FM-12+021199999V0203601N006212200019N0010001N1+02661+01951101171ADDAA199000091GA1001+999999999GF100991001001999999001001KA1240M+03451MA1999999098421MD1999999-0121REMSYN082AAXX  06004 82586 32994 03612 10266 20195 39842 40117 333 10345 29055 55103 59012;EQDQ01  00002PRCP99
0186825860999992002080612004-05200-039300FM-12+021199999V0200501N003112200019N0200001N1+02661+01771101401ADDAA199000091GF102991021011008001001001KA1240N+02121MA1999999099021MD1999999+0071REMSYN076AAXX  06124 82586 32598 20506 10266 20177 39902 40140 82100 333 20212 58007;EQDQ01  00002PRCP99
0167825860999992002080618004-05200-039300FM-12+021199999V0201801N002612200019N0200001N1+03261+01331999999ADDAA199000091GF102991021011008001001001MA1999999098581MD1999999-0111REMSYN070AAXX  06184 82586 32598 21805 10326 20133 39858 4//// 82100 333 59011;EQDQ01  00002PRCP99
0208825860999992002080700004-05200-039300FM-12+021199999V0200501N005112200019N0010001N1+02611+01631101221ADDAA199000091GA1001+999999999GF100991001001999999001001KA1240M+03411MA1999999098841MD1999999+0051REMSYN082AAXX  07004 82586 32994 00510 10261 20163 39884 40122 333 10341 29050 55104 58005;EQDQ01  00002PRCP99
0186825860999992002080712004-05200-039300FM-12+021199999V0200901N003112200019N0200001N1+02681+01781101431ADDAA199000091GF104991041011008001001001KA1240N+02201MA1999999099051MD1999999+0031REMSYN076AAXX  07124 82586 32598 40906 10268 20178 39905 40143 84100 333 20220 58003;EQDQ01  00002PRCP99
0177825860999992002080718004-05200-039300FM-12+021199999V0201401N002612200019N0200001N1+03351+01091101011ADDAA199000091GA1001+999999999GF100991001001999999001001MA1999999098651MD1999999+0071REMSYN064AAXX  07184 82586 32598 01405 10335 20109 39865 40101 333 58007;EQDQ01  00002PRCP99
0208825860999992002080800004-05200-039300FM-12+021199999V0203601N005712200019N0010001N1+02571+01641101211ADDAA199000091GA1001+999999999GF100991001001999999001001KA1240M+03431MA1999999098831MD1999999-0011REMSYN082AAXX  08004 82586 32994 03611 10257 20164 39883 40121 333 10343 29046 55104 59001;EQDQ01  00002PRCP99
0186825860999992002080812004-05200-039300FM-12+021199999V0201401N005110075019N0200001N1+02701+01991101331ADDAA199000091GF105991051011008001001001KA1240N+02181MA1999999098951MD1999999-0101REMSYN076AAXX  08124 82586 32598 51410 10270 20199 39895 40133 85100 333 20218 59010;EQDQ01  00002PRCP99
0167825860999992002080818004-05200-039300FM-12+021199999V0201401N002110075019N0200001N1+03341+01351101031ADDAA199000091GF105991051021008001001001MA1999999098671MD1999999+0021REMSYN070AAXX  08184 82586 32598 51404 10334 20135 39867 40103 85200 333 58002;EQDQ01  00002PRCP99
0208825860999992002080900004-05200-039300FM-12+021199999V02099999999992200019N0010001N1+02681+01891101141ADDAA199000091GA1001+999999999GF100991001001999999001001KA1240M+03441MA1999999098771MD1999999-0061REMSYN082AAXX  09004 82586 32994 036// 10268 20189 39877 40114 333 10344 29055 55104 59006;EQDQ01  00002PRCP99
0190825860999992002080912004-05200-039300FM-12+021199999V0200501N001010075019N0200001N1+02541+02041101361ADDAY151061AY221061GF106991061041008001001001KA1240N+02381MA1999999098981MD1999999+0031MW1031REMSYN088AAXX  09124 82586 21598 60502 10254 20204 39898 40136 70352 86400 333 20238 58003 69934;
0167825860999992002080918004-05200-039300FM-12+021199999V0201401N003110075019N0200001N1+03281+01441101051ADDAA199000091GF106991061021008001001001MA1999999098701MD1999999+0031REMSYN070AAXX  09184 82586 32598 61406 10328 20144 39870 40105 86200 333 58003;EQDQ01  00002PRCP99
0208825860999992002081000004-05200-039300FM-12+021199999V0203601N005112200019N0010001N1+02741+01891101171ADDAA199000091GA1001+999999999GF100991001001999999001001KA1240M+03411MA1999999097422MD1999999+0021REMSYN082AAXX  10004 82586 32994 03610 10274 20189 39742 40117 333 10341 29059 55063 58002;EQDQ01  00002PRCP99
0202825860999992002081012004-05200-039300FM-12+021199999V0200901N003619999999N0200001N1+02701+01801101411ADDAA199000091GF107991999041008001001001KA1240N+02301MA1999999099041MD1999999+0061REMSYN076AAXX  10124 82586 32598 70907 10270 20180 39904 40141 80400 333 20230 58006;EQDQ01+000002SCOTLCQ02  00002PRCP99
0167825860999992002081018004-05200-039300FM-12+021199999V0201401N004612200019N0200001N1+03221+01341101061ADDAA199000091GF102991021011008001001001MA1999999098701MD1999999+0001REMSYN070AAXX  10184 82586 32598 21409 10322 20134 39870 40106 82100 333 58000;EQDQ01  00002PRCP99
0208825860999992002081100004-05200-039300FM-12+021199999V0203601N003112200019N0010001N1+02661+01771101161ADDAA199000091GA1001+999999999GF100991001001999999001001KA1240M+03331MA1999999098791MD1999999+0001REMSYN082AAXX  11004 82586 32994 03606 10266 20177 39879 40116 333 10333 29051 55086 58000;EQDQ01  00002PRCP99
0186825860999992002081112004-05200-039300FM-12+021199999V0201401N005112200019N0200001N1+02661+01851101411ADDAA199000091GF102991021011008001001001KA1240N+02381MA1999999099031MD1999999-0011REMSYN076AAXX  11124 82586 32598 21410 10266 20185 39903 40141 82100 333 20238 59001;EQDQ01  00002PRCP99
0167825860999992002081118004-05200-039300FM-12+021199999V0201401N002612200019N0200001N1+03301+01551101121ADDAA199000091GF102991021011008001001001MA1999999098761MD1999999+0061REMSYN070AAXX  11184 82586 32598 21405 10330 20155 39876 40112 82100 333 58006;EQDQ01  00002PRCP99
0208825860999992002081200004-05200-039300FM-12+021199999V0200501N006212200019N0010001N1+02701+01911101231ADDAA199000091GA1001+999999999GF100991001001999999001001KA1240M+03371MA1999999098861MD1999999+0071REMSYN082AAXX  12004 82586 32994 00512 10270 20191 39886 40123 333 10337 29053 55095 58007;EQDQ01  00002PRCP99
0186825860999992002081212004-05200-039300FM-12+021199999V0200901N004610075019N0200001N1+02701+01911101421ADDAA199000091GF107991071071008001001001KA1240N+02301MA1999999099051MD1999999+0021REMSYN076AAXX  12124 82586 32598 70909 10270 20191 39905 40142 87700 333 20230 58002;EQDQ01  00002PRCP99
0167825860999992002081218004-05200-039300FM-12+021199999V0200901N003112200019N0200001N1+03281+01921101271ADDAA199000091GF102991021021008001001001MA1999999098811MD1999999+0051REMSYN070AAXX  12184 82586 32598 20906 10328 20192 39881 40127 82200 333 58005;EQDQ01  00002PRCP99
0208825860999992002081300004-05200-039300FM-12+021199999V0203601N003112200019N0010001N1+02631+01981101301ADDAA199000091GA1001+999999999GF100991001001999999001001KA1240M+03331MA1999999098921MD1999999+0131REMSYN082AAXX  13004 82586 32994 03606 10263 20198 39892 40130 333 10333 29058 55054 58013;EQDQ01  00002PRCP99
0186825860999992002081312004-05200-039300FM-12+021199999V0200901N004610075019N0200001N1+02561+02061101441ADDAA199000091GF108991081071008001999999KA1240N+02281MA1999999099061MD1999999+0011REMSYN076AAXX  13124 82586 32598 80909 10256 20206 39906 40144 887// 333 20228 58001;EQDQ01  00002PRCP99
0167825860999992002081318004-05200-039300FM-12+021199999V0201401N003112200019N0200001N1+03101+01941101181ADDAA199000091GF102991021011008001001001MA1999999098821MD1999999+0011REMSYN070AAXX  13184 82586 32598 21406 10310 20194 39882 40118 82100 333 58001;EQDQ01  00002PRCP99
0192825860999992002081400004-05200-039300FM-12+021199999V0200501N003612200019N0010001N1+02581+02011101311ADDAA199000091GF102991999999999999999999KA1240M+03211MA1999999098931MD1999999+0011REMSYN082AAXX  14004 82586 32994 20507 10258 20201 39893 40131 333 10321 29065 55059 58001;EQDQ01  00002PRCP99
0186825860999992002081412004-05200-039300FM-12+021199999V0200901N003612200019N0200001N1+02741+01781101501ADDAA199000091GF102991021011008001001001KA1240N+02281MA1999999099121MD1999999+0061REMSYN076AAXX  14124 82586 32598 20907 10274 20178 39912 40150 82100 333 20228 58006;EQDQ01  00002PRCP99
0167825860999992002081418004-05200-039300FM-12+021199999V0200901N003112200019N0200001N1+03361+01141101121ADDAA199000091GF102991021011008001001001MA1999999098761MD1999999-0061REMSYN070AAXX  14184 82586 32598 20906 10336 20114 39876 40112 82100 333 59006;EQDQ01  00002PRCP99
0208825860999992002081500004-05200-039300FM-12+021199999V0200501N002112200019N0010001N1+02601+01761101261ADDAA199000091GA1001+999999999GF100991001001999999001001KA1240M+03431MA1999999098881MD1999999-0051REMSYN082AAXX  15004 82586 32994 00504 10260 20176 39888 40126 333 10343 29051 55105 59005;EQDQ01  00002PRCP99
0186825860999992002081512004-05200-039300FM-12+021199999V0200901N005112200019N0200001N1+02861+01841101441ADDAA199000091GF102991021011008001001001KA1240N+02141MA1999999099071MD1999999-0051REMSYN076AAXX  15124 82586 32598 20910 10286 20184 39907 40144 82100 333 20214 59005;EQDQ01  00002PRCP99
0167825860999992002081518004-05200-039300FM-12+021199999V0200901N004612200019N0200001N1+03401+01451101161ADDAA199000091GF104991041011008001001001MA1999999098801MD1999999+0041REMSYN070AAXX  15184 82586 32598 40909 10340 20145 39880 40116 84100 333 58004;EQDQ01  00002PRCP99
0224825860999992002081600004-05200-039300FM-12+021199999V0200501N003112200019N0010001N1+02631+02181101301ADDAA199000091GA1001+999999999GF100991001001999999001001KA1240M+99999MA1999999098931MD1999999+0051REMSYN082AAXX  16004 82586 32994 00506 10263 20218 39893 40130 333 10243 29060 55107 58005;EQDQ01  00002PRCP99Q02 +02432ATMX  
0186825860999992002081612004-05200-039300FM-12+021199999V0200901N003612200019N0200001N1+02801+01921101431ADDAA199000091GF104991041011008001001001KA1240N+02401MA1999999099061MD1999999-0011REMSYN076AAXX  16124 82586 32598 40907 10280 20192 39906 40143 84100 333 20240 59001;EQDQ01  00002PRCP99
0177825860999992002081618004-05200-039300FM-12+021199999V0201401N005112200019N0010001N1+03411+01061101031ADDAA199000091GA1001+999999999GF100991001001999999001001MA1999999098731MD1999999-0031REMSYN064AAXX  16184 82586 32994 01410 10341 20106 39873 40103 333 59003;EQDQ01  00002PRCP99
0198825860999992002081700004-05200-039300FM-12+021199999V0200501N001512200019N0010001N1+02841+01271101191ADDAA199000091GF102991021011008001001001KA1240M+03501MA1999999098871MD1999999-0101REMSYN088AAXX  17004 82586 32594 20503 10284 20127 39887 40119 82100 333 10350 29040 55105 59010;EQDQ01  00002PRCP99
0225825860999992002081712004-05200-039300FM-12+021199999V0201401N005119999999N0040001N1+02301+02251101701ADDAY161061AY261061GF108991999021008001001001KA1240N+02141MA1999999999999MD1999999+0011MW1151REMSYN088AAXX  17124 82586 21596 81410 10230 20225 30096 40170 71566 84200 333 20214 58001 60404;EQDQ01+000042SCOTLCQ02 100963APOSP 
0199825860999992002081718004-05200-039300FM-12+021199999V0200901N004119999999N0200001N1+03321+01331101061ADDAA199000091GF105991999021008001001001MA1999999098702MD1999999-0031REMSYN070AAXX  17184 82586 32598 50908 10332 20133 39870 40106 84200 333 59003;EQDQ01+000042SCOTLCQ02+098703APOSP Q03  00002PRCP99
0198825860999992002081800004-05200-039300FM-12+021199999V0200901N003112200019N0010001N1+02901+02101101181ADDAA199000091GF104991041021008001001001KA1240M+03411MA1999999098821MD1999999-0011REMSYN088AAXX  18004 82586 32594 40906 10290 20210 39882 40118 84200 333 10341 29041 55096 59001;EQDQ01  00002PRCP99
0186825860999992002081812004-05200-039300FM-12+021199999V0201401N003110075019N0200001N1+02781+01881101361ADDAA199000091GF105991051021008001001001KA1240N+02351MA1999999098971MD1999999-0051REMSYN076AAXX  18124 82586 32598 51406 10278 20188 39897 40136 85200 333 20235 59005;EQDQ01  00002PRCP99
0167825860999992002081818004-05200-039300FM-12+021199999V0200901N003610075019N0200001N1+03231+01571101041ADDAA199000091GF106991061051008001001001MA1999999098681MD1999999-0021REMSYN070AAXX  18184 82586 32598 60907 10323 20157 39868 40104 86500 333 59002;EQDQ01  00002PRCP99
0208825860999992002081900004-05200-039300FM-12+021199999V0203601N001512200019N0010001N1+02801+01691101141ADDAA199000091GA1001+999999999GF100991001001999999001001KA1240M+03291MA1999999098781MD1999999-0041REMSYN082AAXX  19004 82586 32994 03603 10280 20169 39878 40114 333 10329 29049 55083 59004;EQDQ01  00002PRCP99
0186825860999992002081912004-05200-039300FM-12+021199999V0200901N004612200019N0200001N1+02781+01731101321ADDAA199000091GF103991031011008001001001KA1240N+02201MA1999999098951MD1999999-0021REMSYN076AAXX  19124 82586 32598 30909 10278 20173 39895 40132 83100 333 20220 59002;EQDQ01  00002PRCP99
0167825860999992002081918004-05200-039300FM-12+021199999V0201401N003112200019N0200001N1+03411+01121101121ADDAA199000091GF102991021011008001001001MA1999999098771MD1999999+0091REMSYN070AAXX  19184 82586 32598 21406 10341 20112 39877 40112 82100 333 58009;EQDQ01  00002PRCP99
0208825860999992002082000004-05200-039300FM-12+021199999V0209999C000012200019N0010001N1+02841+01351101191ADDAA199000091GA1001+999999999GF100991001001999999001001KA1240M+03501MA1999999098831MD1999999+0051REMSYN082AAXX  20004 82586 32994 00000 10284 20135 39883 40119 333 10350 29042 55106 58005;EQDQ01  00002PRCP99
0186825860999992002082012004-05200-039300FM-12+021199999V0201401N004112200019N0200001N1+02721+01821101321ADDAA199000091GF103991031011008001001001KA1240N+02281MA1999999098951MD1999999+0001REMSYN076AAXX  20124 82586 32598 31408 10272 20182 39895 40132 83100 333 20228 58000;EQDQ01  00002PRCP99
0167825860999992002082018004-05200-039300FM-12+021199999V0200901N003110075019N0200001N1+03341+01451100981ADDAA199000091GF106991061021008001001001MA1999999098631MD1999999-0141REMSYN070AAXX  20184 82586 32598 60906 10334 20145 39863 40098 86200 333 59014;EQDQ01  00002PRCP99
0198825860999992002082100004-05200-039300FM-12+021199999V0200501N003112200019N0010001N1+02821+01581101171ADDAA199000091GF102991021011008001001001KA1240M+03461MA1999999098811MD1999999-0021REMSYN088AAXX  21004 82586 32594 20506 10282 20158 39881 40117 82100 333 10346 29045 55092 59002;EQDQ01  00002PRCP99
0167825860999992002082118004-05200-039300FM-12+021199999V0201401N003110075019N0200001N1+03301+01461101091ADDAA199000091GF106991061021008001001001MA1999999098731MD1999999+0101REMSYN070AAXX  21184 82586 32598 61406 10330 20146 39873 40109 86200 333 58010;EQDQ01  00002PRCP99
0208825860999992002082200004-05200-039300FM-12+021199999V0203601N005112200019N0010001N1+02661+02091101231ADDAA199000091GA1001+999999999GF100991001001999999001001KA1240M+03421MA1999999098881MD1999999+0071REMSYN082AAXX  22004 82586 32994 03610 10266 20209 39888 40123 333 10342 29058 55101 58007;EQDQ01  00002PRCP99
0186825860999992002082212004-05200-039300FM-12+021199999V0200901N004612200019N0200001N1+02781+01731101401ADDAA199000091GF101991011011008001001001KA1240N+02241MA1999999099031MD1999999+0021REMSYN076AAXX  22124 82586 32598 10909 10278 20173 39903 40140 81100 333 20224 58002;EQDQ01  00002PRCP99
0167825860999992002082218004-05200-039300FM-12+021199999V0200901N003112200019N0200001N1+03401+01181101041ADDAA199000091GF102991021011008001001001MA1999999098681MD1999999-0051REMSYN070AAXX  22184 82586 32598 20906 10340 20118 39868 40104 82100 333 59005;EQDQ01  00002PRCP99
0198825860999992002082300004-05200-039300FM-12+021199999V0203601N006212200019N0010001N1+02651+01851101131ADDAA199000091GF103991031051008001001001KA1240M+03511MA1999999098751MD1999999-0121REMSYN088AAXX  23004 82586 32594 33612 10265 20185 39875 40113 83500 333 10351 29051 55106 59012;EQDQ01  00002PRCP99
0186825860999992002082312004-05200-039300FM-12+021199999V0200901N003610075019N0200001N1+02801+02081101271ADDAA199000091GF106991061041008001001001KA1240N+02381MA1999999098901MD1999999-0131REMSYN076AAXX  23124 82586 32598 60907 10280 20208 39890 40127 86400 333 20238 59013;EQDQ01  00002PRCP99
0167825860999992002082318004-05200-039300FM-12+021199999V0201401N003112200019N0200001N1+03241+01041101041ADDAA199000091GF104991041011008001001001MA1999999098681MD1999999+0001REMSYN070AAXX  23184 82586 32598 41406 10324 20104 39868 40104 84100 333 58000;EQDQ01  00002PRCP99
0198825860999992002082400004-05200-039300FM-12+021199999V0200501N003112200019N0010001N1+02731+01771101081ADDAA199000091GF104991041011008001001001KA1240M+03371MA1999999098721MD1999999-0041REMSYN088AAXX  24004 82586 32594 40506 10273 20177 39872 40108 84100 333 10337 29052 55084 59004;EQDQ01  00002PRCP99
0186825860999992002082412004-05200-039300FM-12+021199999V02099999999992200019N0200001N1+02801+01601101241ADDAA199000091GF104991041021008001001001KA1240N+02121MA1999999098871MD1999999-0031REMSYN076AAXX  24124 82586 32598 4//// 10280 20160 39887 40124 84200 333 20212 59003;EQDQ01  00002PRCP99
0167825860999992002082418004-05200-039300FM-12+021199999V02099999999992200019N0200001N1+03361+00961100971ADDAA199000091GF101991011011008001001001MA1999999098571MD1999999-0111REMSYN070AAXX  24184 82586 32598 1//// 10336 20096 39857 40097 81100 333 59011;EQDQ01  00002PRCP99
0208825860999992002082500004-05200-039300FM-12+021199999V0203601N004112200019N0010001N1+02621+01621101091ADDAA199000091GA1001+999999999GF100991001001999999001001KA1240M+03441MA1999999098731MD1999999+0011REMSYN082AAXX  25004 82586 32994 03608 10262 20162 39873 40109 333 10344 29046 55107 58001;EQDQ01  00002PRCP99
0202825860999992002082512004-05200-039300FM-12+021199999V0201801N003112200019N0200001N1+02621+01811101291ADDAA199000091GF104991999011008001001001KA1240N+02101MA1999999098921MD1999999+0051REMSYN076AAXX  25124 82586 32598 41806 10262 20181 39892 40129 82100 333 20210 58005;EQDQ01+000022SCOTLCQ02  00002PRCP99
0199825860999992002082518004-05200-039300FM-12+021199999V0200901N001512200019N0200001N1+03361+01161100941ADDAA199000091GF102991021011008001001001MA1999999999999MD1999999+0001REMSYN070AAXX  25184 82586 32598 20903 10336 20116 39584 40094 82100 333 58000;EQDQ01+095843APOSP Q02  00002PRCP99Q03 095843APOSP 
0208825860999992002082600004-05200-039300FM-12+021199999V02099999999992200019N0010001N1+02741+01761101081ADDAA199000091GA1001+999999999GF100991001001999999001001KA1240M+03451MA1999999098721MD1999999-0011REMSYN082AAXX  26004 82586 32994 0//// 10274 20176 39872 40108 333 10345 29049 55107 59001;EQDQ01  00002PRCP99
0186825860999992002082612004-05200-039300FM-12+021199999V0200901N004112200019N0200001N1+02801+01751101261ADDAA199000091GF104991041021008001001001KA1240N+02201MA1999999098891MD1999999-0031REMSYN076AAXX  26124 82586 32598 40908 10280 20175 39889 40126 84200 333 20220 59003;EQDQ01  00002PRCP99
0167825860999992002082618004-05200-039300FM-12+021199999V0201401N003112200019N0200001N1+03491+01121100991ADDAA199000091GF101991011011008001001001MA1999999098651MD1999999+0081REMSYN070AAXX  26184 82586 32598 11406 10349 20112 39865 40099 81100 333 58008;EQDQ01  00002PRCP99
0208825860999992002082700004-05200-039300FM-12+021199999V0200501N006212200019N0010001N1+02741+01511101071ADDAA199000091GA1001+999999999GF100991001001999999001001KA1240M+03561MA1999999098711MD1999999-0021REMSYN082AAXX  27004 82586 32994 00512 10274 20151 39871 40107 333 10356 29043 55107 59002;EQDQ01  00002PRCP99
0186825860999992002082712004-05200-039300FM-12+021199999V0201401N002610075019N0200001N1+02421+01991101301ADDAA199000091GF107991071071008001001001KA1240N+02181MA1999999098921MD1999999+0031REMSYN076AAXX  27124 82586 32598 71405 10242 20199 39892 40130 87700 333 20218 58003;EQDQ01  00002PRCP99
0167825860999992002082718004-05200-039300FM-12+021199999V0200901N002612200019N0200001N1+03361+01361101011ADDAA199000091GF104991041011008001001001MA1999999098651MD1999999+0001REMSYN070AAXX  27184 82586 32598 40905 10336 20136 39865 40101 84100 333 58000;EQDQ01  00002PRCP99
0208825860999992002082800004-05200-039300FM-12+021199999V0200501N003112200019N0010001N1+02761+01321101071ADDAA199000091GA1001+999999999GF100991001001999999001001KA1240M+03441MA1999999098701MD1999999-0011REMSYN082AAXX  28004 82586 32994 00506 10276 20132 39870 40107 333 10344 29048 55079 59001;EQDQ01  00002PRCP99
0186825860999992002082812004-05200-039300FM-12+021199999V0201801N003112200019N0200001N1+02821+01611101131ADDAA199000091GF102991021021008001001001KA1240N+02351MA1999999098771MD1999999-0151REMSYN076AAXX  28124 82586 32598 21806 10282 20161 39877 40113 82200 333 20235 59015;EQDQ01  00002PRCP99
0167825860999992002082818004-05200-039300FM-12+021199999V0201801N003612200019N0200001N1+03461+01171100811ADDAA199000091GF101991011011008001001001MA1999999098471MD1999999-0181REMSYN070AAXX  28184 82586 32598 11807 10346 20117 39847 40081 81100 333 59018;EQDQ01  00002PRCP99
0208825860999992002082900004-05200-039300FM-12+021199999V0200501N003112200019N0010001N1+02761+01321101071ADDAA199000091GA1001+999999999GF100991001001999999001001KA1240M+03441MA1999999098701MD1999999-0011REMSYN082AAXX  29004 82586 32994 00506 10276 20132 39870 40107 333 10344 29048 55079 59001;EQDQ01  00002PRCP99
0186825860999992002082912004-05200-039300FM-12+021199999V0200901N005112200019N0200001N1+02761+01621101231ADDAA199000091GF102991021011008001001001KA1240N+02161MA1999999098871MD1999999+0101REMSYN076AAXX  29124 82586 32598 20910 10276 20162 39887 40123 82100 333 20216 58010;EQDQ01  00002PRCP99
0177825860999992002082918004-05200-039300FM-12+021199999V0201401N003112200019N0200001N1+03491+00991100781ADDAA106000091GA1001+999999999GF100991001001999999001001MA1999999098441MD1999999-0031REMSYN064AAXX  29184 82586 32598 01406 10349 20099 39844 40078 333 59003;EQDQ01  00002PRCP06
0208825860999992002083000004-05200-039300FM-12+021199999V0203601N002112200019N0010001N1+02631+01961100921ADDAA106000091GA1001+999999999GF100991001001999999001001KA1240M+03511MA1999999098611MD1999999+0021REMSYN082AAXX  30004 82586 32594 03604 10263 20196 39861 40092 333 10351 29052 55105 58002;EQDQ01  00002PRCP06
0186825860999992002083012004-05200-039300FM-12+021199999V0200901N003112200019N0200001N1+02821+01721101121ADDAA106000091GF102991021011008001001001KA1240N+02301MA1999999098751MD1999999-0121REMSYN076AAXX  30124 82586 32598 20906 10282 20172 39875 40112 82100 333 20230 59012;EQDQ01  00002PRCP06
0161825860999992002083018004-05200-039300FM-12+021199999V0200901N004112200019N0010001N1+03411+01121100811ADDAA106000091GF103991999999999999999999MA1999999098471MD1999999+0031REMSYN064AAXX  30184 82586 32994 30908 10341 20112 39847 40081 333 58003;EQDQ01  00002PRCP06
0186825860999992002083112004-05200-039300FM-12+021199999V0200901N003612200019N0200001N1+02821+01771101201ADDAA106000091GF103991031021008001001001KA1240N+02321MA1999999098831MD1999999+0081REMSYN076AAXX  31124 82586 32598 30907 10282 20177 39883 40120 83200 333 20232 58008;EQDQ01  00002PRCP06
0167825860999992002083118004-05200-039300FM-12+021199999V0200901N003112200019N0200001N1+03461+01231100861ADDAA106000091GF102991021011008001001001MA1999999098521MD1999999+0051REMSYN070AAXX  31184 82586 32598 20906 10346 20123 39852 40086 82100 333 58005;EQDQ01  00002PRCP06
0208825860999992002090100004-05200-039300FM-12+021199999V0203601N005112200019N0010001N1+02041+01781101131ADDAA106000091GA1001+999999999GF100991001001999999001001KA1240M+03551MA1999999098771MD1999999+0111REMSYN082AAXX  01004 82586 32994 03610 10204 20178 39877 40113 333 10355 29048 55095 58011;EQDQ01  00002PRCP06
0186825860999992002090112004-05200-039300FM-12+021199999V0200901N006212200019N0200001N1+02801+01841101131ADDAA106000091GF104991041011008001001001KA1240N+02301MA1999999098771MD1999999-0061REMSYN076AAXX  01124 82586 32598 40912 10280 20184 39877 40113 84100 333 20230 59006;EQDQ01  00002PRCP06
0167825860999992002090118004-05200-039300FM-12+021199999V0201401N002612200019N0020001N1+03441+01501100741ADDAA106000091GF104991041011008001001001MA1999999098441MD1999999-0121REMSYN070AAXX  01184 82586 32595 41405 10344 20150 39844 40074 84100 333 59012;EQDQ01  00002PRCP06
0208825860999992002090200004-05200-039300FM-12+021199999V0203601N004112200019N0010001N1+02691+02031100931ADDAA106000091GA1001+999999999GF100991001001999999001001KA1240M+03511MA1999999098571MD1999999-0201REMSYN082AAXX  02004 82586 32994 03608 10269 20203 39857 40093 333 10351 29056 55105 59020;EQDQ01  00002PRCP06
0186825860999992002090212004-05200-039300FM-12+021199999V0200901N004110075019N0200001N1+02741+01951101221ADDAA106000091GF106991061041008001001001KA1240N+02241MA1999999098851MD1999999+0081REMSYN076AAXX  02124 82586 32598 60908 10274 20195 39885 40122 86400 333 20224 58008;EQDQ01  00002PRCP06
0167825860999992002090218004-05200-039300FM-12+021199999V0200501N003112200019N0200001N1+03461+01411100821ADDAA106000091GF101991011011008001001001MA1999999098481MD1999999+0081REMSYN070AAXX  02184 82586 32598 10506 10346 20141 39848 40082 81100 333 58008;EQDQ01  00002PRCP06
0208825860999992002090300004-05200-039300FM-12+021199999V02099999999992200019N0010001N1+02631+01781100991ADDAA106000091GA1001+999999999GF100991001001999999001001KA1240M+03561MA1999999098631MD1999999+0091REMSYN082AAXX  03004 82586 32994 036// 10263 20178 39863 40099 333 10356 29053 55102 58009;EQDQ01  00002PRCP06
0186825860999992002090312004-05200-039300FM-12+021199999V0200501N003110075019N0200001N1+02681+02201101311ADDAA106000091GF106991061071008001001001KA1240N+02341MA1999999098931MD1999999+0081REMSYN076AAXX  03124 82586 32598 60506 10268 20220 39893 40131 86700 333 20234 58008;EQDQ01  00002PRCP06
0167825860999992002090318004-05200-039300FM-12+021199999V0200501N003112200019N0200001N1+03461+01731100921ADDAA106000091GF102991021011008001001001MA1999999098571MD1999999+0091REMSYN070AAXX  03184 82586 32598 20506 10346 20173 39857 40092 82100 333 58009;EQDQ01  00002PRCP06
0208825860999992002090400004-05200-039300FM-12+021199999V0203601N005112200019N0010001N1+02581+02151101201ADDAA106000091GA1001+999999999GF100991001001999999001001KA1240M+03561MA1999999098821MD1999999+0191REMSYN082AAXX  04004 82586 32994 03610 10258 20215 39882 40120 333 10356 29066 55093 58019;EQDQ01  00002PRCP06
0186825860999992002090412004-05200-039300FM-12+021199999V0200501N003110075019N0200001N1+02621+01891101391ADDAA106000091GF107991071071008001001001KA1240N+02441MA1999999099011MD1999999+0081REMSYN076AAXX  04124 82586 32598 70506 10262 20189 39901 40139 87700 333 20244 58008;EQDQ01  00002PRCP06
0167825860999992002090418004-05200-039300FM-12+021199999V0200901N003110075019N0200001N1+03281+01531101031ADDAA106000091GF106991061041008001001001MA1999999098671MD1999999+0101REMSYN070AAXX  04184 82586 32598 60906 10328 20153 39867 40103 86400 333 58010;EQDQ01  00002PRCP06
0208825860999992002090500004-05200-039300FM-12+021199999V0200301N031422200019N0020001N1+02601+02031101201ADDAA106000091GA1001+999999999GF100991001001999999001001KA1240M+03411MA1999999098821MD1999999+0001REMSYN082AAXX  05004 82586 32995 00361 10260 20203 39882 40120 333 10341 29060 55078 58000;EQDQ01  00002PRCP06
0186825860999992002090512004-05200-039300FM-12+021199999V0200901N003112200019N0200001N1+02701+01751101401ADDAA106000091GF102991021011008001001001KA1240N+02241MA1999999099021MD1999999+0021REMSYN076AAXX  05124 82586 32598 20906 10270 20175 39902 40140 82100 333 20224 58002;EQDQ01  00002PRCP06
0208825860999992002090600004-05200-039300FM-12+021199999V0203601N002612200019N0010001N1+02661+01591101141ADDAA106000091GA1001+999999999GF100991001001999999001001KA1240M+03501MA1999999098771MD1999999-0051REMSYN082AAXX  06004 82586 32994 03605 10266 20159 39877 40114 333 10350 29046 55094 59005;EQDQ01  00002PRCP06
0186825860999992002090612004-05200-039300FM-12+021199999V0200901N005112200019N0200001N1+02781+01821101391ADDAA106000091GF103991031011008001001001KA1240N+02181MA1999999099021MD1999999+0001REMSYN076AAXX  06124 82586 32598 30910 10278 20182 39902 40139 83100 333 20218 58000;EQDQ01  00002PRCP06
0167825860999992002090618004-05200-039300FM-12+021199999V0201401N003112200019N0200001N1+03431+01201100911ADDAA106000091GF103991031011008001001001MA1999999098551MD1999999-0071REMSYN070AAXX  06184 82586 32598 31406 10343 20120 39855 40091 83100 333 59007;EQDQ01  00002PRCP06
0208825860999992002090700004-05200-039300FM-12+021199999V0203601N005112200019N0010001N1+02661+01771101091ADDAA106000091GA1001+999999999GF100991001001999999001001KA1240M+03531MA1999999098731MD1999999-0041REMSYN082AAXX  07004 82586 32994 03610 10266 20177 39873 40109 333 10353 29050 55104 59004;EQDQ01  00002PRCP06
0186825860999992002090712004-05200-039300FM-12+021199999V0200901N003110075019N0200001N1+02621+02051101301ADDAA106000091GF106991061041008001001001KA1240N+02301MA1999999098921MD1999999-0101REMSYN076AAXX  07124 82586 32598 60906 10262 20205 39892 40130 86400 333 20230 59010;EQDQ01  00002PRCP06
0167825860999992002090718004-05200-039300FM-12+021199999V0200901N005112200019N0200001N1+03381+01481100981ADDAA106000091GF103991031021008001001001MA1999999098621MD1999999+0071REMSYN070AAXX  07184 82586 32598 30910 10338 20148 39862 40098 83200 333 58007;EQDQ01  00002PRCP06
0208825860999992002090800004-05200-039300FM-12+021199999V0200501N005712200019N0010001N1+02701+02011101151ADDAA106000091GA1001+999999999GF100991001001999999001001KA1240M+03511MA1999999098771MD1999999+0041REMSYN082AAXX  08004 82586 32994 00511 10270 20201 39877 40115 333 10351 29059 55103 58004;EQDQ01  00002PRCP06
0186825860999992002090812004-05200-039300FM-12+021199999V0200901N003112200019N0200001N1+02821+01771101291ADDAA106000091GF102991021011008001001001KA1240N+02321MA1999999098921MD1999999+0001REMSYN076AAXX  08124 82586 32598 20906 10282 20177 39892 40129 82100 333 20232 58000;EQDQ01  00002PRCP06
0167825860999992002090818004-05200-039300FM-12+021199999V0201401N003112200019N0200001N1+03491+01411100881ADDAA106000091GF102991021011008001001001MA1999999098541MD1999999-0081REMSYN070AAXX  08184 82586 32598 21406 10349 20141 39854 40088 82100 333 59008;EQDQ01  00002PRCP06
0208825860999992002090900004-05200-039300FM-12+021199999V02099999999992200019N0010001N1+02721+02081101031ADDAA106000091GA1001+999999999GF100991001001999999001001KA1240M+03591MA1999999098671MD1999999-0101REMSYN082AAXX  09004 82586 32994 036// 10272 20208 39867 40103 333 10359 29055 55105 59010;EQDQ01  00002PRCP06
0186825860999992002090912004-05200-039300FM-12+021199999V0200901N006710075019N0200001N1+02741+01841101341ADDAA106000091GF106991061021008001001001KA1240N+02381MA1999999098971MD1999999+0051REMSYN076AAXX  09124 82586 32598 60913 10274 20184 39897 40134 86200 333 20238 58005;EQDQ01  00002PRCP06
0167825860999992002090918004-05200-039300FM-12+021199999V0200901N003112200019N0200001N1+03361+01461101031ADDAA106000091GF104991041021008001001001MA1999999098681MD1999999+0141REMSYN070AAXX  09184 82586 32598 40906 10336 20146 39868 40103 84200 333 58014;EQDQ01  00002PRCP06
0208825860999992002091000004-05200-039300FM-12+021199999V0203601N004112200019N0010001N1+02621+02071101151ADDAA106000091GA1001+999999999GF100991001001999999001001KA1240M+03501MA1999999098781MD1999999+0111REMSYN082AAXX  10004 82586 32994 03608 10262 20207 39878 40115 333 10350 29059 55092 58011;EQDQ01  00002PRCP06
0186825860999992002091012004-05200-039300FM-12+021199999V02099999999992200019N0200001N1+02801+01601101341ADDAA106000091GF102991021011008001001001KA1240N+02221MA1999999098971MD1999999+0001REMSYN076AAXX  10124 82586 32598 2//// 10280 20160 39897 40134 82100 333 20222 58000;EQDQ01  00002PRCP06
0167825860999992002091018004-05200-039300FM-12+021199999V02099999999992200019N0200001N1+03401+01291101041ADDAA106000091GF102991021021008001001001MA1999999098691MD1999999+0011REMSYN070AAXX  10184 82586 32598 2//// 10340 20129 39869 40104 82200 333 58001;EQDQ01  00002PRCP06
0198825860999992002091100004-05200-039300FM-12+021199999V0200501N005112200019N0010001N1+02701+02011101141ADDAA106000091GF104991041021008001001001KA1240M+03501MA1999999098781MD1999999+0001REMSYN088AAXX  11004 82586 32594 40510 10270 20201 39878 40114 84200 333 10350 29052 55105 58000;EQDQ01  00002PRCP06
0186825860999992002091112004-05200-039300FM-12+021199999V0200901N003612200019N0200001N1+02901+01621101281ADDAA106000091GF103991031011008001001001KA1240N+02261MA1999999098921MD1999999-0051REMSYN076AAXX  11124 82586 32598 30907 10290 20162 39892 40128 83100 333 20226 59005;EQDQ01  00002PRCP06
0167825860999992002091118004-05200-039300FM-12+021199999V0200901N001512200019N0200001N1+03261+01231101001ADDAA106000091GF104991041021008001001001MA1999999098641MD1999999-0041REMSYN070AAXX  11184 82586 32598 40903 10326 20123 39864 40100 84200 333 59004;EQDQ01  00002PRCP06
0208825860999992002091200004-05200-039300FM-12+021199999V0200501N003612200019N0010001N1+02661+02291101121ADDAA106000091GA1001+999999999GF100991001001999999001001KA1240M+03451MA1999999098761MD1999999-0021REMSYN082AAXX  12004 82586 32994 00507 10266 20229 39876 40112 333 10345 29054 55098 59002;EQDQ01  00002PRCP06
0186825860999992002091212004-05200-039300FM-12+021199999V0201401N003612200019N0200001N1+02721+01951101241ADDAA106000091GF104991041011008001001001KA1240N+02301MA1999999098871MD1999999-0051REMSYN076AAXX  12124 82586 32598 41407 10272 20195 39887 40124 84100 333 20230 59005;EQDQ01  00002PRCP06
0167825860999992002091218004-05200-039300FM-12+021199999V0201401N003112200019N0200001N1+03541+01041100821ADDAA106000091GF102991021011008001001001MA1999999098481MD1999999-0161REMSYN070AAXX  12184 82586 32598 21406 10354 20104 39848 40082 82100 333 59016;EQDQ01  00002PRCP06
0208825860999992002091300004-05200-039300FM-12+021199999V0200501N006212200019N0010001N1+02661+01771100971ADDAA106000091GA1001+999999999GF100991001001999999001001KA1240M+03621MA1999999098621MD1999999-0011REMSYN082AAXX  13004 82586 32994 00512 10266 20177 39862 40097 333 10362 29050 55103 59001;EQDQ01  00002PRCP06
0186825860999992002091312004-05200-039300FM-12+021199999V0200901N004612200019N0200001N1+02761+01801101141ADDAA106000091GF104991041021008001001001KA1240N+02321MA1999999098771MD1999999-0101REMSYN076AAXX  13124 82586 32598 40909 10276 20180 39877 40114 84200 333 20232 59010;EQDQ01  00002PRCP06
0167825860999992002091318004-05200-039300FM-12+021199999V02099999999992200019N0200001N1+03411+01501100811ADDAA106000091GF104991041021008001001001MA1999999098471MD1999999-0011REMSYN070AAXX  13184 82586 32598 414// 10341 20150 39847 40081 84200 333 59001;EQDQ01  00002PRCP06
0208825860999992002091400004-05200-039300FM-12+021199999V02099999999992200019N0010001N1+02631+01861100991ADDAA106000091GA1001+999999999GF100991001001999999001001KA1240M+03511MA1999999098631MD1999999+0011REMSYN082AAXX  14004 82586 32994 036// 10263 20186 39863 40099 333 10351 29057 55101 58001;EQDQ01  00002PRCP06
0202825860999992002091412004-05200-039300FM-12+021199999V02099999999992200019N0200001N1+02751+01821101241ADDAA106000091GF101991999011008001011001KA1240N+02221MA1999999098871MD1999999+0101REMSYN076AAXX  14124 82586 32598 1//// 10275 20182 39887 40124 88110 333 20222 58010;EQDQ01+000082SCOTLCQ02  00002PRCP06
0177825860999992002091418004-05200-039300FM-12+021199999V02099999999992200019N0010001N1+03561+01371100821ADDAA106000091GA1001+999999999GF100991001001999999001001MA1999999098481MD1999999+0011REMSYN064AAXX  14184 82586 32994 0//// 10356 20137 39848 40082 333 58001;EQDQ01  00002PRCP06
0208825860999992002091500004-05200-039300FM-12+021199999V0203601N005112200019N0010001N1+02541+02111101051ADDAA106000091GA1001+999999999GF100991001001999999001001KA1240M+03611MA1999999098681MD1999999+0051REMSYN082AAXX  15004 82586 32994 03610 10254 20211 39868 40105 333 10361 29059 55105 58005;EQDQ01  00002PRCP06
0186825860999992002091512004-05200-039300FM-12+021199999V0200501N003112200019N0200001N1+02761+01801101311ADDAA106000091GF103991031011008001001001KA1240N+02301MA1999999098931MD1999999+0061REMSYN076AAXX  15124 82586 32598 30506 10276 20180 39893 40131 83100 333 20230 58006;EQDQ01  00002PRCP06
0208825860999992002091600004-05200-039300FM-12+021199999V0203601N003112200019N0010001N1+02541+02111101111ADDAA106000091GA1001+999999999GF100991001001999999001001KA1240M+03571MA1999999098741MD1999999+0061REMSYN082AAXX  16004 82586 32994 03606 10254 20211 39874 40111 333 10357 29061 55105 58006;EQDQ01  00002PRCP06
0186825860999992002091612004-05200-039300FM-12+021199999V0200901N004110075019N0200001N1+02521+02021101071ADDAA106000091GF108991081071008001999999KA1240N+02321MA1999999099071MD1999999+0141REMSYN076AAXX  16124 82586 32598 80908 10252 20202 39907 40107 887// 333 20232 58014;EQDQ01  00002PRCP06
0167825860999992002091618004-05200-039300FM-12+021199999V0200501N003112200019N0200001N1+03341+01481101141ADDAA106000091GF104991041021008001001001MA1999999098781MD1999999+0251REMSYN070AAXX  16184 82586 32598 40506 10334 20148 39878 40114 84200 333 58025;EQDQ01  00002PRCP06
0208825860999992002091700004-05200-039300FM-12+021199999V0203601N005112200019N0010001N1+02571+02041101301ADDAA106000091GA1001+999999999GF100991001001999999001001KA1240M+03421MA1999999098921MD1999999+0181REMSYN082AAXX  17004 82586 32994 03610 10257 20204 39892 40130 333 10342 29063 55055 58018;EQDQ01  00002PRCP06
0186825860999992002091712004-05200-039300FM-12+021199999V0200901N008212200019N0200001N1+02841+01791101451ADDAA199000091GF104991041011008001001001KA1240N+02201MA1999999099081MD1999999+0011REMSYN076AAXX  17124 82586 32598 40916 10284 20179 39908 40145 84100 333 20220 58001;EQDQ01  00002PRCP99
0167825860999992002091718004-05200-039300FM-12+021199999V0201401N005712200019N0200001N1+03401+01501101041ADDAA106000091GF104991041021008001001001MA1999999098691MD1999999-0091REMSYN070AAXX  17184 82586 32598 41411 10340 20150 39869 40104 84200 333 59009;EQDQ01  00002PRCP06
0208825860999992002091800004-05200-039300FM-12+021199999V0203601N003112200019N0010001N1+02681+02111101191ADDAA106000091GA1001+999999999GF100991001001999999001001KA1240M+03491MA1999999098831MD1999999-0091REMSYN082AAXX  18004 82586 32994 03606 10268 20211 39883 40119 333 10349 29058 55096 59009;EQDQ01  00002PRCP06
0186825860999992002091812004-05200-039300FM-12+021199999V0201401N003110075019N0200001N1+02701+01961101321ADDAA106000091GF106991061041008001001001KA1240N+02261MA1999999098951MD1999999-0131REMSYN076AAXX  18124 82586 32598 61406 10270 20196 39895 40132 86400 333 20226 59013;EQDQ01  00002PRCP06
0167825860999992002091818004-05200-039300FM-12+021199999V0201401N002612200019N0200001N1+03411+01181100931ADDAA106000091GF104991041021008001001001MA1999999098571MD1999999-0121REMSYN070AAXX  18184 82586 32598 41405 10341 20118 39857 40093 84200 333 59012;EQDQ01  00002PRCP06
0214825860999992002091900004-05200-039300FM-12+021199999V0203601N004112200019N0010001N1+02721+01981101051ADDAA106000091GF101991999011008001001001KA1240M+03541MA1999999098691MD1999999-0141REMSYN088AAXX  19004 82586 32594 13608 10272 20198 39869 40105 82100 333 10354 29055 55091 59014;EQDQ01+000022SCOTLCQ02  00002PRCP06
0186825860999992002091912004-05200-039300FM-12+021199999V0201401N004112200019N0200001N1+02921+01641101261ADDAA106000091GF102991021011008001001001KA1240N+02321MA1999999098901MD1999999-0051REMSYN076AAXX  19124 82586 32598 21408 10292 20164 39890 40126 82100 333 20232 59005;EQDQ01  00002PRCP06
0167825860999992002091918004-05200-039300FM-12+021199999V0200901N003112200019N0200001N1+03441+01271100911ADDAA106000091GF103991031011008001001001MA1999999098551MD1999999-0021REMSYN070AAXX  19184 82586 32598 30906 10344 20127 39855 40091 83100 333 59002;EQDQ01  00002PRCP06
0208825860999992002092000004-05200-039300FM-12+021199999V0203601N003112200019N0010001N1+02741+02051101041ADDAA106000091GA1001+999999999GF100991001001999999001001KA1240M+03531MA1999999098681MD1999999-0011REMSYN082AAXX  20004 82586 32994 03606 10274 20205 39868 40104 333 10353 29051 55104 59001;EQDQ01  00002PRCP06
0186825860999992002092012004-05200-039300FM-12+021199999V0200901N003112200019N0200001N1+02741+01951101231ADDAA106000091GF101991011011008001001001KA1240N+02281MA1999999098861MD1999999-0041REMSYN076AAXX  20124 82586 32598 10906 10274 20195 39886 40123 81100 333 20228 59004;EQDQ01  00002PRCP06
0167825860999992002092018004-05200-039300FM-12+021199999V0201401N001512200019N0200001N1+03511+01261100911ADDAA106000091GF102991021011008001001001MA1999999098571MD1999999+0021REMSYN070AAXX  20184 82586 32598 21403 10351 20126 39857 40091 82100 333 58002;EQDQ01  00002PRCP06
0208825860999992002092100004-05200-039300FM-12+021199999V0202601N005112200019N0010001N1+02661+02021101081ADDAA106000091GA1001+999999999GF100991001001999999001001KA1240M+03601MA1999999098721MD1999999+0041REMSYN082AAXX  21004 82586 32994 02610 10266 20202 39872 40108 333 10360 29056 55088 58004;EQDQ01  00002PRCP06
0186825860999992002092112004-05200-039300FM-12+021199999V0200901N003112200019N0200001N1+02741+01951101271ADDAA106000091GF103991031021008001001001KA1240N+02361MA1999999098901MD1999999+0041REMSYN076AAXX  21124 82586 32598 30906 10274 20195 39890 40127 83200 333 20236 58004;EQDQ01  00002PRCP06
0167825860999992002092118004-05200-039300FM-12+021199999V0200501N001512200019N0200001N1+03581+01391100821ADDAA106000091GF102991011011008001001041MA1999999098481MD1999999-0091REMSYN070AAXX  21184 82586 32598 20503 10358 20139 39848 40082 81104 333 59009;EQDQ01  00002PRCP06
0208825860999992002092200004-05200-039300FM-12+021199999V0203601N004112200019N0010001N1+02621+01981101081ADDAA106000091GA1001+999999999GF100991001001999999001001KA1240M+03681MA1999999098691MD1999999-0031REMSYN082AAXX  22004 82586 32994 03608 10262 20198 39869 40108 333 10368 29056 55092 59003;EQDQ01  00002PRCP06
0186825860999992002092212004-05200-039300FM-12+021199999V0200901N003112200019N0200001N1+02711+02051101311ADDAA106000091GF104991041021008001001001KA1240N+02421MA1999999098931MD1999999+0031REMSYN076AAXX  22124 82586 32598 40906 10271 20205 39893 40131 84200 333 20242 58003;EQDQ01  00002PRCP06
0167825860999992002092218004-05200-039300FM-12+021199999V0200901N001512200019N0200001N1+03431+02611100881ADDAA106000091GF103991031021008001001001MA1999999098541MD1999999+0061REMSYN070AAXX  22184 82586 32598 30903 10343 20261 39854 40088 83200 333 58006;EQDQ01  00002PRCP06
0208825860999992002092300004-05200-039300FM-12+021199999V0203601N006212200019N0010001N1+02601+01961101051ADDAA106000091GA1001+999999999GF100991001001999999001001KA1240M+03681MA1999999098651MD1999999-0041REMSYN082AAXX  23004 82586 32994 03612 10260 20196 39865 40105 333 10368 29059 55080 59004;EQDQ01  00002PRCP06
0186825860999992002092312004-05200-039300FM-12+021199999V0200501N003110075019N0200001N1+02821+02081101181ADDAA106000091GF107991071071008001001001KA1240N+02401MA1999999098821MD1999999-0111REMSYN076AAXX  23124 82586 32598 70506 10282 20208 39882 40118 87700 333 20240 59011;EQDQ01  00002PRCP06
0167825860999992002092318004-05200-039300FM-12+021199999V0200901N003112200019N0200001N1+03441+01671100801ADDAA106000091GF103991031021008001001001MA1999999098461MD1999999-0081REMSYN070AAXX  23184 82586 32598 30906 10344 20167 39846 40080 83200 333 59008;EQDQ01  00002PRCP06
0208825860999992002092400004-05200-039300FM-12+021199999V0203601N005112200019N0010001N1+02601+02121100941ADDAA106000091GA1001+999999999GF100991001001999999001001KA1240M+03561MA1999999098581MD1999999-0071REMSYN082AAXX  24004 82586 32994 03610 10260 20212 39858 40094 333 10356 29063 55089 59007;EQDQ01  00002PRCP06
0186825860999992002092412004-05200-039300FM-12+021199999V0200501N004612200019N0200001N1+02741+02121101151ADDAA106000091GF104991041021008001001001KA1240N+02381MA1999999098771MD1999999-0051REMSYN076AAXX  24124 82586 32598 40509 10274 20212 39877 40115 84200 333 20238 59005;EQDQ01  00002PRCP06
0167825860999992002092418004-05200-039300FM-12+021199999V0200501N003110075019N0200001N1+03401+01591100811ADDAA106000091GF105991051021008001001001MA1999999098471MD1999999+0011REMSYN070AAXX  24184 82586 32598 50506 10340 20159 39847 40081 85200 333 58001;EQDQ01  00002PRCP06
0208825860999992002092500004-05200-039300FM-12+021199999V0203601N004112200019N0010001N1+02611+01941100941ADDAA106000091GA1001+999999999GF100991001001999999001001KA1240M+03501MA1999999098581MD1999999+0001REMSYN082AAXX  25004 82586 32994 03608 10261 20194 39858 40094 333 10350 29059 55072 58000;EQDQ01  00002PRCP06
0186825860999992002092512004-05200-039300FM-12+021199999V0200501N003110075019N0200001N1+02801+02001101161ADDAA106000091GF105991051021008001001001KA1240N+02261MA1999999098791MD1999999+0021REMSYN076AAXX  25124 82586 32598 50506 10280 20200 39879 40116 85200 333 20226 58002;EQDQ01  00002PRCP06
0167825860999992002092518004-05200-039300FM-12+021199999V0200901N003112200019N0200001N1+03541+01111100751ADDAA106000091GF102991021011008001001001MA1999999098411MD1999999-0061REMSYN070AAXX  25184 82586 32598 20906 10354 20111 39841 40075 82100 333 59006;EQDQ01  00002PRCP06
0208825860999992002092600004-05200-039300FM-12+021199999V0203601N006212200019N0010001N1+02701+01911100931ADDAA106000091GA1001+999999999GF100991001001999999001001KA1240M+03631MA1999999098571MD1999999-0011REMSYN082AAXX  26004 82586 32994 03612 10270 20191 39857 40093 333 10363 29052 55094 59001;EQDQ01  00002PRCP06
0186825860999992002092612004-05200-039300FM-12+021199999V0200501N003110075019N0200001N1+02821+01861101121ADDAA106000091GF106991061021008001001001KA1240N+02301MA1999999098761MD1999999-0031REMSYN076AAXX  26124 82586 32598 60506 10282 20186 39876 40112 86200 333 20230 59003;EQDQ01  00002PRCP06
0167825860999992002092618004-05200-039300FM-12+021199999V0200501N004612200019N0200001N1+03561+01431100761ADDAA106000091GF102991021011008001001001MA1999999098421MD1999999+0011REMSYN070AAXX  26184 82586 32598 20509 10356 20143 39842 40076 82100 333 58001;EQDQ01  00002PRCP06
0186825860999992002092712004-05200-039300FM-12+021199999V0200501N009312200019N0200001N1+02861+01781101241ADDAA106000091GF104991041011008001001001KA1240N+02361MA1999999098871MD1999999+0111REMSYN076AAXX  27124 82586 32598 40518 10286 20178 39887 40124 84100 333 20236 58011;EQDQ01  00002PRCP06
0167825860999992002092718004-05200-039300FM-12+021199999V0200901N002612200019N0200001N1+03491+01361100851ADDAA106000091GF102991021011008001001001MA1999999098511MD1999999+0091REMSYN070AAXX  27184 82586 32598 20905 10349 20136 39851 40085 82100 333 58009;EQDQ01  00002PRCP06
0208825860999992002092800004-05200-039300FM-12+021199999V0203601N005112200019N0010001N1+02621+01961101061ADDAA106000091GA1001+999999999GF100991001001999999001001KA1240M+03571MA1999999098701MD1999999+0141REMSYN082AAXX  28004 82586 32994 03610 10262 20196 39870 40106 333 10357 29054 55101 58014;EQDQ01  00002PRCP06
0202825860999992002092812004-05200-039300FM-12+021199999V0200501N001519999999N0200001N1+02761+01991101241ADDAA106000091GF106991999021008001001001KA1240N+02341MA1999999098971MD1999999+0001REMSYN076AAXX  28124 82586 32598 60503 10276 20199 39897 40124 83200 333 20234 58000;EQDQ01+000032SCOTLCQ02  00002PRCP06
0167825860999992002092818004-05200-039300FM-12+021199999V02099999999992200019N0200001N1+03491+01481100681ADDAA106000091GF104991041011008001001001MA1999999098521MD1999999+0011REMSYN070AAXX  28184 82586 32598 414// 10349 20148 39852 40068 84100 333 58001;EQDQ01  00002PRCP06
0208825860999992002092900004-05200-039300FM-12+021199999V02099999999992200019N0010001N1+02531+02171101051ADDAA106000091GA1001+999999999GF100991001001999999001001KA1240M+03591MA1999999098681MD1999999-0021REMSYN082AAXX  29004 82586 32994 005// 10253 20217 39868 40105 333 10359 29064 55088 59002;EQDQ01  00002PRCP06
0186825860999992002092912004-05200-039300FM-12+021199999V0209999C000010075019N0200001N1+02711+01911101251ADDAA106000091GF106991061041008001001001KA1240N+02231MA1999999098871MD1999999+0001REMSYN076AAXX  29124 82586 32598 60000 10271 20191 39887 40125 86400 333 20223 58000;EQDQ01  00002PRCP06
0167825860999992002092918004-05200-039300FM-12+021199999V0200901N004612200019N0200001N1+03481+01411100911ADDAA106000091GF104991041021008001001001MA1999999098561MD1999999-0041REMSYN070AAXX  29184 82586 32598 40909 10348 20141 39856 40091 84200 333 59004;EQDQ01  00002PRCP06
0208825860999992002093000004-05200-039300FM-12+021199999V0200501N005712200019N0010001N1+02601+02031101031ADDAA106000091GA1001+999999999GF100991001001999999001001KA1240M+03501MA1999999098661MD1999999-0021REMSYN082AAXX  30004 82586 32994 00511 10260 20203 39866 40103 333 10350 29059 55103 59002;EQDQ01  00002PRCP06
0186825860999992002093012004-05200-039300FM-12+021199999V0200901N004610075019N0200001N1+02741+01951101261ADDAA106000091GF105991051021008001001001KA1240N+02261MA1999999098891MD1999999+0021REMSYN076AAXX  30124 82586 32598 50909 10274 20195 39889 40126 85200 333 20226 58002;EQDQ01  00002PRCP06
0167825860999992002093018004-05200-039300FM-12+021199999V0201401N003112200019N0200001N1+03401+01411100981ADDAA106000091GF102991021011008001001001MA1999999098621MD1999999+0061REMSYN070AAXX  30184 82586 32598 21406 10340 20141 39862 40098 82100 333 58006;EQDQ01  00002PRCP06
0208825860999992002100100004-05200-039300FM-12+021199999V0203601N004112200019N0010001N1+02731+01491101121ADDAA106000091GA1001+999999999GF100991001001999999001001KA1240M+03501MA1999999098731MD1999999+0101REMSYN082AAXX  01004 82586 32994 03608 10273 20149 39873 40112 333 10350 29047 55104 58010;EQDQ01  00002PRCP06
0186825860999992002100112004-05200-039300FM-12+021199999V0201401N003612200019N0200001N1+02901+01621101291ADDAA106000091GF101991011011008001001001KA1240N+02221MA1999999098931MD1999999+0041REMSYN076AAXX  01124 82586 32598 11407 10290 20162 39893 40129 81100 333 20222 58004;EQDQ01  00002PRCP06
0167825860999992002100118004-05200-039300FM-12+021199999V0201401N003112200019N0200001N1+03531+01221100791ADDAA106000091GF102991021011008001001001MA1999999098451MD1999999-0171REMSYN070AAXX  01184 82586 32598 21406 10353 20122 39845 40079 82100 333 59017;EQDQ01  00002PRCP06
0208825860999992002100200004-05200-039300FM-12+021199999V0203601N005112200019N0010001N1+02761+01941101101ADDAA106000091GA1001+999999999GF100991001001999999001001KA1240M+03631MA1999999098741MD1999999-0021REMSYN082AAXX  02004 82586 32994 03610 10276 20194 39874 40110 333 10363 29048 55104 59002;EQDQ01  00002PRCP06
0186825860999992002100212004-05200-039300FM-12+021199999V0200501N002610075019N0200001N1+02901+02121101181ADDAA106000091GF106991061041008001001001KA1240N+02381MA1999999098821MD1999999-0111REMSYN076AAXX  02124 82586 32598 60505 10290 20212 39882 40118 86400 333 20238 59011;EQDQ01  00002PRCP06
0167825860999992002100218004-05200-039300FM-12+021199999V0200501N003112200019N0200001N1+03581+01701100811ADDAA106000091GF104991041021008001001001MA1999999098471MD1999999+0021REMSYN070AAXX  02184 82586 32598 40506 10358 20170 39847 40081 84200 333 58002;EQDQ01  00002PRCP06
0208825860999992002100300004-05200-039300FM-12+021199999V0200501N004612200019N0010001N1+02661+02221101041ADDAA106000091GA1001+999999999GF100991001001999999001001KA1240M+03671MA1999999098681MD1999999-0021REMSYN082AAXX  03004 82586 32994 00509 10266 20222 39868 40104 333 10367 29063 55102 59002;EQDQ01  00002PRCP06
0190825860999992002100312004-05200-039300FM-12+021199999V0200501N005710075019N0200001N1+02901+02021101111ADDAY151061AY221061GF105991051021008001001001KA1240N+02341MA1999999098751MD1999999-0071MW1031REMSYN088AAXX  03124 82586 21598 50511 10290 20202 39875 40111 70352 85200 333 20234 59007 69944;
0167825860999992002100318004-05200-039300FM-12+021199999V0201401N003112200019N0200001N1+03531+01601100741ADDAA106000091GF104991041011008001001001MA1999999098401MD1999999-0071REMSYN070AAXX  03184 82586 32598 41406 10353 20160 39840 40074 84100 333 59007;EQDQ01  00002PRCP06
0208825860999992002100400004-05200-039300FM-12+021199999V0200501N006712200019N0010001N1+02651+02071100921ADDAA106000091GA1001+999999999GF100991001001999999001001KA1240M+03611MA1999999098561MD1999999-0121REMSYN082AAXX  04004 82586 32994 00513 10265 20207 39856 40092 333 10361 29058 55102 59012;EQDQ01  00002PRCP06
0209825860999992002100412004-05200-039300FM-12+021199999V0200501N003119999999N0200001N1+02601+01891101231ADDAY161061AY251061GF107991999071008001999999KA1240N+02261MA1999999098851MD1999999+0101MW1031REMSYN088AAXX  04124 82586 21598 70506 10260 20189 39885 40123 70365 887// 333 20226 58010 60014;EQDQ01+000082SCOTLC
0167825860999992002100418004-05200-039300FM-12+021199999V0200901N003112200019N0200001N1+03441+01431100831ADDAA106000091GF102991021011008001001001MA1999999098481MD1999999+0081REMSYN070AAXX  04184 82586 32598 20906 10344 20143 39848 40083 82100 333 58008;EQDQ01  00002PRCP06
0208825860999992002100500004-05200-039300FM-12+021199999V0200501N003112200019N0010001N1+02621+02071100951ADDAA106000091GA1001+999999999GF100991001001999999001001KA1240M+03531MA1999999098681MD1999999+0021REMSYN082AAXX  05004 82586 32994 00506 10262 20207 39868 40095 333 10353 29060 55078 58002;EQDQ01  00002PRCP06
0186825860999992002100512004-05200-039300FM-12+021199999V0200501N003112200019N0200001N1+02781+01821101161ADDAA106000091GF104991041021008001001001KA1240N+02421MA1999999098791MD1999999-0061REMSYN076AAXX  05124 82586 32598 40506 10278 20182 39879 40116 84200 333 20242 59006;EQDQ01  00002PRCP06
0167825860999992002100518004-05200-039300FM-12+021199999V0200901N003112200019N0200001N1+03511+01261100811ADDAA106000091GF102991021011008001001001MA1999999098471MD1999999-0011REMSYN070AAXX  05184 82586 32598 20906 10351 20126 39847 40081 82100 333 59001;EQDQ01  00002PRCP06
0208825860999992002100600004-05200-039300FM-12+021199999V0203601N006712200019N0010001N1+02621+01661100941ADDAA106000091GA1001+999999999GF100991001001999999001001KA1240M+03561MA1999999098681MD1999999+0001REMSYN082AAXX  06004 82586 32994 03613 10262 20166 39868 40094 333 10356 29054 55094 58000;EQDQ01  00002PRCP06
0186825860999992002100612004-05200-039300FM-12+021199999V0201401N005110075019N0200001N1+02841+01881101171ADDAA106000091GF106991061041008001001001KA1240N+02411MA1999999098811MD1999999+0021REMSYN076AAXX  06124 82586 32598 61410 10284 20188 39881 40117 86400 333 20241 58002;EQDQ01  00002PRCP06
0167825860999992002100618004-05200-039300FM-12+021199999V02099999999992200019N0200001N1+03451+01271100821ADDAA106000091GF103991031011008001001001MA1999999098481MD1999999+0011REMSYN070AAXX  06184 82586 32598 305// 10345 20127 39848 40082 83100 333 58001;EQDQ01  00002PRCP06
0208825860999992002100700004-05200-039300FM-12+021199999V0203601N005112200019N0010001N1+02701+01861100971ADDAA106000091GA1001+999999999GF100991001001999999001001KA1240M+03121MA1999999098581MD1999999+0001REMSYN082AAXX  07004 82586 32994 03610 10270 20186 39858 40097 333 10312 29051 55100 58000;EQDQ01  00002PRCP06
0186825860999992002100712004-05200-039300FM-12+021199999V0200501N004112200019N0200001N1+02861+01781101091ADDAA106000091GF102991021011008001001001KA1240N+02321MA1999999098731MD1999999-0081REMSYN076AAXX  07124 82586 32598 20508 10286 20178 39873 40109 82100 333 20232 59008;EQDQ01  00002PRCP06
0167825860999992002100718004-05200-039300FM-12+021199999V0200901N005112200019N0200001N1+03491+01361100771ADDAA106000091GF103991031011008001001001MA1999999098431MD1999999-0051REMSYN070AAXX  07184 82586 32598 30910 10349 20136 39843 40077 83100 333 59005;EQDQ01  00002PRCP06
0208825860999992002100800004-05200-039300FM-12+021199999V0203601N006212200019N0010001N1+02681+00091100921ADDAA106000091GA1001+999999999GF100991001001999999001001KA1240M+03631MA1999999098561MD1999999-0021REMSYN082AAXX  08004 82586 32994 03612 10268 20009 39856 40092 333 10363 29055 55106 59002;EQDQ01  00002PRCP06
0186825860999992002100812004-05200-039300FM-12+021199999V0200501N005110075019N0200001N1+02821+01931101111ADDAA106000091GF106991061041008001001001KA1240N+02421MA1999999098751MD1999999+0021REMSYN076AAXX  08124 82586 32598 60510 10282 20193 39875 40111 86400 333 20242 58002;EQDQ01  00002PRCP06
0167825860999992002100818004-05200-039300FM-12+021199999V0200901N005112200019N0200001N1+03491+01411100831ADDAA106000091GF104991041021008001001001MA1999999098491MD1999999+0061REMSYN070AAXX  08184 82586 32598 40910 10349 20141 39849 40083 84200 333 58006;EQDQ01  00002PRCP06
0186825860999992002100912004-05200-039300FM-12+021199999V0200501N004610075019N0200001N1+02901+01811101071ADDAA106000091GF106991061021008001001001KA1240N+02321MA1999999098711MD1999999-0041REMSYN076AAXX  09124 82586 32598 60509 10290 20181 39871 40107 86200 333 20232 59004;EQDQ01  00002PRCP06
0208825860999992002101000004-05200-039300FM-12+021199999V0203601N005112200019N0010001N1+02661+02221100981ADDAA106000091GA1001+999999999GF100991001001999999001001KA1240M+03601MA1999999098621MD1999999+0031REMSYN082AAXX  10004 82586 32994 03610 10266 20222 39862 40098 333 10360 29058 55101 58003;EQDQ01  00002PRCP06
0186825860999992002101012004-05200-039300FM-12+021199999V0200501N005112200019N0200001N1+02821+01801101161ADDAA106000091GF106991041021008001001011KA1240N+02401MA1999999098771MD1999999+0061REMSYN076AAXX  10124 82586 32598 60510 10282 20180 39877 40116 84201 333 20240 58006;EQDQ01  00002PRCP06
0167825860999992002101018004-05200-039300FM-12+021199999V0201401N003112200019N0200001N1+03501+01321100781ADDAA106000091GF106991021011008001001011MA1999999098441MD1999999-0031REMSYN070AAXX  10184 82586 32598 61406 10350 20132 39844 40078 82101 333 59003;EQDQ01  00002PRCP06
0208825860999992002101100004-05200-039300FM-12+021199999V0200501N006712200019N0010001N1+02631+02031100931ADDAA106000091GA1001+999999999GF100991001001999999001001KA1240M+03601MA1999999098571MD1999999-0051REMSYN082AAXX  11004 82586 32994 00513 10263 20203 39857 40093 333 10360 29055 55088 59005;EQDQ01  00002PRCP06
0186825860999992002101112004-05200-039300FM-12+021199999V0200501N003112200019N0200001N1+02881+01531101201ADDAA106000091GF101991011011008001001001KA1240N+02341MA1999999098841MD1999999+0071REMSYN076AAXX  11124 82586 32598 10506 10288 20153 39884 40120 81100 333 20234 58007;EQDQ01  00002PRCP06
0177825860999992002101118004-05200-039300FM-12+021199999V0201401N003112200019N0200001N1+03541+01111100811ADDAA106000091GA1001+999999999GF100991001001999999001001MA1999999098471MD1999999+0031REMSYN064AAXX  11184 82586 32998 01406 10354 20111 39847 40081 333 58003;EQDQ01  00002PRCP06
0208825860999992002101200004-05200-039300FM-12+021199999V0200501N005712200019N0010001N1+02581+01941100991ADDAA106000091GA1001+999999999GF100991001001999999001001KA1240M+03631MA1999999098631MD1999999+0061REMSYN082AAXX  12004 82586 32994 00511 10258 20194 39863 40099 333 10363 29051 55107 58006;EQDQ01  00002PRCP06
0202825860999992002101212004-05200-039300FM-12+021199999V02099999999999999999N0200001N1+02841+01631101191ADDAA106000091GF106991999011008001001001KA1240N+02341MA1999999098821MD1999999-0021REMSYN076AAXX  12124 82586 32598 6//// 10284 20163 39882 40119 81100 333 20234 59002;EQDQ01+000012SCOTLCQ02  00002PRCP06
0177825860999992002101218004-05200-039300FM-12+021199999V0200901N003112200019N0010001N1+03461+01231100821ADDAA106000091GA1001+999999999GF100991001001999999001001MA1999999098531MD1999999+0061REMSYN064AAXX  12184 82586 32994 00906 10346 20123 39853 40082 333 58006;EQDQ01  00002PRCP06
0208825860999992002101300004-05200-039300FM-12+021199999V0200501N005112200019N0020001N1+02701+02001101031ADDAA106000091GA1001+999999999GF100991001001999999001001KA1240M+03531MA1999999098671MD1999999+0041REMSYN082AAXX  13004 82586 32995 00510 10270 20200 39867 40103 333 10353 29051 55106 58004;EQDQ01  00002PRCP06
0202825860999992002101312004-05200-039300FM-12+021199999V0200901N003612200019N0200001N1+02901+01751101161ADDAA106000091GF101991999011008001001001KA1240N+02381MA1999999098801MD1999999-0021REMSYN076AAXX  13124 82586 32598 10907 10290 20175 39880 40116 82100 333 20238 59002;EQDQ01+000022SCOTLCQ02  00002PRCP06
0167825860999992002101318004-05200-039300FM-12+021199999V02099999999992200019N0200001N1+03491+01361100791ADDAA106000091GF105991011011008001001041MA1999999098451MD1999999-0081REMSYN070AAXX  13184 82586 32598 5//// 10349 20136 39845 40079 81104 333 59008;EQDQ01  00002PRCP06
0208825860999992002101400004-05200-039300FM-12+021199999V0200501N004112200019N0010001N1+02611+02031101031ADDAA106000091GA1001+999999999GF100991001001999999001001KA1240M+03541MA1999999098671MD1999999+0001REMSYN082AAXX  14004 82586 32994 00508 10261 20203 39867 40103 333 10354 29055 55108 58000;EQDQ01  00002PRCP06
0186825860999992002101412004-05200-039300FM-12+021199999V0200501N004612200019N0200001N1+02801+01751101181ADDAA106000091GF104991041011008001001001KA1240N+02281MA1999999098811MD1999999+0011REMSYN076AAXX  14124 82586 32598 40509 10280 20175 39881 40118 84100 333 20228 58001;EQDQ01  00002PRCP06
0167825860999992002101418004-05200-039300FM-12+021199999V0201401N003612200019N0200001N1+03621+01111100811ADDAA106000091GF103991031011008001001001MA1999999098471MD1999999+0021REMSYN070AAXX  14184 82586 32598 31407 10362 20111 39847 40081 83100 333 58002;EQDQ01  00002PRCP06
0208825860999992002101500004-05200-039300FM-12+021199999V0200501N003112200019N0010001N1+02661+02001100931ADDAA106000091GA1001+999999999GF100991001001999999001001KA1240M+03711MA1999999098571MD1999999-0101REMSYN082AAXX  15004 82586 32994 00506 10266 20200 39857 40093 333 10371 29051 55109 59010;EQDQ01  00002PRCP06
0167825860999992002101518004-05200-039300FM-12+021199999V0200501N003112200019N0200001N1+03471+01551100791ADDAA106000091GF104991041021008001001001MA1999999098451MD1999999-0021REMSYN070AAXX  15184 82586 32598 40506 10347 20155 39845 40079 84200 333 59002;EQDQ01  00002PRCP06
0208825860999992002101600004-05200-039300FM-12+021199999V0200501N005712200019N0010001N1+02701+02241100901ADDAA106000091GA1001+999999999GF100991001001999999001001KA1240M+03531MA1999999098541MD1999999-0031REMSYN082AAXX  16004 82586 32994 00511 10270 20224 39854 40090 333 10353 29062 55086 59003;EQDQ01  00002PRCP06
0186825860999992002101612004-05200-039300FM-12+021199999V02099999999992200019N0200001N1+02921+01981101141ADDAA106000091GF104991041021008001001001KA1240N+02461MA1999999098781MD1999999-0011REMSYN076AAXX  16124 82586 32598 4//// 10292 20198 39878 40114 84200 333 20246 59001;EQDQ01  00002PRCP06
0167825860999992002101618004-05200-039300FM-12+021199999V02099999999992200019N0200001N1+03561+01531100771ADDAA106000091GF104991041011008001001001MA1999999098431MD1999999-0021REMSYN070AAXX  16184 82586 32598 4//// 10356 20153 39843 40077 84100 333 59002;EQDQ01  00002PRCP06
0193825860999992002101700004-05200-039300FM-12+021199999V0203601N006212200019N0010001N1+02741+02071100931ADDAA106000091GA1001+999999999GF100991001001999999001001KA1240M+03641MA1999999098571REMSYN081AAXX  17004 82586 32994 03612 10274 20207 39857 40093 333 10364 29055 5100 58003;EQDQ01  00002PRCP06
0186825860999992002101712004-05200-039300FM-12+021199999V0200501N003612200019N0200001N1+02921+01891101091ADDAA106000091GF102991021011008001001011KA1240N+02301MA1999999098731MD1999999-0051REMSYN076AAXX  17124 82586 32598 20507 10292 20189 39873 40109 82101 333 20230 59005;EQDQ01  00002PRCP06
0167825860999992002101718004-05200-039300FM-12+021199999V0201401N003112200019N0200001N1+03541+01351100681ADDAA106000091GF104991041011008001001001MA1999999098341MD1999999-0091REMSYN070AAXX  17184 82586 32598 41406 10354 20135 39834 40068 84100 333 59009;EQDQ01  00002PRCP06
0208825860999992002101800004-05200-039300FM-12+021199999V0200501N003612200019N0010001N1+02721+02241100821ADDAA106000091GA1001+999999999GF100991001001999999001001KA1240M+03651MA1999999098471MD1999999-0101REMSYN082AAXX  18004 82586 32994 00507 10272 20224 39847 40082 333 10365 29058 55104 59010;EQDQ01  00002PRCP06
0186825860999992002101812004-05200-039300FM-12+021199999V0200501N004612200019N0200001N1+02981+01891101041ADDAA106000091GF102991021011008001001001KA1240N+02341MA1999999098681MD1999999-0051REMSYN076AAXX  18124 82586 32598 20509 10298 20189 39868 40104 82100 333 20234 59005;EQDQ01  00002PRCP06
0167825860999992002101818004-05200-039300FM-12+021199999V0200901N003112200019N0200001N1+03641+01191100621ADDAA106000091GF102991021011008001001001MA1999999098291MD1999999-0051REMSYN070AAXX  18184 82586 32598 20906 10364 20119 39829 40062 82100 333 59005;EQDQ01  00002PRCP06
0208825860999992002101900004-05200-039300FM-12+021199999V0203601N006212200019N0010001N1+02661+02091100831ADDAA106000091GA1001+999999999GF100991001001999999001001KA1240M+03211MA1999999098481MD1999999+0011REMSYN082AAXX  19004 82586 32994 03612 10266 20209 39848 40083 333 10321 29054 55110 58001;EQDQ01  00002PRCP06
0186825860999992002101912004-05200-039300FM-12+021199999V0200501N005110075019N0200001N1+02901+01811999999ADDAA106000091GF106991061041008001001001KA1240N+02401MA1999999098661MD1999999-0021REMSYN076AAXX  19124 82586 32598 60510 10290 20181 39866 40902 86400 333 20240 59002;EQDQ01  00002PRCP06
0167825860999992002101918004-05200-039300FM-12+021199999V0201401N005112200019N0200001N1+03491+01301100631ADDAA106000091GF106991041021008001001041MA1999999098301MD1999999+0011REMSYN070AAXX  19184 82586 32598 61410 10349 20130 39830 40063 84204 333 58001;EQDQ01  00002PRCP06
0198825860999992002102000004-05200-039300FM-12+021199999V0203601N005119999999N0010001N1+02681+02131100831ADDAA106000091GF106991001001999999001041KA1240M+03601MA1999999098481MD1999999+0001REMSYN088AAXX  20004 82586 32994 63610 10268 20213 39848 40083 80004 333 10360 29056 55100 58000;EQDQ01  00002PRCP06
0202825860999992002102012004-05200-039300FM-12+021199999V0201401N005712200019N0200001N1+02931+01671100971ADDAA106000091GF104991999011008001001001KA1240N+02321MA1999999098611MD1999999-0051REMSYN076AAXX  20124 82586 32598 41411 10293 20167 39861 40097 82100 333 20232 59005;EQDQ01+000022SCOTLCQ02  00002PRCP06
0167825860999992002102018004-05200-039300FM-12+021199999V0200901N004110075019N0200001N1+03451+01431100651ADDAA106000091GF106991061021008001001001MA1999999098311MD1999999+0011REMSYN070AAXX  20184 82586 32598 60908 10345 20143 39831 40065 86200 333 58001;EQDQ01  00002PRCP06
0208825860999992002102100004-05200-039300FM-12+021199999V0200501N005112200019N0010001N1+02611+02061100831ADDAA106000091GA1001+999999999GF100991001001999999001001KA1240M+03551MA1999999098471MD1999999-0011REMSYN082AAXX  21004 82586 32594 00510 10261 20206 39847 40083 333 10355 29055 55102 59001;EQDQ01  00002PRCP06
0186825860999992002102112004-05200-039300FM-12+021199999V0200501N021112200019N0200001N1+02901+01811101061ADDAA106000091GF104991041021008001001001KA1240N+02341MA1999999098701MD1999999+0091REMSYN076AAXX  21124 82586 32598 40541 10290 20181 39870 40106 84200 333 20234 58009;EQDQ01  00002PRCP06
0167825860999992002102118004-05200-039300FM-12+021199999V0201401N005112200019N0200001N1+03441+01431100791ADDAA106000091GF103991031011008001001001MA1999999098451MD1999999+0141REMSYN070AAXX  21184 82586 32598 31410 10344 20143 39845 40079 83100 333 58014;EQDQ01  00002PRCP06
0208825860999992002102200004-05200-039300FM-12+021199999V0200501N005112200019N0010001N1+02871+01651100921ADDAA106000091GA1001+999999999GF100991001001999999001001KA1240M+03551MA1999999098571MD1999999+0101REMSYN082AAXX  22004 82586 32994 00510 10287 20165 39857 40092 333 10355 29045 55098 58010;EQDQ01  00002PRCP06
0186825860999992002102212004-05200-039300FM-12+021199999V0200501N005112200019N0200001N1+02941+01911101101ADDAA106000091GF104991031011008001001011KA1240N+02381MA1999999098751MD1999999+0051REMSYN076AAXX  22124 82586 32598 40510 10294 20191 39875 40110 83101 333 20238 58005;EQDQ01  00002PRCP06
0167825860999992002102218004-05200-039300FM-12+021199999V0200901N005112200019N0200001N1+03621+01421100761ADDAA106000091GF105991041011008001001041MA1999999098421MD1999999-0031REMSYN070AAXX  22184 82586 32598 50910 10362 20142 39842 40076 84104 333 59003;EQDQ01  00002PRCP06
0208825860999992002102300004-05200-039300FM-12+021199999V0200501N005712200019N0010001N1+02901+02101100901ADDAA106000091GA1001+999999999GF100991001001999999001001KA1240M+03711MA1999999098551MD1999999-0021REMSYN082AAXX  23004 82586 32994 00511 10290 20210 39855 40090 333 10371 29051 55105 59002;EQDQ01  00002PRCP06
0186825860999992002102312004-05200-039300FM-12+021199999V0200501N005110075019N0200001N1+02821+02021101071ADDAA106000091GF106991061021008001001001KA1240N+02481MA1999999098711MD1999999-0041REMSYN076AAXX  23124 82586 32598 60510 10282 20202 39871 40107 86200 333 20248 59004;EQDQ01  00002PRCP06
0167825860999992002102318004-05200-039300FM-12+021199999V0200501N005112200019N0200001N1+03631+01421100661ADDAA106000091GF102991021011008001001001MA1999999098331MD1999999-0091REMSYN070AAXX  23184 82586 32598 20510 10363 20142 39833 40066 82100 333 59009;EQDQ01  00002PRCP06
0208825860999992002102400004-05200-039300FM-12+021199999V0203601N005112200019N0010001N1+02721+02121100841ADDAA106000091GA1001+999999999GF100991001001999999001001KA1240M+03731MA1999999098481MD1999999-0071REMSYN082AAXX  24004 82586 32994 03610 10272 20212 39848 40084 333 10373 29057 55097 59007;EQDQ01  00002PRCP06
0186825860999992002102412004-05200-039300FM-12+021199999V0200501N006212200019N0200001N1+02941+01881101081ADDAA106000091GF104991041011008001001001KA1240N+02401MA1999999098721MD1999999+0011REMSYN076AAXX  24124 82586 32598 40512 10294 20188 39872 40108 84100 333 20240 58001;EQDQ01  00002PRCP06
0167825860999992002102418004-05200-039300FM-12+021199999V0200901N005112200019N0200001N1+03521+01451100691ADDAA106000091GF102991021011008001001001MA1999999098351MD1999999+0021REMSYN070AAXX  24184 82586 32598 20910 10352 20145 39835 40069 82100 333 58002;EQDQ01  00002PRCP06
0186825860999992002102512004-05200-039300FM-12+021199999V0200901N003111050019N0200001N1+02941+01761100991ADDAA106000091GF106991031011008001001021KA1240N+02341MA1999999098631MD1999999-0091REMSYN076AAXX  25124 82586 32598 60906 10294 20176 39863 40099 83102 333 20234 59009;EQDQ01  00002PRCP06
0167825860999992002102518004-05200-039300FM-12+021199999V0201401N003612200019N0200001N1+03501+01481100671ADDAA106000091GF106991021021008001001041MA1999999098331MD1999999-0021REMSYN070AAXX  25184 82586 32598 61407 10350 20148 39833 40067 82204 333 59002;EQDQ01  00002PRCP06
0167825860999992002102618004-05200-039300FM-12+021199999V0200901N003112200019N0200001N1+03561+01431100611ADDAA106000091GF102991001001999999001011MA1999999098251MD1999999-0061REMSYN070AAXX  26184 82586 32998 20906 10356 20143 39825 40061 80001 333 59006;EQDQ01  00002PRCP06
0208825860999992002102700004-05200-039300FM-12+021199999V0203601N006212200019N0010001N1+02581+02151100881ADDAA106000091GA1001+999999999GF100991001001999999001001KA1240M+03651MA1999999098521MD1999999+0081REMSYN082AAXX  27004 82586 32994 03612 10258 20215 39852 40088 333 10365 29059 55107 58008;EQDQ01  00002PRCP06
0186825860999992002102712004-05200-039300FM-12+021199999V0200901N032412200019N0200001N1+02921+01981101011ADDAA106000091GF102991021011008001001001KA1240N+02351MA1999999098651MD1999999-0021REMSYN076AAXX  27124 82586 32598 20963 10292 20198 39865 40101 82100 333 20235 59002;EQDQ01  00002PRCP06
0208825860999992002102800004-05200-039300FM-12+021199999V02099999999992200019N0010001N1+02701+02021101071ADDAA106000091GA1001+999999999GF100991001001999999001001KA1240M+03691MA1999999098491MD1999999-0031REMSYN082AAXX  28004 82586 32294 0//// 10270 20202 39849 40107 333 10369 29055 55108 59003;EQDQ01  00002PRCP06
0186825860999992002102812004-05200-039300FM-12+021199999V0200501N005110075019N0200001N1+02721+02051101021ADDAA106000091GF107991071071008001001001KA1240N+02421MA1999999098661MD1999999+0011REMSYN076AAXX  28124 82586 32598 70510 10272 20205 39866 40102 87700 333 20242 58001;EQDQ01  00002PRCP06
0167825860999992002102818004-05200-039300FM-12+021199999V0200501N004612200019N0200001N1+03521+01601100621ADDAA106000091GF104991041011008001001001MA1999999098281MD1999999-0021REMSYN070AAXX  28184 82586 32598 40509 10352 20160 39828 40062 84100 333 59002;EQDQ01  00002PRCP06
0208825860999992002102900004-05200-039300FM-12+021199999V0203601N004112200019N0010001N1+02731+01761100801ADDAA106000091GA1001+999999999GF100991001001999999001001KA1240M+03631MA1999999098441MD1999999-0051REMSYN082AAXX  29004 82586 32994 03608 10273 20176 39844 40080 333 10363 29053 55087 59005;EQDQ01  00002PRCP06
0186825860999992002102912004-05200-039300FM-12+021199999V0200501N005712200019N0200001N1+02921+01891100991ADDAA106000091GF103991031011008001001001KA1240N+02401MA1999999098631MD1999999-0031REMSYN076AAXX  29124 82586 32598 30511 10292 20189 39863 40099 83100 333 20240 59003;EQDQ01  00002PRCP06
0183825860999992002102918004-05200-039300FM-12+021199999V0200901N005112200019N0200001N1+03541+01621100591ADDAA106000091GF103991999011008001001001MA1999999098251MD1999999-0031REMSYN070AAXX  29184 82586 32598 30910 10354 20162 39825 40059 82100 333 59003;EQDQ01+000022SCOTLCQ02  00002PRCP06
0208825860999992002103000004-05200-039300FM-12+021199999V0203601N003612200019N0010001N1+02721+01821100791ADDAA106000091GA1001+999999999GF100991001001999999001001KA1240M+03611MA1999999098431MD1999999-0011REMSYN082AAXX  30004 82586 32994 03607 10272 20182 39843 40079 333 10361 29051 55104 59001;EQDQ01  00002PRCP06
0186825860999992002103012004-05200-039300FM-12+021199999V0200501N003110075019N0200001N1+02821+02021100991ADDAA106000091GF106991061041008001001001KA1240N+02421MA1999999098631MD1999999+0001REMSYN076AAXX  30124 82586 32598 60506 10282 20202 39863 40099 86400 333 20242 58000;EQDQ01  00002PRCP06
0167825860999992002103018004-05200-039300FM-12+021199999V0200501N002612200019N0200001N1+03511+01581100621ADDAA106000091GF103991031021008001001001MA1999999098281MD1999999+0031REMSYN070AAXX  30184 82586 32598 30505 10351 20158 39828 40062 83200 333 58003;EQDQ01  00002PRCP06
0208825860999992002103100004-05200-039300FM-12+021199999V02099999999992200019N0010001N1+02701+01911100791ADDAA106000091GA1001+999999999GF100991001001999999001001KA1240M+03611MA1999999098431MD1999999+0001REMSYN082AAXX  31004 82586 32594 005// 10270 20191 39843 40079 333 10361 29055 55107 58000;EQDQ01  00002PRCP06
0186825860999992002103112004-05200-039300FM-12+021199999V0200501N003612200019N0200001N1+02901+01901100981ADDAA106000091GF104991041011008001001001KA1240N+02321MA1999999098621MD1999999-0011REMSYN076AAXX  31124 82586 32598 40507 10290 20190 39862 40098 84100 333 20232 59001;EQDQ01  00002PRCP06
0167825860999992002103118004-05200-039300FM-12+021199999V0200501N004112200019N0200001N1+03621+01421100571ADDAA106000091GF101991011011008001001001MA1999999098231MD1999999-0051REMSYN070AAXX  31184 82586 32598 10508 10362 20142 39823 40057 81100 333 59005;EQDQ01  00002PRCP06
0208825860999992002110100004-05200-039300FM-12+021199999V0203601N005112200019N0010001N1+02701+02031100751ADDAA106000091GA1001+999999999GF100991001001999999001001KA1240M+03701MA1999999098401MD1999999-0031REMSYN082AAXX  01004 82586 32994 03610 10270 20203 39840 40075 333 10370 29054 55109 59003;EQDQ01  00002PRCP06
0186825860999992002110112004-05200-039300FM-12+021199999V02099999999992200019N0200001N1+02901+01961100971ADDAA106000091GF106991021011008001001011KA1240N+02401MA1999999098611MD1999999-0011REMSYN076AAXX  01124 82586 32598 605// 10290 20196 39861 40097 82101 333 20240 59001;EQDQ01  00002PRCP06
0167825860999992002110118004-05200-039300FM-12+021199999V0200901N003612200019N0200001N1+03561+01591100581ADDAA106000091GF102991021011008001001001MA1999999098251MD1999999+0021REMSYN070AAXX  01184 82586 32598 20907 10356 20159 39825 40058 82100 333 58002;EQDQ01  00002PRCP06
0208825860999992002110200004-05200-039300FM-12+021199999V0203601N004112200019N0010001N1+02401+01911100831ADDAA106000091GA1001+999999999GF100991001001999999001001KA1240M+03651MA1999999098481MD1999999+0081REMSYN082AAXX  02004 82586 32994 03608 10240 20191 39848 40083 333 10365 29053 55105 58008;EQDQ01  00002PRCP06
0202825860999992002110212004-05200-039300FM-12+021199999V0200501N000519999999N0200001N1+02821+02001101011ADDAA106000091GF106991999021008001001001KA1240N+02341MA1999999098651MD1999999+0071REMSYN076AAXX  02124 82586 32598 60501 10282 20200 39865 40101 83200 333 20234 58007;EQDQ01+000032SCOTLCQ02  00002PRCP06
0167825860999992002110218004-05200-039300FM-12+021199999V0200901N003112200019N0200001N1+03561+01531100561ADDAA106000091GF102991021011008001001001MA1999999098261MD1999999-0021REMSYN070AAXX  02184 82586 32598 20906 10356 20153 39826 40056 82100 333 59002;EQDQ01  00002PRCP06
0208825860999992002110300004-05200-039300FM-12+021199999V0200501N005112200019N0010001N1+02661+02021100751ADDAA106000091GA1001+999999999GF100991001001999999001001KA1240M+03631MA1999999098391MD1999999+0091REMSYN082AAXX  03004 82586 32994 00510 10266 20202 39839 40075 333 10363 29058 55097 58009;EQDQ01  00002PRCP06
0186825860999992002110312004-05200-039300FM-12+021199999V0200501N004110075019N0200001N1+02801+02021100851ADDAA106000091GF106991061041008001001001KA1240N+02361MA1999999098491MD1999999-0161REMSYN076AAXX  03124 82586 32598 60508 10280 20202 39849 40085 86400 333 20236 59016;EQDQ01  00002PRCP06
0167825860999992002110318004-05200-039300FM-12+021199999V0200501N002612200019N0200001N1+03411+01501100571ADDAA106000091GF102991021011008001001001MA1999999098231MD1999999+0001REMSYN070AAXX  03184 82586 32598 20505 10341 20150 39823 40057 82100 333 58000;EQDQ01  00002PRCP06
0208825860999992002110400004-05200-039300FM-12+021199999V0200501N006212200019N0010001N1+02661+01871100911ADDAA106000091GA1001+999999999GF100991001001999999001001KA1240M+03151MA1999999098551MD1999999+0061REMSYN082AAXX  04004 82586 32994 00512 10266 20187 39855 40091 333 10315 29055 55097 58006;EQDQ01  00002PRCP06
0202825860999992002110412004-05200-039300FM-12+021199999V0200501N001519999999N0200001N1+02921+02061101031ADDAA106000091GF106991999011008001001001KA1240N+02221MA1999999098671MD1999999+0181REMSYN076AAXX  04124 82586 32598 60503 10292 20206 39867 40103 83100 333 20222 58018;EQDQ01+000032SCOTLCQ02  00002PRCP06
0167825860999992002110418004-05200-039300FM-12+021199999V0200501N003112200019N0200001N1+03541+01411100681ADDAA106000091GF102991011011008001001011MA1999999098341MD1999999+0111REMSYN070AAXX  04184 82586 32598 20506 10354 20141 39834 40068 81101 333 58011;EQDQ01  00002PRCP06
0208825860999992002110500004-05200-039300FM-12+021199999V0200501N002612200019N0010001N1+02741+02021100891ADDAA106000091GA1001+999999999GF100991001001999999001001KA1240M+03641MA1999999098541MD1999999-0011REMSYN082AAXX  05004 82586 32994 00505 10274 20202 39854 40089 333 10364 29055 55110 59001;EQDQ01  00002PRCP06
0186825860999992002110512004-05200-039300FM-12+021199999V02099999999990075019N0200001N1+02741+02121101131ADDAA106000091GF107991071071008001001001KA1240N+02401MA1999999098771MD1999999+0101REMSYN076AAXX  05124 82586 32598 709// 10274 20212 39877 40113 87700 333 20240 58010;EQDQ01  00002PRCP06
0167825860999992002110518004-05200-039300FM-12+021199999V0200501N003112200019N0200001N1+03541+01461100771ADDAA106000091GF104991041011008001001001MA1999999098431MD1999999+0091REMSYN070AAXX  05184 82586 32598 40506 10354 20146 39843 40077 84100 333 58009;EQDQ01  00002PRCP06
0208825860999992002110600004-05200-039300FM-12+021199999V02099999999992200019N0010001N1+02781+01981100851ADDAA106000091GA1001+999999999GF100991001001999999001001KA1240M+03631MA1999999098481MD1999999-0051REMSYN082AAXX  06004 82586 32994 005// 10278 20198 39848 40085 333 10363 29056 55083 59005;EQDQ01  00002PRCP06
0186825860999992002110612004-05200-039300FM-12+021199999V0200501N005112200019N0200001N1+02901+01871101091ADDAA106000091GF104991041021008001001001KA1240N+02401MA1999999098731MD1999999-0041REMSYN076AAXX  06124 82586 32598 40510 10290 20187 39873 40109 84200 333 20240 59004;EQDQ01  00002PRCP06
0167825860999992002110618004-05200-039300FM-12+021199999V0201801N001512200019N0200001N1+03491+01711100751ADDAA106000091GF104991041021008001001001MA1999999098491MD1999999-0021REMSYN070AAXX  06184 82586 32598 41803 10349 20171 39849 40075 84200 333 59002;EQDQ01  00002PRCP06
0208825860999992002110700004-05200-039300FM-12+021199999V0200501N005112200019N0010001N1+02741+02051100931ADDAA106000091GA1001+999999999GF100991001001999999001001KA1240M+03591MA1999999098571MD1999999+0081REMSYN082AAXX  07004 82586 32994 00510 10274 20205 39857 40093 333 10359 29055 55105 58008;EQDQ01  00002PRCP06
0186825860999992002110712004-05200-039300FM-12+021199999V0200901N003112200019N0200001N1+02921+02141101111ADDAA106000091GF104991041021008001001001KA1240N+02421MA1999999098751MD1999999+0021REMSYN076AAXX  07124 82586 32598 40906 10292 20214 39875 40111 84200 333 20242 58002;EQDQ01  00002PRCP06
0167825860999992002110718004-05200-039300FM-12+021199999V0200901N001512200019N0200001N1+03491+01751100731ADDAA106000091GF104991041021008001001001MA1999999098411MD1999999+0001REMSYN070AAXX  07184 82586 32598 40903 10349 20175 39841 40073 84200 333 58000;EQDQ01  00002PRCP06
0208825860999992002110800004-05200-039300FM-12+021199999V0203601N005112200019N0010001N1+02691+01921100881ADDAA106000091GA1001+999999999GF100991001001999999001001KA1240M+03551MA1999999098521MD1999999-0041REMSYN082AAXX  08004 82586 32994 03610 10269 20192 39852 40088 333 10355 29057 55086 59004;EQDQ01  00002PRCP06
0186825860999992002110812004-05200-039300FM-12+021199999V02099999999990075019N0200001N1+02821+02051101151ADDAA106000091GF106991061041008001001001KA1240N+02441MA1999999098791MD1999999+0041REMSYN076AAXX  08124 82586 32598 605// 10282 20205 39879 40115 86400 333 20244 58004;EQDQ01  00002PRCP06
0167825860999992002110818004-05200-039300FM-12+021199999V0200901N001512200019N0200001N1+03441+01531100771ADDAA106000091GF104991041021008001001001MA1999999098431MD1999999+0021REMSYN070AAXX  08184 82586 32598 40903 10344 20153 39843 40077 84200 333 58002;EQDQ01  00002PRCP06
0208825860999992002110900004-05200-039300FM-12+021199999V0200501N003112200019N0010001N1+02701+02191100981ADDAA106000091GA1001+999999999GF100991001001999999001001KA1240M+03531MA1999999098621MD1999999+0091REMSYN082AAXX  09004 82586 32994 00506 10270 20219 39862 40098 333 10353 29063 55068 58009;EQDQ01  00002PRCP06
0186825860999992002110912004-05200-039300FM-12+021199999V0200501N005110075019N0200001N1+02801+02081101171ADDAA106000091GF106991061021008001001001KA1240N+02441MA1999999098801MD1999999+0011REMSYN076AAXX  09124 82586 32598 60510 10280 20208 39880 40117 86200 333 20244 58001;EQDQ01  00002PRCP06
0167825860999992002110918004-05200-039300FM-12+021199999V0201401N003110075019N0200001N1+03361+01851100831ADDAA106000091GF105991051011008001001001MA1999999098491MD1999999+0061REMSYN070AAXX  09184 82586 32598 51406 10336 20185 39849 40083 85100 333 58006;EQDQ01  00002PRCP06
0208825860999992002111000004-05200-039300FM-12+021199999V0203601N003112200019N0010001N1+02731+01931100901ADDAA106000091GA1001+999999999GF100991001001999999001001KA1240M+03501MA1999999098541MD1999999-0081REMSYN082AAXX  10004 82586 32994 03606 10273 20193 39854 40090 333 10350 29058 55067 59008;EQDQ01  00002PRCP06
0186825860999992002111012004-05200-039300FM-12+021199999V0200901N004610075019N0200001N1+02871+02011101091ADDAA106000091GF105991051021008001001001KA1240N+02421MA1999999098731MD1999999-0071REMSYN076AAXX  10124 82586 32598 50909 10287 20201 39873 40109 85200 333 20242 59007;EQDQ01  00002PRCP06
0167825860999992002111018004-05200-039300FM-12+021199999V0201401N003112200019N0200001N1+03451+01431100751ADDAA106000091GF104991041021008001001001MA1999999098411MD1999999-0081REMSYN070AAXX  10184 82586 32598 41406 10345 20143 39841 40075 84200 333 59008;EQDQ01  00002PRCP06
0208825860999992002111100004-05200-039300FM-12+021199999V0203601N005112200019N0010001N1+02741+01781100861ADDAA106000091GA1001+999999999GF100991001001999999001001KA1240M+03561MA1999999098511MD1999999-0031REMSYN082AAXX  11004 82586 32994 03610 10274 20178 39851 40086 333 10356 29051 55108 59003;EQDQ01  00002PRCP06
0186825860999992002111112004-05200-039300FM-12+021199999V0200501N003110075019N0200001N1+02901+02041101071ADDAA106000091GF105991051021008001001001KA1240N+02381MA1999999098711MD1999999-0021REMSYN076AAXX  11124 82586 32598 50506 10290 20204 39871 40107 85200 333 20238 59002;EQDQ01  00002PRCP06
0167825860999992002111118004-05200-039300FM-12+021199999V0200901N003112200019N0200001N1+03501+01481100771ADDAA106000091GF104991041021008001001001MA1999999098431MD1999999+0021REMSYN070AAXX  11184 82586 32598 40906 10350 20148 39843 40077 84200 333 58002;EQDQ01  00002PRCP06
0208825860999992002111200004-05200-039300FM-12+021199999V0203601N003612200019N0010001N1+02721+02001100931ADDAA106000091GA1001+999999999GF100991001001999999001001KA1240M+03631MA1999999098571MD1999999+0061REMSYN082AAXX  12004 82586 32994 03607 10272 20200 39857 40093 333 10363 29055 55107 58006;EQDQ01  00002PRCP06
0186825860999992002111212004-05200-039300FM-12+021199999V0200501N003110075019N0200001N1+02781+02061101131ADDAA106000091GF107991071071008001001001KA1240N+02481MA1999999098771MD1999999+0061REMSYN076AAXX  12124 82586 32598 70506 10278 20206 39877 40113 87700 333 20248 58006;EQDQ01  00002PRCP06
0167825860999992002111218004-05200-039300FM-12+021199999V0200901N003112200019N0200001N1+03441+01671100811ADDAA106000091GF104991041021008001001001MA1999999098471MD1999999+0041REMSYN070AAXX  12184 82586 32598 40906 10344 20167 39847 40081 84200 333 58004;EQDQ01  00002PRCP06
0208825860999992002111300004-05200-039300FM-12+021199999V0203601N005112200019N0010001N1+02701+02051100941ADDAA106000091GA1001+999999999GF100991001001999999001001KA1240M+03531MA1999999098581MD1999999+0011REMSYN082AAXX  13004 82586 32994 03610 10270 20205 39858 40094 333 10353 29059 55092 58001;EQDQ01  00002PRCP06
0186825860999992002111312004-05200-039300FM-12+021199999V0200901N003112200019N0200001N1+02901+01961101181ADDAA106000091GF104991041011008001001001KA1240N+02481MA1999999098821MD1999999+0151REMSYN076AAXX  13124 82586 32598 40906 10290 20196 39882 40118 84100 333 20248 58015;EQDQ01  00002PRCP06
0167825860999992002111318004-05200-039300FM-12+021199999V0200901N003112200019N0200001N1+03521+01601100841ADDAA106000091GF104991041011008001001001MA1999999098501MD1999999+0031REMSYN070AAXX  13184 82586 32598 40906 10352 20160 39850 40084 84100 333 58003;EQDQ01  00002PRCP06
0208825860999992002111400004-05200-039300FM-12+021199999V0200501N004112200019N0010001N1+02661+02221100971ADDAA106000091GA1001+999999999GF100991001001999999001001KA1240M+03631MA1999999098611MD1999999+0011REMSYN082AAXX  14004 82586 32994 00508 10266 20222 39861 40097 333 10363 29061 55101 58001;EQDQ01  00002PRCP06
0186825860999992002111412004-05200-039300FM-12+021199999V0200501N006710075019N0200001N1+02881+02031101091ADDAA106000091GF106991061021008001001001KA1240N+02421MA1999999098731MD1999999-0091REMSYN076AAXX  14124 82586 32598 60513 10288 20203 39873 40109 86200 333 20242 59009;EQDQ01  00002PRCP06
0167825860999992002111418004-05200-039300FM-12+021199999V0201401N006710075019N0200001N1+03541+01301100821ADDAA106000091GF105991051011008001001001MA1999999098481MD1999999-0021REMSYN070AAXX  14184 82586 32598 51413 10354 20130 39848 40082 85100 333 59002;EQDQ01  00002PRCP06
0208825860999992002111500004-05200-039300FM-12+021199999V0203601N005112200019N0010001N1+02761+02211100851ADDAA106000091GA1001+999999999GF100991001001999999001001KA1240M+03691MA1999999098501MD1999999-0111REMSYN082AAXX  15004 82586 32994 03610 10276 20221 39850 40085 333 10369 29058 55099 59011;EQDQ01  00002PRCP06
0186825860999992002111512004-05200-039300FM-12+021199999V02099999999992200019N0200001N1+02941+01911101051ADDAA106000091GF102991021011008001001001KA1240N+02321MA1999999098691MD1999999-0041REMSYN076AAXX  15124 82586 32598 205// 10294 20191 39869 40105 82100 333 20232 59004;EQDQ01  00002PRCP06
0167825860999992002111518004-05200-039300FM-12+021199999V0201801N002612200019N0200001N1+03621+01421100711ADDAA106000091GF104991041021008001001001MA1999999098731MD1999999-0111REMSYN070AAXX  15184 82586 32598 41805 10362 20142 39873 40071 84200 333 59011;EQDQ01  00002PRCP06
0208825860999992002111600004-05200-039300FM-12+021199999V0200501N005112200019N0010001N1+02721+02281100871ADDAA106000091GA1001+999999999GF100991001001999999001001KA1240M+03731MA1999999098521MD1999999+0021REMSYN082AAXX  16004 82586 32994 00510 10272 20228 39852 40087 333 10373 29059 55105 58002;EQDQ01  00002PRCP06
0186825860999992002111612004-05200-039300FM-12+021199999V0200901N003112200019N0200001N1+02901+01871101081ADDAA106000091GF102991021011008001001001KA1240N+02361MA1999999098721MD1999999+0031REMSYN076AAXX  16124 82586 32598 20906 10290 20187 39872 40108 82100 333 20236 58003;EQDQ01  00002PRCP06
0167825860999992002111618004-05200-039300FM-12+021199999V0200901N002112200019N0200001N1+03491+01471100711ADDAA106000091GF103991031011008001001001MA1999999098371MD1999999+0001REMSYN070AAXX  16184 82586 32598 30904 10349 20147 39837 40071 83100 333 58000;EQDQ01  00002PRCP06
0208825860999992002111700004-05200-039300FM-12+021199999V0200501N006712200019N0010001N1+02671+02221100861ADDAA106000091GA1001+999999999GF100991001001999999001001KA1240M+03641MA1999999098511MD1999999-0011REMSYN082AAXX  17004 82586 32994 00513 10267 20222 39851 40086 333 10364 29060 55111 59001;EQDQ01  00002PRCP06
0202825860999992002111712004-05200-039300FM-12+021199999V0200501N005119999999N0200001N1+02921+02121101011ADDAA106000091GF106991999021008001001001KA1240N+02451MA1999999098651MD1999999-0071REMSYN076AAXX  17124 82586 32598 60510 10292 20212 39865 40101 83200 333 20245 59007;EQDQ01+000032SCOTLCQ02  00002PRCP06
0167825860999992002111718004-05200-039300FM-12+021199999V0200501N003112200019N0200001N1+03501+01381100711ADDAA106000091GF102991021011008001001001MA1999999098371MD1999999+0001REMSYN070AAXX  17184 82586 32598 20506 10350 20138 39837 40071 82100 333 58000;EQDQ01  00002PRCP06
0208825860999992002111800004-05200-039300FM-12+021199999V0200501N004612200019N0010001N1+02641+02071100871ADDAA106000091GA1001+999999999GF100991001001999999001001KA1240M+03631MA1999999098521MD1999999+0011REMSYN082AAXX  18004 82586 32994 00509 10264 20207 39852 40087 333 10363 29058 55102 58001;EQDQ01  00002PRCP06
0186825860999992002111812004-05200-039300FM-12+021199999V0200501N004110075019N0200001N1+02781+02131101071ADDAA106000091GF107991071041008001001001KA1240N+02361MA1999999098711MD1999999+0061REMSYN076AAXX  18124 82586 32598 70508 10278 20213 39871 40107 87400 333 20236 58006;EQDQ01  00002PRCP06
0167825860999992002111818004-05200-039300FM-12+021199999V0200501N003112200019N0200001N1+03441+01761100761ADDAA106000091GF103991031011008001001001MA1999999098421MD1999999+0051REMSYN070AAXX  18184 82586 32598 30506 10344 20176 39842 40076 83100 333 58005;EQDQ01  00002PRCP06
0208825860999992002111900004-05200-039300FM-12+021199999V0200501N005112200019N0010001N1+02661+02181100891ADDAA106000091GA1001+999999999GF100991001001999999001001KA1240M+03531MA1999999098531MD1999999+0011REMSYN082AAXX  19004 82586 32994 00510 10266 20218 39853 40089 333 10353 29064 55086 58001;EQDQ01  00002PRCP06
0186825860999992002111912004-05200-039300FM-12+021199999V0200501N004610075019N0200001N1+02821+02051101051ADDAA106000091GF106991061021008001001001KA1240N+02441MA1999999098691MD1999999-0021REMSYN076AAXX  19124 82586 32598 60509 10282 20205 39869 40105 86200 333 20244 59002;EQDQ01  00002PRCP06
0167825860999992002111918004-05200-039300FM-12+021199999V0200501N003112200019N0200001N1+03521+01601100731ADDAA106000091GF102991021011008001001001MA1999999098391MD1999999-0031REMSYN070AAXX  19184 82586 32598 20506 10352 20160 39839 40073 82100 333 59003;EQDQ01  00002PRCP06
0198825860999992002112000004-05200-039300FM-12+021199999V0200501N006712200019N0010001N1+02641+02201100861ADDAA106000091GF102991001001999999001041KA1240M+03611MA1999999098501MD1999999-0051REMSYN088AAXX  20004 82586 32994 20513 10264 20220 39850 40086 80004 333 10361 29059 55101 59005;EQDQ01  00002PRCP06
0186825860999992002112012004-05200-039300FM-12+021199999V0200501N005110075019N0200001N1+02841+02021100971ADDAA106000091GF106991061041008001001001KA1240N+02421MA1999999098611MD1999999-0081REMSYN076AAXX  20124 82586 32598 60510 10284 20202 39861 40097 86400 333 20242 59008;EQDQ01  00002PRCP06
0167825860999992002112018004-05200-039300FM-12+021199999V0200901N003112200019N0200001N1+03521+01701100661ADDAA106000091GF103991031011008001001001MA1999999098311MD1999999-0071REMSYN070AAXX  20184 82586 32598 30906 10352 20170 39831 40066 83100 333 59007;EQDQ01  00002PRCP06
0198825860999992002112100004-05200-039300FM-12+021199999V0200501N003112200019N0010001N1+02661+02091100881ADDAA106000091GF104991041021008001001001KA1240M+03611MA1999999098521MD1999999+0021REMSYN088AAXX  21004 82586 32594 40506 10266 20209 39852 40088 84200 333 10361 29060 55100 58002;EQDQ01  00002PRCP06
0186825860999992002112112004-05200-039300FM-12+021199999V0200901N005112200019N0200001N1+02921+01891101071ADDAA106000091GF103991031011008001001001KA1240N+02461MA1999999098711MD1999999+0121REMSYN076AAXX  21124 82586 32598 30910 10292 20189 39871 40107 83100 333 20246 58012;EQDQ01  00002PRCP06
0167825860999992002112118004-05200-039300FM-12+021199999V0200901N003112200019N0200001N1+03551+01621100751ADDAA106000091GF104991041051008001001001MA1999999098411MD1999999+0091REMSYN070AAXX  21184 82586 32598 40906 10355 20162 39841 40075 84500 333 58009;EQDQ01  00002PRCP06
0208825860999992002112200004-05200-039300FM-12+021199999V0203601N003112200019N0010001N1+02661+02221100811ADDAA106000091GA1001+999999999GF100991001001999999001001KA1240M+03711MA1999999098461MD1999999-0061REMSYN082AAXX  22004 82586 32994 03606 10266 20222 39846 40081 333 10371 29060 55106 59006;EQDQ01  00002PRCP06
0186825860999992002112212004-05200-039300FM-12+021199999V0200501N002610075019N0200001N1+02901+02031101041ADDAA106000091GF106991061021008001001001KA1240N+02481MA1999999098681MD1999999-0031REMSYN076AAXX  22124 82586 32598 60505 10290 20203 39868 40104 86200 333 20248 59003;EQDQ01  00002PRCP06
0167825860999992002112218004-05200-039300FM-12+021199999V0200901N003110075019N0200001N1+03521+01791100761ADDAA106000091GF105991051041008001001001MA1999999098421MD1999999+0021REMSYN070AAXX  22184 82586 32598 50906 10352 20179 39842 40076 85400 333 58002;EQDQ01  00002PRCP06
0198825860999992002112300004-05200-039300FM-12+021199999V0200501N003612200019N0010001N1+02641+02291100871ADDAA106000091GF102991021001012501051001KA1240M+03631MA1999999098511MD1999999+0051REMSYN088AAXX  23004 82586 32694 20507 10264 20229 39851 40087 82050 333 10363 29064 55105 58005;EQDQ01  00002PRCP06
0186825860999992002112312004-05200-039300FM-12+021199999V0200901N004610075019N0200001N1+02821+02271101081ADDAA106000091GF106991061021008001001001KA1240N+02461MA1999999098721MD1999999+0041REMSYN076AAXX  23124 82586 32598 60909 10282 20227 39872 40108 86200 333 20246 58004;EQDQ01  00002PRCP06
0167825860999992002112318004-05200-039300FM-12+021199999V0200901N004112200019N0200001N1+03501+01861100761ADDAA106000091GF104991041021008001001001MA1999999098421MD1999999+0001REMSYN070AAXX  23184 82586 32598 40908 10350 20186 39842 40076 84200 333 58000;EQDQ01  00002PRCP06
0171825860999992002112418004-05200-039300FM-12+021199999V0201401N003110450019N0040001N1+02601+02401101361ADDAY121061AY201061GF108991041061008001051091MA1999999100631MD1999999+0041MW1201REMSYN082AAXX  24184 82586 21596 81406 10260 20240 30063 40136 72020 84659 333 58004 69941;
0208825860999992002112500004-05200-039300FM-12+021199999V0203601N006712200019N0010001N1+02601+02391100991ADDAA106000021GA1001+999999999GF100991001001999999001001KA1240M+03631MA1999999098632MD1999999+0111REMSYN082AAXX  25004 82586 32994 03613 10260 20239 39863 40099 333 10363 29070 55079 58011;EQDQ01+098633APOSP 
0186825860999992002112512004-05200-039300FM-12+021199999V0200501N003112200019N0200001N1+02961+02051101061ADDAA106000091GF103991031011008001001001KA1240N+02361MA1999999098701MD1999999+0011REMSYN076AAXX  25124 82586 32598 30506 10296 20205 39870 40106 83100 333 20236 58001;EQDQ01  00002PRCP06
0167825860999992002112518004-05200-039300FM-12+021199999V0200501N003612200019N0200001N1+03521+01701100751ADDAA106000091GF104991041021008001001001MA1999999098411MD1999999+0001REMSYN070AAXX  25184 82586 32598 40507 10352 20170 39841 40075 84200 333 58000;EQDQ01  00002PRCP06
0208825860999992002112600004-05200-039300FM-12+021199999V0203601N005112200019N0010001N1+02701+02261101001ADDAA106000091GA1001+999999999GF100991001001999999001001KA1240M+03611MA1999999098641MD1999999+0011REMSYN082AAXX  26004 82586 32994 03610 10270 20226 39864 40100 333 10361 29062 55105 58001;EQDQ01  00002PRCP06
0186825860999992002112612004-05200-039300FM-12+021199999V0200501N002610075019N0200001N1+02841+02121101131ADDAA106000091GF106991061021008001001001KA1240N+02401MA1999999098771MD1999999+0071REMSYN076AAXX  26124 82586 32598 60505 10284 20212 39877 40113 86200 333 20240 58007;EQDQ01  00002PRCP06
0167825860999992002112618004-05200-039300FM-12+021199999V0200901N003112200019N0200001N1+03501+01681100761ADDAA106000091GF102991021011008001001001MA1999999098421MD1999999+0011REMSYN070AAXX  26184 82586 32598 20906 10350 20168 39842 40076 82100 333 58001;EQDQ01  00002PRCP06
0208825860999992002112700004-05200-039300FM-12+021199999V0200501N005112200019N0010001N1+02751+02051100861ADDAA106000091GA1001+999999999GF100991001001999999001001KA1240M+03611MA1999999098511MD1999999-0131REMSYN082AAXX  27004 82586 32994 00510 10275 20205 39851 40086 333 10361 29058 55109 59013;EQDQ01  00002PRCP06
0186825860999992002112712004-05200-039300FM-12+021199999V0200501N003110075019N0200001N1+02801+02151101041ADDAA106000091GF106991061041008001001001KA1240N+02501MA1999999098681MD1999999-0091REMSYN076AAXX  27124 82586 32598 60506 10280 20215 39868 40104 86400 333 20250 59009;EQDQ01  00002PRCP06
0167825860999992002112718004-05200-039300FM-12+021199999V0201401N003110075019N0200001N1+03461+01691100751ADDAA106000091GF105991051021008001001001MA1999999098411MD1999999-0011REMSYN070AAXX  27184 82586 32598 51406 10346 20169 39841 40075 85200 333 59001;EQDQ01  00002PRCP06
0208825860999992002112800004-05200-039300FM-12+021199999V0200501N005112200019N0010001N1+02661+02331100871ADDAA106000091GA1001+999999999GF100991001001999999001001KA1240M+03571MA1999999098631MD1999999+0021REMSYN082AAXX  28004 82586 32994 00510 10266 20233 39863 40087 333 10357 29067 55074 58002;EQDQ01  00002PRCP06
0186825860999992002112812004-05200-039300FM-12+021199999V0200501N005712200019N0200001N1+02921+02041100961ADDAA106000091GF105991031011008001001011KA1240N+02441MA1999999098601MD1999999-0081REMSYN076AAXX  28124 82586 32598 50511 10292 20204 39860 40096 83101 333 20244 59008;EQDQ01  00002PRCP06
0167825860999992002112818004-05200-039300FM-12+021199999V0200501N004112200019N0200001N1+03621+01421100651ADDAA106000091GF102991021011008001001001MA1999999098321MD1999999-0091REMSYN070AAXX  28184 82586 32598 20508 10362 20142 39832 40065 82100 333 59009;EQDQ01  00002PRCP06
0186825860999992002112912004-05200-039300FM-12+021199999V0200501N004612200019N0200001N1+02961+02051101021ADDAA106000091GF106991041011008001001011KA1240N+02501MA1999999098661MD1999999+0061REMSYN076AAXX  29124 82586 32598 60509 10296 20205 39866 40102 84101 333 20250 58006;EQDQ01  00002PRCP06
0167825860999992002112918004-05200-039300FM-12+021199999V0200501N005110075019N0200001N1+03461+01551100691ADDAA106000091GF105991051021008001001001MA1999999098351MD1999999+0031REMSYN070AAXX  29184 82586 32598 50510 10346 20155 39835 40069 85200 333 58003;EQDQ01  00002PRCP06
0208825860999992002113000004-05200-039300FM-12+021199999V0200501N004112200019N0020001N1+02741+02151100851ADDAA106000091GA1001+999999999GF100991001001999999001001KA1240M+03661MA1999999098501MD1999999-0031REMSYN082AAXX  30004 82586 32695 00508 10274 20215 39850 40085 333 10366 29058 55101 59003;EQDQ01  00002PRCP06
0186825860999992002113012004-05200-039300FM-12+021199999V0201401N002610075019N0200001N1+02881+02101101081ADDAA106000091GF106991061021008001001001KA1240N+02401MA1999999098721MD1999999+0061REMSYN076AAXX  30124 82586 32598 61405 10288 20210 39872 40108 86200 333 20240 58006;EQDQ01  00002PRCP06
0167825860999992002113018004-05200-039300FM-12+021199999V0200901N003112200019N0200001N1+03631+01781100741ADDAA106000091GF104991041021008001001001MA1999999098401MD1999999+0051REMSYN070AAXX  30184 82586 32598 40906 10363 20178 39840 40074 84200 333 58005;EQDQ01  00002PRCP06
0208825860999992002120100004-05200-039300FM-12+021199999V0200501N005112200019N0010001N1+02771+02261100941ADDAA106000091GA1001+999999999GF100991001001999999001001KA1240M+03641MA1999999098581MD1999999+0081REMSYN082AAXX  01004 82586 32994 00510 10277 20226 39858 40094 333 10364 29063 55087 58008;EQDQ01  00002PRCP06
0186825860999992002120112004-05200-039300FM-12+021199999V0200901N003110075019N0200001N1+02901+02151101021ADDAA106000091GF106991061041008001001001KA1240N+02501MA1999999098661MD1999999-0061REMSYN076AAXX  01124 82586 32598 60906 10290 20215 39866 40102 86400 333 20250 59006;EQDQ01  00002PRCP06
0186825860999992002120212004-05200-039300FM-12+021199999V0200501N006210075019N0200001N1+02881+02101101011ADDAA106000091GF107991071071008001001001KA1240N+02501MA1999999098651MD1999999-0011REMSYN076AAXX  02124 82586 32598 70512 10288 20210 39865 40101 87700 333 20250 59001;EQDQ01  00002PRCP06
0167825860999992002120218004-05200-039300FM-12+021199999V0200501N003112200019N0200001N1+03441+01761100741ADDAA106000091GF104991041011008001001001MA1999999098401MD1999999+0081REMSYN070AAXX  02184 82586 32598 40506 10344 20176 39840 40074 84100 333 58008;EQDQ01  00002PRCP06
0208825860999992002120300004-05200-039300FM-12+021199999V0200501N005112200019N0010001N1+02701+02131100881ADDAA106000091GA1001+999999999GF100991001001999999001001KA1240M+03651MA1999999098571MD1999999+0021REMSYN082AAXX  03004 82586 32994 00510 10270 20213 39857 40088 333 10365 29061 55049 58002;EQDQ01  00002PRCP06
0190825860999992002120312004-05200-039300FM-12+021199999V0200901N003110075019N0200001N1+02761+02091101091ADDAY151061AY221061GF106991061041008001001001KA1240N+02281MA1999999098731MD1999999+0081MW1021REMSYN088AAXX  03124 82586 21598 60906 10276 20209 39873 40109 70252 86400 333 20228 58008 69924;
0167825860999992002120318004-05200-039300FM-12+021199999V0200901N003112200019N0200001N1+03481+01571100741ADDAA106000091GF103991031011008001001001MA1999999098401MD1999999+0001REMSYN070AAXX  03184 82586 32598 30906 10348 20157 39840 40074 83100 333 58000;EQDQ01  00002PRCP06
0208825860999992002120400004-05200-039300FM-12+021199999V0200501N005112200019N0020001N1+02711+02061100921ADDAA106000091GA1001+999999999GF100991001001999999001001KA1240M+03631MA1999999098561MD1999999+0031REMSYN082AAXX  04004 82586 32995 00510 10271 20206 39856 40092 333 10363 29059 55090 58003;EQDQ01  00002PRCP06
0186825860999992002120412004-05200-039300FM-12+021199999V0200901N005110075019N0200001N1+02821+01941101071ADDAA106000091GF106991061041008001001001KA1240N+02481MA1999999098771MD1999999-0021REMSYN076AAXX  04124 82586 32598 60910 10282 20194 39877 40107 86400 333 20248 59002;EQDQ01  00002PRCP06
0167825860999992002120418004-05200-039300FM-12+021199999V0200901N004112200019N0200001N1+03551+01351100771ADDAA106000091GF104991041021008001001001MA1999999098431MD1999999+0031REMSYN070AAXX  04184 82586 32598 40908 10355 20135 39843 40077 84200 333 58003;EQDQ01  00002PRCP06
0208825860999992002120500004-05200-039300FM-12+021199999V0200501N005712200019N0010001N1+02761+02161100881ADDAA106000091GA1001+999999999GF100991001001999999001001KA1240M+03631MA1999999098531MD1999999-0031REMSYN082AAXX  05004 82586 32994 00511 10276 20216 39853 40088 333 10363 29056 55102 59003;EQDQ01  00002PRCP06
0186825860999992002120512004-05200-039300FM-12+021199999V0200901N005112200019N0200001N1+02901+01871101031ADDAA106000091GF102991021011008001001001KA1240N+02441MA1999999098671MD1999999-0041REMSYN076AAXX  05124 82586 32598 20910 10290 20187 39867 40103 82100 333 20244 59004;EQDQ01  00002PRCP06
0167825860999992002120518004-05200-039300FM-12+021199999V0200901N004612200019N0200001N1+03641+01061100711ADDAA106000091GF102991021011008001001001MA1999999098371MD1999999-0061REMSYN070AAXX  05184 82586 32598 20909 10364 20106 39837 40071 82100 333 59006;EQDQ01  00002PRCP06
0208825860999992002120600004-05200-039300FM-12+021199999V0200501N006212200019N0010001N1+02821+02121100831ADDAA106000091GA1001+999999999GF100991001001999999001001KA1240M+03751MA1999999098481MD1999999-0051REMSYN082AAXX  06004 82586 32994 00512 10282 20212 39848 40083 333 10375 29052 55113 59005;EQDQ01  00002PRCP06
0196825860999992002120612004-05200-039300FM-12+021199999V02099999999992200019N0200001N1+02941+01661100961ADDAA106000091GA1001+999999999GF100991001001999999001001KA1240N+02381MA1999999098611MD1999999-0061REMSYN070AAXX  06124 82586 32998 009// 10294 20166 39861 40096 333 20238 59006;EQDQ01  00002PRCP06
0177825860999992002120618004-05200-039300FM-12+021199999V02099999999992200019N0200001N1+03611+01021100601ADDAA106000091GA1001+999999999GF100991001001999999001001MA1999999098271MD1999999-0101REMSYN064AAXX  06184 82586 32598 005// 10361 20102 39827 40060 333 59010;EQDQ01  00002PRCP06
0208825860999992002120700004-05200-039300FM-12+021199999V02099999999992200019N0010001N1+02821+01771100721ADDAA106000091GA1001+999999999GF100991001001999999001001KA1240M+03711MA1999999098381MD1999999-0101REMSYN082AAXX  07004 82586 32994 036// 10282 20177 39838 40072 333 10371 29043 55114 59010;EQDQ01  00002PRCP06
0186825860999992002120712004-05200-039300FM-12+021199999V0200501N002610075019N0200001N1+02821+01941100961ADDAA106000091GF106991061021008001001001KA1240N+02481MA1999999098601MD1999999-0011REMSYN076AAXX  07124 82586 32598 60505 10282 20194 39860 40096 86200 333 20248 59001;EQDQ01  00002PRCP06
0167825860999992002120718004-05200-039300FM-12+021199999V02099999999992200019N0200001N1+03571+01591100601ADDAA106000091GF102991021011008001001001MA1999999098271MD1999999+0001REMSYN070AAXX  07184 82586 32598 205// 10357 20159 39827 40060 82100 333 58000;EQDQ01  00002PRCP06
0208825860999992002120800004-05200-039300FM-12+021199999V02099999999992200019N0010001N1+02761+02191100851ADDAA106000091GA1001+999999999GF100991001001999999001001KA1240M+03671MA1999999098501MD1999999+0121REMSYN082AAXX  08004 82586 32994 036// 10276 20219 39850 40085 333 10367 29058 55095 58012;EQDQ01  00002PRCP06
0186825860999992002120812004-05200-039300FM-12+021199999V02099999999992200019N0200001N1+02861+02551100931ADDAA106000091GF104991041021008001001001KA1240N+02391MA1999999098571MD1999999-0031REMSYN076AAXX  08124 82586 32598 436// 10286 20255 39857 40093 84200 333 20239 59003;EQDQ01  00002PRCP06
0167825860999992002120818004-05200-039300FM-12+021199999V0200501N005110075019N0200001N1+03501+01581100611ADDAA106000091GF108991051021008001021999MA1999999098271MD1999999+0001REMSYN070AAXX  08184 82586 32598 80510 10350 20158 39827 40061 8522/ 333 58000;EQDQ01  00002PRCP06
0198825860999992002120900004-05200-039300FM-12+021199999V0203601N003112200019N0010001N1+02701+02221100871ADDAA106000091GF104991041001012501051001KA1240M+03621MA1999999098521MD1999999+0021REMSYN088AAXX  09004 82586 32694 43606 10270 20222 39852 40087 84050 333 10362 29061 55048 58002;EQDQ01  00002PRCP06
0186825860999992002120912004-05200-039300FM-12+021199999V0203601N002610075019N0200001N1+02901+02121101021ADDAA106000091GF108991081071008001999999KA1240N+02501MA1999999098661MD1999999+0091REMSYN076AAXX  09124 82586 32598 83605 10290 20212 39866 40102 887// 333 20250 58009;EQDQ01  00002PRCP06
0171825860999992002120918004-05200-039300FM-12+021199999V0209999C000010075019N0200001N1+02721+02401100951ADDAY161061AY251061GF108991081071008001999999MA1999999098551MD1999999+0281MW1611REMSYN082AAXX  09184 82586 21598 80000 10272 20240 39855 40095 76165 887// 333 58028 60021;
0202825860999992002121000004-05200-039300FM-12+021199999V0203601N003612200019N0010001N1+02601+02391101011ADDAY161061AY251061GF102991021011008001001001KA1240M+03331MA1999999098651MD1999999+0131MW1031REMSYN100AAXX  10004 82586 21594 23607 10260 20239 39865 40101 70365 82100 333 10333 29085 55016 58013 69981;
0190825860999992002121012004-05200-039300FM-12+021199999V02099999999990075019N0200001N1+02681+02411101131ADDAY161061AY221061GF106991061071008001001001KA1240N+02301MA1999999098751MD1999999+0091MW1031REMSYN088AAXX  10124 82586 21598 605// 10268 20241 39875 40113 70362 86700 333 20230 58009 60044;
0167825860999992002121018004-05200-039300FM-12+021199999V0200901N005110075019N0200001N1+03331+01701100891ADDAA106000091GF106991061021008001001001MA1999999098541MD1999999-0011REMSYN070AAXX  10184 82586 32598 60910 10333 20170 39854 40089 86200 333 59001;EQDQ01  00002PRCP06
0198825860999992002121100004-05200-039300FM-12+021199999V0203601N003112200019N0010001N1+02821+02021101021ADDAA106000091GF102991021071012501051001KA1240M+03511MA1999999098661MD1999999-0011REMSYN088AAXX  11004 82586 32694 23606 10282 20202 39866 40102 82750 333 10351 29062 55055 59001;EQDQ01  00002PRCP06
0186825860999992002121112004-05200-039300FM-12+021199999V02099999999990075019N0200001N1+02921+01981101141ADDAA106000091GF106991061011008001001001KA1240N+02461MA1999999098791MD1999999+0041REMSYN076AAXX  11124 82586 32598 605// 10292 20198 39879 40114 86100 333 20246 58004;EQDQ01  00002PRCP06
0167825860999992002121118004-05200-039300FM-12+021199999V02099999999992200019N0200001N1+03531+01391100841ADDAA106000091GF104991041021008001001001MA1999999098501MD1999999-0041REMSYN070AAXX  11184 82586 32598 405// 10353 20139 39850 40084 84200 333 59004;EQDQ01  00002PRCP06
0198825860999992002121200004-05200-039300FM-12+021199999V02099999999992200019N0010001N1+02841+02121100961ADDAA106000091GF102991021011012501001001KA1240M+03631MA1999999098611MD1999999-0051REMSYN088AAXX  12004 82586 32694 236// 10284 20212 39861 40096 82100 333 10363 29054 55107 59005;EQDQ01  00002PRCP06
0186825860999992002121212004-05200-039300FM-12+021199999V02099999999992200019N0200001N1+02921+01801101121ADDAA106000091GF103991031011008001001001KA1240N+02441MA1999999098771MD1999999-0021REMSYN076AAXX  12124 82586 32598 305// 10292 20180 39877 40112 83100 333 20244 59002;EQDQ01  00002PRCP06
0167825860999992002121218004-05200-039300FM-12+021199999V02099999999992200019N0200001N1+03621+01181100631ADDAA106000091GF102991021011008001001001MA1999999098301MD1999999-0201REMSYN070AAXX  12184 82586 32598 205// 10362 20118 39830 40063 82100 333 59020;EQDQ01  00002PRCP06
0208825860999992002121300004-05200-039300FM-12+021199999V02099999999992200019N0010001N1+02781+01881100891ADDAA106000091GA1001+999999999GF100991001001999999001001KA1240M+03701MA1999999098541MD1999999-0071REMSYN082AAXX  13004 82586 32994 036// 10278 20188 39854 40089 333 10370 29048 55098 59007;EQDQ01  00002PRCP06
0186825860999992002121312004-05200-039300FM-12+021199999V02099999999990075019N0200001N1+02921+01831101121ADDAA106000091GF106991061041008001001001KA1240N+02501MA1999999098761MD1999999-0011REMSYN076AAXX  13124 82586 32598 605// 10292 20183 39876 40112 86400 333 20250 59001;EQDQ01  00002PRCP06
0208825860999992002121400004-05200-039300FM-12+021199999V02099999999992200019N0010001N1+02881+01941100921ADDAA106000091GA1001+999999999GF100991001001999999001001KA1240M+03631MA1999999098571MD1999999-0031REMSYN082AAXX  14004 82586 32994 036// 10288 20194 39857 40092 333 10363 29050 55102 59003;EQDQ01  00002PRCP06
0186825860999992002121412004-05200-039300FM-12+021199999V02099999999990075019N0200001N1+02901+02121101061ADDAA106000091GF107991071041008001001001KA1240N+02501MA1999999098711MD1999999-0051REMSYN076AAXX  14124 82586 32598 705// 10290 20212 39871 40106 87400 333 20250 59005;EQDQ01  00002PRCP06
0167825860999992002121418004-05200-039300FM-12+021199999V0200501N006212200019N0200001N1+03521+01601100861ADDAA106000091GF104991041021008001001001MA1999999098431MD1999999-0091REMSYN070AAXX  14184 82586 32598 40512 10352 20160 39843 40086 84200 333 59009;EQDQ01  00002PRCP06
0208825860999992002121500004-05200-039300FM-12+021199999V02099999999992200019N0010001N1+02921+01981100921ADDAA106000091GA1001+999999999GF100991001001999999001001KA1240M+03631MA1999999098571MD1999999+0001REMSYN082AAXX  15004 82586 32994 036// 10292 20198 39857 40092 333 10363 29052 55108 58000;EQDQ01  00002PRCP06
0186825860999992002121512004-05200-039300FM-12+021199999V0200901N005112200019N0040001N1+03031+02041101091ADDAA106000091GF103991031021008001001001KA1240N+02501MA1999999098721MD1999999+0011REMSYN076AAXX  15124 82586 32596 30910 10303 20204 39872 40109 83200 333 20250 58001;EQDQ01  00002PRCP06
0167825860999992002121518004-05200-039300FM-12+021199999V0200501N005112200019N0200001N1+03621+01591100721ADDAA106000091GF104991041021008001001001MA1999999098321MD1999999-0051REMSYN070AAXX  15184 82586 32598 40510 10362 20159 39832 40072 84200 333 59005;EQDQ01  00002PRCP06
0208825860999992002121600004-05200-039300FM-12+021199999V02099999999992200019N0010001N1+02881+02101100861ADDAA106000091GA1001+999999999GF100991001001999999001001KA1240M+03731MA1999999098521MD1999999-0051REMSYN082AAXX  16004 82586 32994 036// 10288 20210 39852 40086 333 10373 29053 55110 59005;EQDQ01  00002PRCP06
0167825860999992002121618004-05200-039300FM-12+021199999V0203601N005112200019N0200001N1+03541+01621100711ADDAA106000091GF103991031011008001001001MA1999999098371MD1999999-0111REMSYN070AAXX  16184 82586 32598 33610 10354 20162 39837 40071 83100 333 59011;EQDQ01  00002PRCP06
0208825860999992002121700004-05200-039300FM-12+021199999V0203601N006712200019N0010001N1+02941+02001100811ADDAA106000091GA1001+999999999GF100991001001999999001001KA1240M+03671MA1999999098471MD1999999-0051REMSYN082AAXX  17004 82586 32994 03613 10294 20200 39847 40081 333 10367 29051 55100 59005;EQDQ01  00002PRCP06
0186825860999992002121712004-05200-039300FM-12+021199999V0200501N001510075019N0200001N1+02921+02141101001ADDAA106000091GF106991061021008001001001KA1240N+02481MA1999999098661MD1999999+0001REMSYN076AAXX  17124 82586 32598 60503 10292 20214 39866 40100 86200 333 20248 58000;EQDQ01  00002PRCP06
0167825860999992002121718004-05200-039300FM-12+021199999V0200501N005112200019N0200001N1+03541+01621100731ADDAA106000091GF104991041021008001001001MA1999999098391MD1999999+0021REMSYN070AAXX  17184 82586 32598 40510 10354 20162 39839 40073 84200 333 58002;EQDQ01  00002PRCP06
0208825860999992002121800004-05200-039300FM-12+021199999V02099999999992200019N0010001N1+02811+02001100931ADDAA106000091GA1001+999999999GF100991001001999999001001KA1240M+03651MA1999999098571MD1999999+0101REMSYN082AAXX  18004 82586 32994 036// 10281 20200 39857 40093 333 10365 29055 55111 58010;EQDQ01  00002PRCP06
0186825860999992002121812004-05200-039300FM-12+021199999V02099999999992200019N0200001N1+02861+02161101051ADDAA106000091GF107991041011008001001011KA1240N+02501MA1999999098691MD1999999+0031REMSYN076AAXX  18124 82586 32598 705// 10286 20216 39869 40105 84101 333 20250 58003;EQDQ01  00002PRCP06
0167825860999992002121818004-05200-039300FM-12+021199999V0200901N003112200019N0200001N1+03561+01531100751ADDAA106000091GF104991041021008001001001MA1999999098411MD1999999+0021REMSYN070AAXX  18184 82586 32598 40906 10356 20153 39841 40075 84200 333 58002;EQDQ01  00002PRCP06
0208825860999992002121900004-05200-039300FM-12+021199999V0203601N005112200019N0010001N1+02891+02081100871ADDAA106000091GA1001+999999999GF100991001001999999001001KA1240M+03641MA1999999098521MD1999999-0051REMSYN082AAXX  19004 82586 32994 03610 10289 20208 39852 40087 333 10364 29095 55095 59005;EQDQ01  00002PRCP06
0186825860999992002121912004-05200-039300FM-12+021199999V0200501N003110075019N0200001N1+02901+02251101011ADDAA106000091GF106991061021008001001001KA1240N+02501MA1999999098661MD1999999-0031REMSYN076AAXX  19124 82586 32598 60506 10290 20225 39866 40101 86200 333 20250 59003;EQDQ01  00002PRCP06
0167825860999992002121918004-05200-039300FM-12+021199999V02099999999992200019N0200001N1+03591+01461100751ADDAA106000091GF106991031021008001001041MA1999999098841MD1999999+0001REMSYN070AAXX  19184 82586 32598 605// 10359 20146 39884 40075 83204 333 58000;EQDQ01  00002PRCP06
0208825860999992002122000004-05200-039300FM-12+021199999V02099999999992200019N0010001N1+02741+02171100981ADDAA106000091GA1001+999999999GF100991001001999999001001KA1240M+03641MA1999999098621MD1999999+0101REMSYN082AAXX  20004 82586 32994 036// 10274 20217 39862 40098 333 10364 29060 55089 58010;EQDQ01  00002PRCP06
0186825860999992002122012004-05200-039300FM-12+021199999V0200501N001510075019N0200001N1+02921+02061101151ADDAA106000091GF106991061041008001001001KA1240N+02501MA1999999098791MD1999999+0131REMSYN076AAXX  20124 82586 32598 60503 10292 20206 39879 40115 86400 333 20250 58013;EQDQ01  00002PRCP06
0167825860999992002122018004-05200-039300FM-12+021199999V02099999999992200019N0200001N1+03501+01581100761ADDAA106000091GF106991031021008001001041MA1999999098421MD1999999+0011REMSYN070AAXX  20184 82586 32598 614// 10350 20158 39842 40076 83204 333 58001;EQDQ01  00002PRCP06
0214825860999992002122100004-05200-039300FM-12+021199999V02099999999999999999N0010001N1+02761+02091100931ADDAA106000091GF100991001001999999001001KA1240M+03631MA1999999098571MD1999999-0021REMSYN088AAXX  21004 82586 32994 636// 10276 20209 39857 40093 80000 333 10363 29057 55112 59002;EQDQ01+000062SCOTCVQ02  00002PRCP06
0202825860999992002122112004-05200-039300FM-12+021199999V0200501N003119999999N0200001N1+02841+02171101231ADDAA106000091GF106991999011008001001001KA1240N+02501MA1999999098871MD1999999+0081REMSYN076AAXX  21124 82586 32598 60506 10284 20217 39887 40123 82100 333 20250 58008;EQDQ01+000022SCOTLCQ02  00002PRCP06
0183825860999992002122118004-05200-039300FM-12+021199999V0201401N003119999999N0200001N1+03531+01501100871ADDAA106000091GF106991999021008001001001MA1999999098531MD1999999+0031REMSYN070AAXX  21184 82586 32598 61406 10353 20150 39853 40087 83200 333 58003;EQDQ01+000032SCOTLCQ02  00002PRCP06
0198825860999992002122200004-05200-039300FM-12+021199999V02099999999992200019N0010001N1+02841+01961100931ADDAA106000091GF102991021001012501031051KA1240M+03631MA1999999098571MD1999999+0001REMSYN088AAXX  22004 82586 32694 236// 10284 20196 39857 40093 82035 333 10363 29054 55085 58000;EQDQ01  00002PRCP06
0198825860999992002122300004-05200-039300FM-12+021199999V02099999999990075019N0010001N1+02791+02131100831ADDAA106000091GF106991061021008001001001KA1240M+03511MA1999999098521MD1999999-0051REMSYN088AAXX  23004 82586 32594 636// 10279 20213 39852 40083 86200 333 10351 29060 55072 59005;EQDQ01  00002PRCP06
0186825860999992002122312004-05200-039300FM-12+021199999V02099999999990075019N0200001N1+02821+02171101021ADDAA106000091GF107991071041008001001001KA1240N+02481MA1999999098661MD1999999-0031REMSYN076AAXX  23124 82586 32598 705// 10282 20217 39866 40102 87400 333 20248 59003;EQDQ01  00002PRCP06
0167825860999992002122318004-05200-039300FM-12+021199999V02099999999992200019N0200001N1+03581+01501100811ADDAA106000091GF104991041011008001001001MA1999999098471MD1999999+0061REMSYN070AAXX  23184 82586 32598 405// 10358 20150 39847 40081 84100 333 58006;EQDQ01  00002PRCP06
0208825860999992002122400004-05200-039300FM-12+021199999V02099999999992200019N0010001N1+02901+02201100891ADDAA106000091GA1001+999999999GF100991001001999999001001KA1240M+03721MA1999999098541MD1999999+0021REMSYN082AAXX  24004 82586 32994 036// 10290 20220 39854 40089 333 10372 29057 55089 58002;EQDQ01  00002PRCP06
0186825860999992002122412004-05200-039300FM-12+021199999V0200501N002610075019N0200001N1+02841+02471101071ADDAA106000091GF108991081071008001999999KA1240N+02501MA1999999098741MD1999999+0051REMSYN076AAXX  24124 82586 32598 80505 10284 20247 39874 40107 887// 333 20250 58005;EQDQ01  00002PRCP06
0171825860999992002122418004-05200-039300FM-12+021199999V0200901N003112200019N0200001N1+03601+01721100761ADDAY151061AY221061GF103991021011008001051001MA1999999098421MD1999999-0051MW1031REMSYN082AAXX  24184 82586 21598 30906 10360 20172 39842 40076 70352 82150 333 59005 69931;
0208825860999992002122500004-05200-039300FM-12+021199999V0203601N005712200019N0010001N1+02871+02161100871ADDAA106000091GA1001+999999999GF100991001001999999001001KA1240M+03701MA1999999098521MD1999999-0021REMSYN082AAXX  25004 82586 32994 03611 10287 20216 39852 40087 333 10370 29062 55082 59002;EQDQ01  00002PRCP06
0190825860999992002122512004-05200-039300FM-12+021199999V0200501N003110075019N0200001N1+02601+02531101091ADDAY151061AY221061GF105991051021008001001001KA1240N+02521MA1999999098731MD1999999+0021MW1201REMSYN088AAXX  25124 82586 21598 50506 10260 20253 39873 40109 72052 85200 333 20252 58002 69984;
0148825860999992002122518004-05200-039300FM-12+021199999V02099999999990075019N0200001N1+03491+01751100801ADDAA106000021GF106991061021008001001001MA1999999098461MD1999999+0041REMSYN070AAXX  25184 82586 32598 609// 10349 20175 39846 40080 86200 333 58004;
0208825860999992002122600004-05200-039300FM-12+021199999V0203601N005112200019N0010001N1+02781+02131100991ADDAA106000091GA1001+999999999GF100991001001999999001001KA1240M+03551MA1999999098631MD1999999+0111REMSYN082AAXX  26004 82586 32994 03610 10278 20213 39863 40099 333 10355 29067 55024 58011;EQDQ01  00002PRCP06
0186825860999992002122612004-05200-039300FM-12+021199999V0200501N005710075019N0200001N1+02961+02131101131ADDAA106000091GF106991061021008001001001KA1240N+02421MA1999999098771MD1999999+0041REMSYN076AAXX  26124 82586 32598 60511 10296 20213 39877 40113 86200 333 20242 58004;EQDQ01  00002PRCP06
0167825860999992002122618004-05200-039300FM-12+021199999V02099999999990075019N0200001N1+03441+01211100751ADDAA106000091GF106991061021008001001001MA1999999098411MD1999999-0051REMSYN070AAXX  26184 82586 32598 636// 10344 20121 39841 40075 86200 333 59005;EQDQ01  00002PRCP06
0208825860999992002122700004-05200-039300FM-12+021199999V02099999999992200019N0010001N1+02751+02071100971ADDAA106000091GA1001+999999999GF100991001001999999001001KA1240M+03631MA1999999098591MD1999999-0021REMSYN082AAXX  27004 82586 32994 036// 10275 20207 39859 40097 333 10363 29058 55082 59002;EQDQ01  00002PRCP06
0186825860999992002122712004-05200-039300FM-12+021199999V02099999999990075019N0200001N1+02861+02191101051ADDAA106000091GF108991081071008001999999KA1240N+02481MA1999999098691MD1999999-0081REMSYN076AAXX  27124 82586 32598 809// 10286 20219 39869 40105 887// 333 20248 59008;EQDQ01  00002PRCP06
0167825860999992002122718004-05200-039300FM-12+021199999V02099999999990075019N0200001N1+03441+01761100761ADDAA106000091GF108991051021008001021999MA1999999098421MD1999999+0021REMSYN070AAXX  27184 82586 32598 805// 10344 20176 39842 40076 8522/ 333 58002;EQDQ01  00002PRCP06
0202825860999992002122800004-05200-039300FM-12+021199999V02099999999990075019N0010001N1+02801+02221100851ADDAY161061AY221061GF106991061041008001001001KA1240M+03511MA1999999098521MD1999999-0091MW1031REMSYN100AAXX  28004 82586 21594 636// 10280 20222 39852 40085 70362 86400 333 10351 29062 55024 59009 60031;
0162825860999992002122812004-05200-039300FM-12+021199999V02099999999990075019N0200001N1+02861+02161101011ADDGF105991051021008001001001KA1240N+02501MA1999999098651MD1999999-0041REMSYN082AAXX  28124 82586 22598 536// 10286 20216 39865 40101 85200 333 20250 59004 60034;
0167825860999992002122818004-05200-039300FM-12+021199999V02099999999992200019N0200001N1+03411+01891100711ADDAA106000091GF104991041021008001001001MA1999999098301MD1999999-0041REMSYN070AAXX  28184 82586 32598 405// 10341 20189 39830 40071 84200 333 59004;EQDQ01  00002PRCP06
0224825860999992002122900004-05200-039300FM-12+021199999V02099999999992200019N0010001N1+02721+02151100931ADDAA106000091GA1001+999999999GF100991001001999999001001KA1240M+03521MA1999999999999MD1999999+0051REMSYN082AAXX  29004 82586 32994 036// 10272 20215 39257 40093 333 10352 29062 55073 58005;EQDQ01  00002PRCP06Q02 092573APOSP 
0202825860999992002122912004-05200-039300FM-12+021199999V0200501N003110075019N0200001N1+02631+02181101041ADDAA106000091GF108991999021008001001001KA1240N+02461MA1999999098671MD1999999+0021REMSYN076AAXX  29124 82586 32598 80506 10263 20218 39867 40104 86200 333 20246 58002;EQDQ01+000062SCOTLCQ02  00002PRCP06
0183825860999992002122918004-05200-039300FM-12+021199999V0200901N005112200019N0200001N1+03361+01931100751ADDAA106000091GF104991999021008001001001MA1999999098411MD1999999+0041REMSYN070AAXX  29184 82586 32598 40910 10336 20193 39841 40075 83200 333 58004;EQDQ01+000032SCOTLCQ02  00002PRCP06
0198825860999992002123000004-05200-039300FM-12+021199999V0200501N004112200019N0010001N1+02811+01751100881ADDAA106000091GF104991041021012501001001KA1240M+03511MA1999999098521MD1999999-0071REMSYN088AAXX  30004 82586 32694 40508 10281 20175 39852 40088 84200 333 10351 29057 55039 59007;EQDQ01  00002PRCP06
0186825860999992002123012004-05200-039300FM-12+021199999V02099999999992200019N0200001N1+02941+01911101041ADDAA106000091GF104991041021008001001001KA1240N+02441MA1999999098691MD1999999+0021REMSYN076AAXX  30124 82586 32598 405// 10294 20191 39869 40104 84200 333 20244 58002;EQDQ01  00002PRCP06
0167825860999992002123018004-05200-039300FM-12+021199999V02099999999992200019N0200001N1+03581+01391100791ADDAA106000091GF103991031021008001001001MA1999999098451MD1999999+0041REMSYN070AAXX  30184 82586 32598 305// 10358 20139 39845 40079 83200 333 58004;EQDQ01  00002PRCP06
0208825860999992002123100004-05200-039300FM-12+021199999V02099999999992200019N0010001N1+02921+01671100911ADDAA106000091GA1001+999999999GF100991001001999999001001KA1240M+03621MA1999999098571MD1999999+0051REMSYN082AAXX  31004 82586 32994 036// 10292 20167 39857 40091 333 10362 29044 55106 58005;EQDQ01  00002PRCP06
0186825860999992002123112004-05200-039300FM-12+021199999V02099999999990075019N0200001N1+02901+02041101111ADDAA106000091GF106991061041008001001001KA1240N+02401MA1999999098761MD1999999+0071REMSYN076AAXX  31124 82586 32598 605// 10290 20204 39876 40111 86400 333 20240 58007;EQDQ01  00002PRCP06
0167825860999992002123118004-05200-039300FM-12+021199999V0200901N003112200019N0200001N1+03521+01601100871ADDAA106000091GF104991041021008001001001MA1999999098531MD1999999+0081REMSYN070AAXX  31184 82586 32598 40906 10352 20160 39853 40087 84200 333 58008;EQDQ01  00002PRCP06
