0167825960999992002031118004-05640-035420FM-12+006199999V0201401N003112200019N0040001N1+02921+02521101111ADDAA199000091GF105991021011008001081091MA1999999100381MD1999999-0041REMSYN070AAXX  11184 82596 32596 51406 10292 20252 30038 40111 82189 333 59004;EQDQ01  00002PRCP99
0182825960999992002031818004-05640-035420FM-12+006199999V0200901N003110450019N0040001N1+02841+02621100981ADDAA124010991AY161061AY221061GF107991031021008001091061MA1999999100251MD1999999-0011MW1031REMSYN082AAXX  18184 82596 21596 70906 10284 20262 30025 40098 70362 83296 333 59001 60114;
0226825960999992002031900004-05640-035420FM-12+006199999V0200901N000510075019N0020001N1+02541+02511101131ADDAA199000091AY121061AY221061GF105991051061008001001001KA1240M+02991MA1999999100411MD1999999-0041MW1151REMSYN094AAXX  19004 82596 31595 50901 10254 20251 30041 40113 71522 85600 333 10299 29092 55047 59004;EQDQ01  00002PRCP99
0201825960999992002041012004-05640-035420FM-12+006199999V0200901N001510450019N0040001N1+02881+02621101181ADDAA124007191AY161061AY221061GF106991041011008001081011KA1240N+02441MA1999999100461MD1999999-0061MW1011REMSYN088AAXX  10124 82596 21596 60903 10288 20262 30046 40118 70162 84181 333 20244 59006 60074;
0186825960999992002043012004-05640-035420FM-12+006199999V0201401N003110450019N0040001N1+02861+02351101421ADDAA199000091GF106991041081008001081091KA1240N+02321MA1999999100691MD1999999+0041REMSYN076AAXX  30124 82596 32596 61406 10286 20235 30069 40142 84889 333 20232 58004;EQDQ01  00002PRCP99
0167825960999992002051218004-05640-035420FM-12+006199999V0200901N010010075019N0040001N1+03021+02341101101ADDAA199000091GF106991061021008001001001MA1999999100381MD1999999-0191REMSYN070AAXX  12180 82596 32596 60910 10302 20234 30038 40110 86200 333 59019;EQDQ01  00002PRCP99
0198825960999992002051300004-05640-035420FM-12+006199999V0201401N001010075019N0020001N1+02501+02331101501ADDAA199000091GF105991051021008001001001KA1240M+03101MA1999999100771MD1999999+0081REMSYN088AAXX  13004 82596 32595 51402 10250 20233 30077 40150 85200 333 10310 29084 55085 58008;EQDQ01  00002PRCP99
0186825960999992002051312004-05640-035420FM-12+006199999V0201401N005110150019N0040001N1+02711+02301101491ADDAA199000091GF108991051001017501071061KA1240N+02211MA1999999100751MD1999999+0001REMSYN076AAXX  13124 82596 32796 81410 10271 20230 30075 40149 85076 333 20221 58000;EQDQ01  00002PRCP99
0201825960999992002051612004-05640-035420FM-12+006199999V0201401N001510075019N0040001N1+02781+02561101381ADDAA124002091AY161061AY211061GF107991051041008001081091KA1240N+02381MA1999999100651MD1999999-0101MW1011REMSYN088AAXX  16124 82596 21596 71403 10278 20256 30065 40138 70161 85489 333 20238 59010 60024;
0167825960999992002051618004-05640-035420FM-12+006199999V0200901N003112200019N0040001N1+02881+02541101091ADDAA199000091GF104991021021008001051011MA1999999100361MD1999999-0091REMSYN070AAXX  16184 82596 32596 40906 10288 20254 30036 40109 82251 333 59009;EQDQ01  00002PRCP99
0201825960999992002052212004-05640-035420FM-12+006199999V0201401N001510450019N0040001N1+02681+02521101351ADDAA124017091AY161061AY261061GF106991041021008001081081KA1240N+02341MA1999999100621MD1999999+0041MW1201REMSYN088AAXX  22124 82596 21596 61403 10268 20252 30062 40135 72066 84288 333 20234 58004 60174;
0201825960999992002052912004-05640-035420FM-12+006199999V0201401N003110450019N0040001N1+02701+02371101301ADDAA124001091AY161061AY211061GF106991041041008001081091KA1240N+02241MA1999999100571MD1999999-0051MW1011REMSYN088AAXX  29124 82596 21596 61406 10270 20237 30057 40130 70161 84489 333 20224 59005 60014;
0214825960999992002061100004-05650-035420FM-12+006199999V0201401N001519999999N0020001N1+02401+02211101451ADDAA199000091GF105991999011008001001001KA1240M+02981MA1999999100701MD1999999+0121REMSYN088AAXX  11004 82596 32595 51403 10240 20221 30070 40145 82100 333 10298 29080 55066 58012;EQDQ01+000022SCOTLCQ02  00002PRCP99
0186825960999992002061112004-05650-035420FM-12+006199999V0201401N002110450019N0040001N1+02761+02231101511ADDAA199000091GF106991041041008001051011KA1240N+02241MA1999999100771MD1999999-0031REMSYN076AAXX  11124 82596 32596 61404 10276 20223 30077 40151 84451 333 20224 59003;EQDQ01  00002PRCP99
0190825960999992002062712004-05650-035420FM-12+006199999V0201401N005110450019N0040001N1+02601+02191101781ADDAY111061AY201061GF106991041041008001051091KA1240N+02101MA1999999101041MD1999999-0141MW1201REMSYN088AAXX  27124 82596 21596 61410 10260 20219 30104 40178 72010 84459 333 20210 59014 69924;
0186825960999992002071312004-05650-035420FM-12+006199999V0201401N003110450019N0040001N1+02541+02251101611ADDAA199000091GF106991031041008001051091KA1240N+02001MA1999999100871MD1999999+0001REMSYN076AAXX  13124 82596 32596 61406 10254 20225 30087 40161 83459 333 20200 58000;EQDQ01  00002PRCP99
