0198826780999992002010100004-06760-043010FM-12+013899999V0201401N000510450019N0002001N1+02541+02251101291ADDAA199000091GF108991031051008001031999KA1240M+02881MA1999999099701MD1999999-0021REMSYN088AAXX  01004 82678 32592 81401 10254 20225 39970 40129 8353/ 333 10288 29081 55015 59002;EQDQ01  00002PRCP99
0182826780999992002010218004-06760-043010FM-12+013899999V0201801N001010075019N0040001N1+02321+02271101351ADDAA106038191AY161061AY261061GF108991081051008001999999MA1999999099751MD1999999+0361MW1631REMSYN082AAXX  02184 82678 21596 81802 10232 20227 39975 40135 76366 885// 333 58036 60381;
0213826780999992002010300004-06760-043010FM-12+013899999V0209999C000010075019N0002001N1+02321+02271101451ADDAA106000591AY161061AY261061GF108991081051008001999999KA1240M+02741MA1999999099851MD1999999+0291MW1631REMSYN100AAXX  03004 82678 21592 80000 10232 20227 39985 40145 76366 885// 333 10274 29097 55000 58029 69951;
0167826780999992002010318004-06760-043010FM-12+013899999V0203201N001010450019N0040001N1+03031+02291101071ADDAA199000091GF108991031081008001031011MA1999999099491MD1999999-0261REMSYN070AAXX  03184 82678 32596 83202 10303 20229 39949 40107 83831 333 59026;EQDQ01  00002PRCP99
0198826780999992002010400004-06760-043010FM-12+013899999V0202701N001010075019N0002001N1+02681+02511101281ADDAA199000091GF108991051051008001021999KA1240M+03091MA1999999099691MD1999999-0161REMSYN088AAXX  04004 82678 32592 82702 10268 20251 39969 40128 8552/ 333 10309 29084 55044 59016;EQDQ01  00002PRCP99
0201826780999992002010412004-06760-043010FM-12+013899999V0209999C000010075019N0040001N1+02521+02431101591ADDAA124011991AY161061AY221061GF108991061051008001021999KA1240N+02321MA1999999100001MD1999999+0081MW1031REMSYN088AAXX  04124 82678 21596 80000 10252 20243 30000 40159 70362 8652/ 333 20232 58008 60124;
0182826780999992002010418004-06760-043010FM-12+013899999V0201801N001010075019N0040001N1+02281+02251101501ADDAA106095091AY161061AY261061GF108991061051008001021999MA1999999099901MD1999999+0411MW1211REMSYN082AAXX  04184 82678 21596 81802 10228 20225 39990 40150 72166 8652/ 333 58041 60951;
0213826780999992002010500004-06760-043010FM-12+013899999V0209999C000010075019N0002001N1+02301+02251101471ADDAA106023191AY161061AY261061GF108991081051008001999999KA1240M+02821MA1999999099871MD1999999+0181MW1211REMSYN100AAXX  05004 82678 21592 80000 10230 20225 39987 40147 72166 885// 333 10282 29097 55000 58018 60231;
0173826780999992002010512004-06760-043010FM-12+013899999V0200901N001010075019N0040001N1+02311+99999101691ADDAA124118191GF108991061051008001031021KA1240N+02211MA1999999100091MD1999999+0091REMSYN082AAXX  05124 82678 22596 80902 10231 20252 30009 40169 86532 333 20221 58009 61184;
0167826780999992002010518004-06760-043010FM-12+013899999V0201401N001012200019N0040001N1+03221+02341101071ADDAA199000091GF104991031021008001001021MA1999999099591MD1999999-0401REMSYN070AAXX  05184 82678 32596 41402 10322 20234 39959 40107 83202 333 59040;EQDQ01  00002PRCP99
0208826780999992002010600004-06760-043010FM-12+013899999V0209999C000012200019N0002001N1+02661+02441101341ADDAA199000091GA1001+999999999GF100991001001999999001001KA1240M+03311MA1999999099761MD1999999-0111REMSYN082AAXX  06004 82678 32992 00000 10266 20244 39976 40134 333 10331 29081 55051 59011;EQDQ01  00002PRCP99
0201826780999992002010612004-06760-043010FM-12+013899999V0201801N001010075019N0040001N1+02301+02251101481ADDAA124016091AY161061AY291061GF108991061051008001021999KA1240N+02241MA1999999099891MD1999999-0201MW1611REMSYN088AAXX  06124 82678 21596 81802 10230 20225 39989 40148 76169 8652/ 333 20224 59020 60164;
0182826780999992002010618004-06760-043010FM-12+013899999V0200501N001010075019N0040001N1+02381+02351101231ADDAA106074991AY161061AY261061GF108991081051008001999999MA1999999099641MD1999999+0141MW1031REMSYN082AAXX  06184 82678 21596 80502 10238 20235 39964 40123 70366 885// 333 58014 60751;
0213826780999992002010700004-06760-043010FM-12+013899999V0209999C000010075019N0002001N1+02361+02311101441ADDAA106002091AY161061AY221061GF108991081051008001999999KA1240M+02611MA1999999099841MD1999999+0081MW1031REMSYN100AAXX  07004 82678 21592 80000 10236 20231 39984 40144 70362 885// 333 10261 29097 55000 58008 60021;
0168826780999992002010712004-06760-043010FM-12+013899999V0209999C000010075019N0040001N1+02331+02271101541ADDGF108991061011008001061061KA1240N+02201MA1999999099841MD1999999+0051REMSYN088AAXX  07124 82678 21596 80000 10233 20227 39984 40154 86166 887// 333 20220 58005 60814;
0182826780999992002010718004-06760-043010FM-12+013899999V0200501N001510075019N0040001N1+02441+02371101181ADDAA106005191AY161061AY261061GF108991081071008001999999MA1999999099581MD1999999-0061MW1611REMSYN082AAXX  07184 82678 21596 80503 10244 20237 39958 40118 76166 887// 333 59006 60051;
0213826780999992002010800004-06760-043010FM-12+013899999V0200501N000510075019N0002001N1+02371+02331101401ADDAA106002091AY121061AY261061GF108991081071008001999999KA1240M+02561MA1999999099801MD1999999-0041MW1611REMSYN100AAXX  08004 82678 21592 80501 10237 20233 39980 40140 76126 887// 333 10256 29097 55000 59004 60021;
0201826780999992002010812004-06760-043010FM-12+013899999V0200901N001010075019N0040001N1+02421+02331101501ADDAA124032091AY161061AY211061GF108991081071008001999999KA1240N+02221MA1999999099901MD1999999-0041MW1611REMSYN088AAXX  08124 82678 21596 80902 10242 20233 39990 40150 76161 887// 333 20222 59004 60324;
0182826780999992002010818004-06760-043010FM-12+013899999V0200901N000510075019N0040001N1+02601+02391101081ADDAA106004191AY161061AY211061GF108991081051008001999999MA1999999099491MD1999999-0091MW1021REMSYN082AAXX  08184 82678 21596 80901 10260 20239 39949 40108 70261 885// 333 59009 60041;
0213826780999992002010900004-06760-043010FM-12+013899999V0202701N001510075019N0002001N1+02181+02151101581ADDAA106023991AY161061AY241061GF108991081051008001999999KA1240M+02781MA1999999099971MD1999999+0171MW1611REMSYN100AAXX  09004 82678 21592 82703 10218 20215 39997 40158 76164 885// 333 10278 29095 55000 58017 60241;
0201826780999992002010912004-06760-043010FM-12+013899999V0200501N000510075019N0040001N1+02301+02251101721ADDAA124037191AY161061AY261061GF108991081071008001999999KA1240N+02121MA1999999100111MD1999999+0211MW1501REMSYN088AAXX  09124 82678 21596 80501 10230 20225 30011 40172 75066 887// 333 20212 58021 60374;
0182826780999992002010918004-06760-043010FM-12+013899999V0200901N000510075019N0100001N1+02741+02211101301ADDAA106000591AY121061AY221061GF108991051051008001021021MA1999999099711MD1999999+0221MW1021REMSYN082AAXX  09184 82678 21597 80901 10274 20221 39971 40130 70222 85522 333 58022 69941;
0179826780999992002011000004-06760-043010FM-12+013899999V0209999C000010075019N0002001N1+02411+02311101551ADDAA199000021GF108991061051008001021999KA1240M+02851MA1999999099951MD1999999-0021REMSYN088AAXX  10004 82678 32592 80000 10241 20231 39995 40155 8652/ 333 10285 29090 55004 59002;
0201826780999992002011012004-06760-043010FM-12+013899999V0201401N001010075019N0040001N1+02681+02331101661ADDAA124003091AY161061AY221061GF108991051021008001001021KA1240N+02261MA1999999100071MD1999999-0041MW1021REMSYN088AAXX  10124 82678 21596 81402 10268 20233 30007 40166 70262 85202 333 20226 59004 60034;
0182826780999992002011018004-06760-043010FM-12+013899999V0203201N001010075019N0040001N1+02961+02281101191ADDAA106000591AY161061AY221061GF108991061021008001001011MA1999999099611MD1999999-0101MW1021REMSYN082AAXX  10184 82678 21596 83202 10296 20228 39961 40119 70262 86201 333 59010 69941;
0167826780999992002011118004-06760-043010FM-12+013899999V0201401N002611050019N0040001N1+03091+02241101281ADDAA199000091GF105991031031008001001021MA1999999099711MD1999999+0101REMSYN070AAXX  11184 82678 32596 51405 10309 20224 39971 40128 83302 333 58010;EQDQ01  00002PRCP99
0198826780999992002011200004-06760-043010FM-12+013899999V0202701N001512200019N0002001N1+02581+02371101561ADDAA199000091GF102991021041008001001001KA1240M+03151MA1999999099981MD1999999+0121REMSYN088AAXX  12004 82678 32592 22703 10258 20237 39998 40156 82400 333 10315 29076 55075 58012;EQDQ01  00002PRCP99
0201826780999992002011212004-06760-043010FM-12+013899999V0200901N001510075019N0040001N1+02721+02321101751ADDAA124001091AY161061AY221061GF108991051031008001021011KA1240N+02381MA1999999100161MD1999999+0021MW1021REMSYN088AAXX  12124 82678 21596 80903 10272 20232 30016 40175 70262 85321 333 20238 58002 60014;
0182826780999992002011218004-06760-043010FM-12+013899999V0201401N001511050019N0040001N1+02881+02321101271ADDAA106002091AY161061AY221061GF105991031021008001001021MA1999999099691MD1999999-0021MW1021REMSYN082AAXX  12184 82678 21596 51403 10288 20232 39969 40127 70262 83202 333 59002 60021;
0198826780999992002011300004-06760-043010FM-12+013899999V0209999C000010450019N0002001N1+02601+02441101391ADDAA199000091GF105991031051008001021011KA1240M+03121MA1999999099811MD1999999-0171REMSYN088AAXX  13004 82678 32592 50000 10260 20244 39981 40139 83521 333 10312 29083 55040 59017;EQDQ01  00002PRCP99
0201826780999992002011312004-06760-043010FM-12+013899999V0200501N000510450019N0040001N1+02501+02411101691ADDAA124017091AY161061AY221061GF108991041081008001031021KA1240N+02251MA1999999100101MD1999999-0061MW1021REMSYN088AAXX  13124 82678 21596 80501 10250 20241 30010 40169 70262 84832 333 20225 59006 60174;
0167826780999992002011318004-06760-043010FM-12+013899999V0201401N002110450019N0040001N1+03041+02201101291ADDAA199000091GF108991041021008001011021MA1999999099711MD1999999+0021REMSYN070AAXX  13184 82678 32596 81404 10304 20220 39971 40129 84212 333 58002;EQDQ01  00002PRCP99
0208826780999992002011400004-06760-043010FM-12+013899999V0209999C000012200019N0002001N1+02641+02441101451ADDAA199000091GA1001+999999999GF100991001001999999001001KA1240M+03111MA1999999099861MD1999999+0051REMSYN082AAXX  14004 82678 32992 00000 10264 20244 39986 40145 333 10311 29084 55060 58005;EQDQ01  00002PRCP99
0201826780999992002011412004-06760-043010FM-12+013899999V0203601N001012200019N0040001N1+02601+02441101531ADDAA124011991AY161061AY221061GF103991021021008001001011KA1240N+02221MA1999999099941MD1999999-0161MW1021REMSYN088AAXX  14124 82678 21596 33602 10260 20244 39994 40153 70262 82201 333 20222 59016 60124;
0167826780999992002011418004-06760-043010FM-12+013899999V0200501N001512200019N0040001N1+03221+02201100971ADDAA199000091GF104991031021008001001021MA1999999099411MD1999999-0301REMSYN070AAXX  14184 82678 32596 40503 10322 20220 39941 40097 83202 333 59030;EQDQ01  00002PRCP99
0198826780999992002011500004-06760-043010FM-12+013899999V0209999C000010450019N0002001N1+02801+02521101201ADDAA199000091GF105991031021008001051011KA1240M+03241MA1999999099631MD1999999-0231REMSYN088AAXX  15004 82678 32592 50000 10280 20252 39963 40120 83251 333 10324 29079 55101 59023;EQDQ01  00002PRCP99
0201826780999992002011512004-06760-043010FM-12+013899999V0202701N001010075019N0040001N1+02361+02261101371ADDAA124030091AY161061AY261061GF108991051071008001021999KA1240N+02181MA1999999099791MD1999999-0151MW1611REMSYN088AAXX  15124 82678 21596 82702 10236 20226 39979 40137 76166 8572/ 333 20218 59015 60304;
0179826780999992002011600004-06760-043010FM-12+013899999V0201801N000510450019N0040001N1+02481+02391101291ADDAA199000021GF106991041061008001011001KA1240M+02841MA1999999099691MD1999999+0061REMSYN088AAXX  16004 82678 32596 61801 10248 20239 39969 40129 84610 333 10284 29093 55000 58006;
0201826780999992002011612004-06760-043010FM-12+013899999V0200901N001510075019N0040001N1+02381+02291101491ADDAA124014091AY161061AY241061GF108991081071008001999999KA1240N+02301MA1999999099891MD1999999+0101MW1611REMSYN088AAXX  16124 82678 21596 80903 10238 20229 39989 40149 76164 887// 333 20230 58010 60144;
0182826780999992002011618004-06760-043010FM-12+013899999V0200501N001010075019N0040001N1+02461+02391101071ADDAA106023191AY161061AY261061GF108991081051008001999999MA1999999099481MD1999999+0011MW1611REMSYN082AAXX  16184 82678 21596 80502 10246 20239 39948 40107 76166 885// 333 58001 60231;
0201826780999992002011712004-06760-043010FM-12+013899999V0203201N001510075019N0040001N1+02491+02251101481ADDAA124024991AY161061AY221061GF108991061051008001021999KA1240N+02251MA1999999099881MD1999999-0011MW1511REMSYN088AAXX  17124 82678 21596 83203 10249 20225 39988 40148 75162 8652/ 333 20225 59001 60254;
0148826780999992002011718004-06760-043010FM-12+013899999V0202301N001510120019N0040001N1+02991+02301101081ADDAA199000021GF108991051081008001031021MA1999999099511MD1999999+0031REMSYN070AAXX  17184 82678 32596 82303 10299 20230 39951 40108 85832 333 58003;
0213826780999992002011800004-06760-043010FM-12+013899999V0200901N001010075019N0002001N1+02521+02341101381ADDAA106003091AY161061AY221061GF108991081071008001999999KA1240M+03051MA1999999099791MD1999999+0031MW1021REMSYN100AAXX  18004 82678 21592 80902 10252 20234 39979 40138 70262 887// 333 10305 29084 55008 58003 60031;
0201826780999992002011812004-06760-043010FM-12+013899999V0200901N000510075019N0040001N1+02281+02251101651ADDAA124087991AY161061AY261061GF108991061051008001021999KA1240N+02121MA1999999100051MD1999999+0171MW1511REMSYN088AAXX  18124 82678 21596 80901 10228 20225 30005 40165 75166 8652/ 333 20212 58017 60884;
0148826780999992002011818004-06760-043010FM-12+013899999V0200901N000510075019N0040001N1+02981+02231101251ADDAA199000021GF108991071051008001001021MA1999999099651MD1999999+0141REMSYN070AAXX  18184 82678 32596 80901 10298 20223 39965 40125 87502 333 58014;
0179826780999992002011900004-06760-043010FM-12+013899999V0209999C000010075019N0002001N1+02541+02331101291ADDAA199000021GF105991051051008001001001KA1240M+03051MA1999999099691MD1999999-0101REMSYN088AAXX  19004 82678 32592 50000 10254 20233 39969 40129 85500 333 10305 29084 55036 59010;
0186826780999992002011912004-06760-043010FM-12+013899999V0200901N001519999999N0040001N1+02741+02171101401ADDAA199000091GF106991041001008001031011KA1240N+02241MA1999999099821MD1999999-0231REMSYN076AAXX  19124 82678 32596 60903 10274 20217 39982 40140 84031 333 20224 59023;EQDQ01  00002PRCP99
0167826780999992002011918004-06760-043010FM-12+013899999V0201401N001510075019N0040001N1+03301+02151100981ADDAA199000091GF106991051021008001001011MA1999999099421MD1999999-0231REMSYN070AAXX  19184 82678 32596 61403 10330 20215 39942 40098 85201 333 59023;EQDQ01  00002PRCP99
0198826780999992002012000004-06760-043010FM-12+013899999V0200501N002110075019N0002001N1+02771+02281101271ADDAA199000091GF105991051041008001001001KA1240M+03371MA1999999099701MD1999999+0011REMSYN088AAXX  20004 82678 32592 50504 10277 20228 39970 40127 85400 333 10337 29068 55104 58001;EQDQ01  00002PRCP99
0186826780999992002012012004-06760-043010FM-12+013899999V0201401N001010075019N0040001N1+02721+02281101541ADDAA199000091GF108991051051008001021999KA1240N+02381MA1999999099961MD1999999+0141REMSYN076AAXX  20124 82678 32596 81402 10272 20228 39996 40154 8552/ 333 20238 58014;EQDQ01  00002PRCP99
0182826780999992002012018004-06760-043010FM-12+013899999V0209999C000010075019N0040001N1+03121+02331101161ADDAA106000591AY161061AY211061GF108991061021008001001021MA1999999099591MD1999999+0171MW1021REMSYN082AAXX  20184 82678 21596 80000 10312 20233 39959 40116 70261 86202 333 58017 69961;
0213826780999992002012100004-06760-043010FM-12+013899999V0209999C000010075019N0040001N1+02361+02281101421ADDAA106007191AY161061AY221061GF108991081051008001999999KA1240M+03191MA1999999099831MD1999999+0131MW1611REMSYN100AAXX  21004 82678 21596 80000 10236 20228 39983 40142 76162 885// 333 10319 29082 55044 58013 60071;
0173826780999992002012112004-06760-043010FM-12+013899999V0209999C000010075019N0040001N1+02541+02291101741ADDAA124007191GF108991051021008001001021KA1240N+02161MA1999999100141MD1999999+0181REMSYN082AAXX  21124 82678 22596 80000 10254 20229 30014 40174 85202 333 20216 58018 60074;
0167826780999992002012118004-06760-043010FM-12+013899999V0209999C000010075019N0040001N1+03241+02181101271ADDAA199000091GF108991061021008001001021MA1999999099651MD1999999+0061REMSYN070AAXX  21184 82678 32596 80000 10324 20218 39965 40127 86202 333 58006;EQDQ01  00002PRCP99
0198826780999992002012200004-06760-043010FM-12+013899999V0201401N001511050019N0002001N1+02781+02251101521ADDAA199000091GF105991021051008001021011KA1240M+03351MA1999999099941MD1999999+0111REMSYN088AAXX  22004 82678 32592 51403 10278 20225 39994 40152 82521 333 10335 29072 55087 58011;EQDQ01  00002PRCP99
0186826780999992002012212004-06760-043010FM-12+013899999V0209999C000012200019N0040001N1+02621+02121101811ADDAA199000091GF105991031021008001001011KA1240N+02201MA1999999100231MD1999999+0091REMSYN076AAXX  22124 82678 32596 50000 10262 20212 30023 40181 83201 333 20220 58009;EQDQ01  00002PRCP99
0198826780999992002012300004-06760-043010FM-12+013899999V0209999C000012200019N0040001N1+02621+02311101661ADDAA199000091GF104991021011008001031011KA1240M+03121MA1999999100071MD1999999+0131REMSYN088AAXX  23000 82678 32596 40000 10262 20231 30007 40166 82131 333 10312 29074 55057 58013;EQDQ01  00002PRCP99
0186826780999992002012312004-06760-043010FM-12+013899999V0203601N001012200019N0040001N1+02701+02221101711ADDAA199000091GF106991031041008001001011KA1240N+02211MA1999999100121MD1999999-0111REMSYN076AAXX  23124 82678 32596 63602 10270 20222 30012 40171 83401 333 20221 59011;EQDQ01  00002PRCP99
0167826780999992002012318004-06760-043010FM-12+013899999V0201401N002111050019N0040001N1+03181+02071101391ADDAA199000091GF108991041021008001001021MA1999999099821MD1999999-0061REMSYN070AAXX  23184 82678 32596 81404 10318 20207 39982 40139 84202 333 59006;EQDQ01  00002PRCP99
0198826780999992002012400004-06760-043010FM-12+013899999V0209999C000011050019N0002001N1+02631+02331101481ADDAA199000091GF108991041001017501011021KA1240M+03231MA1999999099901MD1999999-0171REMSYN088AAXX  24004 82678 32792 80000 10263 20233 39990 40148 84012 333 10323 29074 55090 59017;EQDQ01  00002PRCP99
0201826780999992002012412004-06760-043010FM-12+013899999V0202701N000510450019N0040001N1+02621+02371101681ADDAA124002091AY161061AY221061GF108991041051008001021021KA1240N+02321MA1999999100091MD1999999-0031MW1021REMSYN088AAXX  24124 82678 21596 82701 10262 20237 30009 40168 70262 84522 333 20232 59003 60024;
0167826780999992002012418004-06760-043010FM-12+013899999V0200501N001010450019N0040001N1+03121+02331101241ADDAA199000091GF108991031081008001021021MA1999999099671MD1999999-0151REMSYN070AAXX  24184 82678 32596 80502 10312 20233 39967 40124 83822 333 59015;EQDQ01  00002PRCP99
0226826780999992002012500004-06760-043010FM-12+013899999V0209999C000010450019N0002001N1+02301+02231101391ADDAA106027991AY161061AY221061GF105991031051008001021011KA1240M+03161MA1999999099801MD1999999-0101REMSYN100AAXX  25004 82678 21592 50000 10230 20223 39980 40139 76962 83521 333 10316 29085 55044 59010 60281;EQDQ01+000692PRSWM1
0173826780999992002012512004-06760-043010FM-12+013899999V0200901N001010450019N0040001N1+02681+02411101681ADDAA124027991GF108991041081008001011011KA1240N+02211MA1999999100081MD1999999-0011REMSYN082AAXX  25124 82678 22596 80902 10268 20241 30008 40168 84811 333 20221 59001 60284;
0167826780999992002012518004-06760-043010FM-12+013899999V0201401N001510075019N0040001N1+03241+02281101161ADDAA199000091GF108991051021008001021011MA1999999099591MD1999999-0081REMSYN070AAXX  25184 82678 32596 81403 10324 20228 39959 40116 85221 333 59008;EQDQ01  00002PRCP99
0198826780999992002012600004-06760-043010FM-12+013899999V0209999C000010450019N0002001N1+02601+02331101481ADDAA199000091GF108991041041008001011999KA1240M+03311MA1999999099901MD1999999+0101REMSYN088AAXX  26004 82678 32592 80000 10260 20233 39990 40148 8441/ 333 10331 29078 55076 58010;EQDQ01  00002PRCP99
0186826780999992002012612004-06760-043010FM-12+013899999V0203601N001010075019N0040001N1+02741+02341101651ADDAA199000091GF108991051021008001001011KA1240N+02241MA1999999100061MD1999999-0021REMSYN076AAXX  26124 82678 32596 83602 10274 20234 30006 40165 85201 333 20224 59002;EQDQ01  00002PRCP99
0201826780999992002012618004-06760-043010FM-12+013899999V0203201N001010450019N0040001N1+02621+02331101281ADDAA106003091AY191061AY291061GF108991041021008001031011MA1999999069692MD1999999+0101MW1021REMSYN082AAXX  26184 82678 21596 83202 10262 20233 36969 40128 70299 84231 333 58010 60031;EQDQ01+069693APOSP 
0173826780999992002012712004-06760-043010FM-12+013899999V0203201N001012200019N0040001N1+02631+02271101661ADDAA124003091GF104991041041008001001001KA1240N+02261MA1999999100071MD1999999+0011REMSYN082AAXX  27124 82678 22596 43202 10263 20227 30007 40166 84400 333 20226 58001 60034;
0167826780999992002012718004-06760-043010FM-12+013899999V0201401N000510075019N0040001N1+03231+02231101151ADDAA199000091GF105991051021008001001001MA1999999099581MD1999999-0111REMSYN070AAXX  27184 82678 32596 51401 10323 20223 39958 40115 85200 333 59011;EQDQ01  00002PRCP99
0213826780999992002012800004-06760-043010FM-12+013899999V0201401N001510075019N0002001N1+02601+02351101321ADDAA106003091AY161061AY221061GF106991051041008001031001KA1240M+03381MA1999999099741MD1999999-0121MW1021REMSYN100AAXX  28004 82678 21592 61403 10260 20235 39974 40132 70262 85430 333 10338 29077 55101 59012 60031;
0183826780999992002012812004-06760-043010FM-12+013899999V0200901N000512200019N0040001N1+02741+02261101481ADDAA124003091GA1001+999999999GF100991001001999999001001KA1240N+02281MA1999999099901MD1999999-0171REMSYN076AAXX  28124 82678 22996 00901 10274 20226 39990 40148 333 20228 59017 60034;
0167826780999992002012818004-06760-043010FM-12+013899999V0200901N000510075019N0040001N1+03261+02301101071ADDAA199000091GF106991061051008001001001MA1999999099501MD1999999-0081REMSYN070AAXX  28184 82678 32596 60901 10326 20230 39950 40107 86500 333 59008;EQDQ01  00002PRCP99
0213826780999992002012900004-06760-043010FM-12+013899999V0200901N001512200019N0002001N1+02541+02151101221ADDAA106000191AY161061AY221061GF104991021001017501031021KA1240M+03311MA1999999099641MD1999999-0101MW1011REMSYN100AAXX  29004 82678 21792 40903 10254 20215 39964 40122 70162 82032 333 10331 29072 55107 59010 69921;
0173826780999992002012912004-06760-043010FM-12+013899999V0200501N001012200019N0040001N1+02701+02281101501ADDAA124000191GF103991031011008001001001KA1240N+02161MA1999999099911MD1999999+0011REMSYN082AAXX  29124 82678 22596 30502 10270 20228 39991 40150 83100 333 20216 58001 69924;
0167826780999992002012918004-06760-043010FM-12+013899999V0202701N000512200019N0040001N1+03331+02001101101ADDAA199000091GF103991031021008001001001MA1999999099531MD1999999+0031REMSYN070AAXX  29184 82678 32596 32701 10333 20200 39953 40110 83200 333 58003;EQDQ01  00002PRCP99
0208826780999992002013000004-06760-043010FM-12+013899999V0201401N001012200019N0002001N1+02701+02371101251ADDAA199000091GA1001+999999999GF100991001001999999001001KA1240M+03381MA1999999099671MD1999999+0031REMSYN082AAXX  30004 82678 32992 01402 10270 20237 39967 40125 333 10338 29072 55114 58003;EQDQ01  00002PRCP99
0186826780999992002013012004-06760-043010FM-12+013899999V0200501N000512200019N0040001N1+02761+02301101461ADDAA199000091GF102991021011008001001001KA1240N+02301MA1999999099881MD1999999-0031REMSYN076AAXX  30124 82678 32596 20501 10276 20230 39988 40146 82100 333 20230 59003;EQDQ01  00002PRCP99
0167826780999992002013018004-06760-043010FM-12+013899999V0201401N001012200019N0040001N1+03361+02071101131ADDAA199000091GF104991041021008001001001MA1999999099571MD1999999+0041REMSYN070AAXX  30184 82678 32596 41402 10336 20207 39957 40113 84200 333 58004;EQDQ01  00002PRCP99
0198826780999992002013100004-06760-043010FM-12+013899999V0209999C000012200019N0002001N1+02761+02421101131ADDAA199000091GF104991031051008001031001KA1240M+03411MA1999999099561MD1999999-0111REMSYN088AAXX  31004 82678 32592 40000 10276 20242 39956 40113 83530 333 10341 29072 55111 59011;EQDQ01  00002PRCP99
0186826780999992002013112004-06760-043010FM-12+013899999V0200501N002112200019N0040001N1+02831+02291101451ADDAA199000091GF103991011021008001031021KA1240N+02311MA1999999099881MD1999999+0001REMSYN076AAXX  31124 82678 32596 30504 10283 20229 39988 40145 81232 333 20231 58000;EQDQ01  00002PRCP99
0195826780999992002013118004-06760-043010FM-12+013899999V0209999C000010075019N0040001N1+02591+02081101131ADDAA199000091AY121061AY221061GF108991061071008001001021MA1999999099541MD1999999-0031MW1291REMSYN076AAXX  31184 82678 31596 80000 10259 20208 39954 40113 72922 86702 333 59003;EQDQ01  00002PRCP99
0208826780999992002020100004-06760-043010FM-12+013899999V0209999C000012200019N0002001N1+02561+02271101241ADDAA199000091GA1001+999999999GF100991001001999999001001KA1240M+03281MA1999999099661MD1999999+0101REMSYN082AAXX  01004 82678 32592 00000 10256 20227 39966 40124 333 10328 29075 55065 58010;EQDQ01  00002PRCP99
0186826780999992002020112004-06760-043010FM-12+013899999V0200901N001010450019N0040001N1+02601+02351101581ADDAA199000091GF108991041021008001031021KA1240N+02301MA1999999099991MD1999999+0111REMSYN076AAXX  01124 82678 32596 80902 10260 20235 39999 40158 84232 333 20230 58011;EQDQ01  00002PRCP99
0167826780999992002020118004-06760-043010FM-12+013899999V0209999C000010075019N0040001N1+03181+02281101201ADDAA199000091GF108991051021008001001021MA1999999099631MD1999999+0091REMSYN070AAXX  01184 82678 32596 80000 10318 20228 39963 40120 85202 333 58009;EQDQ01  00002PRCP99
0198826780999992002020200004-06760-043010FM-12+013899999V0209999C000012200019N0002001N1+02561+02151101331ADDAA199000091GF103991021011008001001011KA1240M+03251MA1999999099751MD1999999+0091REMSYN088AAXX  02004 82678 32592 30000 10256 20215 39975 40133 82101 333 10325 29075 55068 58009;EQDQ01  00002PRCP99
0202826780999992002020212004-06760-043010FM-12+013899999V0209999C000019999999N0040001N1+02781+02251101511ADDAA199000091GF108991999021008001001001KA1240N+02201MA1999999099931MD1999999-0061REMSYN076AAXX  02124 82678 32596 80000 10278 20225 39993 40151 84200 333 20220 59006;EQDQ01+000042SCOTLCQ02  00002PRCP99
0183826780999992002020218004-06760-043010FM-12+013899999V0200501N001519999999N0040001N1+03221+02291101191ADDAA199000091GF108991999011008001001001MA1999999099601MD1999999-0031REMSYN070AAXX  02184 82678 32596 80503 10322 20229 39960 40119 82100 333 59003;EQDQ01+000022SCOTLCQ02  00002PRCP99
0208826780999992002020300004-06760-043010FM-12+013899999V0200901N001012200019N0002001N1+02721+02321101331ADDAA199000091GA1001+999999999GF100991001001999999001001KA1240M+03301MA1999999099761MD1999999+0011REMSYN082AAXX  03004 82678 32992 00902 10272 20232 39976 40133 333 10330 29072 55080 58001;EQDQ01  00002PRCP99
0186826780999992002020312004-06760-043010FM-12+013899999V0200501N001510075019N0005001N1+02701+02301101601ADDAA199000091GF108991051021008001001011KA1240N+02231MA1999999100021MD1999999+0091REMSYN076AAXX  03124 82678 32593 80503 10270 20230 30002 40160 85201 333 20223 58009;EQDQ01  00002PRCP99
0167826780999992002020318004-06760-043010FM-12+013899999V0200501N002110075019N0040001N1+03201+02031101121ADDAA199000091GF106991051021008001031001MA1999999099551MD1999999-0051REMSYN070AAXX  03184 82678 32596 60504 10320 20203 39955 40112 85230 333 59005;EQDQ01  00002PRCP99
0208826780999992002020400004-06760-043010FM-12+013899999V0209999C000012200019N0002001N1+02661+02221101361ADDAA199000091GA1001+999999999GF100991001001999999001001KA1240M+03241MA1999999099781MD1999999+0021REMSYN082AAXX  04004 82678 32792 00000 10266 20222 39978 40136 333 10324 29071 55095 58002;EQDQ01  00002PRCP99
0186826780999992002020412004-06760-043010FM-12+013899999V0201401N002112200019N0200001N1+02841+02141101521ADDAA199000091GF104991021001017501031011KA1240N+02361MA1999999099941MD1999999-0081REMSYN076AAXX  04124 82678 32798 41404 10284 20214 39994 40152 82031 333 20236 59008;EQDQ01  00002PRCP99
0167826780999992002020418004-06760-043010FM-12+013899999V0200501N002112200019N0040001N1+03351+02191101111ADDAA199000091GF106991041021008001001011MA1999999099551MD1999999+0001REMSYN070AAXX  04184 82678 32596 60504 10335 20219 39955 40111 84201 333 58000;EQDQ01  00002PRCP99
0208826780999992002020500004-06760-043010FM-12+013899999V0200901N000512200019N0002001N1+02781+02341101331ADDAA199000091GA1001+999999999GF100991001001999999001001KA1240M+03411MA1999999099761MD1999999-0021REMSYN082AAXX  05004 82678 32992 00901 10278 20234 39976 40133 333 10341 29068 55099 59002;EQDQ01  00002PRCP99
0186826780999992002020512004-06760-043010FM-12+013899999V0200501N000512200019N0040001N1+02821+02201101581ADDAA199000091GF103991021011008001001011KA1240N+02341MA1999999100011MD1999999+0071REMSYN076AAXX  05124 82678 32596 30501 10282 20220 30001 40158 82101 333 20234 58007;EQDQ01  00002PRCP99
0167826780999992002020518004-06760-043010FM-12+013899999V0200501N001010075019N0040001N1+03321+02041101201ADDAA199000091GF108991051021008001001011MA1999999099641MD1999999+0091REMSYN070AAXX  05184 82678 32596 80502 10332 20204 39964 40120 85201 333 58009;EQDQ01  00002PRCP99
0198826780999992002020600004-06760-043010FM-12+013899999V0209999C000012200019N0002001N1+02761+02341101341ADDAA199000091GF103991021011008001001011KA1240M+03361MA1999999099771MD1999999+0011REMSYN088AAXX  06004 82678 32592 30000 10276 20234 39977 40134 82101 333 10336 29068 55095 58001;EQDQ01  00002PRCP99
0201826780999992002020612004-06760-043010FM-12+013899999V0201401N002110075019N0040001N1+02551+02291101601ADDAA124015091AY161061AY261061GF108991061051008001021999KA1240N+02361MA1999999100021MD1999999+0011MW1021REMSYN088AAXX  06124 82678 21596 81404 10255 20229 30002 40160 70266 8652/ 333 20236 58001 60154;
0167826780999992002020618004-06760-043010FM-12+013899999V0202301N001010450019N0040001N1+02941+02241101171ADDAA199000091GF106991021031008001021011MA1999999099591MD1999999-0051REMSYN070AAXX  06184 82678 32596 62302 10294 20224 39959 40117 82321 333 59005;EQDQ01  00002PRCP99
0167826780999992002020718004-06760-043010FM-12+013899999V0200901N002110450019N0040001N1+03141+02211101101ADDAA199000091GF106991041051008001031001MA1999999099521MD1999999-0071REMSYN070AAXX  07184 82678 32596 60904 10314 20221 39952 40110 84530 333 59007;EQDQ01  00002PRCP99
0198826780999992002020800004-06760-043010FM-12+013899999V0209999C000010075019N0002001N1+02781+02561101211ADDAA199000091GF108991051051008001021999KA1240M+03231MA1999999099631MD1999999-0401REMSYN088AAXX  08004 82678 32592 80000 10278 20256 39963 40121 8552/ 333 10323 29081 55069 59040;EQDQ01  00002PRCP99
0186826780999992002020812004-06760-043010FM-12+013899999V0200901N003112200019N0040001N1+02781+02111101441ADDAA199000091GF105991011001017501031011KA1240N+02241MA1999999099871MD1999999-0111REMSYN076AAXX  08124 82678 32796 50906 10278 20211 39987 40144 81031 333 20224 59011;EQDQ01  00002PRCP99
0183826780999992002020818004-06760-043010FM-12+013899999V0200901N003119999999N0040001N1+03221+02051101101ADDAA199000091GF105991999021008001001001MA1999999099551MD1999999+0031REMSYN070AAXX  08184 82678 32596 50906 10322 20205 39955 40110 83200 333 58003;EQDQ01+000032SCOTLCQ02  00002PRCP99
0208826780999992002020900004-06760-043010FM-12+013899999V0201801N001012200019N0005001N1+02641+02251101361ADDAA199000091GA1001+999999999GF100991001001999999001001KA1240M+03291MA1999999099781MD1999999+0061REMSYN082AAXX  09004 82678 32993 01802 10264 20225 39978 40136 333 10329 29069 55105 58006;EQDQ01  00002PRCP99
0186826780999992002020912004-06760-043010FM-12+013899999V0200901N001512200019N0040001N1+02821+02161101611ADDAA199000091GF102991021011008001001011KA1240N+02221MA1999999100041MD1999999+0171REMSYN076AAXX  09124 82678 32596 20903 10282 20216 30004 40161 82101 333 20222 58017;EQDQ01  00002PRCP99
0167826780999992002020918004-06760-043010FM-12+013899999V0209999C000012200019N0040001N1+03221+02261101261ADDAA199000091GF103991021021008001001021MA1999999099691MD1999999+0141REMSYN070AAXX  09184 82678 32596 30000 10322 20226 39969 40126 82202 333 58014;EQDQ01  00002PRCP99
0208826780999992002021000004-06760-043010FM-12+013899999V0209999C000012200019N0002001N1+02581+02231101421ADDAA199000091GA1001+999999999GF100991001001999999001001KA1240M+03311MA1999999099841MD1999999+0061REMSYN082AAXX  10004 82678 32992 00000 10258 20223 39984 40142 333 10331 29074 55098 58006;EQDQ01  00002PRCP99
0220826780999992002021012004-06760-043010FM-12+013899999V0200901N000510075019N0040001N1+02261+02141101681ADDAA124008991AY161061AY221061GF108991999021008001001001KA1240N+02101MA1999999100081MD1999999+0041MW1911REMSYN088AAXX  10124 82678 21596 80901 10226 20214 30008 40168 79162 86200 333 20210 58004 60094;EQDQ01+000062SCOTLC
0182826780999992002021018004-06760-043010FM-12+013899999V0203201N000510450019N0040001N1+02981+02221101261ADDAA106001091AY161061AY221061GF105991041051008001031001MA1999999099681MD1999999-0011MW1011REMSYN082AAXX  10184 82678 21596 53201 10298 20222 39968 40126 70162 84530 333 59001 60011;
0232826780999992002021100004-06760-043010FM-12+013899999V0200901N001510075019N0020001N1+02181+02101101481ADDAA106007191AY161061AY221061GF108991999021008001001001KA1240M+03131MA1999999099871MD1999999+0031MW1911REMSYN100AAXX  11004 82678 21595 80903 10218 20210 39987 40148 79162 86200 333 10313 29088 55044 58003 60071;EQDQ01+000062SCOTLC
0201826780999992002021112004-06760-043010FM-12+013899999V0209999C000010075019N0040001N1+02481+02321101551ADDAA124017091AY161061AY221061GF107991071051008001001001KA1240N+02081MA1999999099951MD1999999-0131MW1021REMSYN088AAXX  11124 82678 21596 70000 10248 20232 39995 40155 70262 87500 333 20208 59013 60174;
0167826780999992002021118004-06760-043010FM-12+013899999V0201401N001510075019N0040001N1+03001+02321101181ADDAA199000091GF107991061051008001021001MA1999999099601MD1999999-0081REMSYN070AAXX  11184 82678 32596 71403 10300 20232 39960 40118 86520 333 59008;EQDQ01  00002PRCP99
0198826780999992002021200004-06760-043010FM-12+013899999V0209999C000012200019N0002001N1+02421+02171101291ADDAA199000091GF104991041051008001001001KA1240M+03131MA1999999099701MD1999999-0171REMSYN088AAXX  12004 82678 32592 40000 10242 20217 39970 40129 84500 333 10313 29082 55063 59017;EQDQ01  00002PRCP99
0201826780999992002021212004-06760-043010FM-12+013899999V0200901N001512200019N0040001N1+02661+02261101651ADDAA124006191AY161061AY221061GF103991021051008001001011KA1240N+02131MA1999999100061MD1999999+0111MW1061REMSYN088AAXX  12124 82678 21596 30903 10266 20226 30006 40165 70662 82501 333 20213 58011 60064;
0167826780999992002021218004-06760-043010FM-12+013899999V0200901N001010075019N0040001N1+03081+02211101311ADDAA199000091GF108991051051008001001011MA1999999099731MD1999999+0131REMSYN070AAXX  12184 82678 32596 80902 10308 20221 39973 40131 85501 333 58013;EQDQ01  00002PRCP99
0198826780999992002021300004-06760-043010FM-12+013899999V0200501N001510450019N0040001N1+02421+02191101531ADDAA199000091GF108991041051008001021001KA1240M+03141MA1999999099951MD1999999+0251REMSYN088AAXX  13004 82678 32596 80503 10242 20219 39995 40153 84520 333 10314 29078 55074 58025;EQDQ01  00002PRCP99
0186826780999992002021312004-06760-043010FM-12+013899999V0200901N001510075019N0040001N1+02561+02231101611ADDAA199000091GF108991051051008001021011KA1240N+02211MA1999999100021MD1999999-0041REMSYN076AAXX  13124 82678 32596 80903 10256 20223 30002 40161 85521 333 20221 59004;EQDQ01  00002PRCP99
0182826780999992002021318004-06760-043010FM-12+013899999V0200501N001010075019N0040001N1+02681+02331101401ADDAA106000391AY151061AY261061GF108991061051008001021999MA1999999099811MD1999999+0081MW1511REMSYN082AAXX  13184 82678 21596 80502 10268 20233 39981 40140 75156 8652/ 333 58008 69931;
0213826780999992002021400004-06760-043010FM-12+013899999V0209999C000010450019N0002001N1+02461+02371101481ADDAA106000391AY161061AY221061GF105991031051008001021011KA1240M+02831MA1999999099891MD1999999-0061MW1511REMSYN100AAXX  14004 82678 21592 50000 10246 20237 39989 40148 75162 83521 333 10283 29088 55002 59006 69931;
0201826780999992002021412004-06760-043010FM-12+013899999V0200901N000510450019N0040001N1+02581+02211101641ADDAA124001091AY161061AY221061GF107991031051008001031001KA1240N+02241MA1999999100051MD1999999+0031MW1021REMSYN088AAXX  14124 82678 21596 70901 10258 20221 30005 40164 70262 83530 333 20224 58003 60014;
0167826780999992002021418004-06760-043010FM-12+013899999V0200901N000510075019N0040001N1+03161+02171101241ADDAA199000091GF107991071051008001001001MA1999999099691MD1999999-0121REMSYN070AAXX  14184 82678 32596 70901 10316 20217 39969 40124 87500 333 59012;EQDQ01  00002PRCP99
0213826780999992002021500004-06760-043010FM-12+013899999V0209999C000012200019N0002001N1+02441+02341101421ADDAA106001091AY161061AY221061GF104991041051008001001001KA1240M+03211MA1999999099831MD1999999-0061MW1011REMSYN100AAXX  15004 82678 21592 40000 10244 20234 39983 40142 70162 84500 333 10321 29081 55059 59006 60011;
0201826780999992002021512004-06760-043010FM-12+013899999V0201401N000512200019N0040001N1+02781+02301101631ADDAA124001091AY161061AY221061GF103991021001008001031011KA1240N+02321MA1999999100041MD1999999-0011MW1011REMSYN088AAXX  15124 82678 21596 31401 10278 20230 30004 40163 70162 82031 333 20232 59001 60014;
0167826780999992002021518004-06760-043010FM-12+013899999V0200901N001010075019N0040001N1+03281+02231101241ADDAA199000091GF106991061051008001001001MA1999999099671MD1999999-0021REMSYN070AAXX  15184 82678 32596 60902 10328 20223 39967 40124 86500 333 59002;EQDQ01  00002PRCP99
0198826780999992002021600004-06760-043010FM-12+013899999V0200501N001010075019N0002001N1+02601+02391101431ADDAA199000091GF108991071051008001021999KA1240M+03311MA1999999099851MD1999999+0021REMSYN088AAXX  16004 82678 32592 80502 10260 20239 39985 40143 8752/ 333 10331 29076 55107 58002;EQDQ01  00002PRCP99
0201826780999992002021612004-06760-043010FM-12+013899999V0203601N001010075019N0040001N1+02601+02351101701ADDAA124008991AY161061AY221061GF108991051051008001021011KA1240N+02241MA1999999100111MD1999999+0071MW1021REMSYN088AAXX  16124 82678 21596 83602 10260 20235 30011 40170 70262 85521 333 20224 58007 60094;
0183826780999992002021618004-06760-043010FM-12+013899999V0200901N002119999999N0040001N1+03301+02181101241ADDAA199000091GF106991999021008001001001MA1999999099671MD1999999+0001REMSYN070AAXX  16184 82678 32596 60904 10330 20218 39967 40124 84200 333 58000;EQDQ01+000042SCOTLCQ02  00002PRCP99
0198826780999992002021700004-06760-043010FM-12+013899999V0201401N001010450019N0002001N1+02781+02481101261ADDAA199000091GF108991041051008001011001KA1240M+03321MA1999999099691MD1999999-0161REMSYN088AAXX  17004 82678 32592 81402 10278 20248 39969 40126 84510 333 10332 29076 55092 59016;EQDQ01  00002PRCP99
0186826780999992002021712004-06760-043010FM-12+013899999V0203601N001010450019N0040001N1+02741+02431101531ADDAA199000091GF106991031021008001031011KA1240N+02321MA1999999099951MD1999999-0161REMSYN076AAXX  17124 82678 32596 63602 10274 20243 39995 40153 83231 333 20232 59016;EQDQ01  00002PRCP99
0167826780999992002021718004-06760-043010FM-12+013899999V0200901N001012200019N0040001N1+03301+02211101151ADDAA199000091GF104991021021008001001021MA1999999099591MD1999999-0081REMSYN070AAXX  17184 82678 32596 40902 10330 20221 39959 40115 82202 333 59008;EQDQ01  00002PRCP99
0198826780999992002021800004-06760-043010FM-12+013899999V0209999C000010075019N0002001N1+02641+02311101271ADDAA199000091GF108991051051008001021999KA1240M+03421MA1999999099711MD1999999+0021REMSYN088AAXX  18004 82678 32592 80000 10264 20231 39971 40127 8552/ 333 10342 29076 55102 58002;EQDQ01  00002PRCP99
0201826780999992002021812004-06760-043010FM-12+013899999V0201401N000512200019N0040001N1+02901+02391101341ADDAA124000191AY161061AY221061GF102991011001017501031011KA1240N+02321MA1999999099771MD1999999-0181MW1011REMSYN088AAXX  18124 82678 21796 21401 10290 20239 39977 40134 70162 81031 333 20232 59018 69914;
0167826780999992002021818004-06760-043010FM-12+013899999V0200901N001510075019N0040001N1+03381+02221101031ADDAA199000091GF105991051021008001001001MA1999999099471MD1999999-0121REMSYN070AAXX  18184 82678 32596 50903 10338 20222 39947 40103 85200 333 59012;EQDQ01  00002PRCP99
0208826780999992002021900004-06760-043010FM-12+013899999V0209999C000012200019N0002001N1+02801+02521101101ADDAA199000091GA1001+999999999GF100991001001999999001001KA1240M+03431MA1999999099541MD1999999-0171REMSYN082AAXX  19004 82678 32992 00000 10280 20252 39954 40110 333 10343 29074 55109 59017;EQDQ01  00002PRCP99
0186826780999992002021912004-06760-043010FM-12+013899999V0203601N000510450019N0040001N1+02741+02341101441ADDAA199000091GF107991041051008001031021KA1240N+02321MA1999999099861MD1999999+0091REMSYN076AAXX  19124 82678 32596 73601 10274 20234 39986 40144 84532 333 20232 58009;EQDQ01  00002PRCP99
0167826780999992002021918004-06760-043010FM-12+013899999V0200901N001512200019N0040001N1+03341+02151101071ADDAA199000091GF105991031021008001001011MA1999999099511MD1999999+0041REMSYN070AAXX  19184 82678 32596 50903 10334 20215 39951 40107 83201 333 58004;EQDQ01  00002PRCP99
0208826780999992002022000004-06760-043010FM-12+013899999V0200901N000512200019N0002001N1+02721+02391101131ADDAA199000091GA1001+999999999GF100991001001999999001001KA1240M+03421MA1999999099561MD1999999+0021REMSYN082AAXX  20004 82678 32992 00901 10272 20239 39956 40113 333 10342 29073 55103 58002;EQDQ01  00002PRCP99
0186826780999992002022012004-06760-043010FM-12+013899999V0200901N003110075019N0040001N1+02821+02151101531ADDAA199000091GF108991051021008001001011KA1240N+02301MA1999999099951MD1999999+0091REMSYN076AAXX  20124 82678 32596 80906 10282 20215 39995 40153 85201 333 20230 58009;EQDQ01  00002PRCP99
0167826780999992002022018004-06760-043010FM-12+013899999V0200901N000512200019N0040001N1+03281+02511101101ADDAA199000091GF104991021021008001001021MA1999999099541MD1999999+0031REMSYN070AAXX  20184 82678 32596 40901 10328 20251 39954 40110 82202 333 58003;EQDQ01  00002PRCP99
0198826780999992002022100004-06760-043010FM-12+013899999V0209999C000010450019N0002001N1+02821+02461101131ADDAA199000091GF105991031051008001031001KA1240M+03411MA1999999099561MD1999999+0001REMSYN088AAXX  21004 82678 32592 50000 10282 20246 39956 40113 83530 333 10341 29076 55096 58000;EQDQ01  00002PRCP99
0196826780999992002022112004-06760-043010FM-12+013899999V0201401N001512200019N0040001N1+02801+02131101441ADDAA199000091GA1001+999999999GF100991001001999999001001KA1240N+02161MA1999999099871MD1999999-0081REMSYN070AAXX  21124 82678 32796 01403 10280 20213 39987 40144 333 20216 59008;EQDQ01  00002PRCP99
0167826780999992002022118004-06760-043010FM-12+013899999V0201401N001011050019N0040001N1+03281+02341100991ADDAA199000091GF105991031021008001001021MA1999999099441MD1999999-0101REMSYN070AAXX  21184 82678 32596 51402 10328 20234 39944 40099 83202 333 59010;EQDQ01  00002PRCP99
0208826780999992002022200004-06760-043010FM-12+013899999V0209999C000012200019N0002001N1+02721+02301101131ADDAA199000091GA1001+999999999GF100991001001999999001001KA1240M+03381MA1999999099561MD1999999+0001REMSYN082AAXX  22004 82678 32992 00000 10272 20230 39956 40113 333 10338 29069 55107 58000;EQDQ01  00002PRCP99
0201826780999992002022212004-06760-043010FM-12+013899999V0200901N000512200019N0040001N1+02761+02281101301ADDAA124001091AY161061AY221061GF102991011011008001031001KA1240N+02301MA1999999099731MD1999999-0141MW1011REMSYN088AAXX  22124 82678 21596 20901 10276 20228 39973 40130 70162 81130 333 20230 59014 60014;
0167826780999992002022218004-06760-043010FM-12+013899999V0200901N001010075019N0040001N1+03381+02161100961ADDAA199000091GF105991051021008001001001MA1999999099411MD1999999-0031REMSYN070AAXX  22184 82678 32596 50902 10338 20216 39941 40096 85200 333 59003;EQDQ01  00002PRCP99
0208826780999992002022300004-06760-043010FM-12+013899999V0209999C000012200019N0002001N1+02761+02441100991ADDAA199000091GA1001+999999999GF100991001001999999001001KA1240M+03511MA1999999099421MD1999999-0141REMSYN082AAXX  23004 82678 32992 00000 10276 20244 39942 40099 333 10351 29072 55101 59014;EQDQ01  00002PRCP99
0186826780999992002022312004-06760-043010FM-12+013899999V0203601N000512200019N0040001N1+02881+02301101401ADDAA199000091GF102991011011008001001011KA1240N+02201MA1999999099831MD1999999+0101REMSYN076AAXX  23124 82678 32596 23601 10288 20230 39983 40140 81101 333 20220 58010;EQDQ01  00002PRCP99
0167826780999992002022318004-06760-043010FM-12+013899999V0200901N000510075019N0040001N1+03381+02221101111ADDAA199000091GF105991051021008001001001MA1999999099551MD1999999+0141REMSYN070AAXX  23184 82678 32596 50901 10338 20222 39955 40111 85200 333 58014;EQDQ01  00002PRCP99
0208826780999992002022400004-06760-043010FM-12+013899999V0209999C000012200019N0002001N1+02701+02351101181ADDAA199000091GA1001+999999999GF100991001001999999001001KA1240M+03531MA1999999099611MD1999999+0191REMSYN082AAXX  24004 82678 32992 00000 10270 20235 39961 40118 333 10353 29071 55108 58019;EQDQ01  00002PRCP99
0183826780999992002022418004-06760-043010FM-12+013899999V0200901N001019999999N0040001N1+03541+01971101131ADDAA199000091GF105991999021008001001001MA1999999099571MD1999999+0021REMSYN070AAXX  24184 82678 32596 50902 10354 20197 39957 40113 83200 333 58002;EQDQ01+000032SCOTLCQ02  00002PRCP99
0167826780999992002022518004-06760-043010FM-12+013899999V0203601N001012200019N0040001N1+03361+02211101071ADDAA199000091GF104991021021008001001011MA1999999099511MD1999999-0061REMSYN070AAXX  25184 82678 32596 43602 10336 20221 39951 40107 82201 333 59006;EQDQ01  00002PRCP99
0208826780999992002022600004-06760-043010FM-12+013899999V0209999C000012200019N0002001N1+02721+02431101221ADDAA199000091GA1001+999999999GF100991001001999999001001KA1240M+03431MA1999999099651MD1999999-0031REMSYN082AAXX  26004 82678 32992 00000 10272 20243 39965 40122 333 10343 29076 55077 59003;EQDQ01  00002PRCP99
0201826780999992002022612004-06760-043010FM-12+013899999V0209999C000010075019N0040001N1+02671+02371101581ADDAA124008991AY161061AY221061GF108991071051008001031999KA1240N+02241MA1999999100001MD1999999+0061MW1021REMSYN088AAXX  26124 82678 21596 80000 10267 20237 30000 40158 70262 8753/ 333 20224 58006 60094;
0167826780999992002022618004-06760-043010FM-12+013899999V0200901N001010075019N0040001N1+03281+02261101061ADDAA199000091GF106991051051008001031001MA1999999099501MD1999999-0011REMSYN070AAXX  26184 82678 32596 60902 10328 20226 39950 40106 85530 333 59001;EQDQ01  00002PRCP99
0213826780999992002022700004-06760-043010FM-12+013899999V0201401N001010075019N0002001N1+02481+02271101231ADDAA106000191AY161061AY221061GF108991081051008001999999KA1240M+03411MA1999999099651MD1999999+0001MW1031REMSYN100AAXX  27004 82678 21592 81402 10248 20227 39965 40123 70362 885// 333 10341 29079 55046 58000 69921;
0173826780999992002022712004-06760-043010FM-12+013899999V0200901N000510075019N0040001N1+02621+02311101571ADDAA124000191GF107991061051008001001011KA1240N+02201MA1999999099981MD1999999-0021REMSYN082AAXX  27124 82678 22596 70901 10262 20231 39998 40157 86501 333 20220 59002 69924;
0167826780999992002022718004-06760-043010FM-12+013899999V0201401N001510075019N0040001N1+03181+02251101181ADDAA199000091GF106991061051008001001001MA1999999099611MD1999999+0111REMSYN070AAXX  27184 82678 32596 61403 10318 20225 39961 40118 86500 333 58011;EQDQ01  00002PRCP99
0165826780999992002022800004-06760-043010FM-12+013899999V0209999C000012200019N0002001N1+02701+02431101151ADDAA199000091GA1021+002509029MA1999999099571REMSYN076AAXX  28004 82678 32992 10000 10270 20243 39957 40115 333 29086 55008 82893;EQDQ01+000012SCOTCVQ02  00002PRCP99
0196826780999992002022812004-06760-043010FM-12+013899999V0209999C000012200019N0020001N1+02881+02161999999ADDAA199000091GA1001+999999999GF100991001001999999001001KA1240N+02021MA1999999099891MD1999999-0211REMSYN070AAXX  28124 82678 32995 00000 10288 20216 39989 85460 333 20202 59021;EQDQ01  00002PRCP99
0167826780999992002022818004-06760-043010FM-12+013899999V0200901N003112200019N0040001N1+03361+02141101021ADDAA199000091GF104991021021008001001021MA1999999099461MD1999999-0151REMSYN070AAXX  28184 82678 32596 40906 10336 20214 39946 40102 82202 333 59015;EQDQ01  00002PRCP99
0208826780999992002030100004-06760-043010FM-12+013899999V0209999C000012200019N0002001N1+02761+02321101121ADDAA199000091GA1001+999999999GF100991001001999999001001KA1240M+03431MA1999999099551MD1999999-0021REMSYN082AAXX  01004 82678 32992 00000 10276 20232 39955 40112 333 10343 29067 55107 59002;EQDQ01  00002PRCP99
0186826780999992002030112004-06760-043010FM-12+013899999V0200901N003612200019N0040001N1+02901+02151101401ADDAA199000091GF102991011011008001001011KA1240N+02231MA1999999099831MD1999999-0061REMSYN076AAXX  01124 82678 32596 20907 10290 20215 39983 40140 81101 333 20223 59006;EQDQ01  00002PRCP99
0167826780999992002030118004-06760-043010FM-12+013899999V0201401N001512200019N0040001N1+03361+02171101121ADDAA199000091GF104991021021008001001011MA1999999099561MD1999999+0101REMSYN070AAXX  01184 82678 32596 41403 10336 20217 39956 40112 82201 333 58010;EQDQ01  00002PRCP99
0167826780999992002030218004-06760-043010FM-12+013899999V0201401N001011050019N0040001N1+03361+02111101041ADDAA199000091GF105991031021008001001021MA1999999099481MD1999999-0081REMSYN070AAXX  02184 82678 32596 51402 10336 20211 39948 40104 83202 333 59008;EQDQ01  00002PRCP99
0167826780999992002030318004-06760-043010FM-12+013899999V0200901N002610075019N0040001N1+03321+02071101081ADDAA199000091GF107991051051008001001041MA1999999099521MD1999999+0041REMSYN070AAXX  03184 82678 32596 70905 10332 20207 39952 40108 85504 333 58004;EQDQ01  00002PRCP99
0186826780999992002030412004-06760-043010FM-12+013899999V0202701N001012200019N0040001N1+02621+02291101531ADDAA199000091GF108991041011008001001011KA1240N+02311MA1999999099951MD1999999+0051REMSYN076AAXX  04124 82678 32596 82702 10262 20229 39995 40153 84101 333 20231 58005;EQDQ01  00002PRCP99
0167826780999992002030418004-06760-043010FM-12+013899999V0200901N001010075019N0040001N1+03101+02181101151ADDAA199000091GF108991051051008001031021MA1999999099581MD1999999+0061REMSYN070AAXX  04184 82678 32596 80902 10310 20218 39958 40115 85532 333 58006;EQDQ01  00002PRCP99
0201826780999992002030512004-06760-043010FM-12+013899999V0201401N003110075019N0040001N1+02381+02241101581ADDAA124022191AY161061AY221061GF108991061051008001021999KA1240N+02121MA1999999099991MD1999999+0041MW1021REMSYN088AAXX  05124 82678 21596 81406 10238 20224 39999 40158 70262 8652/ 333 20212 58004 60224;
0167826780999992002030518004-06760-043010FM-12+013899999V0200901N003610450019N0040001N1+02821+02241101401ADDAA199000091GF108991041051008001031021MA1999999099811MD1999999+0231REMSYN070AAXX  05184 82678 32596 80907 10282 20224 39981 40140 84532 333 58023;EQDQ01  00002PRCP99
0208826780999992002030600004-06760-043010FM-12+013899999V0209999C000012200019N0002001N1+02481+02341101561ADDAA199000091GA1001+999999999GF100991001001999999001001KA1240M+03161MA1999999099961MD1999999+0021REMSYN082AAXX  06004 82678 32592 00000 10248 20234 39996 40156 333 10316 29087 55001 58002;EQDQ01  00002PRCP99
0186826780999992002030612004-06760-043010FM-12+013899999V0203601N000510075019N0040001N1+02401+02211101581ADDAA199000091GF108991071051008001031999KA1240N+02301MA1999999099981MD1999999-0011REMSYN076AAXX  06124 82678 32596 83601 10240 20221 39998 40158 8753/ 333 20230 59001;EQDQ01  00002PRCP99
0167826780999992002030618004-06760-043010FM-12+013899999V0200501N001010075019N0040001N1+03021+02161101251ADDAA199000091GF108991051051008001031021MA1999999099671MD1999999-0141REMSYN070AAXX  06184 82678 32596 80502 10302 20216 39967 40125 85532 333 59014;EQDQ01  00002PRCP99
0198826780999992002030700004-06760-043010FM-12+013899999V0209999C000010075019N0002001N1+02601+02391101351ADDAA199000091GF105991051051008001001001KA1240M+03071MA1999999099751MD1999999-0201REMSYN088AAXX  07004 82678 32592 50000 10260 20239 39975 40135 85500 333 10307 29081 55017 59020;EQDQ01  00002PRCP99
0186826780999992002030712004-06760-043010FM-12+013899999V0200901N000510075019N0040001N1+02601+02351101651ADDAA199000091GF108991081051008001999999KA1240N+02321MA1999999100061MD1999999+0081REMSYN076AAXX  07124 82678 32596 80901 10260 20235 30006 40165 885// 333 20232 58008;EQDQ01  00002PRCP99
0182826780999992002030718004-06760-043010FM-12+013899999V0200901N001510075019N0040001N1+02661+02371101391ADDAA106002091AY161061AY221061GF108991061051008001071999MA1999999099801MD1999999+0131MW1031REMSYN082AAXX  07184 82678 21596 80903 10266 20237 39980 40139 70362 8657/ 333 58013 60021;
0198826780999992002030800004-06760-043010FM-12+013899999V0209999C000010075019N0001001N1+02461+02371101511ADDAA199000091GF106991061051008001001001KA1240M+02771MA1999999099921MD1999999+0161REMSYN088AAXX  08004 82678 32591 60000 10246 20237 39992 40151 86500 333 10277 29090 55058 58016;EQDQ01  00002PRCP99
0173826780999992002030812004-06760-043010FM-12+013899999V0209999C000010075019N0040001N1+02501+02401101781ADDAA124002091GF108991051051008001021999KA1240N+02281MA1999999100181MD1999999+0121REMSYN082AAXX  08124 82678 22596 80000 10250 20240 30018 40178 8552/ 333 20228 58012 60024;
0167826780999992002030818004-06760-043010FM-12+013899999V0201401N002110075019N0040001N1+03101+02231101221ADDAA199000091GF108991061051008001021011MA1999999099651MD1999999-0151REMSYN070AAXX  08184 82678 32596 81404 10310 20223 39965 40122 86521 333 59015;EQDQ01  00002PRCP99
0208826780999992002030900004-06760-043010FM-12+013899999V0209999C000012200019N0002001N1+02581+02421101511ADDAA199000091GA1001+999999999GF100991001001999999001001KA1240M+03141MA1999999099921MD1999999+0001REMSYN082AAXX  09004 82678 32992 00000 10258 20242 39992 40151 333 10314 29084 55027 58000;EQDQ01  00002PRCP99
0202826780999992002030912004-06760-043010FM-12+013899999V0209999C000010075019N0040001N1+02681+02391101651ADDAA199000091GF108991999021008001001001KA1240N+02301MA1999999100061MD1999999-0121REMSYN076AAXX  09124 82678 32596 80000 10268 20239 30006 40165 86200 333 20230 59012;EQDQ01+000062SCOTLCQ02  00002PRCP99
0183826780999992002030918004-06760-043010FM-12+013899999V0201401N001519999999N0040001N1+03081+02291101281ADDAA199000091GF108991999021008001001001MA1999999099711MD1999999+0061REMSYN070AAXX  09184 82678 32596 81403 10308 20229 39971 40128 84200 333 58006;EQDQ01+000042SCOTLCQ02  00002PRCP99
0208826780999992002031000004-06760-043010FM-12+013899999V0209999C000012200019N0002001N1+02561+02421101491ADDAA199000091GA1001+999999999GF100991001001999999001001KA1240M+03141MA1999999099901MD1999999-0021REMSYN082AAXX  10004 82678 32992 00000 10256 20242 39990 40149 333 10314 29083 55022 59002;EQDQ01  00002PRCP99
0186826780999992002031012004-06760-043010FM-12+013899999V0201801N001010075019N0040001N1+02861+02331101581ADDAA199000091GF108991051051008001031021KA1240N+02321MA1999999100001MD1999999-0061REMSYN076AAXX  10124 82678 32596 81802 10286 20233 30000 40158 85532 333 20232 59006;EQDQ01  00002PRCP99
0167826780999992002031018004-06760-043010FM-12+013899999V0201401N001510075019N0040001N1+03261+02241101141ADDAA199000091GF108991051011008001001041MA1999999099581MD1999999-0131REMSYN070AAXX  10184 82678 32596 81403 10326 20224 39958 40114 85104 333 59013;EQDQ01  00002PRCP99
0198826780999992002031100004-06760-043010FM-12+013899999V0209999C000010075019N0002001N1+02701+02451101251ADDAA199000091GF105991051051008001001001KA1240M+03331MA1999999099681MD1999999-0221REMSYN088AAXX  11004 82678 32592 50000 10270 20245 39968 40125 85500 333 10333 29075 55088 59022;EQDQ01  00002PRCP99
0186826780999992002031112004-06760-043010FM-12+013899999V0201401N000510450019N0040001N1+02861+02261101581ADDAA199000091GF107991031051008001031041KA1240N+02311MA1999999100011MD1999999+0011REMSYN076AAXX  11124 82678 32596 71401 10286 20226 30001 40158 83534 333 20231 58001;EQDQ01  00002PRCP99
0167826780999992002031118004-06760-043010FM-12+013899999V0201401N002611050019N0040001N1+03301+02211101211ADDAA199000091GF107991031051008001001021MA1999999099631MD1999999+0051REMSYN070AAXX  11184 82678 32596 71405 10330 20221 39963 40121 83502 333 58005;EQDQ01  00002PRCP99
0198826780999992002031200004-06760-043010FM-12+013899999V0209999C000010075019N0020001N1+02761+02421101401ADDAA199000091GF108991081051008001999999KA1240M+03331MA1999999099831MD1999999+0151REMSYN088AAXX  12004 82678 32595 80000 10276 20242 39983 40140 885// 333 10333 29072 55090 58015;EQDQ01  00002PRCP99
0186826780999992002031212004-06760-043010FM-12+013899999V0200501N000512200019N0040001N1+02861+02031101731ADDAA199000091GF105991041051008001001011KA1240N+02201MA1999999100161MD1999999+0151REMSYN076AAXX  12123 82678 32596 50501 10286 20203 30016 40173 84501 333 20220 58015;EQDQ01  00002PRCP99
0167826780999992002031218004-06760-043010FM-12+013899999V0201401N001510075019N0040001N1+03341+02401101311ADDAA199000091GF108991051021008001001021MA1999999099741MD1999999+0111REMSYN070AAXX  12184 82678 32596 81403 10334 20240 39974 40131 85202 333 58011;EQDQ01  00002PRCP99
0208826780999992002031300004-06760-043010FM-12+013899999V0209999C000012200019N0002001N1+02681+02481101511ADDAA199000091GA1001+999999999GF100991001001999999001001KA1240M+03421MA1999999099931MD1999999+0101REMSYN082AAXX  13004 82678 32992 00000 10268 20248 39993 40151 333 10342 29074 55089 58010;EQDQ01  00002PRCP99
0186826780999992002031312004-06760-043010FM-12+013899999V0201401N002110450019N0040001N1+02661+02181101731ADDAA199000091GF106991031051008001031001KA1240N+02241MA1999999100151MD1999999-0011REMSYN076AAXX  13124 82678 32596 61404 10266 20218 30015 40173 83530 333 20224 59001;EQDQ01  00002PRCP99
0167826780999992002031318004-06760-043010FM-12+013899999V0201401N002112200019N0040001N1+03431+01981101251ADDAA199000091GF105991031021008001001011MA1999999099691MD1999999-0051REMSYN070AAXX  13184 82678 32596 51404 10343 20198 39969 40125 83201 333 59005;EQDQ01  00002PRCP99
0208826780999992002031400004-06760-043010FM-12+013899999V0209999C000012200019N0002001N1+02681+02301101271ADDAA199000091GA1001+999999999GF100991001001999999001001KA1240M+03431MA1999999099691MD1999999-0241REMSYN082AAXX  14004 82678 32992 00000 10268 20230 39969 40127 333 10343 29069 55090 59024;EQDQ01  00002PRCP99
0186826780999992002031412004-06760-043010FM-12+013899999V0203601N000510075019N0040001N1+02721+02221101531ADDAA199000091GF107991061051008001001011KA1240N+02221MA1999999099951MD1999999-0201REMSYN076AAXX  14124 82678 32596 73601 10272 20222 39995 40153 86501 333 20222 59020;EQDQ01  00002PRCP99
0167826780999992002031418004-06760-043010FM-12+013899999V0200901N001010075019N0040001N1+03301+02021101161ADDAA199000091GF106991051051008001001011MA1999999099601MD1999999-0091REMSYN070AAXX  14184 82678 32596 60902 10330 20202 39960 40116 85501 333 59009;EQDQ01  00002PRCP99
0208826780999992002031500004-06760-043010FM-12+013899999V0201401N001012200019N0002001N1+02651+02331101251ADDAA199000091GA1001+999999999GF100991001001999999001001KA1240M+03451MA1999999099671MD1999999-0021REMSYN082AAXX  15004 82678 32992 01402 10265 20233 39967 40125 333 10345 29072 55079 59002;EQDQ01  00002PRCP99
0186826780999992002031512004-06760-043010FM-12+013899999V0200501N000512200019N0040001N1+02701+02331101561ADDAA199000091GF108991041051008001001011KA1240N+02241MA1999999099981MD1999999+0031REMSYN076AAXX  15124 82678 32596 80501 10270 20233 39998 40156 84501 333 20224 58003;EQDQ01  00002PRCP99
0167826780999992002031518004-06760-043010FM-12+013899999V0200501N002612200019N0040001N1+03181+02311101101ADDAA199000091GF104991021021008001001011MA1999999099531MD1999999-0071REMSYN070AAXX  15184 82678 32596 40505 10318 20231 39953 40110 82201 333 59007;EQDQ01  00002PRCP99
0208826780999992002031600004-06760-043010FM-12+013899999V0209999C000012200019N0002001N1+02581+02371101251ADDAA199000091GA1001+999999999GF100991001001999999001001KA1240M+03431MA1999999099671MD1999999+0001REMSYN082AAXX  16004 82678 32992 00000 10258 20237 39967 40125 333 10343 29079 55093 58000;EQDQ01  00002PRCP99
0186826780999992002031612004-06760-043010FM-12+013899999V0200501N001510075019N0040001N1+02651+02271101581ADDAA199000091GF108991081051008001999999KA1240N+02301MA1999999099991MD1999999+0011REMSYN076AAXX  16124 82678 32596 80503 10265 20227 39999 40158 885// 333 20230 58001;EQDQ01  00002PRCP99
0167826780999992002031618004-06760-043010FM-12+013899999V0203201N001010450019N0040001N1+03241+02251101111ADDAA199000091GF108991041021008001011021MA1999999099541MD1999999+0011REMSYN070AAXX  16184 82678 32596 83202 10324 20225 39954 40111 84212 333 58001;EQDQ01  00002PRCP99
0186826780999992002031712004-06760-043010FM-12+013899999V0209999C000010075019N0040001N1+02701+02371101441ADDAA199000091GF107991071051008001001001KA1240N+02381MA1999999099861MD1999999-0131REMSYN076AAXX  17124 82678 32596 70000 10270 20237 39986 40144 87500 333 20238 59013;EQDQ01  00002PRCP99
0167826780999992002031718004-06760-043010FM-12+013899999V0200501N000510075019N0040001N1+03321+02231100981ADDAA199000091GF108991071051008001001011MA1999999099431MD1999999-0111REMSYN070AAXX  17184 82678 32596 80501 10332 20223 39943 40098 87501 333 59011;EQDQ01  00002PRCP99
0213826780999992002031800004-06760-043010FM-12+013899999V0200501N001510075019N0002001N1+02621+02331101241ADDAA106002091AY161061AY221061GF108991081051008001999999KA1240M+03381MA1999999099661MD1999999+0031MW1021REMSYN100AAXX  18004 82678 21592 80503 10262 20233 39966 40124 70262 885// 333 10338 29076 55061 58003 60021;
0201826780999992002031812004-06760-043010FM-12+013899999V0200501N001510075019N0040001N1+02361+02281101601ADDAA124020191AY161061AY211061GF105991051051008001021999KA1240N+02241MA1999999100011MD1999999+0151MW1021REMSYN088AAXX  18124 82678 21596 50503 10236 20228 30001 40160 70261 8552/ 333 20224 58015 60204;
0182826780999992002031818004-06760-043010FM-12+013899999V0201801N001510075019N0040001N1+02741+02301101141ADDAA106003091AY161061AY221061GF108991061051008001001021MA1999999099561MD1999999+0131MW1021REMSYN082AAXX  18184 82678 21596 81803 10274 20230 39956 40114 70262 86502 333 58013 60031;
0208826780999992002031900004-06760-043010FM-12+013899999V0209999C000012200019N0002001N1+02501+02361101251ADDAA199000091GA1001+999999999GF100991001001999999001001KA1240M+02941MA1999999099661MD1999999+0001REMSYN082AAXX  19004 82678 32792 00000 10250 20236 39966 40125 333 10294 29089 55025 58000;EQDQ01  00002PRCP99
0201826780999992002031912004-06760-043010FM-12+013899999V0201401N001010075019N0040001N1+02461+02191101441ADDAA124013091AY161061AY221061GF108991081051008001999999KA1240N+02131MA1999999099851MD1999999-0161MW1021REMSYN088AAXX  19124 82678 21596 81402 10246 20219 39985 40144 70262 885// 333 20213 59016 60134;
0182826780999992002031918004-06760-043010FM-12+013899999V0200501N001010120019N0040001N1+03101+02461100931ADDAA106000191AY161061AY221061GF108991051081008001031011MA1999999099361MD1999999-0201MW1291REMSYN082AAXX  19184 82678 21596 80502 10310 20246 39936 40093 72962 85831 333 59020 69911;
0213826780999992002032000004-06760-043010FM-12+013899999V0209999C000010075019N0002001N1+02641+02481101151ADDAA106000191AY161061AY221061GF107991071051008001001001KA1240M+03121MA1999999099571MD1999999-0091MW1021REMSYN100AAXX  20004 82678 21592 70000 10264 20248 39957 40115 70262 87500 333 10312 29084 55032 59009 69921;
0173826780999992002032012004-06760-043010FM-12+013899999V0201401N000510075019N0040001N1+02381+02211101531ADDAA124000391GF108991081051008001999999KA1240N+02241MA1999999099941MD1999999+0091REMSYN082AAXX  20124 82678 22596 81401 10238 20221 39994 40153 885// 333 20224 58009 69934;
0167826780999992002032018004-06760-043010FM-12+013899999V0201401N001010075019N0040001N1+02861+02281101151ADDAA199000091GF108991061051008001001041MA1999999099571MD1999999+0211REMSYN070AAXX  20184 82678 32596 81402 10286 20228 39957 40115 86504 333 58021;EQDQ01  00002PRCP99
0198826780999992002032100004-06760-043010FM-12+013899999V0201801N000510450019N0002001N1+02531+02341101341ADDAA199000091GF106991031051008001031001KA1240M+02941MA1999999099751MD1999999+0181REMSYN088AAXX  21004 82678 32592 61801 10253 20234 39975 40134 83530 333 10294 29085 55006 58018;EQDQ01  00002PRCP99
0186826780999992002032112004-06760-043010FM-12+013899999V0209999C000011050019N0040001N1+02761+02341101391ADDAA199000091GF105991031021008001001021KA1240N+02321MA1999999099811MD1999999-0131REMSYN076AAXX  21124 82678 32596 50000 10276 20234 39981 40139 83202 333 20232 59013;EQDQ01  00002PRCP99
0167826780999992002032118004-06760-043010FM-12+013899999V0200501N001512200019N0040001N1+03281+02451101011ADDAA199000091GF104991021021008001001011MA1999999099451MD1999999-0121REMSYN070AAXX  21184 82678 32596 40503 10328 20245 39945 40101 82201 333 59012;EQDQ01  00002PRCP99
0214826780999992002032200004-06760-043010FM-12+013899999V0209999C000012200019N0020001N1+02681+02461101221ADDAA199000091GF103991999021008001001001KA1240M+03341MA1999999099651MD1999999-0101REMSYN088AAXX  22004 82678 32595 30000 10268 20246 39965 40122 85200 333 10334 29079 55096 59010;EQDQ01+000052SCOTLCQ02  00002PRCP99
0171826780999992002032212004-06760-043010FM-12+013899999V0200501N001019999999N0040001N1+02851+02381999999ADDAA199000091GF106991999999008001999999KA1240N+02281MA1999999099821REMSYN075AAXX  22124 82678 32596 60502 10285 20238 39982 4013 83202 333 20228 58001;EQDQ01  00002PRCP99
0167826780999992002032218004-06760-043010FM-12+013899999V0203601N001512200019N0040001N1+03341+02091101001ADDAA199000091GF106991031021008001001011MA1999999099441MD1999999-0011REMSYN070AAXX  22184 82678 32596 63603 10334 20209 39944 40100 83201 333 59001;EQDQ01  00002PRCP99
0198826780999992002032300004-06760-043010FM-12+013899999V0201401N000510450019N0002001N1+02821+02401101341ADDAA199000091GF105991041041008001031001KA1240M+03471MA1999999099771MD1999999+0121REMSYN088AAXX  23004 82678 32592 51401 10282 20240 39977 40134 84430 333 10347 29070 55104 58012;EQDQ01  00002PRCP99
0186826780999992002032312004-06760-043010FM-12+013899999V0200901N000510450019N0200001N1+02701+02281101571ADDAA199000091GF107991041051008001021001KA1240N+02341MA1999999099991MD1999999+0171REMSYN076AAXX  23124 82678 32598 70901 10270 20228 39999 40157 84520 333 20234 58017;EQDQ01  00002PRCP99
0183826780999992002032318004-06760-043010FM-12+013899999V0201401N001510075019N0040001N1+03321+02171101081ADDAA199000091GF107991999021008001001001MA1999999099521MD1999999+0081REMSYN070AAXX  23184 82678 32596 71403 10332 20217 39952 40108 85200 333 58008;EQDQ01+000052SCOTLCQ02  00002PRCP99
0232826780999992002032400004-06760-043010FM-12+013899999V0200501N001510075019N0002001N1+02301+02251101591ADDAA106015091AY161061AY291061GF108991999021008001001001KA1240M+03391MA1999999100001MD1999999+0231MW1911REMSYN100AAXX  24004 82678 21592 80503 10230 20225 30000 40159 79169 86200 333 10339 29081 55093 58023 60151;EQDQ01+000062SCOTLC
0201826780999992002032412004-06760-043010FM-12+013899999V0203601N000510450019N0040001N1+02621+02311101601ADDAA124026991AY161061AY221061GF107991031011008001031021KA1240N+02201MA1999999100001MD1999999+0011MW1011REMSYN088AAXX  24124 82678 21596 73601 10262 20231 30000 40160 70162 83132 333 20220 58001 60274;
0167826780999992002032418004-06760-043010FM-12+013899999V0200501N004110075019N0040001N1+02921+02321101211ADDAA199000091GF108991061051008001021999MA1999999099631MD1999999+0111REMSYN070AAXX  24184 82678 32596 80508 10292 20232 39963 40121 8652/ 333 58011;EQDQ01  00002PRCP99
0213826780999992002032500004-06760-043010FM-12+013899999V0201401N002610075019N0002001N1+02501+02331101461ADDAA106002091AY161061AY221061GF108991051051008001021999KA1240M+03221MA1999999099871MD1999999-0131MW1021REMSYN100AAXX  25004 82678 21592 81405 10250 20233 39987 40146 70262 8552/ 333 10322 29083 55063 59013 60021;
0173826780999992002032512004-06760-043010FM-12+013899999V0200901N000510450019N0040001N1+02661+02351101551ADDAA124002091GF106991031051008001031021KA1240N+02371MA1999999099961MD1999999-0041REMSYN082AAXX  25124 82678 22596 60901 10266 20235 39996 40155 83532 333 20237 59004 60024;
0168826780999992002032518004-06760-043010FM-12+013899999V0201401N004110075019N0200001N1+03021+02361999999ADDAA199000091GF105991051021008001001001MD1999999-0021REMSYN070AAXX  25184 82678 32598 51408 10302 20236 39728 4//// 85200 333 59002;EQDQ01+097283APOSP Q02  00002PRCP99
0213826780999992002032600004-06760-043010FM-12+013899999V0201401N001510075019N0002001N1+02391+02291101531ADDAA106000191AY161061AY261061GF108991081051008001999999KA1240M+03041MA1999999099941MD1999999+0071MW1021REMSYN100AAXX  26004 82678 21592 81403 10239 20229 39994 40153 70266 885// 333 10304 29092 55028 58007 69921;
0201826780999992002032612004-06760-043010FM-12+013899999V0200501N000510075019N0040001N1+02481+02291101581ADDAA124010991AY161061AY291061GF108991051051008001021999KA1240N+02201MA1999999099981MD1999999+0021MW1021REMSYN088AAXX  26124 82678 21596 80501 10248 20229 39998 40158 70269 8552/ 333 20220 58002 60114;
0167826780999992002032618004-06760-043010FM-12+013899999V0202301N000510075019N0040001N1+03061+02331101161ADDAA199000091GF107991051051008001001021MA1999999099591MD1999999-0011REMSYN070AAXX  26184 82678 32596 72301 10306 20233 39959 40116 85502 333 59001;EQDQ01  00002PRCP99
0198826780999992002032700004-06760-043010FM-12+013899999V0209999C000011050019N0002001N1+02521+02331101251ADDAA199000091GF105991031051008001001021KA1240M+03131MA1999999099661MD1999999-0281REMSYN088AAXX  27004 82678 32592 50000 10252 20233 39966 40125 83502 333 10313 29083 55043 59028;EQDQ01  00002PRCP99
0201826780999992002032712004-06760-043010FM-12+013899999V0202701N001010075019N0040001N1+02521+02271101571ADDAA124000891AY161061AY211061GF108991061051008001021999KA1240N+02201MA1999999099981MD1999999+0001MW1021REMSYN088AAXX  27124 82678 21596 82702 10252 20227 39998 40157 70261 8652/ 333 20220 58000 69984;
0167826780999992002032718004-06760-043010FM-12+013899999V0209999C000010075019N0040001N1+03041+02411101151ADDAA199000091GF108991051051008001021011MA1999999099581MD1999999-0011REMSYN070AAXX  27184 82678 32596 80000 10304 20241 39958 40115 85521 333 59001;EQDQ01  00002PRCP99
0208826780999992002032800004-06760-043010FM-12+013899999V0209999C000012200019N0005001N1+02461+02321101331ADDAA199000091GA1001+999999999GF100991001001999999001001KA1240M+03141MA1999999099741MD1999999+0081REMSYN082AAXX  28004 82678 32793 00000 10246 20232 39974 40133 333 10314 29085 55039 58008;EQDQ01  00002PRCP99
0186826780999992002032812004-06760-043010FM-12+013899999V0201401N002610450019N0040001N1+02601+02311101521ADDAA199000091GF108991021021008001031021KA1240N+02141MA1999999099931MD1999999-0051REMSYN076AAXX  28124 82678 32596 81405 10260 20231 39993 40152 82232 333 20214 59005;EQDQ01  00002PRCP99
0152826780999992002032818004-06760-043010FM-12+013899999V0201401N003110450019N0040001N1+03261+01951101181ADDAA199000091GF106991021041008001031021MA1999999099611REMSYN069AAXX  28184 82678 32596 61406 10326 20195 39961 40118 82432 33 58003;EQDQ01  00002PRCP99
0214826780999992002032900004-06760-043010FM-12+013899999V0209999C000019999999N0040001N1+02591+02351101311ADDAA199000091GF108991999021008001001001KA1240M+03331MA1999999099731MD1999999-0081REMSYN088AAXX  29004 82678 32596 80000 10259 20235 39973 40131 83200 333 10333 29076 55079 59008;EQDQ01+000032SCOTLCQ02  00002PRCP99
0186826780999992002032912004-06760-043010FM-12+013899999V0201401N003110150019N0002001N1+02591+02081101381ADDAA199000091GF108991061001017501021011KA1240N+02241MA1999999099801MD1999999-0131REMSYN076AAXX  29124 82678 32792 81406 10259 20208 39980 40138 86021 333 20224 59013;EQDQ01  00002PRCP99
0167826780999992002032918004-06760-043010FM-12+013899999V0200901N001511050019N0040001N1+03131+02111101101ADDAA199000091GF105991021021008001031011MA1999999099531MD1999999-0081REMSYN070AAXX  29184 82678 32596 50903 10313 20211 39953 40110 82231 333 59008;EQDQ01  00002PRCP99
0198826780999992002033000004-06760-043010FM-12+013899999V0209999C000011050019N0002001N1+02621+02251101251ADDAA199000091GF108991041051008001001021KA1240M+03301MA1999999099671MD1999999-0061REMSYN088AAXX  30004 82678 32592 80000 10262 20225 39967 40125 84502 333 10330 29072 55063 59006;EQDQ01  00002PRCP99
0186826780999992002033012004-06760-043010FM-12+013899999V0201401N002611050019N0040001N1+02761+02091101461ADDAA199000091GF107991011011008001001021KA1240N+02201MA1999999099881MD1999999+0081REMSYN076AAXX  30124 82678 32596 71405 10276 20209 39988 40146 81102 333 20220 58008;EQDQ01  00002PRCP99
0167826780999992002033018004-06760-043010FM-12+013899999V0201401N001511050019N0040001N1+03241+02281101111ADDAA199000091GF106991031021008001001021MA1999999099541MD1999999+0011REMSYN070AAXX  30184 82678 32596 61403 10324 20228 39954 40111 83202 333 58001;EQDQ01  00002PRCP99
0192826780999992002033100004-06760-043010FM-12+013899999V0209999C000012200019N0002001N1+02661+02391101251ADDAA199000091GF104991999999999999999999KA1240M+03321MA1999999099671MD1999999+0001REMSYN082AAXX  31004 82678 32992 40000 10266 20239 39967 40125 333 10332 29074 55100 58000;EQDQ01  00002PRCP99
0202826780999992002033112004-06760-043010FM-12+013899999V0209999C000019999999N0040001N1+02661+02371101601ADDAA199000091GF108991999021008001001001KA1240N+02301MA1999999100021MD1999999+0141REMSYN076AAXX  31124 82678 32596 80000 10266 20237 30002 40160 84200 333 20230 58014;EQDQ01+000042SCOTLCQ02  00002PRCP99
0183826780999992002033118004-06760-043010FM-12+013899999V0201401N001010075019N0040001N1+03181+02251101161ADDAA199000091GF108991999021008001001001MA1999999099591MD1999999+0051REMSYN070AAXX  31184 82678 32596 81402 10318 20225 39959 40116 86200 333 58005;EQDQ01+000062SCOTLCQ02  00002PRCP99
0213826780999992002040100004-06760-043010FM-12+013899999V0209999C000010075019N0002001N1+02501+02381101391ADDAA106000891AY161061AY291061GF108991051051008001021001KA1240M+03251MA1999999099811MD1999999+0141MW1021REMSYN100AAXX  01004 82678 21592 80000 10250 20238 39981 40139 70269 85520 333 10325 29082 55043 58014 69981;
0173826780999992002040112004-06760-043010FM-12+013899999V0200901N001010450019N0040001N1+02821+02381101511ADDAA124000891GF107991031011008001031011KA1240N+02361MA1999999099931MD1999999-0091REMSYN082AAXX  01124 82678 22596 70902 10282 20238 39993 40151 83131 333 20236 59009 69984;
0167826780999992002040118004-06760-043010FM-12+013899999V0201401N001010450019N0040001N1+03261+02151101151ADDAA199000091GF106991041051008001031011MA1999999099591MD1999999+0001REMSYN070AAXX  01184 82678 32596 61402 10326 20215 39959 40115 84531 333 58000;EQDQ01  00002PRCP99
0198826780999992002040200004-06760-043010FM-12+013899999V0209999C000010075019N0040001N1+02701+02361101231ADDAA199000091GF105991051051008001001001KA1240M+03391MA1999999099661MD1999999-0151REMSYN088AAXX  02004 82678 32596 50000 10270 20236 39966 40123 85500 333 10339 29071 55081 59015;EQDQ01  00002PRCP99
0186826780999992002040212004-06760-043010FM-12+013899999V0201401N003110075019N0040001N1+02901+02221101421ADDAA199000091GF108991051051008001031011KA1240N+02361MA1999999099851MD1999999-0081REMSYN076AAXX  02124 82678 32596 81406 10290 20222 39985 40142 85531 333 20236 59008;EQDQ01  00002PRCP99
0167826780999992002040218004-06760-043010FM-12+013899999V0201401N001510075019N0040001N1+03201+02351101091ADDAA199000091GF108991051021008001001021MA1999999099531MD1999999-0061REMSYN070AAXX  02184 82678 32596 81403 10320 20235 39953 40109 85202 333 59006;EQDQ01  00002PRCP99
0208826780999992002040300004-06760-043010FM-12+013899999V0209999C000012200019N0002001N1+02741+02481101341ADDAA199000091GA1001+999999999GF100991001001999999001001KA1240M+03321MA1999999099771MD1999999+0111REMSYN082AAXX  03004 82678 32992 00000 10274 20248 39977 40134 333 10332 29075 55021 58011;EQDQ01  00002PRCP99
0186826780999992002040312004-06760-043010FM-12+013899999V0200901N004612200019N0040001N1+02941+02191101561ADDAA199000091GF104991041021008001001001KA1240N+02341MA1999999099991MD1999999+0141REMSYN076AAXX  03124 82678 32596 40909 10294 20219 39999 40156 84200 333 20234 58014;EQDQ01  00002PRCP99
0167826780999992002040318004-06760-043010FM-12+013899999V0201401N002612200019N0040001N1+03301+02181101161ADDAA199000091GF104991031021008001001021MA1999999099601MD1999999+0071REMSYN070AAXX  03184 82678 32596 41405 10330 20218 39960 40116 83202 333 58007;EQDQ01  00002PRCP99
0208826780999992002040400004-06760-043010FM-12+013899999V0200501N000512200019N0020001N1+02651+02311101441ADDAA199000091GA1001+999999999GF100991001001999999001001KA1240M+03371MA1999999099841MD1999999+0101REMSYN082AAXX  04004 82678 32995 00501 10265 20231 39984 40144 333 10337 29070 55102 58010;EQDQ01  00002PRCP99
0201826780999992002040412004-06760-043010FM-12+013899999V0200901N000510075019N0040001N1+02701+02371101571ADDAA124000891AY161061AY221061GF108991071051008001021999KA1240N+02321MA1999999099991MD1999999+0001MW1021REMSYN088AAXX  04124 82678 21596 80901 10270 20237 39999 40157 70262 8752/ 333 20232 58000 69974;
0167826780999992002040418004-06760-043010FM-12+013899999V0201401N002612200019N0040001N1+03261+02151101131ADDAA199000091GF107991041021008001001041MA1999999099571MD1999999-0071REMSYN070AAXX  04184 82678 32596 71405 10326 20215 39957 40113 84204 333 59007;EQDQ01  00002PRCP99
0198826780999992002040500004-06760-043010FM-12+013899999V0209999C000012200019N0002001N1+02801+02481101281ADDAA199000091GF104991041051008001001001KA1240M+03371MA1999999099711MD1999999-0161REMSYN088AAXX  05004 82678 32592 40000 10280 20248 39971 40128 84500 333 10337 29075 55051 59016;EQDQ01  00002PRCP99
0186826780999992002040512004-06760-043010FM-12+013899999V0201401N001010075019N0040001N1+02761+02321101471ADDAA199000091GF108991051051008001021011KA1240N+02341MA1999999099891MD1999999-0101REMSYN076AAXX  05124 82678 32596 81402 10276 20232 39989 40147 85521 333 20234 59010;EQDQ01  00002PRCP99
0167826780999992002040518004-06760-043010FM-12+013899999V0201401N002112200019N0040001N1+03281+02131100951ADDAA199000091GF106991041021008001001011MA1999999099391MD1999999-0181REMSYN070AAXX  05184 82678 32596 61404 10328 20213 39939 40095 84201 333 59018;EQDQ01  00002PRCP99
0208826780999992002040600004-06760-043010FM-12+013899999V0209999C000012200019N0002001N1+02661+02391101161ADDAA199000091GA1001+999999999GF100991001001999999001001KA1240M+03351MA1999999099591MD1999999-0121REMSYN082AAXX  06004 82678 32592 00000 10266 20239 39959 40116 333 10335 29074 55056 59012;EQDQ01  00002PRCP99
0186826780999992002040612004-06760-043010FM-12+013899999V0203601N000510150019N0040001N1+02751+02261101331ADDAA199000091GF108991051001017501021011KA1240N+02321MA1999999099751MD1999999-0141REMSYN076AAXX  06124 82678 32796 83601 10275 20226 39975 40133 85021 333 20232 59014;EQDQ01  00002PRCP99
0167826780999992002040618004-06760-043010FM-12+013899999V0201801N001510120019N0040001N1+03191+02191100871ADDAA199000091GF108991051081008001021021MA1999999099301MD1999999-0091REMSYN070AAXX  06184 82678 32596 81803 10319 20219 39930 40087 85822 333 59009;EQDQ01  00002PRCP99
0198826780999992002040700004-06760-043010FM-12+013899999V0200501N000510075019N0002001N1+02601+02351101291ADDAA199000091GF108991061051008001021999KA1240M+03311MA1999999099711MD1999999+0121REMSYN088AAXX  07004 82678 32592 80501 10260 20235 39971 40129 8652/ 333 10331 29076 55061 58012;EQDQ01  00002PRCP99
0186826780999992002040712004-06760-043010FM-12+013899999V0203601N000510075019N0040001N1+02541+02111101601ADDAA199000091GF108991061051008001031001KA1240N+02241MA1999999100011MD1999999+0261REMSYN076AAXX  07124 82678 32596 83601 10254 20211 30001 40160 86530 333 20224 58026;EQDQ01  00002PRCP99
0167826780999992002040718004-06760-043010FM-12+013899999V0201801N000510075019N0040001N1+03081+02161101121ADDAA199000091GF107991051051008001031001MA1999999099551MD1999999+0251REMSYN070AAXX  07184 82678 32596 71801 10308 20216 39955 40112 85530 333 58025;EQDQ01  00002PRCP99
0214826780999992002040800004-06760-043010FM-12+013899999V0200501N001010075019N0002001N1+02611+02351101371ADDAA199000091GF108991999021008001001001KA1240M+03241MA1999999099801MD1999999+0091REMSYN088AAXX  08004 82678 32592 80502 10261 20235 39980 40137 86200 333 10324 29077 55024 58009;EQDQ01+000062SCOTLCQ02  00002PRCP99
0186826780999992002040812004-06760-043010FM-12+013899999V0200901N001010450019N0040001N1+02781+02231101391ADDAA199000091GF108991041051008001031011KA1240N+02201MA1999999099811MD1999999-0201REMSYN076AAXX  08124 82678 32596 80902 10278 20223 39981 40139 84531 333 20220 59020;EQDQ01  00002PRCP99
0167826780999992002040818004-06760-043010FM-12+013899999V0201401N002110075019N0040001N1+03081+02191100971ADDAA199000091GF108991051051008001031999MA1999999099401MD1999999-0151REMSYN070AAXX  08184 82678 32596 81404 10308 20219 39940 40097 8553/ 333 59015;EQDQ01  00002PRCP99
0213826780999992002040900004-06760-043010FM-12+013899999V0209999C000010075019N0002001N1+02541+02421101241ADDAA106006191AY161061AY221061GF108991051051008001021999KA1240M+03341MA1999999099651MD1999999-0151MW1021REMSYN100AAXX  09004 82678 21592 80000 10254 20242 39965 40124 70262 8552/ 333 10334 29079 55075 59015 60061;
0173826780999992002040912004-06760-043010FM-12+013899999V0203601N000510075019N0040001N1+02531+02271101431ADDAA124007191GF108991081061008001999999KA1240N+02281MA1999999099841MD1999999+0031REMSYN082AAXX  09124 82678 22596 83601 10253 20227 39984 40143 886// 333 20228 58003 60074;
0167826780999992002040918004-06760-043010FM-12+013899999V0203201N000512200019N0040001N1+03241+02281100871ADDAA199000091GF106991041021008001001011MA1999999099311MD1999999-0091REMSYN070AAXX  09184 82678 32596 63201 10324 20228 39931 40087 84201 333 59009;EQDQ01  00002PRCP99
0198826780999992002041000004-06760-043010FM-12+013899999V0200901N000510075019N0020001N1+02741+02451101161ADDAA199000091GF106991061021008001001001KA1240M+03291MA1999999099581MD1999999-0071REMSYN088AAXX  10004 82678 32595 60901 10274 20245 39958 40116 86200 333 10329 29078 55055 59007;EQDQ01  00002PRCP99
0201826780999992002041012004-06760-043010FM-12+013899999V0200901N000510075019N0040001N1+02471+02321101481ADDAA124003091AY191061AY221061GF108991061051008001021999KA1240N+02301MA1999999099891MD1999999+0051MW1021REMSYN088AAXX  10124 82678 21596 80901 10247 20232 39989 40148 70292 8652/ 333 20230 58005 60034;
0167826780999992002041018004-06760-043010FM-12+013899999V0203201N000510075019N0040001N1+02961+02261100981ADDAA199000091GF108991051051008001031021MA1999999099411MD1999999+0101REMSYN070AAXX  10184 82678 32596 83201 10296 20226 39941 40098 85532 333 58010;EQDQ01  00002PRCP99
0198826780999992002041100004-06760-043010FM-12+013899999V0200501N003110075019N0002001N1+02421+02231101371ADDAA199000091GF108991081051008001999999KA1240M+03111MA1999999098781MD1999999+0101REMSYN088AAXX  11004 82678 32592 80506 10242 20223 39878 40137 885// 333 10311 29084 55024 58010;EQDQ01  00002PRCP99
0201826780999992002041112004-06760-043010FM-12+013899999V0209999C000010075019N0040001N1+02541+02311101571ADDAA124003091AY161061AY221061GF108991051051008001021999KA1240N+02191MA1999999099981MD1999999+0091MW1021REMSYN088AAXX  11124 82678 21596 80000 10254 20231 39998 40157 70262 8552/ 333 20219 58009 60034;
0167826780999992002041118004-06760-043010FM-12+013899999V0201401N000510075019N0040001N1+02981+02281101131ADDAA199000091GF108991061031008001021011MA1999999099551MD1999999+0131REMSYN070AAXX  11184 82678 32596 81401 10298 20228 39955 40113 86321 333 58013;EQDQ01  00002PRCP99
0214826780999992002041200004-06760-043010FM-12+013899999V0201401N001012200019N0002001N1+02541+02231101431ADDAA199000091GF103991999021008001001001KA1240M+03041MA1999999099841MD1999999+0081REMSYN088AAXX  12004 82678 32592 31402 10254 20223 39984 40143 81200 333 10304 29080 55019 58008;EQDQ01+000012SCOTLCQ02  00002PRCP99
0186826780999992002041212004-06760-043010FM-12+013899999V0200501N000510075019N0040001N1+02571+02311101621ADDAA199000091GF108991051051008001021999KA1240N+02221MA1999999100031MD1999999+0051REMSYN076AAXX  12124 82678 32596 80501 10257 20231 30003 40162 8552/ 333 20222 58005;EQDQ01  00002PRCP99
0167826780999992002041218004-06760-043010FM-12+013899999V0200901N001510450019N0040001N1+02901+02301101271ADDAA199000091GF108991041051008001021021MA1999999099691MD1999999+0141REMSYN070AAXX  12184 82678 32596 80903 10290 20230 39969 40127 84522 333 58014;EQDQ01  00002PRCP99
0198826780999992002041300004-06760-043010FM-12+013899999V0200901N000510075019N0002001N1+02471+02231101631ADDAA199000091GF108991051051008001021999KA1240M+03051MA1999999100041MD1999999+0201REMSYN088AAXX  13004 82678 32592 80901 10247 20223 30004 40163 8552/ 333 10305 29082 55011 58020;EQDQ01  00002PRCP99
0186826780999992002041312004-06760-043010FM-12+013899999V0201401N001010075019N0040001N1+02541+02151101551ADDAA199000091GF107991051051008001031001KA1240N+02101MA1999999099961MD1999999-0071REMSYN076AAXX  13124 82678 32596 71402 10254 20215 39996 40155 85530 333 20210 59007;EQDQ01  00002PRCP99
0167826780999992002041318004-06760-043010FM-12+013899999V0201401N002610450019N0040001N1+03261+02151101181ADDAA199000091GF106991031011008001031011MA1999999099611MD1999999-0021REMSYN070AAXX  13184 82678 32596 61405 10326 20215 39961 40118 83131 333 59002;EQDQ01  00002PRCP99
0198826780999992002041400004-06760-043010FM-12+013899999V0209999C000012200019N0040001N1+02761+02461101351ADDAA199000091GF103991031021008001001001KA1240M+03331MA1999999099771MD1999999-0271REMSYN088AAXX  14004 82678 32596 30000 10276 20246 39977 40135 83200 333 10333 29075 55090 59027;EQDQ01  00002PRCP99
0201826780999992002041412004-06760-043010FM-12+013899999V0200901N001010075019N0040001N1+02621+02251101601ADDAA124000391AY161061AY221061GF108991051051008001031011KA1240N+02281MA1999999100081MD1999999+0121MW1021REMSYN088AAXX  14124 82678 21596 80902 10262 20225 30008 40160 70262 85531 333 20228 58012 69934;
0167826780999992002041418004-06760-043010FM-12+013899999V0209999C000010075019N0040001N1+03061+02381101171ADDAA199000091GF108991051051008001021999MA1999999099601MD1999999-0011REMSYN070AAXX  14184 82678 32596 80000 10306 20238 39960 40117 8552/ 333 59001;EQDQ01  00002PRCP99
0213826780999992002041500004-06760-043010FM-12+013899999V0209999C000010450019N0002001N1+02541+02441101351ADDAA106001091AY161061AY221061GF106991021051008001031011KA1240M+03141MA1999999099771MD1999999+0001MW1021REMSYN100AAXX  15004 82678 21592 60000 10254 20244 39977 40135 70262 82531 333 10314 29084 55018 58000 60011;
0201826780999992002041512004-06760-043010FM-12+013899999V0201401N002111050019N0040001N1+02821+02331101551ADDAA124003091AY121061AY221061GF105991021021008001041011KA1240N+02381MA1999999099971MD1999999-0111MW1601REMSYN088AAXX  15124 82678 21596 51404 10282 20233 39997 40155 76022 82241 333 20238 59011 60034;
0189826780999992002041600004-06760-043010FM-12+013899999V0202301N000512200019N0002001N1+02581+02211101311ADDAA199000021GA1001+999999999GF100991001001999999001001KA1240M+03331MA1999999099721MD1999999-0041REMSYN082AAXX  16004 82678 32992 02301 10258 20221 39972 40131 333 10333 29071 55099 59004;
0186826780999992002041612004-06760-043010FM-12+013899999V0201401N001010450019N0040001N1+02831+02151101611ADDAA199000091GF108991041051008001021011KA1240N+02161MA1999999100031MD1999999+0061REMSYN076AAXX  16124 82678 32596 81402 10283 20215 30003 40161 84521 333 20216 58006;EQDQ01  00002PRCP99
0167826780999992002041618004-06760-043010FM-12+013899999V0201801N003110075019N0200001N1+03321+02351101181ADDAA199000091GF108991051021008001001011MA1999999099611MD1999999+0141REMSYN070AAXX  16184 82678 32598 81806 10332 20235 39961 40118 85201 333 58014;EQDQ01  00002PRCP99
0208826780999992002041700004-06760-043010FM-12+013899999V0209999C000012200019N0002001N1+02641+02391101441ADDAA199000091GA1001+999999999GF100991001001999999001001KA1240M+03331MA1999999099861MD1999999+0131REMSYN082AAXX  17004 82678 32992 00000 10264 20239 39986 40144 333 10333 29074 55086 58013;EQDQ01  00002PRCP99
0208826780999992002041800004-06760-043010FM-12+013899999V0209999C000012200019N0002001N1+02601+02331101421ADDAA199000091GA1001+999999999GF100991001001999999001001KA1240M+03291MA1999999099831MD1999999-0031REMSYN082AAXX  18004 82678 32992 00000 10260 20233 39983 40142 333 10329 29080 55073 59003;EQDQ01  00002PRCP99
0186826780999992002041812004-06760-043010FM-12+013899999V0200901N001010450019N0040001N1+02871+02281101561ADDAA199000091GF106991021021008001011011KA1240N+02161MA1999999099981MD1999999-0121REMSYN076AAXX  18124 82678 32596 60902 10287 20228 39998 40156 82211 333 20216 59012;EQDQ01  00002PRCP99
0167826780999992002041818004-06760-043010FM-12+013899999V0201401N003611050019N0040001N1+03281+01961101121ADDAA199000091GF105991031021008001001021MA1999999099561MD1999999-0131REMSYN070AAXX  18184 82678 32596 51407 10328 20196 39956 40112 83202 333 59013;EQDQ01  00002PRCP99
0186826780999992002041912004-06760-043010FM-12+013899999V0200901N001512200019N0040001N1+02921+01981101421ADDAA199000091GF103991011001017501031011KA1240N+02281MA1999999099851MD1999999-0131REMSYN076AAXX  19124 82678 32796 30903 10292 20198 39985 40142 81031 333 20228 59013;EQDQ01  00002PRCP99
0167826780999992002041918004-06760-043010FM-12+013899999V0201401N001510075019N0040001N1+03301+01951101001ADDAA199000091GF105991051021008001001001MA1999999099441MD1999999-0121REMSYN070AAXX  19184 82678 32596 51403 10330 20195 39944 40100 85200 333 59012;EQDQ01  00002PRCP99
0192826780999992002042000004-06760-043010FM-12+013899999V0209999C000012200019N0002001N1+02681+02161101161ADDAA199000091GF102991999999999999999999KA1240M+03371MA1999999099591MD1999999-0111REMSYN082AAXX  20004 82678 32992 20000 10268 20216 39959 40116 333 10337 29062 55107 59011;EQDQ01  00002PRCP99
0186826780999992002042012004-06760-043010FM-12+013899999V0201401N005712200019N0040001N1+02781+01911101461ADDAA199000091GF104991021011008001001011KA1240N+02161MA1999999099881MD1999999+0031REMSYN076AAXX  20124 82678 32596 41411 10278 20191 39988 40146 82101 333 20216 58003;EQDQ01  00002PRCP99
0167826780999992002042018004-06760-043010FM-12+013899999V0201401N003612200019N0040001N1+03301+01841100991ADDAA199000091GF105991031021008001001011MA1999999099431MD1999999-0011REMSYN070AAXX  20184 82678 32596 51407 10330 20184 39943 40099 83201 333 59001;EQDQ01  00002PRCP99
0198826780999992002042100004-06760-043010FM-12+013899999V0209999C000012200019N0002001N1+02601+02141101261ADDAA199000091GF102991021001008001031001KA1240M+03341MA1999999099681MD1999999+0091REMSYN088AAXX  21004 82678 32592 20000 10260 20214 39968 40126 82030 333 10334 29063 55109 58009;EQDQ01  00002PRCP99
0180826780999992002042112004-06760-043010FM-12+013899999V0201401N004112200019N0002001N1+02881+02001101511ADDAA199000091GF103991999999999999999999KA1240N+02081MA1999999099931MD1999999+0051REMSYN070AAXX  21124 82678 32992 31408 10288 20200 39993 40151 333 20208 58005;EQDQ01  00002PRCP99
0183826780999992002042118004-06760-043010FM-12+013899999V0201401N003112200019N0040001N1+03331+01931100991ADDAA199000091GF104991999021008001001001MA1999999099421MD1999999-0011REMSYN070AAXX  21184 82678 32596 41406 10333 20193 39942 40099 83200 333 59001;EQDQ01+000032SCOTLCQ02  00002PRCP99
0198826780999992002042200004-06760-043010FM-12+013899999V0200901N005112200019N0010001N1+02611+02251101281ADDAA199000091GF101991011021008001001001KA1240M+03411MA1999999099651MD1999999-0031REMSYN088AAXX  22004 82678 32594 10910 10261 20225 39965 40128 81200 333 10341 29066 55103 59003;EQDQ01  00002PRCP99
0180826780999992002042212004-06760-043010FM-12+013899999V0201401N004112200019N0040001N1+02841+01791101401ADDAA199000091GF103991999999999999999999KA1240N+02221MA1999999099821MD1999999-0111REMSYN070AAXX  22124 82678 32996 31408 10284 20179 39982 40140 333 20222 59011;EQDQ01  00002PRCP99
0167826780999992002042218004-06760-043010FM-12+013899999V0201401N003111050019N0040001N1+03241+01751101101ADDAA199000091GF105991031011008001001021MA1999999099531MD1999999+0111REMSYN070AAXX  22184 82678 32596 51406 10324 20175 39953 40110 83102 333 58011;EQDQ01  00002PRCP99
0208826780999992002042300004-06760-043010FM-12+013899999V0201801N000512200019N0002001N1+02521+02001101251ADDAA199000091GA1001+999999999GF100991001001999999001001KA1240M+03391MA1999999099671MD1999999+0021REMSYN082AAXX  23004 82678 32992 01801 10252 20200 39967 40125 333 10339 29060 55108 58002;EQDQ01  00002PRCP99
0186826780999992002042312004-06760-043010FM-12+013899999V0201401N003112200019N0040001N1+02721+02001101391ADDAA199000091GF105991041021008001001011KA1240N+02161MA1999999099811MD1999999-0011REMSYN076AAXX  23124 82678 32596 51406 10272 20200 39981 40139 84201 333 20216 59001;EQDQ01  00002PRCP99
0167826780999992002042318004-06760-043010FM-12+013899999V0201401N001510075019N0040001N1+03201+02061100921ADDAA199000091GF108991051021008001001021MA1999999099351MD1999999-0181REMSYN070AAXX  23184 82678 32596 81403 10320 20206 39935 40092 85202 333 59018;EQDQ01  00002PRCP99
0214826780999992002042400004-06760-043010FM-12+013899999V0209999C000012200019N0002001N1+02561+02111101221ADDAA199000091GF104991999021008001001001KA1240M+03241MA1999999099641MD1999999-0031REMSYN088AAXX  24004 82678 32592 40000 10256 20211 39964 40122 83200 333 10324 29067 55079 59003;EQDQ01+000032SCOTLCQ02  00002PRCP99
0186826780999992002042412004-06760-043010FM-12+013899999V0201401N004112200019N0040001N1+02861+02011101341ADDAA199000091GF105991021021008001001011KA1240N+02081MA1999999099761MD1999999-0051REMSYN076AAXX  24124 82678 32596 51408 10286 20201 39976 40134 82201 333 20208 59005;EQDQ01  00002PRCP99
0167826780999992002042418004-06760-043010FM-12+013899999V0201401N002112200019N0040001N1+03371+01851100861ADDAA199000091GF106991031021008001001011MA1999999099301MD1999999-0051REMSYN070AAXX  24184 82678 32596 61404 10337 20185 39930 40086 83201 333 59005;EQDQ01  00002PRCP99
0198826780999992002042500004-06760-043010FM-12+013899999V0200901N000512200019N0002001N1+02601+02231101121ADDAA199000091GF104991011001017501031011KA1240M+03421MA1999999099551MD1999999-0091REMSYN088AAXX  25004 82678 32792 40901 10260 20223 39955 40112 81031 333 10342 29065 55105 59009;EQDQ01  00002PRCP99
0186826780999992002042512004-06760-043010FM-12+013899999V0200501N000511050019N0040001N1+02521+01981101571ADDAA199000091GF106991031001017501031021KA1240N+02021MA1999999099981MD1999999+0221REMSYN076AAXX  25124 82678 32796 60501 10252 20198 39998 40157 83032 333 20202 58022;EQDQ01  00002PRCP99
0167826780999992002042518004-06760-043010FM-12+013899999V0202701N000511050019N0040001N1+03281+02001101101ADDAA199000091GF107991031021008001001021MA1999999099531MD1999999+0231REMSYN070AAXX  25184 82678 32596 72701 10328 20200 39953 40110 83202 333 58023;EQDQ01  00002PRCP99
0214826780999992002042600004-06760-043010FM-12+013899999V0209999C000010075019N0002001N1+02621+02291101211ADDAA199000091GF108991999051008001001001KA1240M+03391MA1999999099651MD1999999+0101REMSYN088AAXX  26004 82678 32592 80000 10262 20229 39965 40121 86500 333 10339 29071 55073 58010;EQDQ01+000062SCOTLCQ02  00002PRCP99
0186826780999992002042612004-06760-043010FM-12+013899999V0201401N000512200019N0040001N1+02721+02321101581ADDAA199000091GF103991021001008001031021KA1240N+02281MA1999999100001MD1999999+0021REMSYN076AAXX  26124 82678 32596 31401 10272 20232 30000 40158 82032 333 20228 58002;EQDQ01  00002PRCP99
0167826780999992002042618004-06760-043010FM-12+013899999V0201401N003111050019N0040001N1+03381+02121101081ADDAA199000091GF105991031021008001001021MA1999999099521MD1999999-0011REMSYN070AAXX  26184 82678 32596 51406 10338 20212 39952 40108 83202 333 59001;EQDQ01  00002PRCP99
0198826780999992002042700004-06760-043010FM-12+013899999V0209999C000010075019N0002001N1+02641+02251101331ADDAA199000091GF108991051031008001001011KA1240M+03421MA1999999099751MD1999999+0101REMSYN088AAXX  27004 82678 32592 80000 10264 20225 39975 40133 85301 333 10342 29071 55099 58010;EQDQ01  00002PRCP99
0202826780999992002042712004-06760-043010FM-12+013899999V0200901N001012200019N0040001N1+02831+02151101521ADDAA199000091GF104991999021008001001001KA1240N+02121MA1999999099951MD1999999-0051REMSYN076AAXX  27124 82678 32596 40902 10283 20215 39995 40152 83200 333 20212 59005;EQDQ01+000032SCOTLCQ02  00002PRCP99
0183826780999992002042718004-06760-043010FM-12+013899999V0201401N002119999999N0040001N1+03381+01751101061ADDAA199000091GF105991999021008001001001MA1999999099501MD1999999-0021REMSYN070AAXX  27184 82678 32596 51404 10338 20175 39950 40106 84200 333 59002;EQDQ01+000042SCOTLCQ02  00002PRCP99
0208826780999992002042800004-06760-043010FM-12+013899999V0200501N001012200019N0020001N1+02511+02091101221ADDAA199000091GA1001+999999999GF100991001001999999001001KA1240M+03461MA1999999099641MD1999999-0111REMSYN082AAXX  28004 82678 32995 00502 10251 20209 39964 40122 333 10346 29065 55104 59011;EQDQ01  00002PRCP99
0186826780999992002042812004-06760-043010FM-12+013899999V0201401N000511050019N0040001N1+02741+02171101501ADDAA199000091GF105991011011008001001021KA1240N+01981MA1999999099911MD1999999-0041REMSYN076AAXX  28124 82678 32596 51401 10274 20217 39991 40150 81102 333 20198 59004;EQDQ01  00002PRCP99
0167826780999992002042818004-06760-043010FM-12+013899999V0202301N001011050019N0040001N1+03501+01811101071ADDAA199000091GF105991021011008001001021MA1999999099501MD1999999+0001REMSYN070AAXX  28184 82678 32596 52302 10350 20181 39950 40107 82102 333 58000;EQDQ01  00002PRCP99
0192826780999992002042900004-06760-043010FM-12+013899999V0209999C000012200019N0002001N1+02621+02071101281ADDAA199000091GF102991999999999999999999KA1240M+03501MA1999999099701MD1999999+0061REMSYN082AAXX  29004 82678 32992 20000 10262 20207 39970 40128 333 10350 29063 55100 58006;EQDQ01  00002PRCP99
0186826780999992002042912004-06760-043010FM-12+013899999V0201401N001510075019N0040001N1+02701+02221101581ADDAA199000091GF108991051021008001001021KA1240N+02181MA1999999100001MD1999999+0091REMSYN076AAXX  29124 82678 32596 81403 10270 20222 30000 40158 85202 333 20218 58009;EQDQ01  00002PRCP99
0167826780999992002042918004-06760-043010FM-12+013899999V0200901N001510075019N0040001N1+03261+02081101101ADDAA199000091GF108991061021008001001021MA1999999099531MD1999999+0031REMSYN070AAXX  29184 82678 32596 80903 10326 20208 39953 40110 86202 333 58003;EQDQ01  00002PRCP99
0208826780999992002043000004-06760-043010FM-12+013899999V0209999C000012200019N0002001N1+02661+02251101301ADDAA199000091GA1001+999999999GF100991001001999999001001KA1240M+03331MA1999999099721MD1999999+0021REMSYN082AAXX  30004 82678 32992 00000 10266 20225 39972 40130 333 10333 29071 55050 58002;EQDQ01  00002PRCP99
0180826780999992002043012004-06760-043010FM-12+013899999V0201401N003112200019N0040001N1+02921+01861101741ADDAA199000091GF102991999999999999999999KA1240N+02201MA1999999100161MD1999999+0161REMSYN070AAXX  30124 82678 32996 21406 10292 20186 30016 40174 333 20220 58016;EQDQ01  00002PRCP99
0167826780999992002043018004-06760-043010FM-12+013899999V0200501N002112200019N0040001N1+03471+01781101221ADDAA199000091GF104991031021008001001021MA1999999099661MD1999999+0131REMSYN070AAXX  30184 82678 32596 40504 10347 20178 39966 40122 83202 333 58013;EQDQ01  00002PRCP99
0208826780999992002050100004-06760-043010FM-12+013899999V0200501N000512200019N0002001N1+02741+02211101421ADDAA199000091GA1001+999999999GF100991001001999999001001KA1240M+03531MA1999999099851MD1999999+0131REMSYN082AAXX  01004 82678 32992 00501 10274 20221 39985 40142 333 10353 29059 55103 58013;EQDQ01  00002PRCP99
0186826780999992002050112004-06760-043010FM-12+013899999V0200501N001010075019N0040001N1+02721+02241101631ADDAA199000091GF108991081051008001999999KA1240N+02201MA1999999100051MD1999999-0111REMSYN076AAXX  01124 82678 32596 80502 10272 20224 30005 40163 885// 333 20220 59011;EQDQ01  00002PRCP99
0167826780999992002050118004-06760-043010FM-12+013899999V0201401N001012200019N0040001N1+03441+01961101111ADDAA199000091GF107991041021008001001011MA1999999099551MD1999999-0111REMSYN070AAXX  01184 82678 32596 71402 10344 20196 39955 40111 84201 333 59011;EQDQ01  00002PRCP99
0208826780999992002050200004-06760-043010FM-12+013899999V0200901N000512200019N0002001N1+02781+02341101221ADDAA199000091GA1001+999999999GF100991001001999999001001KA1240M+03531MA1999999099651MD1999999-0201REMSYN082AAXX  02004 82678 32992 00901 10278 20234 39965 40122 333 10353 29068 55069 59020;EQDQ01  00002PRCP99
0186826780999992002050212004-06760-043010FM-12+013899999V0200501N001510075019N0040001N1+02681+02391101541ADDAA199000091GF108991081051008001999999KA1240N+02441MA1999999099961MD1999999-0091REMSYN076AAXX  02124 82678 32596 80503 10268 20239 39996 40154 885// 333 20244 59009;EQDQ01  00002PRCP99
0167826780999992002050218004-06760-043010FM-12+013899999V0201401N002110075019N0040001N1+03141+02271101021ADDAA199000091GF108991081051008001999999MA1999999099441MD1999999-0111REMSYN070AAXX  02184 82678 32596 81404 10314 20227 39944 40102 885// 333 59011;EQDQ01  00002PRCP99
0213826780999992002050300004-06760-043010FM-12+013899999V0200501N000510075019N0002001N1+02461+02361101351ADDAA106003091AY161061AY221061GF108991081051008001999999KA1240M+03281MA1999999099761MD1999999+0111MW1021REMSYN100AAXX  03004 82678 21592 80501 10246 20236 39976 40135 70262 885// 333 10328 29083 55032 58011 60031;
0201826780999992002050312004-06760-043010FM-12+013899999V0200901N001010075019N0040001N1+02421+02331101581ADDAA124030091AY161061AY261061GF108991051071008001021021KA1240N+02261MA1999999099981MD1999999+0021MW1611REMSYN088AAXX  03124 82678 21596 80902 10242 20233 39998 40158 76166 85722 333 20226 58002 60304;
0154826780999992002050318004-06760-043010FM-12+013899999V0202301N001010450019N0040001N1+03011+02281101101ADDAA106001091GF106991041021008001031001MA1999999099531MD1999999+0091REMSYN076AAXX  03184 82678 22596 62302 10301 20228 39953 40110 84230 333 58009 69991;
0189826780999992002050400004-06760-043010FM-12+013899999V0209999C000012200019N0002001N1+02571+02421101251ADDAA199000021GA1001+999999999GF100991001001999999001001KA1240M+03171MA1999999099661MD1999999-0101REMSYN082AAXX  04004 82678 32992 00000 10257 20242 39966 40125 333 10317 29086 55035 59010;
0173826780999992002050412004-06760-043010FM-12+013899999V0202301N000510075019N0040001N1+02761+02401101601ADDAA124000191GF105991051051008001001001KA1240N+02261MA1999999100021MD1999999+0041REMSYN082AAXX  04124 82678 22596 52301 10276 20240 30002 40160 85500 333 20226 58004 69914;
0167826780999992002050418004-06760-043010FM-12+013899999V0200501N001010075019N0040001N1+03301+02211101171ADDAA199000091GF105991051021008001001001MA1999999099601MD1999999+0071REMSYN070AAXX  04184 82678 32596 50502 10330 20221 39960 40117 85200 333 58007;EQDQ01  00002PRCP99
0208826780999992002050500004-06760-043010FM-12+013899999V0209999C000012200019N0002001N1+02721+02371101331ADDAA199000091GA1001+999999999GF100991001001999999001001KA1240M+03391MA1999999099761MD1999999+0101REMSYN082AAXX  05004 82678 32992 00000 10272 20237 39976 40133 333 10339 29074 55100 58010;EQDQ01  00002PRCP99
0186826780999992002050512004-06760-043010FM-12+013899999V0200501N001010075019N0040001N1+02761+02341101731ADDAA199000091GF108991081051008001999999KA1240N+02291MA1999999100151MD1999999+0131REMSYN076AAXX  05124 82678 32596 80502 10276 20234 30015 40173 885// 333 20229 58013;EQDQ01  00002PRCP99
0167826780999992002050518004-06760-043010FM-12+013899999V0209999C000012200019N0040001N1+03341+02221101241ADDAA199000091GF104991021021008001001021MA1999999099681MD1999999+0081REMSYN070AAXX  05184 82678 32596 40000 10334 20222 39968 40124 82202 333 58008;EQDQ01  00002PRCP99
0208826780999992002050600004-06760-043010FM-12+013899999V0209999C000012200019N0002001N1+02741+02341101411ADDAA199000091GA1001+999999999GF100991001001999999001001KA1240M+03371MA1999999099841MD1999999+0071REMSYN082AAXX  06004 82678 32992 00000 10274 20234 39984 40141 333 10337 29072 55098 58007;EQDQ01  00002PRCP99
0186826780999992002050612004-06760-043010FM-12+013899999V0200901N001010450019N0040001N1+02881+02281101751ADDAA199000091GF106991031021008001021001KA1240N+02321MA1999999100171MD1999999+0021REMSYN076AAXX  06124 82678 32596 60902 10288 20228 30017 40175 83220 333 20232 58002;EQDQ01  00002PRCP99
0167826780999992002050618004-06760-043010FM-12+013899999V0201401N001512200019N0040001N1+03331+01891101211ADDAA199000091GF103991021011008001001021MA1999999099651MD1999999-0031REMSYN070AAXX  06184 82678 32596 31403 10333 20189 39965 40121 82102 333 59003;EQDQ01  00002PRCP99
0208826780999992002050700004-06760-043010FM-12+013899999V0200901N001012200019N0002001N1+02601+02231101391ADDAA199000091GA1001+999999999GF100991001001999999001001KA1240M+03441MA1999999099821MD1999999-0021REMSYN082AAXX  07004 82678 32992 00902 10260 20223 39982 40139 333 10344 29068 55101 59002;EQDQ01  00002PRCP99
0186826780999992002050712004-06760-043010FM-12+013899999V0200901N001510450019N0040001N1+02781+02181101621ADDAA199000091GF106991041051008001031001KA1240N+02281MA1999999100041MD1999999-0131REMSYN076AAXX  07124 82678 32596 60903 10278 20218 30004 40162 84530 333 20228 59013;EQDQ01  00002PRCP99
0167826780999992002050718004-06760-043010FM-12+013899999V0201801N005110075019N0040001N1+02321+02051101191ADDAA199000091GF106991051051008001031001MA1999999099621MD1999999-0031REMSYN070AAXX  07184 82678 32596 61810 10232 20205 39962 40119 85530 333 59003;EQDQ01  00002PRCP99
0198826780999992002050800004-06760-043010FM-12+013899999V0209999C000010075019N0020001N1+02581+02331101441ADDAA199000091GF107991071051008001001001KA1240M+03291MA1999999099861MD1999999+0041REMSYN088AAXX  08004 82678 32595 70000 10258 20233 39986 40144 87500 333 10329 29073 55069 58004;EQDQ01  00002PRCP99
0186826780999992002050812004-06760-043010FM-12+013899999V0201401N001510075019N0040001N1+02721+02191101701ADDAA199000091GF108991051051008001021001KA1240N+02381MA1999999100111MD1999999+0071REMSYN076AAXX  08124 82678 32596 81403 10272 20219 30011 40170 85520 333 20238 58007;EQDQ01  00002PRCP99
0167826780999992002050818004-06760-043010FM-12+013899999V0201401N001510075019N0040001N1+03281+02071101191ADDAA199000091GF108991051051008001031001MA1999999099631MD1999999+0011REMSYN070AAXX  08184 82678 32596 81403 10328 20207 39963 40119 85530 333 58001;EQDQ01  00002PRCP99
0208826780999992002050900004-06760-043010FM-12+013899999V0209999C000012200019N0002001N1+02581+02331101291ADDAA199000091GA1001+999999999GF100991001001999999001001KA1240M+03341MA1999999099711MD1999999-0151REMSYN082AAXX  09004 82678 32992 00000 10258 20233 39971 40129 333 10334 29074 55061 59015;EQDQ01  00002PRCP99
0186826780999992002050912004-06760-043010FM-12+013899999V0201401N002110450019N0040001N1+02821+02101101761ADDAA199000091GF106991021021008001031021KA1240N+02171MA1999999100171MD1999999+0061REMSYN076AAXX  09124 82678 32596 61404 10282 20210 30017 40176 82232 333 20217 58006;EQDQ01  00002PRCP99
0167826780999992002050918004-06760-043010FM-12+013899999V0201401N003112200019N0040001N1+03391+01831101211ADDAA199000091GF103991011011008001001021MA1999999099651MD1999999+0021REMSYN070AAXX  09184 82678 32596 31406 10339 20183 39965 40121 81102 333 58002;EQDQ01  00002PRCP99
0208826780999992002051000004-06760-043010FM-12+013899999V0200901N001012200019N0020001N1+02631+02101101451ADDAA199000091GA1001+999999999GF100991001001999999001001KA1240M+03491MA1999999099871MD1999999+0161REMSYN082AAXX  10004 82678 32995 00902 10263 20210 39987 40145 333 10349 29063 55103 58016;EQDQ01  00002PRCP99
0196826780999992002051012004-06760-043010FM-12+013899999V0201801N000512200019N0040001N1+02821+02241101741ADDAA199000091GA1001+999999999GF100991001001999999001001KA1240N+02101MA1999999100161MD1999999-0011REMSYN070AAXX  10124 82678 32996 01801 10282 20224 30016 40174 333 20210 59001;EQDQ01  00002PRCP99
0167826780999992002051018004-06760-043010FM-12+013899999V0201401N001512200019N0040001N1+03441+01801101291ADDAA199000091GF105991041021008001001011MA1999999099711MD1999999+0061REMSYN070AAXX  10184 82678 32596 51403 10344 20180 39971 40129 84201 333 58006;EQDQ01  00002PRCP99
0208826780999992002051100004-06760-043010FM-12+013899999V0209999C000012200019N0002001N1+02701+02221101481ADDAA199000091GA1001+999999999GF100991001001999999001001KA1240M+03511MA1999999099901MD1999999+0031REMSYN082AAXX  11004 82678 32992 00000 10270 20222 39990 40148 333 10351 29655 55104 58003;EQDQ01  00002PRCP99
0202826780999992002051112004-06760-043010FM-12+013899999V0201401N002110075019N0040001N1+02861+01921101761ADDAA199000091GF108991999021008001001001KA1240N+02301MA1999999100191MD1999999+0131REMSYN076AAXX  11124 82678 32596 81404 10286 20192 30019 40176 85200 333 20230 58013;EQDQ01+000052SCOTLCQ02  00002PRCP99
0183826780999992002051118004-06760-043010FM-12+013899999V0201401N001010075019N0040001N1+03381+02261101281ADDAA199000091GF108991999021008001001001MA1999999099721MD1999999+0011REMSYN070AAXX  11184 82678 32596 81402 10338 20226 39972 40128 86200 333 58001;EQDQ01+000062SCOTLCQ02  00002PRCP99
0213826780999992002051200004-06760-043010FM-12+013899999V0209999C000010450019N0002001N1+02401+02301101501ADDAA106003091AY161061AY221061GF105991031051008001021001KA1240M+03411MA1999999099921MD1999999+0021MW1981REMSYN100AAXX  12004 82678 21592 50000 10240 20230 39992 40150 79862 83520 333 10341 29074 55064 58002 60031;
0173826780999992002051212004-06760-043010FM-12+013899999V0201401N003110075019N0040001N1+02881+02161101731ADDAA124003091GF106991051021008001001021KA1240N+02261MA1999999100141MD1999999-0051REMSYN082AAXX  12124 82678 22596 61406 10288 20216 30014 40173 85202 333 20226 59005 60034;
0208826780999992002051300004-06760-043010FM-12+013899999V0201801N000512200019N0002001N1+02531+02171101541ADDAA199000091GA1001+999999999GF100991001001999999001001KA1240M+03351MA1999999099961MD1999999+0041REMSYN082AAXX  13004 82678 32992 01801 10253 20217 39996 40154 333 10335 29068 55091 58004;EQDQ01  00002PRCP99
0186826780999992002051312004-06760-043010FM-12+013899999V0201401N004112200019N0040001N1+02761+01941101751ADDAA199000091GF102991021001017501031001KA1240N+01981MA1999999100161MD1999999+0081REMSYN076AAXX  13124 82678 32796 21408 10276 20194 30016 40175 82030 333 20198 58008;EQDQ01  00002PRCP99
0167826780999992002051318004-06760-043010FM-12+013899999V0200901N003112200019N0040001N1+03341+01581101351ADDAA199000091GF103991031011008001001001MA1999999099781MD1999999+0051REMSYN070AAXX  13184 82678 32596 30906 10334 20158 39978 40135 83100 333 58005;EQDQ01  00002PRCP99
0208826780999992002051400004-06760-043010FM-12+013899999V0209999C000012200019N0002001N1+02541+01951101511ADDAA199000091GA1001+999999999GF100991001001999999001001KA1240M+03401MA1999999099931MD1999999-0031REMSYN082AAXX  14004 82678 32992 00000 10254 20195 39993 40151 333 10340 29059 55105 59003;EQDQ01  00002PRCP99
0196826780999992002051412004-06760-043010FM-12+013899999V0201401N005112200019N0040001N1+02681+01731101711ADDAA199000091GA1001+999999999GF100991001001999999001001KA1240N+01891MA1999999100121MD1999999-0021REMSYN070AAXX  14124 82678 32596 01410 10268 20173 30012 40171 333 20189 59002;EQDQ01  00002PRCP99
0167826780999992002051418004-06760-043010FM-12+013899999V0201401N001512200019N0040001N1+03321+01811101251ADDAA199000091GF103991021011008001001011MA1999999099671MD1999999-0111REMSYN070AAXX  14184 82678 32596 31403 10332 20181 39967 40125 82101 333 59011;EQDQ01  00002PRCP99
0208826780999992002051500004-06760-043010FM-12+013899999V0209999C000012200019N0002001N1+02521+02071101411ADDAA199000091GA1001+999999999GF100991001001999999001001KA1240M+03381MA1999999099831MD1999999-0101REMSYN082AAXX  15004 82678 32992 00000 10252 20207 39983 40141 333 10338 29062 55106 59010;EQDQ01  00002PRCP99
0180826780999992002051512004-06760-043010FM-12+013899999V0200901N003619999999N0040001N1+02871+01951101671ADDAA199000091GF106991999999999999999999KA1240N+02221MA1999999100091MD1999999-0031REMSYN070AAXX  15124 82678 32996 60907 10287 20195 30009 40167 333 20222 59003;EQDQ01  00002PRCP99
0167826780999992002051518004-06760-043010FM-12+013899999V0200501N002610120019N0040001N1+03381+01951101261ADDAA199000091GF108991051081008001031999MA1999999099701MD1999999+0031REMSYN070AAXX  15184 82678 32596 80505 10338 20195 39970 40126 8583/ 333 58003;EQDQ01  00002PRCP99
0198826780999992002051600004-06760-043010FM-12+013899999V0200901N000512200019N0002001N1+02761+02321101401ADDAA199000091GF104991041041008001001001KA1240M+03491MA1999999099831MD1999999+0001REMSYN088AAXX  16004 82678 32592 40901 10276 20232 39983 40140 84400 333 10349 29064 55068 58000;EQDQ01  00002PRCP99
0166826780999992002051612004-06760-043010FM-12+013899999V0200901N003112200019N0040001N1+02961+02071999999ADDAA199000091GA1001+999999999GF100991001001999999001001KA1240N+02261REMSYN069AAXX  16124 82678 32996 00906 10296 20207 3999 40156 333 20226 59010;EQDQ01  00002PRCP99
0213826780999992002051700004-06760-043010FM-12+013899999V0200901N001510075019N0002001N1+02561+02401101371ADDAA106005191AY161061AY221061GF108991061051008001021999KA1240M+03521MA1999999099801MD1999999-0031MW1031REMSYN100AAXX  17004 82678 21592 80903 10256 20240 39980 40137 70362 8652/ 333 10352 29071 55103 59003 60051;
0201826780999992002051712004-06760-043010FM-12+013899999V0201401N001010075019N0040001N1+02881+02321101411ADDAA124008991AY161061AY221061GF108991051021008001001021KA1240N+02341MA1999999099831MD1999999-0161MW1021REMSYN088AAXX  17124 82678 21596 81402 10288 20232 39983 40141 70262 85202 333 20234 59016 60094;
0167826780999992002051718004-06760-043010FM-12+013899999V0200901N000512200019N0040001N1+03441+02181100861ADDAA199000091GF105991031021008001001011MA1999999099301MD1999999-0251REMSYN070AAXX  17184 82678 32596 50901 10344 20218 39930 40086 83201 333 59025;EQDQ01  00002PRCP99
0198826780999992002051800004-06760-043010FM-12+013899999V0209999C000010075019N0040001N1+02001+99999101141ADDAA199000091GF106991051051008001021999KA1240M+03511MA1999999099581MD1999999-0221REMSYN088AAXX  18004 82678 32596 60000 10200 20244 39958 40114 8552/ 333 10351 29070 55093 59022;EQDQ01  00002PRCP99
0202826780999992002051812004-06760-043010FM-12+013899999V0203601N001519999999N0040001N1+02821+02361101371ADDAA199000091GF106991999011008001001001KA1240N+02281MA1999999099801MD1999999-0031REMSYN076AAXX  18124 82678 32596 63603 10282 20236 39980 40137 82100 333 20228 59003;EQDQ01+000022SCOTLCQ02  00002PRCP99
0183826780999992002051818004-06760-043010FM-12+013899999V0200501N001519999999N0040001N1+03361+02011100971ADDAA199000091GF106991999021008001001001MA1999999099411MD1999999+0111REMSYN070AAXX  18184 82678 32596 60503 10336 20201 39941 40097 83200 333 58011;EQDQ01+000032SCOTLCQ02  00002PRCP99
0214826780999992002051900004-06760-043010FM-12+013899999V0209999C000012200019N0002001N1+02741+02341101261ADDAA199000091GF102991999021017501001001KA1240M+03391MA1999999099691MD1999999+0111REMSYN088AAXX  19004 82678 32792 20000 10274 20234 39969 40126 81200 333 10339 29071 55096 58011;EQDQ01+000012SCOTLCQ02  00002PRCP99
0186826780999992002051912004-06760-043010FM-12+013899999V0200501N000512200019N0040001N1+02901+02301101551ADDAA199000091GF102991011011008001031001KA1240N+02341MA1999999099981MD1999999+0181REMSYN076AAXX  19124 82678 32596 20501 10290 20230 39998 40155 81130 333 20234 58018;EQDQ01  00002PRCP99
0183826780999992002051918004-06760-043010FM-12+013899999V0201401N001519999999N0040001N1+03441+02001101101ADDAA199000091GF106991999021008001001001MA1999999099541MD1999999+0131REMSYN070AAXX  19184 82678 32596 61403 10344 20200 39954 40110 83200 333 58013;EQDQ01+000032SCOTLCQ02  00002PRCP99
0198826780999992002052000004-06760-043010FM-12+013899999V0209999C000010075019N0002001N1+02881+02391101241ADDAA199000091GF107991051051008001031001KA1240M+03511MA1999999099681MD1999999-0011REMSYN088AAXX  20004 82678 32592 70000 10288 20239 39968 40124 85530 333 10351 29066 55098 59001;EQDQ01  00002PRCP99
0186826780999992002052012004-06760-043010FM-12+013899999V0200501N000512200019N0040001N1+02881+02251101601ADDAA199000091GF103991021011008001001011KA1240N+02441MA1999999100031MD1999999+0051REMSYN076AAXX  20124 82678 32596 30501 10288 20225 30003 40160 82101 333 20244 58005;EQDQ01  00002PRCP99
0167826780999992002052018004-06760-043010FM-12+013899999V0201401N001010075019N0040001N1+03441+01921101091ADDAA199000091GF108991051021008001001011MA1999999099541MD1999999+0001REMSYN070AAXX  20184 82678 32596 81402 10344 20192 39954 40109 85201 333 58000;EQDQ01  00002PRCP99
0198826780999992002052100004-06760-043010FM-12+013899999V0209999C000012200019N0002001N1+02881+02211101311ADDAA199000091GF103991021011008001001011KA1240M+03541MA1999999099751MD1999999+0071REMSYN088AAXX  21004 82678 32592 30000 10288 20221 39975 40131 82101 333 10354 29061 55088 58007;EQDQ01  00002PRCP99
0186826780999992002052112004-06760-043010FM-12+013899999V0200501N000510075019N0040001N1+02791+02391101611ADDAA199000091GF108991081051008001999999KA1240N+02501MA1999999100041MD1999999+0011REMSYN076AAXX  21124 82678 32596 80501 10279 20239 30004 40161 885// 333 20250 58001;EQDQ01  00002PRCP99
0167826780999992002052118004-06760-043010FM-12+013899999V0201401N001010075019N0040001N1+03411+02001101071ADDAA199000091GF106991051021008001001011MA1999999099511MD1999999-0031REMSYN070AAXX  21184 82678 32596 61402 10341 20200 39951 40107 85201 333 59003;EQDQ01  00002PRCP99
0198826780999992002052200004-06760-043010FM-12+013899999V0200501N000512200019N0002001N1+02811+02291101221ADDAA199000091GF102991021011008001001001KA1240M+03511MA1999999099651MD1999999-0101REMSYN088AAXX  22004 82678 32592 20501 10281 20229 39965 40122 82100 333 10351 29068 55076 59010;EQDQ01  00002PRCP99
0186826780999992002052212004-06760-043010FM-12+013899999V0200501N000511050019N0040001N1+03001+02171101541ADDAA199000091GF106991011011008001001021KA1240N+02441MA1999999099971MD1999999-0071REMSYN076AAXX  22124 82678 32596 60501 10300 20217 39997 40154 81102 333 20244 59007;EQDQ01  00002PRCP99
0167826780999992002052218004-06760-043010FM-12+013899999V0203601N001511050019N0040001N1+03361+02071101031ADDAA199000091GF107991041021008001001021MA1999999099471MD1999999-0041REMSYN070AAXX  22184 82678 32596 73603 10336 20207 39947 40103 84202 333 59004;EQDQ01  00002PRCP99
0192826780999992002052300004-06760-043010FM-12+013899999V0209999C000012200019N0002001N1+02801+02271101191ADDAA199000091GF103991999999999999999999KA1240M+03451MA1999999099631MD1999999-0021REMSYN082AAXX  23004 82678 32992 30000 10280 20227 39963 40119 333 10345 29064 55084 59002;EQDQ01  00002PRCP99
0186826780999992002052312004-06760-043010FM-12+013899999V0200501N001510075019N0040001N1+02741+02301101571ADDAA199000091GF108991051021008001001021KA1240N+02341MA1999999099991MD1999999+0021REMSYN076AAXX  23124 82678 32596 80503 10274 20230 39999 40157 85202 333 20234 58002;EQDQ01  00002PRCP99
0167826780999992002052318004-06760-043010FM-12+013899999V0203201N000510075019N0040001N1+03121+02331101051ADDAA199000091GF108991061021008001001011MA1999999099481MD1999999+0011REMSYN070AAXX  23184 82678 32596 83201 10312 20233 39948 40105 86201 333 58001;EQDQ01  00002PRCP99
0214826780999992002052400004-06760-043010FM-12+013899999V0202701N001019999999N0002001N1+02661+02391101321ADDAA199000091GF106991999001017501021001KA1240M+03121MA1999999099741MD1999999+0111REMSYN088AAXX  24004 82678 32792 62702 10266 20239 39974 40132 83020 333 10312 29078 55026 58011;EQDQ01+000032SCOTLCQ02  00002PRCP99
0201826780999992002052412004-06760-043010FM-12+013899999V0201401N001010075019N0040001N1+02341+02201101721ADDAA124058991AY161061AY261061GF108991081071008001999999KA1240N+02141MA1999999100121MD1999999+0131MW1511REMSYN088AAXX  24124 82678 21596 81402 10234 20220 30012 40172 75166 887// 333 20214 58013 60594;
0154826780999992002052418004-06760-043010FM-12+013899999V0201401N001010075019N0040001N1+02821+02171101281ADDAA106000191GF108991051071008001031021MA1999999099701MD1999999+0221REMSYN076AAXX  24184 82678 22596 81402 10282 20217 39970 40128 85732 333 58022 69911;
0198826780999992002052500004-06760-043010FM-12+013899999V0209999C000010075019N0002001N1+02521+02421101531ADDAA199000021GF108991051071008001031999KA1240M+99999MA1999999099931MD1999999+0191REMSYN088AAXX  25004 82678 32592 80000 10252 20242 39993 40153 8573/ 333 10227 29086 55001 58019;EQDQ01 +02272ATMX  
0173826780999992002052512004-06760-043010FM-12+013899999V0201401N001010075019N0040001N1+02521+02041101741ADDAA124000191GF108991071051008001021001KA1240N+02241MA1999999100141MD1999999+0021REMSYN082AAXX  25124 82678 22596 81402 10252 20204 30014 40174 87520 333 20224 58002 69914;
0183826780999992002052518004-06760-043010FM-12+013899999V0201801N000510075019N0040001N1+02841+02171101391ADDAA199000091GF108991999051008001001001MA1999999099821MD1999999+0111REMSYN070AAXX  25184 82678 32596 81801 10284 20217 39982 40139 87500 333 58011;EQDQ01+000072SCOTLCQ02  00002PRCP99
0198826780999992002052600004-06760-043010FM-12+013899999V0209999C000010075019N0005001N1+02541+02351101561ADDAA199000091GF107991051051008001031001KA1240M+02951MA1999999099971MD1999999+0041REMSYN088AAXX  26004 82678 32593 70000 10254 20235 39997 40156 85530 333 10295 29080 55009 58004;EQDQ01  00002PRCP99
0186826780999992002052612004-06760-043010FM-12+013899999V0201401N002110075019N0040001N1+02541+01881101751ADDAA199000091GF108991051051008001061999KA1240N+02191MA1999999100161MD1999999+0021REMSYN076AAXX  26124 82678 32596 81404 10254 20188 30016 40175 8556/ 333 20219 58002;EQDQ01  00002PRCP99
0167826780999992002052618004-06760-043010FM-12+013899999V0200501N001510450019N0040001N1+03181+02041101281ADDAA199000091GF106991041051008001021011MA1999999099711MD1999999-0101REMSYN070AAXX  26184 82678 32596 60503 10318 20204 39971 40128 84521 333 59010;EQDQ01  00002PRCP99
0198826780999992002052700004-06760-043010FM-12+013899999V0201401N002110450019N0002001N1+02701+01881101561ADDAA199000091GF108991041051008001021999KA1240M+03181MA1999999099971MD1999999+0001REMSYN088AAXX  27004 82678 32592 81404 10270 20188 39997 40156 8452/ 333 10318 29060 55077 58000;EQDQ01  00002PRCP99
0186826780999992002052712004-06760-043010FM-12+013899999V0201401N004112200019N0040001N1+02701+01831101681ADDAA199000091GF102991021001017501031001KA1240N+02081MA1999999100101MD1999999-0061REMSYN076AAXX  27124 82678 32796 21408 10270 20183 30010 40168 82030 333 20208 59006;EQDQ01  00002PRCP99
0167826780999992002052718004-06760-043010FM-12+013899999V0201401N002612200019N0040001N1+03231+01801101181ADDAA199000091GF102991021011008001001001MA1999999099611MD1999999-0101REMSYN070AAXX  27184 82678 32596 21405 10323 20180 39961 40118 82100 333 59010;EQDQ01  00002PRCP99
0214826780999992002052800004-06760-043010FM-12+013899999V0209999C000012200019N0002001N1+02541+02231101311ADDAA199000091GF101991999011008001001001KA1240M+03281MA1999999099731MD1999999-0241REMSYN088AAXX  28004 82678 32592 10000 10254 20223 39973 40131 82100 333 10328 29067 55107 59024;EQDQ01+000022SCOTLCQ02  00002PRCP99
0186826780999992002052812004-06760-043010FM-12+013899999V0201401N002112200019N0040001N1+02641+01851101641ADDAA199000091GF102991011011017501031011KA1240N+02081MA1999999100051MD1999999-0051REMSYN076AAXX  28124 82678 32796 21404 10264 20185 30005 40164 81131 333 20208 59005;EQDQ01  00002PRCP99
0167826780999992002052818004-06760-043010FM-12+013899999V0201401N001512200019N0040001N1+03201+01891101221ADDAA199000091GF104991041011008001001001MA1999999099651MD1999999+0041REMSYN070AAXX  28184 82678 32596 41403 10320 20189 39965 40122 84100 333 58004;EQDQ01  00002PRCP99
0208826780999992002052900004-06760-043010FM-12+013899999V0209999C000012200019N0002001N1+02581+02271101251ADDAA199000091GA1001+999999999GF100991001001999999001001KA1240M+03311MA1999999099671MD1999999-0061REMSYN082AAXX  29004 82678 32992 00000 10258 20227 39967 40125 333 10331 29068 55106 59006;EQDQ01  00002PRCP99
0167826780999992002052918004-06760-043010FM-12+013899999V0201801N001012200019N0040001N1+03321+01931101131ADDAA199000091GF103991021021008001001021MA1999999099571MD1999999-0081REMSYN070AAXX  29184 82678 32596 31802 10332 20193 39957 40113 82202 333 59008;EQDQ01  00002PRCP99
0208826780999992002053000004-06760-043010FM-12+013899999V0209999C000012200019N0002001N1+02601+02211101331ADDAA199000091GA1001+999999999GF100991001001999999001001KA1240M+03341MA1999999099751MD1999999+0081REMSYN082AAXX  30004 82678 32992 00000 10260 20221 39975 40133 333 10334 29070 55081 58008;EQDQ01  00002PRCP99
0180826780999992002053012004-06760-043010FM-12+013899999V0201401N004619999999N0040001N1+02881+01941101531ADDAA199000091GF108991999999999999999999KA1240N+02221MA1999999099951MD1999999-0021REMSYN070AAXX  30124 82678 32996 81409 10288 20194 39995 40153 333 20222 59002;EQDQ01  00002PRCP99
0167826780999992002053018004-06760-043010FM-12+013899999V0201401N002112200019N0040001N1+03381+01911101141ADDAA199000091GF108991041021008001001011MA1999999099581MD1999999+0011REMSYN070AAXX  30184 82678 32596 81404 10338 20191 39958 40114 84201 333 58001;EQDQ01  00002PRCP99
0198826780999992002053100004-06760-043010FM-12+013899999V0201401N001010120019N0002001N1+02661+02331101381ADDAA199000091GF106991061021012501001001KA1240M+03451MA1999999099811MD1999999+0061REMSYN088AAXX  31004 82678 32692 61402 10266 20233 39981 40138 86200 333 10345 29066 55106 58006;EQDQ01  00002PRCP99
0186826780999992002053112004-06760-043010FM-12+013899999V0201401N003110150019N0040001N1+02801+01981101701ADDAA199000091GF106991061001017501031001KA1240N+02301MA1999999100121MD1999999+0171REMSYN076AAXX  31124 82678 32796 61406 10280 20198 30012 40170 86030 333 20230 58017;EQDQ01  00002PRCP99
0167826780999992002053118004-06760-043010FM-12+013899999V0201401N002611050019N0040001N1+03401+01961101281ADDAA199000091GF107991041021008001001021MA1999999099721MD1999999+0141REMSYN070AAXX  31184 82678 32596 71405 10340 20196 39972 40128 84202 333 58014;EQDQ01  00002PRCP99
0208826780999992002060100004-06760-043010FM-12+013899999V0209999C000012200019N0000001N1+02641+02311101421ADDAA199000091GA1001+999999999GF100991001001999999001001KA1240M+03421MA1999999099841MD1999999+0031REMSYN082AAXX  01004 82678 32990 00000 10264 20231 39984 40142 333 10342 29067 55076 58003;EQDQ01  00002PRCP99
0186826780999992002060112004-06760-043010FM-12+013899999V0201401N003112200019N0040001N1+02841+01791101711ADDAA199000091GF103991021011008001001011KA1240N+02241MA1999999100131MD1999999+0011REMSYN076AAXX  01124 82678 32596 31406 10284 20179 30013 40171 82101 333 20224 58001;EQDQ01  00002PRCP99
0167826780999992002060118004-06760-043010FM-12+013899999V0201401N003112200019N0040001N1+03401+01681101351ADDAA199000091GF102991011001008001021011MA1999999099791MD1999999+0071REMSYN070AAXX  01184 82678 32596 21406 10340 20168 39979 40135 81021 333 58007;EQDQ01  00002PRCP99
0208826780999992002060200004-06760-043010FM-12+013899999V0209999C000012200019N0002001N1+02681+02181101511ADDAA199000091GA1001+999999999GF100991001001999999001001KA1240M+03441MA1999999099931MD1999999+0091REMSYN082AAXX  02004 82678 32992 00000 10268 20218 39993 40151 333 10344 29059 55097 58009;EQDQ01  00002PRCP99
0202826780999992002060212004-06760-043010FM-12+013899999V0200901N002619999999N0040001N1+02841+01881101791ADDAA199000091GF105991999021008001001001KA1240N+02281MA1999999100211MD1999999+0081REMSYN076AAXX  02124 82678 32596 50905 10284 20188 30021 40179 84200 333 20228 58008;EQDQ01+000042SCOTLCQ02  00002PRCP99
0167826780999992002060218004-06760-043010FM-12+013899999V0201401N003112200019N0040001N1+03361+01931101351ADDAA199000091GF104991041021008001001001MA1999999099791MD1999999+0001REMSYN070AAXX  02184 82678 32596 41406 10336 20193 39979 40135 84200 333 58000;EQDQ01  00002PRCP99
0208826780999992002060300004-06760-043010FM-12+013899999V0209999C000012200019N0002001N1+02601+02121101531ADDAA199000091GA1001+999999999GF100991001001999999001001KA1240M+03391MA1999999099951MD1999999+0021REMSYN082AAXX  03004 82678 32992 00000 10260 20212 39995 40153 333 10339 29062 55093 58002;EQDQ01  00002PRCP99
0196826780999992002060312004-06760-043010FM-12+013899999V0201401N002612200019N0040001N1+02821+01771101661ADDAA199000091GA1001+999999999GF100991001001999999001001KA1240N+02261MA1999999100081MD1999999-0131REMSYN070AAXX  03124 82678 32996 01405 10282 20177 30008 40166 333 20226 59013;EQDQ01  00002PRCP99
0167826780999992002060318004-06760-043010FM-12+013899999V0201401N001512200019N0040001N1+03321+01781101261ADDAA199000091GF102991021011008001001001MA1999999099701MD1999999-0091REMSYN070AAXX  03184 82678 32596 21403 10332 20178 39970 40126 82100 333 59009;EQDQ01  00002PRCP99
0208826780999992002060400004-06770-043020FM-12+013899999V0209999C000012200019N0002001N1+02661+02071101411ADDAA199000091GA1001+999999999GF100991001001999999001001KA1240M+03411MA1999999099841MD1999999-0111REMSYN082AAXX  04004 82678 32992 00000 10266 20207 39984 40141 333 10341 29058 55106 59011;EQDQ01  00002PRCP99
0196826780999992002060412004-06770-043020FM-12+013899999V0201401N002112200019N0002001N1+02901+01961101621ADDAA199000091GA1001+999999999GF100991001001999999001001KA1240N+02141MA1999999100051MD1999999-0031REMSYN070AAXX  04124 82678 32792 01404 10290 20196 30005 40162 333 20214 59003;EQDQ01  00002PRCP99
0167826780999992002060418004-06770-043020FM-12+013899999V0201801N001512200019N0040001N1+03421+01941101141ADDAA199000091GF103991021011008001001011MA1999999099581MD1999999-0121REMSYN070AAXX  04184 82678 32596 31803 10342 20194 39958 40114 82101 333 59012;EQDQ01  00002PRCP99
0208826780999992002060500004-06770-043020FM-12+013899999V0209999C000012200019N0002001N1+02581+02231101311ADDAA199000091GA1001+999999999GF100991001001999999001001KA1240M+03461MA1999999099741MD1999999-0101REMSYN082AAXX  05004 82678 32992 00000 10258 20223 39974 40131 333 10346 29065 55105 59010;EQDQ01  00002PRCP99
0186826780999992002060512004-06770-043020FM-12+013899999V0201401N003112200019N0040001N1+02901+01961101601ADDAA199000091GF102991011021008001031001KA1240N+02241MA1999999100021MD1999999-0031REMSYN076AAXX  05124 82678 32596 21406 10290 20196 30002 40160 81230 333 20224 59003;EQDQ01  00002PRCP99
0167826780999992002060518004-06770-043020FM-12+013899999V0200901N001510075019N0040001N1+03341+01871101151ADDAA199000091GF105991051021008001001001MA1999999099581MD1999999+0001REMSYN070AAXX  05184 82678 32596 50903 10334 20187 39958 40115 85200 333 58000;EQDQ01  00002PRCP99
0198826780999992002060600004-06770-043020FM-12+013899999V0201401N000512200019N0002001N1+02661+02241101281ADDAA199000091GF102991021021008001001001KA1240M+03491MA1999999099711MD1999999-0031REMSYN088AAXX  06004 82678 32592 21401 10266 20224 39971 40128 82200 333 10349 29064 55103 59003;EQDQ01  00002PRCP99
0167826780999992002060618004-06770-043020FM-12+013899999V0201401N001512200019N0040001N1+03441+01631101101ADDAA199000091GF105991011011008001001011MA1999999099551MD1999999-0031REMSYN070AAXX  06184 82678 32596 51403 10344 20163 39955 40110 81101 333 59003;EQDQ01  00002PRCP99
0208826780999992002060700004-06770-043020FM-12+013899999V0201401N001012200019N0002001N1+02481+02091101311ADDAA199000091GA1001+999999999GF100991001001999999001001KA1240M+03501MA1999999099731MD1999999+0021REMSYN082AAXX  07004 82678 32992 01402 10248 20209 39973 40131 333 10350 29061 55105 58002;EQDQ01  00002PRCP99
0197826780999992002060712004-06770-043020FM-12+013899999V0200901N003612200019N0040001N1+02781+01791101631ADDAA199000091GA1001+999999999GF100991001001999999001001KA1240N+01901MD1999999-0011REMSYN070AAXX  07124 82678 32596 00907 10278 20179 32996 40163 333 20190 59001;EQDQ01+029961APOSP Q02  00002PRCP99
0167826780999992002060718004-06770-043020FM-12+013899999V0200901N002612200019N0040001N1+03401+01541101181ADDAA199000091GF102991011001008001001011MA1999999099611MD1999999+0061REMSYN070AAXX  07184 82678 32596 20905 10340 20154 39961 40118 81001 333 58006;EQDQ01  00002PRCP99
0198826780999992002060800004-06770-043020FM-12+013899999V0209999C000019999999N0002001N1+02601+01891101461ADDAA199000091GF105991021001008001031011KA1240M+03441MA1999999099881MD1999999+0151REMSYN088AAXX  08004 82678 32592 50000 10260 20189 39988 40146 82031 333 10344 29054 55104 58015;EQDQ01  00002PRCP99
0186826780999992002060812004-06770-043020FM-12+013899999V0200901N000510450019N0040001N1+02661+01971101831ADDAA199000091GF107991041051008001031001KA1240N+02121MA1999999100241MD1999999+0191REMSYN076AAXX  08124 82678 32596 70901 10266 20197 30024 40183 84530 333 20212 58019;EQDQ01  00002PRCP99
0167826780999992002060818004-06770-043020FM-12+013899999V0201401N001010075019N0040001N1+03281+01931101431ADDAA199000091GF107991051051008001031001MA1999999099861MD1999999+0251REMSYN070AAXX  08184 82678 32596 71402 10328 20193 39986 40143 85530 333 58025;EQDQ01  00002PRCP99
0208826780999992002060900004-06770-043020FM-12+013899999V0209999C000012200019N0002001N1+02381+02191101601ADDAA199000091GA1001+999999999GF100991001001999999001001KA1240M+03391MA1999999100011MD1999999+0131REMSYN082AAXX  09004 82678 32992 00000 10238 20219 30001 40160 333 10339 29072 55062 58013;EQDQ01  00002PRCP99
0186826780999992002060912004-06770-043020FM-12+013899999V0201401N001510450019N0040001N1+02741+01971101781ADDAA199000091GF106991021011008001031021KA1240N+02181MA1999999100191MD1999999-0051REMSYN076AAXX  09124 82678 32596 61403 10274 20197 30019 40178 82132 333 20218 59005;EQDQ01  00002PRCP99
0167826780999992002060918004-06770-043020FM-12+013899999V0201401N002611050019N0040001N1+03321+01931101321ADDAA199000091GF106991041021008001001021MA1999999099751MD1999999-0111REMSYN070AAXX  09184 82678 32596 61405 10332 20193 39975 40132 84202 333 59011;EQDQ01  00002PRCP99
0208826780999992002061000004-06770-043020FM-12+013899999V0209999C000012200019N0002001N1+02601+02121101451ADDAA199000091GA1001+999999999GF100991001001999999001001KA1240M+03401MA1999999099871MD1999999-0141REMSYN082AAXX  10004 82678 32992 00000 10260 20212 39987 40145 333 10340 29064 55095 59014;EQDQ01  00002PRCP99
0186826780999992002061003004-06770-043020FM-12+013899999V0201401N001510450019N0040001N1+02741+01971101781ADDAA199000091GF106991021011008001031021KA1240N+02181MA1999999100191MD1999999-0051REMSYN076AAXX  10034 82678 32596 61403 10274 20197 30019 40178 82132 333 20218 59005;EQDQ01  00002PRCP99
0196826780999992002061012004-06770-043020FM-12+013899999V0200901N002112200019N0040001N1+02781+01911101771ADDAA199000091GA1001+999999999GF100991001001999999001001KA1240N+02091MA1999999100191MD1999999+0001REMSYN070AAXX  10124 82678 32796 00904 10278 20191 30019 40177 333 20209 58000;EQDQ01  00002PRCP99
0167826780999992002061018004-06770-043020FM-12+013899999V0202301N001512200019N0040001N1+03321+01821101251ADDAA199000091GF103991021021008001001011MA1999999099681MD1999999-0071REMSYN070AAXX  10184 82678 32596 32303 10332 20182 39968 40125 82201 333 59007;EQDQ01  00002PRCP99
0208826780999992002061100004-06770-043020FM-12+013899999V0209999C000012200019N0040001N1+02601+01961101481ADDAA199000091GA1001+999999999GF100991001001999999001001KA1240M+03391MA1999999099901MD1999999+0031REMSYN082AAXX  11004 82678 32596 00000 10260 20196 39990 40148 333 10339 29059 55105 58003;EQDQ01  00002PRCP99
0186826780999992002061112004-06770-043020FM-12+013899999V0200501N001512200019N0040001N1+02661+01821101751ADDAA199000091GF104991041051008001001001KA1240N+01961MA1999999100161MD1999999-0031REMSYN076AAXX  11124 82678 32596 40503 10266 20182 30016 40175 84500 333 20196 59003;EQDQ01  00002PRCP99
0167826780999992002061118004-06770-043020FM-12+013899999V0201801N002110450019N0040001N1+03391+01661101271ADDAA199000091GF105991041081008001031001MA1999999099701MD1999999+0021REMSYN070AAXX  11184 82678 32596 51804 10339 20166 39970 40127 84830 333 58002;EQDQ01  00002PRCP99
0208826780999992002061200004-06770-043020FM-12+013899999V0209999C000012200019N0002001N1+02471+01921101471ADDAA199000091GA1001+999999999GF100991001001999999001001KA1240M+03451MA1999999099891MD1999999-0011REMSYN082AAXX  12004 82678 32992 00000 10247 20192 39989 40147 333 10345 29060 55080 59001;EQDQ01  00002PRCP99
0196826780999992002061212004-06770-043020FM-12+013899999V0201401N003112200019N0040001N1+02781+01911101661ADDAA199000091GA1001+999999999GF100991001001999999001001KA1240N+01991MA1999999100071MD1999999-0091REMSYN070AAXX  12124 82678 32996 01406 10278 20191 30007 40166 333 20199 59009;EQDQ01  00002PRCP99
0167826780999992002061218004-06770-043020FM-12+013899999V0201401N001510075019N0040001N1+03361+01851101321ADDAA199000091GF105991051021008001001001MA1999999099751MD1999999+0051REMSYN070AAXX  12184 82678 32596 51403 10336 20185 39975 40132 85200 333 58005;EQDQ01  00002PRCP99
0208826780999992002061300004-06770-043020FM-12+013899999V0209999C000012200019N0002001N1+02661+02091101441ADDAA199000091GA1001+999999999GF100991001001999999001001KA1240M+03491MA1999999099861MD1999999-0031REMSYN082AAXX  13004 82678 32992 00000 10266 20209 39986 40144 333 10349 29060 55102 59003;EQDQ01  00002PRCP99
0186826780999992002061312004-06770-043020FM-12+013899999V0201401N002612200019N0040001N1+02941+02081101731ADDAA199000091GF102991011011008001001011KA1240N+02401MA1999999100151MD1999999+0081REMSYN076AAXX  13124 82678 32596 21405 10294 20208 30015 40173 81101 333 20240 58008;EQDQ01  00002PRCP99
0186826780999992002061412004-06770-043020FM-12+013899999V0200901N004112200019N0040001N1+02821+01941101821ADDAA199000091GF105991021011008001001011KA1240N+02251MA1999999100241MD1999999+0091REMSYN076AAXX  14124 82678 32596 50908 10282 20194 30024 40182 82101 333 20225 58009;EQDQ01  00002PRCP99
0167826780999992002061418004-06770-043020FM-12+013899999V0201401N003112200019N0040001N1+03441+01671101371ADDAA199000091GF105991041021008001001011MA1999999099811MD1999999+0151REMSYN070AAXX  14184 82678 32596 51406 10344 20167 39981 40137 84201 333 58015;EQDQ01  00002PRCP99
0208826780999992002061500004-06770-043020FM-12+013899999V0201401N002612200019N0002001N1+02701+01721101521ADDAA199000091GA1001+999999999GF100991001001999999001001KA1240M+03511MA1999999100011MD1999999+0091REMSYN082AAXX  15004 82678 32992 01405 10270 20172 30001 40152 333 10351 29050 55099 58009;EQDQ01  00002PRCP99
0196826780999992002061512004-06770-043020FM-12+013899999V0201401N004112200019N0040001N1+02701+01801101901ADDAA199000091GA1001+999999999GF100991001001999999001001KA1240N+02201MA1999999100321MD1999999+0081REMSYN070AAXX  15124 82678 32996 01408 10270 20180 30032 40190 333 20220 58008;EQDQ01  00002PRCP99
0208826780999992002061600004-06770-043020FM-12+013899999V0201401N001512200019N0002001N1+02861+01781101601ADDAA199000091GA1001+999999999GF100991001001999999001001KA1240M+03411MA1999999100031MD1999999+0021REMSYN082AAXX  16004 82678 32992 01403 10286 20178 30003 40160 333 10341 29050 55100 58002;EQDQ01  00002PRCP99
0202826780999992002061612004-06770-043020FM-12+013899999V0201401N003112200019N0040001N1+02821+01741101881ADDAA199000091GF103991999011008001001001KA1240N+02411MA1999999100301MD1999999-0021REMSYN076AAXX  16124 82678 32596 31406 10282 20174 30030 40188 82100 333 20241 59002;EQDQ01+000022SCOTLCQ02  00002PRCP99
0183826780999992002061618004-06770-043020FM-12+013899999V0201401N001519999999N0040001N1+03161+01751101481ADDAA199000091GF105991999021008001001001MA1999999099911MD1999999+0041REMSYN070AAXX  16184 82678 32596 51403 10316 20175 39991 40148 83200 333 58004;EQDQ01+000032SCOTLCQ02  00002PRCP99
0208826780999992002061700004-06770-043020FM-12+013899999V0209999C000012200019N0020001N1+02401+01861101651ADDAA199000091GA1001+999999999GF100991001001999999001001KA1240M+03231MA1999999100061MD1999999+0021REMSYN082AAXX  17004 82678 32995 00000 10240 20186 30006 40165 333 10323 29060 55070 58002;EQDQ01  00002PRCP99
0186826780999992002061712004-06770-043020FM-12+013899999V0201401N001510075019N0040001N1+02541+01861101861ADDAA199000091GF106991051041008001031001KA1240N+02001MA1999999100261MD1999999-0041REMSYN076AAXX  17124 82678 32596 61403 10254 20186 30026 40186 85430 333 20200 59004;EQDQ01  00002PRCP99
0167826780999992002061718004-06770-043020FM-12+013899999V0201401N003110075019N0040001N1+03281+01741101411ADDAA199000091GF105991051021008001001001MA1999999099831MD1999999-0081REMSYN070AAXX  17184 82678 32596 51406 10328 20174 39983 40141 85200 333 59008;EQDQ01  00002PRCP99
0208826780999992002061800004-06770-043020FM-12+013899999V0201401N001512200019N0002001N1+02671+01561101571ADDAA199000091GA1001+999999999GF100991001001999999001001KA1240M+03371MA1999999099981MD1999999-0081REMSYN082AAXX  18004 82678 32992 01403 10267 20156 39998 40157 333 10337 29052 55069 59008;EQDQ01  00002PRCP99
0196826780999992002061812004-06760-043010FM-12+013899999V0201401N004112200019N0040001N1+02621+01641101851ADDAA199000091GA1001+999999999GF100991001001999999001001KA1240N+01901MA1999999100261MD1999999+0001REMSYN070AAXX  18124 82678 32996 01408 10262 20164 30026 40185 333 20190 58000;EQDQ01  00002PRCP99
0198826780999992002061900004-06760-043010FM-12+013899999V0209999C000010150019N0002001N1+02561+01831101611ADDAA199000091GF106991061021017501001001KA1240M+03391MA1999999100021MD1999999+0041REMSYN088AAXX  19004 82678 32792 60000 10256 20183 30002 40161 86200 333 10339 29055 55095 58004;EQDQ01  00002PRCP99
0187826780999992002061912004-06760-043010FM-12+013899999V0201401N002612200019N0040001N1+02641+01631101911ADDAA199000091GF104991021011008001001011KA1240N+02091MD1999999+0061REMSYN076AAXX  19124 82678 32596 41405 10264 20163 31032 40191 82101 333 20209 58006;EQDQ01+010321APOSP Q02  00002PRCP99
0198826780999992002062000004-06760-043010FM-12+013899999V0209999C000010075019N0002001N1+02521+01821101641ADDAA199000091GF108991051021008001031011KA1240M+03411MA1999999100051MD1999999+0031REMSYN088AAXX  20004 82678 32592 80000 10252 20182 30005 40164 85231 333 10341 29053 55073 58003;EQDQ01  00002PRCP99
0186826780999992002062012004-06760-043010FM-12+013899999V0201401N005112200019N0040001N1+02771+01591101861ADDAA199000091GF101991011001017501041001KA1240N+02281MA1999999100271MD1999999-0051REMSYN076AAXX  20124 82678 32796 11410 10277 20159 30027 40186 81040 333 20228 59005;EQDQ01  00002PRCP99
0167826780999992002062018004-06760-043010FM-12+013899999V0200901N003610075019N0040001N1+03221+01731101411ADDAA199000091GF108991061051008001031999MA1999999099841MD1999999-0061REMSYN070AAXX  20184 82678 32596 80907 10322 20173 39984 40141 8653/ 333 59006;EQDQ01  00002PRCP99
0167826780999992002062118004-06770-043020FM-12+013899999V0201401N001510075019N0040001N1+03121+01921101501ADDAA199000091GF107991051051008001031001MA1999999099931MD1999999+0091REMSYN070AAXX  21184 82678 32596 71403 10312 20192 39993 40150 85530 333 58009;EQDQ01  00002PRCP99
0198826780999992002062200004-06770-043020FM-12+013899999V0201801N001011050019N0002001N1+02701+01991101721ADDAA199000091GF106991041001017501031021KA1240M+03291MA1999999100141MD1999999+0031REMSYN088AAXX  22004 82678 32792 61802 10270 20199 30014 40172 84032 333 10329 29061 55068 58003;EQDQ01  00002PRCP99
0202826780999992002062212004-06770-043020FM-12+013899999V0201801N003119999999N0040001N1+02721+01931101901ADDAA199000091GF105991999011008001001001KA1240N+02321MA1999999100311MD1999999+0001REMSYN076AAXX  22124 82678 32596 51806 10272 20193 30031 40190 83100 333 20232 58000;EQDQ01+000032SCOTLCQ02  00002PRCP99
0167826780999992002062218004-06770-043020FM-12+013899999V0201401N001510450019N0040001N1+03261+01801101401ADDAA199000091GF106991041051008001031001MA1999999099841MD1999999-0091REMSYN070AAXX  22184 82678 32596 61403 10326 20180 39984 40140 84530 333 59009;EQDQ01  00002PRCP99
0214826780999992002062300004-06770-043020FM-12+013899999V0209999C000019999999N0002001N1+02701+01991101731ADDAA199000091GF108991999011008001001001KA1240M+03341MA1999999100151MD1999999+0011REMSYN088AAXX  23004 82678 32592 80000 10270 20199 30015 40173 82100 333 10334 29058 55050 58001;EQDQ01+000022SCOTLCQ02  00002PRCP99
0180826780999992002062312004-06770-043020FM-12+013899999V0201401N002112200019N0040001N1+02731+01791101921ADDAA199000091GF102991999999999999999999KA1240N+02061MA1999999100331MD1999999+0021REMSYN070AAXX  23124 82678 32996 21404 10273 20179 30033 40192 333 20206 58002;EQDQ01  00002PRCP99
0183826780999992002062318004-06770-043020FM-12+013899999V0201401N002612200019N0040001N1+03401+01501101421ADDAA199000091GF103991999011008001001001MA1999999099861MD1999999+0021REMSYN070AAXX  23184 82678 32596 31405 10340 20150 39986 40142 82100 333 58002;EQDQ01+000022SCOTLCQ02  00002PRCP99
0198826780999992002062400004-06770-043020FM-12+013899999V0201401N001510075019N0020001N1+02881+01641101691ADDAA199000091GF108991081051008001999999KA1240M+03491MA1999999100111MD1999999-0041REMSYN088AAXX  24004 82678 32595 81403 10288 20164 30011 40169 885// 333 10349 29046 55104 59004;EQDQ01  00002PRCP99
0183826780999992002062418004-06770-043020FM-12+013899999V0201801N001019999999N0040001N1+03401+01591101531ADDAA199000091GF106991999021008001001001MA1999999099971MD1999999+0111REMSYN070AAXX  24184 82678 32596 61802 10340 20159 39997 40153 83200 333 58011;EQDQ01+000032SCOTLCQ02  00002PRCP99
0214826780999992002062500004-06770-043020FM-12+013899999V0201401N001019999999N0020001N1+02711+01751101731ADDAA199000091GF106991999011008001001001KA1240M+03491MA1999999100051MD1999999+0041REMSYN088AAXX  25004 82678 32595 61402 10271 20175 30005 40173 82100 333 10349 29050 55100 58004;EQDQ01+000022SCOTLCQ02  00002PRCP99
0186826780999992002062512004-06770-043020FM-12+013899999V0201401N003112200019N0040001N1+02781+01961102071ADDAA199000091GF103991031001008001031001KA1240N+02391MA1999999100491MD1999999+0081REMSYN076AAXX  25124 82678 32596 31406 10278 20196 30049 40207 83030 333 20239 58008;EQDQ01  00002PRCP99
0167826780999992002062518004-06770-043020FM-12+013899999V0201401N001510075019N0040001N1+03301+01871101601ADDAA199000091GF108991051021008001001011MA1999999100041MD1999999+0071REMSYN070AAXX  25184 82678 32596 81403 10330 20187 30004 40160 85201 333 58007;EQDQ01  00002PRCP99
0198826780999992002062600004-06770-043020FM-12+013899999V0201401N001511050019N0002001N1+02881+01831101931ADDAA199000091GF105991041021008001001021KA1240M+03381MA1999999100351MD1999999+0201REMSYN088AAXX  26004 82678 32592 51403 10288 20183 30035 40193 84202 333 10338 29052 55059 58020;EQDQ01  00002PRCP99
0186826780999992002062612004-06770-043020FM-12+013899999V0201401N004111050019N0040001N1+02661+01821102041ADDAA199000091GF106991041001017501021021KA1240N+02451MA1999999100461MD1999999-0031REMSYN076AAXX  26124 82678 32796 61408 10266 20182 30046 40204 84022 333 20245 59003;EQDQ01  00002PRCP99
0186826780999992002062712004-06770-043020FM-12+013899999V0200901N003110150019N0040001N1+02661+01791102041ADDAA199000091GF108991051001017501021021KA1240N+02401MA1999999100451MD1999999-0011REMSYN076AAXX  27124 82678 32796 80906 10266 20179 30045 40204 85022 333 20240 59001;EQDQ01  00002PRCP99
0167826780999992002062718004-06770-043020FM-12+013899999V0201401N002110450019N0040001N1+03281+01621101601ADDAA199000091GF105991031051008001021011MA1999999100031MD1999999-0051REMSYN070AAXX  27184 82678 32596 51404 10328 20162 30003 40160 83521 333 59005;EQDQ01  00002PRCP99
0192826780999992002062800004-06770-043020FM-12+013899999V0201801N004112200019N0002001N1+02621+01501101791ADDAA199000091GF102991999999999999999999KA1240M+03411MA1999999100201MD1999999-0081REMSYN082AAXX  28004 82678 32992 21808 10262 20150 30020 40179 333 10341 29049 55069 59008;EQDQ01  00002PRCP99
0196826780999992002062812004-06770-043020FM-12+013899999V0201401N004612200019N0040001N1+02621+01621101991ADDAA199000091GA1001+999999999GF100991001001999999001001KA1240N+01921MA1999999100401MD1999999-0051REMSYN070AAXX  28124 82678 32996 01409 10262 20162 30040 40199 333 20192 59005;EQDQ01  00002PRCP99
0183826780999992002062818004-06770-043020FM-12+013899999V0201801N001512200019N0040001N1+03361+01561101431ADDAA199000091GF104991999021008001001001MA1999999099851MD1999999-0181REMSYN070AAXX  28184 82678 32596 41803 10336 20156 39985 40143 83200 333 59018;EQDQ01+000032SCOTLCQ02  00002PRCP99
0208826780999992002062900004-06770-043020FM-12+013899999V0209999C000012200019N0002001N1+02461+01731101641ADDAA199000091GA1001+999999999GF100991001001999999001001KA1240M+03441MA1999999100051MD1999999-0151REMSYN082AAXX  29004 82678 32992 00000 10246 20173 30005 40164 333 10344 29054 55104 59015;EQDQ01  00002PRCP99
0196826780999992002062912004-06770-043020FM-12+013899999V0201801N005112200019N0040001N1+02701+01961101831ADDAA199000091GA1001+999999999GF100991001001999999001001KA1240N+01881MA1999999100241MD1999999-0161REMSYN070AAXX  29124 82678 32996 01810 10270 20196 30024 40183 333 20188 59016;EQDQ01  00002PRCP99
0167826780999992002062918004-06770-043020FM-12+013899999V0201401N001512200019N0040001N1+03421+01611101381ADDAA199000091GF104991021021008001001011MA1999999099801MD1999999-0051REMSYN070AAXX  29184 82678 32596 41403 10342 20161 39980 40138 82201 333 59005;EQDQ01  00002PRCP99
0208826780999992002063000004-06770-043020FM-12+013899999V0201401N002612200019N0002001N1+02811+01601101641ADDAA199000091GA1001+999999999GF100991001001999999001001KA1240M+03521MA1999999100061MD1999999+0011REMSYN082AAXX  30004 82678 32992 01405 10281 20160 30006 40164 333 10352 29048 55103 58001;EQDQ01  00002PRCP99
0186826780999992002063012004-06770-043020FM-12+013899999V0201401N004110075019N0040001N1+02661+01801102091ADDAA199000091GF105991051051008001001001KA1240N+02201MA1999999100511MD1999999+0271REMSYN076AAXX  30124 82678 32596 51408 10266 20180 30051 40209 85500 333 20220 58027;EQDQ01  00002PRCP99
0137826780999992002063018004-06770-043020FM-12+013899999V0201401N001519999999N0040001N1+03381+99999999999ADDAA199000091GF105991999999008001999999REMSYN069AAXX  30184 82678 32596 51403 10338 2016 30002 40159 85200 333 58022;EQDQ01  00002PRCP99
0208826780999992002070100004-06770-043020FM-12+013899999V0201401N001512200019N0002001N1+02801+01631101791ADDAA199000091GA1001+999999999GF100991001001999999001001KA1240M+03421MA1999999100211MD1999999-0031REMSYN082AAXX  01004 82678 32992 01403 10280 20163 30021 40179 333 10342 29048 55090 59003;EQDQ01  00002PRCP99
0186826780999992002070112004-06770-043020FM-12+013899999V0201401N003112200019N0040001N1+02781+01851102081ADDAA199000091GF104991041051008001001001KA1240N+02221MA1999999100501MD1999999-0011REMSYN076AAXX  01124 82678 32596 41406 10278 20185 30050 40208 84500 333 20222 59001;EQDQ01  00002PRCP99
0167826780999992002070118004-06770-043020FM-12+013899999V0201401N003610075019N0040001N1+03301+01871101701ADDAA199000091GF108991051021008001001011MA1999999100131MD1999999+0111REMSYN070AAXX  01184 82678 32596 81407 10330 20187 30013 40170 85201 333 58011;EQDQ01  00002PRCP99
0208826780999992002070200004-06770-043020FM-12+013899999V0201401N000512200019N0002001N1+02781+01821101861ADDAA199000091GA1001+999999999GF100991001001999999001001KA1240M+03361MA1999999100281MD1999999+0071REMSYN082AAXX  02004 82678 32992 01401 10278 20182 30028 40186 333 10336 29053 55092 58007;EQDQ01  00002PRCP99
0156826780999992002070212004-06770-043020FM-12+013899999V0201401N005719999999N0040001N1+99999+99999999999ADDAA199000091GF106991999999017501999999KA1240N+02241REMSYN075AAXX  02124 82678 32796 61411 0264 20175 30039 40198 86030 333 20224 59011;EQDQ01  00002PRCP99
0167826780999992002070218004-06770-043020FM-12+013899999V0201401N002610450019N0040001N1+03341+01581101461ADDAA199000091GF105991041021008001031001MA1999999099901MD1999999-0231REMSYN070AAXX  02184 82678 32596 51405 10334 20158 39990 40146 84230 333 59023;EQDQ01  00002PRCP99
0208826780999992002070300004-06770-043020FM-12+013899999V0201401N000512200019N0002001N1+02681+01581101691ADDAA199000091GA1001+999999999GF100991001001999999001001KA1240M+03401MA1999999100101MD1999999-0181REMSYN082AAXX  03004 82678 32992 01401 10268 20158 30010 40169 333 10340 29049 55068 59018;EQDQ01  00002PRCP99
0196826780999992002070312004-06770-043020FM-12+013899999V0201401N003612200019N0040001N1+02521+01551101911ADDAA199000091GA1001+999999999GF100991001001999999001001KA1240N+02011MA1999999100321MD1999999-0071REMSYN070AAXX  03124 82678 32996 01407 10252 20155 30032 40191 333 20201 59007;EQDQ01  00002PRCP99
0167826780999992002070318004-06770-043020FM-12+013899999V0201401N002612200019N0040001N1+03401+01401101431ADDAA199000091GF102991021011008001001001MA1999999099851MD1999999-0051REMSYN070AAXX  03184 82678 32596 21405 10340 20140 39985 40143 82100 333 59005;EQDQ01  00002PRCP99
0196826780999992002070412004-06770-043020FM-12+013899999V0201401N005112200019N0040001N1+02701+01571101891ADDAA199000091GA1001+999999999GF100991001001999999001001KA1240N+02301MA1999999100301MD1999999-0021REMSYN070AAXX  04124 82678 32996 01410 10270 20157 30030 40189 333 20230 59002;EQDQ01  00002PRCP99
0161826780999992002070418004-06770-043020FM-12+013899999V0201401N002612200019N0040001N1+03401+01451101391ADDAA199000091GF102991999999999999999999MA1999999099831MD1999999-0021REMSYN064AAXX  04184 82678 32996 21405 10340 20145 39983 40139 333 59002;EQDQ01  00002PRCP99
0208826780999992002070500004-06770-043020FM-12+013899999V0201401N001512200019N0002001N1+02881+01391101661ADDAA199000091GA1001+999999999GF100991001001999999001001KA1240M+03441MA1999999100081MD1999999+0061REMSYN082AAXX  05004 82678 32992 01403 10288 20139 30008 40166 333 10344 29040 55105 58006;EQDQ01  00002PRCP99
0186826780999992002070512004-06770-043020FM-12+013899999V0201401N005712200019N0040001N1+02831+01741101871ADDAA199000091GF102991011011008001001011KA1240N+02361MA1999999100291MD1999999-0011REMSYN076AAXX  05124 82678 32596 21411 10283 20174 30029 40187 81101 333 20236 59001;EQDQ01  00002PRCP99
0167826780999992002070518004-06770-043020FM-12+013899999V0201401N003110075019N0040001N1+03211+01711101341ADDAA199000091GF107991071051008001001001MA1999999099771MD1999999-0061REMSYN070AAXX  05184 82678 32596 71406 10321 20171 39977 40134 87500 333 59006;EQDQ01  00002PRCP99
0208826780999992002070600004-06770-043020FM-12+013899999V0201401N002112200019N0002001N1+02731+01791101601ADDAA199000091GA1001+999999999GF100991001001999999001001KA1240M+03391MA1999999100031MD1999999-0051REMSYN082AAXX  06004 82678 32992 01404 10273 20179 30003 40160 333 10339 29052 55087 59005;EQDQ01  00002PRCP99
0202826780999992002070612004-06770-043020FM-12+013899999V0201401N005112200019N0040001N1+02761+01661101891ADDAA199000091GF104991999011008001001001KA1240N+02271MA1999999100311MD1999999+0021REMSYN076AAXX  06124 82678 32596 41410 10276 20166 30031 40189 82100 333 20227 58002;EQDQ01+000022SCOTLCQ02  00002PRCP99
0167826780999992002070618004-06770-043020FM-12+013899999V0201401N002112200019N0040001N1+03321+01611101301ADDAA199000091GF104991041021008001001001MA1999999099741MD1999999-0031REMSYN070AAXX  06184 82678 32596 41404 10332 20161 39974 40130 84200 333 59003;EQDQ01  00002PRCP99
0208826780999992002070700004-06770-043020FM-12+013899999V0201401N002112200019N0002001N1+02761+01531101531ADDAA199000091GA1001+999999999GF100991001001999999001001KA1240M+03451MA1999999099951MD1999999-0081REMSYN082AAXX  07004 82678 32992 01404 10276 20153 39995 40153 333 10345 29045 55092 59008;EQDQ01  00002PRCP99
0196826780999992002070712004-06770-043020FM-12+013899999V0201401N003112200019N0040001N1+02681+01671101891ADDAA199000091GA1001+999999999GF100991001001999999001001KA1240N+02221MA1999999100301MD1999999-0011REMSYN070AAXX  07124 82678 32996 01406 10268 20167 30030 40189 333 20222 59001;EQDQ01  00002PRCP99
0167826780999992002070718004-06770-043020FM-12+013899999V0201801N003112200019N0040001N1+03521+01451101371ADDAA199000091GF101991011011008001001001MA1999999099811MD1999999+0071REMSYN070AAXX  07184 82678 32596 11806 10352 20145 39981 40137 81100 333 58007;EQDQ01  00002PRCP99
0208826780999992002070800004-06770-043020FM-12+013899999V0209999C000012200019N0002001N1+02641+01661101551ADDAA199000091GA1001+999999999GF100991001001999999001001KA1240M+03551MA1999999099971MD1999999+0021REMSYN082AAXX  08004 82678 32992 00000 10264 20166 39997 40155 333 10355 29048 55105 58002;EQDQ01  00002PRCP99
0196826780999992002070812004-06770-043020FM-12+013899999V0201401N001512200019N0040001N1+02771+01461101821ADDAA199000091GA1001+999999999GF100991001001999999001001KA1240N+01861MA1999999100241MD1999999-0061REMSYN070AAXX  08124 82678 32996 01403 10277 20146 30024 40182 333 20186 59006;EQDQ01  00002PRCP99
0167826780999992002070818004-06770-043020FM-12+013899999V0201401N001512200019N0040001N1+03611+01351101321ADDAA199000091GF104991041011008001001001MA1999999099761MD1999999-0051REMSYN070AAXX  08184 82678 32596 41403 10361 20135 39976 40132 84100 333 59005;EQDQ01  00002PRCP99
0208826780999992002070900004-06770-043020FM-12+013899999V0209999C000012200019N0020001N1+02641+01601101551ADDAA199000091GA1001+999999999GF100991001001999999001001KA1240M+03711MA1999999099971MD1999999+0001REMSYN082AAXX  09004 82678 32595 00000 10264 20160 39997 40155 333 10371 29044 55104 58000;EQDQ01  00002PRCP99
0186826780999992002070912004-06770-043020FM-12+013899999V0200901N000512200019N0040001N1+02861+01751101941ADDAA199000091GF102991021011008001001001KA1240N+01901MA1999999100361MD1999999+0121REMSYN076AAXX  09124 82678 32596 20901 10286 20175 30036 40194 82100 333 20190 58012;EQDQ01  00002PRCP99
0167826780999992002070918004-06770-043020FM-12+013899999V0202701N000510075019N0040001N1+03561+01531101441ADDAA199000091GF105991051021008001001001MA1999999099871MD1999999+0111REMSYN070AAXX  09184 82678 32596 52701 10356 20153 39987 40144 85200 333 58011;EQDQ01  00002PRCP99
0208826780999992002071000004-06770-043020FM-12+013899999V0209999C000012200019N0002001N1+02761+01971101581ADDAA199000091GA1001+999999999GF100991001001999999001001KA1240M+03691MA1999999100011MD1999999+0041REMSYN082AAXX  10004 82678 32992 00000 10276 20197 30001 40158 333 10369 29051 55099 58004;EQDQ01  00002PRCP99
0186826780999992002071012004-06770-043020FM-12+013899999V0200901N003112200019N0040001N1+02841+01601101941ADDAA199000091GF102991011021008001021001KA1240N+01961MA1999999100361MD1999999+0001REMSYN076AAXX  10124 82678 32596 20906 10284 20160 30036 40194 81220 333 20196 58000;EQDQ01  00002PRCP99
0167826780999992002071018004-06770-043020FM-12+013899999V0201401N003112200019N0040001N1+03571+01311101381ADDAA199000091GF102991011011008001001011MA1999999099821MD1999999-0051REMSYN070AAXX  10184 82678 32596 21406 10357 20131 39982 40138 81101 333 59005;EQDQ01  00002PRCP99
0208826780999992002071100004-06770-043020FM-12+013899999V0201801N001012200019N0002001N1+02741+01611101531ADDAA199000091GA1001+999999999GF100991001001999999001001KA1240M+03661MA1999999099961MD1999999-0051REMSYN082AAXX  11004 82678 32992 01802 10274 20161 39996 40153 333 10366 29043 55106 59005;EQDQ01  00002PRCP99
0186826780999992002071112004-06770-043020FM-12+013899999V0201401N001512200019N0040001N1+02921+01831101871ADDAA199000091GF102991021011008001001001KA1240N+02201MA1999999100291MD1999999-0071REMSYN076AAXX  11124 82678 32596 21403 10292 20183 30029 40187 82100 333 20220 59007;EQDQ01  00002PRCP99
0167826780999992002071118004-06770-043020FM-12+013899999V0200901N003110075019N0040001N1+03101+01941101511ADDAA199000091GF107991071051008001001001MA1999999099931MD1999999+0121REMSYN070AAXX  11184 82678 32596 70906 10310 20194 39993 40151 87500 333 58012;EQDQ01  00002PRCP99
0208826780999992002071200004-06770-043020FM-12+013899999V0203601N000512200019N0002001N1+02671+02091101561ADDAA199000091GA1001+999999999GF100991001001999999001001KA1240M+03411MA1999999099991MD1999999+0031REMSYN082AAXX  12004 82678 32992 03601 10267 20209 39999 40156 333 10341 29061 55074 58003;EQDQ01  00002PRCP99
0186826780999992002071212004-06770-043020FM-12+013899999V0201401N002612200019N0040001N1+02781+01821101851ADDAA199000091GF103991031001017501031001KA1240N+02181MA1999999100261MD1999999-0031REMSYN076AAXX  12124 82678 32796 31405 10278 20182 30026 40185 83030 333 20218 59003;EQDQ01  00002PRCP99
0167826780999992002071218004-06770-043020FM-12+013899999V0201401N002110075019N0040001N1+03411+01591101301ADDAA199000091GF105991051021008001001001MA1999999099741MD1999999-0201REMSYN070AAXX  12184 82678 32596 51404 10341 20159 39974 40130 85200 333 59020;EQDQ01  00002PRCP99
0208826780999992002071300004-06770-043020FM-12+013899999V0209999C000012200019N0002001N1+02731+01771101471ADDAA199000091GA1001+999999999GF100991001001999999001001KA1240M+03591MA1999999099891MD1999999-0101REMSYN082AAXX  13004 82678 32992 00000 10273 20177 39989 40147 333 10359 29050 55102 59010;EQDQ01  00002PRCP99
0180826780999992002071312004-06770-043020FM-12+013899999V0200901N003612200019N0040001N1+02901+01781101721ADDAA199000091GF101991999999999999999999KA1240N+01921MA1999999100141MD1999999-0121REMSYN070AAXX  13124 82678 32996 10907 10290 20178 30014 40172 333 20192 59012;EQDQ01  00002PRCP99
0167826780999992002071318004-06770-043020FM-12+013899999V0201801N002110075019N0040001N1+03571+01531101211ADDAA199000091GF105991051021008001001001MA1999999099661MD1999999-0081REMSYN070AAXX  13184 82678 32596 51804 10357 20153 39966 40121 85200 333 59008;EQDQ01  00002PRCP99
0208826780999992002071400004-06770-043020FM-12+013899999V0201401N001012200019N0002001N1+02811+01751101441ADDAA199000091GA1001+999999999GF100991001001999999001001KA1240M+03671MA1999999099871MD1999999-0021REMSYN082AAXX  14004 82678 32992 01402 10281 20175 39987 40144 333 10367 29047 55105 59002;EQDQ01  00002PRCP99
0202826780999992002071412004-06770-043020FM-12+013899999V0203601N001512200019N0040001N1+02861+01721101751ADDAA199000091GF103991999011008001001001KA1240N+02151MA1999999100181MD1999999+0041REMSYN076AAXX  14124 82678 32596 33603 10286 20172 30018 40175 82100 333 20215 58004;EQDQ01+000022SCOTLCQ02  00002PRCP99
0167826780999992002071418004-06770-043020FM-12+013899999V0203201N001510075019N0040001N1+03521+01791101251ADDAA199000091GF105991051021008001001001MA1999999099691MD1999999+0031REMSYN070AAXX  14184 82678 32596 53203 10352 20179 39969 40125 85200 333 58003;EQDQ01  00002PRCP99
0090826780999992002071500004-06770-043020FM-12+013899999V02099999999999999999N9999999N1+99999+99999999999REMSYN081AAXX  15004 82678 3295 02303 10290 20199 39991 40148 333 10362 29054 55103 58004;
0186826780999992002071512004-06770-043020FM-12+013899999V0203601N000510075019N0040001N1+02481+02231101921ADDAA199000091GF108991081051008001999999KA1240N+02201MA1999999100331MD1999999+0151REMSYN076AAXX  15124 82678 32596 83601 10248 20223 30033 40192 885// 333 20220 58015;EQDQ01  00002PRCP99
0167826780999992002071618004-06770-043020FM-12+013899999V0201401N001510075019N0040001N1+03461+01731101351ADDAA199000091GF105991051021008001001001MA1999999099791MD1999999-0081REMSYN070AAXX  16184 82678 32596 51403 10346 20173 39979 40135 85200 333 59008;EQDQ01  00002PRCP99
0198826780999992002071700004-06770-043020FM-12+013899999V0201801N001012200019N0020001N1+02961+01711101511ADDAA199000091GF103991031001017501031001KA1240M+03001MA1999999099951MD1999999+0071REMSYN088AAXX  17004 82678 32795 31802 10296 20171 39995 40151 83030 333 10300 29045 55099 58007;EQDQ01  00002PRCP99
0196826780999992002071712004-06770-043020FM-12+013899999V0200901N002612200019N0040001N1+02881+01671101861ADDAA199000091GA1001+999999999GF100991001001999999001001KA1240N+02371MA1999999100291MD1999999+0031REMSYN070AAXX  17124 82678 32996 00905 10288 20167 30029 40186 333 20237 58003;EQDQ01  00002PRCP99
0167826780999992002071718004-06770-043020FM-12+013899999V0200901N002112200019N0040001N1+03561+01641101341ADDAA199000091GF103991031021008001001001MA1999999099791MD1999999+0001REMSYN070AAXX  17184 82678 32596 30904 10356 20164 39979 40134 83200 333 58000;EQDQ01  00002PRCP99
0198826780999992002071800004-06770-043020FM-12+013899999V0201801N001010075019N0002001N1+02881+01731101491ADDAA199000091GF106991061021008001001001KA1240M+03651MA1999999099921MD1999999-0031REMSYN088AAXX  18004 82678 32592 61802 10288 20173 39992 40149 86200 333 10365 29045 55106 59003;EQDQ01  00002PRCP99
0186826780999992002071812004-06770-043020FM-12+013899999V0200901N001512200019N0040001N1+03001+01641101831ADDAA199000091GF103991021001017501031011KA1240N+02121MA1999999100261MD1999999-0031REMSYN076AAXX  18124 82678 32796 30903 10300 20164 30026 40183 82031 333 20212 59003;EQDQ01  00002PRCP99
0167826780999992002071818004-06770-043020FM-12+013899999V0201401N001512200019N0040001N1+03581+01501101331ADDAA199000091GF104991041021008001001001MA1999999099771MD1999999-0021REMSYN070AAXX  18184 82678 32596 41403 10358 20150 39977 40133 84200 333 59002;EQDQ01  00002PRCP99
0192826780999992002071900004-06770-043020FM-12+013899999V0209999C000012200019N0002001N1+02781+01701101471ADDAA199000091GF102991999999999999999999KA1240M+03681MA1999999099901MD1999999-0021REMSYN082AAXX  19004 82678 32992 20000 10278 20170 39990 40147 333 10368 29044 55100 59002;EQDQ01  00002PRCP99
0186826780999992002071912004-06770-043020FM-12+013899999V0200901N003112200019N0040001N1+02861+01651101821ADDAA199000091GF102991021001017501031001KA1240N+02321MA1999999100241MD1999999-0021REMSYN076AAXX  19124 82678 32796 20906 10286 20165 30024 40182 82030 333 20232 59002;EQDQ01  00002PRCP99
0167826780999992002071918004-06770-043020FM-12+013899999V0201401N001012200019N0040001N1+03441+01481101341ADDAA199000091GF104991021011008001031001MA1999999099791MD1999999+0021REMSYN070AAXX  19184 82678 32596 41402 10344 20148 39979 40134 82130 333 58002;EQDQ01  00002PRCP99
0208826780999992002072000004-06770-043020FM-12+013899999V0209999C000012200019N0002001N1+02681+01761101451ADDAA199000091GA1001+999999999GF100991001001999999001001KA1240M+03521MA1999999099871MD1999999-0031REMSYN082AAXX  20004 82678 32992 00000 10268 20176 39987 40145 333 10352 29048 55096 59003;EQDQ01  00002PRCP99
0196826780999992002072012004-06770-043020FM-12+013899999V0201401N004112200019N0040001N1+02701+01601101941ADDAA199000091GA1001+999999999GF100991001001999999001001KA1240N+02321MA1999999100351MD1999999+0111REMSYN070AAXX  20124 82678 32996 01408 10270 20160 30035 40194 333 20232 58011;EQDQ01  00002PRCP99
0183826780999992002072018004-06770-043020FM-12+013899999V0201401N003112200019N0040001N1+03441+01481101321ADDAA199000091GF102991999021008001001001MA1999999099751MD1999999-0041REMSYN070AAXX  20184 82678 32596 21406 10344 20148 39975 40132 83200 333 59004;EQDQ01+000032SCOTLCQ02  00002PRCP99
0208826780999992002072100004-06770-043020FM-12+013899999V0201801N001512200019N0002001N1+02841+01431101511ADDAA199000091GA1001+999999999GF100991001001999999001001KA1240M+03511MA1999999099931MD1999999+0061REMSYN082AAXX  21004 82678 32992 01803 10284 20143 39993 40151 333 10351 29042 55105 58006;EQDQ01  00002PRCP99
0186826780999992002072112004-06770-043020FM-12+013899999V0200901N003612200019N0040001N1+02681+01781101811ADDAA199000091GF103991021011008001001011KA1240N+02201MA1999999100231MD1999999-0121REMSYN076AAXX  21124 82678 32596 30907 10268 20178 30023 40181 82101 333 20220 59012;EQDQ01  00002PRCP99
0167826780999992002072118004-06770-043020FM-12+013899999V0201401N002112200019N0040001N1+03411+01541101241ADDAA199000091GF103991031011008001001001MA1999999099681MD1999999-0071REMSYN070AAXX  21184 82678 32596 31404 10341 20154 39968 40124 83100 333 59007;EQDQ01  00002PRCP99
0186826780999992002072312004-06770-043020FM-12+013899999V0200901N002112200019N0040001N1+02981+01661101791ADDAA199000091GF103991011011008001031001KA1240N+02281MA1999999100221MD1999999-0031REMSYN076AAXX  23124 82678 32596 30904 10298 20166 30022 40179 81130 333 20228 59003;EQDQ01  00002PRCP99
0167826780999992002072318004-06770-043020FM-12+013899999V0201401N001510075019N0040001N1+03501+01581101311ADDAA199000091GF106991061051008001001001MA1999999099751MD1999999+0061REMSYN070AAXX  23184 82678 32596 61403 10350 20158 39975 40131 86500 333 58006;EQDQ01  00002PRCP99
0208826780999992002072400004-06770-043020FM-12+013899999V0209999C000012200019N0002001N1+02801+01721101391ADDAA199000091GA1001+999999999GF100991001001999999001001KA1240M+03551MA1999999099831MD1999999-0081REMSYN082AAXX  24004 82678 32992 00000 10280 20172 39983 40139 333 10355 29045 55101 59008;EQDQ01  00002PRCP99
0186826780999992002072412004-06770-043020FM-12+013899999V0201401N001012200019N0040001N1+02881+01731101731ADDAA199000091GF101991011001017501031001KA1240N+02121MA1999999100161MD1999999-0061REMSYN076AAXX  24124 82678 32796 11402 10288 20173 30016 40173 81030 333 20212 59006;EQDQ01  00002PRCP99
0167826780999992002072418004-06770-043020FM-12+013899999V0201401N001510075019N0040001N1+03541+01521101281ADDAA199000091GF105991051021008001001001MA1999999099721MD1999999-0031REMSYN070AAXX  24184 82678 32596 51403 10354 20152 39972 40128 85200 333 59003;EQDQ01  00002PRCP99
0198826780999992002072500004-06770-043020FM-12+013899999V0201801N000510450019N0002001N1+02861+01781101481ADDAA199000091GF105991041051008001031001KA1240M+03671MA1999999099911MD1999999+0081REMSYN088AAXX  25004 82678 32592 51801 10286 20178 39991 40148 84530 333 10367 29046 55102 58008;EQDQ01  00002PRCP99
0186826780999992002072512004-06770-043020FM-12+013899999V0200901N003612200019N0040001N1+02971+01711101251ADDAA199000091GF104991021011008001031011KA1240N+02591MA1999999100281MD1999999-0121REMSYN076AAXX  25124 82678 32596 40907 10297 20171 30028 40125 82131 333 20259 59012;EQDQ01  00002PRCP99
0167826780999992002072518004-06770-043020FM-12+013899999V0201401N001510450019N0040001N1+03491+01611101401ADDAA199000091GF106991041021008001031011MA1999999099851MD1999999+0131REMSYN070AAXX  25184 82678 32596 61403 10349 20161 39985 40140 84231 333 58013;EQDQ01  00002PRCP99
0198826780999992002072600004-06770-043020FM-12+013899999V0201401N000510450019N0002001N1+02961+01871101591ADDAA199000091GF106991041021008001041001KA1240M+03611MA1999999100031MD1999999+0121REMSYN088AAXX  26004 82678 32592 61401 10296 20187 30003 40159 84240 333 10361 29046 55086 58012;EQDQ01  00002PRCP99
0202826780999992002072612004-06770-043020FM-12+013899999V0200901N005112200019N0040001N1+02871+01721101851ADDAA199000091GF104991999001017501031001KA1240N+02401MA1999999100281MD1999999+0001REMSYN076AAXX  26124 82678 32796 40910 10287 20172 30028 40185 82030 333 20240 58000;EQDQ01+000022SCOTLCQ02  00002PRCP99
0183826780999992002072618004-06770-043020FM-12+013899999V0201401N003119999999N0040001N1+03481+01541101381ADDAA199000091GF105991999021008001001001MA1999999099821MD1999999-0031REMSYN070AAXX  26184 82678 32596 51406 10348 20154 39982 40138 84200 333 59003;EQDQ01+000042SCOTLCQ02  00002PRCP99
0198826780999992002072700004-06770-043020FM-12+013899999V0209999C000012200019N0002001N1+02781+01731101561ADDAA199000091GF102991021011008001001001KA1240M+03561MA1999999099991MD1999999-0041REMSYN088AAXX  27004 82678 32592 20000 10278 20173 39999 40156 82100 333 10356 29047 55104 59004;EQDQ01  00002PRCP99
0186826780999992002072712004-06770-043020FM-12+013899999V0200901N002112200019N0040001N1+02941+01941101881ADDAA199000091GF103991031001017501031001KA1240N+02411MA1999999100301MD1999999+0021REMSYN076AAXX  27124 82678 32796 30904 10294 20194 30030 40188 83030 333 20241 58002;EQDQ01  00002PRCP99
0167826780999992002072718004-06770-043020FM-12+013899999V0201401N005110450019N0040001N1+03101+01971101601ADDAA199000091GF107991041051008001021001MA1999999100031MD1999999+0211REMSYN070AAXX  27184 82678 32596 71410 10310 20197 30003 40160 84520 333 58021;EQDQ01  00002PRCP99
0208826780999992002072800004-06770-043020FM-12+013899999V0201801N001512200019N0002001N1+02721+01931101751ADDAA199000091GA1001+999999999GF100991001001999999001001KA1240M+03411MA1999999100181MD1999999+0191REMSYN082AAXX  28004 82678 32992 01803 10272 20193 30018 40175 333 10341 29058 55086 58019;EQDQ01  00002PRCP99
0186826780999992002072812004-06770-043020FM-12+013899999V0201401N001512200019N0040001N1+02721+02041102031ADDAA199000091GF102991021011008001001001KA1240N+02201MA1999999100451MD1999999+0141REMSYN076AAXX  28124 82678 32596 21403 10272 20204 30045 40203 82100 333 20220 58014;EQDQ01  00002PRCP99
0167826780999992002072818004-06770-043020FM-12+013899999V0201401N000510075019N0040001N1+03461+01731101591ADDAA199000091GF105991051021008001001001MA1999999100021MD1999999-0011REMSYN070AAXX  28184 82678 32596 51401 10346 20173 30002 40159 85200 333 59001;EQDQ01  00002PRCP99
0208826780999992002072900004-06770-043020FM-12+013899999V0209999C000012200019N0002001N1+02821+01741101611ADDAA199000091GA1001+999999999GF100991001001999999001001KA1240M+03611MA1999999100031MD1999999-0151REMSYN082AAXX  29004 82678 32992 00000 10282 20174 30003 40161 333 10361 29051 55103 59015;EQDQ01  00002PRCP99
0196826780999992002072912004-06770-043020FM-12+013899999V0200901N001512200019N0002001N1+02961+01811101871ADDAA199000091GA1001+999999999GF100991001001999999001001KA1240N+02101MA1999999100301MD1999999-0151REMSYN070AAXX  29124 82678 32992 00903 10296 20181 30030 40187 333 20210 59015;EQDQ01  00002PRCP99
0167826780999992002072918004-06770-043020FM-12+013899999V0200901N003110075019N0040001N1+03701+01371101301ADDAA199000091GF105991051021008001001001MA1999999099751MD1999999-0271REMSYN070AAXX  29184 82678 32596 50906 10370 20137 39975 40130 85200 333 59027;EQDQ01  00002PRCP99
0208826780999992002073000004-06770-043020FM-12+013899999V0201401N003112200019N0002001N1+03191+01441101551ADDAA199000091GA1001+999999999GF100991001001999999001001KA1240M+03821MA1999999100001MD1999999-0031REMSYN082AAXX  30004 82678 32992 01406 10319 20144 30000 40155 333 10382 29036 55101 59003;EQDQ01  00002PRCP99
0186826780999992002073012004-06770-043020FM-12+013899999V0201401N004612200019N0040001N1+02831+01801101981ADDAA199000091GF106991021011008001001011KA1240N+02421MA1999999100411MD1999999+0111REMSYN076AAXX  30124 82678 32596 61409 10283 20180 30041 40198 82101 333 20242 58011;EQDQ01  00002PRCP99
0167826780999992002073018004-06770-043020FM-12+013899999V0200901N003610450019N0040001N1+03551+01351101451ADDAA199000091GF106991021021008001011011MA1999999099891MD1999999+0141REMSYN070AAXX  30184 82678 32596 60907 10355 20135 39989 40145 82211 333 58014;EQDQ01  00002PRCP99
0208826780999992002073100004-06770-043020FM-12+013899999V0201401N001512200019N0002001N1+02981+01311101591ADDAA199000091GA1001+999999999GF100991001001999999001001KA1240M+03601MA1999999100021MD1999999+0021REMSYN082AAXX  31004 82678 32992 01403 10298 20131 30002 40159 333 10360 29038 55104 58002;EQDQ01  00002PRCP99
0186826780999992002073112004-06770-043020FM-12+013899999V0201401N003112200019N0040001N1+02841+01791101851ADDAA199000091GF103991011011008001001021KA1240N+02341MA1999999100281MD1999999-0131REMSYN076AAXX  31124 82678 32596 31406 10284 20179 30028 40185 81102 333 20234 59013;EQDQ01  00002PRCP99
0167826780999992002073118004-06770-043020FM-12+013899999V0201401N001510075019N0040001N1+03521+01281101321ADDAA199000091GF105991051011008001001001MA1999999099761MD1999999-0131REMSYN070AAXX  31184 82678 32596 51403 10352 20128 39976 40132 85100 333 59013;EQDQ01  00002PRCP99
0208826780999992002080100004-06770-043020FM-12+013899999V0201801N002612200019N0002001N1+02921+01301101401ADDAA199000091GA1001+999999999GF100991001001999999001001KA1240M+03591MA1999999099841MD1999999-0181REMSYN082AAXX  01004 82678 32992 01805 10292 20130 39984 40140 333 10359 29038 55106 59018;EQDQ01  00002PRCP99
0196826780999992002080112004-06770-043020FM-12+013899999V0200901N003112200019N0040001N1+02801+01461101711ADDAA199000091GA1001+999999999GF100991001001999999001001KA1240N+01941MA1999999100141MD1999999-0141REMSYN070AAXX  01124 82678 32996 00906 10280 20146 30014 40171 333 20194 59014;EQDQ01  00002PRCP99
0167826780999992002080118004-06770-043020FM-12+013899999V0201401N001010075019N0040001N1+03461+01601101281ADDAA199000091GF106991061021008001001001MA1999999099711MD1999999-0051REMSYN070AAXX  01184 82678 32596 61402 10346 20160 39971 40128 86200 333 59005;EQDQ01  00002PRCP99
0214826780999992002080200004-06770-043020FM-12+013899999V0209999C000019999999N0002001N1+02881+01701101461ADDAA199000091GF107991999021008001001001KA1240M+03541MA1999999099891MD1999999+0051REMSYN088AAXX  02004 82678 32592 70000 10288 20170 39989 40146 84200 333 10354 29044 55092 58005;EQDQ01+000042SCOTLCQ02  00002PRCP99
0186826780999992002080212004-06770-043020FM-12+013899999V0200901N004612200019N0040001N1+03011+01531101891ADDAA199000091GF101991011001017501031001KA1240N+02161MA1999999100321MD1999999+0181REMSYN076AAXX  02124 82678 32796 10909 10301 20153 30032 40189 81030 333 20216 58018;EQDQ01  00002PRCP99
0167826780999992002080218004-06770-043020FM-12+013899999V0201401N004610450019N0040001N1+03621+01361101421ADDAA199000091GF106991041021008001031001MA1999999099861MD1999999+0151REMSYN070AAXX  02184 82678 32596 61409 10362 20136 39986 40142 84230 333 58015;EQDQ01  00002PRCP99
0198826780999992002080300004-06770-043020FM-12+013899999V0200901N001512200019N0002001N1+03071+01621101631ADDAA199000091GF104991041041008001001001KA1240M+03741MA1999999100071MD1999999+0181REMSYN088AAXX  03004 82678 32592 40903 10307 20162 30007 40163 84400 333 10374 29038 55092 58018;EQDQ01  00002PRCP99
0186826780999992002080312004-06770-043020FM-12+013899999V0200901N003110075019N0040001N1+02971+01811101981ADDAA199000091GF106991061021008001001001KA1240N+02201MA1999999100321MD1999999+0001REMSYN076AAXX  03124 82678 32596 60906 10297 20181 30032 40198 86200 333 20220 58000;EQDQ01  00002PRCP99
0167826780999992002080318004-06770-043020FM-12+013899999V0200901N001010075019N0040001N1+03621+01591101311ADDAA199000091GF106991061021008001001001MA1999999099761MD1999999-0101REMSYN070AAXX  03184 82678 32596 60902 10362 20159 39976 40131 86200 333 59010;EQDQ01  00002PRCP99
0186826780999992002080412004-06770-043020FM-12+013899999V0201401N000512200019N0040001N1+02861+01751101811ADDAA199000091GF102991021011008001001001KA1240N+02201MA1999999100251MD1999999-0071REMSYN076AAXX  04124 82678 32596 21401 10286 20175 30025 40181 82100 333 20220 59007;EQDQ01  00002PRCP99
0167826780999992002080418004-06770-043020FM-12+013899999V0201801N000512200019N0040001N1+03581+01391101281ADDAA199000091GF103991031011008001001001MA1999999099731MD1999999-0031REMSYN070AAXX  04184 82678 32596 31801 10358 20139 39973 40128 83100 333 59003;EQDQ01  00002PRCP99
0208826780999992002080500004-06770-043020FM-12+013899999V0209999C000012200019N0002001N1+02801+01531101421ADDAA199000091GA1001+999999999GF100991001001999999001001KA1240M+03621MA1999999099851MD1999999-0081REMSYN082AAXX  05004 82678 32992 00000 10280 20153 39985 40142 333 10362 29042 55102 59008;EQDQ01  00002PRCP99
0186826780999992002080512004-06770-043020FM-12+013899999V0203201N001512200019N0040001N1+02761+01201101811ADDAA199000091GF101991011021008001001001KA1240N+01811MA1999999100231MD1999999-0021REMSYN076AAXX  05124 82678 32596 13203 10276 20120 30023 40181 81200 333 20181 59002;EQDQ01  00002PRCP99
0177826780999992002080518004-06770-043020FM-12+013899999V0202701N001512200019N0040001N1+03651+00831101231ADDAA199000091GA1001+999999999GF100991001001999999001001MA1999999099671MD1999999-0061REMSYN064AAXX  05184 82678 32996 02703 10365 20083 39967 40123 333 59006;EQDQ01  00002PRCP99
0208826780999992002080600004-06770-043020FM-12+013899999V0200901N001012200019N0002001N1+02641+00971101441ADDAA199000091GA1001+999999999GF100991001001999999001001KA1240M+03711MA1999999099861MD1999999+0011REMSYN082AAXX  06004 82678 32992 00902 10264 20097 39986 40144 333 10371 29032 55108 58001;EQDQ01  00002PRCP99
0196826780999992002080612004-06770-043020FM-12+013899999V0200901N001512200019N0040001N1+02881+01051101781ADDAA199000091GA1001+999999999GF100991001001999999001001KA1240N+01761MA1999999100201MD1999999-0031REMSYN070AAXX  06124 82678 32796 00903 10288 20105 30020 40178 333 20176 59003;EQDQ01  00002PRCP99
0177826780999992002080618004-06770-043020FM-12+013899999V0200901N001512200019N0040001N1+03601+00871101211ADDAA199000091GA1001+999999999GF100991001001999999001001MA1999999099651MD1999999-0021REMSYN064AAXX  06184 82678 32996 00903 10360 20087 39965 40121 333 59002;EQDQ01  00002PRCP99
0208826780999992002080700004-06770-043020FM-12+013899999V0201801N001012200019N0002001N1+02621+01081101471ADDAA199000091GA1001+999999999GF100991001001999999001001KA1240M+03741MA1999999099891MD1999999+0031REMSYN082AAXX  07004 82678 32992 01802 10262 20108 39989 40147 333 10374 29032 55107 58003;EQDQ01  00002PRCP99
0196826780999992002080712004-06770-043020FM-12+013899999V0200901N002612200019N0040001N1+02841+01311101901ADDAA199000091GA1001+999999999GF100991001001999999001001KA1240N+01821MA1999999100321MD1999999+0121REMSYN070AAXX  07124 82678 32996 00905 10284 20131 30032 40190 333 20182 58012;EQDQ01  00002PRCP99
0161826780999992002080718004-06770-043020FM-12+013899999V0201401N002612200019N0040001N1+03561+01131101321ADDAA199000091GF102991999999999999999999MA1999999099751MD1999999+0101REMSYN064AAXX  07184 82678 32996 21405 10356 20113 39975 40132 333 58010;EQDQ01  00002PRCP99
0208826780999992002080800004-06770-043020FM-12+013899999V0209999C000012200019N0002001N1+02761+01321101541ADDAA199000091GA1001+999999999GF100991001001999999001001KA1240M+03621MA1999999099971MD1999999+0081REMSYN082AAXX  08004 82678 32992 00000 10276 20132 39997 40154 333 10362 29036 55107 58008;EQDQ01  00002PRCP99
0186826780999992002080812004-06770-043020FM-12+013899999V0201401N003612200019N0040001N1+02781+01611101891ADDAA199000091GF103991021011008001001011KA1240N+02261MA1999999100311MD1999999-0011REMSYN076AAXX  08124 82678 32596 31407 10278 20161 30031 40189 82101 333 20226 59001;EQDQ01  00002PRCP99
0167826780999992002080818004-06770-043020FM-12+013899999V0201801N001512200019N0040001N1+03401+01351101311ADDAA199000091GF104991021011008001001011MA1999999099751MD1999999+0001REMSYN070AAXX  08184 82678 32596 41803 10340 20135 39975 40131 82101 333 58000;EQDQ01  00002PRCP99
0208826780999992002080900004-06770-043020FM-12+013899999V0209999C000012200019N0002001N1+02881+01221101581ADDAA199000091GA1001+999999999GF100991001001999999001001KA1240M+03531MA1999999100011MD1999999+0041REMSYN082AAXX  09004 82678 32992 00000 10288 20122 30001 40158 333 10353 29038 55107 58004;EQDQ01  00002PRCP99
0180826780999992002080912004-06770-043020FM-12+013899999V0201401N004112200019N0040001N1+02741+01301101911ADDAA199000091GF101991999999999999999999KA1240N+02201MA1999999100331MD1999999+0021REMSYN070AAXX  09124 82678 32996 11408 10274 20130 30033 40191 333 20220 58002;EQDQ01  00002PRCP99
0177826780999992002080918004-06770-043020FM-12+013899999V0200901N003112200019N0040001N1+03451+01211101381ADDAA199000091GA1001+999999999GF100991001001999999001001MA1999999099821MD1999999+0071REMSYN064AAXX  09184 82678 32996 00906 10345 20121 39982 40138 333 58007;EQDQ01  00002PRCP99
0208826780999992002081000004-06770-043020FM-12+013899999V0201401N002612200019N0002001N1+02921+02171101561ADDAA199000091GA1001+999999999GF100991001001999999001001KA1240M+03561MA1999999099991MD1999999-0021REMSYN082AAXX  10004 82678 32992 01405 10292 20217 39999 40156 333 10356 29034 55107 59002;EQDQ01  00002PRCP99
0196826780999992002081012004-06770-043020FM-12+013899999V0201401N004112200019N0040001N1+02821+01371101821ADDAA199000091GA1001+999999999GF100991001001999999001001KA1240N+02401MA1999999100251MD1999999-0081REMSYN070AAXX  10124 82678 32996 01408 10282 20137 30025 40182 333 20240 59008;EQDQ01  00002PRCP99
0177826780999992002081018004-06770-043020FM-12+013899999V0201401N001512200019N0040001N1+03581+01391101271ADDAA199000091GA1001+999999999GF100991001001999999001001MA1999999099721MD1999999-0101REMSYN064AAXX  10184 82678 32996 01403 10358 20139 39972 40127 333 59010;EQDQ01  00002PRCP99
0208826780999992002081100004-06770-043020FM-12+013899999V0209999C000012200019N0002001N1+02961+01251101461ADDAA199000091GA1001+999999999GF100991001001999999001001KA1240M+03611MA1999999099891MD1999999-0101REMSYN082AAXX  11004 82678 32992 00000 10296 20125 39989 40146 333 10361 29034 55107 59010;EQDQ01  00002PRCP99
0196826780999992002081112004-06770-043020FM-12+013899999V0201401N003612200019N0040001N1+02721+01611101931ADDAA199000091GA1001+999999999GF100991001001999999001001KA1240N+02241MA1999999100351MD1999999+0101REMSYN070AAXX  11124 82678 32996 01407 10272 20161 30035 40193 333 20224 58010;EQDQ01  00002PRCP99
0177826780999992002081118004-06770-043020FM-12+013899999V0201401N002612200019N0040001N1+03521+01341101401ADDAA199000091GA1001+999999999GF100991001001999999001001MA1999999099841MD1999999+0121REMSYN064AAXX  11184 82678 32596 01405 10352 20134 39984 40140 333 58012;EQDQ01  00002PRCP99
0208826780999992002081200004-06770-043020FM-12+013899999V0209999C000012200019N0040001N1+02821+01481101621ADDAA199000091GA1001+999999999GF100991001001999999001001KA1240M+03541MA1999999100051MD1999999+0161REMSYN082AAXX  12004 82678 32996 00000 10282 20148 30005 40162 333 10354 29041 55108 58016;EQDQ01  00002PRCP99
0196826780999992002081212004-06770-043020FM-12+013899999V0201401N003612200019N0040001N1+02791+01611101951ADDAA199000091GA1001+999999999GF100991001001999999001001KA1240N+02201MA1999999100371MD1999999+0021REMSYN070AAXX  12124 82678 32996 01407 10279 20161 30037 40195 333 20220 58002;EQDQ01  00002PRCP99
0167826780999992002081218004-06770-043020FM-12+013899999V0201401N001510075019N0040001N1+03541+01411101441ADDAA199000091GF105991051011008001001001MA1999999099871MD1999999+0031REMSYN070AAXX  12184 82678 32596 51403 10354 20141 39987 40144 85100 333 58003;EQDQ01  00002PRCP99
0192826780999992002081300004-06770-043020FM-12+013899999V0209999C000012200019N0002001N1+02891+01531101601ADDAA199000091GF101991999999999999999999KA1240M+03631MA1999999100031MD1999999-0021REMSYN082AAXX  13004 82678 32992 10000 10289 20153 30003 40160 333 10363 29041 55108 59002;EQDQ01  00002PRCP99
0180826780999992002081312004-06770-043020FM-12+013899999V0201401N003112200019N0040001N1+02901+01721101861ADDAA199000091GF101991999999999999999999KA1240N+02141MA1999999100291MD1999999-0011REMSYN070AAXX  13124 82678 32996 11406 10290 20172 30029 40186 333 20214 59001;EQDQ01  00002PRCP99
0167826780999992002081318004-06770-043020FM-12+013899999V0201401N003110075019N0040001N1+03531+01451101351ADDAA199000091GF106991051011008001001011MA1999999099791MD1999999-0081REMSYN070AAXX  13184 82678 32596 61406 10353 20145 39979 40135 85101 333 59008;EQDQ01  00002PRCP99
0208826780999992002081400004-06770-043020FM-12+013899999V0201801N001512200019N0002001N1+03021+01551101561ADDAA199000091GA1001+999999999GF100991001001999999001001KA1240M+03601MA1999999100001MD1999999-0031REMSYN082AAXX  14004 82678 32992 01803 10302 20155 30000 40156 333 10360 29040 55104 59003;EQDQ01  00002PRCP99
0167826780999992002081418004-06770-043020FM-12+013899999V0200901N002111050019N0040001N1+03641+01381101361ADDAA199000091GF105991031021008001001021MA1999999099811MD1999999+0021REMSYN070AAXX  14184 82678 32596 50904 10364 20138 39981 40136 83202 333 58002;EQDQ01  00002PRCP99
0198826780999992002081500004-06770-043020FM-12+013899999V0201401N001512200019N0002001N1+03181+01351101571ADDAA199000091GF104991021011008001001021KA1240M+03751MA1999999100011MD1999999+0011REMSYN088AAXX  15004 82678 32592 41403 10318 20135 30001 40157 82102 333 10375 29034 55108 58001;EQDQ01  00002PRCP99
0186826780999992002081512004-06770-043020FM-12+013899999V0200901N004110075019N0040001N1+02981+01831101921ADDAA199000091GF105991051021008001001001KA1240N+02541MA1999999100361MD1999999+0001REMSYN076AAXX  15124 82678 32596 50908 10298 20183 30036 40192 85200 333 20254 58000;EQDQ01  00002PRCP99
0167826780999992002081518004-06770-043020FM-12+013899999V0200901N004610075019N0040001N1+03641+01321101431ADDAA199000091GF105991051021008001001001MA1999999099871MD1999999+0061REMSYN070AAXX  15184 82678 32596 50909 10364 20132 39987 40143 85200 333 58006;EQDQ01  00002PRCP99
0208826780999992002081600004-06770-043020FM-12+013899999V0201401N001012200019N0002001N1+03081+01481101571ADDAA199000091GA1001+999999999GF100991001001999999001001KA1240M+03721MA1999999100011MD1999999+0001REMSYN082AAXX  16004 82678 32992 01402 10308 20148 30001 40157 333 10372 29038 55108 58000;EQDQ01  00002PRCP99
0186826780999992002081612004-06770-043020FM-12+013899999V0201401N002610075019N0040001N1+02961+01811101901ADDAA199000091GF105991051011008001001001KA1240N+02501MA1999999100331MD1999999-0031REMSYN076AAXX  16124 82678 32596 51405 10296 20181 30033 40190 85100 333 20250 59003;EQDQ01  00002PRCP99
0167826780999992002081618004-06770-043020FM-12+013899999V0201401N001510075019N0040001N1+03561+01731101371ADDAA199000091GF106991051051008001031001MA1999999099821MD1999999-0051REMSYN070AAXX  16184 82678 32596 61403 10356 20173 39982 40137 85530 333 59005;EQDQ01  00002PRCP99
0208826780999992002081700004-06770-043020FM-12+013899999V0201401N001512200019N0002001N1+03061+01551101571ADDAA199000091GA1001+999999999GF100991001001999999001001KA1240M+03591MA1999999100011MD1999999+0001REMSYN082AAXX  17004 82678 32992 01403 10306 20155 30001 40157 333 10359 29041 55098 58000;EQDQ01  00002PRCP99
0196826780999992002081712004-06770-043020FM-12+013899999V0201401N001512200019N0020001N1+02941+01441101941ADDAA199000091GA1001+999999999GF100991001001999999001001KA1240N+02461MA1999999100401MD1999999+0071REMSYN070AAXX  17124 82678 32995 01403 10294 20144 30040 40194 333 20246 58007;EQDQ01  00002PRCP99
0177826780999992002081718004-06770-043020FM-12+013899999V0201401N003612200019N0040001N1+03541+01411101331ADDAA199000091GA1001+999999999GF100991001001999999001001MA1999999099781MD1999999-0041REMSYN064AAXX  17184 82678 32796 01407 10354 20141 39978 40133 333 59004;EQDQ01  00002PRCP99
0208826780999992002081800004-06770-043020FM-12+013899999V0201401N001512200019N0002001N1+02961+01291101541ADDAA199000091GA1001+999999999GF100991001001999999001001KA1240M+03581MA1999999099981MD1999999-0031REMSYN082AAXX  18004 82678 32992 01403 10296 20129 39998 40154 333 10358 29035 55106 59003;EQDQ01  00002PRCP99
0196826780999992002081812004-06770-043020FM-12+013899999V0201401N004112200019N0040001N1+02741+01571101921ADDAA199000091GA1001+999999999GF100991001001999999001001KA1240N+02341MA1999999100341MD1999999-0061REMSYN070AAXX  18124 82678 32996 01408 10274 20157 30034 40192 333 20234 59006;EQDQ01  00002PRCP99
0167826780999992002081818004-06770-043020FM-12+013899999V0201401N003110075019N0040001N1+03501+01581101351ADDAA199000091GF105991051011008001001001MA1999999099791MD1999999+0011REMSYN070AAXX  18184 82678 32596 51406 10350 20158 39979 40135 85100 333 58001;EQDQ01  00002PRCP99
0208826780999992002081900004-06770-043020FM-12+013899999V0201401N001012200019N0002001N1+02941+01281101451ADDAA199000091GA1001+999999999GF100991001001999999001001KA1240M+03571MA1999999099881MD1999999-0101REMSYN082AAXX  19004 82678 32992 01402 10294 20128 39988 40145 333 10357 29038 55107 59010;EQDQ01  00002PRCP99
0186826780999992002081912004-06770-043020FM-12+013899999V0201401N004112200019N0040001N1+02781+01581101881ADDAA199000091GF101991011001017501031001KA1240N+02321MA1999999100301MD1999999-0041REMSYN076AAXX  19124 82678 32796 11408 10278 20158 30030 40188 81030 333 20232 59004;EQDQ01  00002PRCP99
0167826780999992002081918004-06770-043020FM-12+013899999V0201401N003112200019N0040001N1+03521+01281101321ADDAA199000091GF102991021011008001001001MA1999999099761MD1999999-0031REMSYN070AAXX  19184 82678 32596 21406 10352 20128 39976 40132 82100 333 59003;EQDQ01  00002PRCP99
0208826780999992002082000004-06770-043020FM-12+013899999V0201401N000512200019N0002001N1+03001+01491101511ADDAA199000091GA1001+999999999GF100991001001999999001001KA1240M+03571MA1999999099941MD1999999+0061REMSYN082AAXX  20004 82678 32992 01401 10300 20149 39994 40151 333 10357 29038 55102 58006;EQDQ01  00002PRCP99
0196826780999992002082012004-06770-043020FM-12+013899999V0201401N002612200019N0040001N1+02801+01531101841ADDAA199000091GA1001+999999999GF100991001001999999001001KA1240N+02401MA1999999100271MD1999999-0031REMSYN070AAXX  20124 82678 32796 01405 10280 20153 30027 40184 333 20240 59003;EQDQ01  00002PRCP99
0167826780999992002082018004-06770-043020FM-12+013899999V0201401N001512200019N0040001N1+03541+01241101281ADDAA199000091GF103991021011008001001011MA1999999099731MD1999999-0031REMSYN070AAXX  20184 82678 32596 31403 10354 20124 39973 40128 82101 333 59003;EQDQ01  00002PRCP99
0208826780999992002082100004-06770-043020FM-12+013899999V0201401N001512200019N0002001N1+02981+01231101511ADDAA199000091GA1001+999999999GF100991001001999999001001KA1240M+03561MA1999999099441MD1999999+0001REMSYN082AAXX  21004 82678 32992 01403 10298 20123 39944 40151 333 10356 29035 55108 58000;EQDQ01  00002PRCP99
0167826780999992002082118004-06770-043020FM-12+013899999V0200501N002610075019N0040001N1+03391+01431101431ADDAA199000091GF105991051021008001001001MA1999999099871MD1999999+0141REMSYN070AAXX  21184 82678 32596 50505 10339 20143 39987 40143 85200 333 58014;EQDQ01  00002PRCP99
0214826780999992002082200004-06770-043020FM-12+013899999V0201401N002112200019N0002001N1+02961+01291101661ADDAA199000091GF101991999011017501001001KA1240M+03571MA1999999100091MD1999999+0151REMSYN088AAXX  22004 82678 32792 11404 10296 20129 30009 40166 82100 333 10357 29038 55101 58015;EQDQ01+000022SCOTLCQ02  00002PRCP99
0196826780999992002082212004-06770-043020FM-12+013899999V0201401N001012200019N0040001N1+02741+01481101921ADDAA199000091GA1001+999999999GF100991001001999999001001KA1240N+02321MA1999999100341MD1999999-0111REMSYN070AAXX  22124 82678 32996 01402 10274 20148 30034 40192 333 20232 59011;EQDQ01  00002PRCP99
0167826780999992002082218004-06770-043020FM-12+013899999V0201401N001512200019N0040001N1+03561+01191101291ADDAA199000091GF102991021011008001001001MA1999999099741MD1999999-0131REMSYN070AAXX  22184 82678 32596 21403 10356 20119 39974 40129 82100 333 59013;EQDQ01  00002PRCP99
0208826780999992002082300004-06770-043020FM-12+013899999V0201401N002612200019N0002001N1+03081+01171101471ADDAA199000091GA1001+999999999GF100991001001999999001001KA1240M+03661MA1999999099901MD1999999-0191REMSYN082AAXX  23004 82678 32992 01405 10308 20117 39990 40147 333 10366 29033 55107 59019;EQDQ01  00002PRCP99
0202826780999992002082312004-06770-043020FM-12+013899999V0201401N005112200019N0040001N1+02761+01751101821ADDAA199000091GF103991999011008001001001KA1240N+02061MA1999999100251MD1999999-0091REMSYN076AAXX  23124 82678 32596 31410 10276 20175 30025 40182 82100 333 20206 59009;EQDQ01+000022SCOTLCQ02  00002PRCP99
0167826780999992002082318004-06770-043020FM-12+013899999V0201401N001511050019N0040001N1+03481+01571101281ADDAA199000091GF105991031021008001001021MA1999999099721MD1999999-0021REMSYN070AAXX  23184 82678 32596 51403 10348 20157 39972 40128 83202 333 59002;EQDQ01  00002PRCP99
0208826780999992002082400004-06770-043020FM-12+013899999V0201401N001512200019N0002001N1+02961+01461101541ADDAA199000091GA1001+999999999GF100991001001999999001001KA1240M+03551MA1999999099971MD1999999+0071REMSYN082AAXX  24004 82678 32992 01403 10296 20146 39997 40154 333 10355 29042 55109 58007;EQDQ01  00002PRCP99
0196826780999992002082412004-06770-043020FM-12+013899999V0201401N005112200019N0040001N1+02801+01431101821ADDAA199000091GA1001+999999999GF100991001001999999001001KA1240N+02341MA1999999100251MD1999999+0001REMSYN070AAXX  24124 82678 32996 01410 10280 20143 30025 40182 333 20234 58000;EQDQ01  00002PRCP99
0167826780999992002082418004-06770-043020FM-12+013899999V0201401N003112200019N0040001N1+02801+01041101221ADDAA199000091GF102991011011008001001011MA1999999099671MD1999999-0051REMSYN070AAXX  24184 82678 32596 21406 10280 20104 39967 40122 81101 333 59005;EQDQ01  00002PRCP99
0208826780999992002082500004-06770-043020FM-12+013899999V0201401N002112200019N0002001N1+02921+00831101471ADDAA199000091GA1001+999999999GF100991001001999999001001KA1240M+03601MA1999999099901MD1999999-0071REMSYN082AAXX  25004 82678 32992 01404 10292 20083 39990 40147 333 10360 29030 55109 59007;EQDQ01  00002PRCP99
0202826780999992002082512004-06770-043020FM-12+013899999V0200901N004112200019N0040001N1+02841+01571101811ADDAA199000091GF101991999011008001001001KA1240N+02341MA1999999100241MD1999999-0011REMSYN076AAXX  25124 82678 32596 10908 10284 20157 30024 40181 82100 333 20234 59001;EQDQ01+000022SCOTLCQ02  00002PRCP99
0183826780999992002082518004-06770-043020FM-12+013899999V0201401N003112200019N0040001N1+03521+02221101261ADDAA199000091GF102991999021008001001001MA1999999099701MD1999999+0031REMSYN070AAXX  25184 82678 32596 21406 10352 20222 39970 40126 83200 333 58003;EQDQ01+000032SCOTLCQ02  00002PRCP99
0208826780999992002082600004-06770-043020FM-12+013899999V0201401N002112200019N0002001N1+02991+01091101471ADDAA199000091GA1001+999999999GF100991001001999999001001KA1240M+03581MA1999999099901MD1999999+0001REMSYN082AAXX  26004 82678 32992 01404 10299 20109 39990 40147 333 10358 29033 55109 58000;EQDQ01  00002PRCP99
0202826780999992002082612004-06770-043020FM-12+013899999V0201401N003112200019N0040001N1+02841+01571101851ADDAA199000091GF102991999011008001001001KA1240N+02341MA1999999100281MD1999999+0041REMSYN076AAXX  26124 82678 32596 21406 10284 20157 30028 40185 81100 333 20234 58004;EQDQ01+000012SCOTLCQ02  00002PRCP99
0167826780999992002082618004-06770-043020FM-12+013899999V0200901N001012200019N0040001N1+03521+01451101301ADDAA199000091GF103991021021008001001011MA1999999099741MD1999999+0041REMSYN070AAXX  26184 82678 32596 30902 10352 20145 39974 40130 82201 333 58004;EQDQ01  00002PRCP99
0208826780999992002082700004-06770-043020FM-12+013899999V0209999C000012200019N0002001N1+02801+01531101381ADDAA199000091GA1001+999999999GF100991001001999999001001KA1240M+03571MA1999999099811MD1999999-0091REMSYN082AAXX  27004 82678 32992 00000 10280 20153 39981 40138 333 10357 29042 55094 59009;EQDQ01  00002PRCP99
0186826780999992002082712004-06770-043020FM-12+013899999V0200901N003610450019N0040001N1+02861+01581101801ADDAA199000091GF106991041041008001031021KA1240N+02511MA1999999100231MD1999999-0051REMSYN076AAXX  27124 82678 32596 60907 10286 20158 30023 40180 84432 333 20251 59005;EQDQ01  00002PRCP99
0167826780999992002082718004-06770-043020FM-12+013899999V0201401N003112200019N0040001N1+03601+01221101261ADDAA199000091GF105991041021008001001011MA1999999099711MD1999999-0031REMSYN070AAXX  27184 82678 32596 51406 10360 20122 39971 40126 84201 333 59003;EQDQ01  00002PRCP99
0208826780999992002082800004-06770-043020FM-12+013899999V0209999C000012200019N0002001N1+02841+01431101391ADDAA199000091GA1001+999999999GF100991001001999999001001KA1240M+03661MA1999999099821MD1999999+0011REMSYN082AAXX  28004 82678 32992 00000 10284 20143 39982 40139 333 10366 29038 55094 58001;EQDQ01  00002PRCP99
0186826780999992002082812004-06770-043020FM-12+013899999V0201401N004112200019N0040001N1+02921+01741101601ADDAA199000091GF101991011001017501031001KA1240N+02341MA1999999100031MD1999999-0201REMSYN076AAXX  28124 82678 32796 11408 10292 20174 30003 40160 81030 333 20234 59020;EQDQ01  00002PRCP99
0177826780999992002082818004-06770-043020FM-12+013899999V0201801N003112200019N0040001N1+03661+01341101041ADDAA199000091GA1001+999999999GF100991001001999999001001MA1999999099501MD1999999-0211REMSYN064AAXX  28184 82678 32996 01806 10366 20134 39950 40104 333 59021;EQDQ01  00002PRCP99
0208826780999992002082900004-06770-043020FM-12+013899999V0209999C000012200019N0002001N1+02841+01431101391ADDAA199000091GA1001+999999999GF100991001001999999001001KA1240M+03661MA1999999099821MD1999999+0011REMSYN082AAXX  29004 82678 32992 00000 10284 20143 39982 40139 333 10366 29038 55094 58001;EQDQ01  00002PRCP99
0180826780999992002082912004-06770-043020FM-12+013899999V0200901N004112200019N0040001N1+02901+01551101471ADDAA199000091GF102991999999999999999999KA1240N+02491MA1999999099901MD1999999-0131REMSYN070AAXX  29124 82678 32996 20908 10290 20155 39990 40147 333 20249 59013;EQDQ01  00002PRCP99
0161826780999992002082918004-06770-043020FM-12+013899999V0201401N003612200019N0040001N1+03621+01241100931ADDAA106000091GF103991999999999999999999MA1999999099381MD1999999-0121REMSYN064AAXX  29184 82678 32996 31407 10362 20124 39938 40093 333 59012;EQDQ01  00002PRCP06
0208826780999992002083000004-06770-043020FM-12+013899999V0201401N001012200019N0040001N1+03041+01141101211ADDAA106000091GA1001+999999999GF100991001001999999001001KA1240M+03751MA1999999099651MD1999999+0051REMSYN082AAXX  30004 82678 32996 01402 10304 20114 39965 40121 333 10375 29032 55109 58005;EQDQ01  00002PRCP06
0180826780999992002083012004-06770-043020FM-12+013899999V0201401N003612200019N0040001N1+02941+01721101581ADDAA106000091GF102991999999999999999999KA1240N+02441MA1999999100021MD1999999+0121REMSYN070AAXX  30124 82678 32996 21407 10294 20172 30002 40158 333 20244 58012;EQDQ01  00002PRCP06
0167826780999992002083018004-06770-043020FM-12+013899999V0201401N001512200019N0040001N1+03641+01381100941ADDAA106000091GF103991021011008001001011MA1999999099401MD1999999+0021REMSYN070AAXX  30184 82678 32596 31403 10364 20138 39940 40094 82101 333 58002;EQDQ01  00002PRCP06
0180826780999992002083112004-06770-043020FM-12+013899999V0200901N001519999999N0040001N1+02961+01641101591ADDAA106000091GF106991999999999999999999KA1240N+02281MA1999999100031MD1999999+0011REMSYN070AAXX  31124 82678 32996 60903 10296 20164 30003 40159 333 20228 58001;EQDQ01  00002PRCP06
0183826780999992002083118004-06770-043020FM-12+013899999V0201401N001519999999N0040001N1+03721+01451101031ADDAA106000091GF105991999011008001001001MA1999999099491MD1999999+0091REMSYN070AAXX  31184 82678 32596 51403 10372 20145 39949 40103 82100 333 58009;EQDQ01+000022SCOTLCQ02  00002PRCP06
0196826780999992002090112004-06770-043020FM-12+013899999V0203601N000512200019N0040001N1+02981+01731101511ADDAA106000091GA1001+999999999GF100991001001999999001001KA1240N+02101MA1999999099951MD1999999-0081REMSYN070AAXX  01124 82678 32996 03601 10298 20173 39995 40151 333 20210 59008;EQDQ01  00002PRCP06
0177826780999992002090118004-06770-043020FM-12+013899999V0202701N001512200019N0002001N1+03841+01221100841ADDAA106000091GA1001+999999999GF100991001001999999001001MA1999999099301MD1999999-0191REMSYN064AAXX  01184 82678 32992 02703 10384 20122 39930 40084 333 59019;EQDQ01  00002PRCP06
0208826780999992002090200004-06770-043020FM-12+013899999V0209999C000012200019N0002001N1+02961+01341101111ADDAA106000091GA1001+999999999GF100991001001999999001001KA1240M+03921MA1999999099551MD1999999-0081REMSYN082AAXX  02004 82678 32992 00000 10296 20134 39955 40111 333 10392 29037 55100 59008;EQDQ01  00002PRCP06
0186826780999992002090212004-06770-043020FM-12+013899999V0203201N002610075019N0040001N1+02681+02161101671ADDAA106000091GF108991081051008001999999KA1240N+02371MA1999999100091MD1999999+0141REMSYN076AAXX  02124 82678 32596 83205 10268 20216 30009 40167 885// 333 20237 58014;EQDQ01  00002PRCP06
0167826780999992002090218004-06770-043020FM-12+013899999V0203601N001512200019N0040001N1+03621+01831100951ADDAA106000091GF104991041021008001001001MA1999999099401MD1999999+0101REMSYN070AAXX  02184 82678 32596 43603 10362 20183 39940 40095 84200 333 58010;EQDQ01  00002PRCP06
0214826780999992002090300004-06770-043020FM-12+013899999V0201401N000512200019N0002001N1+03131+01751101171ADDAA106000091GF103991999011017501001001KA1240M+03731MA1999999099611MD1999999+0061REMSYN088AAXX  03004 82678 32792 31401 10313 20175 39961 40117 82100 333 10373 29049 55081 58006;EQDQ01+000022SCOTLCQ02  00002PRCP06
0186826780999992002090312004-06770-043020FM-12+013899999V0200501N001512200019N0040001N1+02961+02181101711ADDAA106000091GF103991021021008001001011KA1240N+02441MA1999999100151MD1999999+0061REMSYN076AAXX  03124 82678 32596 30503 10296 20218 30015 40171 82201 333 20244 58006;EQDQ01  00002PRCP06
0167826780999992002090318004-06770-043020FM-12+013899999V0202701N001012200019N0040001N1+03621+01961101201ADDAA106000091GF106991041051008001001011MA1999999099661MD1999999+0261REMSYN070AAXX  03184 82678 32596 62702 10362 20196 39966 40120 84501 333 58026;EQDQ01  00002PRCP06
0202826780999992002090400004-06770-043020FM-12+013899999V0209999C000012200019N0002001N1+02701+02201101421ADDAY161061AY291061GF104991041051008001001001KA1240M+03711MA1999999099851MD1999999+0241MW1011REMSYN100AAXX  04004 82678 21592 40000 10270 20220 39985 40142 70169 84500 333 10371 29062 55091 58024 60021;
0190826780999992002090412004-06770-043020FM-12+013899999V0209999C000012200019N0040001N1+02561+02311101901ADDAY161061AY221061GF105991031051008001001011KA1240N+02141MA1999999100311MD1999999+0161MW1021REMSYN088AAXX  04124 82678 21596 50000 10256 20231 30031 40190 70262 83501 333 20214 58016 60094;
0171826780999992002090418004-06770-043020FM-12+013899999V0209999C000010075019N0040001N1+02761+02381101361ADDAY161061AY221061GF108991051051008001031011MA1999999099781MD1999999+0121MW1031REMSYN082AAXX  04184 82678 21596 80000 10276 20238 39978 40136 70362 85531 333 58012 60031;
0198826780999992002090500004-06770-043020FM-12+013899999V0200901N005710075019N0005001N1+02661+01921101651ADDAA106000091GF108991081051008001999999KA1240M+03221MA1999999100061MD1999999+0211REMSYN088AAXX  05004 82678 32593 80911 10266 20192 30006 40165 885// 333 10322 29074 55053 58021;EQDQ01  00002PRCP06
0162826780999992002090512004-06770-043020FM-12+013899999V0200501N002110120019N0040001N1+02731+02241101891ADDGF106991051081008001001011KA1240N+02141MA1999999100301MD1999999-0011REMSYN082AAXX  05124 82678 22596 60504 10273 20224 30030 40189 85801 333 20214 59001 60034;
0198826780999992002090600004-06770-043020FM-12+013899999V0209999C000012200019N0002001N1+02981+02041101361ADDAA106000091GF104991041051008001001001KA1240M+03611MA1999999099791MD1999999-0271REMSYN088AAXX  06004 82678 32592 40000 10298 20204 39979 40136 84500 333 10361 29056 55105 59027;EQDQ01  00002PRCP06
0186826780999992002090612004-06770-043020FM-12+013899999V0200501N000512200019N0040001N1+02901+02101101821ADDAA106000091GF103991031011008001001001KA1240N+02301MA1999999100251MD1999999-0051REMSYN076AAXX  06124 82678 32596 30501 10290 20210 30025 40182 83100 333 20230 59005;EQDQ01  00002PRCP06
0167826780999992002090618004-06770-043020FM-12+013899999V0200901N001510075019N0040001N1+03521+01551101291ADDAA106000091GF106991051021008001001011MA1999999099731MD1999999+0051REMSYN070AAXX  06184 82678 32596 60903 10352 20155 39973 40129 85201 333 58005;EQDQ01  00002PRCP06
0198826780999992002090700004-06770-043020FM-12+013899999V0209999C000010075019N0002001N1+03041+02061101401ADDAA106000091GF107991071051008001001001KA1240M+03651MA1999999099841MD1999999+0051REMSYN088AAXX  07004 82678 32592 70000 10304 20206 39984 40140 87500 333 10365 29051 55101 58005;EQDQ01  00002PRCP06
0196826780999992002090712004-06770-043020FM-12+013899999V0200901N001512200019N0040001N1+02941+01941101801ADDAA106000091GA1001+999999999GF100991001001999999001001KA1240N+02381MA1999999100241MD1999999-0011REMSYN070AAXX  07124 82678 32596 00903 10294 20194 30024 40180 333 20238 59001;EQDQ01  00002PRCP06
0167826780999992002090718004-06770-043020FM-12+013899999V0201401N000510075019N0040001N1+03601+01721101251ADDAA106000091GF105991051011008001001001MA1999999099701MD1999999-0031REMSYN070AAXX  07184 82678 32596 51401 10360 20172 39970 40125 85100 333 59003;EQDQ01  00002PRCP06
0208826780999992002090800004-06770-043020FM-12+013899999V0209999C000012200019N0002001N1+02981+01891101271ADDAA106000091GA1001+999999999GF100991001001999999001001KA1240M+03761MA1999999099711MD1999999-0131REMSYN082AAXX  08004 82678 32992 00000 10298 20189 39971 40127 333 10376 29048 55109 59013;EQDQ01  00002PRCP06
0186826780999992002090812004-06770-043020FM-12+013899999V0200501N002110075019N0040001N1+02831+02071101741ADDAA106000091GF106991061021008001001001KA1240N+02241MA1999999100171MD1999999-0071REMSYN076AAXX  08124 82678 32596 60504 10283 20207 30017 40174 86200 333 20224 59007;EQDQ01  00002PRCP06
0167826780999992002090818004-06770-043020FM-12+013899999V0201801N001510075019N0040001N1+03581+01701101231ADDAA106000091GF105991051021008001001001MA1999999099671MD1999999-0031REMSYN070AAXX  08184 82678 32596 51803 10358 20170 39967 40123 85200 333 59003;EQDQ01  00002PRCP06
0198826780999992002090900004-06770-043020FM-12+013899999V0209999C000012200019N0002001N1+02881+01831101391ADDAA106000091GF102991021051008001001001KA1240M+03701MA1999999099821MD1999999+0111REMSYN088AAXX  09004 82678 32592 20000 10288 20183 39982 40139 82500 333 10370 29051 55105 58011;EQDQ01  00002PRCP06
0186826780999992002090912004-06770-043020FM-12+013899999V0201401N003110075019N0040001N1+02901+01811101821ADDAA106000091GF107991071051008001001001KA1240N+02521MA1999999100251MD1999999+0081REMSYN076AAXX  09124 82678 32596 71406 10290 20181 30025 40182 87500 333 20252 58008;EQDQ01  00002PRCP06
0167826780999992002090918004-06770-043020FM-12+013899999V0201401N001512200019N0040001N1+03581+01501101311ADDAA106000091GF105991031021008001001011MA1999999099761MD1999999+0091REMSYN070AAXX  09184 82678 32596 51403 10358 20150 39976 40131 83201 333 58009;EQDQ01  00002PRCP06
0208826780999992002091000004-06770-043020FM-12+013899999V0201801N000512200019N0002001N1+03041+01541101401ADDAA106000091GA1001+999999999GF100991001001999999001001KA1240M+03691MA1999999099841MD1999999+0021REMSYN082AAXX  10004 82678 32992 01801 10304 20154 39984 40140 333 10369 29041 55083 58002;EQDQ01  00002PRCP06
0186826780999992002091012004-06770-043020FM-12+013899999V0201401N003612200019N0040001N1+02881+01831101821ADDAA106000091GF105991031051008001001011KA1240N+02461MA1999999100251MD1999999+0001REMSYN076AAXX  10124 82678 32596 51407 10288 20183 30025 40182 83501 333 20246 58000;EQDQ01  00002PRCP06
0167826780999992002091018004-06770-043020FM-12+013899999V0200901N004111050019N0040001N1+03441+01721101301ADDAA106000091GF105991041021008001001021MA1999999099751MD1999999-0011REMSYN070AAXX  10184 82678 32596 50908 10344 20172 39975 40130 84202 333 59001;EQDQ01  00002PRCP06
0208826780999992002091100004-06770-043020FM-12+013899999V0201401N000512200019N0002001N1+02881+01671101511ADDAA106000091GA1001+999999999GF100991001001999999001001KA1240M+03511MA1999999099941MD1999999+0101REMSYN082AAXX  11004 82678 32992 01401 10288 20167 39994 40151 333 10351 29046 55108 58010;EQDQ01  00002PRCP06
0186826780999992002091112004-06770-043020FM-12+013899999V0200901N004112200019N0040001N1+02821+01711101821ADDAA106000091GF103991031011008001001001KA1240N+02391MA1999999100251MD1999999+0001REMSYN076AAXX  11124 82678 32596 30908 10282 20171 30025 40182 83100 333 20239 58000;EQDQ01  00002PRCP06
0167826780999992002091118004-06770-043020FM-12+013899999V0201401N003612200019N0040001N1+03541+01411101311ADDAA106000091GF104991041021008001001001MA1999999099761MD1999999+0011REMSYN070AAXX  11184 82678 32596 41407 10354 20141 39976 40131 84200 333 58001;EQDQ01  00002PRCP06
0198826780999992002091200004-06770-043020FM-12+013899999V0201401N001512200019N0002001N1+03001+01291101451ADDAA106000091GF101991011001017501031001KA1240M+03611MA1999999099881MD1999999-0061REMSYN088AAXX  12004 82678 32792 11403 10300 20129 39988 40145 81030 333 10361 29037 55106 59006;EQDQ01  00002PRCP06
0186826780999992002091212004-06770-043020FM-12+013899999V0201401N001012200019N0040001N1+02761+01621101791ADDAA106000091GF103991001001999999001021KA1240N+02381MA1999999100221MD1999999-0031REMSYN076AAXX  12124 82678 32996 31402 10276 20162 30022 40179 80002 333 20238 59003;EQDQ01  00002PRCP06
0167826780999992002091218004-06770-043020FM-12+013899999V0201401N001511050019N0040001N1+03561+01311101191ADDAA106000091GF105991021011008001001021MA1999999099641MD1999999-0121REMSYN070AAXX  12184 82678 32596 51403 10356 20131 39964 40119 82102 333 59012;EQDQ01  00002PRCP06
0208826780999992002091300004-06770-043020FM-12+013899999V0209999C000012200019N0002001N1+02841+01671101321ADDAA106000091GA1001+999999999GF100991001001999999001001KA1240M+03661MA1999999099751MD1999999-0131REMSYN082AAXX  13004 82678 32992 00000 10284 20167 39975 40132 333 10366 29044 55108 59013;EQDQ01  00002PRCP06
0196826780999992002091312004-06770-043020FM-12+013899999V0200901N004112200019N0040001N1+03001+01371101591ADDAA106000091GA1001+999999999GF100991001001999999001001KA1240N+02311MA1999999100031MD1999999-0191REMSYN070AAXX  13124 82678 32996 00908 10300 20137 30003 40159 333 20231 59019;EQDQ01  00002PRCP06
0167826780999992002091318004-06770-043020FM-12+013899999V0200901N001012200019N0040001N1+03601+01641101031ADDAA106000091GF103991031051008001001001MA1999999099481MD1999999-0161REMSYN070AAXX  13184 82678 32596 30902 10360 20164 39948 40103 83500 333 59016;EQDQ01  00002PRCP06
0208826780999992002091400004-06770-043020FM-12+013899999V0209999C000012200019N0002001N1+02881+01671101261ADDAA106000091GA1001+999999999GF100991001001999999001001KA1240M+03711MA1999999099701MD1999999-0051REMSYN082AAXX  14004 82678 32992 00000 10288 20167 39970 40126 333 10371 29040 55110 59005;EQDQ01  00002PRCP06
0196826780999992002091412004-06770-043020FM-12+013899999V0202701N001012200019N0020001N1+03011+02941101601ADDAA106000091GA1001+999999999GF100991001001999999001001KA1240N+02231MA1999999100041MD1999999+0011REMSYN070AAXX  14124 82678 32995 02702 10301 20294 30004 40160 333 20223 58001;EQDQ01  00002PRCP06
0167826780999992002091418004-06770-043020FM-12+013899999V0203201N001512200019N0040001N1+03831+01341100981ADDAA106000091GF102991021011008001001001MA1999999099441MD1999999-0041REMSYN070AAXX  14184 82678 32596 23203 10383 20134 39944 40098 82100 333 59004;EQDQ01  00002PRCP06
0208826780999992002091500004-06770-043020FM-12+013899999V0209999C000012200019N0002001N1+02971+01681101201ADDAA106000091GA1001+999999999GF100991001001999999001001KA1240M+03901MA1999999099651MD1999999-0051REMSYN082AAXX  15004 82678 32992 00000 10297 20168 39965 40120 333 10390 29042 55108 59005;EQDQ01  00002PRCP06
0186826780999992002091512004-06770-043020FM-12+013899999V0200501N002112200019N0040001N1+03001+02111101591ADDAA106000091GF103991021011008001001011KA1240N+02301MA1999999100081MD1999999+0041REMSYN076AAXX  15124 82678 32596 30504 10300 20211 30008 40159 82101 333 20230 58004;EQDQ01  00002PRCP06
0167826780999992002091518004-06770-043020FM-12+013899999V0200901N001512200019N0040001N1+03721+01721101081ADDAA106000091GF104991031021008001001011MA1999999099541MD1999999+0101REMSYN070AAXX  15184 82678 32596 40903 10372 20172 39954 40108 83201 333 58010;EQDQ01  00002PRCP06
0208826780999992002091600004-06770-043020FM-12+013899999V0209999C000012200019N0002001N1+03001+01571101271ADDAA106000091GA1001+999999999GF100991001001999999001001KA1240M+03881MA1999999099711MD1999999+0061REMSYN082AAXX  16004 82678 32992 00000 10300 20157 39971 40127 333 10388 29044 55108 58006;EQDQ01  00002PRCP06
0186826780999992002091612004-06770-043020FM-12+013899999V0201401N003110075019N0040001N1+03101+01941101801ADDAA106000091GF108991051021008001001021KA1240N+02441MA1999999100241MD1999999+0161REMSYN076AAXX  16124 82678 32596 81406 10310 20194 30024 40180 85202 333 20244 58016;EQDQ01  00002PRCP06
0167826780999992002091618004-06770-043020FM-12+013899999V0200901N002612200019N0040001N1+03641+01751101221ADDAA106000091GF103991021001008001031011MA1999999099681MD1999999+0141REMSYN070AAXX  16184 82678 32596 30905 10364 20175 39968 40122 82031 333 58014;EQDQ01  00002PRCP06
0214826780999992002091700004-06770-043020FM-12+013899999V0200501N001512200019N0002001N1+03261+01321101491ADDAA106000091GF104991999021008001001001KA1240M+03741MA1999999099941MD1999999+0231REMSYN088AAXX  17004 82678 32592 40503 10326 20132 39994 40149 82200 333 10374 29037 55106 58023;EQDQ01+000022SCOTLCQ02  00002PRCP06
0186826780999992002091712004-06770-043020FM-12+013899999V0200901N005112200019N0040001N1+03041+01641101851ADDAA199000091GF104991021011008001001011KA1240N+02441MA1999999100291MD1999999+0051REMSYN076AAXX  17124 82678 32596 40910 10304 20164 30029 40185 82101 333 20244 58005;EQDQ01  00002PRCP99
0152826780999992002091718004-06770-043020FM-12+013899999V0201401N003112200019N0040001N1+03601+01351999999ADDAA106000091GF102991999999008001999999MA1999999099691REMSYN069AAXX  17184 82678 32596 21406 10360 20135 39969 4124 81101 333 58001;EQDQ01  00002PRCP06
0208826780999992002091800004-06770-043020FM-12+013899999V0201401N002112200019N0002001N1+03111+01241101461ADDAA106000091GA1001+999999999GF100991001001999999001001KA1240M+03701MA1999999099911MD1999999-0031REMSYN082AAXX  18004 82678 32992 01404 10311 20124 39991 40146 333 10370 29033 55110 59003;EQDQ01  00002PRCP06
0186826780999992002091812004-06770-043020FM-12+013899999V0201401N003112200019N0040001N1+02941+01821101691ADDAA106000091GF104991021011008001001011KA1240N+02471MA1999999100131MD1999999-0161REMSYN076AAXX  18124 82678 32596 41406 10294 20182 30013 40169 82101 333 20247 59016;EQDQ01  00002PRCP06
0167826780999992002091818004-06770-043020FM-12+013899999V0201401N003110075019N0040001N1+03701+01551101141ADDAA106000091GF105991051021008001001001MA1999999099601MD1999999-0091REMSYN070AAXX  18184 82678 32596 51406 10370 20155 39960 40114 85200 333 59009;EQDQ01  00002PRCP06
0198826780999992002091900004-06770-043020FM-12+013899999V0201801N000512200019N0002001N1+03061+01471101361ADDAA106000091GF103991031001017501031001KA1240M+03661MA1999999099801MD1999999-0111REMSYN088AAXX  19004 82678 32792 31801 10306 20147 39980 40136 83030 333 10366 29039 55103 59011;EQDQ01  00002PRCP06
0196826780999992002091912004-06770-043020FM-12+013899999V0201401N004112200019N0040001N1+02921+01531101781ADDAA106000091GA1001+999999999GF100991001001999999001001KA1240N+02511MA1999999100221MD1999999+0091REMSYN070AAXX  19124 82678 32796 01408 10292 20153 30022 40178 333 20251 58009;EQDQ01  00002PRCP06
0167826780999992002091918004-06770-043020FM-12+013899999V0201401N001512200019N0040001N1+03581+01501101111ADDAA106000091GF103991021021008001001011MA1999999099561MD1999999-0041REMSYN070AAXX  19184 82678 32596 31403 10358 20150 39956 40111 82201 333 59004;EQDQ01  00002PRCP06
0224826780999992002092000004-06770-043020FM-12+013899999V0209999C000012200019N0002001N1+03761+01811101331ADDAA106000091GA1001+999999999GF100991001001999999001001KA1240M+99999MA1999999099891MD1999999+0001REMSYN082AAXX  20004 82678 32992 00000 10376 20181 39989 40133 333 10366 29034 55108 58000;EQDQ01  00002PRCP06Q02 +03662ATMX  
0186826780999992002092012004-06770-043020FM-12+013899999V0200901N003612200019N0002001N1+03051+01191101691ADDAA106000091GF101991001001999999001011KA1240N+02201MA1999999100141MD1999999-0081REMSYN076AAXX  20124 82678 32992 10907 10305 20119 30014 40169 80001 333 20220 59008;EQDQ01  00002PRCP06
0167826780999992002092018004-06770-043020FM-12+013899999V0202701N001512200019N0040001N1+03761+01231101081ADDAA106000091GF104991041011008001001001MA1999999099541MD1999999-0021REMSYN070AAXX  20184 82678 32596 42703 10376 20123 39954 40108 84100 333 59002;EQDQ01  00002PRCP06
0198826780999992002092100004-06770-043020FM-12+013899999V0200901N001012200019N0002001N1+03031+01171101311ADDAA106000091GF103991031021017501001001KA1240M+03831MA1999999099761MD1999999-0041REMSYN088AAXX  21004 82678 32792 30902 10303 20117 39976 40131 83200 333 10383 29030 55107 59004;EQDQ01  00002PRCP06
0186826780999992002092112004-06770-043020FM-12+013899999V0203601N000519999999N0040001N1+02861+02031101681ADDAA106000091GF107991001001999999001021KA1240N+02301MA1999999100111MD1999999-0031REMSYN076AAXX  21124 82678 32996 73601 10286 20203 30011 40168 80002 333 20230 59003;EQDQ01  00002PRCP06
0167826780999992002092118004-06770-043020FM-12+013899999V0202701N001512200019N0040001N1+03741+01791100981ADDAA106000091GF105991031021008001001011MA1999999099441MD1999999-0101REMSYN070AAXX  21184 82678 32596 52703 10374 20179 39944 40098 83201 333 59010;EQDQ01  00002PRCP06
0208826780999992002092200004-06770-043020FM-12+013899999V0209999C000012200019N0002001N1+03181+01691101151ADDAA106000091GA1001+999999999GF100991001001999999001001KA1240M+03881MA1999999099601MD1999999-0161REMSYN082AAXX  22004 82678 32992 00000 10318 20169 39960 40115 333 10388 29044 55105 59016;EQDQ01  00002PRCP06
0196826780999992002092212004-06770-043020FM-12+013899999V0200501N002612200019N0040001N1+02961+02131101591ADDAA106000091GA1001+999999999GF100991001001999999001001KA1240N+02291MA1999999100031MD1999999-0081REMSYN070AAXX  22124 82678 32996 00505 10296 20213 30003 40159 333 20229 59008;EQDQ01  00002PRCP06
0167826780999992002092218004-06770-043020FM-12+013899999V0209999C000010075019N0040001N1+03781+01671101001ADDAA106000091GF105991051021008001001001MA1999999099461MD1999999+0021REMSYN070AAXX  22184 82678 32596 50000 10378 20167 39946 40100 85200 333 58002;EQDQ01  00002PRCP06
0198826780999992002092300004-06770-043020FM-12+013899999V0209999C000010450019N0020001N1+03221+01731101061ADDAA106000091GF105991031051008001031001KA1240M+03891MA1999999099511MD1999999-0091REMSYN088AAXX  23004 82678 32595 50000 10322 20173 39951 40106 83530 333 10389 29043 55105 59009;EQDQ01  00002PRCP06
0196826780999992002092312004-06770-043020FM-12+013899999V0200501N002112200019N0002001N1+03001+02031101461ADDAA106000091GA1001+999999999GF100991001001999999001001KA1240N+02481MA1999999099911MD1999999-0121REMSYN070AAXX  23124 82678 32992 00504 10300 20203 39991 40146 333 20248 59012;EQDQ01  00002PRCP06
0167826780999992002092318004-06770-043020FM-12+013899999V0200501N002610075019N0040001N1+03731+01721100891ADDAA106000091GF106991061021008001001001MA1999999099361MD1999999-0101REMSYN070AAXX  23184 82678 32596 60505 10373 20172 39936 40089 86200 333 59010;EQDQ01  00002PRCP06
0202826780999992002092400004-06770-043020FM-12+013899999V0200501N001510075019N0002001N1+02951+01941101091ADDAY121061AY221061GF108991081041008001999999KA1240M+03841MA1999999099541MD1999999+0031MW1601REMSYN100AAXX  24004 82678 21592 80503 10295 20194 39954 40109 76022 884// 333 10384 29049 55097 58003 69921;
0162826780999992002092412004-06770-043020FM-12+013899999V0200501N001010075019N0040001N1+02961+02131101461ADDGF107991071051008001001001KA1240N+02401MA1999999099901MD1999999-0011REMSYN082AAXX  24124 82678 22596 70502 10296 20213 39990 40146 87500 333 20240 59001 69924;
0167826780999992002092418004-06770-043020FM-12+013899999V0200501N001510075019N0040001N1+03501+01861101051ADDAA106000091GF106991061021008001001001MA1999999099501MD1999999+0141REMSYN070AAXX  24184 82678 32596 60503 10350 20186 39950 40105 86200 333 58014;EQDQ01  00002PRCP06
0208826780999992002092500004-06770-043020FM-12+013899999V0202701N001012200019N0002001N1+03001+02051101111ADDAA106000091GA1001+999999999GF100991001001999999001001KA1240M+03601MA1999999099561MD1999999+0021REMSYN082AAXX  25004 82678 32992 02702 10300 20205 39956 40111 333 10360 29053 55079 58002;EQDQ01  00002PRCP06
0196826780999992002092512004-06770-043020FM-12+013899999V0202701N001512200019N0040001N1+02901+02041101571ADDAA106000091GA1001+999999999GF100991001001999999001001KA1240N+02521MA1999999100011MD1999999+0111REMSYN070AAXX  25124 82678 32596 02703 10290 20204 30001 40157 333 20252 58011;EQDQ01  00002PRCP06
0167826780999992002092518004-06770-043020FM-12+013899999V0209999C000012200019N0040001N1+03621+01871100941ADDAA106000091GF105991031021008001001011MA1999999099401MD1999999-0101REMSYN070AAXX  25184 82678 32596 50000 10362 20187 39940 40094 83201 333 59010;EQDQ01  00002PRCP06
0208826780999992002092600004-06770-043020FM-12+013899999V0209999C000012200019N0040001N1+03021+01921101151ADDAA106000091GA1001+999999999GF100991001001999999001001KA1240M+03721MA1999999099591MD1999999+0031REMSYN082AAXX  26004 82678 32996 00000 10302 20192 39959 40115 333 10372 29050 55074 58003;EQDQ01  00002PRCP06
0186826780999992002092612004-06770-043020FM-12+013899999V0203201N001510120019N0040001N1+02901+02071101511ADDAA106000091GF108991051081008001021011KA1240N+02461MA1999999099951MD1999999-0061REMSYN076AAXX  26124 82678 32596 83203 10290 20207 39995 40151 85821 333 20246 59006;EQDQ01  00002PRCP06
0167826780999992002092618004-06770-043020FM-12+013899999V0200501N001012200019N0040001N1+03681+01791100971ADDAA106000091GF108991041021008001001011MA1999999099431MD1999999+0031REMSYN070AAXX  26184 82678 32596 80502 10368 20179 39943 40097 84201 333 58003;EQDQ01  00002PRCP06
0186826780999992002092712004-06770-043020FM-12+013899999V0201401N001512200019N0040001N1+03121+01861101601ADDAA106000091GF106991041011008001001011KA1240N+02501MA1999999100051MD1999999+0101REMSYN076AAXX  27124 82678 32596 61403 10312 20186 30005 40160 84101 333 20250 58010;EQDQ01  00002PRCP06
0167826780999992002092718004-06770-043020FM-12+013899999V0200901N001010075019N0040001N1+03721+01621101141ADDAA106000091GF106991061021008001001001MA1999999099601MD1999999+0171REMSYN070AAXX  27184 82678 32596 60902 10372 20162 39960 40114 86200 333 58017;EQDQ01  00002PRCP06
0198826780999992002092800004-06770-043020FM-12+013899999V0209999C000012200019N0002001N1+03101+01901101331ADDAA106000091GF104991041021008001001001KA1240M+03881MA1999999099781MD1999999+0131REMSYN088AAXX  28004 82678 32592 40000 10310 20190 39978 40133 84200 333 10388 29044 55090 58013;EQDQ01  00002PRCP06
0209826780999992002092812004-06770-043020FM-12+013899999V0201401N003110120019N0040001N1+02741+02051101761ADDAY181061AY291061GF108991999081008001051999KA1240N+02331MA1999999100191MD1999999+0141MW1021REMSYN088AAXX  28124 82678 21596 81406 10274 20205 30019 40176 70289 8885/ 333 20233 58014 60064;EQDQ01+000082SCOTLC
0183826780999992002092818004-06770-043020FM-12+013899999V0201401N001510075019N0040001N1+03521+01831101181ADDAA106000091GF108991999031008001001001MA1999999099631MD1999999+0031REMSYN070AAXX  28184 82678 32596 81403 10352 20183 39963 40118 85300 333 58003;EQDQ01+000052SCOTLCQ02  00002PRCP06
0208826780999992002092900004-06770-043020FM-12+013899999V0209999C000012200019N0040001N1+02961+02021101341ADDAA106000091GA1001+999999999GF100991001001999999001001KA1240M+03521MA1999999099771MD1999999-0011REMSYN082AAXX  29004 82678 32996 00000 10296 20202 39977 40134 333 10352 29054 55038 59001;EQDQ01  00002PRCP06
0186826780999992002092912004-06770-043020FM-12+013899999V0200901N003112200019N0040001N1+03151+01731101681ADDAA106000091GF104991041011008001001001KA1240N+02521MA1999999100121MD1999999-0071REMSYN076AAXX  29124 82678 32596 40906 10315 20173 30012 40168 84100 333 20252 59007;EQDQ01  00002PRCP06
0167826780999992002092918004-06770-043020FM-12+013899999V0200901N001511050019N0040001N1+03661+01511101101ADDAA106000091GF105991031021008001001021MA1999999099561MD1999999-0071REMSYN070AAXX  29184 82678 32596 50903 10366 20151 39956 40110 83202 333 59007;EQDQ01  00002PRCP06
0198826780999992002093000004-06770-043020FM-12+013899999V0201401N002110075019N0002001N1+03331+01381101251ADDAA106000091GF106991061041008001001001KA1240M+03771MA1999999099711MD1999999-0061REMSYN088AAXX  30004 82678 32592 61404 10333 20138 39971 40125 86400 333 10377 29033 55100 59006;EQDQ01  00002PRCP06
0186826780999992002093012004-06770-043020FM-12+013899999V0200901N004112200019N0040001N1+03061+01621101671ADDAA106000091GF103991011011008001031001KA1240N+02491MA1999999100121MD1999999+0001REMSYN076AAXX  30124 82678 32596 30908 10306 20162 30012 40167 81130 333 20249 58000;EQDQ01  00002PRCP06
0167826780999992002093018004-06770-043020FM-12+013899999V0201401N001510075019N0040001N1+03541+01571101301ADDAA106000091GF105991051021008001001001MA1999999099751MD1999999+0191REMSYN070AAXX  30184 82678 32596 51403 10354 20157 39975 40130 85200 333 58019;EQDQ01  00002PRCP06
0198826780999992002100100004-06770-043020FM-12+013899999V0209999C000012200019N0002001N1+02961+01781101371ADDAA106000091GF102991021011017501001001KA1240M+03641MA1999999099811MD1999999+0101REMSYN088AAXX  01004 82678 32792 20000 10296 20178 39981 40137 82100 333 10364 29043 55109 58010;EQDQ01  00002PRCP06
0196826780999992002100112004-06770-043020FM-12+013899999V0200901N004612200019N0040001N1+03101+01541101801ADDAA106000091GA1001+999999999GF100991001001999999001001KA1240N+02421MA1999999100241MD1999999+0121REMSYN070AAXX  01124 82678 32996 00909 10310 20154 30024 40180 333 20242 58012;EQDQ01  00002PRCP06
0183826780999992002100118004-06770-043020FM-12+013899999V0200501N001519999999N0040001N1+03681+01581101201ADDAA106000091GF105991999021008001001001MA1999999099661MD1999999-0091REMSYN070AAXX  01184 82678 32596 50503 10368 20158 39966 40120 83200 333 59009;EQDQ01+000032SCOTLCQ02  00002PRCP06
0208826780999992002100200004-06770-043020FM-12+013899999V0201401N001512200019N0002001N1+03161+01341101341ADDAA106000091GA1001+999999999GF100991001001999999001001KA1240M+03731MA1999999099821MD1999999+0011REMSYN082AAXX  02004 82678 32992 01403 10316 20134 39982 40134 333 10373 29034 55108 58001;EQDQ01  00002PRCP06
0186826780999992002100212004-06770-043020FM-12+013899999V0200501N001512200019N0040001N1+03011+02001101631ADDAA106000091GF101991011011008001001001KA1240N+02321MA1999999100071MD1999999-0171REMSYN076AAXX  02124 82678 32596 10503 10301 20200 30007 40163 81100 333 20232 59017;EQDQ01  00002PRCP06
0167826780999992002100218004-06770-043020FM-12+013899999V0200901N001512200019N0040001N1+03821+01271101031ADDAA106000091GF105991041021008001001011MA1999999099491MD1999999-0171REMSYN070AAXX  02184 82678 32596 50903 10382 20127 39949 40103 84201 333 59017;EQDQ01  00002PRCP06
0208826780999992002100300004-06770-043020FM-12+013899999V0203601N000512200019N0002001N1+03011+01571101281ADDAA106000091GA1001+999999999GF100991001001999999001001KA1240M+03931MA1999999099721MD1999999-0101REMSYN082AAXX  03004 82678 32992 03601 10301 20157 39972 40128 333 10393 29040 55108 59010;EQDQ01  00002PRCP06
0186826780999992002100312004-06770-043020FM-12+013899999V0200501N000510075019N0040001N1+02861+02191101541ADDAA106000091GF107991061051008001001011KA1240N+02421MA1999999099981MD1999999-0091REMSYN076AAXX  03124 82678 32596 70501 10286 20219 39998 40154 86501 333 20242 59009;EQDQ01  00002PRCP06
0167826780999992002100318004-06770-043020FM-12+013899999V0209999C000010075019N0040001N1+03621+01741101001ADDAA106000091GF106991051021008001001011MA1999999099461MD1999999-0031REMSYN070AAXX  03184 82678 32596 60000 10362 20174 39946 40100 85201 333 59003;EQDQ01  00002PRCP06
0198826780999992002100400004-06770-043020FM-12+013899999V0202701N001512200019N0002001N1+03201+01991101101ADDAA106000091GF104991041051008001001001KA1240M+03801MA1999999099551MD1999999-0171REMSYN088AAXX  04004 82678 32592 42703 10320 20199 39955 40110 84500 333 10380 29050 55082 59017;EQDQ01  00002PRCP06
0190826780999992002100412004-06770-043020FM-12+013899999V0201401N001010075019N0040001N1+02421+02231101711ADDAY161061AY221061GF108991081051008001999999KA1240N+02301MA1999999100131MD1999999+0581MW1611REMSYN088AAXX  04124 82678 21596 81402 10242 20223 30013 40171 76162 885// 333 20230 58058 60034;
0171826780999992002100418004-06770-043020FM-12+013899999V0202701N001010075019N0040001N1+03381+01951101051ADDAY161061AY211061GF108991051021008001001021MA1999999099501MD1999999+0041MW1021REMSYN082AAXX  04184 82678 21596 82702 10338 20195 39950 40105 70261 85202 333 58004 60011;
0208826780999992002100500004-06770-043020FM-12+013899999V0209999C000012200019N0020001N1+02741+02051101211ADDAA106000091GA1001+999999999GF100991001001999999001001KA1240M+03531MA1999999099631MD1999999+0081REMSYN082AAXX  05004 82678 32995 00000 10274 20205 39963 40121 333 10353 29066 55037 58008;EQDQ01  00002PRCP06
0162826780999992002100512004-06770-043020FM-12+013899999V0200501N002110075019N0040001N1+02921+02061101551ADDGF105991051021008001001011KA1240N+02271MA1999999099981MD1999999-0151REMSYN082AAXX  05124 82678 22596 50504 10292 20206 39998 40155 85201 333 20227 59015 60014;
0167826780999992002100518004-06770-043020FM-12+013899999V0202301N001510075019N0040001N1+03561+01641100981ADDAA106000091GF105991051021008001001001MA1999999099431MD1999999-0071REMSYN070AAXX  05184 82678 32596 52303 10356 20164 39943 40098 85200 333 59007;EQDQ01  00002PRCP06
0198826780999992002100600004-06770-043020FM-12+013899999V0200501N001012200019N0002001N1+02861+02011101201ADDAA106000091GF103991031001017501031001KA1240M+03671MA1999999099641MD1999999+0011REMSYN088AAXX  06004 82678 32792 30502 10286 20201 39964 40120 83030 333 10367 29053 55095 58001;EQDQ01  00002PRCP06
0186826780999992002100612004-06770-043020FM-12+013899999V0200501N002610075019N0040001N1+03021+02021101491ADDAA106000091GF105991051011008001001001KA1240N+02321MA1999999099931MD1999999-0051REMSYN076AAXX  06124 82678 32596 50505 10302 20202 39993 40149 85100 333 20232 59005;EQDQ01  00002PRCP06
0167826780999992002100618004-06770-043020FM-12+013899999V0201401N002610075019N0040001N1+03701+01711100941ADDAA106000091GF106991061051008001001001MA1999999099391MD1999999-0041REMSYN070AAXX  06184 82678 32596 61405 10370 20171 39939 40094 86500 333 59004;EQDQ01  00002PRCP06
0198826780999992002100700004-06770-043020FM-12+013899999V0209999C000012200019N0020001N1+03141+01691101011ADDAA106000091GF104991041051008001001001KA1240M+03891MA1999999099461MD1999999-0181REMSYN088AAXX  07004 82678 32595 40000 10314 20169 39946 40101 84500 333 10389 29042 55091 59018;EQDQ01  00002PRCP06
0196826780999992002100712004-06770-043020FM-12+013899999V0200901N001512200019N0040001N1+03201+01781101491ADDAA106000091GA1001+999999999GF100991001001999999001001KA1240N+02481MA1999999099951MD1999999+0021REMSYN070AAXX  07124 82678 32996 00903 10320 20178 39995 40149 333 20248 58002;EQDQ01  00002PRCP06
0167826780999992002100718004-06770-043020FM-12+013899999V0201401N001511050019N0040001N1+03781+01671100951ADDAA106000091GF105991031021008001001021MA1999999099421MD1999999+0031REMSYN070AAXX  07184 82678 32596 51403 10378 20167 39942 40095 83202 333 58003;EQDQ01  00002PRCP06
0208826780999992002100800004-06770-043020FM-12+013899999V0201401N001512200019N0002001N1+03201+01171101101ADDAA106000091GA1001+999999999GF100991001001999999001001KA1240M+03841MA1999999099561MD1999999+0101REMSYN082AAXX  08004 82678 32992 01403 10320 20117 39956 40110 333 10384 29032 55106 58010;EQDQ01  00002PRCP06
0186826780999992002100812004-06770-043020FM-12+013899999V0200901N004110075019N0040001N1+03081+01821101651ADDAA106000091GF107991071051008001001001KA1240N+02711MA1999999100101MD1999999+0151REMSYN076AAXX  08124 82678 32596 70908 10308 20182 30010 40165 87500 333 20271 58015;EQDQ01  00002PRCP06
0167826780999992002100818004-06770-043020FM-12+013899999V0201401N003112200019N0040001N1+03631+01531101061ADDAA106000091GF105991031021008001001011MA1999999099531MD1999999+0111REMSYN070AAXX  08184 82678 32596 51406 10363 20153 39953 40106 83201 333 58011;EQDQ01  00002PRCP06
0186826780999992002100912004-06770-043020FM-12+013899999V0201401N004112200019N0040001N1+03141+01691101511ADDAA106000091GF103991021011008001031001KA1240N+02561MA1999999099961MD1999999-0141REMSYN076AAXX  09124 82678 32596 31408 10314 20169 39996 40151 82130 333 20256 59014;EQDQ01  00002PRCP06
0198826780999992002101000004-06770-043020FM-12+013899999V0201401N000512200019N0002001N1+03161+01291101211ADDAA106000091GF103991031001017501031001KA1240M+03881MA1999999099661MD1999999+0021REMSYN088AAXX  10004 82678 32792 31401 10316 20129 39966 40121 83030 333 10388 29034 55104 58002;EQDQ01  00002PRCP06
0186826780999992002101012004-06770-043020FM-12+013899999V0200901N002112200019N0040001N1+03241+01751101461ADDAA106000091GF104991021021008001001011KA1240N+02241MA1999999099911MD1999999-0051REMSYN076AAXX  10124 82678 32596 40904 10324 20175 39991 40146 82201 333 20224 59005;EQDQ01  00002PRCP06
0167826780999992002101018004-06770-043020FM-12+013899999V0201401N001011050019N0040001N1+03841+01611100891ADDAA106000091GF105991031021008001001021MA1999999099351MD1999999-0221REMSYN070AAXX  10184 82678 32596 51402 10384 20161 39935 40089 83202 333 59022;EQDQ01  00002PRCP06
0208826780999992002101100004-06770-043020FM-12+013899999V0201401N001512200019N0005001N1+03301+01411101201ADDAA106000091GA1001+999999999GF100991001001999999001001KA1240M+03921MA1999999099661MD1999999+0001REMSYN082AAXX  11004 82678 32993 01403 10330 20141 39966 40120 333 10392 29033 55088 58000;EQDQ01  00002PRCP06
0186826780999992002101112004-06770-043020FM-12+013899999V0200501N003112200019N0040001N1+03201+01551101581ADDAA106000091GF101991011011008001001001KA1240N+02721MA1999999100041MD1999999+0131REMSYN076AAXX  11124 82678 32596 10506 10320 20155 30004 40158 81100 333 20272 58013;EQDQ01  00002PRCP06
0167826780999992002101118004-06770-043020FM-12+013899999V0200901N002612200019N0040001N1+03771+01421101001ADDAA106000091GF103991031011008001001001MA1999999099471MD1999999+0121REMSYN070AAXX  11184 82678 32596 30905 10377 20142 39947 40100 83100 333 58012;EQDQ01  00002PRCP06
0208826780999992002101200004-06770-043020FM-12+013899999V0201401N001512200019N0002001N1+03201+01121101181ADDAA106000091GA1001+999999999GF100991001001999999001001KA1240M+03861MA1999999099641MD1999999-0021REMSYN082AAXX  12004 82678 32992 01403 10320 20112 39964 40118 333 10386 29030 55103 59002;EQDQ01  00002PRCP06
0186826780999992002101212004-06770-043020FM-12+013899999V0200901N001012200019N0040001N1+03181+01441101611ADDAA106000091GF102991021011008001001001KA1240N+02521MA1999999100061MD1999999+0021REMSYN076AAXX  12124 82678 32596 20902 10318 20144 30006 40161 82100 333 20252 58002;EQDQ01  00002PRCP06
0177826780999992002101218004-06770-043020FM-12+013899999V0201401N005112200019N0200001N1+03741+01281101071ADDAA106000091GA1001+999999999GF100991001001999999001001MA1999999099541MD1999999+0071REMSYN064AAXX  12184 82678 32598 01410 10374 20128 39954 40107 333 58007;EQDQ01  00002PRCP06
0208826780999992002101300004-06770-043020FM-12+013899999V0209999C000012200019N0002001N1+03061+01471101271ADDAA106000091GA1001+999999999GF100991001001999999001001KA1240M+03891MA1999999099721MD1999999+0081REMSYN082AAXX  13004 82678 32992 00000 10306 20147 39972 40127 333 10389 29034 55111 58008;EQDQ01  00002PRCP06
0196826780999992002101312004-06770-043020FM-12+013899999V0200901N002112200019N0040001N1+03161+01511101561ADDAA106000091GA1001+999999999GF100991001001999999001001KA1240N+02241MA1999999100011MD1999999-0051REMSYN070AAXX  13124 82678 32996 00904 10316 20151 30001 40156 333 20224 59005;EQDQ01  00002PRCP06
0167826780999992002101318004-06770-043020FM-12+013899999V0201401N001512200019N0040001N1+03761+01711100981ADDAA106000091GF105991031021008001001011MA1999999099441MD1999999+0101REMSYN070AAXX  13184 82678 32596 51403 10376 20171 39944 40098 83201 333 58010;EQDQ01  00002PRCP06
0198826780999992002101400004-06770-043020FM-12+013899999V0209999C000012200019N0002001N1+03081+01601101101ADDAA106000091GF102991021001017501031001KA1240M+03901MA1999999099551MD1999999-0171REMSYN088AAXX  14004 82678 32792 20000 10308 20160 39955 40110 82030 333 10390 29037 55106 59017;EQDQ01  00002PRCP06
0186826780999992002101412004-06770-043020FM-12+013899999V0203601N002610075019N0040001N1+03141+02001101581ADDAA106000091GF107991051021008001001011KA1240N+02461MA1999999100031MD1999999+0021REMSYN076AAXX  14124 82678 32596 73605 10314 20200 30003 40158 85201 333 20246 58002;EQDQ01  00002PRCP06
0167826780999992002101418004-06770-043020FM-12+013899999V0201401N002610075019N0040001N1+03741+01581100941ADDAA106000091GF106991051021008001001011MA1999999099401MD1999999-0041REMSYN070AAXX  14184 82678 32596 61405 10374 20158 39940 40094 85201 333 59004;EQDQ01  00002PRCP06
0192826780999992002101500004-06770-043020FM-12+013899999V0201401N001512200019N0002001N1+03221+01431101111ADDAA106000091GF101991999999999999999999KA1240M+03821MA1999999099571MD1999999+0021REMSYN082AAXX  15004 82678 32992 11403 10322 20143 39957 40111 333 10382 29037 55101 58002;EQDQ01  00002PRCP06
0186826780999992002101512004-06770-043020FM-12+013899999V0203601N001511050019N0040001N1+03121+01681101551ADDAA106000091GF105991021011008001031021KA1240N+02521MA1999999100001MD1999999-0031REMSYN076AAXX  15124 82678 32596 53603 10312 20168 30000 40155 82132 333 20252 59003;EQDQ01  00002PRCP06
0167826780999992002101518004-06770-043020FM-12+013899999V0201401N001511050019N0040001N1+03721+01561101021ADDAA106000091GF107991041021008001001021MA1999999099491MD1999999+0091REMSYN070AAXX  15184 82678 32596 71403 10372 20156 39949 40102 84202 333 58009;EQDQ01  00002PRCP06
0198826780999992002101600004-06770-043020FM-12+013899999V0209999C000012200019N0002001N1+03021+01661101071ADDAA106000091GF103991001001999999001021KA1240M+03881MA1999999099521MD1999999-0051REMSYN088AAXX  16004 82678 32992 30000 10302 20166 39952 40107 80002 333 10388 29040 55105 59005;EQDQ01  00002PRCP06
0186826780999992002101612004-06770-043020FM-12+013899999V0203601N001012200019N0040001N1+03041+01941101561ADDAA106000091GF103991021011008001001011KA1240N+02461MA1999999100001MD1999999+0001REMSYN076AAXX  16124 82678 32596 33602 10304 20194 30000 40156 82101 333 20246 58000;EQDQ01  00002PRCP06
0167826780999992002101618004-06770-043020FM-12+013899999V0201401N001012200019N0040001N1+03821+01471100981ADDAA106000091GF103991021021008001001011MA1999999099441MD1999999-0051REMSYN070AAXX  16184 82678 32596 31402 10382 20147 39944 40098 82201 333 59005;EQDQ01  00002PRCP06
0214826780999992002101700004-06770-043020FM-12+013899999V0200501N002110075019N0040001N1+03241+01711101221ADDAA106000091GF108991999021008001001001KA1240M+03861MA1999999099671MD1999999+0151REMSYN088AAXX  17004 82678 32596 80504 10324 20171 39967 40122 86200 333 10386 29039 55099 58015;EQDQ01+000062SCOTLCQ02  00002PRCP06
0186826780999992002101712004-06770-043020FM-12+013899999V0203601N001512200019N0040001N1+03231+01771101441ADDAA106000091GF108991031021008001001011KA1240N+02731MA1999999099901MD1999999-0101REMSYN076AAXX  17124 82678 32596 83603 10323 20177 39990 40144 83201 333 20273 59010;EQDQ01  00002PRCP06
0167826780999992002101718004-06770-043020FM-12+013899999V0200901N002110450019N0040001N1+03791+01721100841ADDAA106000091GF106991031081008001031011MA1999999099311MD1999999-0131REMSYN070AAXX  17184 82678 32596 60904 10379 20172 39931 40084 83831 333 59013;EQDQ01  00002PRCP06
0198826780999992002101800004-06770-043020FM-12+013899999V0200501N001510075019N0002001N1+03231+01771101111ADDAA106000091GF108991061041008001031999KA1240M+03841MA1999999099571MD1999999-0101REMSYN088AAXX  18004 82678 32592 80503 10323 20177 39957 40111 8643/ 333 10384 29039 55090 59010;EQDQ01  00002PRCP06
0196826780999992002101812004-06770-043020FM-12+013899999V0200501N001512200019N0040001N1+03201+02031101421ADDAA106000091GA1001+999999999GF100991001001999999001001KA1240N+02711MA1999999099871MD1999999-0031REMSYN070AAXX  18124 82678 32996 00503 10320 20203 39987 40142 333 20271 59003;EQDQ01  00002PRCP06
0167826780999992002101818004-06770-043020FM-12+013899999V0201401N001012200019N0040001N1+03821+01761100711ADDAA106000091GF105991031021008001001011MA1999999099181MD1999999-0131REMSYN070AAXX  18184 82678 32596 51402 10382 20176 39918 40071 83201 333 59013;EQDQ01  00002PRCP06
0198826780999992002101900004-06770-043020FM-12+013899999V0209999C000012200019N0002001N1+03121+01601100951ADDAA106000091GF103991021011008001001011KA1240M+03941MA1999999099411MD1999999-0161REMSYN088AAXX  19004 82678 32592 30000 10312 20160 39941 40095 82101 333 10394 29040 55090 59016;EQDQ01  00002PRCP06
0186826780999992002101912004-06770-043020FM-12+013899999V0200901N000510075019N0040001N1+03161+01821101471ADDAA106000091GF106991061051008001001001KA1240N+02241MA1999999099921MD1999999+0051REMSYN076AAXX  19124 82678 32596 60901 10316 20182 39992 40147 86500 333 20224 58005;EQDQ01  00002PRCP06
0167826780999992002101918004-06770-043020FM-12+013899999V0201401N001512200019N0040001N1+03821+01411100811ADDAA106000091GF104991021011008001001011MA1999999099271MD1999999+0091REMSYN070AAXX  19184 82678 32596 41403 10382 20141 39927 40081 82101 333 58009;EQDQ01  00002PRCP06
0208826780999992002102000004-06770-043020FM-12+013899999V0209999C000012200019N0002001N1+03001+01451100911ADDAA106000091GA1001+999999999GF100991001001999999001001KA1240M+03921MA1999999099371MD1999999-0041REMSYN082AAXX  20004 82678 32992 00000 10300 20145 39937 40091 333 10392 29037 55105 59004;EQDQ01  00002PRCP06
0186826780999992002102012004-06770-043020FM-12+013899999V0200901N004112200019N0500001N1+03181+01691101361ADDAA106000091GF103991031011008001001001KA1240N+02581MA1999999099811MD1999999-0111REMSYN076AAXX  20124 82678 32599 30908 10318 20169 39981 40136 83100 333 20258 59011;EQDQ01  00002PRCP06
0167826780999992002102018004-06770-043020FM-12+013899999V0201401N004112200019N0040001N1+03761+01231100821ADDAA106000091GF104991041011008001001001MA1999999099291MD1999999+0021REMSYN070AAXX  20184 82678 32596 41408 10376 20123 39929 40082 84100 333 58002;EQDQ01  00002PRCP06
0214826780999992002102100004-06770-043020FM-12+013899999V0201401N001512200019N0020001N1+03171+01091101071ADDAA106000091GF102991999011008001001001KA1240M+03831MA1999999099531MD1999999+0161REMSYN088AAXX  21004 82678 32595 21403 10317 20109 39953 40107 81100 333 10383 29030 55108 58016;EQDQ01+000012SCOTLCQ02  00002PRCP06
0186826780999992002102112004-06770-043020FM-12+013899999V0201401N003612200019N0040001N1+03101+01661101491ADDAA106000091GF104991041011008001001001KA1240N+02501MA1999999099941MD1999999+0131REMSYN076AAXX  21124 82678 32596 41407 10310 20166 39994 40149 84100 333 20250 58013;EQDQ01  00002PRCP06
0167826780999992002102118004-06770-043020FM-12+013899999V0200901N003110075019N0040001N1+03701+01601101021ADDAA106000091GF105991051021008001001001MA1999999099471MD1999999+0181REMSYN070AAXX  21184 82678 32596 50906 10370 20160 39947 40102 85200 333 58018;EQDQ01  00002PRCP06
0198826780999992002102200004-06770-043020FM-12+013899999V0201801N001010450019N0002001N1+03261+01641101111ADDAA106000091GF107991041051008001031001KA1240M+03881MA1999999099571MD1999999+0041REMSYN088AAXX  22004 82678 32592 71802 10326 20164 39957 40111 84530 333 10388 29037 55108 58004;EQDQ01  00002PRCP06
0196826780999992002102212004-06770-043020FM-12+013899999V0200901N001512200019N0040001N1+03321+01521101451ADDAA106000091GA1001+999999999GF100991001001999999001001KA1240N+02361MA1999999099911MD1999999-0031REMSYN070AAXX  22124 82678 32796 00903 10332 20152 39991 40145 333 20236 59003;EQDQ01  00002PRCP06
0078826780999992002102218004-06770-043020FM-12+013899999V02099999999999999999N9999999N1+99999+99999999999REMSYN069AAXX  22184 82678 3259 81401 10378 20156 39934 40088 85201 333 59013;
0208826780999992002102300004-06770-043020FM-12+013899999V0209999C000012200019N0002001N1+03141+01541101071ADDAA106000091GA1001+999999999GF100991001001999999001001KA1240M+03921MA1999999099531MD1999999-0041REMSYN082AAXX  23004 82678 32992 00000 10314 20154 39953 40107 333 10392 29034 55091 59004;EQDQ01  00002PRCP06
0196826780999992002102312004-06770-043020FM-12+013899999V0201501N002112200019N0040001N1+03261+01881101331ADDAA106000091GA1001+999999999GF100991001001999999001001KA1240N+02641MA1999999099791MD1999999-0121REMSYN070AAXX  23124 82678 32996 01504 10326 20188 39979 40133 333 20264 59012;EQDQ01  00002PRCP06
0167826780999992002102318004-06770-043020FM-12+013899999V0201401N002110450019N0040001N1+03951+01511100701ADDAA106000091GF108991041081008001031011MA1999999099181MD1999999-0161REMSYN070AAXX  23184 82678 32596 81404 10395 20151 39918 40070 84831 333 59016;EQDQ01  00002PRCP06
0198826780999992002102400004-06770-043020FM-12+013899999V0200501N003610075019N0002001N1+03311+01461100991ADDAA106000091GF108991081041008001999999KA1240M+04021MA1999999099461MD1999999-0071REMSYN088AAXX  24004 82678 32592 80507 10331 20146 39946 40099 884// 333 10402 29034 55086 59007;EQDQ01  00002PRCP06
0186826780999992002102412004-06770-043020FM-12+013899999V0200501N001010075019N0040001N1+03161+02021101461ADDAA106000091GF107991051051008001031001KA1240N+02701MA1999999099921MD1999999+0131REMSYN076AAXX  24124 82678 32596 70502 10316 20202 39992 40146 85530 333 20270 58013;EQDQ01  00002PRCP06
0167826780999992002102418004-06770-043020FM-12+013899999V0200901N001510075019N0040001N1+03701+01761100881ADDAA106000091GF105991051021008001001001MA1999999099351MD1999999+0171REMSYN070AAXX  24184 82678 32596 50903 10370 20176 39935 40088 85200 333 58017;EQDQ01  00002PRCP06
0186826780999992002102512004-06770-043020FM-12+013899999V0200501N001012200019N0040001N1+03181+01731101281ADDAA106000091GF103991021051008001001011KA1240N+02491MA1999999099731MD1999999-0191REMSYN076AAXX  25124 82678 32596 30502 10318 20173 39973 40128 82501 333 20249 59019;EQDQ01  00002PRCP06
0167826780999992002102518004-06770-043020FM-12+013899999V0201401N001511050019N0040001N1+03761+01651100761ADDAA106000091GF105991031021008001001021MA1999999099231MD1999999-0121REMSYN070AAXX  25184 82678 32596 51403 10376 20165 39923 40076 83202 333 59012;EQDQ01  00002PRCP06
0183826780999992002102618004-06770-043020FM-12+013899999V0200501N001012200019N0040001N1+03841+01611100811ADDAA106000091GF104991999021008001001001MA1999999099271MD1999999+0041REMSYN070AAXX  26184 82678 32596 40502 10384 20161 39927 40081 83200 333 58004;EQDQ01+000032SCOTLCQ02  00002PRCP06
0208826780999992002102700004-06770-043020FM-12+013899999V0209999C000012200019N0002001N1+03221+01651101011ADDAA106000091GA1001+999999999GF100991001001999999001001KA1240M+03941MA1999999099471MD1999999+0041REMSYN082AAXX  27004 82678 32992 00000 10322 20165 39947 40101 333 10394 29040 55100 58004;EQDQ01  00002PRCP06
0186826780999992002102712004-06770-043020FM-12+013899999V0200501N000511050019N0040001N1+02981+02201101381ADDAA106000091GF106991041021008001001021KA1240N+02501MA1999999099831MD1999999+0011REMSYN076AAXX  27124 82678 32596 60501 10298 20220 39983 40138 84202 333 20250 58001;EQDQ01  00002PRCP06
0167826780999992002102718004-06770-043020FM-12+013899999V0200501N000510075019N0040001N1+03841+01671100851ADDAA106000091GF105991051021008001001001MA1999999099321MD1999999+0051REMSYN070AAXX  27184 82678 32596 50501 10384 20167 39932 40085 85200 333 58005;EQDQ01  00002PRCP06
0208826780999992002102800004-06770-043020FM-12+013899999V0209999C000012200019N0002001N1+03241+01751100861ADDAA106000091GA1001+999999999GF100991001001999999001001KA1240M+03881MA1999999099321MD1999999-0151REMSYN082AAXX  28004 82678 32992 00000 10324 20175 39932 40086 333 10388 29043 55091 59015;EQDQ01  00002PRCP06
0190826780999992002102812004-06770-043020FM-12+013899999V0202701N001012200019N0040001N1+03001+02171101381ADDAY161061AY221061GF105991031021008001001011KA1240N+02501MA1999999099831MD1999999+0001MW1021REMSYN088AAXX  28124 82678 21596 52702 10300 20217 39983 40138 70262 83201 333 20250 58000 60014;
0167826780999992002102818004-06770-043020FM-12+013899999V0202701N001012200019N0040001N1+03641+01751100751ADDAA106000091GF104991031021008001001021MA1999999099221MD1999999-0101REMSYN070AAXX  28184 82678 32596 42702 10364 20175 39922 40075 83202 333 59010;EQDQ01  00002PRCP06
0198826780999992002102900004-06770-043020FM-12+013899999V0209999C000012200019N0002001N1+03161+01821100891ADDAA106000091GF102991021011017501001001KA1240M+03761MA1999999099351MD1999999+0031REMSYN088AAXX  29004 82678 32792 20000 10316 20182 39935 40089 82100 333 10376 29046 55077 58003;EQDQ01  00002PRCP06
0186826780999992002102912004-06770-043020FM-12+013899999V0200501N002610450019N0040001N1+02891+02001101381ADDAA106000091GF107991031051008001021001KA1240N+02491MA1999999099821MD1999999-0011REMSYN076AAXX  29124 82678 32596 70505 10289 20200 39982 40138 83520 333 20249 59001;EQDQ01  00002PRCP06
0167826780999992002102918004-06770-043020FM-12+013899999V0200501N000510450019N0040001N1+03601+01721100831ADDAA106000091GF108991041081008001021011MA1999999099291MD1999999+0071REMSYN070AAXX  29184 82678 32596 80501 10360 20172 39929 40083 84821 333 58007;EQDQ01  00002PRCP06
0208826780999992002103000004-06770-043020FM-12+013899999V0202701N001012200019N0002001N1+02941+01881101031ADDAA106000091GA1001+999999999GF100991001001999999001001KA1240M+03731MA1999999099471MD1999999+0121REMSYN082AAXX  30004 82678 32992 02702 10294 20188 39947 40103 333 10373 29050 55062 58012;EQDQ01  00002PRCP06
0186826780999992002103012004-06770-043020FM-12+013899999V0200501N000510075019N0040001N1+02841+02041101351ADDAA106000091GF108991071051008001061999KA1240N+02471MA1999999099791MD1999999-0031REMSYN076AAXX  30124 82678 32596 80501 10284 20204 39979 40135 8756/ 333 20247 59003;EQDQ01  00002PRCP06
0167826780999992002103018004-06770-043020FM-12+013899999V0200901N001012200019N0040001N1+03581+01931100891ADDAA106000091GF105991031021008001001011MA1999999099341MD1999999+0051REMSYN070AAXX  30184 82678 32596 50902 10358 20193 39934 40089 83201 333 58005;EQDQ01  00002PRCP06
0208826780999992002103100004-06770-043020FM-12+013899999V0209999C000012200019N0002001N1+03141+01941100931ADDAA106000091GA1001+999999999GF100991001001999999001001KA1240M+03701MA1999999099381MD1999999-0091REMSYN082AAXX  31004 82678 32992 00000 10314 20194 39938 40093 333 10370 29050 55075 59009;EQDQ01  00002PRCP06
0186826780999992002103112004-06770-043020FM-12+013899999V0200501N001010075019N0040001N1+02961+01991101371ADDAA106000091GF108991051051008001051999KA1240N+02561MA1999999099821MD1999999+0031REMSYN076AAXX  31124 82678 32596 80502 10296 20199 39982 40137 8555/ 333 20256 58003;EQDQ01  00002PRCP06
0167826780999992002103118004-06770-043020FM-12+013899999V0202701N001512200019N0040001N1+03721+01771100681ADDAA106000091GF104991031021008001001011MA1999999099151MD1999999+0191REMSYN070AAXX  31184 82678 32596 42703 10372 20177 39915 40068 83201 333 58019;EQDQ01  00002PRCP06
0208826780999992002110100004-06770-043020FM-12+013899999V0209999C000012200019N0002001N1+03221+01731100931ADDAA106000091GA1001+999999999GF100991001001999999001001KA1240M+03841MA1999999099391MD1999999+0011REMSYN082AAXX  01004 82678 32992 00000 10322 20173 39939 40093 333 10384 29042 55083 58001;EQDQ01  00002PRCP06
0186826780999992002110112004-06770-043020FM-12+013899999V0200501N001510450019N0040001N1+02921+01981101441ADDAA106000091GF108991041051008001021011KA1240N+02561MA1999999099881MD1999999+0061REMSYN076AAXX  01124 82678 32596 80503 10292 20198 39988 40144 84521 333 20256 58006;EQDQ01  00002PRCP06
0167826780999992002110118004-06770-043020FM-12+013899999V0201801N002610075019N0040001N1+03671+01821100851ADDAA106000091GF106991051021008001001011MA1999999099311MD1999999+0161REMSYN070AAXX  01184 82678 32596 61805 10367 20182 39931 40085 85201 333 58016;EQDQ01  00002PRCP06
0208826780999992002110200004-06770-043020FM-12+013899999V0202301N001512200019N0002001N1+03211+01931101081ADDAA106000091GA1001+999999999GF100991001001999999001001KA1240M+03781MA1999999099531MD1999999+0141REMSYN082AAXX  02004 82678 32992 02303 10321 20193 39953 40108 333 10378 29046 55073 58014;EQDQ01  00002PRCP06
0209826780999992002110212004-06770-043020FM-12+013899999V0209999C000010075019N0040001N1+02541+02381101481ADDAY161061AY221061GF108991051051008001021001KA1240N+99999MA1999999099911MD1999999+0031MW1021REMSYN088AAXX  02124 82678 21596 80000 10254 20238 39991 40148 70262 85520 333 20271 58003 60084;EQDQ01 +02712ATMN  
0183826780999992002110218004-06770-043020FM-12+013899999V0200501N001519999999N0040001N1+03601+01901100861ADDAA106000091GF105991999021008001001001MA1999999099301MD1999999-0011REMSYN070AAXX  02184 82678 32596 50503 10360 20190 39930 40086 83200 333 59001;EQDQ01+000032SCOTLCQ02  00002PRCP06
0208826780999992002110300004-06770-043020FM-12+013899999V0209999C000012200019N0002001N1+03101+02201100861ADDAA106000091GA1001+999999999GF100991001001999999001001KA1240M+03661MA1999999099301MD1999999-0231REMSYN082AAXX  03004 82678 32992 00000 10310 20220 39930 40086 333 10366 29062 55064 59023;EQDQ01  00002PRCP06
0209826780999992002110312004-06770-043020FM-12+013899999V0209999C000010075019N0040001N1+02381+02241101511ADDAY161061AY221061GF108991999051008001001001KA1240N+02221MA1999999099931MD1999999+0021MW1031REMSYN088AAXX  03124 82678 21596 80000 10238 20224 39993 40151 70362 86500 333 20222 58002 60044;EQDQ01+000062SCOTLC
0190826780999992002110318004-06770-043020FM-12+013899999V0202701N000510075019N0040001N1+02681+02221101281ADDAY161061AY221061GF108991999021008001001001MA1999999099701MD1999999+0431MW1021REMSYN082AAXX  03184 82678 21596 82701 10268 20222 39970 40128 70262 86200 333 58043 69931;EQDQ01+000062SCOTLC
0208826780999992002110400004-06770-043020FM-12+013899999V0209999C000012200019N0002001N1+02501+02291101381ADDAA106000091GA1001+999999999GF100991001001999999001001KA1240M+03121MA1999999099791MD1999999+0491REMSYN082AAXX  04004 82678 32592 00000 10250 20229 39979 40138 333 10312 29089 55057 58049;EQDQ01  00002PRCP06
0162826780999992002110412004-06770-043020FM-12+013899999V0201801N000510075019N0040001N1+02621+02141101631ADDGF108991061051008001021999KA1240N+02271MA1999999100041MD1999999+0111REMSYN082AAXX  04124 82678 22596 81801 10262 20214 30004 40163 8652/ 333 20227 58011 69934;
0167826780999992002110418004-06770-043020FM-12+013899999V0202701N001510450019N0040001N1+03321+02041101031ADDAA106000091GF108991041021008001041091MA1999999099461MD1999999-0241REMSYN070AAXX  04184 82678 32596 82703 10332 20204 39946 40103 84249 333 59024;EQDQ01  00002PRCP06
0208826780999992002110500004-06770-043020FM-12+013899999V0201801N000512200019N0002001N1+02861+02161101251ADDAA106000091GA1001+999999999GF100991001001999999001001KA1240M+03451MA1999999099681MD1999999-0111REMSYN082AAXX  05004 82678 32992 01801 10286 20216 39968 40125 333 10345 29064 55044 59011;EQDQ01  00002PRCP06
0186826780999992002110512004-06770-043020FM-12+013899999V0200901N000510075019N0040001N1+02841+02071101621ADDAA106000091GF107991051051008001031011KA1240N+02401MA1999999100051MD1999999+0011REMSYN076AAXX  05124 82678 32596 70901 10284 20207 30005 40162 85531 333 20240 58001;EQDQ01  00002PRCP06
0167826780999992002110518004-06770-043020FM-12+013899999V0202701N000511050019N0040001N1+03581+01841101061ADDAA106000091GF105991031021008001001021MA1999999099511MD1999999+0051REMSYN070AAXX  05184 82678 32596 52701 10358 20184 39951 40106 83202 333 58005;EQDQ01  00002PRCP06
0208826780999992002110600004-06770-043020FM-12+013899999V0209999C000012200019N0002001N1+02981+02171101081ADDAA106000091GA1001+999999999GF100991001001999999001001KA1240M+03701MA1999999099521MD1999999-0161REMSYN082AAXX  06004 82678 32992 00000 10298 20217 39952 40108 333 10370 29056 55088 59016;EQDQ01  00002PRCP06
0186826780999992002110612004-06770-043020FM-12+013899999V0203601N001010075019N0040001N1+02901+02171101581ADDAA106000091GF108991051051008001031011KA1240N+02341MA1999999100021MD1999999-0031REMSYN076AAXX  06124 82678 32596 83602 10290 20217 30002 40158 85531 333 20234 59003;EQDQ01  00002PRCP06
0167826780999992002110618004-06770-043020FM-12+013899999V0203201N001012200019N0040001N1+03561+01911101051ADDAA106000091GF108991041021008001001011MA1999999099501MD1999999-0011REMSYN070AAXX  06184 82678 32596 83202 10356 20191 39950 40105 84201 333 59001;EQDQ01  00002PRCP06
0208826780999992002110700004-06770-043020FM-12+013899999V0209999C000012200019N0002001N1+03061+02171101301ADDAA106000091GA1001+999999999GF100991001001999999001001KA1240M+03641MA1999999099741MD1999999+0221REMSYN082AAXX  07004 82678 32992 00000 10306 20217 39974 40130 333 10364 29055 55076 58022;EQDQ01  00002PRCP06
0186826780999992002110712004-06770-043020FM-12+013899999V0203601N001510075019N0040001N1+02941+02111101571ADDAA106000091GF108991051051008001021999KA1240N+02481MA1999999100011MD1999999-0011REMSYN076AAXX  07124 82678 32596 83603 10294 20211 30001 40157 8552/ 333 20248 59001;EQDQ01  00002PRCP06
0167826780999992002110718004-06770-043020FM-12+013899999V0202301N001510450019N0040001N1+03201+02151101171ADDAA106000091GF108991011021008001031021MA1999999099611MD1999999+0111REMSYN070AAXX  07184 82678 32596 82303 10320 20215 39961 40117 81232 333 58011;EQDQ01  00002PRCP06
0208826780999992002110800004-06770-043020FM-12+013899999V0201401N001012200019N0002001N1+02701+02111101311ADDAA106000091GA1001+999999999GF100991001001999999001001KA1240M+03281MA1999999099741MD1999999+0001REMSYN082AAXX  08004 82678 32992 01402 10270 20211 39974 40131 333 10328 29064 55038 58000;EQDQ01  00002PRCP06
0186826780999992002110812004-06770-043020FM-12+013899999V0202301N000510450019N0040001N1+02761+02091101641ADDAA106000091GF107991031051008001071001KA1240N+02281MA1999999100061MD1999999+0051REMSYN076AAXX  08124 82678 32596 72301 10276 20209 30006 40164 83570 333 20228 58005;EQDQ01  00002PRCP06
0167826780999992002110818004-06770-043020FM-12+013899999V0200901N000510075019N0040001N1+03561+01991101081ADDAA106000091GF105991051051008001001001MA1999999099531MD1999999-0081REMSYN070AAXX  08184 82678 32596 50901 10356 20199 39953 40108 85500 333 59008;EQDQ01  00002PRCP06
0198826780999992002110900004-06770-043020FM-12+013899999V0209999C000010075019N0002001N1+02821+01941101251ADDAA106000091GF106991061051008001001001KA1240M+03591MA1999999099681MD1999999-0061REMSYN088AAXX  09004 82678 32592 60000 10282 20194 39968 40125 86500 333 10359 29056 55069 59006;EQDQ01  00002PRCP06
0203826780999992002110912004-06770-043020FM-12+013899999V0202301N001010450019N0040001N1+02681+02261101731ADDAY111061AY261061GF108991041051008001031011KA1240N+02191MA1999999100151MD1999999+0091REMSYN088AAXX  09124 82678 21596 82302 10268 20226 30015 40173 77016 84531 333 20219 58009 60104;EQDQ01+000702PRSWM1
0167826780999992002110918004-06770-043020FM-12+013899999V0201801N000511050019N0040001N1+03341+02151101171ADDAA106000091GF106991041021008001001021MA1999999099611MD1999999+0081REMSYN070AAXX  09184 82678 32596 61801 10334 20215 39961 40117 84202 333 58008;EQDQ01  00002PRCP06
0208826780999992002111000004-06770-043020FM-12+013899999V0209999C000012200019N0002001N1+02521+02191101371ADDAA106000091GA1001+999999999GF100991001001999999001001KA1240M+03471MA1999999099791MD1999999+0111REMSYN082AAXX  10004 82678 32992 00000 10252 20219 39979 40137 333 10347 29073 55077 58011;EQDQ01  00002PRCP06
0186826780999992002111012004-06770-043020FM-12+013899999V0200901N000512200019N0040001N1+02941+02141101631ADDAA106000091GF103991011011008001031001KA1240N+02221MA1999999100561MD1999999-0101REMSYN076AAXX  10124 82678 32596 30901 10294 20214 30056 40163 81130 333 20222 59010;EQDQ01  00002PRCP06
0183826780999992002111018004-06770-043020FM-12+013899999V0202701N000510075019N0040001N1+03581+01791101101ADDAA106000091GF105991051051008001001001MA1999999099542MD1999999-0071REMSYN070AAXX  10184 82678 32596 52701 10358 20179 39954 40110 85500 333 59007;EQDQ01+099543APOSP Q02  00002PRCP06
0208826780999992002111100004-06770-043020FM-12+013899999V0209999C000012200019N0002001N1+02941+02141101181ADDAA106000091GA1001+999999999GF100991001001999999001001KA1240M+03641MA1999999099621MD1999999-0171REMSYN082AAXX  11004 82678 32992 00000 10294 20214 39962 40118 333 10364 29055 55101 59017;EQDQ01  00002PRCP06
0186826780999992002111112004-06770-043020FM-12+013899999V0202301N000512200019N0040001N1+02881+02161101091ADDAA106000091GF105991031011008001001011KA1240N+02201MA1999999100021MD1999999-0031REMSYN076AAXX  11124 82678 32596 52301 10288 20216 30002 40109 83101 333 20220 59003;EQDQ01  00002PRCP06
0167826780999992002111118004-06770-043020FM-12+013899999V0203201N000512200019N0040001N1+03601+01721101071ADDAA106000091GF104991041011008001001001MA1999999099521MD1999999-0021REMSYN070AAXX  11184 82678 32596 43201 10360 20172 39952 40107 84100 333 59002;EQDQ01  00002PRCP06
0198826780999992002111200004-06770-043020FM-12+013899999V0209999C000012200019N0002001N1+03021+02161101091ADDAA106000091GF102991021001017501031001KA1240M+03661MA1999999099531MD1999999-0091REMSYN088AAXX  12004 82678 32792 20000 10302 20216 39953 40109 82030 333 10366 29054 55114 59009;EQDQ01  00002PRCP06
0186826780999992002111212004-06770-043020FM-12+013899999V0200501N001512200019N0040001N1+03041+02091101551ADDAA106000091GF105991031021008001001011KA1240N+02441MA1999999099991MD1999999-0031REMSYN076AAXX  12124 82678 32596 50503 10304 20209 39999 40155 83201 333 20244 59003;EQDQ01  00002PRCP06
0167826780999992002111218004-06770-043020FM-12+013899999V0202701N001011050019N0040001N1+03681+01841100951ADDAA106000091GF105991031021008001001021MA1999999099411MD1999999-0111REMSYN070AAXX  12184 82678 32596 52702 10368 20184 39941 40095 83202 333 59011;EQDQ01  00002PRCP06
0198826780999992002111300004-06770-043020FM-12+013899999V0209999C000012200019N0002001N1+03121+01991101131ADDAA106000091GF103991021021008001001011KA1240M+03741MA1999999099581MD1999999+0051REMSYN088AAXX  13004 82678 32592 30000 10312 20199 39958 40113 82201 333 10374 29048 55100 58005;EQDQ01  00002PRCP06
0186826780999992002111312004-06770-043020FM-12+013899999V0200501N003612200019N0040001N1+03221+01431101581ADDAA106000091GF104991021011008001001011KA1240N+02701MA1999999100031MD1999999+0041REMSYN076AAXX  13124 82678 32596 40507 10322 20143 30003 40158 82101 333 20270 58004;EQDQ01  00002PRCP06
0167826780999992002111318004-06770-043020FM-12+013899999V0201401N002612200019N0040001N1+03691+01531101091ADDAA106000091GF104991041021008001001001MA1999999099551MD1999999+0141REMSYN070AAXX  13184 82678 32596 41405 10369 20153 39955 40109 84200 333 58014;EQDQ01  00002PRCP06
0198826780999992002111400004-06770-043020FM-12+013899999V0201401N001510075019N0020001N1+03301+01361101211ADDAA106000091GF107991051051008001031001KA1240M+03791MA1999999099671MD1999999+0091REMSYN088AAXX  14004 82678 32595 71403 10330 20136 39967 40121 85530 333 10379 29031 55100 58009;EQDQ01  00002PRCP06
0186826780999992002111412004-06770-043020FM-12+013899999V0200901N001512200019N0040001N1+03241+01501101551ADDAA106000091GF102991021011008001001001KA1240N+02701MA1999999100011MD1999999-0021REMSYN076AAXX  14124 82678 32596 20903 10324 20150 30001 40155 82100 333 20270 59002;EQDQ01  00002PRCP06
0167826780999992002111418004-06770-043020FM-12+013899999V0201401N002610075019N0040001N1+03741+01401101061ADDAA106000091GF105991051021008001001001MA1999999099531MD1999999-0021REMSYN070AAXX  14184 82678 32596 51405 10374 20140 39953 40106 85200 333 59002;EQDQ01  00002PRCP06
0198826780999992002111500004-06770-043020FM-12+013899999V0201801N001010150019N0002001N1+03261+01381101221ADDAA106000091GF105991051001017501031001KA1240M+03901MA1999999099681MD1999999+0011REMSYN088AAXX  15004 82678 32792 51802 10326 20138 39968 40122 85030 333 10390 29031 55109 58001;EQDQ01  00002PRCP06
0186826780999992002111512004-06770-043020FM-12+013899999V0200901N002611050019N0040001N1+03161+01821101511ADDAA106000091GF105991031021008001001021KA1240N+02541MA1999999099961MD1999999-0011REMSYN076AAXX  15124 82678 32596 50905 10316 20182 39996 40151 83202 333 20254 59001;EQDQ01  00002PRCP06
0167826780999992002111518004-06770-043020FM-12+013899999V0200901N001512200019N0040001N1+03781+01671100981ADDAA106000091GF105991021021008001001011MA1999999099441MD1999999-0091REMSYN070AAXX  15184 82678 32596 50903 10378 20167 39944 40098 82201 333 59009;EQDQ01  00002PRCP06
0208826780999992002111600004-06770-043020FM-12+013899999V0209999C000012200019N0002001N1+02961+01841101141ADDAA106000091GA1001+999999999GF100991001001999999001001KA1240M+03781MA1999999099591MD1999999-0091REMSYN082AAXX  16004 82678 32992 00000 10296 20184 39959 40114 333 10378 29044 55104 59009;EQDQ01  00002PRCP06
0186826780999992002111612004-06770-043020FM-12+013899999V0200901N001512200019N0040001N1+03291+01441101511ADDAA106000091GF102991011011008001001011KA1240N+02321MA1999999099961MD1999999+0001REMSYN076AAXX  16124 82678 32596 20903 10329 20144 39996 40151 81101 333 20232 58000;EQDQ01  00002PRCP06
0167826780999992002111618004-06770-043020FM-12+013899999V0201801N001012200019N0040001N1+03771+01361100951ADDAA106000091GF104991041021008001001001MA1999999099411MD1999999-0031REMSYN070AAXX  16184 82678 32596 41802 10377 20136 39941 40095 84200 333 59003;EQDQ01  00002PRCP06
0208826780999992002111700004-06770-043020FM-12+013899999V0209999C000012200019N0002001N1+02951+01851101091ADDAA106000091GA1001+999999999GF100991001001999999001001KA1240M+03831MA1999999099541MD1999999-0051REMSYN082AAXX  17004 82678 32992 00000 10295 20185 39954 40109 333 10383 29040 55109 59005;EQDQ01  00002PRCP06
0202826780999992002111712004-06770-043020FM-12+013899999V0200501N001510075019N0040001N1+03001+02141101481ADDAA106000091GF106991999021008001001001KA1240N+02331MA1999999099921MD1999999-0041REMSYN076AAXX  17124 82678 32596 60503 10300 20214 39992 40148 85200 333 20233 59004;EQDQ01+000052SCOTLCQ02  00002PRCP06
0167826780999992002111718004-06770-043020FM-12+013899999V0200501N001510075019N0040001N1+03641+01651100941ADDAA106000091GF105991051021008001001001MA1999999099391MD1999999-0021REMSYN070AAXX  17184 82678 32596 50503 10364 20165 39939 40094 85200 333 59002;EQDQ01  00002PRCP06
0214826780999992002111800004-06770-043020FM-12+013899999V0202301N001010075019N0002001N1+03121+01921101131ADDAA106000091GF106991999051008001001001KA1240M+03781MA1999999099581MD1999999+0051REMSYN088AAXX  18004 82678 32592 62302 10312 20192 39958 40113 85500 333 10378 29047 55102 58005;EQDQ01+000052SCOTLCQ02  00002PRCP06
0190826780999992002111812004-06770-043020FM-12+013899999V0200501N001012200019N0040001N1+03081+02131101441ADDAY161061AY221061GF104991021051008001001011KA1240N+02411MA1999999099891MD1999999-0031MW1011REMSYN088AAXX  18124 82678 21596 40502 10308 20213 39989 40144 70162 82501 333 20241 59003 69944;
0167826780999992002111818004-06770-043020FM-12+013899999V0201401N001012200019N0040001N1+03721+01721100851ADDAA106000091GF105991041021008001001011MA1999999099311MD1999999-0081REMSYN070AAXX  18184 82678 32596 51402 10372 20172 39931 40085 84201 333 59008;EQDQ01  00002PRCP06
0198826780999992002111900004-06770-043020FM-12+013899999V0209999C000012200019N0002001N1+03181+01911100991ADDAA106000091GF104991031021008001001021KA1240M+03911MA1999999099451MD1999999-0141REMSYN088AAXX  19004 82678 32592 40000 10318 20191 39945 40099 83202 333 10391 29055 55097 59014;EQDQ01  00002PRCP06
0186826780999992002111912004-06770-043020FM-12+013899999V0200501N003112200019N0040001N1+03121+01991101451ADDAA106000091GF104991041011008001001001KA1240N+02551MA1999999099901MD1999999+0011REMSYN076AAXX  19124 82678 32596 40506 10312 20199 39990 40145 84100 333 20255 58001;EQDQ01  00002PRCP06
0167826780999992002111918004-06770-043020FM-12+013899999V0202301N001512200019N0040001N1+03811+01571100841ADDAA106000091GF104991041011008001001001MA1999999099311MD1999999+0001REMSYN070AAXX  19184 82678 32596 42303 10381 20157 39931 40084 84100 333 58000;EQDQ01  00002PRCP06
0214826780999992002112000004-06770-043020FM-12+013899999V0201401N000510075019N0002001N1+03271+01761101121ADDAA106000091GF106991999051008001001001KA1240M+03881MA1999999099581MD1999999+0131REMSYN088AAXX  20004 82678 32592 61401 10327 20176 39958 40112 85500 333 10388 29040 55106 58013;EQDQ01+000052SCOTLCQ02  00002PRCP06
0186826780999992002112012004-06770-043020FM-12+013899999V0203601N001512200019N0040001N1+03071+02141101391ADDAA106000091GF105991041011008001001011KA1240N+02461MA1999999099841MD1999999-0061REMSYN076AAXX  20124 82678 32596 53603 10307 20214 39984 40139 84101 333 20246 59006;EQDQ01  00002PRCP06
0183826780999992002112018004-06770-043020FM-12+013899999V0203601N001019999999N0040001N1+03681+01881100901ADDAA106000091GF105991999021008001001001MA1999999099361MD1999999+0051REMSYN070AAXX  20184 82678 32596 53602 10368 20188 39936 40090 84200 333 58005;EQDQ01+000042SCOTLCQ02  00002PRCP06
0198826780999992002112100004-06770-043020FM-12+013899999V0202701N001012200019N0002001N1+03181+02041100951ADDAA106000091GF103991031001017501031001KA1240M+03701MA1999999099411MD1999999-0171REMSYN088AAXX  21004 82678 32792 32702 10318 20204 39941 40095 83030 333 10370 29049 55105 59017;EQDQ01  00002PRCP06
0186826780999992002112112004-06770-043020FM-12+013899999V0200501N001010075019N0040001N1+03061+02171101521ADDAA106000091GF108991051021008001001011KA1240N+02511MA1999999099971MD1999999+0131REMSYN076AAXX  21124 82678 32596 80502 10306 20217 39997 40152 85201 333 20251 58013;EQDQ01  00002PRCP06
0167826780999992002112118004-06770-043020FM-12+013899999V0200201N001511050019N0040001N1+03741+01841100931ADDAA106000091GF105991021011008001031011MA1999999099391MD1999999+0031REMSYN070AAXX  21184 82678 32596 50203 10374 20184 39939 40093 82131 333 58003;EQDQ01  00002PRCP06
0208826780999992002112200004-06770-043020FM-12+013899999V0209999C000012200019N0040001N1+03181+02041100971ADDAA106000091GA1001+999999999GF100991001001999999001001KA1240M+03741MA1999999099431MD1999999+0031REMSYN082AAXX  22004 82678 32996 00000 10318 20204 39943 40097 333 10374 29048 55101 58003;EQDQ01  00002PRCP06
0186826780999992002112212004-06770-043020FM-12+013899999V0200501N002110450019N0040001N1+02921+02171101521ADDAA106000091GF108991041051008001011011KA1240N+02361MA1999999099961MD1999999-0011REMSYN076AAXX  22124 82678 32596 80504 10292 20217 39996 40152 84511 333 20236 59001;EQDQ01  00002PRCP06
0167826780999992002112218004-06770-043020FM-12+013899999V0201401N006710120019N0040001N1+03691+02431100971ADDAA106000091GF106991051081008001001011MA1999999099441MD1999999+0051REMSYN070AAXX  22184 82678 32596 61413 10369 20243 39944 40097 85801 333 58005;EQDQ01  00002PRCP06
0198826780999992002112300004-06770-043020FM-12+013899999V0202301N001510075019N0002001N1+02801+02251101211ADDAA106000091GF108991081051008001999999KA1240M+03701MA1999999099651MD1999999+0221REMSYN088AAXX  23004 82678 32592 82303 10280 20225 39965 40121 885// 333 10370 29064 55064 58022;EQDQ01  00002PRCP06
0209826780999992002112312004-06770-043020FM-12+013899999V0202701N000510075019N0040001N1+02501+02251101631ADDAY161061AY221061GF108991999051008001001001KA1240N+02301MA1999999100051MD1999999+0091MW1031REMSYN088AAXX  23124 82678 21596 82701 10250 20225 30005 40163 70362 86500 333 20230 58009 60034;EQDQ01+000062SCOTLC
0190826780999992002112318004-06770-043020FM-12+013899999V0202701N000519999999N0040001N1+02681+02281101241ADDAY161061AY291061GF107991999051008001021001MA1999999099661MD1999999+0221MW1911REMSYN082AAXX  23184 82678 21596 72701 10268 20228 39966 40124 79169 88520 333 58022 60081;EQDQ01+000082SCOTLC
0179826780999992002112400004-06770-043020FM-12+013899999V0201801N000512200019N0002001N1+02861+02371101251ADDAA106000021GF103991031051008001001001KA1240M+03411MA1999999099671MD1999999+0021REMSYN088AAXX  24004 82678 32592 31801 10286 20237 39967 40125 83500 333 10341 29079 55050 58002;
0167826780999992002112418004-06770-043020FM-12+013899999V0203201N001512200019N0040001N1+03561+01951100941ADDAA106000091GF105991031021008001001011MA1999999099401MD1999999-0261REMSYN070AAXX  24184 82678 32596 53203 10356 20195 39940 40094 83201 333 59026;EQDQ01  00002PRCP06
0202826780999992002112500004-06770-043020FM-12+013899999V0209999C000010075019N0002001N1+02681+02281101271ADDAY161061AY211061GF108991051051008001031999KA1240M+03661MA1999999099711MD1999999+0041MW1021REMSYN100AAXX  25004 82678 21592 80000 10268 20228 39971 40127 70261 8553/ 333 10366 29065 55084 58004 60021;
0162826780999992002112512004-06770-043020FM-12+013899999V0203201N001512200019N0040001N1+02921+02341101561ADDGF102991021021008001001001KA1240N+02221MA1999999099991MD1999999+0001REMSYN082AAXX  25124 82678 22596 23203 10292 20234 39999 40156 82200 333 20222 58000 60024;
0167826780999992002112518004-06770-043020FM-12+013899999V0201401N001010075019N0040001N1+03691+01791100941ADDAA106000091GF105991051021008001001001MA1999999099401MD1999999+0001REMSYN070AAXX  25184 82678 32596 51402 10369 20179 39940 40094 85200 333 58000;EQDQ01  00002PRCP06
0198826780999992002112600004-06770-043020FM-12+013899999V0201801N000510075019N0020001N1+03151+01971101131ADDAA106000091GF105991051021008001001001KA1240M+03921MA1999999099581MD1999999-0131REMSYN088AAXX  26004 82678 32595 51801 10315 20197 39958 40113 85200 333 10392 29051 55103 59013;EQDQ01  00002PRCP06
0186826780999992002112612004-06770-043020FM-12+013899999V0209999C000010075019N0040001N1+02921+02191101571ADDAA106000091GF108991071051008001061999KA1240N+02601MA1999999100011MD1999999+0021REMSYN076AAXX  26124 82678 32596 80000 10292 20219 30001 40157 8756/ 333 20260 58002;EQDQ01  00002PRCP06
0171826780999992002112618004-06770-043020FM-12+013899999V0200901N001510075019N0040001N1+03701+01761100951ADDAY161061AY221061GF105991051051008001001001MA1999999099421MD1999999+0021MW1011REMSYN082AAXX  26184 82678 21596 50903 10370 20176 39942 40095 70162 85500 333 58002 60021;
0198826780999992002112700004-06770-043020FM-12+013899999V0202301N001510075019N0002001N1+03181+02131101061ADDAA106000091GF108991081051008001999999KA1240M+03861MA1999999099511MD1999999-0071REMSYN088AAXX  27004 82678 32592 82303 10318 20213 39951 40106 885// 333 10386 29051 55092 59007;EQDQ01  00002PRCP06
0162826780999992002112712004-06770-043020FM-12+013899999V0200501N001010075019N0040001N1+03041+02061101451ADDGF108991051051008001061011KA1240N+02661MA1999999099881MD1999999-0131REMSYN082AAXX  27124 82678 22596 80502 10304 20206 39988 40145 85561 333 20266 59013 60024;
0167826780999992002112718004-06770-043020FM-12+013899999V0200901N001010075019N0040001N1+03661+01911100911ADDAA106000091GF108991061051008001001011MA1999999099371MD1999999-0051REMSYN070AAXX  27184 82678 32596 80902 10366 20191 39937 40091 86501 333 59005;EQDQ01  00002PRCP06
0214826780999992002112800004-06770-043020FM-12+013899999V0209999C000012200019N0002001N1+03161+01921101051ADDAA106000091GF104991999021008001001001KA1240M+03721MA1999999099501MD1999999-0011REMSYN088AAXX  28004 82678 32592 40000 10316 20192 39950 40105 83200 333 10372 29047 55050 59001;EQDQ01+000032SCOTLCQ02  00002PRCP06
0186826780999992002112812004-06770-043020FM-12+013899999V0200501N002611050019N0040001N1+03251+02001101281ADDAA106000091GF105991021021008001031011KA1240N+02671MA1999999099741MD1999999-0141REMSYN076AAXX  28124 82678 32596 50505 10325 20200 39974 40128 82231 333 20267 59014;EQDQ01  00002PRCP06
0167826780999992002112818004-06770-043020FM-12+013899999V0200501N002110120019N0040001N1+03731+01821100721ADDAA106000091GF106991051081008001001021MA1999999099191MD1999999-0181REMSYN070AAXX  28184 82678 32596 60504 10373 20182 39919 40072 85802 333 59018;EQDQ01  00002PRCP06
0226826780999992002112900004-06770-043020FM-12+013899999V0200501N002112200019N0002001N1+03161+01821101011ADDAA106000091AY121061AY291061GF103991031041008001001001KA1240M+03861MA1999999099471MD1999999-0031MW1021REMSYN094AAXX  29004 82678 31592 30504 10316 20182 39947 40101 70229 83400 333 10386 29043 55079 59003;EQDQ01  00002PRCP06
0186826780999992002112912004-06770-043020FM-12+013899999V0200301N030810075019N0040001N1+02781+02251101481ADDAA106000091GF108991051051008001071999KA1240N+02651MA1999999099921MD1999999+0181REMSYN076AAXX  29124 82678 32596 80360 10278 20225 39992 40148 8557/ 333 20265 58018;EQDQ01  00002PRCP06
0167826780999992002112918004-06770-043020FM-12+013899999V0203601N001010075019N0040001N1+03561+01951100931ADDAA106000091GF107991051051008001031001MA1999999099401MD1999999+0211REMSYN070AAXX  29184 82678 32596 73602 10356 20195 39940 40093 85530 333 58021;EQDQ01  00002PRCP06
0198826780999992002113000004-06770-043020FM-12+013899999V0209999C000012200019N0002001N1+03001+02111100981ADDAA106000091GF103991031021017501001001KA1240M+03741MA1999999099421MD1999999-0051REMSYN088AAXX  30004 82678 32792 30000 10300 20211 39942 40098 83200 333 10374 29058 55052 59005;EQDQ01  00002PRCP06
0202826780999992002113012004-06770-043020FM-12+013899999V0203601N001512200019N0040001N1+03101+02151101471ADDAA106000091GF103991999021008001001001KA1240N+02741MA1999999099911MD1999999-0011REMSYN076AAXX  30124 82678 32596 33603 10310 20215 39991 40147 82200 333 20274 59001;EQDQ01+000022SCOTLCQ02  00002PRCP06
0167826780999992002113018004-06770-043020FM-12+013899999V0203601N001512200019N0040001N1+03681+01791100941ADDAA106000091GF104991021021008001001021MA1999999099401MD1999999+0001REMSYN070AAXX  30184 82678 32596 43603 10368 20179 39940 40094 82202 333 58000;EQDQ01  00002PRCP06
0198826780999992002120100004-06770-043020FM-12+013899999V0209999C000010450019N0040001N1+03181+01871101181ADDAA106000091GF105991031051008001031999KA1240M+03781MA1999999099641MD1999999+0221REMSYN088AAXX  01004 82678 32596 50000 10318 20187 39964 40118 8353/ 333 10378 29046 55073 58022;EQDQ01  00002PRCP06
0186826780999992002120112004-06770-043020FM-12+013899999V0202301N000511050019N0040001N1+03001+02111101471ADDAA106000091GF105991021021008001001021KA1240N+02361MA1999999099921MD1999999+0011REMSYN076AAXX  01124 82678 32596 52301 10300 20211 39992 40147 82202 333 20236 58001;EQDQ01  00002PRCP06
0186826780999992002120212004-06770-043020FM-12+013899999V0203601N000510150019N0040001N1+02981+02151101461ADDAA106000091GF105991051001017501031001KA1240N+02341MA1999999099901MD1999999-0021REMSYN076AAXX  02124 82678 32796 53601 10298 20215 39990 40146 85030 333 20234 59002;EQDQ01  00002PRCP06
0167826780999992002120218004-06770-043020FM-12+013899999V0201801N000510075019N0040001N1+03741+01791100941ADDAA106000091GF105991051021008001001001MA1999999099391MD1999999+0051REMSYN070AAXX  02184 82678 32596 51801 10374 20179 39939 40094 85200 333 58005;EQDQ01  00002PRCP06
0208826780999992002120300004-06770-043020FM-12+013899999V0203601N000512200019N0002001N1+03081+02161100961ADDAA106000091GA1001+999999999GF100991001001999999001001KA1240M+03921MA1999999099411MD1999999-0151REMSYN082AAXX  03004 82678 32992 03601 10308 20216 39941 40096 333 10392 29052 55103 59015;EQDQ01  00002PRCP06
0186826780999992002120312004-06770-043020FM-12+013899999V0201401N001010075019N0040001N1+02921+02121101471ADDAA106000091GF108991051051008001001011KA1240N+02581MA1999999099911MD1999999+0011REMSYN076AAXX  03124 82678 32596 81402 10292 20212 39991 40147 85501 333 20258 58001;EQDQ01  00002PRCP06
0167826780999992002120318004-06770-043020FM-12+013899999V0201801N001010075019N0040001N1+03581+01881100931ADDAA106000091GF105991051021008001001001MA1999999099391MD1999999+0001REMSYN070AAXX  03184 82678 32596 51802 10358 20188 39939 40093 85200 333 58000;EQDQ01  00002PRCP06
0208826780999992002120400004-06770-043020FM-12+013899999V0209999C000012200019N0002001N1+03161+01961101031ADDAA106000091GA1001+999999999GF100991001001999999001001KA1240M+03741MA1999999099481MD1999999+0071REMSYN082AAXX  04004 82678 32992 00000 10316 20196 39948 40103 333 10374 29049 55089 58007;EQDQ01  00002PRCP06
0186826780999992002120412004-06770-043020FM-12+013899999V0200501N001012200019N0040001N1+03151+02001101411ADDAA106000091GF104991041011008001001001KA1240N+02601MA1999999099861MD1999999-0051REMSYN076AAXX  04124 82678 32596 40502 10315 20200 39986 40141 84100 333 20260 59005;EQDQ01  00002PRCP06
0167826780999992002120418004-06770-043020FM-12+013899999V0202301N001012200019N0040001N1+03841+01671100801ADDAA106000091GF104991041021008001001001MA1999999099271MD1999999-0121REMSYN070AAXX  04184 82678 32596 42302 10384 20167 39927 40080 84200 333 59012;EQDQ01  00002PRCP06
0202826780999992002120500004-06770-043020FM-12+013899999V0202301N001512200019N0002001N1+03101+02091101051ADDAY161061AY211061GF101991001001999999001021KA1240M+03861MA1999999099501MD1999999+0021MW1011REMSYN100AAXX  05004 82678 21992 12303 10310 20209 39950 40105 70161 80002 333 10386 29047 55079 58002 69911;
0162826780999992002120512004-06770-043020FM-12+013899999V0203601N000512200019N0040001N1+03101+02181101421ADDGF103991031011008001001001KA1240N+02441MA1999999099871MD1999999+0011REMSYN082AAXX  05124 82678 22596 33601 10310 20218 39987 40142 83100 333 20244 58001 69914;
0212826780999992002120600004-06770-043020FM-12+013899999V0201801N001512200019N0020001N1+02981+01981101021ADDAY161061AY221061GA1001+999999999GF100991001001999999001001KA1240M+03901MA1999999099471MD1999999-0031MW1011REMSYN094AAXX  06004 82678 21995 01803 10298 20198 39947 40102 70162 333 10390 29050 55101 59003 60011;
0172826780999992002120612004-06770-043020FM-12+013899999V0203201N001512200019N0040001N1+02981+02151101261ADDGA1001+999999999GF100991001001999999001001KA1240N+02451MA1999999099701MD1999999-0171REMSYN076AAXX  06124 82678 22796 03203 10298 20215 39970 40126 333 20245 59017 60014;
0167826780999992002120618004-06770-043020FM-12+013899999V0202301N001012200019N0040001N1+03821+01911100711ADDAA106000091GF104991031021008001001011MA1999999099181MD1999999-0081REMSYN070AAXX  06184 82678 32596 42302 10382 20191 39918 40071 83201 333 59008;EQDQ01  00002PRCP06
0208826780999992002120700004-06770-043020FM-12+013899999V0209999C000012200019N0002001N1+03141+02071100781ADDAA106000091GA1001+999999999GF100991001001999999001001KA1240M+03911MA1999999099241MD1999999-0231REMSYN082AAXX  07004 82678 32992 00000 10314 20207 39924 40078 333 10391 29050 55112 59023;EQDQ01  00002PRCP06
0202826780999992002120712004-06770-043020FM-12+013899999V0203601N001510075019N0040001N1+02881+02131101421ADDAA106000091GF108991999051008001001001KA1240N+02621MA1999999099861MD1999999+0161REMSYN076AAXX  07124 82678 32596 83603 10288 20213 39986 40142 85500 333 20262 58016;EQDQ01+000052SCOTLCQ02  00002PRCP06
0183826780999992002120718004-06770-043020FM-12+013899999V0203201N003119999999N0040001N1+03401+01961100821ADDAA106000091GF108991999021008001001001MA1999999099281MD1999999+0101REMSYN070AAXX  07184 82678 32596 83206 10340 20196 39928 40082 84200 333 58010;EQDQ01+000042SCOTLCQ02  00002PRCP06
0198826780999992002120800004-06770-043020FM-12+013899999V0202301N000512200019N0005001N1+03011+02111100971ADDAA106000091GF102991021001017501021001KA1240M+03511MA1999999099421MD1999999+0181REMSYN088AAXX  08004 82678 32793 22301 10301 20211 39942 40097 82020 333 10351 29056 55043 58018;EQDQ01  00002PRCP06
0186826780999992002120812004-06770-043020FM-12+013899999V0203601N001510075019N0200001N1+02801+02131101311ADDAA106000091GF108991081051008001999999KA1240N+02641MA1999999099751MD1999999-0111REMSYN076AAXX  08124 82678 32598 83603 10280 20213 39975 40131 885// 333 20264 59011;EQDQ01  00002PRCP06
0171826780999992002120818004-06770-043020FM-12+013899999V0201801N000510075019N0040001N1+02381+02291101191ADDAY161061AY221061GF108991051051008001021999MA1999999099611MD1999999+0331MW1611REMSYN082AAXX  08184 82678 21596 81801 10238 20229 39961 40119 76162 8552/ 333 58033 60151;
0202826780999992002120900004-06770-043020FM-12+013899999V0200501N001010075019N0002001N1+02421+02331101231ADDAY161061AY221061GF108991061051008001021999KA1240M+03011MA1999999099651MD1999999+0231MW1021REMSYN100AAXX  09004 82678 21592 80502 10242 20233 39965 40123 70262 8652/ 333 10301 29088 55000 58023 69921;
0209826780999992002120912004-06770-043020FM-12+013899999V0209999C000010075019N0040001N1+02301+02221101601ADDAY161061AY201061GF108991081051008001999999KA1240N+02181MA1999999100001MD1999999+0251MW1161REMSYN088AAXX  09124 82678 21596 80000 10230 20222 30000 40160 71667 885// 333 20218 58025 60754;EQDQ01+000072PSTWM2
0171826780999992002120918004-06770-043020FM-12+013899999V0209999C000010075019N0040001N1+02801+02251101271ADDAY161061AY221061GF108991081051008001999999MA1999999099691MD1999999+0081MW1011REMSYN082AAXX  09184 82678 21596 80000 10280 20225 39969 40127 70162 885// 333 58008 69941;
0214826780999992002121000004-06770-043020FM-12+013899999V0209999C000019999999N0002001N1+02621+02311101421ADDAA106000091GF105991999011008001001001KA1240M+02941MA1999999099831MD1999999+0181REMSYN088AAXX  10004 82678 32592 50000 10262 20231 39983 40142 82100 333 10294 29083 55002 58018;EQDQ01+000022SCOTLCQ02  00002PRCP06
0190826780999992002121012004-06770-043020FM-12+013899999V0202701N001010450019N0040001N1+02551+02291101671ADDAY161061AY221061GF108991031051008001021021KA1240N+02281MA1999999100081MD1999999+0081MW1021REMSYN088AAXX  10124 82678 21596 82702 10255 20229 30008 40167 70262 83522 333 20228 58008 60024;
0167826780999992002121018004-06770-043020FM-12+013899999V0202301N001510450019N0040001N1+03331+02141101171ADDAA106000091GF106991031021008001021011MA1999999099611MD1999999-0081REMSYN070AAXX  10184 82678 32596 62303 10333 20214 39961 40117 83221 333 59008;EQDQ01  00002PRCP06
0202826780999992002121100004-06770-043020FM-12+013899999V0202301N001510075019N0002001N1+02501+02321101541ADDAY191061AY261061GF108991081041008001999999KA1240M+03421MA1999999099951MD1999999+0121MW1021REMSYN100AAXX  11004 82678 21592 82303 10250 20232 39995 40154 70296 884// 333 10342 29079 55064 58012 60051;
0190826780999992002121112004-06770-043020FM-12+013899999V0202701N000510075019N0040001N1+02581+02271101751ADDAY161061AY221061GF108991061051008001061999KA1240N+02381MA1999999100161MD1999999+0081MW1031REMSYN088AAXX  11124 82678 21596 82701 10258 20227 30016 40175 70362 8656/ 333 20238 58008 60054;
0171826780999992002121118004-06770-043020FM-12+013899999V0200901N000510450019N0040001N1+02801+02271101421ADDAY161061AY221061GF107991041051008001071021MA1999999099841MD1999999+0231MW1011REMSYN082AAXX  11184 82678 21596 70901 10280 20227 39984 40142 70162 84572 333 58023 69971;
0198826780999992002121200004-06770-043020FM-12+013899999V0202701N001012200019N0002001N1+02641+02331101431ADDAA106000091GF104991041021017501001001KA1240M+03111MA1999999099851MD1999999-0101REMSYN088AAXX  12004 82678 32792 42702 10264 20233 39985 40143 84200 333 10311 29080 55026 59010;EQDQ01  00002PRCP06
0162826780999992002121212004-06770-043020FM-12+013899999V0202301N001010450019N0040001N1+02761+02241101631ADDGF108991041051008001031011KA1240N+02241MA1999999100051MD1999999-0111REMSYN082AAXX  12124 82678 22596 82302 10276 20224 30005 40163 84531 333 20224 59011 69974;
0167826780999992002121218004-06770-043020FM-12+013899999V0209999C000012200019N0040001N1+03401+02181101071ADDAA106000091GF103991021021008001001011MA1999999099511MD1999999-0331REMSYN070AAXX  12184 82678 32596 30000 10340 20218 39951 40107 82201 333 59033;EQDQ01  00002PRCP06
0198826780999992002121300004-06770-043020FM-12+013899999V0209999C000012200019N0040001N1+02981+02421101211ADDAA106000091GF104991021021008001001021KA1240M+03551MA1999999099651MD1999999-0201REMSYN088AAXX  13004 82678 32596 40000 10298 20242 39965 40121 82202 333 10355 29068 55084 59020;EQDQ01  00002PRCP06
0186826780999992002121312004-06770-043020FM-12+013899999V0203601N000510075019N0040001N1+02521+02231101591ADDAA106000091GF108991051051008001021999KA1240N+02381MA1999999100011MD1999999-0041REMSYN076AAXX  13124 82678 32596 83601 10252 20223 30001 40159 8552/ 333 20238 59004;EQDQ01  00002PRCP06
0208826780999992002121400004-06770-043020FM-12+013899999V0209999C000012200019N0002001N1+02871+02481101191ADDAA106000091GA1001+999999999GF100991001001999999001001KA1240M+03461MA1999999099621MD1999999-0031REMSYN082AAXX  14004 82678 32992 00000 10287 20248 39962 40119 333 10346 29073 55053 59003;EQDQ01  00002PRCP06
0186826780999992002121412004-06770-043020FM-12+013899999V0200501N000510450019N0040001N1+03001+02391101561ADDAA106000091GF105991041051008001031001KA1240N+02481MA1999999100001MD1999999-0011REMSYN076AAXX  14124 82678 32596 50501 10300 20239 30000 40156 84530 333 20248 59001;EQDQ01  00002PRCP06
0167826780999992002121418004-06770-043020FM-12+013899999V0200501N000510075019N0040001N1+03561+02031101071ADDAA106000091GF105991051021008001001001MA1999999099521MD1999999+0001REMSYN070AAXX  14184 82678 32596 50501 10356 20203 39952 40107 85200 333 58000;EQDQ01  00002PRCP06
0198826780999992002121500004-06770-043020FM-12+013899999V0209999C000010150019N0002001N1+03021+02341101111ADDAA106000091GF105991051001017501031001KA1240M+03651MA1999999099561MD1999999-0061REMSYN088AAXX  15004 82678 32792 50000 10302 20234 39956 40111 85030 333 10365 29061 55106 59006;EQDQ01  00002PRCP06
0202826780999992002121512004-06770-043020FM-12+013899999V0200901N001012200019N0040001N1+03081+02131101451ADDAA106000091GF102991021011008001001001KA1240N+02461MA1999999999999MD1999999-0111REMSYN076AAXX  15124 82678 32596 20902 10308 20213 39484 40145 82100 333 20246 59011;EQDQ01  00002PRCP06Q02 094843APOSP 
0183826780999992002121518004-06770-043020FM-12+013899999V0203601N001010075019N0040001N1+03541+01971100971ADDAA106000091GF105991051021008001001001MA1999999099422MD1999999-0101REMSYN070AAXX  15184 82678 32596 53602 10354 20197 39942 40097 85200 333 59010;EQDQ01+099423APOSP Q02  00002PRCP06
0214826780999992002121600004-06770-043020FM-12+013899999V0209999C000012200019N0002001N1+03041+02331101051ADDAA106000091GF104991999021008001001001KA1240M+03701MA1999999099501MD1999999-0061REMSYN088AAXX  16004 82678 32592 40000 10304 20233 39950 40105 82200 333 10370 29057 55110 59006;EQDQ01+000022SCOTLCQ02  00002PRCP06
0186826780999992002121612004-06770-043020FM-12+013899999V0203201N001511050019N0040001N1+03081+02291101381ADDAA106000091GF105991021021008001001021KA1240N+02501MA1999999099831MD1999999-0061REMSYN076AAXX  16124 82678 32596 53203 10308 20229 39983 40138 82202 333 20250 59006;EQDQ01  00002PRCP06
0198826780999992002121700004-06770-043020FM-12+013899999V0209999C000012200019N0002001N1+02901+02491101041ADDAA106000091GF105991041051008001001011KA1240M+03721MA1999999099491MD1999999-0011REMSYN088AAXX  17004 82678 32592 50000 10290 20249 39949 40104 84501 333 10372 29062 55091 59001;EQDQ01  00002PRCP06
0186826780999992002121712004-06770-043020FM-12+013899999V0200501N000510450019N0040001N1+03081+02371101331ADDAA106000091GF106991031011008001031011KA1240N+02541MA1999999099771MD1999999-0061REMSYN076AAXX  17124 82678 32596 60501 10308 20237 39977 40133 83131 333 20254 59006;EQDQ01  00002PRCP06
0167826780999992002121718004-06770-043020FM-12+013899999V0202301N001511050019N0040001N1+03381+01381101011ADDAA106000091GF106991041051008001001021MA1999999099461MD1999999+0131REMSYN070AAXX  17184 82678 32596 62303 10338 20138 39946 40101 84502 333 58013;EQDQ01  00002PRCP06
0221826780999992002121800004-06770-043020FM-12+013899999V0202301N000510075019N0002001N1+02421+02281101261ADDAY161061AY291061GF108991999051008001001001KA1240M+03551MA1999999099691MD1999999+0201MW1911REMSYN100AAXX  18004 82678 21592 82301 10242 20228 39969 40126 79169 86500 333 10355 29076 55100 58020 60151;EQDQ01+000062SCOTLC
0190826780999992002121812004-06770-043020FM-12+013899999V0202301N001010075019N0040001N1+02621+02351101491ADDAY161061AY211061GF108991051051008001021999KA1240N+02221MA1999999099901MD1999999+0131MW1021REMSYN088AAXX  18124 82678 21596 82302 10262 20235 39990 40149 70261 8552/ 333 20222 58013 60154;
0167826780999992002121818004-06770-043020FM-12+013899999V0209999C000010075019N0040001N1+03241+02311101111ADDAA106000091GF108991061021008001001021MA1999999099541MD1999999+0081REMSYN070AAXX  18184 82678 32596 80000 10324 20231 39954 40111 86202 333 58008;EQDQ01  00002PRCP06
0198826780999992002121900004-06770-043020FM-12+013899999V0209999C000010075019N0002001N1+02601+01961101241ADDAA106000091GF108991051051008001021999KA1240M+03291MA1999999099661MD1999999-0031REMSYN088AAXX  19004 82678 32592 80000 10260 20196 39966 40124 8552/ 333 10329 29070 55018 59003;EQDQ01  00002PRCP06
0186826780999992002121912004-06770-043020FM-12+013899999V0203201N001012200019N0040001N1+02701+02281101491ADDAA106000091GF106991041051008001001011KA1240N+02361MA1999999099911MD1999999+0011REMSYN076AAXX  19124 82678 32596 63202 10270 20228 39991 40149 84501 333 20236 58001;EQDQ01  00002PRCP06
0167826780999992002121918004-06770-043020FM-12+013899999V0203201N001010450019N0040001N1+03301+02181101091ADDAA106000091GF106991011021008001021011MA1999999099531MD1999999-0011REMSYN070AAXX  19184 82678 32596 63202 10330 20218 39953 40109 81221 333 59001;EQDQ01  00002PRCP06
0198826780999992002122000004-06770-043020FM-12+013899999V0201801N000512200019N0002001N1+02861+02421101311ADDAA106000091GF104991021001017501031011KA1240M+03401MA1999999099741MD1999999+0081REMSYN088AAXX  20004 82678 32792 41801 10286 20242 39974 40131 82031 333 10340 29071 55053 58008;EQDQ01  00002PRCP06
0186826780999992002122012004-06770-043020FM-12+013899999V0200501N000510075019N0040001N1+02781+02421101681ADDAA106000091GF108991071051008001031999KA1240N+02501MA1999999100101MD1999999+0191REMSYN076AAXX  20124 82678 32596 80501 10278 20242 30010 40168 8753/ 333 20250 58019;EQDQ01  00002PRCP06
0167826780999992002122018004-06770-043020FM-12+013899999V0200901N001511050019N0040001N1+03321+02141101341ADDAA106000091GF107991041021008001001021MA1999999099781MD1999999+0251REMSYN070AAXX  20184 82678 32596 70903 10332 20214 39978 40134 84202 333 58025;EQDQ01  00002PRCP06
0198826780999992002122100004-06770-043020FM-12+013899999V0202301N001512200019N0002001N1+02781+02301101451ADDAA106000091GF104991001001999999001021KA1240M+03411MA1999999099881MD1999999+0141REMSYN088AAXX  21004 82678 32992 42303 10278 20230 39988 40145 80002 333 10341 29070 55080 58014;EQDQ01  00002PRCP06
0202826780999992002122112004-06770-043020FM-12+013899999V0209999C000019999999N0040001N1+02741+02141101731ADDAA106000091GF108991999011008001001001KA1240N+02321MA1999999100151MD1999999+0051REMSYN076AAXX  21124 82678 32596 80000 10274 20214 30015 40173 82100 333 20232 58005;EQDQ01+000022SCOTLCQ02  00002PRCP06
0183826780999992002122118004-06770-043020FM-12+013899999V0200501N001512200019N0040001N1+03461+02061101191ADDAA106000091GF104991999021008001001001MA1999999099631MD1999999+0151REMSYN070AAXX  21184 82678 32596 40503 10346 20206 39963 40119 82200 333 58015;EQDQ01+000022SCOTLCQ02  00002PRCP06
0208826780999992002122200004-06770-043020FM-12+013899999V0209999C000012200019N0002001N1+02841+02221101221ADDAA106000091GA1001+999999999GF100991001001999999001001KA1240M+03551MA1999999099651MD1999999-0231REMSYN082AAXX  22004 82678 32992 00000 10284 20222 39965 40122 333 10355 29063 55080 59023;EQDQ01  00002PRCP06
0208826780999992002122300004-06770-043020FM-12+013899999V0203601N001012200019N0002001N1+02861+02221101521ADDAA106000091GA1001+999999999GF100991001001999999001001KA1240M+03491MA1999999099681MD1999999+0031REMSYN082AAXX  23004 82678 32592 03602 10286 20222 39968 40152 333 10349 29066 55096 58003;EQDQ01  00002PRCP06
0186826780999992002122312004-06770-043020FM-12+013899999V0203601N000512200019N0040001N1+02781+02231101531ADDAA106000091GF104991031021008001001011KA1240N+02261MA1999999099961MD1999999-0031REMSYN076AAXX  23124 82678 32596 43601 10278 20223 39996 40153 83201 333 20226 59003;EQDQ01  00002PRCP06
0167826780999992002122318004-06770-043020FM-12+013899999V0200501N001512200019N0040001N1+03521+02031101111ADDAA106000091GF105991041021008001001011MA1999999099551MD1999999-0051REMSYN070AAXX  23184 82678 32596 50503 10352 20203 39955 40111 84201 333 59005;EQDQ01  00002PRCP06
0198826780999992002122400004-06770-043020FM-12+013899999V0200501N000512200019N0020001N1+02861+02261101241ADDAA106000091GF102991021021999999001001KA1240M+03621MA1999999099671MD1999999-0011REMSYN088AAXX  24004 82678 32995 20501 10286 20226 39967 40124 82200 333 10362 29064 55094 59001;EQDQ01  00002PRCP06
0186826780999992002122412004-06770-043020FM-12+013899999V0202701N001510075019N0040001N1+02801+02221101551ADDAA106000091GF108991051021008001001021KA1240N+02391MA1999999099981MD1999999+0021REMSYN076AAXX  24124 82678 32596 82703 10280 20222 39998 40155 85202 333 20239 58002;EQDQ01  00002PRCP06
0167826780999992002122418004-06770-043020FM-12+013899999V0209999C000010075019N0040001N1+03221+02261101191ADDAA106000091GF108991051051008001021011MA1999999099631MD1999999+0051REMSYN070AAXX  24184 82678 32596 80000 10322 20226 39963 40119 85521 333 58005;EQDQ01  00002PRCP06
0198826780999992002122500004-06770-043020FM-12+013899999V0202301N001012200019N0040001N1+02621+02231101251ADDAA106000091GF105991031031008001001011KA1240M+03261MA1999999099671MD1999999+0001REMSYN088AAXX  25004 82678 32596 52302 10262 20223 39967 40125 83301 333 10326 29072 55046 58000;EQDQ01  00002PRCP06
0202826780999992002122512004-06770-043020FM-12+013899999V0200501N001510075019N0040001N1+02701+02281101601ADDAA106000091GF108991999021008001001001KA1240N+02361MA1999999100021MD1999999+0041REMSYN076AAXX  25124 82678 32596 80503 10270 20228 30002 40160 86200 333 20236 58004;EQDQ01+000062SCOTLCQ02  00002PRCP06
0167826780999992002122518004-06770-043020FM-12+013899999V0202701N001510075019N0040001N1+03021+02361101251ADDAA106000091GF108991051051008001031001MA1999999099671MD1999999+0041REMSYN070AAXX  25184 82678 32596 82703 10302 20236 39967 40125 85530 333 58004;EQDQ01  00002PRCP06
0208826780999992002122600004-06770-043020FM-12+013899999V0201401N001512200019N0002001N1+02721+02241101471ADDAA106000091GA1001+999999999GF100991001001999999001001KA1240M+03371MA1999999099891MD1999999+0221REMSYN082AAXX  26004 82678 32992 01403 10272 20224 39989 40147 333 10337 29074 55042 58022;EQDQ01  00002PRCP06
0190826780999992002122612004-06770-043020FM-12+013899999V0203601N000510075019N0040001N1+02441+02281101701ADDAY161061AY221061GF108991061051008001021999KA1240N+02361MA1999999100111MD1999999+0091MW1031REMSYN088AAXX  26124 82678 21596 83601 10244 20228 30011 40170 70362 8652/ 333 20236 58009 60044;
0167826780999992002122618004-06770-043020FM-12+013899999V0203601N001010450019N0040001N1+03081+02191101281ADDAA106000091GF108991041051008001031021MA1999999099701MD1999999+0031REMSYN070AAXX  26184 82678 32596 83602 10308 20219 39970 40128 84532 333 58003;EQDQ01  00002PRCP06
0208826780999992002122700004-06770-043020FM-12+013899999V0209999C000012200019N0002001N1+02741+02381101351ADDAA106000091GA1001+999999999GF100991001001999999001001KA1240M+03091MA1999999099771MD1999999-0121REMSYN082AAXX  27004 82678 32992 00000 10274 20238 39977 40135 333 10309 29078 55017 59012;EQDQ01  00002PRCP06
0190826780999992002122712004-06770-043020FM-12+013899999V0201401N001510075019N0040001N1+02401+02311101641ADDAY161061AY211061GF108991081051008001999999KA1240N+02281MA1999999100051MD1999999-0061MW1611REMSYN088AAXX  27124 82678 21596 81403 10240 20231 30005 40164 76161 885// 333 20228 59006 60134;
0171826780999992002122718004-06770-043020FM-12+013899999V0209999C000010075019N0040001N1+02681+02281101311ADDAY161061AY211061GF108991061051008001011081MA1999999099721MD1999999+0021MW1031REMSYN082AAXX  27184 82678 21596 80000 10268 20228 39972 40131 70361 86518 333 58002 69931;
0214826780999992002122800004-06770-043020FM-12+013899999V0209999C000019999999N0002001N1+02481+02321101361ADDAA106000091GF105991999051008001001001KA1240M+02851MA1999999099801MD1999999+0031REMSYN088AAXX  28004 82678 32592 50000 10248 20232 39980 40136 82500 333 10285 29089 55009 58003;EQDQ01+000022SCOTLCQ02  00002PRCP06
0181826780999992002122812004-06770-043020FM-12+013899999V0202701N001010075019N0040001N1+02541+02351101531ADDGF108991999061008001051021KA1240N+02311MA1999999099941MD1999999-0111REMSYN082AAXX  28124 82678 22596 82702 10254 20235 39994 40153 88652 333 20231 59011 69934;EQDQ01+000082SCOTLC
0167826780999992002122818004-06770-043020FM-12+013899999V0200501N001510450019N0040001N1+03301+02181101011ADDAA106000091GF108991041081008001031021MA1999999099451MD1999999-0271REMSYN070AAXX  28184 82678 32596 80503 10330 20218 39945 40101 84832 333 59027;EQDQ01  00002PRCP06
0198826780999992002122900004-06770-043020FM-12+013899999V0201801N000510075019N0002001N1+02501+02271101281ADDAA106000091GF108991061051008001021999KA1240M+03351MA1999999099691MD1999999-0111REMSYN088AAXX  29004 82678 32592 81801 10250 20227 39969 40128 8652/ 333 10335 29079 55049 59011;EQDQ01  00002PRCP06
0209826780999992002122912004-06770-043020FM-12+013899999V0209999C000010075019N0040001N1+02361+02311101521ADDAY161061AY221061GF108991999051008001001001KA1240N+02201MA1999999099921MD1999999-0021MW1031REMSYN088AAXX  29124 82678 21596 80000 10236 20231 39992 40152 70362 86500 333 20220 59002 60224;EQDQ01+000062SCOTLC
0183826780999992002122918004-06770-043020FM-12+013899999V0202701N000510075019N0040001N1+02881+02321101231ADDAA106000091GF108991999021008001001001MA1999999099651MD1999999+0201REMSYN070AAXX  29184 82678 32596 82701 10288 20232 39965 40123 86200 333 58020;EQDQ01+000062SCOTLCQ02  00002PRCP06
0198826780999992002123000004-06770-043020FM-12+013899999V0209999C000010075019N0020001N1+02541+02381101361ADDAA106000091GF105991051051008001001001KA1240M+02951MA1999999099771MD1999999+0081REMSYN088AAXX  30004 82678 32595 50000 10254 20238 39977 40136 85500 333 10295 29088 55000 58008;EQDQ01  00002PRCP06
0186826780999992002123012004-06770-043020FM-12+013899999V0201401N001010075019N0040001N1+02561+02251101611ADDAA106000091GF107991051051008001031001KA1240N+02301MA1999999100021MD1999999+0101REMSYN076AAXX  30124 82678 32596 71402 10256 20225 30002 40161 85530 333 20230 58010;EQDQ01  00002PRCP06
0167826780999992002123018004-06770-043020FM-12+013899999V0202701N001010450019N0040001N1+03241+02191101201ADDAA106000091GF106991041051008001031021MA1999999099631MD1999999-0021REMSYN070AAXX  30184 82678 32596 62702 10324 20219 39963 40120 84532 333 59002;EQDQ01  00002PRCP06
0198826780999992002123100004-06770-043020FM-12+013899999V0209999C000012200019N0002001N1+02741+02261101281ADDAA106000091GF104991041051008001001001KA1240M+03391MA1999999099701MD1999999-0071REMSYN088AAXX  31004 82678 32592 40000 10274 20226 39970 40128 84500 333 10339 29072 55077 59007;EQDQ01  00002PRCP06
0186826780999992002123112004-06770-043020FM-12+013899999V0201401N000510120019N0040001N1+02751+02381101581ADDAA106000091GF108991061081008001031011KA1240N+02441MA1999999100001MD1999999-0021REMSYN076AAXX  31124 82678 32596 81401 10275 20238 30000 40158 86831 333 20244 59002;EQDQ01  00002PRCP06
0167826780999992002123118004-06770-043020FM-12+013899999V0203601N001510120019N0040001N1+03201+02241101191ADDAA106000091GF108991051081008001021011MA1999999099631MD1999999+0001REMSYN070AAXX  31184 82678 32596 83603 10320 20224 39963 40119 85821 333 58000;EQDQ01  00002PRCP06
