0167827650999992002010118004-07320-047460FM-12+021299999V0200501N001510450019N0200001N1+03221+02431100931ADDAA199000091GF106991031031008001041001MA1999999098571MD1999999-0121REMSYN070AAXX  01184 82765 32598 60503 10322 20243 39857 40093 83340 333 59012;EQDQ01  00002PRCP99
0201827650999992002010212004-07320-047460FM-12+021299999V0203201N000510075019N0040001N1+02321+02241101621ADDAA124077091AY191061AY261061GF108991061051008001021999KA1240N+02291MA1999999099211MD1999999+0121MW1601REMSYN088AAXX  02124 82765 21596 83201 10232 20224 39921 40162 76096 8652/ 333 20229 58012 60774;
0160827650999992002010218004-07320-047460FM-12+021299999V0200201N001510450019N0200001N1+02521+02291101251ADDAA106017091GF107991041081008001021001MA1999999099841MD1999999+0271REMSYN082AAXX  02184 82765 21598 70203 10252 20229 39984 40125 7//66 84820 333 58027 60171;
0167827650999992002010318004-07320-047460FM-12+021299999V0203601N002610450019N0200001N1+02941+02361101101ADDAA199000091GF106991041081008001041001MA1999999098711MD1999999-0131REMSYN070AAXX  03184 82765 32598 63605 10294 20236 39871 40110 84840 333 59013;EQDQ01  00002PRCP99
0223827650999992002010400004-07320-047460FM-12+021299999V0203601N001019999999N0200001N1+02741+02541101351ADDAA106001091AY151061AY251061GA1091+999999999GF109991091999999999999999KA1240M+03041MA1999999098961MD1999999-0081MW1511REMSYN094AAXX  04000 82765 21/98 93601 10274 20254 39896 40135 75155 333 10304 29084 55015 59008 60011;
0179827650999992002010412004-07320-047460FM-12+021299999V0203601N000510075019N0200001N1+02361+02191101741ADDAA124020191GF108991061051008001021999KA1240N+02231MA1999999099331MD1999999+0251REMSYN088AAXX  04124 82765 21598 83601 10236 20219 39933 40174 7//66 8652/ 333 20223 58025 60204;
0167827650999992002010418004-07320-047460FM-12+021299999V0203601N002110075019N0200001N1+03001+02241101231ADDAA199000091GF106991061021008001001001MA1999999098841MD1999999+0131REMSYN070AAXX  04184 82765 32598 63604 10300 20224 39884 40123 86200 333 58013;EQDQ01  00002PRCP99
0208827650999992002010500004-07320-047460FM-12+021299999V0209999C000019999999N0200001N1+02761+02481101441ADDAA199000091GA1091+999999999GF109991091999999999999999KA1240M+03141MA1999999099041MD1999999+0081REMSYN082AAXX  05004 82765 32/98 90000 10276 20248 39904 40144 333 10314 29081 55039 58008;EQDQ01  00002PRCP99
0186827650999992002010512004-07320-047460FM-12+021299999V0203601N001010075019N0200001N1+02781+02421101631ADDAA199000091GF107991051011008001041001KA1240N+02351MA1999999099241MD1999999-0091REMSYN076AAXX  05124 82765 32598 73602 10278 20242 39924 40163 85140 333 20235 59009;EQDQ01  00002PRCP99
0167827650999992002010518004-07320-047460FM-12+021299999V0203601N002610450019N0200001N1+02901+02371101191ADDAA199000091GF106991041021008001041001MA1999999098811MD1999999-0031REMSYN070AAXX  05184 82765 32598 63605 10290 20237 39881 40119 84240 333 59003;EQDQ01  00002PRCP99
0220827650999992002010600004-07320-047460FM-12+021299999V0203201N001519999999N0200001N1+02701+02501101431ADDAA199000091GA1091+999999999GF109991091999999999999999KA1240M+03141MA1999999099051MD1999999+0011MW1131REMSYN088AAXX  06004 82765 31/98 93203 10270 20250 39905 40143 713// 333 10314 29083 55009 58001;EQDQ01  00002PRCP99
0182827650999992002010618004-07320-047460FM-12+021299999V0203201N002110075019N0040001N1+02221+02121101261ADDAA106059991AY161061AY261061GF108991061051008001021999MA1999999098841MD1999999+0031MW1611REMSYN082AAXX  06184 82765 21596 83204 10222 20212 39884 40126 76166 8652/ 333 58003 60601;
0201827650999992002010700004-07320-047460FM-12+021299999V0203201N000519999999N0200001N1+02361+02281101451ADDAA106000891GA1091+999999999GF109991091999999999999999KA1240M+02801MA1999999099051MD1999999+0001REMSYN094AAXX  07004 82765 21/98 93201 10236 20228 39905 40145 7//55 333 10280 29093 55003 58000 69981;
0179827650999992002010712004-07320-047460FM-12+021299999V0203201N001010120019N0200001N1+02401+02241101581ADDAA124069191GF108991061081008001021999KA1240N+02231MA1999999099161MD1999999+0081REMSYN088AAXX  07124 82765 21598 83202 10240 20224 39916 40158 7//66 8682/ 333 20223 58008 60694;
0160827650999992002010718004-07320-047460FM-12+021299999V0203201N001510120019N0200001N1+02481+02321101261ADDAA106011991GF108991061081008001021999MA1999999098841MD1999999+0001REMSYN082AAXX  07184 82765 21598 83203 10248 20232 39884 40126 7//66 8682/ 333 58000 60121;
0208827650999992002010800004-07320-047460FM-12+021299999V0203201N000519999999N0200001N1+02441+02341101231ADDAA199000091GA1091+999999999GF109991091999999999999999KA1240M+02581MA1999999098821MD1999999-0231REMSYN082AAXX  08004 82765 32/98 93201 10244 20234 39882 40123 333 10258 29092 55000 59023;EQDQ01  00002PRCP99
0179827650999992002010812004-07320-047460FM-12+021299999V0203201N001510120019N0200001N1+02521+02311101481ADDAA124011991GF108991061081008001021999KA1240N+02331MA1999999099071MD1999999-0091REMSYN088AAXX  08124 82765 21598 83203 10252 20231 39907 40148 7//55 8682/ 333 20233 59009 60124;
0160827650999992002010818004-07320-047460FM-12+021299999V0203201N003110120019N0200001N1+02701+02301101161ADDAA106000191GF108991081081008001999999MA1999999098761MD1999999-0081REMSYN082AAXX  08184 82765 21598 83206 10270 20230 39876 40116 7//55 888// 333 59008 69911;
0201827650999992002010900004-07320-047460FM-12+021299999V0203201N001019999999N0200001N1+02421+02251101501ADDAA106009991GA1091+999999999GF109991091999999999999999KA1240M+02741MA1999999099091MD1999999+0171REMSYN094AAXX  09004 82765 21/98 93202 10242 20225 39909 40150 7//66 333 10274 29086 55000 58017 60101;
0179827650999992002010912004-07320-047460FM-12+021299999V0203201N001010120019N0200001N1+02341+02221101661ADDAA124020191GF108991061081008001021999KA1240N+02271MA1999999099241MD1999999+0171REMSYN088AAXX  09124 82765 21598 83202 10234 20222 39924 40166 7//66 8682/ 333 20227 58017 60204;
0167827650999992002010918004-07320-047460FM-12+021299999V0203601N002610075019N0200001N1+02821+02311101411ADDAA199000091GF107991051021008001041001MA1999999098861MD1999999+0101REMSYN070AAXX  09184 82765 32598 73605 10282 20231 39886 40141 85240 333 58010;EQDQ01  00002PRCP99
0208827650999992002011000004-07320-047460FM-12+021299999V0203601N001019999999N0200001N1+02581+02371101481ADDAA199000091GA1091+999999999GF109991091999999999999999KA1240M+02591MA1999999099091MD1999999+0001REMSYN082AAXX  10000 82765 32/98 93601 10258 20237 39909 40148 333 10259 29086 55019 58000;EQDQ01  00002PRCP99
0201827650999992002011012004-07320-047460FM-12+021299999V0203601N000510120019N0200001N1+02301+02281101731ADDAA124059991AY161061AY261061GF108991061081008001021999KA1240N+02231MA1999999099311MD1999999+0071MW1511REMSYN088AAXX  10124 82765 21598 83601 10230 20228 39931 40173 75166 8682/ 333 20223 58007 60604;
0160827650999992002011018004-07320-047460FM-12+021299999V0203201N001010120019N0200001N1+02641+02351101351ADDAA106002091GF107991051081008001021001MA1999999098941MD1999999+0081REMSYN082AAXX  10184 82765 21598 73202 10264 20235 39894 40135 7//66 85820 333 58008 60021;
0179827650999992002011112004-07320-047460FM-12+021299999V0203201N000510450019N0200001N1+02361+02221101171ADDAA124036191GF107991041081008001021001KA1240N+02191MA1999999099441MD1999999+0131REMSYN088AAXX  11124 82765 21598 73201 10236 20222 39944 40117 7//66 84820 333 20219 58013 60364;
0160827650999992002011118004-07320-047460FM-12+021299999V0203201N001510120019N0200001N1+02781+02401101481ADDAA106002091GF107991051081008001041001MA1999999099071MD1999999+0031REMSYN082AAXX  11184 82765 21598 73203 10278 20240 39907 40148 7//55 85840 333 58003 60021;
0208827650999992002011200004-07320-047460FM-12+021299999V0209999C000019999999N0200001N1+02501+02401101651ADDAA199000091GA1091+999999999GF109991091999999999999999KA1240M+03021MA1999999099231MD1999999-0061REMSYN082AAXX  12004 82765 32/98 90000 10250 20240 39923 40165 333 10302 29090 55026 59006;EQDQ01  00002PRCP99
0173827650999992002011212004-07320-047460FM-12+021299999V0203201N000510120019N0200001N1+02501+02361101831ADDAA124002091GF107991061081008001041001KA1240N+02251MA1999999099411MD1999999-0031REMSYN082AAXX  12124 82765 22598 73201 10250 20236 39941 40183 86840 333 20225 59003 60024;
0160827650999992002011218004-07320-047460FM-12+021299999V0200501N001510120019N0200001N1+02921+02361101411ADDAA106002091GF107991061081008001041001MA1999999099011MD1999999-0061REMSYN082AAXX  12184 82765 21598 70503 10292 20236 39901 40141 7//55 86840 333 59006 60021;
0173827650999992002011312004-07320-047460FM-12+021299999V0200501N000510075019N0200001N1+02681+02431101611ADDAA124002091GF106991051021008001041001KA1240N+02331MA1999999099211MD1999999-0201REMSYN082AAXX  13124 82765 22598 60501 10268 20243 39921 40161 85240 333 20233 59020 60024;
0134827650999992002011318004-07320-047460FM-12+021299999V0200501N000510120019N0200001N1+02521+02291101511ADDGF108991061081008001021999MA1999999099091REMSYN081AAXX  13184 82765 21598 80501 10252 20229 39909 40151 7//96 8682/ 333 5808 60131;
0208827650999992002011400004-07320-047460FM-12+021299999V0200501N001019999999N0200001N1+02401+02241101511ADDAA199000091GA1091+999999999GF109991091999999999999999KA1240M+02881MA1999999099101MD1999999-0021REMSYN082AAXX  14004 82765 32/98 90502 10240 20224 39910 40151 333 10288 29089 55019 59002;EQDQ01  00002PRCP99
0173827650999992002011412004-07320-047460FM-12+021299999V0200501N000510075019N0200001N1+02501+02311101711ADDAA124013091GF106991051021008001041001KA1240N+02191MA1999999099291MD1999999+0081REMSYN082AAXX  14124 82765 22598 60501 10250 20231 39929 40171 85240 333 20219 58008 60134;
0167827650999992002011418004-07320-047460FM-12+021299999V0203201N001512200019N0200001N1+03141+02381101121ADDAA199000091GF104991031021008001041001MA1999999098731MD1999999-0361REMSYN070AAXX  14184 82765 32598 43203 10314 20238 39873 40112 83240 333 59036;EQDQ01  00002PRCP99
0220827650999992002011500004-07320-047460FM-12+021299999V0203201N001019999999N0200001N1+02681+02371101321ADDAA199000091GA1091+999999999GF109991091999999999999999KA1240M+03241MA1999999098921MD1999999-0181MW1131REMSYN088AAXX  15004 82765 31/98 93202 10268 20237 39892 40132 713// 333 10324 29080 55068 59018;EQDQ01  00002PRCP99
0186827650999992002011512004-07320-047460FM-12+021299999V0203201N002110075019N0200001N1+02561+02291101501ADDAA199000091GF107991051021008001041001KA1240N+02411MA1999999099101MD1999999-0191REMSYN076AAXX  15124 82765 32598 73204 10256 20229 39910 40150 85240 333 20241 59019;EQDQ01  00002PRCP99
0201827650999992002011600004-07320-047460FM-12+021299999V0203201N001019999999N0200001N1+02301+02141101411ADDAA106007991GA1091+999999999GF109991091999999999999999KA1240M+03001MA1999999099001MD1999999+0081REMSYN094AAXX  16004 82765 21/98 93202 10230 20214 39900 40141 7//66 333 10300 29089 55017 58008 60081;
0173827650999992002011612004-07320-047460FM-12+021299999V0203201N001010120019N0200001N1+02461+02281101431ADDAA124011991GF107991051081008001041001KA1240N+02271MA1999999099011MD1999999-0091REMSYN082AAXX  16124 82765 22598 73202 10246 20228 39901 40143 85840 333 20227 59009 60124;
0160827650999992002011618004-07320-047460FM-12+021299999V0203601N001010450019N0200001N1+02621+02421101061ADDAA106007191GF107991041021008001021001MA1999999098651MD1999999+0111REMSYN082AAXX  16184 82765 21598 73602 10262 20242 39865 40106 7//66 84220 333 58011 60071;
0220827650999992002011700004-07320-047460FM-12+021299999V0203601N001019999999N0200001N1+02461+02341101211ADDAA199000091GA1091+999999999GF109991091999999999999999KA1240M+02881MA1999999098851MD1999999-0151MW1131REMSYN088AAXX  17004 82765 31/98 93602 10246 20234 39885 40121 713// 333 10288 29091 55008 59015;EQDQ01  00002PRCP99
0201827650999992002011712004-07320-047460FM-12+021299999V0203601N001010075019N0200001N1+02401+02281101561ADDAA124016091AY161061AY261061GF108991061051008001021999KA1240N+02331MA1999999099141MD1999999+0131MW1511REMSYN088AAXX  17124 82765 21598 83602 10240 20228 39914 40156 75166 8652/ 333 20233 58013 60164;
0148827650999992002011718004-07320-047460FM-12+021299999V0200501N003110120019N0200001N1+02721+02321101221ADDAA199000021GF107991051081008001021001MA1999999098821MD1999999+0171REMSYN070AAXX  17184 82765 32598 70506 10272 20232 39882 40122 85820 333 58017;
0201827650999992002011800004-07320-047460FM-12+021299999V0200501N001019999999N0200001N1+02481+02341101311ADDAA106011991GA1091+999999999GF109991091999999999999999KA1240M+02841MA1999999098901MD1999999+0051REMSYN094AAXX  18004 82765 21/98 90502 10248 20234 39890 40131 7//66 333 10284 29089 55011 58005 60121;
0173827650999992002011812004-07320-047460FM-12+021299999V0200501N002110120019N0200001N1+02521+02381101531ADDAA124011991GF108991061081008001021999KA1240N+02291MA1999999099111MD1999999-0031REMSYN082AAXX  18124 82765 22598 80504 10252 20238 39911 40153 8682/ 333 20229 59003 60124;
0160827650999992002011818004-07320-047460FM-12+021299999V0200501N001510120019N0200001N1+02661+02331101261ADDAA106000191GF108991061081008001021999MA1999999098851MD1999999+0031REMSYN082AAXX  18184 82765 21598 80503 10266 20233 39885 40126 7//55 8682/ 333 58003 69921;
0207827650999992002011900004-07320-047460FM-12+021299999V0200501N001519999999N0200001N1+02381+02261101451ADDAA106000591GA1091+999999999GF109991091999999999999999KA1240M+02841MA1999999099041MD1999999+0141MW1511REMSYN094AAXX  19004 82765 21/98 90503 10238 20226 39904 40145 751// 333 10284 29090 55005 58014 69941;
0179827650999992002011912004-07320-047460FM-12+021299999V0200501N001010450019N0200001N1+02501+02271101471ADDAA124002091GF105991021011008001041001KA1240N+02231MA1999999099061MD1999999-0051REMSYN088AAXX  19124 82765 21598 50502 10250 20227 39906 40147 7//55 82140 333 20223 59005 60024;
0167827650999992002011918004-07320-047460FM-12+021299999V0200901N000510450019N0200001N1+03221+02321101021ADDAA199000091GF106991041011008001041001MA1999999098641MD1999999-0211REMSYN070AAXX  19184 82765 32598 60901 10322 20232 39864 40102 84140 333 59021;EQDQ01  00002PRCP99
0220827650999992002012000004-07320-047460FM-12+021299999V0201401N002619999999N0200001N1+02601+02351101431ADDAA199000091GA1091+999999999GF109991091999999999999999KA1240M+03361MA1999999099021MD1999999+0021MW1131REMSYN088AAXX  20004 82765 31/98 91405 10260 20235 39902 40143 713// 333 10336 29079 55071 58002;EQDQ01  00002PRCP99
0201827650999992002012012004-07320-047460FM-12+021299999V0201401N001010042019N0100001N1+02281+02161101911ADDAA124071991AY161061AY261061GF108991061051004501021999KA1240N+02271MA1999999099481MD1999999+0421MW1511REMSYN088AAXX  20124 82765 21497 81402 10228 20216 39948 40191 75166 8652/ 333 20227 58042 60724;
0173827650999992002012112004-07320-047460FM-12+021299999V0209999C000012200019N0200001N1+02561+02361101821ADDAA124010991GF104991021011008001041001KA1240N+02231MA1999999099411MD1999999-0071REMSYN082AAXX  21124 82765 21598 40000 10256 20236 39941 40182 82140 333 20223 59007 60114;
0160827650999992002012118004-07320-047460FM-12+021299999V0201801N003110450019N0200001N1+02721+02151101341ADDAA106010991GF105991011031008001041001MA1999999098951MD1999999+0021REMSYN082AAXX  21184 82765 21598 51806 10272 20215 39895 40134 7//96 81340 333 58002 60111;
0208827650999992002012200004-07320-047460FM-12+021299999V0202301N001019999999N0200001N1+02581+02381101621ADDAA199000091GA1091+999999999GF109991091999999999999999KA1240M+03261MA1999999099161MD1999999+0031REMSYN082AAXX  22004 82765 32/98 92302 10258 20238 39916 40162 333 10326 29085 55086 58003;EQDQ01  00002PRCP99
0173827650999992002012212004-07320-047460FM-12+021299999V0202301N000510450019N0200001N1+02541+02381101931ADDAA124010991GF105991031021008001041001KA1240N+02251MA1999999099511MD1999999+0101REMSYN082AAXX  22124 82765 22598 52301 10254 20238 39951 40193 83240 333 20225 58010 60114;
0167827650999992002012218004-07320-047460FM-12+021299999V0202701N001519999999N0200001N1+02581+02381101581ADDAA199000091GF107991999999008001999999MA1999999099161MD1999999+0211REMSYN070AAXX  22184 82765 31598 72703 10258 20238 39916 40158 7//99 333 58021;EQDQ01  00002PRCP99
0220827650999992002012300004-07320-047460FM-12+021299999V0202701N001519999999N0200001N1+02561+02381101641ADDAA199000091GA1091+999999999GF109991091999999999999999KA1240M+02921MA1999999099231MD1999999+0071MW1131REMSYN088AAXX  23004 82765 31/98 92703 10256 20238 39923 40164 713// 333 10292 29090 55034 58007;EQDQ01  00002PRCP99
0179827650999992002012312004-07320-047460FM-12+021299999V0202701N000512200019N0200001N1+02461+02171101811ADDAA124000191GF103991021011008001051001KA1240N+02131MA1999999099391MD1999999-0121REMSYN088AAXX  23124 82765 21598 32701 10246 20217 39939 40181 7//55 82150 333 20213 59012 69924;
0167827650999992002012318004-07320-047460FM-12+021299999V0201401N002612200019N0200001N1+03221+02401101391ADDAA199000091GF104991021021008001051001MA1999999099001MD1999999+0161REMSYN070AAXX  23184 82765 32598 41405 10322 20240 39900 40139 82250 333 58016;EQDQ01  00002PRCP99
0201827650999992002012400004-07320-047460FM-12+021299999V0201801N001519999999N0200001N1+02461+02191101531ADDAA106000191GA1091+999999999GF109991091999999999999999KA1240M+03301MA1999999099111MD1999999-0121REMSYN094AAXX  24004 82765 21/98 91803 10246 20219 39911 40153 7//95 333 10330 29079 55001 59012 69911;
0173827650999992002012412004-07320-047460FM-12+021299999V0201801N001512200019N0200001N1+02721+02321101681ADDAA124000191GF103991021011008001041001KA1240N+02251MA1999999099271MD1999999-0121REMSYN082AAXX  24124 82765 22598 31803 10272 20232 39927 40168 82140 333 20225 59012 69914;
0167827650999992002012418004-07320-047460FM-12+021299999V0200501N002112200019N0200001N1+03261+02381101221ADDAA199000091GF104991031021008001041001MA1999999098841MD1999999-0161REMSYN070AAXX  24184 82765 32598 40504 10326 20238 39884 40122 83240 333 59016;EQDQ01  00002PRCP99
0223827650999992002012500004-07320-047460FM-12+021299999V0200501N000519999999N0200001N1+02581+02441101391ADDAA106024991AY191061AY261061GA1091+999999999GF109991091999999999999999KA1240M+03401MA1999999099001MD1999999-0111MW1291REMSYN094AAXX  25004 82765 21/98 90501 10258 20244 39900 40139 72996 333 10340 29081 55096 59011 60251;
0173827650999992002012512004-07320-047460FM-12+021299999V0200901N000512200019N0200001N1+02801+02401101661ADDAA124024991GF104991021021008001041001KA1240N+02431MA1999999099261MD1999999-0011REMSYN082AAXX  25124 82765 22598 40901 10280 20240 39926 40166 82240 333 20243 59001 60254;
0173827650999992002012518004-07320-047460FM-12+021299999V0200901N002110120019N0200001N1+03161+02451101351ADDAA199000091GF107991061081008001041001MA1999999098971MD1999999+0131REMSYN076AAXX  25184 82765 31598 70904 10316 20245 39897 40135 7//15 86840 333 58013;EQDQ01  00002PRCP99
0173827650999992002012612004-07320-047460FM-12+021299999V0200901N002110450019N0200001N1+02761+02381101681ADDAA124006191GF106991041021008001041001KA1240N+02391MA1999999099281MD1999999+0021REMSYN082AAXX  26124 82765 22598 60904 10276 20238 39928 40168 84240 333 20239 58002 60064;
0167827650999992002012618004-07320-047460FM-12+021299999V0200501N002110075019N0200001N1+03321+02291101221ADDAA199000091GF105991051021008001041001MA1999999098851MD1999999-0121REMSYN070AAXX  26184 82765 32598 50504 10332 20229 39885 40122 85240 333 59012;EQDQ01  00002PRCP99
0201827650999992002012700004-07320-047460FM-12+021299999V0209999C000019999999N0200001N1+02621+02441101381ADDAA106003091GA1091+999999999GF109991091999999999999999KA1240M+03481MA1999999098991MD1999999-0071REMSYN094AAXX  27004 82765 21/98 90000 10262 20244 39899 40138 7//66 333 10348 29079 55093 59007 60031;
0173827650999992002012712004-07320-047460FM-12+021299999V0200901N001512200019N0200001N1+02801+02271101591ADDAA124003091GF103991011011008001051001KA1240N+02391MA1999999099201MD1999999-0081REMSYN082AAXX  27124 82765 22598 30903 10280 20227 39920 40159 81150 333 20239 59008 60034;
0160827650999992002012718004-07320-047460FM-12+021299999V0200501N002112200019N0200001N1+03181+02411101311ADDAA106003091GF104991031021008001041001MA1999999098931MD1999999+0081REMSYN082AAXX  27184 82765 21598 40504 10318 20241 39893 40131 7//65 83240 333 58008 60031;
0208827650999992002012800004-07320-047460FM-12+021299999V0203601N001012200019N0200001N1+02821+02521101271ADDAA199000091GA1001+999999999GF100991001001999999001001KA1240M+03281MA1999999098871MD1999999-0121REMSYN082AAXX  28004 82765 32098 03602 10282 20252 39887 40127 333 10328 29076 55088 59012;EQDQ01  00002PRCP99
0173827650999992002012812004-07320-047460FM-12+021299999V0203601N001510075019N0200001N1+02821+02401101541ADDAA124003091GF105991051021008001001001KA1240N+02431MA1999999099161MD1999999-0041REMSYN082AAXX  28124 82765 22598 53603 10282 20240 39916 40154 85200 333 20243 59004 60034;
0179827650999992002012818004-07320-047460FM-12+021299999V0203201N001010450019N0200001N1+03321+02351101141ADDAA199000091GF105991041021008001041001MA1999999098731MD1999999-0201MW1151REMSYN076AAXX  28184 82765 31598 53202 10332 20235 39873 40114 715// 84240 333 59020;EQDQ01  00002PRCP99
0208827650999992002012900004-07320-047460FM-12+021299999V0200501N001012200019N0200001N1+02641+02231101151ADDAA199000091GA1001+999999999GF100991001001999999001001KA1240M+03441MA1999999098771MD1999999-0101REMSYN082AAXX  29004 82765 32098 00502 10264 20223 39877 40115 333 10344 29073 55091 59010;EQDQ01  00002PRCP99
0186827650999992002012912004-07320-047460FM-12+021299999V0200501N001010120019N0200001N1+02781+02341101501ADDAA199000091GF106991051081008001041001KA1240N+02351MA1999999099111MD1999999-0051REMSYN076AAXX  29124 82765 32598 60502 10278 20234 39911 40150 85840 333 20235 59005;EQDQ01  00002PRCP99
0166827650999992002012918004-07320-047460FM-12+021299999V0200501N005110450019N0200001N1+03101+02411101131ADDAA106002091GF106991021031008001041001MA1999999098741MD1999999+0011MW1961REMSYN082AAXX  29184 82765 21598 60510 10310 20241 39874 40113 796// 82340 333 58001 60021;
0189827650999992002013000004-07320-047460FM-12+021299999V0200501N001019999999N0200001N1+02641+02441101261ADDAA199000021GA1091+999999999GF109991091999999999999999KA1240M+03341MA1999999098871MD1999999+0101REMSYN082AAXX  30004 82765 32/98 90502 10264 20244 39887 40126 333 10334 29073 55061 58010;
0173827650999992002013012004-07320-047460FM-12+021299999V0200501N001510450019N0200001N1+02801+02401101541ADDAA124002091GF106991041081008001041001KA1240N+02311MA1999999099151MD1999999+0041REMSYN082AAXX  30124 82765 22598 60503 10280 20240 39915 40154 84840 333 20231 58004 60024;
0167827650999992002013018004-07320-047460FM-12+021299999V0200201N001510075019N0200001N1+03281+02681101201ADDAA199000091GF106991061021008001001001MA1999999098831MD1999999+0091REMSYN070AAXX  30184 82765 32598 60203 10328 20268 39883 40120 86200 333 58009;EQDQ01  00002PRCP99
0208827650999992002013100004-07320-047460FM-12+021299999V0200501N000519999999N0200001N1+03021+02531101141ADDAA199000091GA1091+999999999GF109991091999999999999999KA1240M+03461MA1999999098771MD1999999-0101REMSYN082AAXX  31004 82765 32/98 90501 10302 20253 39877 40114 333 10346 29073 55010 59010;EQDQ01  00002PRCP99
0186827650999992002013112004-07320-047460FM-12+021299999V0200901N001512200019N0200001N1+02841+02401101401ADDAA199000091GF101991011011008001001001KA1240N+02471MA1999999099041MD1999999-0111REMSYN076AAXX  31124 82765 32598 10903 10284 20240 39904 40140 81100 333 20247 59011;EQDQ01  00002PRCP99
0167827650999992002013118004-07320-047460FM-12+021299999V0200501N002610075019N0200001N1+03421+02451101111ADDAA199000091GF105991051021008001001001MA1999999098751MD1999999-0081REMSYN070AAXX  31184 82765 32598 50505 10342 20245 39875 40111 85200 333 59008;EQDQ01  00002PRCP99
0201827650999992002020112004-07320-047460FM-12+021299999V0203201N001510090019N0200001N1+02421+02191101681ADDAA124023191AY161061AY221061GF108991081081004501999999KA1240N+02201MA1999999099271MD1999999+0231MW1031REMSYN088AAXX  01124 82765 21498 83203 10242 20219 39927 40168 70362 888// 333 20220 58023 60234;
0182827650999992002020118004-07320-047460FM-12+021299999V0203201N001010450019N0200001N1+02621+02391101431ADDAA106003091AY161061AY221061GF108991041021008001021999MA1999999099001MD1999999+0251MW1011REMSYN082AAXX  01184 82765 21598 83202 10262 20239 39900 40143 70162 8422/ 333 58025 60031;
0208827650999992002020200004-07320-047460FM-12+021299999V0209999C000010024019N0100001N1+02311+02071101411ADDAA199000091GA1091+999999999GF109991091999999999999999KA1240M+02891MA1999999098991MD1999999+0171REMSYN082AAXX  02004 82765 32/97 90000 10231 20207 39899 40141 333 10289 29087 55006 58017;EQDQ01  00002PRCP99
0173827650999992002020212004-07320-047460FM-12+021299999V0203201N001510450019N0200001N1+02501+02211101621ADDAA124003091GF106991031011008001061041KA1240N+02161MA1999999099201MD1999999-0071REMSYN082AAXX  02124 82765 22598 63203 10250 20221 39920 40162 83164 333 20216 59007 60034;
0167827650999992002020218004-07320-047460FM-12+021299999V0203201N002610450019N0200001N1+03221+02531101251ADDAA199000091GF106991031031008001061051MA1999999098861MD1999999-0141REMSYN070AAXX  02184 82765 32598 63205 10322 20253 39886 40125 83365 333 59014;EQDQ01  00002PRCP99
0186827650999992002020300004-07320-047460FM-12+021299999V0200501N004110450019N0200001N1+02601+02211101631ADDAA199000091GF108991041081008001011999KA1240N+02351MA1999999099221MD1999999+0021REMSYN076AAXX  03004 82765 32598 80508 10260 20221 39922 40163 8481/ 333 20235 58002;EQDQ01  00002PRCP99
0186827650999992002020312004-07320-047460FM-12+021299999V0200501N004110450019N0200001N1+02601+02211101631ADDAA199000091GF108991041081008001011999KA1240N+02351MA1999999099221MD1999999+0021REMSYN076AAXX  03124 82765 32598 80508 10260 20221 39922 40163 8481/ 333 20235 58002;EQDQ01  00002PRCP99
0167827650999992002020318004-07320-047460FM-12+021299999V0203601N002610450019N0200001N1+02921+02221101341ADDAA199000091GF107991041081008001011001MA1999999098941MD1999999+0081REMSYN070AAXX  03184 82765 32598 73605 10292 20222 39894 40134 84810 333 58008;EQDQ01  00002PRCP99
0208827650999992002020400004-07320-047460FM-12+021299999V0200501N001510024019N0100001N1+02511+02271101441ADDAA199000091GA1091+999999999GF109991091999999999999999KA1240M+03151MA1999999099041MD1999999+0111REMSYN082AAXX  04004 82765 32/97 90503 10251 20227 39904 40144 333 10315 29080 55027 58011;EQDQ01  00002PRCP99
0173827650999992002020412004-07320-047460FM-12+021299999V0200501N000510120019N0200001N1+02541+02401101631ADDAA124000191GF107991071081008001001001KA1240N+02371MA1999999099221MD1999999+0001REMSYN082AAXX  04124 82765 21598 70501 10254 20240 39922 40163 87800 333 20237 58000 69924;
0167827650999992002020418004-07320-047460FM-12+021299999V0200501N002610075019N0200001N1+03081+02291101211ADDAA199000091GF106991051021008001041001MA1999999098831MD1999999-0111REMSYN070AAXX  04184 82765 32598 60505 10308 20229 39883 40121 85240 333 59011;EQDQ01  00002PRCP99
0208827650999992002020500004-07320-047460FM-12+021299999V0203601N000519999999N0200001N1+02881+02481101371ADDAA199000091GA1091+999999999GF109991091999999999999999KA1240M+03301MA1999999098981MD1999999-0061REMSYN082AAXX  05004 82765 32/98 93601 10288 20248 39898 40137 333 10330 29078 55056 59006;EQDQ01  00002PRCP99
0186827650999992002020512004-07320-047460FM-12+021299999V0203601N003111050019N0200001N1+02781+02251101631ADDAA199000091GF106991021011008001041041KA1240N+02531MA1999999099251MD1999999+0031REMSYN076AAXX  05124 82765 32598 63606 10278 20225 39925 40163 82144 333 20253 58003;EQDQ01  00002PRCP99
0167827650999992002020518004-07320-047460FM-12+021299999V0203601N001510450019N0200001N1+03381+02261101231ADDAA199000091GF107991041081008001041001MA1999999098871MD1999999+0041REMSYN070AAXX  05184 82765 32598 73603 10338 20226 39887 40123 84840 333 58004;EQDQ01  00002PRCP99
0236827650999992002020600004-07320-047460FM-12+021299999V0200901N000519999999N0200001N1+02541+02381101591ADDAA106039191AY151061AY211061GA1091+999999999GF109991091999999999999999KA1240M+03421MA1999999099191MD1999999+0211REMSYN094AAXX  06004 82765 21/98 90901 10254 20238 39919 40159 76651 333 10342 29077 55061 58021 60391;EQDQ01+000662PRSWM1
0230827650999992002020612004-07320-047460FM-12+021299999V0209999C000010075019N0200001N1+02401+02281101801ADDAA124064091AY151061AY211061GF108991999051008001021999KA1240N+02311MA1999999099381MD1999999+0131REMSYN088AAXX  06124 82765 21598 80000 10240 20228 39938 40180 76651 8852/ 333 20231 58013 60644;EQDQ01+000082SCOTLCQ02+000662PRSWM1
0179827650999992002020618004-07320-047460FM-12+021299999V0200901N001010120019N0200001N1+02641+02331101431ADDAA106009991GF108991061081008001011999MA1999999099061MD1999999+0191REMSYN082AAXX  06184 82765 21598 80902 10264 20233 39906 40143 766// 8681/ 333 58019 60101;EQDQ01+000662PRSWM1
0167827650999992002020718004-07320-047460FM-12+021299999V0200501N003110450019N0200001N1+03221+02261101081ADDAA199000091GF106991031021008001071061MA1999999098701MD1999999-0361REMSYN070AAXX  07184 82765 32598 60506 10322 20226 39870 40108 83276 333 59036;EQDQ01  00002PRCP99
0208827650999992002020800004-07320-047460FM-12+021299999V0209999C000019999999N0200001N1+02861+02521101301ADDAA199000091GA1091+999999999GF109991091999999999999999KA1240M+03281MA1999999098911MD1999999-0081REMSYN082AAXX  08004 82765 32/98 90000 10286 20252 39891 40130 333 10328 29076 55072 59008;EQDQ01  00002PRCP99
0201827650999992002020812004-07320-047460FM-12+021299999V0200901N001010450019N0200001N1+02531+02421101531ADDAA124002091AY161061AY221061GF107991041021008001021001KA1240N+02421MA1999999099141MD1999999-0031MW1031REMSYN088AAXX  08124 82765 21598 70902 10253 20242 39914 40153 70362 84220 333 20242 59003 60024;
0195827650999992002020818004-07320-047460FM-12+021299999V0201401N001510450019N0200001N1+03211+02381101131ADDAA199000091AY121061AY221061GF107991041031008001021001MA1999999098761MD1999999+0061MW1171REMSYN076AAXX  08184 82765 31598 71403 10321 20238 39876 40113 71722 84320 333 58006;EQDQ01  00002PRCP99
0223827650999992002020900004-07320-047460FM-12+021299999V0201401N001510024019N0100001N1+02341+02221101511ADDAA106003091AY161061AY221061GA1091+999999999GF109991091999999999999999KA1240M+03281MA1999999099091MD1999999+0181MW1501REMSYN094AAXX  09004 82765 21/97 91403 10234 20222 39909 40151 75062 333 10328 29085 55012 58018 60031;
0201827650999992002020912004-07320-047460FM-12+021299999V0201801N001510450019N0040001N1+02241+02171101871ADDAA124149191AY161061AY261061GF108991041061002501021999KA1240N+02191MA1999999099431MD1999999+0291MW1511REMSYN088AAXX  09124 82765 21396 81803 10224 20217 39943 40187 75166 8462/ 333 20219 58029 61494;
0148827650999992002020918004-07320-047460FM-12+021299999V0202301N002610120019N0200001N1+02761+02281101551ADDAA199000021GF107991071081008001001001MA1999999099141MD1999999+0381REMSYN070AAXX  09184 82765 32598 72305 10276 20228 39914 40155 87800 333 58038;
0201827650999992002021000004-07320-047460FM-12+021299999V0209999C000019999999N0200001N1+02541+02361101531ADDAA106000191GA1091+999999999GF109991091999999999999999KA1240M+02831MA1999999099111MD1999999+0021REMSYN094AAXX  10004 82765 21/98 90000 10254 20236 39911 40153 7//62 333 10283 29088 55011 58002 69911;
0173827650999992002021012004-07320-047460FM-12+021299999V0200501N000512200019N0200001N1+02661+02391101641ADDAA124000191GF102991011011008001041001KA1240N+02251MA1999999099241MD1999999-0171REMSYN082AAXX  10124 82765 22598 20501 10266 20239 39924 40164 81140 333 20225 59017 69914;
0160827650999992002021018004-07320-047460FM-12+021299999V0200901N000510120019N0200001N1+02641+02291101271ADDAA106000391GF107991061081008001041001MA1999999098861MD1999999-0281REMSYN082AAXX  10184 82765 21598 70901 10264 20229 39886 40127 7//55 86840 333 59028 69931;
0208827650999992002021100004-07320-047460FM-12+021299999V0200901N001019999999N0200001N1+02541+02401101481ADDAA199000091GA1091+999999999GF109991091999999999999999KA1240M+03221MA1999999099081MD1999999-0031REMSYN082AAXX  11004 82765 32/98 90902 10254 20240 39908 40148 333 10322 29088 55063 59003;EQDQ01  00002PRCP99
0173827650999992002021112004-07320-047460FM-12+021299999V0200901N002610120019N0200001N1+02661+02391101581ADDAA124000391GF107991051081008001041001KA1240N+02391MA1999999099181MD1999999-0061REMSYN082AAXX  11124 82765 22598 70905 10266 20239 39918 40158 85840 333 20239 59006 69934;
0182827650999992002021118004-07320-047460FM-12+021299999V0200501N001510450019N0200001N1+02441+02271101291ADDAA106002091AY191061AY261061GF107991021031008001021001MA1999999098881MD1999999+0021MW1291REMSYN082AAXX  11184 82765 21598 70503 10244 20227 39888 40129 72996 82320 333 58002 60021;
0208827650999992002021200004-07320-047460FM-12+021299999V0200501N000519999999N0200001N1+02421+02131101331ADDAA199000091GA1091+999999999GF109991091999999999999999KA1240M+03031MA1999999098931MD1999999-0151REMSYN082AAXX  12004 82765 32/98 90501 10242 20213 39893 40133 333 10303 29086 55024 59015;EQDQ01  00002PRCP99
0173827650999992002021212004-07320-047460FM-12+021299999V0200501N000510120019N0200001N1+02621+02351101731ADDAA124002091GF106991051081008001041001KA1240N+02291MA1999999099311MD1999999+0131REMSYN082AAXX  12124 82765 22598 60501 10262 20235 39931 40173 85840 333 20229 58013 60024;
0160827650999992002021218004-07320-047460FM-12+021299999V0203601N002610450019N0200001N1+02241+02121101601ADDAA106011991GF108991041051008001021999MA1999999099161MD1999999+0281REMSYN082AAXX  12184 82765 21598 83605 10224 20212 39916 40160 7//66 8452/ 333 58028 60121;
0201827650999992002021300004-07320-047460FM-12+021299999V0203601N000519999999N0200001N1+02281+02201101621ADDAA106003091GA1091+999999999GF109991091999999999999999KA1240M+02981MA1999999099201MD1999999+0271REMSYN094AAXX  13004 82765 21/98 93601 10228 20220 39920 40162 7//66 333 10298 29092 55025 58027 60031;
0173827650999992002021312004-07320-047460FM-12+021299999V0203601N001010450019N0200001N1+02421+02301101631ADDAA124015091GF107991041051004501031041KA1240N+02251MA1999999099201MD1999999-0111REMSYN082AAXX  13124 82765 22498 73602 10242 20230 39920 40163 84534 333 20225 59011 60154;
0167827650999992002021318004-07320-047460FM-12+021299999V0200901N004110450019N0200001N1+03101+02441101301ADDAA199000091GF106991041021008001031041MA1999999098911MD1999999-0251REMSYN070AAXX  13184 82765 32598 60908 10310 20244 39891 40130 84234 333 59025;EQDQ01  00002PRCP99
0201827650999992002021400004-07320-047460FM-12+021299999V0200901N001010024019N0100001N1+02601+02371101451ADDAA106000191GA1091+999999999GF109991091999999999999999KA1240M+03251MA1999999099041MD1999999-0161REMSYN094AAXX  14004 82765 21/97 90902 10260 20237 39904 40145 7//62 333 10325 29084 55084 59016 69911;
0173827650999992002021412004-07320-047460FM-12+021299999V0209999C000010450019N0200001N1+02661+02331101621ADDAA124000191GF105991031011008001031041KA1240N+02211MA1999999099221MD1999999+0021REMSYN082AAXX  14124 82765 22598 50000 10266 20233 39922 40162 83134 333 20221 58002 69914;
0201827650999992002021500004-07320-047460FM-12+021299999V0209999C000010024019N0100001N1+02521+02311101421ADDAA106006191GA1091+999999999GF109991091999999999999999KA1240M+03341MA1999999099021MD1999999-0021REMSYN094AAXX  15004 82765 21/97 90000 10252 20231 39902 40142 7//62 333 10334 29080 55096 59002 60061;
0173827650999992002021512004-07320-047460FM-12+021299999V0201801N002110450019N0200001N1+02731+02431101711ADDAA124006191GF105991031011008001061041KA1240N+02471MA1999999099301MD1999999+0131REMSYN082AAXX  15124 82765 22598 51804 10273 20243 39930 40171 83164 333 20247 58013 60064;
0182827650999992002021518004-07320-047460FM-12+021299999V0200901N001510450019N0200001N1+03131+02381101241ADDAA106000191AY161061AY221061GF105991031031008001061001MA1999999098861MD1999999+0011MW1031REMSYN082AAXX  15184 82765 21598 50903 10313 20238 39886 40124 70362 83360 333 58001 69911;
0201827650999992002021612004-07320-047460FM-12+021299999V0200501N003110075019N0040001N1+02261+02181101851ADDAA124031091AY191061AY261061GF108991061021008001021999KA1240N+02231MA1999999099431MD1999999+0131MW1511REMSYN088AAXX  16124 82765 21596 80506 10226 20218 39943 40185 75196 8622/ 333 20223 58013 60314;
0182827650999992002021618004-07320-047460FM-12+021299999V0203601N002110450019N0200001N1+02981+02471101431ADDAA106002091AY161061AY251061GF108991031031008001021999MA1999999099041MD1999999+0181MW1291REMSYN082AAXX  16184 82765 21598 83604 10298 20247 39904 40143 72965 8332/ 333 58018 60021;
0201827650999992002021700004-07320-047460FM-12+021299999V0203601N000519999999N0200001N1+02561+02421101451ADDAA106000591GA1091+999999999GF109991091999999999999999KA1240M+03061MA1999999099031MD1999999+0041REMSYN094AAXX  17004 82765 21/98 93601 10256 20242 39903 40145 7//55 333 10306 29088 55016 58004 69951;
0173827650999992002021712004-07320-047460FM-12+021299999V0203601N000510450019N0200001N1+02601+02401101611ADDAA124003091GF106991041081008001041001KA1240N+02211MA1999999099211MD1999999-0221REMSYN082AAXX  17124 82765 22598 63601 10260 20240 39921 40161 84840 333 20221 59022 60034;
0195827650999992002021718004-07320-047460FM-12+021299999V0201401N003110450019N0200001N1+02901+02321101281ADDAA199000091AY191061AY291061GF106991031031008001041001MA1999999098881MD1999999-0161MW1291REMSYN076AAXX  17184 82765 31598 61406 10290 20232 39888 40128 72999 83340 333 59016;EQDQ01  00002PRCP99
0220827650999992002021800004-07320-047460FM-12+021299999V0200901N001019999999N0200001N1+02741+02501101351ADDAA199000091GA1091+999999999GF109991091999999999999999KA1240M+03381MA1999999098961MD1999999-0071MW1131REMSYN088AAXX  18004 82765 31/98 90902 10274 20250 39896 40135 713// 333 10338 29084 55071 59007;EQDQ01  00002PRCP99
0179827650999992002021812004-07320-047460FM-12+021299999V0200901N000512200019N0200001N1+02721+02451101471ADDAA124001091GF103991011011008001031001KA1240N+02371MA1999999099081MD1999999-0131REMSYN088AAXX  18124 82765 21598 30901 10272 20245 39908 40147 7//55 81130 333 20237 59013 60014;
0173827650999992002021818004-07320-047460FM-12+021299999V0201401N001512200019N0200001N1+03181+02361101041ADDAA199000091GF104991021021008001041001MA1999999098671MD1999999-0211REMSYN076AAXX  18184 82765 31598 41403 10318 20236 39867 40104 7//99 82240 333 59021;EQDQ01  00002PRCP99
0220827650999992002021900004-07320-047460FM-12+021299999V0201401N000519999999N0200001N1+02981+02641101201ADDAA199000091GA1091+999999999GF109991091999999999999999KA1240M+03461MA1999999098831MD1999999-0131MW1131REMSYN088AAXX  19004 82765 31/98 91401 10298 20264 39883 40120 713// 333 10346 29078 55088 59013;EQDQ01  00002PRCP99
0201827650999992002021912004-07320-047460FM-12+021299999V0201401N001012200019N0200001N1+02841+02421101451ADDAA124002091AY161061AY221061GF104991021011008001041061KA1240N+02501MA1999999099081MD1999999+0001MW1021REMSYN088AAXX  19124 82765 21598 41402 10284 20242 39908 40145 70262 82146 333 20250 58000 60024;
0182827650999992002021918004-07320-047460FM-12+021299999V0201401N002110450019N0200001N1+02671+02371101161ADDAA106004191AY161061AY221061GF105991031031008001061011MA1999999098771MD1999999+0101MW1031REMSYN082AAXX  19184 82765 21598 51404 10267 20237 39877 40116 70362 83361 333 58010 60041;
0208827650999992002022000004-07320-047460FM-12+021299999V0209999C000019999999N0200001N1+02681+02541101131ADDAA199000091GA1091+999999999GF109991091999999999999999KA1240M+03291MA1999999098751MD1999999-0081REMSYN082AAXX  20004 82765 32/98 90000 10268 20254 39875 40113 333 10329 29086 55074 59008;EQDQ01  00002PRCP99
0173827650999992002022012004-07320-047460FM-12+021299999V0201401N001010450019N0200001N1+02751+02501101531ADDAA124004191GF105991031011008001031041KA1240N+02451MA1999999099141MD1999999+0061REMSYN082AAXX  20124 82765 22598 51402 10275 20250 39914 40153 83134 333 20245 58006 60044;
0167827650999992002022018004-07320-047460FM-12+021299999V0200901N002612200019N0200001N1+03311+02361101101ADDAA199000091GF104991031021008001001081MA1999999098731MD1999999-0041REMSYN070AAXX  20184 82765 32598 40905 10331 20236 39873 40110 83208 333 59004;EQDQ01  00002PRCP99
0208827650999992002022100004-07320-047460FM-12+021299999V0200501N000512200019N0200001N1+02881+02601101201ADDAA199000091GA1001+999999999GF100991001001999999001001KA1240M+03481MA1999999098831MD1999999+0081REMSYN082AAXX  21004 82765 32998 00501 10288 20260 39883 40120 333 10348 29079 55099 58008;EQDQ01  00002PRCP99
0186827650999992002022112004-07320-047460FM-12+021299999V0200501N000512200019N0200001N1+02811+02461101391ADDAA199000091GF102991011001017501041061KA1240N+02461MA1999999099021MD1999999-0121REMSYN076AAXX  21124 82765 32798 20501 10281 20246 39902 40139 81046 333 20246 59012;EQDQ01  00002PRCP99
0167827650999992002022118004-07320-047460FM-12+021299999V0201401N002112200019N0200001N1+03431+02291101041ADDAA199000091GF104991021021008001001041MA1999999098681MD1999999-0051REMSYN070AAXX  21184 82765 32598 41404 10343 20229 39868 40104 82204 333 59005;EQDQ01  00002PRCP99
0198827650999992002022200004-07320-047460FM-12+021299999V0201401N000512200019N0200001N1+02971+02601101101ADDAA199000091GF102991011011012501061001KA1240M+03561MA1999999098741MD1999999-0091REMSYN088AAXX  22004 82765 32698 21401 10297 20260 39874 40110 81160 333 10356 29074 55111 59009;EQDQ01  00002PRCP99
0186827650999992002022212004-07320-047460FM-12+021299999V0201401N000512200019N0200001N1+02821+02421101321ADDAA199000091GF102991021011008001001001KA1240N+02391MA1999999098951MD1999999-0071REMSYN076AAXX  22124 82765 32598 21401 10282 20242 39895 40132 82100 333 20239 59007;EQDQ01  00002PRCP99
0167827650999992002022218004-07320-047460FM-12+021299999V0201401N001010450019N0200001N1+03461+02541101921ADDAA199000091GF106991041021008001041001MA1999999098571MD1999999-0111REMSYN070AAXX  22184 82765 32598 61402 10346 20254 39857 40192 84240 333 59011;EQDQ01  00002PRCP99
0173827650999992002022300004-07320-047460FM-12+021299999V0209999C000012200019N0200001N1+02801+02481101471ADDAA124000191GF101991011011008001001001KA1240N+02471MA1999999099091MD1999999+0141REMSYN082AAXX  23004 82765 22598 10000 10280 20248 39909 40147 81100 333 20247 58014 69914;
0173827650999992002022312004-07320-047460FM-12+021299999V0209999C000012200019N0200001N1+02801+02481101471ADDAA124000191GF101991011011008001001001KA1240N+02471MA1999999099091MD1999999+0141REMSYN082AAXX  23124 82765 22598 10000 10280 20248 39909 40147 81100 333 20247 58014 69914;
0167827650999992002022318004-07320-047460FM-12+021299999V0200901N003112200019N0200001N1+03481+02381101031ADDAA199000091GF104991021021008001041001MA1999999098731MD1999999+0161REMSYN070AAXX  23184 82765 32598 40906 10348 20238 39873 40103 82240 333 58016;EQDQ01  00002PRCP99
0198827650999992002022400004-07320-047460FM-12+021299999V0209999C000012200019N0200001N1+03041+02451101281ADDAA199000091GF101991011011008001001001KA1240M+03581MA1999999098911MD1999999+0231REMSYN088AAXX  24004 82765 32598 10000 10304 20245 39891 40128 81100 333 10358 29069 55102 58023;EQDQ01  00002PRCP99
0196827650999992002022412004-07320-047460FM-12+021299999V0200501N000512200019N0200001N1+02861+02521101601ADDAA199000091GA1001+999999999GF100991001001999999001001KA1240N+02491MA1999999099231MD1999999+0141REMSYN070AAXX  24124 82765 32998 00501 10286 20252 39923 40160 333 20249 58014;EQDQ01  00002PRCP99
0195827650999992002022518004-07320-047460FM-12+021299999V0203601N003110042019N0200001N1+02831+02381101221ADDAA199000091AY121061AY211061GF107991051031004501021001MA1999999098841MD1999999+0021MW1171REMSYN076AAXX  25184 82765 31498 73606 10283 20238 39884 40122 71721 85320 333 58002;EQDQ01  00002PRCP99
0198827650999992002022600004-07320-047460FM-12+021299999V0203601N000510450019N0200001N1+02761+02541101231ADDAA199000091GF105991021011008001041001KA1240M+03441MA1999999098861MD1999999-0051REMSYN088AAXX  26004 82765 32598 53601 10276 20254 39886 40123 82140 333 10344 29081 55064 59005;EQDQ01  00002PRCP99
0186827650999992002022612004-07320-047460FM-12+021299999V0203601N002110120019N0200001N1+02671+02351101491ADDAA199000091GF107991071081008001001001KA1240N+02471MA1999999099101MD1999999-0011REMSYN076AAXX  26124 82765 32598 73604 10267 20235 39910 40149 87800 333 20247 59001;EQDQ01  00002PRCP99
0176827650999992002022618004-07320-047460FM-12+021299999V0200901N008210090019N0040001N1+03111+02261101171ADDAA199000021AY121061AY211061GF108991081081004501999999MA1999999098801MD1999999-0041MW1601REMSYN076AAXX  26184 82765 31496 80916 10311 20226 39880 40117 76021 888// 333 59004;
0213827650999992002022700004-07320-047460FM-12+021299999V0200901N000510075019N0200001N1+02531+02401101321ADDAA106006191AY161061AY221061GF108991051021008001011999KA1240M+03421MA1999999098921MD1999999+0061MW1031REMSYN100AAXX  27004 82765 21598 80901 10253 20240 39892 40132 70362 8521/ 333 10342 29082 55057 58006 60061;
0201827650999992002022712004-07320-047460FM-12+021299999V0200901N000510450019N0100001N1+02271+02211101631ADDAA124024991AY161061AY221061GF108991041071004501021999KA1240N+02251MA1999999099211MD1999999+0111MW1031REMSYN088AAXX  27124 82765 21497 80901 10227 20221 39921 40163 70362 8472/ 333 20225 58011 60254;
0167827650999992002022718004-07320-047460FM-12+021299999V0200501N003610450019N0200001N1+03101+02491101201ADDAA199000091GF107991041031008001021001MA1999999098821MD1999999+0021REMSYN070AAXX  27184 82765 32598 70507 10310 20249 39882 40120 84320 333 58002;EQDQ01  00002PRCP99
0208827650999992002022800004-07320-047460FM-12+021299999V0209999C000012200019N0200001N1+02741+02651101271ADDAA199000091GA1001+999999999GF100991001001999999001001KA1240M+03171MA1999999098861MD1999999-0061REMSYN082AAXX  28004 82765 32998 00000 10274 20265 39886 40127 333 10317 29089 55034 59006;EQDQ01  00002PRCP99
0186827650999992002022812004-07320-047460FM-12+021299999V0200501N000512200019N0200001N1+02721+02561101411ADDAA199000091GF104991021011008001041001KA1240N+02291MA1999999099031MD1999999-0181REMSYN076AAXX  28124 82765 32598 40501 10272 20256 39903 40141 82140 333 20229 59018;EQDQ01  00002PRCP99
0167827650999992002022818004-07320-047460FM-12+021299999V0200901N001510450019N0200001N1+03361+02451101091ADDAA199000091GF106991041021008001041001MA1999999098731MD1999999-0091REMSYN070AAXX  28184 82765 32598 60903 10336 20245 39873 40109 84240 333 59009;EQDQ01  00002PRCP99
0208827650999992002030100004-07320-047460FM-12+021299999V0200901N002012200019N0200001N1+02901+02501101131ADDAA199000091GA1001+999999999GF100991001001999999001001KA1240M+03501MA1999999098761MD1999999-0101REMSYN082AAXX  01000 82765 32998 00902 10290 20250 39876 40113 333 10350 29077 55095 59010;EQDQ01  00002PRCP99
0186827650999992002030112004-07320-047460FM-12+021299999V0200901N000512200019N0200001N1+02781+02581101461ADDAA199000091GF104991041021008001001001KA1240N+02411MA1999999099081MD1999999+0051REMSYN076AAXX  01124 82765 32598 40901 10278 20258 39908 40146 84200 333 20241 58005;EQDQ01  00002PRCP99
0167827650999992002030118004-07320-047460FM-12+021299999V0200901N003110450019N0200001N1+03221+02401101171ADDAA199000091GF105991031021008001041001MA1999999098801MD1999999+0071REMSYN070AAXX  01184 82765 32598 50906 10322 20240 39880 40117 83240 333 58007;EQDQ01  00002PRCP99
0208827650999992002030400004-07320-047460FM-12+021299999V0200501N000510024019N0100001N1+02651+02481101331ADDAA199000091GA1091+999999999GF109991091999999999999999KA1240M+03001MA1999999098911MD1999999-0031REMSYN082AAXX  04004 82765 32/97 90501 10265 20248 39891 40133 333 10300 29090 55018 59003;EQDQ01  00002PRCP99
0173827650999992002030412004-07320-047460FM-12+021299999V0200501N001510120019N0200001N1+02541+02381101681ADDAA124004191GF108991051081008001021999KA1240N+02341MA1999999099271MD1999999+0061REMSYN082AAXX  04124 82765 22598 80503 10254 20238 39927 40168 8582/ 333 20234 58006 60044;
0182827650999992002030418004-07320-047460FM-12+021299999V0200501N000510450019N0200001N1+02561+02251101361ADDAA106000591AY161061AY251061GF108991041021008001021999MA1999999098951MD1999999+0141MW1031REMSYN082AAXX  04184 82765 21598 80501 10256 20225 39895 40136 70365 8422/ 333 58014 69961;
0201827650999992002030512004-07320-047460FM-12+021299999V0203601N000510042019N0100001N1+02161+02111101861ADDAA124027991AY161061AY261061GF108991081071004501999999KA1240N+02161MA1999999099431MD1999999+0161MW1531REMSYN088AAXX  05124 82765 21497 83601 10216 20211 39943 40186 75366 887// 333 20216 58016 60284;
0182827650999992002030518004-07320-047460FM-12+021299999V0203601N001010450019N0200001N1+02461+02231101551ADDAA106003091AY161061AY251061GF108991041081004501021999MA1999999099131MD1999999+0181MW1031REMSYN082AAXX  05184 82765 21498 83602 10246 20223 39913 40155 70365 8482/ 333 58018 60031;
0189827650999992002030600004-07320-047460FM-12+021299999V0209999C000010024019N0100001N1+02341+02261101571ADDAA199000021GA1091+999999999GF109991091999999999999999KA1240M+02561MA1999999099131MD1999999+0141REMSYN082AAXX  06004 82765 32/97 90000 10234 20226 39913 40157 333 10256 29094 55000 58014;
0173827650999992002030612004-07320-047460FM-12+021299999V0203601N001010120019N0200001N1+02461+02321101671ADDAA124003091GF107991051081008001041001KA1240N+02171MA1999999099251MD1999999-0181REMSYN082AAXX  06124 82765 22598 73602 10246 20232 39925 40167 85840 333 20217 59018 60034;
0167827650999992002030618004-07320-047460FM-12+021299999V0203601N000510450019N0200001N1+03161+02521101251ADDAA199000091GF105991031021008001041001MA1999999098861MD1999999-0271REMSYN070AAXX  06184 82765 32598 53601 10316 20252 39886 40125 83240 333 59027;EQDQ01  00002PRCP99
0208827650999992002030700004-07320-047460FM-12+021299999V0203601N001019999999N0200001N1+02541+02291101391ADDAA199000091GA1091+999999999GF109991091999999999999999KA1240M+03381MA1999999098981MD1999999-0151REMSYN082AAXX  07004 82765 32/98 93602 10254 20229 39898 40139 333 10338 29083 55073 59015;EQDQ01  00002PRCP99
0186827650999992002030712004-07320-047460FM-12+021299999V0203601N001510450019N0200001N1+02561+02361101711ADDAA199000091GF106991041021008001041001KA1240N+02371MA1999999099301MD1999999+0051REMSYN076AAXX  07124 82765 32598 63603 10256 20236 39930 40171 84240 333 20237 58005;EQDQ01  00002PRCP99
0167827650999992002030718004-07320-047460FM-12+021299999V0202501N000510450019N0200001N1+03081+02541101211ADDAA199000091GF107991041021008001011001MA1999999098831MD1999999-0031REMSYN070AAXX  07184 82765 32598 72501 10308 20254 39883 40121 84210 333 59003;EQDQ01  00002PRCP99
0223827650999992002030800004-07320-047460FM-12+021299999V0202501N001019999999N0200001N1+02521+02381101601ADDAA106013091AY191061AY261061GA1091+999999999GF109991091999999999999999KA1240M+03201MA1999999099191MD1999999+0111MW1131REMSYN094AAXX  08004 82765 21/98 92502 10252 20238 39919 40160 71396 333 10320 29086 55042 58011 60131;
0179827650999992002030812004-07320-047460FM-12+021299999V0202301N001010120019N0200001N1+02621+02411101801ADDAA124014091GF107991071081008001001001KA1240N+02431MA1999999099391MD1999999+0091REMSYN088AAXX  08124 82765 21598 72302 10262 20241 39939 40180 7//55 87800 333 20243 58009 60144;
0182827650999992002030818004-07320-047460FM-12+021299999V0202501N001010450019N0200001N1+02741+02541101321ADDAA106021191AY191061AY261061GF107991021031008001021001MA1999999098921MD1999999+0091MW1291REMSYN082AAXX  08184 82765 21598 72502 10274 20254 39892 40132 72996 82320 333 58009 60211;
0208827650999992002030900004-07320-047460FM-12+021299999V0202501N001019999999N0200001N1+02641+02501101471ADDAA199000091GA1091+999999999GF109991091999999999999999KA1240M+03201MA1999999099061MD1999999-0121REMSYN082AAXX  09004 82765 32/98 92502 10264 20250 39906 40147 333 10320 29090 55041 59012;EQDQ01  00002PRCP99
0167827650999992002030918004-07320-047460FM-12+021299999V0202701N002110450019N0200001N1+03191+02471101271ADDAA199000091GF106991031021008001011041MA1999999098891MD1999999-0031REMSYN070AAXX  09184 82765 32598 62704 10319 20247 39889 40127 83214 333 59003;EQDQ01  00002PRCP99
0236827650999992002031000004-07320-047460FM-12+021299999V0202001N000519999999N0200001N1+02821+02541101371ADDAA199000091AY121061AY211061GA1091+999999999GF109991091999999999999999KA1240M+03371MA1999999098991MD1999999-0081MW1131REMSYN088AAXX  10004 82765 31/98 92001 10282 20254 39899 40137 71321 333 10337 29080 55073 59008;EQDQ01  00002PRCP99
0208827650999992002031100004-07320-047460FM-12+021299999V0209999C000019999999N0200001N1+02721+02521101411ADDAA199000091GA1091+999999999GF109991091999999999999999KA1240M+03201MA1999999099021MD1999999+0031REMSYN082AAXX  11004 82765 32/98 90000 10272 20252 39902 40141 333 10320 29084 55018 58003;EQDQ01  00002PRCP99
0201827650999992002031112004-07320-047460FM-12+021299999V0202001N001510450019N0100001N1+02161+02061101751ADDAA124034091AY161061AY221061GF108991041071004501021999KA1240N+02161MA1999999099331MD1999999+0081MW1511REMSYN088AAXX  11124 82765 21497 82003 10216 20206 39933 40175 75162 8472/ 333 20216 58008 60344;
0182827650999992002031118004-07320-047460FM-12+021299999V0202001N002110450019N0200001N1+02481+02171101471ADDAA106000191AY151061AY221061GF108991041081004501021999MA1999999099061MD1999999+0191MW1031REMSYN082AAXX  11184 82765 21498 82004 10248 20217 39906 40147 70352 8482/ 333 58019 69911;
0189827650999992002031200004-07320-047460FM-12+021299999V0202001N000519999999N0200001N1+02461+02321101551ADDAA199000021GA1091+999999999GF109991091999999999999999KA1240M+02741MA1999999099171MD1999999+0151REMSYN082AAXX  12004 82765 32/98 92001 10246 20232 39917 40155 333 10274 29090 55002 58015;
0173827650999992002031212004-07320-047460FM-12+021299999V0202001N000510120019N0200001N1+02441+02341101961ADDAA124000191GF108991081081008001999999KA1240N+02211MA1999999099531MD1999999+0201REMSYN082AAXX  12124 82765 22598 82001 10244 20234 39953 40196 888// 333 20221 58020 69914;
0137827650999992002031218004-07320-047460FM-12+021299999V0202301N000519999999N0200001N1+03021+02531999999ADDAA199000091GF106991999999008001999999REMSYN069AAXX  12184 82765 32598 62301 10302 20253 9911 40151 83240 333 58005;EQDQ01  00002PRCP99
0208827650999992002031300004-07320-047460FM-12+021299999V0209999C000019999999N0200001N1+02801+02561101511ADDAA199000091GA1091+999999999GF109991091999999999999999KA1240M+03161MA1999999099111MD1999999-0061REMSYN082AAXX  13004 82765 32/98 90000 10280 20256 39911 40151 333 10316 29086 55039 59006;EQDQ01  00002PRCP99
0186827650999992002031312004-07320-047460FM-12+021299999V0201801N000510450019N0200001N1+02601+02501101331ADDAA199000091GF106991021021008001041001KA1240N+02351MA1999999099331MD1999999-0201REMSYN076AAXX  13124 82765 32598 61801 10260 20250 39933 40133 82240 333 20235 59020;EQDQ01  00002PRCP99
0167827650999992002031318004-07320-047460FM-12+021299999V0201601N003110450019N0200001N1+03361+02391101241ADDAA199000091GF106991041021008001041001MA1999999098871MD1999999-0241REMSYN070AAXX  13184 82765 32598 61606 10336 20239 39887 40124 84240 333 59024;EQDQ01  00002PRCP99
0208827650999992002031400004-07320-047460FM-12+021299999V0201401N000512200019N0200001N1+02881+02521101381ADDAA199000091GA1001+999999999GF100991001001999999001001KA1240M+03481MA1999999099001MD1999999-0111REMSYN082AAXX  14004 82765 32998 01401 10288 20252 39900 40138 333 10348 29078 55101 59011;EQDQ01  00002PRCP99
0186827650999992002031412004-07320-047460FM-12+021299999V0201101N004110450019N0200001N1+02741+02431101541ADDAA199000091GF107991041021008001011001KA1240N+02461MA1999999099161MD1999999-0171REMSYN076AAXX  14124 82765 32598 71108 10274 20243 39916 40154 84210 333 20246 59017;EQDQ01  00002PRCP99
0167827650999992002031418004-07320-047460FM-12+021299999V0200501N001010450019N0200001N1+03231+02431101211ADDAA199000091GF107991041021008001011041MA1999999098841MD1999999-0031REMSYN070AAXX  14184 82765 32598 70502 10323 20243 39884 40121 84214 333 59003;EQDQ01  00002PRCP99
0208827650999992002031500004-07320-047460FM-12+021299999V0209999C000012200019N0200001N1+02901+02641101251ADDAA199000091GA1001+999999999GF100991001001999999001001KA1240M+03411MA1999999098871MD1999999-0131REMSYN082AAXX  15004 82765 32998 00000 10290 20264 39887 40125 333 10341 29080 55061 59013;EQDQ01  00002PRCP99
0186827650999992002031512004-07320-047460FM-12+021299999V0201101N000510450019N0200001N1+02901+02481101581ADDAA199000091GF106991021011008001041001KA1240N+02371MA1999999099201MD1999999+0041REMSYN076AAXX  15124 82765 32598 61101 10290 20248 39920 40158 82140 333 20237 58004;EQDQ01  00002PRCP99
0167827650999992002031518004-07320-047460FM-12+021299999V0200901N000510450019N0200001N1+03421+02531101161ADDAA199000091GF106991041021008001041001MA1999999098801MD1999999-0041REMSYN070AAXX  15184 82765 32598 60901 10342 20253 39880 40116 84240 333 59004;EQDQ01  00002PRCP99
0208827650999992002031600004-07320-047460FM-12+021299999V0209999C000012200019N0200001N1+02941+02661101211ADDAA199000091GA1001+999999999GF100991001001999999001001KA1240M+03541MA1999999098841MD1999999-0031REMSYN082AAXX  16004 82765 32998 00000 10294 20266 39884 40121 333 10354 29079 55098 59003;EQDQ01  00002PRCP99
0186827650999992002031612004-07320-047460FM-12+021299999V0201401N003110075019N0200001N1+02771+02361101541ADDAA199000091GF107991071021008001001001KA1240N+02421MA1999999099161MD1999999-0041REMSYN076AAXX  16124 82765 32598 71406 10277 20236 39916 40154 87200 333 20242 59004;EQDQ01  00002PRCP99
0195827650999992002031618004-07320-047460FM-12+021299999V0203201N001510450019N0040001N1+03331+02411101111ADDAA199000091AY191061AY221061GF107991041021008001021041MA1999999098751MD1999999-0051MW1291REMSYN076AAXX  16184 82765 31596 73203 10333 20241 39875 40111 72992 84224 333 59005;EQDQ01  00002PRCP99
0201827650999992002031700004-07320-047460FM-12+021299999V0203501N001010024019N0100001N1+02551+02361101281ADDAA106000191GA1091+999999999GF109991091999999999999999KA1240M+03421MA1999999098891MD1999999+0051REMSYN094AAXX  17004 82765 21/97 93502 10255 20236 39889 40128 7/62/ 333 10342 29080 55065 58005 69911;
0173827650999992002031712004-07320-047460FM-12+021299999V0203501N000510450019N0200001N1+02741+02451101541ADDAA124000191GF106991041021008001011041KA1240N+02401MA1999999099141MD1999999-0021REMSYN082AAXX  17124 82765 22598 63501 10274 20245 39914 40154 84214 333 20240 59002 69914;
0195827650999992002031718004-07320-047460FM-12+021299999V0202501N002110450019N0040001N1+03041+02521101101ADDAA199000091AY191061AY221061GF107991041031004501021001MA1999999098721MD1999999-0031MW1291REMSYN076AAXX  17184 82765 31496 72504 10304 20252 39872 40110 72992 84320 333 59003;EQDQ01  00002PRCP99
0201827650999992002031800004-07320-047460FM-12+021299999V0202501N001010024019N0100001N1+02391+02261101351ADDAA106005191GA1091+999999999GF109991091999999999999999KA1240M+03341MA1999999098951MD1999999+0061REMSYN094AAXX  18004 82765 21/97 92502 10239 20226 39895 40135 7//62 333 10334 29086 55063 58006 60051;
0167827650999992002031818004-07320-047460FM-12+021299999V0202301N001010450019N0200001N1+03061+02501101141ADDAA199000091GF107991021021008001011001MA1999999098761MD1999999+0041REMSYN070AAXX  18184 82765 32598 72302 10306 20250 39876 40114 82210 333 58004;EQDQ01  00002PRCP99
0208827650999992002031900004-07320-047460FM-12+021299999V0202301N000519999999N0200001N1+02801+02601101201ADDAA199000091GA1091+999999999GF109991091999999999999999KA1240M+03121MA1999999098811MD1999999-0141REMSYN082AAXX  19004 82765 32/98 92301 10280 20260 39881 40120 333 10312 29082 55016 59014;EQDQ01  00002PRCP99
0186827650999992002031912004-07320-047460FM-12+021299999V0202301N001510120019N0200001N1+02641+02411101431ADDAA199000091GF108991081081008001999999KA1240N+02371MA1999999099041MD1999999-0141REMSYN076AAXX  19124 82765 32598 82303 10264 20241 39904 40143 888// 333 20237 59014;EQDQ01  00002PRCP99
0167827650999992002031918004-07320-047460FM-12+021299999V0203201N002110450019N0200001N1+03101+02391100941ADDAA199000091GF107991041021008001011001MA1999999098571MD1999999-0191REMSYN070AAXX  19184 82765 32598 73204 10310 20239 39857 40094 84210 333 59019;EQDQ01  00002PRCP99
0208827650999992002032000004-07320-047460FM-12+021299999V0203201N001519999999N0200001N1+02681+02521101231ADDAA199000091GA1091+999999999GF109991091999999999999999KA1240M+03201MA1999999098851MD1999999+0041REMSYN082AAXX  20004 82765 32/98 93203 10268 20252 39885 40123 333 10320 29085 55011 58004;EQDQ01  00002PRCP99
0186827650999992002032012004-07320-047460FM-12+021299999V0202301N001510120019N0200001N1+02561+02381101571ADDAA199000091GF108991081081008001999999KA1240N+02411MA1999999099171MD1999999+0131REMSYN076AAXX  20124 82765 32598 82303 10256 20238 39917 40157 888// 333 20241 58013;EQDQ01  00002PRCP99
0167827650999992002032018004-07320-047460FM-12+021299999V0203001N001010450019N0200001N1+03261+02521101051ADDAA199000091GF106991041021008001011041MA1999999098681MD1999999+0111REMSYN070AAXX  20184 82765 32598 63002 10326 20252 39868 40105 84214 333 58011;EQDQ01  00002PRCP99
0201827650999992002032100004-07320-047460FM-12+021299999V0201101N001010024019N0100001N1+02491+02381101381ADDAA106014091GA1091+999999999GF109991091999999999999999KA1240M+03391MA1999999098971MD1999999+0121REMSYN094AAXX  21004 82765 21/97 91102 10249 20238 39897 40138 7//65 333 10339 29086 55058 58012 60141;
0201827650999992002032112004-07320-047460FM-12+021299999V0201101N001010450019N0200001N1+02541+02361101471ADDAA124014091AY151061AY221061GF105991031021008001031091KA1240N+02291MA1999999099061MD1999999-0111MW1031REMSYN088AAXX  21124 82765 21598 51102 10254 20236 39906 40147 70352 83239 333 20229 59011 60144;
0195827650999992002032118004-07320-047460FM-12+021299999V0202001N002110090019N0100001N1+03161+02501101011ADDAA199000091AY121061AY211061GF105991051081004501001001MA1999999098641MD1999999-0041MW1291REMSYN076AAXX  21184 82765 31497 52004 10316 20250 39864 40101 72921 85800 333 59004;EQDQ01  00002PRCP99
0201827650999992002032200004-07320-047460FM-12+021299999V0203501N001019999999N0200001N1+02661+02521101201ADDAA106015091GA1091+999999999GF109991091999999999999999KA1240M+03361MA1999999098861MD1999999-0111REMSYN094AAXX  22004 82765 21/98 93502 10266 20252 39886 40120 7//96 333 10336 29085 55073 59011 60151;
0173827650999992002032212004-07320-047460FM-12+021299999V0202901N001010090019N0200001N1+02701+02431101451ADDAA124015091GF107991071081004501001001KA1240N+02401MA1999999099061MD1999999+0001REMSYN082AAXX  22124 82765 22498 72902 10270 20243 39906 40145 87800 333 20240 58000 60154;
0182827650999992002032218004-07320-047460FM-12+021299999V0203501N004610042019N0040001N1+03191+02391101071ADDAA106007191AY121061AY221061GF107991071071004501011041MA1999999098701MD1999999+0061MW1251REMSYN082AAXX  22184 82765 21496 73509 10319 20239 39870 40107 72522 87714 333 58006 60071;
0213827650999992002032300004-07320-047460FM-12+021299999V0209999C000010090019N0100001N1+02591+02421101501ADDAA106000191AY161061AY221061GF108991051081004501011999KA1240M+03311MA1999999099101MD1999999+0241MW1131REMSYN100AAXX  23004 82765 21497 80000 10259 20242 39910 40150 71362 8581/ 333 10331 29082 55036 58024 69921;
0201827650999992002032312004-07320-047460FM-12+021299999V0203501N000510450019N0200001N1+02671+02431101681ADDAA124007991AY151061AY221061GF106991041021004501031001KA1240N+02441MA1999999099281MD1999999+0021MW1031REMSYN088AAXX  23124 82765 21498 63501 10267 20243 39928 40168 70352 84230 333 20244 58002 60084;
0182827650999992002032318004-07320-047460FM-12+021299999V0203601N002110450019N0100001N1+02551+02351101311ADDAA106000191AY121061AY221061GF107991041081002501021001MA1999999098901MD1999999+0201MW1501REMSYN082AAXX  23184 82765 21397 73604 10255 20235 39890 40131 75022 84820 333 58020 69911;
0213827650999992002032400004-07320-047460FM-12+021299999V0203601N000510450019N0100001N1+02481+02381101561ADDAA106000191AY151061AY221061GF107991041081008001031001KA1240M+03281MA1999999099161MD1999999+0061MW1031REMSYN100AAXX  24004 82765 21597 73601 10248 20238 39916 40156 70352 84830 333 10328 29091 55042 58006 69911;
0179827650999992002032412004-07320-047460FM-12+021299999V0203601N000510120019N0200001N1+02381+02291101851ADDAA124030091GF108991051081008001021999KA1240N+02311MA1999999099431MD1999999+0151REMSYN088AAXX  24124 82765 21598 83601 10238 20229 39943 40185 7//66 8582/ 333 20231 58015 60304;
0167827650999992002032418004-07320-047460FM-12+021299999V0203201N001510450019N0200001N1+02941+02431101391ADDAA199000091GF107991041081008001021001MA1999999098991MD1999999+0091REMSYN070AAXX  24184 82765 32598 73203 10294 20243 39899 40139 84820 333 58009;EQDQ01  00002PRCP99
0191827650999992002032500004-07320-047460FM-12+021299999V0202701N000510450019N0200001N1+02561+02421101411ADDAA106000191GF108991021021008001011999KA1240M+03181MA1999999099001MD1999999-0161REMSYN100AAXX  25004 82765 21598 82701 10256 20242 39900 40141 7//55 8221/ 333 10318 28088 55014 59016 69911;
0173827650999992002032512004-07320-047460FM-12+021299999V0202701N000510120019N0200001N1+02561+02381101591ADDAA124000191GF108991061081008001021999KA1240N+02411MA1999999099181MD1999999-0251REMSYN082AAXX  25124 82765 22598 82701 10256 20238 39918 40159 8682/ 333 20241 59025 69914;
0160827650999992002032518004-07320-047460FM-12+021299999V0209999C000010450019N0200001N1+02881+02521101161ADDAA106000891GF106991041021008001021001MA1999999098771MD1999999-0221REMSYN082AAXX  25184 82765 21598 60000 10288 20252 39877 40116 7//55 84220 333 59022 69981;
0213827650999992002032600004-07320-047460FM-12+021299999V0202901N000510075019N0200001N1+02481+02321101451ADDAA106001091AY191061AY251061GF108991081051008001999999KA1240M+03121MA1999999099041MD1999999+0041MW1511REMSYN100AAXX  26004 82765 21598 82901 10248 20232 39904 40145 75195 885// 333 10312 29088 55033 58004 60011;
0179827650999992002032612004-07320-047460FM-12+021299999V0202701N000510075019N0200001N1+02381+02291101661ADDAA124007991GF108991061051008001021999KA1240N+02291MA1999999099241MD1999999+0061REMSYN088AAXX  26124 82765 21598 82701 10238 20229 39924 40166 7//66 8652/ 333 20229 58006 60084;
0167827650999992002032618004-07320-047460FM-12+021299999V0203201N002610120019N0200001N1+02821+02311101261ADDAA199000091GF107991061081008001021001MA1999999098861MD1999999+0091REMSYN070AAXX  26184 82765 32598 73205 10282 20231 39886 40126 86820 333 58009;EQDQ01  00002PRCP99
0198827650999992002032700004-07320-047460FM-12+021299999V0203201N001010450019N0200001N1+02641+02481101471ADDAA199000091GF108991041021008001021999KA1240M+02901MA1999999099061MD1999999+0021REMSYN088AAXX  27004 82765 32598 83202 10264 20248 39906 40147 8422/ 333 10290 29088 55029 58002;EQDQ01  00002PRCP99
0186827650999992002032712004-07320-047460FM-12+021299999V0203201N000510450019N0200001N1+02541+02381101641ADDAA199000091GF105991041021008001061001KA1240N+02371MA1999999099241MD1999999+0001REMSYN076AAXX  27124 82765 32598 53201 10254 20238 39924 40164 84260 333 20237 58000;EQDQ01  00002PRCP99
0167827650999992002032718004-07320-047460FM-12+021299999V0202901N001512200019N0200001N1+03221+02471101201ADDAA199000091GF104991021021008001011041MA1999999098831MD1999999-0031REMSYN070AAXX  27184 82765 32598 42903 10322 20247 39883 40120 82214 333 59003;EQDQ01  00002PRCP99
0226827650999992002032800004-07320-047460FM-12+021299999V0202401N001510450019N0100001N1+02571+02231101331ADDAA199000091AY191061AY221061GF108991041081008001011999KA1240M+03411MA1999999098931MD1999999-0131MW1291REMSYN094AAXX  28004 82765 31597 82403 10257 20223 39893 40133 72992 8481/ 333 10341 29079 55081 59013;EQDQ01  00002PRCP99
0201827650999992002032812004-07320-047460FM-12+021299999V0202301N001012200019N0200001N1+02801+02401101581ADDAA124000191AY161061AY221061GF104991021021008001031001KA1240N+02381MA1999999099191MD1999999-0051MW1021REMSYN088AAXX  28124 82765 21598 42302 10280 20240 39919 40158 70262 82230 333 20238 59005 69924;
0167827650999992002032818004-07320-047460FM-12+021299999V0201401N003112200019N0200001N1+03291+02341101141ADDAA199000091GF104991021021008001041041MA1999999098771MD1999999-0061REMSYN070AAXX  28184 82765 32598 41406 10329 20234 39877 40114 82244 333 59006;EQDQ01  00002PRCP99
0186827650999992002032912004-07320-047460FM-12+021299999V0201301N001512200019N0200001N1+02741+02341101481ADDAA199000091GF102991011001017501031091KA1240N+02341MA1999999099091MD1999999-0101REMSYN076AAXX  29124 82765 32798 21303 10274 20234 39909 40148 81039 333 20234 59010;EQDQ01  00002PRCP99
0167827650999992002032918004-07320-047460FM-12+021299999V0201201N003112200019N0200001N1+03301+02331101091ADDAA199000091GF104991021011008001061041MA1999999098721MD1999999-0051REMSYN070AAXX  29184 82765 32598 41206 10330 20233 39872 40109 82164 333 59005;EQDQ01  00002PRCP99
0198827650999992002033000004-07320-047460FM-12+021299999V0209999C000012200019N0200001N1+02911+02581101251ADDAA199000091GF102991011011012501061001KA1240M+03421MA1999999098871MD1999999+0001REMSYN088AAXX  30004 82765 32698 20000 10291 20258 39887 40125 81160 333 10342 29076 55110 58000;EQDQ01  00002PRCP99
0186827650999992002033012004-07320-047460FM-12+021299999V0201401N001010450019N0200001N1+02821+02481101461ADDAA199000091GF107991041021008001011001KA1240N+02531MA1999999099081MD1999999-0011REMSYN076AAXX  30124 82765 32598 71402 10282 20248 39908 40146 84210 333 20253 59001;EQDQ01  00002PRCP99
0167827650999992002033018004-07320-047460FM-12+021299999V0201201N002110450019N0200001N1+03321+02381101121ADDAA199000091GF106991041021008001041001MA1999999099031MD1999999+0041REMSYN070AAXX  30184 82765 32598 61204 10332 20238 39903 40112 84240 333 58004;EQDQ01  00002PRCP99
0198827650999992002033100004-07320-047460FM-12+021299999V0201401N000512200019N0200001N1+02921+02661101291ADDAA199000091GF102991011011008001001011KA1240M+03401MA1999999098921MD1999999+0051REMSYN088AAXX  31004 82765 32598 21401 10292 20266 39892 40129 81101 333 10340 29078 55069 58005;EQDQ01  00002PRCP99
0186827650999992002033112004-07320-047460FM-12+021299999V0201101N000510075019N0200001N1+02601+02371101571ADDAA199000091GF108991051011008001021011KA1240N+02331MA1999999099181MD1999999+0101REMSYN076AAXX  31124 82765 32598 81101 10260 20237 39918 40157 85121 333 20233 58010;EQDQ01  00002PRCP99
0167827650999992002033118004-07320-047460FM-12+021299999V0200901N001510450019N0200001N1+03101+02441101241ADDAA199000091GF108991041021008001021999MA1999999098861MD1999999+0101REMSYN070AAXX  31184 82765 32598 80903 10310 20244 39886 40124 8422/ 333 58010;EQDQ01  00002PRCP99
0186827650999992002040112004-07320-047460FM-12+021299999V0200901N000510450019N0200001N1+02681+02481101481ADDAA199000091GF108991041011008001011999KA1240N+02391MA1999999099091MD1999999-0091REMSYN076AAXX  01124 82765 32598 80901 10268 20248 39909 40148 8411/ 333 20239 59009;EQDQ01  00002PRCP99
0179827650999992002040118004-07320-047460FM-12+021299999V0200901N001010450019N0200001N1+03081+02491101211ADDAA199000091GF108991021031008001011999MA1999999098831MD1999999-0031MW1291REMSYN076AAXX  01184 82765 31598 80902 10308 20249 39883 40121 729// 8231/ 333 59003;EQDQ01  00002PRCP99
0208827650999992002040200004-07320-047460FM-12+021299999V0200901N000519999999N0200001N1+02601+02401101311ADDAA199000091GA1091+999999999GF109991091999999999999999KA1240M+03141MA1999999098921MD1999999-0041REMSYN082AAXX  02004 82765 32/98 90901 10260 20240 39892 40131 333 10314 29084 55010 59004;EQDQ01  00002PRCP99
0186827650999992002040212004-07320-047460FM-12+021299999V0200901N000510450019N0200001N1+02651+02461101461ADDAA199000091GF107991041011008001011041KA1240N+02381MA1999999099061MD1999999-0061REMSYN076AAXX  02124 82765 32598 70901 10265 20246 39906 40146 84114 333 20238 59006;EQDQ01  00002PRCP99
0167827650999992002040218004-07320-047460FM-12+021299999V0201301N002110450019N0200001N1+03191+02391101121ADDAA199000091GF107991041021008001011001MA1999999098751MD1999999-0081REMSYN070AAXX  02184 82765 32598 71304 10319 20239 39875 40112 84210 333 59008;EQDQ01  00002PRCP99
0236827650999992002040300004-07320-047460FM-12+021299999V0201301N000510024019N0100001N1+02821+02621101321ADDAA199000091AY121061AY221061GA1091+999999999GF109991091999999999999999KA1240M+03311MA1999999098941MD1999999+0021MW1131REMSYN088AAXX  03004 82765 31/97 91301 10282 20262 39894 40132 71322 333 10331 29083 55031 58002;EQDQ01  00002PRCP99
0186827650999992002040312004-07320-047460FM-12+021299999V0201001N001010450019N0200001N1+02751+02451101531ADDAA199000091GF107991041011008001011041KA1240N+02471MA1999999099151MD1999999+0091REMSYN076AAXX  03124 82765 32598 71002 10275 20245 39915 40153 84114 333 20247 58009;EQDQ01  00002PRCP99
0167827650999992002040318004-07320-047460FM-12+021299999V0201201N002110075019N0200001N1+03241+02811101101ADDAA199000091GF107991051021008001011081MA1999999098731MD1999999-0021REMSYN070AAXX  03184 82765 32598 71204 10324 20281 39873 40110 85218 333 59002;EQDQ01  00002PRCP99
0236827650999992002040400004-07320-047460FM-12+021299999V0209999C000010024019N0100001N1+02821+02621101421ADDAA199000091AY121061AY221061GA1091+999999999GF109991091999999999999999KA1240M+03421MA1999999099041MD1999999+0101MW1131REMSYN088AAXX  04004 82765 31/97 90000 10282 20262 39904 40142 71322 333 10342 29085 55039 58010;EQDQ01  00002PRCP99
0173827650999992002040412004-07320-047460FM-12+021299999V0201201N000510120019N0200001N1+02541+02401101611ADDAA124008991GF108991061081008001021999KA1240N+02331MA1999999099221MD1999999+0071REMSYN082AAXX  04124 82765 21598 81201 10254 20240 39922 40161 8682/ 333 20233 58007 60094;
0179827650999992002040418004-07320-047460FM-12+021299999V0200801N004110450019N0100001N1+03101+02511101241ADDAA199000091GF105991021031008001041001MA1999999098851MD1999999+0121MW1291REMSYN076AAXX  04184 82765 31597 50808 10310 20251 39885 40124 729// 82340 333 58012;EQDQ01  00002PRCP99
0186827650999992002040512004-07320-047460FM-12+021299999V0200501N000510450019N0200001N1+02701+02501101501ADDAA199000091GF105991031021008001041001KA1240N+02411MA1999999099101MD1999999-0121REMSYN076AAXX  05124 82765 32598 50501 10270 20250 39910 40150 83240 333 20241 59012;EQDQ01  00002PRCP99
0182827650999992002040518004-07320-047460FM-12+021299999V0203601N001510450019N0200001N1+02681+02431101121ADDAA106008991AY191061AY261061GF107991021031008001041001MA1999999098731MD1999999-0121MW1291REMSYN082AAXX  05184 82765 21598 73603 10268 20243 39873 40112 72996 82340 333 59012 60091;
0198827650999992002040600004-07320-047460FM-12+021299999V0200501N001012200019N0200001N1+02581+02441101331ADDAA199000091GF103991031021008001001001KA1240M+03161MA1999999098941MD1999999-0101REMSYN088AAXX  06004 82765 32598 30502 10258 20244 39894 40133 83200 333 10316 29090 55040 59010;EQDQ01  00002PRCP99
0173827650999992002040612004-07320-047460FM-12+021299999V0203601N001010450019N0200001N1+02641+02501101451ADDAA124008991GF106991031021008001011001KA1240N+02471MA1999999099051MD1999999-0051REMSYN082AAXX  06124 82765 22598 63602 10264 20250 39905 40145 83210 333 20247 59005 60094;
0167827650999992002040618004-07320-047460FM-12+021299999V0203401N001510450019N0200001N1+03201+02511100981ADDAA199000091GF106991041021008001041001MA1999999098621MD1999999-0111REMSYN070AAXX  06184 82765 32598 63403 10320 20251 39862 40098 84240 333 59011;EQDQ01  00002PRCP99
0226827650999992002040700004-07320-047460FM-12+021299999V0203301N001012200019N0200001N1+02641+02351101361ADDAA199000091AY191061AY291061GF104991021031008001041001KA1240M+03341MA1999999098971MD1999999+0031MW1131REMSYN094AAXX  07004 82765 31598 43302 10264 20235 39897 40136 71399 82340 333 10334 29082 55052 58003;EQDQ01  00002PRCP99
0201827650999992002040712004-07320-047460FM-12+021299999V0203301N002110450019N0200001N1+02511+02321101681ADDAA124003091AY161061AY221061GF108991041081004501021999KA1240N+02401MA1999999099271MD1999999+0221MW1031REMSYN088AAXX  07124 82765 21498 83304 10251 20232 39927 40168 70362 8482/ 333 20240 58022 60034;
0167827650999992002040718004-07320-047460FM-12+021299999V0203501N001510450019N0200001N1+03001+02491101221ADDAA199000091GF107991041021008001011041MA1999999098841MD1999999+0221REMSYN070AAXX  07184 82765 32598 73503 10300 20249 39884 40122 84214 333 58022;EQDQ01  00002PRCP99
0208827650999992002040800004-07320-047460FM-12+021299999V0203601N001012200019N0200001N1+02671+02441101421ADDAA199000091GA1001+999999999GF100991001001999999001001KA1240M+03201MA1999999099021MD1999999+0051REMSYN082AAXX  08004 82765 32998 03602 10267 20244 39902 40142 333 10320 29085 55024 58005;EQDQ01  00002PRCP99
0186827650999992002040812004-07320-047460FM-12+021299999V0203501N001010450019N0200001N1+02641+02411101481ADDAA199000091GF106991031011008001041091KA1240N+02321MA1999999099081MD1999999-0191REMSYN076AAXX  08124 82765 32598 63502 10264 20241 39908 40148 83149 333 20232 59019;EQDQ01  00002PRCP99
0167827650999992002040818004-07320-047460FM-12+021299999V0203501N001510450019N0200001N1+02921+02411101021ADDAA199000091GF106991041021008001021001MA1999999098641MD1999999-0201REMSYN070AAXX  08184 82765 32598 63503 10292 20241 39864 40102 84220 333 59020;EQDQ01  00002PRCP99
0210827650999992002040900004-07320-047460FM-12+021299999V0203601N001010450019N0200001N1+02701+02451101201ADDAA199000091GF107991031031008001021999KA1240M+03321MA1999999098811MD1999999-0211MW1131REMSYN094AAXX  09004 82765 31598 73602 10270 20245 39881 40120 713// 8332/ 333 10332 29083 55070 59021;EQDQ01  00002PRCP99
0201827650999992002040912004-07320-047460FM-12+021299999V0203601N002112200019N0200001N1+02851+02421101391ADDAA124005191AY161061AY221061GF104991021011008001061041KA1240N+02401MA1999999099011MD1999999-0071MW1021REMSYN088AAXX  09124 82765 21598 43604 10285 20242 39901 40139 70262 82164 333 20240 59007 60054;
0195827650999992002040918004-07320-047460FM-12+021299999V0202401N010010450019N0020001N1+02771+02321101001ADDAA199000091AY121061AY221061GF108991041091004501021999MA1999999098611MD1999999-0031MW1161REMSYN076AAXX  09181 82765 31495 82410 10277 20232 39861 40100 71622 8492/ 333 59003;EQDQ01  00002PRCP99
0223827650999992002041000004-07320-047460FM-12+021299999V0202401N001010024019N0100001N1+02441+02351101311ADDAA106018091AY121061AY221061GA1091+999999999GF109991091999999999999999KA1240M+03381MA1999999098921MD1999999+0111MW1131REMSYN094AAXX  10004 82765 21/97 92402 10244 20235 39892 40131 71322 333 10338 29086 55074 58011 60181;
0173827650999992002041012004-07320-047460FM-12+021299999V0202401N000510450019N0200001N1+02651+02351101521ADDAA124018091GF106991041021008001031001KA1240N+02321MA1999999099111MD1999999+0101REMSYN082AAXX  10124 82765 22598 62401 10265 20235 39911 40152 84230 333 20232 58010 60184;
0167827650999992002041018004-07320-047460FM-12+021299999V0203501N001010450019N0200001N1+03211+02431100981ADDAA199000091GF105991031031008001021041MA1999999098601MD1999999-0011REMSYN070AAXX  10184 82765 32598 53502 10321 20243 39860 40098 83324 333 59001;EQDQ01  00002PRCP99
0223827650999992002041100004-07320-047460FM-12+021299999V0209999C000010024019N0100001N1+02511+02411101471ADDAA106006191AY161061AY221061GA1091+999999999GF109991091999999999999999KA1240M+03311MA1999999099071MD1999999+0151MW1131REMSYN094AAXX  11004 82765 21/97 90000 10251 20241 39907 40147 71362 333 10331 29084 55053 58015 60061;
0179827650999992002041112004-07320-047460FM-12+021299999V0200501N000510120019N0200001N1+02501+02321101691ADDAA124010991GF108991081081008001999999KA1240N+02311MA1999999099271MD1999999+0161REMSYN088AAXX  11124 82765 21598 80501 10250 20232 39927 40169 7//66 888// 333 20231 58016 60114;
0167827650999992002041118004-07320-047460FM-12+021299999V0200501N001010120019N0200001N1+02941+02401101281ADDAA199000091GF107991051081008001011001MA1999999098881MD1999999+0281REMSYN070AAXX  11184 82765 32598 70502 10294 20240 39888 40128 85810 333 58028;EQDQ01  00002PRCP99
0179827650999992002041212004-07320-047460FM-12+021299999V0200201N001510120019N0200001N1+02541+02401101621ADDAA124000191GF108991061081008001021999KA1240N+02371MA1999999099221MD1999999+0051REMSYN088AAXX  12124 82765 21598 80203 10254 20240 39922 40162 7//55 8682/ 333 20237 58005 69924;
0182827650999992002041218004-07320-047460FM-12+021299999V0200901N001510450019N0200001N1+02641+02351101271ADDAA106009991AY191061AY261061GF108991041031008001021999MA1999999098871MD1999999-0011MW1291REMSYN082AAXX  12184 82765 21598 80903 10264 20235 39887 40127 72996 8432/ 333 59001 60101;
0214827650999992002041300004-07320-047460FM-12+021299999V0200901N001019999999N0200001N1+02481+02381101541ADDAA199000091GA1091+999999999GF109991091999999999999999KA1240M+03261MA1999999099131MD1999999+0101REMSYN088AAXX  13000 82765 31/98 90901 10248 20238 39913 40154 7//99 333 10326 29091 55008 58010;EQDQ01  00002PRCP99
0173827650999992002041312004-07320-047460FM-12+021299999V0200901N000510120019N0200001N1+02541+02381101581ADDAA124009991GF107991061081008001011001KA1240N+02331MA1999999099171MD1999999-0051REMSYN082AAXX  13124 82765 22598 70901 10254 20238 39917 40158 86810 333 20233 59005 60104;
0167827650999992002041318004-07320-047460FM-12+021299999V0203201N001012200019N0200001N1+03281+02451101171ADDAA199000091GF104991031021008001041001MA1999999098801MD1999999-0071REMSYN070AAXX  13184 82765 32598 43202 10328 20245 39880 40117 83240 333 59007;EQDQ01  00002PRCP99
0208827650999992002041400004-07320-047460FM-12+021299999V0202701N001010024019N0100001N1+02601+02391101381ADDAA199000091GA1091+999999999GF109991091999999999999999KA1240M+03451MA1999999098981MD1999999-0151REMSYN082AAXX  14004 82765 32/97 92702 10260 20239 39898 40138 333 10345 29082 55072 59015;EQDQ01  00002PRCP99
0179827650999992002041412004-07320-047460FM-12+021299999V0202701N000512200019N0200001N1+02641+02411101691ADDAA124000191GF104991031021008001041001KA1240N+02371MA1999999099281MD1999999+0111REMSYN088AAXX  14124 82765 21598 42701 10264 20241 39928 40169 7//55 83240 333 20237 58011 69924;
0182827650999992002041418004-07320-047460FM-12+021299999V0203201N000510450019N0200001N1+02441+02341101331ADDAA106005191AY161061AY221061GF107991041021008001021001MA1999999098911MD1999999+0111MW1031REMSYN082AAXX  14184 82765 21598 73201 10244 20234 39891 40133 70362 84220 333 58011 60051;
0208827650999992002041500004-07320-047460FM-12+021299999V0209999C000012200019N0200001N1+02411+02311101431ADDAA199000091GA1001+999999999GF100991001001999999001001KA1240M+03081MA1999999099021MD1999999+0041REMSYN082AAXX  15004 82765 32998 00000 10241 20231 39902 40143 333 10308 29093 55040 58004;EQDQ01  00002PRCP99
0201827650999992002041512004-07320-047460FM-12+021299999V0209999C000010450019N0200001N1+02621+02441101591ADDAA124006191AY161061AY221061GF107991041081004501021001KA1240N+02321MA1999999099181MD1999999-0101MW1031REMSYN088AAXX  15124 82765 21498 70000 10262 20244 39918 40159 70362 84820 333 20232 59010 60064;
0201827650999992002041600004-07320-047460FM-12+021299999V0203401N002119999999N0200001N1+02401+02351101521ADDAA106000191GA1091+999999999GF109991091999999999999999KA1240M+03021MA1999999099111MD1999999+0091REMSYN094AAXX  16004 82765 21/98 93404 10240 20235 39911 40152 7//55 333 10302 29093 55012 58009 69911;
0201827650999992002041612004-07320-047460FM-12+021299999V0202901N001510450019N0200001N1+02431+02281101721ADDAA124003091AY161061AY221061GF107991041081004501011001KA1240N+02301MA1999999099291MD1999999+0111MW1031REMSYN088AAXX  16124 82765 21498 72903 10243 20228 39929 40172 70362 84810 333 20230 58011 60034;
0182827650999992002041618004-07320-047460FM-12+021299999V0202701N000512200019N0200001N1+03111+02411101341ADDAA106000191AY151061AY221061GF104991021021008001011091MA1999999098951MD1999999+0081MW1021REMSYN082AAXX  16184 82765 21598 42701 10311 20241 39895 40134 70252 82219 333 58008 69911;
0167827650999992002041718004-07320-047460FM-12+021299999V0203501N001010450019N0200001N1+03081+02401101311ADDAA199000091GF106991041021008001041001MA1999999098921MD1999999-0031REMSYN070AAXX  17184 82765 32598 63502 10308 20240 39892 40131 84240 333 59003;EQDQ01  00002PRCP99
0208827650999992002041800004-07320-047460FM-12+021299999V0203601N001519999999N0200001N1+02681+02461101401ADDAA199000091GA1091+999999999GF109991091999999999999999KA1240M+03161MA1999999099011MD1999999-0101REMSYN082AAXX  18004 82765 32/98 93603 10268 20246 39901 40140 333 10316 29083 55062 59010;EQDQ01  00002PRCP99
0186827650999992002041812004-07320-047460FM-12+021299999V0203601N000512200019N0200001N1+02701+02391101571ADDAA199000091GF101991011011008001001001KA1240N+02271MA1999999099181MD1999999-0151REMSYN076AAXX  18124 82765 32598 13601 10270 20239 39918 40157 81100 333 20227 59015;EQDQ01  00002PRCP99
0167827650999992002041818004-07320-047460FM-12+021299999V0201101N002612200019N0200001N1+03361+02271101161ADDAA199000091GF103991031021008001001001MA1999999098791MD1999999-0131REMSYN070AAXX  18184 82765 32598 31105 10336 20227 39879 40116 83200 333 59013;EQDQ01  00002PRCP99
0208827650999992002041900004-07320-047460FM-12+021299999V0201401N004612200019N0200001N1+02821+02461101211ADDAA199000091GA1001+999999999GF100991001001999999001001KA1240M+03461MA1999999098841MD1999999-0171REMSYN082AAXX  19004 82765 32998 01409 10282 20246 39884 40121 333 10346 29075 55109 59017;EQDQ01  00002PRCP99
0167827650999992002041918004-07320-047460FM-12+021299999V0201401N003112200019N0200001N1+03281+02321101161ADDAA199000091GF104991041011008001001001MA1999999098701MD1999999-0131REMSYN070AAXX  19184 82765 32598 41406 10328 20232 39870 40116 84100 333 59013;EQDQ01  00002PRCP99
0186827650999992002042012004-07320-047460FM-12+021299999V0209999C000010450019N0200001N1+02631+02291101411ADDAA199000091GF105991031011008001061041KA1240N+02321MA1999999099021MD1999999-0021REMSYN076AAXX  20124 82765 32598 50000 10263 20229 39902 40141 83164 333 20232 59002;EQDQ01  00002PRCP99
0167827650999992002042018004-07320-047460FM-12+021299999V0201301N003110450019N0200001N1+03191+02191101051ADDAA199000091GF106991031021008001061041MA1999999098681MD1999999-0021REMSYN070AAXX  20184 82765 32598 61306 10319 20219 39868 40105 83264 333 59002;EQDQ01  00002PRCP99
0208827650999992002042100004-07320-047460FM-12+021299999V0201401N001012200019N0200001N1+02691+02371101271ADDAA199000091GA1001+999999999GF100991001001999999001001KA1240M+03341MA1999999098881MD1999999-0021REMSYN082AAXX  21004 82765 32998 01402 10269 20237 39888 40127 333 10334 29076 55078 59002;EQDQ01  00002PRCP99
0186827650999992002042112004-07320-047460FM-12+021299999V0201101N001510450019N0200001N1+02661+02291101511ADDAA199000091GF106991031011008001041001KA1240N+02171MA1999999099121MD1999999+0101REMSYN076AAXX  21124 82765 32598 61103 10266 20229 39912 40151 83140 333 20217 58010;EQDQ01  00002PRCP99
0167827650999992002042118004-07320-047460FM-12+021299999V0201401N003112200019N0200001N1+03261+02271101111ADDAA199000091GF104991031021008001041001MA1999999098731MD1999999+0051REMSYN070AAXX  21184 82765 32598 41406 10326 20227 39873 40111 83240 333 58005;EQDQ01  00002PRCP99
0198827650999992002042200004-07320-047460FM-12+021299999V0201601N000512200019N0200001N1+02801+02421101211ADDAA199000091GF102991021011008001001001KA1240M+03421MA1999999098831MD1999999-0051REMSYN088AAXX  22004 82765 32598 21601 10280 20242 39883 40121 82100 333 10342 29074 55104 59005;EQDQ01  00002PRCP99
0186827650999992002042212004-07320-047460FM-12+021299999V0201401N001510450019N0200001N1+02631+02251101421ADDAA199000091GF106991031011008001061041KA1240N+02251MA1999999099031MD1999999-0091REMSYN076AAXX  22124 82765 32598 61403 10263 20225 39903 40142 83164 333 20225 59009;EQDQ01  00002PRCP99
0167827650999992002042218004-07320-047460FM-12+021299999V0201101N002610450019N0200001N1+03211+02271101051ADDAA199000091GF106991031021008001061041MA1999999098681MD1999999-0051REMSYN070AAXX  22184 82765 32598 61105 10321 20227 39868 40105 83264 333 59005;EQDQ01  00002PRCP99
0208827650999992002042300004-07320-047460FM-12+021299999V0201101N000512200019N0200001N1+02861+02521101231ADDAA199000091GA1001+999999999GF100991001001999999001001KA1240M+03361MA1999999098851MD1999999+0021REMSYN082AAXX  23004 82765 32998 01101 10286 20252 39885 40123 333 10336 29081 55097 58002;EQDQ01  00002PRCP99
0186827650999992002042312004-07320-047460FM-12+021299999V0201101N000510450019N0200001N1+02621+02211101451ADDAA199000091GF106991031011008001041001KA1240N+02231MA1999999099061MD1999999+0031REMSYN076AAXX  23124 82765 32598 61101 10262 20221 39906 40145 83140 333 20223 58003;EQDQ01  00002PRCP99
0167827650999992002042318004-07320-047460FM-12+021299999V0201101N003112200019N0200001N1+03361+02301101001ADDAA199000091GF104991021011008001041001MA1999999098631MD1999999-0051REMSYN070AAXX  23184 82765 32598 41106 10336 20230 39863 40100 82140 333 59005;EQDQ01  00002PRCP99
0208827650999992002042400004-07320-047460FM-12+021299999V0201601N000512200019N0200001N1+02881+02521101211ADDAA199000091GA1001+999999999GF100991001001999999001001KA1240M+03481MA1999999098831MD1999999-0021REMSYN082AAXX  24004 82765 32998 01601 10288 20252 39883 40121 333 10348 29074 55079 59002;EQDQ01  00002PRCP99
0186827650999992002042412004-07320-047460FM-12+021299999V0201401N000510075019N0200001N1+02821+02421101351ADDAA199000091GF106991061011008001001001KA1240N+02411MA1999999098981MD1999999-0051REMSYN076AAXX  24124 82765 32598 61401 10282 20242 39898 40135 86100 333 20241 59005;EQDQ01  00002PRCP99
0167827650999992002042418004-07320-047460FM-12+021299999V0201101N001512200019N0200001N1+03361+02211100971ADDAA199000091GF103991021011008001041001MA1999999098611MD1999999-0071REMSYN070AAXX  24184 82765 32598 31103 10336 20221 39861 40097 82140 333 59007;EQDQ01  00002PRCP99
0198827650999992002042500004-07320-047460FM-12+021299999V0201601N000512200019N0200001N1+02881+02411101191ADDAA199000091GF102991011011008001041001KA1240M+03461MA1999999098821MD1999999-0031REMSYN088AAXX  25004 82765 32598 21601 10288 20241 39882 40119 81140 333 10346 29070 55107 59003;EQDQ01  00002PRCP99
0186827650999992002042512004-07320-047460FM-12+021299999V0201401N000510450019N0200001N1+02821+02551101501ADDAA199000091GF106991041011008001041001KA1240N+02351MA1999999099121MD1999999+0141REMSYN076AAXX  25124 82765 32598 61401 10282 20255 39912 40150 84140 333 20235 58014;EQDQ01  00002PRCP99
0167827650999992002042518004-07320-047460FM-12+021299999V0201601N002110450019N0200001N1+03341+02251101081ADDAA199000091GF105991031021008001041001MA1999999098721MD1999999+0111REMSYN070AAXX  25184 82765 32598 51604 10334 20225 39872 40108 83240 333 58011;EQDQ01  00002PRCP99
0198827650999992002042600004-07320-047460FM-12+021299999V0200701N000512200019N0200001N1+02741+02451101271ADDAA199000091GF102991021011008001001001KA1240M+03461MA1999999098891MD1999999+0071REMSYN088AAXX  26004 82765 32598 20701 10274 20245 39889 40127 82100 333 10346 29075 55094 58007;EQDQ01  00002PRCP99
0186827650999992002042612004-07320-047460FM-12+021299999V0200601N002110450019N0200001N1+02881+02371101541ADDAA199000091GF105991031021008001061091KA1240N+02361MA1999999099161MD1999999+0041REMSYN076AAXX  26124 82765 32598 50604 10288 20237 39916 40154 83269 333 20236 58004;EQDQ01  00002PRCP99
0167827650999992002042618004-07320-047460FM-12+021299999V0200601N004110450019N0200001N1+02841+02261101281ADDAA199000091GF107991041081008001021001MA1999999098881MD1999999+0161REMSYN070AAXX  26184 82765 32598 70608 10284 20226 39888 40128 84820 333 58016;EQDQ01  00002PRCP99
0213827650999992002042700004-07320-047460FM-12+021299999V0200601N000512200019N0200001N1+02531+02291101331ADDAA106000191AY151061AY221061GF104991031001017501061091KA1240M+03341MA1999999098941MD1999999+0041MW1021REMSYN100AAXX  27004 82765 21798 40601 10253 20229 39894 40133 70252 83069 333 10334 29080 55066 58004 69911;
0173827650999992002042712004-07320-047460FM-12+021299999V0200601N000510450019N0200001N1+02551+02361101541ADDAA124000191GF108991031011008001011999KA1240N+02271MA1999999099131MD1999999-0031REMSYN082AAXX  27124 82765 22598 80601 10255 20236 39913 40154 8311/ 333 20227 59003 69914;
0167827650999992002042718004-07320-047460FM-12+021299999V0203101N000510450019N0200001N1+03201+02461101101ADDAA199000091GF107991041031008001011041MA1999999098721MD1999999-0161REMSYN070AAXX  27184 82765 32598 73101 10320 20246 39872 40110 84314 333 59016;EQDQ01  00002PRCP99
0198827650999992002042800004-07320-047460FM-12+021299999V0203101N000510450019N0200001N1+02551+02331101301ADDAA199000091GF107991041011008001061001KA1240M+03361MA1999999098901MD1999999-0041REMSYN088AAXX  28004 82765 32598 73101 10255 20233 39890 40130 84160 333 10336 29083 55045 59004;EQDQ01  00002PRCP99
0186827650999992002042812004-07320-047460FM-12+021299999V0203101N000512200019N0200001N1+02791+02361101441ADDAA199000091GF104991021011008001061011KA1240N+02321MA1999999099051MD1999999-0081REMSYN076AAXX  28124 82765 32598 43101 10279 20236 39905 40144 82161 333 20232 59008;EQDQ01  00002PRCP99
0182827650999992002042818004-07320-047460FM-12+021299999V0203301N002110450019N0200001N1+02561+02291101251ADDAA106010991AY161061AY221061GF107991041031008001021001MA1999999098851MD1999999+0131MW1031REMSYN082AAXX  28184 82765 21598 73304 10256 20229 39885 40125 70362 84320 333 58013 60111;
0223827650999992002042900004-07320-047460FM-12+021299999V0209999C000012200019N0200001N1+02511+02401101371ADDAA106000191AY151061AY221061GA1001+999999999GF100991001001999999001001KA1240M+03391MA1999999098981MD1999999+0081MW1021REMSYN094AAXX  29004 82765 21998 00000 10251 20240 39898 40137 70252 333 10339 29088 55063 58008 69911;
0173827650999992002042912004-07320-047460FM-12+021299999V0203201N000510450019N0200001N1+02461+02411101561ADDAA124010991GF106991041011008001041001KA1240N+02191MA1999999099151MD1999999+0101REMSYN082AAXX  29124 82765 22598 63201 10246 20241 39915 40156 84140 333 20219 58010 60114;
0167827650999992002042918004-07320-047460FM-12+021299999V0201101N002610450019N0200001N1+03321+02231101161ADDAA199000091GF106991041021008001041001MA1999999098791MD1999999-0061REMSYN070AAXX  29184 82765 32598 61105 10332 20223 39879 40116 84240 333 59006;EQDQ01  00002PRCP99
0198827650999992002043000004-07320-047460FM-12+021299999V0201101N000512200019N0200001N1+02761+02541101441ADDAA199000091GF101991011011008001001001KA1240M+03441MA1999999099041MD1999999+0061REMSYN088AAXX  30004 82765 32598 11101 10276 20254 39904 40144 81100 333 10344 29082 55085 58006;EQDQ01  00002PRCP99
0186827650999992002043012004-07320-047460FM-12+021299999V0201101N000511050019N0200001N1+02581+02381101701ADDAA199000091GF106991021011008001011041KA1240N+02271MA1999999099301MD1999999+0151REMSYN076AAXX  30124 82765 32598 61101 10258 20238 39930 40170 82114 333 20227 58015;EQDQ01  00002PRCP99
0167827650999992002043018004-07320-047460FM-12+021299999V0201301N001010450019N0200001N1+03341+02431101301ADDAA199000091GF106991031021008001041001MA1999999098921MD1999999+0131REMSYN070AAXX  30184 82765 32598 61302 10334 20243 39892 40130 83240 333 58013;EQDQ01  00002PRCP99
0186827650999992002050112004-07320-047460FM-12+021299999V0201601N001012200019N0200001N1+02741+02451101621ADDAA199000091GF103991031011008001001001KA1240N+02331MA1999999099241MD1999999-0061REMSYN076AAXX  01124 82765 32598 31602 10274 20245 39924 40162 83100 333 20233 59006;EQDQ01  00002PRCP99
0167827650999992002050118004-07320-047460FM-12+021299999V0201901N001512200019N0200001N1+03361+02331101231ADDAA199000091GF103991021011008001041001MA1999999098861MD1999999-0061REMSYN070AAXX  01184 82765 32598 31903 10336 20233 39886 40123 82140 333 59006;EQDQ01  00002PRCP99
0186827650999992002050212004-07320-047460FM-12+021299999V0201601N002112200019N0200001N1+02851+02381101441ADDAA199000091GF104991021011008001061041KA1240N+02381MA1999999099061MD1999999-0181REMSYN076AAXX  02124 82765 32598 41604 10285 20238 39906 40144 82164 333 20238 59018;EQDQ01  00002PRCP99
0167827650999992002050218004-07320-047460FM-12+021299999V0202701N001010450019N0200001N1+03361+02391101071ADDAA199000091GF106991041021008001061041MA1999999098711MD1999999-0151REMSYN070AAXX  02184 82765 32598 62702 10336 20239 39871 40107 84264 333 59015;EQDQ01  00002PRCP99
0208827650999992002050300004-07320-047460FM-12+021299999V0203101N001519999999N0200001N1+02861+02541101241ADDAA199000091GA1091+999999999GF109991091999999999999999KA1240M+03501MA1999999098871MD1999999-0051REMSYN082AAXX  03004 82765 32/98 93103 10286 20254 39887 40124 333 10350 29075 55076 59005;EQDQ01  00002PRCP99
0186827650999992002050312004-07320-047460FM-12+021299999V0209999C000010450019N0200001N1+02691+02391101481ADDAA199000091GF106991041021008001041041KA1240N+02481MA1999999099101MD1999999+0041REMSYN076AAXX  03124 82765 32598 60000 10269 20239 39910 40148 84244 333 20248 58004;EQDQ01  00002PRCP99
0195827650999992002050318004-07320-047460FM-12+021299999V0200601N001510450019N0100001N1+02821+02331101071ADDAA199000091AY191061AY221061GF107991041031008001021041MA1999999098681MD1999999-0031MW1031REMSYN076AAXX  03184 82765 31597 70603 10282 20233 39868 40107 70392 84324 333 59003;EQDQ01  00002PRCP99
0208827650999992002050400004-07320-047460FM-12+021299999V0200601N001510024019N0100001N1+02511+02291101311ADDAA199000091GA1091+999999999GF109991091999999999999999KA1240M+03431MA1999999098911MD1999999+0041REMSYN082AAXX  04004 82765 32997 90603 10251 20229 39891 40131 333 10343 29084 55050 58004;EQDQ01  00002PRCP99
0186827650999992002050412004-07320-047460FM-12+021299999V0201601N001512200019N0200001N1+02851+02311101601ADDAA199000091GF103991011011008001011011KA1240N+02341MA1999999099211MD1999999+0111REMSYN076AAXX  04124 82765 32598 31603 10285 20231 39921 40160 81111 333 20234 58011;EQDQ01  00002PRCP99
0167827650999992002050418004-07320-047460FM-12+021299999V0201201N002610450019N0200001N1+03151+02351101131ADDAA199000091GF105991031031008001061001MA1999999098751MD1999999+0071REMSYN070AAXX  04184 82765 32598 51205 10315 20235 39875 40113 83360 333 58007;EQDQ01  00002PRCP99
0208827650999992002050500004-07320-047460FM-12+021299999V0201101N001519999999N0200001N1+02741+02331101431ADDAA199000091GA1091+999999999GF109991091999999999999999KA1240M+03381MA1999999099051MD1999999+0141REMSYN082AAXX  05004 82765 32/98 91103 10274 20233 39905 40143 333 10338 29076 55094 58014;EQDQ01  00002PRCP99
0166827650999992002050518004-07320-047460FM-12+021299999V0200901N005110450019N0200001N1+03181+02441101341ADDAA106003091GF105991031031008001041001MA1999999098971MD1999999+0221MW1951REMSYN082AAXX  05184 82765 21598 50910 10318 20244 39897 40134 795// 83340 333 58022 60031;
0173827650999992002050612004-07320-047460FM-12+021299999V0201001N000510075019N0200001N1+02701+02501101831ADDAA124003091GF105991051021008001001001KA1240N+02371MA1999999099431MD1999999+0071REMSYN082AAXX  06124 82765 22598 51001 10270 20250 39943 40183 85200 333 20237 58007 60034;
0167827650999992002050618004-07320-047460FM-12+021299999V0201401N001512200019N0200001N1+03341+02431101241ADDAA199000091GF103991021021008001041001MA1999999098871MD1999999-0101REMSYN070AAXX  06184 82765 32598 31403 10334 20243 39887 40124 82240 333 59010;EQDQ01  00002PRCP99
0173827650999992002050712004-07320-047460FM-12+021299999V0201401N001012200019N0200001N1+02741+02451101621ADDAA124002091GF103991021011008001041001KA1240N+02351MA1999999099231MD1999999-0201REMSYN082AAXX  07124 82765 22598 31402 10274 20245 39923 40162 82140 333 20235 59020 60024;
0167827650999992002050718004-07320-047460FM-12+021299999V0201401N001010450019N0200001N1+03361+02451101171ADDAA199000091GF105991031021008001041001MA1999999098801MD1999999-0071REMSYN070AAXX  07184 82765 32598 51402 10336 20245 39880 40117 83240 333 59007;EQDQ01  00002PRCP99
0208827650999992002050800004-07320-047460FM-12+021299999V0201401N001012200019N0200001N1+02841+02441101391ADDAA199000091GA1001+999999999GF100991001001999999001001KA1240M+03501MA1999999099011MD1999999-0031REMSYN082AAXX  08004 82765 32998 01402 10284 20244 39901 40139 333 10350 29075 55094 59003;EQDQ01  00002PRCP99
0186827650999992002050812004-07320-047460FM-12+021299999V0201401N001010075019N0200001N1+02701+02301101661ADDAA199000091GF107991051021008001011001KA1240N+02421MA1999999099271MD1999999+0041REMSYN076AAXX  08124 82765 32598 71402 10270 20230 39927 40166 85210 333 20242 58004;EQDQ01  00002PRCP99
0167827650999992002050818004-07320-047460FM-12+021299999V0201101N002110075019N0200001N1+03011+02371101231ADDAA199000091GF107991051021008001061001MA1999999098851MD1999999+0051REMSYN070AAXX  08184 82765 32598 71104 10301 20237 39885 40123 85260 333 58005;EQDQ01  00002PRCP99
0208827650999992002050900004-07320-047460FM-12+021299999V0201001N002110024019N0100001N1+02641+02351101571ADDAA199000091GA1091+999999999GF109991091999999999999999KA1240M+03111MA1999999099171MD1999999+0161REMSYN082AAXX  09004 82765 32/97 91004 10264 20235 39917 40157 333 10311 29079 55033 58016;EQDQ01  00002PRCP99
0201827650999992002050912004-07320-047460FM-12+021299999V0201101N000510450019N0200001N1+02621+02351101761ADDAA124001091AY161061AY221061GF107991041081008001031001KA1240N+02471MA1999999099361MD1999999+0091MW1031REMSYN088AAXX  09124 82765 21598 71101 10262 20235 39936 40176 70362 84830 333 20247 58009 69994;
0167827650999992002050918004-07320-047460FM-12+021299999V0201001N001510450019N0200001N1+02901+02301101361ADDAA199000091GF106991041031008001061001MA1999999098971MD1999999+0121REMSYN070AAXX  09184 82765 32598 61003 10290 20230 39897 40136 84360 333 58012;EQDQ01  00002PRCP99
0208827650999992002051000004-07320-047460FM-12+021299999V0209999C000010024019N0100001N1+02821+02521101551ADDAA199000091GA1091+999999999GF109991091999999999999999KA1240M+03351MA1999999099161MD1999999-0011REMSYN082AAXX  10004 82765 32/97 90000 10282 20252 39916 40155 333 10335 29081 55060 59001;EQDQ01  00002PRCP99
0186827650999992002051012004-07320-047460FM-12+021299999V0209999C000012200019N0200001N1+02761+02401101781ADDAA199000091GF104991011011008001061041KA1240N+02331MA1999999099391MD1999999+0031REMSYN076AAXX  10124 82765 32598 40000 10276 20240 39939 40178 81164 333 20233 58003;EQDQ01  00002PRCP99
0167827650999992002051018004-07320-047460FM-12+021299999V0201401N003110450019N0200001N1+03331+02231101311ADDAA199000091GF105991031021008001041001MA1999999098941MD1999999-0031REMSYN070AAXX  10184 82765 32598 51406 10333 20223 39894 40131 83240 333 59003;EQDQ01  00002PRCP99
0208827650999992002051100004-07320-047460FM-12+021299999V0201401N001010024019N0100001N1+02831+02441101541ADDAA199000091GA1091+999999999GF109991091999999999999999KA1240M+03441MA1999999099161MD1999999+0001REMSYN082AAXX  11004 82765 32/97 91402 10283 20244 39916 40154 333 10344 29074 55102 58000;EQDQ01  00002PRCP99
0186827650999992002051112004-07320-047460FM-12+021299999V0201401N001512200019N0200001N1+02801+02461101811ADDAA199000091GF103991011011008001041001KA1240N+02311MA1999999099431MD1999999+0041REMSYN076AAXX  11124 82765 32598 31403 10280 20246 39943 40181 81140 333 20231 58004;EQDQ01  00002PRCP99
0167827650999992002051118004-07320-047460FM-12+021299999V0201401N002612200019N0200001N1+03381+02191101361ADDAA199000091GF104991021011008001041001MA1999999098991MD1999999+0051REMSYN070AAXX  11184 82765 32598 41405 10338 20219 39899 40136 82140 333 58005;EQDQ01  00002PRCP99
0179827650999992002051212004-07320-047460FM-12+021299999V0201401N001510450019N0200001N1+02541+02401101821ADDAA124006191GF106991031021008001041001KA1240N+02371MA1999999099421MD1999999-0011REMSYN088AAXX  12124 82765 21598 61403 10254 20240 39942 40182 7//66 83240 333 20237 59001 60064;
0186827650999992002051312004-07320-047460FM-12+021299999V0201401N001510075019N0200001N1+02661+02431101791ADDAA199000091GF106991061011008001001001KA1240N+02331MA1999999099381MD1999999-0041REMSYN076AAXX  13124 82765 32598 61403 10266 20243 39938 40179 86100 333 20233 59004;EQDQ01  00002PRCP99
0167827650999992002051318004-07320-047460FM-12+021299999V0201401N002112200019N0200001N1+03321+02011101361ADDAA199000091GF102991021011008001001001MA1999999098991MD1999999+0021REMSYN070AAXX  13184 82765 32598 21404 10332 20201 39899 40136 82100 333 58002;EQDQ01  00002PRCP99
0186827650999992002051412004-07320-047460FM-12+021299999V0201401N002612200019N0200001N1+02761+02211101571ADDAA199000091GF102991021001017501051001KA1240N+02261MA1999999099191MD1999999-0191REMSYN076AAXX  14124 82765 32798 21405 10276 20221 39919 40157 82050 333 20226 59019;EQDQ01  00002PRCP99
0167827650999992002051418004-07320-047460FM-12+021299999V0201301N004112200019N0200001N1+03291+02031101251ADDAA199000091GF104991031011008001051001MA1999999098871MD1999999-0121REMSYN070AAXX  14184 82765 32598 41308 10329 20203 39887 40125 83150 333 59012;EQDQ01  00002PRCP99
0208827650999992002051500004-07320-047460FM-12+021299999V0201401N000510024019N0100001N1+02791+02321101401ADDAA199000091GA1091+999999999GF109991091999999999999999KA1240M+03441MA1999999099021MD1999999-0111REMSYN082AAXX  15004 82765 32/97 91401 10279 20232 39902 40140 333 10344 29068 55107 59011;EQDQ01  00002PRCP99
0186827650999992002051512004-07320-047460FM-12+021299999V0201401N001010450019N0200001N1+02401+02131101711ADDAA199000091GF106991021011012501031001KA1240N+02201MA1999999099301MD1999999+0111REMSYN076AAXX  15124 82765 32698 61402 10240 20213 39930 40171 82130 333 20220 58011;EQDQ01  00002PRCP99
0167827650999992002051518004-07320-047460FM-12+021299999V0201401N003112200019N0200001N1+03341+02021101291ADDAA199000091GF102991021011008001001001MA1999999098911MD1999999+0041REMSYN070AAXX  15184 82765 32598 21406 10334 20202 39891 40129 82100 333 58004;EQDQ01  00002PRCP99
0208827650999992002051600004-07320-047460FM-12+021299999V0201401N000510024019N0100001N1+02821+02421101461ADDAA199000091GA1091+999999999GF109991091999999999999999KA1240M+03481MA1999999099061MD1999999+0041REMSYN082AAXX  16004 82765 32/97 91401 10282 20242 39906 40146 333 10348 29072 55081 58004;EQDQ01  00002PRCP99
0186827650999992002051612004-07320-047460FM-12+021299999V0201401N000510450019N0200001N1+02661+02331101551ADDAA199000091GF106991031011008001031001KA1240N+02321MA1999999099161MD1999999-0141REMSYN076AAXX  16124 82765 32598 61401 10266 20233 39916 40155 83130 333 20232 59014;EQDQ01  00002PRCP99
0167827650999992002051618004-07320-047460FM-12+021299999V0201401N002610450019N0200001N1+03451+02431101141ADDAA199000091GF106991041021008001051041MA1999999098781MD1999999-0131REMSYN070AAXX  16184 82765 32598 61405 10345 20243 39878 40114 84254 333 59013;EQDQ01  00002PRCP99
0236827650999992002051700004-07320-047460FM-12+021299999V0201401N001010024019N0100001N1+02941+02581101361ADDAA199000091AY121061AY211061GA1091+999999999GF109991091999999999999999KA1240M+03611MA1999999098981MD1999999-0081MW1131REMSYN088AAXX  17004 82765 31/97 91402 10294 20258 39898 40136 71321 333 10361 29074 55079 59008;EQDQ01  00002PRCP99
0186827650999992002051712004-07320-047460FM-12+021299999V0201401N001012200019N0200001N1+02741+02341101451ADDAA199000091GF103991011011008001001011KA1240N+02391MA1999999099081MD1999999-0081REMSYN076AAXX  17124 82765 32598 31402 10274 20234 39908 40145 81101 333 20239 59008;EQDQ01  00002PRCP99
0167827650999992002051718004-07320-047460FM-12+021299999V0201401N001512200019N0200001N1+03461+02361100981ADDAA199000091GF104991021021008001041001MA1999999098631MD1999999-0151REMSYN070AAXX  17184 82765 32598 41403 10346 20236 39863 40098 82240 333 59015;EQDQ01  00002PRCP99
0186827650999992002051812004-07320-047460FM-12+021299999V0201401N000510450019N0200001N1+02901+02501101391ADDAA199000091GF106991031011008001011021KA1240N+02411MA1999999099021MD1999999-0061REMSYN076AAXX  18124 82765 32598 61401 10290 20250 39902 40139 83112 333 20241 59006;EQDQ01  00002PRCP99
0154827650999992002051818004-07320-047460FM-12+021299999V0201401N000510450019N0200001N1+99999+99999101091ADDAA106045091GF106991041021008001041021MA1999999098701MD1999999+0071REMSYN076AAXX  18184 82765 21598 61401 20244 39870 40109 7//96 84242 333 58007 60451;
0173827650999992002051912004-07320-047460FM-12+021299999V0201401N001010120019N0200001N1+02841+02501101601ADDAA124045091GF107991051081008001041001KA1240N+02491MA1999999099221MD1999999+0201REMSYN082AAXX  19124 82765 22598 71402 10284 20250 39922 40160 85840 333 20249 58020 60454;
0167827650999992002051918004-07320-047460FM-12+021299999V0201401N001512200019N0200001N1+03161+02391101151ADDAA199000091GF103991031021008001001001MA1999999098781MD1999999+0081REMSYN070AAXX  19184 82765 32598 31403 10316 20239 39878 40115 83200 333 58008;EQDQ01  00002PRCP99
0186827650999992002052012004-07320-047460FM-12+021299999V0201301N001010075019N0200001N1+02821+02481101661ADDAA199000091GF107991051021008001061001KA1240N+02501MA1999999099281MD1999999+0061REMSYN076AAXX  20124 82765 32598 71302 10282 20248 39928 40166 85260 333 20250 58006;EQDQ01  00002PRCP99
0182827650999992002052018004-07320-047460FM-12+021299999V0201301N002110450019N0040001N1+02821+02381101261ADDAA106000591AY161061AY221061GF107991041031008001021001MA1999999098871MD1999999+0091MW1151REMSYN082AAXX  20184 82765 21596 71304 10282 20238 39887 40126 71562 84320 333 58009 69961;
0173827650999992002052112004-07320-047460FM-12+021299999V0209999C000012200019N0200001N1+02761+02421101601ADDAA124000591GF103991011011008001051041KA1240N+02361MA1999999099211MD1999999-0071REMSYN082AAXX  21124 82765 22598 30000 10276 20242 39921 40160 81154 333 20236 59007 69964;
0167827650999992002052118004-07320-047460FM-12+021299999V0201301N001010450019N0200001N1+03381+02521101111ADDAA199000091GF105991031031008001011041MA1999999098741MD1999999-0131REMSYN070AAXX  21184 82765 32598 51302 10338 20252 39874 40111 83314 333 59013;EQDQ01  00002PRCP99
0208827650999992002052200004-07320-047460FM-12+021299999V0209999C000012200019N0200001N1+02831+02501101331ADDAA199000091GA1001+999999999GF100991001001999999001001KA1240M+03541MA1999999098951MD1999999+0001REMSYN082AAXX  22004 82765 32998 00000 10283 20250 39895 40133 333 10354 29077 55091 58000;EQDQ01  00002PRCP99
0201827650999992002052212004-07320-047460FM-12+021299999V0209999C000010450019N0200001N1+02371+02241101641ADDAA124002091AY161061AY221061GF108991041081004501021999KA1240N+02331MA1999999099241MD1999999+0031MW1031REMSYN088AAXX  22124 82765 21498 80000 10237 20224 39924 40164 70362 8482/ 333 20233 58003 60024;
0167827650999992002052218004-07320-047460FM-12+021299999V0201301N001010450019N0200001N1+02991+02471101191ADDAA199000091GF105991031021008001031001MA1999999098811MD1999999+0071REMSYN070AAXX  22184 82765 32598 51302 10299 20247 39881 40119 83230 333 58007;EQDQ01  00002PRCP99
0208827650999992002052300004-07320-047460FM-12+021299999V0209999C000012200019N0200001N1+02801+02561101371ADDAA199000091GA1001+999999999GF100991001001999999001001KA1240M+03211MA1999999098971MD1999999+0021REMSYN082AAXX  23004 82765 32998 00000 10280 20256 39897 40137 333 10321 29086 55037 58002;EQDQ01  00002PRCP99
0186827650999992002052312004-07320-047460FM-12+021299999V0201301N001512200019N0200001N1+02721+02471101571ADDAA199000091GF102991021011008001001001KA1240N+02371MA1999999099181MD1999999-0061REMSYN076AAXX  23124 82765 32598 21303 10272 20247 39918 40157 82100 333 20237 59006;EQDQ01  00002PRCP99
0195827650999992002052318004-07320-047460FM-12+021299999V0201301N003110075019N0200001N1+03361+02391101061ADDAA106007991AY151061AY251061GF106991061021008001021001MA1999999098701MD1999999-0111REMSYN082AAXX  23184 82765 21598 61306 10336 20239 39870 40106 76655 86220 333 59011 60081;EQDQ01+000662PRSWM1
0173827650999992002052412004-07320-047460FM-12+021299999V0201301N001010120019N0200001N1+02481+02411101741ADDAA124036191GF108991061081008001021999KA1240N+02291MA1999999099321MD1999999+0141REMSYN082AAXX  24124 82765 22598 81302 10248 20241 39932 40174 8682/ 333 20229 58014 60364;
0167827650999992002052418004-07320-047460FM-12+021299999V0201301N001510120019N0200001N1+02741+02341101371ADDAA199000091GF108991071081008001021999MA1999999098961MD1999999+0261REMSYN070AAXX  24184 82765 32598 81303 10274 20234 39896 40137 8782/ 333 58026;EQDQ01  00002PRCP99
0179827650999992002052512004-07320-047460FM-12+021299999V0201301N000510120019N0200001N1+02421+02331101831ADDAA124001091GF108991061081008001021999KA1240N+02331MA1999999099411MD1999999+0091REMSYN088AAXX  25124 82765 21598 81301 10242 20233 39941 40183 7//65 8682/ 333 20233 58009 60014;
0160827650999992002052518004-07320-047460FM-12+021299999V0201301N001510450019N0200001N1+02761+02361101481ADDAA106000191GF106991041081008001041001MA1999999099071MD1999999+0111REMSYN082AAXX  25184 82765 21598 61303 10276 20236 39907 40148 7//55 84840 333 58011 69921;
0198827650999992002052600004-07320-047460FM-12+021299999V0201301N000510120019N0200001N1+02591+02421101631ADDAA199000091GF108991081081008001999999KA1240M+02861MA1999999099221MD1999999+0081REMSYN088AAXX  26004 82765 32598 81301 10259 20242 39922 40163 888// 333 10286 29089 55019 58008;EQDQ01  00002PRCP99
0173827650999992002052612004-07320-047460FM-12+021299999V0201301N002612200019N0200001N1+02661+02331101731ADDAA124000191GF103991021011008001041001KA1240N+02351MA1999999099321MD1999999-0081REMSYN082AAXX  26124 82765 22598 31305 10266 20233 39932 40173 82140 333 20235 59008 69924;
0167827650999992002052618004-07320-047460FM-12+021299999V0201301N001510450019N0200001N1+03141+02381101321ADDAA199000091GF106991041021008001041001MA1999999098941MD1999999-0131REMSYN070AAXX  26184 82765 32598 61303 10314 20238 39894 40132 84240 333 59013;EQDQ01  00002PRCP99
0186827650999992002052712004-07320-047460FM-12+021299999V0201401N004612200019N0200001N1+02661+02071101661ADDAA199000091GF101991011011012501001001KA1240N+02331MA1999999099261MD1999999-0061REMSYN076AAXX  27124 82765 32698 11409 10266 20207 39926 40166 81100 333 20233 59006;EQDQ01  00002PRCP99
0167827650999992002052718004-07320-047460FM-12+021299999V0201401N002112200019N0200001N1+03161+02121101191ADDAA199000091GF101991011011012501001001MA1999999098821MD1999999-0121REMSYN070AAXX  27184 82765 32698 11404 10316 20212 39882 40119 81100 333 59012;EQDQ01  00002PRCP99
0208827650999992002052800004-07320-047460FM-12+021299999V0209999C000012200019N0200001N1+02741+02361101401ADDAA199000091GA1001+999999999GF100991001001999999001001KA1240M+03301MA1999999099011MD1999999-0091REMSYN082AAXX  28004 82765 32998 00000 10274 20236 39901 40140 333 10330 29071 55108 59009;EQDQ01  00002PRCP99
0186827650999992002052812004-07320-047460FM-12+021299999V0201401N001012200019N0200001N1+02541+02291101591ADDAA199000091GF102991001001999999001041KA1240N+02131MA1999999099191MD1999999-0071REMSYN076AAXX  28124 82765 32998 21402 10254 20229 39919 40159 80004 333 20213 59007;EQDQ01  00002PRCP99
0167827650999992002052818004-07320-047460FM-12+021299999V0201401N002612200019N0200001N1+03211+02091101191ADDAA199000091GF103991021011008001001041MA1999999098811MD1999999-0011REMSYN070AAXX  28184 82765 32598 31405 10321 20209 39881 40119 82104 333 59001;EQDQ01  00002PRCP99
0208827650999992002052900004-07320-047460FM-12+021299999V0209999C000012200019N0200001N1+02741+02321101351ADDAA199000091GA1001+999999999GF100991001001999999001001KA1240M+03341MA1999999098961MD1999999-0051REMSYN082AAXX  29004 82765 32998 00000 10274 20232 39896 40135 333 10334 29072 55107 59005;EQDQ01  00002PRCP99
0196827650999992002052912004-07320-047460FM-12+021299999V0201401N000512200019N0200001N1+02641+02231101561ADDAA199000091GA1001+999999999GF100991001001999999001001KA1240N+02151MA1999999099171MD1999999-0021REMSYN070AAXX  29124 82765 32598 01401 10264 20223 39917 40156 333 20215 59002;EQDQ01  00002PRCP99
0167827650999992002052918004-07320-047460FM-12+021299999V0201401N001510075019N0200001N1+03261+02351101221ADDAA199000091GF106991061021008001001001MA1999999098841MD1999999+0031REMSYN070AAXX  29184 82765 32598 61403 10326 20235 39884 40122 86200 333 58003;EQDQ01  00002PRCP99
0208827650999992002053000004-07320-047460FM-12+021299999V0201401N001012200019N0200001N1+02761+02481101411ADDAA199000091GA1001+999999999GF100991001001999999001001KA1240M+03361MA1999999099021MD1999999+0011REMSYN082AAXX  30000 82765 32998 01401 10276 20248 39902 40141 333 10336 29077 55081 58001;EQDQ01  00002PRCP99
0186827650999992002053012004-07320-047460FM-12+021299999V0201401N001512200019N0200001N1+02601+02271101561ADDAA199000091GF102991011011008001001041KA1240N+02211MA1999999099171MD1999999+0001REMSYN076AAXX  30124 82765 32598 21403 10260 20227 39917 40156 81104 333 20221 58000;EQDQ01  00002PRCP99
0167827650999992002053018004-07320-047460FM-12+021299999V0201401N001512200019N0200001N1+03341+02251101231ADDAA199000091GF103991031011008001001001MA1999999098851MD1999999+0011REMSYN070AAXX  30184 82765 32598 31403 10334 20225 39885 40123 83100 333 58001;EQDQ01  00002PRCP99
0186827650999992002053112004-07320-047460FM-12+021299999V0201401N000512200019N0200001N1+02721+02301101741ADDAA199000091GF102991011011008001001041KA1240N+02231MA1999999099351MD1999999+0181REMSYN076AAXX  31124 82765 32598 21401 10272 20230 39935 40174 81104 333 20223 58018;EQDQ01  00002PRCP99
0167827650999992002053118004-07320-047460FM-12+021299999V0201401N002112200019N0200001N1+03341+02151101351ADDAA199000091GF103991021011008001001041MA1999999098981MD1999999+0131REMSYN070AAXX  31184 82765 32598 31404 10334 20215 39898 40135 82104 333 58013;EQDQ01  00002PRCP99
0208827650999992002060100004-07320-047460FM-12+021299999V0209999C000012200019N0200001N1+02861+02441101471ADDAA199000091GA1001+999999999GF100991001001999999001001KA1240M+03481MA1999999099091MD1999999+0021REMSYN082AAXX  01004 82765 32998 00000 10286 20244 39909 40147 333 10348 29071 55106 58002;EQDQ01  00002PRCP99
0186827650999992002060112004-07320-047460FM-12+021299999V0201401N001010075019N0200001N1+02591+02251101791ADDAA199000091GF106991061021008001001001KA1240N+02251MA1999999099391MD1999999+0041REMSYN076AAXX  01124 82765 32598 61402 10259 20225 39939 40179 86200 333 20225 58004;EQDQ01  00002PRCP99
0167827650999992002060118004-07320-047460FM-12+021299999V0201401N002112200019N0200001N1+03381+02321101341ADDAA199000091GF104991031031008001031001MA1999999098961MD1999999-0021REMSYN070AAXX  01184 82765 32598 41404 10338 20232 39896 40134 83330 333 59002;EQDQ01  00002PRCP99
0201827650999992002060212004-07320-047460FM-12+021299999V0209999C000010075019N0200001N1+02581+02371101791ADDAA124000191AY151061AY221061GF106991061011008001001001KA1240N+02371MA1999999099401MD1999999+0011MW1031REMSYN088AAXX  02124 82765 21598 60000 10258 20237 39940 40179 70352 86100 333 20237 58001 69924;
0195827650999992002060218004-07320-047460FM-12+021299999V0201401N002110450019N0200001N1+03321+02321101401ADDAA199000091AY121061AY221061GF106991041031008001051001MA1999999099031MD1999999+0071MW1171REMSYN076AAXX  02184 82765 31598 61404 10332 20232 39903 40140 71722 84350 333 58007;EQDQ01  00002PRCP99
0208827650999992002060300004-07320-047460FM-12+021299999V0201401N001010024019N0100001N1+02531+02361101621ADDAA199000091GA1091+999999999GF109991091999999999999999KA1240M+03441MA1999999099211MD1999999+0171REMSYN082AAXX  03004 82765 32/97 91402 10253 20236 39921 40162 333 10344 29082 55051 58017;EQDQ01  00002PRCP99
0201827650999992002060312004-07320-047460FM-12+021299999V0201401N001512200019N0200001N1+02771+02341101681ADDAA124003091AY161061AY221061GF104991031081008001031001KA1240N+02321MA1999999099281MD1999999-0121MW1021REMSYN088AAXX  03124 82765 21598 41403 10277 20234 39928 40168 70262 83830 333 20232 59012 60034;
0167827650999992002060318004-07320-047460FM-12+021299999V0201401N002112200019N0200001N1+03311+02211101261ADDAA199000091GF104991041011008001001001MA1999999098891MD1999999-0141REMSYN070AAXX  03184 82765 32598 41404 10331 20221 39889 40126 84100 333 59014;EQDQ01  00002PRCP99
0186827650999992002060412004-07330-047470FM-12+021299999V0201401N000512200019N0200001N1+02641+02251101661ADDAA199000091GF101991011011008001001001KA1240N+02171MA1999999099261MD1999999-0021REMSYN076AAXX  04124 82765 32598 11401 10264 20225 39926 40166 81100 333 20217 59002;EQDQ01  00002PRCP99
0167827650999992002060418004-07330-047470FM-12+021299999V0201401N002612200019N0200001N1+03331+02141101271ADDAA199000091GF103991031011008001001001MA1999999098891MD1999999+0001REMSYN070AAXX  04184 82765 32598 31405 10333 20214 39889 40127 83100 333 58000;EQDQ01  00002PRCP99
0208827650999992002060500004-07330-047470FM-12+021299999V0201401N001010024019N0100001N1+02771+02321101411ADDAA199000091GA1091+999999999GF109991091999999999999999KA1240M+03481MA1999999099021MD1999999-0091REMSYN082AAXX  05004 82765 32/97 91402 10277 20232 39902 40141 333 10348 29071 55108 59009;EQDQ01  00002PRCP99
0186827650999992002060512004-07330-047470FM-12+021299999V0201401N001012200019N0200001N1+02731+02321101541ADDAA199000091GF103991011011008001051041KA1240N+02241MA1999999099151MD1999999-0111REMSYN076AAXX  05124 82765 32598 31402 10273 20232 39915 40154 81154 333 20224 59011;EQDQ01  00002PRCP99
0167827650999992002060518004-07330-047470FM-12+021299999V0201401N002612200019N0200001N1+03331+02071101191ADDAA199000091GF104991041021008001001001MA1999999098821MD1999999-0071REMSYN070AAXX  05184 82765 32598 41405 10333 20207 39882 40119 84200 333 59007;EQDQ01  00002PRCP99
0208827650999992002060600004-07330-047470FM-12+021299999V0201401N001019999999N0200001N1+02811+02421101361ADDAA199000091GA1091+999999999GF109991091999999999999999KA1240M+03461MA1999999098981MD1999999-0041REMSYN082AAXX  06004 82765 32/98 91402 10281 20242 39898 40136 333 10346 29072 55108 59004;EQDQ01  00002PRCP99
0167827650999992002060618004-07330-047470FM-12+021299999V0201401N002612200019N0200001N1+03351+02281101181ADDAA199000091GF104991021011008001061041MA1999999098811MD1999999-0011REMSYN070AAXX  06184 82765 32598 41405 10335 20228 39881 40118 82164 333 59001;EQDQ01  00002PRCP99
0208827650999992002060700004-07330-047470FM-12+021299999V0209999C000019999999N0200001N1+02871+02481101371ADDAA199000091GA1091+999999999GF109991091999999999999999KA1240M+03501MA1999999098991MD1999999+0011REMSYN082AAXX  07004 82765 32/98 90000 10287 20248 39899 40137 333 10350 29074 55096 58001;EQDQ01  00002PRCP99
0186827650999992002060712004-07330-047470FM-12+021299999V0201401N001012200019N0200001N1+02671+02271101611ADDAA199000091GF102991011011008001031001KA1240N+02161MA1999999099221MD1999999+0011REMSYN076AAXX  07124 82765 32598 21402 10267 20227 39922 40161 81130 333 20216 58001;EQDQ01  00002PRCP99
0167827650999992002060718004-07330-047470FM-12+021299999V0201401N001512200019N0200001N1+03341+02311101281ADDAA199000091GF103991021021008001011001MA1999999098901MD1999999+0091REMSYN070AAXX  07184 82765 32598 31403 10334 20231 39890 40128 82210 333 58009;EQDQ01  00002PRCP99
0208827650999992002060800004-07330-047470FM-12+021299999V0201401N000519999999N0200001N1+02761+02281101471ADDAA199000091GA1091+999999999GF109991091999999999999999KA1240M+03471MA1999999099081MD1999999+0091REMSYN082AAXX  08004 82765 32/98 91401 10276 20228 39908 40147 333 10347 29070 55107 58009;EQDQ01  00002PRCP99
0186827650999992002060812004-07330-047470FM-12+021299999V0209999C000012200019N0200001N1+02561+02211101821ADDAA199000091GF102991021001017501031001KA1240N+02121MA1999999099421MD1999999+0201REMSYN076AAXX  08124 82765 32798 20000 10256 20221 39942 40182 82030 333 20212 58020;EQDQ01  00002PRCP99
0167827650999992002060818004-07330-047470FM-12+021299999V0201401N004110450019N0200001N1+03201+01991101461ADDAA199000091GF105991031021008001031001MA1999999099011MD1999999+0171REMSYN070AAXX  08184 82765 32598 51408 10320 20199 39901 40146 83230 333 58017;EQDQ01  00002PRCP99
0208827650999992002060900004-07330-047470FM-12+021299999V0201401N001019999999N0200001N1+02761+02321101651ADDAA199000091GA1091+999999999GF109991091999999999999999KA1240M+03361MA1999999099251MD1999999+0171REMSYN082AAXX  09004 82765 32/98 91402 10276 20232 39925 40165 333 10336 29071 55102 58017;EQDQ01  00002PRCP99
0186827650999992002060912004-07330-047470FM-12+021299999V0201301N001012200019N0200001N1+02811+02081101791ADDAA199000091GF104991021011008001031091KA1240N+02301MA1999999099401MD1999999-0021REMSYN076AAXX  09124 82765 32598 41302 10281 20208 39940 40179 82139 333 20230 59002;EQDQ01  00002PRCP99
0167827650999992002060918004-07330-047470FM-12+021299999V0201401N001012200019N0200001N1+03401+02241101311ADDAA199000091GF104991021021008001061091MA1999999098941MD1999999-0131REMSYN070AAXX  09184 82765 32598 41402 10340 20224 39894 40131 82269 333 59013;EQDQ01  00002PRCP99
0208827650999992002061000004-07330-047470FM-12+021299999V0209999C000019999999N0200001N1+02831+02421101541ADDAA199000091GA1091+999999999GF109991091999999999999999KA1240M+03541MA1999999099161MD1999999-0091REMSYN082AAXX  10004 82765 32/98 90000 10283 20242 39916 40154 333 10354 29068 55081 59009;EQDQ01  00002PRCP99
0186827650999992002061012004-07330-047470FM-12+021299999V0201401N002612200019N0200001N1+02771+02321101771ADDAA199000091GF102991011011008001031001KA1240N+02331MA1999999099381MD1999999-0021REMSYN076AAXX  10124 82765 32598 21405 10277 20232 39938 40177 81130 333 20233 59002;EQDQ01  00002PRCP99
0167827650999992002061018004-07330-047470FM-12+021299999V0201401N001512200019N0200001N1+03371+02171101311ADDAA199000091GF104991031011008001061001MA1999999098941MD1999999+0001REMSYN070AAXX  10184 82765 32598 41403 10337 20217 39894 40131 83160 333 58000;EQDQ01  00002PRCP99
0208827650999992002061100004-07330-047470FM-12+021299999V0201401N000519999999N0200001N1+02811+02311101511ADDAA199000091GA1091+999999999GF109991091999999999999999KA1240M+03501MA1999999099131MD1999999-0031REMSYN082AAXX  11004 82765 32/98 91401 10281 20231 39913 40151 333 10350 29069 55104 59003;EQDQ01  00002PRCP99
0196827650999992002061112004-07330-047470FM-12+021299999V0201401N001012200019N0200001N1+02641+02251101721ADDAA199000091GA1001+999999999GF100991001001999999001001KA1240N+02121MA1999999099321MD1999999-0061REMSYN070AAXX  11124 82765 32998 01402 10264 20225 39932 40172 333 20212 59006;EQDQ01  00002PRCP99
0167827650999992002061118004-07330-047470FM-12+021299999V0201401N002112200019N0200001N1+03351+01911101311ADDAA199000091GF104991041011008001001001MA1999999098931MD1999999-0011REMSYN070AAXX  11184 82765 32598 41404 10335 20191 39893 40131 84100 333 59001;EQDQ01  00002PRCP99
0208827650999992002061200004-07330-047470FM-12+021299999V0201401N001019999999N0200001N1+02711+02201101531ADDAA199000091GA1091+999999999GF109991091999999999999999KA1240M+03511MA1999999099141MD1999999+0011REMSYN082AAXX  12004 82765 32/98 91402 10271 20220 39914 40153 333 10351 29068 55106 58001;EQDQ01  00002PRCP99
0186827650999992002061212004-07330-047470FM-12+021299999V0201401N001512200019N0200001N1+02601+01941101711ADDAA199000091GF101991011011012501001001KA1240N+01961MA1999999099311MD1999999-0011REMSYN076AAXX  12124 82765 32698 11403 10260 20194 39931 40171 81100 333 20196 59001;EQDQ01  00002PRCP99
0167827650999992002061218004-07330-047470FM-12+021299999V0201401N002112200019N0200001N1+03351+01871101341ADDAA199000091GF104991041021008001001001MA1999999098951MD1999999+0021REMSYN070AAXX  12184 82765 32598 41404 10335 20187 39895 40134 84200 333 58002;EQDQ01  00002PRCP99
0208827650999992002061300004-07330-047470FM-12+021299999V0201401N000519999999N0200001N1+02781+02321101531ADDAA199000091GA1091+999999999GF109991091999999999999999KA1240M+03501MA1999999099141MD1999999+0001REMSYN082AAXX  13004 82765 32/98 91401 10278 20232 39914 40153 333 10350 29065 55105 58000;EQDQ01  00002PRCP99
0186827650999992002061312004-07330-047470FM-12+021299999V0209999C000010075019N0200001N1+02571+02191101751ADDAA199000091GF107991071021008001001001KA1240N+02221MA1999999099351MD1999999+0041REMSYN076AAXX  13124 82765 32598 70000 10257 20219 39935 40175 87200 333 20222 58004;EQDQ01  00002PRCP99
0167827650999992002061318004-07330-047470FM-12+021299999V0201401N001510075019N0200001N1+03301+02211101321ADDAA199000091GF106991061031008001001001MA1999999098941MD1999999-0011REMSYN070AAXX  13184 82765 32598 61403 10330 20221 39894 40132 86300 333 59001;EQDQ01  00002PRCP99
0186827650999992002061412004-07330-047470FM-12+021299999V0201401N000510450019N0200001N1+02761+02341101831ADDAA199000091GF106991041021008001061001KA1240N+02321MA1999999099441MD1999999+0091REMSYN076AAXX  14124 82765 32598 61401 10276 20234 39944 40183 84260 333 20232 58009;EQDQ01  00002PRCP99
0167827650999992002061418004-07330-047470FM-12+021299999V0201401N002110450019N0200001N1+03341+02191101411ADDAA199000091GF105991041021008001051041MA1999999099041MD1999999-0101REMSYN070AAXX  14184 82765 32598 51404 10334 20219 39904 40141 84254 333 59010;EQDQ01  00002PRCP99
0208827650999992002061500004-07330-047470FM-12+021299999V0201401N001019999999N0200001N1+02671+02161101631ADDAA199000091GA1091+999999999GF109991091999999999999999KA1240M+03461MA1999999099241MD1999999+0101REMSYN082AAXX  15004 82765 32/98 91402 10267 20216 39924 40163 333 10346 29069 55081 58010;EQDQ01  00002PRCP99
0186827650999992002061512004-07330-047470FM-12+021299999V0201401N002112200019N0200001N1+02611+02101101911ADDAA199000091GF104991021001017501061041KA1240N+02161MA1999999099501MD1999999+0061REMSYN076AAXX  15124 82765 32798 41404 10261 20210 39950 40191 82064 333 20216 58006;EQDQ01  00002PRCP99
0208827650999992002061600004-07330-047470FM-12+021299999V0201301N000519999999N0200001N1+02721+02321101731ADDAA199000091GA1091+999999999GF109991091999999999999999KA1240M+03451MA1999999099331MD1999999+0091REMSYN082AAXX  16004 82765 32/98 91301 10272 20232 39933 40173 333 10345 29069 55096 58009;EQDQ01  00002PRCP99
0167827650999992002061618004-07330-047470FM-12+021299999V0201401N001010075019N0200001N1+03351+02121101461ADDAA199000091GF105991051021008001001001MA1999999099071MD1999999-0031REMSYN070AAXX  16184 82765 32598 51402 10335 20212 39907 40146 85200 333 59003;EQDQ01  00002PRCP99
0208827650999992002061700004-07330-047470FM-12+021299999V0209999C000019999999N0200001N1+02811+02311101371ADDAA199000091GA1091+999999999GF109991091999999999999999KA1240M+03511MA1999999099291MD1999999-0041REMSYN082AAXX  17004 82765 32/98 90000 10281 20231 39929 40137 333 10351 29071 55106 59004;EQDQ01  00002PRCP99
0186827650999992002061712004-07330-047470FM-12+021299999V0201401N001512200019N0200001N1+02681+02161101791ADDAA199000091GF102991021011008001001001KA1240N+02321MA1999999099401MD1999999-0021REMSYN076AAXX  17124 82765 32598 21403 10268 20216 39940 40179 82100 333 20232 59002;EQDQ01  00002PRCP99
0167827650999992002061718004-07330-047470FM-12+021299999V0201401N002112200019N0200001N1+03341+01751101401ADDAA199000091GF104991041011008001001001MA1999999099031MD1999999-0041REMSYN070AAXX  17184 82765 32598 41404 10334 20175 39903 40140 84100 333 59004;EQDQ01  00002PRCP99
0198827650999992002061800004-07330-047470FM-12+021299999V0201401N001012200019N0200001N1+02681+02111101601ADDAA199000091GF104991041011012501001001KA1240M+03481MA1999999099211MD1999999-0081REMSYN088AAXX  18004 82765 32698 41402 10268 20211 39921 40160 84100 333 10348 29064 55107 59008;EQDQ01  00002PRCP99
0196827650999992002061812004-07320-047460FM-12+021299999V0201401N003112200019N0200001N1+02521+02051101851ADDAA199000091GA1001+999999999GF100991001001999999001001KA1240N+02141MA1999999099441MD1999999+0041REMSYN070AAXX  18124 82765 32998 01406 10252 20205 39944 40185 333 20214 58004;EQDQ01  00002PRCP99
0208827650999992002061900004-07320-047460FM-12+021299999V0201401N001012200019N0200001N1+02641+02051101731ADDAA199000091GA1001+999999999GF100991001001999999001001KA1240M+03471MA1999999099651MD1999999+0141REMSYN082AAXX  19004 82765 32998 01402 10264 20205 39965 40173 333 10347 29061 55107 58014;EQDQ01  00002PRCP99
0196827650999992002061912004-07320-047460FM-12+021299999V0201401N001012200019N0200001N1+02451+01921101911ADDAA199000091GA1001+999999999GF100991001001999999001001KA1240N+01971MA1999999099491MD1999999+0051REMSYN070AAXX  19124 82765 32998 01402 10245 20192 39949 40191 333 20197 58005;EQDQ01  00002PRCP99
0208827650999992002062000004-07320-047460FM-12+021299999V0201401N001012200019N0200001N1+02631+01981101711ADDAA199000091GA1001+999999999GF100991001001999999001001KA1240M+03461MA1999999099301MD1999999-0051REMSYN082AAXX  20004 82765 32998 01402 10263 20198 39930 40171 333 10346 29061 55107 59005;EQDQ01  00002PRCP99
0186827650999992002062012004-07320-047460FM-12+021299999V0201401N001012200019N0200001N1+02461+01851101821ADDAA199000091GF103991021001017501051041KA1240N+01911MA1999999099411MD1999999-0081REMSYN076AAXX  20124 82765 32798 31402 10246 20185 39941 40182 82054 333 20191 59008;EQDQ01  00002PRCP99
0167827650999992002062018004-07320-047460FM-12+021299999V0201401N004112200019N0200001N1+03211+01861101421ADDAA199000091GF102991011011012501061001MA1999999099021MD1999999-0081REMSYN070AAXX  20184 82765 32698 21408 10321 20186 39902 40142 81160 333 59008;EQDQ01  00002PRCP99
0167827650999992002062118004-07330-047470FM-12+021299999V0201401N003110450019N0200001N1+03341+02051101451ADDAA199000091GF106991041021008001011041MA1999999099071MD1999999+0051REMSYN070AAXX  21184 82765 32598 61406 10334 20205 39907 40145 84214 333 58005;EQDQ01  00002PRCP99
0198827650999992002062200004-07330-047470FM-12+021299999V0209999C000010150019N0200001N1+02851+02311101711ADDAA199000091GF108991081001017501011001KA1240M+03481MA1999999099331MD1999999+0051REMSYN088AAXX  22004 82765 32798 80000 10285 20231 39933 40171 88010 333 10348 29064 55100 58005;EQDQ01  00002PRCP99
0186827650999992002062212004-07330-047470FM-12+021299999V0201401N001012200019N0200001N1+02821+02051101861ADDAA199000091GF104991021011008001031001KA1240N+02471MA1999999099471MD1999999+0001REMSYN076AAXX  22124 82765 32598 41402 10282 20205 39947 40186 82130 333 20247 58000;EQDQ01  00002PRCP99
0167827650999992002062218004-07330-047470FM-12+021299999V0201401N002110075019N0200001N1+03241+02131101461ADDAA199000091GF107991071021008001001001MA1999999099081MD1999999+0011REMSYN070AAXX  22184 82765 32598 71404 10324 20213 39908 40146 87200 333 58001;EQDQ01  00002PRCP99
0198827650999992002062300004-07330-047470FM-12+021299999V0201401N001012200019N0200001N1+02831+02311101751ADDAA199000091GF103991021021008001031001KA1240M+03421MA1999999099361MD1999999+0031REMSYN088AAXX  23004 82765 32598 31402 10283 20231 39936 40175 82230 333 10342 29067 55034 58003;EQDQ01  00002PRCP99
0186827650999992002062312004-07330-047470FM-12+021299999V0201401N001010450019N0200001N1+02631+02141101881ADDAA199000091GF105991031011008001031001KA1240N+02181MA1999999099481MD1999999+0011REMSYN076AAXX  23124 82765 32598 51402 10263 20214 39948 40188 83130 333 20218 58001;EQDQ01  00002PRCP99
0167827650999992002062318004-07330-047470FM-12+021299999V0201401N002110450019N0200001N1+03201+02121101531ADDAA199000091GF105991031021008001011091MA1999999099141MD1999999+0061REMSYN070AAXX  23184 82765 32598 51404 10320 20212 39914 40153 83219 333 58006;EQDQ01  00002PRCP99
0208827650999992002062400004-07330-047470FM-12+021299999V0201401N000512200019N0200001N1+02701+02151101791ADDAA199000091GA1001+999999999GF100991001001999999001001KA1240M+03361MA1999999099391MD1999999+0031REMSYN082AAXX  24004 82765 32998 01401 10270 20215 39939 40179 333 10336 29068 55085 58003;EQDQ01  00002PRCP99
0186827650999992002062412004-07330-047470FM-12+021299999V0201401N002612200019N0200001N1+02541+01911101981ADDAA199000091GF102991021001017501031001KA1240N+02011MA1999999099571MD1999999+0091REMSYN076AAXX  24124 82765 32798 21405 10254 20191 39957 40198 82030 333 20201 58009;EQDQ01  00002PRCP99
0167827650999992002062418004-07330-047470FM-12+021299999V0201401N001510450019N0200001N1+03231+02051101631ADDAA199000091GF106991041021008001011001MA1999999099231MD1999999+0091REMSYN070AAXX  24184 82765 32598 61403 10323 20205 39923 40163 84210 333 58009;EQDQ01  00002PRCP99
0198827650999992002062500004-07330-047470FM-12+021299999V0209999C000010450019N0200001N1+02761+02211101851ADDAA199000091GF106991041021008001061001KA1240M+03431MA1999999099451MD1999999+0061REMSYN088AAXX  25004 82765 32598 60000 10276 20221 39945 40185 84260 333 10343 29066 55081 58006;EQDQ01  00002PRCP99
0186827650999992002062512004-07330-047470FM-12+021299999V0201401N002110120019N0200001N1+02571+01991102061ADDAA199000091GF106991061001012501021001KA1240N+02061MA1999999099651MD1999999+0081REMSYN076AAXX  25124 82765 32698 61404 10257 20199 39965 40206 86020 333 20206 58008;EQDQ01  00002PRCP99
0167827650999992002062518004-07330-047470FM-12+021299999V0201401N002610450019N0200001N1+03121+02051101751ADDAA199000091GF105991031021008001011001MA1999999099341MD1999999+0111REMSYN070AAXX  25184 82765 32598 51405 10312 20205 39934 40175 83210 333 58011;EQDQ01  00002PRCP99
0186827650999992002062612004-07330-047470FM-12+021299999V0201401N001510450019N0200001N1+02381+02071102051ADDAA199000091GF106991041021008001031001KA1240N+02131MA1999999099631MD1999999-0021REMSYN076AAXX  26124 82765 32598 61403 10238 20207 39963 40205 84230 333 20213 59002;EQDQ01  00002PRCP99
0186827650999992002062712004-07330-047470FM-12+021299999V0201401N000510450019N0200001N1+02381+02031102041ADDAA199000091GF105991031011008001031041KA1240N+02191MA1999999099631MD1999999+0001REMSYN076AAXX  27124 82765 32598 51401 10238 20203 39963 40204 83134 333 20219 58000;EQDQ01  00002PRCP99
0167827650999992002062718004-07330-047470FM-12+021299999V0201401N003110450019N0200001N1+03221+01951101571ADDAA199000091GF106991041011008001041001MA1999999099181MD1999999-0161REMSYN070AAXX  27184 82765 32598 61406 10322 20195 39918 40157 84140 333 59016;EQDQ01  00002PRCP99
0198827650999992002062800004-07330-047470FM-12+021299999V0201401N001012200019N0200001N1+02701+02131101741ADDAA199000091GF104991041011999999001001KA1240M+03411MA1999999099331MD1999999-0111REMSYN088AAXX  28004 82765 32/98 41402 10270 20213 39933 40174 84100 333 10341 29068 55077 59011;EQDQ01  00002PRCP99
0196827650999992002062812004-07330-047470FM-12+021299999V0200901N003612200019N0200001N1+02531+01791101981ADDAA199000091GA1001+999999999GF100991001001999999001001KA1240N+02031MA1999999099571MD1999999-0061REMSYN070AAXX  28124 82765 32998 00907 10253 20179 39957 40198 333 20203 59006;EQDQ01  00002PRCP99
0167827650999992002062818004-07330-047470FM-12+021299999V0200801N003112200019N0200001N1+03281+01891101511ADDAA199000091GF104991041011008001001001MA1999999099111MD1999999-0071REMSYN070AAXX  28184 82765 32598 40806 10328 20189 39911 40151 84100 333 59007;EQDQ01  00002PRCP99
0208827650999992002062900004-07330-047470FM-12+021299999V0200801N000512200019N0200001N1+02731+02121101721ADDAA199000091GA1001+999999999GF100991001001999999001001KA1240M+03431MA1999999099321MD1999999-0011REMSYN082AAXX  29004 82765 32998 00801 10273 20212 39932 40172 333 10343 29062 55106 59001;EQDQ01  00002PRCP99
0196827650999992002062912004-07330-047470FM-12+021299999V0209999C000012200019N0200001N1+02421+01951101861ADDAA199000091GA1001+999999999GF100991001001999999001001KA1240N+01901MA1999999099451MD1999999-0121REMSYN070AAXX  29124 82765 32998 00000 10242 20195 39945 40186 333 20190 59012;EQDQ01  00002PRCP99
0167827650999992002062918004-07330-047470FM-12+021299999V0200601N003112200019N0200001N1+03341+01801101431ADDAA199000091GF102991021011008001001001MA1999999099041MD1999999-0071REMSYN070AAXX  29184 82765 32598 20606 10334 20180 39904 40143 82100 333 59007;EQDQ01  00002PRCP99
0167827650999992002063018004-07330-047470FM-12+021299999V0200901N003112200019N0200001N1+03341+01751101611ADDAA199000091GF103991031011008001001001MA1999999099211MD1999999+0171REMSYN070AAXX  30184 82765 32598 30906 10334 20175 39921 40161 83100 333 58017;EQDQ01  00002PRCP99
0208827650999992002070100004-07330-047470FM-12+021299999V0200601N001512200019N0200001N1+02761+02071101831ADDAA199000091GA1001+999999999GF100991001001999999001001KA1240M+03511MA1999999099421MD1999999+0111REMSYN082AAXX  01004 82765 32998 00603 10276 20207 39942 40183 333 10351 29060 55107 58011;EQDQ01  00002PRCP99
0212827650999992002070112004-07330-047470FM-12+021299999V0201001N001012200019N0200001N1+02461+01901102091ADDAA199000091GA1001+999999999GF100991001001999999001001KA1240N+99999MA1999999099671MD1999999+0101REMSYN070AAXX  01124 82765 32998 01002 10246 20190 39967 40209 333 20297 58010;EQDQ01  00002PRCP99Q02 +02972ATMN  
0167827650999992002070118004-07330-047470FM-12+021299999V0201001N002610075019N0200001N1+03421+01941101671ADDAA199000091GF105991051011008001001001MA1999999099281MD1999999+0071REMSYN070AAXX  01184 82765 32598 51005 10342 20194 39928 40167 85100 333 58007;EQDQ01  00002PRCP99
0186827650999992002070212004-07330-047470FM-12+021299999V0200901N004612200019N0200001N1+02741+01841101921ADDAA199000091GF101991011011008001001001KA1240N+02271MA1999999099531MD1999999-0141REMSYN076AAXX  02124 82765 32598 10909 10274 20184 39953 40192 81100 333 20227 59014;EQDQ01  00002PRCP99
0167827650999992002070218004-07330-047470FM-12+021299999V0200801N002612200019N0200001N1+03361+01931101491ADDAA199000091GF103991031011008001001001MA1999999099101MD1999999-0181REMSYN070AAXX  02184 82765 32598 30805 10336 20193 39910 40149 83100 333 59018;EQDQ01  00002PRCP99
0196827650999992002070312004-07330-047470FM-12+021299999V0200801N003112200019N0200001N1+02701+01781101861ADDAA199000091GA1001+999999999GF100991001001999999001001KA1240N+02151MA1999999099471MD1999999-0061REMSYN070AAXX  03124 82765 32998 00806 10270 20178 39947 40186 333 20215 59006;EQDQ01  00002PRCP99
0167827650999992002070318004-07330-047470FM-12+021299999V0200801N003112200019N0200001N1+03321+01891101461ADDAA199000091GF104991041011008001001001MA1999999099071MD1999999-0031REMSYN070AAXX  03184 82765 32598 40806 10332 20189 39907 40146 84100 333 59003;EQDQ01  00002PRCP99
0198827650999992002070400004-07330-047470FM-12+021299999V0209999C000012200019N0200001N1+02761+02121101711ADDAA199000091GF101991011011008001001001KA1240M+03441MA1999999099321MD1999999+0001REMSYN088AAXX  04004 82765 32598 10000 10276 20212 39932 40171 81100 333 10344 29095 55102 58000;EQDQ01  00002PRCP99
0196827650999992002070412004-07330-047470FM-12+021299999V0201401N001012200019N0200001N1+02401+01651101871ADDAA199000091GA1001+999999999GF100991001001999999001001KA1240N+01921MA1999999099461MD1999999-0011REMSYN070AAXX  04124 82765 32998 01402 10240 20165 39946 40187 333 20192 59001;EQDQ01  00002PRCP99
0167827650999992002070418004-07330-047470FM-12+021299999V0200501N003112200019N0200001N1+03331+01671101491ADDAA199000091GF103991031011008001001001MA1999999099091MD1999999+0021REMSYN070AAXX  04184 82765 32598 30506 10333 20167 39909 40149 83100 333 58002;EQDQ01  00002PRCP99
0208827650999992002070500004-07330-047470FM-12+021299999V0201001N000512200019N0200001N1+02771+01991101681ADDAA199000091GA1001+999999999GF100991001001999999001001KA1240M+03521MA1999999099271MD1999999-0051REMSYN082AAXX  05004 82765 32998 01001 10277 20199 39927 40168 333 10352 29056 55107 59005;EQDQ01  00002PRCP99
0196827650999992002070512004-07330-047470FM-12+021299999V0200901N002112200019N0200001N1+02541+01631101831ADDAA199000091GA1001+999999999GF100991001001999999001001KA1240N+01971MA1999999099431MD1999999-0031REMSYN070AAXX  05124 82765 32998 00904 10254 20163 39943 40183 333 20197 59003;EQDQ01  00002PRCP99
0167827650999992002070518004-07330-047470FM-12+021299999V0200901N003112200019N0200001N1+03371+01731101291ADDAA199000091GF104991041011008001001001MA1999999098901MD1999999-0191REMSYN070AAXX  05184 82765 32598 40906 10337 20173 39890 40129 84100 333 59019;EQDQ01  00002PRCP99
0167827650999992002070618004-07330-047470FM-12+021299999V0200501N001010075019N0200001N1+03431+01871101261ADDAA199000091GF105991051021008001001001MA1999999098891MD1999999-0011REMSYN070AAXX  06184 82765 32598 50502 10343 20187 39889 40126 85200 333 59001;EQDQ01  00002PRCP99
0186827650999992002070712004-07330-047470FM-12+021299999V0200901N000512200019N0200001N1+02681+01991101971ADDAA199000091GF102991021011008001001001KA1240N+02121MA1999999099581MD1999999+0211REMSYN076AAXX  07124 82765 32598 20901 10268 20199 39958 40197 82100 333 20212 58021;EQDQ01  00002PRCP99
0167827650999992002070718004-07330-047470FM-12+021299999V0201001N002110075019N0200001N1+03441+02041101421ADDAA199000091GF105991051011008001001001MA1999999099041MD1999999+0151REMSYN070AAXX  07184 82765 32598 51004 10344 20204 39904 40142 85100 333 58015;EQDQ01  00002PRCP99
0186827650999992002070812004-07330-047470FM-12+021299999V0201401N001512200019N0200001N1+02461+02031101811ADDAA199000091GF102991021011008001001001KA1240N+02111MA1999999099411MD1999999-0171REMSYN076AAXX  08124 82765 32598 21403 10246 20203 39941 40181 82100 333 20211 59017;EQDQ01  00002PRCP99
0167827650999992002070818004-07330-047470FM-12+021299999V0201401N001010075019N0200001N1+03511+02131101331ADDAA199000091GF106991051011008001001041MA1999999098961MD1999999-0081REMSYN070AAXX  08184 82765 32598 61402 10351 20213 39896 40133 85104 333 59008;EQDQ01  00002PRCP99
0186827650999992002070912004-07330-047470FM-12+021299999V0201301N001012200019N0200001N1+02741+02141101871ADDAA199000091GF101991011011008001001001KA1240N+02331MA1999999099481MD1999999+0071REMSYN076AAXX  09124 82765 32598 11302 10274 20214 39948 40187 81100 333 20233 58007;EQDQ01  00002PRCP99
0167827650999992002070918004-07330-047470FM-12+021299999V0203401N001510075019N0200001N1+03541+01971101401ADDAA199000091GF106991061021008001001001MA1999999099031MD1999999+0071REMSYN070AAXX  09184 82765 32598 63403 10354 20197 39903 40140 86200 333 58007;EQDQ01  00002PRCP99
0186827650999992002071012004-07330-047470FM-12+021299999V0200701N002612200019N0200001N1+02781+02091101861ADDAA199000091GF103991021011008001001091KA1240N+02281MA1999999099481MD1999999+0001REMSYN076AAXX  10124 82765 32598 30705 10278 20209 39948 40186 82109 333 20228 58000;EQDQ01  00002PRCP99
0167827650999992002071018004-07330-047470FM-12+021299999V0200701N005112200019N0200001N1+03421+01611101401ADDAA199000091GF103991031011008001001001MA1999999099041MD1999999+0011REMSYN070AAXX  10184 82765 32598 30710 10342 20161 39904 40140 83100 333 58001;EQDQ01  00002PRCP99
0208827650999992002071100004-07330-047470FM-12+021299999V0201001N001512200019N0200001N1+02831+02021101601ADDAA199000091GA1001+999999999GF100991001001999999001001KA1240M+03641MA1999999099221MD1999999-0101REMSYN082AAXX  11004 82765 32998 01003 10283 20202 39922 40160 333 10364 29056 55104 59010;EQDQ01  00002PRCP99
0196827650999992002071112004-07330-047470FM-12+021299999V0201001N000512200019N0200001N1+02681+02181101921ADDAA199000091GA1001+999999999GF100991001001999999001001KA1240N+02121MA1999999099521MD1999999+0041REMSYN070AAXX  11124 82765 32998 01001 10268 20218 39952 40192 333 20212 58004;EQDQ01  00002PRCP99
0167827650999992002071118004-07330-047470FM-12+021299999V0200901N003610075019N0200001N1+03381+01911101411ADDAA199000091GF105991051011008001001001MA1999999099031MD1999999-0011REMSYN070AAXX  11184 82765 32598 50907 10338 20191 39903 40141 85100 333 59001;EQDQ01  00002PRCP99
0208827650999992002071200004-07330-047470FM-12+021299999V0200901N000512200019N0200001N1+02861+02111101541ADDAA199000091GA1001+999999999GF100991001001999999001001KA1240M+03541MA1999999099151MD1999999-0071REMSYN082AAXX  12004 82765 32998 00901 10286 20211 39915 40154 333 10354 29061 55101 59007;EQDQ01  00002PRCP99
0186827650999992002071212004-07330-047470FM-12+021299999V0200901N001012200019N0200001N1+02801+02151101791ADDAA199000091GF102991021011008001001001KA1240N+02191MA1999999099411MD1999999-0111REMSYN076AAXX  12124 82765 32598 20902 10280 20215 39941 40179 82100 333 20219 59011;EQDQ01  00002PRCP99
0167827650999992002071218004-07330-047470FM-12+021299999V0200901N001510075019N0200001N1+03471+01941101341ADDAA199000091GF106991051021008001001041MA1999999098971MD1999999-0061REMSYN070AAXX  12184 82765 32598 60903 10347 20194 39897 40134 85204 333 59006;EQDQ01  00002PRCP99
0208827650999992002071300004-07330-047470FM-12+021299999V0200901N000512200019N0200001N1+02941+02291101511ADDAA199000091GA1001+999999999GF100991001001999999001001KA1240M+03661MA1999999099131MD1999999-0021REMSYN082AAXX  13004 82765 32998 00901 10294 20229 39913 40151 333 10366 29061 55104 59002;EQDQ01  00002PRCP99
0186827650999992002071312004-07330-047470FM-12+021299999V0201001N001010075019N0200001N1+02741+02241101781ADDAA199000091GF105991051011008001001001KA1240N+02251MA1999999099401MD1999999-0011REMSYN076AAXX  13124 82765 32598 51002 10274 20224 39940 40178 85100 333 20225 59001;EQDQ01  00002PRCP99
0167827650999992002071318004-07330-047470FM-12+021299999V0201301N002110075019N0200001N1+03521+02221101311ADDAA199000091GF105991051021008001001001MA1999999098941MD1999999-0031REMSYN070AAXX  13184 82765 32598 51304 10352 20222 39894 40131 85200 333 59003;EQDQ01  00002PRCP99
0186827650999992002071412004-07330-047470FM-12+021299999V0201401N002112200019N0200001N1+02821+02241101671ADDAA199000091GF102991011001017501061041KA1240N+02321MA1999999099291MD1999999-0111REMSYN076AAXX  14124 82765 32798 21404 10282 20224 39929 40167 81064 333 20232 59011;EQDQ01  00002PRCP99
0167827650999992002071418004-07330-047470FM-12+021299999V0201001N001510450019N0200001N1+03561+02071101271ADDAA199000091GF106991041031008001061001MA1999999098911MD1999999-0031REMSYN070AAXX  14184 82765 32598 61003 10356 20207 39891 40127 84360 333 59003;EQDQ01  00002PRCP99
0186827650999992002071512004-07330-047470FM-12+021299999V0201301N000512200019N0200001N1+02761+02191101831ADDAA199000091GF104991031011008001001041KA1240N+02311MA1999999099441MD1999999+0151REMSYN076AAXX  15124 82765 32598 41301 10276 20219 39944 40183 83104 333 20231 58015;EQDQ01  00002PRCP99
0167827650999992002071618004-07330-047470FM-12+021299999V0200801N003110450019N0200001N1+03391+01951101411ADDAA199000091GF107991041021008001011041MA1999999099041MD1999999+0001REMSYN070AAXX  16184 82765 32598 70806 10339 20195 39904 40141 84214 333 58000;EQDQ01  00002PRCP99
0208827650999992002071700004-07330-047470FM-12+021299999V0200801N001012200019N0200001N1+02881+02211101631ADDAA199000091GA1001+999999999GF100991001001999999001001KA1240M+03591MA1999999099251MD1999999+0131REMSYN082AAXX  17004 82765 32998 00802 10288 20221 39925 40163 333 10359 29062 55092 58013;EQDQ01  00002PRCP99
0186827650999992002071712004-07330-047470FM-12+021299999V0200901N000512200019N0200001N1+02711+02031101871ADDAA199000091GF102991021011008001001001KA1240N+02211MA1999999099251MD1999999+0041REMSYN076AAXX  17124 82765 32598 20901 10271 20203 39925 40187 82100 333 20221 58004;EQDQ01  00002PRCP99
0167827650999992002071718004-07330-047470FM-12+021299999V0200801N002612200019N0200001N1+03511+02021101391ADDAA199000091GF104991021011008001051041MA1999999099021MD1999999-0021REMSYN070AAXX  17184 82765 32598 40805 10351 20202 39902 40139 82154 333 59002;EQDQ01  00002PRCP99
0186827650999992002071812004-07330-047470FM-12+021299999V0200801N001510450019N0200001N1+02641+02071101891ADDAA199000091GF107991041011008001041051KA1240N+02171MA1999999099491MD1999999+0011REMSYN076AAXX  18124 82765 32598 70803 10264 20207 39949 40189 84145 333 20217 58001;EQDQ01  00002PRCP99
0167827650999992002071818004-07330-047470FM-12+021299999V0200801N001510450019N0200001N1+03161+02081101471ADDAA199000091GF106991031021008001041051MA1999999099071MD1999999+0051REMSYN070AAXX  18184 82765 32598 60803 10316 20208 39907 40147 83245 333 58005;EQDQ01  00002PRCP99
0186827650999992002071912004-07330-047470FM-12+021299999V0200801N001510450019N0200001N1+02601+02231101851ADDAA199000091GF107991041021008001011001KA1240N+02201MA1999999099451MD1999999-0041REMSYN076AAXX  19124 82765 32598 70803 10260 20223 39945 40185 84210 333 20220 59004;EQDQ01  00002PRCP99
0167827650999992002071918004-07330-047470FM-12+021299999V0200801N001010450019N0200001N1+03331+02101101351ADDAA199000091GF107991041021008001011001MA1999999098971MD1999999-0101REMSYN070AAXX  19184 82765 32598 70802 10333 20210 39897 40135 84210 333 59010;EQDQ01  00002PRCP99
0198827650999992002072000004-07330-047470FM-12+021299999V0200801N001012200019N0200001N1+02771+02251101551ADDAA199000091GF101991011001017501011001KA1240M+03521MA1999999099161MD1999999-0031REMSYN088AAXX  20004 82765 32798 10802 10277 20225 39916 40155 81010 333 10352 29069 55079 59003;EQDQ01  00002PRCP99
0186827650999992002072012004-07330-047470FM-12+021299999V0200801N000510450019N0200001N1+02461+02011101941ADDAA199000091GF105991031011008001041001KA1240N+02091MA1999999099531MD1999999+0081REMSYN076AAXX  20124 82765 32598 50801 10246 20201 39953 40194 83140 333 20209 58008;EQDQ01  00002PRCP99
0167827650999992002072018004-07330-047470FM-12+021299999V0200801N003112200019N0200001N1+03421+01871101361ADDAA199000091GF101991011011008001001001MA1999999098931MD1999999+0011REMSYN070AAXX  20184 82765 32598 10806 10342 20187 39893 40136 81100 333 58001;EQDQ01  00002PRCP99
0186827650999992002080812004-07330-047470FM-12+021299999V0200701N001510450019N0200001N1+02791+01731101791ADDAA199000091GF105991031011008001061041KA1240N+02081MA1999999099401MD1999999-0071REMSYN076AAXX  08124 82765 32598 50703 10279 20173 39940 40179 83164 333 20208 59007;EQDQ01  00002PRCP99
0167827650999992002080818004-07330-047470FM-12+021299999V0200701N002111050019N0200001N1+03301+01551101361ADDAA199000091GF105991021011008001011041MA1999999098971MD1999999-0011REMSYN070AAXX  08184 82765 32598 50704 10330 20155 39897 40136 82114 333 59001;EQDQ01  00002PRCP99
0196827650999992002080912004-07330-047470FM-12+021299999V0200701N003112200019N0200001N1+02661+01871101811ADDAA199000091GA1001+999999999GF100991001001999999001001KA1240N+02011MA1999999099411MD1999999+0011REMSYN070AAXX  09124 82765 32998 00706 10266 20187 39941 40181 333 20201 58001;EQDQ01  00002PRCP99
0177827650999992002080918004-07330-047470FM-12+021299999V0200801N003112200019N0200001N1+03501+01901101401ADDAA199000091GA1001+999999999GF100991001001999999001001MA1999999099021MD1999999+0051REMSYN064AAXX  09184 82765 32998 00806 10350 20190 39902 40140 333 58005;EQDQ01  00002PRCP99
0196827650999992002081012004-07330-047470FM-12+021299999V0200801N001012200019N0200001N1+02601+01571101841ADDAA199000091GA1001+999999999GF100991001001999999001001KA1240N+01891MA1999999099441MD1999999+0031REMSYN070AAXX  10124 82765 32998 00802 10260 20157 39944 40184 333 20189 58003;EQDQ01  00002PRCP99
0177827650999992002081018004-07330-047470FM-12+021299999V0200801N003112200019N0200001N1+03481+01571101361ADDAA199000091GA1001+999999999GF100991001001999999001001MA1999999098981MD1999999+0041REMSYN064AAXX  10184 82765 32998 00806 10348 20157 39898 40136 333 58004;EQDQ01  00002PRCP99
0196827650999992002081112004-07330-047470FM-12+021299999V0200801N003112200019N0200001N1+02741+01781101851ADDAA199000091GA1001+999999999GF100991001001999999001001KA1240N+02111MA1999999099461MD1999999+0021REMSYN070AAXX  11124 82765 32998 00806 10274 20178 39946 40185 333 20211 58002;EQDQ01  00002PRCP99
0177827650999992002081118004-07330-047470FM-12+021299999V0200801N002612200019N0200001N1+03421+01651101471ADDAA199000091GA1001+999999999GF100991001001999999001001MA1999999099091MD1999999+0111REMSYN064AAXX  11184 82765 32998 00805 10342 20165 39909 40147 333 58011;EQDQ01  00002PRCP99
0196827650999992002081212004-07330-047470FM-12+021299999V0200801N001512200019N0200001N1+02671+01851101851ADDAA199000091GA1001+999999999GF100991001001999999001001KA1240N+02071MA1999999099461MD1999999+0001REMSYN070AAXX  12124 82765 32998 00803 10267 20185 39946 40185 333 20207 58000;EQDQ01  00002PRCP99
0167827650999992002081218004-07330-047470FM-12+021299999V0200801N003112200019N0200001N1+03401+01771101411ADDAA199000091GF104991041011008001001001MA1999999099041MD1999999-0051REMSYN070AAXX  12184 82765 32598 40806 10340 20177 39904 40141 84100 333 59005;EQDQ01  00002PRCP99
0208827650999992002081300004-07330-047470FM-12+021299999V0200801N000512200019N0200001N1+02981+01981101611ADDAA199000091GA1001+999999999GF100991001001999999001001KA1240M+03651MA1999999099231MD1999999+0011REMSYN082AAXX  13004 82765 32998 00801 10298 20198 39923 40161 333 10365 29052 55109 58001;EQDQ01  00002PRCP99
0186827650999992002081312004-07330-047470FM-12+021299999V0200801N002610150019N0200001N1+02801+01841101841ADDAA199000091GF107991071001017501051001KA1240N+02141MA1999999099461MD1999999+0001REMSYN076AAXX  13124 82765 32798 70805 10280 20184 39946 40184 87050 333 20214 58000;EQDQ01  00002PRCP99
0167827650999992002081318004-07330-047470FM-12+021299999V0200801N009310075019N0200001N1+03601+01861101391ADDAA199000091GF105991051011008001001001MA1999999099021MD1999999-0021REMSYN070AAXX  13184 82765 32598 50818 10360 20186 39902 40139 85100 333 59002;EQDQ01  00002PRCP99
0198827650999992002081400004-07330-047470FM-12+021299999V0209999C000010075019N0200001N1+03061+02191101521ADDAA199000091GF106991061011008001001001KA1240M+03721MA1999999099151MD1999999-0081REMSYN088AAXX  14004 82765 32598 60800 10306 20219 39915 40152 86100 333 10372 29053 55102 59008;EQDQ01  00002PRCP99
0186827650999992002081412004-07330-047470FM-12+021299999V0200801N001510075019N0200001N1+02791+02031101861ADDAA199000091GF105991051021008001001001KA1240N+02411MA1999999099481MD1999999+0021REMSYN076AAXX  14124 82765 32598 50803 10279 20203 39948 40186 85200 333 20241 58002;EQDQ01  00002PRCP99
0167827650999992002081418004-07330-047470FM-12+021299999V0200801N003110075019N0200001N1+03541+01851101401ADDAA199000091GF107991071021008001001001MA1999999099031MD1999999+0011REMSYN070AAXX  14184 82765 32598 70806 10354 20185 39903 40140 87200 333 58001;EQDQ01  00002PRCP99
0186827650999992002081512004-07330-047470FM-12+021299999V0200901N004112200019N0200001N1+02981+01891101881ADDAA199000091GF102991021011008001001001KA1240N+02391MA1999999099511MD1999999+0031REMSYN076AAXX  15124 82765 32598 20908 10298 20189 39951 40188 82100 333 20239 58003;EQDQ01  00002PRCP99
0167827650999992002081518004-07330-047470FM-12+021299999V0200801N004610075019N0200001N1+03531+01701101401ADDAA199000091GF106991061021008001001001MA1999999099041MD1999999+0011REMSYN070AAXX  15184 82765 32598 60809 10353 20170 39904 40140 86200 333 58001;EQDQ01  00002PRCP99
0208827650999992002081600004-07330-047470FM-12+021299999V0200801N001012200019N0200001N1+03001+02111101541ADDAA199000091GA1001+999999999GF100991001001999999001001KA1240M+03701MA1999999099181MD1999999+0041REMSYN082AAXX  16004 82765 32998 00802 10300 20211 39918 40154 333 10370 29051 55106 58004;EQDQ01  00002PRCP99
0196827650999992002081612004-07330-047470FM-12+021299999V0200801N001512200019N0200001N1+02871+01901101901ADDAA199000091GA1001+999999999GF100991001001999999001001KA1240N+02311MA1999999099521MD1999999+0011REMSYN070AAXX  16124 82765 32998 00803 10287 20190 39952 40190 333 20231 58001;EQDQ01  00002PRCP99
0167827650999992002081618004-07330-047470FM-12+021299999V0200801N003112200019N0200001N1+03581+01751101351ADDAA199000091GF103991031011008001001001MA1999999098981MD1999999-0061REMSYN070AAXX  16184 82765 32598 30806 10358 20175 39898 40135 83100 333 59006;EQDQ01  00002PRCP99
0208827650999992002081700004-07330-047470FM-12+021299999V0200801N001012200019N0200001N1+03051+02061101531ADDAA199000091GA1001+999999999GF100991001001999999001001KA1240M+03761MA1999999099161MD1999999-0021REMSYN082AAXX  17004 82765 32998 00802 10305 20206 39916 40153 333 10376 29050 55107 59002;EQDQ01  00002PRCP99
0186827650999992002081712004-07330-047470FM-12+021299999V0200801N005712200019N0200001N1+02891+01831101851ADDAA199000091GF102991021001017501031001KA1240N+02511MA1999999099471MD1999999-0051REMSYN076AAXX  17124 82765 32798 20811 10289 20183 39947 40185 82030 333 20251 59005;EQDQ01  00002PRCP99
0167827650999992002081718004-07330-047470FM-12+021299999V0201401N002610075019N0200001N1+03501+01811101291ADDAA199000091GF106991051021008001011001MA1999999098931MD1999999-0051REMSYN070AAXX  17184 82765 32598 61405 10350 20181 39893 40129 85210 333 59005;EQDQ01  00002PRCP99
0198827650999992002081800004-07330-047470FM-12+021299999V0200901N001012200019N0200001N1+03041+02061101461ADDAA199000091GF102991021011008001001001KA1240M+03701MA1999999099091MD1999999-0071REMSYN088AAXX  18004 82765 32598 20902 10304 20206 39909 40146 82100 333 10370 29050 55105 59007;EQDQ01  00002PRCP99
0186827650999992002081812004-07330-047470FM-12+021299999V0200801N003112200019N0200001N1+02841+01671101811ADDAA199000091GF101991011011008001001001KA1240N+02431MA1999999099441MD1999999-0031REMSYN076AAXX  18124 82765 32598 10806 10284 20167 39944 40181 81100 333 20243 59003;EQDQ01  00002PRCP99
0167827650999992002081818004-07330-047470FM-12+021299999V0200901N003112200019N0200001N1+03501+01631101291ADDAA199000091GF102991021011008001001001MA1999999098931MD1999999+0001REMSYN070AAXX  18184 82765 32598 20906 10350 20163 39893 40129 82100 333 58000;EQDQ01  00002PRCP99
0186827650999992002081912004-07330-047470FM-12+021299999V0200901N003112200019N0200001N1+02821+01611101801ADDAA199000091GF102991021011008001001001KA1240N+02231MA1999999099421MD1999999-0021REMSYN076AAXX  19124 82765 32598 20906 10282 20161 39942 40180 82100 333 20223 59002;EQDQ01  00002PRCP99
0167827650999992002081918004-07330-047470FM-12+021299999V0201001N001512200019N0200001N1+03521+01701101331ADDAA199000091GF103991031011008001001001MA1999999098971MD1999999+0041REMSYN070AAXX  19184 82765 32598 31003 10352 20170 39897 40133 83100 333 58004;EQDQ01  00002PRCP99
0196827650999992002082012004-07330-047470FM-12+021299999V0201001N004112200019N0200001N1+02841+01671101761ADDAA199000091GA1001+999999999GF100991001001999999001001KA1240N+02331MA1999999099391MD1999999-0031REMSYN070AAXX  20124 82765 32998 01008 10284 20167 39939 40176 333 20233 59003;EQDQ01  00002PRCP99
0183827650999992002082018004-07330-047470FM-12+021299999V0200801N002119999999N0200001N1+03461+01781101331ADDAA199000091GF105991999051008001001001MA1999999098961MD1999999-0011REMSYN070AAXX  20184 82765 32598 50804 10346 20178 39896 40133 81500 333 59001;EQDQ01+000012SCOTLCQ02  00002PRCP99
0167827650999992002082118004-07330-047470FM-12+021299999V0200901N003110075019N0200001N1+03401+01811101411ADDAA199000091GF106991061021008001001001MA1999999099041MD1999999+0081REMSYN070AAXX  21184 82765 32598 60906 10340 20181 39904 40141 86200 333 58008;EQDQ01  00002PRCP99
0202827650999992002082200004-07330-047470FM-12+021299999V0200901N001512200019N0200001N1+02881+01891101641ADDAA199000091GA1001+999999999GF100991001001999999001001KA1240M+03621MA1999999099251MD1999999+0061REMSYN076AAXX  22004 82765 32998 00903 10288 20189 39925 40164 333 10362 55051 58006;EQDQ01  00002PRCP99
0196827650999992002082212004-07330-047470FM-12+021299999V0200901N004112200019N0200001N1+02791+01661101891ADDAA199000091GA1001+999999999GF100991001001999999001001KA1240N+02171MA1999999099501MD1999999-0011REMSYN070AAXX  22124 82765 32998 00908 10279 20166 39950 40189 333 20217 59001;EQDQ01  00002PRCP99
0167827650999992002082218004-07330-047470FM-12+021299999V0200901N002612200019N0200001N1+03501+01631101351ADDAA199000091GF103991031011008001001001MA1999999098981MD1999999-0061REMSYN070AAXX  22184 82765 32598 30905 10350 20163 39898 40135 83100 333 59006;EQDQ01  00002PRCP99
0208827650999992002082300004-07330-047470FM-12+021299999V0200901N001012200019N0200001N1+03001+01971101441ADDAA199000091GA1001+999999999GF100991001001999999001001KA1240M+03681MA1999999099071MD1999999-0181REMSYN082AAXX  23004 82765 32998 00902 10300 20197 39907 40144 333 10368 29048 55108 59018;EQDQ01  00002PRCP99
0196827650999992002082312004-07330-047470FM-12+021299999V0201101N004612200019N0200001N1+02621+01811101771ADDAA199000091GA1001+999999999GF100991001001999999001001KA1240N+02151MA1999999099381MD1999999-0121REMSYN070AAXX  23124 82765 32998 01109 10262 20181 39938 40177 333 20215 59012;EQDQ01  00002PRCP99
0167827650999992002082318004-07330-047470FM-12+021299999V0200901N001510075019N0200001N1+03461+01781101331ADDAA199000091GF105991051021008001001001MA1999999098961MD1999999-0021REMSYN070AAXX  23184 82765 32598 50903 10346 20178 39896 40133 85200 333 59002;EQDQ01  00002PRCP99
0198827650999992002082400004-07330-047470FM-12+021299999V0200901N001512200019N0200001N1+02991+01941101421ADDAA199000091GF102991021011008001001001KA1240M+03651MA1999999099021MD1999999-0051REMSYN088AAXX  24004 82765 32598 20903 10299 20194 39902 40142 82100 333 10365 29051 55108 59005;EQDQ01  00002PRCP99
0186827650999992002082412004-07330-047470FM-12+021299999V0200801N004612200019N0200001N1+02891+01571101651ADDAA199000091GF101991001001999999001041KA1240N+02401MA1999999099281MD1999999-0101REMSYN076AAXX  24124 82765 32998 10809 10289 20157 39928 40165 80004 333 20240 59010;EQDQ01  00002PRCP99
0167827650999992002082418004-07330-047470FM-12+021299999V0201001N003110075019N0200001N1+03541+01761101141ADDAA199000091GF106991061011008001001001MA1999999098791MD1999999-0011REMSYN070AAXX  24184 82765 32598 61006 10354 20176 39879 40114 86100 333 59001;EQDQ01  00002PRCP99
0198827650999992002082500004-07330-047470FM-12+021299999V0201001N001012200019N0200001N1+02971+02021101461ADDAA199000091GF102991021011008001001001KA1240M+03701MA1999999099091MD1999999+0071REMSYN088AAXX  25004 82765 32598 21002 10297 20202 39909 40146 82100 333 10370 29048 55101 58007;EQDQ01  00002PRCP99
0167827650999992002082518004-07330-047470FM-12+021299999V0202501N001512200019N0200001N1+03521+01451101231ADDAA199000091GF102991001001999999001041MA1999999098861MD1999999+0071REMSYN070AAXX  25184 82765 32998 22503 10352 20145 39886 40123 80004 333 58007;EQDQ01  00002PRCP99
0208827650999992002082600004-07330-047470FM-12+021299999V0200801N001012200019N0200001N1+02961+01811101401ADDAA199000091GA1001+999999999GF100991001001999999001001KA1240M+03751MA1999999099031MD1999999-0061REMSYN082AAXX  26004 82765 32998 00802 10296 20181 39903 40140 333 10375 29043 55106 59006;EQDQ01  00002PRCP99
0186827650999992002082612004-07330-047470FM-12+021299999V0200801N005710450019N0200001N1+02711+01411101771ADDAA199000091GF105991031011008001011001KA1240N+02051MA1999999099391MD1999999+0031REMSYN076AAXX  26124 82765 32598 50811 10271 20141 39939 40177 83110 333 20205 58003;EQDQ01  00002PRCP99
0167827650999992002082618004-07330-047470FM-12+021299999V0200801N001510450019N0200001N1+03481+01611101291ADDAA199000091GF105991031011008001011041MA1999999098921MD1999999+0061REMSYN070AAXX  26184 82765 32598 50803 10348 20161 39892 40129 83114 333 58006;EQDQ01  00002PRCP99
0186827650999992002082712004-07330-047470FM-12+021299999V0200801N002612200019N0200001N1+02821+01711101621ADDAA199000091GF102991021011008001001001KA1240N+02271MA1999999099251MD1999999+0141REMSYN076AAXX  27124 82765 32598 20805 10282 20171 39925 40162 82100 333 20227 58014;EQDQ01  00002PRCP99
0167827650999992002082718004-07330-047470FM-12+021299999V0200501N001010075019N0200001N1+03601+01811101291ADDAA199000091GF106991061021008001001001MA1999999098931MD1999999+0011REMSYN070AAXX  27184 82765 32598 60502 10360 20181 39893 40129 86200 333 58001;EQDQ01  00002PRCP99
0196827650999992002082812004-07330-047470FM-12+021299999V0201001N001512200019N0200001N1+02601+01711101591ADDAA199000091GA1001+999999999GF100991001001999999001001KA1240N+02091MA1999999099201MD1999999-0051REMSYN070AAXX  28124 82765 32998 01003 10260 20171 39920 40159 333 20209 59005;EQDQ01  00002PRCP99
0167827650999992002082818004-07330-047470FM-12+021299999V0201301N001512200019N0200001N1+03621+01641101091ADDAA199000091GF103991031011008001001001MA1999999098711MD1999999-0221REMSYN070AAXX  28184 82765 32598 31303 10362 20164 39871 40109 83100 333 59022;EQDQ01  00002PRCP99
0196827650999992002082912004-07330-047470FM-12+021299999V0201401N000512200019N0200001N1+02661+01771101401ADDAA199000091GA1001+999999999GF100991001001999999001001KA1240N+02091MA1999999099021MD1999999-0181REMSYN070AAXX  29124 82765 32998 01401 10266 20177 39902 40140 333 20209 59018;EQDQ01  00002PRCP99
0177827650999992002082918004-07330-047470FM-12+021299999V0200601N002612200019N0200001N1+03701+01761100961ADDAA106000091GA1001+999999999GF100991001001999999001001MA1999999098611MD1999999-0101REMSYN064AAXX  29184 82765 32998 00605 10370 20176 39861 40096 333 59010;EQDQ01  00002PRCP06
0214827650999992002083012004-07330-047470FM-12+021299999V0200501N003612200019N0040001N1+02961+01991101471ADDAA106000091AY111061AY211061GF103991001001999999001041KA1240N+02361MA1999999099111MD1999999+0091MW1051REMSYN082AAXX  30124 82765 31996 30507 10296 20199 39911 40147 70511 80004 333 20236 58009;EQDQ01  00002PRCP06
0214827650999992002083112004-07330-047470FM-12+021299999V0200501N003112200019N0040001N1+03011+02081101551ADDAA106000091AY111061AY211061GF103991021001017501011041KA1240N+02441MA1999999099191MD1999999+0081MW1051REMSYN082AAXX  31124 82765 31796 30506 10301 20208 39919 40155 70511 82014 333 20244 58008;EQDQ01  00002PRCP06
0195827650999992002083118004-07330-047470FM-12+021299999V0200901N002110075019N0020001N1+03581+02011101051ADDAA106000091AY111061AY211061GF106991061021008001001001MA1999999098701MD1999999+0111MW1041REMSYN076AAXX  31184 82765 31595 60904 10358 20201 39870 40105 70411 86200 333 58011;EQDQ01  00002PRCP06
0208827650999992002090100004-07330-047470FM-12+021299999V0200501N000510024019N0100001N1+03071+02021101271ADDAA106000091GA1091+999999999GF109991091999999999999999KA1240M+03751MA1999999098921MD1999999+0131REMSYN082AAXX  01004 82765 32/97 90501 10307 20202 39892 40127 333 10375 29052 55092 58013;EQDQ01  00002PRCP06
0186827650999992002090112004-07330-047470FM-12+021299999V0200501N002112200019N0200001N1+03031+02071101461ADDAA106000091GF103991011011008001011041KA1240N+02601MA1999999099101MD1999999-0091REMSYN076AAXX  01124 82765 32598 30504 10303 20207 39910 40146 81114 333 20260 59009;EQDQ01  00002PRCP06
0167827650999992002090118004-07330-047470FM-12+021299999V0200801N002112200019N0200001N1+03641+01941100921ADDAA106000091GF106991041021008001001011MA1999999098591MD1999999-0111REMSYN070AAXX  01184 82765 32598 60804 10364 20194 39859 40092 84201 333 59011;EQDQ01  00002PRCP06
0196827650999992002090212004-07330-047470FM-12+021299999V0200801N002612200019N0200001N1+02901+02221101511ADDAA106000091GA1001+999999999GF100991001001999999001001KA1240N+02511MA1999999099211MD1999999+0111REMSYN070AAXX  02124 82765 32998 00805 10290 20222 39921 40151 333 20251 58011;EQDQ01  00002PRCP06
0167827650999992002090218004-07330-047470FM-12+021299999V0203601N002110075019N0200001N1+03651+02061100911ADDAA106000091GF106991061021008001001001MA1999999098571MD1999999-0021REMSYN070AAXX  02184 82765 32598 63604 10365 20206 39857 40091 86200 333 59002;EQDQ01  00002PRCP06
0186827650999992002090312004-07330-047470FM-12+021299999V0200601N001010120019N0200001N1+02861+02231101681ADDAA106000091GF107991071081008001001001KA1240N+02511MA1999999099311MD1999999+0101REMSYN076AAXX  03124 82765 32598 70602 10286 20223 39931 40168 87800 333 20251 58010;EQDQ01  00002PRCP06
0167827650999992002090318004-07330-047470FM-12+021299999V0203601N001510075019N0200001N1+03541+02201101271ADDAA106000091GF106991061021008001001001MA1999999098921MD1999999+0351REMSYN070AAXX  03184 82765 32598 63603 10354 20220 39892 40127 86200 333 58035;EQDQ01  00002PRCP06
0186827650999992002090412004-07330-047470FM-12+021299999V0203501N002110120019N0200001N1+02781+02211101721ADDAA106000091GF108991061081008001021999KA1240N+02551MA1999999099351MD1999999+0041REMSYN076AAXX  04124 82765 32598 83504 10278 20221 39935 40172 8682/ 333 20255 58004;EQDQ01  00002PRCP06
0149827650999992002090418004-07330-047470FM-12+021299999V0201001N000510120019N0200001N1+02321+02201101721ADDGF108991081081008001999999MA1999999099301MD1999999+0381REMSYN082AAXX  04184 82765 21598 81001 10232 20220 39930 40172 7//66 888// 333 58038 60211;
0162827650999992002090512004-07330-047470FM-12+021299999V0203501N001510075019N0200001N1+02511+02231101891ADDGF105991051021008001001001KA1240N+02251MA1999999099461MD1999999+0111REMSYN082AAXX  05124 82765 22598 53503 10251 20223 39946 40189 85200 333 20225 58011 60214;
0186827650999992002090612004-07330-047470FM-12+021299999V0200901N000510450019N0200001N1+02761+02281101881ADDAA106000091GF105991031021008001061001KA1240N+02321MA1999999099481MD1999999+0021REMSYN076AAXX  06124 82765 32598 50901 10276 20228 39948 40188 83260 333 20232 58002;EQDQ01  00002PRCP06
0167827650999992002090618004-07330-047470FM-12+021299999V0200501N004110075019N0200001N1+03391+01951101381ADDAA106000091GF105991051021008001001001MA1999999099001MD1999999+0081REMSYN070AAXX  06184 82765 32598 50508 10339 20195 39900 40138 85200 333 58008;EQDQ01  00002PRCP06
0208827650999992002090700004-07330-047470FM-12+021299999V0200501N000519999999N0200001N1+02891+02301101461ADDAA106000091GA1091+999999999GF109991091999999999999999KA1240M+03491MA1999999099081MD1999999-0011REMSYN082AAXX  07004 82765 32/98 90501 10289 20230 39908 40146 333 10349 29065 55096 59001;EQDQ01  00002PRCP06
0186827650999992002090712004-07330-047470FM-12+021299999V0201401N001012200019N0200001N1+02771+02121101811ADDAA106000091GF102991001001999999001041KA1240N+02381MA1999999099431MD1999999-0051REMSYN076AAXX  07124 82765 32998 21402 10277 20212 39943 40181 80004 333 20238 59005;EQDQ01  00002PRCP06
0167827650999992002090718004-07330-047470FM-12+021299999V0200601N002110075019N0200001N1+03561+01991101271ADDAA106000091GF106991061021008001001001MA1999999098911MD1999999-0091REMSYN070AAXX  07184 82765 32598 60604 10356 20199 39891 40127 86200 333 59009;EQDQ01  00002PRCP06
0208827650999992002090800004-07330-047470FM-12+021299999V0209999C000012200019N0200001N1+03061+02431101421ADDAA106000091GA1001+999999999GF100991001001999999001001KA1240M+03681MA1999999099051MD1999999-0031REMSYN082AAXX  08004 82765 32998 00000 10306 20243 39905 40142 333 10368 29062 55103 59003;EQDQ01  00002PRCP06
0186827650999992002090812004-07330-047470FM-12+021299999V0202501N002610120019N0200001N1+02761+02161101691ADDAA106000091GF107991051081008001041001KA1240N+02451MA1999999099311MD1999999-0121REMSYN076AAXX  08124 82765 32598 72505 10276 20216 39931 40169 85840 333 20245 59012;EQDQ01  00002PRCP06
0167827650999992002090818004-07330-047470FM-12+021299999V0203101N001010075019N0200001N1+03461+02231101291ADDAA106000091GF107991051021008001041001MA1999999098931MD1999999+0021REMSYN070AAXX  08184 82765 32598 73102 10346 20223 39893 40129 85240 333 58002;EQDQ01  00002PRCP06
0198827650999992002090900004-07330-047470FM-12+021299999V0203101N001012200019N0200001N1+02841+02261101471ADDAA106000091GF103991031011008001001001KA1240M+03641MA1999999099091MD1999999+0041REMSYN088AAXX  09004 82765 32598 33102 10284 20226 39909 40147 83100 333 10364 29065 55078 58004;EQDQ01  00002PRCP06
0186827650999992002090912004-07330-047470FM-12+021299999V0203101N001010075019N0200001N1+02841+02241101761ADDAA106000091GF106991051021008001041001KA1240N+02451MA1999999099381MD1999999+0071REMSYN076AAXX  09124 82765 32598 63102 10284 20224 39938 40176 85240 333 20245 58007;EQDQ01  00002PRCP06
0167827650999992002090918004-07330-047470FM-12+021299999V0201301N003610450019N0200001N1+03521+01871101291ADDAA106000091GF105991041021008001041001MA1999999098931MD1999999+0001REMSYN070AAXX  09184 82765 32598 51307 10352 20187 39893 40129 84240 333 58000;EQDQ01  00002PRCP06
0208827650999992002091000004-07330-047470FM-12+021299999V0209999C000012200019N0200001N1+03001+02221101411ADDAA106000091GA1001+999999999GF100991001001999999001001KA1240M+03661MA1999999099041MD1999999-0051REMSYN082AAXX  10004 82765 32998 00000 10300 20222 39904 40141 333 10366 29058 55075 59005;EQDQ01  00002PRCP06
0186827650999992002091012004-07330-047470FM-12+021299999V0200901N003110450019N0200001N1+02881+01701101711ADDAA106000091GF106991021011008001051001KA1240N+02311MA1999999099341MD1999999-0041REMSYN076AAXX  10124 82765 32598 60906 10288 20170 39934 40171 82150 333 20231 59004;EQDQ01  00002PRCP06
0167827650999992002091018004-07330-047470FM-12+021299999V0200801N002110075019N0200001N1+03401+01931101291ADDAA106000091GF106991051021008001041001MA1999999098921MD1999999-0011REMSYN070AAXX  10184 82765 32598 60804 10340 20193 39892 40129 85240 333 59001;EQDQ01  00002PRCP06
0186827650999992002091112004-07330-047470FM-12+021299999V0200901N005712200019N0200001N1+02931+01741101691ADDAA106000091GF103991021041017501001091KA1240N+02451MA1999999099321MD1999999-0021REMSYN076AAXX  11124 82765 32798 30911 10293 20174 39932 40169 82409 333 20245 59002;EQDQ01  00002PRCP06
0167827650999992002091118004-07330-047470FM-12+021299999V0201101N003112200019N0200001N1+03471+01731101291ADDAA106000091GF105991031021008001001041MA1999999098931MD1999999+0011REMSYN070AAXX  11184 82765 32598 51106 10347 20173 39893 40129 83204 333 58001;EQDQ01  00002PRCP06
0208827650999992002091200004-07330-047470FM-12+021299999V0200501N001019999999N0200001N1+02991+02151101381ADDAA106000091GA1091+999999999GF109991091999999999999999KA1240M+03631MA1999999099021MD1999999-0031REMSYN082AAXX  12004 82765 32/98 90502 10299 20215 39902 40138 333 10363 29052 55105 59003;EQDQ01  00002PRCP06
0186827650999992002091212004-07330-047470FM-12+021299999V0200901N004612200019N0200001N1+02861+01581101621ADDAA106000091GF104991041001017501061001KA1240N+02471MA1999999099251MD1999999-0071REMSYN076AAXX  12124 82765 32798 40909 10286 20158 39925 40162 84060 333 20247 59007;EQDQ01  00002PRCP06
0167827650999992002091218004-07330-047470FM-12+021299999V0200501N004112200019N0200001N1+03491+01711101181ADDAA106000091GF103991021011008001061001MA1999999098831MD1999999-0101REMSYN070AAXX  12184 82765 32598 30508 10349 20171 39883 40118 82160 333 59010;EQDQ01  00002PRCP06
0208827650999992002091300004-07330-047470FM-12+021299999V0201301N001019999999N0200001N1+03041+02181101331ADDAA106000091GA1091+999999999GF109991091999999999999999KA1240M+03711MA1999999098971MD1999999-0051REMSYN082AAXX  13004 82765 32/98 91302 10304 20218 39897 40133 333 10371 29050 55104 59005;EQDQ01  00002PRCP06
0224827650999992002091312004-07330-047470FM-12+021299999V0200801N001512200019N0040001N1+02851+01791101451ADDAA106000091AY101061AY201061GA1001+999999999GF100991001001999999001001KA1240N+02251MA1999999099081MD1999999-0171MW1041REMSYN076AAXX  13124 82765 31996 00803 10285 20179 39908 40145 70400 333 20225 59017;EQDQ01  00002PRCP06
0167827650999992002091318004-07330-047470FM-12+021299999V0200501N002112200019N0200001N1+03651+01551101051ADDAA106000091GF104991041021008001001001MA1999999098701MD1999999-0131REMSYN070AAXX  13184 82765 32598 40504 10365 20155 39870 40105 84200 333 59013;EQDQ01  00002PRCP06
0236827650999992002091400004-07330-047470FM-12+021299999V0200901N000512200019N0040001N1+03091+02131101251ADDAA106000091AY111061AY211061GA1001+999999999GF100991001001999999001001KA1240M+03861MA1999999098891MD1999999-0081MW1041REMSYN088AAXX  14004 82765 31996 00901 10309 20213 39889 40125 70411 333 10386 29049 55101 59008;EQDQ01  00002PRCP06
0208827650999992002091412004-07330-047470FM-12+021299999V0200501N000512200019N0040001N1+02921+02041101551ADDAA106000091GA1001+999999999GF100991001001999999001001KA1240N+02391MA1999999099191MD1999999+0111MW1041REMSYN076AAXX  14124 82765 31996 00501 10292 20204 39919 40155 704// 333 20239 58011;EQDQ01  00002PRCP06
0167827650999992002091418004-07330-047470FM-12+021299999V0200601N002110075019N0200001N1+03701+01941101061ADDAA106000091GF106991061021008001001001MA1999999098711MD1999999+0011REMSYN070AAXX  14184 82765 32598 60604 10370 20194 39871 40106 86200 333 58001;EQDQ01  00002PRCP06
0208827650999992002091500004-07330-047470FM-12+021299999V0200501N000512200019N0200001N1+03141+02321101191ADDAA106000091GA1001+999999999GF100991001001999999001001KA1240M+03821MA1999999098841MD1999999-0051REMSYN082AAXX  15004 82765 32998 00501 10314 20232 39884 40119 333 10382 29055 55099 59005;EQDQ01  00002PRCP06
0196827650999992002091512004-07330-047470FM-12+021299999V0203601N001512200019N0200001N1+03041+02151101511ADDAA106000091GA1001+999999999GF100991001001999999001001KA1240N+02511MA1999999099161MD1999999-0031REMSYN070AAXX  15124 82765 32998 03603 10304 20215 39916 40151 333 20251 59003;EQDQ01  00002PRCP06
0167827650999992002091518004-07330-047470FM-12+021299999V0200401N003110075019N0200001N1+03421+02161101181ADDAA106000091GF107991051021008001021001MA1999999098831MD1999999+0121REMSYN070AAXX  15184 82765 32598 70406 10342 20216 39883 40118 85220 333 58012;EQDQ01  00002PRCP06
0198827650999992002091600004-07330-047470FM-12+021299999V0203601N001010450019N0200001N1+03041+02431101361ADDAA106000091GF106991031021008001021001KA1240M+03541MA1999999099011MD1999999+0171REMSYN088AAXX  16004 82765 32598 63602 10304 20243 39901 40136 83220 333 10354 29062 55069 58017;EQDQ01  00002PRCP06
0186827650999992002091612004-07330-047470FM-12+021299999V0203601N002612200019N0200001N1+02961+02231101741ADDAA106000091GF104991041011008001001001KA1240N+02511MA1999999099371MD1999999+0211REMSYN076AAXX  16124 82765 32598 43605 10296 20223 39937 40174 84100 333 20251 58021;EQDQ01  00002PRCP06
0167827650999992002091618004-07330-047470FM-12+021299999V0200501N004110075019N0200001N1+03441+02001101261ADDAA106000091GF106991061021008001001001MA1999999098901MD1999999+0071REMSYN070AAXX  16184 82765 32598 60508 10344 20200 39890 40126 86200 333 58007;EQDQ01  00002PRCP06
0214827650999992002091700004-07330-047470FM-12+021299999V0200301N000512200019N0200001N1+03041+02311101431ADDAA106000091GF101991999011008001001001KA1240M+03581MA1999999099071MD1999999+0061REMSYN088AAXX  17004 82765 32598 10301 10304 20231 39907 40143 83100 333 10358 29058 55090 58006;EQDQ01+000032SCOTLCQ02  00002PRCP06
0214827650999992002091712004-07330-047470FM-12+021299999V0201301N001012200019N0100001N1+02761+02021101721ADDAA106000091AY111061AY211061GF103991031001017501061001KA1240N+02411MA1999999099341MD1999999-0031MW1041REMSYN082AAXX  17124 82765 31797 31302 10276 20202 39934 40172 70411 83060 333 20241 59003;EQDQ01  00002PRCP06
0167827650999992002091718004-07330-047470FM-12+021299999V0200901N003110150019N0200001N1+03571+01641101221ADDAA106000091GF106991061001017501061001MA1999999098871MD1999999-0031REMSYN070AAXX  17184 82765 32798 60906 10357 20164 39887 40122 86060 333 59003;EQDQ01  00002PRCP06
0208827650999992002091800004-07330-047470FM-12+021299999V0200801N001010024019N0100001N1+02961+02021101401ADDAA106000091GA1091+999999999GF109991091999999999999999KA1240M+03751MA1999999099031MD1999999-0041REMSYN082AAXX  18004 82765 32/97 90802 10296 20202 39903 40140 333 10375 29052 55077 59004;EQDQ01  00002PRCP06
0214827650999992002091812004-07330-047470FM-12+021299999V0200601N004112200019N0040001N1+02821+01741101671ADDAA106000091AY111061AY211061GF104991041011008001001001KA1240N+02251MA1999999099291MD1999999-0051MW1041REMSYN082AAXX  18124 82765 31596 40608 10282 20174 39929 40167 70411 84100 333 20225 59005;EQDQ01  00002PRCP06
0167827650999992002091818004-07330-047470FM-12+021299999V0200801N003610075019N0200001N1+03541+01711101151ADDAA106000091GF105991051021008001001001MA1999999098791MD1999999-0081REMSYN070AAXX  18184 82765 32598 50807 10354 20171 39879 40115 85200 333 59008;EQDQ01  00002PRCP06
0198827650999992002091900004-07330-047470FM-12+021299999V0209999C000012200019N0200001N1+03001+02141101411ADDAA106000091GF103991021021008001031001KA1240M+03691MA1999999099041MD1999999+0011REMSYN088AAXX  19004 82765 32598 30000 10300 20214 39904 40141 82230 333 10369 29052 55086 58001;EQDQ01  00002PRCP06
0214827650999992002091912004-07330-047470FM-12+021299999V0202701N001512200019N0040001N1+02801+01901101681ADDAA106000091AY111061AY211061GF104991041021008001001001KA1240N+02361MA1999999099301MD1999999+0011MW1041REMSYN082AAXX  19124 82765 31596 42703 10280 20190 39930 40168 70411 84200 333 20236 58001;EQDQ01  00002PRCP06
0195827650999992002091918004-07330-047470FM-12+021299999V0200901N002112200019N0100001N1+03611+01621101051ADDAA106000091AY111061AY211061GF104991041011008001001001MA1999999098701MD1999999-0091MW1041REMSYN076AAXX  19184 82765 31597 40904 10361 20162 39870 40105 70411 84100 333 59009;EQDQ01  00002PRCP06
0208827650999992002092000004-07330-047470FM-12+021299999V0200601N001010024019N0100001N1+03101+01941101321ADDAA106000091GA1091+999999999GF109991091999999999999999KA1240M+03771MA1999999098961MD1999999-0081REMSYN082AAXX  20004 82765 32/97 90602 10310 20194 39896 40132 333 10377 29047 55081 59008;EQDQ01  00002PRCP06
0208827650999992002092012004-07330-047470FM-12+021299999V0203601N001512200019N0040001N1+02981+01891101671ADDAA106000091GA1001+999999999GF100991001001999999001001KA1240N+02491MA1999999099311MD1999999+0011MW1041REMSYN076AAXX  20124 82765 31996 03603 10298 20189 39931 40167 704// 333 20249 58001;EQDQ01  00002PRCP06
0179827650999992002092018004-07330-047470FM-12+021299999V0200801N001012200019N0040001N1+03501+02051101211ADDAA106000091GF104991041011008001001001MA1999999098851MD1999999+0151MW1041REMSYN076AAXX  20184 82765 31596 40802 10350 20205 39885 40121 704// 84100 333 58015;EQDQ01  00002PRCP06
0220827650999992002092100004-07330-047470FM-12+021299999V0200601N000512200019N0100001N1+03061+02381101461ADDAA106000091GA1001+999999999GF100991001001999999001001KA1240M+03641MA1999999099041MD1999999+0081MW1041REMSYN088AAXX  21004 82765 31997 00601 10306 20238 39904 40146 704// 333 10364 29057 55073 58008;EQDQ01  00002PRCP06
0208827650999992002092112004-07330-047470FM-12+021299999V0203601N001512200019N0100001N1+02881+02161101591ADDAA106000091GA1001+999999999GF100991001001999999001001KA1240N+02461MA1999999099221MD1999999-0091MW1041REMSYN076AAXX  21124 82765 31997 03603 10288 20216 39922 40159 704// 333 20246 59009;EQDQ01  00002PRCP06
0179827650999992002092118004-07330-047470FM-12+021299999V0200801N002612200019N0100001N1+03601+02071101051ADDAA106000091GF104991041021008001001001MA1999999098701MD1999999-0151MW1041REMSYN076AAXX  21184 82765 31597 40805 10360 20207 39870 40105 704// 84200 333 59015;EQDQ01  00002PRCP06
0220827650999992002092200004-07330-047470FM-12+021299999V0200801N000512200019N0100001N1+03041+02151101311ADDAA106000091GA1001+999999999GF100991001001999999001001KA1240M+03681MA1999999098041MD1999999-0011MW1041REMSYN088AAXX  22004 82765 31997 00801 10304 20215 39804 40131 704// 333 10368 29056 55090 59001;EQDQ01  00002PRCP06
0198827650999992002092212004-07330-047470FM-12+021299999V0203601N002610450019N0100001N1+02901+02151101561ADDAA106000091GF106991021011008001021001KA1240N+02571MA1999999099201MD1999999-0021MW1041REMSYN082AAXX  22124 82765 31597 63605 10290 20215 39920 40156 704// 82120 333 20257 59002;EQDQ01  00002PRCP06
0179827650999992002092218004-07330-047470FM-12+021299999V0203601N001510450019N0100001N1+03661+02221101031ADDAA106000091GF106991041021008001041001MA1999999098691MD1999999+0011MW1041REMSYN076AAXX  22184 82765 31597 63603 10366 20222 39869 40103 704// 84240 333 58001;EQDQ01  00002PRCP06
0210827650999992002092300004-07330-047470FM-12+021299999V0203601N001010450019N0100001N1+03101+02061101171ADDAA106000091GF107991041021008001021001KA1240M+03781MA1999999098821MD1999999-0121MW1131REMSYN094AAXX  23004 82765 31597 73602 10310 20206 39882 40117 713// 84220 333 10378 29053 55058 59012;EQDQ01  00002PRCP06
0214827650999992002092312004-07330-047470FM-12+021299999V0203601N002112200019N0040001N1+02941+01941101451ADDAA106000091AY111061AY211061GF102991021011008001001001KA1240N+02511MA1999999099091MD1999999-0111MW1041REMSYN082AAXX  23124 82765 31596 23604 10294 20194 39909 40145 70411 82100 333 20251 59011;EQDQ01  00002PRCP06
0195827650999992002092318004-07330-047470FM-12+021299999V0200101N001510075019N0100001N1+03521+02151101021ADDAA106000091AY121061AY211061GF105991051021008001001001MA1999999098681MD1999999-0011MW1041REMSYN076AAXX  23184 82765 31597 50103 10352 20215 39868 40102 70421 85200 333 59001;EQDQ01  00002PRCP06
0210827650999992002092400004-07330-047470FM-12+021299999V0200801N000512200019N0100001N1+03141+02381101211ADDAA106000091GF103991021081008001021001KA1240M+03681MA1999999098861MD1999999+0041MW1131REMSYN094AAXX  24004 82765 31597 30801 10314 20238 39886 40121 713// 82820 333 10368 29057 55089 58004;EQDQ01  00002PRCP06
0186827650999992002092412004-07330-047470FM-12+021299999V0200101N004110042019N0200001N1+02701+01991101521ADDAA106000091GF108991081051004501999999KA1240N+02571MA1999999099151MD1999999+0061REMSYN076AAXX  24124 82765 32498 80108 10270 20199 39915 40152 885// 333 20257 58006;EQDQ01  00002PRCP06
0167827650999992002092418004-07330-047470FM-12+021299999V0203601N003110075019N0200001N1+03221+02111101071ADDAA106000091GF106991061021008001001001MA1999999098711MD1999999+0031REMSYN070AAXX  24184 82765 32598 63606 10322 20211 39871 40107 86200 333 58003;EQDQ01  00002PRCP06
0190827650999992002092512004-07330-047470FM-12+021299999V0203501N002111050019N0200001N1+02641+02031101541ADDAY161061AY221061GF105991021011008001031041KA1240N+02291MA1999999099141MD1999999-0011MW1021REMSYN088AAXX  25124 82765 21598 53504 10264 20203 39914 40154 70262 82134 333 20229 59001 69954;
0167827650999992002092518004-07330-047470FM-12+021299999V0200101N001510450019N0200001N1+03441+01881101081ADDAA106000091GF107991041021008001011001MA1999999098711MD1999999+0001REMSYN070AAXX  25184 82765 32598 70103 10344 20188 39871 40108 84210 333 58000;EQDQ01  00002PRCP06
0208827650999992002092600004-07330-047470FM-12+021299999V0201301N001519999999N0200001N1+02941+02291101251ADDAA106000091GA1091+999999999GF109991091999999999999999KA1240M+03541MA1999999098871MD1999999-0011REMSYN082AAXX  26004 82765 32/98 91303 10294 20229 39887 40125 333 10354 29061 55073 59001;EQDQ01  00002PRCP06
0186827650999992002092612004-07330-047470FM-12+021299999V0201301N000510120019N0200001N1+02921+02271101471ADDAA106000091GF107991051081008001021001KA1240N+02671MA1999999099101MD1999999-0041REMSYN076AAXX  26124 82765 32598 71301 10292 20227 39910 40147 85820 333 20267 59004;EQDQ01  00002PRCP06
0167827650999992002092618004-07330-047470FM-12+021299999V0203601N002610120019N0200001N1+03461+02161101051ADDAA106000091GF107991051081008001041001MA1999999098701MD1999999-0011REMSYN070AAXX  26184 82765 32598 73605 10346 20216 39870 40105 85840 333 59001;EQDQ01  00002PRCP06
0168827650999992002092712004-07330-047470FM-12+021299999V0203101N001510120019N0200001N1+02601+02311101751ADDGF108991071081008001021999KA1240N+02431MA1999999099341MD1999999+0241REMSYN088AAXX  27124 82765 21598 83103 10260 20231 39934 40175 7//55 8782/ 333 20243 58024 60014;
0167827650999992002092718004-07330-047470FM-12+021299999V0200401N001510450019N0200001N1+03401+02181101331ADDAA106000091GF106991041021008001041001MA1999999098791MD1999999+0261REMSYN070AAXX  27184 82765 32598 60403 10340 20218 39879 40133 84240 333 58026;EQDQ01  00002PRCP06
0214827650999992002092800004-07330-047470FM-12+021299999V0201701N000519999999N0200001N1+02721+02411101431ADDAA106000091GA1091+999999999GF109991091999999999999999KA1240M+03481MA1999999099041MD1999999-0011REMSYN088AAXX  28004 82765 31/98 91701 10272 20241 39904 40143 7//99 333 10348 29075 55050 59001;EQDQ01  00002PRCP06
0168827650999992002092812004-07330-047470FM-12+021299999V0201801N000510450019N0200001N1+02641+02211101821ADDGF108991031021008001021071KA1240N+02411MA1999999099421MD1999999+0081REMSYN088AAXX  28124 82765 21598 81801 10264 20221 39942 40182 7//66 83227 333 20241 58008 60064;
0149827650999992002092818004-07330-047470FM-12+021299999V0203601N000510450019N0200001N1+02481+02341101561ADDGF108991041081008001021999MA1999999099141MD1999999+0181REMSYN082AAXX  28184 82765 21598 83601 10248 20234 39914 40156 7//96 8482/ 333 58018 60221;
0208827650999992002092900004-07330-047470FM-12+021299999V0209999C000019999999N0200001N1+02541+02441101521ADDAA106000091GA1091+999999999GF109991091999999999999999KA1240M+02881MA1999999099121MD1999999+0081REMSYN082AAXX  29004 82765 32/98 90000 10254 20244 39912 40152 333 10288 29092 55010 58008;EQDQ01  00002PRCP06
0162827650999992002092912004-07330-047470FM-12+021299999V0201101N002112200019N0200001N1+02691+02331101711ADDGF103991021021008001001041KA1240N+02201MA1999999099301MD1999999-0121REMSYN082AAXX  29124 82765 22598 31104 10269 20233 39930 40171 82204 333 20220 59012 60224;
0167827650999992002092918004-07330-047470FM-12+021299999V0200501N003110450019N0200001N1+03381+02191101261ADDAA106000091GF105991031021008001011041MA1999999098881MD1999999-0261REMSYN070AAXX  29184 82765 32598 50506 10338 20219 39888 40126 83214 333 59026;EQDQ01  00002PRCP06
0208827650999992002093000004-07330-047470FM-12+021299999V0200601N001019999999N0200001N1+02961+02401101341ADDAA106000091GA1091+999999999GF109991091999999999999999KA1240M+03481MA1999999098961MD1999999-0161REMSYN082AAXX  30004 82765 32/98 90602 10296 20240 39896 40134 333 10348 29069 55083 59016;EQDQ01  00002PRCP06
0186827650999992002093012004-07330-047470FM-12+021299999V0200501N002612200019N0200001N1+02941+02261101651ADDAA106000091GF104991021021008001041041KA1240N+02471MA1999999099281MD1999999-0021REMSYN076AAXX  30124 82765 32598 40505 10294 20226 39928 40165 82244 333 20247 59002;EQDQ01  00002PRCP06
0167827650999992002093018004-07330-047470FM-12+021299999V0203601N002612200019N0200001N1+03281+02131101301ADDAA106000091GF104991031021008001031001MA1999999098931MD1999999+0051REMSYN070AAXX  30184 82765 32598 43605 10328 20213 39893 40130 83230 333 58005;EQDQ01  00002PRCP06
0208827650999992002100100004-07330-047470FM-12+021299999V0203601N001012200019N0200001N1+02901+02341101441ADDAA106000091GA1001+999999999GF100991001001999999001001KA1240M+03421MA1999999099071MD1999999+0111REMSYN082AAXX  01004 82765 32998 03602 10290 20234 39907 40144 333 10342 29065 55094 58011;EQDQ01  00002PRCP06
0186827650999992002100112004-07330-047470FM-12+021299999V0200901N001512200019N0200001N1+02661+02241101851ADDAA106000091GF104991021021008001031001KA1240N+02501MA1999999099461MD1999999+0181REMSYN076AAXX  01124 82765 32598 40903 10266 20224 39946 40185 82230 333 20250 58018;EQDQ01  00002PRCP06
0171827650999992002100118004-07330-047470FM-12+021299999V0203601N001510450019N0200001N1+02581+02331101461ADDAY161061AY221061GF105991031021008001031041MA1999999099061MD1999999+0131MW1021REMSYN082AAXX  01184 82765 21598 53603 10258 20233 39906 40146 70262 83234 333 58013 60131;
0208827650999992002100200004-07330-047470FM-12+021299999V0203601N000519999999N0200001N1+02641+02481101471ADDAA106000091GA1091+999999999GF109991091999999999999999KA1240M+03161MA1999999099071MD1999999+0001REMSYN082AAXX  02004 82765 32/98 93601 10264 20248 39907 40147 333 10316 29086 55025 58000;EQDQ01  00002PRCP06
0174827650999992002100212004-07330-047470FM-12+021299999V0209999C000012200019N0100001N1+02661+02391101711ADDGF101991011011008001001001KA1240N+02311MA1999999099311MD1999999+0151MW1041REMSYN088AAXX  02124 82765 21597 10000 10266 20239 39931 40171 704// 81100 333 20231 58015 60134;
0167827650999992002100218004-07330-047470FM-12+021299999V0202701N002610450019N0200001N1+03401+02111101211ADDAA106000091GF106991041081008001041001MA1999999098841MD1999999-0221REMSYN070AAXX  02184 82765 32598 62705 10340 20211 39884 40121 84840 333 59022;EQDQ01  00002PRCP06
0204827650999992002100300004-07330-047470FM-12+021299999V0203001N001012200019N0200001N1+02661+02241101371ADDAA106000091GF103991021011008001041001KA1240M+03491MA1999999098981MD1999999-0091REMSYN094AAXX  03004 82765 31598 33002 10266 20224 39898 40137 7//99 82140 333 10349 29072 55091 59009;EQDQ01  00002PRCP06
0202827650999992002100312004-07330-047470FM-12+021299999V0203301N002610075019N0200001N1+02841+02121999999ADDAA106000091GF106991061021008001001001KA1240N+02451MA1999999099111MD1999999-0021REMSYN076AAXX  03124 82765 32598 63305 10284 20212 39911 40510 86200 333 20245 59002;EQDQ01  00002PRCP06Q02 105103APOSLP
0183827650999992002100318004-07330-047470FM-12+021299999V0200601N001010075019N0200001N1+03361+02301101132ADDAA106000091GF106991061021008001001001MA1999999098771MD1999999-0071REMSYN070AAXX  03184 82765 32598 60602 10336 20230 39877 40113 86200 333 59007;EQDQ01+101133APOSLPQ02  00002PRCP06
0208827650999992002100400004-07330-047470FM-12+021299999V0200801N001519999999N0200001N1+02761+02191101341ADDAA106000091GA1091+999999999GF109991091999999999999999KA1240M+03441MA1999999098951MD1999999-0121REMSYN082AAXX  04004 82765 32/98 90803 10276 20219 39895 40134 333 10344 29065 55089 59012;EQDQ01  00002PRCP06
0186827650999992002100412004-07330-047470FM-12+021299999V0200901N002612200019N0200001N1+02721+02321101661ADDAA106000091GF101991011011008001001001KA1240N+02351MA1999999099271MD1999999+0161REMSYN076AAXX  04124 82765 32598 10905 10272 20232 39927 40166 81100 333 20235 58016;EQDQ01  00002PRCP06
0167827650999992002100418004-07330-047470FM-12+021299999V0203401N001010075019N0200001N1+03381+02221101121ADDAA106000091GF105991051021008001001001MA1999999098761MD1999999-0011REMSYN070AAXX  04184 82765 32598 53402 10338 20222 39876 40112 85200 333 59001;EQDQ01  00002PRCP06
0208827650999992002100500004-07330-047470FM-12+021299999V0200901N001019999999N0200001N1+02961+02311101261ADDAA106000091GA1091+999999999GF109991091999999999999999KA1240M+03521MA1999999098891MD1999999-0061REMSYN082AAXX  05004 82765 32/98 90902 10296 20231 39889 40126 333 10352 29066 55087 59006;EQDQ01  00002PRCP06
0190827650999992002100512004-07330-047470FM-12+021299999V0209999C000010090019N0200001N1+02591+02311101541ADDAY161061AY221061GF108991081081004501999999KA1240N+02451MA1999999099161MD1999999-0111MW1031REMSYN088AAXX  05124 82765 21498 80000 10259 20231 39916 40154 70362 888// 333 20245 59011 60034;
0171827650999992002100518004-07330-047470FM-12+021299999V0202701N002110450019N0200001N1+02541+02351101241ADDAY161061AY221061GF108991031021004501011999MA1999999098841MD1999999+0081MW1031REMSYN082AAXX  05184 82765 21498 82704 10254 20235 39884 40124 70362 8321/ 333 58008 60141;
0162827650999992002100612004-07330-047470FM-12+021299999V0203301N000510090019N0200001N1+02541+02381101551ADDGF107991071081004501001001KA1240N+02381MA1999999099141MD1999999-0021REMSYN082AAXX  06124 82765 22498 73301 10254 20238 39914 40155 87800 333 20238 59002 60144;
0167827650999992002100618004-07330-047470FM-12+021299999V0200901N003110450019N0200001N1+03061+02351101131ADDAA106000091GF106991041031008001031001MA1999999098751MD1999999-0091REMSYN070AAXX  06184 82765 32598 60906 10306 20235 39875 40113 84330 333 59009;EQDQ01  00002PRCP06
0208827650999992002100700004-07330-047470FM-12+021299999V0202801N000519999999N0200001N1+02791+02541101201ADDAA106000091GA1091+999999999GF109991091999999999999999KA1240M+03261MA1999999098811MD1999999-0151REMSYN082AAXX  07004 82765 32/98 92801 10279 20254 39881 40120 333 10326 29083 55043 59015;EQDQ01  00002PRCP06
0183827650999992002100718004-07330-047470FM-12+021299999V0200901N001519999999N0200001N1+03251+02151101131ADDAA106000091GF106991999021008001001001MA1999999098761MD1999999+0011REMSYN070AAXX  07184 82765 32598 60903 10325 20215 39876 40113 84200 333 58001;EQDQ01+000042SCOTLCQ02  00002PRCP06
0198827650999992002100800004-07330-047470FM-12+021299999V0209999C000012200019N0200001N1+02831+02421101181ADDAA106000091GF103991031021008001001001KA1240M+03441MA1999999098801MD1999999+0011REMSYN088AAXX  08004 82765 32598 30000 10283 20242 39880 40118 83200 333 10344 29071 55057 58001;EQDQ01  00002PRCP06
0198827650999992002100812004-07330-047470FM-12+021299999V0200401N003112200019N0100001N1+02761+02091101611ADDAA106000091GF106991021011008001001011KA1240N+02291MA1999999099231MD1999999+0051MW1041REMSYN082AAXX  08124 82765 31597 60406 10276 20209 39923 40161 704// 82101 333 20229 58005;EQDQ01  00002PRCP06
0167827650999992002100818004-07330-047470FM-12+021299999V0200801N002110450019N0200001N1+03471+02061101081ADDAA106000091GF106991031021008001041011MA1999999098741MD1999999+0021REMSYN070AAXX  08184 82765 32598 60804 10347 20206 39874 40108 83241 333 58002;EQDQ01  00002PRCP06
0208827650999992002100900004-07330-047470FM-12+021299999V0209999C000012200019N0200001N1+03001+02321101171ADDAA106000091GA1001+999999999GF100991001001999999001001KA1240M+03611MA1999999098811MD1999999+0011REMSYN082AAXX  09004 82765 32998 00000 10300 20232 39881 40117 333 10361 29061 55103 58001;EQDQ01  00002PRCP06
0198827650999992002100912004-07330-047470FM-12+021299999V0200801N003112200019N0100001N1+02961+01931101511ADDAA106000091GF102991011011008001041001KA1240N+02331MA1999999099151MD1999999-0081MW1041REMSYN082AAXX  09124 82765 31597 20806 10296 20193 39915 40151 704// 81140 333 20233 59008;EQDQ01  00002PRCP06
0167827650999992002100918004-07330-047470FM-12+021299999V0200301N003110450019N0200001N1+03591+01881101061ADDAA106000091GF105991041021008001041001MA1999999098711MD1999999+0031REMSYN070AAXX  09184 82765 32598 50306 10359 20188 39871 40106 84240 333 58003;EQDQ01  00002PRCP06
0208827650999992002101000004-07330-047470FM-12+021299999V0203601N003112200019N0200001N1+02961+02181101201ADDAA106000091GA1001+999999999GF100991001001999999001001KA1240M+03701MA1999999098841MD1999999+0031REMSYN082AAXX  10004 82765 32998 03606 10296 20218 39884 40120 333 10370 29054 55102 58003;EQDQ01  00002PRCP06
0198827650999992002101012004-07330-047470FM-12+021299999V0200501N004610450019N0100001N1+02801+02361101561ADDAA106000091GF106991021011008001041001KA1240N+02361MA1999999099191MD1999999+0041MW1041REMSYN082AAXX  10124 82765 31597 60509 10280 20236 39919 40156 704// 82140 333 20236 58004;EQDQ01  00002PRCP06
0167827650999992002101018004-07330-047470FM-12+021299999V0200301N003110450019N0200001N1+03481+02111101041ADDAA106000091GF106991041021008001041001MA1999999098681MD1999999-0031REMSYN070AAXX  10184 82765 32598 60306 10348 20211 39868 40104 84240 333 59003;EQDQ01  00002PRCP06
0208827650999992002101100004-07330-047470FM-12+021299999V0203601N000519999999N0200001N1+02921+02241101211ADDAA106000091GA1091+999999999GF109991091999999999999999KA1240M+03541MA1999999098841MD1999999+0001REMSYN082AAXX  11004 82765 32/98 93601 10292 20224 39884 40121 333 10354 29060 55072 58000;EQDQ01  00002PRCP06
0186827650999992002101112004-07330-047470FM-12+021299999V0200801N002612200019N0200001N1+02851+01991101631ADDAA106000091GF105991031001017501041061KA1240N+02371MA1999999099231MD1999999+0041REMSYN076AAXX  11124 82765 32798 50805 10285 20199 39923 40163 83046 333 20237 58004;EQDQ01  00002PRCP06
0167827650999992002101118004-07330-047470FM-12+021299999V0203601N001010075019N0200001N1+03591+02011101101ADDAA106000091GF105991051021008001001001MA1999999098721MD1999999+0041REMSYN070AAXX  11184 82765 32598 53602 10359 20201 39872 40110 85200 333 58004;EQDQ01  00002PRCP06
0198827650999992002101200004-07330-047470FM-12+021299999V0203601N002610450019N0200001N1+02991+02041101201ADDAA106000091GF105991031021008001011001KA1240M+03691MA1999999098841MD1999999+0001REMSYN088AAXX  12004 82765 32598 53605 10299 20204 39884 40120 83210 333 10369 29054 55085 58000;EQDQ01  00002PRCP06
0214827650999992002101212004-07330-047470FM-12+021299999V0203601N001512200019N0200001N1+02881+02211101641ADDAA106000091AY111061AY211061GF103991031011008001001001KA1240N+02561MA1999999099251MD1999999+0021MW1041REMSYN082AAXX  12124 82765 31598 33603 10288 20221 39925 40164 70411 83100 333 20256 58002;EQDQ01  00002PRCP06
0167827650999992002101218004-07330-047470FM-12+021299999V0203601N001510075019N0200001N1+03421+02191101191ADDAA106000091GF105991051011008001001001MA1999999098821MD1999999+0011REMSYN070AAXX  12184 82765 32598 53603 10342 20219 39882 40119 85100 333 58001;EQDQ01  00002PRCP06
0214827650999992002101300004-07330-047470FM-12+021299999V0209999C000010024019N0100001N1+03001+02391101331ADDAA106000091GA1091+999999999GF109991091999999999999999KA1240M+03591MA1999999098971MD1999999+0131REMSYN088AAXX  13004 82765 32/97 90000 10300 20239 39897 40133 8//// 333 10359 29064 55064 58013;EQDQ01  00002PRCP06
0208827650999992002101312004-07330-047470FM-12+021299999V0203601N002110006019N0010001N1+02901+02221101561ADDAA106000091GA1091+999999999GF109991091999999999999999KA1240N+02461MA1999999099191MD1999999-0061MW1041REMSYN076AAXX  13124 82765 31/94 93604 10290 20222 39919 40156 704// 333 20246 59006;EQDQ01  00002PRCP06
0195827650999992002101318004-07330-047470FM-12+021299999V0200401N001510075019N0100001N1+03441+01961101071ADDAA106000091AY121061AY221061GF106991061021008001001001MA1999999098731MD1999999-0091MW1041REMSYN076AAXX  13184 82765 31597 60403 10344 20196 39873 40107 70422 86200 333 59009;EQDQ01  00002PRCP06
0208827650999992002101400004-07330-047470FM-12+021299999V0209999C000010024019N0100001N1+03021+02481101191ADDAA106000091GA1091+999999999GF109991091999999999999999KA1240M+03521MA1999999098831MD1999999-0141REMSYN082AAXX  14004 82765 32/97 90000 10302 20248 39883 40119 333 10352 29064 55057 59014;EQDQ01  00002PRCP06
0214827650999992002101412004-07330-047470FM-12+021299999V0203601N001519999999N0040001N1+02701+02261101611ADDAA106000091GF105991999081008001011001KA1240N+02471MA1999999099231MD1999999+0041MW1041REMSYN082AAXX  14124 82765 31596 53603 10270 20226 39923 40161 704// 89810 333 20247 58004;EQDQ01+000092SCOTLCQ02  00002PRCP06
0205827650999992002101418004-07330-047470FM-12+021299999V0203501N001510024019N0040001N1+03111+02061101101ADDAA106000091AY121061AY221061GA1091+999999999GF109991091999999999999999MA1999999098741MD1999999+0011MW1041REMSYN070AAXX  14184 82765 31/96 93503 10311 20206 39874 40110 70422 333 58001;EQDQ01  00002PRCP06
0236827650999992002101500004-07330-047470FM-12+021299999V0202701N000510024019N0100001N1+02641+02351101291ADDAA106000091AY121061AY221061GA1091+999999999GF109991091999999999999999KA1240M+03291MA1999999098901MD1999999+0071MW1041REMSYN088AAXX  15004 82765 31/97 92701 10264 20235 39890 40129 70422 333 10329 29075 55023 58007;EQDQ01  00002PRCP06
0198827650999992002101512004-07330-047470FM-12+021299999V0203601N001510450019N0100001N1+02561+02151101541ADDAA106000091GF107991041021008001011001KA1240N+02311MA1999999099191MD1999999-0041MW1041REMSYN082AAXX  15124 82765 31597 73603 10256 20215 39919 40154 704// 84210 333 20231 59004;EQDQ01  00002PRCP06
0171827650999992002101518004-07330-047470FM-12+021299999V0203601N003110450019N0100001N1+02631+02101101311ADDAY191061AY261061GF108991031081008001011999MA1999999098911MD1999999+0171MW1041REMSYN082AAXX  15184 82765 21597 83606 10263 20210 39891 40131 70496 8381/ 333 58017 60331;
0238827650999992002101600004-07330-047470FM-12+021299999V0209999C000010024019N0100001N1+02541+02451101291ADDAA106000091AY141061GA1091+999999999GF109991091999999999999999KA1240M+02771MA1999999098891MD1999999-0011REMSYN088AAXX  16004 82765 31/97 90000 10254 20245 39889 40129 7704/ 333 10277 29085 55007 59001;EQDQ01+000702PRSWM1Q02  00002PRCP06
0190827650999992002101612004-07330-047470FM-12+021299999V0200701N000510120019N0100001N1+02561+02361101691ADDAY121061AY221061GF107991071081008001001001KA1240N+02291MA1999999099281MD1999999+0381MW1041REMSYN088AAXX  16124 82765 21597 70701 10256 20236 39928 40169 70422 87800 333 20229 58038 60334;
0167827650999992002101618004-07330-047470FM-12+021299999V0203601N001010450019N0200001N1+03231+02221101231ADDAA106000091GF106991031021008001041001MA1999999098851MD1999999-0341REMSYN070AAXX  16184 82765 32598 63602 10323 20222 39885 40123 83240 333 59034;EQDQ01  00002PRCP06
0208827650999992002101700004-07330-047470FM-12+021299999V0203601N000512200019N0200001N1+02861+02541101381ADDAA106000091GA1001+999999999GF100991001001999999001001KA1240M+03421MA1999999098971MD1999999+0081REMSYN082AAXX  17004 82765 32998 03601 10286 20254 39897 40138 333 10342 29078 55081 58008;EQDQ01  00002PRCP06
0214827650999992002101712004-07330-047470FM-12+021299999V0209999C000010120019N0100001N1+02661+02291101661ADDAA106000091AY121061AY221061GF107991071081008001001001KA1240N+02391MA1999999099271MD1999999+0011MW1041REMSYN082AAXX  17124 82765 31597 70000 10266 20229 39927 40166 70422 87800 333 20239 58001;EQDQ01  00002PRCP06
0167827650999992002101718004-07330-047470FM-12+021299999V0203201N001510450019N0200001N1+03311+02301101091ADDAA106000091GF105991031031008001021001MA1999999098721MD1999999-0131REMSYN070AAXX  17184 82765 32598 53203 10331 20230 39872 40109 83320 333 59013;EQDQ01  00002PRCP06
0208827650999992002101800004-07330-047470FM-12+021299999V0202701N002619999999N0200001N1+02791+02271101321ADDAA106000091GA1091+999999999GF109991091999999999999999KA1240M+03481MA1999999098931MD1999999-0041REMSYN082AAXX  18004 82765 32/98 92705 10279 20227 39893 40132 333 10348 29071 55051 59004;EQDQ01  00002PRCP06
0198827650999992002101812004-07330-047470FM-12+021299999V0201001N001512200019N0100001N1+02771+02321101501ADDAA106000091GF102991021021008001001001KA1240N+02391MA1999999099121MD1999999-0151MW1041REMSYN082AAXX  18124 82765 31597 21003 10277 20232 39912 40150 704// 82200 333 20239 59015;EQDQ01  00002PRCP06
0171827650999992002101818004-07330-047470FM-12+021299999V0203601N001010450019N0100001N1+02651+02141101011ADDAY161061AY221061GF108991041031008001021999MA1999999098611MD1999999-0111MW1041REMSYN082AAXX  18184 82765 21597 83602 10265 20214 39861 40101 70462 8432/ 333 59011 69921;
0190827650999992002101912004-07330-047470FM-12+021299999V0209999C000010450019N0100001N1+02471+02301101521ADDAY121061AY221061GF108991041081008001021999KA1240N+02301MA1999999099111MD1999999+0041MW1041REMSYN088AAXX  19124 82765 21597 80000 10247 20230 39911 40152 70422 8482/ 333 20230 58004 69924;
0171827650999992002101918004-07330-047470FM-12+021299999V0202801N001510120019N0100001N1+02501+02251101121ADDAY161061AY221061GF108991051081008001021999MA1999999098711MD1999999+0101MW1041REMSYN082AAXX  19184 82765 21597 82803 10250 20225 39871 40112 70462 8582/ 333 58010 69921;
0174827650999992002102012004-07330-047470FM-12+021299999V0200601N001510450019N0100001N1+02701+02301101441ADDGF105991031021008001031001KA1240N+02201MA1999999099041MD1999999+0071MW1041REMSYN088AAXX  20124 82765 21597 50603 10270 20230 39904 40144 704// 83230 333 20220 58007 69924;
0167827650999992002102018004-07330-047470FM-12+021299999V0203601N001510450019N0200001N1+03051+02331100991ADDAA106000091GF105991031011008001051001MA1999999098601MD1999999-0111REMSYN070AAXX  20184 82765 32598 53603 10305 20233 39860 40099 83150 333 59011;EQDQ01  00002PRCP06
0193827650999992002102100004-07330-047470FM-12+021299999V0203601N001012200019N0200001N1+02861+02501101101ADDAA106000091GA1001+999999999GF100991001001999999001001KA1240M+03411MA1999999098731REMSYN081AAXX  21004 82765 32998 03602 10286 20250 39873 40110 333 10341 29077 55070 5801;EQDQ01  00002PRCP06
0208827650999992002102112004-07330-047470FM-12+021299999V0203601N001510024019N0040001N1+02741+02381101491ADDAA106000091GA1091+999999999GF109991091999999999999999KA1240N+02381MA1999999099111MD1999999+0071MW1041REMSYN076AAXX  21124 82765 31/96 93603 10274 20238 39911 40149 704// 333 20238 58007;EQDQ01  00002PRCP06
0195827650999992002102118004-07330-047470FM-12+021299999V0200601N001012200019N0100001N1+03401+02271101001ADDAA106000091AY101061AY201061GF103991031011008001001001MA1999999098641MD1999999+0041MW1041REMSYN076AAXX  21184 82765 31597 30602 10340 20227 39864 40100 70400 83100 333 58004;EQDQ01  00002PRCP06
0198827650999992002102200004-07330-047470FM-12+021299999V0202901N001510450019N0200001N1+02821+02311101141ADDAA106000091GF105991011011012501051001KA1240M+03591MA1999999098801MD1999999+0071REMSYN088AAXX  22004 82765 32698 52903 10282 20231 39880 40114 81150 333 10359 29070 55092 58007;EQDQ01  00002PRCP06
0198827650999992002102212004-07330-047470FM-12+021299999V0201401N001510075019N0020001N1+02721+02391101591ADDAA106000091GF107991071021008001001001KA1240N+02521MA1999999099201MD1999999+0091MW1041REMSYN082AAXX  22124 82765 31595 71403 10272 20239 39920 40159 704// 87200 333 20252 58009;EQDQ01  00002PRCP06
0195827650999992002102218004-07330-047470FM-12+021299999V0202801N001510450019N0020001N1+03421+02191101141ADDAA106000091AY121061AY221061GF107991041031008001031001MA1999999098781MD1999999+0141MW1041REMSYN076AAXX  22184 82765 31595 72803 10342 20219 39878 40114 70422 84330 333 58014;EQDQ01  00002PRCP06
0226827650999992002102300004-07330-047470FM-12+021299999V0203601N001010120019N0040001N1+02741+02341101241ADDAA106000091AY121061AY221061GF108991051081008001021999KA1240M+03541MA1999999098861MD1999999+0061MW1041REMSYN094AAXX  23004 82765 31596 83602 10274 20234 39886 40124 70422 8582/ 333 10354 29072 55034 58006;EQDQ01  00002PRCP06
0174827650999992002102312004-07330-047470FM-12+021299999V0201401N003110075019N0040001N1+02541+02351101621ADDGF108991071051008001021999KA1240N+02491MA1999999099221MD1999999+0021MW1631REMSYN088AAXX  23124 82765 21596 81406 10254 20235 39922 40162 763// 8752/ 333 20249 58002 60124;
0181827650999992002102318004-07330-047470FM-12+021299999V0203001N001510012019N0020001N1+02641+02481101131ADDAY191061AY261061GA1091+999999999GF109991091999999999999999MA1999999098731MD1999999-0051MW1041REMSYN076AAXX  23184 82765 21/95 93003 10264 20248 39873 40113 70496 333 59005 60221;
0236827650999992002102400004-07330-047470FM-12+021299999V0209999C000010024019N0040001N1+02621+02501101211ADDAA106000091AY121061AY221061GA1091+999999999GF109991091999999999999999KA1240M+02881MA1999999098821MD1999999-0041MW1041REMSYN088AAXX  24004 82765 31/96 90000 10262 20250 39882 40121 70422 333 10288 29092 55003 59004;EQDQ01  00002PRCP06
0168827650999992002102412004-07330-047470FM-12+021299999V0209999C000010075019N0200001N1+02241+02211101711ADDGF108991061051008001021999KA1240N+02171MA1999999099291MD1999999+0071REMSYN088AAXX  24124 82765 21598 80000 10224 20221 39929 40171 7//96 8652/ 333 20217 58007 60424;
0167827650999992002102418004-07330-047470FM-12+021299999V0203601N001010075019N0200001N1+02821+02311101261ADDAA106000091GF107991061021008001041001MA1999999098861MD1999999+0131REMSYN070AAXX  24184 82765 32598 73602 10282 20231 39886 40126 86240 333 58013;EQDQ01  00002PRCP06
0186827650999992002102512004-07330-047470FM-12+021299999V0200801N001010120019N0200001N1+02541+02381101531ADDAA106000091GF107991051081008001021001KA1240N+02211MA1999999099121MD1999999-0171REMSYN076AAXX  25124 82765 32598 70802 10254 20238 39912 40153 85820 333 20221 59017;EQDQ01  00002PRCP06
0183827650999992002102518004-07330-047470FM-12+021299999V0203601N001019999999N0100001N1+03161+02321101121ADDAA106000091GF106991999041008001999999MA1999999098741MD1999999-0121REMSYN070AAXX  25184 82765 32597 63602 10316 20232 39874 40112 804// 333 59012;EQDQ01+000002SCOTLCQ02  00002PRCP06
0167827650999992002102618004-07330-047470FM-12+021299999V0203601N002610450019N0200001N1+03271+02301100991ADDAA106000091GF106991041021008001071001MA1999999098631MD1999999-0111REMSYN070AAXX  26184 82765 32598 63605 10327 20230 39863 40099 84270 333 59011;EQDQ01  00002PRCP06
0190827650999992002102700004-07330-047470FM-12+021299999V0209999C000019999999N0200001N1+02401+02151101261ADDGA1091+999999999GF109991091999999999999999KA1240M+03661MA1999999098861MD1999999+0071REMSYN094AAXX  27004 82765 21/98 90000 10240 20215 39886 40126 7//66 333 10366 29077 55060 58007 60221;
0190827650999992002102712004-07330-047470FM-12+021299999V0203601N001510075019N0100001N1+02641+02411101441ADDAY121061AY221061GF105991051021008001001001KA1240N+02251MA1999999099031MD1999999+0051MW1041REMSYN088AAXX  27124 82765 21597 53603 10264 20241 39903 40144 70422 85200 333 20225 58005 60224;
0179827650999992002102718004-07330-047470FM-12+021299999V0203601N001510075019N0100001N1+03201+02411101071ADDAA106000091GF105991051021008001001001MA1999999098691MD1999999+0061MW1041REMSYN076AAXX  27184 82765 31597 53603 10320 20241 39869 40107 704// 85200 333 58006;EQDQ01  00002PRCP06
0208827650999992002102800004-07330-047470FM-12+021299999V0209999C000012200019N0200001N1+02861+02541101111ADDAA106000091GA1001+999999999GF100991001001999999001001KA1240M+03361MA1999999098731MD1999999-0131REMSYN082AAXX  28004 82765 32998 00000 10286 20254 39873 40111 333 10336 29079 55093 59013;EQDQ01  00002PRCP06
0198827650999992002102812004-07330-047470FM-12+021299999V0203601N003110120019N0100001N1+02701+02221101561ADDAA106000091GF107991051081008001011001KA1240N+02501MA1999999099181MD1999999+0151MW1041REMSYN082AAXX  28124 82765 31597 73606 10270 20222 39918 40156 704// 85810 333 20250 58015;EQDQ01  00002PRCP06
0195827650999992002102818004-07330-047470FM-12+021299999V0203601N001510120019N0100001N1+03141+02241101051ADDAA106000091AY121061AY221061GF107991071081008001001001MA1999999098691MD1999999+0011MW1041REMSYN076AAXX  28184 82765 31597 73603 10314 20224 39869 40105 70422 87800 333 58001;EQDQ01  00002PRCP06
0208827650999992002102900004-07330-047470FM-12+021299999V0209999C000012200019N0200001N1+02881+02521101081ADDAA106000091GA1001+999999999GF100991001001999999001001KA1240M+03281MA1999999098701MD1999999+0031REMSYN082AAXX  29004 82765 32998 03600 10288 20252 39870 40108 333 10328 29074 55030 58003;EQDQ01  00002PRCP06
0214827650999992002102912004-07330-047470FM-12+021299999V0203601N003610075019N0100001N1+02731+02391101371ADDAA106000091AY121061AY221061GF107991071021008001001001KA1240N+02491MA1999999098991MD1999999-0191MW1041REMSYN082AAXX  29124 82765 31597 73607 10273 20239 39899 40137 70422 87200 333 20249 59019;EQDQ01  00002PRCP06
0195827650999992002102918004-07330-047470FM-12+021299999V0200501N002610450019N0100001N1+03161+02171101031ADDAA106000091AY121061AY221061GF108991041011008001011999MA1999999098661MD1999999-0031MW1041REMSYN076AAXX  29184 82765 31597 80505 10316 20217 39866 40103 70422 8411/ 333 59003;EQDQ01  00002PRCP06
0208827650999992002103000004-07330-047470FM-12+021299999V0201001N000519999999N0200001N1+02811+02481101191ADDAA106000091GA1091+999999999GF109991091999999999999999KA1240M+03241MA1999999098811MD1999999+0111REMSYN082AAXX  30004 82765 32/98 91001 10281 20248 39881 40119 333 10324 29076 55034 58011;EQDQ01  00002PRCP06
0214827650999992002103012004-07330-047470FM-12+021299999V0200601N001510450019N0040001N1+02631+02371101391ADDAA106000091AY121061AY221061GF108991031021008001011999KA1240N+02381MA1999999099001MD1999999+0011MW1041REMSYN082AAXX  30124 82765 31596 80603 10263 20237 39900 40139 70422 8321/ 333 20238 58001;EQDQ01  00002PRCP06
0195827650999992002103018004-07330-047470FM-12+021299999V0200401N001510450019N0100001N1+03261+02181100941ADDAA106000091AY121061AY221061GF108991041021008001011999MA1999999098571MD1999999-0091MW1041REMSYN076AAXX  30184 82765 31597 80403 10326 20218 39857 40094 70422 8421/ 333 59009;EQDQ01  00002PRCP06
0214827650999992002103100004-07330-047470FM-12+021299999V0201401N000510024019N0100001N1+02831+02401101191ADDAA106000091GA1091+999999999GF109991091999999999999999KA1240M+03351MA1999999098811MD1999999+0001REMSYN088AAXX  31004 82765 31/97 91401 10283 20240 39881 40119 7//22 333 10335 29074 55031 58000;EQDQ01  00002PRCP06
0214827650999992002103112004-07330-047470FM-12+021299999V0200901N001510450019N0100001N1+02571+02271101441ADDAA106000091AY121061AY221061GF105991021011008001011001KA1240N+02381MA1999999099051MD1999999+0051MW1041REMSYN082AAXX  31124 82765 31597 50903 10257 20227 39905 40144 70422 82110 333 20238 58005;EQDQ01  00002PRCP06
0195827650999992002103118004-07330-047470FM-12+021299999V0203601N001510450019N0040001N1+03231+02291100991ADDAA106000091AY121061AY221061GF107991041021008001011001MA1999999098621MD1999999+0051MW1041REMSYN076AAXX  31184 82765 31596 73603 10323 20229 39862 40099 70422 84210 333 58005;EQDQ01  00002PRCP06
0214827650999992002110112004-07330-047470FM-12+021299999V0203601N000512200019N0100001N1+02661+02221101531ADDAA106000091GF102991999021008001001001KA1240N+02451MA1999999099141MD1999999+0091MW1041REMSYN082AAXX  01124 82765 31597 23601 10266 20222 39914 40153 704// 81200 333 20245 58009;EQDQ01+000012SCOTLCQ02  00002PRCP06
0179827650999992002110118004-07330-047470FM-12+021299999V0203401N001512200019N0100001N1+03401+02181101071ADDAA106000091GF103991031021008001001001MA1999999098711MD1999999+0091MW1041REMSYN076AAXX  01184 82765 31597 33403 10340 20218 39871 40107 704// 83200 333 58009;EQDQ01  00002PRCP06
0214827650999992002110200004-07330-047470FM-12+021299999V0209999C000010024019N0100001N1+02941+02561101271ADDAA106000091GA1091+999999999GF109991091999999999999999KA1240M+03501MA1999999098891MD1999999+0171REMSYN088AAXX  02004 82765 31/97 90000 10294 20256 39889 40127 7//22 333 10350 29071 55069 58017;EQDQ01  00002PRCP06
0208827650999992002110212004-07330-047470FM-12+021299999V0202601N001012200019N0100001N1+02941+02431101451ADDAA106000091GA1001+999999999GF100991001001999999001001KA1240N+02531MA1999999099091MD1999999-0051MW1041REMSYN076AAXX  02124 82765 31997 02602 10294 20243 39909 40145 704// 333 20253 59005;EQDQ01  00002PRCP06
0195827650999992002110218004-07330-047470FM-12+021299999V0201901N001512200019N0100001N1+03601+02251100881ADDAA106000091AY121061AY221061GF104991041021008001001001MA1999999098491MD1999999-0221MW1041REMSYN076AAXX  02184 82765 31597 41903 10360 20225 39849 40088 70422 84200 333 59022;EQDQ01  00002PRCP06
0226827650999992002110300004-07330-047470FM-12+021299999V0200401N001012200019N0100001N1+03141+02501100971ADDAA106000091AY121061AY221061GF104991031021008001021999KA1240M+03781MA1999999098631MD1999999-0261MW1131REMSYN094AAXX  03004 82765 31597 40402 10314 20250 39863 40097 71322 8322/ 333 10378 29064 55098 59026;EQDQ01  00002PRCP06
0171827650999992002110318004-07330-047470FM-12+021299999V0200601N002110450019N0100001N1+02561+02331101331ADDAY151061AY251061GF108991011081008001021999MA1999999098911MD1999999+0421MW1041REMSYN082AAXX  03184 82765 21597 80604 10256 20233 39891 40133 70455 8182/ 333 58042 69911;
0236827650999992002110400004-07330-047470FM-12+021299999V0200801N000510024019N0100001N1+02361+02241101461ADDAA106000091AY121061AY221061GA1091+999999999GF109991091999999999999999KA1240M+03161MA1999999099041MD1999999+0411MW1041REMSYN088AAXX  04004 82765 31/97 90801 10236 20224 39904 40146 70422 333 10316 29091 55000 58041;EQDQ01  00002PRCP06
0190827650999992002110412004-07330-047470FM-12+021299999V0209999C000010120019N0200001N1+02341+02221101681ADDAY161061AY261061GF108991081081008001999999KA1240N+02281MA1999999099251MD1999999+0131MW1031REMSYN088AAXX  04124 82765 21598 80000 10234 20222 39925 40168 70366 888// 333 20228 58013 69954;
0167827650999992002110418004-07330-047470FM-12+021299999V0202701N00151045001CN0200001N1+03021+02391101171ADDAA106000091GF106991021021008001031999MA1999999098781MD1999999-0131REMSYN070AAXX  04184 82765 32598 62703 10302 20239 39878 40117 8223/ 333 59013;EQDQ01  00002PRCP06
0208827650999992002110500004-07330-047470FM-12+021299999V0201801N001512200019N0200001N1+02701+02411101441ADDAA106000091GA1001+999999999GF100991001001999999001001KA1240M+03121MA1999999099031MD1999999+0011REMSYN082AAXX  05004 82765 32998 01803 10270 20241 39903 40144 333 10312 29082 55047 58001;EQDQ01  00002PRCP06
0190827650999992002110512004-07330-047470FM-12+021299999V0203601N001510120019N0100001N1+02491+02291101691ADDAY161061AY221061GF107991071081008001001001KA1240N+02321MA1999999099281MD1999999+0031MW1151REMSYN088AAXX  05124 82765 21597 73603 10249 20229 39928 40169 71562 87800 333 20232 58003 60024;
0167827650999992002110518004-07330-047470FM-12+021299999V0203601N001510075019N0200001N1+02961+02151101281ADDAA106000091GF108991061021008001041001MA1999999098891MD1999999+0111REMSYN070AAXX  05184 82765 32598 83603 10296 20215 39889 40128 86240 333 58011;EQDQ01  00002PRCP06
0186827650999992002110612004-07330-047470FM-12+021299999V0202601N001012200019N0200001N1+02691+02371101621ADDAA106000091GF104991031021008001031001KA1240N+02371MA1999999099231MD1999999+0051REMSYN076AAXX  06124 82765 32598 42602 10269 20237 39923 40162 83230 333 20237 58005;EQDQ01  00002PRCP06
0195827650999992002110618004-07330-047470FM-12+021299999V0200801N001010075019N0040001N1+03381+02471101191ADDAA106000091AY101061AY201061GF106991061071008001001001MA1999999098821MD1999999+0071MW1151REMSYN076AAXX  06184 82765 31596 60802 10338 20247 39882 40119 71500 86700 333 58007;EQDQ01  00002PRCP06
0184827650999992002110700004-07330-047470FM-12+021299999V0202701N001012200019N0200001N1+02501+02311101501ADDGA1001+999999999GF100991001001999999001001KA1240M+03461MA1999999099101MD1999999+0081REMSYN088AAXX  07004 82765 21998 02702 10250 20231 39910 40150 333 10346 29080 55075 58008 60071;
0162827650999992002110712004-07330-047470FM-12+021299999V0209999C000010075019N0200001N1+02701+02391101711ADDGF107991071021008001001001KA1240N+02321MA1999999099301MD1999999+0071REMSYN082AAXX  07124 82765 22598 70000 10270 20239 39930 40171 87200 333 20232 58007 60074;
0167827650999992002110718004-07330-047470FM-12+021299999V0202301N001010450019N0200001N1+03361+02391101151ADDAA106000091GF106991031021008001011001MA1999999098781MD1999999-0041REMSYN070AAXX  07184 82765 32598 62302 10336 20239 39878 40115 83210 333 59004;EQDQ01  00002PRCP06
0242827650999992002110800004-07330-047470FM-12+021299999V0201301N001510024019N0100001N1+02771+02261101431ADDAA106000091AY121061AY221061GA1091+999999999GF109991091999999999999999KA1240M+03541MA1999999099051MD1999999-0051MW1131REMSYN094AAXX  08004 82765 31/97 91303 10277 20226 39905 40143 71322 80000 333 10354 29074 55081 59005;EQDQ01  00002PRCP06
0186827650999992002110812004-07330-047470FM-12+021299999V0203201N002110450019N0200001N1+02661+02331101691ADDAA106000091GF106991041021008001031001KA1240N+02361MA1999999099291MD1999999-0011REMSYN076AAXX  08124 82765 32598 63204 10266 20233 39929 40169 84230 333 20236 59001;EQDQ01  00002PRCP06
0195827650999992002110818004-07330-047470FM-12+021299999V0209999C000010450019N0200001N1+03121+02461101171ADDAA106000091AY121061AY221061GF106991041031008001031001MA1999999098791MD1999999+0011MW1171REMSYN076AAXX  08184 82765 31598 60000 10312 20246 39879 40117 71722 84330 333 58001;EQDQ01  00002PRCP06
0236827650999992002110900004-07330-047470FM-12+021299999V0209999C000019999999N0200001N1+02751+02401101431ADDAA106000091AY191061AY221061GA1091+999999999GF109991091999999999999999KA1240M+03331MA1999999099041MD1999999-0011MW1171REMSYN088AAXX  09004 82765 31/98 90000 10275 20240 39904 40143 71792 333 10333 29078 55043 59001;EQDQ01  00002PRCP06
0190827650999992002110912004-07330-047470FM-12+021299999V0209999C000010042019N0100001N1+02441+02341101821ADDAY161061AY251061GF108991051051004501021999KA1240N+02441MA1999999099411MD1999999+0121MW1201REMSYN088AAXX  09124 82765 21497 80000 10244 20234 39941 40182 72065 8552/ 333 20244 58012 60024;
0171827650999992002110918004-07330-047470FM-12+021299999V0209999C000010090019N0200001N1+02671+02371101491ADDAY161061AY221061GF108991051081004501021999MA1999999099081MD1999999+0291MW1031REMSYN082AAXX  09184 82765 21498 80000 10267 20237 39908 40149 70362 8582/ 333 58029 69941;
0208827650999992002111000004-07330-047470FM-12+021299999V0209999C000019999999N0200001N1+02481+02361101521ADDAA106000091GA1091+999999999GF109991091999999999999999KA1240M+02791MA1999999099101MD1999999+0061REMSYN082AAXX  10004 82765 32/98 90000 10248 20236 39910 40152 333 10279 29091 55002 58006;EQDQ01  00002PRCP06
0162827650999992002111012004-07330-047470FM-12+021299999V0201901N001510120019N0200001N1+02421+02251101801ADDGF108991061081008001021999KA1240N+02291MA1999999099381MD1999999-0031REMSYN082AAXX  10124 82765 22598 81903 10242 20225 39938 40180 8682/ 333 20229 59003 69944;
0179827650999992002111018004-07330-047470FM-12+021299999V0201901N000510450019N0200001N1+03041+02361101431ADDAA106000091GF107991021031008001041001MA1999999099031MD1999999-0051MW1291REMSYN076AAXX  10184 82765 31598 71901 10304 20236 39903 40143 729// 82340 333 59005;EQDQ01  00002PRCP06
0198827650999992002111100004-07330-047470FM-12+021299999V0203501N000512200019N0200001N1+02541+02401101441ADDAA106000091GF102991021011008001001001KA1240M+03161MA1999999099031MD1999999-0071REMSYN088AAXX  11004 82765 32598 23501 10254 20240 39903 40144 82100 333 10316 29082 55034 59007;EQDQ01  00002PRCP06
0186827650999992002111112004-07330-047470FM-12+021299999V0200501N001510075019N0200001N1+02561+02381101631ADDAA106000091GF105991051021008001001001KA1240N+02211MA1999999099221MD1999999-0161REMSYN076AAXX  11124 82765 32598 50503 10256 20238 39922 40163 85200 333 20221 59016;EQDQ01  00002PRCP06
0167827650999992002111118004-07330-047470FM-12+021299999V0200801N002110450019N0200001N1+03321+02291101141ADDAA106000091GF105991041021008001041001MA1999999098771MD1999999-0261REMSYN070AAXX  11184 82765 32598 50804 10332 20229 39877 40114 84240 333 59026;EQDQ01  00002PRCP06
0208827650999992002111200004-07330-047470FM-12+021299999V0203501N000512200019N0200001N1+02761+02361101311ADDAA106000091GA1001+999999999GF100991001001999999001001KA1240M+03401MA1999999098921MD1999999-0111REMSYN082AAXX  12004 82765 32998 03501 10276 20236 39892 40131 333 10340 29076 55095 59011;EQDQ01  00002PRCP06
0198827650999992002111212004-07330-047470FM-12+021299999V0201001N001010450019N0100001N1+02801+02341101601ADDAA106000091GF105991031011008001041001KA1240N+02311MA1999999099221MD1999999+0001MW1041REMSYN082AAXX  12124 82765 31597 51002 10280 20234 39922 40160 704// 83140 333 20231 58000;EQDQ01  00002PRCP06
0195827650999992002111218004-07330-047470FM-12+021299999V0203501N001510075019N0100001N1+03361+02331101141ADDAA106000091AY121061AY221061GF106991051021008001041001MA1999999098771MD1999999+0001MW1041REMSYN076AAXX  12184 82765 31597 63503 10336 20233 39877 40114 70422 85240 333 58000;EQDQ01  00002PRCP06
0208827650999992002111300004-07330-047470FM-12+021299999V0203601N000512200019N0200001N1+02801+02461101221ADDAA106000091GA1001+999999999GF100991001001999999001001KA1240M+03481MA1999999098851MD1999999-0071REMSYN082AAXX  13004 82765 32998 03601 10280 20246 39885 40122 333 10348 29074 55088 59007;EQDQ01  00002PRCP06
0198827650999992002111312004-07330-047470FM-12+021299999V0203601N001512200019N0100001N1+02891+02281101631ADDAA106000091GF103991031021008001001001KA1240N+02421MA1999999099251MD1999999+0031MW1041REMSYN082AAXX  13124 82765 31597 33603 10289 20228 39925 40163 704// 83200 333 20242 58003;EQDQ01  00002PRCP06
0167827650999992002111318004-07330-047470FM-12+021299999V0201801N001512200019N0200001N1+03331+02101101141ADDAA106000091GF104991031011008001001021MA1999999098771MD1999999+0001REMSYN070AAXX  13184 82765 32598 41803 10333 20210 39877 40114 83102 333 58000;EQDQ01  00002PRCP06
0208827650999992002111400004-07330-047470FM-12+021299999V0200901N001012200019N0200001N1+02861+02141101341ADDAA106000091GA1001+999999999GF100991001001999999001001KA1240M+03541MA1999999098971MD1999999+0121REMSYN082AAXX  14004 82765 32998 00902 10286 20214 39897 40134 333 10354 29062 55106 58012;EQDQ01  00002PRCP06
0186827650999992002111412004-07330-047470FM-12+021299999V0202401N001512200019N0200001N1+02641+02161101761ADDAA106000091GF103991011011008001001011KA1240N+02261MA1999999099371MD1999999+0121REMSYN076AAXX  14124 82765 32598 32403 10264 20216 39937 40176 81101 333 20226 58012;EQDQ01  00002PRCP06
0167827650999992002111418004-07330-047470FM-12+021299999V0201001N002111050019N0200001N1+03381+01981101211ADDAA106000091GF105991041021008001001021MA1999999098841MD1999999+0071REMSYN070AAXX  14184 82765 32598 51004 10338 20198 39884 40121 84202 333 58007;EQDQ01  00002PRCP06
0208827650999992002111500004-07330-047470FM-12+021299999V0209999C000012200019N0200001N1+02921+02291101331ADDAA106000091GA1001+999999999GF100991001001999999001001KA1240M+03541MA1999999098951MD1999999+0021REMSYN082AAXX  15004 82765 32998 00000 10292 20229 39895 40133 333 10354 29064 55094 58002;EQDQ01  00002PRCP06
0186827650999992002111512004-07330-047470FM-12+021299999V0201801N000512200019N0200001N1+02791+02211101631ADDAA106000091GF102991021011008001001001KA1240N+02291MA1999999099251MD1999999-0121REMSYN076AAXX  15124 82765 32598 21801 10279 20221 39925 40163 82100 333 20229 59012;EQDQ01  00002PRCP06
0167827650999992002111518004-07330-047470FM-12+021299999V0201501N001512200019N0200001N1+03361+02211101171ADDAA106000091GF104991041021008001001001MA1999999098801MD1999999+0041REMSYN070AAXX  15184 82765 32598 41503 10336 20221 39880 40117 84200 333 58004;EQDQ01  00002PRCP06
0208827650999992002111600004-07330-047470FM-12+021299999V0209999C000012200019N0200001N1+02961+02401101231ADDAA106000091GA1001+999999999GF100991001001999999001001KA1240M+03521MA1999999098861MD1999999-0091REMSYN082AAXX  16004 82765 32998 00000 10296 20240 39886 40123 333 10352 29067 55096 59009;EQDQ01  00002PRCP06
0186827650999992002111612004-07330-047470FM-12+021299999V0201401N001510075019N0200001N1+02671+02291101621ADDAA106000091GF106991061021008001001001KA1240N+02241MA1999999099241MD1999999-0011REMSYN076AAXX  16124 82765 32598 61403 10267 20229 39924 40162 86200 333 20224 59001;EQDQ01  00002PRCP06
0171827650999992002111618004-07330-047470FM-12+021299999V0200701N000510075019N0200001N1+02881+02441101221ADDAY161061AY221061GF107991051021008001021001MA1999999098831MD1999999+0031MW1031REMSYN082AAXX  16184 82765 21598 70701 10288 20244 39883 40122 70362 85220 333 58003 60041;
0198827650999992002111700004-07330-047470FM-12+021299999V0203501N001012200019N0200001N1+02571+02351101211ADDAA106000091GF104991041001017501031001KA1240M+03111MA1999999098821MD1999999-0041REMSYN088AAXX  17004 82765 32798 43502 10257 20235 39882 40121 84030 333 10311 29083 55029 59004;EQDQ01  00002PRCP06
0200827650999992002111712004-07330-047470FM-12+021299999V0200501N003110075019N0040001N1+02741+02281101531ADDAA199044091AY121061AY221061GF107991071021008001001001KA1240N+02321MA1999999099131MD1999999-0111MW1041REMSYN087AAXX  17124 82765 21596 70506 10274 20228 39913 40153 70422 87200 333 20232 59011 6044;
0195827650999992002111718004-07330-047470FM-12+021299999V0200201N002610075019N0040001N1+03041+02281101201ADDAA106000091AY121061AY221061GF106991061021008001001001MA1999999098821MD1999999-0011MW1041REMSYN076AAXX  17184 82765 31596 60205 10304 20228 39882 40120 70422 86200 333 59001;EQDQ01  00002PRCP06
0208827650999992002111800004-07330-047470FM-12+021299999V0200201N001012200019N0200001N1+02681+02351101291ADDAA106000091GA1001+999999999GF100991001001999999001001KA1240M+03181MA1999999098901MD1999999+0081REMSYN082AAXX  18004 82765 32998 00202 10268 20235 39890 40129 333 10318 29076 55057 58008;EQDQ01  00002PRCP06
0214827650999992002111812004-07330-047470FM-12+021299999V0200501N003110450019N0040001N1+02731+02371101531ADDAA106000091AY121061AY221061GF106991041081008001011001KA1240N+02261MA1999999099141MD1999999+0011MW1041REMSYN082AAXX  18124 82765 31596 60506 10273 20237 39914 40153 70422 84810 333 20226 58001;EQDQ01  00002PRCP06
0195827650999992002111818004-07330-047470FM-12+021299999V0203201N001510075019N0040001N1+03271+02301101051ADDAA106000091AY121061AY221061GF105991051021008001001001MA1999999098681MD1999999-0141MW1041REMSYN076AAXX  18184 82765 31596 53203 10327 20230 39868 40105 70422 85200 333 59014;EQDQ01  00002PRCP06
0214827650999992002111900004-07330-047470FM-12+021299999V0201001N001012200019N0200001N1+02761+02381101171ADDAA106000091GA1001+999999999GF100991001001999999001001KA1240M+03481MA1999999098791MD1999999-0111REMSYN088AAXX  19004 82765 31998 01002 10276 20238 39879 40117 7//99 333 10348 29074 55076 59011;EQDQ01  00002PRCP06
0198827650999992002111912004-07330-047470FM-12+021299999V0203601N001510075019N0040001N1+02761+02361101531ADDAA106000091GF106991051021008001041001KA1240N+02371MA1999999099141MD1999999+0001MW1041REMSYN082AAXX  19124 82765 31596 63603 10276 20236 39914 40153 704// 85240 333 20237 58000;EQDQ01  00002PRCP06
0179827650999992002111918004-07330-047470FM-12+021299999V0203601N002112200019N0040001N1+03281+02371101071ADDAA106000091GF103991031021008001041001MA1999999098691MD1999999-0011MW1041REMSYN076AAXX  19184 82765 31596 33604 10328 20237 39869 40107 704// 83240 333 59001;EQDQ01  00002PRCP06
0226827650999992002112000004-07330-047470FM-12+021299999V0201401N001010450019N0040001N1+02641+02231101321ADDAA106000091AY191061AY291061GF107991031021008001021001KA1240M+03421MA1999999098931MD1999999+0141MW1041REMSYN094AAXX  20004 82765 31596 71402 10264 20223 39893 40132 70499 83220 333 10342 29074 55070 58014;EQDQ01  00002PRCP06
0198827650999992002112012004-07330-047470FM-12+021299999V0203501N001010450019N0100001N1+02781+02341101491ADDAA106000091GF105991021011008001041001KA1240N+02291MA1999999099101MD1999999-0041MW1041REMSYN082AAXX  20124 82765 31597 53502 10278 20234 39910 40149 704// 82140 333 20229 59004;EQDQ01  00002PRCP06
0179827650999992002112018004-07330-047470FM-12+021299999V0203601N003110075019N0100001N1+03321+02291101091ADDAA106000091GF107991061021008001041001MA1999999098711MD1999999+0021MW1041REMSYN076AAXX  20184 82765 31597 73606 10332 20229 39871 40109 704// 86240 333 58002;EQDQ01  00002PRCP06
0210827650999992002112100004-07330-047470FM-12+021299999V0203601N000512200019N0100001N1+02791+02461101281ADDAA106000091GF102991011011008001041001KA1240M+03361MA1999999098901MD1999999-0031MW1041REMSYN094AAXX  21004 82765 31597 23601 10279 20246 39890 40128 704// 81140 333 10336 29074 55058 59003;EQDQ01  00002PRCP06
0198827650999992002112112004-07330-047470FM-12+021299999V0200601N004110120019N0100001N1+02721+02371101611ADDAA106000091GF107991061081008001041001KA1240N+02411MA1999999099221MD1999999+0121MW1041REMSYN082AAXX  21124 82765 31597 70608 10272 20237 39922 40161 704// 86840 333 20241 58012;EQDQ01  00002PRCP06
0179827650999992002112118004-07330-047470FM-12+021299999V0203501N003110450019N0100001N1+03121+02281101341ADDAA106000091GF106991041021008001041001MA1999999098951MD1999999+0241MW1041REMSYN076AAXX  21184 82765 31597 63506 10312 20228 39895 40134 704// 84240 333 58024;EQDQ01  00002PRCP06
0210827650999992002112200004-07330-047470FM-12+021299999V0203001N000510450019N0100001N1+02701+02451101351ADDAA106000091GF105991021011008001021001KA1240M+03181MA1999999098961MD1999999+0061MW1041REMSYN094AAXX  22004 82765 31597 53001 10270 20245 39896 40135 704// 82120 333 10318 29078 55053 58006;EQDQ01  00002PRCP06
0214827650999992002112212004-07330-047470FM-12+021299999V0203601N001512200019N0040001N1+02781+02321101511ADDAA106000091GF104991999001012501031001KA1240N+02361MA1999999099121MD1999999-0011MW1041REMSYN082AAXX  22124 82765 31696 43603 10278 20232 39912 40151 704// 80030 333 20236 59001;EQDQ01+000002SCOTLCQ02  00002PRCP06
0195827650999992002112218004-07330-047470FM-12+021299999V0200201N002110450019N0040001N1+03181+02251101251ADDAA106000091AY111061AY211061GF107991031031008001031001MA1999999098861MD1999999-0091MW1041REMSYN076AAXX  22184 82765 31596 70204 10318 20225 39886 40125 70411 83330 333 59009;EQDQ01  00002PRCP06
0208827650999992002112300004-07330-047470FM-12+021299999V0202501N001012200019N0200001N1+02521+02231101331ADDAA106000091GA1001+999999999GF100991001001999999001001KA1240M+03271MA1999999098941MD1999999+0021REMSYN082AAXX  23004 82765 32498 02502 10252 20223 39894 40133 333 10327 29076 55050 58002;EQDQ01  00002PRCP06
0186827650999992002112312004-07330-047470FM-12+021299999V0201401N001510075019N0200001N1+02441+02171101731ADDAA106000091GF107991051071008001021001KA1240N+02201MA1999999099311MD1999999+0191REMSYN076AAXX  23124 82765 32598 71403 10244 20217 39931 40173 85720 333 20220 58019;EQDQ01  00002PRCP06
0190827650999992002112318004-07330-047470FM-12+021299999V0202301N001019999999N0200001N1+02921+02411101351ADDAY151061AY201061GF105991999001008001001081MA1999999098941MD1999999+0011MW1321REMSYN082AAXX  23184 82765 21598 52302 10292 20241 39894 40135 73250 88008 333 58001 60021;EQDQ01+000082SCOTLC
0208827650999992002112400004-07330-047470FM-12+021299999V0209999C000012200019N0200001N1+02671+02391101531ADDAA106000091GA1001+999999999GF100991001001999999001001KA1240M+03201MA1999999099131MD1999999+0191REMSYN082AAXX  24004 82765 32998 00000 10267 20239 39913 40153 333 10320 29083 55024 58019;EQDQ01  00002PRCP06
0167827650999992002112418004-07330-047470FM-12+021299999V0203601N002612200019N0200001N1+02841+02071101301ADDAA106000091GF104991041021008001001001MA1999999098891MD1999999-0051REMSYN070AAXX  24184 82765 32598 43605 10284 20207 39889 40130 84200 333 59005;EQDQ01  00002PRCP06
0208827650999992002112500004-07330-047470FM-12+021299999V0203601N001012200019N0200001N1+02661+02371101361ADDAA106000091GA1001+999999999GF100991001001999999001001KA1240M+03341MA1999999098971MD1999999-0161REMSYN082AAXX  25004 82765 32998 03602 10266 20237 39897 40136 333 10334 29079 55070 59016;EQDQ01  00002PRCP06
0190827650999992002112512004-07330-047470FM-12+021299999V0200201N002110450019N0200001N1+02561+02361101681ADDAY161061AY221061GF107991041081008001031001KA1240N+02341MA1999999099271MD1999999+0011MW1031REMSYN088AAXX  25124 82765 21598 70204 10256 20236 39927 40168 70362 84830 333 20234 58001 60074;
0167827650999992002112518004-07330-047470FM-12+021299999V0202101N000510450019N0200001N1+02631+02331101291ADDAA106000091GF105991031081008001021001MA1999999098881MD1999999-0011REMSYN070AAXX  25184 82765 32598 52101 10263 20233 39888 40129 83820 333 59001;EQDQ01  00002PRCP06
0208827650999992002112600004-07330-047470FM-12+021299999V0209999C000012200019N0200001N1+02621+02481101431ADDAA106000091GA1001+999999999GF100991001001999999001001KA1240M+03081MA1999999099031MD1999999+0061REMSYN082AAXX  26004 82765 32998 00000 10262 20248 39903 40143 333 10308 29089 55043 58006;EQDQ01  00002PRCP06
0186827650999992002112612004-07330-047470FM-12+021299999V0201101N000510090019N0200001N1+02601+02391101721ADDAA106000091GF107991071081004501001001KA1240N+02261MA1999999099311MD1999999+0041REMSYN076AAXX  26124 82765 32498 71101 10260 20239 39931 40172 87800 333 20226 58004;EQDQ01  00002PRCP06
0195827650999992002112618004-07330-047470FM-12+021299999V0202601N002610450019N0200001N1+03111+02261101231ADDAA106000091AY121061AY221061GF106991041031008001011001MA1999999098841MD1999999-0041MW1171REMSYN076AAXX  26184 82765 31598 62605 10311 20226 39884 40123 71722 84310 333 59004;EQDQ01  00002PRCP06
0208827650999992002112700004-07330-047470FM-12+021299999V0201301N000519999999N0200001N1+02551+02361101321ADDAA106000091GA1091+999999999GF109991091999999999999999KA1240M+03221MA1999999098921MD1999999-0111REMSYN082AAXX  27004 82765 32/98 91301 10255 20236 39892 40132 333 10322 29082 55045 59011;EQDQ01  00002PRCP06
0190827650999992002112712004-07330-047470FM-12+021299999V0200501N002610450019N0200001N1+02361+02241101621ADDAY161061AY221061GF108991041081004501021999KA1240N+02241MA1999999099201MD1999999-0111MW1031REMSYN088AAXX  27124 82765 21498 80505 10236 20224 39920 40162 70362 8482/ 333 20224 59011 60054;
0171827650999992002112718004-07330-047470FM-12+021299999V0203501N001510450019N0200001N1+02811+02341101241ADDAY161061AY221061GF107991041021008001011001MA1999999098841MD1999999+0001MW1031REMSYN082AAXX  27184 82765 21598 73503 10281 20234 39884 40124 70362 84210 333 58000 60071;
0208827650999992002112800004-07330-047470FM-12+021299999V0203601N000519999999N0200001N1+02671+02461101241ADDAA106000091GA1091+999999999GF109991091999999999999999KA1240M+03041MA1999999098841MD1999999-0081REMSYN082AAXX  28004 82765 32/98 93601 10267 20246 39884 40124 333 10304 29087 55017 59008;EQDQ01  00002PRCP06
0174827650999992002112812004-07330-047470FM-12+021299999V0201001N000512200019N0100001N1+02781+02481101431ADDGF101991011011008001001001KA1240N+02331MA1999999099041MD1999999+0161MW1041REMSYN088AAXX  28124 82765 21597 11001 10278 20248 39904 40143 704// 81100 333 20233 58016 60074;
0179827650999992002112818004-07330-047470FM-12+021299999V0200801N005110450019N0100001N1+03361+02451100991ADDAA106000091GF105991021031008001041001MA1999999098631MD1999999-0211MW1291REMSYN076AAXX  28184 82765 31597 50810 10336 20245 39863 40099 729// 82340 333 59021;EQDQ01  00002PRCP06
0208827650999992002112900004-07330-047470FM-12+021299999V0200401N000519999999N0200001N1+02721+02451101141ADDAA106000091GA1091+999999999GF109991091999999999999999KA1240M+03421MA1999999098761MD1999999-0081REMSYN082AAXX  29004 82765 32/98 90401 10272 20245 39876 40114 333 10342 29078 55097 59008;EQDQ01  00002PRCP06
0214827650999992002112912004-07330-047470FM-12+021299999V0200501N002110120019N0100001N1+02521+02291101561ADDAA106000091AY191061AY291061GF107991051081008001041001KA1240N+02511MA1999999099161MD1999999+0121MW1041REMSYN082AAXX  29124 82765 31597 70504 10252 20229 39916 40156 70499 85840 333 20251 58012;EQDQ01  00002PRCP06
0179827650999992002112918004-07330-047470FM-12+021299999V0200501N002110450019N0100001N1+03041+02431101161ADDAA106000091GF105991031021008001041001MA1999999098791MD1999999+0161MW1041REMSYN076AAXX  29184 82765 31597 50504 10304 20243 39879 40116 704// 83240 333 58016;EQDQ01  00002PRCP06
0220827650999992002113000004-07330-047470FM-12+021299999V0209999C000012200019N0100001N1+02841+02581101261ADDAA106000091GA1001+999999999GF100991001001999999001001KA1240M+03141MA1999999098871MD1999999+0111MW1041REMSYN088AAXX  30004 82765 31997 00000 10284 20258 39887 40126 704// 333 10314 29082 55049 58011;EQDQ01  00002PRCP06
0198827650999992002113012004-07330-047470FM-12+021299999V0201501N000512200019N0100001N1+02761+02481101611ADDAA106000091GF102991021011008001001001KA1240N+02391MA1999999099231MD1999999+0071MW1041REMSYN082AAXX  30124 82765 31597 21501 10276 20248 39923 40161 704// 82100 333 20239 58007;EQDQ01  00002PRCP06
0156827650999992002113018004-07330-047470FM-12+021299999V0200801N000510450019N0100001N1+03101+02391101231ADDAY151061AY251061GF106991041021008001041001MA1999999098871MW1041REMSYN081AAXX  30184 82765 21597 60801 10310 20239 39887 40123 70455 84240 33 58008 60011;
0208827650999992002120100004-07330-047470FM-12+021299999V0209999C000019999999N0200001N1+02701+02501101341ADDAA106000091GA1091+999999999GF109991091999999999999999KA1240M+03121MA1999999098961MD1999999+0091REMSYN082AAXX  01004 82765 32/98 90000 10270 20250 39896 40134 333 10312 29082 55030 58009;EQDQ01  00002PRCP06
0190827650999992002120112004-07330-047470FM-12+021299999V0200701N001010450019N0100001N1+02391+02311101621ADDAY161061AY221061GF108991011011008001021999KA1240N+02401MA1999999099211MD1999999+0021MW1011REMSYN088AAXX  01124 82765 21597 80702 10239 20231 39921 40162 70162 8112/ 333 20240 58002 60134;
0208827650999992002120200004-07330-047470FM-12+021299999V0202701N000519999999N0200001N1+02611+02441101301ADDAA106000091GA1091+999999999GF109991091999999999999999KA1240M+02921MA1999999098891MD1999999-0071REMSYN082AAXX  02004 82765 32/98 92701 10261 20244 39889 40130 333 10292 29089 55017 59007;EQDQ01  00002PRCP06
0209827650999992002120212004-07330-047470FM-12+021299999V0200701N001010021019N0040001N1+02341+02261101631ADDAY161061AY221061GF108991999051002501021999KA1240N+02341MA1999999099221MD1999999+0011MW1211REMSYN088AAXX  02124 82765 21396 80702 10234 20226 39922 40163 72162 8852/ 333 20234 58001 60124;EQDQ01+000082SCOTLC
0148827650999992002120218004-07330-047470FM-12+021299999V0203201N001510450019N0200001N1+02921+02471101191ADDAA106000021GF106991031021008001011001MA1999999098811MD1999999+0081REMSYN070AAXX  02184 82765 32598 63203 10292 20247 39881 40119 83210 333 58008;
0208827650999992002120300004-07330-047470FM-12+021299999V0202901N001512200019N0200001N1+02601+02421101281ADDAA106000091GA1001+999999999GF100991001001999999001001KA1240M+03051MA1999999098871MD1999999+0011REMSYN082AAXX  03004 82765 32998 02903 10260 20242 39887 40128 333 10305 29088 55038 58001;EQDQ01  00002PRCP06
0214827650999992002120312004-07330-047470FM-12+021299999V0200901N001010450019N0100001N1+02601+02401101521ADDAA106000091AY111061AY211061GF107991031031004501021001KA1240N+02261MA1999999099131MD1999999-0111MW1051REMSYN082AAXX  03124 82765 31497 70902 10260 20240 39913 40152 70511 83320 333 20226 59011;EQDQ01  00002PRCP06
0167827650999992002120318004-07330-047470FM-12+021299999V0203601N000510075019N0200001N1+03171+02321101121ADDAA106000091GF105991051021008001001001MA1999999098741MD1999999-0071REMSYN070AAXX  03184 82765 32598 53601 10317 20232 39874 40112 85200 333 59007;EQDQ01  00002PRCP06
0208827650999992002120400004-07330-047470FM-12+021299999V0209999C000012200019N0200001N1+02901+02621101121ADDAA106000091GA1001+999999999GF100991001001999999001001KA1240M+03391MA1999999098741MD1999999-0131REMSYN082AAXX  04004 82765 32998 00000 10290 20262 39874 40112 333 10339 29080 55075 59013;EQDQ01  00002PRCP06
0214827650999992002120412004-07330-047470FM-12+021299999V0203501N001012200019N0100001N1+02741+02341101531ADDAA106000091AY121061AY221061GF104991041081008001001001KA1240N+02281MA1999999099151MD1999999+0021MW1051REMSYN082AAXX  04124 82765 31597 43502 10274 20234 39915 40153 70522 84800 333 20228 58002;EQDQ01  00002PRCP06
0195827650999992002120418004-07330-047470FM-12+021299999V0203201N000510450019N0100001N1+03141+02451101151ADDAA106000091AY121061AY221061GF107991041021008001011001MA1999999098781MD1999999+0041MW1051REMSYN076AAXX  04184 82765 31597 73201 10314 20245 39878 40115 70522 84210 333 58004;EQDQ01  00002PRCP06
0208827650999992002120500004-07330-047470FM-12+021299999V0209999C000012200019N0200001N1+02871+02581101171ADDAA106000091GA1001+999999999GF100991001001999999001001KA1240M+03261MA1999999098801MD1999999+0061REMSYN082AAXX  05004 82765 32998 00000 10287 20258 39880 40117 333 10326 29079 55022 58006;EQDQ01  00002PRCP06
0214827650999992002120512004-07330-047470FM-12+021299999V0200901N001510090019N0100001N1+02521+02361101551ADDAA106000091AY121061AY221061GF108991051081004501021999KA1240N+02451MA1999999099161MD1999999+0011MW1051REMSYN082AAXX  05124 82765 31497 80903 10252 20236 39916 40155 70522 8582/ 333 20245 58001;EQDQ01  00002PRCP06
0171827650999992002120518004-07330-047470FM-12+021299999V0203201N001510450019N0100001N1+03031+02391101201ADDAY161061AY221061GF105991031021008001041001MA1999999098821MD1999999+0041MW1051REMSYN082AAXX  05184 82765 21597 53203 10303 20239 39882 40120 70562 83240 333 58004 69921;
0208827650999992002120600004-07330-047470FM-12+021299999V0202001N001010024019N0100001N1+02691+02461101271ADDAA106000091GA1091+999999999GF109991091999999999999999KA1240M+03161MA1999999098871MD1999999+0071REMSYN082AAXX  06004 82765 32/97 92002 10269 20246 39887 40127 333 10316 29084 55021 58007;EQDQ01  00002PRCP06
0190827650999992002120612004-07330-047470FM-12+021299999V0201001N000512200019N0040001N1+02691+02451101431ADDAY141061AY221061GF104991021021008001011001KA1240N+02351MA1999999099041MD1999999-0121MW1051REMSYN088AAXX  06124 82765 21596 41001 10269 20245 39904 40143 70542 82210 333 20235 59012 69924;
0195827650999992002120618004-07330-047470FM-12+021299999V0203501N001510075019N0100001N1+03281+02341101041ADDAA106000091AY121061AY221061GF106991061031008001001001MA1999999098671MD1999999-0151MW1051REMSYN076AAXX  06184 82765 31597 63503 10328 20234 39867 40104 70522 86300 333 59015;EQDQ01  00002PRCP06
0208827650999992002120700004-07330-047470FM-12+021299999V0209999C000010024019N0100001N1+02961+02681101051ADDAA106000091GA1091+999999999GF109991091999999999999999KA1240M+03411MA1999999098681MD1999999-0121REMSYN082AAXX  07004 82765 32/97 90000 10296 20268 39868 40105 333 10341 29079 55078 59012;EQDQ01  00002PRCP06
0198827650999992002120712004-07330-047470FM-12+021299999V0203201N003112200019N0040001N1+02941+02361101361ADDAA106000091GF102991021011008001001001KA1240N+02551MA1999999099001MD1999999-0041MW1041REMSYN082AAXX  07124 82765 31596 23206 10294 20236 39900 40136 704// 82100 333 20255 59004;EQDQ01  00002PRCP06
0195827650999992002120718004-07330-047470FM-12+021299999V0202901N003110120019N0040001N1+03021+02461101011ADDAA106000091AY121061AY221061GF108991051081008001021999MA1999999098641MD1999999-0031MW1041REMSYN076AAXX  07184 82765 31596 82906 10302 20246 39864 40101 70422 8582/ 333 59003;EQDQ01  00002PRCP06
0220827650999992002120800004-07330-047470FM-12+021299999V0201801N001510024019N0100001N1+02761+02561101221ADDAA106000091GA1091+999999999GF109991091999999999999999KA1240M+03161MA1999999098851MD1999999+0171MW1131REMSYN088AAXX  08004 82765 31/97 91803 10276 20256 39885 40122 713// 333 10316 29080 55040 58017;EQDQ01  00002PRCP06
0198827650999992002120812004-07330-047470FM-12+021299999V0201001N002110120019N0100001N1+02661+02431101361ADDAA106000091GF107991051081008001021001KA1240N+02411MA1999999098971MD1999999-0031MW1041REMSYN082AAXX  08124 82765 31597 71004 10266 20243 39897 40136 704// 85820 333 20241 59003;EQDQ01  00002PRCP06
0167827650999992002120818004-07330-047470FM-12+021299999V0203001N001510120019N0200001N1+02501+02271101341ADDAA106000091GF108991061081008001021999MA1999999098931MD1999999+0291REMSYN070AAXX  08184 82765 32598 83003 10250 20227 39893 40134 8682/ 333 58029;EQDQ01  00002PRCP06
0180827650999992002120900004-07330-047470FM-12+021299999V0201801N000510120019N0200001N1+02461+02371101431ADDGF108991061081008001021999KA1240M+02761MA1999999099031MD1999999+0181REMSYN100AAXX  09004 82765 21598 81801 10246 20237 39903 40143 7//55 8682/ 333 10276 29091 55000 58018 69921;
0162827650999992002120912004-07330-047470FM-12+021299999V0203601N001510120019N0200001N1+02461+02271101601ADDGF107991051081008001021001KA1240N+02371MA1999999099181MD1999999+0211REMSYN082AAXX  09124 82765 22598 73603 10246 20227 39918 40160 85820 333 20237 58021 69924;
0167827650999992002120918004-07330-047470FM-12+021299999V0202801N000510120019N0200001N1+02541+02291101441ADDAA106000091GF108991071081008001021999MA1999999099021MD1999999+0091REMSYN070AAXX  09184 82765 32598 82801 10254 20229 39902 40144 8782/ 333 58009;EQDQ01  00002PRCP06
0186827650999992002121012004-07330-047470FM-12+021299999V0203201N001510450019N0200001N1+02641+02291101791ADDAA106000091GF106991011021008001041001KA1240N+02361MA1999999099381MD1999999+0201REMSYN076AAXX  10124 82765 32598 63203 10264 20229 39938 40179 81240 333 20236 58020;EQDQ01  00002PRCP06
0171827650999992002121018004-07330-047470FM-12+021299999V0202701N001010450019N0200001N1+02761+02441101351ADDAY111061AY211061GF105991021031008001041001MA1999999098951MD1999999-0071MW1031REMSYN082AAXX  10184 82765 21598 52702 10276 20244 39895 40135 70311 82340 333 59007 60011;
0198827650999992002121100004-07330-047470FM-12+021299999V0201801N000512200019N0200001N1+02601+02421101631ADDAA106000091GF104991011011008001031001KA1240M+03141MA1999999099231MD1999999+0051REMSYN088AAXX  11004 82765 32598 41801 10260 20242 39923 40163 81130 333 10314 29086 55044 58005;EQDQ01  00002PRCP06
0162827650999992002121112004-07330-047470FM-12+021299999V0203201N001510450019N0200001N1+02701+02351101831ADDGF107991041021008001011001KA1240N+02441MA1999999099431MD1999999+0051REMSYN082AAXX  11124 82765 22598 73203 10270 20235 39943 40183 84210 333 20244 58005 60014;
0167827650999992002121118004-07330-047470FM-12+021299999V0202901N001510450019N0200001N1+02841+02331101341ADDAA106000091GF106991031011008001031021MA1999999098941MD1999999+0011REMSYN070AAXX  11184 82765 32598 62903 10284 20233 39894 40134 83132 333 58001;EQDQ01  00002PRCP06
0212827650999992002121200004-07330-047470FM-12+021299999V0201801N001010024019N0100001N1+02701+02321101611ADDAY101061AY211061GA1091+999999999GF109991091999999999999999KA1240M+03011MA1999999099211MD1999999+0021MW1211REMSYN094AAXX  12004 82765 21/97 91802 10270 20232 39921 40161 72101 333 10301 29084 55026 58002 69921;
0162827650999992002121212004-07330-047470FM-12+021299999V0201801N001510450019N0200001N1+02521+02341101761ADDGF105991021021008001031001KA1240N+02361MA1999999099341MD1999999-0091REMSYN082AAXX  12124 82765 22598 51803 10252 20234 39934 40176 82230 333 20236 59009 69924;
0195827650999992002121218004-07330-047470FM-12+021299999V0201801N001510450019N0200001N1+03141+02431101191ADDAA106000091AY121061AY221061GF107991041081008001021999MA1999999098811MD1999999-0131MW1291REMSYN076AAXX  12184 82765 31598 71803 10314 20243 39881 40119 72922 8482/ 333 59013;EQDQ01  00002PRCP06
0198827650999992002121300004-07330-047470FM-12+021299999V0201801N000512200019N0200001N1+02641+02391101391ADDAA106000091GF103991011011008001021001KA1240M+03311MA1999999098991MD1999999-0221REMSYN088AAXX  13004 82765 32598 31801 10264 20239 39899 40139 81120 333 10331 29082 55062 59022;EQDQ01  00002PRCP06
0190827650999992002121312004-07330-047470FM-12+021299999V0200901N001012200019N0200001N1+02641+02391101571ADDAY161061AY221061GF104991031011008001031001KA1240N+02361MA1999999099171MD1999999-0171MW1021REMSYN088AAXX  13124 82765 21598 40902 10264 20239 39917 40157 70262 83130 333 20236 59017 60064;
0198827650999992002121400004-07330-047470FM-12+021299999V0209999C000019999999N0200001N1+02361+02291101491ADDAA106000091GF106991031011999999031001KA1240M+03221MA1999999099081MD1999999+0091REMSYN088AAXX  14004 82765 32/98 60000 10236 20229 39908 40149 83130 333 10322 29093 55027 58009;EQDQ01  00002PRCP06
0162827650999992002121412004-07330-047470FM-12+021299999V0201401N001010450019N0200001N1+02601+02391101691ADDGF107991041021008001031001KA1240N+02301MA1999999099271MD1999999+0101REMSYN082AAXX  14124 82765 22598 71402 10260 20239 39927 40169 84230 333 20230 58010 60194;
0195827650999992002121418004-07330-047470FM-12+021299999V0202301N001510075019N0200001N1+03011+02341101151ADDAA106000091AY121061AY221061GF107991071031008001001001MA1999999098761MD1999999-0141MW1171REMSYN076AAXX  14184 82765 31598 72303 10301 20234 39876 40115 71722 87300 333 59014;EQDQ01  00002PRCP06
0226827650999992002121500004-07330-047470FM-12+021299999V0202301N003110450019N0200001N1+02631+02331101441ADDAA106000091AY121061AY221061GF108991041081008001021999KA1240M+03241MA1999999099041MD1999999-0041MW1131REMSYN094AAXX  15004 82765 31598 82306 10263 20233 39904 40144 71322 8482/ 333 10324 29081 55031 59004;EQDQ01  00002PRCP06
0186827650999992002121512004-07330-047470FM-12+021299999V0201101N002110120019N0200001N1+02551+02381101601ADDAA106000091GF108991071081008001999999KA1240N+02351MA1999999099201MD1999999-0071REMSYN076AAXX  15124 82765 32598 81104 10255 20238 39920 40160 878// 333 20235 59007;EQDQ01  00002PRCP06
0167827650999992002121518004-07330-047470FM-12+021299999V0203201N002110450019N0200001N1+03221+02341101531ADDAA106000091GF105991031021008001031011MA1999999098731MD1999999+0031REMSYN070AAXX  15184 82765 32598 53204 10322 20234 39873 40153 83231 333 58003;EQDQ01  00002PRCP06
0202827650999992002121600004-07330-047470FM-12+021299999V0209999C000010450019N0200001N1+02441+02361101301ADDAY161061AY261061GF105991011011008001011001KA1240M+03381MA1999999098891MD1999999-0151MW1031REMSYN100AAXX  16004 82765 21598 50000 10244 20236 39889 40130 70366 81110 333 10338 29084 55062 59015 60211;
0162827650999992002121612004-07330-047470FM-12+021299999V0201401N000510120019N0200001N1+02541+02441101641ADDGF107991051081008001041001KA1240N+02371MA1999999099231MD1999999+0031REMSYN082AAXX  16124 82765 22598 71401 10254 20244 39923 40164 85840 333 20237 58003 60214;
0167827650999992002121618004-07330-047470FM-12+021299999V0202301N002110450019N0200001N1+03221+02341101111ADDAA106000091GF106991041021008001041001MA1999999098741MD1999999+0011REMSYN070AAXX  16184 82765 32598 62304 10322 20234 39874 40111 84240 333 58001;EQDQ01  00002PRCP06
0208827650999992002121700004-07330-047470FM-12+021299999V0201901N001019999999N0200001N1+02541+02541101301ADDAA106000091GA1091+999999999GF109991091999999999999999KA1240M+03301MA1999999098911MD1999999+0021REMSYN082AAXX  17004 82765 32/98 91902 10254 20254 39891 40130 333 10330 29082 55053 58002;EQDQ01  00002PRCP06
0186827650999992002121712004-07330-047470FM-12+021299999V0202201N002110450019N0200001N1+02681+02221101521ADDAA106000091GF106991041021008001041001KA1240N+02411MA1999999099131MD1999999-0101REMSYN076AAXX  17124 82765 32598 62204 10268 20222 39913 40152 84240 333 20241 59010;EQDQ01  00002PRCP06
0171827650999992002121718004-07330-047470FM-12+021299999V0201401N001510075019N0040001N1+02461+02321101481ADDAY161061AY251061GF108991061051008001021999MA1999999099061MD1999999+0321MW1611REMSYN082AAXX  17184 82765 21596 81403 10246 20232 39906 40148 76165 8652/ 333 58032 60041;
0180827650999992002121800004-07330-047470FM-12+021299999V0201501N000510120019N0200001N1+02401+02311101491ADDGF107991051081008001041001KA1240M+02801MA1999999099081MD1999999+0171REMSYN100AAXX  18004 82765 21598 71501 10240 20231 39908 40149 7//65 85840 333 10280 29090 55023 58017 60041;
0174827650999992002121812004-07330-047470FM-12+021299999V0200801N001510120019N0200001N1+02481+02411101711ADDGF108991061081008001021999KA1240N+02351MA1999999099291MD1999999+0141MW1551REMSYN088AAXX  18124 82765 21598 80803 10248 20241 39929 40171 755// 8682/ 333 20235 58014 60074;
0149827650999992002121818004-07330-047470FM-12+021299999V0200501N001510120019N0200001N1+02441+02191101351ADDGF107991051081008001041001MA1999999098931MD1999999+0131REMSYN082AAXX  18184 82765 21598 70503 10244 20219 39893 40135 7//55 85840 333 58013 60011;
0198827650999992002121900004-07330-047470FM-12+021299999V0203601N001010120019N0200001N1+02441+02341101451ADDAA106000091GF107991051081008001041001KA1240M+02601MA1999999099051MD1999999-0031REMSYN088AAXX  19004 82765 32598 73602 10244 20234 39905 40145 85840 333 10260 29092 55000 59003;EQDQ01  00002PRCP06
0162827650999992002121912004-07330-047470FM-12+021299999V0200701N001510120019N0200001N1+02501+02321101641ADDGF108991061081008001021999KA1240N+02321MA1999999099231MD1999999+0041REMSYN082AAXX  19124 82765 22598 80703 10250 20232 39923 40164 8682/ 333 20232 58004 60014;
0171827650999992002121918004-07330-047470FM-12+021299999V0201801N002610120019N0200001N1+02781+02311101391ADDAY161061AY221061GF107991051081008001041999MA1999999098991MD1999999+0061MW1031REMSYN082AAXX  19184 82765 21598 71805 10278 20231 39899 40139 70362 8584/ 333 58006 60041;
0198827650999992002122000004-07330-047470FM-12+021299999V0209999C000010450019N0200001N1+02521+02401101591ADDAA106000091GF106991041081008001021999KA1240M+03021MA1999999099181MD1999999+0131REMSYN088AAXX  20004 82765 32598 60000 10252 20240 39918 40159 8482/ 333 10302 29087 55020 58013;EQDQ01  00002PRCP06
0162827650999992002122012004-07330-047470FM-12+021299999V0200701N004110042019N0200001N1+02471+02271101981ADDGF108991071071004501021999KA1240N+02301MA1999999099561MD1999999+0331REMSYN082AAXX  20124 82765 22498 80708 10247 20227 39956 40198 8772/ 333 20230 58033 60044;
0171827650999992002122018004-07330-047470FM-12+021299999V0202501N001010075019N0200001N1+02321+02241101681ADDAY161061AY261061GF108991071071008001021999MA1999999099251MD1999999-0261MW1201REMSYN082AAXX  20184 82765 21598 82502 10232 20224 39925 40168 72066 8772/ 333 59026 60071;
0179827650999992002122100004-07330-047470FM-12+021299999V0202201N000510450019N0200001N1+02221+02151101731ADDAA106000021GF108991021021008001021999KA1240M+02541MA1999999099301MD1999999+0121REMSYN088AAXX  21004 82765 32598 82201 10222 20215 39930 40173 8222/ 333 10254 29093 55000 58012;
0162827650999992002122112004-07330-047470FM-12+021299999V0201801N001510450019N0200001N1+02421+02211101861ADDGF106991031021008001031001KA1240N+02141MA1999999099421MD1999999-0141REMSYN082AAXX  21124 82765 22598 61803 10242 20221 39942 40186 83230 333 20214 59014 60074;
0167827650999992002122118004-07330-047470FM-12+021299999V0202301N001512200019N0200001N1+03121+02461101371ADDAA106000091GF104991021021008001031041MA1999999098971MD1999999-0281REMSYN070AAXX  21184 82765 32598 42303 10312 20246 39897 40137 82234 333 59028;EQDQ01  00002PRCP06
0198827650999992002122200004-07330-047470FM-12+021299999V0200501N001012200019N0200001N1+02801+02421101321ADDAA106000091GF102991021001008001061001KA1240M+03401MA1999999098921MD1999999-0381REMSYN088AAXX  22004 82765 32598 20502 10280 20242 39892 40132 82060 333 10340 29079 55070 59038;EQDQ01  00002PRCP06
0208827650999992002122300004-07330-047470FM-12+021299999V0200901N001512200019N0200001N1+02561+02331101341ADDAA106000091GA1001+999999999GF100991001001999999001001KA1240M+03381MA1999999098941MD1999999+0021REMSYN082AAXX  23004 82765 32998 00903 10256 20233 39894 40134 333 10338 29078 55066 58002;EQDQ01  00002PRCP06
0162827650999992002122312004-07330-047470FM-12+021299999V0200501N003612200019N0200001N1+02711+02201101671ADDGF104991041021008001001001KA1240N+02361MA1999999099271MD1999999+0031REMSYN082AAXX  23124 82765 22598 40507 10271 20220 39927 40167 84200 333 20236 58003 69924;
0167827650999992002122318004-07330-047470FM-12+021299999V0200501N001510075019N0200001N1+03141+02321101321ADDAA106000091GF106991061031008001001001MA1999999098941MD1999999+0111REMSYN070AAXX  23184 82765 32598 60503 10314 20232 39894 40132 86300 333 58011;EQDQ01  00002PRCP06
0162827650999992002122412004-07330-047470FM-12+021299999V0203301N001510075019N0200001N1+02691+02411101701ADDGF106991061021008001001001KA1240N+02341MA1999999099301MD1999999+0031REMSYN082AAXX  24124 82765 22598 63303 10269 20241 39930 40170 86200 333 20234 58003 69914;
0167827650999992002122418004-07330-047470FM-12+021299999V0200501N001510075019N0200001N1+03251+02361101251ADDAA106000091GF108991051031008001011999MA1999999098871MD1999999-0071REMSYN070AAXX  24184 82765 32598 80503 10325 20236 39887 40125 8531/ 333 59007;EQDQ01  00002PRCP06
0212827650999992002122500004-07330-047470FM-12+021299999V0200901N001512200019N0200001N1+02441+02231101411ADDAY161061AY211061GA1001+999999999GF100991001001999999001001KA1240M+03311MA1999999099011MD1999999-0041MW1001REMSYN094AAXX  25004 82765 21998 00903 10244 20223 39901 40141 70061 333 10331 29080 55056 59004 69911;
0162827650999992002122512004-07330-047470FM-12+021299999V0203301N001510450019N0200001N1+02641+02231101681ADDGF105991031021008001041001KA1240N+02251MA1999999099271MD1999999-0031REMSYN082AAXX  25124 82765 22598 53303 10264 20223 39927 40168 83240 333 20225 59003 69914;
0167827650999992002122518004-07330-047470FM-12+021299999V0200701N002112200019N0200001N1+03141+02241101281ADDAA106000091GF104991021011008001031041MA1999999098891MD1999999+0021REMSYN070AAXX  25184 82765 32598 40704 10314 20224 39889 40128 82134 333 58002;EQDQ01  00002PRCP06
0208827650999992002122600004-07330-047470FM-12+021299999V0200901N001012200019N0200001N1+02681+02371101601ADDAA106000091GA1001+999999999GF100991001001999999001001KA1240M+03201MA1999999099201MD1999999+0191REMSYN082AAXX  26004 82765 32998 00902 10268 20237 39920 40160 333 10320 29076 55088 58019;EQDQ01  00002PRCP06
0186827650999992002122612004-07330-047470FM-12+021299999V0203601N001510450019N0200001N1+02761+02361101761ADDAA106000091GF106991041021008001041001KA1240N+02491MA1999999099361MD1999999+0091REMSYN076AAXX  26124 82765 32598 63603 10276 20236 39936 40176 84240 333 20249 58009;EQDQ01  00002PRCP06
0167827650999992002122618004-07330-047470FM-12+021299999V0203601N002610450019N0200001N1+03161+02321101261ADDAA106000091GF106991041081008001041001MA1999999098881MD1999999-0011REMSYN070AAXX  26184 82765 32598 63605 10316 20232 39888 40126 84840 333 59001;EQDQ01  00002PRCP06
0210827650999992002122700004-07330-047470FM-12+021299999V0201201N001510450019N0200001N1+02781+02461101561ADDAA106000091GF106991031021008001041001KA1240M+03221MA1999999099181MD1999999-0021MW1131REMSYN094AAXX  27004 82765 31598 61203 10278 20246 39918 40156 713// 83240 333 10322 29076 55043 59002;EQDQ01  00002PRCP06
0168827650999992002122712004-07330-047470FM-12+021299999V0200601N000510120019N0200001N1+02521+02341101741ADDGF108991051081008001021999KA1240N+02411MA1999999099341MD1999999-0021REMSYN088AAXX  27124 82765 21598 80601 10252 20234 39934 40174 7//55 8582/ 333 20241 59002 69924;
0179827650999992002122718004-07330-047470FM-12+021299999V0202401N001010450019N0200001N1+03081+02521101191ADDAA106000091GF105991011031008001041001MA1999999098811MD1999999-0071MW1171REMSYN076AAXX  27184 82765 31598 52402 10308 20252 39881 40119 717// 81340 333 59007;EQDQ01  00002PRCP06
0226827650999992002122800004-07330-047470FM-12+021299999V0201401N001512200019N0200001N1+02561+02381101431ADDAA106000091AY191061AY291061GF103991021021008001041001KA1240M+03301MA1999999099031MD1999999-0151MW1131REMSYN094AAXX  28004 82765 31598 31403 10256 20238 39903 40143 71399 82240 333 10330 29085 55023 59015;EQDQ01  00002PRCP06
0190827650999992002122812004-07330-047470FM-12+021299999V0203601N001510075019N0100001N1+02461+02371101651ADDAY151061AY251061GF108991061051008001021999KA1240N+02371MA1999999099241MD1999999-0101MW1101REMSYN088AAXX  28124 82765 21597 83603 10246 20237 39924 40165 71055 8652/ 333 20237 59010 60014;
0167827650999992002122818004-07330-047470FM-12+021299999V0202901N001010075019N0200001N1+02961+02401101211ADDAA106000091GF107991051031008001041999MA1999999098821MD1999999+0011REMSYN070AAXX  28184 82765 32598 72902 10296 20240 39882 40121 8534/ 333 58001;EQDQ01  00002PRCP06
0209827650999992002122912004-07330-047470FM-12+021299999V0203601N001010042019N0200001N1+02361+02241101651ADDAY161061AY261061GF108991081071004501999999KA1240N+02301MA1999999099241MD1999999+0001MW1241REMSYN088AAXX  29124 82765 21498 83602 10236 20224 39924 40165 72466 887// 333 20230 58000 60484;EQDQ01+000002PRSWM1
0148827650999992002122918004-07330-047470FM-12+021299999V0200501N002110450019N0200001N1+02951+02451101181ADDAA106000021GF106991041021008001031001MA1999999098791MD1999999-0031REMSYN070AAXX  29184 82765 32598 60504 10295 20245 39879 40118 84230 333 59003;
0208827650999992002123000004-07330-047470FM-12+021299999V0202501N001519999999N0200001N1+02701+02521101431ADDAA106000091GA1091+999999999GF109991091999999999999999KA1240M+03031MA1999999099031MD1999999+0041REMSYN082AAXX  30004 82765 32/98 92503 10270 20252 39903 40143 333 10303 29087 55039 58004;EQDQ01  00002PRCP06
0186827650999992002123012004-07330-047470FM-12+021299999V0202501N001510120019N0200001N1+02451+02191101711ADDAA106000091GF108991051081008001011999KA1240N+02401MA1999999099301MD1999999+0061REMSYN076AAXX  30124 82765 32598 82503 10245 20219 39930 40171 8581/ 333 20240 58006;EQDQ01  00002PRCP06
0167827650999992002123018004-07330-047470FM-12+021299999V0203501N001510075019N0200001N1+02821+02311101401ADDAA106000091GF107991061031008001041001MA1999999098991MD1999999+0021REMSYN070AAXX  30184 82765 32598 73503 10282 20231 39899 40140 86340 333 58002;EQDQ01  00002PRCP06
0208827650999992002123100004-07330-047470FM-12+021299999V0202701N001512200019N0200001N1+02591+02351101551ADDAA106000091GA1001+999999999GF100991001001999999001001KA1240M+02991MA1999999099141MD1999999+0111REMSYN082AAXX  31004 82765 32998 02703 10259 20235 39914 40155 333 10299 29083 55006 58011;EQDQ01  00002PRCP06
0186827650999992002123112004-07330-047470FM-12+021299999V0209999C000010450019N0200001N1+02581+02371101701ADDAA106000091GF107991041011008001031001KA1240N+02421MA1999999099291MD1999999-0011REMSYN076AAXX  31124 82765 32598 70000 10258 20237 39929 40170 84130 333 20242 59001;EQDQ01  00002PRCP06
0167827650999992002123118004-07330-047470FM-12+021299999V0202701N002110075019N0200001N1+03311+02331101201ADDAA106000091GF106991051021008001011001MA1999999098831MD1999999-0161REMSYN070AAXX  31184 82765 32598 62704 10331 20233 39883 40120 85210 333 59016;EQDQ01  00002PRCP06
