0167827840999992002010318004-07310-039300FM-12+040999999V0200901N002110075019N0200001N1+02741+02101101001ADDAA199000091GF108991081071008001999999MA1999999096351MD1999999-0011REMSYN070AAXX  03184 82784 32598 80904 10274 20210 39635 40100 887// 333 59001;EQDQ01  00002PRCP99
0198827840999992002010400004-07310-039300FM-12+040999999V0202301N000510075019N0020001N1+02461+02321101241ADDAA199000091GF108991081071008001999999KA1240M+02801MA1999999096571MD1999999-0091REMSYN088AAXX  04004 82784 32595 82301 10246 20232 39657 40124 887// 333 10280 29086 55004 59009;EQDQ01  00002PRCP99
0201827840999992002010412004-07310-039300FM-12+040999999V0200501N001010075019N0040001N1+02521+02291101401ADDAA124020191AY191061AY261061GF108991081071008001999999KA1240N+02181MA1999999096731MD1999999-0051MW1021REMSYN088AAXX  04124 82784 21596 80502 10252 20229 39673 40140 70296 887// 333 20218 59005 60204;
0167827840999992002010418004-07310-039300FM-12+040999999V0200501N001510450019N0200001N1+02851+02071101051ADDAA199000091GF108991041081012501021999MA1999999096401MD1999999+0051REMSYN070AAXX  04184 82784 32698 80503 10285 20207 39640 40105 8482/ 333 58005;EQDQ01  00002PRCP99
0208827840999992002010500004-07310-039300FM-12+040999999V0203601N001012200019N0020001N1+02461+02231101341ADDAA199000091GA1001+999999999GF100991001001999999001001KA1240M+02921MA1999999096671MD1999999+0101REMSYN082AAXX  05004 82784 32995 03602 10246 20223 39667 40134 333 10292 29081 55005 58010;EQDQ01  00002PRCP99
0201827840999992002010512004-07310-039300FM-12+040999999V0202301N002110450019N0040001N1+02451+02171101531ADDAA124000391AY151061AY211061GF107991031081008001031001KA1240N+02241MA1999999096851MD1999999+0121MW1011REMSYN088AAXX  05124 82784 21596 72304 10245 20217 39685 40153 70151 83830 333 20224 58012 69934;
0167827840999992002010518004-07310-039300FM-12+040999999V0200501N000510450019N0200001N1+02901+02101101031ADDAA199000091GF107991041081008001031001MA1999999096391MD1999999-0011REMSYN070AAXX  05184 82784 32598 70501 10290 20210 39639 40103 84830 333 59001;EQDQ01  00002PRCP99
0198827840999992002010600004-07310-039300FM-12+040999999V0209999C000010075019N0200001N1+02581+02381101301ADDAA199000091GF108991081071008001999999KA1240M+03011MA1999999096641MD1999999-0031REMSYN088AAXX  06004 82784 32598 80000 10258 20238 39664 40130 887// 333 10301 29081 55018 59003;EQDQ01  00002PRCP99
0201827840999992002010612004-07310-039300FM-12+040999999V0201401N001010450019N0010001N1+02061+02031101501ADDAA124064091AY161061AY221061GF108991011071004501021999KA1240N+02061MA1999999096801MD1999999-0041MW1631REMSYN088AAXX  06124 82784 21494 81402 10206 20203 39680 40150 76362 8172/ 333 20206 59004 60644;
0182827840999992002010618004-07310-039300FM-12+040999999V0202301N001010450019N0200001N1+02391+02111100961ADDAA106004191AY161061AY221061GF108991021081012501021999MA1999999096311MD1999999-0081MW1021REMSYN082AAXX  06184 82784 21698 82302 10239 20211 39631 40096 70262 8282/ 333 59008 60041;
0213827840999992002010700004-07310-039300FM-12+040999999V0200501N000510450019N0010001N1+02231+02121101241ADDAA106000591AY151061AY221061GF108991041071008001021999KA1240M+02591MA1999999096641MD1999999+0001MW1511REMSYN100AAXX  07004 82784 21594 80501 10223 20212 39664 40124 75152 8472/ 333 10259 29093 55003 58000 69951;
0201827840999992002010712004-07310-039300FM-12+040999999V0201801N000510075019N0200001N1+02451+01991101381ADDAA124005191AY151061AY221061GF108991081071008001999999KA1240N+02081MA1999999096701MD1999999-0111MW1021REMSYN088AAXX  07124 82784 21598 81801 10245 20199 39670 40138 70252 887// 333 20208 59011 60054;
0213827840999992002010800004-07310-039300FM-12+040999999V0202701N001010450019N0020001N1+02191+02101101301ADDAA106001091AY151061AY221061GF108991041071004501021999KA1240M+02771MA1999999096601MD1999999-0041MW1201REMSYN100AAXX  08004 82784 21495 82702 10219 20210 39660 40130 72052 8472/ 333 10277 29087 55002 59004 60011;
0201827840999992002010812004-07310-039300FM-12+040999999V0202301N001510075019N0040001N1+02331+02071101401ADDAA124003091AY151061AY221061GF108991081071008001999999KA1240N+02171MA1999999096711MD1999999+0011MW1021REMSYN088AAXX  08124 82784 21596 82303 10233 20207 39671 40140 70252 887// 333 20217 58001 60034;
0167827840999992002010818004-07310-039300FM-12+040999999V0200901N003110450019N0200001N1+02961+02181100851ADDAA199000091GF108991041081012501071091MA1999999096211MD1999999-0161REMSYN070AAXX  08184 82784 32698 80906 10296 20218 39621 40085 84879 333 59016;EQDQ01  00002PRCP99
0208827840999992002010900004-07310-039300FM-12+040999999V0200901N000512200019N0020001N1+02421+02011101201ADDAA199000091GA1001+999999999GF100991001001999999001001KA1240M+03051MA1999999096531MD1999999-0071REMSYN082AAXX  09004 82784 32995 00901 10242 20201 39653 40120 333 10305 29076 55045 59007;EQDQ01  00002PRCP99
0186827840999992002010912004-07310-039300FM-12+040999999V0200501N002610075019N0200001N1+02681+02181101421ADDAA199000091GF106991061021008001001001KA1240N+02281MA1999999096751MD1999999+0041REMSYN076AAXX  09124 82784 32598 60505 10268 20218 39675 40142 86200 333 20228 58004;EQDQ01  00002PRCP99
0167827840999992002010918004-07310-039300FM-12+040999999V0200501N002610120019N0200001N1+02941+02051101021ADDAA199000091GF108991081081008001999999MA1999999096381MD1999999+0171REMSYN070AAXX  09184 82784 32598 80505 10294 20205 39638 40102 888// 333 58017;EQDQ01  00002PRCP99
0198827840999992002011000004-07310-039300FM-12+040999999V0201401N000510120019N0020001N1+02351+02181101441ADDAA199000091GF107991071081008001001001KA1240M+03051MA1999999096771MD1999999+0241REMSYN088AAXX  10004 82784 32595 71401 10235 20218 39677 40144 87800 333 10305 29079 55071 58024;EQDQ01  00002PRCP99
0201827840999992002011012004-07310-039300FM-12+040999999V0201401N001510120019N0200001N1+02561+02111101611ADDAA124032091AY191061AY261061GF107991071081008001001001KA1240N+02031MA1999999096931MD1999999+0181MW1011REMSYN088AAXX  10124 82784 21598 71403 10256 20211 39693 40161 70196 87800 333 20203 58018 60324;
0167827840999992002011018004-07310-039300FM-12+040999999V0201401N001010120019N0200001N1+02861+02031101121ADDAA199000091GF106991051021012501071001MA1999999096461MD1999999+0081REMSYN070AAXX  10184 82784 32698 61402 10286 20203 39646 40112 85270 333 58008;EQDQ01  00002PRCP99
0167827840999992002011118004-07310-039300FM-12+040999999V0203601N002112200019N0200001N1+02951+01971101241ADDAA199000091GF103991031021008001001001MA1999999096581MD1999999+0121REMSYN070AAXX  11184 82784 32598 33604 10295 20197 39658 40124 83200 333 58012;EQDQ01  00002PRCP99
0208827840999992002011200004-07310-039300FM-12+040999999V0209999C000012200019N0020001N1+02481+02091101511ADDAA199000091GA1001+999999999GF100991001001999999001001KA1240M+03011MA1999999096841MD1999999-0031REMSYN082AAXX  12004 82784 32995 00000 10248 20209 39684 40151 333 10301 29072 55102 59003;EQDQ01  00002PRCP99
0201827840999992002011212004-07310-039300FM-12+040999999V0201401N001510120019N0200001N1+02721+02101101581ADDAA124000191AY151061AY211061GF107991061081008001031001KA1240N+02301MA1999999096911MD1999999-0111MW1021REMSYN088AAXX  12124 82784 21598 71403 10272 20210 39691 40158 70251 86830 333 20230 59011 69924;
0167827840999992002011218004-07310-039300FM-12+040999999V0201401N003612200019N0200001N1+03021+02101101061ADDAA199000091GF104991041021008001001001MA1999999096421MD1999999-0161REMSYN070AAXX  12184 82784 32598 41407 10302 20210 39642 40106 84200 333 59016;EQDQ01  00002PRCP99
0213827840999992002011300004-07310-039300FM-12+040999999V0203601N003110450019N0005001N1+02241+02101101601ADDAA106022191AY161061AY221061GF108991021071004501071021KA1240M+03091MA1999999096921MD1999999+0081MW1951REMSYN100AAXX  13004 82784 21493 83606 10224 20210 39692 40160 79562 82772 333 10309 29078 55088 58008 60221;
0201827840999992002011312004-07310-039300FM-12+040999999V0200901N001510120019N0040001N1+02481+02151101451ADDAA124059991AY191061AY261061GF108991081081008001999999KA1240N+02031MA1999999096761MD1999999-0151MW1021REMSYN088AAXX  13124 82784 21596 80903 10248 20215 39676 40145 70296 888// 333 20203 59015 60604;
0167827840999992002011318004-07310-039300FM-12+040999999V0200501N001510120019N0200001N1+03001+02131101081ADDAA199000091GF107991061021012501011001MA1999999096431MD1999999+0011REMSYN070AAXX  13184 82784 32698 70503 10300 20213 39643 40108 86210 333 58001;EQDQ01  00002PRCP99
0208827840999992002011400004-07310-039300FM-12+040999999V0202301N000512200019N0020001N1+02401+02171101381ADDAA199000091GA1001+999999999GF100991001001999999001001KA1240M+03081MA1999999096711MD1999999-0211REMSYN082AAXX  14004 82784 32995 02301 10240 20217 39671 40138 333 10308 29079 55091 59021;EQDQ01  00002PRCP99
0201827840999992002011412004-07310-039300FM-12+040999999V0201401N001512200019N0200001N1+02721+02101101371ADDAA124000391AY151061AY201061GF104991021021008001031001KA1240N+02201MA1999999096711MD1999999-0051MW1011REMSYN088AAXX  14124 82784 21598 41403 10272 20210 39671 40137 70150 82230 333 20220 59005 69934;
0208827840999992002011500004-07310-039300FM-12+040999999V0203601N000512200019N0020001N1+02401+02231101151ADDAA199000091GA1001+999999999GF100991001001999999001001KA1240M+03011MA1999999096501MD1999999-0211REMSYN082AAXX  15004 82784 32995 03601 10240 20223 39650 40115 333 10301 29080 55066 59021;EQDQ01  00002PRCP99
0186827840999992002011512004-07310-039300FM-12+040999999V0203201N002110075019N0040001N1+02511+02191101241ADDAA199000091GF108991081071008001999999KA1240N+02181MA1999999096571MD1999999-0141REMSYN076AAXX  15124 82784 32596 83204 10251 20219 39657 40124 887// 333 20218 59014;EQDQ01  00002PRCP99
0198827840999992002011600004-07310-039300FM-12+040999999V0203601N000510075019N0020001N1+02441+02301101061ADDAA199000091GF108991081071008001999999KA1240M+02991MA1999999096411MD1999999-0091REMSYN088AAXX  16004 82784 32595 83601 10244 20230 39641 40106 887// 333 10299 29084 55027 59009;EQDQ01  00002PRCP99
0186827840999992002011612004-07310-039300FM-12+040999999V0200501N001510120019N0040001N1+02521+02151101251ADDAA199000091GF108991081081008001999999KA1240N+02311MA1999999096591MD1999999+0021REMSYN076AAXX  16124 82784 32596 80503 10252 20215 39659 40125 888// 333 20231 58002;EQDQ01  00002PRCP99
0182827840999992002011618004-07310-039300FM-12+040999999V0202301N001510075019N0040001N1+02461+02271100951ADDAA106002091AY161061AY221061GF108991081071008001999999MA1999999096291MD1999999+0171MW1021REMSYN082AAXX  16184 82784 21596 82303 10246 20227 39629 40095 70262 887// 333 58017 60021;
0220827840999992002011700004-07310-039300FM-12+040999999V0209999C000012200019N0020001N1+02321+02221101211ADDAA199000091GA1001+999999999GF100991001001999999001001KA1240M+02831KA2999N+00891MA1999999096541MD1999999+0131REMSYN081AAXX  17004 82784 32995 00000 10232 20222 39654 40121 333 10283 2908955010 58013;EQDQ01  00002PRCP99
0201827840999992002011712004-07310-039300FM-12+040999999V0200501N001010120019N0040001N1+02551+02171101241ADDAA124034091AY161061AY211061GF108991061081008001031999KA1240N+02081MA1999999096571MD1999999-0021MW1021REMSYN088AAXX  17124 82784 21596 80502 10255 20217 39657 40124 70261 8683/ 333 20208 59002 60344;
0167827840999992002011718004-07310-039300FM-12+040999999V0202701N001510120019N0200001N1+02881+02161100881ADDAA199000091GF107991071081008001001001MA1999999096241MD1999999-0051REMSYN070AAXX  17184 82784 32598 72703 10288 20216 39624 40088 87800 333 59005;EQDQ01  00002PRCP99
0213827840999992002011800004-07310-039300FM-12+040999999V0200901N000510450019N0002001N1+02141+02111101491ADDAA106018091AY161061AY221061GF108991021071004501021999KA1240M+03011MA1999999096801MD1999999+0261MW1951REMSYN100AAXX  18004 82784 21492 80901 10214 20211 39680 40149 79562 8272/ 333 10301 29085 55040 58026 60181;
0201827840999992002011812004-07310-039300FM-12+040999999V0201401N001010120019N0200001N1+02441+02071101491ADDAA124036191AY191061AY261061GF108991081081008001999999KA1240N+02101MA1999999096801MD1999999+0231MW1021REMSYN088AAXX  18124 82784 21598 81402 10244 20207 39680 40149 70296 888// 333 20210 58023 60364;
0167827840999992002011818004-07310-039300FM-12+040999999V0200901N002110450019N0200001N1+02881+02131101061ADDAA199000091GF106991031021008001071001MA1999999096411MD1999999+0171REMSYN070AAXX  18184 82784 32598 60904 10288 20213 39641 40106 83270 333 58017;EQDQ01  00002PRCP99
0208827840999992002011900004-07310-039300FM-12+040999999V0202301N001012200019N0020001N1+02321+02071101241ADDAA199000091GA1001+999999999GF100991001001999999001001KA1240M+02961MA1999999096571MD1999999-0231REMSYN082AAXX  19004 82784 32995 02302 10232 20207 39657 40124 333 10296 29079 55027 59023;EQDQ01  00002PRCP99
0186827840999992002011912004-07310-039300FM-12+040999999V0200501N002110120019N0200001N1+02561+02191101291ADDAA199000091GF108991081081008001999999KA1240N+02101MA1999999096621MD1999999-0181REMSYN076AAXX  19124 82784 32598 80504 10256 20219 39662 40129 888// 333 20210 59018;EQDQ01  00002PRCP99
0208827840999992002012000004-07310-039300FM-12+040999999V0202301N001012200019N0020001N1+02261+02111101281ADDAA199000091GA1001+999999999GF100991001001999999001001KA1240M+02871MA1999999096611MD1999999+0041REMSYN082AAXX  20004 82784 32995 02302 10226 20211 39661 40128 333 10287 29087 55019 58004;EQDQ01  00002PRCP99
0201827840999992002012012004-07310-039300FM-12+040999999V0200901N002110120019N0100001N1+02541+02111101411ADDAA124013091AY191061AY261061GF108991081081008001999999KA1240N+02121MA1999999096731MD1999999+0111MW1031REMSYN088AAXX  20124 82784 21597 80904 10254 20211 39673 40141 70396 888// 333 20212 58011 60134;
0167827840999992002012018004-07310-039300FM-12+040999999V0201401N001512200019N0200001N1+03041+01971101051ADDAA199000091GF102991021021012501001001MA1999999096411MD1999999-0011REMSYN070AAXX  20184 82784 32698 21403 10304 20197 39641 40105 82200 333 59001;EQDQ01  00002PRCP99
0213827840999992002012100004-07310-039300FM-12+040999999V0209999C000012200019N0020001N1+02391+02211101371ADDAA106002091AY161061AY211061GF101991011081008001001001KA1240M+03111MA1999999096701MD1999999+0091MW1011REMSYN100AAXX  21004 82784 21595 10000 10239 20221 39670 40137 70161 81800 333 10311 29078 55092 58009 60021;
0173827840999992002012112004-07310-039300FM-12+040999999V0200501N001010120019N0200001N1+02601+02191101581ADDAA124002091GF107991071081008001001001KA1240N+02121MA1999999096901MD1999999+0171REMSYN082AAXX  21124 82784 22598 70502 10260 20219 39690 40158 87800 333 20212 58017 60024;
0167827840999992002012118004-07310-039300FM-12+040999999V0201401N002610450019N0200001N1+03101+02001101151ADDAA199000091GF106991041021008001051001MA1999999096501MD1999999+0091REMSYN070AAXX  21184 82784 32598 61405 10310 20200 39650 40115 84250 333 58009;EQDQ01  00002PRCP99
0198827840999992002012200004-07310-039300FM-12+040999999V0201801N002610075019N0020001N1+02441+02011101591ADDAA199000091GF108991081071008001999999KA1240M+03171MA1999999096911MD1999999+0211REMSYN088AAXX  22004 82784 32595 81805 10244 20201 39691 40159 887// 333 10317 29071 55091 58021;EQDQ01  00002PRCP99
0186827840999992002012212004-07310-039300FM-12+040999999V0200901N001510120019N0200001N1+02571+02021101641ADDAA199000091GF108991081081008001999999KA1240N+02211MA1999999096961MD1999999+0061REMSYN076AAXX  22124 82784 32598 80903 10257 20202 39696 40164 888// 333 20221 58006;EQDQ01  00002PRCP99
0213827840999992002012300004-07310-039300FM-12+040999999V0200901N001012200019N0020001N1+02341+02071101641ADDAA106000191AY151061AY211061GF102991021001017501011001KA1240M+02981MA1999999096951MD1999999+0041MW1021REMSYN100AAXX  23004 82784 21795 20902 10234 20207 39695 40164 70251 82010 333 10298 29076 55029 58004 69921;
0167827840999992002012318004-07310-039300FM-12+040999999V0200901N001510450019N0200001N1+03011+02141101211ADDAA199000091GF106991041021008001071001MA1999999096561MD1999999-0101REMSYN070AAXX  23184 82784 32598 60903 10301 20214 39656 40121 84270 333 59010;EQDQ01  00002PRCP99
0213827840999992002012400004-07310-039300FM-12+040999999V0209999C000010150019N0020001N1+02351+02131101471ADDAA106000891AY161061AY221061GF106991061001017501011001KA1240M+03111MA1999999096791MD1999999-0161MW1011REMSYN100AAXX  24004 82784 21795 60000 10235 20213 39679 40147 70162 86010 333 10311 29078 55079 59016 69981;
0173827840999992002012412004-07310-039300FM-12+040999999V0201401N001510075019N0200001N1+02661+02201101551ADDAA124000891GF106991061021008001001001KA1240N+02161MA1999999096871MD1999999-0051REMSYN082AAXX  24124 82784 22598 61403 10266 20220 39687 40155 86200 333 20216 59005 69984;
0167827840999992002012418004-07310-039300FM-12+040999999V0200501N002110120019N0200001N1+02961+02181101081ADDAA199000091GF108991061021012501001081MA1999999096441MD1999999-0121REMSYN070AAXX  24184 82784 32698 80504 10296 20218 39644 40108 86208 333 59012;EQDQ01  00002PRCP99
0213827840999992002012500004-07310-039300FM-12+040999999V0202301N000510075019N0020001N1+02361+02261101371ADDAA106010991AY161061AY221061GF107991071041008001001001KA1240M+03151MA1999999096701MD1999999-0091MW1021REMSYN100AAXX  25004 82784 21595 72301 10236 20226 39670 40137 70262 87400 333 10315 29082 55074 59009 60111;
0201827840999992002012512004-07310-039300FM-12+040999999V0200901N001510120019N0100001N1+02541+02211101551ADDAA124022191AY161061AY221061GF107991071081008001001001KA1240N+02221MA1999999096871MD1999999+0001MW1021REMSYN088AAXX  25124 82784 21597 70903 10254 20221 39687 40155 70262 87800 333 20222 58000 60224;
0167827840999992002012518004-07310-039300FM-12+040999999V0203601N001010450019N0200001N1+02941+02241101121ADDAA199000091GF106991041021008001021001MA1999999096471MD1999999+0031REMSYN070AAXX  25184 82784 32598 63602 10294 20224 39647 40112 84220 333 58003;EQDQ01  00002PRCP99
0198827840999992002012600004-07310-039300FM-12+040999999V0201801N001010075019N0020001N1+02421+02231101421ADDAA199000091GF107991071061008001001001KA1240M+03051MA1999999096751MD1999999+0051REMSYN088AAXX  26004 82784 32595 71802 10242 20223 39675 40142 87600 333 10305 29082 55058 58005;EQDQ01  00002PRCP99
0201827840999992002012612004-07310-039300FM-12+040999999V0200901N001512200019N0200001N1+02721+02241101611ADDAA124008991AY161061AY211061GF102991021021008001001001KA1240N+02221MA1999999096941MD1999999+0071MW1011REMSYN088AAXX  26124 82784 21598 20903 10272 20224 39694 40161 70161 82200 333 20222 58007 60094;
0167827840999992002012618004-07310-039300FM-12+040999999V0200501N002612200019N0200001N1+03081+01951101121ADDAA199000091GF102991021021008001021001MA1999999096481MD1999999+0011REMSYN070AAXX  26184 82784 32598 20505 10308 20195 39648 40112 82220 333 58001;EQDQ01  00002PRCP99
0173827840999992002012712004-07310-039300FM-12+040999999V0201401N000510120019N0100001N1+02451+02031101541ADDAA124016091GF108991081081008001999999KA1240N+02101MA1999999096851MD1999999-0091REMSYN082AAXX  27124 82784 22597 81401 10245 20203 39685 40154 888// 333 20210 59009 60164;
0167827840999992002012718004-07310-039300FM-12+040999999V0200901N002612200019N0040001N1+03041+01881101081ADDAA199000091GF102991021021012501001001MA1999999096431MD1999999-0051REMSYN070AAXX  27184 82784 32696 20905 10304 20188 39643 40108 82200 333 59005;EQDQ01  00002PRCP99
0208827840999992002012800004-07310-039300FM-12+040999999V0202701N000512200019N0020001N1+02441+02091999999ADDAA199000091GA1001+999999999GF100991001001999999001001KA1240M+03111MA1999999096581MD1999999-0311REMSYN082AAXX  28004 82784 32995 02701 10244 20209 39658 44012 333 10311 29072 55085 59031;EQDQ01  00002PRCP99
0186827840999992002012812004-07310-039300FM-12+040999999V0200501N000510450019N0200001N1+02531+02071101461ADDAA199000091GF107991031081008001021001KA1240N+02121MA1999999096781MD1999999-0061REMSYN076AAXX  28124 82784 32598 70501 10253 20207 39678 40146 83820 333 20212 59006;EQDQ01  00002PRCP99
0167827840999992002012818004-07310-039300FM-12+040999999V0201401N002110075019N0200001N1+03041+02001101021ADDAA199000091GF106991051021008001061001MA1999999096381MD1999999-0051REMSYN070AAXX  28184 82784 32598 61404 10304 20200 39638 40102 85260 333 59005;EQDQ01  00002PRCP99
0208827840999992002012900004-07310-039300FM-12+040999999V0202301N001012200019N0020001N1+02381+02091101171ADDAA199000091GA1001+999999999GF100991001001999999001001KA1240M+03171MA1999999096511MD1999999-0071REMSYN082AAXX  29004 82784 32995 02302 10238 20209 39651 40117 333 10317 29074 55072 59007;EQDQ01  00002PRCP99
0186827840999992002012912004-07310-039300FM-12+040999999V0200501N002112200019N0200001N1+02681+02241101361ADDAA199000091GF104991041021008001001001KA1240N+02121MA1999999096701MD1999999-0091REMSYN076AAXX  29124 82784 32598 40504 10268 20224 39670 40136 84200 333 20212 59009;EQDQ01  00002PRCP99
0167827840999992002012918004-07310-039300FM-12+040999999V0200501N002112200019N0200001N1+03081+02161100981ADDAA199000091GF102991021021008001001001MA1999999096341MD1999999-0041REMSYN070AAXX  29184 82784 32598 20504 10308 20216 39634 40098 82200 333 59004;EQDQ01  00002PRCP99
0223827840999992002013000004-07310-039300FM-12+040999999V0209999C000012200019N0020001N1+02401+02261101241ADDAA106004191AY191061AY261061GA1001+999999999GF100991001001999999001001KA1240M+03131MA1999999096581MD1999999+0071MW1011REMSYN094AAXX  30004 82784 21995 00000 10240 20226 39658 40124 70196 333 10313 29080 55096 58007 60041;
0173827840999992002013012004-07310-039300FM-12+040999999V0200501N001510120019N0200001N1+02501+02111101471ADDAA124004191GF108991081081008001999999KA1240N+02301MA1999999096791MD1999999+0091REMSYN082AAXX  30124 82784 22598 80503 10250 20211 39679 40147 888// 333 20230 58009 60044;
0167827840999992002013018004-07310-039300FM-12+040999999V0200501N002112200019N0200001N1+03041+02201101031ADDAA199000091GF104991041021008001001001MA1999999096401MD1999999+0061REMSYN070AAXX  30184 82784 32598 40504 10304 20220 39640 40103 84200 333 58006;EQDQ01  00002PRCP99
0208827840999992002013100004-07310-039300FM-12+040999999V0200901N000512200019N0020001N1+02321+02151101291ADDAA199000091GA1001+999999999GF100991001001999999001001KA1240M+03051MA1999999096621MD1999999+0041REMSYN082AAXX  31004 82784 32995 00901 10232 20215 39662 40129 333 10305 29085 55085 58004;EQDQ01  00002PRCP99
0186827840999992002013112004-07310-039300FM-12+040999999V0201401N001510075019N0200001N1+02681+02111101371ADDAA199000091GF106991061021008001001001KA1240N+02221MA1999999096701MD1999999-0091REMSYN076AAXX  31124 82784 32598 61403 10268 20211 39670 40137 86200 333 20222 59009;EQDQ01  00002PRCP99
0167827840999992002013118004-07310-039300FM-12+040999999V0200901N002110450019N0200001N1+03031+01961100981ADDAA199000091GF107991041021008001071001MA1999999096341MD1999999-0061REMSYN070AAXX  31184 82784 32598 70904 10303 20196 39634 40098 84270 333 59006;EQDQ01  00002PRCP99
0186827840999992002020112004-07310-039300FM-12+040999999V0201401N002110150019N0200001N1+02571+01951101521ADDAA199000091GF108991081001017501011999KA1240N+02201MA1999999096851MD1999999+0151REMSYN076AAXX  01124 82784 32798 81404 10257 20195 39685 40152 8801/ 333 20220 58015;EQDQ01  00002PRCP99
0167827840999992002020118004-07310-039300FM-12+040999999V0200901N002112200019N0200001N1+03011+01751101131ADDAA199000091GF102991011021012501001061MA1999999096491MD1999999+0151REMSYN070AAXX  01184 82784 32698 20904 10301 20175 39649 40113 81206 333 58015;EQDQ01  00002PRCP99
0208827840999992002020200004-07310-039300FM-12+040999999V0202301N000512200019N0020001N1+02321+01941101221ADDAA199000091GA1001+999999999GF100991001001999999001001KA1240M+03171MA1999999096551MD1999999+0031REMSYN082AAXX  02004 82784 32995 02301 10232 20194 39655 40122 333 10317 29068 55071 58003;EQDQ01  00002PRCP99
0202827840999992002020212004-07310-039300FM-12+040999999V0200901N001019999999N0200001N1+02601+01991101541ADDAA199000091GF107991999011008001001001KA1240N+02021MA1999999096861MD1999999+0011REMSYN076AAXX  02124 82784 32598 70902 10260 20199 39686 40154 82100 333 20202 58001;EQDQ01+000022SCOTLCQ02  00002PRCP99
0183827840999992002020218004-07310-039300FM-12+040999999V0200501N002119999999N0200001N1+03021+02101101091ADDAA199000091GF106991999021008001001001MA1999999096441MD1999999-0081REMSYN070AAXX  02184 82784 32598 60504 10302 20210 39644 40109 83200 333 59008;EQDQ01+000032SCOTLCQ02  00002PRCP99
0208827840999992002020300004-07310-039300FM-12+040999999V0202701N001012200019N0020001N1+02331+01981101351ADDAA199000091GA1001+999999999GF100991001001999999001001KA1240M+03071MA1999999096681MD1999999+0131REMSYN082AAXX  03004 82784 32995 02702 10233 20198 39668 40135 333 10307 29072 55087 58013;EQDQ01  00002PRCP99
0186827840999992002020312004-07310-039300FM-12+040999999V0203601N001510120019N0040001N1+02461+02071101451ADDAA199000091GF108991071081008001011999KA1240N+01991MA1999999096771MD1999999-0091REMSYN076AAXX  03124 82784 32596 83603 10246 20207 39677 40145 8781/ 333 20199 59009;EQDQ01  00002PRCP99
0167827840999992002020318004-07310-039300FM-12+040999999V0200501N002110150019N0200001N1+02921+02091101071ADDAA199000091GF108991071081012501011999MA1999999096411MD1999999-0031REMSYN070AAXX  03184 82784 32698 80504 10292 20209 39641 40107 8781/ 333 59003;EQDQ01  00002PRCP99
0198827840999992002020400004-07310-039300FM-12+040999999V0203601N002110075019N0020001N1+02331+02051101501ADDAA199000091GF108991081071008001999999KA1240M+02981MA1999999096821MD1999999+0141REMSYN088AAXX  04004 82784 32595 83604 10233 20205 39682 40150 887// 333 10298 29078 55077 58014;EQDQ01  00002PRCP99
0201827840999992002020412004-07310-039300FM-12+040999999V0203201N001010075019N0200001N1+02541+01781101541ADDAA124003091AY161061AY221061GF108991061041008001031999KA1240N+02001MA1999999096861MD1999999+0091MW1021REMSYN088AAXX  04124 82784 21598 83202 10254 20178 39686 40154 70262 8643/ 333 20200 58009 60034;
0167827840999992002020418004-07310-039300FM-12+040999999V0200501N001510450019N0200001N1+02781+02131101171ADDAA199000091GF107991041021008001061001MA1999999096501MD1999999-0091REMSYN070AAXX  04184 82784 32598 70503 10278 20213 39650 40117 84260 333 59009;EQDQ01  00002PRCP99
0208827840999992002020500004-07310-039300FM-12+040999999V0201801N000512200019N0020001N1+02341+02151101341ADDAA199000091GA1001+999999999GF100991001001999999001001KA1240M+02891MA1999999096701MD1999999-0121REMSYN082AAXX  05004 82784 32995 01801 10234 20215 39670 40134 333 10289 29077 55060 59012;EQDQ01  00002PRCP99
0201827840999992002020512004-07310-039300FM-12+040999999V0200901N001510120019N0100001N1+02541+02091101561ADDAA124006191AY161061AY211061GF108991061081008001031999KA1240N+02191MA1999999096881MD1999999+0021MW1021REMSYN088AAXX  05124 82784 21597 80903 10254 20209 39688 40156 70261 8683/ 333 20219 58002 60064;
0167827840999992002020518004-07310-039300FM-12+040999999V0203601N002112200019N0200001N1+02981+01831101211ADDAA199000091GF104991021081012501011091MA1999999096561MD1999999+0061REMSYN070AAXX  05184 82784 32698 43604 10298 20183 39656 40121 82819 333 58006;EQDQ01  00002PRCP99
0208827840999992002020600004-07310-039300FM-12+040999999V0209999C000012200019N0020001N1+02381+02151101431ADDAA199000091GA1001+999999999GF100991001001999999001001KA1240M+03041MA1999999096751MD1999999+0051REMSYN082AAXX  06004 82784 32995 00000 10238 20215 39675 40143 333 10304 29075 55044 58005;EQDQ01  00002PRCP99
0186827840999992002020612004-07310-039300FM-12+040999999V0200901N001010120019N0200001N1+02541+02091101461ADDAA199000091GF108991081081008001999999KA1240N+02201MA1999999096781MD1999999-0101REMSYN076AAXX  06124 82784 32598 80902 10254 20209 39678 40146 888// 333 20220 59010;EQDQ01  00002PRCP99
0167827840999992002020618004-07310-039300FM-12+040999999V0203601N003112200019N0200001N1+02961+02021101061ADDAA199000091GF103991021021008001031021MA1999999096421MD1999999-0141REMSYN070AAXX  06184 82784 32598 33606 10296 20202 39642 40106 82232 333 59014;EQDQ01  00002PRCP99
0167827840999992002020718004-07310-039300FM-12+040999999V0200901N003612200019N0200001N1+03001+01881101021ADDAA199000091GF101991011011012501001001MA1999999096381MD1999999-0041REMSYN070AAXX  07184 82784 32698 10907 10300 20188 39638 40102 81100 333 59004;EQDQ01  00002PRCP99
0208827840999992002020800004-07310-039300FM-12+040999999V0200901N000512200019N0020001N1+02471+02051101211ADDAA199000091GA1001+999999999GF100991001001999999001001KA1240M+03091MA1999999096551MD1999999-0131REMSYN082AAXX  08004 82784 32995 00901 10247 20205 39655 40121 333 10309 29069 55097 59013;EQDQ01  00002PRCP99
0186827840999992002020812004-07310-039300FM-12+040999999V0200901N004112200019N0200001N1+02661+01771101471ADDAA199000091GF101991011011008001001001KA1240N+02081MA1999999096711MD1999999-0121REMSYN076AAXX  08124 82784 32598 10908 10266 20177 39671 40147 81100 333 20208 59012;EQDQ01  00002PRCP99
0167827840999992002020818004-07310-039300FM-12+040999999V0201401N001010075019N0200001N1+02941+01851101031ADDAA199000091GF105991051021008001001001MA1999999096381MD1999999+0001REMSYN070AAXX  08184 82784 32598 51402 10294 20185 39638 40103 85200 333 58000;EQDQ01  00002PRCP99
0208827840999992002020900004-07310-039300FM-12+040999999V0201801N001512200019N0020001N1+02381+02131101291ADDAA199000091GA1001+999999999GF100991001001999999001001KA1240M+03031MA1999999096651MD1999999+0081REMSYN082AAXX  09004 82784 32995 01803 10238 20213 39665 40129 333 10303 29070 55113 58008;EQDQ01  00002PRCP99
0186827840999992002020912004-07310-039300FM-12+040999999V0200901N001010075019N0100001N1+02511+02111101481ADDAA199000091GF108991081071008001999999KA1240N+02181MA1999999096811MD1999999+0101REMSYN076AAXX  09124 82784 32597 80902 10251 20211 39681 40148 887// 333 20218 58010;EQDQ01  00002PRCP99
0167827840999992002020918004-07310-039300FM-12+040999999V0203601N001010450019N0200001N1+03141+01911101111ADDAA199000091GF106991031081008001031999MA1999999096471MD1999999+0091REMSYN070AAXX  09184 82784 32598 63602 10314 20191 39647 40111 8383/ 333 58009;EQDQ01  00002PRCP99
0208827840999992002021000004-07310-039300FM-12+040999999V0200901N001012200019N0020001N1+02421+02071101351ADDAA199000091GA1001+999999999GF100991001001999999001001KA1240M+03211MA1999999096681MD1999999+0031REMSYN082AAXX  10004 82784 32995 00902 10242 20207 39668 40135 333 10321 29072 55073 58003;EQDQ01  00002PRCP99
0220827840999992002021012004-07310-039300FM-12+040999999V0202701N001019999999N0200001N1+02471+02111101541ADDAA124055991AY191061AY261061GF108991999021008001001001KA1240N+02081MA1999999096861MD1999999+0051MW1031REMSYN088AAXX  10124 82784 21598 82702 10247 20211 39686 40154 70396 83200 333 20208 58005 60564;EQDQ01+000032SCOTLC
0198827840999992002021100004-07310-039300FM-12+040999999V0209999C000012200019N0020001N1+02381+02241101431ADDAA199000091GF101991011011008001001001KA1240M+03051MA1999999096751MD1999999-0071REMSYN088AAXX  11004 82784 32595 10000 10238 20224 39675 40143 81100 333 10305 29082 55093 59007;EQDQ01  00002PRCP99
0186827840999992002021112004-07310-039300FM-12+040999999V0200901N003112200019N0200001N1+02651+01901101411ADDAA199000091GF101991011021008001001001KA1240N+02101MA1999999096741MD1999999-0121REMSYN076AAXX  11124 82784 32598 10906 10265 20190 39674 40141 81200 333 20210 59012;EQDQ01  00002PRCP99
0167827840999992002021118004-07310-039300FM-12+040999999V0200901N002112200019N0200001N1+03061+01871101011ADDAA199000091GF102991021021008001001001MA1999999096371MD1999999-0051REMSYN070AAXX  11184 82784 32598 20904 10306 20187 39637 40101 82200 333 59005;EQDQ01  00002PRCP99
0198827840999992002021200004-07310-039300FM-12+040999999V0200901N002110075019N0020001N1+02501+01871101361ADDAA199000091GF108991081071008001999999KA1240M+03131MA1999999096701MD1999999-0051REMSYN088AAXX  12004 82784 32595 80904 10250 20187 39670 40136 887// 333 10313 29062 55112 59005;EQDQ01  00002PRCP99
0176827840999992002021212004-07310-039300FM-12+040999999V0200901N002119999999N0200001N1+02681+02041999999ADDAA124004191GF106991999999008001999999KA1240N+02001MA1999999096841MD1999999+0101ME1100009REMSYN076AAXX  12124 82784 21598 60904 10268 20204 39684 41507 333 20200 58010 60044;
0213827840999992002021300004-07310-039300FM-12+040999999V0200901N002110075019N0010001N1+02381+01951101481ADDAA106000891AY101061AY201061GF108991081071008001999999KA1240M+03071MA1999999096811MD1999999+0111MW1521REMSYN100AAXX  13004 82784 21594 80904 10238 20195 39681 40148 75200 887// 333 10307 29070 55072 58011 69971;
0201827840999992002021312004-07310-039300FM-12+040999999V0203201N000510075019N0040001N1+02351+02031101531ADDAA124006191AY161061AY221061GF108991081061008001999999KA1240N+02191MA1999999096841MD1999999+0001MW1021REMSYN088AAXX  13124 82784 21596 83201 10235 20203 39684 40153 70262 886// 333 20219 58000 60064;
0167827840999992002021318004-07310-039300FM-12+040999999V0201401N001510120019N0200001N1+02701+02111101271ADDAA199000091GF108991061081008001061999MA1999999096591MD1999999+0091REMSYN070AAXX  13184 82784 32598 81403 10270 20211 39659 40127 8686/ 333 58009;EQDQ01  00002PRCP99
0213827840999992002021400004-07310-039300FM-12+040999999V0201401N000510120019N0020001N1+02301+02131101571ADDAA106000191AY151061AY221061GF108991081081008001999999KA1240M+02891MA1999999096871MD1999999+0061MW1031REMSYN100AAXX  14004 82784 21595 81401 10230 20213 39687 40157 70352 888// 333 10289 29083 55042 58006 69911;
0167827840999992002021418004-07310-039300FM-12+040999999V0200501N002110450019N0200001N1+02891+02051101161ADDAA199000091GF107991021021008001071001MA1999999096501MD1999999-0091REMSYN070AAXX  14184 82784 32598 70504 10289 20205 39650 40116 82270 333 59009;EQDQ01  00002PRCP99
0167827840999992002021518004-07310-039300FM-12+040999999V0200901N002612200019N0200001N1+02961+01931101161ADDAA199000091GF104991021081012501051091MA1999999096511MD1999999+0011REMSYN070AAXX  15184 82784 32698 40905 10296 20193 39651 40116 82859 333 58001;EQDQ01  00002PRCP99
0208827840999992002021600004-07310-039300FM-12+040999999V0209999C000012200019N0020001N1+02361+02071101431ADDAA199000091GA1001+999999999GF100991001001999999001001KA1240M+03041MA1999999096751MD1999999+0001REMSYN082AAXX  16004 82784 32995 00000 10236 20207 39675 40143 333 10304 29074 55085 58000;EQDQ01  00002PRCP99
0186827840999992002021612004-07310-039300FM-12+040999999V0200501N002610120019N0200001N1+02551+02131101611ADDAA199000091GF107991071081008001001001KA1240N+02101MA1999999096931MD1999999+0001REMSYN076AAXX  16124 82784 32598 70505 10255 20213 39693 40161 87800 333 20210 58000;EQDQ01  00002PRCP99
0167827840999992002021618004-07310-039300FM-12+040999999V0200501N002612200019N0200001N1+03071+02141101211ADDAA199000091GF104991041021008001001001MA1999999096561MD1999999+0051REMSYN070AAXX  16184 82784 32598 40505 10307 20214 39656 40121 84200 333 58005;EQDQ01  00002PRCP99
0208827840999992002021700004-07310-039300FM-12+040999999V0201401N000512200019N0020001N1+02401+02091101291ADDAA199000091GA1001+999999999GF100991001001999999001001KA1240M+03141MA1999999096631MD1999999-0121REMSYN082AAXX  17004 82784 32995 01401 10240 20209 39663 40129 333 10314 29076 55083 59012;EQDQ01  00002PRCP99
0201827840999992002021712004-07310-039300FM-12+040999999V0203601N000510120019N0100001N1+02481+02251101481ADDAA124004191AY161061AY221061GF108991071081008001031999KA1240N+02241MA1999999096801MD1999999-0131MW1021REMSYN088AAXX  17124 82784 21597 83601 10248 20225 39680 40148 70262 8783/ 333 20224 59013 60044;
0167827840999992002021718004-07310-039300FM-12+040999999V0203601N001510120019N0200001N1+03061+02191101071ADDAA199000091GF106991061021012501001001MA1999999096441MD1999999-0121REMSYN070AAXX  17184 82784 32698 63603 10306 20219 39644 40107 86200 333 59012;EQDQ01  00002PRCP99
0208827840999992002021800004-07310-039300FM-12+040999999V0202701N001012200019N0020001N1+02461+02171101301ADDAA199000091GA1001+999999999GF100991001001999999001001KA1240M+03171MA1999999096631MD1999999+0001REMSYN082AAXX  18004 82784 32995 02702 10246 20217 39663 40130 333 10317 29078 55076 58000;EQDQ01  00002PRCP99
0186827840999992002021812004-07310-039300FM-12+040999999V0200901N002110120019N0200001N1+02651+02161101341ADDAA199000091GF107991071081008001001001KA1240N+02081MA1999999096681MD1999999-0121REMSYN076AAXX  18124 82784 32598 70904 10265 20216 39668 40134 87800 333 20208 59012;EQDQ01  00002PRCP99
0167827840999992002021818004-07310-039300FM-12+040999999V0200901N001512200019N0200001N1+03111+02001100951ADDAA199000091GF104991041021008001001001MA1999999096311MD1999999-0131REMSYN070AAXX  18184 82784 32598 40903 10311 20200 39631 40095 84200 333 59013;EQDQ01  00002PRCP99
0214827840999992002021900004-07310-039300FM-12+040999999V0201401N000519999999N0020001N1+02521+02231101211ADDAA199000091GF106991999051008001999999KA1240M+03231MA1999999096561MD1999999-0071REMSYN088AAXX  19004 82784 32595 61401 10252 20223 39656 40121 885// 333 10323 29074 55103 59007;EQDQ01+000082SCOTLCQ02  00002PRCP99
0186827840999992002021912004-07310-039300FM-12+040999999V0200901N002112200019N0200001N1+02741+02171101421ADDAA199000091GF104991041021008001001001KA1240N+02181MA1999999096761MD1999999+0081REMSYN076AAXX  19124 82784 32598 40904 10274 20217 39676 40142 84200 333 20218 58008;EQDQ01  00002PRCP99
0167827840999992002021918004-07310-039300FM-12+040999999V0200901N002110120019N0200001N1+03101+02231100991ADDAA199000091GF107991071021012501001001MA1999999096351MD1999999-0041REMSYN070AAXX  19184 82784 32698 70904 10310 20223 39635 40099 87200 333 59004;EQDQ01  00002PRCP99
0198827840999992002022000004-07310-039300FM-12+040999999V0209999C000012200019N0020001N1+02511+02321101201ADDAA199000091GF102991021081008001001001KA1240M+03221MA1999999096551MD1999999-0011REMSYN088AAXX  20004 82784 32595 20000 10251 20232 39655 40120 82800 333 10322 29078 55102 59001;EQDQ01  00002PRCP99
0186827840999992002022012004-07310-039300FM-12+040999999V0200901N002612200019N0200001N1+02781+02061101471ADDAA199000091GF104991041021008001001001KA1240N+02241MA1999999096811MD1999999+0051REMSYN076AAXX  20124 82784 32598 40905 10278 20206 39681 40147 84200 333 20224 58005;EQDQ01  00002PRCP99
0167827840999992002022018004-07310-039300FM-12+040999999V0200501N003112200019N0200001N1+03161+02021101071ADDAA199000091GF103991031021008001001001MA1999999096441MD1999999+0091REMSYN070AAXX  20184 82784 32598 30506 10316 20202 39644 40107 83200 333 58009;EQDQ01  00002PRCP99
0198827840999992002022100004-07310-039300FM-12+040999999V0200901N000510120019N0020001N1+02481+02231101261ADDAA199000091GF108991081081008001999999KA1240M+03221MA1999999096611MD1999999+0061REMSYN088AAXX  21004 82784 32595 80901 10248 20223 39661 40126 888// 333 10322 29072 55111 58006;EQDQ01  00002PRCP99
0186827840999992002022112004-07310-039300FM-12+040999999V0200901N002110075019N0200001N1+02671+02021101361ADDAA199000091GF106991061021008001001001KA1240N+02291MA1999999096701MD1999999-0111REMSYN076AAXX  21124 82784 32598 60904 10267 20202 39670 40136 86200 333 20229 59011;EQDQ01  00002PRCP99
0183827840999992002022118004-07310-039300FM-12+040999999V0200901N002119999999N0200001N1+03681+02131999999ADDAA199000091GF105991999081012501021001MA1999999096281MD1999999-0161REMSYN070AAXX  21184 82784 32698 50904 10368 20213 39628 46091 89820 333 59016;EQDQ01+000092SCOTLCQ02  00002PRCP99
0208827840999992002022200004-07310-039300FM-12+040999999V0201801N001012200019N0020001N1+02361+02131101171ADDAA199000091GA1001+999999999GF100991001001999999001001KA1240M+03171MA1999999096511MD1999999-0101REMSYN082AAXX  22004 82784 32995 01802 10236 20213 39651 40117 333 10317 29075 55105 59010;EQDQ01  00002PRCP99
0186827840999992002022212004-07310-039300FM-12+040999999V0200501N001512200019N0200001N1+02701+02031101261ADDAA199000091GF104991041021008001001001KA1240N+02001MA1999999096601MD1999999-0101REMSYN076AAXX  22124 82784 32598 40503 10270 20203 39660 40126 84200 333 20200 59010;EQDQ01  00002PRCP99
0167827840999992002022218004-07310-039300FM-12+040999999V0200501N001512200019N0200001N1+03161+01821100881ADDAA199000091GF101991011021008001001001MA1999999096251MD1999999-0031REMSYN070AAXX  22184 82784 32598 10503 10316 20182 39625 40088 81200 333 59003;EQDQ01  00002PRCP99
0208827840999992002022300004-07310-039300FM-12+040999999V0209999C000012200019N0020001N1+02361+02051101131ADDAA199000091GA1001+999999999GF100991001001999999001001KA1240M+03231MA1999999096481MD1999999-0031REMSYN082AAXX  23004 82784 32995 00000 10236 20205 39648 40113 333 10323 29070 55100 59003;EQDQ01  00002PRCP99
0186827840999992002022312004-07310-039300FM-12+040999999V0200501N001512200019N0200001N1+02671+02071101461ADDAA199000091GF101991011021008001001001KA1240N+01981MA1999999096791MD1999999+0191REMSYN076AAXX  23124 82784 32598 10503 10267 20207 39679 40146 81200 333 20198 58019;EQDQ01  00002PRCP99
0167827840999992002022318004-07310-039300FM-12+040999999V0200501N001512200019N0200001N1+03151+02001101011ADDAA199000091GF101991011021008001001021MA1999999096371MD1999999+0121REMSYN070AAXX  23184 82784 32598 10503 10315 20200 39637 40101 81202 333 58012;EQDQ01  00002PRCP99
0198827840999992002022400004-07310-039300FM-12+040999999V0200901N000512200019N0020001N1+02401+02111101291ADDAA199000091GF101991011081008001001001KA1240M+03281MA1999999096631MD1999999+0151REMSYN088AAXX  24004 82784 32595 10901 10240 20211 39663 40129 81800 333 10328 29072 55111 58015;EQDQ01  00002PRCP99
0202827840999992002022412004-07310-039300FM-12+040999999V0200501N001519999999N0200001N1+02611+02121101611ADDAA199000091GF107991999011008001001001KA1240N+02001MA1999999096931MD1999999+0141REMSYN076AAXX  24124 82784 32598 70503 10261 20212 39693 40161 82100 333 20200 58014;EQDQ01+000022SCOTLCQ02  00002PRCP99
0177827840999992002022418004-07310-039300FM-12+040999999V0200501N002112200019N0200001N1+03241+02101101081ADDAA199000091GA1001+999999999GF100991001001999999001001MA1999999096441MD1999999+0071REMSYN064AAXX  24184 82784 32998 00504 10324 20210 39644 40108 333 58007;EQDQ01  00002PRCP99
0167827840999992002022518004-07310-039300FM-12+040999999V0203601N001512200019N0200001N1+03201+02091101001ADDAA199000091GF101991011021008001001001MA1999999096371MD1999999-0071REMSYN070AAXX  25184 82784 32598 13603 10320 20209 39637 40100 81200 333 59007;EQDQ01  00002PRCP99
0201827840999992002022612004-07310-039300FM-12+040999999V0203601N001510120019N0040001N1+02521+02151101551ADDAA124003091AY161061AY251061GF108991081081008001999999KA1240N+02181MA1999999096871MD1999999+0021MW1021REMSYN088AAXX  26124 82784 21596 83603 10252 20215 39687 40155 70265 888// 333 20218 58002 60034;
0167827840999992002022618004-07310-039300FM-12+040999999V0203601N002112200019N0200001N1+02971+02231101051ADDAA199000091GF102991021021008001001001MA1999999096411MD1999999+0041REMSYN070AAXX  26184 82784 32598 23604 10297 20223 39641 40105 82200 333 58004;EQDQ01  00002PRCP99
0208827840999992002022700004-07310-039300FM-12+040999999V0201801N000512200019N0020001N1+02441+02211101261ADDAA199000091GA1001+999999999GF100991001001999999001001KA1240M+03031MA1999999096601MD1999999-0011REMSYN082AAXX  27004 82784 32995 01801 10244 20221 39660 40126 333 10303 29080 55080 59001;EQDQ01  00002PRCP99
0186827840999992002022712004-07310-039300FM-12+040999999V0201401N002112200019N0200001N1+02751+02051101551ADDAA199000091GF102991011021008001011001KA1240N+02271MA1999999096881MD1999999+0011REMSYN076AAXX  27124 82784 32598 21404 10275 20205 39688 40155 81210 333 20227 58001;EQDQ01  00002PRCP99
0167827840999992002022718004-07310-039300FM-12+040999999V0200901N002112200019N0200001N1+03241+01751101021ADDAA199000091GF102991021021008001001001MA1999999096401MD1999999-0011REMSYN070AAXX  27184 82784 32598 20904 10324 20175 39640 40102 82200 333 59001;EQDQ01  00002PRCP99
0198827840999992002022800004-07310-039300FM-12+040999999V0200901N000510120019N0020001N1+02491+01871101251ADDAA199000091GF108991081081008001999999KA1240M+03291MA1999999096601MD1999999+0001REMSYN088AAXX  28004 82784 32595 80901 10249 20187 39660 40125 888// 333 10329 29061 55110 58000;EQDQ01  00002PRCP99
0186827840999992002022812004-07310-039300FM-12+040999999V0201401N003112200019N0200001N1+02731+01931101351ADDAA199000091GF101991011011008001001001KA1240N+02271MA1999999096691MD1999999-0191REMSYN076AAXX  28124 82784 32598 11406 10273 20193 39669 40135 81100 333 20227 59019;EQDQ01  00002PRCP99
0167827840999992002022818004-07310-039300FM-12+040999999V0200901N002110120019N0200001N1+03201+01991100891ADDAA199000091GF106991061021012501001001MA1999999096271MD1999999-0131REMSYN070AAXX  28184 82784 32698 60904 10320 20199 39627 40089 86200 333 59013;EQDQ01  00002PRCP99
0208827840999992002030100004-07310-039300FM-12+040999999V0200901N001012200019N0020001N1+02481+02111101161ADDAA199000091GA1001+999999999GF100991001001999999001001KA1240M+03271MA1999999096511MD1999999-0091REMSYN082AAXX  01000 82784 32995 00901 10248 20211 39651 40116 333 10327 29068 55108 59009;EQDQ01  00002PRCP99
0186827840999992002030112004-07310-039300FM-12+040999999V0201401N002112200019N0200001N1+02691+01861101401ADDAA199000091GF102991021011008001001001KA1240N+02281MA1999999096741MD1999999+0051REMSYN076AAXX  01124 82784 32598 21404 10269 20186 39674 40140 82100 333 20228 58005;EQDQ01  00002PRCP99
0167827840999992002030118004-07310-039300FM-12+040999999V0200901N002112200019N0200001N1+03231+01771101021ADDAA199000091GF102991011011008001011001MA1999999096401MD1999999+0131REMSYN070AAXX  01184 82784 32598 20904 10323 20177 39640 40102 81110 333 58013;EQDQ01  00002PRCP99
0198827840999992002030300004-07310-039300FM-12+040999999V0200501N000510120019N0020001N1+02541+02111101151ADDAA199000091GF106991061081008001001001KA1240M+03351MA1999999096511MD1999999-0071REMSYN088AAXX  03004 82784 32595 60501 10254 20211 39651 40115 86800 333 10335 29065 55112 59007;EQDQ01  00002PRCP99
0183827840999992002030318004-07310-039300FM-12+040999999V0201401N002619999999N0200001N1+03161+01751100851ADDAA199000091GF107991999011012501001001MA1999999096241MD1999999-0041REMSYN070AAXX  03184 82784 32698 71405 10316 20175 39624 40085 82100 333 59004;EQDQ01+000022SCOTLCQ02  00002PRCP99
0201827840999992002030412004-07310-039300FM-12+040999999V0203201N001010450019N0200001N1+02371+01631101411ADDAA124011991AY161061AY221061GF108991041081008001021999KA1240N+02181MA1999999096741MD1999999+0071MW1211REMSYN088AAXX  04124 82784 21598 83202 10237 20163 39674 40141 72162 8482/ 333 20218 58007 60124;
0182827840999992002030418004-07310-039300FM-12+040999999V0201401N003110075019N0010001N1+02461+02171101061ADDAA106000191AY121061AY221061GF108991081071008001999999MA1999999096391MD1999999+0051MW1951REMSYN082AAXX  04184 82784 21594 81406 10246 20217 39639 40106 79522 887// 333 58005 69921;
0173827840999992002030512004-07310-039300FM-12+040999999V0201401N001010075019N0200001N1+02401+02111101521ADDAA124020191GF108991081071008001999999KA1240N+02131MA1999999096821MD1999999+0081REMSYN082AAXX  05124 82784 22598 81402 10240 20211 39682 40152 887// 333 20213 58008 60204;
0167827840999992002030518004-07310-039300FM-12+040999999V0203601N001510150019N0200001N1+02801+02151101061ADDAA199000091GF108991061081012501011051MA1999999096411MD1999999+0021REMSYN070AAXX  05184 82784 32698 83603 10280 20215 39641 40106 86815 333 58002;EQDQ01  00002PRCP99
0213827840999992002030600004-07310-039300FM-12+040999999V0202701N001010042019N0005001N1+02141+02091101571ADDAA106023191AY191061AY261061GF108991081071004501999999KA1240M+02931MA1999999096871MD1999999+0211MW1631REMSYN100AAXX  06004 82784 21493 82702 10214 20209 39687 40157 76396 887// 333 10293 29086 55020 58021 60231;
0201827840999992002030612004-07310-039300FM-12+040999999V0203601N001512200019N0200001N1+02521+02111101511ADDAA124023991AY161061AY211061GF102991011021008001041001KA1240N+02061MA1999999096821MD1999999+0001MW1011REMSYN088AAXX  06124 82784 21598 23603 10252 20211 39682 40151 70161 81240 333 20206 58000 60244;
0167827840999992002030618004-07310-039300FM-12+040999999V0200501N001510450019N0200001N1+02971+02021101031ADDAA199000091GF106991021021008001051001MA1999999096381MD1999999-0031REMSYN070AAXX  06184 82784 32598 60503 10297 20202 39638 40103 82250 333 59003;EQDQ01  00002PRCP99
0198827840999992002030700004-07310-039300FM-12+040999999V0200901N000510075019N0020001N1+02421+02251101401ADDAA199000091GF108991081071008001999999KA1240M+03071MA1999999096721MD1999999-0151REMSYN088AAXX  07004 82784 32595 80901 10242 20225 39672 40140 887// 333 10307 29079 55094 59015;EQDQ01  00002PRCP99
0201827840999992002030712004-07310-039300FM-12+040999999V0201401N001510120019N0200001N1+02701+02201101491ADDAA124005191AY161061AY221061GF108991061081008001021999KA1240N+02231MA1999999096821MD1999999+0001MW1021REMSYN088AAXX  07124 82784 21598 81403 10270 20220 39682 40149 70262 8682/ 333 20223 58000 60054;
0167827840999992002030718004-07310-039300FM-12+040999999V0200901N001511050019N0200001N1+02921+02141101121ADDAA199000091GF108991021081012501001051MA1999999096471MD1999999+0091REMSYN070AAXX  07184 82784 32698 80903 10292 20214 39647 40112 82805 333 58009;EQDQ01  00002PRCP99
0213827840999992002030800004-07310-039300FM-12+040999999V0200501N001010075019N0010001N1+02461+02361101421ADDAA106000191AY121061AY221061GF108991081071008001999999KA1240M+03031MA1999999096761MD1999999+0041MW1971REMSYN100AAXX  08004 82784 21594 80502 10246 20236 39676 40142 79722 887// 333 10303 29079 55054 58004 69921;
0201827840999992002030812004-07310-039300FM-12+040999999V0200901N003611050019N0200001N1+02621+01931101611ADDAA124000591AY191061AY251061GF107991031021008001001021KA1240N+02251MA1999999096941MD1999999+0121MW1021REMSYN088AAXX  08124 82784 21598 70907 10262 20193 39694 40161 70295 83202 333 20225 58012 69944;
0167827840999992002030818004-07310-039300FM-12+040999999V0200901N001511050019N0200001N1+03011+02081101121ADDAA199000091GF105991031021008001001021MA1999999096481MD1999999+0011REMSYN070AAXX  08184 82784 32598 50903 10301 20208 39648 40112 83202 333 58001;EQDQ01  00002PRCP99
0208827840999992002030900004-07310-039300FM-12+040999999V0209999C000012200019N0020001N1+02361+02131101441ADDAA199000091GA1001+999999999GF100991001001999999001001KA1240M+03071MA1999999096771MD1999999+0011REMSYN082AAXX  09004 82784 32995 00000 10236 20213 39677 40144 333 10307 29074 55092 58001;EQDQ01  00002PRCP99
0186827840999992002030912004-07310-039300FM-12+040999999V0200501N001010450019N0200001N1+02711+01861101521ADDAA199000091GF106991011011008001061001KA1240N+02201MA1999999096851MD1999999-0091REMSYN076AAXX  09124 82784 32598 60502 10271 20186 39685 40152 81160 333 20220 59009;EQDQ01  00002PRCP99
0183827840999992002030918004-07310-039300FM-12+040999999V0200901N002119999999N0200001N1+03091+01921101111ADDAA199000091GF108991999021008001001001MA1999999096471MD1999999-0011REMSYN070AAXX  09184 82784 32598 80904 10309 20192 39647 40111 84200 333 59001;EQDQ01+000042SCOTLCQ02  00002PRCP99
0208827840999992002031000004-07310-039300FM-12+040999999V0201401N000512200019N0020001N1+02401+02251101441ADDAA199000091GA1001+999999999GF100991001001999999001001KA1240M+03171MA1999999096751MD1999999+0001REMSYN082AAXX  10004 82784 32995 01401 10240 20225 39675 40144 333 10317 29072 55074 58000;EQDQ01  00002PRCP99
0186827840999992002031012004-07310-039300FM-12+040999999V0200901N002110450019N0200001N1+02701+01991101521ADDAA199000091GF108991031021008001011051KA1240N+02201MA1999999096851MD1999999+0001REMSYN076AAXX  10124 82784 32598 80904 10270 20199 39685 40152 83215 333 20220 58000;EQDQ01  00002PRCP99
0208827840999992002031100004-07310-039300FM-12+040999999V0209999C000012200019N0020001N1+02401+02111101321ADDAA199000091GA1001+999999999GF100991001001999999001001KA1240M+03101MA1999999096661MD1999999-0111REMSYN082AAXX  11004 82784 32995 00000 10240 20211 39666 40132 333 10310 29072 55075 59011;EQDQ01  00002PRCP99
0186827840999992002031112004-07310-039300FM-12+040999999V0200901N001011050019N0200001N1+02671+01921101511ADDAA199000091GF106991011011008001001021KA1240N+02221MA1999999096841MD1999999-0011REMSYN076AAXX  11124 82784 32598 60902 10267 20192 39684 40151 81102 333 20222 59001;EQDQ01  00002PRCP99
0167827840999992002031118004-07310-039300FM-12+040999999V0200901N002110450019N0200001N1+03011+01971101071ADDAA199000091GF106991041021008001061021MA1999999096431MD1999999-0011REMSYN070AAXX  11184 82784 32598 60904 10301 20197 39643 40107 84262 333 59001;EQDQ01  00002PRCP99
0223827840999992002031200004-07310-039300FM-12+040999999V0209999C000012200019N0020001N1+02301+02221101471ADDAA106004191AY161061AY211061GA1001+999999999GF100991001001999999001001KA1240M+03151MA1999999096801MD1999999+0141MW1011REMSYN094AAXX  12004 82784 21995 00000 10230 20222 39680 40147 70161 333 10315 29077 55097 58014 60041;
0173827840999992002031212004-07310-039300FM-12+040999999V0203201N002110450019N0200001N1+02691+02111101681ADDAA124004191GF106991021021008001011021KA1240N+02111MA1999999097001MD1999999+0161REMSYN082AAXX  12124 82784 22598 63204 10269 20211 39700 40168 82212 333 20211 58016 60044;
0167827840999992002031218004-07310-039300FM-12+040999999V0200901N002112200019N0200001N1+03081+02011101231ADDAA199000091GF102991011021008001001021MA1999999096591MD1999999+0161REMSYN070AAXX  12184 82784 32598 20904 10308 20201 39659 40123 81202 333 58016;EQDQ01  00002PRCP99
0198827840999992002031300004-07310-039300FM-12+040999999V0201401N002010120019N0020001N1+02411+02131101531ADDAA199000091GF108991081081008001999999KA1240M+03151MA1999999096861MD1999999+0161REMSYN088AAXX  13000 82784 32595 81402 10241 20213 39686 40153 888// 333 10315 29074 55109 58016;EQDQ01  00002PRCP99
0186827840999992002031312004-07310-039300FM-12+040999999V0200501N001510450019N0200001N1+02781+02041101581ADDAA199000091GF106991011011008001041001KA1240N+02241MA1999999096911MD1999999-0091REMSYN076AAXX  13124 82784 32598 60503 10278 20204 39691 40158 81140 333 20224 59009;EQDQ01  00002PRCP99
0167827840999992002031318004-07310-039300FM-12+040999999V0200501N003112200019N0200001N1+02991+01831101161ADDAA199000091GF103991031021008001001001MA1999999096521MD1999999+0071REMSYN070AAXX  13184 82784 32598 30506 10299 20183 39652 40116 83200 333 58007;EQDQ01  00002PRCP99
0208827840999992002031400004-07310-039300FM-12+040999999V0209999C000012200019N0020001N1+02351+02031101431ADDAA199000091GA1001+999999999GF100991001001999999001001KA1240M+03171MA1999999096761MD1999999-0101REMSYN082AAXX  14004 82784 32995 00000 10235 20203 39676 40143 333 10317 29070 55103 59010;EQDQ01  00002PRCP99
0186827840999992002031412004-07310-039300FM-12+040999999V0203201N001512200019N0200001N1+02671+02091101451ADDAA199000091GF102991021021008001001001KA1240N+02141MA1999999096781MD1999999-0131REMSYN076AAXX  14124 82784 32598 23203 10267 20209 39678 40145 82200 333 20214 59013;EQDQ01  00002PRCP99
0167827840999992002031418004-07310-039300FM-12+040999999V0203601N002112200019N0200001N1+03111+01941101081ADDAA199000091GF102991011021008001001011MA1999999096441MD1999999-0081REMSYN070AAXX  14184 82784 32598 23604 10311 20194 39644 40108 81201 333 59008;EQDQ01  00002PRCP99
0208827840999992002031500004-07310-039300FM-12+040999999V0201401N000512200019N0020001N1+02421+02051101301ADDAA199000091GA1001+999999999GF100991001001999999001001KA1240M+03171MA1999999096641MD1999999-0121REMSYN082AAXX  15004 82784 32995 01401 10242 20205 39664 40130 333 10317 29070 55104 59012;EQDQ01  00002PRCP99
0186827840999992002031512004-07310-039300FM-12+040999999V0200501N000510120019N0200001N1+02511+02071101521ADDAA199000091GF106991061081008001001001KA1240N+02021MA1999999096841MD1999999+0061REMSYN076AAXX  15124 82784 32598 60501 10251 20207 39684 40152 86800 333 20202 58006;EQDQ01  00002PRCP99
0167827840999992002031518004-07310-039300FM-12+040999999V0203601N001512200019N0200001N1+03081+02161100951ADDAA199000091GF101991011021012501001001MA1999999096311MD1999999-0111REMSYN070AAXX  15184 82784 32698 13603 10308 20216 39631 40095 81200 333 59011;EQDQ01  00002PRCP99
0208827840999992002031600004-07310-039300FM-12+040999999V0209999C000012200019N0020001N1+02461+02151101221ADDAA199000091GA1001+999999999GF100991001001999999001001KA1240M+03191MA1999999096561MD1999999-0081REMSYN082AAXX  16004 82784 32995 00000 10246 20215 39656 40122 333 10319 29075 55087 59008;EQDQ01  00002PRCP99
0186827840999992002031612004-07310-039300FM-12+040999999V0200501N001010120019N0200001N1+02531+02131101451ADDAA199000091GF108991081081008001999999KA1240N+02231MA1999999096781MD1999999-0061REMSYN076AAXX  16124 82784 32598 80502 10253 20213 39678 40145 888// 333 20223 59006;EQDQ01  00002PRCP99
0167827840999992002031618004-07310-039300FM-12+040999999V0203601N002111050019N0200001N1+03061+02191101001ADDAA199000091GF106991021021008001001021MA1999999096361MD1999999+0051REMSYN070AAXX  16184 82784 32598 63604 10306 20219 39636 40100 82202 333 58005;EQDQ01  00002PRCP99
0198827840999992002031700004-07310-039300FM-12+040999999V0201401N001010120019N0020001N1+02501+02251101281ADDAA199000091GF105991051081008001001001KA1240M+03151MA1999999096621MD1999999+0061REMSYN088AAXX  17004 82784 32595 51402 10250 20225 39662 40128 85800 333 10315 29078 55064 58006;EQDQ01  00002PRCP99
0186827840999992002031712004-07310-039300FM-12+040999999V0200501N001010075019N0020001N1+02521+02191101381ADDAA199000091GF108991081051008001999999KA1240N+02341MA1999999096711MD1999999-0071REMSYN076AAXX  17124 82784 32595 80502 10252 20219 39671 40138 885// 333 20234 59007;EQDQ01  00002PRCP99
0183827840999992002031718004-07310-039300FM-12+040999999V0203601N003119999999N0200001N1+03051+02231100881ADDAA199000091GF106991999021012501001001MA1999999096261MD1999999-0101REMSYN070AAXX  17184 82784 32698 63606 10305 20223 39626 40088 84200 333 59010;EQDQ01+000042SCOTLCQ02  00002PRCP99
0226827840999992002031800004-07310-039300FM-12+040999999V0201401N001510120019N0020001N1+02461+02271101191ADDAA199000091AY121061AY221061GF108991081081008001999999KA1240M+03151MA1999999096531MD1999999-0091MW1131REMSYN094AAXX  18004 82784 31595 81403 10246 20227 39653 40119 71322 888// 333 10315 29080 55060 59009;EQDQ01  00002PRCP99
0201827840999992002031812004-07310-039300FM-12+040999999V0200501N000510450019N0100001N1+02631+02181101391ADDAA124030091AY191061AY261061GF107991041021008001091001KA1240N+02101MA1999999096721MD1999999+0011MW1011REMSYN088AAXX  18124 82784 21597 70501 10263 20218 39672 40139 70196 84290 333 20210 58001 60304;
0167827840999992002031818004-07310-039300FM-12+040999999V0203601N002111050019N0200001N1+02901+02221100881ADDAA199000091GF106991041081008001001021MA1999999096241MD1999999-0021REMSYN070AAXX  18184 82784 32598 63604 10290 20222 39624 40088 84802 333 59002;EQDQ01  00002PRCP99
0201827840999992002031912004-07310-039300FM-12+040999999V0200501N001010120019N0040001N1+02501+02251101311ADDAA124014091AY161061AY221061GF107991071081008001001001KA1240N+02221MA1999999096641MD1999999-0081MW1021REMSYN088AAXX  19124 82784 21596 70502 10250 20225 39664 40131 70262 87800 333 20222 59008 60144;
0195827840999992002031918004-07310-039300FM-12+040999999V0200501N001510150019N0200001N1+02861+02231100811ADDAA199000091AY121061AY221061GF107991051081012501071051MA1999999096171MD1999999-0071MW1151REMSYN076AAXX  19184 82784 31698 70503 10286 20223 39617 40081 71522 85875 333 59007;EQDQ01  00002PRCP99
0213827840999992002032000004-07310-039300FM-12+040999999V0201801N001012200019N0020001N1+02461+02391101171ADDAA106004191AY161061AY211061GF102991021011008001001001KA1240M+02991MA1999999096471MD1999999-0141MW1131REMSYN100AAXX  20004 82784 21595 21802 10246 20239 39647 40117 71361 82100 333 10299 29087 55054 59014 60041;
0201827840999992002032012004-07310-039300FM-12+040999999V0203201N001010075019N0040001N1+02351+02221101461ADDAA124040991AY191061AY261061GF108991081061008001999999KA1240N+02121MA1999999096781MD1999999+0141MW1021REMSYN088AAXX  20124 82784 21596 83202 10235 20222 39678 40146 70296 886// 333 20212 58014 60414;
0167827840999992002032018004-07310-039300FM-12+040999999V0200501N001511050019N0200001N1+02881+02251100991ADDAA199000091GF106991041081008001001021MA1999999096341MD1999999+0171REMSYN070AAXX  20184 82784 32598 60503 10288 20225 39634 40099 84802 333 58017;EQDQ01  00002PRCP99
0208827840999992002032100004-07310-039300FM-12+040999999V0209999C000012200019N0020001N1+02371+02191101191ADDAA199000091GA1001+999999999GF100991001001999999001001KA1240M+03031MA1999999096521MD1999999+0051REMSYN082AAXX  21000 82784 32995 00000 10237 20219 39652 40119 333 10303 29086 55053 58005;EQDQ01  00002PRCP99
0201827840999992002032112004-07310-039300FM-12+040999999V0200501N001510120019N0040001N1+02551+02251101401ADDAA124000191AY151061AY211061GF107991071081008001001001KA1240N+02171MA1999999096731MD1999999-0051MW1021REMSYN088AAXX  21124 82784 21596 70503 10255 20225 39673 40140 70251 87800 333 20217 59005 69924;
0167827840999992002032118004-07310-039300FM-12+040999999V0203601N002110150019N0200001N1+02901+02221101031ADDAA199000091GF108991051081012501051051MA1999999096381MD1999999+0041REMSYN070AAXX  21184 82784 32698 83604 10290 20222 39638 40103 85855 333 58004;EQDQ01  00002PRCP99
0214827840999992002032200004-07310-039300FM-12+040999999V0209999C000012200019N0020001N1+02471+99999101221ADDAA199000091GF101991999011008001001001KA1240M+02971MA1999999096561MD1999999+0041REMSYN088AAXX  22004 82784 32595 10000 10247 20/// 39656 40122 82100 333 10297 29082 55057 58004;EQDQ01+000022SCOTLCQ02  00002PRCP99
0186827840999992002032212004-07310-039300FM-12+040999999V0200501N001512200019N0200001N1+02701+02081101361ADDAA199000091GF102991021021008001001001KA1240N+02171MA1999999096701MD1999999-0031REMSYN076AAXX  22124 82784 32598 20503 10270 20208 39670 40136 82200 333 20217 59003;EQDQ01  00002PRCP99
0167827840999992002032218004-07310-039300FM-12+040999999V0200501N002112200019N0200001N1+02971+02101101011ADDAA199000091GF102991011021008001001021MA1999999096371MD1999999-0011REMSYN070AAXX  22184 82784 32598 20504 10297 20210 39637 40101 81202 333 59001;EQDQ01  00002PRCP99
0198827840999992002032300004-07310-039300FM-12+040999999V0201801N000512200019N0020001N1+02311+01961101331ADDAA199000091GF102991011061008001011001KA1240M+03041MA1999999096661MD1999999+0131REMSYN088AAXX  23004 82784 32595 21801 10231 20196 39666 40133 81610 333 10304 29073 55106 58013;EQDQ01  00002PRCP99
0202827840999992002032312004-07310-039300FM-12+040999999V0203601N001519999999N0200001N1+02681+02221101491ADDAA199000091GF106991999021008001001001KA1240N+02151MA1999999096821MD1999999+0121REMSYN076AAXX  23124 82784 32598 63603 10268 20222 39682 40149 84200 333 20215 58012;EQDQ01+000042SCOTLCQ02  00002PRCP99
0182827840999992002032318004-07310-039300FM-12+040999999V0202301N000510120019N0200001N1+02451+02281101171ADDAA106002091AY191061AY221061GF108991081081008001999999MA1999999096491MD1999999+0121MW1211REMSYN082AAXX  23184 82784 21598 82301 10245 20228 39649 40117 72192 888// 333 58012 60021;
0213827840999992002032400004-07310-039300FM-12+040999999V0200901N005110450019N0002001N1+02141+02021101611ADDAA106007991AY191061AY221061GF108991021071004501021999KA1240M+02921MA1999999096921MD1999999+0261MW1971REMSYN100AAXX  24004 82784 21492 80910 10214 20202 39692 40161 79792 8272/ 333 10292 29080 55038 58026 60081;
0201827840999992002032412004-07310-039300FM-12+040999999V0203601N002112200019N0200001N1+02601+02191101541ADDAA124022191AY191061AY261061GF103991031081008001001001KA1240N+02021MA1999999096851MD1999999+0031MW1011REMSYN088AAXX  24124 82784 21598 33604 10260 20219 39685 40154 70196 83800 333 20202 58003 60224;
0167827840999992002032418004-07310-039300FM-12+040999999V0202701N001510450019N0200001N1+02661+02221101111ADDAA199000091GF107991041081012501031051MA1999999096441MD1999999-0051REMSYN070AAXX  24184 82784 32698 72703 10266 20222 39644 40111 84835 333 59005;EQDQ01  00002PRCP99
0198827840999992002032500004-07310-039300FM-12+040999999V0201401N001010075019N0020001N1+02311+02221101301ADDAA199000091GF108991081051008001999999KA1240M+03021MA1999999096631MD1999999-0291REMSYN088AAXX  25004 82784 32595 81402 10231 20222 39663 40130 885// 333 10302 29086 55072 59029;EQDQ01  00002PRCP99
0201827840999992002032512004-07310-039300FM-12+040999999V0201801N001012200019N0200001N1+02551+02151101411ADDAA124007991AY161061AY211061GF102991011021008001031001KA1240N+02101MA1999999096741MD1999999-0111MW1011REMSYN088AAXX  25124 82784 21598 21802 10255 20215 39674 40141 70161 81230 333 20210 59011 60084;
0167827840999992002032518004-07310-039300FM-12+040999999V0202301N003110120019N0200001N1+02621+02251101011ADDAA199000091GF107991071081008001001001MA1999999096341MD1999999-0101REMSYN070AAXX  25184 82784 32598 72306 10262 20225 39634 40101 87800 333 59010;EQDQ01  00002PRCP99
0214827840999992002032600004-07310-039300FM-12+040999999V0201801N001512200019N0020001N1+02341+02171101291ADDAA199000091GF101991999021017501001001KA1240M+03001MA1999999096621MD1999999-0011REMSYN088AAXX  26004 82784 32795 11803 10234 20217 39662 40129 84200 333 10300 29085 55064 59001;EQDQ01+000042SCOTLCQ02  00002PRCP99
0186827840999992002032612004-07310-039300FM-12+040999999V0200501N001010075019N0200001N1+02721+02241101351ADDAA199000091GF105991051021008001001001KA1240N+02151MA1999999096691MD1999999-0051REMSYN076AAXX  26124 82784 32598 50502 10272 20224 39669 40135 85200 333 20215 59005;EQDQ01  00002PRCP99
0167827840999992002032618004-07310-039300FM-12+040999999V0200901N002612200019N0200001N1+03081+02041100911ADDAA199000091GF102991021021008001001001MA1999999096271MD1999999-0071REMSYN070AAXX  26184 82784 32598 20905 10308 20204 39627 40091 82200 333 59007;EQDQ01  00002PRCP99
0201827840999992002032712004-07310-039300FM-12+040999999V0200501N001512200019N0200001N1+02671+02091101431ADDAA124008991AY161061AY201061GF102991011021008001001021KA1240N+02281MA1999999096761MD1999999+0071MW1011REMSYN088AAXX  27124 82784 21598 20503 10267 20209 39676 40143 70160 81202 333 20228 58007 60094;
0167827840999992002032718004-07310-039300FM-12+040999999V0200901N003112200019N0200001N1+03061+01921101041ADDAA199000091GF104991021021008001001011MA1999999096401MD1999999+0131REMSYN070AAXX  27184 82784 32598 40906 10306 20192 39640 40104 82201 333 58013;EQDQ01  00002PRCP99
0208827840999992002032800004-07310-039300FM-12+040999999V0202301N000512200019N0020001N1+02301+02031101351ADDAA199000091GA1001+999999999GF100991001001999999001001KA1240M+03081MA1999999096681MD1999999+0131REMSYN082AAXX  28004 82784 32995 02301 10230 20203 39668 40135 333 10308 29073 55096 58013;EQDQ01  00002PRCP99
0186827840999992002032812004-07310-039300FM-12+040999999V0201401N004110450019N0200001N1+02571+02021101461ADDAA199000091GF107991021011008001071001KA1240N+02011MA1999999096781MD1999999+0021REMSYN076AAXX  28124 82784 32598 71408 10257 20202 39678 40146 82170 333 20201 58002;EQDQ01  00002PRCP99
0167827840999992002032818004-07310-039300FM-12+040999999V0201401N002110450019N0200001N1+02951+02141101151ADDAA199000091GF106991021021008001071001MA1999999096401MD1999999+0001REMSYN070AAXX  28184 82784 32598 61404 10295 20214 39640 40115 82270 333 58000;EQDQ01  00002PRCP99
0198827840999992002032900004-07310-039300FM-12+040999999V0201401N002110450019N0020001N1+02601+02011101221ADDAA199000091GF108991021081008001021001KA1240M+03071MA1999999096571MD1999999-0111REMSYN088AAXX  29004 82784 32595 81404 10260 20201 39657 40122 82820 333 10307 29068 55085 59011;EQDQ01  00002PRCP99
0186827840999992002032912004-07310-039300FM-12+040999999V0200901N003112200019N0200001N1+02761+02041101321ADDAA199000091GF103991011011008001031021KA1240N+02301MA1999999096671MD1999999-0111REMSYN076AAXX  29124 82784 32598 30906 10276 20204 39667 40132 81132 333 20230 59011;EQDQ01  00002PRCP99
0167827840999992002032918004-07310-039300FM-12+040999999V0201401N002110450019N0200001N1+02791+01961101051ADDAA199000091GF108991041081012501031021MA1999999096401MD1999999+0001REMSYN070AAXX  29184 82784 32698 81404 10279 20196 39640 40105 84832 333 58000;EQDQ01  00002PRCP99
0208827840999992002033000004-07310-039300FM-12+040999999V0209999C000012200019N0020001N1+02241+02071101231ADDAA199000091GA1001+999999999GF100991001001999999001001KA1240M+02971MA1999999096571MD1999999+0001REMSYN082AAXX  30004 82784 32995 00000 10224 20207 39657 40123 333 10297 29076 55073 58000;EQDQ01  00002PRCP99
0186827840999992002033012004-07310-039300FM-12+040999999V0200901N002612200019N0200001N1+02791+02041101371ADDAA199000091GF102991011011008001001011KA1240N+02061MA1999999096701MD1999999+0031REMSYN076AAXX  30124 82784 32598 20905 10279 20204 39670 40137 81101 333 20206 58003;EQDQ01  00002PRCP99
0167827840999992002033018004-07310-039300FM-12+040999999V0200901N002612200019N0200001N1+03051+02001100981ADDAA199000091GF102991011021008001001011MA1999999096341MD1999999-0061REMSYN070AAXX  30184 82784 32598 20905 10305 20200 39634 40098 81201 333 59006;EQDQ01  00002PRCP99
0208827840999992002033100004-07310-039300FM-12+040999999V0209999C000012200019N0020001N1+02301+02051101281ADDAA199000091GA1001+999999999GF100991001001999999001001KA1240M+03091MA1999999096621MD1999999+0071REMSYN082AAXX  31004 82784 32995 00000 10230 20205 39662 40128 333 10309 29072 55107 58007;EQDQ01  00002PRCP99
0236827840999992002033112004-07310-039300FM-12+040999999V0200901N002119999999N0200001N1+02601+02121101521ADDAA124001091AY151061AY211061GF108991999011008001001001KA1240N+99999MA1999999096841MD1999999+0141MW1021REMSYN088AAXX  31124 82784 21598 80904 10260 20212 39684 40152 70251 82100 333 20266 58014 60014;EQDQ01+000022SCOTLCQ02 +02662ATMN  
0183827840999992002033118004-07310-039300FM-12+040999999V0200501N004619999999N0200001N1+02861+02091101101ADDAA199000091GF108991999011012501001001MA1999999096451MD1999999+0111REMSYN070AAXX  31184 82784 32698 80509 10286 20209 39645 40110 82100 333 58011;EQDQ01+000022SCOTLCQ02  00002PRCP99
0213827840999992002040100004-07310-039300FM-12+040999999V0201401N004610042019N0005001N1+02241+02071101431ADDAA106002091AY121061AY221061GF108991081051004501999999KA1240M+03041MA1999999096741MD1999999+0121MW1631REMSYN100AAXX  01004 82784 21493 81409 10224 20207 39674 40143 76322 885// 333 10304 29080 55058 58012 60021;
0173827840999992002040112004-07310-039300FM-12+040999999V0200901N002112200019N0200001N1+02781+02161101411ADDAA124002091GF103991031021008001001001KA1240N+02131MA1999999096741MD1999999-0101REMSYN082AAXX  01124 82784 22598 30904 10278 20216 39674 40141 83200 333 20213 59010 60024;
0167827840999992002040118004-07310-039300FM-12+040999999V0200901N001512200019N0200001N1+03091+02161101001ADDAA199000091GF103991021081008001041001MA1999999096361MD1999999-0091REMSYN070AAXX  01184 82784 32598 30903 10309 20216 39636 40100 82840 333 59009;EQDQ01  00002PRCP99
0201827840999992002040212004-07310-039300FM-12+040999999V0201401N003610120019N0200001N1+02551+02061101421ADDAA124000391AY151061AY221061GF108991081081008001999999KA1240N+02281MA1999999096751MD1999999+0011MW1021REMSYN088AAXX  02124 82784 21598 81407 10255 20206 39675 40142 70252 888// 333 20228 58001 69934;
0195827840999992002040218004-07310-039300FM-12+040999999V0200901N002610150019N0100001N1+02901+02251101061ADDAA199000091AY121061AY221061GF108991081081012501999999MA1999999096421MD1999999+0061MW1151REMSYN076AAXX  02184 82784 31697 80905 10290 20225 39642 40106 71522 888// 333 58006;EQDQ01  00002PRCP99
0198827840999992002040300004-07310-039300FM-12+040999999V0209999C000010120019N0020001N1+02411+02171101391ADDAA199000091GF107991071081008001001001KA1240M+03041MA1999999096721MD1999999+0071REMSYN088AAXX  03004 82784 32595 70000 10241 20217 39672 40139 87800 333 10304 29079 55028 58007;EQDQ01  00002PRCP99
0186827840999992002040312004-07310-039300FM-12+040999999V0201401N002110075019N0200001N1+02751+02021101481ADDAA199000091GF106991051021008001001011KA1240N+02241MA1999999096811MD1999999+0061REMSYN076AAXX  03124 82784 32598 61404 10275 20202 39681 40148 85201 333 20224 58006;EQDQ01  00002PRCP99
0167827840999992002040318004-07310-039300FM-12+040999999V0201401N001510150019N0200001N1+02941+02111101131ADDAA199000091GF108991051081012501031999MA1999999096491MD1999999+0071REMSYN070AAXX  03184 82784 32698 81403 10294 20211 39649 40113 8583/ 333 58007;EQDQ01  00002PRCP99
0198827840999992002040400004-07310-039300FM-12+040999999V0202301N000510120019N0020001N1+02461+02411101401ADDAA199000091GF108991081081008001999999KA1240M+03031MA1999999096741MD1999999+0021REMSYN088AAXX  04004 82784 32595 82301 10246 20241 39674 40140 888// 333 10303 29080 55080 58002;EQDQ01  00002PRCP99
0201827840999992002040412004-07310-039300FM-12+040999999V0200901N003610075019N0200001N1+02661+02041101511ADDAA124000191AY151061AY221061GF107991051021008001011001KA1240N+02271MA1999999096841MD1999999+0031MW1021REMSYN088AAXX  04124 82784 21598 70907 10266 20204 39684 40151 70252 85210 333 20227 58003 69914;
0167827840999992002040418004-07310-039300FM-12+040999999V0200901N002110075019N0200001N1+02961+02151101001ADDAA199000091GF108991051021008001021999MA1999999096361MD1999999-0131REMSYN070AAXX  04184 82784 32598 80904 10296 20215 39636 40100 8522/ 333 59013;EQDQ01  00002PRCP99
0186827840999992002040512004-07310-039300FM-12+040999999V0201401N002110450019N0200001N1+02701+02011101311ADDAA199000091GF107991011011008001031001KA1240N+02141MA1999999096651MD1999999-0191REMSYN076AAXX  05124 82784 32598 71404 10270 20201 39665 40131 81130 333 20214 59019;EQDQ01  00002PRCP99
0167827840999992002040518004-07310-039300FM-12+040999999V0201401N002110450019N0200001N1+03001+02141100851ADDAA199000091GF106991011021008001031001MA1999999096221MD1999999-0141REMSYN070AAXX  05184 82784 32598 61404 10300 20214 39622 40085 81230 333 59014;EQDQ01  00002PRCP99
0208827840999992002040600004-07310-039300FM-12+040999999V0202301N001012200019N0020001N1+02321+02001101161ADDAA199000091GA1001+999999999GF100991001001999999001001KA1240M+03071MA1999999096501MD1999999-0121REMSYN082AAXX  06004 82784 32995 02302 10232 20200 39650 40116 333 10307 29073 55071 59012;EQDQ01  00002PRCP99
0201827840999992002040612004-07310-039300FM-12+040999999V0201401N003110450019N0200001N1+02661+02041101191ADDAA124000391AY151061AY211061GF106991041021008001031001KA1240N+02191MA1999999096531MD1999999-0121MW1021REMSYN088AAXX  06124 82784 21598 61406 10266 20204 39653 40119 70251 84230 333 20219 59012 69934;
0167827840999992002040618004-07310-039300FM-12+040999999V0200901N001510450019N0200001N1+03091+02191100751ADDAA199000091GF106991041021008001041021MA1999999096131MD1999999-0091REMSYN070AAXX  06184 82784 32598 60903 10309 20219 39613 40075 84242 333 59009;EQDQ01  00002PRCP99
0198827840999992002040700004-07310-039300FM-12+040999999V0201401N001510120019N0020001N1+02481+02101101171ADDAA199000091GF107991071081008001001001KA1240M+03131MA1999999096521MD1999999+0021REMSYN088AAXX  07004 82784 32595 71403 10248 20210 39652 40117 87800 333 10313 29053 55074 58002;EQDQ01  00002PRCP99
0220827840999992002040712004-07310-039300FM-12+040999999V0203201N001019999999N0040001N1+02381+02241101431ADDAA124035191AY191061AY261061GF108991999021008001001001KA1240N+02141MA1999999096751MD1999999+0221MW1021REMSYN088AAXX  07124 82784 21596 83202 10238 20224 39675 40143 70296 84200 333 20214 58022 60354;EQDQ01+000042SCOTLC
0201827840999992002040718004-07310-039300FM-12+040999999V0203201N001519999999N0200001N1+02941+02361100821ADDAA106000391AY151061AY221061GF107991999011012501001001MA1999999096211MD1999999+0091MW1011REMSYN082AAXX  07184 82784 21698 73203 10294 20236 39621 40082 70152 82100 333 58009 69931;EQDQ01+000022SCOTLC
0208827840999992002040800004-07310-039300FM-12+040999999V0201801N001012200019N0020001N1+02321+02281101161ADDAA199000091GA1001+999999999GF100991001001999999001001KA1240M+03041MA1999999096491MD1999999-0031REMSYN082AAXX  08004 82784 32995 01802 10232 20228 39649 40116 333 10304 29085 55033 59003;EQDQ01  00002PRCP99
0173827840999992002040812004-07310-039300FM-12+040999999V0200501N002610450019N0200001N1+02581+02171101301ADDAA124000391GF107991041021008001031001KA1240N+02181MA1999999096641MD1999999-0111REMSYN082AAXX  08124 82784 22598 70505 10258 20217 39664 40130 84230 333 20218 59011 69934;
0167827840999992002040818004-07310-039300FM-12+040999999V0200901N002112200019N0200001N1+03041+02181100881ADDAA199000091GF103991021021008001001021MA1999999096251MD1999999+0031REMSYN070AAXX  08184 82784 32598 30904 10304 20218 39625 40088 82202 333 58003;EQDQ01  00002PRCP99
0208827840999992002040900004-07310-039300FM-12+040999999V0209999C000012200019N0020001N1+02401+02211101151ADDAA199000091GA1001+999999999GF100991001001999999001001KA1240M+03121MA1999999096491MD1999999+0001REMSYN082AAXX  09004 82784 32995 00000 10240 20221 39649 40115 333 10312 29079 55090 58000;EQDQ01  00002PRCP99
0186827840999992002040912004-07310-039300FM-12+040999999V0202301N000510120019N0100001N1+02561+02271101341ADDAA199000091GF107991071081008001001001KA1240N+02221MA1999999096671MD1999999+0031REMSYN076AAXX  09124 82784 32597 72301 10256 20227 39667 40134 87800 333 20222 58003;EQDQ01  00002PRCP99
0195827840999992002040918004-07310-039300FM-12+040999999V0200501N006012200019N0010001N1+03001+02321100781ADDAA199000091AY111061AY211061GF104991041081008001001001MA1999999096151MD1999999-0101MW1161REMSYN076AAXX  09181 82784 31594 40506 10300 20232 39615 40078 71611 84800 333 59010;EQDQ01  00002PRCP99
0208827840999992002041000004-07310-039300FM-12+040999999V0209999C000012200019N0020001N1+02331+02201101071ADDAA199000091GA1001+999999999GF100991001001999999001001KA1240M+03111MA1999999096411MD1999999-0081REMSYN082AAXX  10004 82784 32995 00000 10233 20220 39641 40107 333 10311 29084 55063 59008;EQDQ01  00002PRCP99
0201827840999992002041012004-07310-039300FM-12+040999999V0200901N001010120019N0200001N1+02581+02191101291ADDAA124000891AY151061AY211061GF107991071081008001001001KA1240N+02261MA1999999096621MD1999999-0051MW1031REMSYN088AAXX  10124 82784 21598 70902 10258 20219 39662 40129 70351 87800 333 20226 59005 69984;
0167827840999992002041018004-07310-039300FM-12+040999999V0203601N001510450019N0200001N1+02991+02121100811ADDAA199000091GF106991021011008001011011MA1999999096181MD1999999+0031REMSYN070AAXX  10184 82784 32598 63603 10299 20212 39618 40081 82111 333 58003;EQDQ01  00002PRCP99
0226827840999992002041100004-07310-039300FM-12+040999999V0203601N000510075019N0020001N1+02501+02171101361ADDAA199000091AY121061AY221061GF108991081071008001999999KA1240M+03071MA1999999096701MD1999999+0291MW1131REMSYN094AAXX  11004 82784 31595 83601 10250 20217 39670 40136 71322 887// 333 10307 29076 55072 58029;EQDQ01  00002PRCP99
0201827840999992002041112004-07310-039300FM-12+040999999V0200501N001510120019N0200001N1+02521+02251101401ADDAA124015091AY191061AY261061GF108991081081008001999999KA1240N+02101MA1999999096731MD1999999+0111MW1021REMSYN088AAXX  11124 82784 21598 80503 10252 20225 39673 40140 70296 888// 333 20210 58011 60154;
0167827840999992002041118004-07310-039300FM-12+040999999V0203601N002110450019N0200001N1+02841+02241100941ADDAA199000091GF108991031021008001021999MA1999999096291MD1999999+0111REMSYN070AAXX  11184 82784 32598 83604 10284 20224 39629 40094 8322/ 333 58011;EQDQ01  00002PRCP99
0208827840999992002041200004-07310-039300FM-12+040999999V0201801N000512200019N0020001N1+02401+02281101251ADDAA199000091GA1001+999999999GF100991001001999999001001KA1240M+03011MA1999999096581MD1999999-0121REMSYN082AAXX  12004 82784 32995 01801 10240 20228 39658 40125 333 10301 29085 55054 59012;EQDQ01  00002PRCP99
0201827840999992002041212004-07310-039300FM-12+040999999V0203601N001010075019N0040001N1+02261+02191101531ADDAA124032091AY191061AY261061GF108991081071008001999999KA1240N+02121MA1999999096841MD1999999+0111MW1201REMSYN088AAXX  12124 82784 21596 83602 10226 20219 39684 40153 72096 887// 333 20212 58011 60324;
0148827840999992002041218004-07310-039300FM-12+040999999V0203201N001510150019N0200001N1+02681+02111101151ADDAA199000021GF108991061081012501001051MA1999999096481MD1999999+0191REMSYN070AAXX  12184 82784 32698 83203 10268 20211 39648 40115 86805 333 58019;
0189827840999992002041300004-07310-039300FM-12+040999999V0203201N000512200019N0020001N1+02281+02141101481ADDAA199000021GA1001+999999999GF100991001001999999001001KA1240M+02751MA1999999096781MD1999999+0201REMSYN082AAXX  13004 82784 32995 03201 10228 20214 39678 40148 333 10275 29088 55002 58020;
0186827840999992002041312004-07310-039300FM-12+040999999V0203601N001510075019N0100001N1+02431+02111101521ADDAA199000091GF108991081051008001999999KA1240N+02001MA1999999096831MD1999999-0011REMSYN076AAXX  13124 82784 32597 83603 10243 20211 39683 40152 885// 333 20200 59001;EQDQ01  00002PRCP99
0183827840999992002041318004-07310-039300FM-12+040999999V0203201N001019999999N0200001N1+02871+02211101101ADDAA199000091GF107991999011008001001001MA1999999096441MD1999999-0041REMSYN070AAXX  13184 82784 32598 73202 10287 20221 39644 40110 82100 333 59004;EQDQ01+000022SCOTLCQ02  00002PRCP99
0214827840999992002041400004-07310-039300FM-12+040999999V0203201N001019999999N0020001N1+02341+02231101391ADDAA199000091GF108991999011017501001001KA1240M+02911MA1999999096711MD1999999-0071REMSYN088AAXX  14004 82784 32795 83202 10234 20223 39671 40139 82100 333 10291 29085 55019 59007;EQDQ01+000022SCOTLCQ02  00002PRCP99
0186827840999992002041412004-07310-039300FM-12+040999999V0201401N001010120019N0200001N1+02421+02131101551ADDAA199000091GF108991061081008001021999KA1240N+02181MA1999999096861MD1999999+0031REMSYN076AAXX  14124 82784 32598 81402 10242 20213 39686 40155 8682/ 333 20218 58003;EQDQ01  00002PRCP99
0167827840999992002041418004-07310-039300FM-12+040999999V0200901N001510450019N0200001N1+02961+02181101001ADDAA199000091GF108991041081012501071051MA1999999096361MD1999999-0081REMSYN070AAXX  14184 82784 32698 80903 10296 20218 39636 40100 84875 333 59008;EQDQ01  00002PRCP99
0217827840999992002041512004-07310-039300FM-12+040999999V02099999999990003019N0005001N1+01951+01911101431ADDAA124022191AY161061AY251061GA1091+999999999GF109991091999999999999999KA1240N+01811MA1999999091821MD1999999-0061MW1431REMSYN088AAXX  15124 82784 21393 909// 10195 20191 39182 40143 74365 89/// 333 20181 59006 60224;
0183827840999992002041518004-07310-039300FM-12+040999999V0201401N001010450019N0200001N1+02901+02101101041ADDAA199000091GF106991041021008001061001MA1999999096392MD1999999+0031REMSYN070AAXX  15184 82784 32598 61402 10290 20210 39639 40104 84260 333 58003;EQDQ01+096393APOSP Q02  00002PRCP99
0186827840999992002041612004-07310-039300FM-12+040999999V0201401N003112200019N0200001N1+02741+02001101421ADDAA199000091GF102991021021008001001001KA1240N+02161MA1999999096751MD1999999-0041REMSYN076AAXX  16124 82784 32598 21406 10274 20200 39675 40142 82200 333 20216 59004;EQDQ01  00002PRCP99
0167827840999992002041618004-07310-039300FM-12+040999999V0200901N002612200019N0200001N1+03041+01641101071ADDAA199000091GF101991011021012501001001MA1999999096431MD1999999+0041REMSYN070AAXX  16184 82784 32698 10905 10304 20164 39643 40107 81200 333 58004;EQDQ01  00002PRCP99
0208827840999992002041700004-07310-039300FM-12+040999999V0201801N000512200019N0020001N1+02261+01861101381ADDAA199000091GA1001+999999999GF100991001001999999001001KA1240M+03111MA1999999096711MD1999999+0161REMSYN082AAXX  17004 82784 32995 01801 10226 20186 39671 40138 333 10311 29066 55110 58016;EQDQ01  00002PRCP99
0208827840999992002041800004-07310-039300FM-12+040999999V0209999C000012200019N0020001N1+02181+01951101391ADDAA199000091GA1001+999999999GF100991001001999999001001KA1240M+03131MA1999999096721MD1999999+0011REMSYN082AAXX  18004 82784 32995 00000 10218 20195 39672 40139 333 10313 29071 55108 58001;EQDQ01  00002PRCP99
0186827840999992002041812004-07310-039300FM-12+040999999V0200901N001012200019N0200001N1+02741+02051101501ADDAA199000091GF104991021021008001001011KA1240N+01921MA1999999096821MD1999999-0091REMSYN076AAXX  18124 82784 32598 40902 10274 20205 39682 40150 82201 333 20192 59009;EQDQ01  00002PRCP99
0167827840999992002041818004-07310-039300FM-12+040999999V0200901N002112200019N0200001N1+03021+01921101051ADDAA199000091GF103991021021012501001011MA1999999096401MD1999999-0101REMSYN070AAXX  18184 82784 32698 30904 10302 20192 39640 40105 82201 333 59010;EQDQ01  00002PRCP99
0186827840999992002041912004-07310-039300FM-12+040999999V0200901N003112200019N0200001N1+02731+01881101341ADDAA199000091GF101991011011008001001001KA1240N+01991MA1999999096671MD1999999-0151REMSYN076AAXX  19124 82784 32598 10906 10273 20188 39667 40134 81100 333 20199 59015;EQDQ01  00002PRCP99
0167827840999992002041918004-07310-039300FM-12+040999999V0201401N002112200019N0200001N1+03101+01971100921ADDAA199000091GF102991021021008001001001MA1999999096281MD1999999-0121REMSYN070AAXX  19184 82784 32598 21404 10310 20197 39628 40092 82200 333 59012;EQDQ01  00002PRCP99
0198827840999992002042000004-07310-039300FM-12+040999999V0200901N001510075019N0020001N1+02361+01991101131ADDAA199000091GF108991081021008001001001KA1240M+03181MA1999999096481MD1999999-0131REMSYN088AAXX  20004 82784 32595 80903 10236 20199 39648 40113 88200 333 10318 29068 55104 59013;EQDQ01  00002PRCP99
0186827840999992002042012004-07310-039300FM-12+040999999V0201401N002110450019N0200001N1+02661+01871101341ADDAA199000091GF106991011011008001061011KA1240N+02201MA1999999096671MD1999999+0001REMSYN076AAXX  20124 82784 32598 61404 10266 20187 39667 40134 81161 333 20220 58000;EQDQ01  00002PRCP99
0167827840999992002042018004-07310-039300FM-12+040999999V0201401N002112200019N0200001N1+02981+01831100921ADDAA199000091GF103991011021008001031011MA1999999096281MD1999999+0001REMSYN070AAXX  20184 82784 32598 31404 10298 20183 39628 40092 81231 333 58000;EQDQ01  00002PRCP99
0198827840999992002042100004-07310-039300FM-12+040999999V0201801N001010075019N0020001N1+02441+02131101211ADDAA199000091GF107991071051008001001001KA1240M+03071MA1999999096551MD1999999+0071REMSYN088AAXX  21004 82784 32595 71802 10244 20213 39655 40121 87500 333 10307 29070 55101 58007;EQDQ01  00002PRCP99
0186827840999992002042112004-07310-039300FM-12+040999999V0200901N003110075019N0200001N1+02581+01991101431ADDAA199000091GF108991081051008001999999KA1240N+02061MA1999999096761MD1999999+0091REMSYN076AAXX  21124 82784 32598 80906 10258 20199 39676 40143 885// 333 20206 58009;EQDQ01  00002PRCP99
0183827840999992002042118004-07310-039300FM-12+040999999V0201401N002612200019N0200001N1+02961+01931101011ADDAA199000091GF102991999021012501001001MA1999999096361MD1999999+0021REMSYN070AAXX  21184 82784 32698 21405 10296 20193 39636 40101 83200 333 58002;EQDQ01+000032SCOTLCQ02  00002PRCP99
0214827840999992002042200004-07310-039300FM-12+040999999V0209999C000012200019N0020001N1+02221+01921101241ADDAA199000091GF101991999011008001001001KA1240M+03091MA1999999096571MD1999999+0021REMSYN088AAXX  22004 82784 32595 10000 10222 20192 39657 40124 82100 333 10309 29072 55075 58002;EQDQ01+000022SCOTLCQ02  00002PRCP99
0186827840999992002042212004-07310-039300FM-12+040999999V0201401N002612200019N0200001N1+02631+01961101311ADDAA199000091GF106991011011008001001041KA1240N+01941MA1999999096641MD1999999-0121REMSYN076AAXX  22124 82784 32598 61405 10263 20196 39664 40131 81104 333 20194 59012;EQDQ01  00002PRCP99
0167827840999992002042218004-07310-039300FM-12+040999999V0200901N003112200019N0200001N1+02981+02041100951ADDAA199000091GF104991011021008001001021MA1999999096301MD1999999-0061REMSYN070AAXX  22184 82784 32598 40906 10298 20204 39630 40095 81202 333 59006;EQDQ01  00002PRCP99
0198827840999992002042300004-07310-039300FM-12+040999999V0200901N002110120019N0020001N1+02541+01901101171ADDAA199000091GF108991081081008001999999KA1240M+03051MA1999999096521MD1999999-0051REMSYN088AAXX  23004 82784 32595 80904 10254 20190 39652 40117 888// 333 10305 29067 55105 59005;EQDQ01  00002PRCP99
0186827840999992002042312004-07310-039300FM-12+040999999V0201401N003110075019N0200001N1+02561+01901101271ADDAA199000091GF106991051021008001001011KA1240N+02261MA1999999096611MD1999999-0031REMSYN076AAXX  23124 82784 32598 61406 10256 20190 39661 40127 85201 333 20226 59003;EQDQ01  00002PRCP99
0167827840999992002042318004-07310-039300FM-12+040999999V0201401N001511050019N0200001N1+02981+01921100821ADDAA199000091GF106991041021008001001081MA1999999096191MD1999999-0111REMSYN070AAXX  23184 82784 32598 61403 10298 20192 39619 40082 84208 333 59011;EQDQ01  00002PRCP99
0214827840999992002042400004-07310-039300FM-12+040999999V0201401N002619999999N0020001N1+02551+01861101151ADDAA199000091GF108991999011008001001001KA1240M+03091MA1999999096501MD1999999-0021REMSYN088AAXX  24004 82784 32595 81405 10255 20186 39650 40115 82100 333 10309 29063 55100 59002;EQDQ01+000022SCOTLCQ02  00002PRCP99
0186827840999992002042412004-07310-039300FM-12+040999999V0201401N002110450019N0200001N1+02681+01991101261ADDAA199000091GF107991031021008001071041KA1240N+02301MA1999999096611MD1999999+0001REMSYN076AAXX  24124 82784 32598 71404 10268 20199 39661 40126 83274 333 20230 58000;EQDQ01  00002PRCP99
0167827840999992002042418004-07310-039300FM-12+040999999V0200501N001510450019N0200001N1+02921+01891100831ADDAA199000091GF107991041021008001061011MA1999999096201MD1999999+0011REMSYN070AAXX  24184 82784 32598 70503 10292 20189 39620 40083 84261 333 58001;EQDQ01  00002PRCP99
0198827840999992002042500004-07310-039300FM-12+040999999V0202301N000512200019N0020001N1+02241+01861101181ADDAA199000091GF102991011011008001011001KA1240M+03081MA1999999096521MD1999999+0021REMSYN088AAXX  25004 82784 32595 22301 10224 20186 39652 40118 81110 333 10308 29070 55079 58002;EQDQ01  00002PRCP99
0186827840999992002042512004-07310-039300FM-12+040999999V0200901N002110450019N0200001N1+02821+02021101381ADDAA199000091GF108991011011008001041071KA1240N+02031MA1999999096721MD1999999+0111REMSYN076AAXX  25124 82784 32598 80904 10282 20202 39672 40138 81147 333 20203 58011;EQDQ01  00002PRCP99
0167827840999992002042518004-07310-039300FM-12+040999999V0201401N002110450019N0200001N1+03051+01941100931ADDAA199000091GF108991011021008001061071MA1999999096301MD1999999+0101REMSYN070AAXX  25184 82784 32598 81404 10305 20194 39630 40093 81267 333 58010;EQDQ01  00002PRCP99
0198827840999992002042600004-07310-039300FM-12+040999999V0200901N000510450019N0020001N1+02321+02001101191ADDAA199000091GF106991031061012501011001KA1240M+03111MA1999999096541MD1999999+0021REMSYN088AAXX  26004 82784 32695 60901 10232 20200 39654 40119 83610 333 10311 29070 55076 58002;EQDQ01  00002PRCP99
0186827840999992002042612004-07310-039300FM-12+040999999V0200901N002110450019N0200001N1+02601+01961101581ADDAA199000091GF107991021021008001021001KA1240N+02211MA1999999096901MD1999999+0181REMSYN076AAXX  26124 82784 32598 70904 10260 20196 39690 40158 82220 333 20221 58018;EQDQ01  00002PRCP99
0167827840999992002042618004-07310-039300FM-12+040999999V0200901N002110450019N0200001N1+02921+01951101011ADDAA199000091GF108991031081012501021051MA1999999096381MD1999999+0081REMSYN070AAXX  26184 82784 32698 80904 10292 20195 39638 40101 83825 333 58008;EQDQ01  00002PRCP99
0198827840999992002042700004-07310-039300FM-12+040999999V0201401N001012200019N0020001N1+02241+02121101241ADDAA199000091GF102991021061008001001001KA1240M+03171MA1999999096571MD1999999+0031REMSYN088AAXX  27004 82784 32595 21402 10224 20212 39657 40124 82600 333 10317 29078 55046 58003;EQDQ01  00002PRCP99
0186827840999992002042712004-07310-039300FM-12+040999999V0200901N001512200019N0200001N1+02711+01741101411ADDAA199000091GF101991011011008001061001KA1240N+01931MA1999999096741MD1999999-0161REMSYN076AAXX  27124 82784 32598 10903 10271 20174 39674 40141 81160 333 20193 59016;EQDQ01  00002PRCP99
0167827840999992002042718004-07310-039300FM-12+040999999V0200901N002112200019N0200001N1+03071+01621101001ADDAA199000091GF102991011011008001061001MA1999999096361MD1999999-0021REMSYN070AAXX  27184 82784 32598 20904 10307 20162 39636 40100 81160 333 59002;EQDQ01  00002PRCP99
0208827840999992002042800004-07310-039300FM-12+040999999V0209999C000012200019N0020001N1+02201+01841101181ADDAA199000091GA1001+999999999GF100991001001999999001001KA1240M+03171MA1999999096521MD1999999-0051REMSYN082AAXX  28004 82784 32995 00000 10220 20184 39652 40118 333 10317 29065 55110 59005;EQDQ01  00002PRCP99
0186827840999992002042812004-07310-039300FM-12+040999999V0201401N001510120019N0200001N1+02721+02001101411ADDAA199000091GF107991071081008001001001KA1240N+01961MA1999999096741MD1999999+0001REMSYN076AAXX  28124 82784 32598 71403 10272 20200 39674 40141 87800 333 20196 58000;EQDQ01  00002PRCP99
0167827840999992002042818004-07310-039300FM-12+040999999V0200501N001510450019N0200001N1+02881+02101101051ADDAA199000091GF107991041081012501031001MA1999999096401MD1999999+0041REMSYN070AAXX  28184 82784 32698 70503 10288 20210 39640 40105 84830 333 58004;EQDQ01  00002PRCP99
0198827840999992002042900004-07310-039300FM-12+040999999V0202301N001010120019N0020001N1+02521+02231101261ADDAA199000091GF108991081081008001999999KA1240M+03031MA1999999096611MD1999999+0091REMSYN088AAXX  29004 82784 32595 82302 10252 20223 39661 40126 888// 333 10303 29074 55081 58009;EQDQ01  00002PRCP99
0186827840999992002042912004-07310-039300FM-12+040999999V0200501N002111050019N0200001N1+02761+01991101451ADDAA199000091GF105991011021008001041011KA1240N+02201MA1999999096791MD1999999+0051REMSYN076AAXX  29124 82784 32598 50504 10276 20199 39679 40145 81241 333 20220 58005;EQDQ01  00002PRCP99
0167827840999992002042918004-07310-039300FM-12+040999999V0200901N001512200019N0200001N1+03151+01941101021ADDAA199000091GF104991021021008001031021MA1999999096391MD1999999-0011REMSYN070AAXX  29184 82784 32598 40903 10315 20194 39639 40102 82232 333 59001;EQDQ01  00002PRCP99
0208827840999992002043000004-07310-039300FM-12+040999999V0201401N001012200019N0020001N1+02381+02071101331ADDAA199000091GA1001+999999999GF100991001001999999001001KA1240M+03231MA1999999096701MD1999999+0091REMSYN082AAXX  30004 82784 32995 01402 10238 20207 39670 40133 333 10323 29070 55104 58009;EQDQ01  00002PRCP99
0186827840999992002043012004-07310-039300FM-12+040999999V0201401N001510450019N0200001N1+02731+01981101631ADDAA199000091GF106991041021008001061001KA1240N+02181MA1999999096951MD1999999+0161REMSYN076AAXX  30124 82784 32598 61403 10273 20198 39695 40163 84260 333 20218 58016;EQDQ01  00002PRCP99
0167827840999992002043018004-07310-039300FM-12+040999999V0201801N001012200019N0200001N1+03161+01891101121ADDAA199000091GF102991021021012501001001MA1999999096451MD1999999+0091REMSYN070AAXX  30184 82784 32698 21802 10316 20189 39645 40112 82200 333 58009;EQDQ01  00002PRCP99
0198827840999992002050100004-07310-039300FM-12+040999999V0200901N001510075019N0020001N1+02371+02051101421ADDAA199000091GF108991081071008001999999KA1240M+03291MA1999999096751MD1999999+0051REMSYN088AAXX  01004 82784 32595 80903 10237 20205 39675 40142 887// 333 10329 29069 55086 58005;EQDQ01  00002PRCP99
0186827840999992002050112004-07310-039300FM-12+040999999V0200901N002110075019N0200001N1+02821+02051101571ADDAA199000091GF106991051021008001021001KA1240N+02261MA1999999096901MD1999999-0051REMSYN076AAXX  01124 82784 32598 60904 10282 20205 39690 40157 85220 333 20226 59005;EQDQ01  00002PRCP99
0166827840999992002050118004-07310-039300FM-12+040999999V0201401N002110075019N0200001N1+03181+02071100991ADDAA199000091GF106991061021008001001001MA1999999096351MD1999999-0131REMSYN069AAXX  01184 82784 3259861404 10318 20207 39635 40099 86200 333 59013;EQDQ01  00002PRCP99
0242827840999992002050200004-07310-039300FM-12+040999999V0200501N001019999999N0020001N1+02431+02151101291ADDAA199000091AY121061AY221061GF105991999081008001001001KA1240M+03251MA1999999096621MD1999999-0131MW1131REMSYN094AAXX  02004 82784 31595 50502 10243 20215 39662 40129 71322 86800 333 10325 29071 55102 59013;EQDQ01+000062SCOTLCQ02  00002PRCP99
0186827840999992002050212004-07310-039300FM-12+040999999V0200501N001510120019N0040001N1+02591+02211101411ADDAA199000091GF108991081081008001999999KA1240N+02281MA1999999096741MD1999999-0161REMSYN076AAXX  02124 82784 32596 80503 10259 20221 39674 40141 888// 333 20228 59016;EQDQ01  00002PRCP99
0167827840999992002050218004-07310-039300FM-12+040999999V0203601N001510450019N0200001N1+03101+02151100901ADDAA199000091GF105991041021008001011001MA1999999096271MD1999999-0081REMSYN070AAXX  02184 82784 32598 53603 10310 20215 39627 40090 84210 333 59008;EQDQ01  00002PRCP99
0198827840999992002050300004-07310-039300FM-12+040999999V0201801N000512200019N0020001N1+02321+02131101241ADDAA199000091GF104991041081008001001001KA1240M+03211MA1999999096571MD1999999-0051REMSYN088AAXX  03004 82784 32595 41801 10232 20213 39657 40124 84800 333 10321 29079 55064 59005;EQDQ01  00002PRCP99
0186827840999992002050312004-07310-039300FM-12+040999999V0203601N001512200019N0200001N1+02621+02141101351ADDAA199000091GF104991031021008001061001KA1240N+02151MA1999999096681MD1999999-0061REMSYN076AAXX  03124 82784 32598 43603 10262 20214 39668 40135 83260 333 20215 59006;EQDQ01  00002PRCP99
0167827840999992002050318004-07310-039300FM-12+040999999V0203601N001512200019N0200001N1+03091+02071100911ADDAA199000091GF103991021021008001041001MA1999999096281MD1999999+0011REMSYN070AAXX  03184 82784 32598 33603 10309 20207 39628 40091 82240 333 58001;EQDQ01  00002PRCP99
0208827840999992002050400004-07310-039300FM-12+040999999V0209999C000012200019N0020001N1+02321+02111101251ADDAA199000091GA1001+999999999GF100991001001999999001001KA1240M+03131MA1999999096581MD1999999+0011REMSYN082AAXX  04004 82784 32995 00000 10232 20211 39658 40125 333 10313 29076 55078 58001;EQDQ01  00002PRCP99
0186827840999992002050412004-07310-039300FM-12+040999999V0200501N000510075019N0200001N1+02671+02091101471ADDAA199000091GF105991051021008001001001KA1240N+01971MA1999999096801MD1999999+0121REMSYN076AAXX  04124 82784 32598 50501 10267 20209 39680 40147 85200 333 20197 58012;EQDQ01  00002PRCP99
0167827840999992002050418004-07310-039300FM-12+040999999V0203601N002112200019N0200001N1+03151+02041101001ADDAA199000091GF102991021021008001001001MA1999999096351MD1999999+0071REMSYN070AAXX  04184 82784 32598 23604 10315 20204 39635 40100 82200 333 58007;EQDQ01  00002PRCP99
0198827840999992002050500004-07310-039300FM-12+040999999V0201801N000512200019N0020001N1+02381+02131101401ADDAA199000091GF101991011021008001001001KA1240M+03211MA1999999096731MD1999999+0151REMSYN088AAXX  05004 82784 32595 11801 10238 20213 39673 40140 81200 333 10321 29074 55100 58015;EQDQ01  00002PRCP99
0186827840999992002050512004-07310-039300FM-12+040999999V0200901N001512200019N0200001N1+02751+01921101641ADDAA199000091GF101991011021008001001001KA1240N+02201MA1999999096961MD1999999+0161REMSYN076AAXX  05124 82784 32598 10903 10275 20192 39696 40164 81200 333 20220 58016;EQDQ01  00002PRCP99
0167827840999992002050518004-07310-039300FM-12+040999999V0200901N001512200019N0200001N1+03211+01551101111ADDAA199000091GF101991011021008001001001MA1999999096481MD1999999+0131REMSYN070AAXX  05184 82784 32598 10903 10321 20155 39648 40111 81200 333 58013;EQDQ01  00002PRCP99
0208827840999992002050600004-07310-039300FM-12+040999999V0201401N000512200019N0020001N1+02231+01991101461ADDAA199000091GA1001+999999999GF100991001001999999001001KA1240M+03281MA1999999096791MD1999999+0061REMSYN082AAXX  06004 82784 32995 01401 10223 20199 39679 40146 333 10328 29068 55099 58006;EQDQ01  00002PRCP99
0186827840999992002050612004-07310-039300FM-12+040999999V0201401N001510075019N0200001N1+02631+02031101691ADDAA199000091GF106991061021008001001001KA1240N+01871MA1999999097001MD1999999+0041REMSYN076AAXX  06124 82784 32598 61403 10263 20203 39700 40169 86200 333 20187 58004;EQDQ01  00002PRCP99
0167827840999992002050618004-07310-039300FM-12+040999999V0201401N001012200019N0200001N1+03101+01871101151ADDAA199000091GF104991021021008001041001MA1999999096491MD1999999+0011REMSYN070AAXX  06184 82784 32598 41402 10310 20187 39649 40115 82240 333 58001;EQDQ01  00002PRCP99
0213827840999992002050700004-07310-039300FM-12+040999999V0209999C000010075019N0005001N1+02271+02191101671ADDAA106020191AY161061AY211061GF108991081071008001999999KA1240M+03241MA1999999096981MD1999999+0121MW1631REMSYN100AAXX  07004 82784 21593 80000 10227 20219 39698 40167 76361 887// 333 10324 29078 55069 58012 60201;
0201827840999992002050712004-07310-039300FM-12+040999999V0200501N002610120019N0200001N1+02621+02141101521ADDAA124021191AY161061AY221061GF107991071081008001001001KA1240N+02121MA1999999096841MD1999999-0161MW1021REMSYN088AAXX  07124 82784 21598 70505 10262 20214 39684 40152 70262 87800 333 20212 59016 60214;
0167827840999992002050718004-07310-039300FM-12+040999999V0200901N001010120019N0200001N1+02911+01991101101ADDAA199000091GF107991071081008001001001MA1999999096451MD1999999-0041REMSYN070AAXX  07184 82784 32598 70902 10291 20199 39645 40110 87800 333 59004;EQDQ01  00002PRCP99
0198827840999992002050800004-07310-039300FM-12+040999999V0201801N000510150019N0020001N1+02401+02281101401ADDAA199000091GF108991999021017501011001KA1240M+02951MA1999999096731MD1999999-0251REMSYN088AAXX  08004 82784 32795 81801 10240 20228 39673 40140 88210 333 10295 29080 55043 59025;EQDQ01  00002PRCP99
0186827840999992002050812004-07310-039300FM-12+040999999V0201401N001512200019N0200001N1+02711+01721101591ADDAA199000091GF101991011011008001001011KA1240N+02101MA1999999096921MD1999999+0081REMSYN076AAXX  08124 82784 32598 11403 10271 20172 39692 40159 81101 333 20210 58008;EQDQ01  00002PRCP99
0167827840999992002050818004-07310-039300FM-12+040999999V0200901N002112200019N0200001N1+03061+01661101081ADDAA199000091GF102991011021008001071001MA1999999096441MD1999999-0011REMSYN070AAXX  08184 82784 32598 20904 10306 20166 39644 40108 81270 333 59001;EQDQ01  00002PRCP99
0208827840999992002050900004-07310-039300FM-12+040999999V0201401N001012200019N0020001N1+02341+01891101481ADDAA199000091GA1001+999999999GF100991001001999999001001KA1240M+03131MA1999999096811MD1999999+0081REMSYN082AAXX  09004 82784 32995 01402 10234 20189 39681 40148 333 10313 29062 55101 58008;EQDQ01  00002PRCP99
0186827840999992002050912004-07310-039300FM-12+040999999V0200901N002110075019N0200001N1+02671+01951101651ADDAA199000091GF106991061021008001001001KA1240N+01891MA1999999096971MD1999999+0051REMSYN076AAXX  09124 82784 32598 60904 10267 20195 39697 40165 86200 333 20189 58005;EQDQ01  00002PRCP99
0167827840999992002050918004-07310-039300FM-12+040999999V0201401N001512200019N0200001N1+03091+01751101241ADDAA199000091GF102991021021008001001001MA1999999096581MD1999999+0141REMSYN070AAXX  09184 82784 32598 21403 10309 20175 39658 40124 82200 333 58014;EQDQ01  00002PRCP99
0208827840999992002051000004-07310-039300FM-12+040999999V0202301N000512200019N0020001N1+02221+02011101561ADDAA199000091GA1001+999999999GF100991001001999999001001KA1240M+03131MA1999999096881MD1999999+0071REMSYN082AAXX  10004 82784 32995 02301 10222 20201 39688 40156 333 10313 29072 55098 58007;EQDQ01  00002PRCP99
0186827840999992002051012004-07310-039300FM-12+040999999V0200501N002112200019N0200001N1+02761+02121101691ADDAA199000091GF101991011011008001001001KA1240N+02061MA1999999097011MD1999999+0041REMSYN076AAXX  10124 82784 32598 10504 10276 20212 39701 40169 81100 333 20206 58004;EQDQ01  00002PRCP99
0167827840999992002051018004-07310-039300FM-12+040999999V0201401N002112200019N0200001N1+03171+01961101221ADDAA199000091GF102991021021008001001001MA1999999096571MD1999999-0011REMSYN070AAXX  10184 82784 32598 21404 10317 20196 39657 40122 82200 333 59001;EQDQ01  00002PRCP99
0198827840999992002051100004-07310-039300FM-12+040999999V0202301N001010120019N0020001N1+02451+02211101581ADDAA199000091GF106991061081008001061001KA1240M+03231MA1999999096911MD1999999+0031REMSYN088AAXX  11004 82784 32595 62302 10245 20221 39691 40158 86860 333 10323 29073 55105 58003;EQDQ01  00002PRCP99
0220827840999992002051112004-07310-039300FM-12+040999999V0200901N002112200019N0200001N1+02761+02141101681ADDAA124000591AY151061AY211061GF103991999011008001001001KA1240N+02311MA1999999097011MD1999999+0001MW1011REMSYN088AAXX  11124 82784 21598 30904 10276 20214 39701 40168 70151 82100 333 20231 58000 69954;EQDQ01+000022SCOTLC
0195827840999992002051118004-07310-039300FM-12+040999999V0200501N001510120019N0040001N1+02791+02091101291ADDAA199000091AY111061AY211061GF106991061081008001001001MA1999999096631MD1999999+0061MW1151REMSYN076AAXX  11184 82784 31596 60503 10279 20209 39663 40129 71511 86800 333 58006;EQDQ01  00002PRCP99
0198827840999992002051200004-07310-039300FM-12+040999999V0201401N001010075019N0020001N1+02381+02241101491ADDAA199000091GF108991081051008001999999KA1240M+03121MA1999999096821MD1999999-0091REMSYN088AAXX  12004 82784 32595 81402 10238 20224 39682 40149 885// 333 10312 29080 55090 59009;EQDQ01  00002PRCP99
0186827840999992002051212004-07310-039300FM-12+040999999V0201401N002112200019N0200001N1+02721+01851101641ADDAA199000091GF106991011011008001001011KA1240N+02171MA1999999096961MD1999999-0051REMSYN076AAXX  12124 82784 32598 61404 10272 20185 39696 40164 81101 333 20217 59005;EQDQ01  00002PRCP99
0198827840999992002051300004-07310-039300FM-12+040999999V0201401N000512200019N0020001N1+02261+02011101521ADDAA199000091GF101991011011008001001001KA1240M+03061MA1999999096851MD1999999+0031REMSYN088AAXX  13004 82784 32595 11401 10226 20201 39685 40152 81100 333 10306 29071 55097 58003;EQDQ01  00002PRCP99
0186827840999992002051312004-07310-039300FM-12+040999999V0201401N003110450019N0200001N1+02561+01801101621ADDAA199000091GF106991011011008001071011KA1240N+02121MA1999999096931MD1999999-0031REMSYN076AAXX  13124 82784 32598 61406 10256 20180 39693 40162 81171 333 20212 59003;EQDQ01  00002PRCP99
0167827840999992002051318004-07310-039300FM-12+040999999V0200901N002112200019N0200001N1+02881+01771101281ADDAA199000091GF106991041081008001001011MA1999999096621MD1999999+0031REMSYN070AAXX  13184 82784 32598 60904 10288 20177 39662 40128 84801 333 58003;EQDQ01  00002PRCP99
0198827840999992002051400004-07310-039300FM-12+040999999V0201401N000512200019N0020001N1+02151+01911101601ADDAA199000091GF103991031021008001001001KA1240M+03051MA1999999096911MD1999999+0061REMSYN088AAXX  14004 82784 32595 31401 10215 20191 39691 40160 83200 333 10305 29072 55091 58006;EQDQ01  00002PRCP99
0186827840999992002051412004-07310-039300FM-12+040999999V0201401N004612200019N0200001N1+02591+01611101601ADDAA199000091GF101991011001017501021001KA1240N+01921MA1999999096911MD1999999-0021REMSYN076AAXX  14124 82784 32798 11409 10259 20161 39691 40160 81020 333 20192 59002;EQDQ01  00002PRCP99
0167827840999992002051418004-07310-039300FM-12+040999999V0201401N002112200019N0200001N1+03061+01701101191ADDAA199000091GF101991011011008001001081MA1999999096541MD1999999-0081REMSYN070AAXX  14184 82784 32598 11404 10306 20170 39654 40119 81108 333 59008;EQDQ01  00002PRCP99
0198827840999992002051500004-07310-039300FM-12+040999999V0200501N000510150019N0020001N1+02271+01921101461ADDAA199000091GF105991051001017501071001KA1240M+03151MA1999999096781MD1999999-0131REMSYN088AAXX  15004 82784 32795 50501 10227 20192 39678 40146 85070 333 10315 29065 55100 59013;EQDQ01  00002PRCP99
0186827840999992002051512004-07310-039300FM-12+040999999V0201401N002112200019N0200001N1+02791+02041101591ADDAA199000091GF102991011011008001061001KA1240N+02201MA1999999096921MD1999999+0011REMSYN076AAXX  15124 82784 32598 21404 10279 20204 39692 40159 81160 333 20220 58001;EQDQ01  00002PRCP99
0167827840999992002051518004-07310-039300FM-12+040999999V0201401N002112200019N0200001N1+03211+01861101131ADDAA199000091GF104991041021008001001001MA1999999096501MD1999999-0041REMSYN070AAXX  15184 82784 32598 41404 10321 20186 39650 40113 84200 333 59004;EQDQ01  00002PRCP99
0198827840999992002051600004-07310-039300FM-12+040999999V0202701N001010120019N0020001N1+02381+02191101471ADDAA199000091GF108991081081008001999999KA1240M+03251MA1999999096811MD1999999+0031REMSYN088AAXX  16004 82784 32595 82702 10238 20219 39681 40147 888// 333 10325 29072 55102 58003;EQDQ01  00002PRCP99
0186827840999992002051612004-07310-039300FM-12+040999999V0201401N001510075019N0200001N1+02581+02101101491ADDAA199000091GF108991081051008001999999KA1240N+02321MA1999999096821MD1999999-0101REMSYN076AAXX  16124 82784 32598 81403 10258 20210 39682 40149 885// 333 20232 59010;EQDQ01  00002PRCP99
0182827840999992002051618004-07310-039300FM-12+040999999V0201401N001510120019N0020001N1+02721+02321101081ADDAA106000191AY121061AY221061GF107991071081008001001001MA1999999096431MD1999999-0071MW1511REMSYN082AAXX  16184 82784 21595 71403 10272 20232 39643 40108 75122 87800 333 59007 69921;
0179827840999992002051700004-07310-039300FM-12+040999999V0201801N000510120019N0020001N1+02451+02231101301ADDAA199000021GF107991071081008001001001KA1240M+03201MA1999999096641MD1999999-0151REMSYN088AAXX  17004 82784 32595 71801 10245 20223 39664 40130 87800 333 10320 29082 55039 59015;
0173827840999992002051712004-07310-039300FM-12+040999999V0201401N003110120019N0200001N1+02641+02121101371ADDAA124000191GF107991071081008001001001KA1240N+02231MA1999999096711MD1999999-0011REMSYN082AAXX  17124 82784 22598 71406 10264 20212 39671 40137 87800 333 20223 59001 69924;
0167827840999992002051718004-07310-039300FM-12+040999999V0201401N002612200019N0200001N1+03021+02101100921ADDAA199000091GF104991031021008001061001MA1999999096291MD1999999-0141REMSYN070AAXX  17184 82784 32598 41405 10302 20210 39629 40092 83260 333 59014;EQDQ01  00002PRCP99
0198827840999992002051800004-07310-039300FM-12+040999999V0201401N001012200019N0020001N1+02281+02051101281ADDAA199000091GF102991021011017501001001KA1240M+03081MA1999999096611MD1999999-0031REMSYN088AAXX  18004 82784 32795 21402 10228 20205 39661 40128 82100 333 10308 29076 55065 59003;EQDQ01  00002PRCP99
0186827840999992002051812004-07310-039300FM-12+040999999V0203601N000510450019N0200001N1+02501+02031101371ADDAA199000091GF106991011011008001031001KA1240N+02151MA1999999096691MD1999999-0021REMSYN076AAXX  18124 82784 32598 63601 10250 20203 39669 40137 81130 333 20215 59002;EQDQ01  00002PRCP99
0198827840999992002051900004-07310-039300FM-12+040999999V0209999C000012200019N0020001N1+02341+02151101381ADDAA199000091GF102991021011008001001001KA1240M+03141MA1999999096681MD1999999+0051REMSYN088AAXX  19004 82784 32595 20000 10234 20215 39668 40138 82100 333 10314 29077 55062 58005;EQDQ01  00002PRCP99
0201827840999992002051912004-07310-039300FM-12+040999999V0201401N001512200019N0200001N1+02741+02101101511ADDAA124000191AY151061AY201061GF102991021011008001001001KA1240N+02221MA1999999096841MD1999999+0151MW1011REMSYN088AAXX  19124 82784 21598 21403 10274 20210 39684 40151 70150 82100 333 20222 58015 69924;
0167827840999992002051918004-07310-039300FM-12+040999999V0200901N002112200019N0200001N1+03101+01941101051ADDAA199000091GF102991021011008001001001MA1999999096411MD1999999+0081REMSYN070AAXX  19184 82784 32598 20904 10310 20194 39641 40105 82100 333 58008;EQDQ01  00002PRCP99
0192827840999992002052000004-07310-039300FM-12+040999999V0201801N001512200019N0020001N1+02241+01981101321ADDAA199000091GF102991999999999999999999KA1240M+03251MA1999999096661MD1999999-0021REMSYN082AAXX  20004 82784 32995 21803 10224 20198 39666 40132 333 10325 29072 55082 59002;EQDQ01  00002PRCP99
0186827840999992002052012004-07310-039300FM-12+040999999V0200501N003112200019N0200001N1+02731+02031101561ADDAA199000091GF105991041021008001001011KA1240N+02101MA1999999096881MD1999999+0041REMSYN076AAXX  20124 82784 32598 50506 10273 20203 39688 40156 84201 333 20210 58004;EQDQ01  00002PRCP99
0167827840999992002052018004-07310-039300FM-12+040999999V0200901N002612200019N0200001N1+03251+01861101071ADDAA199000091GF103991031021008001001001MA1999999096441MD1999999+0031REMSYN070AAXX  20184 82784 32598 30905 10325 20186 39644 40107 83200 333 58003;EQDQ01  00002PRCP99
0198827840999992002052100004-07310-039300FM-12+040999999V0209999C000010120019N0020001N1+02341+02151101381ADDAA199000091GF108991081081008001999999KA1240M+03291MA1999999096721MD1999999+0061REMSYN088AAXX  21004 82784 32595 80000 10234 20215 39672 40138 888// 333 10329 29072 55103 58006;EQDQ01  00002PRCP99
0186827840999992002052112004-07310-039300FM-12+040999999V0200901N003112200019N0200001N1+02761+01891101551ADDAA199000091GF101991011011008001001001KA1240N+02201MA1999999096881MD1999999+0001REMSYN076AAXX  21124 82784 32598 10906 10276 20189 39688 40155 81100 333 20220 58000;EQDQ01  00002PRCP99
0183827840999992002052118004-07310-039300FM-12+040999999V0200501N002612200019N0200001N1+03091+01921101051ADDAA199000091GF103991999021008001001001MA1999999096421MD1999999-0021REMSYN070AAXX  21184 82784 32598 30505 10309 20192 39642 40105 82200 333 59002;EQDQ01+000022SCOTLCQ02  00002PRCP99
0208827840999992002052200004-07310-039300FM-12+040999999V0203601N000512200019N0020001N1+02241+02031101311ADDAA199000091GA1001+999999999GF100991001001999999001001KA1240M+03211MA1999999096651MD1999999-0071REMSYN082AAXX  22004 82784 32995 03601 10224 20203 39665 40131 333 10321 29071 55095 59007;EQDQ01  00002PRCP99
0201827840999992002052212004-07310-039300FM-12+040999999V0200501N001510075019N0200001N1+02691+02131101491ADDAA124008991AY161061AY211061GF105991051021008001001001KA1240N+02211MA1999999096811MD1999999-0071MW1021REMSYN088AAXX  22124 82784 21598 50503 10269 20213 39681 40149 70261 85200 333 20221 59007 60094;
0198827840999992002052300004-07310-039300FM-12+040999999V0209999C000012200019N0020001N1+02361+02221101271ADDAA199000091GF102991021021008001001001KA1240M+03181MA1999999096611MD1999999-0041REMSYN088AAXX  23000 82784 32595 20000 10236 20222 39661 40127 82200 333 10318 29078 55096 59004;EQDQ01  00002PRCP99
0201827840999992002052312004-07310-039300FM-12+040999999V0200501N002110120019N0040001N1+02511+02171101491ADDAA124000191AY151061AY211061GF108991081081008001999999KA1240N+02221MA1999999096811MD1999999+0001MW1021REMSYN088AAXX  23124 82784 21596 80504 10251 20217 39681 40149 70251 888// 333 20222 58000 69924;
0167827840999992002052318004-07310-039300FM-12+040999999V0200901N001510450019N0200001N1+02991+02151100951ADDAA199000091GF106991041021008001061001MA1999999096321MD1999999-0021REMSYN070AAXX  23184 82784 32598 60903 10299 20215 39632 40095 84260 333 59002;EQDQ01  00002PRCP99
0198827840999992002052400004-07310-039300FM-12+040999999V0209999C000012200019N0020001N1+02341+02221101281ADDAA199000091GF103991031021008001001001KA1240M+03051MA1999999096611MD1999999+0001REMSYN088AAXX  24004 82784 32595 30000 10234 20222 39661 40128 83200 333 10305 29082 55038 58000;EQDQ01  00002PRCP99
0186827840999992002052412004-07310-039300FM-12+040999999V0201401N002110120019N0200001N1+02621+02031101501ADDAA199000091GF107991071081008001001001KA1240N+02221MA1999999096831MD1999999+0021REMSYN076AAXX  24124 82784 32598 71404 10262 20203 39683 40150 87800 333 20222 58002;EQDQ01  00002PRCP99
0167827840999992002052418004-07310-039300FM-12+040999999V0200501N002110120019N0200001N1+02921+01951101051ADDAA199000091GF107991071081008001001001MA1999999096411MD1999999+0091REMSYN070AAXX  24184 82784 32598 70504 10292 20195 39641 40105 87800 333 58009;EQDQ01  00002PRCP99
0198827840999992002052500004-07310-039300FM-12+040999999V0201401N000510450019N0020001N1+02331+01911101371ADDAA199000091GF106991011011008001031001KA1240M+03021MA1999999096701MD1999999+0091REMSYN088AAXX  25004 82784 32595 61401 10233 20191 39670 40137 81130 333 10302 29070 55033 58009;EQDQ01  00002PRCP99
0202827840999992002052512004-07310-039300FM-12+040999999V0201801N001010075019N0200001N1+02581+02061101531ADDAA199000091GF108991999021008001001001KA1240N+02201MA1999999096851MD1999999+0021REMSYN076AAXX  25124 82784 32598 81802 10258 20206 39685 40153 86200 333 20220 58002;EQDQ01+000062SCOTLCQ02  00002PRCP99
0167827840999992002052518004-07310-039300FM-12+040999999V0201401N002110120019N0200001N1+02751+02051101231ADDAA199000091GF107991051081008001031001MA1999999096571MD1999999+0161REMSYN070AAXX  25184 82784 32598 71404 10275 20205 39657 40123 85830 333 58016;EQDQ01  00002PRCP99
0198827840999992002052600004-07310-039300FM-12+040999999V0202301N001010075019N0020001N1+02361+01871101531ADDAA199000091GF108991081051008001999999KA1240M+02881MA1999999096851MD1999999+0151REMSYN088AAXX  26004 82784 32595 82302 10236 20187 39685 40153 885// 333 10288 29072 55011 58015;EQDQ01  00002PRCP99
0186827840999992002052612004-07310-039300FM-12+040999999V0201801N003110450019N0200001N1+02471+01851101681ADDAA199000091GF106991041021008001031001KA1240N+02181MA1999999096991MD1999999+0141REMSYN076AAXX  26124 82784 32598 61806 10247 20185 39699 40168 84230 333 20218 58014;EQDQ01  00002PRCP99
0167827840999992002052618004-07310-039300FM-12+040999999V0201401N002110075019N0200001N1+02771+01831101281ADDAA199000091GF107991061021008001061001MA1999999096621MD1999999+0051REMSYN070AAXX  26184 82784 32598 71404 10277 20183 39662 40128 86260 333 58005;EQDQ01  00002PRCP99
0198827840999992002052700004-07310-039300FM-12+040999999V0201401N001510150019N0020001N1+02301+01751101521ADDAA199000091GF108991081001017501051999KA1240M+02861MA1999999096841MD1999999-0011REMSYN088AAXX  27004 82784 32795 81403 10230 20175 39684 40152 8805/ 333 10286 29067 55065 59001;EQDQ01  00002PRCP99
0186827840999992002052712004-07310-039300FM-12+040999999V0201401N002612200019N0200001N1+02641+01801101591ADDAA199000091GF102991011011008001031001KA1240N+02081MA1999999096911MD1999999-0081REMSYN076AAXX  27124 82784 32598 21405 10264 20180 39691 40159 81130 333 20208 59008;EQDQ01  00002PRCP99
0167827840999992002052718004-07310-039300FM-12+040999999V0201401N003112200019N0200001N1+02861+01841101201ADDAA199000091GF102991011021008001031001MA1999999096541MD1999999-0081REMSYN070AAXX  27184 82784 32598 21406 10286 20184 39654 40120 81230 333 59008;EQDQ01  00002PRCP99
0208827840999992002052800004-07310-039300FM-12+040999999V0209999C000012200019N0020001N1+02151+01801101371ADDAA199000091GA1001+999999999GF100991001001999999001001KA1240M+02941MA1999999096691MD1999999-0151REMSYN082AAXX  28004 82784 32995 00000 10215 20180 39669 40137 333 10294 29069 55086 59015;EQDQ01  00002PRCP99
0186827840999992002052812004-07310-039300FM-12+040999999V0201401N003112200019N0200001N1+02681+01781101521ADDAA199000091GF103991031021008001001001KA1240N+02121MA1999999096841MD1999999-0071REMSYN076AAXX  28124 82784 32598 31406 10268 20178 39684 40152 83200 333 20212 59007;EQDQ01  00002PRCP99
0167827840999992002052818004-07310-039300FM-12+040999999V0201801N002610450019N0020001N1+02951+01791101171ADDAA199000091GF106991021021008001051001MA1999999096521MD1999999-0021REMSYN070AAXX  28184 82784 32595 61805 10295 20179 39652 40117 82250 333 59002;EQDQ01  00002PRCP99
0167827840999992002052918004-07310-039300FM-12+040999999V0201401N001510075019N0200001N1+03021+01691101091ADDAA199000091GF105991051021008001001001MA1999999096451MD1999999-0071REMSYN070AAXX  29184 82784 32598 51403 10302 20169 39645 40109 85200 333 59007;EQDQ01  00002PRCP99
0214827840999992002053000004-07310-039300FM-12+040999999V0200901N001012200019N0020001N1+02531+01791101371ADDAA199000091GF103991999011008001001001KA1240M+03171MA1999999096711MD1999999+0041REMSYN088AAXX  30004 82784 32595 30902 10253 20179 39671 40137 82100 333 10317 29058 55088 58004;EQDQ01+000022SCOTLCQ02  00002PRCP99
0186827840999992002053012004-07310-039300FM-12+040999999V0201401N002112200019N0200001N1+02811+01721101491ADDAA199000091GF101991011011008001061001KA1240N+02291MA1999999096831MD1999999+0021REMSYN076AAXX  30124 82784 32598 11404 10281 20172 39683 40149 81160 333 20229 58002;EQDQ01  00002PRCP99
0167827840999992002053018004-07310-039300FM-12+040999999V0201401N003110120019N0200001N1+02991+01761101141ADDAA199000091GF108991081081008001999999MA1999999096501MD1999999+0051REMSYN070AAXX  30184 82784 32598 81406 10299 20176 39650 40114 888// 333 58005;EQDQ01  00002PRCP99
0198827840999992002053100004-07310-039300FM-12+040999999V0201401N001510075019N0020001N1+02491+01901101471ADDAA199000091GF106991061021008001001001KA1240M+03131MA1999999096811MD1999999+0101REMSYN088AAXX  31004 82784 32595 61403 10249 20190 39681 40147 86200 333 10313 29060 55087 58010;EQDQ01  00002PRCP99
0186827840999992002053112004-07310-039300FM-12+040999999V0201401N002610075019N0200001N1+02591+01941101691ADDAA199000091GF106991061021008001001001KA1240N+02191MA1999999097011MD1999999+0181REMSYN076AAXX  31124 82784 32598 61405 10259 20194 39701 40169 86200 333 20219 58018;EQDQ01  00002PRCP99
0186827840999992002060112004-07310-039300FM-12+040999999V0201401N002110450019N0200001N1+02531+01931101721ADDAA199000091GF106991021021008001051001KA1240N+02101MA1999999097041MD1999999+0031REMSYN076AAXX  01124 82784 32598 61404 10253 20193 39704 40172 82250 333 20210 58003;EQDQ01  00002PRCP99
0167827840999992002060118004-07310-039300FM-12+040999999V0201401N001512200019N0200001N1+03021+01681101351ADDAA199000091GF104991031021008001041001MA1999999096701MD1999999+0171REMSYN070AAXX  01184 82784 32598 41403 10302 20168 39670 40135 83240 333 58017;EQDQ01  00002PRCP99
0208827840999992002060200004-07310-039300FM-12+040999999V0201401N001012200019N0020001N1+02281+01771101571ADDAA199000091GA1001+999999999GF100991001001999999001001KA1240M+03131MA1999999096881MD1999999+0021REMSYN082AAXX  02004 82784 32995 01402 10228 20177 39688 40157 333 10313 29065 55084 58002;EQDQ01  00002PRCP99
0202827840999992002060212004-07310-039300FM-12+040999999V0200901N002119999999N0200001N1+02681+01701101681ADDAA199000091GF107991999011008001001001KA1240N+02231MA1999999097001MD1999999-0041REMSYN076AAXX  02124 82784 32598 70904 10268 20170 39700 40168 82100 333 20223 59004;EQDQ01+000022SCOTLCQ02  00002PRCP99
0183827840999992002060218004-07310-039300FM-12+040999999V0201401N002119999999N0200001N1+02901+01721101341ADDAA199000091GF108991999011012501001001MA1999999096681MD1999999-0021REMSYN070AAXX  02184 82784 32698 81404 10290 20172 39668 40134 82100 333 59002;EQDQ01+000022SCOTLCQ02  00002PRCP99
0186827840999992002060312004-07310-039300FM-12+040999999V0201401N003610450019N0200001N1+02581+01771101601ADDAA199000091GF106991011011008001071011KA1240N+02111MA1999999096941MD1999999-0061REMSYN076AAXX  03124 82784 32598 61407 10258 20177 39694 40160 81171 333 20211 59006;EQDQ01  00002PRCP99
0167827840999992002060318004-07320-039300FM-12+040999999V0201401N002110450019N0200001N1+03101+01621101201ADDAA199000091GF106991031021008001011041MA1999999096551MD1999999-0131REMSYN070AAXX  03184 82784 32598 61404 10310 20162 39655 40120 83214 333 59013;EQDQ01  00002PRCP99
0198827840999992002060400004-07320-039300FM-12+040999999V0200501N001012200019N0020001N1+02341+01781101511ADDAA199000091GF102991021081008001001001KA1240M+03171MA1999999096831MD1999999-0021REMSYN088AAXX  04004 82784 32595 20502 10234 20178 39683 40151 82800 333 10317 29061 55086 59002;EQDQ01  00002PRCP99
0186827840999992002060412004-07320-039300FM-12+040999999V0201401N002612200019N0200001N1+02791+01931101541ADDAA199000091GF102991021021008001001001KA1240N+01981MA1999999096871MD1999999-0071REMSYN076AAXX  04124 82784 32598 21405 10279 20193 39687 40154 82200 333 20198 59007;EQDQ01  00002PRCP99
0167827840999992002060418004-07320-039300FM-12+040999999V0201801N002110450019N0200001N1+03231+01611101061ADDAA199000091GF108991031021012501011999MA1999999096431MD1999999-0121REMSYN070AAXX  04184 82784 32698 81804 10323 20161 39643 40106 8321/ 333 59012;EQDQ01  00002PRCP99
0208827840999992002060500004-07320-039300FM-12+040999999V0201801N001512200019N0020001N1+02461+01921101411ADDAA199000091GA1001+999999999GF100991001001999999001001KA1240M+03291MA1999999096751MD1999999-0081REMSYN082AAXX  05004 82784 32995 01803 10246 20192 39675 40141 333 10329 29060 55100 59008;EQDQ01  00002PRCP99
0186827840999992002060512004-07320-039300FM-12+040999999V0200901N002110075019N0200001N1+02741+01951101551ADDAA199000091GF106991061021008001001001KA1240N+02171MA1999999096881MD1999999+0011REMSYN076AAXX  05124 82784 32598 60904 10274 20195 39688 40155 86200 333 20217 58001;EQDQ01  00002PRCP99
0167827840999992002060518004-07320-039300FM-12+040999999V0201401N001512200019N0200001N1+03221+01731101091ADDAA199000091GF102991021021008001001001MA1999999096461MD1999999+0031REMSYN070AAXX  05184 82784 32598 21403 10322 20173 39646 40109 82200 333 58003;EQDQ01  00002PRCP99
0208827840999992002060600004-07320-039300FM-12+040999999V0201401N002612200019N0020001N1+02561+01621101321ADDAA199000091GA1001+999999999GF100991001001999999001001KA1240M+03301MA1999999096671MD1999999-0081REMSYN082AAXX  06004 82784 32995 01405 10256 20162 39667 40132 333 10330 29054 55083 59008;EQDQ01  00002PRCP99
0167827840999992002060618004-07320-039300FM-12+040999999V0200901N003112200019N0200001N1+03031+01691101151ADDAA199000091GF102991021021012501001001MA1999999096501MD1999999+0041REMSYN070AAXX  06184 82784 32698 20906 10303 20169 39650 40115 82200 333 58004;EQDQ01  00002PRCP99
0208827840999992002060700004-07320-039300FM-12+040999999V0200901N001512200019N0020001N1+02461+01831101271ADDAA199000091GA1001+999999999GF100991001001999999001001KA1240M+03071MA1999999096831MD1999999+0211REMSYN082AAXX  07004 82784 32995 00903 10246 20183 39683 40127 333 10307 29060 55106 58021;EQDQ01  00002PRCP99
0186827840999992002060712004-07320-039300FM-12+040999999V0201401N002610450019N0200001N1+02651+01751101601ADDAA199000091GF106991041021008001071001KA1240N+01761MA1999999096931MD1999999+0051REMSYN076AAXX  07124 82784 32598 61405 10265 20175 39693 40160 84270 333 20176 58005;EQDQ01  00002PRCP99
0167827840999992002060718004-07320-039300FM-12+040999999V0201401N002110120019N0200001N1+02911+01721101261ADDAA199000091GF108991081081008001999999MA1999999096591MD1999999+0091REMSYN070AAXX  07184 82784 32598 81404 10291 20172 39659 40126 888// 333 58009;EQDQ01  00002PRCP99
0198827840999992002060800004-07320-039300FM-12+040999999V0200901N000510120019N0020001N1+02391+01891101521ADDAA199000091GF107991071081008001001001KA1240M+03011MA1999999096851MD1999999+0041REMSYN088AAXX  08004 82784 32595 70901 10239 20189 39685 40152 87800 333 10301 29064 55050 58004;EQDQ01  00002PRCP99
0214827840999992002060812004-07320-039300FM-12+040999999V0200501N001510075019N0040001N1+02541+01911101781ADDAA199000091AY121061AY221061GF108991081071008001999999KA1240N+02281MA1999999097091MD1999999+0161MW1151REMSYN082AAXX  08124 82784 31596 80503 10254 20191 39709 40178 71522 887// 333 20228 58016;EQDQ01  00002PRCP99
0167827840999992002060818004-07320-039300FM-12+040999999V0201401N003110075019N0200001N1+02691+01971101421ADDAA199000091GF108991081051008001999999MA1999999096751MD1999999+0161REMSYN070AAXX  08184 82784 32598 81406 10269 20197 39675 40142 885// 333 58016;EQDQ01  00002PRCP99
0214827840999992002060900004-07320-039300FM-12+040999999V0200901N000519999999N0020001N1+02341+02051101721ADDAA199000091GF108991999011008001001001KA1240M+02771MA1999999097021MD1999999+0171REMSYN088AAXX  09004 82784 32595 80901 10234 20205 39702 40172 82100 333 10277 29075 55007 58017;EQDQ01+000022SCOTLCQ02  00002PRCP99
0186827840999992002060912004-07320-039300FM-12+040999999V0201401N002610075019N0200001N1+02721+01821101651ADDAA199000091GF106991061021008001001001KA1240N+02231MA1999999096971MD1999999-0121REMSYN076AAXX  09124 82784 32598 61405 10272 20182 39697 40165 86200 333 20223 59012;EQDQ01  00002PRCP99
0202827840999992002061000004-07320-039300FM-12+040999999V0201801N002110120019N0020001N1+02371+01911101541ADDAY151061AY221061GF107991071081008001001001KA1240M+03151MA1999999096871MD1999999-0151MW1021REMSYN100AAXX  10004 82784 21595 71804 10237 20191 39687 40154 70252 87800 333 10315 29064 55087 59015 69911;
0162827840999992002061012004-07320-039300FM-12+040999999V0201801N002612200019N0200001N1+02731+01821101631ADDGF104991041021008001001001KA1240N+02221MA1999999096951MD1999999-0021REMSYN082AAXX  10124 82784 22598 41805 10273 20182 39695 40163 84200 333 20222 59002 69914;
0167827840999992002061018004-07320-039300FM-12+040999999V0201401N003112200019N0200001N1+03021+01691101211ADDAA199000091GF102991021021008001001001MA1999999096561MD1999999+0031REMSYN070AAXX  10184 82784 32598 21406 10302 20169 39656 40121 82200 333 58003;EQDQ01  00002PRCP99
0208827840999992002061100004-07320-039300FM-12+040999999V0209999C000012200019N0020001N1+02121+01511101531ADDAA199000091GA1001+999999999GF100991001001999999001001KA1240M+03091MA1999999096851MD1999999-0021REMSYN082AAXX  11004 82784 32995 00000 10212 20151 39685 40153 333 10309 29060 55104 59002;EQDQ01  00002PRCP99
0186827840999992002061112004-07320-039300FM-12+040999999V0201401N002612200019N0200001N1+02691+01731101601ADDAA199000091GF101991011011008001001001KA1240N+01991MA1999999096911MD1999999-0041REMSYN076AAXX  11124 82784 32598 11405 10269 20173 39691 40160 81100 333 20199 59004;EQDQ01  00002PRCP99
0167827840999992002061118004-07320-039300FM-12+040999999V0201801N001512200019N0200001N1+03081+01601101201ADDAA199000091GF104991041021008001001001MA1999999096551MD1999999-0011REMSYN070AAXX  11184 82784 32598 41803 10308 20160 39655 40120 84200 333 59001;EQDQ01  00002PRCP99
0198827840999992002061200004-07320-039300FM-12+040999999V0201801N001012200019N0020001N1+02241+01731101491ADDAA199000091GF102991021021008001001001KA1240M+03171MA1999999096811MD1999999-0041REMSYN088AAXX  12004 82784 32595 21802 10224 20173 39681 40149 82200 333 10317 29061 55106 59004;EQDQ01  00002PRCP99
0186827840999992002061212004-07320-039300FM-12+040999999V0201401N002112200019N0200001N1+02751+01871101581ADDAA199000091GF102991021021008001001001KA1240N+02061MA1999999096901MD1999999-0011REMSYN076AAXX  12124 82784 32598 21404 10275 20187 39690 40158 82200 333 20206 59001;EQDQ01  00002PRCP99
0167827840999992002061218004-07320-039300FM-12+040999999V0201401N003110075019N0200001N1+03081+01781101231ADDAA199000091GF106991051021008001071001MA1999999096581MD1999999+0031REMSYN070AAXX  12184 82784 32598 61406 10308 20178 39658 40123 85270 333 58003;EQDQ01  00002PRCP99
0198827840999992002061300004-07320-039300FM-12+040999999V0200501N001510075019N0020001N1+02621+01931101551ADDAA199000091GF108991081051008001999999KA1240M+03201MA1999999096891MD1999999+0081REMSYN088AAXX  13004 82784 32595 80503 10262 20193 39689 40155 885// 333 10320 29059 55093 58008;EQDQ01  00002PRCP99
0214827840999992002061312004-07320-039300FM-12+040999999V0200501N001510120019N0040001N1+02441+02071101711ADDAA199000091AY121061AY221061GF106991061081008001001001KA1240N+02141MA1999999097031MD1999999+0131MW1151REMSYN082AAXX  13124 82784 31596 60503 10244 20207 39703 40171 71522 86800 333 20214 58013;EQDQ01  00002PRCP99
0186827840999992002061412004-07320-039300FM-12+040999999V0200901N003112200019N0200001N1+02751+01781101741ADDAA199000091GF102991021021008001001001KA1240N+01861MA1999999097071MD1999999+0041REMSYN076AAXX  14124 82784 32598 20906 10275 20178 39707 40174 82200 333 20186 58004;EQDQ01  00002PRCP99
0183827840999992002061418004-07320-039300FM-12+040999999V0201401N002119999999N0200001N1+03101+01621101351ADDAA199000091GF105991999021012501001001MA1999999096681MD1999999+0131REMSYN070AAXX  14184 82784 32698 51404 10310 20162 39668 40135 86200 333 58013;EQDQ01+000062SCOTLCQ02  00002PRCP99
0198827840999992002061500004-07320-039300FM-12+040999999V0201801N001010075019N0020001N1+02501+01641101631ADDAA199000091GF106991061021008001001001KA1240M+03211MA1999999096961MD1999999+0141REMSYN088AAXX  15004 82784 32595 61802 10250 20164 39696 40163 86200 333 10321 29054 55102 58014;EQDQ01  00002PRCP99
0186827840999992002061512004-07320-039300FM-12+040999999V0201401N002110450019N0200001N1+02641+01831101771ADDAA199000091GF105991021021008001061001KA1240N+01901MA1999999097091MD1999999+0021REMSYN076AAXX  15124 82784 32598 51404 10264 20183 39709 40177 82260 333 20190 58002;EQDQ01  00002PRCP99
0198827840999992002061600004-07320-039300FM-12+040999999V0201401N003110075019N0020001N1+02341+02051101751ADDAA199000091GF108991081071008001999999KA1240M+03041MA1999999097061MD1999999+0101REMSYN088AAXX  16004 82784 32595 81406 10234 20205 39706 40175 887// 333 10304 29071 55055 58010;EQDQ01  00002PRCP99
0202827840999992002061612004-07320-039300FM-12+040999999V0201401N003619999999N0200001N1+02561+01701101821ADDAA199000091GF106991999011008001001001KA1240N+02241MA1999999097131MD1999999+0041REMSYN076AAXX  16124 82784 32598 61407 10256 20170 39713 40182 82100 333 20224 58004;EQDQ01+000022SCOTLCQ02  00002PRCP99
0167827840999992002061618004-07320-039300FM-12+040999999V0200901N005112200019N0200001N1+03061+01511101531ADDAA199000091GF103991031021012501001001MA1999999096701MD1999999-0061REMSYN070AAXX  16184 82784 32698 30910 10306 20151 39670 40153 83200 333 59006;EQDQ01  00002PRCP99
0208827840999992002061700004-07320-039300FM-12+040999999V0200901N000512200019N0020001N1+02161+01611101601ADDAA199000091GA1001+999999999GF100991001001999999001001KA1240M+03131MA1999999096911MD1999999-0151REMSYN082AAXX  17004 82784 32995 00901 10216 20161 39691 40160 333 10313 29060 55092 59015;EQDQ01  00002PRCP99
0186827840999992002061712004-07320-039300FM-12+040999999V0201401N003612200019N0200001N1+02501+01601101711ADDAA199000091GF101991011011008001001001KA1240N+02111MA1999999097021MD1999999-0111REMSYN076AAXX  17124 82784 32598 11407 10250 20160 39702 40171 81100 333 20211 59011;EQDQ01  00002PRCP99
0167827840999992002061718004-07320-039300FM-12+040999999V0201401N002610120019N0200001N1+03021+01521101331ADDAA199000091GF108991081081008001999999MA1999999096671MD1999999-0031REMSYN070AAXX  17184 82784 32598 81405 10302 20152 39667 40133 888// 333 59003;EQDQ01  00002PRCP99
0208827840999992002061800004-07320-039300FM-12+040999999V0201401N001512200019N0020001N1+02381+01481101631ADDAA199000091GA1001+999999999GF100991001001999999001001KA1240M+03131MA1999999096951MD1999999+0041REMSYN082AAXX  18004 82784 32995 01403 10238 20148 39695 40163 333 10313 29050 55076 58004;EQDQ01  00002PRCP99
0186827840999992002061812004-07310-039300FM-12+040999999V0200901N003110120019N0200001N1+02481+01751101761ADDAA199000091GF107991071081008001001001KA1240N+02161MA1999999097071MD1999999+0051REMSYN076AAXX  18124 82784 32598 70906 10248 20175 39707 40176 87800 333 20216 58005;EQDQ01  00002PRCP99
0198827840999992002061900004-07310-039300FM-12+040999999V0201401N003110075019N0020001N1+02651+01541101671ADDAA199000091GF108991081051008001999999KA1240M+03131MA1999999096991MD1999999+0041REMSYN088AAXX  19004 82784 32595 81406 10265 20154 39699 40167 885// 333 10313 29052 55057 58004;EQDQ01  00002PRCP99
0186827840999992002061912004-07310-039300FM-12+040999999V0201401N002112200019N0200001N1+02831+01171101701ADDAA199000091GF101991011001017501031001KA1240N+02051MA1999999097041MD1999999-0031REMSYN076AAXX  19124 82784 32798 11404 10283 20117 39704 40170 81030 333 20205 59003;EQDQ01  00002PRCP99
0198827840999992002062000004-07310-039300FM-12+040999999V0201401N002610075019N0020001N1+02551+01711101701ADDAA199000091GF108991081071008001999999KA1240M+03261MA1999999097041MD1999999+0051REMSYN088AAXX  20004 82784 32595 81405 10255 20171 39704 40170 887// 333 10326 29047 55095 58005;EQDQ01  00002PRCP99
0186827840999992002062012004-07310-039300FM-12+040999999V0201401N003110120019N0200001N1+02461+01831101831ADDAA199000091GF106991061081008001001001KA1240N+02221MA1999999097141MD1999999+0101REMSYN076AAXX  20124 82784 32598 61406 10246 20183 39714 40183 86800 333 20222 58010;EQDQ01  00002PRCP99
0167827840999992002062018004-07310-039300FM-12+040999999V0200901N002110150019N0200001N1+02881+01861101381ADDAA199000091GF108991081081012501999999MA1999999096721MD1999999-0031REMSYN070AAXX  20184 82784 32698 80904 10288 20186 39672 40138 888// 333 59003;EQDQ01  00002PRCP99
0167827840999992002062118004-07320-039300FM-12+040999999V0201401N003610075019N0200001N1+03051+01711101361ADDAA199000091GF106991061021008001001001MA1999999096691MD1999999-0031REMSYN070AAXX  21184 82784 32598 61407 10305 20171 39669 40136 86200 333 59003;EQDQ01  00002PRCP99
0198827840999992002062200004-07320-039300FM-12+040999999V0201401N002110450019N0020001N1+02431+01861101691ADDAA199000091GF108991031071008001051999KA1240M+03161MA1999999097001MD1999999-0041REMSYN088AAXX  22004 82784 32595 81404 10243 20186 39700 40169 8375/ 333 10316 29066 55061 59004;EQDQ01  00002PRCP99
0202827840999992002062212004-07320-039300FM-12+040999999V0201401N003612200019N0200001N1+02701+01781101781ADDAA199000091GF101991999011008001001001KA1240N+02221MA1999999097101MD1999999-0051REMSYN076AAXX  22124 82784 32598 11407 10270 20178 39710 40178 82100 333 20222 59005;EQDQ01+000022SCOTLCQ02  00002PRCP99
0167827840999992002062218004-07320-039300FM-12+040999999V0201401N003110075019N0200001N1+03021+01591101401ADDAA199000091GF106991061021008001001001MA1999999096741MD1999999+0051REMSYN070AAXX  22184 82784 32598 61406 10302 20159 39674 40140 86200 333 58005;EQDQ01  00002PRCP99
0208827840999992002062300004-07320-039300FM-12+040999999V0201401N002112200019N0020001N1+02461+01581101781ADDAA199000091GA1001+999999999GF100991001001999999001001KA1240M+03071MA1999999097101MD1999999+0101REMSYN082AAXX  23004 82784 32995 01404 10246 20158 39710 40178 333 10307 29054 55082 58010;EQDQ01  00002PRCP99
0202827840999992002062312004-07320-039300FM-12+040999999V0200901N002110120019N0200001N1+02481+01701101881ADDAA199000091GF108991999081008001061001KA1240N+01941MA1999999097181MD1999999+0081REMSYN076AAXX  23124 82784 32598 80904 10248 20170 39718 40188 88860 333 20194 58008;EQDQ01+000082SCOTLCQ02  00002PRCP99
0183827840999992002062318004-07320-039300FM-12+040999999V0201401N002619999999N0200001N1+03071+01251101441ADDAA199000091GF108991999021008001001001MA1999999096781MD1999999+0041REMSYN070AAXX  23184 82784 32598 81405 10307 20125 39678 40144 84200 333 58004;EQDQ01+000042SCOTLCQ02  00002PRCP99
0208827840999992002062400004-07320-039300FM-12+040999999V0200901N002612200019N0020001N1+02421+01571101301ADDAA199000091GA1001+999999999GF100991001001999999001001KA1240M+03151MA1999999096631MD1999999-0471REMSYN082AAXX  24004 82784 32995 00905 10242 20157 39663 40130 333 10315 29053 55089 59047;EQDQ01  00002PRCP99
0214827840999992002062500004-07320-039300FM-12+040999999V0200901N001519999999N0020001N1+02461+01781101851ADDAA199000091GF105991999011008001001001KA1240M+03171MA1999999097161MD1999999+0521REMSYN088AAXX  25004 82784 32595 50903 10246 20178 39716 40185 82100 333 10317 29056 55104 58052;EQDQ01+000022SCOTLCQ02  00002PRCP99
0190827840999992002062512004-07320-039300FM-12+040999999V0201401N004612200019N0200001N1+02721+01091101961ADDAY151061AY211061GF103991011011008001031011KA1240N+02081MA1999999097271MD1999999+0031MW1011REMSYN088AAXX  25124 82784 21598 31409 10272 20109 39727 40196 70151 81131 333 20208 58003 69954;
0198827840999992002062600004-07320-039300FM-12+040999999V0200901N001010120019N0020001N1+02561+01751101891ADDAA199000091GF108991081081008001999999KA1240M+03211MA1999999097211MD1999999+0051REMSYN088AAXX  26004 82784 32595 80902 10256 20175 39721 40189 888// 333 10321 29054 55073 58005;EQDQ01  00002PRCP99
0186827840999992002062612004-07320-039300FM-12+040999999V0201401N003610450019N0200001N1+02611+01821101991ADDAA199000091GF106991041021008001021011KA1240N+02241MA1999999097301MD1999999+0031REMSYN076AAXX  26124 82784 32598 61407 10261 20182 39730 40199 84221 333 20224 58003;EQDQ01  00002PRCP99
0186827840999992002062712004-07320-039300FM-12+040999999V0201401N004611050019N0200001N1+02581+01581101941ADDAA199000091GF105991021021008001001021KA1240N+02161MA1999999097241MD1999999-0061REMSYN076AAXX  27124 82784 32598 51409 10258 20158 39724 40194 82202 333 20216 59006;EQDQ01  00002PRCP99
0167827840999992002062718004-07320-039300FM-12+040999999V0201801N003611050019N0200001N1+02991+01471101501ADDAA199000091GF106991031021008001001021MA1999999096841MD1999999-0141REMSYN070AAXX  27184 82784 32598 61807 10299 20147 39684 40150 83202 333 59014;EQDQ01  00002PRCP99
0198827840999992002062800004-07320-039300FM-12+040999999V0201401N002610075019N0020001N1+02331+01701101751ADDAA199000091GF108991081061008001999999KA1240M+03151MA1999999097061MD1999999-0141REMSYN088AAXX  28004 82784 32595 81405 10233 20170 39706 40175 886// 333 10315 29058 55086 59014;EQDQ01  00002PRCP99
0186827840999992002062812004-07320-039300FM-12+040999999V0201401N002112200019N0200001N1+02631+01621101881ADDAA199000091GF101991011011008001001001KA1240N+01981MA1999999097171MD1999999-0051REMSYN076AAXX  28124 82784 32598 11404 10263 20162 39717 40188 81100 333 20198 59005;EQDQ01  00002PRCP99
0167827840999992002062818004-07320-039300FM-12+040999999V0201401N002612200019N0200001N1+03041+01411101301ADDAA199000091GF102991021021012501001001MA1999999096641MD1999999-0201REMSYN070AAXX  28184 82784 32698 21405 10304 20141 39664 40130 82200 333 59020;EQDQ01  00002PRCP99
0208827840999992002062900004-07320-039300FM-12+040999999V0201401N001012200019N0020001N1+02441+01441101611ADDAA199000091GA1001+999999999GF100991001001999999001001KA1240M+03141MA1999999096941MD1999999-0121REMSYN082AAXX  29004 82784 32995 01402 10244 20144 39694 40161 333 10314 29051 55106 59012;EQDQ01  00002PRCP99
0186827840999992002062912004-07320-039300FM-12+040999999V0201801N002612200019N0200001N1+02651+01721101851ADDAA199000091GF101991011021008001001001KA1240N+02141MA1999999097161MD1999999-0031REMSYN076AAXX  29124 82784 32598 11805 10265 20172 39716 40185 81200 333 20214 59003;EQDQ01  00002PRCP99
0167827840999992002062918004-07320-039300FM-12+040999999V0201401N003112200019N0200001N1+03181+01441101361ADDAA199000091GF101991011021008001001001MA1999999096711MD1999999+0071REMSYN070AAXX  29184 82784 32598 11406 10318 20144 39671 40136 81200 333 58007;EQDQ01  00002PRCP99
0208827840999992002063000004-07320-039300FM-12+040999999V0201801N002612200019N0020001N1+02461+01681101701ADDAA199000091GA1001+999999999GF100991001001999999001001KA1240M+03231MA1999999097021MD1999999+0081REMSYN082AAXX  30004 82784 32995 01805 10246 20168 39702 40170 333 10323 29054 55106 58008;EQDQ01  00002PRCP99
0186827840999992002063012004-07320-039300FM-12+040999999V0200901N003110075019N0200001N1+02601+01841101921ADDAA199000091GF107991071021008001001001KA1240N+02191MA1999999097231MD1999999+0071REMSYN076AAXX  30124 82784 32598 70906 10260 20184 39723 40192 87200 333 20219 58007;EQDQ01  00002PRCP99
0167827840999992002063018004-07320-039300FM-12+040999999V0201401N003110150019N0200001N1+02821+01831101601ADDAA199000091GF106991051081012501031001MA1999999096931MD1999999+0221REMSYN070AAXX  30184 82784 32698 61406 10282 20183 39693 40160 85830 333 58022;EQDQ01  00002PRCP99
0198827840999992002070100004-07320-039300FM-12+040999999V0201801N002110120019N0020001N1+02321+01851101881ADDAA199000091GF107991071081008001001001KA1240M+02921MA1999999097181MD1999999+0161REMSYN088AAXX  01004 82784 32595 71804 10232 20185 39718 40188 87800 333 10292 29067 55081 58016;EQDQ01  00002PRCP99
0190827840999992002070112004-07320-039300FM-12+040999999V0201401N004110450019N0200001N1+02461+01901102011ADDAY151061AY221061GF106991041021008001021001KA1240N+02141MA1999999097301MD1999999+0071MW1021REMSYN088AAXX  01124 82784 21598 61408 10246 20190 39730 40201 70252 84220 333 20214 58007 69984;
0167827840999992002070118004-07320-039300FM-12+040999999V0201801N004610150019N0200001N1+02681+01781101731ADDAA199000091GF108991081081012501999999MA1999999097041MD1999999+0111REMSYN070AAXX  01184 82784 32698 81809 10268 20178 39704 40173 888// 333 58011;EQDQ01  00002PRCP99
0198827840999992002070200004-07320-039300FM-12+040999999V0201401N002110120019N0020001N1+02311+01831101901ADDAA199000091GF108991081081008001999999KA1240M+02831MA1999999097201MD1999999+0021REMSYN088AAXX  02004 82784 32595 81404 10231 20183 39720 40190 888// 333 10283 29070 55032 58002;EQDQ01  00002PRCP99
0186827840999992002070212004-07320-039300FM-12+040999999V0201401N003610120019N0200001N1+02441+01691101901ADDAA199000091GF108991081081008001999999KA1240N+01941MA1999999097201MD1999999-0101REMSYN076AAXX  02124 82784 32598 81407 10244 20169 39720 40190 888// 333 20194 59010;EQDQ01  00002PRCP99
0167827840999992002070218004-07320-039300FM-12+040999999V0201401N003610120019N0200001N1+02781+01411101541ADDAA199000091GF107991071021012501001001MA1999999096861MD1999999-0181REMSYN070AAXX  02184 82784 32698 71407 10278 20141 39686 40154 87200 333 59018;EQDQ01  00002PRCP99
0208827840999992002070300004-07320-039300FM-12+040999999V0201801N001512200019N0020001N1+02141+01411101781ADDAA199000091GA1001+999999999GF100991001001999999001001KA1240M+02941MA1999999097071MD1999999-0131REMSYN082AAXX  03004 82784 32595 01803 10214 20141 39707 40178 333 10294 29058 55090 59013;EQDQ01  00002PRCP99
0196827840999992002070312004-07320-039300FM-12+040999999V0201401N003112200019N0200001N1+02521+01581101771ADDAA199000091GA1001+999999999GF100991001001999999001001KA1240N+01801MA1999999097071MD1999999-0121REMSYN070AAXX  03124 82784 32998 01406 10252 20158 39707 40177 333 20180 59012;EQDQ01  00002PRCP99
0167827840999992002070318004-07320-039300FM-12+040999999V0201401N003110120019N0200001N1+02941+01401101391ADDAA199000091GF106991061021012501001001MA1999999096721MD1999999-0141REMSYN070AAXX  03184 82784 32698 61406 10294 20140 39672 40139 86200 333 59014;EQDQ01  00002PRCP99
0208827840999992002070400004-07320-039300FM-12+040999999V0201401N002112200019N0020001N1+02321+01531101691ADDAA199000091GA1001+999999999GF100991001001999999001001KA1240M+03101MA1999999097001MD1999999-0071REMSYN082AAXX  04004 82784 32995 01404 10232 20153 39700 40169 333 10310 29054 55104 59007;EQDQ01  00002PRCP99
0186827840999992002070412004-07320-039300FM-12+040999999V0201401N003110075019N0200001N1+02521+01491101881ADDAA199000091GF107991061061008001031001KA1240N+01901MA1999999097181MD1999999+0111REMSYN076AAXX  04124 82784 32598 71406 10252 20149 39718 40188 86630 333 20190 58011;EQDQ01  00002PRCP99
0167827840999992002070418004-07320-039300FM-12+040999999V0201401N002610150019N0200001N1+02881+01571101471ADDAA199000091GF108991081081012501999999MA1999999096791MD1999999+0071REMSYN070AAXX  04184 82784 32698 81405 10288 20157 39679 40147 888// 333 58007;EQDQ01  00002PRCP99
0198827840999992002070500004-07320-039300FM-12+040999999V0201401N002610075019N0020001N1+02461+01781101721ADDAA199000091GF108991081061008001999999KA1240M+03081MA1999999097041MD1999999+0181REMSYN088AAXX  05004 82784 32595 81405 10246 20178 39704 40172 886// 333 10308 29058 55071 58018;EQDQ01  00002PRCP99
0190827840999992002070512004-07320-039300FM-12+040999999V0200901N001510075019N0200001N1+02381+02011101821ADDAY161061AY221061GF108991081071008001999999KA1240N+02081MA1999999097121MD1999999-0061MW1021REMSYN088AAXX  05124 82784 21598 80903 10238 20201 39712 40182 70262 887// 333 20208 59006 60024;
0167827840999992002070518004-07320-039300FM-12+040999999V0201401N003612200019N0200001N1+02841+01911101321ADDAA199000091GF104991031021012501031001MA1999999096661MD1999999-0131REMSYN070AAXX  05184 82784 32698 41407 10284 20191 39666 40132 83230 333 59013;EQDQ01  00002PRCP99
0198827840999992002070600004-07320-039300FM-12+040999999V0201401N002610075019N0020001N1+02381+01951101601ADDAA199000091GF108991081001008001021999KA1240M+02921MA1999999096911MD1999999-0131REMSYN088AAXX  06004 82784 32595 81405 10238 20195 39691 40160 8802/ 333 10292 29069 55049 59013;EQDQ01  00002PRCP99
0186827840999992002070612004-07320-039300FM-12+040999999V0201401N003610075019N0200001N1+02481+01731101771ADDAA199000091GF106991061021008001001001KA1240N+02121MA1999999097081MD1999999-0041REMSYN076AAXX  06124 82784 32598 61407 10248 20173 39708 40177 86200 333 20212 59004;EQDQ01  00002PRCP99
0167827840999992002070618004-07320-039300FM-12+040999999V0201801N004110120019N0200001N1+02801+01751101381ADDAA199000091GF106991061021012501001001MA1999999096711MD1999999+0051REMSYN070AAXX  06184 82784 32698 61808 10280 20175 39671 40138 86200 333 58005;EQDQ01  00002PRCP99
0208827840999992002070700004-07320-039300FM-12+040999999V0201401N001512200019N0020001N1+02361+01561101491ADDAA199000091GA1001+999999999GF100991001001999999001001KA1240M+02951MA1999999096901MD1999999-0011REMSYN082AAXX  07004 82784 32995 01403 10236 20156 39690 40149 333 10295 29060 55094 59001;EQDQ01  00002PRCP99
0196827840999992002070712004-07320-039300FM-12+040999999V0201401N004112200019N0200001N1+02211+01481101881ADDAA199000091GA1001+999999999GF100991001001999999001001KA1240N+02031MA1999999097181MD1999999+0101REMSYN070AAXX  07124 82784 32998 01408 10221 20148 39718 40188 333 20203 58010;EQDQ01  00002PRCP99
0177827840999992002070718004-07320-039300FM-12+040999999V0201801N003612200019N0200001N1+03131+01161101321ADDAA199000091GA1001+999999999GF100991001001999999001001MA1999999096661MD1999999-0051REMSYN064AAXX  07184 82784 32998 01807 10313 20116 39666 40132 333 59005;EQDQ01  00002PRCP99
0208827840999992002070800004-07320-039300FM-12+040999999V0201401N002112200019N0020001N1+02361+01261101671ADDAA199000091GA1001+999999999GF100991001001999999001001KA1240M+03211MA1999999096981MD1999999+0081REMSYN082AAXX  08004 82784 32995 01404 10236 20126 39698 40167 333 10321 29046 55108 58008;EQDQ01  00002PRCP99
0196827840999992002070812004-07320-039300FM-12+040999999V0200501N001512200019N0200001N1+02581+01461101811ADDAA199000091GA1001+999999999GF100991001001999999001001KA1240N+01691MA1999999097121MD1999999-0031REMSYN070AAXX  08124 82784 32998 00503 10258 20146 39712 40181 333 20169 59003;EQDQ01  00002PRCP99
0167827840999992002070818004-07320-039300FM-12+040999999V0202301N002112200019N0200001N1+03301+01261101271ADDAA199000091GF102991021011012501001001MA1999999096631MD1999999-0031REMSYN070AAXX  08184 82784 32698 22304 10330 20126 39663 40127 82100 333 59003;EQDQ01  00002PRCP99
0208827840999992002070900004-07320-039300FM-12+040999999V0202301N000512200019N0020001N1+02321+01391101621ADDAA199000091GA1001+999999999GF100991001001999999001001KA1240M+03371MA1999999096941MD1999999-0041REMSYN082AAXX  09004 82784 32995 02301 10232 20139 39694 40162 333 10337 29048 55106 59004;EQDQ01  00002PRCP99
0180827840999992002070912004-07320-039300FM-12+040999999V0200901N002112200019N0200001N1+02621+01701101911ADDAA199000091GF101991999999999999999999KA1240N+01631MA1999999097211MD1999999+0091REMSYN070AAXX  09124 82784 32998 10904 10262 20170 39721 40191 333 20163 58009;EQDQ01  00002PRCP99
0198827840999992002071000004-07320-039300FM-12+040999999V0200901N001512200019N0020001N1+02701+01071101671ADDAA199000091GF101991011011008001001001KA1240M+03431MA1999999097001MD1999999+0061REMSYN088AAXX  10004 82784 32595 10903 10270 20107 39700 40167 81100 333 10343 29040 55104 58006;EQDQ01  00002PRCP99
0186827840999992002071012004-07320-039300FM-12+040999999V0201401N002612200019N0200001N1+02681+01761101911ADDAA199000091GF102991021021008001001001KA1240N+01961MA1999999098451MD1999999+0031REMSYN076AAXX  10124 82784 32598 21405 10268 20176 39845 40191 82200 333 20196 58003;EQDQ01  00002PRCP99
0183827840999992002071018004-07320-039300FM-12+040999999V0201801N002112200019N0200001N1+03321+01381101161ADDAA199000091GF102991021021012501001001MA1999999096702MD1999999+0071REMSYN070AAXX  10184 82784 32698 21804 10332 20138 39670 40116 82200 333 58007;EQDQ01+096703APOSP Q02  00002PRCP99
0190827840999992002071112004-07320-039300FM-12+040999999V0200501N001010075019N0200001N1+02281+02111101871ADDAY161061AY221061GF108991081071008001999999KA1240N+02121MA1999999097171MD1999999-0071MW1021REMSYN088AAXX  11124 82784 21598 80502 10228 20211 39717 40187 70262 887// 333 20212 59007 60584;
0171827840999992002071118004-07320-039300FM-12+040999999V0200901N001510120019N0200001N1+02901+01901101371ADDAY151061AY221061GF107991071021012501001001MA1999999096671MD1999999-0101MW1021REMSYN082AAXX  11184 82784 21698 70903 10290 20190 39667 40137 70252 87200 333 59010 69951;
0191827840999992002071212004-07320-039300FM-12+040999999V0200501N047822200019N0020001N1+02601+01651101731ADDGA1001+999999999GF100991001001999999001001KA1240N+02121MA1999999097041MD1999999+0131REMSYN076AAXX  12124 82784 22595 00593 10260 20165 39704 40173 333 20212 58013 69954;EQDQ01+004783WOSPD 
0167827840999992002071218004-07320-039300FM-12+040999999V0202301N002112200019N0200001N1+03151+01451101271ADDAA199000091GF104991041021008001001001MA1999999096671MD1999999+0001REMSYN070AAXX  12184 82784 32598 42304 10315 20145 39667 40127 84200 333 58000;EQDQ01  00002PRCP99
0208827840999992002071300004-07320-039300FM-12+040999999V0201401N001012200019N0020001N1+02331+01741101531ADDAA199000091GA1001+999999999GF100991001001999999001001KA1240M+03191MA1999999096851MD1999999-0031REMSYN082AAXX  13004 82784 32995 01402 10233 20174 39685 40153 333 10319 29058 55105 59003;EQDQ01  00002PRCP99
0186827840999992002071312004-07320-039300FM-12+040999999V0200901N001510075019N0200001N1+02391+01971101751ADDAA199000091GF106991061041008001001001KA1240N+01901MA1999999097051MD1999999+0011REMSYN076AAXX  13124 82784 32598 60903 10239 20197 39705 40175 86400 333 20190 58001;EQDQ01  00002PRCP99
0167827840999992002071318004-07320-039300FM-12+040999999V0200901N001512200019N0200001N1+02981+01591101281ADDAA199000091GF103991031021008001001001MA1999999096621MD1999999-0051REMSYN070AAXX  13184 82784 32598 30903 10298 20159 39662 40128 83200 333 59005;EQDQ01  00002PRCP99
0186827840999992002071412004-07320-039300FM-12+040999999V0200501N001012200019N0200001N1+02551+01861101731ADDAA199000091GF101991011011008001001001KA1240N+01781MA1999999097031MD1999999-0021REMSYN076AAXX  14124 82784 32598 10502 10255 20186 39703 40173 81100 333 20178 59002;EQDQ01  00002PRCP99
0167827840999992002071418004-07320-039300FM-12+040999999V0200901N001512200019N0200001N1+03241+01581101201ADDAA199000091GF102991021011012501001001MA1999999096551MD1999999-0071REMSYN070AAXX  14184 82784 32698 20903 10324 20158 39655 40120 82100 333 59007;EQDQ01  00002PRCP99
0208827840999992002071500004-07320-039300FM-12+040999999V0201801N000512200019N0020001N1+02361+01831101531ADDAA199000091GA1001+999999999GF100991001001999999001001KA1240M+03321MA1999999096851MD1999999-0011REMSYN082AAXX  15004 82784 32995 01801 10236 20183 39685 40153 333 10332 29062 55103 59001;EQDQ01  00002PRCP99
0186827840999992002071512004-07320-039300FM-12+040999999V0200901N001510075019N0200001N1+02501+02001101871ADDAA199000091GF106991061071008001999999KA1240N+02001MA1999999097171MD1999999+0141REMSYN076AAXX  15124 82784 32598 60903 10250 20200 39717 40187 867// 333 20200 58014;EQDQ01  00002PRCP99
0183827840999992002071618004-07320-039300FM-12+040999999V0201401N002112200019N0200001N1+03201+01591101321ADDAA199000091GF103991999011012501001001MA1999999096681MD1999999+0021REMSYN070AAXX  16184 82784 32698 31404 10320 20159 39668 40132 82100 333 58002;EQDQ01+000022SCOTLCQ02  00002PRCP99
0214827840999992002071700004-07320-039300FM-12+040999999V0201801N006212200019N0020001N1+02621+01561101651ADDAA199000091GF101991999011008001001001KA1240M+03271MA1999999096941MD1999999+0031REMSYN088AAXX  17004 82784 32595 11812 10262 20156 39694 40165 82100 333 10327 29050 55104 58003;EQDQ01+000022SCOTLCQ02  00002PRCP99
0186827840999992002071712004-07320-039300FM-12+040999999V0201401N003112200019N0200001N1+02641+01751101831ADDAA199000091GF102991021021008001001001KA1240N+02161MA1999999097151MD1999999+0011REMSYN076AAXX  17124 82784 32598 21406 10264 20175 39715 40183 82200 333 20216 58001;EQDQ01  00002PRCP99
0167827840999992002071718004-07320-039300FM-12+040999999V0201401N002112200019N0200001N1+03141+01541101381ADDAA199000091GF102991021021008001001001MA1999999096731MD1999999+0051REMSYN070AAXX  17184 82784 32598 21404 10314 20154 39673 40138 82200 333 58005;EQDQ01  00002PRCP99
0198827840999992002071800004-07320-039300FM-12+040999999V0201801N001010075019N0020001N1+02391+01581101571ADDAA199000091GF107991071021008001001001KA1240M+03221MA1999999096891MD1999999-0051REMSYN088AAXX  18004 82784 32595 71802 10239 20158 39689 40157 87200 333 10322 29054 55102 59005;EQDQ01  00002PRCP99
0196827840999992002071812004-07320-039300FM-12+040999999V0203201N000512200019N0200001N1+02761+01561101791ADDAA199000091GA1001+999999999GF100991001001999999001001KA1240N+02041MA1999999097111MD1999999-0041REMSYN070AAXX  18124 82784 32998 03201 10276 20156 39711 40179 333 20204 59004;EQDQ01  00002PRCP99
0167827840999992002071818004-07320-039300FM-12+040999999V0200901N001012200019N0200001N1+03261+01331101301ADDAA199000091GF103991031021012501001001MA1999999096591MD1999999-0071REMSYN070AAXX  18184 82784 32698 30902 10326 20133 39659 40130 83200 333 59007;EQDQ01  00002PRCP99
0208827840999992002071900004-07320-039300FM-12+040999999V0201401N002112200019N0020001N1+02581+01431101541ADDAA199000091GA1001+999999999GF100991001001999999001001KA1240M+03331MA1999999096881MD1999999+0001REMSYN082AAXX  19004 82784 32995 01404 10258 20143 39688 40154 333 10333 29044 55106 58000;EQDQ01  00002PRCP99
0186827840999992002071912004-07320-039300FM-12+040999999V0201401N003112200019N0200001N1+02561+01641101781ADDAA199000091GF102991021021008001001001KA1240N+02111MA1999999097101MD1999999-0011REMSYN076AAXX  19124 82784 32598 21406 10256 20164 39710 40178 82200 333 20211 59001;EQDQ01  00002PRCP99
0167827840999992002071918004-07320-039300FM-12+040999999V0201401N003612200019N0200001N1+03181+01401101251ADDAA199000091GF101991011011008001001001MA1999999096611MD1999999-0051REMSYN070AAXX  19184 82784 32598 11407 10318 20140 39661 40125 81100 333 59005;EQDQ01  00002PRCP99
0208827840999992002072000004-07320-039300FM-12+040999999V0201401N002612200019N0020001N1+02461+01521101581ADDAA199000091GA1001+999999999GF100991001001999999001001KA1240M+03231MA1999999096901MD1999999+0021REMSYN082AAXX  20004 82784 32995 01405 10246 20152 39690 40158 333 10323 29051 55106 58002;EQDQ01  00002PRCP99
0180827840999992002072012004-07320-039300FM-12+040999999V0201401N003112200019N0200001N1+02491+01481101881ADDAA199000091GF102991999999999999999999KA1240N+01961MA1999999097191MD1999999+0091REMSYN070AAXX  20124 82784 32998 21406 10249 20148 39719 40188 333 20196 58009;EQDQ01  00002PRCP99
0167827840999992002072018004-07320-039300FM-12+040999999V0201401N003612200019N0200001N1+03131+01411101281ADDAA199000091GF101991011011008001001001MA1999999096631MD1999999+0021REMSYN070AAXX  20184 82784 32598 11407 10313 20141 39663 40128 81100 333 58002;EQDQ01  00002PRCP99
0208827840999992002072100004-07320-039300FM-12+040999999V0200901N001012200019N0020001N1+02441+01531101561ADDAA199000091GA1001+999999999GF100991001001999999001001KA1240M+03191MA1999999096881MD1999999-0021REMSYN082AAXX  21004 82784 32995 00902 10244 20153 39688 40156 333 10319 29050 55106 59002;EQDQ01  00002PRCP99
0186827840999992002072112004-07320-039300FM-12+040999999V0201801N003612200019N0200001N1+02481+01621101721ADDAA199000091GF102991011011008001011001KA1240N+02061MA1999999097031MD1999999-0161REMSYN076AAXX  21124 82784 32598 21807 10248 20162 39703 40172 81110 333 20206 59016;EQDQ01  00002PRCP99
0177827840999992002072118004-07320-039300FM-12+040999999V0200901N002612200019N0200001N1+03141+01271101171ADDAA199000091GA1001+999999999GF100991001001999999001001MA1999999096531MD1999999-0101REMSYN064AAXX  21184 82784 32998 00905 10314 20127 39653 40117 333 59010;EQDQ01  00002PRCP99
0186827840999992002072312004-07320-039300FM-12+040999999V0200901N001010075019N0200001N1+02481+01831101811ADDAA199000091GF106991061021008001001001KA1240N+02081MA1999999097111MD1999999+0011REMSYN076AAXX  23124 82784 32598 60902 10248 20183 39711 40181 86200 333 20208 58001;EQDQ01  00002PRCP99
0167827840999992002072318004-07320-039300FM-12+040999999V0200901N001512200019N0200001N1+03251+01511101231ADDAA199000091GF103991031021008001001001MA1999999096601MD1999999-0071REMSYN070AAXX  23184 82784 32598 30903 10325 20151 39660 40123 83200 333 59007;EQDQ01  00002PRCP99
0208827840999992002072400004-07320-039300FM-12+040999999V0201401N003112200019N0020001N1+02641+01481101471ADDAA199000091GA1001+999999999GF100991001001999999001001KA1240M+03331MA1999999096791MD1999999-0061REMSYN082AAXX  24004 82784 32995 01406 10264 20148 39679 40147 333 10333 29050 55095 59006;EQDQ01  00002PRCP99
0186827840999992002072412004-07320-039300FM-12+040999999V0201801N002112200019N0200001N1+02661+01791101711ADDAA199000091GF102991021011008001001001KA1240N+02181MA1999999097041MD1999999-0071REMSYN076AAXX  24124 82784 32598 21804 10266 20179 39704 40171 82100 333 20218 59007;EQDQ01  00002PRCP99
0167827840999992002072418004-07320-039300FM-12+040999999V0200901N001512200019N0200001N1+03211+01551101251ADDAA199000091GF103991031021008001001001MA1999999096611MD1999999+0011REMSYN070AAXX  24184 82784 32598 30903 10321 20155 39661 40125 83200 333 58001;EQDQ01  00002PRCP99
0198827840999992002072500004-07320-039300FM-12+040999999V0201401N001010075019N0020001N1+02721+01651101631ADDAA199000091GF108991081051008001999999KA1240M+03321MA1999999096971MD1999999+0191REMSYN088AAXX  25004 82784 32595 81402 10272 20165 39697 40163 885// 333 10332 29050 55102 58019;EQDQ01  00002PRCP99
0186827840999992002072512004-07320-039300FM-12+040999999V0201401N001512200019N0200001N1+02631+01691101811ADDAA199000091GF102991021021008001001001KA1240N+02631MA1999999097141MD1999999+0101REMSYN076AAXX  25124 82784 32598 21403 10263 20169 39714 40181 82200 333 20263 58010;EQDQ01  00002PRCP99
0167827840999992002072518004-07320-039300FM-12+040999999V0200901N003112200019N0200001N1+03111+01681101441ADDAA199000091GF103991031021008001001001MA1999999096791MD1999999+0181REMSYN070AAXX  25184 82784 32598 30906 10311 20168 39679 40144 83200 333 58018;EQDQ01  00002PRCP99
0198827840999992002072600004-07320-039300FM-12+040999999V0201401N002110075019N0020001N1+02601+01601101681ADDAA199000091GF107991071051008001001001KA1240M+03181MA1999999097011MD1999999+0041REMSYN088AAXX  26004 82784 32595 71404 10260 20160 39701 40168 87500 333 10318 29052 55089 58004;EQDQ01  00002PRCP99
0186827840999992002072612004-07320-039300FM-12+040999999V0201801N004610075019N0200001N1+02521+01741101841ADDAA199000091GF106991061041008001001001KA1240N+02221MA1999999097161MD1999999+0021REMSYN076AAXX  26124 82784 32598 61809 10252 20174 39716 40184 86400 333 20222 58002;EQDQ01  00002PRCP99
0183827840999992002072618004-07320-039300FM-12+040999999V0200901N003619999999N0200001N1+03201+01321101361ADDAA199000091GF107991999011012501001001MA1999999096711MD1999999-0081REMSYN070AAXX  26184 82784 32698 70907 10320 20132 39671 40136 82100 333 59008;EQDQ01+000022SCOTLCQ02  00002PRCP99
0198827840999992002072700004-07320-039300FM-12+040999999V0201401N003110120019N0020001N1+02721+01681101661ADDAA199000091GF108991081081008001999999KA1240M+03251MA1999999096991MD1999999-0021REMSYN088AAXX  27004 82784 32595 81406 10272 20168 39699 40166 888// 333 10325 29050 55103 59002;EQDQ01  00002PRCP99
0190827840999992002072712004-07320-039300FM-12+040999999V0200901N002610075019N0100001N1+02381+02211101881ADDAY151061AY221061GF106991061071008001001001KA1240N+02141MA1999999097191MD1999999+0031MW1021REMSYN088AAXX  27124 82784 21597 60905 10238 20221 39719 40188 70252 86700 333 20214 58003 60164;
0167827840999992002072718004-07320-039300FM-12+040999999V0200901N002112200019N0200001N1+03021+01801101481ADDAA199000091GF103991031021008001031001MA1999999096821MD1999999+0111REMSYN070AAXX  27184 82784 32598 30904 10302 20180 39682 40148 83230 333 58011;EQDQ01  00002PRCP99
0186827840999992002072812004-07320-039300FM-12+040999999V0201801N002610075019N0200001N1+02661+01971101931ADDAA199000091GF106991061021008001001001KA1240N+02221MA1999999097231MD1999999+0041REMSYN076AAXX  28124 82784 32598 61805 10266 20197 39723 40193 86200 333 20222 58004;EQDQ01  00002PRCP99
0167827840999992002072818004-07320-039300FM-12+040999999V0201401N003112200019N0200001N1+03201+01631101531ADDAA199000091GF102991021011012501001001MA1999999096871MD1999999+0051REMSYN070AAXX  28184 82784 32698 21406 10320 20163 39687 40153 82100 333 58005;EQDQ01  00002PRCP99
0214827840999992002072900004-07320-039300FM-12+040999999V0200901N002112200019N0020001N1+02441+01861101771ADDAA199000091GF101991999011008001001001KA1240M+03241MA1999999097091MD1999999+0051REMSYN088AAXX  29004 82784 32595 10904 10244 20186 39709 40177 82100 333 10324 29061 55098 58005;EQDQ01+000022SCOTLCQ02  00002PRCP99
0186827840999992002072912004-07320-039300FM-12+040999999V0200901N002112200019N0200001N1+02691+01831101901ADDAA199000091GF101991011021008001001001KA1240N+01991MA1999999097221MD1999999-0011REMSYN076AAXX  29124 82784 32598 10904 10269 20183 39722 40190 81200 333 20199 59001;EQDQ01  00002PRCP99
0167827840999992002072918004-07320-039300FM-12+040999999V0200901N003112200019N0200001N1+03251+01511101431ADDAA199000091GF103991031021008001001001MA1999999096781MD1999999+0091REMSYN070AAXX  29184 82784 32598 30906 10325 20151 39678 40143 83200 333 58009;EQDQ01  00002PRCP99
0186827840999992002073012004-07320-039300FM-12+040999999V0201401N003112200019N0200001N1+02571+01801101981ADDAA199000091GF103991031021008001001001KA1240N+02141MA1999999097281MD1999999+0061REMSYN076AAXX  30124 82784 32598 31406 10257 20180 39728 40198 83200 333 20214 58006;EQDQ01  00002PRCP99
0167827840999992002073018004-07320-039300FM-12+040999999V0200901N003112200019N0200001N1+03081+01441101531ADDAA199000091GF102991021021012501001001MA1999999096871MD1999999+0091REMSYN070AAXX  30184 82784 32698 20906 10308 20144 39687 40153 82200 333 58009;EQDQ01  00002PRCP99
0186827840999992002073112004-07320-039300FM-12+040999999V0200901N003612200019N0200001N1+02651+01541101851ADDAA199000091GF101991011011008001001001KA1240N+01901MA1999999097161MD1999999-0121REMSYN076AAXX  31124 82784 32598 10907 10265 20154 39716 40185 81100 333 20190 59012;EQDQ01  00002PRCP99
0177827840999992002073118004-07320-039300FM-12+040999999V0201401N003112200019N0200001N1+03161+00791101261ADDAA199000091GA1001+999999999GF100991001001999999001001MA1999999096611MD1999999-0261REMSYN064AAXX  31184 82784 32998 01406 10316 20079 39661 40126 333 59026;EQDQ01  00002PRCP99
0186827840999992002080112004-07320-039300FM-12+040999999V0200901N001512200019N0200001N1+02621+01781101661ADDAA199000091GF101991011011008001001001KA1240N+01981MA1999999096981MD1999999-0181REMSYN076AAXX  01124 82784 32598 10903 10262 20178 39698 40166 81100 333 20198 59018;EQDQ01  00002PRCP99
0167827840999992002080118004-07320-039300FM-12+040999999V0200901N002110120019N0200001N1+03201+01371101211ADDAA199000091GF106991061021012501001001MA1999999096561MD1999999-0051REMSYN070AAXX  01184 82784 32698 60904 10320 20137 39656 40121 86200 333 59005;EQDQ01  00002PRCP99
0198827840999992002080200004-07320-039300FM-12+040999999V0200501N000512200019N0020001N1+02401+01771101571ADDAA199000091GF103991031021008001001001KA1240M+03291MA1999999096891MD1999999+0061REMSYN088AAXX  02004 82784 32595 30501 10240 20177 39689 40157 83200 333 10329 29057 55100 58006;EQDQ01  00002PRCP99
0186827840999992002080212004-07320-039300FM-12+040999999V0201401N001510075019N0200001N1+02581+01941101881ADDAA199000091GF106991061021008001001001KA1240N+02301MA1999999097191MD1999999+0211REMSYN076AAXX  02124 82784 32598 61403 10258 20194 39719 40188 86200 333 20230 58021;EQDQ01  00002PRCP99
0167827840999992002080218004-07320-039300FM-12+040999999V0200901N002610075019N0200001N1+03251+01671101401ADDAA199000091GF105991051041008001021001MA1999999096761MD1999999-0201REMSYN070AAXX  02184 82784 32598 50905 10325 20167 39676 40140 85420 333 59020;EQDQ01  00002PRCP99
0198827840999992002080300004-07320-039300FM-12+040999999V0201401N001010075019N0020001N1+02651+01771101721ADDAA199000091GF108991081061008001999999KA1240M+03311MA1999999097051MD1999999+0161REMSYN088AAXX  03004 82784 32595 81402 10265 20177 39705 40172 886// 333 10331 29056 55082 58016;EQDQ01  00002PRCP99
0202827840999992002080312004-07320-039300FM-12+040999999V0200501N001512200019N0200001N1+02661+01851101911ADDAA199000091GF102991999031008001001001KA1240N+02121MA1999999097231MD1999999+0041REMSYN076AAXX  03124 82784 32598 20503 10266 20185 39723 40191 83300 333 20212 58004;EQDQ01+000032SCOTLCQ02  00002PRCP99
0167827840999992002080318004-07320-039300FM-12+040999999V0201401N003612200019N0200001N1+03261+01421101351ADDAA199000091GF103991031021008001001001MA1999999096711MD1999999+0051REMSYN070AAXX  03184 82784 32598 31407 10326 20142 39671 40135 83200 333 58005;EQDQ01  00002PRCP99
0198827840999992002080400004-07320-039300FM-12+040999999V0201801N003612200019N0020001N1+02681+01491101551ADDAA199000091GF101991011011008001001001KA1240M+03291MA1999999096891MD1999999-0161REMSYN088AAXX  04004 82784 32595 11807 10268 20149 39689 40155 81100 333 10329 29047 55100 59016;EQDQ01  00002PRCP99
0196827840999992002080412004-07320-039300FM-12+040999999V0200901N002612200019N0200001N1+02561+01351101861ADDAA199000091GA1001+999999999GF100991001001999999001001KA1240N+01861MA1999999097181MD1999999-0051REMSYN070AAXX  04124 82784 32998 00905 10256 20135 39718 40186 333 20186 59005;EQDQ01  00002PRCP99
0177827840999992002080418004-07320-039300FM-12+040999999V0201401N003112200019N0200001N1+03181+00751101291ADDAA199000091GA1001+999999999GF100991001001999999001001MA1999999096641MD1999999-0071REMSYN064AAXX  04184 82784 32998 01406 10318 20075 39664 40129 333 59007;EQDQ01  00002PRCP99
0208827840999992002080500004-07320-039300FM-12+040999999V0201801N004112200019N0020001N1+02511+01191101521ADDAA199000091GA1001+999999999GF100991001001999999001001KA1240M+03231MA1999999096851MD1999999-0081REMSYN082AAXX  05004 82784 32995 01808 10251 20119 39685 40152 333 10323 29039 55105 59008;EQDQ01  00002PRCP99
0186827840999992002080512004-07320-039300FM-12+040999999V0200901N002612200019N0200001N1+02561+01701101771ADDAA199000091GF101991011021008001001001KA1240N+01671MA1999999097091MD1999999-0091REMSYN076AAXX  05124 82784 32598 10905 10256 20170 39709 40177 81200 333 20167 59009;EQDQ01  00002PRCP99
0177827840999992002080518004-07320-039300FM-12+040999999V0201401N002612200019N0200001N1+03181+01311101231ADDAA199000091GA1001+999999999GF100991001001999999001001MA1999999096571MD1999999-0071REMSYN064AAXX  05184 82784 32998 01405 10318 20131 39657 40123 333 59007;EQDQ01  00002PRCP99
0208827840999992002080600004-07320-039300FM-12+040999999V0201801N002112200019N0020001N1+02161+01271101521ADDAA199000091GA1001+999999999GF100991001001999999001001KA1240M+03211MA1999999096831MD1999999-0021REMSYN082AAXX  06004 82784 32995 01804 10216 20127 39683 40152 333 10321 29051 55104 59002;EQDQ01  00002PRCP99
0196827840999992002080612004-07320-039300FM-12+040999999V0201401N001012200019N0200001N1+02561+01591101781ADDAA199000091GA1001+999999999GF100991001001999999001001KA1240N+01611MA1999999097081MD1999999-0011REMSYN070AAXX  06124 82784 32998 01402 10256 20159 39708 40178 333 20161 59001;EQDQ01  00002PRCP99
0167827840999992002080618004-07320-039300FM-12+040999999V0200501N002612200019N0200001N1+03181+00991101271ADDAA199000091GF101991011011008001001001MA1999999096611MD1999999+0041REMSYN070AAXX  06184 82784 32598 10505 10318 20099 39661 40127 81100 333 58004;EQDQ01  00002PRCP99
0208827840999992002080700004-07320-039300FM-12+040999999V0200501N001512200019N0020001N1+02431+01121101521ADDAA199000091GA1001+999999999GF100991001001999999001001KA1240M+03251MA1999999096851MD1999999+0021REMSYN082AAXX  07004 82784 32995 00503 10243 20112 39685 40152 333 10325 29042 55106 58002;EQDQ01  00002PRCP99
0196827840999992002080712004-07320-039300FM-12+040999999V0200901N003112200019N0200001N1+02581+01431101901ADDAA199000091GA1001+999999999GF100991001001999999001001KA1240N+01661MA1999999097211MD1999999+0131REMSYN070AAXX  07124 82784 32998 00906 10258 20143 39721 40190 333 20166 58013;EQDQ01  00002PRCP99
0177827840999992002080718004-07320-039300FM-12+040999999V0200901N003612200019N0200001N1+03201+01121101271ADDAA199000091GA1001+999999999GF100991001001999999001001MA1999999096621MD1999999+0011REMSYN064AAXX  07184 82784 32998 00907 10320 20112 39662 40127 333 58001;EQDQ01  00002PRCP99
0208827840999992002080800004-07320-039300FM-12+040999999V0200901N002612200019N0020001N1+02601+01571101551ADDAA199000091GA1001+999999999GF100991001001999999001001KA1240M+03251MA1999999096881MD1999999+0031REMSYN082AAXX  08004 82784 32995 00905 10260 20157 39688 40155 333 10325 29046 55107 58003;EQDQ01  00002PRCP99
0186827840999992002080812004-07320-039300FM-12+040999999V0201401N002110075019N0200001N1+02401+01551101851ADDAA199000091GF106991051021008001011001KA1240N+02041MA1999999097161MD1999999-0051REMSYN076AAXX  08124 82784 32598 61404 10240 20155 39716 40185 85210 333 20204 59005;EQDQ01  00002PRCP99
0183827840999992002080818004-07320-039300FM-12+040999999V0201401N003612200019N0200001N1+03151+01141101291ADDAA199000091GF101991999011008001021001MA1999999096641MD1999999+0021REMSYN070AAXX  08184 82784 32598 11407 10315 20114 39664 40129 82120 333 58002;EQDQ01+000022SCOTLCQ02  00002PRCP99
0208827840999992002080900004-07320-039300FM-12+040999999V0201401N005712200019N0020001N1+02541+01161101541ADDAA199000091GA1001+999999999GF100991001001999999001001KA1240M+03191MA1999999096861MD1999999-0021REMSYN082AAXX  09004 82784 32995 01411 10254 20116 39686 40154 333 10319 29043 55090 59002;EQDQ01  00002PRCP99
0186827840999992002080912004-07320-039300FM-12+040999999V0201401N003112200019N0200001N1+02541+01541101791ADDAA199000091GF101991011011008001001001KA1240N+01971MA1999999097111MD1999999-0051REMSYN076AAXX  09124 82784 32598 11406 10254 20154 39711 40179 81100 333 20197 59005;EQDQ01  00002PRCP99
0183827840999992002080918004-07320-039300FM-12+040999999V0200901N002619999999N0200001N1+03121+01481101351ADDAA199000091GA1091+999999999GF109991091999999999999999MA1999999096691MD1999999+0051REMSYN070AAXX  09184 82784 32698 90905 10312 20148 39669 40135 89200 333 58005;EQDQ01  00002PRCP99
0198827840999992002081000004-07320-039300FM-12+040999999V0200901N001012200019N0020001N1+02421+01491101631ADDAA199000091GF101991011021017501001001KA1240M+03171MA1999999096951MD1999999+0091REMSYN088AAXX  10004 82784 32795 10902 10242 20149 39695 40163 81200 333 10317 29051 55089 58009;EQDQ01  00002PRCP99
0186827840999992002081012004-07320-039300FM-12+040999999V0201401N002612200019N0200001N1+02521+01551101871ADDAA199000091GF101991011011008001001001KA1240N+02001MA1999999097171MD1999999+0061REMSYN076AAXX  10124 82784 32598 11405 10252 20155 39717 40187 81100 333 20200 58006;EQDQ01  00002PRCP99
0177827840999992002081018004-07320-039300FM-12+040999999V0201401N004612200019N0200001N1+03171+01341101281ADDAA199000091GA1001+999999999GF100991001001999999001001MA1999999096631MD1999999-0061REMSYN064AAXX  10184 82784 32598 01409 10317 20134 39663 40128 333 59006;EQDQ01  00002PRCP99
0208827840999992002081100004-07320-039300FM-12+040999999V0201401N004112200019N0020001N1+02461+01221101541ADDAA199000091GA1001+999999999GF100991001001999999001001KA1240M+03231MA1999999096861MD1999999-0091REMSYN082AAXX  11004 82784 32995 01408 10246 20122 39686 40154 333 10323 29045 55110 59009;EQDQ01  00002PRCP99
0212827840999992002081112004-07320-039300FM-12+040999999V0201401N002112200019N0200001N1+02481+01401101941ADDAA199000091GA1001+999999999GF100991001001999999001001KA1240N+99999MA1999999097241MD1999999+0071REMSYN070AAXX  11124 82784 32998 01404 10248 20140 39724 40194 333 20291 58007;EQDQ01  00002PRCP99Q02 +02912ATMN  
0167827840999992002081118004-07320-039300FM-12+040999999V0200901N002112200019N0200001N1+03101+01371101431ADDAA199000091GF103991031011008001001001MA1999999096771MD1999999+0141REMSYN070AAXX  11184 82784 32598 30904 10310 20137 39677 40143 83100 333 58014;EQDQ01  00002PRCP99
0208827840999992002081200004-07320-039300FM-12+040999999V0201401N004612200019N0020001N1+02471+01761101641ADDAA199000091GA1001+999999999GF100991001001999999001001KA1240M+03211MA1999999096961MD1999999+0101REMSYN082AAXX  12004 82784 32995 01409 10247 20176 39696 40164 333 10321 29054 55109 58010;EQDQ01  00002PRCP99
0185827840999992002081212004-07320-039300FM-12+040999999V0201401N003110120019N0200001N1+02501+01721101941ADDAA199000091GF108991081081008001999999KA1999N+02221MA1999999097251MD1999999+0011REMSYN075AAXX  12124 82784 32598 81406 10250 20172 39725 40194 888//333 20222 58001;EQDQ01  00002PRCP99
0167827840999992002081218004-07320-039300FM-12+040999999V0201801N003610075019N0200001N1+03051+01601101471ADDAA199000091GF106991061041008001001001MA1999999096811MD1999999+0041REMSYN070AAXX  12184 82784 32598 61807 10305 20160 39681 40147 86400 333 58004;EQDQ01  00002PRCP99
0198827840999992002081300004-07320-039300FM-12+040999999V0201401N001512200019N0020001N1+02441+01641101711ADDAA199000091GF101991011011008001001001KA1240M+03111MA1999999097021MD1999999+0061REMSYN088AAXX  13004 82784 32595 11403 10244 20164 39702 40171 81100 333 10311 29056 55040 58006;EQDQ01  00002PRCP99
0186827840999992002081312004-07320-039300FM-12+040999999V0200901N003110450019N0200001N1+02611+01761101861ADDAA199000091GF107991031021008001061001KA1240N+02111MA1999999097121MD1999999-0081REMSYN076AAXX  13124 82784 32598 70906 10261 20176 39712 40186 83260 333 20211 59008;EQDQ01  00002PRCP99
0167827840999992002081318004-07320-039300FM-12+040999999V0200901N002110075019N0200001N1+03021+01511101441ADDAA199000091GF105991051021008001001001MA1999999096781MD1999999-0031REMSYN070AAXX  13184 82784 32598 50904 10302 20151 39678 40144 85200 333 59003;EQDQ01  00002PRCP99
0186827840999992002081412004-07320-039300FM-12+040999999V0200901N002112200019N0020001N1+02651+01721101961ADDAA199000091GF104991041021008001001001KA1240N+02041MA1999999097261MD1999999+0091REMSYN076AAXX  14124 82784 32595 40904 10265 20172 39726 40196 84200 333 20204 58009;EQDQ01  00002PRCP99
0167827840999992002081418004-07320-039300FM-12+040999999V0200901N002110120019N0200001N1+03291+01491101361ADDAA199000091GF105991051081008001021001MA1999999096721MD1999999-0061REMSYN070AAXX  14184 82784 32598 50904 10329 20149 39672 40136 85820 333 59006;EQDQ01  00002PRCP99
0198827840999992002081500004-07320-039300FM-12+040999999V0201401N003610075019N0020001N1+02661+01741101671ADDAA199000091GF108991071021008001061999KA1240M+03371MA1999999097001MD1999999+0041REMSYN088AAXX  15004 82784 32595 81407 10266 20174 39700 40167 8726/ 333 10337 29051 55099 58004;EQDQ01  00002PRCP99
0186827840999992002081512004-07320-039300FM-12+040999999V0201401N003612200019N0200001N1+02721+01711101871ADDAA199000091GF102991021021008001001001KA1240N+02201MA1999999097201MD1999999-0061REMSYN076AAXX  15124 82784 32598 21407 10272 20171 39720 40187 82200 333 20220 59006;EQDQ01  00002PRCP99
0167827840999992002081518004-07320-039300FM-12+040999999V0201401N002612200019N0200001N1+03261+01471101421ADDAA199000091GF103991031081008001031001MA1999999096781MD1999999+0061REMSYN070AAXX  15184 82784 32598 31405 10326 20147 39678 40142 83830 333 58006;EQDQ01  00002PRCP99
0198827840999992002081600004-07320-039300FM-12+040999999V0201401N005710120019N0020001N1+02721+01771101671ADDAA199000091GF108991081081008001999999KA1240M+03341MA1999999097011MD1999999+0011REMSYN088AAXX  16004 82784 32595 81411 10272 20177 39701 40167 888// 333 10334 29050 55108 58001;EQDQ01  00002PRCP99
0190827840999992002081612004-07320-039300FM-12+040999999V0200901N003612200019N0200001N1+02571+01751101931ADDAY151061AY211061GF103991021021008001061001KA1240N+02121MA1999999097251MD1999999+0051MW1011REMSYN088AAXX  16124 82784 21598 30907 10257 20175 39725 40193 70151 82260 333 20212 58005 69964;
0167827840999992002081618004-07320-039300FM-12+040999999V0201401N003610120019N0200001N1+02991+01681101481ADDAA199000091GF106991051081008001031001MA1999999096831MD1999999+0051REMSYN070AAXX  16184 82784 32598 61407 10299 20168 39683 40148 85830 333 58005;EQDQ01  00002PRCP99
0208827840999992002081700004-07320-039300FM-12+040999999V0201401N004112200019N0020001N1+02521+01581101751ADDAA199000091GA1001+999999999GF100991001001999999001001KA1240M+03131MA1999999097071MD1999999+0061REMSYN082AAXX  17004 82784 32995 01408 10252 20158 39707 40175 333 10313 29054 55078 58006;EQDQ01  00002PRCP99
0186827840999992002081712004-07320-039300FM-12+040999999V0201401N003610075019N0200001N1+02551+01631101921ADDAA199000091GF106991061021008001001001KA1240N+02001MA1999999097231MD1999999-0021REMSYN076AAXX  17124 82784 32598 61407 10255 20163 39723 40192 86200 333 20200 59002;EQDQ01  00002PRCP99
0167827840999992002081718004-07320-039300FM-12+040999999V0201401N004612200019N0200001N1+03101+01581101421ADDAA199000091GF102991021011008001001001MA1999999096761MD1999999-0071REMSYN070AAXX  17184 82784 32598 21409 10310 20158 39676 40142 82100 333 59007;EQDQ01  00002PRCP99
0208827840999992002081800004-07320-039300FM-12+040999999V0201401N002612200019N0020001N1+02501+01501101651ADDAA199000091GA1001+999999999GF100991001001999999001001KA1240M+03141MA1999999096971MD1999999-0101REMSYN082AAXX  18004 82784 32995 01405 10250 20150 39697 40165 333 10314 29051 55109 59010;EQDQ01  00002PRCP99
0186827840999992002081812004-07320-039300FM-12+040999999V0201401N003110075019N0200001N1+02501+01721101841ADDAA199000091GF106991061021008001001001KA1240N+02061MA1999999097151MD1999999-0081REMSYN076AAXX  18124 82784 32598 61406 10250 20172 39715 40184 86200 333 20206 59008;EQDQ01  00002PRCP99
0167827840999992002081818004-07320-039300FM-12+040999999V0201401N002612200019N0200001N1+03031+01391101381ADDAA199000091GF104991041021008001001001MA1999999096721MD1999999-0041REMSYN070AAXX  18184 82784 32598 41405 10303 20139 39672 40138 84200 333 59004;EQDQ01  00002PRCP99
0208827840999992002081900004-07320-039300FM-12+040999999V0201801N001512200019N0020001N1+02381+01481101571ADDAA199000091GA1001+999999999GF100991001001999999001001KA1240M+03101MA1999999096891MD1999999-0081REMSYN082AAXX  19004 82784 32995 01803 10238 20148 39689 40157 333 10310 29054 55105 59008;EQDQ01  00002PRCP99
0186827840999992002081912004-07320-039300FM-12+040999999V0201401N003612200019N0200001N1+02601+01631101821ADDAA199000091GF102991011021008001061001KA1240N+02121MA1999999097131MD1999999-0021REMSYN076AAXX  19124 82784 32598 21407 10260 20163 39713 40182 81260 333 20212 59002;EQDQ01  00002PRCP99
0167827840999992002081918004-07320-039300FM-12+040999999V0201401N002112200019N0200001N1+03041+01411101401ADDAA199000091GF103991031081008001001001MA1999999096741MD1999999+0021REMSYN070AAXX  19184 82784 32598 31404 10304 20141 39674 40140 83800 333 58002;EQDQ01  00002PRCP99
0198827840999992002082000004-07320-039300FM-12+040999999V0201401N002612200019N0020001N1+02401+01631101661ADDAA199000091GF103991031021008001001001KA1240M+03141MA1999999096981MD1999999+0091REMSYN088AAXX  20004 82784 32595 31405 10240 20163 39698 40166 83200 333 10314 29054 55110 58009;EQDQ01  00002PRCP99
0186827840999992002082012004-07320-039300FM-12+040999999V0201401N003612200019N0200001N1+02641+01511101781ADDAA199000091GF101991011011008001001001KA1240N+02121MA1999999097091MD1999999-0041REMSYN076AAXX  20124 82784 32598 11407 10264 20151 39709 40178 81100 333 20212 59004;EQDQ01  00002PRCP99
0167827840999992002082018004-07320-039300FM-12+040999999V0201801N004612200019N0200001N1+03151+01431101311ADDAA199000091GF103991031021008001001001MA1999999096661MD1999999-0081REMSYN070AAXX  20184 82784 32598 31809 10315 20143 39666 40131 83200 333 59008;EQDQ01  00002PRCP99
0198827840999992002082100004-07320-039300FM-12+040999999V0201801N004610075019N0020001N1+02541+01571101671ADDAA199000091GF108991081051008001999999KA1240M+03251MA1999999097001MD1999999+0021REMSYN088AAXX  21004 82784 32595 81809 10254 20157 39700 40167 885// 333 10325 29049 55109 58002;EQDQ01  00002PRCP99
0167827840999992002082118004-07320-039300FM-12+040999999V0201801N003112200019N0200001N1+03011+01451101421ADDAA199000091GF103991031021008001001001MA1999999096761MD1999999+0101REMSYN070AAXX  21184 82784 32598 31806 10301 20145 39676 40142 83200 333 58010;EQDQ01  00002PRCP99
0214827840999992002082200004-07320-039300FM-12+040999999V0201801N001019999999N0020001N1+02521+01741101761ADDAA199000091GF106991999011008001001001KA1240M+03191MA1999999097081MD1999999+0081REMSYN088AAXX  22004 82784 32595 61802 10252 20174 39708 40176 82100 333 10319 29055 55104 58008;EQDQ01+000022SCOTLCQ02  00002PRCP99
0196827840999992002082212004-07320-039300FM-12+040999999V0201401N002112200019N0200001N1+02601+01451101901ADDAA199000091GA1001+999999999GF100991001001999999001001KA1240N+01851MA1999999097211MD1999999-0031REMSYN070AAXX  22124 82784 32998 01404 10260 20145 39721 40190 333 20185 59003;EQDQ01  00002PRCP99
0167827840999992002082218004-07320-039300FM-12+040999999V0201801N003112200019N0200001N1+03261+01421101321ADDAA199000091GF104991041021008001001001MA1999999096671MD1999999-0091REMSYN070AAXX  22184 82784 32598 41806 10326 20142 39667 40132 84200 333 59009;EQDQ01  00002PRCP99
0208827840999992002082300004-07320-039300FM-12+040999999V0201801N004612200019N0020001N1+02581+01821101561ADDAA199000091GA1001+999999999GF100991001001999999001001KA1240M+03321MA1999999096891MD1999999-0191REMSYN082AAXX  23004 82784 32995 01809 10258 20182 39689 40156 333 10332 29052 55108 59019;EQDQ01  00002PRCP99
0186827840999992002082312004-07320-039300FM-12+040999999V0201401N002610075019N0200001N1+02491+01651101791ADDAA199000091GF107991071021008001001001KA1240N+02141MA1999999097111MD1999999-0101REMSYN076AAXX  23124 82784 32598 71405 10249 20165 39711 40179 87200 333 20214 59010;EQDQ01  00002PRCP99
0193827840999992002082400004-07320-039300FM-12+040999999V0201401N003112200019N0020001N1+02471+01231101541ADDAA199000091GA1001+999999999GF100991001001999999001001KA1240M+03151MA1999999096821REMSYN081AAXX  24004 82784 32995 01406 10247 20123 39682 40154 333 10315 29046 55088 5900;EQDQ01  00002PRCP99
0186827840999992002082412004-07320-039300FM-12+040999999V0201801N004612200019N0200001N1+02581+01491101771ADDAA199000091GF101991011011008001001001KA1240N+02001MA1999999097081MD1999999-0031REMSYN076AAXX  24124 82784 32598 11809 10258 20149 39708 40177 81100 333 20200 59003;EQDQ01  00002PRCP99
0167827840999992002082418004-07320-039300FM-12+040999999V0201401N003112200019N0200001N1+03161+01291101251ADDAA199000091GF102991021011008001001001MA1999999096601MD1999999-0061REMSYN070AAXX  24184 82784 32598 21406 10316 20129 39660 40125 82100 333 59006;EQDQ01  00002PRCP99
0198827840999992002082500004-07320-039300FM-12+040999999V0201401N003112200019N0020001N1+02531+01511101541ADDAA199000091GF102991021011008001001001KA1240M+03191MA1999999096871MD1999999+0021REMSYN088AAXX  25004 82784 32595 21406 10253 20151 39687 40154 82100 333 10319 29047 55109 58002;EQDQ01  00002PRCP99
0196827840999992002082512004-07320-039300FM-12+040999999V0201401N003112200019N0200001N1+02551+01571101761ADDAA199000091GA1001+999999999GF100991001001999999001001KA1240N+02081MA1999999097081MD1999999+0001REMSYN070AAXX  25124 82784 32998 01406 10255 20157 39708 40176 333 20208 58000;EQDQ01  00002PRCP99
0183827840999992002082518004-07320-039300FM-12+040999999V0200901N003112200019N0200001N1+03211+01281101241ADDAA199000091GF103991999011008001001001MA1999999096601MD1999999+0001REMSYN070AAXX  25184 82784 32598 30906 10321 20128 39660 40124 82100 333 58000;EQDQ01+000022SCOTLCQ02  00002PRCP99
0208827840999992002082600004-07320-039300FM-12+040999999V0201401N004612200019N0020001N1+02571+01311101511ADDAA199000091GA1001+999999999GF100991001001999999001001KA1240M+03271MA1999999096841MD1999999-0031REMSYN082AAXX  26004 82784 32995 01409 10257 20131 39684 40151 333 10327 29044 55107 59003;EQDQ01  00002PRCP99
0180827840999992002082612004-07320-039300FM-12+040999999V0201401N003612200019N0200001N1+02631+01401101761ADDAA199000091GF101991999999999999999999KA1240N+02041MA1999999097081MD1999999+0001REMSYN070AAXX  26124 82784 32998 11407 10263 20140 39708 40176 333 20204 58000;EQDQ01  00002PRCP99
0167827840999992002082618004-07320-039300FM-12+040999999V0201401N002112200019N0200001N1+03301+01361101231ADDAA199000091GF102991011011008001021011MA1999999096591MD1999999-0011REMSYN070AAXX  26184 82784 32598 21404 10330 20136 39659 40123 81121 333 59001;EQDQ01  00002PRCP99
0208827840999992002082700004-07320-039300FM-12+040999999V0201401N002612200019N0020001N1+02641+01171101471ADDAA199000091GA1001+999999999GF100991001001999999001001KA1240M+03271MA1999999096811MD1999999-0031REMSYN082AAXX  27004 82784 32995 01405 10264 20117 39681 40147 333 10327 29040 55107 59003;EQDQ01  00002PRCP99
0186827840999992002082712004-07320-039300FM-12+040999999V0201401N004612200019N0200001N1+02561+01621101751ADDAA199000091GF103991021021008001011001KA1240N+02021MA1999999097071MD1999999-0011REMSYN076AAXX  27124 82784 32598 31409 10256 20162 39707 40175 82210 333 20202 59001;EQDQ01  00002PRCP99
0167827840999992002082718004-07320-039300FM-12+040999999V0201401N003112200019N0200001N1+03121+01391101321ADDAA199000091GF103991021021008001011001MA1999999096661MD1999999+0071REMSYN070AAXX  27184 82784 32598 31406 10312 20139 39666 40132 82210 333 58007;EQDQ01  00002PRCP99
0208827840999992002082800004-07320-039300FM-12+040999999V0201801N001512200019N0020001N1+02421+01311101461ADDAA199000091GA1001+999999999GF100991001001999999001001KA1240M+03171MA1999999096791MD1999999-0021REMSYN082AAXX  28004 82784 32995 01803 10242 20131 39679 40146 333 10317 29048 55102 59002;EQDQ01  00002PRCP99
0186827840999992002082812004-07320-039300FM-12+040999999V0201401N004612200019N0200001N1+02571+01471101651ADDAA199000091GF101991011011008001001001KA1240N+02041MA1999999096971MD1999999-0101REMSYN076AAXX  28124 82784 32598 11409 10257 20147 39697 40165 81100 333 20204 59010;EQDQ01  00002PRCP99
0161827840999992002082818004-07320-039300FM-12+040999999V0201401N005112200019N0200001N1+03211+01321101051ADDAA199000091GF102991999999999999999999MA1999999096411MD1999999-0251REMSYN064AAXX  28184 82784 32998 21410 10321 20132 39641 40105 333 59025;EQDQ01  00002PRCP99
0208827840999992002082900004-07320-039300FM-12+040999999V0201801N001512200019N0020001N1+02421+01311101461ADDAA199000091GA1001+999999999GF100991001001999999001001KA1240M+03171MA1999999096791MD1999999-0021REMSYN082AAXX  29004 82784 32995 01803 10242 20131 39679 40146 333 10317 29048 55102 59002;EQDQ01  00002PRCP99
0186827840999992002082912004-07320-039300FM-12+040999999V0201401N004612200019N0200001N1+02581+01581101551ADDAA199000091GF101991011021008001001001KA1240N+02001MA1999999096881MD1999999-0091REMSYN076AAXX  29124 82784 32598 11409 10258 20158 39688 40155 81200 333 20200 59009;EQDQ01  00002PRCP99
0167827840999992002082918004-07320-039300FM-12+040999999V0201401N003612200019N0200001N1+03251+01361101001ADDAA106000091GF103991011011008001001051MA1999999096361MD1999999-0051REMSYN070AAXX  29184 82784 32598 31407 10325 20136 39636 40100 81105 333 59005;EQDQ01  00002PRCP06
0208827840999992002083000004-07320-039300FM-12+040999999V0201401N003112200019N0020001N1+02541+01421101311ADDAA106000091GA1001+999999999GF100991001001999999001001KA1240M+03311MA1999999096651MD1999999-0051REMSYN082AAXX  30004 82784 32995 01406 10254 20142 39665 40131 333 10331 29046 55108 59005;EQDQ01  00002PRCP06
0186827840999992002083012004-07320-039300FM-12+040999999V0200901N002112200019N0200001N1+02591+01461101561ADDAA106000091GF103991031001008001011001KA1240N+01841MA1999999096891MD1999999+0011REMSYN076AAXX  30124 82784 32598 30904 10259 20146 39689 40156 83010 333 20184 58001;EQDQ01  00002PRCP06
0167827840999992002083018004-07320-039300FM-12+040999999V0201401N003610150019N0200001N1+03361+00961100981ADDAA106000091GF106991061001017501021001MA1999999096351MD1999999-0011REMSYN070AAXX  30184 82784 32798 61407 10336 20096 39635 40098 86020 333 59001;EQDQ01  00002PRCP06
0186827840999992002083112004-07320-039300FM-12+040999999V0201401N003112200019N0200001N1+02751+01671101681ADDAA106000091GF102991021011008001001001KA1240N+02061MA1999999095001MD1999999+0111REMSYN076AAXX  31124 82784 32598 21406 10275 20167 39500 40168 82100 333 20206 58011;EQDQ01  00002PRCP06
0183827840999992002083118004-07320-039300FM-12+040999999V0200501N002112200019N0200001N1+03301+01311101081ADDAA106000091GF102991021011008001001001MA1999999096452MD1999999+0101REMSYN070AAXX  31184 82784 32598 20504 10330 20131 39645 40108 82100 333 58010;EQDQ01+096453APOSP Q02  00002PRCP06
0198827840999992002090100004-07320-039300FM-12+040999999V0209999C000012200019N0200001N1+02541+01331101371ADDAA106000091GF102991011011008001011001KA1240M+03371MA1999999096721MD1999999+0051REMSYN088AAXX  01004 82784 32598 20000 10254 20133 39672 40137 81110 333 10337 29044 55106 58005;EQDQ01  00002PRCP06
0186827840999992002090112004-07320-039300FM-12+040999999V0200901N001512200019N0200001N1+02781+01661101581ADDAA106000091GF101991011011008001001001KA1240N+01781MA1999999096911MD1999999-0091REMSYN076AAXX  01124 82784 32598 10903 10278 20166 39691 40158 81100 333 20178 59009;EQDQ01  00002PRCP06
0167827840999992002090118004-07320-039300FM-12+040999999V0201401N001512200019N0200001N1+03361+01411100921ADDAA106000091GF102991021021008001001001MA1999999096281MD1999999-0171REMSYN070AAXX  01184 82784 32598 21403 10336 20141 39628 40092 82200 333 59017;EQDQ01  00002PRCP06
0208827840999992002090200004-07320-039300FM-12+040999999V0202701N000512200019N0020001N1+02361+01401101211ADDAA106000091GA1001+999999999GF100991001001999999001001KA1240M+03431MA1999999096551MD1999999-0171REMSYN082AAXX  02004 82784 32995 02701 10236 20140 39655 40121 333 10343 29048 55110 59017;EQDQ01  00002PRCP06
0186827840999992002090212004-07320-039300FM-12+040999999V0200501N002110075019N0200001N1+02601+01891101561ADDAA106000091GF107991071021008001001001KA1240N+01861MA1999999096881MD1999999-0031REMSYN076AAXX  02124 82784 32598 70504 10260 20189 39688 40156 87200 333 20186 59003;EQDQ01  00002PRCP06
0167827840999992002090218004-07320-039300FM-12+040999999V0200901N001512200019N0200001N1+03431+01611100881ADDAA106000091GF101991011021008001001001MA1999999096251MD1999999-0031REMSYN070AAXX  02184 82784 32598 10903 10343 20161 39625 40088 81200 333 59003;EQDQ01  00002PRCP06
0208827840999992002090300004-07320-039300FM-12+040999999V0202301N001012200019N0020001N1+02421+01541101211ADDAA106000091GA1001+999999999GF100991001001999999001001KA1240M+03531MA1999999096551MD1999999+0001REMSYN082AAXX  03004 82784 32995 02302 10242 20154 39655 40121 333 10353 29054 55075 58000;EQDQ01  00002PRCP06
0186827840999992002090312004-07320-039300FM-12+040999999V0203601N001510075019N0200001N1+02471+01881101701ADDAA106000091GF108991081051008001999999KA1240N+02101MA1999999097011MD1999999+0131REMSYN076AAXX  03124 82784 32598 83603 10247 20188 39701 40170 885// 333 20210 58013;EQDQ01  00002PRCP06
0167827840999992002090318004-07320-039300FM-12+040999999V0203601N001512200019N0200001N1+03281+01781101141ADDAA106000091GF102991021021008001001001MA1999999096511MD1999999+0261REMSYN070AAXX  03184 82784 32598 23603 10328 20178 39651 40114 82200 333 58026;EQDQ01  00002PRCP06
0202827840999992002090400004-07320-039300FM-12+040999999V0203201N001510075019N0020001N1+02261+02121101621ADDAY161061AY211061GF108991081071008001999999KA1240M+03391MA1999999096931MD1999999+0281MW1021REMSYN100AAXX  04004 82784 21595 83203 10226 20212 39693 40162 70261 887// 333 10339 29074 55072 58028 60011;
0190827840999992002090412004-07320-039300FM-12+040999999V0200501N001510120019N0040001N1+02561+02171101791ADDAY151061AY221061GF107991071081008001001001KA1240N+02241MA1999999097091MD1999999+0081MW1021REMSYN088AAXX  04124 82784 21596 70503 10256 20217 39709 40179 70252 87800 333 20224 58008 60024;
0167827840999992002090418004-07320-039300FM-12+040999999V0201401N001512200019N0200001N1+03291+01341101251ADDAA106000091GF103991031021008001001001MA1999999096611MD1999999+0101REMSYN070AAXX  04184 82784 32598 31403 10329 20134 39661 40125 83200 333 58010;EQDQ01  00002PRCP06
0198827840999992002090500004-07320-039300FM-12+040999999V0201801N003610075019N0020001N1+02701+01631101501ADDAA106000091GF107991071041008001001001KA1240M+03351MA1999999096841MD1999999-0091REMSYN088AAXX  05004 82784 32595 71807 10270 20163 39684 40150 87400 333 10335 29054 55085 59009;EQDQ01  00002PRCP06
0186827840999992002090512004-07320-039300FM-12+040999999V0201401N000510075019N0200001N1+02761+01481101801ADDAA106000091GF106991061021008001001001KA1240N+02301MA1999999097141MD1999999+0051REMSYN076AAXX  05124 82784 32598 61401 10276 20148 39714 40180 86200 333 20230 58005;EQDQ01  00002PRCP06
0186827840999992002090612004-07320-039300FM-12+040999999V0200901N002112200019N0200001N1+02761+01751101841ADDAA106000091GF103991031021008001001001KA1240N+02301MA1999999097161MD1999999+0021REMSYN076AAXX  06124 82784 32598 30904 10276 20175 39716 40184 83200 333 20230 58002;EQDQ01  00002PRCP06
0167827840999992002090618004-07320-039300FM-12+040999999V0201401N002112200019N0200001N1+03381+01271101201ADDAA106000091GF104991041021008001001001MA1999999096571MD1999999+0001REMSYN070AAXX  06184 82784 32598 41404 10338 20127 39657 40120 84200 333 58000;EQDQ01  00002PRCP06
0208827840999992002090700004-07320-039300FM-12+040999999V0200901N002112200019N0020001N1+02781+01551101431ADDAA106000091GA1001+999999999GF100991001001999999001001KA1240M+03441MA1999999096781MD1999999-0031REMSYN082AAXX  07004 82784 32995 00904 10278 20155 39678 40143 333 10344 29044 55102 59003;EQDQ01  00002PRCP06
0186827840999992002090712004-07320-039300FM-12+040999999V0200901N001512200019N0200001N1+02831+01611101731ADDAA106000091GF101991011011008001001001KA1240N+02071MA1999999097071MD1999999-0091REMSYN076AAXX  07124 82784 32598 10903 10283 20161 39707 40173 81100 333 20207 59009;EQDQ01  00002PRCP06
0167827840999992002090718004-07320-039300FM-12+040999999V0201401N002612200019N0200001N1+03441+01381101201ADDAA106000091GF101991011011008001001001MA1999999096571MD1999999+0001REMSYN070AAXX  07184 82784 32598 11405 10344 20138 39657 40120 81100 333 58000;EQDQ01  00002PRCP06
0208827840999992002090800004-07320-039300FM-12+040999999V0201401N002112200019N0020001N1+02761+01341101381ADDAA106000091GA1001+999999999GF100991001001999999001001KA1240M+03531MA1999999096741MD1999999-0041REMSYN082AAXX  08004 82784 32995 01404 10276 20134 39674 40138 333 10353 29040 55110 59004;EQDQ01  00002PRCP06
0186827840999992002090812004-07320-039300FM-12+040999999V0200901N003110075019N0200001N1+02741+01761101681ADDAA106000091GF105991051021008001001001KA1240N+02221MA1999999097021MD1999999-0051REMSYN076AAXX  08124 82784 32598 50906 10274 20176 39702 40168 85200 333 20222 59005;EQDQ01  00002PRCP06
0167827840999992002090818004-07320-039300FM-12+040999999V0201401N002110075019N0200001N1+03361+01461101151ADDAA106000091GF105991051021008001001001MA1999999096521MD1999999-0051REMSYN070AAXX  08184 82784 32598 51404 10336 20146 39652 40115 85200 333 59005;EQDQ01  00002PRCP06
0208827840999992002090900004-07320-039300FM-12+040999999V0201801N005112200019N0020001N1+02741+01411101381ADDAA106000091GA1001+999999999GF100991001001999999001001KA1240M+03451MA1999999096741MD1999999+0001REMSYN082AAXX  09004 82784 32995 01810 10274 20141 39674 40138 333 10345 29044 55102 58000;EQDQ01  00002PRCP06
0167827840999992002090918004-07320-039300FM-12+040999999V0201401N003612200019N0200001N1+03241+01261101291ADDAA106000091GF102991021021008001001001MA1999999096661MD1999999+0141REMSYN070AAXX  09184 82784 32598 21407 10324 20126 39666 40129 82200 333 58014;EQDQ01  00002PRCP06
0198827840999992002091000004-07320-039300FM-12+040999999V0201401N004112200019N0020001N1+02541+01731101591ADDAA106000091GF101991011041008001001001KA1240M+03341MA1999999096921MD1999999+0181REMSYN088AAXX  10004 82784 32595 11408 10254 20173 39692 40159 81400 333 10334 29052 55091 58018;EQDQ01  00002PRCP06
0186827840999992002091012004-07320-039300FM-12+040999999V0200901N003110120019N0200001N1+02621+01641101831ADDAA106000091GF107991071081008001001001KA1240N+02181MA1999999097151MD1999999+0011REMSYN076AAXX  10124 82784 32598 70906 10262 20164 39715 40183 87800 333 20218 58001;EQDQ01  00002PRCP06
0167827840999992002091018004-07320-039300FM-12+040999999V0201401N003110120019N0200001N1+02941+01511101421ADDAA106000091GF107991071081008001001001MA1999999096761MD1999999+0101REMSYN070AAXX  10184 82784 32598 71406 10294 20151 39676 40142 87800 333 58010;EQDQ01  00002PRCP06
0208827840999992002091100004-07320-039300FM-12+040999999V0200901N001012200019N0020001N1+02461+01631101591ADDAA106000091GA1001+999999999GF100991001001999999001001KA1240M+02971MA1999999096921MD1999999+0001REMSYN082AAXX  11004 82784 32995 00902 10246 20163 39692 40159 333 10297 29054 55037 58000;EQDQ01  00002PRCP06
0186827840999992002091112004-07320-039300FM-12+040999999V0201401N002610075019N0200001N1+02521+01551101801ADDAA106000091GF106991061021008001001001KA1240N+02111MA1999999097111MD1999999-0041REMSYN076AAXX  11124 82784 32598 61405 10252 20155 39711 40180 86200 333 20211 59004;EQDQ01  00002PRCP06
0183827840999992002091118004-07320-039300FM-12+040999999V0201401N002112200019N0200001N1+03191+01231101301ADDAA106000091GF104991999031008001021021MA1999999096651MD1999999-0111REMSYN070AAXX  11184 82784 32598 41404 10319 20123 39665 40130 88322 333 59011;EQDQ01+000082SCOTLCQ02  00002PRCP06
0208827840999992002091200004-07320-039300FM-12+040999999V0201401N003112200019N0020001N1+02621+01261101491ADDAA106000091GA1001+999999999GF100991001001999999001001KA1240M+03271MA1999999096821MD1999999-0101REMSYN082AAXX  12004 82784 32995 01406 10262 20126 39682 40149 333 10327 29043 55074 59010;EQDQ01  00002PRCP06
0186827840999992002091212004-07320-039300FM-12+040999999V0201401N003612200019N0200001N1+02651+01421101701ADDAA106000091GF103991001001999999001011KA1240N+02041MA1999999097031MD1999999+0001REMSYN076AAXX  12124 82784 32998 31407 10265 20142 39703 40170 80001 333 20204 59000;EQDQ01  00002PRCP06
0167827840999992002091218004-07320-039300FM-12+040999999V0201401N002612200019N0200001N1+03361+01141101061ADDAA106000091GF103991011011008001021011MA1999999096441MD1999999-0211REMSYN070AAXX  12184 82784 32598 31405 10336 20114 39644 40106 81121 333 59021;EQDQ01  00002PRCP06
0208827840999992002091300004-07320-039300FM-12+040999999V0201401N003112200019N0020001N1+02661+01151101381ADDAA106000091GA1001+999999999GF100991001001999999001001KA1240M+03451MA1999999096731MD1999999-0091REMSYN082AAXX  13004 82784 32995 01406 10266 20115 39673 40138 333 10345 29038 55108 59009;EQDQ01  00002PRCP06
0196827840999992002091312004-07320-039300FM-12+040999999V0201401N004112200019N0200001N1+02681+01351101571ADDAA106000091GA1001+999999999GF100991001001999999001001KA1240N+01861MA1999999096911MD1999999-0121REMSYN070AAXX  13124 82784 32998 01408 10268 20135 39691 40157 333 20186 59012;EQDQ01  00002PRCP06
0167827840999992002091318004-07320-039300FM-12+040999999V0201401N001512200019N0200001N1+03321+01171100991ADDAA106000091GF101991011011008001001001MA1999999096361MD1999999-0081REMSYN070AAXX  13184 82784 32598 11403 10332 20117 39636 40099 81100 333 59008;EQDQ01  00002PRCP06
0208827840999992002091400004-07320-039300FM-12+040999999V0201401N004112200019N0020001N1+02801+01151101281ADDAA106000091GA1001+999999999GF100991001001999999001001KA1240M+03421MA1999999096641MD1999999-0091REMSYN082AAXX  14004 82784 32995 01408 10280 20115 39664 40128 333 10342 29036 55110 59009;EQDQ01  00002PRCP06
0196827840999992002091412004-07320-039300FM-12+040999999V0200501N001512200019N0200001N1+02781+01441101551ADDAA106000091GA1001+999999999GF100991001001999999001001KA1240N+01961MA1999999096901MD1999999-0011REMSYN070AAXX  14124 82784 32998 00503 10278 20144 39690 40155 333 20196 59001;EQDQ01  00002PRCP06
0167827840999992002091418004-07320-039300FM-12+040999999V0201401N002612200019N0200001N1+03521+01221100941ADDAA106000091GF101991011011008001001001MA1999999096331MD1999999-0031REMSYN070AAXX  14184 82784 32598 11405 10352 20122 39633 40094 81100 333 59003;EQDQ01  00002PRCP06
0208827840999992002091500004-07320-039300FM-12+040999999V0201401N002612200019N0020001N1+02891+01221101251ADDAA106000091GA1001+999999999GF100991001001999999001001KA1240M+03651MA1999999096621MD1999999-0021REMSYN082AAXX  15004 82784 32995 01405 10289 20122 39662 40125 333 10365 29035 55110 59002;EQDQ01  00002PRCP06
0196827840999992002091512004-07320-039300FM-12+040999999V0200901N001512200019N0200001N1+02691+01551101681ADDAA106000091GA1001+999999999GF100991001001999999001001KA1240N+01881MA1999999097031MD1999999+0131REMSYN070AAXX  15124 82784 32998 00903 10269 20155 39703 40168 333 20188 58013;EQDQ01  00002PRCP06
0167827840999992002091518004-07320-039300FM-12+040999999V0200501N002112200019N0200001N1+03481+01361101031ADDAA106000091GF102991021011008001001001MA1999999096411MD1999999+0081REMSYN070AAXX  15184 82784 32598 20504 10348 20136 39641 40103 82100 333 58008;EQDQ01  00002PRCP06
0198827840999992002091600004-07320-039300FM-12+040999999V0201401N002110075019N0020001N1+02881+00951101411ADDAA106000091GF107991071021008001001001KA1240M+03611MA1999999096701MD1999999+0151REMSYN088AAXX  16004 82784 32595 71404 10288 20095 39670 40141 87200 333 10361 29034 55111 58015;EQDQ01  00002PRCP06
0186827840999992002091612004-07320-039300FM-12+040999999V0200901N003110075019N0200001N1+02621+01621101911ADDAA106000091GF106991061021008001001001KA1240N+02281MA1999999097241MD1999999+0211REMSYN076AAXX  16124 82784 32598 60906 10262 20162 39724 40191 86200 333 20228 58021;EQDQ01  00002PRCP06
0167827840999992002091618004-07320-039300FM-12+040999999V0201401N002112200019N0200001N1+03341+01291101291ADDAA106000091GF103991021021008001021001MA1999999096661MD1999999+0251REMSYN070AAXX  16184 82784 32598 31404 10334 20129 39666 40129 82220 333 58025;EQDQ01  00002PRCP06
0198827840999992002091700004-07320-039300FM-12+040999999V0201801N000510075019N0020001N1+02501+01221101581ADDAA106000091GF107991071021008001001001KA1240M+03391MA1999999096911MD1999999+0141REMSYN088AAXX  17004 82784 32595 71801 10250 20122 39691 40158 87200 333 10339 29043 55088 58014;EQDQ01  00002PRCP06
0186827840999992002091712004-07320-039300FM-12+040999999V0200901N003612200019N0200001N1+02661+01561101911ADDAA199000091GF102991021021008001001001KA1240N+02081MA1999999097231MD1999999-0011REMSYN076AAXX  17124 82784 32598 20907 10266 20156 39723 40191 82200 333 20208 59001;EQDQ01  00002PRCP99
0167827840999992002091718004-07320-039300FM-12+040999999V0201401N003112200019N0200001N1+03431+01011101251ADDAA106000091GF102991021011008001001001MA1999999096621MD1999999-0041REMSYN070AAXX  17184 82784 32598 21406 10343 20101 39662 40125 82100 333 59004;EQDQ01  00002PRCP06
0198827840999992002091800004-07320-039300FM-12+040999999V0200901N001012200019N0020001N1+02821+01211101531ADDAA106000091GF102991021041008001001001KA1240M+03491MA1999999096881MD1999999-0031REMSYN088AAXX  18004 82784 32595 20902 10282 20121 39688 40153 82400 333 10349 29027 55109 59003;EQDQ01  00002PRCP06
0186827840999992002091812004-07320-039300FM-12+040999999V0201401N003610075019N0200001N1+02681+01701101671ADDAA106000091GF106991061021008001001001KA1240N+02121MA1999999097011MD1999999-0221REMSYN076AAXX  18124 82784 32598 61407 10268 20170 39701 40167 86200 333 20212 59022;EQDQ01  00002PRCP06
0167827840999992002091818004-07320-039300FM-12+040999999V0201401N003612200019N0200001N1+03311+01281101111ADDAA106000091GF103991031021008001021001MA1999999096481MD1999999-0141REMSYN070AAXX  18184 82784 32598 31407 10331 20128 39648 40111 83220 333 59014;EQDQ01  00002PRCP06
0214827840999992002091900004-07320-039300FM-12+040999999V0200901N002112200019N0020001N1+02681+01131101371ADDAA106000091GF101991999011008001001001KA1240M+03381MA1999999096721MD1999999-0121REMSYN088AAXX  19004 82784 32595 10904 10268 20113 39672 40137 82100 333 10338 29040 55107 59012;EQDQ01+000022SCOTLCQ02  00002PRCP06
0196827840999992002091912004-07320-039300FM-12+040999999V0201401N004112200019N0200001N1+02631+01331101711ADDAA106000091GA1001+999999999GF100991001001999999001001KA1240N+02001MA1999999097041MD1999999+0031REMSYN070AAXX  19124 82784 32998 01408 10263 20133 39704 40171 333 20200 58003;EQDQ01  00002PRCP06
0167827840999992002091918004-07320-039300FM-12+040999999V0201401N002612200019N0200001N1+03311+01151101071ADDAA106000091GF102991021011008001001001MA1999999096441MD1999999-0041REMSYN070AAXX  19184 82784 32598 21405 10331 20115 39644 40107 82100 333 59004;EQDQ01  00002PRCP06
0208827840999992002092000004-07320-039300FM-12+040999999V0201401N005112200019N0020001N1+02721+00551101351ADDAA106000091GA1001+999999999GF100991001001999999001001KA1240M+03371MA1999999096701MD1999999-0021REMSYN082AAXX  20004 82784 32995 01410 10272 20055 39670 40135 333 10337 29030 55112 59002;EQDQ01  00002PRCP06
0196827840999992002092012004-07320-039300FM-12+040999999V0201401N003112200019N0200001N1+02711+01111101711ADDAA106000091GA1001+999999999GF100991001001999999001001KA1240N+01891MA1999999097051MD1999999+0011REMSYN070AAXX  20124 82784 32998 01406 10271 20111 39705 40171 333 20189 58001;EQDQ01  00002PRCP06
0167827840999992002092018004-07320-039300FM-12+040999999V0201401N001512200019N0200001N1+03331+01291101111ADDAA106000091GF102991011011008001021001MA1999999096471MD1999999+0031REMSYN070AAXX  20184 82784 32598 21403 10333 20129 39647 40111 81120 333 58003;EQDQ01  00002PRCP06
0208827840999992002092100004-07320-039300FM-12+040999999V0201401N002612200019N0020001N1+02781+01051101401ADDAA106000091GA1001+999999999GF100991001001999999001001KA1240M+03411MA1999999096751MD1999999+0051REMSYN082AAXX  21004 82784 32995 01405 10278 20105 39675 40140 333 10341 29034 55110 58005;EQDQ01  00002PRCP06
0186827840999992002092112004-07320-039300FM-12+040999999V0201401N002112200019N0200001N1+02911+01691101471ADDAA106000091GF103991001001999999001011KA1240N+01961MA1999999096831MD1999999-0021REMSYN076AAXX  21124 82784 32998 31404 10291 20169 39683 40147 80001 333 20196 59002;EQDQ01  00002PRCP06
0167827840999992002092118004-07320-039300FM-12+040999999V0200901N001512200019N0200001N1+03471+01231100911ADDAA106000091GF105991041021008001001011MA1999999096291MD1999999-0181REMSYN070AAXX  21184 82784 32598 50903 10347 20123 39629 40091 84201 333 59018;EQDQ01  00002PRCP06
0198827840999992002092200004-07320-039300FM-12+040999999V0201801N004612200019N0020001N1+02851+01011101211ADDAA106000091GF101991011011008001001001KA1240M+03591MA1999999096591MD1999999-0161REMSYN088AAXX  22004 82784 32595 11809 10285 20101 39659 40121 81100 333 10359 29034 55096 59016;EQDQ01  00002PRCP06
0186827840999992002092212004-07320-039300FM-12+040999999V0200501N001510075019N0200001N1+02661+01791101551ADDAA106000091GF107991071021008001001001KA1240N+02281MA1999999096901MD1999999+0141REMSYN076AAXX  22124 82784 32598 70503 10266 20179 39690 40155 87200 333 20228 58014;EQDQ01  00002PRCP06
0183827840999992002092218004-07320-039300FM-12+040999999V0200501N003112200019N0200001N1+03451+01431100931ADDAA106000091GF102991999021008001001001MA1999999096321MD1999999+0031REMSYN070AAXX  22184 82784 32598 20506 10345 20143 39632 40093 81200 333 58003;EQDQ01+000012SCOTLCQ02  00002PRCP06
0208827840999992002092300004-07320-039300FM-12+040999999V0201401N001512200019N0020001N1+02481+01571101211ADDAA106000091GA1001+999999999GF100991001001999999001001KA1240M+03511MA1999999096551MD1999999-0041REMSYN082AAXX  23004 82784 32995 01403 10248 20157 39655 40121 333 10351 29051 55091 59004;EQDQ01  00002PRCP06
0186827840999992002092312004-07320-039300FM-12+040999999V0203601N002610075019N0200001N1+02621+01931101541ADDAA106000091GF107991071021008001001001KA1240N+02331MA1999999096871MD1999999-0031REMSYN076AAXX  23124 82784 32598 73605 10262 20193 39687 40154 87200 333 20233 59003;EQDQ01  00002PRCP06
0167827840999992002092318004-07320-039300FM-12+040999999V0200501N001512200019N0200001N1+03321+01651100991ADDAA106000091GF103991031021008001001001MA1999999096371MD1999999+0051REMSYN070AAXX  23184 82784 32598 30503 10332 20165 39637 40099 83200 333 58005;EQDQ01  00002PRCP06
0198827840999992002092400004-07320-039300FM-12+040999999V0201801N000512200019N0020001N1+02591+01631101161ADDAA106000091GF102991011011008001031001KA1240M+03411MA1999999096511MD1999999-0041REMSYN088AAXX  24004 82784 32595 21801 10259 20163 39651 40116 81130 333 10341 29053 55074 59004;EQDQ01  00002PRCP06
0185827840999992002092412004-07320-039300FM-12+040999999V0200501N003110120019N0200001N1+02591+01691101501ADDAA106000091GF108991081081008001999999KA1240N+02321MA1999999096841MD1999999-0031REMSYN075AAXX  24124 82784 32598 80506 10259 2016939684 40150 888// 333 20232 59003;EQDQ01  00002PRCP06
0167827840999992002092418004-07320-039300FM-12+040999999V0200501N002612200019N0200001N1+03091+01601100951ADDAA106000091GF104991041021008001001001MA1999999096331MD1999999-0041REMSYN070AAXX  24184 82784 32598 40505 10309 20160 39633 40095 84200 333 59004;EQDQ01  00002PRCP06
0186827840999992002092512004-07320-039300FM-12+040999999V0203601N002610450019N0200001N1+02561+01751101521ADDAA106000091GF105991041021008001061001KA1240N+01841MA1999999096841MD1999999+0001REMSYN076AAXX  25124 82784 32598 53605 10256 20175 39684 40152 84260 333 20184 58000;EQDQ01  00002PRCP06
0167827840999992002092518004-07320-039300FM-12+040999999V0200901N002112200019N0200001N1+03391+01531100931ADDAA106000091GF102991021011008001021001MA1999999096301MD1999999-0031REMSYN070AAXX  25184 82784 32598 20904 10339 20153 39630 40093 82120 333 59003;EQDQ01  00002PRCP06
0208827840999992002092600004-07320-039300FM-12+040999999V0202301N000512200019N0020001N1+02481+01461101201ADDAA106000091GA1001+999999999GF100991001001999999001001KA1240M+03471MA1999999096541MD1999999+0001REMSYN082AAXX  26004 82784 32995 02301 10248 20146 39654 40120 333 10347 29050 55102 58000;EQDQ01  00002PRCP06
0186827840999992002092612004-07320-039300FM-12+040999999V0200501N003112200019N0200001N1+02701+01541101501ADDAA106000091GF102991011011008001001011KA1240N+01931MA1999999096841MD1999999+0001REMSYN076AAXX  26124 82784 32598 20506 10270 20154 39684 40150 81101 333 20193 58000;EQDQ01  00002PRCP06
0167827840999992002092618004-07320-039300FM-12+040999999V0200901N001512200019N0200001N1+03381+01481101001ADDAA106000091GF104991031011008001001011MA1999999096371MD1999999+0071REMSYN070AAXX  26184 82784 32598 40903 10338 20148 39637 40100 83101 333 58007;EQDQ01  00002PRCP06
0202827840999992002092712004-07320-039300FM-12+040999999V0203601N001010075019N0200001N1+02681+01761101651ADDAA106000091GF107991999021008001001001KA1240N+02341MA1999999096981MD1999999+0141REMSYN076AAXX  27124 82784 32598 73602 10268 20176 39698 40165 86200 333 20234 58014;EQDQ01+000062SCOTLCQ02  00002PRCP06
0167827840999992002092718004-07320-039300FM-12+040999999V0201401N001512200019N0200001N1+03451+01431101041ADDAA106000091GF104991031021008001001021MA1999999096441MD1999999+0071REMSYN070AAXX  27184 82784 32598 41403 10345 20143 39644 40104 83202 333 58007;EQDQ01  00002PRCP06
0190827840999992002092812004-07320-039300FM-12+040999999V0200501N001510120019N0200001N1+02421+01991101771ADDAY161061AY251061GF107991071081008001001001KA1240N+02181MA1999999097071MD1999999+0091MW1021REMSYN088AAXX  28124 82784 21598 70503 10242 20199 39707 40177 70265 87800 333 20218 58009 60094;
0183827840999992002092818004-07320-039300FM-12+040999999V0201401N002112200019N0200001N1+03351+01491101141ADDAA106000091GF104991999021008001001001MA1999999096501MD1999999+0061REMSYN070AAXX  28184 82784 32598 41404 10335 20149 39650 40114 83200 333 58006;EQDQ01+000032SCOTLCQ02  00002PRCP06
0198827840999992002092900004-07320-039300FM-12+040999999V0201401N005112200019N0020001N1+02781+01611101421ADDAA106000091GF102991011011008001001021KA1240M+03431MA1999999096761MD1999999-0101REMSYN088AAXX  29004 82784 32595 21410 10278 20161 39676 40142 81102 333 10343 29052 55081 59010;EQDQ01  00002PRCP06
0196827840999992002092912004-07320-039300FM-12+040999999V0201401N002112200019N0200001N1+02731+01521101631ADDAA106000091GA1001+999999999GF100991001001999999001001KA1240N+02211MA1999999096971MD1999999-0101REMSYN070AAXX  29124 82784 32998 01404 10273 20152 39697 40163 333 20221 59010;EQDQ01  00002PRCP06
0167827840999992002092918004-07320-039300FM-12+040999999V0200501N001512200019N0200001N1+03351+01261101121ADDAA106000091GF103991031021008001001001MA1999999096491MD1999999-0011REMSYN070AAXX  29184 82784 32598 30503 10335 20126 39649 40112 83200 333 59001;EQDQ01  00002PRCP06
0208827840999992002093000004-07320-039300FM-12+040999999V0201401N004112200019N0020001N1+02901+01321101391ADDAA106000091GA1001+999999999GF100991001001999999001001KA1240M+03431MA1999999096751MD1999999-0011REMSYN082AAXX  30004 82784 32995 01408 10290 20132 39675 40139 333 10343 29038 55098 59001;EQDQ01  00002PRCP06
0186827840999992002093012004-07320-039300FM-12+040999999V0201401N002112200019N0200001N1+02721+01561101691ADDAA106000091GF103991021021008001031001KA1240N+02121MA1999999097041MD1999999+0071REMSYN076AAXX  30124 82784 32598 31404 10272 20156 39704 40169 82230 333 20212 58007;EQDQ01  00002PRCP06
0167827840999992002093018004-07320-039300FM-12+040999999V0201401N003110450019N0200001N1+03381+01101101191ADDAA106000091GF106991011011008001021001MA1999999096561MD1999999+0071REMSYN070AAXX  30184 82784 32598 61406 10338 20110 39656 40119 81120 333 58007;EQDQ01  00002PRCP06
0208827840999992002100100004-07320-039300FM-12+040999999V0201401N001012200019N0020001N1+02641+01211101521ADDAA106000091GA1001+999999999GF100991001001999999001001KA1240M+03471MA1999999096861MD1999999+0111REMSYN082AAXX  01004 82784 32995 01402 10264 20121 39686 40152 333 10347 29039 55112 58011;EQDQ01  00002PRCP06
0186827840999992002100112004-07320-039300FM-12+040999999V0201401N003612200019N0200001N1+02821+01481101761ADDAA106000091GF101991011011008001001001KA1240N+02001MA1999999097101MD1999999+0061REMSYN076AAXX  01124 82784 32598 11407 10282 20148 39710 40176 81100 333 20200 58006;EQDQ01  00002PRCP06
0167827840999992002100118004-07320-039300FM-12+040999999V0201801N003112200019N0200001N1+03381+01101101211ADDAA106000091GF103991021021008001001041MA1999999096571MD1999999+0011REMSYN070AAXX  01184 82784 32598 31806 10338 20110 39657 40121 82204 333 58001;EQDQ01  00002PRCP06
0198827840999992002100200004-07320-039300FM-12+040999999V0201401N003112200019N0020001N1+02881+01181101421ADDAA106000091GF102991021041008001001001KA1240M+03521MA1999999096781MD1999999-0081REMSYN088AAXX  02004 82784 32595 21406 10288 20118 39678 40142 82400 333 10352 29035 55112 59008;EQDQ01  00002PRCP06
0186827840999992002100212004-07320-039300FM-12+040999999V0200501N002610075019N0200001N1+02771+01821101861ADDAA106000091GF105991051021008001001001KA1240N+02151MA1999999097201MD1999999+0101REMSYN076AAXX  02124 82784 32598 50505 10277 20182 39720 40186 85200 333 20215 58010;EQDQ01  00002PRCP06
0199827840999992002100218004-07320-039300FM-12+040999999V0200501N001512200019N0200001N1+03521+01281100992ADDAA106000091GF103991021021008001011001MA1999999096382MD1999999-0191REMSYN070AAXX  02184 82784 32598 30503 10352 20128 39638 40099 82210 333 59019;EQDQ01+096383APOSP Q02+100993APOSLPQ03  00002PRCP06
0208827840999992002100300004-07320-039300FM-12+040999999V0201401N001012200019N0020001N1+01482+01461101361ADDAA106000091GA1001+999999999GF100991001001999999001001KA1240M+03571MA1999999096401MD1999999-0081REMSYN082AAXX  03004 82784 32995 01402 10148 20146 39640 40136 333 10357 29050 55099 59008;EQDQ01  00002PRCP06
0186827840999992002100312004-07320-039300FM-12+040999999V0200501N002110075019N0200001N1+02581+01901101511ADDAA106000091GF108991081021008001999999KA1240N+02391MA1999999096841MD1999999-0361REMSYN076AAXX  03124 82784 32598 80504 10258 20190 39684 40151 882// 333 20239 59036;EQDQ01  00002PRCP06
0167827840999992002100318004-07320-039300FM-12+040999999V0200501N001512200019N0200001N1+03371+01571100931ADDAA106000091GF103991031021008001001001MA1999999096321MD1999999-0061REMSYN070AAXX  03184 82784 32598 30503 10337 20157 39632 40093 83200 333 59006;EQDQ01  00002PRCP06
0208827840999992002100400004-07320-039300FM-12+040999999V0201401N001512200019N0020001N1+02651+01171101201ADDAA106000091GA1001+999999999GF100991001001999999001001KA1240M+03571MA1999999096551MD1999999-0151REMSYN082AAXX  04004 82784 32995 01403 10265 20117 39655 40120 333 10357 29045 55062 59015;EQDQ01  00002PRCP06
0186827840999992002100412004-07320-039300FM-12+040999999V0200901N003110075019N0200001N1+02681+01861101591ADDAA106000091GF106991061021008001001001KA1240N+02241MA1999999096931MD1999999+0091REMSYN076AAXX  04124 82784 32598 60906 10268 20186 39693 40159 86200 333 20224 58009;EQDQ01  00002PRCP06
0167827840999992002100418004-07320-039300FM-12+040999999V0200501N002612200019N0200001N1+03481+01301100941ADDAA106000091GF103991031021008001001001MA1999999096331MD1999999+0011REMSYN070AAXX  04184 82784 32598 30505 10348 20130 39633 40094 83200 333 58001;EQDQ01  00002PRCP06
0198827840999992002100500004-07320-039300FM-12+040999999V0201401N002610075019N0020001N1+02931+01381101211ADDAA106000091GF106991061021008001001001KA1240M+03571MA1999999096581MD1999999+0061REMSYN088AAXX  05004 82784 32595 61405 10293 20138 39658 40121 86200 333 10357 29042 55095 58006;EQDQ01  00002PRCP06
0186827840999992002100512004-07320-039300FM-12+040999999V0200501N002612200019N0200001N1+02771+01731101491ADDAA106000091GF102991021011008001001001KA1240N+02251MA1999999096851MD1999999-0081REMSYN076AAXX  05124 82784 32598 20505 10277 20173 39685 40149 82100 333 20225 59008;EQDQ01  00002PRCP06
0167827840999992002100518004-07320-039300FM-12+040999999V0201401N002612200019N0200001N1+03441+01331100921ADDAA106000091GF104991041021008001001001MA1999999096311MD1999999-0021REMSYN070AAXX  05184 82784 32598 41405 10344 20133 39631 40092 84200 333 59002;EQDQ01  00002PRCP06
0198827840999992002100600004-07320-039300FM-12+040999999V0201801N000510120019N0020001N1+02931+01361101191ADDAA106000091GF106991061081008001001001KA1240M+03581MA1999999096561MD1999999-0021REMSYN088AAXX  06004 82784 32595 61801 10293 20136 39656 40119 86800 333 10358 29039 55097 59002;EQDQ01  00002PRCP06
0186827840999992002100612004-07320-039300FM-12+040999999V0200901N003112200019N0200001N1+02881+01501101501ADDAA106000091GF101991011011008001001001KA1240N+02451MA1999999096861MD1999999+0011REMSYN076AAXX  06124 82784 32598 10906 10288 20150 39686 40150 81100 333 20245 58001;EQDQ01  00002PRCP06
0167827840999992002100618004-07320-039300FM-12+040999999V0200501N002112200019N0200001N1+03511+01161100901ADDAA106000091GF102991021021008001001001MA1999999096301MD1999999-0011REMSYN070AAXX  06184 82784 32598 20504 10351 20116 39630 40090 82200 333 59001;EQDQ01  00002PRCP06
0198827840999992002100700004-07320-039300FM-12+040999999V0200501N000510075019N0020001N1+02681+01351101191ADDAA106000091GF105991051041008001001001KA1240M+03571MA1999999096561MD1999999+0001REMSYN088AAXX  07004 82784 32595 50501 10268 20135 39656 40119 85400 333 10357 29039 55104 58000;EQDQ01  00002PRCP06
0186827840999992002100712004-07320-039300FM-12+040999999V0200901N003612200019N0200001N1+02811+01601101571ADDAA106000091GF102991021011008001001001KA1240N+02151MA1999999096921MD1999999+0061REMSYN076AAXX  07124 82784 32598 20907 10281 20160 39692 40157 82100 333 20215 58006;EQDQ01  00002PRCP06
0167827840999992002100718004-07320-039300FM-12+040999999V0201401N003112200019N0200001N1+03381+01481100981ADDAA106000091GF104991021021008001021011MA1999999096371MD1999999+0071REMSYN070AAXX  07184 82784 32598 41406 10338 20148 39637 40098 82221 333 58007;EQDQ01  00002PRCP06
0198827840999992002100800004-07320-039300FM-12+040999999V0201401N003612200019N0020001N1+02741+01781101241ADDAA106000091GF102991021061008001001001KA1240M+03471MA1999999096611MD1999999+0051REMSYN088AAXX  08004 82784 32595 21407 10274 20178 39661 40124 82600 333 10347 29048 55112 58005;EQDQ01  00002PRCP06
0186827840999992002100812004-07320-039300FM-12+040999999V0201401N003111050019N0200001N1+02881+01731101571ADDAA106000091GF105991041021008001001021KA1240N+02331MA1999999096921MD1999999+0001REMSYN076AAXX  08124 82784 32598 51406 10288 20173 39692 40157 84202 333 20233 58000;EQDQ01  00002PRCP06
0167827840999992002100818004-07320-039300FM-12+040999999V0201401N003112200019N0200001N1+03321+01651101041ADDAA106000091GF103991031021008001001001MA1999999096421MD1999999+0051REMSYN070AAXX  08184 82784 32598 31406 10332 20165 39642 40104 83200 333 58005;EQDQ01  00002PRCP06
0214827840999992002100900004-07320-039300FM-12+040999999V0209999C000019999999N0020001N1+02621+01811101351ADDAA106000091GF108991999021008001001001KA1240M+03451MA1999999096721MD1999999+0101REMSYN088AAXX  09004 82784 32595 80000 10262 20181 39672 40135 83200 333 10345 29052 55110 58010;EQDQ01+000032SCOTLCQ02  00002PRCP06
0186827840999992002100912004-07320-039300FM-12+040999999V0201401N003610075019N0200001N1+02671+01681101571ADDAA106000091GF106991061021008001001001KA1240N+02201MA1999999096911MD1999999-0011REMSYN076AAXX  09124 82784 32598 61407 10267 20168 39691 40157 86200 333 20220 59001;EQDQ01  00002PRCP06
0198827840999992002101000004-07320-039300FM-12+040999999V0200901N003110075019N0020001N1+02661+01681101431ADDAA106000091GF108991081061008001999999KA1240M+03461MA1999999096771MD1999999+0061REMSYN088AAXX  10004 82784 32595 80906 10266 20168 39677 40143 886// 333 10346 29048 55073 58006;EQDQ01  00002PRCP06
0186827840999992002101012004-07320-039300FM-12+040999999V0201801N002612200019N0200001N1+02691+01641101581ADDAA106000091GF103991031021008001001001KA1240N+02301MA1999999096921MD1999999+0011REMSYN076AAXX  10124 82784 32598 31805 10269 20164 39692 40158 83200 333 20230 58001;EQDQ01  00002PRCP06
0167827840999992002101018004-07320-039300FM-12+040999999V0201401N003612200019N0200001N1+03381+01331101031ADDAA106000091GF102991021011008001001001MA1999999096411MD1999999-0021REMSYN070AAXX  10184 82784 32598 21407 10338 20133 39641 40103 82100 333 59002;EQDQ01  00002PRCP06
0208827840999992002101100004-07320-039300FM-12+040999999V0201401N001012200019N0020001N1+02591+01261101281ADDAA106000091GA1001+999999999GF100991001001999999001001KA1240M+03431MA1999999096631MD1999999-0141REMSYN082AAXX  11004 82784 32995 01402 10259 20126 39663 40128 333 10343 29042 55089 59014;EQDQ01  00002PRCP06
0186827840999992002101112004-07320-039300FM-12+040999999V0201401N003112200019N0200001N1+02741+01541101661ADDAA106000091GF101991011011008001001001KA1240N+02051MA1999999096991MD1999999+0071REMSYN076AAXX  11124 82784 32598 11406 10274 20154 39699 40166 81100 333 20205 58007;EQDQ01  00002PRCP06
0167827840999992002101118004-07320-039300FM-12+040999999V0201401N004612200019N0200001N1+03451+00821101061ADDAA106000091GF101991011011008001001001MA1999999096441MD1999999+0031REMSYN070AAXX  11184 82784 32598 11409 10345 20082 39644 40106 81100 333 58003;EQDQ01  00002PRCP06
0186827840999992002101212004-07320-039300FM-12+040999999V0201401N003112200019N0200001N1+02591+01461101691ADDAA106000091GF102991021011008001001001KA1240N+02011MA1999999097031MD1999999+0041REMSYN076AAXX  12124 82784 32598 21406 10259 20146 39703 40169 82100 333 20201 58004;EQDQ01  00002PRCP06
0167827840999992002101218004-07320-039300FM-12+040999999V0201401N003612200019N0200001N1+03391+01221101151ADDAA106000091GF102991011011008001021001MA1999999096521MD1999999+0081REMSYN070AAXX  12184 82784 32598 21407 10339 20122 39652 40115 81120 333 58008;EQDQ01  00002PRCP06
0208827840999992002101300004-07320-039300FM-12+040999999V0201801N000512200019N0040001N1+02721+01351101381ADDAA106000091GA1001+999999999GF100991001001999999001001KA1240M+03431MA1999999096731MD1999999+0071REMSYN082AAXX  13004 82784 32996 01801 10272 20135 39673 40138 333 10343 29041 55111 58007;EQDQ01  00002PRCP06
0186827840999992002101312004-07320-039300FM-12+040999999V0201401N003112200019N0200001N1+02781+01611101581ADDAA106000091GF103991031021008001001001KA1240N+02121MA1999999096931MD1999999-0101REMSYN076AAXX  13124 82784 32598 31406 10278 20161 39693 40158 83200 333 20212 59010;EQDQ01  00002PRCP06
0167827840999992002101318004-07320-039300FM-12+040999999V0201401N002112200019N0200001N1+03511+01221100991ADDAA106000091GF102991021011008001001001MA1999999096381MD1999999-0141REMSYN070AAXX  13184 82784 32598 21404 10351 20122 39638 40099 82100 333 59014;EQDQ01  00002PRCP06
0214827840999992002101400004-07320-039300FM-12+040999999V0201801N001512200019N0020001N1+02811+01021101301ADDAA106000091GF101991011011008001001001KA1240M+99999MA1999999096661MD1999999-0071REMSYN088AAXX  14004 82784 32595 11803 10281 20102 39666 40130 81100 333 10259 29035 55111 59007;EQDQ01  00002PRCP06Q02 +02592ATMX  
0186827840999992002101412004-07320-039300FM-12+040999999V0200501N002110075019N0200001N1+02811+01721101571ADDAA106000091GF105991051021008001001001KA1240N+02321MA1999999096921MD1999999-0011REMSYN076AAXX  14124 82784 32598 50504 10281 20172 39692 40157 85200 333 20232 59001;EQDQ01  00002PRCP06
0208827840999992002101500004-07320-039300FM-12+040999999V0201401N004112200019N0020001N1+02791+01301101221ADDAA106000091GA1001+999999999GF100991001001999999001001KA1240M+03451MA1999999096591MD1999999-0071REMSYN082AAXX  15004 82784 32995 01408 10279 20130 39659 40122 333 10345 29040 55113 59007;EQDQ01  00002PRCP06
0186827840999992002101512004-07320-039300FM-12+040999999V0201401N003110075019N0200001N1+02701+01721101571ADDAA106000091GF106991061021008001001001KA1240N+02321MA1999999096921MD1999999+0001REMSYN076AAXX  15124 82784 32598 61406 10270 20172 39692 40157 86200 333 20232 58000;EQDQ01  00002PRCP06
0167827840999992002101518004-07320-039300FM-12+040999999V0200501N003110075019N0200001N1+03381+01221100981ADDAA106000091GF105991051021008001001001MA1999999096361MD1999999-0031REMSYN070AAXX  15184 82784 32598 50506 10338 20122 39636 40098 85200 333 59003;EQDQ01  00002PRCP06
0198827840999992002101600004-07320-039300FM-12+040999999V0200501N002110120019N0020001N1+02821+01411999999ADDAA106000091GF107991071081008001001001KA1240M+03511MA1999999096591MD1999999+0001REMSYN088AAXX  16004 82784 32595 70504 10282 20141 39659 4//// 87800 333 10351 29042 55086 58000;EQDQ01  00002PRCP06
0186827840999992002101612004-07320-039300FM-12+040999999V0201401N003110075019N0200001N1+02701+01801101591ADDAA106000091GF107991071021008001001001KA1240N+02391MA1999999096941MD1999999+0021REMSYN076AAXX  16124 82784 32598 71406 10270 20180 39694 40159 87200 333 20239 58002;EQDQ01  00002PRCP06
0167827840999992002101618004-07320-039300FM-12+040999999V0201401N002112200019N0200001N1+03381+01431101001ADDAA106000091GF104991041021008001001001MA1999999096401MD1999999+0031REMSYN070AAXX  16184 82784 32598 41404 10338 20143 39640 40100 84200 333 58003;EQDQ01  00002PRCP06
0221827840999992002101700004-07320-039300FM-12+040999999V0201401N001519999999N0020001N1+02911+01481101251ADDAY151061AY221061GF107991999071008001021001KA1240M+03471MA1999999096631MD1999999+0031MW1021REMSYN100AAXX  17004 82784 21595 71403 10291 20148 39663 40125 70252 88720 333 10347 29043 55073 58003 69921;EQDQ01+000082SCOTLC
0202827840999992002101712004-07320-039300FM-12+040999999V0201401N002119999999N0200001N1+02901+01811101421ADDAA106000091GF105991999011008001001001KA1240N+02251MA1999999096791MD1999999-0151REMSYN076AAXX  17124 82784 32598 51404 10290 20181 39679 40142 82100 333 20225 59015;EQDQ01+000022SCOTLCQ02  00002PRCP06
0167827840999992002101718004-07320-039300FM-12+040999999V0201401N002110450019N0200001N1+03551+01131100821ADDAA106000091GF106991031021008001021011MA1999999096231MD1999999-0161REMSYN070AAXX  17184 82784 32598 61404 10355 20113 39623 40082 83221 333 59016;EQDQ01  00002PRCP06
0198827840999992002101800004-07320-039300FM-12+040999999V0201401N001510075019N0020001N1+03101+01191101131ADDAA106000091GF108991071041008001031071KA1240M+03651MA1999999096521MD1999999-0101REMSYN088AAXX  18004 82784 32595 81403 10310 20119 39652 40113 87437 333 10365 29034 55103 59010;EQDQ01  00002PRCP06
0186827840999992002101812004-07320-039300FM-12+040999999V0200901N002112200019N0200001N1+03011+01571101351ADDAA106000091GF101991011001008001011001KA1240N+02231MA1999999096741MD1999999+0051REMSYN076AAXX  18124 82784 32598 10904 10301 20157 39674 40135 81010 333 20223 58005;EQDQ01  00002PRCP06
0167827840999992002101818004-07320-039300FM-12+040999999V0200901N002612200019N0200001N1+03671+00921100721ADDAA106000091GF102991011011008001021001MA1999999096141MD1999999+0091REMSYN070AAXX  18184 82784 32598 20905 10367 20092 39614 40072 81120 333 58009;EQDQ01  00002PRCP06
0198827840999992002101900004-07320-039300FM-12+040999999V0201401N002610120019N0020001N1+02961+01071101101ADDAA106000091GF108991081081008001999999KA1240M+03731MA1999999096491MD1999999-0031REMSYN088AAXX  19004 82784 32595 81405 10296 20107 39649 40110 888// 333 10373 29031 55114 59003;EQDQ01  00002PRCP06
0186827840999992002101912004-07320-039300FM-12+040999999V0201401N003112200019N0200001N1+02921+01531101471ADDAA106000091GF102991011011008001021001KA1240N+02371MA1999999096841MD1999999-0101REMSYN076AAXX  19124 82784 32598 21406 10292 20153 39684 40147 81120 333 20237 59010;EQDQ01  00002PRCP06
0168827840999992002101918004-07320-039300FM-12+040999999V0200501N003112200019N0200001N1+03541+00901100801ADDAA106000091GF104991031021008001051001MD1999999+0061REMSYN070AAXX  19184 82784 32598 40506 10354 20090 33962 40080 83250 333 58006;EQDQ01+039621APOSP Q02  00002PRCP06
0198827840999992002102000004-07320-039300FM-12+040999999V0200901N003110075019N0020001N1+03021+01261101091ADDAA106000091GF106991061021008001001001KA1240M+03611MA1999999096481MD1999999-0011REMSYN088AAXX  20004 82784 32595 60906 10302 20126 39648 40109 86200 333 10361 29033 55102 59001;EQDQ01  00002PRCP06
0186827840999992002102012004-07320-039300FM-12+040999999V0201401N003112200019N0200001N1+02861+01551101361ADDAA106000091GF102991021021008001001001KA1240N+02041MA1999999096731MD1999999-0111REMSYN076AAXX  20124 82784 32598 21406 10286 20155 39673 40136 82200 333 20204 59011;EQDQ01  00002PRCP06
0183827840999992002102018004-07320-039300FM-12+040999999V0201401N003119999999N0200001N1+03281+01341100901ADDAA106000091GF106991999021008001001001MA1999999096281MD1999999+0081REMSYN070AAXX  20184 82784 32598 61406 10328 20134 39628 40090 84200 333 58008;EQDQ01+000042SCOTLCQ02  00002PRCP06
0198827840999992002102100004-07320-039300FM-12+040999999V0201401N001010075019N0020001N1+02701+01511101191ADDAA106000091GF107991071051008001001001KA1240M+03451MA1999999096561MD1999999+0081REMSYN088AAXX  21004 82784 32595 71402 10270 20151 39656 40119 87500 333 10345 29043 55100 58008;EQDQ01  00002PRCP06
0186827840999992002102112004-07320-039300FM-12+040999999V0200901N003612200019N0200001N1+02791+01551101541ADDAA106000091GF102991021011008001001001KA1240N+02161MA1999999096891MD1999999+0161REMSYN076AAXX  21124 82784 32598 20907 10279 20155 39689 40154 82100 333 20216 58016;EQDQ01  00002PRCP06
0167827840999992002102118004-07320-039300FM-12+040999999V0200901N002110450019N0200001N1+03431+01201100971ADDAA106000091GF106991041021008001021001MA1999999096351MD1999999+0071REMSYN070AAXX  21184 82784 32598 60904 10343 20120 39635 40097 84220 333 58007;EQDQ01  00002PRCP06
0198827840999992002102200004-07320-039300FM-12+040999999V0201801N003610075019N0020001N1+02941+01361101211ADDAA106000091GF108991081051008001999999KA1240M+03551MA1999999096581MD1999999+0021REMSYN088AAXX  22004 82784 32595 81807 10294 20136 39658 40121 885// 333 10355 29037 55101 58002;EQDQ01  00002PRCP06
0186827840999992002102212004-07320-039300FM-12+040999999V0201401N003112200019N0200001N1+02961+01611101481ADDAA106000091GF101991011011008001001001KA1240N+02211MA1999999096851MD1999999-0041REMSYN076AAXX  22124 82784 32598 11406 10296 20161 39685 40148 81100 333 20221 59004;EQDQ01  00002PRCP06
0167827840999992002102218004-07320-039300FM-12+040999999V0200501N003612200019N0200001N1+03631+01111100901ADDAA106000091GF103991031021008001001001MA1999999096301MD1999999-0051REMSYN070AAXX  22184 82784 32598 30507 10363 20111 39630 40090 83200 333 59005;EQDQ01  00002PRCP06
0198827840999992002102300004-07320-039300FM-12+040999999V0200901N001010120019N0020001N1+03081+01401101211ADDAA106000091GF108991081081008001999999KA1240M+03691MA1999999096601MD1999999+0021REMSYN088AAXX  23004 82784 32595 80902 10308 20140 39660 40121 888// 333 10369 29034 55111 58002;EQDQ01  00002PRCP06
0186827840999992002102312004-07320-039300FM-12+040999999V0201401N003112200019N0200001N1+02861+01871101421ADDAA106000091GF102991021011008001001001KA1240N+02241MA1999999096791MD1999999-0061REMSYN076AAXX  23124 82784 32598 21406 10286 20187 39679 40142 82100 333 20224 59006;EQDQ01  00002PRCP06
0167827840999992002102318004-07320-039300FM-12+040999999V0200501N004112200019N0200001N1+03621+01111100821ADDAA106000091GF103991021021008001001011MA1999999096231MD1999999-0071REMSYN070AAXX  23184 82784 32598 30508 10362 20111 39623 40082 82201 333 59007;EQDQ01  00002PRCP06
0190827840999992002102412004-07320-039300FM-12+040999999V0201401N002610075019N0200001N1+02691+01521101561ADDAY121061AY211061GF105991051021008001001001KA1240N+02261MA1999999096911MD1999999+0121MW1011REMSYN088AAXX  24124 82784 21598 51405 10269 20152 39691 40156 70121 85200 333 20226 58012 60014;
0167827840999992002102418004-07320-039300FM-12+040999999V0200501N002112200019N0200001N1+03441+01271100881ADDAA106000091GF102991021011008001001001MA1999999096261MD1999999+0031REMSYN070AAXX  24184 82784 32598 20504 10344 20127 39626 40088 82100 333 58003;EQDQ01  00002PRCP06
0186827840999992002102512004-07320-039300FM-12+040999999V0201401N002112200019N0200001N1+02801+01461101271ADDAA106000091GF104991021001017501021041KA1240N+02311MA1999999096651MD1999999-0261REMSYN076AAXX  25124 82784 32798 41404 10280 20146 39665 40127 82024 333 20231 59026;EQDQ01  00002PRCP06
0167827840999992002102518004-07320-039300FM-12+040999999V0200501N003110075019N0200001N1+03421+01071100851ADDAA106000091GF106991051021008001021001MA1999999096251MD1999999-0011REMSYN070AAXX  25184 82784 32598 60506 10342 20107 39625 40085 85220 333 59001;EQDQ01  00002PRCP06
0167827840999992002102618004-07320-039300FM-12+040999999V0201401N001512200019N0200001N1+03581+01211100781ADDAA106000091GF104991031021008001021001MA1999999096181MD1999999-0071REMSYN070AAXX  26184 82784 32598 41403 10358 20121 39618 40078 83220 333 59007;EQDQ01  00002PRCP06
0198827840999992002102700004-07320-039300FM-12+040999999V0201801N002112200019N0020001N1+02831+01091101091ADDAA106000091GF102991021021008001001001KA1240M+03651MA1999999096471MD1999999+0061REMSYN088AAXX  27004 82784 32595 21804 10283 20109 39647 40109 82200 333 10365 29035 55109 58006;EQDQ01  00002PRCP06
0186827840999992002102712004-07320-039300FM-12+040999999V0200501N002112200019N0200001N1+02881+01731101281ADDAA106000091GF102991021001017501011001KA1240N+02241MA1999999096651MD1999999-0021REMSYN076AAXX  27124 82784 32798 20504 10288 20173 39665 40128 82010 333 20224 59002;EQDQ01  00002PRCP06
0167827840999992002102718004-07320-039300FM-12+040999999V0200501N001512200019N0200001N1+03641+01191100681ADDAA106000091GF103991031021008001001001MA1999999096091MD1999999-0091REMSYN070AAXX  27184 82784 32598 30503 10364 20119 39609 40068 83200 333 59009;EQDQ01  00002PRCP06
0208827840999992002102800004-07320-039300FM-12+040999999V0200901N000512200019N0020001N1+02741+01371100991ADDAA106000091GA1001+999999999GF100991001001999999001001KA1240M+03701MA1999999096371MD1999999-0101REMSYN082AAXX  28004 82784 32995 00901 10274 20137 39637 40099 333 10370 29040 55103 59010;EQDQ01  00002PRCP06
0186827840999992002102812004-07320-039300FM-12+040999999V0200501N003112200019N0200001N1+02811+01661101311ADDAA106000091GF102991011011008001021001KA1240N+02421MA1999999096671MD1999999+0021REMSYN076AAXX  28124 82784 32598 20506 10281 20166 39667 40131 81120 333 20242 58002;EQDQ01  00002PRCP06
0167827840999992002102818004-07320-039300FM-12+040999999V0200501N003610075019N0200001N1+03451+01381100771ADDAA106000091GF106991061021008001001001MA1999999096171MD1999999+0081REMSYN070AAXX  28184 82784 32598 60507 10345 20138 39617 40077 86200 333 58008;EQDQ01  00002PRCP06
0208827840999992002102900004-07320-039300FM-12+040999999V0209999C000012200019N0020001N1+02761+01391100911ADDAA106000091GA1001+999999999GF100991001001999999001001KA1240M+03531MA1999999096331MD1999999-0041REMSYN082AAXX  29004 82784 32595 00000 10276 20139 39633 40091 333 10353 29041 55103 59004;EQDQ01  00002PRCP06
0186827840999992002102912004-07320-039300FM-12+040999999V0200901N002110075019N0200001N1+02771+01791101321ADDAA106000091GF106991061021008001001001KA1240N+02421MA1999999096681MD1999999+0011REMSYN076AAXX  29124 82784 32598 60904 10277 20179 39668 40132 86200 333 20242 58001;EQDQ01  00002PRCP06
0167827840999992002102918004-07320-039300FM-12+040999999V0200901N002110450019N0200001N1+03461+01501100721ADDAA106000091GF106991031021008001021001MA1999999096131MD1999999-0041REMSYN070AAXX  29184 82784 32598 60904 10346 20150 39613 40072 83220 333 59004;EQDQ01  00002PRCP06
0196827840999992002103012004-07320-039300FM-12+040999999V0200501N003112200019N0200001N1+02841+01501101251ADDAA106000091GA1001+999999999GF100991001001999999001001KA1240N+02101MA1999999096651MD1999999-0031REMSYN070AAXX  30124 82784 32998 00506 10284 20150 39665 40125 333 20210 59003;EQDQ01  00002PRCP06
0167827840999992002103018004-07320-039300FM-12+040999999V0200501N002612200019N0200001N1+03521+01281100731ADDAA106000091GF104991041021008001001001MA1999999096131MD1999999+0001REMSYN070AAXX  30184 82784 32598 40505 10352 20128 39613 40073 84200 333 58000;EQDQ01  00002PRCP06
0208827840999992002103100004-07320-039300FM-12+040999999V0201401N000512200019N0020001N1+02791+01301100991ADDAA106000091GA1001+999999999GF100991001001999999001001KA1240M+03571MA1999999096371MD1999999+0021REMSYN082AAXX  31004 82784 32995 01401 10279 20130 39637 40099 333 10357 29038 55113 58002;EQDQ01  00002PRCP06
0186827840999992002103112004-07320-039300FM-12+040999999V0200501N003112200019N0200001N1+02851+01761101271ADDAA106000091GF102991021011008001001001KA1240N+02341MA1999999096641MD1999999-0011REMSYN076AAXX  31124 82784 32598 20506 10285 20176 39664 40127 82100 333 20234 59001;EQDQ01  00002PRCP06
0167827840999992002103118004-07320-039300FM-12+040999999V0203201N002112200019N0200001N1+03581+01271100651ADDAA106000091GF103991021021008001011001MA1999999096071MD1999999-0061REMSYN070AAXX  31184 82784 32598 33204 10358 20127 39607 40065 82210 333 59006;EQDQ01  00002PRCP06
0208827840999992002110100004-07320-039300FM-12+040999999V0201801N000512200019N0020001N1+02781+00911100931ADDAA106000091GA1001+999999999GF100991001001999999001001KA1240M+03631MA1999999096311MD1999999-0061REMSYN082AAXX  01004 82784 32995 01801 10278 20091 39631 40093 333 10363 29035 55107 59006;EQDQ01  00002PRCP06
0186827840999992002110112004-07320-039300FM-12+040999999V0201401N003112200019N0200001N1+02731+01951101261ADDAA106000091GF104991041011008001001001KA1240N+02241MA1999999096621MD1999999-0021REMSYN076AAXX  01124 82784 32598 41406 10273 20195 39662 40126 84100 333 20224 59002;EQDQ01  00002PRCP06
0167827840999992002110118004-07320-039300FM-12+040999999V0200501N001512200019N0200001N1+03531+01351100751ADDAA106000091GF102991021011008001001001MA1999999096151MD1999999+0081REMSYN070AAXX  01184 82784 32598 20503 10353 20135 39615 40075 82100 333 58008;EQDQ01  00002PRCP06
0208827840999992002110200004-07320-039300FM-12+040999999V0201801N001512200019N0020001N1+02801+01201101061ADDAA106000091GA1001+999999999GF100991001001999999001001KA1240M+03601MA1999999096431MD1999999+0121REMSYN082AAXX  02004 82784 32995 01803 10280 20120 39643 40106 333 10360 29041 55097 58012;EQDQ01  00002PRCP06
0186827840999992002110212004-07320-039300FM-12+040999999V0200501N001512200019N0200001N1+02781+01821101371ADDAA106000091GF101991011011008001001001KA1240N+02101MA1999999096731MD1999999+0111REMSYN076AAXX  02124 82784 32598 10503 10278 20182 39673 40137 81100 333 20210 58011;EQDQ01  00002PRCP06
0167827840999992002110218004-07320-039300FM-12+040999999V0200501N003112200019N0200001N1+03551+01431100711ADDAA106000091GF102991021021008001001001MA1999999096111MD1999999-0041REMSYN070AAXX  02184 82784 32598 20506 10355 20143 39611 40071 82200 333 59004;EQDQ01  00002PRCP06
0208827840999992002110300004-07320-039300FM-12+040999999V0201801N000512200019N0020001N1+02881+01311100901ADDAA106000091GA1001+999999999GF100991001001999999001001KA1240M+03591MA1999999096291MD1999999-0141REMSYN082AAXX  03004 82784 32995 01801 10288 20131 39629 40090 333 10359 29040 55103 59014;EQDQ01  00002PRCP06
0202827840999992002110312004-07320-039300FM-12+040999999V0200901N004619999999N0200001N1+02721+01741101281ADDAA106000091GF106991999011008001001001KA1240N+02271MA1999999096651MD1999999-0081REMSYN076AAXX  03124 82784 32598 60909 10272 20174 39665 40128 82100 333 20227 59008;EQDQ01+000022SCOTLCQ02  00002PRCP06
0167827840999992002110318004-07320-039300FM-12+040999999V0200501N003112200019N0200001N1+03421+01251100811ADDAA106000091GF102991021011008001001001MA1999999096211MD1999999+0101REMSYN070AAXX  03184 82784 32598 20506 10342 20125 39621 40081 82100 333 58010;EQDQ01  00002PRCP06
0208827840999992002110400004-07320-039300FM-12+040999999V0201801N001012200019N0010001N1+02831+01291101191ADDAA106000091GA1001+999999999GF100991001001999999001001KA1240M+03471MA1999999096561MD1999999+0271REMSYN082AAXX  04004 82784 32994 01802 10283 20129 39656 40119 333 10347 29040 55094 58027;EQDQ01  00002PRCP06
0186827840999992002110412004-07320-039300FM-12+040999999V0200501N001010075019N0200001N1+02561+01781101481ADDAA106000091GF107991071021008001001001KA1240N+02201MA1999999096831MD1999999+0181REMSYN076AAXX  04124 82784 32598 70502 10256 20178 39683 40148 87200 333 20220 58018;EQDQ01  00002PRCP06
0167827840999992002110418004-07320-039300FM-12+040999999V0203601N001010450019N0200001N1+03321+01481100921ADDAA106000091GF105991031021008001021001MA1999999096311MD1999999+0101REMSYN070AAXX  04184 82784 32598 53602 10332 20148 39631 40092 83220 333 58010;EQDQ01  00002PRCP06
0218827840999992002110512004-07320-039300FM-12+040999999V0200501N003112200019N0200001N1+02791+01731101541ADDAA106000091GF104991999011008001001001KA1240N+99999MA1999999096891MD1999999+0061REMSYN076AAXX  05124 82784 32598 40506 10279 20173 39689 40154 82100 333 20290 58006;EQDQ01+000022SCOTLCQ02  00002PRCP06Q03 +02902ATMN  
0167827840999992002110518004-07320-039300FM-12+040999999V0200501N001512200019N0200001N1+03501+01481100951ADDAA106000091GF104991021011008001021001MA1999999096341MD1999999+0031REMSYN070AAXX  05184 82784 32598 40503 10350 20148 39634 40095 82120 333 58003;EQDQ01  00002PRCP06
0208827840999992002110600004-07320-039300FM-12+040999999V0203201N000512200019N0020001N1+02691+01171101091ADDAA106000091GA1001+999999999GF100991001001999999001001KA1240M+03551MA1999999096461MD1999999-0081REMSYN082AAXX  06004 82784 32995 03201 10269 20117 39646 40109 333 10355 29040 55114 59008;EQDQ01  00002PRCP06
0186827840999992002110612004-07320-039300FM-12+040999999V0200501N002110450019N0200001N1+02611+01871101491ADDAA106000091GF105991031021008001021001KA1240N+02191MA1999999096831MD1999999-0061REMSYN076AAXX  06124 82784 32598 50504 10261 20187 39683 40149 83220 333 20219 59006;EQDQ01  00002PRCP06
0167827840999992002110618004-07320-039300FM-12+040999999V0203601N002110450019N0200001N1+03431+01511100961ADDAA106000091GF105991021021008001021001MA1999999096341MD1999999+0001REMSYN070AAXX  06184 82784 32598 53604 10343 20151 39634 40096 82220 333 58000;EQDQ01  00002PRCP06
0208827840999992002110700004-07320-039300FM-12+040999999V0209999C000012200019N0020001N1+02771+01561101181ADDAA106000091GA1001+999999999GF100991001001999999001001KA1240M+03551MA1999999096541MD1999999+0081REMSYN082AAXX  07004 82784 32995 00000 10277 20156 39654 40118 333 10355 29048 55082 58008;EQDQ01  00002PRCP06
0186827840999992002110712004-07320-039300FM-12+040999999V0200901N002110075019N0200001N1+02651+01951101541ADDAA106000091GF106991061021008001001001KA1240N+02411MA1999999096881MD1999999+0051REMSYN076AAXX  07124 82784 32598 60904 10265 20195 39688 40154 86200 333 20241 58005;EQDQ01  00002PRCP06
0167827840999992002110718004-07320-039300FM-12+040999999V0200501N002112200019N0200001N1+03481+01611100911ADDAA106000091GF104991031021008001001021MA1999999096311MD1999999-0031REMSYN070AAXX  07184 82784 32598 40504 10348 20161 39631 40091 83202 333 59003;EQDQ01  00002PRCP06
0198827840999992002110800004-07320-039300FM-12+040999999V0201801N002110075019N0020001N1+03001+01291101211ADDAA106000091GF106991061021008001001001KA1240M+03531MA1999999096581MD1999999+0041REMSYN088AAXX  08004 82784 32595 61804 10300 20129 39658 40121 86200 333 10353 29042 55075 58004;EQDQ01  00002PRCP06
0186827840999992002110812004-07320-039300FM-12+040999999V0200901N001510075019N0200001N1+02581+01851101601ADDAA106000091GF108991081021008001999999KA1240N+02351MA1999999096951MD1999999+0071REMSYN076AAXX  08124 82784 32598 80903 10258 20185 39695 40160 882// 333 20235 58007;EQDQ01  00002PRCP06
0167827840999992002110818004-07320-039300FM-12+040999999V0200901N001512200019N0200001N1+03501+01261100941ADDAA106000091GF104991031021008001011001MA1999999096341MD1999999+0031REMSYN070AAXX  08184 82784 32598 40903 10350 20126 39634 40094 83210 333 58003;EQDQ01  00002PRCP06
0198827840999992002110900004-07320-039300FM-12+040999999V0201401N002110075019N0020001N1+02931+01381101251ADDAA106000091GF108991061061008001999999KA1240M+03571MA1999999096611MD1999999+0031REMSYN088AAXX  09004 82784 32595 81404 10293 20138 39661 40125 866// 333 10357 29042 55061 58003;EQDQ01  00002PRCP06
0190827840999992002110912004-07320-039300FM-12+040999999V0200501N001510075019N0200001N1+02591+02171101611ADDAY161061AY251061GF106991061021008001001001KA1240N+02231MA1999999096951MD1999999+0001MW1011REMSYN088AAXX  09124 82784 21598 60503 10259 20217 39695 40161 70165 86200 333 20223 58000 60114;
0167827840999992002110918004-07320-039300FM-12+040999999V0201801N002112200019N0200001N1+03421+01471101051ADDAA106000091GF104991041021008001001001MA1999999096431MD1999999+0091REMSYN070AAXX  09184 82784 32598 41804 10342 20147 39643 40105 84200 333 58009;EQDQ01  00002PRCP06
0198827840999992002111000004-07320-039300FM-12+040999999V0209999C000012200019N0020001N1+02801+01661101271ADDAA106000091GF103991021011008001021001KA1240M+03481MA1999999096631MD1999999+0021REMSYN088AAXX  10004 82784 32595 30000 10280 20166 39663 40127 82120 333 10348 29052 55078 58002;EQDQ01  00002PRCP06
0186827840999992002111012004-07320-039300FM-12+040999999V0200501N002110075019N0200001N1+02691+01811101551ADDAA106000091GF107991071021008001001001KA1240N+02181MA1999999096901MD1999999-0051REMSYN076AAXX  10124 82784 32598 70504 10269 20181 39690 40155 87200 333 20218 59005;EQDQ01  00002PRCP06
0167827840999992002111018004-07320-039300FM-12+040999999V0201401N003112200019N0200001N1+03491+00931100981ADDAA106000091GF103991021011008001011001MA1999999096371MD1999999-0061REMSYN070AAXX  10184 82784 32598 31406 10349 20093 39637 40098 82110 333 59006;EQDQ01  00002PRCP06
0208827840999992002111100004-07320-039300FM-12+040999999V0209999C000012200019N0020001N1+02641+01051101211ADDAA106000091GA1001+999999999GF100991001001999999001001KA1240M+03551MA1999999096561MD1999999-0071REMSYN082AAXX  11004 82784 32995 00000 10264 20105 39656 40121 333 10355 29038 55102 59007;EQDQ01  00002PRCP06
0186827840999992002111112004-07320-039300FM-12+040999999V0201401N001512200019N0200001N1+02831+01771101501ADDAA106000091GF102991021011008001001001KA1240N+02001MA1999999096851MD1999999-0051REMSYN076AAXX  11124 82784 32598 21403 10283 20177 39685 40150 82100 333 20200 59005;EQDQ01  00002PRCP06
0167827840999992002111118004-07320-039300FM-12+040999999V0201401N002112200019N0200001N1+03541+01171100911ADDAA106000091GF102991021021008001001001MA1999999096301MD1999999-0071REMSYN070AAXX  11184 82784 32598 21404 10354 20117 39630 40091 82200 333 59007;EQDQ01  00002PRCP06
0214827840999992002111200004-07320-039300FM-12+040999999V0201801N001019999999N0020001N1+02941+01621101131ADDAA106000091GF108991999011008001001001KA1240M+03611MA1999999096511MD1999999-0051REMSYN088AAXX  12004 82784 32595 81802 10294 20162 39651 40113 82100 333 10361 29042 55110 59005;EQDQ01+000022SCOTLCQ02  00002PRCP06
0186827840999992002111212004-07320-039300FM-12+040999999V0200501N003112200019N0200001N1+02821+01681101501ADDAA106000091GF102991021011008001001001KA1240N+02391MA1999999096861MD1999999+0011REMSYN076AAXX  12124 82784 32598 20506 10282 20168 39686 40150 82100 333 20239 58001;EQDQ01  00002PRCP06
0167827840999992002111218004-07320-039300FM-12+040999999V0201401N002612200019N0200001N1+03451+01271100951ADDAA106000091GF104991031011008001011001MA1999999096341MD1999999+0041REMSYN070AAXX  12184 82784 32598 41405 10345 20127 39634 40095 83110 333 58004;EQDQ01  00002PRCP06
0186827840999992002111312004-07320-039300FM-12+040999999V0201401N003612200019N0200001N1+02791+01551101641ADDAA106000091GF102991021011008001001001KA1240N+02291MA1999999096991MD1999999+0131REMSYN076AAXX  13124 82784 32598 21407 10279 20155 39699 40164 82100 333 20229 58013;EQDQ01  00002PRCP06
0167827840999992002111318004-07320-039300FM-12+040999999V0201401N002612200019N0200001N1+03461+01171101101ADDAA106000091GF104991041011008001001001MA1999999096481MD1999999+0141REMSYN070AAXX  13184 82784 32598 41405 10346 20117 39648 40110 84100 333 58014;EQDQ01  00002PRCP06
0208827840999992002111400004-07320-039300FM-12+040999999V0201801N003112200019N0020001N1+02931+01341101291ADDAA106000091GA1001+999999999GF100991001001999999001001KA1240M+03561MA1999999096661MD1999999+0081REMSYN082AAXX  14004 82784 32995 01806 10293 20134 39666 40129 333 10356 29037 55112 58008;EQDQ01  00002PRCP06
0186827840999992002111412004-07320-039300FM-12+040999999V0201401N003612200019N0200001N1+02851+01701101551ADDAA106000091GF104991041021008001001001KA1240N+02291MA1999999096911MD1999999-0081REMSYN076AAXX  14124 82784 32598 41407 10285 20170 39691 40155 84200 333 20229 59008;EQDQ01  00002PRCP06
0167827840999992002111418004-07320-039300FM-12+040999999V0201401N003112200019N0200001N1+03481+01301101021ADDAA106000091GF103991031021008001001001MA1999999096411MD1999999-0071REMSYN070AAXX  14184 82784 32598 31406 10348 20130 39641 40102 83200 333 59007;EQDQ01  00002PRCP06
0198827840999992002111500004-07320-039300FM-12+040999999V0201801N004612200019N0020001N1+02951+01281101211ADDAA106000091GF102991021021008001001001KA1240M+03571MA1999999096591MD1999999-0071REMSYN088AAXX  15004 82784 32595 21809 10295 20128 39659 40121 82200 333 10357 29037 55111 59007;EQDQ01  00002PRCP06
0186827840999992002111512004-07320-039300FM-12+040999999V0201401N003610075019N0200001N1+02831+01681101481ADDAA106000091GF105991051021008001001001KA1240N+02351MA1999999096851MD1999999-0061REMSYN076AAXX  15124 82784 32598 51407 10283 20168 39685 40148 85200 333 20235 59006;EQDQ01  00002PRCP06
0167827840999992002111518004-07320-039300FM-12+040999999V0201401N003112200019N0200001N1+03531+00901100901ADDAA106000091GF102991011011008001001011MA1999999096301MD1999999-0291REMSYN070AAXX  15184 82784 32598 21406 10353 20090 39630 40090 81101 333 59029;EQDQ01  00002PRCP06
0208827840999992002111600004-07320-039300FM-12+040999999V0201401N001512200019N0020001N1+02871+01251101241ADDAA106000091GA1001+999999999GF100991001001999999001001KA1240M+03601MA1999999096611MD1999999+0021REMSYN082AAXX  16004 82784 32995 01403 10287 20125 39661 40124 333 10360 29036 55117 58002;EQDQ01  00002PRCP06
0186827840999992002111612004-07320-039300FM-12+040999999V0201401N002612200019N0200001N1+02781+01511101531ADDAA106000091GF101991011011008001001001KA1240N+02111MA1999999096881MD1999999+0031REMSYN076AAXX  16124 82784 32598 11405 10278 20151 39688 40153 81100 333 20211 58003;EQDQ01  00002PRCP06
0167827840999992002111618004-07320-039300FM-12+040999999V0201401N003112200019N0200001N1+03541+00971100901ADDAA106000091GF101991011011008001001001MA1999999096291MD1999999-0011REMSYN070AAXX  16184 82784 32598 11406 10354 20097 39629 40090 81100 333 59001;EQDQ01  00002PRCP06
0186827840999992002111712004-07320-039300FM-12+040999999V0200901N003110075019N0200001N1+02781+01761101371ADDAA106000091GF107991071021008001001001KA1240N+02291MA1999999096741MD1999999-0141REMSYN076AAXX  17124 82784 32598 70906 10278 20176 39674 40137 87200 333 20229 59014;EQDQ01  00002PRCP06
0167827840999992002111718004-07320-039300FM-12+040999999V0201401N001512200019N0200001N1+03421+01411100891ADDAA106000091GF104991041021008001001001MA1999999096281MD1999999-0011REMSYN070AAXX  17184 82784 32598 41403 10342 20141 39628 40089 84200 333 59001;EQDQ01  00002PRCP06
0214827840999992002111800004-07320-039300FM-12+040999999V0209999C000010075019N0020001N1+02881+01221101131ADDAA106000091GF108991999021008001001001KA1240M+03591MA1999999096511MD1999999+0031REMSYN088AAXX  18004 82784 32595 80000 10288 20122 39651 40113 85200 333 10359 29039 55099 58003;EQDQ01+000052SCOTLCQ02  00002PRCP06
0186827840999992002111812004-07320-039300FM-12+040999999V0200901N002110075019N0200001N1+02751+01861101451ADDAA106000091GF106991061021008001001001KA1240N+02441MA1999999096811MD1999999+0071REMSYN076AAXX  18124 82784 32598 60904 10275 20186 39681 40145 86200 333 20244 58007;EQDQ01  00002PRCP06
0167827840999992002111818004-07320-039300FM-12+040999999V0200901N002112200019N0200001N1+03561+01371100821ADDAA106000091GF103991031021008001001001MA1999999096231MD1999999-0051REMSYN070AAXX  18184 82784 32598 30904 10356 20137 39623 40082 83200 333 59005;EQDQ01  00002PRCP06
0198827840999992002111900004-07320-039300FM-12+040999999V0201801N001510075019N0020001N1+03031+01351101081ADDAA106000091GF107991071041008001001001KA1240M+03641MA1999999096461MD1999999-0051REMSYN088AAXX  19004 82784 32595 71803 10303 20135 39646 40108 87400 333 10364 29039 55092 59005;EQDQ01  00002PRCP06
0186827840999992002111912004-07320-039300FM-12+040999999V0201401N002112200019N0200001N1+02781+01821101391ADDAA106000091GF102991021011008001001011KA1240N+02251MA1999999096761MD1999999-0051REMSYN076AAXX  19124 82784 32598 21404 10278 20182 39676 40139 82101 333 20225 59005;EQDQ01  00002PRCP06
0167827840999992002111918004-07320-039300FM-12+040999999V0201401N002112200019N0200001N1+03581+01391100801ADDAA106000091GF103991031021008001001001MA1999999096211MD1999999-0021REMSYN070AAXX  19184 82784 32598 31404 10358 20139 39621 40080 83200 333 59002;EQDQ01  00002PRCP06
0198827840999992002112000004-07320-039300FM-12+040999999V0201801N001512200019N0020001N1+03041+01091101081ADDAA106000091GF102991021011008001001001KA1240M+03651MA1999999096461MD1999999+0001REMSYN088AAXX  20004 82784 32595 21803 10304 20109 39646 40108 82100 333 10365 29056 55111 58000;EQDQ01  00002PRCP06
0202827840999992002112012004-07320-039300FM-12+040999999V0200901N002610120019N0200001N1+02581+01901101411ADDAA106000091GF108991999081008001081999KA1240N+02401MA1999999096771MD1999999+0011REMSYN076AAXX  20124 82784 32598 80905 10258 20190 39677 40141 8888/ 333 20240 58001;EQDQ01+000082SCOTLCQ02  00002PRCP06
0167827840999992002112018004-07320-039300FM-12+040999999V0201401N001511050019N0200001N1+03351+01601100841ADDAA106000091GF106991011011008001001051MA1999999096231MD1999999+0021REMSYN070AAXX  20184 82784 32598 61403 10335 20160 39623 40084 81105 333 58002;EQDQ01  00002PRCP06
0208827840999992002112100004-07320-039300FM-12+040999999V0209999C000012200019N0020001N1+02741+01611101111ADDAA106000091GA1001+999999999GF100991001001999999001001KA1240M+03431MA1999999096471MD1999999+0011REMSYN082AAXX  21004 82784 32995 00000 10274 20161 39647 40111 333 10343 29050 55043 58001;EQDQ01  00002PRCP06
0186827840999992002112112004-07320-039300FM-12+040999999V0201401N002110450019N0200001N1+02731+01841101481ADDAA106000091GF105991031011008001021001KA1240N+02281MA1999999096831MD1999999+0061REMSYN076AAXX  21124 82784 32598 51404 10273 20184 39683 40148 83120 333 20228 58006;EQDQ01  00002PRCP06
0167827840999992002112118004-07320-039300FM-12+040999999V0200901N002112200019N0200001N1+03591+01331100901ADDAA106000091GF103991031011008001001001MA1999999096301MD1999999+0071REMSYN070AAXX  21184 82784 32598 30904 10359 20133 39630 40090 83100 333 58007;EQDQ01  00002PRCP06
0214827840999992002112200004-07320-039300FM-12+040999999V0203201N000519999999N0020001N1+02781+01481101031ADDAA106000091GF105991999021008001001001KA1240M+03691MA1999999096391MD1999999-0081REMSYN088AAXX  22004 82784 32595 53201 10278 20148 39639 40103 84200 333 10369 29044 55108 59008;EQDQ01+000042SCOTLCQ02  00002PRCP06
0186827840999992002112212004-07320-039300FM-12+040999999V0200901N002110075019N0200001N1+02811+01951101431ADDAA106000091GF105991051021008001001001KA1240N+02361MA1999999096821MD1999999-0011REMSYN076AAXX  22124 82784 32598 50904 10281 20195 39682 40143 85200 333 20236 59001;EQDQ01  00002PRCP06
0167827840999992002112218004-07320-039300FM-12+040999999V0203601N002610075019N0200001N1+03451+01331100941ADDAA106000091GF106991061021008001001001MA1999999096331MD1999999+0031REMSYN070AAXX  22184 82784 32598 63605 10345 20133 39633 40094 86200 333 58003;EQDQ01  00002PRCP06
0198827840999992002112300004-07320-039300FM-12+040999999V0201401N003610120019N0020001N1+02681+01811101361ADDAA106000091GF108991081081008001999999KA1240M+03621MA1999999096721MD1999999+0331REMSYN088AAXX  23004 82784 32595 81407 10268 20181 39672 40136 888// 333 10362 29052 55084 58033;EQDQ01  00002PRCP06
0190827840999992002112312004-07320-039300FM-12+040999999V0200501N001510075019N0200001N1+02611+02141101571ADDAY101061AY221061GF107991071021008001001001KA1240N+02311MA1999999096911MD1999999+0091MW1211REMSYN088AAXX  23124 82784 21598 70503 10261 20214 39691 40157 72102 87200 333 20231 58009 60024;
0148827840999992002112318004-07320-039300FM-12+040999999V0200501N002110120019N0200001N1+03391+01791101011ADDAA106000021GF105991051081008001001001MA1999999096391MD1999999+0061REMSYN070AAXX  23184 82784 32598 50504 10339 20179 39639 40101 85800 333 58006;
0202827840999992002112400004-07320-039300FM-12+040999999V0203601N001512200019N0020001N1+02321+02151101311ADDAY101061AY221061GF102991021021008001001001KA1240M+03431MA1999999096641MD1999999-0081MW1211REMSYN100AAXX  24004 82784 21595 23603 10232 20215 39664 40131 72102 82200 333 10343 29074 55058 59008 60431;
0167827840999992002112418004-07320-039300FM-12+040999999V0201401N003110075019N0200001N1+02481+01981101011ADDAA106000091GF106991061021008001001001MA1999999096351MD1999999-0041REMSYN070AAXX  24184 82784 32598 61406 10248 20198 39635 40101 86200 333 59004;EQDQ01  00002PRCP06
0198827840999992002112500004-07320-039300FM-12+040999999V0200501N001010075019N0020001N1+02741+01811101351ADDAA106000091GF108991081071008001999999KA1240M+03561MA1999999096711MD1999999+0071REMSYN088AAXX  25004 82784 32595 80502 10274 20181 39671 40135 887// 333 10356 29056 55071 58007;EQDQ01  00002PRCP06
0186827840999992002112512004-07320-039300FM-12+040999999V0201401N002112200019N0200001N1+02731+01671101561ADDAA106000091GF101991011011008001001001KA1240N+02181MA1999999096911MD1999999+0091REMSYN076AAXX  25124 82784 32598 11404 10273 20167 39691 40156 81100 333 20218 58009;EQDQ01  00002PRCP06
0167827840999992002112518004-07320-039300FM-12+040999999V0201401N003110075019N0200001N1+03271+01681101061ADDAA106000091GF105991051021008001001001MA1999999096431MD1999999+0081REMSYN070AAXX  25184 82784 32598 51406 10327 20168 39643 40106 85200 333 58008;EQDQ01  00002PRCP06
0231827840999992002112600004-07320-039300FM-12+040999999V0202301N004610120019N0010001N1+02481+02131101381ADDAY121061AY221061GF108991999081008001071999KA1240M+03251MA1999999096731MD1999999+0011REMSYN100AAXX  26004 82784 21594 82309 10248 20213 39673 40138 77622 8887/ 333 10325 29063 55116 58001 60011;EQDQ01+000082SCOTLCQ02+000762PRSWM1
0186827840999992002112612004-07320-039300FM-12+040999999V0201401N002110075019N0200001N1+02731+01871101621ADDAA106000091GF106991061021008001001001KA1240N+02241MA1999999096951MD1999999+0041REMSYN076AAXX  26124 82784 32598 61404 10273 20187 39695 40162 86200 333 20224 58004;EQDQ01  00002PRCP06
0167827840999992002112618004-07320-039300FM-12+040999999V0201401N003112200019N0200001N1+03421+01411100921ADDAA106000091GF103991021021008001021001MA1999999096311MD1999999-0121REMSYN070AAXX  26184 82784 32598 31406 10342 20141 39631 40092 82220 333 59012;EQDQ01  00002PRCP06
0152827840999992002112700004-07320-039300FM-12+040999999V0201401N002619999999N0020001N1+02931+01711999999ADDAA106000091GF108991999999008001999999REMSYN084AAXX  27004 82784 32595 81405 10293 20171 10348 29046 39654 40116 55108 59019 888//;EQDQ01  00002PRCP06
0190827840999992002112712004-07320-039300FM-12+040999999V0200901N001510450019N0200001N1+02511+02151101501ADDAY121061AY221061GF107991041021008001061001KA1240N+02261MA1999999096851MD1999999-0101MW1211REMSYN088AAXX  27124 82784 21598 70903 10251 20215 39685 40150 72122 84260 333 20226 59010 60064;
0148827840999992002112718004-07320-039300FM-12+040999999V0201401N003112200019N0200001N1+03331+01751101011ADDAA106000021GF103991031021008001001001MA1999999096341MD1999999+0031REMSYN070AAXX  27184 82784 32598 31406 10333 20175 39634 40101 83200 333 58003;
0214827840999992002112800004-07320-039300FM-12+040999999V0201801N003119999999N0020001N1+02821+01801101171ADDAA106000091GF108991999011008001001001KA1240M+03691MA1999999096531MD1999999-0011REMSYN088AAXX  28004 82784 32595 81806 10282 20180 39653 40117 82100 333 10369 29057 55072 59001;EQDQ01+000022SCOTLCQ02  00002PRCP06
0190827840999992002112812004-07320-039300FM-12+040999999V0200901N001512200019N0200001N1+02861+01981101271ADDAY121061AY221061GF102991021011008001001001KA1240N+02311MA1999999096641MD1999999-0211MW1211REMSYN088AAXX  28124 82784 21598 20903 10286 20198 39664 40127 72122 82100 333 20231 59021 60074;
0148827840999992002112818004-07320-039300FM-12+040999999V0200901N002112200019N0200001N1+03511+01341100801ADDAA106000021GF103991021021008001031001MA1999999096201MD1999999-0141REMSYN070AAXX  28184 82784 32598 30904 10351 20134 39620 40080 82230 333 59014;
0198827840999992002112900004-07320-039300FM-12+040999999V0201401N003110075019N0020001N1+03081+01601101021ADDAA106000091GF107991071041008001001001KA1240M+03591MA1999999096411MD1999999-0121REMSYN088AAXX  29004 82784 32595 71406 10308 20160 39641 40102 87400 333 10359 29042 55113 59012;EQDQ01  00002PRCP06
0186827840999992002112912004-07320-039300FM-12+040999999V0200901N002112200019N0200001N1+02821+01711101441ADDAA106000091GF103991011011008001031001KA1240N+02321MA1999999096811MD1999999+0171REMSYN076AAXX  29124 82784 32598 30904 10282 20171 39681 40144 81130 333 20232 58017;EQDQ01  00002PRCP06
0167827840999992002112918004-07320-039300FM-12+040999999V0201401N003612200019N0200001N1+03551+01481100881ADDAA106000091GF105991021011008001031091MA1999999096281MD1999999+0081REMSYN070AAXX  29184 82784 32598 51407 10355 20148 39628 40088 82139 333 58008;EQDQ01  00002PRCP06
0214827840999992002113000004-07320-039300FM-12+040999999V0209999C000019999999N0020001N1+03001+01751101101ADDAA106000091GF108991999021008001001001KA1240M+03611MA1999999096481MD1999999+0071REMSYN088AAXX  30004 82784 32595 80000 10300 20175 39648 40110 84200 333 10361 29044 55116 58007;EQDQ01+000042SCOTLCQ02  00002PRCP06
0202827840999992002113012004-07320-039300FM-12+040999999V0201401N001512200019N0200001N1+02801+01751101461ADDAA106000091GF103991999011008001001001KA1240N+02351MA1999999096831MD1999999+0021REMSYN076AAXX  30124 82784 32598 31403 10280 20175 39683 40146 82100 333 20235 58002;EQDQ01+000022SCOTLCQ02  00002PRCP06
0167827840999992002113018004-07320-039300FM-12+040999999V0200901N002110450019N0200001N1+03401+01501100971ADDAA106000091GF106991011011008001031091MA1999999096361MD1999999+0081REMSYN070AAXX  30184 82784 32598 60904 10340 20150 39636 40097 81139 333 58008;EQDQ01  00002PRCP06
0198827840999992002120100004-07320-039300FM-12+040999999V0201401N002112200019N0020001N1+02981+01351101251ADDAA106000091GF102991021001017501031001KA1240M+03461MA1999999096631MD1999999+0151REMSYN088AAXX  01004 82784 32795 21404 10298 20135 39663 40125 82030 333 10346 29046 55101 58015;EQDQ01  00002PRCP06
0186827840999992002120112004-07320-039300FM-12+040999999V0201401N001510075019N0200001N1+02731+01851101431ADDAA106000091GF108991061021008001061999KA1240N+02391MA1999999096791MD1999999-0041REMSYN076AAXX  01124 82784 32598 81403 10273 20185 39679 40143 8626/ 333 20239 59004;EQDQ01  00002PRCP06
0186827840999992002120212004-07320-039300FM-12+040999999V0200901N002110075019N0200001N1+02771+02041101411ADDAA106000091GF105991051021008001001001KA1240N+02271MA1999999096761MD1999999-0031REMSYN076AAXX  02124 82784 32598 50904 10277 20204 39676 40141 85200 333 20227 59003;EQDQ01  00002PRCP06
0167827840999992002120218004-07320-039300FM-12+040999999V0203601N002612200019N0200001N1+03501+01481100821ADDAA106000091GF102991021021008001001001MA1999999096221MD1999999-0051REMSYN070AAXX  02184 82784 32598 23605 10350 20148 39622 40082 82200 333 59005;EQDQ01  00002PRCP06
0208827840999992002120300004-07320-039300FM-12+040999999V0209999C000012200019N0020001N1+02901+01751100991ADDAA106000091GA1001+999999999GF100991001001999999001001KA1240M+03571MA1999999096371MD1999999-0101REMSYN082AAXX  03004 82784 32995 00000 10290 20175 39637 40099 333 10357 29048 55096 59010;EQDQ01  00002PRCP06
0202827840999992002120312004-07320-039300FM-12+040999999V0200501N002119999999N0200001N1+02751+02071101401ADDAA106000091GF105991999051008001021001KA1240N+02441MA1999999096761MD1999999+0001REMSYN076AAXX  03124 82784 32598 50504 10275 20207 39676 40140 88520 333 20244 58000;EQDQ01+000082SCOTLCQ02  00002PRCP06
0167827840999992002120318004-07320-039300FM-12+040999999V0200501N003112200019N0200001N1+03491+01521100831ADDAA106000091GF103991021021008001021001MA1999999096231MD1999999+0011REMSYN070AAXX  03184 82784 32598 30506 10349 20152 39623 40083 82220 333 58001;EQDQ01  00002PRCP06
0212827840999992002120400004-07320-039300FM-12+040999999V0209999C000012200019N0020001N1+02591+02231101141ADDAY191061AY251061GA1001+999999999GF100991001001999999001001KA1240M+03551MA1999999096501MD1999999+0131MW1021REMSYN094AAXX  04004 82784 21995 00000 10259 20223 39650 40114 70295 333 10355 29065 55089 58013 69951;
0186827840999992002120412004-07320-039300FM-12+040999999V0200901N002610120019N0200001N1+02631+01981101451ADDAA106000091GF107991071081008001001001KA1240N+02441MA1999999096791MD1999999+0031REMSYN076AAXX  04124 82784 32598 70905 10263 20198 39679 40145 87800 333 20244 58003;EQDQ01  00002PRCP06
0167827840999992002120418004-07320-039300FM-12+040999999V0200501N002610075019N0200001N1+03471+01501100881ADDAA106000091GF105991051021008001001001MA1999999096281MD1999999+0051REMSYN070AAXX  04184 82784 32598 50505 10347 20150 39628 40088 85200 333 58005;EQDQ01  00002PRCP06
0186827840999992002120512004-07320-039300FM-12+040999999V0201401N002612200019N0200001N1+02871+01651101431ADDAA106000091GF101991011011008001001001KA1240N+02261MA1999999096791MD1999999+0001REMSYN076AAXX  05124 82784 32598 11405 10287 20165 39679 40143 81100 333 20226 58000;EQDQ01  00002PRCP06
0167827840999992002120518004-07320-039300FM-12+040999999V0201401N003612200019N0200001N1+03631+01041100791ADDAA106000091GF102991021011008001001001MA1999999096201MD1999999-0081REMSYN070AAXX  05184 82784 32598 21407 10363 20104 39620 40079 82100 333 59008;EQDQ01  00002PRCP06
0198827840999992002120600004-07320-039300FM-12+040999999V0209999C000012200019N0020001N1+02821+01441101061ADDAA106000091GF101991011011008001001001KA1240M+03681MA1999999096441MD1999999-0031REMSYN088AAXX  06004 82784 32595 10000 10282 20144 39644 40106 81100 333 10368 29039 55115 59003;EQDQ01  00002PRCP06
0196827840999992002120612004-07320-039300FM-12+040999999V0200901N001512200019N0200001N1+02851+01731101211ADDAA106000091GA1001+999999999GF100991001001999999001001KA1240N+02131MA1999999096581MD1999999-0211REMSYN070AAXX  06124 82784 32998 00903 10285 20173 39658 40121 333 20213 59021;EQDQ01  00002PRCP06
0167827840999992002120618004-07320-039300FM-12+040999999V0200501N002612200019N0200001N1+03671+01071100621ADDAA106000091GF101991011011008001001001MA1999999096041MD1999999-0161REMSYN070AAXX  06184 82784 32598 10505 10367 20107 39604 40062 81100 333 59016;EQDQ01  00002PRCP06
0208827840999992002120700004-07320-039300FM-12+040999999V0201401N000512200019N0020001N1+02861+01081100941ADDAA106000091GA1001+999999999GF100991001001999999001001KA1240M+03721MA1999999096331MD1999999-0111REMSYN082AAXX  07004 82784 32995 01401 10286 20108 39633 40094 333 10372 29034 55116 59011;EQDQ01  00002PRCP06
0202827840999992002120712004-07320-039300FM-12+040999999V0200501N002619999999N0200001N1+02731+01811101201ADDAA106000091GF105991999011008001001001KA1240N+02141MA1999999096571MD1999999-0011REMSYN076AAXX  07124 82784 32598 50505 10273 20181 39657 40120 81100 333 20214 59001;EQDQ01+000012SCOTLCQ02  00002PRCP06
0183827840999992002120718004-07320-039300FM-12+040999999V0203201N002119999999N0200001N1+03461+01551100671ADDAA106000091GF106991999021008001001001MA1999999096071MD1999999+0031REMSYN070AAXX  07184 82784 32598 63204 10346 20155 39607 40067 82200 333 58003;EQDQ01+000022SCOTLCQ02  00002PRCP06
0198827840999992002120800004-07320-039300FM-12+040999999V0202301N000512200019N0200001N1+02881+01571100851ADDAA106000091GF101991011001008001001051KA1240M+03521MA1999999096241MD1999999-0091REMSYN088AAXX  08004 82784 32598 12301 10288 20157 39624 40085 81005 333 10352 29045 55096 59009;EQDQ01  00002PRCP06
0186827840999992002120812004-07320-039300FM-12+040999999V0202301N001510120019N0200001N1+02481+02131101261ADDAA106000091GF108991081081008001999999KA1240N+02321MA1999999096621MD1999999+0051REMSYN076AAXX  08124 82784 32598 82303 10248 20213 39662 40126 888// 333 20232 58005;EQDQ01  00002PRCP06
0167827840999992002120818004-07320-039300FM-12+040999999V0203201N003110450019N0200001N1+03161+01891100821ADDAA106000091GF106991041081008001031001MA1999999096201MD1999999+0131REMSYN070AAXX  08184 82784 32598 63206 10316 20189 39620 40082 84830 333 58013;EQDQ01  00002PRCP06
0198827840999992002120900004-07320-039300FM-12+040999999V0201401N001510075019N0020001N1+02621+01861101171ADDAA106000091GF108991081071008001999999KA1240M+03231MA1999999096521MD1999999+0281REMSYN088AAXX  09004 82784 32595 81403 10262 20186 39652 40117 887// 333 10323 29064 55023 58028;EQDQ01  00002PRCP06
0186827840999992002120912004-07320-039300FM-12+040999999V0203601N003110120019N0200001N1+02661+02001101431ADDAA106000091GF107991071081008001021001KA1240N+02531MA1999999096771MD1999999+0151REMSYN076AAXX  09124 82784 32598 73606 10266 20200 39677 40143 87820 333 20253 58015;EQDQ01  00002PRCP06
0199827840999992002120918004-07320-039300FM-12+040999999V0200501N999990075019N0200001N1+02911+01891101061ADDAA106000091GF107991051071008001021001MA1999999096431MD1999999+0231REMSYN070AAXX  09184 82784 32598 70570 10291 20189 39643 40106 85720 333 58023;EQDQ01+003603WOSPD Q02  00002PRCP06Q030003603WOSPD 
0214827840999992002121000004-07320-039300FM-12+040999999V0209999C000019999999N0020001N1+02441+01921101381ADDAA106000091GF108991999011008001001001KA1240M+03291MA1999999096821MD1999999+0291REMSYN088AAXX  10004 82784 32595 80000 10244 20192 39682 40138 82100 333 10329 29067 55016 58029;EQDQ01+000022SCOTLCQ02  00002PRCP06
0186827840999992002121012004-07320-039300FM-12+040999999V0200901N001010450019N0200001N1+02631+02101101571ADDAA106000091GF106991041021008001031001KA1240N+02261MA1999999096901MD1999999+0131REMSYN076AAXX  10124 82784 32598 60902 10263 20210 39690 40157 84230 333 20226 58013;EQDQ01  00002PRCP06
0167827840999992002121018004-07320-039300FM-12+040999999V0200901N001510450019N0200001N1+03221+01881101071ADDAA106000091GF105991031021008001031001MA1999999096451MD1999999+0021REMSYN070AAXX  10184 82784 32598 50903 10322 20188 39645 40107 83230 333 58002;EQDQ01  00002PRCP06
0198827840999992002121100004-07320-039300FM-12+040999999V0209999C000010075019N0020001N1+02791+01821101401ADDAA106000091GF108991061041008001031999KA1240M+03331MA1999999096751MD1999999-0071REMSYN088AAXX  11004 82784 32595 80000 10279 20182 39675 40140 8643/ 333 10333 29058 55025 59007;EQDQ01  00002PRCP06
0186827840999992002121112004-07320-039300FM-12+040999999V0201401N003612200019N0200001N1+02891+01861101581ADDAA106000091GF104991041021008001001001KA1240N+02341MA1999999096941MD1999999+0041REMSYN076AAXX  11124 82784 32598 41407 10289 20186 39694 40158 84200 333 20234 58004;EQDQ01  00002PRCP06
0167827840999992002121118004-07320-039300FM-12+040999999V0200501N002112200019N0200001N1+03511+01501101021ADDAA106000091GF103991031021008001001001MA1999999096411MD1999999-0041REMSYN070AAXX  11184 82784 32598 30504 10351 20150 39641 40102 83200 333 59004;EQDQ01  00002PRCP06
0198827840999992002121200004-07320-039300FM-12+040999999V0202701N000512200019N0020001N1+02971+01711101221ADDAA106000091GF102991021011008001001001KA1240M+03591MA1999999096601MD1999999-0171REMSYN088AAXX  12004 82784 32595 22701 10297 20171 39660 40122 82100 333 10359 29044 55099 59017;EQDQ01  00002PRCP06
0186827840999992002121212004-07320-039300FM-12+040999999V0200901N001512200019N0200001N1+02801+01841101511ADDAA106000091GF102991011011008001011001KA1240N+02411MA1999999096871MD1999999-0071REMSYN076AAXX  12124 82784 32598 20903 10280 20184 39687 40151 81110 333 20241 59007;EQDQ01  00002PRCP06
0167827840999992002121218004-07320-039300FM-12+040999999V0200501N002112200019N0200001N1+03621+00891100911ADDAA106000091GF102991011021008001021001MA1999999096311MD1999999-0101REMSYN070AAXX  12184 82784 32598 20504 10362 20089 39631 40091 81220 333 59010;EQDQ01  00002PRCP06
0208827840999992002121300004-07320-039300FM-12+040999999V0209999C000012200019N0020001N1+02811+00671101191ADDAA106000091GA1001+999999999GF100991001001999999001001KA1240M+03671MA1999999096561MD1999999-0041REMSYN082AAXX  13004 82784 32995 00000 10281 20067 39656 40119 333 10367 29032 55101 59004;EQDQ01  00002PRCP06
0186827840999992002121312004-07320-039300FM-12+040999999V0201401N003110075019N0200001N1+02771+01851101541ADDAA106000091GF106991061021008001001001KA1240N+02481MA1999999096891MD1999999+0021REMSYN076AAXX  13124 82784 32598 61406 10277 20185 39689 40154 86200 333 20248 58002;EQDQ01  00002PRCP06
0208827840999992002121400004-07320-039300FM-12+040999999V0200901N001012200019N0020001N1+02831+01551101161ADDAA106000091GA1001+999999999GF100991001001999999001001KA1240M+03571MA1999999096531MD1999999-0031REMSYN082AAXX  14004 82784 32995 00902 10283 20155 39653 40116 333 10357 29045 55085 59003;EQDQ01  00002PRCP06
0186827840999992002121412004-07320-039300FM-12+040999999V0200901N003610075019N0200001N1+02841+01911101501ADDAA106000091GF106991061021008001001001KA1240N+02481MA1999999096861MD1999999-0031REMSYN076AAXX  14124 82784 32598 60907 10284 20191 39686 40150 86200 333 20248 59003;EQDQ01  00002PRCP06
0208827840999992002121500004-07320-039300FM-12+040999999V0200901N001012200019N0020001N1+02851+01531101251ADDAA106000091GA1001+999999999GF100991001001999999001001KA1240M+03561MA1999999096621MD1999999+0091REMSYN082AAXX  15004 82784 32995 00902 10285 20153 39662 40125 333 10356 29045 55101 58009;EQDQ01  00002PRCP06
0186827840999992002121512004-07320-039300FM-12+040999999V0200901N003110075019N0200001N1+02881+01911101481ADDAA106000091GF106991061021008001001001KA1240N+02851MA1999999096841MD1999999-0021REMSYN076AAXX  15124 82784 32598 60906 10288 20191 39684 40148 86200 333 20285 59002;EQDQ01  00002PRCP06
0167827840999992002121518004-07320-039300FM-12+040999999V0200501N003610075019N0200001N1+03541+01521100911ADDAA106000091GF105991051021008001001001MA1999999096321MD1999999-0071REMSYN070AAXX  15184 82784 32598 50507 10354 20152 39632 40091 85200 333 59007;EQDQ01  00002PRCP06
0208827840999992002121600004-07320-039300FM-12+040999999V0201401N001012200019N0020001N1+02861+01651101131ADDAA106000091GA1001+999999999GF100991001001999999001001KA1240M+03631MA1999999096511MD1999999-0111REMSYN082AAXX  16004 82784 32995 01402 10286 20165 39651 40113 333 10363 29046 55108 59011;EQDQ01  00002PRCP06
0186827840999992002121612004-07320-039300FM-12+040999999V0200901N003112200019N0200001N1+02941+01881101331ADDAA106000091GF102991021011008001001001KA1240N+02651MA1999999096701MD1999999-0141REMSYN076AAXX  16124 82784 32598 20906 10294 20188 39670 40133 82100 333 20265 59014;EQDQ01  00002PRCP06
0167827840999992002121618004-07320-039300FM-12+040999999V0200501N003610075019N0200001N1+03571+01601100781ADDAA106000091GF105991051021008001001001MA1999999096191MD1999999-0131REMSYN070AAXX  16184 82784 32598 50507 10357 20160 39619 40078 85200 333 59013;EQDQ01  00002PRCP06
0208827840999992002121700004-07320-039300FM-12+040999999V0201401N000512200019N0020001N1+02881+01601101021ADDAA106000091GA1001+999999999GF100991001001999999001001KA1240M+03651MA1999999096411MD1999999-0101REMSYN082AAXX  17004 82784 32995 01401 10288 20160 39641 40102 333 10365 29044 55105 59010;EQDQ01  00002PRCP06
0186827840999992002121712004-07320-039300FM-12+040999999V0200501N003110075019N0200001N1+02751+01971101361ADDAA106000091GF107991071021008001001001KA1240N+02511MA1999999096721MD1999999+0021REMSYN076AAXX  17124 82784 32598 70506 10275 20197 39672 40136 87200 333 20251 58002;EQDQ01  00002PRCP06
0167827840999992002121718004-07320-039300FM-12+040999999V0203201N002110450019N0200001N1+03491+01571100821ADDAA106000091GF105991041021008001011001MA1999999096231MD1999999+0041REMSYN070AAXX  17184 82784 32598 53204 10349 20157 39623 40082 84210 333 58004;EQDQ01  00002PRCP06
0214827840999992002121800004-07320-039300FM-12+040999999V0201801N000510075019N0020001N1+02941+01551101141ADDAA106000091GF106991999021008001001001KA1240M+03571MA1999999096521MD1999999+0111REMSYN088AAXX  18004 82784 32595 61801 10294 20155 39652 40114 85200 333 10357 29048 55069 58011;EQDQ01+000052SCOTLCQ02  00002PRCP06
0186827840999992002121812004-07320-039300FM-12+040999999V0203601N001010120019N0200001N1+02681+01991101441ADDAA106000091GF107991071081008001001001KA1240N+02231MA1999999096801MD1999999+0081REMSYN076AAXX  18124 82784 32598 73602 10268 20199 39680 40144 87800 333 20223 58008;EQDQ01  00002PRCP06
0167827840999992002121818004-07320-039300FM-12+040999999V0201401N002612200019N0200001N1+03441+01581100891ADDAA106000091GF104991041021008001001001MA1999999096291MD1999999+0061REMSYN070AAXX  18184 82784 32598 41405 10344 20158 39629 40089 84200 333 58006;EQDQ01  00002PRCP06
0198827840999992002121900004-07320-039300FM-12+040999999V0209999C000010075019N0020001N1+02881+01531101101ADDAA106000091GF108991071051008001031999KA1240M+03511MA1999999096471MD1999999-0051REMSYN088AAXX  19004 82784 32595 80000 10288 20153 39647 40110 8753/ 333 10351 29047 55063 59005;EQDQ01  00002PRCP06
0186827840999992002121912004-07320-039300FM-12+040999999V0203601N002110450019N0200001N1+02851+01851101371ADDAA106000091GF105991031021008001021001KA1240N+02511MA1999999096741MD1999999-0061REMSYN076AAXX  19124 82784 32598 53604 10285 20185 39674 40137 83220 333 20251 59006;EQDQ01  00002PRCP06
0167827840999992002121918004-07320-039300FM-12+040999999V0200501N002610450019N0200001N1+03491+01661100901ADDAA106000091GF106991031021008001021001MA1999999096311MD1999999+0021REMSYN070AAXX  19184 82784 32598 60505 10349 20166 39631 40090 83220 333 58002;EQDQ01  00002PRCP06
0221827840999992002122000004-07320-039300FM-12+040999999V0209999C000010042019N0020001N1+02501+02111101251ADDAY161061AY221061GF108991999021004501001001KA1240M+03551MA1999999096611MD1999999+0141MW1031REMSYN100AAXX  20004 82784 21495 80000 10250 20211 39661 40125 70362 86200 333 10355 29062 55090 58014 60041;EQDQ01+000062SCOTLC
0190827840999992002122012004-07320-039300FM-12+040999999V0201401N003112200019N0200001N1+02811+01921101621ADDAY161061AY221061GF103991021011008001021001KA1240N+02431MA1999999096951MD1999999+0211MW1201REMSYN088AAXX  20124 82784 21598 31406 10281 20192 39695 40162 72062 82120 333 20243 58021 60014;
0148827840999992002122018004-07320-039300FM-12+040999999V0201401N001510450019N0200001N1+03421+01561101121ADDAA106000021GF105991031021008001021001MA1999999096501MD1999999+0191REMSYN070AAXX  20184 82784 32598 51403 10342 20156 39650 40112 83220 333 58019;
0198827840999992002122100004-07320-039300FM-12+040999999V0201401N000510075019N0020001N1+02841+01431101311ADDAA106000091GF108991071051008001061999KA1240M+03471MA1999999096671MD1999999+0061REMSYN088AAXX  21004 82784 32595 81401 10284 20143 39667 40131 8756/ 333 10347 29044 55082 58006;EQDQ01  00002PRCP06
0186827840999992002122112004-07320-039300FM-12+040999999V0200501N002112200019N0200001N1+02771+01931101631ADDAA106000091GF103991031021008001001001KA1240N+02451MA1999999096981MD1999999+0031REMSYN076AAXX  21124 82784 32598 30504 10277 20193 39698 40163 83200 333 20245 58003;EQDQ01  00002PRCP06
0167827840999992002122118004-07320-039300FM-12+040999999V0201401N001512200019N0200001N1+03551+01531101021ADDAA106000091GF103991031021008001001001MA1999999096421MD1999999-0081REMSYN070AAXX  21184 82784 32598 31403 10355 20153 39642 40102 83200 333 59008;EQDQ01  00002PRCP06
0198827840999992002122200004-07320-039300FM-12+040999999V0201401N001010075019N0020001N1+03001+01491101191ADDAA106000091GF108991081071008001999999KA1240M+03661MA1999999096571MD1999999-0101REMSYN088AAXX  22004 82784 32595 81402 10300 20149 39657 40119 887// 333 10366 29042 55098 59010;EQDQ01  00002PRCP06
0208827840999992002122300004-07320-039300FM-12+040999999V0200501N003112200019N0040001N1+03201+01651101201ADDAA106000091GA1001+999999999GF100991001001999999001001KA1240M+03521MA1999999096571MD1999999+0001REMSYN082AAXX  23004 82784 32596 00506 10320 20165 39657 40120 333 10352 29046 55101 58000;EQDQ01  00002PRCP06
0186827840999992002122312004-07320-039300FM-12+040999999V0203201N000510075019N0200001N1+02621+02051101451ADDAA106000091GF106991061021008001001001KA1240N+02301MA1999999096801MD1999999+0011REMSYN076AAXX  23124 82784 32598 63201 10262 20205 39680 40145 86200 333 20230 58001;EQDQ01  00002PRCP06
0167827840999992002122318004-07320-039300FM-12+040999999V0200901N001510450019N0200001N1+03501+01581100901ADDAA106000091GF105991031021008001031001MA1999999096301MD1999999-0051REMSYN070AAXX  23184 82784 32598 50903 10350 20158 39630 40090 83230 333 59005;EQDQ01  00002PRCP06
0202827840999992002122400004-07320-039300FM-12+040999999V0201801N002610075019N0020001N1+02641+02001101221ADDAY121061AY221061GF108991081071008001999999KA1240M+03611MA1999999096571MD1999999+0001MW1511REMSYN100AAXX  24004 82784 21595 81805 10264 20200 39657 40122 75122 887// 333 10361 29060 55079 58000 69951;
0186827840999992002122412004-07320-039300FM-12+040999999V0201801N001010450019N0200001N1+02711+02081101451ADDAA106000091GF106991041021008001021001KA1240N+02471MA1999999096791MD1999999-0011REMSYN076AAXX  24124 82784 32598 61802 10271 20208 39679 40145 84220 333 20247 59001;EQDQ01  00002PRCP06
0167827840999992002122418004-07320-039300FM-12+040999999V0200501N001510450019N0200001N1+03451+01801100901ADDAA106000091GF106991041021008001021001MA1999999096301MD1999999+0001REMSYN070AAXX  24184 82784 32598 60503 10345 20180 39630 40090 84220 333 58000;EQDQ01  00002PRCP06
0198827840999992002122500004-07320-039300FM-12+040999999V0203601N000512200019N0020001N1+02861+01841101121ADDAA106000091GF102991021061008001051001KA1240M+03641MA1999999096491MD1999999-0081REMSYN088AAXX  25004 82784 32595 23601 10286 20184 39649 40112 82650 333 10364 29054 55075 59008;EQDQ01  00002PRCP06
0202827840999992002122512004-07320-039300FM-12+040999999V0201401N001010075019N0100001N1+02331+02171101561ADDAA106000091GF108991999021008001001001KA1240N+02331MA1999999096891MD1999999+0101REMSYN076AAXX  25124 82784 32597 81402 10233 20217 39689 40156 86200 333 20233 58010;EQDQ01+000062SCOTLCQ02  00002PRCP06
0171827840999992002122518004-07320-039300FM-12+040999999V0209999C000010450019N0200001N1+02791+02091101201ADDAY121061AY221061GF105991021021008001031001MA1999999096551MD1999999+0241MW1211REMSYN082AAXX  25184 82784 21598 50000 10279 20209 39655 40120 72122 82230 333 58024 60051;
0179827840999992002122600004-07320-039300FM-12+040999999V0209999C000012200019N0020001N1+02481+02211101421ADDAA106000021GF102991021011017501001001KA1240M+02971MA1999999096741MD1999999+0251REMSYN088AAXX  26004 82784 32795 20000 10248 20221 39674 40142 82100 333 10297 29082 55027 58025;
0186827840999992002122612004-07320-039300FM-12+040999999V0203201N002110075019N0200001N1+02561+02081101631ADDAA106000091GF107991071021008001001001KA1240N+02311MA1999999096951MD1999999+0061REMSYN076AAXX  26124 82784 32598 73204 10256 20208 39695 40163 87200 333 20231 58006;EQDQ01  00002PRCP06
0167827840999992002122618004-07320-039300FM-12+040999999V0203201N001511050019N0200001N1+03231+01771100991ADDAA106000091GF105991021021008001001051MA1999999096361MD1999999-0191REMSYN070AAXX  26184 82784 32598 53203 10323 20177 39636 40099 82205 333 59019;EQDQ01  00002PRCP06
0202827840999992002122700004-07320-039300FM-12+040999999V0201401N001510075019N0010001N1+02461+02071101311ADDAY161061AY221061GF108991081071008001999999KA1240M+03351MA1999999096651MD1999999-0091MW1951REMSYN100AAXX  27004 82784 21594 81403 10246 20207 39665 40131 79562 887// 333 10335 29069 55025 59009 60161;
0190827840999992002122712004-07320-039300FM-12+040999999V0201801N000510450019N0200001N1+02491+02151101541ADDAY191061AY261061GF108991031021008001021011KA1240N+02271MA1999999096861MD1999999-0091MW1211REMSYN088AAXX  27124 82784 21598 81801 10249 20215 39686 40154 72196 83221 333 20227 59009 60084;
0148827840999992002122718004-07320-039300FM-12+040999999V0200501N000510450019N0200001N1+03061+01871101081ADDAA106000021GF106991021021008001031091MA1999999096441MD1999999+0081REMSYN070AAXX  27184 82784 32598 60501 10306 20187 39644 40108 82239 333 58008;
0208827840999992002122800004-07320-039300FM-12+040999999V0209999C000012200019N0020001N1+02601+02231101281ADDAA106000091GA1001+999999999GF100991001001999999001001KA1240M+03151MA1999999096581MD1999999-0071REMSYN082AAXX  28004 82784 32595 00000 10260 20223 39658 40128 333 10315 29072 55015 59007;EQDQ01  00002PRCP06
0190827840999992002122812004-07320-039300FM-12+040999999V0200501N002112200019N0200001N1+02541+02151101441ADDAY101061AY201061GF106991041021008001001011KA1240N+02191MA1999999096771MD1999999-0091MW1211REMSYN088AAXX  28124 82784 21598 60504 10254 20215 39677 40144 72100 84201 333 20219 59009 60064;
0148827840999992002122818004-07320-039300FM-12+040999999V0200501N002610450019N0200001N1+03121+01791100961ADDAA106000021GF105991031021008001031091MA1999999096331MD1999999-0111REMSYN070AAXX  28184 82784 32598 50505 10312 20179 39633 40096 83239 333 59011;
0198827840999992002122900004-07320-039300FM-12+040999999V0209999C000012200019N0020001N1+02651+01881101171ADDAA106000091GF102991021001017501021001KA1240M+03241MA1999999096521MD1999999-0061REMSYN088AAXX  29004 82784 32795 20900 10265 20188 39652 40117 82020 333 10324 29062 55082 59006;EQDQ01  00002PRCP06
0186827840999992002122912004-07320-039300FM-12+040999999V0200901N003112200019N0200001N1+02711+01781101381ADDAA106000091GF102991021011017501001001KA1240N+02261MA1999999096721MD1999999-0051REMSYN076AAXX  29124 82784 32798 20906 10271 20178 39672 40138 82100 333 20226 59005;EQDQ01  00002PRCP06
0183827840999992002122918004-07320-039300FM-12+040999999V0200901N002119999999N0200001N1+03291+01441100911ADDAA106000091GF106991999021008001001001MA1999999096301MD1999999-0031REMSYN070AAXX  29184 82784 32598 60904 10329 20144 39630 40091 83200 333 59003;EQDQ01+000032SCOTLCQ02  00002PRCP06
0198827840999992002123000004-07320-039300FM-12+040999999V0202301N001012200019N0020001N1+02641+01771101201ADDAA106000091GF101991011041008001001001KA1240M+03371MA1999999096561MD1999999+0041REMSYN088AAXX  30004 82784 32595 12302 10264 20177 39656 40120 81400 333 10337 29052 55106 58004;EQDQ01  00002PRCP06
0171827840999992002123012004-07320-039300FM-12+040999999V0200501N001512200019N0200001N1+02621+01911101511ADDAA106000091GF104991999999008001999999KA1240N+02501MA1999999096851REMSYN075AAXX  30124 82784 32598 40503 10262 20191 39685 40151 4200 333 20250 58013;EQDQ01  00002PRCP06
0167827840999992002123018004-07320-039300FM-12+040999999V0201401N001512200019N0200001N1+03421+01511100961ADDAA106000091GF103991021021008001021001MA1999999096351MD1999999+0051REMSYN070AAXX  30184 82784 32598 31403 10342 20151 39635 40096 82220 333 58005;EQDQ01  00002PRCP06
0198827840999992002123100004-07320-039300FM-12+040999999V0201801N001012200019N0020001N1+02721+01851101181ADDAA106000091GF101991011041008001001001KA1240M+03511MA1999999096541MD1999999-0021REMSYN088AAXX  31004 82784 32595 11802 10272 20185 39654 40118 81400 333 10351 29054 55078 59002;EQDQ01  00002PRCP06
0190827840999992002123112004-07320-039300FM-12+040999999V0202301N000510075019N0200001N1+02701+01991101521ADDAY101061AY201061GF106991061021008001001001KA1240N+02451MA1999999096861MD1999999+0011MW1201REMSYN088AAXX  31124 82784 21598 62301 10270 20199 39686 40152 72000 86200 333 20245 58001 69914;
0148827840999992002123118004-07320-039300FM-12+040999999V0200501N001510450019N0200001N1+03371+01661100981ADDAA106000021GF105991041021008001021001MA1999999096381MD1999999+0031REMSYN070AAXX  31184 82784 32598 50503 10337 20166 39638 40098 84220 333 58003;
