0167829000999992002031118004-08040-034920FM-12+000799999V0201801N003110450019N0100001N1+02891+02401101191ADDAA199000091GF106991041021008001021001MA1999999101101MD1999999-0021REMSYN070AAXX  11184 82900 32597 61806 10289 20240 30110 40119 84220 333 59002;EQDQ01  00002PRCP99
0167829000999992002031818004-08040-034920FM-12+000799999V0201401N003610075019N0100001N1+02881+02461100991ADDAA199000091GF108991081041008001001001MA1999999100901MD1999999-0111REMSYN070AAXX  18184 82900 32597 81407 10288 20246 30090 40099 88400 333 59011;EQDQ01  00002PRCP99
0198829000999992002031900004-08040-034920FM-12+000799999V0202301N001510075019N0020001N1+02531+02421101261ADDAA199000091GF106991061071008001001001KA1240M+03021MA1999999101171MD1999999-0071REMSYN088AAXX  19004 82900 32595 62303 10253 20242 30117 40126 86700 333 10302 29086 55044 59007;EQDQ01  00002PRCP99
0201829000999992002041012004-08040-034920FM-12+000799999V0200901N002110075019N0100001N1+02831+02381101211ADDAA124002091AY161061AY221061GF106991061021008001001001KA1240N+02261MA1999999101121MD1999999-0071MW1021REMSYN088AAXX  10124 82900 21597 60904 10283 20238 30112 40121 70262 86200 333 20226 59007 60024;
0201829000999992002043012004-08040-034920FM-12+000799999V0201801N002610075019N0100001N1+02641+02351101481ADDAA106000591AY161061AY221061GF108991081061008001999999KA1240N+02361MA1999999101391MD1999999+0061MW1031REMSYN088AAXX  30124 82900 21597 81805 10264 20235 30139 40148 70362 886// 333 20236 58006 69951;
0167829000999992002051218004-08040-034920FM-12+000799999V0201801N010010075019N0100001N1+02861+02281101281ADDAA199000091GF106991061021008001001001MA1999999101191MD1999999-0041REMSYN070AAXX  12180 82900 32597 61810 10286 20228 30119 40128 86200 333 59004;EQDQ01  00002PRCP99
0198829000999992002051300004-08040-034920FM-12+000799999V0202301N002112200019N0020001N1+02591+02211101581ADDAA199000091GF104991041011008001001001KA1240M+02941MA1999999101491MD1999999+0001REMSYN088AAXX  13004 82900 32595 42304 10259 20221 30149 40158 84100 333 10294 29075 55098 58000;EQDQ01  00002PRCP99
0201829000999992002051312004-08040-034920FM-12+000799999V0201801N005710075019N0100001N1+02761+02301101531ADDAA124000391AY161061AY221061GF108991081041008001001001KA1240N+02181MA1999999101441MD1999999-0061MW1031REMSYN088AAXX  13124 82900 21597 81811 10276 20230 30144 40153 70362 88400 333 20218 59006 69934;
0201829000999992002051612004-08040-034920FM-12+000799999V0200901N003610075019N0100001N1+02571+02461101501ADDAA124071191AY161061AY261061GF107991071061008001999999KA1240N+02371MA1999999101411MD1999999-0021MW1511REMSYN088AAXX  16124 82900 21597 70907 10257 20246 30141 40150 75166 876// 333 20237 59002 60714;
0182829000999992002051618004-08040-034920FM-12+000799999V0209999C000010075019N0100001N1+02611+02401101191ADDAA106016091AY161061AY261061GF107991071061008001999999MA1999999101101MD1999999-0071MW1031REMSYN082AAXX  16184 82900 21597 70000 10261 20240 30110 40119 70366 876// 333 59007 60161;
0201829000999992002052212004-08040-034920FM-12+000799999V0201401N003610075019N0100001N1+02771+02421101411ADDAA124002091AY161061AY221061GF106991061021008001001001KA1240N+02411MA1999999101321MD1999999-0081MW1021REMSYN088AAXX  22124 82900 21597 61407 10277 20242 30132 40141 70262 86200 333 20241 59008 60024;
0186829000999992002052912004-08040-034920FM-12+000799999V0202301N003610075019N0100001N1+02601+02251101421ADDAA199000091GF108991081061008001999999KA1240N+02311MA1999999101331MD1999999-0071REMSYN076AAXX  29124 82900 32597 82307 10260 20225 30133 40142 886// 333 20231 59007;EQDQ01  00002PRCP99
0214829000999992002061100004-08050-034920FM-12+000799999V0209999C000019999999N0020001N1+02291+02181101501ADDAA199000091GF105991999011008001001001KA1240M+02861MA1999999101411MD1999999-0011REMSYN088AAXX  11004 82900 32595 50000 10229 20218 30141 40150 82100 333 10286 29083 55101 59001;EQDQ01+000022SCOTLCQ02  00002PRCP99
0186829000999992002061112004-08050-034920FM-12+000799999V0201801N002610075019N0100001N1+02701+02281101531ADDAA199000091GF106991061021008001001001KA1240N+02081MA1999999101441MD1999999-0011REMSYN076AAXX  11124 82900 32597 61805 10270 20228 30144 40153 86200 333 20208 59001;EQDQ01  00002PRCP99
0162829000999992002062712004-08050-034920FM-12+000799999V0201801N002610075019N0100001N1+02581+02171101881ADDGF106991061021008001001001KA1240N+02071MA1999999101791MD1999999-0121REMSYN082AAXX  27124 82900 22597 61805 10258 20217 30179 40188 86200 333 20207 59012 60014;
0190829000999992002071312004-08050-034920FM-12+000799999V0201801N000510075019N0100001N1+02361+02261101661ADDAY151061AY221061GF108991081071008001999999KA1240N+01921MA1999999101571MD1999999-0101MW1501REMSYN088AAXX  13124 82900 21597 81801 10236 20226 30157 40166 75052 887// 333 20192 59010 69954;
