0198829830999992002010100004-09370-040480FM-12+037099999V0209999C000010075019N0020001N1+02321+02051101131ADDAA199000091GF108991081061008001999999KA1240M+02441MA1999999096951MD1999999+0061REMSYN088AAXX  01004 82983 32595 80000 10232 20205 39695 40113 886// 333 10244 29085 55000 58006;EQDQ01  00002PRCP99
0213829830999992002010300004-09370-040480FM-12+037099999V0209999C000010120019N0020001N1+02321+02181101211ADDAA106006191AY151061AY261061GF108991081081008001999999KA1240M+02861MA1999999097031MD1999999+0271MW1031REMSYN100AAXX  03004 82983 21595 80000 10232 20218 39703 40121 70356 888// 333 10286 29092 55010 58027 60061;
0198829830999992002010400004-09370-040480FM-12+037099999V0200501N003110075019N0020001N1+02621+02101101011ADDAA199000091GF107991071021008001001001KA1240M+03101MA1999999096881MD1999999-0151REMSYN088AAXX  04004 82983 32595 70506 10262 20210 39688 40101 87200 333 10310 29075 55018 59015;EQDQ01  00002PRCP99
0201829830999992002010412004-09370-040480FM-12+037099999V0200501N003110075019N0020001N1+02201+02081101371ADDAA124054191AY151061AY261061GF108991081061008001999999KA1240N+02161MA1999999097191MD1999999+0151MW1611REMSYN088AAXX  04124 82983 21595 80506 10220 20208 39719 40137 76156 886// 333 20216 58015 60544;
0226829830999992002010500004-09370-040480FM-12+037099999V0201401N001510075019N0020001N1+02241+02101101311ADDAA106008991AY101061AY211061GF106991061021008001001001KA1240M+02661MA1999999097111MD1999999+0111REMSYN100AAXX  05004 82983 21595 61403 10224 20210 39711 40131 75601 86200 333 10266 29092 55000 58011 60091;EQDQ01+000562PRSWM1
0173829830999992002010512004-09370-040480FM-12+037099999V0200501N002610075019N0020001N1+02481+02151101431ADDAA124007991GF106991061021008001001001KA1240N+02221MA1999999097251MD1999999+0061REMSYN082AAXX  05124 82983 22595 60505 10248 20215 39725 40143 86200 333 20222 58006 60084;
0198829830999992002010600004-09370-040480FM-12+037099999V0201801N003110075019N0020001N1+02601+02191101091ADDAA199000091GF108991081021008001999999KA1240M+03201MA1999999096951MD1999999-0161REMSYN088AAXX  06004 82983 32595 81806 10260 20219 39695 40109 882// 333 10320 29079 55061 59016;EQDQ01  00002PRCP99
0214829830999992002010612004-09370-040480FM-12+037099999V0203601N003110075019N0020001N1+02381+02151101221ADDAA124009991AY101061AY231061GF108991081051008001999999KA1240N+02301MA1999999097071MD1999999+0181REMSYN088AAXX  06124 82983 21595 83606 10238 20215 39707 40122 75603 885// 333 20230 58018 60104;EQDQ01+000562PRSWM1
0213829830999992002010700004-09370-040480FM-12+037099999V0200501N001510075019N0020001N1+02361+02171101101ADDAA106007191AY151061AY261061GF108991081061008001999999KA1240M+02641MA1999999096931MD1999999-0021MW1211REMSYN100AAXX  07004 82983 21595 80503 10236 20217 39693 40110 72156 886// 333 10264 29088 55000 59002 60071;
0173829830999992002010712004-09370-040480FM-12+037099999V0202701N003110075019N0020001N1+02361+02111101231ADDAA124007191GF108991081061008001999999KA1240N+02301MA1999999097051MD1999999-0021REMSYN082AAXX  07124 82983 22595 82706 10236 20211 39705 40123 886// 333 20230 59002 60074;
0213829830999992002010800004-09370-040480FM-12+037099999V0209999C000010075019N0020001N1+02241+02101101201ADDAA106020191AY151061AY261061GF108991081061008001999999KA1240M+02581MA1999999097021MD1999999+0091MW1031REMSYN100AAXX  08004 82983 21595 80000 10224 20210 39702 40120 70356 886// 333 10258 29090 55001 58009 60201;
0201829830999992002010812004-09370-040480FM-12+037099999V0201401N002610075019N0020001N1+02341+02051101301ADDAA124023991AY151061AY261061GF108991081051008001999999KA1240N+02101MA1999999097121MD1999999+0051MW1031REMSYN088AAXX  08124 82983 21595 81405 10234 20205 39712 40130 70356 885// 333 20210 58005 60244;
0198829830999992002010900004-09370-040480FM-12+037099999V0201401N004110075019N0020001N1+02561+01971101131ADDAA199000091GF106991061021008001001001KA1240M+03041MA1999999096971MD1999999-0051REMSYN088AAXX  09004 82983 32595 61408 10256 20197 39697 40113 86200 333 10304 29075 55029 59005;EQDQ01  00002PRCP99
0186829830999992002010912004-09370-040480FM-12+037099999V0201401N003110075019N0020001N1+02461+02011101351ADDAA199000091GF108991081051008001999999KA1240N+02301MA1999999097191MD1999999+0071REMSYN076AAXX  09124 82983 32595 81406 10246 20201 39719 40135 885// 333 20230 58007;EQDQ01  00002PRCP99
0226829830999992002011000004-09370-040480FM-12+037099999V0201401N001510075019N0020001N1+02401+02051101321ADDAA106006191AY151061AY211061GF106991061021008001001001KA1240M+02901MA1999999097151MD1999999+0181REMSYN100AAXX  10004 82983 21595 61403 10240 20205 39715 40132 75651 86200 333 10290 29079 55048 58018 60061;EQDQ01+000562PRSWM1
0214829830999992002011012004-09370-040480FM-12+037099999V0200901N004110075019N0020001N1+02461+01941101501ADDAA124007991AY101061AY231061GF106991061021008001001001KA1240N+02261MA1999999097331MD1999999+0141REMSYN088AAXX  10124 82983 21595 60908 10246 20194 39733 40150 75603 86200 333 20226 58014 60084;EQDQ01+000562PRSWM1
0226829830999992002011200004-09370-040480FM-12+037099999V0201401N002612200019N0020001N1+02421+02131101481ADDAA106001091AY101061AY211061GF104991041021008001001001KA1240M+03121MA1999999097311MD1999999+0051REMSYN100AAXX  12004 82983 21595 41405 10242 20213 39731 40148 75601 84200 333 10312 29081 55094 58005 60011;EQDQ01+000562PRSWM1
0173829830999992002011212004-09370-040480FM-12+037099999V0201401N003110075019N0020001N1+02521+02051101571ADDAA124001091GF106991061021008001001001KA1240N+02341MA1999999097391MD1999999-0021REMSYN082AAXX  12124 82983 22595 61406 10252 20205 39739 40157 86200 333 20234 59002 60014;
0198829830999992002011300004-09370-040480FM-12+037099999V0201401N001510075019N0020001N1+02521+02131101351ADDAA199000091GF106991061021008001001001KA1240M+03041MA1999999097191MD1999999-0121REMSYN088AAXX  13004 82983 32595 61403 10252 20213 39719 40135 86200 333 10304 29078 55077 59012;EQDQ01  00002PRCP99
0186829830999992002011312004-09370-040480FM-12+037099999V0201401N002610075019N0020001N1+02381+02031101471ADDAA199000091GF108991081021008001999999KA1240N+02301MA1999999097291MD1999999-0091REMSYN076AAXX  13124 82983 32595 81405 10238 20203 39729 40147 882// 333 20230 59009;EQDQ01  00002PRCP99
0198829830999992002011400004-09370-040480FM-12+037099999V0201401N002610075019N0020001N1+02741+02021101211ADDAA199000091GF106991061051008001001001KA1240M+03081MA1999999097071MD1999999-0121REMSYN088AAXX  14004 82983 32595 61405 10274 20202 39707 40121 86500 333 10308 29070 55076 59012;EQDQ01  00002PRCP99
0186829830999992002011412004-09370-040480FM-12+037099999V0200901N003110075019N0020001N1+02581+02041101311ADDAA199000091GF105991051011008001001001KA1240N+02401MA1999999097171MD1999999-0121REMSYN076AAXX  14124 82983 32595 50906 10258 20204 39717 40131 85100 333 20240 59012;EQDQ01  00002PRCP99
0198829830999992002011500004-09370-040480FM-12+037099999V0200901N001512200019N0020001N1+02861+02011100901ADDAA199000091GF102991021011008001001001KA1240M+03121MA1999999096781MD1999999-0291REMSYN088AAXX  15004 82983 32595 20903 10286 20201 39678 40090 82100 333 10312 29064 55087 59029;EQDQ01  00002PRCP99
0201829830999992002011512004-09370-040480FM-12+037099999V0200901N001510075019N0020001N1+02281+02051101071ADDAA124019191AY161061AY251061GF108991081061008001999999KA1240N+02141MA1999999096931MD1999999-0241MW1511REMSYN088AAXX  15124 82983 21595 80903 10228 20205 39693 40107 75165 886// 333 20214 59024 60194;
0226829830999992002011600004-09370-040480FM-12+037099999V0200501N002610075019N0020001N1+02401+02151100901ADDAA106004191AY101061AY231061GF108991081061008001999999KA1240M+02961MA1999999096741MD1999999-0041REMSYN100AAXX  16004 82983 21595 80505 10240 20215 39674 40090 75603 886// 333 10296 29086 55033 59004 60041;EQDQ01+000562PRSWM1
0214829830999992002011612004-09370-040480FM-12+037099999V0203601N002610075019N0020001N1+02261+02121101181ADDAA124009991AY151061AY211061GF108991081061008001999999KA1240N+02271MA1999999097001MD1999999+0071REMSYN088AAXX  16124 82983 21595 83605 10226 20212 39700 40118 75651 886// 333 20227 58007 60104;EQDQ01+000562PRSWM1
0226829830999992002011700004-09370-040480FM-12+037099999V0209999C000010075019N0020001N1+02361+02111101081ADDAA106007991AY101061AY231061GF106991061021008001001001KA1240M+02521MA1999999096911MD1999999+0171REMSYN100AAXX  17004 82983 21595 60000 10236 20211 39691 40108 75603 86200 333 10252 29087 55000 58017 60081;EQDQ01+000562PRSWM1
0173829830999992002011712004-09370-040480FM-12+037099999V0209999C000010075019N0020001N1+02501+02131101141ADDAA124007991GF108991081051008001999999KA1240N+02121MA1999999096981MD1999999-0021REMSYN082AAXX  17124 82983 22595 80000 10250 20213 39698 40114 885// 333 20212 59002 60084;
0198829830999992002011800004-09370-040480FM-12+037099999V0209999C000012200019N0020001N1+02461+02111101141ADDAA199000091GF103991031011008001001001KA1240M+02991MA1999999096991MD1999999+0081REMSYN088AAXX  18004 82983 32595 30000 10246 20211 39699 40114 83100 333 10299 29083 55017 58008;EQDQ01  00002PRCP99
0201829830999992002011812004-09370-040480FM-12+037099999V0209999C000010075019N0020001N1+02241+01031101401ADDAA124055991AY151061AY261061GF108991081061008001999999KA1240N+02041MA1999999097221MD1999999+0241MW1021REMSYN088AAXX  18124 82983 21595 80000 10224 20103 39722 40140 70256 886// 333 20204 58024 60564;
0198829830999992002011900004-09370-040480FM-12+037099999V0200501N001512200019N0020001N1+02461+02151101031ADDAA199000091GF104991041021008001001001KA1240M+02741MA1999999096861MD1999999-0131REMSYN088AAXX  19004 82983 32595 40503 10246 20215 39686 40103 84200 333 10274 29085 55000 59013;EQDQ01  00002PRCP99
0186829830999992002011912004-09370-040480FM-12+037099999V0201401N003110075019N0020001N1+02401+01971101301ADDAA199000091GF108991081051008001999999KA1240N+02261MA1999999097141MD1999999-0081REMSYN076AAXX  19124 82983 32595 81406 10240 20197 39714 40130 885// 333 20226 59008;EQDQ01  00002PRCP99
0198829830999992002012000004-09370-040480FM-12+037099999V0200901N001510075019N0020001N1+02441+02051101201ADDAA199000091GF108991081021008001999999KA1240M+03021MA1999999097031MD1999999+0171REMSYN088AAXX  20004 82983 32595 80903 10244 20205 39703 40120 882// 333 10302 29080 55066 58017;EQDQ01  00002PRCP99
0201829830999992002012012004-09370-040480FM-12+037099999V0201401N003110075019N0020001N1+02421+01971101401ADDAA124006191AY151061AY261061GF106991061021008001001001KA1240N+02221MA1999999097231MD1999999+0091MW1031REMSYN088AAXX  20124 82983 21595 61406 10242 20197 39723 40140 70356 86200 333 20222 58009 60064;
0198829830999992002012100004-09370-040480FM-12+037099999V0201401N003112200019N0020001N1+02661+01971101211ADDAA199000091GF103991031011008001001001KA1240M+03101MA1999999097071MD1999999+0041REMSYN088AAXX  21004 82983 32595 31406 10266 20197 39707 40121 83100 333 10310 29070 55094 58004;EQDQ01  00002PRCP99
0201829830999992002012112004-09370-040480FM-12+037099999V0201401N003110075019N0020001N1+02561+01971101521ADDAA124000191AY131061AY201061GF106991061021008001001001KA1240N+02381MA1999999097361MD1999999+0131MW1551REMSYN088AAXX  21124 82983 21595 61406 10256 20197 39736 40152 75530 86200 333 20238 58013 69924;
0148829830999992002012118004-09370-040480FM-12+037099999V0201401N003112200019N0020001N1+03081+01951101071ADDAA199000021GF104991041011008001001001MA1999999096971MD1999999+0011REMSYN070AAXX  21184 82983 32595 41406 10308 20195 39697 40107 84100 333 58001;
0226829830999992002012200004-09370-040480FM-12+037099999V0200901N003110075019N0020001N1+02461+02151101381ADDAA106000591AY101061AY231061GF108991081061008001999999KA1240M+03161MA1999999097221MD1999999+0151REMSYN100AAXX  22004 82983 21595 80906 10246 20215 39722 40138 75603 886// 333 10316 29072 55085 58015 69961;EQDQ01+000562PRSWM1
0173829830999992002012212004-09370-040480FM-12+037099999V0201401N003110075019N0020001N1+02341+02051101661ADDAA124000591GF108991081061008001999999KA1240N+02241MA1999999097481MD1999999+0121REMSYN082AAXX  22124 82983 22595 81406 10234 20205 39748 40166 886// 333 20224 58012 69964;
0198829830999992002012300004-09370-040480FM-12+037099999V0203601N003010075019N0020001N1+02441+02251101471ADDAA199000091GF105991051011008001001001KA1240M+02901MA1999999097291MD1999999+0071REMSYN088AAXX  23000 82983 32595 53603 10244 20225 39729 40147 85100 333 10290 29082 55017 58007;EQDQ01  00002PRCP99
0173829830999992002012312004-09370-040480FM-12+037099999V0201401N003110075019N0020001N1+02481+01921101661ADDAA124000591GF105991051011008001001001KA1240N+02221MA1999999097421MD1999999-0061REMSYN082AAXX  23124 82983 22595 51406 10248 20192 39742 40166 85100 333 20222 59006 69964;
0167829830999992002012318004-09370-040480FM-12+037099999V0201401N002610075019N0020001N1+02941+01911101231ADDAA199000091GF106991061011008001001001MA1999999097091MD1999999-0031REMSYN070AAXX  23184 82983 32595 61405 10294 20191 39709 40123 86100 333 59003;EQDQ01  00002PRCP99
0208829830999992002012400004-09370-040480FM-12+037099999V0201401N003112200019N0020001N1+02661+01951101271ADDAA199000091GA1001+999999999GF100991001001999999001001KA1240M+03061MA1999999097131MD1999999-0161REMSYN082AAXX  24004 82983 32995 01406 10266 20195 39713 40127 333 10306 29064 55105 59016;EQDQ01  00002PRCP99
0186829830999992002012412004-09370-040480FM-12+037099999V0200901N003110075019N0020001N1+02481+02011101491ADDAA199000091GF105991051011008001001001KA1240N+02261MA1999999097331MD1999999-0091REMSYN076AAXX  24124 82983 32595 50906 10248 20201 39733 40149 85100 333 20226 59009;EQDQ01  00002PRCP99
0167829830999992002012418004-09370-040480FM-12+037099999V0200501N003110075019N0020001N1+03061+01931101001ADDAA199000091GF105991051011008001001001MA1999999096881MD1999999-0211REMSYN070AAXX  24184 82983 32595 50506 10306 20193 39688 40100 85100 333 59021;EQDQ01  00002PRCP99
0198829830999992002012500004-09370-040480FM-12+037099999V0201401N003110075019N0020001N1+02681+02111101171ADDAA199000091GF105991051021008001001001KA1240M+03161MA1999999097031MD1999999-0101REMSYN088AAXX  25004 82983 32595 51406 10268 20211 39703 40117 85200 333 10316 29067 55114 59010;EQDQ01  00002PRCP99
0186829830999992002012512004-09370-040480FM-12+037099999V0201401N003110075019N0020001N1+02481+02051101451ADDAA199000091GF108991081051008001999999KA1240N+02361MA1999999097301MD1999999-0031REMSYN076AAXX  25124 82983 32595 81406 10248 20205 39730 40145 885// 333 20236 59003;EQDQ01  00002PRCP99
0167829830999992002012518004-09370-040480FM-12+037099999V0200901N003111050019N0020001N1+02901+02171101041ADDAA199000091GF105991041011008001001021MA1999999096961MD1999999+0031REMSYN070AAXX  25184 82983 32595 50906 10290 20217 39696 40104 84102 333 58003;EQDQ01  00002PRCP99
0198829830999992002012600004-09370-040480FM-12+037099999V0200901N003110075019N0020001N1+02681+02151101261ADDAA199000091GF105991051041008001001001KA1240M+03121MA1999999097121MD1999999-0091REMSYN088AAXX  26004 82983 32595 50906 10268 20215 39712 40126 85400 333 10312 29072 55055 59009;EQDQ01  00002PRCP99
0186829830999992002012612004-09370-040480FM-12+037099999V0201401N004110075019N0020001N1+02561+02021101551ADDAA199000091GF105991051011008001001001KA1240N+02301MA1999999097391MD1999999+0091REMSYN076AAXX  26124 82983 32595 51408 10256 20202 39739 40155 85100 333 20230 58009;EQDQ01  00002PRCP99
0167829830999992002012618004-09370-040480FM-12+037099999V0201401N003112200019N0020001N1+03141+01771101141ADDAA199000091GF104991041011008001001001MA1999999096951MD1999999+0041REMSYN070AAXX  26184 82983 32595 41406 10314 20177 39695 40114 84100 333 58004;EQDQ01  00002PRCP99
0198829830999992002012700004-09370-040480FM-12+037099999V0201401N002612200019N0020001N1+02781+01851101231ADDAA199000091GF102991021011008001001001KA1240M+03181MA1999999097091MD1999999-0031REMSYN088AAXX  27004 82983 32595 21405 10278 20185 39709 40123 82100 333 10318 29058 55103 59003;EQDQ01  00002PRCP99
0186829830999992002012712004-09370-040480FM-12+037099999V0201401N003110075019N0020001N1+02421+01971101531ADDAA199000091GF107991071021008001001001KA1240N+02251MA1999999097371MD1999999-0021REMSYN076AAXX  27124 82983 32595 71406 10242 20197 39737 40153 87200 333 20225 59002;EQDQ01  00002PRCP99
0167829830999992002012718004-09370-040480FM-12+037099999V0200901N003110075019N0020001N1+03101+01621101011ADDAA199000091GF106991061021008001001001MA1999999096891MD1999999-0061REMSYN070AAXX  27184 82983 32595 60906 10310 20162 39689 40101 86200 333 59006;EQDQ01  00002PRCP99
0198829830999992002012800004-09370-040480FM-12+037099999V0200901N001512200019N0020001N1+02841+01601101001ADDAA199000091GF102991021011008001001001KA1240M+03201MA1999999096871MD1999999-0221REMSYN088AAXX  28004 82983 32595 20903 10284 20160 39687 40100 82100 333 10320 29053 55090 59022;EQDQ01  00002PRCP99
0186829830999992002012812004-09370-040480FM-12+037099999V0200901N003112200019N0020001N1+02601+01991101341ADDAA199000091GF102991021011008001001001KA1240N+02251MA1999999097201MD1999999-0171REMSYN076AAXX  28124 82983 32595 20906 10260 20199 39720 40134 82100 333 20225 59017;EQDQ01  00002PRCP99
0167829830999992002012818004-09370-040480FM-12+037099999V0200901N003110075019N0020001N1+03141+01731100881ADDAA199000091GF106991061021008001001001MA1999999096781MD1999999-0111REMSYN070AAXX  28184 82983 32595 60906 10314 20173 39678 40088 86200 333 59011;EQDQ01  00002PRCP99
0208829830999992002012900004-09370-040480FM-12+037099999V0200901N001512200019N0020001N1+02801+01781100911ADDAA199000091GA1001+999999999GF100991001001999999001001KA1240M+03201MA1999999096791MD1999999-0081REMSYN082AAXX  29004 82983 32995 00903 10280 20178 39679 40091 333 10320 29055 55118 59008;EQDQ01  00002PRCP99
0186829830999992002012912004-09370-040480FM-12+037099999V0200901N005110075019N0020001N1+02501+02001101301ADDAA199000091GF106991061021008001001001KA1240N+02231MA1999999097161MD1999999-0041REMSYN076AAXX  29124 82983 32595 60910 10250 20200 39716 40130 86200 333 20223 59004;EQDQ01  00002PRCP99
0167829830999992002012918004-09370-040480FM-12+037099999V0201401N003110075019N0020001N1+03161+01751100921ADDAA199000091GF105991051011008001001001MA1999999096801MD1999999+0021REMSYN070AAXX  29184 82983 32595 51406 10316 20175 39680 40092 85100 333 58002;EQDQ01  00002PRCP99
0208829830999992002013000004-09370-040480FM-12+037099999V0200901N003112200019N0020001N1+02861+01781101041ADDAA199000091GA1001+999999999GF100991001001999999001001KA1240M+03201MA1999999096921MD1999999+0131REMSYN082AAXX  30004 82983 32995 00906 10286 20178 39692 40104 333 10320 29055 55114 58013;EQDQ01  00002PRCP99
0186829830999992002013012004-09370-040480FM-12+037099999V0201401N003112200019N0020001N1+02601+01921101341ADDAA199000091GF102991021011008001001001KA1240N+02221MA1999999097221MD1999999+0061REMSYN076AAXX  30124 82983 32595 21406 10260 20192 39722 40134 82100 333 20222 58006;EQDQ01  00002PRCP99
0167829830999992002013018004-09370-040480FM-12+037099999V0200901N003112200019N0020001N1+03221+01551100911ADDAA199000091GF103991031011008001001001MA1999999096811MD1999999+0011REMSYN070AAXX  30184 82983 32595 30906 10322 20155 39681 40091 83100 333 58001;EQDQ01  00002PRCP99
0208829830999992002013100004-09370-040480FM-12+037099999V0200901N002612200019N0020001N1+02921+01461100991ADDAA199000091GA1001+999999999GF100991001001999999001001KA1240M+03301MA1999999096881MD1999999-0041REMSYN082AAXX  31004 82983 32995 00905 10292 20146 39688 40099 333 10330 29037 55118 59004;EQDQ01  00002PRCP99
0186829830999992002013112004-09370-040480FM-12+037099999V0201401N004110075019N0020001N1+02501+02001101381ADDAA199000091GF108991081051008001999999KA1240N+02341MA1999999097241MD1999999+0021REMSYN076AAXX  31124 82983 32595 81408 10250 20200 39724 40138 885// 333 20234 58002;EQDQ01  00002PRCP99
0167829830999992002013118004-09370-040480FM-12+037099999V0201401N003110450019N0020001N1+03101+01871100921ADDAA199000091GF106991041021008001021001MA1999999096821MD1999999+0011REMSYN070AAXX  31184 82983 32595 61406 10310 20187 39682 40092 84220 333 58001;EQDQ01  00002PRCP99
0198829830999992002020100004-09370-040480FM-12+037099999V0200901N002610075019N0020001N1+02901+01901101001ADDAA199000091GF105991051021008001001001KA1240M+03181MA1999999096881MD1999999+0001REMSYN088AAXX  01004 82983 32595 50905 10290 20190 39688 40100 85200 333 10318 29058 55092 58000;EQDQ01  00002PRCP99
0186829830999992002020112004-09370-040480FM-12+037099999V0200501N005112200019N0020001N1+02681+01991101351ADDAA199000091GF104991041011008001001001KA1240N+02391MA1999999097241MD1999999+0081REMSYN076AAXX  01124 82983 32595 40510 10268 20199 39724 40135 84100 333 20239 58008;EQDQ01  00002PRCP99
0167829830999992002020118004-09370-040480FM-12+037099999V0200501N001510450019N0020001N1+03131+01771100971ADDAA199000091GF106991031021008001021001MA1999999096861MD1999999+0041REMSYN070AAXX  01184 82983 32595 60503 10313 20177 39686 40097 83220 333 58004;EQDQ01  00002PRCP99
0194829830999992002020200004-09370-040480FM-12+037099999V0203601N002612200019N0020001N1+02681+02041101061ADDAA199000091GA1001+999999999GF100991001001999999001001KA1240M+03221MA1999999096941REMSYN082AAXX  02004 82983 32995 03605 10268 20204 39694 40106 333 10322 29062 55110 56006;EQDQ01  00002PRCP99
0196829830999992002020212004-09370-040480FM-12+037099999V0200901N003112200019N0020001N1+02641+02001101341ADDAA199000091GA1001+999999999GF100991001001999999001001KA1240N+02281MA1999999097201MD1999999-0041REMSYN070AAXX  02124 82983 32995 00906 10264 20200 39720 40134 333 20228 59004;EQDQ01  00002PRCP99
0183829830999992002020218004-09370-040480FM-12+037099999V0201401N003119999999N0020001N1+03321+01521100861ADDAA199000091GF106991999021008001001001MA1999999096771MD1999999-0091REMSYN070AAXX  02184 82983 32595 61406 10332 20152 39677 40086 84200 333 59009;EQDQ01+000042SCOTLCQ02  00002PRCP99
0198829830999992002020300004-09370-040480FM-12+037099999V0203601N003112200019N0020001N1+02741+01951101031ADDAA199000091GF104991041021008001001001KA1240M+03361MA1999999096911MD1999999-0031REMSYN088AAXX  03004 82983 32595 43606 10274 20195 39691 40103 84200 333 10336 29056 55108 59003;EQDQ01  00002PRCP99
0186829830999992002020312004-09370-040480FM-12+037099999V0203201N002612200019N0020001N1+02681+01891101201ADDAA199000091GF103991031011008001001011KA1240N+02301MA1999999097071MD1999999-0131REMSYN076AAXX  03124 82983 32595 33205 10268 20189 39707 40120 83101 333 20230 59013;EQDQ01  00002PRCP99
0167829830999992002020318004-09370-040480FM-12+037099999V0203201N003110075019N0020001N1+03261+01681100731ADDAA199000091GF106991061011008001001001MA1999999096651MD1999999-0121REMSYN070AAXX  03184 82983 32595 63206 10326 20168 39665 40073 86100 333 59012;EQDQ01  00002PRCP99
0208829830999992002020400004-09370-040480FM-12+037099999V0200501N002612200019N0020001N1+02801+01901100991ADDAA199000091GA1001+999999999GF100991001001999999001001KA1240M+03341MA1999999096881MD1999999-0031REMSYN082AAXX  04004 82983 32995 00505 10280 20190 39688 40099 333 10334 29069 55103 59003;EQDQ01  00002PRCP99
0186829830999992002020412004-09370-040480FM-12+037099999V0200501N002612200019N0020001N1+02541+01951101301ADDAA199000091GF102991021011008001001001KA1240N+02361MA1999999097161MD1999999+0091REMSYN076AAXX  04124 82983 32595 20505 10254 20195 39716 40130 82100 333 20236 58009;EQDQ01  00002PRCP99
0167829830999992002020418004-09370-040480FM-12+037099999V0203601N002610075019N0020001N1+03081+01951100871ADDAA199000091GF107991071051008001001001MA1999999096771MD1999999+0121REMSYN070AAXX  04184 82983 32595 73605 10308 20195 39677 40087 87500 333 58012;EQDQ01  00002PRCP99
0226829830999992002020500004-09370-040480FM-12+037099999V0203201N002610075019N0020001N1+02461+02011101191ADDAA106002091AY161061AY201061GF108991081051008001999999KA1240M+03141MA1999999097041MD1999999+0161REMSYN100AAXX  05004 82983 21595 83205 10246 20201 39704 40119 75660 885// 333 10314 29068 55050 58016 60021;EQDQ01+000562PRSWM1
0173829830999992002020512004-09370-040480FM-12+037099999V0201401N002610075019N0020001N1+02641+02161101401ADDAA124002091GF108991081051008001999999KA1240N+02461MA1999999097241MD1999999+0081REMSYN082AAXX  05124 82983 22595 81405 10264 20216 39724 40140 885// 333 20246 58008 60024;
0195829830999992002020518004-09370-040480FM-12+037099999V0201401N003110075019N0020001N1+02541+02151101101ADDAA106027991AY101061AY211061GF108991081061008001999999MA1999999096951MD1999999+0181REMSYN082AAXX  05184 82983 21595 81406 10254 20215 39695 40110 75601 886// 333 58018 60281;EQDQ01+000562PRSWM1
0198829830999992002020600004-09370-040480FM-12+037099999V0201801N001510075019N0020001N1+02401+02171101361ADDAA199000091GF108991081061008001999999KA1240M+02821MA1999999097201MD1999999+0161REMSYN088AAXX  06004 82983 32595 81803 10240 20217 39720 40136 886// 333 10282 29082 55027 58016;EQDQ01  00002PRCP99
0173829830999992002020612004-09370-040480FM-12+037099999V0200901N002610075019N0020001N1+02461+02031101381ADDAA124027991GF108991081051008001999999KA1240N+02241MA1999999097211MD1999999-0031REMSYN082AAXX  06124 82983 22595 80905 10246 20203 39721 40138 885// 333 20224 59003 60284;
0167829830999992002020618004-09370-040480FM-12+037099999V0200901N003110075019N0020001N1+03021+01961100981ADDAA199000091GF105991051011008001001001MA1999999096851MD1999999-0101REMSYN070AAXX  06184 82983 32595 50906 10302 20196 39685 40098 85100 333 59010;EQDQ01  00002PRCP99
0167829830999992002020718004-09370-040480FM-12+037099999V0201401N005110450019N0020001N1+03061+01771100921ADDAA199000091GF105991031011008001011001MA1999999096801MD1999999-0051REMSYN070AAXX  07184 82983 32595 51410 10306 20177 39680 40092 83110 333 59005;EQDQ01  00002PRCP99
0208829830999992002020800004-09370-040480FM-12+037099999V0200901N002612200019N0020001N1+02701+01781101091ADDAA199000091GA1001+999999999GF100991001001999999001001KA1240M+03101MA1999999096951MD1999999-0181REMSYN082AAXX  08004 82983 32995 00905 10270 20178 39695 40109 333 10310 29060 55079 59018;EQDQ01  00002PRCP99
0186829830999992002020812004-09370-040480FM-12+037099999V0201401N004110075019N0020001N1+02541+01981101341ADDAA199000091GF106991061021008001001001KA1240N+02181MA1999999097191MD1999999-0071REMSYN076AAXX  08124 82983 32595 61408 10254 20198 39719 40134 86200 333 20218 59007;EQDQ01  00002PRCP99
0167829830999992002020818004-09370-040480FM-12+037099999V0201401N004110075019N0020001N1+02921+02041101001ADDAA199000091GF106991061021008001001001MA1999999096861MD1999999+0071REMSYN070AAXX  08184 82983 32595 61408 10292 20204 39686 40100 86200 333 58007;EQDQ01  00002PRCP99
0208829830999992002020900004-09370-040480FM-12+037099999V0201801N002612200019N0020001N1+02561+02091101171ADDAA199000091GA1001+999999999GF100991001001999999001001KA1240M+03021MA1999999097031MD1999999+0081REMSYN082AAXX  09004 82983 32995 01805 10256 20209 39703 40117 333 10302 29070 55097 58008;EQDQ01  00002PRCP99
0186829830999992002020912004-09370-040480FM-12+037099999V0201401N003110075019N0020001N1+02441+01861101451ADDAA199000091GF108991051051008001999999KA1240N+02181MA1999999097291MD1999999+0101REMSYN076AAXX  09124 82983 32595 81406 10244 20186 39729 40145 855// 333 20218 58010;EQDQ01  00002PRCP99
0167829830999992002020918004-09370-040480FM-12+037099999V0200501N001510075019N0020001N1+02941+01911101141ADDAA199000091GF105991051011008001001001MA1999999097001MD1999999+0141REMSYN070AAXX  09184 82983 32595 50503 10294 20191 39700 40114 85100 333 58014;EQDQ01  00002PRCP99
0208829830999992002021000004-09370-040480FM-12+037099999V0209999C000012200019N0020001N1+02601+02081101251ADDAA199000091GA1001+999999999GF100991001001999999001001KA1240M+03041MA1999999097101MD1999999+0071REMSYN082AAXX  10004 82983 32995 00000 10260 20208 39710 40125 333 10304 29068 55091 58007;EQDQ01  00002PRCP99
0186829830999992002021012004-09370-040480FM-12+037099999V0200901N002610075019N0020001N1+02521+02001101461ADDAA199000091GF106991061021008001001001KA1240N+02161MA1999999097301MD1999999+0011REMSYN076AAXX  10124 82983 32595 60905 10252 20200 39730 40146 86200 333 20216 58001;EQDQ01  00002PRCP99
0167829830999992002021018004-09370-040480FM-12+037099999V0200901N003110075019N0020001N1+03001+01971100971ADDAA199000091GF105991051021008001001001MA1999999096851MD1999999-0151REMSYN070AAXX  10184 82983 32595 50906 10300 20197 39685 40097 85200 333 59015;EQDQ01  00002PRCP99
0208829830999992002021100004-09370-040480FM-12+037099999V0201401N005112200019N0020001N1+02581+01871101241ADDAA199000091GA1001+999999999GF100991001001999999001001KA1240M+03181MA1999999097101MD1999999+0001REMSYN082AAXX  11004 82983 32995 01410 10258 20187 39710 40124 333 10318 29064 55098 58000;EQDQ01  00002PRCP99
0186829830999992002021112004-09370-040480FM-12+037099999V0201401N004110075019N0020001N1+02541+01911101381ADDAA199000091GF106991061021008001001001KA1240N+02281MA1999999097221MD1999999-0081REMSYN076AAXX  11124 82983 32595 61408 10254 20191 39722 40138 86200 333 20228 59008;EQDQ01  00002PRCP99
0167829830999992002021118004-09370-040480FM-12+037099999V0201401N003110075019N0020001N1+03161+01711100891ADDAA199000091GF105991051021008001001001MA1999999096791MD1999999-0061REMSYN070AAXX  11184 82983 32595 51406 10316 20171 39679 40089 85200 333 59006;EQDQ01  00002PRCP99
0208829830999992002021200004-09370-040480FM-12+037099999V0201401N003112200019N0020001N1+02361+01831101241ADDAA199000091GA1001+999999999GF100991001001999999001001KA1240M+03241MA1999999097081MD1999999-0021REMSYN082AAXX  12004 82983 32995 01406 10236 20183 39708 40124 333 10324 29064 55098 59002;EQDQ01  00002PRCP99
0186829830999992002021212004-09370-040480FM-12+037099999V0201401N004112200019N0020001N1+02521+01931101491ADDAA199000091GF106991041021008001001011KA1240N+02141MA1999999097321MD1999999+0101REMSYN076AAXX  12124 82983 32595 61408 10252 20193 39732 40149 84201 333 20214 58010;EQDQ01  00002PRCP99
0167829830999992002021218004-09370-040480FM-12+037099999V0201401N003110450019N0020001N1+03021+01881101131ADDAA199000091GF105991031011008001021001MA1999999096991MD1999999+0201REMSYN070AAXX  12184 82983 32595 51406 10302 20188 39699 40113 83120 333 58020;EQDQ01  00002PRCP99
0208829830999992002021300004-09370-040480FM-12+037099999V0201401N002612200019N0020001N1+02661+02001101301ADDAA199000091GA1001+999999999GF100991001001999999001001KA1240M+03121MA1999999097151MD1999999+0071REMSYN082AAXX  13004 82983 32995 01405 10266 20200 39715 40130 333 10312 29062 55099 58007;EQDQ01  00002PRCP99
0186829830999992002021312004-09370-040480FM-12+037099999V0201401N003112200019N0020001N1+02481+01831101481ADDAA199000091GF104991041011008001001001KA1240N+02161MA1999999097321MD1999999+0001REMSYN076AAXX  13124 82983 32595 41406 10248 20183 39732 40148 84100 333 20216 58000;EQDQ01  00002PRCP99
0167829830999992002021318004-09370-040480FM-12+037099999V0200901N003110075019N0020001N1+03121+01751101061ADDAA199000091GF105991051011008001001001MA1999999096931MD1999999-0061REMSYN070AAXX  13184 82983 32595 50906 10312 20175 39693 40106 85100 333 59006;EQDQ01  00002PRCP99
0198829830999992002021400004-09370-040480FM-12+037099999V0200901N002610075019N0020001N1+02641+01931101281ADDAA199000091GF106991061011008001001001KA1240M+03161MA1999999097141MD1999999-0011REMSYN088AAXX  14004 82983 32595 60905 10264 20193 39714 40128 86100 333 10316 29060 55092 59001;EQDQ01  00002PRCP99
0186829830999992002021412004-09370-040480FM-12+037099999V0200901N003111050019N0020001N1+02561+01881101471ADDAA199000091GF105991021011008001001021KA1240N+02261MA1999999097321MD1999999+0001REMSYN076AAXX  14124 82983 32595 50906 10256 20188 39732 40147 82102 333 20226 58000;EQDQ01  00002PRCP99
0167829830999992002021418004-09370-040480FM-12+037099999V0200901N003110075019N0020001N1+03101+01771101021ADDAA199000091GF106991061011008001001001MA1999999096931MD1999999+0001REMSYN070AAXX  14184 82983 32595 60906 10310 20177 39693 40102 86100 333 58000;EQDQ01  00002PRCP99
0208829830999992002021500004-09370-040480FM-12+037099999V0201401N004112200019N0020001N1+02721+01951101281ADDAA199000091GA1001+999999999GF100991001001999999001001KA1240M+03161MA1999999097141MD1999999+0001REMSYN082AAXX  15004 82983 32995 01408 10272 20195 39714 40128 333 10316 29059 55100 58000;EQDQ01  00002PRCP99
0186829830999992002021512004-09370-040480FM-12+037099999V0200901N004110450019N0020001N1+02671+01951101451ADDAA199000091GF106991041021008001021001KA1240N+02311MA1999999097311MD1999999-0011REMSYN076AAXX  15124 82983 32595 60908 10267 20195 39731 40145 84220 333 20231 59001;EQDQ01  00002PRCP99
0167829830999992002021518004-09370-040480FM-12+037099999V0201401N001510075019N0020001N1+03121+01891101061ADDAA199000091GF107991051021008001021001MA1999999096941MD1999999-0011REMSYN070AAXX  15184 82983 32595 71403 10312 20189 39694 40106 85220 333 59001;EQDQ01  00002PRCP99
0213829830999992002021600004-09370-040480FM-12+037099999V0201401N003110075019N0020001N1+02541+02131101331ADDAA106001091AY161061AY221061GF106991061021008001001001KA1240M+03141MA1999999097181MD1999999+0041MW1031REMSYN100AAXX  16004 82983 21595 61406 10254 20213 39718 40133 70362 86200 333 10314 29067 55081 58004 60011;
0173829830999992002021612004-09370-040480FM-12+037099999V0200901N003110450019N0020001N1+02621+02161101491ADDAA124001091GF106991031021008001031001KA1240N+02351MA1999999097241MD1999999+0031REMSYN082AAXX  16124 82983 22595 60906 10262 20216 39724 40149 83230 333 20235 58003 60014;
0167829830999992002021618004-09370-040480FM-12+037099999V0201401N002610075019N0020001N1+03241+01891101051ADDAA199000091GF106991061021008001001001MA1999999096941MD1999999+0001REMSYN070AAXX  16184 82983 32595 61405 10324 20189 39694 40105 86200 333 58000;EQDQ01  00002PRCP99
0198829830999992002021700004-09370-040480FM-12+037099999V0201401N002612200019N0020001N1+02901+02071101081ADDAA199000091GF104991041021008001001001KA1240M+03301MA1999999096961MD1999999-0221REMSYN088AAXX  17004 82983 32595 41405 10290 20207 39696 40108 84200 333 10330 29061 55102 59022;EQDQ01  00002PRCP99
0186829830999992002021712004-09370-040480FM-12+037099999V0201401N003112200019N0020001N1+02601+01961101411ADDAA199000091GF104991041011008001001001KA1240N+02361MA1999999097291MD1999999-0051REMSYN076AAXX  17124 82983 32595 41406 10260 20196 39729 40141 84100 333 20236 59005;EQDQ01  00002PRCP99
0167829830999992002021718004-09370-040480FM-12+037099999V0200901N003110075019N0020001N1+03161+01821101031ADDAA199000091GF106991061021008001001001MA1999999096941MD1999999+0081REMSYN070AAXX  17184 82983 32595 60906 10316 20182 39694 40103 86200 333 58008;EQDQ01  00002PRCP99
0208829830999992002021800004-09370-040480FM-12+037099999V0201401N002612200019N0020001N1+02841+01911101171ADDAA199000091GA1001+999999999GF100991001001999999001001KA1240M+03281MA1999999097041MD1999999+0081REMSYN082AAXX  18004 82983 32995 01405 10284 20191 39704 40117 333 10328 29057 55111 58008;EQDQ01  00002PRCP99
0186829830999992002021812004-09370-040480FM-12+037099999V0201401N004110075019N0020001N1+02601+01991101291ADDAA199000091GF106991061021008001001001KA1240N+02391MA1999999097151MD1999999-0141REMSYN076AAXX  18124 82983 32595 61408 10260 20199 39715 40129 86200 333 20239 59014;EQDQ01  00002PRCP99
0167829830999992002021818004-09370-040480FM-12+037099999V0200901N003110075019N0020001N1+03161+01891100851ADDAA199000091GF106991061011008001001001MA1999999096761MD1999999-0181REMSYN070AAXX  18184 82983 32595 60906 10316 20189 39676 40085 86100 333 59018;EQDQ01  00002PRCP99
0198829830999992002021900004-09370-040480FM-12+037099999V0201801N003112200019N0020001N1+02821+01911101021ADDAA199000091GF102991021011008001001001KA1240M+03301MA1999999096901MD1999999-0141REMSYN088AAXX  19004 82983 32595 21806 10282 20191 39690 40102 82100 333 10330 29058 55085 59014;EQDQ01  00002PRCP99
0186829830999992002021912004-09370-040480FM-12+037099999V0200901N005110075019N0020001N1+02641+02031101321ADDAA199000091GF106991061021008001001001KA1240N+02281MA1999999097201MD1999999+0051REMSYN076AAXX  19124 82983 32595 60910 10264 20203 39720 40132 86200 333 20228 58005;EQDQ01  00002PRCP99
0167829830999992002021918004-09370-040480FM-12+037099999V0200901N005110075019N0020001N1+03301+01641100851ADDAA199000091GF105991051021008001001001MA1999999096761MD1999999+0001REMSYN070AAXX  19184 82983 32595 50910 10330 20164 39676 40085 85200 333 58000;EQDQ01  00002PRCP99
0208829830999992002022000004-09370-040480FM-12+037099999V0201401N005112200019N0020001N1+02861+02031101011ADDAA199000091GA1001+999999999GF100991001001999999001001KA1240M+03421MA1999999096901MD1999999+0001REMSYN082AAXX  20004 82983 32995 01410 10286 20203 39690 40101 333 10342 29057 55116 58000;EQDQ01  00002PRCP99
0186829830999992002022012004-09370-040480FM-12+037099999V0201401N003110075019N0020001N1+02481+01981101481ADDAA199000091GF108991081051008001999999KA1240N+02361MA1999999097341MD1999999+0141REMSYN076AAXX  20124 82983 32595 81406 10248 20198 39734 40148 885// 333 20236 58014;EQDQ01  00002PRCP99
0167829830999992002022018004-09370-040480FM-12+037099999V0201401N004110075019N0020001N1+03201+01421100941ADDAA199000091GF105991051021008001001001MA1999999096851MD1999999+0091REMSYN070AAXX  20184 82983 32595 51408 10320 20142 39685 40094 85200 333 58009;EQDQ01  00002PRCP99
0208829830999992002022100004-09370-040480FM-12+037099999V0201801N003112200019N0020001N1+02741+01951101061ADDAA199000091GA1001+999999999GF100991001001999999001001KA1240M+03301MA1999999096931MD1999999+0031REMSYN082AAXX  21004 82983 32995 01806 10274 20195 39693 40106 333 10330 29058 55097 58003;EQDQ01  00002PRCP99
0186829830999992002022112004-09370-040480FM-12+037099999V0200901N004110075019N0020001N1+02581+01901101341ADDAA199000091GF106991061021008001001001KA1240N+02391MA1999999097201MD1999999-0141REMSYN076AAXX  21124 82983 32595 60908 10258 20190 39720 40134 86200 333 20239 59014;EQDQ01  00002PRCP99
0167829830999992002022118004-09370-040480FM-12+037099999V0200901N003110075019N0020001N1+03181+01571100851ADDAA199000091GF106991061021008001001001MA1999999096751MD1999999-0101REMSYN070AAXX  21184 82983 32595 60906 10318 20157 39675 40085 86200 333 59010;EQDQ01  00002PRCP99
0198829830999992002022200004-09370-040480FM-12+037099999V0201801N003112200019N0020001N1+02861+01781100971ADDAA199000091GF102991021011008001001001KA1240M+03301MA1999999096851MD1999999-0081REMSYN088AAXX  22004 82983 32595 21806 10286 20178 39685 40097 82100 333 10330 29052 55103 59008;EQDQ01  00002PRCP99
0186829830999992002022212004-09370-040480FM-12+037099999V0200901N005110075019N0020001N1+02581+01971101211ADDAA199000091GF105991051021008001001001KA1240N+02401MA1999999097081MD1999999-0121REMSYN076AAXX  22124 82983 32595 50910 10258 20197 39708 40121 85200 333 20240 59012;EQDQ01  00002PRCP99
0167829830999992002022218004-09370-040480FM-12+037099999V0200901N003110075019N0020001N1+03261+01561100731ADDAA199000091GF106991061021008001001001MA1999999096651MD1999999-0101REMSYN070AAXX  22184 82983 32595 60906 10326 20156 39665 40073 86200 333 59010;EQDQ01  00002PRCP99
0208829830999992002022300004-09370-040480FM-12+037099999V0201401N001512200019N0020001N1+02921+01741100851ADDAA199000091GA1001+999999999GF100991001001999999001001KA1240M+03341MA1999999096751MD1999999-0101REMSYN082AAXX  23004 82983 32995 01403 10292 20174 39675 40085 333 10334 29051 55097 59010;EQDQ01  00002PRCP99
0186829830999992002022312004-09370-040480FM-12+037099999V0200901N004112200019N0020001N1+02681+02021101301ADDAA199000091GF102991021011008001001001KA1240N+02341MA1999999097191MD1999999+0111REMSYN076AAXX  23124 82983 32595 20908 10268 20202 39719 40130 82100 333 20234 58011;EQDQ01  00002PRCP99
0167829830999992002022318004-09370-040480FM-12+037099999V0200501N001510075019N0020001N1+03321+01611100861ADDAA199000091GF106991061021008001001001MA1999999096771MD1999999+0121REMSYN070AAXX  23184 82983 32595 60503 10332 20161 39677 40086 86200 333 58012;EQDQ01  00002PRCP99
0198829830999992002022400004-09370-040480FM-12+037099999V0201801N001510075019N0020001N1+02921+01891101051ADDAA199000091GF106991061021008001001001KA1240M+03481MA1999999096951MD1999999+0201REMSYN088AAXX  24004 82983 32595 61803 10292 20189 39695 40105 86200 333 10348 29053 55102 58020;EQDQ01  00002PRCP99
0167829830999992002022418004-09370-040480FM-12+037099999V0200901N003110075019N0020001N1+03501+01431100891ADDAA199000091GF105991051021008001001001MA1999999096831MD1999999+0061REMSYN070AAXX  24184 82983 32595 50906 10350 20143 39683 40089 85200 333 58006;EQDQ01  00002PRCP99
0167829830999992002022518004-09370-040480FM-12+037099999V0200901N003112200019N0020001N1+03401+01721100871ADDAA199000091GF104991041021008001001001MA1999999096791MD1999999-0041REMSYN070AAXX  25184 82983 32595 40906 10340 20172 39679 40087 84200 333 59004;EQDQ01  00002PRCP99
0208829830999992002022600004-09370-040480FM-12+037099999V0201801N003112200019N0020001N1+02941+01511101021ADDAA199000091GA1001+999999999GF100991001001999999001001KA1240M+03501MA1999999096911MD1999999-0041REMSYN082AAXX  26004 82983 32995 01806 10294 20151 39691 40102 333 10350 29048 55113 59004;EQDQ01  00002PRCP99
0186829830999992002022612004-09370-040480FM-12+037099999V0200901N005110075019N0020001N1+02621+01931101391ADDAA199000091GF106991061021008001001001KA1240N+02371MA1999999097281MD1999999+0021REMSYN076AAXX  26124 82983 32595 60910 10262 20193 39728 40139 86200 333 20237 58002;EQDQ01  00002PRCP99
0167829830999992002022618004-09370-040480FM-12+037099999V0200901N003110075019N0020001N1+03241+01751100941ADDAA199000091GF105991051021008001001001MA1999999096851MD1999999+0061REMSYN070AAXX  26184 82983 32595 50906 10324 20175 39685 40094 85200 333 58006;EQDQ01  00002PRCP99
0198829830999992002022700004-09370-040480FM-12+037099999V0201801N004112200019N0020001N1+02861+01781101111ADDAA199000091GF104991041021008001001001KA1240M+03321MA1999999096991MD1999999+0081REMSYN088AAXX  27004 82983 32595 41808 10286 20178 39699 40111 84200 333 10332 29053 55103 58008;EQDQ01  00002PRCP99
0186829830999992002022712004-09370-040480FM-12+037099999V0201401N003110075019N0020001N1+02641+02031101431ADDAA199000091GF106991061021008001001001KA1240N+02421MA1999999097311MD1999999+0031REMSYN076AAXX  27124 82983 32595 61406 10264 20203 39731 40143 86200 333 20242 58003;EQDQ01  00002PRCP99
0167829830999992002022718004-09370-040480FM-12+037099999V0200901N003112200019N0020001N1+03301+01721100961ADDAA199000091GF105991041011008001001011MA1999999096871MD1999999+0021REMSYN070AAXX  27184 82983 32595 50906 10330 20172 39687 40096 84101 333 58002;EQDQ01  00002PRCP99
0198829830999992002022800004-09370-040480FM-12+037099999V0201401N003112200019N0020001N1+02801+01871101061ADDAA199000091GF102991021011008001001001KA1240M+03381MA1999999096941MD1999999-0041REMSYN088AAXX  28004 82983 32595 21406 10280 20187 39694 40106 82100 333 10338 29056 55091 59004;EQDQ01  00002PRCP99
0186829830999992002022812004-09370-040480FM-12+037099999V0201401N003110075019N0020001N1+02541+01951101391ADDAA199000091GF106991061021008001001001KA1240N+02381MA1999999097251MD1999999-0061REMSYN076AAXX  28124 82983 32595 61406 10254 20195 39725 40139 86200 333 20238 59006;EQDQ01  00002PRCP99
0167829830999992002022818004-09370-040480FM-12+037099999V0200901N003111050019N0020001N1+03201+01631100901ADDAA199000091GF105991041011008001001021MA1999999096811MD1999999-0061REMSYN070AAXX  28184 82983 32595 50906 10320 20163 39681 40090 84102 333 59006;EQDQ01  00002PRCP99
0198829830999992002030100004-09370-040480FM-12+037099999V0201801N003110075019N0020001N1+02841+01601101121ADDAA199000091GF105991051021008001001001KA1240M+03301MA1999999096901MD1999999-0041REMSYN088AAXX  01004 82983 32595 51806 10284 20160 39690 40112 85200 333 10330 29050 55095 59004;EQDQ01  00002PRCP99
0186829830999992002030112004-09370-040480FM-12+037099999V0201401N003110075019N0020001N1+02641+01901101301ADDAA199000091GF106991061021008001001001KA1240N+02381MA1999999097181MD1999999-0071REMSYN076AAXX  01124 82983 32595 61406 10264 20190 39718 40130 86200 333 20238 59007;EQDQ01  00002PRCP99
0167829830999992002030118004-09370-040480FM-12+037099999V0200901N005110075019N0020001N1+03281+01781100931ADDAA199000091GF106991061021008001001001MA1999999096871MD1999999+0061REMSYN070AAXX  01184 82983 32595 60910 10328 20178 39687 40093 86200 333 58006;EQDQ01  00002PRCP99
0167829830999992002030218004-09370-040480FM-12+037099999V0200901N003110075019N0020001N1+03281+01701100871ADDAA199000091GF106991061011008001001001MA1999999096781MD1999999-0091REMSYN070AAXX  02184 82983 32595 60906 10328 20170 39678 40087 86100 333 59009;EQDQ01  00002PRCP99
0208829830999992002030300004-09370-040480FM-12+037099999V0201801N002612200019N0020001N1+02961+01611101031ADDAA199000091GA1001+999999999GF100991001001999999001001KA1240M+03381MA1999999096921MD1999999-0051REMSYN082AAXX  03004 82983 32995 01805 10296 20161 39692 40103 333 10338 29048 55108 59005;EQDQ01  00002PRCP99
0183829830999992002030318004-09370-040480FM-12+037099999V0200901N003110075019N0020001N1+03121+01641101931ADDAA199000091GF108991999021008001001001MA1999999096831MD1999999+0051REMSYN070AAXX  03184 82983 32595 80906 10312 20164 39683 40193 86200 333 58005;EQDQ01+000062SCOTLCQ02  00002PRCP99
0167829830999992002030418004-09370-040480FM-12+037099999V0201401N003110075019N0020001N1+03201+01821100891ADDAA199000091GF107991051021008001021001MA1999999096771MD1999999-0061REMSYN070AAXX  04184 82983 32595 71406 10320 20182 39677 40089 85220 333 59006;EQDQ01  00002PRCP99
0186829830999992002030512004-09370-040480FM-12+037099999V0200901N005110075019N0020001N1+02561+01971101401ADDAA199000091GF107991071021008001001001KA1240N+02391MA1999999097261MD1999999+0021REMSYN076AAXX  05124 82983 32595 70910 10256 20197 39726 40140 87200 333 20239 58002;EQDQ01  00002PRCP99
0167829830999992002030518004-09370-040480FM-12+037099999V0201801N002610075019N0020001N1+02941+01851101091ADDAA199000091GF108991081051008001999999MA1999999096961MD1999999+0181REMSYN070AAXX  05184 82983 32595 81805 10294 20185 39696 40109 885// 333 58018;EQDQ01  00002PRCP99
0198829830999992002030600004-09370-040480FM-12+037099999V0201401N003112200019N0020001N1+02671+01901101231ADDAA199000091GF102991021011008001001001KA1240M+03001MA1999999097091MD1999999+0111REMSYN088AAXX  06004 82983 32595 21406 10267 20190 39709 40123 82100 333 10300 29062 55009 58011;EQDQ01  00002PRCP99
0186829830999992002030612004-09370-040480FM-12+037099999V0201401N003110075019N0020001N1+02501+02001101391ADDAA199000091GF106991051021008001021001KA1240N+02291MA1999999097241MD1999999-0021REMSYN076AAXX  06124 82983 32595 61406 10250 20200 39724 40139 85220 333 20229 59002;EQDQ01  00002PRCP99
0167829830999992002030618004-09370-040480FM-12+037099999V0201401N003110075019N0020001N1+03201+01751100891ADDAA199000091GF107991071021008001001001MA1999999096771MD1999999-0191REMSYN070AAXX  06184 82983 32595 71406 10320 20175 39677 40089 87200 333 59019;EQDQ01  00002PRCP99
0198829830999992002030700004-09370-040480FM-12+037099999V0201401N001510075019N0020001N1+02901+01901101061ADDAA199000091GF106991061021008001001001KA1240M+03281MA1999999096941MD1999999-0151REMSYN088AAXX  07004 82983 32595 61403 10290 20190 39694 40106 86200 333 10328 29057 55059 59015;EQDQ01  00002PRCP99
0186829830999992002030712004-09370-040480FM-12+037099999V0200901N004110075019N0020001N1+02681+01971101381ADDAA199000091GF108991081051008001999999KA1240N+02421MA1999999097271MD1999999+0031REMSYN076AAXX  07124 82983 32595 80908 10268 20197 39727 40138 885// 333 20242 58003;EQDQ01  00002PRCP99
0167829830999992002030718004-09370-040480FM-12+037099999V0201401N003110450019N0020001N1+03301+01721100951ADDAA199000091GF106991041021008001021001MA1999999096861MD1999999+0091REMSYN070AAXX  07184 82983 32595 61406 10330 20172 39686 40095 84220 333 58009;EQDQ01  00002PRCP99
0208829830999992002030800004-09370-040480FM-12+037099999V0201401N001512200019N0020001N1+02701+01941101231ADDAA199000091GA1001+999999999GF100991001001999999001001KA1240M+03381MA1999999097101MD1999999+0161REMSYN082AAXX  08004 82983 32995 01403 10270 20194 39710 40123 333 10338 29058 55066 58016;EQDQ01  00002PRCP99
0186829830999992002030812004-09370-040480FM-12+037099999V0201801N003110450019N0020001N1+02601+02011101501ADDAA199000091GF106991041021008001021011KA1240N+02391MA1999999097351MD1999999+0081REMSYN076AAXX  08124 82983 32595 61806 10260 20201 39735 40150 84221 333 20239 58008;EQDQ01  00002PRCP99
0167829830999992002030818004-09370-040480FM-12+037099999V0201801N004110075019N0020001N1+03141+01971101061ADDAA199000091GF106991061021008001001001MA1999999096961MD1999999+0101REMSYN070AAXX  08184 82983 32595 61808 10314 20197 39696 40106 86200 333 58010;EQDQ01  00002PRCP99
0208829830999992002030900004-09370-040480FM-12+037099999V0201401N005112200019N0020001N1+02681+02011101281ADDAA199000091GA1001+999999999GF100991001001999999001001KA1240M+03201MA1999999097141MD1999999+0041REMSYN082AAXX  09004 82983 32995 01410 10268 20201 39714 40128 333 10320 29063 55076 58004;EQDQ01  00002PRCP99
0186829830999992002030912004-09370-040480FM-12+037099999V0201401N004110075019N0020001N1+02601+01891101451ADDAA199000091GF105991051021008001001001KA1240N+02311MA1999999097311MD1999999-0041REMSYN076AAXX  09124 82983 32595 51408 10260 20189 39731 40145 85200 333 20231 59004;EQDQ01  00002PRCP99
0183829830999992002030918004-09370-040480FM-12+037099999V0200901N003119999999N0020001N1+03281+01661100981ADDAA199000091GF106991999021008001001001MA1999999096891MD1999999-0071REMSYN070AAXX  09184 82983 32595 60906 10328 20166 39689 40098 84200 333 59007;EQDQ01+000042SCOTLCQ02  00002PRCP99
0198829830999992002031000004-09370-040480FM-12+037099999V0201801N003110075019N0020001N1+02861+01871101221ADDAA199000091GF105991051021008001001001KA1240M+03351MA1999999097101MD1999999-0041REMSYN088AAXX  10004 82983 32595 51806 10286 20187 39710 40122 85200 333 10335 29053 55090 59004;EQDQ01  00002PRCP99
0186829830999992002031012004-09370-040480FM-12+037099999V0201401N004110450019N0020001N1+02461+01881101421ADDAA199000091GF106991041011008001021011KA1240N+02261MA1999999097281MD1999999-0031REMSYN076AAXX  10124 82983 32595 61408 10246 20188 39728 40142 84121 333 20226 59003;EQDQ01  00002PRCP99
0167829830999992002031018004-09370-040480FM-12+037099999V0200901N003110450019N0020001N1+03321+01481100911ADDAA199000091GF105991031021008001021001MA1999999096821MD1999999-0071REMSYN070AAXX  10184 82983 32595 50906 10332 20148 39682 40091 83220 333 59007;EQDQ01  00002PRCP99
0198829830999992002031100004-09370-040480FM-12+037099999V0201401N003110075019N0020001N1+02941+01321101141ADDAA199000091GF106991061061008001001001KA1240M+03441MA1999999097011MD1999999-0091REMSYN088AAXX  11004 82983 32595 61406 10294 20132 39701 40114 86600 333 10344 29044 55097 59009;EQDQ01  00002PRCP99
0186829830999992002031112004-09370-040480FM-12+037099999V0200901N004110450019N0020001N1+02521+01841101451ADDAA199000091GF108991021011008001021999KA1240N+02341MA1999999097331MD1999999+0051REMSYN076AAXX  11124 82983 32595 80908 10252 20184 39733 40145 8212/ 333 20234 58005;EQDQ01  00002PRCP99
0167829830999992002031118004-09370-040480FM-12+037099999V0201401N003110450019N0020001N1+03121+01641101051ADDAA199000091GF107991031011008001021041MA1999999096951MD1999999+0131REMSYN070AAXX  11184 82983 32595 71406 10312 20164 39695 40105 83124 333 58013;EQDQ01  00002PRCP99
0208829830999992002031200004-09370-040480FM-12+037099999V0201401N002612200019N0020001N1+02841+01791101221ADDAA199000091GA1001+999999999GF100991001001999999001001KA1240M+03181MA1999999097091MD1999999+0081REMSYN082AAXX  12004 82983 32995 01405 10284 20179 39709 40122 333 10318 29053 55036 58008;EQDQ01  00002PRCP99
0186829830999992002031212004-09370-040480FM-12+037099999V0201401N004110075019N0020001N1+02581+01871101601ADDAA199000091GF107991071021008001001001KA1240N+02351MA1999999097461MD1999999+0131REMSYN076AAXX  12123 82983 32595 71408 10258 20187 39746 40160 87200 333 20235 58013;EQDQ01  00002PRCP99
0167829830999992002031218004-09370-040480FM-12+037099999V0201401N003110450019N0020001N1+03261+01641101121ADDAA199000091GF106991031011008001021001MA1999999097021MD1999999+0071REMSYN070AAXX  12184 82983 32595 61406 10326 20164 39702 40112 83120 333 58007;EQDQ01  00002PRCP99
0198829830999992002031300004-09370-040480FM-12+037099999V0201801N003112200019N0020001N1+02921+01741101291ADDAA199000091GF102991021011008001001001KA1240M+03401MA1999999097171MD1999999+0081REMSYN088AAXX  13004 82983 32595 21806 10292 20174 39717 40129 82100 333 10340 29050 55102 58008;EQDQ01  00002PRCP99
0186829830999992002031312004-09370-040480FM-12+037099999V0200901N004110075019N0020001N1+02601+01871101531ADDAA199000091GF106991061021008001001001KA1240N+02391MA1999999097401MD1999999-0061REMSYN076AAXX  13124 82983 32595 60908 10260 20187 39740 40153 86200 333 20239 59006;EQDQ01  00002PRCP99
0167829830999992002031318004-09370-040480FM-12+037099999V0200901N003110075019N0020001N1+03401+01451100991ADDAA199000091GF105991051011008001001001MA1999999096901MD1999999-0121REMSYN070AAXX  13184 82983 32595 50906 10340 20145 39690 40099 85100 333 59012;EQDQ01  00002PRCP99
0198829830999992002031400004-09370-040480FM-12+037099999V0201801N003112200019N0020001N1+02941+01761101171ADDAA199000091GF102991021011008001001001KA1240M+03461MA1999999097051MD1999999-0121REMSYN088AAXX  14004 82983 32595 21806 10294 20176 39705 40117 82100 333 10346 29048 55093 59012;EQDQ01  00002PRCP99
0186829830999992002031412004-09370-040480FM-12+037099999V0200901N003112200019N0020001N1+02641+01801101351ADDAA199000091GF104991041011008001001001KA1240N+02381MA1999999097241MD1999999-0161REMSYN076AAXX  14124 82983 32595 40906 10264 20180 39724 40135 84100 333 20238 59016;EQDQ01  00002PRCP99
0167829830999992002031418004-09370-040480FM-12+037099999V0200901N002612200019N0020001N1+03301+01501100911ADDAA199000091GF104991031011008001001021MA1999999096821MD1999999-0081REMSYN070AAXX  14184 82983 32595 40905 10330 20150 39682 40091 83102 333 59008;EQDQ01  00002PRCP99
0208829830999992002031500004-09370-040480FM-12+037099999V0201401N001512200019N0020001N1+02981+01471100991ADDAA199000091GA1001+999999999GF100991001001999999001001KA1240M+03401MA1999999096901MD1999999-0151REMSYN082AAXX  15004 82983 32995 01403 10298 20147 39690 40099 333 10340 29044 55113 59015;EQDQ01  00002PRCP99
0186829830999992002031512004-09370-040480FM-12+037099999V0201401N008212200019N0020001N1+02681+01921101331ADDAA199000091GF103991021011008001001011KA1240N+02321MA1999999097221MD1999999-0021REMSYN076AAXX  15124 82983 32595 31416 10268 20192 39722 40133 82101 333 20232 59002;EQDQ01  00002PRCP99
0167829830999992002031518004-09370-040480FM-12+037099999V0201401N002610450019N0020001N1+03361+01651100751ADDAA199000091GF106991041021008001021001MA1999999096671MD1999999-0151REMSYN070AAXX  15184 82983 32595 61405 10336 20165 39667 40075 84220 333 59015;EQDQ01  00002PRCP99
0208829830999992002031600004-09370-040480FM-12+037099999V0201401N003112200019N0020001N1+03041+01751100941ADDAA199000091GA1001+999999999GF100991001001999999001001KA1240M+03481MA1999999096851MD1999999-0051REMSYN082AAXX  16004 82983 32995 01406 10304 20175 39685 40094 333 10348 29048 55104 59005;EQDQ01  00002PRCP99
0186829830999992002031612004-09370-040480FM-12+037099999V0201401N003112200019N0020001N1+02721+02001101241ADDAA199000091GF102991011011008001001021KA1240N+02461MA1999999097141MD1999999-0081REMSYN076AAXX  16124 82983 32595 21406 10272 20200 39714 40124 81102 333 20246 59008;EQDQ01  00002PRCP99
0167829830999992002031618004-09370-040480FM-12+037099999V0200901N003110450019N0020001N1+03421+01701100771ADDAA199000091GF106991041021008001021011MA1999999096701MD1999999+0031REMSYN070AAXX  16184 82983 32595 60906 10342 20170 39670 40077 84221 333 58003;EQDQ01  00002PRCP99
0202829830999992002031712004-09370-040480FM-12+037099999V0201401N003119999999N0020001N1+02721+01921101241ADDAA199000091GF106991999021008001001001KA1240N+02441MA1999999097151MD1999999+0001REMSYN076AAXX  17124 82983 32595 61406 10272 20192 39715 40124 84200 333 20244 58000;EQDQ01+000042SCOTLCQ02  00002PRCP99
0167829830999992002031718004-09370-040480FM-12+037099999V0201801N001510450019N0020001N1+03241+01781100791ADDAA199000091GF105991031011008001021041MA1999999096711MD1999999+0011REMSYN070AAXX  17184 82983 32595 51803 10324 20178 39671 40079 83124 333 58001;EQDQ01  00002PRCP99
0208829830999992002031800004-09370-040480FM-12+037099999V0201401N002612200019N0020001N1+02881+01861101001ADDAA199000091GA1001+999999999GF100991001001999999001001KA1240M+03341MA1999999096911MD1999999+0031REMSYN082AAXX  18004 82983 32995 01405 10288 20186 39691 40100 333 10334 29053 55096 58003;EQDQ01  00002PRCP99
0186829830999992002031812004-09370-040480FM-12+037099999V0201401N003111050019N0020001N1+02681+01991101221ADDAA199000091GF106991021011008001021041KA1240N+02381MA1999999097121MD1999999-0021REMSYN076AAXX  18124 82983 32595 61406 10268 20199 39712 40122 82124 333 20238 59002;EQDQ01  00002PRCP99
0167829830999992002031818004-09370-040480FM-12+037099999V0201401N001510450019N0020001N1+02441+01671100711ADDAA199000091GF106991031021008001021011MA1999999096641MD1999999-0071REMSYN070AAXX  18184 82983 32595 61403 10244 20167 39664 40071 83221 333 59007;EQDQ01  00002PRCP99
0198829830999992002031900004-09370-040480FM-12+037099999V0201801N003110075019N0020001N1+03021+01661100871ADDAA199000091GF106991061061008001001001KA1240M+03501MA1999999096781MD1999999-0131REMSYN088AAXX  19004 82983 32595 61806 10302 20166 39678 40087 86600 333 10350 29047 55078 59013;EQDQ01  00002PRCP99
0186829830999992002031912004-09370-040480FM-12+037099999V0200901N003112200019N0020001N1+02821+02021101091ADDAA199000091GF105991031011008001001041KA1240N+02551MA1999999096991MD1999999-0131REMSYN076AAXX  19124 82983 32595 50906 10282 20202 39699 40109 83104 333 20255 59013;EQDQ01  00002PRCP99
0167829830999992002031918004-09370-040480FM-12+037099999V0201401N001511050019N0020001N1+03501+01721100541ADDAA199000091GF106991041021008001001021MA1999999096491MD1999999-0151REMSYN070AAXX  19184 82983 32595 61403 10350 20172 39649 40054 84202 333 59015;EQDQ01  00002PRCP99
0198829830999992002032000004-09370-040480FM-12+037099999V0200901N002612200019N0020001N1+03061+01771100791ADDAA199000091GF102991021021008001001001KA1240M+03561MA1999999096721MD1999999-0061REMSYN088AAXX  20004 82983 32595 20905 10306 20177 39672 40079 82200 333 10356 29047 55109 59006;EQDQ01  00002PRCP99
0186829830999992002032012004-09370-040480FM-12+037099999V0200901N004110075019N0020001N1+02601+02061101301ADDAA199000091GF108991081051008001999999KA1240N+02551MA1999999097191MD1999999+0201REMSYN076AAXX  20124 82983 32595 80908 10260 20206 39719 40130 885// 333 20255 58020;EQDQ01  00002PRCP99
0167829830999992002032018004-09370-040480FM-12+037099999V0200901N003110450019N0020001N1+02941+01941100901ADDAA199000091GF107991031021008001021001MA1999999096781MD1999999+0291REMSYN070AAXX  20184 82983 32595 70906 10294 20194 39678 40090 83220 333 58029;EQDQ01  00002PRCP99
0230829830999992002032100004-09370-040480FM-12+037099999V0200901N001512200019N0020001N1+02801+01951999999ADDAA199000091GF102991021011008001001001KA1240M+03241MA1999999096821MD1999999+0101REMSYN088AAXX  21004 82983 32595 20903 10280 20195 39682 40694 82100 333 10324 29062 55002 58010;EQDQ01+106943APOSLPQ02  00002PRCP99Q03 106943APOSLP
0186829830999992002032112004-09370-040480FM-12+037099999V0200501N003112200019N0020001N1+02771+01971101181ADDAA199000091GF104991021011008001021011KA1240N+02421MA1999999097081MD1999999-0111REMSYN076AAXX  21124 82983 32595 40506 10277 20197 39708 40118 82121 333 20242 59011;EQDQ01  00002PRCP99
0167829830999992002032118004-09370-040480FM-12+037099999V0200901N003110075019N0020001N1+03441+01761100701ADDAA199000091GF105991051021008001001001MA1999999096631MD1999999-0151REMSYN070AAXX  21184 82983 32595 50906 10344 20176 39663 40070 85200 333 59015;EQDQ01  00002PRCP99
0198829830999992002032200004-09370-040480FM-12+037099999V0200501N002612200019N0020001N1+03081+01951100821ADDAA199000091GF104991041021008001001001KA1240M+03531MA1999999096741MD1999999-0081REMSYN088AAXX  22004 82983 32595 40505 10308 20195 39674 40082 84200 333 10353 29050 55099 59008;EQDQ01  00002PRCP99
0201829830999992002032212004-09370-040480FM-12+037099999V0200501N003110075019N0020001N1+02761+02211101131ADDAA124003091AY161061AY221061GF106991061021008001001001KA1240N+02311MA1999999097031MD1999999-0051MW1031REMSYN088AAXX  22124 82983 21595 60506 10276 20221 39703 40113 70362 86200 333 20231 59005 60034;
0167829830999992002032218004-09370-040480FM-12+037099999V0200901N002610450019N0500001N1+03451+01841100651ADDAA199000091GF105991041021008001021001MA1999999097571MD1999999-0061REMSYN070AAXX  22184 82983 32599 50905 10345 20184 39757 40065 84220 333 59006;EQDQ01  00002PRCP99
0198829830999992002032300004-09370-040480FM-12+037099999V0200901N002610075019N0020001N1+02881+02001101021ADDAA199000091GF106991061021008001001001KA1240M+03521MA1999999096931MD1999999+0191REMSYN088AAXX  23004 82983 32595 60905 10288 20200 39693 40102 86200 333 10352 29057 55094 58019;EQDQ01  00002PRCP99
0220829830999992002032312004-09370-040480FM-12+037099999V0200901N004119999999N0020001N1+02701+01991101351ADDAA124001091AY161061AY221061GF106991999021008001001001KA1240N+02401MA1999999097241MD1999999+0211MW1031REMSYN088AAXX  23124 82983 21595 60908 10270 20199 39724 40135 70362 84200 333 20240 58021 60014;EQDQ01+000042SCOTLC
0167829830999992002032318004-09370-040480FM-12+037099999V0200901N005110075019N0020001N1+03201+01751100921ADDAA199000091GF106991061021008001001001MA1999999096831MD1999999+0261REMSYN070AAXX  23184 82983 32595 60910 10320 20175 39683 40092 86200 333 58026;EQDQ01  00002PRCP99
0208829830999992002032400004-09370-040480FM-12+037099999V0200901N001512200019N0020001N1+02901+01781101101ADDAA199000091GA1001+999999999GF100991001001999999001001KA1240M+03281MA1999999097001MD1999999+0071REMSYN082AAXX  24004 82983 32995 00903 10290 20178 39700 40110 333 10328 29052 55068 58007;EQDQ01  00002PRCP99
0186829830999992002032412004-09370-040480FM-12+037099999V0200901N003112200019N0020001N1+02741+01871101361ADDAA199000091GF103991031011008001001001KA1240N+02381MA1999999097251MD1999999+0011REMSYN076AAXX  24124 82983 32595 30906 10274 20187 39725 40136 83100 333 20238 58001;EQDQ01  00002PRCP99
0167829830999992002032418004-09370-040480FM-12+037099999V0201401N003110450019N0020001N1+03261+01641100861ADDAA199000091GF106991041011008001021001MA1999999096771MD1999999-0061REMSYN070AAXX  24184 82983 32595 61406 10326 20164 39677 40086 84120 333 59006;EQDQ01  00002PRCP99
0198829830999992002032500004-09370-040480FM-12+037099999V0201401N002610075019N0020001N1+02931+01641101021ADDAA199000091GF106991061011008001001001KA1240M+03381MA1999999096931MD1999999-0071REMSYN088AAXX  25004 82983 32595 61405 10293 20164 39693 40102 86100 333 10338 29047 55085 59007;EQDQ01  00002PRCP99
0186829830999992002032512004-09370-040480FM-12+037099999V0201401N003110075019N0020001N1+02641+01831101301ADDAA199000091GF105991051011008001001001KA1240N+02441MA1999999097191MD1999999-0061REMSYN076AAXX  25124 82983 32595 51406 10264 20183 39719 40130 85100 333 20244 59006;EQDQ01  00002PRCP99
0167829830999992002032518004-09370-040480FM-12+037099999V0200901N003110075019N0020001N1+03121+01821100821ADDAA199000091GF106991061011008001001001MA1999999096741MD1999999-0031REMSYN070AAXX  25184 82983 32595 60906 10312 20182 39674 40082 86100 333 59003;EQDQ01  00002PRCP99
0198829830999992002032600004-09370-040480FM-12+037099999V0209999C000012200019N0020001N1+02841+01931100981ADDAA199000091GF103991031021008001001001KA1240M+03201MA1999999096871MD1999999-0071REMSYN088AAXX  26004 82983 32595 30000 10284 20193 39687 40098 83200 333 10320 29056 55107 59007;EQDQ01  00002PRCP99
0186829830999992002032612004-09370-040480FM-12+037099999V0200901N003110075019N0020001N1+02581+01871101271ADDAA199000091GF106991061011008001001001KA1240N+02381MA1999999097141MD1999999-0051REMSYN076AAXX  26124 82983 32595 60906 10258 20187 39714 40127 86100 333 20238 59005;EQDQ01  00002PRCP99
0167829830999992002032618004-09370-040480FM-12+037099999V0200901N001510075019N0020001N1+03341+01671100741ADDAA199000091GF105991051011008001001001MA1999999096661MD1999999-0081REMSYN070AAXX  26184 82983 32595 50903 10334 20167 39666 40074 85100 333 59008;EQDQ01  00002PRCP99
0198829830999992002032700004-09370-040480FM-12+037099999V0201801N002610075019N0020001N1+03041+01681100911ADDAA199000091GF106991061021008001001001KA1240M+03421MA1999999096821MD1999999-0051REMSYN088AAXX  27004 82983 32595 61805 10304 20168 39682 40091 86200 333 10342 29048 55112 59005;EQDQ01  00002PRCP99
0186829830999992002032712004-09370-040480FM-12+037099999V0200901N005112200019N0020001N1+02741+01871101331ADDAA199000091GF105991031011008001001011KA1240N+02501MA1999999097221MD1999999+0081REMSYN076AAXX  27124 82983 32595 50910 10274 20187 39722 40133 83101 333 20250 58008;EQDQ01  00002PRCP99
0167829830999992002032718004-09370-040480FM-12+037099999V0200901N004112200019N0020001N1+03421+01511100821ADDAA199000091GF104991041011008001001001MA1999999096761MD1999999+0101REMSYN070AAXX  27184 82983 32595 40908 10342 20151 39676 40082 84100 333 58010;EQDQ01  00002PRCP99
0198829830999992002032800004-09370-040480FM-12+037099999V0200901N003112200019N0020001N1+03081+01311101091ADDAA199000091GF104991041011008001001001KA1240M+03461MA1999999096991MD1999999+0171REMSYN088AAXX  28004 82983 32595 40906 10308 20131 39699 40109 84100 333 10346 29040 55099 58017;EQDQ01  00002PRCP99
0186829830999992002032812004-09370-040480FM-12+037099999V0201401N005110075019N0020001N1+02621+01861101461ADDAA199000091GF106991051011008001001011KA1240N+02281MA1999999097351MD1999999+0131REMSYN076AAXX  28124 82983 32595 61410 10262 20186 39735 40146 85101 333 20228 58013;EQDQ01  00002PRCP99
0167829830999992002032818004-09370-040480FM-12+037099999V0200901N004110450019N0100001N1+03121+01641100991ADDAA199000091GF106991021011008001021001MA1999999096871MD1999999+0111REMSYN070AAXX  28184 82983 32597 60908 10312 20164 39687 40099 82120 333 58011;EQDQ01  00002PRCP99
0198829830999992002032900004-09370-040480FM-12+037099999V0201401N003112200019N0020001N1+02821+01711101131ADDAA199000091GF103991031011008001001001KA1240M+03201MA1999999097001MD1999999+0011REMSYN088AAXX  29004 82983 32595 31406 10282 20171 39700 40113 83100 333 10320 29052 55062 58001;EQDQ01  00002PRCP99
0186829830999992002032912004-09370-040480FM-12+037099999V0201401N005110075019N0020001N1+02621+01911101301ADDAA199000091GF106991051021008001021001KA1240N+02361MA1999999097161MD1999999-0191REMSYN076AAXX  29124 82983 32595 61410 10262 20191 39716 40130 85220 333 20236 59019;EQDQ01  00002PRCP99
0167829830999992002032918004-09370-040480FM-12+037099999V0201401N004110450019N0020001N1+03241+01671100811ADDAA199000091GF105991031011008001021011MA1999999096731MD1999999-0141REMSYN070AAXX  29184 82983 32595 51408 10324 20167 39673 40081 83121 333 59014;EQDQ01  00002PRCP99
0198829830999992002033000004-09370-040480FM-12+037099999V0200901N003112200019N0020001N1+03001+01641101051ADDAA199000091GF104991041011008001001001KA1240M+03321MA1999999096951MD1999999-0051REMSYN088AAXX  30004 82983 32595 40906 10300 20164 39695 40105 84100 333 10332 29048 55057 59005;EQDQ01  00002PRCP99
0186829830999992002033012004-09370-040480FM-12+037099999V0201401N005110075019N0020001N1+02761+01971101271ADDAA199000091GF106991051011008001001011KA1240N+02351MA1999999097161MD1999999+0001REMSYN076AAXX  30124 82983 32595 61410 10276 20197 39716 40127 85101 333 20235 58000;EQDQ01  00002PRCP99
0167829830999992002033018004-09370-040480FM-12+037099999V0200901N005110450019N0020001N1+03381+01661100731ADDAA199000091GF106991031011008001021011MA1999999096651MD1999999-0081REMSYN070AAXX  30184 82983 32595 60910 10338 20166 39665 40073 83121 333 59008;EQDQ01  00002PRCP99
0198829830999992002033100004-09370-040480FM-12+037099999V0201401N005110450019N0020001N1+03021+01921101061ADDAA199000091GF105991021011008001021001KA1240M+03441MA1999999096961MD1999999+0011REMSYN088AAXX  31004 82983 32595 51410 10302 20192 39696 40106 82120 333 10344 29050 55098 58001;EQDQ01  00002PRCP99
0202829830999992002033112004-09370-040480FM-12+037099999V0201401N004119999999N0020001N1+02721+01951101391ADDAA199000091GF106991999021008001001001KA1240N+02391MA1999999097281MD1999999+0121REMSYN076AAXX  31124 82983 32595 61408 10272 20195 39728 40139 84200 333 20239 58012;EQDQ01+000042SCOTLCQ02  00002PRCP99
0183829830999992002033118004-09370-040480FM-12+037099999V0201401N003119999999N0020001N1+03381+01621100861ADDAA199000091GF106991999021008001001001MA1999999096771MD1999999+0121REMSYN070AAXX  31184 82983 32595 61406 10338 20162 39677 40086 83200 333 58012;EQDQ01+000032SCOTLCQ02  00002PRCP99
0198829830999992002040100004-09370-040480FM-12+037099999V0200901N005710075019N0020001N1+02721+02031101231ADDAA199000091GF108991081061008001001001KA1240M+03421MA1999999097101MD1999999+0141REMSYN088AAXX  01004 82983 32595 80911 10272 20203 39710 40123 88600 333 10342 29058 55084 58014;EQDQ01  00002PRCP99
0201829830999992002040112004-09370-040480FM-12+037099999V0201401N003110075019N0020001N1+02581+02101101301ADDAA124001091AY161061AY221061GF108991081051008001999999KA1240N+02411MA1999999097161MD1999999-0121MW1031REMSYN088AAXX  01124 82983 21595 81406 10258 20210 39716 40130 70362 885// 333 20241 59012 60014;
0167829830999992002040118004-09370-040480FM-12+037099999V0201401N005110075019N0020001N1+03201+01861100941ADDAA199000091GF107991051021008001021001MA1999999096851MD1999999+0081REMSYN070AAXX  01184 82983 32595 71410 10320 20186 39685 40094 85220 333 58008;EQDQ01  00002PRCP99
0198829830999992002040200004-09370-040480FM-12+037099999V0201401N003110075019N0020001N1+02901+01841101121ADDAA199000091GF106991061021008001001001KA1240M+03281MA1999999097001MD1999999-0101REMSYN088AAXX  02004 82983 32595 61406 10290 20184 39700 40112 86200 333 10328 29057 55041 59010;EQDQ01  00002PRCP99
0186829830999992002040212004-09370-040480FM-12+037099999V0201401N004110075019N0020001N1+02621+02051101301ADDAA199000091GF108991081051008001999999KA1240N+02381MA1999999097181MD1999999+0021REMSYN076AAXX  02124 82983 32595 81408 10262 20205 39718 40130 885// 333 20238 58002;EQDQ01  00002PRCP99
0167829830999992002040218004-09370-040480FM-12+037099999V0200901N004110075019N0020001N1+03301+01871100881ADDAA199000091GF106991061021008001001001MA1999999096791MD1999999-0061REMSYN070AAXX  02184 82983 32595 60908 10330 20187 39679 40088 86200 333 59006;EQDQ01  00002PRCP99
0198829830999992002040300004-09370-040480FM-12+037099999V0200901N005110075019N0020001N1+02841+01961101271ADDAA199000091GF105991051021008001001001KA1240M+03321MA1999999097151MD1999999+0151REMSYN088AAXX  03004 82983 32595 50910 10284 20196 39715 40127 85200 333 10332 29064 55058 58015;EQDQ01  00002PRCP99
0186829830999992002040312004-09370-040480FM-12+037099999V0200901N005710450019N0020001N1+02661+01851101381ADDAA199000091GF105991031021008001021001KA1240N+02341MA1999999097261MD1999999+0081REMSYN076AAXX  03124 82983 32595 50911 10266 20185 39726 40138 83220 333 20234 58008;EQDQ01  00002PRCP99
0167829830999992002040318004-09370-040480FM-12+037099999V0200901N004110075019N0020001N1+03361+01511100961ADDAA199000091GF105991051021008001001001MA1999999096871MD1999999+0081REMSYN070AAXX  03184 82983 32595 50908 10336 20151 39687 40096 85200 333 58008;EQDQ01  00002PRCP99
0198829830999992002040400004-09370-040480FM-12+037099999V0201401N001512200019N0020001N1+02981+01441101141ADDAA199000091GF103991031011008001001001KA1240M+03421MA1999999097041MD1999999-0111REMSYN088AAXX  04004 82983 32595 31403 10298 20144 39704 40114 83100 333 10342 29043 55103 59011;EQDQ01  00002PRCP99
0186829830999992002040412004-09370-040480FM-12+037099999V0201401N005110075019N0020001N1+02621+01881101391ADDAA199000091GF107991051021008001021001KA1240N+02341MA1999999097281MD1999999+0021REMSYN076AAXX  04124 82983 32595 71410 10262 20188 39728 40139 85220 333 20234 58002;EQDQ01  00002PRCP99
0167829830999992002040418004-09370-040480FM-12+037099999V0200901N003110075019N0020001N1+03321+01611100871ADDAA199000091GF106991061021008001001001MA1999999096791MD1999999-0081REMSYN070AAXX  04184 82983 32595 60906 10332 20161 39679 40087 86200 333 59008;EQDQ01  00002PRCP99
0208829830999992002040500004-09370-040480FM-12+037099999V0200901N004112200019N0020001N1+02861+01811101161ADDAA199000091GA1001+999999999GF100991001001999999001001KA1240M+03361MA1999999097041MD1999999+0001REMSYN082AAXX  05004 82983 32995 00908 10286 20181 39704 40116 333 10336 29052 55089 58000;EQDQ01  00002PRCP99
0186829830999992002040512004-09370-040480FM-12+037099999V0201401N005110075019N0020001N1+02541+01811101321ADDAA199000091GF106991061011008001021001KA1240N+02301MA1999999097181MD1999999-0101REMSYN076AAXX  05124 82983 32595 61410 10254 20181 39718 40132 86120 333 20230 59010;EQDQ01  00002PRCP99
0167829830999992002040518004-09370-040480FM-12+037099999V0200901N003110450019N0020001N1+03181+01651100751ADDAA199000091GF106991031011008001011011MA1999999096651MD1999999-0141REMSYN070AAXX  05184 82983 32595 60906 10318 20165 39665 40075 83111 333 59014;EQDQ01  00002PRCP99
0198829830999992002040600004-09370-040480FM-12+037099999V0201401N001510075019N0020001N1+02841+01731101011ADDAA199000091GF105991051011008001001001KA1240M+03281MA1999999096891MD1999999-0151REMSYN088AAXX  06004 82983 32595 51403 10284 20173 39689 40101 85100 333 10328 29052 55064 59015;EQDQ01  00002PRCP99
0186829830999992002040612004-09370-040480FM-12+037099999V0201401N004110450019N0020001N1+02681+01861101131ADDAA199000091GF106991031011008001011011KA1240N+02461MA1999999097011MD1999999-0171REMSYN076AAXX  06124 82983 32595 61408 10268 20186 39701 40113 83111 333 20246 59017;EQDQ01  00002PRCP99
0167829830999992002040618004-09370-040480FM-12+037099999V0201401N003119999999N0020001N1+03221+01431100601ADDAA199000091GF108991041001008001001021MA1999999096531MD1999999-0121REMSYN070AAXX  06184 82983 32595 81406 10322 20143 39653 40060 84002 333 59012;EQDQ01  00002PRCP99
0198829830999992002040700004-09370-040480FM-12+037099999V0200901N003112200019N0020001N1+02921+01301100921ADDAA199000091GF102991021011008001001001KA1240M+03221MA1999999096831MD1999999-0061REMSYN088AAXX  07004 82983 32595 20906 10292 20130 39683 40092 82100 333 10322 29042 55047 59006;EQDQ01  00002PRCP99
0202829830999992002040712004-09370-040480FM-12+037099999V0201401N003119999999N0020001N1+02621+01981101361ADDAA199000091GF107991999021008001001001KA1240N+02481MA1999999097201MD1999999+0191REMSYN076AAXX  07124 82983 32595 71406 10262 20198 39720 40136 84200 333 20248 58019;EQDQ01+000042SCOTLCQ02  00002PRCP99
0183829830999992002040718004-09370-040480FM-12+037099999V0200901N002619999999N0020001N1+03241+01581100711ADDAA199000091GF106991999021008001001001MA1999999096631MD1999999+0101REMSYN070AAXX  07184 82983 32595 60905 10324 20158 39663 40071 83200 333 58010;EQDQ01+000032SCOTLCQ02  00002PRCP99
0198829830999992002040800004-09370-040480FM-12+037099999V0201401N003110075019N0020001N1+02861+01901101021ADDAA199000091GF105991051011008001001001KA1240M+03401MA1999999096911MD1999999+0081REMSYN088AAXX  08004 82983 32595 51406 10286 20190 39691 40102 85100 333 10340 29054 55067 58008;EQDQ01  00002PRCP99
0186829830999992002040812004-09370-040480FM-12+037099999V0201401N003110075019N0020001N1+02581+01901101231ADDAA199000091GF106991061011008001001001KA1240N+02461MA1999999097101MD1999999-0101REMSYN076AAXX  08124 82983 32595 61406 10258 20190 39710 40123 86100 333 20246 59010;EQDQ01  00002PRCP99
0167829830999992002040818004-09370-040480FM-12+037099999V0201401N003112200019N0020001N1+03341+01711100701ADDAA199000091GF104991041011008001001001MA1999999096631MD1999999+0001REMSYN070AAXX  08184 82983 32595 41406 10334 20171 39663 40070 84100 333 58000;EQDQ01  00002PRCP99
0208829830999992002040900004-09370-040480FM-12+037099999V0201401N002612200019N0020001N1+03021+01691100861ADDAA199000091GA1001+999999999GF100991001001999999001001KA1240M+03421MA1999999096771MD1999999-0111REMSYN082AAXX  09004 82983 32995 01405 10302 20169 39677 40086 333 10342 29048 55085 59011;EQDQ01  00002PRCP99
0186829830999992002040912004-09370-040480FM-12+037099999V0201401N003110075019N0020001N1+02741+02021101161ADDAA199000091GF105991051011008001001001KA1240N+02461MA1999999097061MD1999999-0041REMSYN076AAXX  09124 82983 32595 51406 10274 20202 39706 40116 85100 333 20246 59004;EQDQ01  00002PRCP99
0167829830999992002040918004-09370-040480FM-12+037099999V0201401N002612200019N0020001N1+03361+01771100561ADDAA199000091GF104991041021008001001001MA1999999096501MD1999999-0131REMSYN070AAXX  09184 82983 32595 41405 10336 20177 39650 40056 84200 333 59013;EQDQ01  00002PRCP99
0208829830999992002041000004-09370-040480FM-12+037099999V0201401N001512200019N0020001N1+03021+01801100811ADDAA199000091GA1001+999999999GF100991001001999999001001KA1240M+03421MA1999999096731MD1999999-0041REMSYN082AAXX  10004 82983 32995 01403 10302 20180 39673 40081 333 10342 29050 55110 59004;EQDQ01  00002PRCP99
0186829830999992002041012004-09370-040480FM-12+037099999V0201401N003110450019N0020001N1+02701+02031101161ADDAA199000091GF106991031011008001011011KA1240N+02471MA1999999097061MD1999999+0001REMSYN076AAXX  10124 82983 32595 61406 10270 20203 39706 40116 83111 333 20247 58000;EQDQ01  00002PRCP99
0167829830999992002041018004-09370-040480FM-12+037099999V0200901N003110450019N0020001N1+03321+01701100581ADDAA199000091GF106991031021008001011011MA1999999096511MD1999999+0011REMSYN070AAXX  10184 82983 32595 60906 10332 20170 39651 40058 83211 333 58001;EQDQ01  00002PRCP99
0198829830999992002041100004-09370-040480FM-12+037099999V0201401N002612200019N0020001N1+03021+01801100931ADDAA199000091GF102991021011008001001001KA1240M+03361MA1999999096841MD1999999+0111REMSYN088AAXX  11004 82983 32595 21405 10302 20180 39684 40093 82100 333 10336 29050 55065 58011;EQDQ01  00002PRCP99
0186829830999992002041112004-09370-040480FM-12+037099999V0201401N003110450019N0020001N1+02641+02031101271ADDAA199000091GF107991041021008001021001KA1240N+02491MA1999999097161MD1999999+0101REMSYN076AAXX  11124 82983 32595 71406 10264 20203 39716 40127 84220 333 20249 58010;EQDQ01  00002PRCP99
0167829830999992002041118004-09370-040480FM-12+037099999V0201401N003110450019N0020001N1+03181+01771100751ADDAA199000091GF106991031021008001021011MA1999999096671MD1999999+0161REMSYN070AAXX  11184 82983 32595 61406 10318 20177 39667 40075 83221 333 58016;EQDQ01  00002PRCP99
0198829830999992002041200004-09370-040480FM-12+037099999V0201801N002610075019N0020001N1+02901+01871101031ADDAA199000091GF106991061061008001001001KA1240M+03281MA1999999096921MD1999999+0081REMSYN088AAXX  12004 82983 32595 61805 10290 20187 39692 40103 86600 333 10328 29055 55039 58008;EQDQ01  00002PRCP99
0186829830999992002041212004-09370-040480FM-12+037099999V0201401N002610450019N0020001N1+02621+02101101291ADDAA199000091GF106991031021008001021001KA1240N+02541MA1999999097171MD1999999+0011REMSYN076AAXX  12124 82983 32595 61405 10262 20210 39717 40129 83220 333 20254 58001;EQDQ01  00002PRCP99
0167829830999992002041218004-09370-040480FM-12+037099999V0200901N002610450019N0020001N1+03241+01751100781ADDAA199000091GF106991031021008001011011MA1999999096701MD1999999+0031REMSYN070AAXX  12184 82983 32595 60905 10324 20175 39670 40078 83211 333 58003;EQDQ01  00002PRCP99
0198829830999992002041300004-09370-040480FM-12+037099999V0203601N004112200019N0020001N1+02541+02151101191ADDAA199000091GF103991031061008001001001KA1240M+03361MA1999999097051MD1999999+0131REMSYN088AAXX  13004 82983 32595 33608 10254 20215 39705 40119 83600 333 10336 29068 55063 58013;EQDQ01  00002PRCP99
0201829830999992002041312004-09370-040480FM-12+037099999V0201401N003110075019N0020001N1+02521+02211101341ADDAA124003091AY161061AY221061GF108991081051008001999999KA1240N+02301MA1999999097181MD1999999+0011MW1031REMSYN088AAXX  13124 82983 21595 81406 10252 20221 39718 40134 70362 885// 333 20230 58001 60034;
0167829830999992002041318004-09370-040480FM-12+037099999V0200501N002610075019N0020001N1+03301+01871100831ADDAA199000091GF105991051021008001001001MA1999999096731MD1999999+0031REMSYN070AAXX  13184 82983 32595 50505 10330 20187 39673 40083 85200 333 58003;EQDQ01  00002PRCP99
0213829830999992002041400004-09370-040480FM-12+037099999V0203601N003110075019N0020001N1+02341+02221101321ADDAA106006191AY161061AY221061GF108991081051008001999999KA1240M+03381MA1999999097511MD1999999+0101MW1051REMSYN100AAXX  14004 82983 21595 83606 10234 20222 39751 40132 70562 885// 333 10338 29078 55057 58010 60061;
0201829830999992002041412004-09370-040480FM-12+037099999V0201401N003110450019N0020001N1+02621+02071101381ADDAA124014091AY161061AY261061GF106991041021008001021001KA1240N+02291MA1999999097221MD1999999+0041MW1031REMSYN088AAXX  14124 82983 21595 61406 10262 20207 39722 40138 70366 84220 333 20229 58004 60144;
0167829830999992002041418004-09370-040480FM-12+037099999V0200901N003110075019N0020001N1+03201+01931100901ADDAA199000091GF106991051021008001021001MA1999999096781MD1999999+0051REMSYN070AAXX  14184 82983 32595 60906 10320 20193 39678 40090 85220 333 58005;EQDQ01  00002PRCP99
0198829830999992002041500004-09370-040480FM-12+037099999V0200901N001510075019N0020001N1+02821+02071101171ADDAA199000091GF108991081051008001999999KA1240M+03241MA1999999096981MD1999999-0171REMSYN088AAXX  15004 82983 32595 80903 10282 20207 39698 40117 885// 333 10324 29062 55065 59017;EQDQ01  00002PRCP99
0186829830999992002041512004-09370-040480FM-12+037099999V0200901N003110075019N0020001N1+02601+01891101371ADDAA199000091GF105991051011008001001001KA1240N+02251MA1999999097231MD1999999+0011REMSYN076AAXX  15124 82983 32595 50906 10260 20189 39723 40137 85100 333 20225 58001;EQDQ01  00002PRCP99
0198829830999992002041600004-09370-040480FM-12+037099999V0201401N001510075019N0020001N1+02881+01911101071ADDAA199000091GF106991061021008001001001KA1240M+03301MA1999999096951MD1999999-0031REMSYN088AAXX  16004 82983 32595 61403 10288 20191 39695 40107 86200 333 10330 29055 55107 59003;EQDQ01  00002PRCP99
0186829830999992002041612004-09370-040480FM-12+037099999V0201401N003110075019N0020001N1+02701+01941101321ADDAA199000091GF105991051021008001001001KA1240N+02321MA1999999097211MD1999999-0021REMSYN076AAXX  16124 82983 32595 51406 10270 20194 39721 40132 85200 333 20232 59002;EQDQ01  00002PRCP99
0167829830999992002041618004-09370-040480FM-12+037099999V0200901N001510075019N0020001N1+03161+01631100971ADDAA199000091GF106991061021008001001001MA1999999096861MD1999999+0131REMSYN070AAXX  16184 82983 32595 60903 10316 20163 39686 40097 86200 333 58013;EQDQ01  00002PRCP99
0198829830999992002041700004-09370-040480FM-12+037099999V0201401N003110075019N0020001N1+02801+01921101251ADDAA199000091GF106991061021008001001001KA1240M+03241MA1999999097131MD1999999+0181REMSYN088AAXX  17004 82983 32595 61406 10280 20192 39713 40125 86200 333 10324 29055 55080 58018;EQDQ01  00002PRCP99
0198829830999992002041800004-09370-040480FM-12+037099999V0201401N001512200019N0020001N1+02781+01721101201ADDAA199000091GF103991031021008001001001KA1240M+03261MA1999999097061MD1999999-0071REMSYN088AAXX  18004 82983 32595 31403 10278 20172 39706 40120 83200 333 10326 29055 55089 59007;EQDQ01  00002PRCP99
0186829830999992002041812004-09370-040480FM-12+037099999V0200901N004112200019N0020001N1+02541+01761101501ADDAA199000091GF104991041011008001001001KA1240N+02281MA1999999097351MD1999999-0031REMSYN076AAXX  18124 82983 32595 40908 10254 20176 39735 40150 84100 333 20228 59003;EQDQ01  00002PRCP99
0167829830999992002041818004-09370-040480FM-12+037099999V0201401N003112200019N0020001N1+03181+01651100971ADDAA199000091GF104991041011008001001001MA1999999096861MD1999999-0011REMSYN070AAXX  18184 82983 32595 41406 10318 20165 39686 40097 84100 333 59001;EQDQ01  00002PRCP99
0186829830999992002041912004-09370-040480FM-12+037099999V0201401N004110075019N0020001N1+02541+01811101351ADDAA199000091GF106991061011008001001001KA1240N+02221MA1999999097211MD1999999-0141REMSYN076AAXX  19124 82983 32595 61408 10254 20181 39721 40135 86100 333 20222 59014;EQDQ01  00002PRCP99
0167829830999992002041918004-09370-040480FM-12+037099999V0200901N004112200019N0100001N1+03261+01601100771ADDAA199000091GF104991041011008001001001MA1999999096691MD1999999-0171REMSYN070AAXX  19184 82983 32597 40908 10326 20160 39669 40077 84100 333 59017;EQDQ01  00002PRCP99
0198829830999992002042000004-09370-040480FM-12+037099999V0200901N003112200019N0020001N1+02861+01521101031ADDAA199000091GF102991021011008001001001KA1240M+03341MA1999999096911MD1999999-0021REMSYN088AAXX  20004 82983 32595 20906 10286 20152 39691 40103 82100 333 10334 29047 55111 59002;EQDQ01  00002PRCP99
0186829830999992002042012004-09370-040480FM-12+037099999V0201401N005110075019N0020001N1+02541+01811101321ADDAA199000091GF106991061011008001001001KA1240N+02241MA1999999097181MD1999999-0031REMSYN076AAXX  20124 82983 32595 61410 10254 20181 39718 40132 86100 333 20224 59003;EQDQ01  00002PRCP99
0167829830999992002042018004-09370-040480FM-12+037099999V0201401N004112200019N0020001N1+03221+01431100761ADDAA199000091GF104991011011008001001011MA1999999096661MD1999999-0031REMSYN070AAXX  20184 82983 32595 41408 10322 20143 39666 40076 81101 333 59003;EQDQ01  00002PRCP99
0198829830999992002042100004-09370-040480FM-12+037099999V0201401N001519999999N0020001N1+02861+01441101031ADDAA199000091GF106991061001008001011001KA1240M+03281MA1999999096911MD1999999+0001REMSYN088AAXX  21004 82983 32595 61403 10286 20144 39691 40103 86010 333 10328 29046 55087 58000;EQDQ01  00002PRCP99
0186829830999992002042112004-09370-040480FM-12+037099999V0201401N004110075019N0020001N1+02701+01941101311ADDAA199000091GF106991061011008001001001KA1240N+02261MA1999999097201MD1999999+0021REMSYN076AAXX  21124 82983 32595 61408 10270 20194 39720 40131 86100 333 20226 58002;EQDQ01  00002PRCP99
0183829830999992002042118004-09370-040480FM-12+037099999V0200901N003119999999N0020001N1+03081+01951100871ADDAA199000091GF106991999021008001001001MA1999999096771MD1999999+0111REMSYN070AAXX  21184 82983 32595 60906 10308 20195 39677 40087 84200 333 58011;EQDQ01+000042SCOTLCQ02  00002PRCP99
0198829830999992002042200004-09370-040480FM-12+037099999V0200901N003110075019N0020001N1+02801+01901101071ADDAA199000091GF105991051021008001001001KA1240M+03181MA1999999096951MD1999999+0041REMSYN088AAXX  22004 82983 32595 50906 10280 20190 39695 40107 85200 333 10318 29058 55092 58004;EQDQ01  00002PRCP99
0186829830999992002042212004-09370-040480FM-12+037099999V0201401N004110075019N0020001N1+02421+01911101331ADDAA199000091GF107991071051008001001001KA1240N+02131MA1999999097181MD1999999-0021REMSYN076AAXX  22124 82983 32595 71408 10242 20191 39718 40133 87500 333 20213 59002;EQDQ01  00002PRCP99
0167829830999992002042218004-09370-040480FM-12+037099999V0200901N002610450019N0020001N1+02831+02051100941ADDAA199000091GF106991041041008001011001MA1999999096801MD1999999+0031REMSYN070AAXX  22184 82983 32595 60905 10283 20205 39680 40094 84410 333 58003;EQDQ01  00002PRCP99
0198829830999992002042300004-09370-040480FM-12+037099999V0200901N002610075019N0020001N1+02521+02151101141ADDAA199000091GF106991061051008001001001KA1240M+02961MA1999999096981MD1999999+0051REMSYN088AAXX  23004 82983 32595 60905 10252 20215 39698 40114 86500 333 10296 29074 55065 58005;EQDQ01  00002PRCP99
0186829830999992002042312004-09370-040480FM-12+037099999V0201401N004110075019N0020001N1+02541+01911101221ADDAA199000091GF106991061011008001001001KA1240N+02191MA1999999097081MD1999999-0101REMSYN076AAXX  23124 82983 32595 61408 10254 20191 39708 40122 86100 333 20219 59010;EQDQ01  00002PRCP99
0167829830999992002042318004-09370-040480FM-12+037099999V0200901N004110075019N0020001N1+03181+01691100741ADDAA199000091GF106991061011008001001001MA1999999096631MD1999999-0161REMSYN070AAXX  23184 82983 32595 60908 10318 20169 39663 40074 86100 333 59016;EQDQ01  00002PRCP99
0198829830999992002042400004-09370-040480FM-12+037099999V0200901N005112200019N0020001N1+02801+01781101101ADDAA199000091GF104991041051008001001001KA1240M+03281MA1999999096961MD1999999-0021REMSYN088AAXX  24004 82983 32595 40910 10280 20178 39696 40110 84500 333 10328 29054 55110 59002;EQDQ01  00002PRCP99
0186829830999992002042412004-09370-040480FM-12+037099999V0201401N004110450019N0020001N1+02441+01811101251ADDAA199000091GF106991041021008001021001KA1240N+02241MA1999999097111MD1999999+0031REMSYN076AAXX  24124 82983 32595 61408 10244 20181 39711 40125 84220 333 20224 58003;EQDQ01  00002PRCP99
0167829830999992002042418004-09370-040480FM-12+037099999V0200901N003110450019N0020001N1+03061+01581100761ADDAA199000091GF106991031011008001021011MA1999999096651MD1999999+0021REMSYN070AAXX  24184 82983 32595 60906 10306 20158 39665 40076 83121 333 58002;EQDQ01  00002PRCP99
0198829830999992002042500004-09370-040480FM-12+037099999V0200901N001519999999N0020001N1+02781+01611101011ADDAA199000091GF105991051001008001011001KA1240M+03161MA1999999096881MD1999999-0081REMSYN088AAXX  25004 82983 32595 50903 10278 20161 39688 40101 85010 333 10316 29052 55093 59008;EQDQ01  00002PRCP99
0186829830999992002042512004-09370-040480FM-12+037099999V0201401N003110075019N0020001N1+02501+01941101381ADDAA199000091GF106991051021008001021001KA1240N+02281MA1999999097241MD1999999+0131REMSYN076AAXX  25124 82983 32595 61406 10250 20194 39724 40138 85220 333 20228 58013;EQDQ01  00002PRCP99
0167829830999992002042518004-09370-040480FM-12+037099999V0201401N001510450019N0020001N1+03201+01631100811ADDAA199000091GF107991031011008001031001MA1999999096711MD1999999+0061REMSYN070AAXX  25184 82983 32595 71403 10320 20163 39671 40081 83130 333 58006;EQDQ01  00002PRCP99
0198829830999992002042600004-09370-040480FM-12+037099999V0200501N001510075019N0020001N1+02721+01821101041ADDAA199000091GF108991081051008001999999KA1240M+03241MA1999999096911MD1999999+0031REMSYN088AAXX  26004 82983 32595 80503 10272 20182 39691 40104 885// 333 10324 29057 55081 58003;EQDQ01  00002PRCP99
0202829830999992002042612004-09370-040480FM-12+037099999V0201401N005119999999N0020001N1+02601+01891101441ADDAA199000091GF106991999021008001001001KA1240N+02341MA1999999097301MD1999999+0061REMSYN076AAXX  26124 82983 32595 61410 10260 20189 39730 40144 84200 333 20234 58006;EQDQ01+000042SCOTLCQ02  00002PRCP99
0167829830999992002042618004-09370-040480FM-12+037099999V0201401N002610450019N0020001N1+03161+01631100941ADDAA199000091GF107991031021008001031001MA1999999096851MD1999999+0141REMSYN070AAXX  26184 82983 32595 71405 10316 20163 39685 40094 83230 333 58014;EQDQ01  00002PRCP99
0198829830999992002042700004-09370-040480FM-12+037099999V0201801N003110450019N0020001N1+02881+01571101031ADDAA199000091GF107991031021008001031001KA1240M+03241MA1999999096921MD1999999+0011REMSYN088AAXX  27004 82983 32595 71806 10288 20157 39692 40103 83230 333 10324 29049 55063 58001;EQDQ01  00002PRCP99
0186829830999992002042712004-09370-040480FM-12+037099999V0200901N005110075019N0020001N1+02521+01791101231ADDAA199000091GF106991061021008001001001KA1240N+02251MA1999999097201MD1999999-0101REMSYN076AAXX  27124 82983 32595 60910 10252 20179 39720 40123 86200 333 20225 59010;EQDQ01  00002PRCP99
0167829830999992002042718004-09370-040480FM-12+037099999V0200901N003110075019N0020001N1+03261+01561100811ADDAA199000091GF106991061021008001001001MA1999999096731MD1999999-0121REMSYN070AAXX  27184 82983 32595 60906 10326 20156 39673 40081 86200 333 59012;EQDQ01  00002PRCP99
0208829830999992002042800004-09370-040480FM-12+037099999V0200901N002612200019N0020001N1+02841+01601100971ADDAA199000091GA1001+999999999GF100991001001999999001001KA1240M+03201MA1999999096851MD1999999-0071REMSYN082AAXX  28004 82983 32995 00905 10284 20160 39685 40097 333 10320 29049 55108 59007;EQDQ01  00002PRCP99
0186829830999992002042812004-09370-040480FM-12+037099999V0201401N003112200019N0020001N1+02481+01601101371ADDAA199000091GF102991021011008001001001KA1240N+02201MA1999999097231MD1999999+0031REMSYN076AAXX  28124 82983 32595 21406 10248 20160 39723 40137 82100 333 20220 58003;EQDQ01  00002PRCP99
0177829830999992002042818004-09370-040480FM-12+037099999V0201401N003112200019N0020001N1+03281+00961100891ADDAA199000091GA1001+999999999GF100991001001999999001001MA1999999096791MD1999999+0061REMSYN064AAXX  28184 82983 32995 01406 10328 20096 39679 40089 333 58006;EQDQ01  00002PRCP99
0208829830999992002042900004-09370-040480FM-12+037099999V0201401N001512200019N0020001N1+02801+01021101131ADDAA199000091GA1001+999999999GF100991001001999999001001KA1240M+03331MA1999999096991MD1999999+0141REMSYN082AAXX  29004 82983 32995 01403 10280 20102 39699 40113 333 10333 29039 55110 58014;EQDQ01  00002PRCP99
0186829830999992002042912004-09370-040480FM-12+037099999V0201401N003112200019N0020001N1+02521+01661101501ADDAA199000091GF101991011011008001001001KA1240N+02201MA1999999097351MD1999999+0121REMSYN076AAXX  29124 82983 32595 11406 10252 20166 39735 40150 81100 333 20220 58012;EQDQ01  00002PRCP99
0177829830999992002042918004-09370-040480FM-12+037099999V0201401N003112200019N0020001N1+03261+01331100901ADDAA199000091GA1001+999999999GF100991001001999999001001MA1999999096811MD1999999+0021REMSYN064AAXX  29184 82983 32995 01406 10326 20133 39681 40090 333 58002;EQDQ01  00002PRCP99
0208829830999992002043000004-09370-040480FM-12+037099999V0201401N003112200019N0020001N1+02841+01271101151ADDAA199000091GA1001+999999999GF100991001001999999001001KA1240M+03341MA1999999097021MD1999999+0031REMSYN082AAXX  30004 82983 32995 01406 10284 20127 39702 40115 333 10334 29042 55108 58003;EQDQ01  00002PRCP99
0186829830999992002043012004-09370-040480FM-12+037099999V0201401N003112200019N0020001N1+02561+01701101551ADDAA199000091GF101991011011008001001001KA1240N+02201MA1999999097411MD1999999+0061REMSYN076AAXX  30124 82983 32595 11406 10256 20170 39741 40155 81100 333 20220 58006;EQDQ01  00002PRCP99
0177829830999992002043018004-09370-040480FM-12+037099999V0200901N003112200019N0020001N1+03261+01421101061ADDAA199000091GA1001+999999999GF100991001001999999001001MA1999999096961MD1999999+0151REMSYN064AAXX  30184 82983 32995 00906 10326 20142 39696 40106 333 58015;EQDQ01  00002PRCP99
0208829830999992002050100004-09370-040480FM-12+037099999V0201401N001512200019N0020001N1+02841+01501101231ADDAA199000091GA1001+999999999GF100991001001999999001001KA1240M+03321MA1999999097101MD1999999+0081REMSYN082AAXX  01004 82983 32995 01403 10284 20150 39710 40123 333 10332 29045 55111 58008;EQDQ01  00002PRCP99
0186829830999992002050112004-09370-040480FM-12+037099999V0201401N003112200019N0020001N1+02641+01831101441ADDAA199000091GF101991011011008001001001KA1240N+02321MA1999999097321MD1999999-0091REMSYN076AAXX  01124 82983 32595 11406 10264 20183 39732 40144 81100 333 20232 59009;EQDQ01  00002PRCP99
0167829830999992002050118004-09370-040480FM-12+037099999V0200901N003112200019N0020001N1+03361+01411100851ADDAA199000091GF102991021011008001001001MA1999999096761MD1999999-0201REMSYN070AAXX  01184 82983 32595 20906 10336 20141 39676 40085 82100 333 59020;EQDQ01  00002PRCP99
0214829830999992002050200004-09370-040480FM-12+037099999V0201401N002619999999N0020001N1+02961+01461101051ADDAA199000091GF105991999011008001001001KA1240M+03461MA1999999096651MD1999999-0151REMSYN088AAXX  02004 82983 32595 51405 10296 20146 39665 40105 82100 333 10346 29043 55110 59015;EQDQ01+000022SCOTLCQ02  00002PRCP99
0186829830999992002050212004-09370-040480FM-12+037099999V0201401N003110075019N0020001N1+02541+01811101311ADDAA199000091GF108991081051008001999999KA1240N+02361MA1999999097191MD1999999-0111REMSYN076AAXX  02124 82983 32595 81406 10254 20181 39719 40131 885// 333 20236 59011;EQDQ01  00002PRCP99
0167829830999992002050218004-09370-040480FM-12+037099999V0201401N003112200019N0020001N1+03221+01691100781ADDAA199000091GF105991021011008001001011MA1999999096701MD1999999-0061REMSYN070AAXX  02184 82983 32595 51406 10322 20169 39670 40078 82101 333 59006;EQDQ01  00002PRCP99
0208829830999992002050300004-09370-040480FM-12+037099999V0200901N004112200019N0020001N1+02761+01911101071ADDAA199000091GA1001+999999999GF100991001001999999001001KA1240M+03321MA1999999096941MD1999999-0011REMSYN082AAXX  03004 82983 32995 00908 10276 20191 39694 40107 333 10332 29056 55091 59001;EQDQ01  00002PRCP99
0186829830999992002050312004-09370-040480FM-12+037099999V0200901N003110075019N0020001N1+02421+01911101371ADDAA199000091GF108991081051008001001001KA1240N+02301MA1999999097221MD1999999+0031REMSYN076AAXX  03124 82983 32595 80906 10242 20191 39722 40137 88500 333 20230 58003;EQDQ01  00002PRCP99
0167829830999992002050318004-09370-040480FM-12+037099999V0200901N003112200019N0020001N1+03201+01631100791ADDAA199000091GF105991041011008001001011MA1999999096691MD1999999-0011REMSYN070AAXX  03184 82983 32595 50906 10320 20163 39669 40079 84101 333 59001;EQDQ01  00002PRCP99
0208829830999992002050400004-09370-040480FM-12+037099999V0201401N001512200019N0020001N1+02941+01441100991ADDAA199000091GA1001+999999999GF100991001001999999001001KA1240M+03321MA1999999096871MD1999999-0071REMSYN082AAXX  04004 82983 32995 01403 10294 20144 39687 40099 333 10332 29048 55080 59007;EQDQ01  00002PRCP99
0186829830999992002050412004-09370-040480FM-12+037099999V0200901N004112200019N0020001N1+02581+01941101381ADDAA199000091GF104991041011008001001001KA1240N+02391MA1999999097261MD1999999+0041REMSYN076AAXX  04124 82983 32595 40908 10258 20194 39726 40138 84100 333 20239 58004;EQDQ01  00002PRCP99
0167829830999992002050418004-09370-040480FM-12+037099999V0201401N003112200019N0020001N1+03301+01641100841ADDAA199000091GF103991031021008001001001MA1999999096751MD1999999+0061REMSYN070AAXX  04184 82983 32595 31406 10330 20164 39675 40084 83200 333 58006;EQDQ01  00002PRCP99
0208829830999992002050500004-09370-040480FM-12+037099999V0201401N002112200019N0020001N1+02921+01601101151ADDAA199000091GA1001+999999999GF100991001001999999001001KA1240M+03381MA1999999097031MD1999999+0161REMSYN082AAXX  05004 82983 32995 01404 10292 20160 39703 40115 333 10338 29049 55109 58016;EQDQ01  00002PRCP99
0196829830999992002050512004-09370-040480FM-12+037099999V0201401N003112200019N0020001N1+02561+01761101551ADDAA199000091GA1001+999999999GF100991001001999999001001KA1240N+02311MA1999999097421MD1999999+0161REMSYN070AAXX  05124 82983 32995 01406 10256 20176 39742 40155 333 20231 58016;EQDQ01  00002PRCP99
0167829830999992002050518004-09370-040480FM-12+037099999V0201401N003112200019N0020001N1+03401+01291100961ADDAA199000091GF101991011011008001001001MA1999999096871MD1999999+0121REMSYN070AAXX  05184 82983 32595 11406 10340 20129 39687 40096 81100 333 58012;EQDQ01  00002PRCP99
0198829830999992002050600004-09370-040480FM-12+037099999V0201401N002612200019N0020001N1+02961+01341101271ADDAA199000091GF102991021011008001001001KA1240M+03421MA1999999097151MD1999999+0121REMSYN088AAXX  06004 82983 32595 21405 10296 20134 39715 40127 82100 333 10342 29040 55110 58012;EQDQ01  00002PRCP99
0186829830999992002050612004-09370-040480FM-12+037099999V0201401N003112200019N0020001N1+02521+01741101631ADDAA199000091GF101991011011008001001001KA1240N+02201MA1999999097501MD1999999+0081REMSYN076AAXX  06124 82983 32595 11406 10252 20174 39750 40163 81100 333 20220 58008;EQDQ01  00002PRCP99
0167829830999992002050618004-09370-040480FM-12+037099999V0200901N003112200019N0020001N1+03341+01451100951ADDAA199000091GF102991021011008001001001MA1999999096861MD1999999-0011REMSYN070AAXX  06184 82983 32595 20906 10334 20145 39686 40095 82100 333 59001;EQDQ01  00002PRCP99
0198829830999992002050700004-09370-040480FM-12+037099999V0201401N004612200019N0020001N1+02541+02041101451ADDAA199000091GF102991021011008001001001KA1240M+03401MA1999999097301MD1999999+0141REMSYN088AAXX  07004 82983 32595 21409 10254 20204 39730 40145 82100 333 10340 29061 55108 58014;EQDQ01  00002PRCP99
0186829830999992002050712004-09370-040480FM-12+037099999V0200901N003110075019N0020001N1+02401+01971101511ADDAA199000091GF108991081051008001999999KA1240N+02221MA1999999097341MD1999999-0161REMSYN076AAXX  07124 82983 32595 80906 10240 20197 39734 40151 885// 333 20222 59016;EQDQ01  00002PRCP99
0167829830999992002050718004-09370-040480FM-12+037099999V0201401N005110075019N0020001N1+02821+02061101071ADDAA199000091GF107991071021008001001001MA1999999096921MD1999999+0021REMSYN070AAXX  07184 82983 32595 71410 10282 20206 39692 40107 87200 333 58002;EQDQ01  00002PRCP99
0213829830999992002050800004-09370-040480FM-12+037099999V0201401N002610075019N0020001N1+02361+02111101391ADDAA106007191AY161061AY221061GF108991081051008001999999KA1240M+03021MA1999999097211MD1999999-0081MW1031REMSYN100AAXX  08004 82983 21595 81405 10236 20211 39721 40139 70362 885// 333 10302 29078 55029 59008 60071;
0173829830999992002050812004-09370-040480FM-12+037099999V0201401N003110075019N0020001N1+02481+01961101571ADDAA124007191GF106991061021008001001001KA1240N+02121MA1999999097391MD1999999+0051REMSYN082AAXX  08124 82983 22595 61406 10248 20196 39739 40157 86200 333 20212 58005 60074;
0167829830999992002050818004-09370-040480FM-12+037099999V0200901N003110075019N0020001N1+03101+01621101001ADDAA199000091GF106991061021008001001001MA1999999096871MD1999999-0051REMSYN070AAXX  08184 82983 32595 60906 10310 20162 39687 40100 86200 333 59005;EQDQ01  00002PRCP99
0208829830999992002050900004-09370-040480FM-12+037099999V0201401N002612200019N0020001N1+02731+01681101311ADDAA199000091GA1001+999999999GF100991001001999999001001KA1240M+03191MA1999999097161MD1999999-0051REMSYN082AAXX  09004 82983 32995 01405 10273 20168 39716 40131 333 10319 29055 55104 59005;EQDQ01  00002PRCP99
0186829830999992002050912004-09370-040480FM-12+037099999V0200901N003112200019N0020001N1+02501+01871101671ADDAA199000091GF104991041011008001001001KA1240N+02151MA1999999097511MD1999999+0121REMSYN076AAXX  09124 82983 32595 40906 10250 20187 39751 40167 84100 333 20215 58012;EQDQ01  00002PRCP99
0167829830999992002050918004-09370-040480FM-12+037099999V0201401N003112200019N0020001N1+03261+01381101091ADDAA199000091GF103991031011008001001001MA1999999096971MD1999999+0101REMSYN070AAXX  09184 82983 32595 31406 10326 20138 39697 40109 83100 333 58010;EQDQ01  00002PRCP99
0208829830999992002051000004-09370-040480FM-12+037099999V0200901N002612200019N0010001N1+02821+01411101331ADDAA199000091GA1001+999999999GF100991001001999999001001KA1240M+03301MA1999999097191MD1999999+0031REMSYN082AAXX  10004 82983 32594 00905 10282 20141 39719 40133 333 10330 29046 55108 58003;EQDQ01  00002PRCP99
0186829830999992002051012004-09370-040480FM-12+037099999V0201401N003110075019N0020001N1+02451+01861101681ADDAA199000091GF106991061021008001001001KA1240N+02201MA1999999097531MD1999999+0021REMSYN076AAXX  10124 82983 32595 61406 10245 20186 39753 40168 86200 333 20220 58002;EQDQ01  00002PRCP99
0167829830999992002051018004-09370-040480FM-12+037099999V0200201N003112200019N0020001N1+03271+01511101121ADDAA199000091GF102991021011008001001001MA1999999097001MD1999999+0031REMSYN070AAXX  10184 82983 32595 20206 10327 20151 39700 40112 82100 333 58003;EQDQ01  00002PRCP99
0208829830999992002051100004-09370-040480FM-12+037099999V0201401N002612200019N0020001N1+02901+01671101401ADDAA199000091GA1001+999999999GF100991001001999999001001KA1240M+03321MA1999999097261MD1999999+0071REMSYN082AAXX  11004 82983 32995 01405 10290 20167 39726 40140 333 10332 29048 55086 58007;EQDQ01  00002PRCP99
0186829830999992002051112004-09370-040480FM-12+037099999V0201401N003110075019N0020001N1+02551+02041101621ADDAA199000091GF106991061021008001001001KA1240N+02301MA1999999097481MD1999999-0051REMSYN076AAXX  11124 82983 32595 61406 10255 20204 39748 40162 86200 333 20230 59005;EQDQ01  00002PRCP99
0183829830999992002051118004-09370-040480FM-12+037099999V0201401N003110075019N0020001N1+03301+01501101071ADDAA199000091GF106991999021008001001001MA1999999096971MD1999999-0031REMSYN070AAXX  11184 82983 32595 61406 10330 20150 39697 40107 85200 333 59003;EQDQ01+000052SCOTLCQ02  00002PRCP99
0214829830999992002051200004-09370-040480FM-12+037099999V0200501N005112200019N0020001N1+02701+01991101431ADDAA199000091GF103991999021008001001001KA1240M+03341MA1999999097291MD1999999+0021REMSYN088AAXX  12004 82983 32595 30510 10270 20199 39729 40143 86200 333 10334 29060 55080 58002;EQDQ01+000062SCOTLCQ02  00002PRCP99
0186829830999992002051212004-09370-040480FM-12+037099999V0201401N005710450019N0020001N1+02571+01901101601ADDAA199000091GF106991041021008001021001KA1240N+02321MA1999999097451MD1999999-0031REMSYN076AAXX  12124 82983 32595 61411 10257 20190 39745 40160 84220 333 20232 59003;EQDQ01  00002PRCP99
0208829830999992002051300004-09370-040480FM-12+037099999V0201401N004112200019N0020001N1+02761+01801101431ADDAA199000091GA1001+999999999GF100991001001999999001001KA1240M+03201MA1999999097291MD1999999+0011REMSYN082AAXX  13004 82983 32995 01408 10276 20180 39729 40143 333 10320 29054 55091 58001;EQDQ01  00002PRCP99
0186829830999992002051312004-09370-040480FM-12+037099999V0201401N003110075019N0020001N1+02501+01721101611ADDAA199000091GF106991061021008001001001KA1240N+02141MA1999999097451MD1999999+0001REMSYN076AAXX  13124 82983 32595 61406 10250 20172 39745 40161 86200 333 20214 58000;EQDQ01  00002PRCP99
0167829830999992002051318004-09370-040480FM-12+037099999V0201401N005110075019N0020001N1+03101+01461101161ADDAA199000091GF106991061021008001001001MA1999999097021MD1999999-0021REMSYN070AAXX  13184 82983 32595 61410 10310 20146 39702 40116 86200 333 59002;EQDQ01  00002PRCP99
0208829830999992002051400004-09370-040480FM-12+037099999V0201401N002612200019N0020001N1+02701+01601101441ADDAA199000091GA1001+999999999GF100991001001999999001001KA1240M+03181MA1999999097291MD1999999+0001REMSYN082AAXX  14004 82983 32995 01405 10270 20160 39729 40144 333 10318 29050 55093 58000;EQDQ01  00002PRCP99
0186829830999992002051412004-09370-040480FM-12+037099999V0201401N005110075019N0020001N1+02421+01791101591ADDAA199000091GF106991061021008001001001KA1240N+02081MA1999999097431MD1999999-0021REMSYN076AAXX  14124 82983 32595 61410 10242 20179 39743 40159 86200 333 20208 59002;EQDQ01  00002PRCP99
0167829830999992002051418004-09370-040480FM-12+037099999V0201401N005110075019N0020001N1+03101+01581101141ADDAA199000091GF105991051021008001001001MA1999999097001MD1999999-0021REMSYN070AAXX  14184 82983 32595 51410 10310 20158 39700 40114 85200 333 59002;EQDQ01  00002PRCP99
0208829830999992002051500004-09370-040480FM-12+037099999V0201801N005112200019N0020001N1+02701+01831101391ADDAA199000091GA1001+999999999GF100991001001999999001001KA1240M+03141MA1999999097231MD1999999-0061REMSYN082AAXX  15004 82983 32995 01810 10270 20183 39723 40139 333 10314 29057 55106 59006;EQDQ01  00002PRCP99
0186829830999992002051512004-09370-040480FM-12+037099999V0201401N005110075019N0020001N1+02401+01991101641ADDAA199000091GF106991061021008001001001KA1240N+02181MA1999999097471MD1999999+0041REMSYN076AAXX  15124 82983 32595 61410 10240 20199 39747 40164 86200 333 20218 58004;EQDQ01  00002PRCP99
0167829830999992002051518004-09370-040480FM-12+037099999V0201401N004612200019N0020001N1+03021+01731101201ADDAA199000091GF105991041011008001001011MA1999999097061MD1999999+0061REMSYN070AAXX  15184 82983 32595 51409 10302 20173 39706 40120 84101 333 58006;EQDQ01  00002PRCP99
0224829830999992002051600004-09370-040480FM-12+037099999V0201801N003112200019N0020001N1+02601+01921101391ADDAA199000091GA1001+999999999GF100991001001999999001001KA1240M+03121MA1999999999999MD1999999+0001REMSYN082AAXX  16004 82983 32995 01806 10260 20192 39523 40139 333 10312 29064 55079 58000;EQDQ01  00002PRCP99Q02 095233APOSP 
0186829830999992002051612004-09370-040480FM-12+037099999V0201401N004110075019N0020001N1+02481+01901101451ADDAA199000091GF107991071051008001001001KA1240N+02261MA1999999097291MD1999999-0181REMSYN076AAXX  16124 82983 32595 71408 10248 20190 39729 40145 87500 333 20226 59018;EQDQ01  00002PRCP99
0167829830999992002051618004-09370-040480FM-12+037099999V0201401N003110075019N0020001N1+02981+01861101041ADDAA199000091GF105991051011008001001001MA1999999096911MD1999999-0151REMSYN070AAXX  16184 82983 32595 51406 10298 20186 39691 40104 85100 333 59015;EQDQ01  00002PRCP99
0208829830999992002051700004-09370-040480FM-12+037099999V0201401N002612200019N0020001N1+02721+01771101231ADDAA199000091GA1001+999999999GF100991001001999999001001KA1240M+03041MA1999999097091MD1999999-0141REMSYN082AAXX  17004 82983 32995 01405 10272 20177 39709 40123 333 10304 29058 55057 59014;EQDQ01  00002PRCP99
0186829830999992002051712004-09370-040480FM-12+037099999V0201401N004110075019N0020001N1+02541+02041101331ADDAA199000091GF106991061021008001001001KA1240N+02341MA1999999097191MD1999999-0101REMSYN076AAXX  17124 82983 32595 61408 10254 20204 39719 40133 86200 333 20234 59010;EQDQ01  00002PRCP99
0167829830999992002051718004-09370-040480FM-12+037099999V0200901N002612200019N0020001N1+03321+01611100731ADDAA199000091GF104991031011008001001011MA1999999096651MD1999999-0261REMSYN070AAXX  17184 82983 32595 40905 10332 20161 39665 40073 83101 333 59026;EQDQ01  00002PRCP99
0208829830999992002051800004-09370-040480FM-12+037099999V0200901N002112200019N0020001N1+02881+01531101031ADDAA199000091GA1001+999999999GF100991001001999999001001KA1240M+03401MA1999999096911MD1999999-0181REMSYN082AAXX  18004 82983 32995 00904 10288 20153 39691 40103 333 10340 29050 55094 59018;EQDQ01  00002PRCP99
0186829830999992002051812004-09370-040480FM-12+037099999V0201401N003110075019N0020001N1+02581+01991101241ADDAA199000091GF106991051011008001021001KA1240N+02341MA1999999097121MD1999999-0071REMSYN076AAXX  18124 82983 32595 61406 10258 20199 39712 40124 85120 333 20234 59007;EQDQ01  00002PRCP99
0167829830999992002051818004-09370-040480FM-12+037099999V0201401N002610450019N0020001N1+03301+01641100741ADDAA199000091GF105991041011008001011001MA1999999096661MD1999999+0011REMSYN070AAXX  18184 82983 32595 51405 10330 20164 39666 40074 84110 333 58001;EQDQ01  00002PRCP99
0208829830999992002051900004-09370-040480FM-12+037099999V0201401N003112200019N0020001N1+02921+01501101081ADDAA199000091GA1001+999999999GF100991001001999999001001KA1240M+03401MA1999999096961MD1999999+0051REMSYN082AAXX  19004 82983 32995 01406 10292 20150 39696 40108 333 10340 29047 55105 58005;EQDQ01  00002PRCP99
0186829830999992002051912004-09370-040480FM-12+037099999V0200901N003110075019N0020001N1+02561+01971101461ADDAA199000091GF106991061011008001001001KA1240N+02251MA1999999097341MD1999999+0221REMSYN076AAXX  19124 82983 32595 60906 10256 20197 39734 40146 86100 333 20225 58022;EQDQ01  00002PRCP99
0167829830999992002051918004-09370-040480FM-12+037099999V0201801N001512200019N0020001N1+03301+01761100881ADDAA199000091GF102991011011008001001011MA1999999096791MD1999999+0131REMSYN070AAXX  19184 82983 32595 21803 10330 20176 39679 40088 81101 333 58013;EQDQ01  00002PRCP99
0208829830999992002052000004-09370-040480FM-12+037099999V0201401N003112200019N0020001N1+02881+01671101201ADDAA199000091GA1001+999999999GF100991001001999999001001KA1240M+03361MA1999999097071MD1999999+0111REMSYN082AAXX  20004 82983 32995 01406 10288 20167 39707 40120 333 10336 29052 55106 58011;EQDQ01  00002PRCP99
0186829830999992002052012004-09370-040480FM-12+037099999V0200901N003110075019N0020001N1+02561+01971101501ADDAA199000091GF107991071051008001001001KA1240N+02411MA1999999097361MD1999999+0021REMSYN076AAXX  20124 82983 32595 70906 10256 20197 39736 40150 87500 333 20241 58002;EQDQ01  00002PRCP99
0167829830999992002052018004-09370-040480FM-12+037099999V0200901N002612200019N0020001N1+03321+01701100931ADDAA199000091GF103991021011008001001011MA1999999096841MD1999999+0051REMSYN070AAXX  20184 82983 32595 30905 10332 20170 39684 40093 82101 333 58005;EQDQ01  00002PRCP99
0208829830999992002052100004-09370-040480FM-12+037099999V0201401N002612200019N0020001N1+02921+01771101131ADDAA199000091GA1001+999999999GF100991001001999999001001KA1240M+03401MA1999999097011MD1999999-0061REMSYN082AAXX  21004 82983 32995 01405 10292 20177 39701 40113 333 10340 29052 55082 59006;EQDQ01  00002PRCP99
0186829830999992002052112004-09370-040480FM-12+037099999V0201401N002610075019N0020001N1+02661+02021101421ADDAA199000091GF106991061021008001001001KA1240N+02441MA1999999097311MD1999999-0051REMSYN076AAXX  21124 82983 32595 61405 10266 20202 39731 40142 86200 333 20244 59005;EQDQ01  00002PRCP99
0167829830999992002052118004-09370-040480FM-12+037099999V0201801N001512200019N0020001N1+03301+01761100881ADDAA199000091GF105991041011008001001011MA1999999096791MD1999999-0051REMSYN070AAXX  21184 82983 32595 51803 10330 20176 39679 40088 84101 333 59005;EQDQ01  00002PRCP99
0198829830999992002052200004-09370-040480FM-12+037099999V0201401N003112200019N0020001N1+02961+01841101031ADDAA199000091GF102991021011008001001001KA1240M+03381MA1999999096941MD1999999-0071REMSYN088AAXX  22004 82983 32595 21406 10296 20184 39694 40103 82100 333 10338 29052 55081 59007;EQDQ01  00002PRCP99
0186829830999992002052212004-09370-040480FM-12+037099999V0200901N003110075019N0020001N1+02641+02051101341ADDAA199000091GF106991061021008001001001KA1240N+02461MA1999999097231MD1999999-0081REMSYN076AAXX  22124 82983 32595 60906 10264 20205 39723 40134 86200 333 20246 59008;EQDQ01  00002PRCP99
0167829830999992002052218004-09370-040480FM-12+037099999V0200901N003112200019N0020001N1+03221+01801100781ADDAA199000091GF105991031011008001001011MA1999999096701MD1999999-0091REMSYN070AAXX  22184 82983 32595 50906 10322 20180 39670 40078 83101 333 59009;EQDQ01  00002PRCP99
0198829830999992002052300004-09370-040480FM-12+037099999V0201401N001512200019N0020001N1+02921+01771101001ADDAA199000091GF102991021011008001001001KA1240M+03341MA1999999096911MD1999999-0031REMSYN088AAXX  23004 82983 32595 21403 10292 20177 39691 40100 82100 333 10334 29053 55082 59003;EQDQ01  00002PRCP99
0186829830999992002052312004-09370-040480FM-12+037099999V0200901N003110075019N0020001N1+02601+02061101351ADDAA199000091GF107991071051008001999999KA1240N+02391MA1999999097231MD1999999+0001REMSYN076AAXX  23124 82983 32595 70906 10260 20206 39723 40135 875// 333 20239 58000;EQDQ01  00002PRCP99
0167829830999992002052318004-09370-040480FM-12+037099999V0201401N003110075019N0020001N1+03251+01631100751ADDAA199000091GF106991061021008001001001MA1999999096671MD1999999-0031REMSYN070AAXX  23184 82983 32595 61406 10325 20163 39667 40075 86200 333 59003;EQDQ01  00002PRCP99
0208829830999992002052400004-09370-040480FM-12+037099999V0201801N005112200019N0020001N1+02681+01861101201ADDAA199000091GA1001+999999999GF100991001001999999001001KA1240M+03301MA1999999097061MD1999999+0151REMSYN082AAXX  24004 82983 32995 01810 10268 20186 39706 40120 333 10330 29058 55074 58015;EQDQ01  00002PRCP99
0186829830999992002052412004-09370-040480FM-12+037099999V0201401N005110075019N0020001N1+02521+01771101511ADDAA199000091GF107991071021008001001001KA1240N+02311MA1999999097351MD1999999+0121REMSYN076AAXX  24124 82983 32595 71410 10252 20177 39735 40151 87200 333 20231 58012;EQDQ01  00002PRCP99
0167829830999992002052418004-09370-040480FM-12+037099999V0201401N003110075019N0020001N1+02701+01831101141ADDAA199000091GF108991081051008001999999MA1999999096981MD1999999+0211REMSYN070AAXX  24184 82983 32595 81406 10270 20183 39698 40114 885// 333 58021;EQDQ01  00002PRCP99
0213829830999992002052500004-09370-040480FM-12+037099999V0201401N004110075019N0020001N1+02341+01931101381ADDAA106000591AY121061AY261061GF107991071021008001001001KA1240M+02801MA1999999097211MD1999999+0151MW1031REMSYN100AAXX  25004 82983 21595 71408 10234 20193 39721 40138 70326 87200 333 10280 29070 55021 58015 69941;
0192829830999992002052512004-09370-040480FM-12+037099999V0201401N005119999999N0020001N1+02321+01741101571ADDAA124000591GF106991999021008001001001KA1240N+02121MA1999999097371MD1999999+0021REMSYN082AAXX  25124 82983 22595 61410 10232 20174 39737 40157 83200 333 20212 58002 69944;EQDQ01+000032SCOTLC
0182829830999992002052518004-09370-040480FM-12+037099999V0201401N003110075019N0020001N1+02561+01851101321ADDAA106000791AY121061AY251061GF108991081051008001999999MA1999999097141MD1999999+0161MW1511REMSYN082AAXX  25184 82983 21595 81406 10256 20185 39714 40132 75125 885// 333 58016 69901;
0213829830999992002052600004-09370-040480FM-12+037099999V0201401N001510450019N0020001N1+02161+01841101581ADDAA106000591AY151061AY261061GF106991031011008001051001KA1240M+02801MA1999999097381MD1999999+0171MW1031REMSYN100AAXX  26004 82983 21595 61403 10216 20184 39738 40158 70356 83150 333 10280 29074 55043 58017 69951;
0173829830999992002052612004-09370-040480FM-12+037099999V0201401N003110075019N0020001N1+02181+01701101741ADDAA124000891GF108991081051008001999999KA1240N+02011MA1999999097521MD1999999+0151REMSYN082AAXX  26124 82983 22595 81406 10218 20170 39752 40174 885// 333 20201 58015 69984;
0182829830999992002052618004-09370-040480FM-12+037099999V0200901N003110075019N0020001N1+02261+01941101371ADDAA106000591AY151061AY221061GF108991081061008001999999MA1999999097151MD1999999+0011MW1501REMSYN082AAXX  26184 82983 21595 80906 10226 20194 39715 40137 75052 886// 333 58001 69941;
0213829830999992002052700004-09370-040480FM-12+037099999V0200501N002610075019N0020001N1+02141+01881101581ADDAA106002091AY151061AY261061GF108991081061008001999999KA1240M+03221MA1999999097361MD1999999-0021MW1031REMSYN100AAXX  27004 82983 21595 80505 10214 20188 39736 40158 70356 886// 333 10322 29082 55005 59002 60021;
0173829830999992002052712004-09370-040480FM-12+037099999V0201401N005112200019N0020001N1+02281+01701101671ADDAA124002091GF104991041011008001001001KA1240N+01941MA1999999097461MD1999999-0061REMSYN082AAXX  27124 82983 22595 41410 10228 20170 39746 40167 84100 333 20194 59006 60024;
0167829830999992002052718004-09370-040480FM-12+037099999V0200901N004112200019N0020001N1+02861+01521101151ADDAA199000091GF102991021011008001001001MA1999999096981MD1999999-0171REMSYN070AAXX  27184 82983 32595 20908 10286 20152 39698 40115 82100 333 59017;EQDQ01  00002PRCP99
0208829830999992002052800004-09370-040480FM-12+037099999V0200901N003112200019N0020001N1+02521+01521101331ADDAA199000091GA1001+999999999GF100991001001999999001001KA1240M+02941MA1999999097151MD1999999-0121REMSYN082AAXX  28004 82983 32995 00906 10252 20152 39715 40133 333 10294 29056 55106 59012;EQDQ01  00002PRCP99
0186829830999992002052812004-09370-040480FM-12+037099999V0201401N004112200019N0020001N1+02401+01601101571ADDAA199000091GF104991041011008001001001KA1240N+02061MA1999999097391MD1999999-0071REMSYN076AAXX  28124 82983 32595 41408 10240 20160 39739 40157 84100 333 20206 59007;EQDQ01  00002PRCP99
0167829830999992002052818004-09370-040480FM-12+037099999V0200901N003112200019N0020001N1+03001+01641101051ADDAA199000091GF103991031011008001001001MA1999999096911MD1999999-0071REMSYN070AAXX  28184 82983 32595 30906 10300 20164 39691 40105 83100 333 59007;EQDQ01  00002PRCP99
0208829830999992002052900004-09370-040480FM-12+037099999V0200901N002612200019N0020001N1+02581+01661101221ADDAA199000091GA1001+999999999GF100991001001999999001001KA1240M+03041MA1999999097071MD1999999-0081REMSYN082AAXX  29004 82983 32995 00905 10258 20166 39707 40122 333 10304 29055 55107 59008;EQDQ01  00002PRCP99
0167829830999992002052918004-09370-040480FM-12+037099999V0201401N002612200019N0020001N1+03061+01771101021ADDAA199000091GF103991031011008001001001MA1999999096891MD1999999-0021REMSYN070AAXX  29184 82983 32595 31405 10306 20177 39689 40102 83100 333 59002;EQDQ01  00002PRCP99
0208829830999992002053000004-09370-040480FM-12+037099999V0201401N003112200019N0020001N1+02681+01611101311ADDAA199000091GA1001+999999999GF100991001001999999001001KA1240M+03161MA1999999097151MD1999999+0081REMSYN082AAXX  30004 82983 32995 01406 10268 20161 39715 40131 333 10316 29054 55098 58008;EQDQ01  00002PRCP99
0186829830999992002053012004-09370-040480FM-12+037099999V0201401N005112200019N0020001N1+02481+01851101551ADDAA199000091GF102991021011008001001001KA1240N+02111MA1999999097391MD1999999+0071REMSYN076AAXX  30124 82983 32595 21410 10248 20185 39739 40155 82100 333 20211 58007;EQDQ01  00002PRCP99
0167829830999992002053018004-09370-040480FM-12+037099999V0201401N004610075019N0020001N1+03101+01771101091ADDAA199000091GF106991061011008001001001MA1999999096951MD1999999+0061REMSYN070AAXX  30184 82983 32595 61409 10310 20177 39695 40109 86100 333 58006;EQDQ01  00002PRCP99
0198829830999992002053100004-09370-040480FM-12+037099999V0201401N002610075019N0020001N1+02821+01771101371ADDAA199000091GF105991051021008001001001KA1240M+03181MA1999999097231MD1999999+0081REMSYN088AAXX  31004 82983 32595 51405 10282 20177 39723 40137 85200 333 10318 29055 55095 58008;EQDQ01  00002PRCP99
0186829830999992002053112004-09370-040480FM-12+037099999V0201801N003610450019N0020001N1+02561+01951101641ADDAA199000091GF106991031011008001011011KA1240N+02341MA1999999097501MD1999999+0111REMSYN076AAXX  31124 82983 32595 61807 10256 20195 39750 40164 83111 333 20234 58011;EQDQ01  00002PRCP99
0167829830999992002053118004-09370-040480FM-12+037099999V0201401N002610075019N0020001N1+02881+01771101251ADDAA199000091GF108991081051008001999999MA1999999097121MD1999999+0171REMSYN070AAXX  31184 82983 32595 81405 10288 20177 39712 40125 885// 333 58017;EQDQ01  00002PRCP99
0198829830999992002060100004-09370-040480FM-12+037099999V0201801N002610075019N0020001N1+02661+01951101441ADDAA199000091GF106991061061008001001001KA1240M+02921MA1999999097291MD1999999+0061REMSYN088AAXX  01004 82983 32595 61805 10266 20195 39729 40144 86600 333 10292 29062 55043 58006;EQDQ01  00002PRCP99
0186829830999992002060112004-09370-040480FM-12+037099999V0201401N003612200019N0020001N1+02501+01911101671ADDAA199000091GF106991041011008001001011KA1240N+02221MA1999999097511MD1999999+0011REMSYN076AAXX  01124 82983 32595 61407 10250 20191 39751 40167 84101 333 20222 58001;EQDQ01  00002PRCP99
0167829830999992002060118004-09370-040480FM-12+037099999V0200901N005112200019N0020001N1+03061+01871101221ADDAA199000091GF104991031011008001001011MA1999999097091MD1999999-0031REMSYN070AAXX  01184 82983 32595 40910 10306 20187 39709 40122 83101 333 59003;EQDQ01  00002PRCP99
0198829830999992002060200004-09370-040480FM-12+037099999V0200901N003112200019N0020001N1+02761+01861101421ADDAA199000091GF101991011011008001001001KA1240M+03121MA1999999097281MD1999999-0011REMSYN088AAXX  02004 82983 32595 10906 10276 20186 39728 40142 81100 333 10312 29059 55096 59001;EQDQ01  00002PRCP99
0202829830999992002060212004-09370-040480FM-12+037099999V0200901N005110075019N0020001N1+02521+01861101661ADDAA199000091GF106991999021008001001001KA1240N+02181MA1999999097511MD1999999+0001REMSYN076AAXX  02124 82983 32595 60910 10252 20186 39751 40166 85200 333 20218 58000;EQDQ01+000052SCOTLCQ02  00002PRCP99
0167829830999992002060218004-09370-040480FM-12+037099999V0201401N002610075019N0020001N1+03081+01601101251ADDAA199000091GF106991061011008001001001MA1999999097111MD1999999+0021REMSYN070AAXX  02184 82983 32595 61405 10308 20160 39711 40125 86100 333 58002;EQDQ01  00002PRCP99
0198829830999992002060300004-09370-040480FM-12+037099999V0201401N003112200019N0020001N1+02721+01641101471ADDAA199000091GF104991041021008001001001KA1240M+03161MA1999999097331MD1999999+0051REMSYN088AAXX  03004 82983 32595 41406 10272 20164 39733 40147 84200 333 10316 29052 55103 58005;EQDQ01  00002PRCP99
0186829830999992002060312004-09370-040480FM-12+037099999V0201401N003112200019N0020001N1+02481+01801101571ADDAA199000091GF104991041011008001001001KA1240N+02151MA1999999097411MD1999999-0101REMSYN076AAXX  03124 82983 32595 41406 10248 20180 39741 40157 84100 333 20215 59010;EQDQ01  00002PRCP99
0167829830999992002060318004-09370-040480FM-12+037099999V0201401N003112200019N0020001N1+03121+01641101091ADDAA199000091GF103991031011008001001001MA1999999096961MD1999999-0151REMSYN070AAXX  03184 82983 32595 31406 10312 20164 39696 40109 83100 333 59015;EQDQ01  00002PRCP99
0208829830999992002060400004-09380-040480FM-12+037099999V0201401N001512200019N0020001N1+02701+01661101351ADDAA199000091GA1001+999999999GF100991001001999999001001KA1240M+03201MA1999999097201MD1999999-0131REMSYN082AAXX  04004 82983 32995 01403 10270 20166 39720 40135 333 10320 29053 55106 59013;EQDQ01  00002PRCP99
0186829830999992002060412004-09380-040480FM-12+037099999V0200901N004110075019N0020001N1+02461+01941101601ADDAA199000091GF106991061011008001001001KA1240N+02161MA1999999097441MD1999999+0031REMSYN076AAXX  04124 82983 32595 60908 10246 20194 39744 40160 86100 333 20216 58003;EQDQ01  00002PRCP99
0167829830999992002060418004-09380-040480FM-12+037099999V0201401N002612200019N0020001N1+03161+01751101021ADDAA199000091GF102991021011008001001001MA1999999096891MD1999999-0071REMSYN070AAXX  04184 82983 32595 21405 10316 20175 39689 40102 82100 333 59007;EQDQ01  00002PRCP99
0208829830999992002060500004-09380-040480FM-12+037099999V0201401N003112200019N0020001N1+02801+01691101271ADDAA199000091GA1001+999999999GF100991001001999999001001KA1240M+03221MA1999999097131MD1999999-0071REMSYN082AAXX  05004 82983 32595 01406 10280 20169 39713 40127 333 10322 29054 55102 59007;EQDQ01  00002PRCP99
0186829830999992002060512004-09380-040480FM-12+037099999V0200901N005110075019N0020001N1+02561+01851101531ADDAA199000091GF106991061021008001001001KA1240N+02291MA1999999097391MD1999999-0051REMSYN076AAXX  05124 82983 32595 60910 10256 20185 39739 40153 86200 333 20229 59005;EQDQ01  00002PRCP99
0167829830999992002060518004-09380-040480FM-12+037099999V0200901N004110075019N0020001N1+03141+01451101081ADDAA199000091GF106991061021008001001001MA1999999096951MD1999999+0061REMSYN070AAXX  05184 82983 32595 60908 10314 20145 39695 40108 86200 333 58006;EQDQ01  00002PRCP99
0208829830999992002060600004-09380-040480FM-12+037099999V0201401N002612200019N0020001N1+02701+01511101261ADDAA199000091GA1001+999999999GF100991001001999999001001KA1240M+03211MA1999999097121MD1999999-0011REMSYN082AAXX  06004 82983 32995 01405 10270 20151 39712 40126 333 10321 29049 55100 59001;EQDQ01  00002PRCP99
0208829830999992002060606004-09380-040480FM-12+037099999V0201401N002612200019N0020001N1+02701+01511101261ADDAA199000091GA1001+999999999GF100991001001999999001001KA1240M+03211MA1999999097121MD1999999-0011REMSYN082AAXX  06064 82983 32995 01405 10270 20151 39712 40126 333 10321 29049 55100 59001;EQDQ01  00002PRCP99
0167829830999992002060618004-09380-040480FM-12+037099999V0200901N005112200019N0020001N1+03121+01521101021ADDAA199000091GF103991031011008001001001MA1999999096891MD1999999-0061REMSYN070AAXX  06184 82983 32595 30910 10312 20152 39689 40102 83100 333 59006;EQDQ01  00002PRCP99
0208829830999992002060700004-09380-040480FM-12+037099999V0201401N001512200019N0020001N1+02741+01511101291ADDAA199000091GA1001+999999999GF100991001001999999001001KA1240M+03181MA1999999097151MD1999999+0031REMSYN082AAXX  07004 82983 32995 01403 10274 20151 39715 40129 333 10318 29050 55107 58003;EQDQ01  00002PRCP99
0186829830999992002060712004-09380-040480FM-12+037099999V0201401N004110075019N0020001N1+02461+01711101571ADDAA199000091GF106991061011008001001001KA1240N+02081MA1999999097411MD1999999+0001REMSYN076AAXX  07124 82983 32595 61408 10246 20171 39741 40157 86100 333 20208 58000;EQDQ01  00002PRCP99
0167829830999992002060718004-09380-040480FM-12+037099999V0200901N005112200019N0020001N1+03061+01511101141ADDAA199000091GF103991031011008001001001MA1999999097001MD1999999+0111REMSYN070AAXX  07184 82983 32595 30910 10306 20151 39700 40114 83100 333 58011;EQDQ01  00002PRCP99
0208829830999992002060800004-09380-040480FM-12+037099999V0201401N003112200019N0020001N1+02641+01481101411ADDAA199000091GA1001+999999999GF100991001001999999001001KA1240M+03141MA1999999097251MD1999999+0101REMSYN082AAXX  08004 82983 32995 01406 10264 20148 39725 40141 333 10314 29050 55107 58010;EQDQ01  00002PRCP99
0186829830999992002060812004-09380-040480FM-12+037099999V0201401N004110450019N0020001N1+02401+01891101791ADDAA199000091GF107991031011008001021001KA1240N+02221MA1999999097611MD1999999+0201REMSYN076AAXX  08124 82983 32595 71408 10240 20189 39761 40179 83120 333 20222 58020;EQDQ01  00002PRCP99
0183829830999992002060818004-09380-040480FM-12+037099999V0201401N003119999999N0020001N1+02941+01881101311ADDAA199000091GF107991999021008001001001MA1999999097161MD1999999+0161REMSYN070AAXX  08184 82983 32595 71406 10294 20188 39716 40131 83200 333 58016;EQDQ01+000032SCOTLCQ02  00002PRCP99
0198829830999992002060900004-09380-040480FM-12+037099999V0201401N003110075019N0020001N1+02741+01761101541ADDAA199000091GF106991061011008001001001KA1240M+03001MA1999999097381MD1999999+0131REMSYN088AAXX  09004 82983 32595 61406 10274 20176 39738 40154 86100 333 10300 29059 55034 58013;EQDQ01  00002PRCP99
0186829830999992002060912004-09380-040480FM-12+037099999V0201401N005112200019N0020001N1+02461+01901101671ADDAA199000091GF106991041011008001001011KA1240N+02261MA1999999097511MD1999999-0101REMSYN076AAXX  09124 82983 32595 61410 10246 20190 39751 40167 84101 333 20226 59010;EQDQ01  00002PRCP99
0167829830999992002060918004-09380-040480FM-12+037099999V0200901N003112200019N0020001N1+03081+01601101201ADDAA199000091GF106991041011008001001011MA1999999097061MD1999999-0101REMSYN070AAXX  09184 82983 32595 60906 10308 20160 39706 40120 84101 333 59010;EQDQ01  00002PRCP99
0208829830999992002061000004-09380-040480FM-12+037099999V0201401N002612200019N0020001N1+02581+01771101471ADDAA199000091GA1001+999999999GF100991001001999999001001KA1240M+03121MA1999999097311MD1999999-0071REMSYN082AAXX  10004 82983 32995 01405 10258 20177 39731 40147 333 10312 29058 55094 59007;EQDQ01  00002PRCP99
0186829830999992002061003004-09380-040480FM-12+037099999V0201401N005112200019N0020001N1+02461+01901101671ADDAA199000091GF106991041011008001001011KA1240N+02261MA1999999097511MD1999999-0101REMSYN076AAXX  10034 82983 32595 61410 10246 20190 39751 40167 84101 333 20226 59010;EQDQ01  00002PRCP99
0186829830999992002061012004-09380-040480FM-12+037099999V0201401N005110075019N0020001N1+02401+01701101651ADDAA199000091GF106991061021008001001001KA1240N+02141MA1999999097481MD1999999-0031REMSYN076AAXX  10124 82983 32595 61410 10240 20170 39748 40165 86200 333 20214 59003;EQDQ01  00002PRCP99
0167829830999992002061018004-09380-040480FM-12+037099999V0201401N003112200019N0020001N1+03101+01581101121ADDAA199000091GF104991041011008001001001MA1999999097001MD1999999-0061REMSYN070AAXX  10184 82983 32595 41406 10310 20158 39700 40112 84100 333 59006;EQDQ01  00002PRCP99
0208829830999992002061100004-09380-040480FM-12+037099999V0201801N005112200019N0020001N1+02581+01661101441ADDAA199000091GA1001+999999999GF100991001001999999001001KA1240M+03141MA1999999097281MD1999999-0031REMSYN082AAXX  11004 82983 32995 01810 10258 20166 39728 40144 333 10314 29055 55106 59003;EQDQ01  00002PRCP99
0186829830999992002061112004-09380-040480FM-12+037099999V0201401N003610075019N0020001N1+02401+01911101651ADDAA199000091GF106991061021008001001001KA1240N+02161MA1999999097481MD1999999+0001REMSYN076AAXX  11124 82983 32595 61407 10240 20191 39748 40165 86200 333 20216 58000;EQDQ01  00002PRCP99
0167829830999992002061118004-09380-040480FM-12+037099999V0201401N003610075019N0020001N1+02901+01841101211ADDAA199000091GF107991071021008001001001MA1999999097071MD1999999+0071REMSYN070AAXX  11184 82983 32595 71407 10290 20184 39707 40121 87200 333 58007;EQDQ01  00002PRCP99
0214829830999992002061200004-09380-040480FM-12+037099999V0201401N002112200019N0020001N1+02581+01721101441ADDAA199000091GF102991021011008001001001KA1240M+03001MA1999999999999MD1999999+0001REMSYN088AAXX  12004 82983 32595 21404 10258 20172 39528 40144 82100 333 10300 29061 55053 58000;EQDQ01  00002PRCP99Q02 095283APOSP 
0186829830999992002061212004-09380-040480FM-12+037099999V0201401N004110075019N0020001N1+02361+02011101631ADDAA199000091GF106991061021008001001001KA1240N+02221MA1999999097451MD1999999-0031REMSYN076AAXX  12124 82983 32595 61408 10236 20201 39745 40163 86200 333 20222 59003;EQDQ01  00002PRCP99
0167829830999992002061218004-09380-040480FM-12+037099999V0201401N004112200019N0020001N1+03101+01621101181ADDAA199000091GF105991031011008001001011MA1999999097041MD1999999-0031REMSYN070AAXX  12184 82983 32595 51408 10310 20162 39704 40118 83101 333 59003;EQDQ01  00002PRCP99
0198829830999992002061300004-09380-040480FM-12+037099999V0201401N004112200019N0020001N1+02481+01981101531ADDAA199000091GF103991031011008001001001KA1240M+03161MA1999999097351MD1999999+0071REMSYN088AAXX  13004 82983 32595 31408 10248 20198 39735 40153 83100 333 10316 29068 55092 58007;EQDQ01  00002PRCP99
0186829830999992002061412004-09380-040480FM-12+037099999V0200901N003110075019N0020001N1+02401+01861101751ADDAA199000091GF108991081051008001999999KA1240N+02141MA1999999097561MD1999999+0061REMSYN076AAXX  14124 82983 32595 80906 10240 20186 39756 40175 885// 333 20214 58006;EQDQ01  00002PRCP99
0171829830999992002061418004-09380-040480FM-12+037099999V0200901N005110075019N0020001N1+02961+01901101371ADDAY121061AY261061GF105991051021008001001001MA1999999097211MD1999999+0211MW1031REMSYN082AAXX  14184 82983 21595 50910 10296 20190 39721 40137 70326 85200 333 58021 69921;
0198829830999992002061500004-09380-040480FM-12+037099999V0200901N002612200019N0020001N1+02501+01771101601ADDAA199000091GF103991031011008001001001KA1240M+03041MA1999999097421MD1999999+0121REMSYN088AAXX  15004 82983 32595 30905 10250 20177 39742 40160 83100 333 10304 29063 55064 58012;EQDQ01  00002PRCP99
0162829830999992002061512004-09380-040480FM-12+037099999V0200901N005110075019N0020001N1+02401+01821101811ADDGF105991051021008001001001KA1240N+02041MA1999999097621MD1999999+0061REMSYN082AAXX  15124 82983 22595 50910 10240 20182 39762 40181 85200 333 20204 58006 69924;
0198829830999992002061600004-09380-040480FM-12+037099999V0201401N003110075019N0020001N1+02601+01741101681ADDAA199000091GF108991081051008001999999KA1240M+02901MA1999999097511MD1999999+0091REMSYN088AAXX  16004 82983 32595 81406 10260 20174 39751 40168 885// 333 10290 29041 55052 58009;EQDQ01  00002PRCP99
0186829830999992002061612004-09380-040480FM-12+037099999V0201401N005110075019N0020001N1+02421+01651101811ADDAA199000091GF106991061021008001001001KA1240N+02171MA1999999097631MD1999999+0011REMSYN076AAXX  16124 82983 32595 61410 10242 20165 39763 40181 86200 333 20217 58001;EQDQ01  00002PRCP99
0183829830999992002061618004-09380-040480FM-12+037099999V0200901N005119999999N0020001N1+03081+01441101301ADDAA199000091GF106991999021008001001001MA1999999097151MD1999999-0151REMSYN070AAXX  16184 82983 32595 60910 10308 20144 39715 40130 83200 333 59015;EQDQ01+000032SCOTLCQ02  00002PRCP99
0198829830999992002061700004-09380-040480FM-12+037099999V0201401N005112200019N0020001N1+02501+01911101621ADDAA199000091GF102991021011008001001001KA1240M+03101MA1999999097441MD1999999-0071REMSYN088AAXX  17004 82983 32595 21410 10250 20191 39744 40162 82100 333 10310 29060 55105 59007;EQDQ01  00002PRCP99
0186829830999992002061712004-09380-040480FM-12+037099999V0201401N005110075019N0020001N1+02401+01651101711ADDAA199000091GF106991061021008001001001KA1240N+02191MA1999999097531MD1999999-0101REMSYN076AAXX  17124 82983 32595 61410 10240 20165 39753 40171 86200 333 20219 59010;EQDQ01  00002PRCP99
0167829830999992002061718004-09380-040480FM-12+037099999V0201401N005112200019N0020001N1+03041+01041101341ADDAA199000091GF102991021011008001001001MA1999999097181MD1999999+0031REMSYN070AAXX  17184 82983 32595 21410 10304 20104 39718 40134 82100 333 58003;EQDQ01  00002PRCP99
0208829830999992002061800004-09380-040480FM-12+037099999V0201401N002612200019N0020001N1+02561+01021101591ADDAA199000091GA1001+999999999GF100991001001999999001001KA1240M+03111MA1999999097421MD1999999-0021REMSYN082AAXX  18004 82983 32995 01405 10256 20102 39742 40159 333 10311 29042 55106 59002;EQDQ01  00002PRCP99
0186829830999992002061812004-09370-040480FM-12+037099999V0201401N005112200019N0020001N1+02441+01721101771ADDAA199000091GF104991041011008001001001KA1240N+02021MA1999999097591MD1999999+0061REMSYN076AAXX  18124 82983 32595 41410 10244 20172 39759 40177 84100 333 20202 58006;EQDQ01  00002PRCP99
0208829830999992002061900004-09370-040480FM-12+037099999V0200901N003112200019N0020001N1+02521+01431101641ADDAA199000091GA1001+999999999GF100991001001999999001001KA1240M+03001MA1999999097471MD1999999+0051REMSYN082AAXX  19004 82983 32995 00906 10252 20143 39747 40164 333 10300 29052 55098 58005;EQDQ01  00002PRCP99
0186829830999992002061912004-09370-040480FM-12+037099999V0201401N003112200019N0020001N1+02441+01641101831ADDAA199000091GF102991021011008001001001KA1240N+02001MA1999999097651MD1999999+0061REMSYN076AAXX  19124 82983 32595 21406 10244 20164 39765 40183 82100 333 20200 58006;EQDQ01  00002PRCP99
0198829830999992002062000004-09370-040480FM-12+037099999V0201401N003110075019N0020001N1+02501+01621101701ADDAA199000091GF106991061011008001001001KA1240M+03021MA1999999097521MD1999999+0051REMSYN088AAXX  20004 82983 32595 61406 10250 20162 39752 40170 86100 333 10302 29056 55102 58005;EQDQ01  00002PRCP99
0202829830999992002062012004-09370-040480FM-12+037099999V0201401N005112200019N0020001N1+02441+01591101821ADDAA199000091GF102991999011008001001001KA1240N+02161MA1999999097631MD1999999-0021REMSYN076AAXX  20124 82983 32595 21410 10244 20159 39763 40182 83100 333 20216 59002;EQDQ01+000032SCOTLCQ02  00002PRCP99
0167829830999992002062018004-09370-040480FM-12+037099999V0201401N005110075019N0020001N1+02781+01641101381ADDAA199000091GF107991071021008001001001MA1999999097221MD1999999-0071REMSYN070AAXX  20184 82983 32595 71410 10278 20164 39722 40138 87200 333 59007;EQDQ01  00002PRCP99
0171829830999992002062118004-09380-040480FM-12+037099999V0201401N003110075019N0020001N1+02621+01741101431ADDAY151061AY221061GF106991061021008001001001MA1999999097251MD1999999+0031MW1011REMSYN082AAXX  21184 82983 21595 61406 10262 20174 39725 40143 70152 86200 333 58003 60981;
0202829830999992002062200004-09380-040480FM-12+037099999V0200901N003110075019N0020001N1+02181+01921101791ADDAY101061AY231061GF108991081061008001999999KA1240M+02741MA1999999097571MD1999999+0051MW1521REMSYN100AAXX  22004 82983 21595 80906 10218 20192 39757 40179 75203 886// 333 10274 29079 55033 58005 69961;
0162829830999992002062212004-09380-040480FM-12+037099999V0201401N003112200019N0020001N1+02321+01871101911ADDGF104991041021008001001001KA1240N+02051MA1999999097691MD1999999+0071REMSYN082AAXX  22124 82983 22595 41406 10232 20187 39769 40191 84200 333 20205 58007 60014;
0183829830999992002062218004-09380-040480FM-12+037099999V0201401N003112200019N0020001N1+02961+01501101391ADDAA199000091GF104991999011008001001001MA1999999097231MD1999999-0021REMSYN070AAXX  22184 82983 32595 41406 10296 20150 39723 40139 82100 333 59002;EQDQ01+000022SCOTLCQ02  00002PRCP99
0214829830999992002062300004-09380-040480FM-12+037099999V0201401N002612200019N0020001N1+02481+01651101721ADDAA199000091GF104991999021008001001001KA1240M+03021MA1999999097541MD1999999-0021REMSYN088AAXX  23004 82983 32595 41405 10248 20165 39754 40172 83200 333 10302 29059 55090 59002;EQDQ01+000032SCOTLCQ02  00002PRCP99
0190829830999992002062312004-09380-040480FM-12+037099999V0201401N002610075019N0020001N1+02081+01931101951ADDAY121061AY261061GF107991071021008001001001KA1240N+02051MA1999999097741MD1999999+0051MW1031REMSYN088AAXX  23124 82983 21595 71405 10208 20193 39774 40195 70326 87200 333 20205 58005 60014;
0183829830999992002062318004-09380-040480FM-12+037099999V0201401N003110075019N0020001N1+02861+01681101471ADDAA199000091GF106991999011008001001001MA1999999097301MD1999999+0071REMSYN070AAXX  23184 82983 32595 61406 10286 20168 39730 40147 85100 333 58007;EQDQ01+000052SCOTLCQ02  00002PRCP99
0198829830999992002062400004-09380-040480FM-12+037099999V0200901N003112200019N0020001N1+02481+01801101821ADDAA199000091GF102991021011008001001001KA1240M+02921MA1999999097611MD1999999+0071REMSYN088AAXX  24004 82983 32595 20906 10248 20180 39761 40182 82100 333 10292 29068 55063 58007;EQDQ01  00002PRCP99
0186829830999992002062512004-09380-040480FM-12+037099999V0201401N004110075019N0020001N1+02241+01801102041ADDAA199000091GF108991081051008001999999KA1240N+02071MA1999999097831MD1999999+0041REMSYN076AAXX  25124 82983 32595 81408 10224 20180 39783 40204 885// 333 20207 58004;EQDQ01  00002PRCP99
0167829830999992002062518004-09380-040480FM-12+037099999V0200901N005110075019N0020001N1+02881+01771101671ADDAA199000091GF106991061021008001001001MA1999999097491MD1999999+0141REMSYN070AAXX  25184 82983 32595 60910 10288 20177 39749 40167 86200 333 58014;EQDQ01  00002PRCP99
0186829830999992002062612004-09380-040480FM-12+037099999V0201401N001510450019N0020001N1+02261+01861102051ADDAA199000091GF106991031011008001021011KA1240N+02131MA1999999097851MD1999999+0021REMSYN076AAXX  26124 82983 32595 61403 10226 20186 39785 40205 83121 333 20213 58002;EQDQ01  00002PRCP99
0186829830999992002062712004-09380-040480FM-12+037099999V0201401N003110075019N0020001N1+02201+01781101961ADDAA199000091GF108991081051008001999999KA1240N+02031MA1999999097761MD1999999-0081REMSYN076AAXX  27124 82983 32595 81406 10220 20178 39776 40196 885// 333 20203 59008;EQDQ01  00002PRCP99
0167829830999992002062718004-09380-040480FM-12+037099999V0200901N003110075019N0020001N1+02661+01501101601ADDAA199000091GF108991051021008001041001MA1999999097411MD1999999-0041REMSYN070AAXX  27184 82983 32595 80906 10266 20150 39741 40160 85240 333 59004;EQDQ01  00002PRCP99
0198829830999992002062800004-09380-040480FM-12+037099999V0201401N002610075019N0020001N1+02461+01751101731ADDAA199000091GF108991081051008001999999KA1240M+02681MA1999999097541MD1999999-0131REMSYN088AAXX  28004 82983 32595 81405 10246 20175 39754 40173 885// 333 10268 29060 55003 59013;EQDQ01  00002PRCP99
0186829830999992002062812004-09380-040480FM-12+037099999V0201401N003110075019N0020001N1+02281+01771101921ADDAA199000091GF106991061021008001001001KA1240N+02011MA1999999097721MD1999999-0041REMSYN076AAXX  28124 82983 32595 61406 10228 20177 39772 40192 86200 333 20201 59004;EQDQ01  00002PRCP99
0167829830999992002062818004-09380-040480FM-12+037099999V0201401N005110075019N0020001N1+03001+01491101371ADDAA199000091GF106991061021008001001001MA1999999097211MD1999999-0201REMSYN070AAXX  28184 82983 32595 61410 10300 20149 39721 40137 86200 333 59020;EQDQ01  00002PRCP99
0208829830999992002062900004-09380-040480FM-12+037099999V0201401N003112200019N0020001N1+02601+01741101591ADDAA199000091GA1001+999999999GF100991001001999999001001KA1240M+03061MA1999999097411MD1999999-0141REMSYN082AAXX  29004 82983 32995 01406 10260 20174 39741 40159 333 10306 29058 55103 59014;EQDQ01  00002PRCP99
0186829830999992002062912004-09380-040480FM-12+037099999V0201401N003110075019N0020001N1+02241+01861101911ADDAA199000091GF107991071021008001001001KA1240N+02061MA1999999097721MD1999999+0001REMSYN076AAXX  29124 82983 32595 71406 10224 20186 39772 40191 87200 333 20206 58000;EQDQ01  00002PRCP99
0167829830999992002062918004-09380-040480FM-12+037099999V0201401N005110075019N0020001N1+02801+01841101461ADDAA199000091GF105991051021008001001001MA1999999097291MD1999999+0081REMSYN070AAXX  29184 82983 32595 51410 10280 20184 39729 40146 85200 333 58008;EQDQ01  00002PRCP99
0208829830999992002063000004-09380-040480FM-12+037099999V0201401N004612200019N0020001N1+02321+01741101831ADDAA199000091GA1001+999999999GF100991001001999999001001KA1240M+02861MA1999999097621MD1999999+0211REMSYN082AAXX  30004 82983 32995 01409 10232 20174 39762 40183 333 10286 29069 55076 58021;EQDQ01  00002PRCP99
0186829830999992002063012004-09380-040480FM-12+037099999V0201401N004110075019N0020001N1+02321+01671102051ADDAA199000091GF105991051011008001001001KA1240N+02041MA1999999097831MD1999999+0111REMSYN076AAXX  30124 82983 32595 51408 10232 20167 39783 40205 85100 333 20204 58011;EQDQ01  00002PRCP99
0167829830999992002063018004-09380-040480FM-12+037099999V0201401N005110075019N0020001N1+02921+01531101591ADDAA199000091GF106991061021008001001001MA1999999097411MD1999999+0121REMSYN070AAXX  30184 82983 32595 61410 10292 20153 39741 40159 86200 333 58012;EQDQ01  00002PRCP99
0198829830999992002070100004-09380-040480FM-12+037099999V0201401N003112200019N0020001N1+02561+01731101891ADDAA199000091GF103991031021008001001001KA1240M+02921MA1999999097701MD1999999+0081REMSYN088AAXX  01004 82983 32595 31406 10256 20173 39770 40189 83200 333 10292 29058 55082 58008;EQDQ01  00002PRCP99
0186829830999992002070112004-09380-040480FM-12+037099999V0201401N005110075019N0020001N1+02341+01891102101ADDAA199000091GF107991071051008001001001KA1240N+02161MA1999999097901MD1999999+0071REMSYN076AAXX  01124 82983 32595 71410 10234 20189 39790 40210 87500 333 20216 58007;EQDQ01  00002PRCP99
0167829830999992002070118004-09380-040480FM-12+037099999V0201401N005110075019N0020001N1+02701+01751101671ADDAA199000091GF108991081051008001999999MA1999999097491MD1999999+0081REMSYN070AAXX  01184 82983 32595 81410 10270 20175 39749 40167 885// 333 58008;EQDQ01  00002PRCP99
0198829830999992002070200004-09380-040480FM-12+037099999V0201401N004110075019N0020001N1+02301+01901101921ADDAA199000091GF108991081061008001999999KA1240M+02801MA1999999097711MD1999999+0011REMSYN088AAXX  02004 82983 32595 81408 10230 20190 39771 40192 886// 333 10280 29072 55027 58001;EQDQ01  00002PRCP99
0186829830999992002070212004-09380-040480FM-12+037099999V0201401N004110075019N0020001N1+02341+01721101951ADDAA199000091GF108991081051008001999999KA1240N+02061MA1999999097741MD1999999-0161REMSYN076AAXX  02124 82983 32595 81408 10234 20172 39774 40195 885// 333 20206 59016;EQDQ01  00002PRCP99
0167829830999992002070218004-09380-040480FM-12+037099999V0201401N004110075019N0020001N1+02841+01391101461ADDAA199000091GF105991051011008001001001MA1999999097291MD1999999-0201REMSYN070AAXX  02184 82983 32595 51408 10284 20139 39729 40146 85100 333 59020;EQDQ01  00002PRCP99
0214829830999992002070300004-09380-040480FM-12+037099999V0201401N003112200019N0020001N1+02401+01651101711ADDAA199000091GF102991999021008001001001KA1240M+02941MA1999999097521MD1999999-0191REMSYN088AAXX  03004 82983 32595 21406 10240 20165 39752 40171 83200 333 10294 29059 55071 59019;EQDQ01+000032SCOTLCQ02  00002PRCP99
0186829830999992002070312004-09380-040480FM-12+037099999V0201401N005112200019N0020001N1+02301+01721101811ADDAA199000091GF104991041011008001001001KA1240N+01961MA1999999097611MD1999999+0131REMSYN076AAXX  03124 82983 32595 41410 10230 20172 39761 40181 84100 333 20196 58013;EQDQ01  00002PRCP99
0167829830999992002070318004-09380-040480FM-12+037099999V0201401N004110075019N0020001N1+02941+01591101421ADDAA199000091GF106991061011008001001001MA1999999097251MD1999999-0041REMSYN070AAXX  03184 82983 32595 61408 10294 20159 39725 40142 86100 333 59004;EQDQ01  00002PRCP99
0186829830999992002070412004-09380-040480FM-12+037099999V0201401N005110075019N0020001N1+02281+01701101931ADDAA199000091GF106991061011008001001001KA1240N+01981MA1999999097731MD1999999+0121REMSYN076AAXX  04124 82983 32595 61410 10228 20170 39773 40193 86100 333 20198 58012;EQDQ01  00002PRCP99
0167829830999992002070418004-09380-040480FM-12+037099999V0201401N004110075019N0020001N1+02881+01641101451ADDAA199000091GF107991071051008001001001MA1999999097271MD1999999+0021REMSYN070AAXX  04184 82983 32595 71408 10288 20164 39727 40145 87500 333 58002;EQDQ01  00002PRCP99
0198829830999992002070500004-09380-040480FM-12+037099999V0201401N004110075019N0020001N1+02561+01801101681ADDAA199000091GF106991061021008001001001KA1240M+02961MA1999999097501MD1999999+0001REMSYN088AAXX  05004 82983 32595 61408 10256 20180 39750 40168 86200 333 10296 29061 55075 58000;EQDQ01  00002PRCP99
0186829830999992002070512004-09380-040480FM-12+037099999V0201401N005110450019N0020001N1+02401+01801101821ADDAA199000091GF107991041021008001021001KA1240N+02171MA1999999097641MD1999999-0091REMSYN076AAXX  05124 82983 32595 71410 10240 20180 39764 40182 84220 333 20217 59009;EQDQ01  00002PRCP99
0167829830999992002070518004-09380-040480FM-12+037099999V0201401N005110075019N0020001N1+02761+01831101371ADDAA199000091GF106991061021008001001001MA1999999097201MD1999999-0071REMSYN070AAXX  05184 82983 32595 61410 10276 20183 39720 40137 86200 333 59007;EQDQ01  00002PRCP99
0198829830999992002070600004-09380-040480FM-12+037099999V0200901N002612200019N0020001N1+02301+01921101631ADDAA199000091GF104991041021008001001001KA1240M+02841MA1999999097441MD1999999-0061REMSYN088AAXX  06004 82983 32595 40905 10230 20192 39744 40163 84200 333 10284 29071 55016 59006;EQDQ01  00002PRCP99
0186829830999992002070612004-09380-040480FM-12+037099999V0201401N005710075019N0020001N1+02321+01631101891ADDAA199000091GF106991061021008001001001KA1240N+02041MA1999999097681MD1999999+0041REMSYN076AAXX  06124 82983 32595 61411 10232 20163 39768 40189 86200 333 20204 58004;EQDQ01  00002PRCP99
0167829830999992002070618004-09380-040480FM-12+037099999V0201401N005110075019N0020001N1+02901+01551101271ADDAA199000091GF105991051011008001001001MA1999999097121MD1999999-0081REMSYN070AAXX  06184 82983 32595 51410 10290 20155 39712 40127 85100 333 59008;EQDQ01  00002PRCP99
0208829830999992002070700004-09380-040480FM-12+037099999V0201401N002612200019N0020001N1+02521+01631101521ADDAA199000091GA1001+999999999GF100991001001999999001001KA1240M+02961MA1999999097341MD1999999-0101REMSYN082AAXX  07004 82983 32995 01405 10252 20163 39734 40152 333 10296 29056 55086 59010;EQDQ01  00002PRCP99
0186829830999992002070712004-09380-040480FM-12+037099999V0201401N003112200019N0020001N1+02301+01681101901ADDAA199000091GF102991021011008001001001KA1240N+01931MA1999999097711MD1999999+0031REMSYN076AAXX  07124 82983 32595 21406 10230 20168 39771 40190 82100 333 20193 58003;EQDQ01  00002PRCP99
0177829830999992002070718004-09380-040480FM-12+037099999V0201401N003112200019N0020001N1+03001+01331101291ADDAA199000091GA1001+999999999GF100991001001999999001001MA1999999097141MD1999999+0021REMSYN064AAXX  07184 82983 32995 01406 10300 20133 39714 40129 333 58002;EQDQ01  00002PRCP99
0208829830999992002070800004-09380-040480FM-12+037099999V0201401N002612200019N0020001N1+02601+01481999999ADDAA199000091GA1001+999999999GF100991001001999999001001KA1240M+02721REMSYN111AAXX  08004 82983 32995 01405 10260 20148 00502 10215 20193 32996 39866 3992 40182 333 10272 29078 55100 58007;EQDQ01  00002PRCP99
0167829830999992002070818004-09380-040480FM-12+037099999V0200901N003112200019N0020001N1+03161+01291101201ADDAA199000091GF102991021011008001001001MA1999999097061MD1999999-0081REMSYN070AAXX  08184 82983 32595 20906 10316 20129 39706 40120 82100 333 59008;EQDQ01  00002PRCP99
0208829830999992002070900004-09380-040480FM-12+037099999V0201401N001512200019N0020001N1+02721+01201101491ADDAA199000091GA1001+999999999GF100991001001999999001001KA1240M+03221MA1999999097331MD1999999-0061REMSYN082AAXX  09004 82983 32995 01403 10272 20120 39733 40149 333 10322 29044 55106 59006;EQDQ01  00002PRCP99
0196829830999992002070912004-09380-040480FM-12+037099999V0200901N001512200019N0020001N1+02501+01421101821ADDAA199000091GA1001+999999999GF100991001001999999001001KA1240N+01971MA1999999097651MD1999999+0051REMSYN070AAXX  09124 82983 32995 00903 10250 20142 39765 40182 333 20197 58005;EQDQ01  00002PRCP99
0177829830999992002070918004-09380-040480FM-12+037099999V0201401N005112200019N0020001N1+03281+01131101301ADDAA199000091GA1001+999999999GF100991001001999999001001MA1999999097161MD1999999+0101REMSYN064AAXX  09184 82983 32995 01410 10328 20113 39716 40130 333 58010;EQDQ01  00002PRCP99
0208829830999992002071000004-09380-040480FM-12+037099999V0201401N003112200019N0020001N1+02701+01191101651ADDAA199000091GA1001+999999999GF100991001001999999001001KA1240M+03301MA1999999097491MD1999999+0161REMSYN082AAXX  10004 82983 32995 01406 10270 20119 39749 40165 333 10330 29039 55107 58016;EQDQ01  00002PRCP99
0186829830999992002071012004-09380-040480FM-12+037099999V0201401N003110075019N0020001N1+02421+01671101891ADDAA199000091GF107991071021008001001001KA1240N+02061MA1999999097711MD1999999+0061REMSYN076AAXX  10124 82983 32595 71406 10242 20167 39771 40189 87200 333 20206 58006;EQDQ01  00002PRCP99
0167829830999992002071018004-09380-040480FM-12+037099999V0201401N003112200019N0020001N1+03001+01681101431ADDAA199000091GF104991041011008001001001MA1999999097281MD1999999+0121REMSYN070AAXX  10184 82983 32595 41406 10300 20168 39728 40143 84100 333 58012;EQDQ01  00002PRCP99
0208829830999992002071100004-09380-040480FM-12+037099999V0201401N004112200019N0020001N1+02521+01931101631ADDAA199000091GA1001+999999999GF100991001001999999001001KA1240M+03041MA1999999097471MD1999999-0041REMSYN082AAXX  11004 82983 32995 01408 10252 20193 39747 40163 333 10304 29062 55092 59004;EQDQ01  00002PRCP99
0186829830999992002071112004-09380-040480FM-12+037099999V0201401N005110075019N0020001N1+02381+01911101821ADDAA199000091GF106991061021008001001001KA1240N+02131MA1999999097631MD1999999-0081REMSYN076AAXX  11124 82983 32595 61410 10238 20191 39763 40182 86200 333 20213 59008;EQDQ01  00002PRCP99
0190829830999992002071118004-09380-040480FM-12+037099999V0201801N003110075019N0020001N1+02801+01901101391ADDAY121061AY261061GF107991999021008001001001MA1999999097231MD1999999-0051MW1031REMSYN082AAXX  11184 82983 21595 71806 10280 20190 39723 40139 70326 86200 333 59005 60011;EQDQ01+000062SCOTLC
0198829830999992002071200004-09380-040480FM-12+037099999V0200901N001012200019N0020001N1+02501+01841101581ADDAA199000091GF102991021011008001001001KA1240M+02881MA1999999097401MD1999999-0051REMSYN088AAXX  12004 82983 32595 20902 10250 20184 39740 40158 82100 333 10288 29067 55048 59005;EQDQ01  00002PRCP99
0181829830999992002071212004-09380-040480FM-12+037099999V0201401N004112200019N0020001N1+02181+01651101801ADDGF103991999011008001001001KA1240N+01931MA1999999097601MD1999999-0031REMSYN082AAXX  12124 82983 22595 31408 10218 20165 39760 40180 81100 333 20193 59003 60014;EQDQ01+000012SCOTLC
0167829830999992002071218004-09380-040480FM-12+037099999V0201401N003112200019N0020001N1+02981+01621101271ADDAA199000091GF101991011011008001001001MA1999999097121MD1999999-0111REMSYN070AAXX  12184 82983 32595 11406 10298 20162 39712 40127 81100 333 59011;EQDQ01  00002PRCP99
0208829830999992002071300004-09380-040480FM-12+037099999V0201401N002612200019N0020001N1+02581+01741101471ADDAA199000091GA1001+999999999GF100991001001999999001001KA1240M+03041MA1999999097291MD1999999-0111REMSYN082AAXX  13004 82983 32995 01405 10258 20174 39729 40147 333 10304 29059 55100 59011;EQDQ01  00002PRCP99
0186829830999992002071312004-09380-040480FM-12+037099999V0201401N004110075019N0020001N1+02321+01811101631ADDAA199000091GF106991061011008001001001KA1240N+02121MA1999999097451MD1999999-0151REMSYN076AAXX  13124 82983 32595 61408 10232 20181 39745 40163 86100 333 20212 59015;EQDQ01  00002PRCP99
0167829830999992002071318004-09380-040480FM-12+037099999V0200901N003112200019N0020001N1+03161+01431101211ADDAA199000091GF101991011011008001001001MA1999999096971MD1999999-0151REMSYN070AAXX  13184 82983 32595 10906 10316 20143 39697 40121 81100 333 59015;EQDQ01  00002PRCP99
0208829830999992002071400004-09380-040480FM-12+037099999V0201401N003112200019N0020001N1+02681+01611101361ADDAA199000091GA1001+999999999GF100991001001999999001001KA1240M+03241MA1999999097201MD1999999-0091REMSYN082AAXX  14004 82983 32995 01406 10268 20161 39720 40136 333 10324 29053 55099 59009;EQDQ01  00002PRCP99
0196829830999992002071412004-09380-040480FM-12+037099999V0200901N002612200019N0020001N1+02381+01801101641ADDAA199000091GA1001+999999999GF100991001001999999001001KA1240N+02041MA1999999097471MD1999999+0021REMSYN070AAXX  14124 82983 32995 00905 10238 20180 39747 40164 333 20204 58002;EQDQ01  00002PRCP99
0167829830999992002071418004-09380-040480FM-12+037099999V0200901N002612200019N0020001N1+03141+01501101131ADDAA199000091GF102991011011008001001011MA1999999096991MD1999999+0021REMSYN070AAXX  14184 82983 32595 20905 10314 20150 39699 40113 81101 333 58002;EQDQ01  00002PRCP99
0208829830999992002071500004-09380-040480FM-12+037099999V0201401N002612200019N0020001N1+02721+01351101431ADDAA199000091GA1001+999999999GF100991001001999999001001KA1240M+03241MA1999999097271MD1999999+0071REMSYN082AAXX  15004 82983 32995 01405 10272 20135 39727 40143 333 10324 29048 55108 58007;EQDQ01  00002PRCP99
0186829830999992002071512004-09380-040480FM-12+037099999V0201401N003112200019N0020001N1+02561+01801101741ADDAA199000091GF105991041011008001001011KA1240N+02221MA1999999097581MD1999999+0111REMSYN076AAXX  15124 82983 32595 51406 10256 20180 39758 40174 84101 333 20222 58011;EQDQ01  00002PRCP99
0183829830999992002071618004-09380-040480FM-12+037099999V0200901N003119999999N0020001N1+03041+01451101351ADDAA199000091GF106991999011008001001001MA1999999097201MD1999999+0091REMSYN070AAXX  16184 82983 32595 60906 10304 20145 39720 40135 82100 333 58009;EQDQ01+000022SCOTLCQ02  00002PRCP99
0208829830999992002071700004-09380-040480FM-12+037099999V0201401N003112200019N0020001N1+02601+01511101651ADDAA199000091GA1001+999999999GF100991001001999999001001KA1240M+03101MA1999999097481MD1999999+0161REMSYN082AAXX  17004 82983 32995 01406 10260 20151 39748 40165 333 10310 29051 55086 58016;EQDQ01  00002PRCP99
0186829830999992002071712004-09380-040480FM-12+037099999V0201401N003610075019N0200001N1+02281+01771101891ADDAA199000091GF107991071021008001001001KA1240N+02101MA1999999097701MD1999999+0071REMSYN076AAXX  17124 82983 32598 71407 10228 20177 39770 40189 87200 333 20210 58007;EQDQ01  00002PRCP99
0167829830999992002071718004-09380-040480FM-12+037099999V0201401N003112200019N0020001N1+03101+01461101321ADDAA199000091GF101991011011008001001001MA1999999097171MD1999999-0031REMSYN070AAXX  17184 82983 32595 11406 10310 20146 39717 40132 81100 333 59003;EQDQ01  00002PRCP99
0208829830999992002071800004-09380-040480FM-12+037099999V0201401N003112200019N0020001N1+02721+01521101561ADDAA199000091GA1001+999999999GF100991001001999999001001KA1240M+03161MA1999999097391MD1999999-0091REMSYN082AAXX  18004 82983 32995 01406 10272 20152 39739 40156 333 10316 29052 55089 59009;EQDQ01  00002PRCP99
0186829830999992002071812004-09380-040480FM-12+037099999V0200901N003112200019N0020001N1+02381+01781101811ADDAA199000091GF103991031011008001001001KA1240N+02121MA1999999097631MD1999999-0071REMSYN076AAXX  18124 82983 32595 30906 10238 20178 39763 40181 83100 333 20212 59007;EQDQ01  00002PRCP99
0167829830999992002071818004-09380-040480FM-12+037099999V0200901N003112200019N0040001N1+03101+01331101261ADDAA199000091GF102991021011008001001001MA1999999097121MD1999999-0051REMSYN070AAXX  18184 82983 32596 20906 10310 20133 39712 40126 82100 333 59005;EQDQ01  00002PRCP99
0208829830999992002071900004-09380-040480FM-12+037099999V0200901N004112200019N0020001N1+02721+01521101551ADDAA199000091GA1001+999999999GF100991001001999999001001KA1240M+03241MA1999999097391MD1999999+0001REMSYN082AAXX  19004 82983 32995 00908 10272 20152 39739 40155 333 10324 29050 55107 58000;EQDQ01  00002PRCP99
0186829830999992002071912004-09380-040480FM-12+037099999V0201401N005110075019N0020001N1+02381+01631101801ADDAA199000091GF106991061011008001001001KA1240N+02101MA1999999097621MD1999999-0011REMSYN076AAXX  19124 82983 32595 61410 10238 20163 39762 40180 86100 333 20210 59001;EQDQ01  00002PRCP99
0167829830999992002071918004-09380-040480FM-12+037099999V0201401N003612200019N0020001N1+02981+01441101331ADDAA199000091GF102991021011008001001001MA1999999097181MD1999999+0061REMSYN070AAXX  19184 82983 32595 21407 10298 20144 39718 40133 82100 333 58006;EQDQ01  00002PRCP99
0208829830999992002072000004-09380-040480FM-12+037099999V0201401N003112200019N0020001N1+02561+01441101601ADDAA199000091GA1001+999999999GF100991001001999999001001KA1240M+03021MA1999999097421MD1999999+0031REMSYN082AAXX  20004 82983 32995 01406 10256 20144 39742 40160 333 10302 29050 55106 58003;EQDQ01  00002PRCP99
0190829830999992002072012004-09380-040480FM-12+037099999V0200901N004110075019N0020001N1+02221+01841101871ADDAY121061AY251061GF107991071021008001001001KA1240N+02051MA1999999097681MD1999999+0061MW1031REMSYN088AAXX  20124 82983 21595 70908 10222 20184 39768 40187 70325 87200 333 20205 58006 69924;
0167829830999992002072018004-09380-040480FM-12+037099999V0201401N004110075019N0020001N1+02761+01751101391ADDAA199000091GF106991061021008001001001MA1999999097221MD1999999+0041REMSYN070AAXX  20184 82983 32595 61408 10276 20175 39722 40139 86200 333 58004;EQDQ01  00002PRCP99
0208829830999992002072100004-09380-040480FM-12+037099999V0200901N002612200019N0020001N1+02401+01731101641ADDAA199000091GA1001+999999999GF100991001001999999001001KA1240M+02821MA1999999097441MD1999999+0021REMSYN082AAXX  21004 82983 32995 00905 10240 20173 39744 40164 333 10282 29066 55048 58002;EQDQ01  00002PRCP99
0186829830999992002072112004-09380-040480FM-12+037099999V0201401N003110075019N0020001N1+02201+01721101761ADDAA199000091GF108991081051008001999999KA1240N+02031MA1999999097551MD1999999-0131REMSYN076AAXX  21124 82983 32595 81406 10220 20172 39755 40176 885// 333 20203 59013;EQDQ01  00002PRCP99
0167829830999992002072118004-09380-040480FM-12+037099999V0201401N002612200019N0020001N1+02841+01531101281ADDAA199000091GF104991041011008001001001MA1999999097121MD1999999-0101REMSYN070AAXX  21184 82983 32595 41405 10284 20153 39712 40128 84100 333 59010;EQDQ01  00002PRCP99
0186829830999992002072312004-09380-040480FM-12+037099999V0201401N003110075019N0020001N1+02301+01831101771ADDAA199000091GF106991061021008001001001KA1240N+02201MA1999999097591MD1999999+0011REMSYN076AAXX  23124 82983 32595 61406 10230 20183 39759 40177 86200 333 20220 58001;EQDQ01  00002PRCP99
0167829830999992002072318004-09380-040480FM-12+037099999V0201401N003112200019N0020001N1+03021+01591101241ADDAA199000091GF104991041011008001001001MA1999999097101MD1999999+0061REMSYN070AAXX  23184 82983 32595 41406 10302 20159 39710 40124 84100 333 58006;EQDQ01  00002PRCP99
0208829830999992002072400004-09380-040480FM-12+037099999V0201401N003112200019N0020001N1+02661+01741101541ADDAA199000091GA1001+999999999GF100991001001999999001001KA1240M+03101MA1999999097371MD1999999+0101REMSYN082AAXX  24004 82983 32995 01406 10266 20174 39737 40154 333 10310 29058 55088 58010;EQDQ01  00002PRCP99
0186829830999992002072412004-09380-040480FM-12+037099999V0201401N004110075019N0020001N1+02301+01791101741ADDAA199000091GF106991061021008001001001KA1240N+02181MA1999999097561MD1999999-0031REMSYN076AAXX  24124 82983 32595 61408 10230 20179 39756 40174 86200 333 20218 59003;EQDQ01  00002PRCP99
0167829830999992002072418004-09380-040480FM-12+037099999V0201401N003112200019N0020001N1+03061+01551101281ADDAA199000091GF102991021011008001001001MA1999999097141MD1999999+0041REMSYN070AAXX  24184 82983 32595 21406 10306 20155 39714 40128 82100 333 58004;EQDQ01  00002PRCP99
0208829830999992002072500004-09380-040480FM-12+037099999V0200901N003112200019N0020001N1+02661+01531101631ADDAA199000091GA1001+999999999GF100991001001999999001001KA1240M+03161MA1999999097461MD1999999+0091REMSYN082AAXX  25004 82983 32995 00906 10266 20153 39746 40163 333 10316 29053 55086 58009;EQDQ01  00002PRCP99
0186829830999992002072512004-09380-040480FM-12+037099999V0200901N003112200019N0020001N1+02481+01731101851ADDAA199000091GF104991041011008001001001KA1240N+02181MA1999999097671MD1999999+0111REMSYN076AAXX  25124 82983 32595 40906 10248 20173 39767 40185 84100 333 20218 58011;EQDQ01  00002PRCP99
0167829830999992002072518004-09380-040480FM-12+037099999V0201401N004110075019N0020001N1+03061+01581101431ADDAA199000091GF106991061011008001001001MA1999999097281MD1999999+0141REMSYN070AAXX  25184 82983 32595 61408 10306 20158 39728 40143 86100 333 58014;EQDQ01  00002PRCP99
0208829830999992002072600004-09380-040480FM-12+037099999V0200901N003612200019N0020001N1+02721+01351101661ADDAA199000091GA1001+999999999GF100991001001999999001001KA1240M+03101MA1999999097501MD1999999+0041REMSYN082AAXX  26004 82983 32995 00907 10272 20135 39750 40166 333 10310 29052 55107 58004;EQDQ01  00002PRCP99
0186829830999992002072612004-09380-040480FM-12+037099999V0201801N003610075019N0020001N1+02361+01831101841ADDAA199000091GF107991071051008001001001KA1240N+02241MA1999999097661MD1999999-0011REMSYN076AAXX  26124 82983 32595 71807 10236 20183 39766 40184 87500 333 20224 59001;EQDQ01  00002PRCP99
0167829830999992002072618004-09380-040480FM-12+037099999V0201401N003110075019N0020001N1+02921+01741101441ADDAA199000091GF106991051021008001001011MA1999999097281MD1999999+0001REMSYN070AAXX  26184 82983 32595 61406 10292 20174 39728 40144 85201 333 58000;EQDQ01  00002PRCP99
0208829830999992002072700004-09380-040480FM-12+037099999V0201401N003112200019N0020001N1+02621+01811101601ADDAA199000091GA1001+999999999GF100991001001999999001001KA1240M+03021MA1999999097431MD1999999-0071REMSYN082AAXX  27004 82983 32995 01406 10262 20181 39743 40160 333 10302 29061 55077 59007;EQDQ01  00002PRCP99
0186829830999992002072712004-09380-040480FM-12+037099999V0201401N004110075019N0020001N1+02341+01831101871ADDAA199000091GF108991081051008001999999KA1240N+02251MA1999999097691MD1999999+0031REMSYN076AAXX  27124 82983 32595 81408 10234 20183 39769 40187 885// 333 20225 58003;EQDQ01  00002PRCP99
0167829830999992002072718004-09380-040480FM-12+037099999V0201401N004110075019N0020001N1+02781+01911101501ADDAA199000091GF106991061021008001001001MA1999999097341MD1999999+0061REMSYN070AAXX  27184 82983 32595 61408 10278 20191 39734 40150 86200 333 58006;EQDQ01  00002PRCP99
0198829830999992002072800004-09380-040480FM-12+037099999V0201401N003112200019N0020001N1+02521+01931101751ADDAA199000091GF102991021011008001001001KA1240M+02901MA1999999097561MD1999999+0131REMSYN088AAXX  28004 82983 32595 21406 10252 20193 39756 40175 82100 333 10290 29068 55039 58013;EQDQ01  00002PRCP99
0186829830999992002072812004-09380-040480FM-12+037099999V0200901N003110075019N0020001N1+02461+01901101921ADDAA199000091GF106991061021008001001001KA1240N+02181MA1999999097741MD1999999+0051REMSYN076AAXX  28124 82983 32595 60906 10246 20190 39774 40192 86200 333 20218 58005;EQDQ01  00002PRCP99
0167829830999992002072818004-09380-040480FM-12+037099999V0200501N002610075019N0020001N1+03141+01771101451ADDAA199000091GF105991051021008001001001MA1999999097331MD1999999-0011REMSYN070AAXX  28184 82983 32595 50505 10314 20177 39733 40145 85200 333 59001;EQDQ01  00002PRCP99
0202829830999992002072900004-09380-040480FM-12+037099999V0200901N003112200019N0020001N1+02601+01961101591ADDAY121061AY251061GF101991011011008001001001KA1240M+03201MA1999999097431MD1999999-0131MW1011REMSYN100AAXX  29004 82983 21595 10906 10260 20196 39743 40159 70125 81100 333 10320 29063 55084 59013 69901;
0186829830999992002072912004-09380-040480FM-12+037099999V0200901N004110075019N0020001N1+02341+01891101911ADDAA199000091GF108991081051008001999999KA1240N+02161MA1999999097721MD1999999-0021REMSYN076AAXX  29124 82983 32595 80908 10234 20189 39772 40191 885// 333 20216 59002;EQDQ01  00002PRCP99
0167829830999992002072918004-09380-040480FM-12+037099999V0201401N004110075019N0020001N1+02921+01671101541ADDAA199000091GF106991061011008001001001MA1999999097381MD1999999+0051REMSYN070AAXX  29184 82983 32595 61408 10292 20167 39738 40154 86100 333 58005;EQDQ01  00002PRCP99
0198829830999992002073000004-09380-040480FM-12+037099999V0201401N004112200019N0020001N1+02641+02001101801ADDAA199000091GF103991031011008001001001KA1240M+03001MA1999999097621MD1999999+0191REMSYN088AAXX  30004 82983 32595 31408 10264 20200 39762 40180 83100 333 10300 29065 55053 58019;EQDQ01  00002PRCP99
0186829830999992002073012004-09380-040480FM-12+037099999V0201401N004110075019N0020001N1+02421+01741101941ADDAA199000091GF106991061021008001001001KA1240N+02161MA1999999097761MD1999999+0041REMSYN076AAXX  30124 82983 32595 61408 10242 20174 39776 40194 86200 333 20216 58004;EQDQ01  00002PRCP99
0167829830999992002073018004-09380-040480FM-12+037099999V0201401N005112200019N0020001N1+03021+01601101461ADDAA199000091GF103991031011008001001001MA1999999097321MD1999999-0061REMSYN070AAXX  30184 82983 32595 31410 10302 20160 39732 40146 83100 333 59006;EQDQ01  00002PRCP99
0208829830999992002073100004-09380-040480FM-12+037099999V0201401N005112200019N0020001N1+02601+01921101661ADDAA199000091GA1001+999999999GF100991001001999999001001KA1240M+03101MA1999999097491MD1999999-0131REMSYN082AAXX  31004 82983 32995 01410 10260 20192 39749 40166 333 10310 29060 55094 59013;EQDQ01  00002PRCP99
0186829830999992002073112004-09380-040480FM-12+037099999V0200901N003110075019N0020001N1+02281+01731101871ADDAA199000091GF107991071021008001001001KA1240N+02141MA1999999097681MD1999999-0061REMSYN076AAXX  31124 82983 32595 70906 10228 20173 39768 40187 87200 333 20214 59006;EQDQ01  00002PRCP99
0167829830999992002073118004-09380-040480FM-12+037099999V0200901N004112200019N0020001N1+03021+01891101261ADDAA199000091GF104991041011008001001001MA1999999097121MD1999999-0201REMSYN070AAXX  31184 82983 32595 40908 10302 20189 39712 40126 84100 333 59020;EQDQ01  00002PRCP99
0208829830999992002080100004-09380-040480FM-12+037099999V0200901N003112200019N0020001N1+02641+02001101461ADDAA199000091GA1001+999999999GF100991001001999999001001KA1240M+03101MA1999999097291MD1999999-0201REMSYN082AAXX  01004 82983 32995 00906 10264 20200 39729 40146 333 10310 29064 55075 59020;EQDQ01  00002PRCP99
0186829830999992002080112004-09380-040480FM-12+037099999V0201401N003110075019N0020001N1+02301+01791101711ADDAA199000091GF106991061021008001001001KA1240N+02031MA1999999097531MD1999999-0151REMSYN076AAXX  01124 82983 32595 61406 10230 20179 39753 40171 86200 333 20203 59015;EQDQ01  00002PRCP99
0167829830999992002080118004-09380-040480FM-12+037099999V0200901N003112200019N0020001N1+03101+01871101181ADDAA199000091GF102991021011008001001001MA1999999097041MD1999999-0081REMSYN070AAXX  01184 82983 32595 20906 10310 20187 39704 40118 82100 333 59008;EQDQ01  00002PRCP99
0208829830999992002080200004-09380-040480FM-12+037099999V0201401N003112200019N0020001N1+02721+01771101481ADDAA199000091GA1001+999999999GF100991001001999999001001KA1240M+03201MA1999999097321MD1999999+0031REMSYN082AAXX  02004 82983 32995 01406 10272 20177 39732 40148 333 10320 29058 55098 58003;EQDQ01  00002PRCP99
0186829830999992002080212004-09380-040480FM-12+037099999V0200901N003112200019N0020001N1+02461+01811101841ADDAA199000091GF101991011011008001001001KA1240N+02121MA1999999097671MD1999999+0141REMSYN076AAXX  02124 82983 32595 10906 10246 20181 39767 40184 81100 333 20212 58014;EQDQ01  00002PRCP99
0167829830999992002080218004-09380-040480FM-12+037099999V0201401N002612200019N0020001N1+03181+01401101381ADDAA199000091GF102991021011008001001001MA1999999097241MD1999999+0201REMSYN070AAXX  02184 82983 32595 21405 10318 20140 39724 40138 82100 333 58020;EQDQ01  00002PRCP99
0198829830999992002080300004-09380-040480FM-12+037099999V0201401N003112200019N0020001N1+02881+01531101621ADDAA199000091GF103991031011008001001001KA1240M+03281MA1999999097431MD1999999+0151REMSYN088AAXX  03004 82983 32595 31406 10288 20153 39743 40162 83100 333 10328 29047 55097 58015;EQDQ01  00002PRCP99
0202829830999992002080312004-09380-040480FM-12+037099999V0200901N004619999999N0020001N1+02501+01821101871ADDAA199000091GF106991999021008001001001KA1240N+02321MA1999999097721MD1999999+0051REMSYN076AAXX  03124 82983 32595 60909 10250 20182 39772 40187 83200 333 20232 58005;EQDQ01+000032SCOTLCQ02  00002PRCP99
0167829830999992002080318004-09380-040480FM-12+037099999V0200901N003112200019N0020001N1+03141+01501101311ADDAA199000091GF104991041011008001001001MA1999999097191MD1999999-0051REMSYN070AAXX  03184 82983 32595 40906 10314 20150 39719 40131 84100 333 59005;EQDQ01  00002PRCP99
0186829830999992002080412004-09380-040480FM-12+037099999V0200901N004112200019N0020001N1+02361+01611101851ADDAA199000091GF102991021011008001001001KA1240N+02201MA1999999097681MD1999999-0041REMSYN076AAXX  04124 82983 32595 20908 10236 20161 39768 40185 82100 333 20220 59004;EQDQ01  00002PRCP99
0167829830999992002080418004-09380-040480FM-12+037099999V0200901N002612200019N0020001N1+03121+01001101251ADDAA199000091GF101991011011008001001001MA1999999097121MD1999999-0071REMSYN070AAXX  04184 82983 32595 10905 10312 20100 39712 40125 81100 333 59007;EQDQ01  00002PRCP99
0208829830999992002080500004-09380-040480FM-12+037099999V0200901N001512200019N0020001N1+02701+00941101481ADDAA199000091GA1001+999999999GF100991001001999999001001KA1240M+03201MA1999999097321MD1999999-0041REMSYN082AAXX  05004 82983 32995 00903 10270 20094 39732 40148 333 10320 29039 55094 59004;EQDQ01  00002PRCP99
0186829830999992002080512004-09380-040480FM-12+037099999V0200901N004112200019N0020001N1+02301+01581101771ADDAA199000091GF101991011011008001001001KA1240N+02001MA1999999097591MD1999999-0091REMSYN076AAXX  05124 82983 32595 10908 10230 20158 39759 40177 81100 333 20200 59009;EQDQ01  00002PRCP99
0177829830999992002080518004-09380-040480FM-12+037099999V0200901N003112200019N0020001N1+03081+01311101101ADDAA199000091GA1001+999999999GF100991001001999999001001MA1999999097001MD1999999-0081REMSYN064AAXX  05184 82983 32995 00906 10308 20131 39700 40110 333 59008;EQDQ01  00002PRCP99
0224829830999992002080600004-09380-040480FM-12+037099999V0200901N003112200019N0020001N1+02701+01301101431ADDAA199000091GA1001+999999999GF100991001001999999001001KA1240M+03161MA1999999999999MD1999999-0051REMSYN082AAXX  06004 82983 32995 00906 10270 20130 39227 40143 333 10316 29046 55101 59005;EQDQ01  00002PRCP99Q02 092273APOSP 
0186829830999992002080612004-09380-040480FM-12+037099999V0200901N003612200019N0020001N1+02331+01671101751ADDAA199000091GF103991031011008001001001KA1240N+02011MA1999999097571MD1999999-0021REMSYN076AAXX  06124 82983 32595 30907 10233 20167 39757 40175 83100 333 20201 59002;EQDQ01  00002PRCP99
0177829830999992002080618004-09380-040480FM-12+037099999V0200901N003112200019N0020001N1+03121+01161101211ADDAA199000091GA1001+999999999GF100991001001999999001001MA1999999097071MD1999999+0071REMSYN064AAXX  06184 82983 32995 00906 10312 20116 39707 40121 333 58007;EQDQ01  00002PRCP99
0208829830999992002080700004-09380-040480FM-12+037099999V0201401N003112200019N0020001N1+02741+01261101501ADDAA199000091GA1001+999999999GF100991001001999999001001KA1240M+03181MA1999999097341MD1999999+0071REMSYN082AAXX  07004 82983 32995 01406 10274 20126 39734 40150 333 10318 29044 55108 58007;EQDQ01  00002PRCP99
0186829830999992002080712004-09380-040480FM-12+037099999V0201401N004112200019N0020001N1+02361+01661101891ADDAA199000091GF103991031011008001001001KA1240N+01971MA1999999097711MD1999999+0141REMSYN076AAXX  07124 82983 32595 31408 10236 20166 39771 40189 83100 333 20197 58014;EQDQ01  00002PRCP99
0167829830999992002080718004-09380-040480FM-12+037099999V0200901N005110075019N0020001N1+03001+01571101361ADDAA199000091GF105991051011008001001001MA1999999097201MD1999999+0131REMSYN070AAXX  07184 82983 32595 50910 10300 20157 39720 40136 85100 333 58013;EQDQ01  00002PRCP99
0208829830999992002080800004-09380-040480FM-12+037099999V0201401N002612200019N0020001N1+02701+01631101581ADDAA199000091GA1001+999999999GF100991001001999999001001KA1240M+03081MA1999999097421MD1999999+0081REMSYN082AAXX  08004 82983 32995 01405 10270 20163 39742 40158 333 10308 29053 55109 58008;EQDQ01  00002PRCP99
0186829830999992002080812004-09380-040480FM-12+037099999V0201401N005110450019N0020001N1+02381+01531101861ADDAA199000091GF105991041011008001021001KA1240N+02011MA1999999097681MD1999999-0031REMSYN076AAXX  08124 82983 32595 51410 10238 20153 39768 40186 84120 333 20201 59003;EQDQ01  00002PRCP99
0167829830999992002080818004-09380-040480FM-12+037099999V0201401N005112200019N0020001N1+03081+01171101301ADDAA199000091GF104991011011008001001021MA1999999097151MD1999999-0051REMSYN070AAXX  08184 82983 32595 41410 10308 20117 39715 40130 81102 333 59005;EQDQ01  00002PRCP99
0208829830999992002080900004-09380-040480FM-12+037099999V0200901N003112200019N0020001N1+02641+01211101571ADDAA199000091GA1001+999999999GF100991001001999999001001KA1240M+03121MA1999999097401MD1999999-0021REMSYN082AAXX  09004 82983 32995 00906 10264 20121 39740 40157 333 10312 29043 55099 59002;EQDQ01  00002PRCP99
0137829830999992002080912004-09380-040480FM-12+037099999V0201401N005119999999N0020001N1+99999+99999999999ADDAA199000091GF107991999999008001999999KA1240N+01751REMSYN056AAXX  09124 82983 32595 71410 102 87200 333 20175 59006;EQDQ01  00002PRCP99
0167829830999992002080918004-09380-040480FM-12+037099999V0200901N003612200019N0020001N1+02981+01401101421ADDAA199000091GF104991041011008001001001MA1999999097251MD1999999+0101REMSYN070AAXX  09184 82983 32595 40907 10298 20140 39725 40142 84100 333 58010;EQDQ01  00002PRCP99
0208829830999992002081000004-09380-040480FM-12+037099999V0200901N003112200019N0020001N1+02641+01281101611ADDAA199000091GA1001+999999999GF100991001001999999001001KA1240M+03021MA1999999097431MD1999999+0031REMSYN082AAXX  10004 82983 32995 00906 10264 20128 39743 40161 333 10302 29048 55070 58003;EQDQ01  00002PRCP99
0186829830999992002081012004-09380-040480FM-12+037099999V0200901N003110075019N0020001N1+02441+01641101861ADDAA199000091GF107991071021008001001001KA1240N+02051MA1999999097681MD1999999+0041REMSYN076AAXX  10124 82983 32595 70906 10244 20164 39768 40186 87200 333 20205 58004;EQDQ01  00002PRCP99
0167829830999992002081018004-09380-040480FM-12+037099999V0200901N004612200019N0020001N1+02941+01511101391ADDAA199000091GF104991041011008001001001MA1999999097221MD1999999-0031REMSYN070AAXX  10184 82983 32595 40909 10294 20151 39722 40139 84100 333 59003;EQDQ01  00002PRCP99
0208829830999992002081100004-09380-040480FM-12+037099999V0201401N003112200019N0020001N1+02501+01501101551ADDAA199000091GA1001+999999999GF100991001001999999001001KA1240M+03001MA1999999097371MD1999999-0031REMSYN082AAXX  11004 82983 32995 01406 10250 20150 39737 40155 333 10300 29053 55097 59003;EQDQ01  00002PRCP99
0186829830999992002081112004-09380-040480FM-12+037099999V0201401N003110075019N0020001N1+02321+01601101961ADDAA199000091GF106991061021008001001001KA1240N+02021MA1999999097761MD1999999+0081REMSYN076AAXX  11124 82983 32595 61406 10232 20160 39776 40196 86200 333 20202 58008;EQDQ01  00002PRCP99
0177829830999992002081118004-09380-040480FM-12+037099999V0201401N003612200019N0020001N1+03121+01111101371ADDAA199000091GA1001+999999999GF100991001001999999001001MA1999999097211MD1999999-0011REMSYN064AAXX  11184 82983 32995 01407 10312 20111 39721 40137 333 59001;EQDQ01  00002PRCP99
0208829830999992002081200004-09380-040480FM-12+037099999V0200901N002612200019N0020001N1+02721+01241101651ADDAA199000091GA1001+999999999GF100991001001999999001001KA1240M+03201MA1999999097451MD1999999+0081REMSYN082AAXX  12004 82983 32995 00905 10272 20124 39745 40165 333 10320 29043 55103 58008;EQDQ01  00002PRCP99
0186829830999992002081212004-09380-040480FM-12+037099999V0200901N004610075019N0020001N1+02361+01611101921ADDAA199000091GF106991061011008001001001KA1240N+02011MA1999999097741MD1999999-0021REMSYN076AAXX  12124 82983 32595 60909 10236 20161 39774 40192 86100 333 20201 59002;EQDQ01  00002PRCP99
0167829830999992002081218004-09380-040480FM-12+037099999V0201401N003110075019N0020001N1+02981+01621101441ADDAA199000091GF106991061011008001001001MA1999999097281MD1999999+0071REMSYN070AAXX  12184 82983 32595 61406 10298 20162 39728 40144 86100 333 58007;EQDQ01  00002PRCP99
0198829830999992002081300004-09380-040480FM-12+037099999V0201401N004112200019N0020001N1+02741+01761101651ADDAA199000091GF104991041021008001001001KA1240M+03041MA1999999097481MD1999999+0031REMSYN088AAXX  13004 82983 32595 41408 10274 20176 39748 40165 84200 333 10304 29054 55109 58003;EQDQ01  00002PRCP99
0186829830999992002081312004-09380-040480FM-12+037099999V0200901N004610075019N0020001N1+02381+01631101901ADDAA199000091GF105991051011008001001001KA1240N+02111MA1999999097721MD1999999-0021REMSYN076AAXX  13124 82983 32595 50909 10238 20163 39772 40190 85100 333 20211 59002;EQDQ01  00002PRCP99
0167829830999992002081318004-09380-040480FM-12+037099999V0200901N005110075019N0020001N1+03141+01411101331ADDAA199000091GF106991061021008001001001MA1999999097191MD1999999-0091REMSYN070AAXX  13184 82983 32595 60910 10314 20141 39719 40133 86200 333 59009;EQDQ01  00002PRCP99
0208829830999992002081400004-09380-040480FM-12+037099999V0200901N003112200019N0020001N1+02801+01431101531ADDAA199000091GA1001+999999999GF100991001001999999001001KA1240M+03201MA1999999097371MD1999999-0111REMSYN082AAXX  14004 82983 32995 00906 10280 20143 39737 40153 333 10320 29046 55099 59011;EQDQ01  00002PRCP99
0167829830999992002081418004-09380-040480FM-12+037099999V0200501N003110075019N0020001N1+03041+01641101381ADDAA199000091GF105991051021008001001001MA1999999097241MD1999999+0051REMSYN070AAXX  14184 82983 32595 50506 10304 20164 39724 40138 85200 333 58005;EQDQ01  00002PRCP99
0198829830999992002081500004-09380-040480FM-12+037099999V0200501N005110075019N0020001N1+02501+01941101741ADDAA199000091GF108991081051008001999999KA1240M+03141MA1999999097561MD1999999+0191REMSYN088AAXX  15004 82983 32595 80510 10250 20194 39756 40174 885// 333 10314 29064 55069 58019;EQDQ01  00002PRCP99
0186829830999992002081512004-09380-040480FM-12+037099999V0200901N004110075019N0020001N1+02441+01641101981ADDAA199000091GF106991061021008001001001KA1240N+02171MA1999999097781MD1999999+0071REMSYN076AAXX  15124 82983 32595 60908 10244 20164 39778 40198 86200 333 20217 58007;EQDQ01  00002PRCP99
0167829830999992002081518004-09380-040480FM-12+037099999V0200901N004110075019N0020001N1+03181+01531101431ADDAA199000091GF106991061021008001001001MA1999999097291MD1999999+0051REMSYN070AAXX  15184 82983 32595 60908 10318 20153 39729 40143 86200 333 58005;EQDQ01  00002PRCP99
0198829830999992002081600004-09380-040480FM-12+037099999V0201401N003112200019N0020001N1+02701+01661101711ADDAA199000091GF103991031021008001001001KA1240M+03251MA1999999097541MD1999999-0021REMSYN088AAXX  16004 82983 32595 31406 10270 20166 39754 40171 83200 333 10325 29051 55094 59002;EQDQ01  00002PRCP99
0186829830999992002081612004-09380-040480FM-12+037099999V0201401N003110075019N0020001N1+02301+01851101981ADDAA199000091GF107991071021008001001001KA1240N+02111MA1999999097791MD1999999+0011REMSYN076AAXX  16124 82983 32595 71406 10230 20185 39779 40198 87200 333 20211 58001;EQDQ01  00002PRCP99
0167829830999992002081618004-09380-040480FM-12+037099999V0200901N005110075019N0020001N1+02941+01721101481ADDAA199000091GF108991081051008001999999MA1999999097321MD1999999+0031REMSYN070AAXX  16184 82983 32595 80910 10294 20172 39732 40148 885// 333 58003;EQDQ01  00002PRCP99
0198829830999992002081700004-09380-040480FM-12+037099999V0200901N003110075019N0020001N1+02481+01801101781ADDAA199000091GF106991061021008001001001KA1240M+03041MA1999999097591MD1999999+0051REMSYN088AAXX  17004 82983 32595 60906 10248 20180 39759 40178 86200 333 10304 29064 55035 58005;EQDQ01  00002PRCP99
0186829830999992002081712004-09380-040480FM-12+037099999V0201401N005110075019N0020001N1+02281+01661101931ADDAA199000091GF107991071021008001001001KA1240N+02001MA1999999097741MD1999999-0051REMSYN076AAXX  17124 82983 32595 71410 10228 20166 39774 40193 87200 333 20200 59005;EQDQ01  00002PRCP99
0167829830999992002081718004-09380-040480FM-12+037099999V0201401N005110075019N0020001N1+02961+01381101471ADDAA199000091GF105991051011008001001001MA1999999097311MD1999999-0011REMSYN070AAXX  17184 82983 32595 51410 10296 20138 39731 40147 85100 333 59001;EQDQ01  00002PRCP99
0186829830999992002081812004-09380-040480FM-12+037099999V0201401N004110075019N0020001N1+02321+01671101881ADDAA199000091GF105991051011008001001001KA1240N+02121MA1999999097691MD1999999-0051REMSYN076AAXX  18124 82983 32595 51408 10232 20167 39769 40188 85100 333 20212 59005;EQDQ01  00002PRCP99
0167829830999992002081818004-09380-040480FM-12+037099999V0201401N004110075019N0020001N1+02881+01641101401ADDAA199000091GF106991061011008001001001MA1999999097241MD1999999-0071REMSYN070AAXX  18184 82983 32595 61408 10288 20164 39724 40140 86100 333 59007;EQDQ01  00002PRCP99
0198829830999992002081900004-09380-040480FM-12+037099999V0201401N002610075019N0020001N1+02521+01211101571ADDAA199000091GF106991061041008001001001KA1240M+02961MA1999999097391MD1999999-0091REMSYN088AAXX  19004 82983 32595 61405 10252 20121 39739 40157 86400 333 10296 29049 55079 59009;EQDQ01  00002PRCP99
0186829830999992002081912004-09380-040480FM-12+037099999V0201401N004110075019N0020001N1+02161+01801101901ADDAA199000091GF106991061021008001001001KA1240N+02101MA1999999097701MD1999999+0011REMSYN076AAXX  19124 82983 32595 61408 10216 20180 39770 40190 86200 333 20210 58001;EQDQ01  00002PRCP99
0167829830999992002081918004-09380-040480FM-12+037099999V0201401N004110075019N0020001N1+02761+01701101511ADDAA199000091GF107991071021008001001001MA1999999097341MD1999999+0101REMSYN070AAXX  19184 82983 32595 71408 10276 20170 39734 40151 87200 333 58010;EQDQ01  00002PRCP99
0208829830999992002082000004-09380-040480FM-12+037099999V0200901N003112200019N0020001N1+02521+01551101671ADDAA199000091GA1001+999999999GF100991001001999999001001KA1240M+02881MA1999999097481MD1999999+0091REMSYN082AAXX  20004 82983 32995 00906 10252 20155 39748 40167 333 10288 29061 55066 58009;EQDQ01  00002PRCP99
0186829830999992002082012004-09380-040480FM-12+037099999V0201401N003110075019N0020001N1+02321+01671101901ADDAA199000091GF108991081051008001999999KA1240N+02001MA1999999097711MD1999999+0011REMSYN076AAXX  20124 82983 32595 81406 10232 20167 39771 40190 885// 333 20200 58001;EQDQ01  00002PRCP99
0167829830999992002082018004-09380-040480FM-12+037099999V0201401N005112200019N0020001N1+02921+01531101391ADDAA199000091GF104991041011008001001001MA1999999097221MD1999999-0121REMSYN070AAXX  20184 82983 32595 41410 10292 20153 39722 40139 84100 333 59012;EQDQ01  00002PRCP99
0198829830999992002082100004-09380-040480FM-12+037099999V0201401N004110075019N0020001N1+02441+01661101771ADDAA199000091GF107991071051008001001001KA1240M+03061MA1999999097581MD1999999+0101REMSYN088AAXX  21004 82983 32595 71408 10244 20166 39758 40177 87500 333 10306 29058 55078 58010;EQDQ01  00002PRCP99
0167829830999992002082118004-09380-040480FM-12+037099999V0201401N005110075019N0020001N1+02901+01401101511ADDAA199000091GF108991081051008001999999MA1999999097331MD1999999+0111REMSYN070AAXX  21184 82983 32595 81410 10290 20140 39733 40151 885// 333 58011;EQDQ01  00002PRCP99
0198829830999992002082200004-09380-040480FM-12+037099999V0200901N002612200019N0020001N1+02461+01711101831ADDAA199000091GF103991031021008001001001KA1240M+02981MA1999999097641MD1999999+0061REMSYN088AAXX  22004 82983 32595 30905 10246 20171 39764 40183 83200 333 10298 29058 55047 58006;EQDQ01  00002PRCP99
0186829830999992002082212004-09380-040480FM-12+037099999V0200901N004110075019N0020001N1+02301+01651101991ADDAA199000091GF106991061021008001001001KA1240N+01911MA1999999097791MD1999999-0011REMSYN076AAXX  22124 82983 32595 60908 10230 20165 39779 40199 86200 333 20191 59001;EQDQ01  00002PRCP99
0167829830999992002082218004-09380-040480FM-12+037099999V0201401N005110075019N0020001N1+02981+01791101411ADDAA199000091GF106991061021008001001001MA1999999097241MD1999999-0091REMSYN070AAXX  22184 82983 32595 61410 10298 20179 39724 40141 86200 333 59009;EQDQ01  00002PRCP99
0198829830999992002082300004-09380-040480FM-12+037099999V0201401N004110075019N0020001N1+02401+01731101721ADDAA199000091GF107991071021008001001001KA1240M+03021MA1999999097531MD1999999-0111REMSYN088AAXX  23004 82983 32595 71408 10240 20173 39753 40172 87200 333 10302 29062 55077 59011;EQDQ01  00002PRCP99
0186829830999992002082312004-09380-040480FM-12+037099999V0201401N003610075019N0020001N1+02201+01671101931ADDAA199000091GF108991081051008001999999KA1240N+02141MA1999999097721MD1999999-0071REMSYN076AAXX  23124 82983 32595 81407 10220 20167 39772 40193 885// 333 20214 59007;EQDQ01  00002PRCP99
0167829830999992002082318004-09380-040480FM-12+037099999V0201401N003110075019N0020001N1+02741+01541101411ADDAA199000091GF106991061021008001001001MA1999999097241MD1999999+0001REMSYN070AAXX  23184 82983 32595 61406 10274 20154 39724 40141 86200 333 58000;EQDQ01  00002PRCP99
0208829830999992002082400004-09380-040480FM-12+037099999V0201401N002612200019N0020001N1+02541+01331101571ADDAA199000091GA1001+999999999GF100991001001999999001001KA1240M+02921MA1999999097381MD1999999-0151REMSYN082AAXX  24004 82983 32995 01405 10254 20133 39738 40157 333 10292 29054 55041 59015;EQDQ01  00002PRCP99
0186829830999992002082412004-09380-040480FM-12+037099999V0201401N005110075019N0020001N1+02301+01581101871ADDAA199000091GF105991051021008001001001KA1240N+01901MA1999999097681MD1999999-0041REMSYN076AAXX  24124 82983 32595 51410 10230 20158 39768 40187 85200 333 20190 59004;EQDQ01  00002PRCP99
0167829830999992002082418004-09380-040480FM-12+037099999V0200901N004110075019N0020001N1+03001+01331101311ADDAA199000091GF106991061011008001001001MA1999999097151MD1999999-0091REMSYN070AAXX  24184 82983 32595 60908 10300 20133 39715 40131 86100 333 59009;EQDQ01  00002PRCP99
0198829830999992002082500004-09380-040480FM-12+037099999V0200901N003110075019N0020001N1+02501+01481101581ADDAA199000091GF105991051011008001001001KA1240M+03081MA1999999097401MD1999999+0021REMSYN088AAXX  25004 82983 32595 50906 10250 20148 39740 40158 85100 333 10308 29052 55109 58002;EQDQ01  00002PRCP99
0186829830999992002082512004-09380-040480FM-12+037099999V0201401N003610075019N0020001N1+02301+01581101831ADDAA199000091GF106991061021008001001001KA1240N+01981MA1999999097641MD1999999-0041REMSYN076AAXX  25124 82983 32595 61407 10230 20158 39764 40183 86200 333 20198 59004;EQDQ01  00002PRCP99
0183829830999992002082518004-09380-040480FM-12+037099999V0201401N003119999999N0020001N1+03601+01511101241ADDAA199000091GF105991999011008001001001MA1999999097101MD1999999-0051REMSYN070AAXX  25184 82983 32595 51406 10360 20151 39710 40124 82100 333 59005;EQDQ01+000022SCOTLCQ02  00002PRCP99
0198829830999992002082600004-09380-040480FM-12+037099999V0201401N004112200019N0020001N1+02521+01741101601ADDAA199000091GF101991011011008001001001KA1240M+03121MA1999999097421MD1999999+0021REMSYN088AAXX  26004 82983 32595 11408 10252 20174 39742 40160 81100 333 10312 29057 55106 58002;EQDQ01  00002PRCP99
0202829830999992002082612004-09380-040480FM-12+037099999V0201401N004119999999N0020001N1+02321+01601101861ADDAA199000091GF106991999011008001001001KA1240N+01921MA1999999097671MD1999999+0031REMSYN076AAXX  26124 82983 32595 61408 10232 20160 39767 40186 82100 333 20192 58003;EQDQ01+000022SCOTLCQ02  00002PRCP99
0167829830999992002082618004-09380-040480FM-12+037099999V0201401N003612200019N0020001N1+02941+01321101391ADDAA199000091GF106991021011008001001041MA1999999097211MD1999999+0111REMSYN070AAXX  26184 82983 32595 61407 10294 20132 39721 40139 82104 333 58011;EQDQ01  00002PRCP99
0208829830999992002082700004-09380-040480FM-12+037099999V0201401N002612200019N0020001N1+02601+01281101581ADDAA199000091GA1001+999999999GF100991001001999999001001KA1240M+03021MA1999999097401MD1999999-0021REMSYN082AAXX  27004 82983 32995 01405 10260 20128 39740 40158 333 10302 29047 55082 59002;EQDQ01  00002PRCP99
0186829830999992002082712004-09380-040480FM-12+037099999V0201401N004110075019N0020001N1+02341+01641101831ADDAA199000091GF107991071021008001001001KA1240N+02061MA1999999097641MD1999999-0031REMSYN076AAXX  27124 82983 32595 71408 10234 20164 39764 40183 87200 333 20206 59003;EQDQ01  00002PRCP99
0167829830999992002082718004-09380-040480FM-12+037099999V0201401N003112200019N0020001N1+03041+01321101281ADDAA199000091GF102991021011008001001001MA1999999097141MD1999999-0071REMSYN070AAXX  27184 82983 32595 21406 10304 20132 39714 40128 82100 333 59007;EQDQ01  00002PRCP99
0198829830999992002082800004-09380-040480FM-12+037099999V0201401N003112200019N0020001N1+02741+01341101451ADDAA199000091GF104991041021008001001001KA1240M+03121MA1999999097291MD1999999-0111REMSYN088AAXX  28004 82983 32595 41406 10274 20134 39729 40145 84200 333 10312 29046 55094 59011;EQDQ01  00002PRCP99
0186829830999992002082812004-09380-040480FM-12+037099999V0201401N004110075019N0020001N1+02401+01551101711ADDAA199000091GF106991061021008001001001KA1240N+02041MA1999999097541MD1999999-0101REMSYN076AAXX  28124 82983 32595 61408 10240 20155 39754 40171 86200 333 20204 59010;EQDQ01  00002PRCP99
0177829830999992002082818004-09380-040480FM-12+037099999V0201401N005112200019N0020001N1+03161+01431101091ADDAA199000091GA1001+999999999GF100991001001999999001001MA1999999096951MD1999999-0191REMSYN064AAXX  28184 82983 32995 01410 10316 20143 39695 40109 333 59019;EQDQ01  00002PRCP99
0198829830999992002082900004-09380-040480FM-12+037099999V0201401N003112200019N0020001N1+02741+01341101451ADDAA199000091GF104991041021008001001001KA1240M+03121MA1999999097291MD1999999-0111REMSYN088AAXX  29004 82983 32595 41406 10274 20134 39729 40145 84200 333 10312 29046 55094 59011;EQDQ01  00002PRCP99
0186829830999992002082912004-09380-040480FM-12+037099999V0201401N004110075019N0020001N1+02321+01601101571ADDAA199000091GF108991081051008001999999KA1240N+02141MA1999999097401MD1999999-0141REMSYN076AAXX  29124 82983 32595 81408 10232 20160 39740 40157 885// 333 20214 59014;EQDQ01  00002PRCP99
0177829830999992002082918004-09380-040480FM-12+037099999V0201401N004112200019N0020001N1+03141+01321100971ADDAA106000091GA1001+999999999GF100991001001999999001001MA1999999096851MD1999999-0101REMSYN064AAXX  29184 82983 32595 01408 10314 20132 39685 40097 333 59010;EQDQ01  00002PRCP06
0208829830999992002083000004-09380-040480FM-12+037099999V0200901N003112200019N0020001N1+02661+01471101251ADDAA106000091GA1001+999999999GF100991001001999999001001KA1240M+03181MA1999999097101MD1999999-0021REMSYN082AAXX  30004 82983 32995 00906 10266 20147 39710 40125 333 10318 29048 55080 59002;EQDQ01  00002PRCP06
0186829830999992002083012004-09380-040480FM-12+037099999V0200901N005110450019N0020001N1+02361+01611101581ADDAA106000091GF105991021011008001021001KA1240N+02021MA1999999097411MD1999999+0011REMSYN076AAXX  30124 82983 32595 50910 10236 20161 39741 40158 82120 333 20202 58001;EQDQ01  00002PRCP06
0167829830999992002083018004-09380-040480FM-12+037099999V0201401N005119999999N0020001N1+03181+01311100941ADDAA106000091GF105991021001008001041011MA1999999096821MD1999999-0031REMSYN070AAXX  30184 82983 32595 51410 10318 20131 39682 40094 82041 333 59003;EQDQ01  00002PRCP06
0186829830999992002083112004-09380-040480FM-12+037099999V0200901N005110075019N0020001N1+02501+01641101621ADDAA106000091GF106991061021008001001001KA1240N+02241MA1999999097461MD1999999+0051REMSYN076AAXX  31124 82983 32595 60910 10250 20164 39746 40162 86200 333 20224 58005;EQDQ01  00002PRCP06
0167829830999992002083118004-09380-040480FM-12+037099999V0200901N003112200019N0020001N1+03121+01481101161ADDAA106000091GF102991021011008001001001MA1999999096941MD1999999+0121REMSYN070AAXX  31184 82983 32595 20906 10312 20148 39694 40116 82100 333 58012;EQDQ01  00002PRCP06
0186829830999992002090112004-09380-040480FM-12+037099999V0201401N004110075019N0020001N1+02401+01821101451ADDAA106000091GF106991061021008001001001KA1240N+02181MA1999999097311MD1999999-0151REMSYN076AAXX  01124 82983 32595 61408 10240 20182 39731 40145 86200 333 20218 59015;EQDQ01  00002PRCP06
0177829830999992002090118004-09380-040480FM-12+037099999V0201401N002112200019N0020001N1+03221+01571100771ADDAA106000091GA1001+999999999GF100991001001999999001001MA1999999096671MD1999999-0271REMSYN064AAXX  01184 82983 32995 01404 10322 20157 39667 40077 333 59027;EQDQ01  00002PRCP06
0208829830999992002090200004-09380-040480FM-12+037099999V0209999C000012200019N0020001N1+02801+01501101021ADDAA106000091GA1001+999999999GF100991001001999999001001KA1240M+03361MA1999999096891MD1999999-0231REMSYN082AAXX  02004 82983 32995 00000 10280 20150 39689 40102 333 10336 29049 55091 59023;EQDQ01  00002PRCP06
0196829830999992002090212004-09380-040480FM-12+037099999V0200901N003112200019N0020001N1+02661+01871101281ADDAA106000091GA1001+999999999GF100991001001999999001001KA1240N+02261MA1999999097161MD1999999-0151REMSYN070AAXX  02124 82983 32995 00906 10266 20187 39716 40128 333 20226 59015;EQDQ01  00002PRCP06
0167829830999992002090218004-09380-040480FM-12+037099999V0202701N002612200019N0020001N1+03641+01441100641ADDAA106000091GF103991031011008001001001MA1999999096571MD1999999-0101REMSYN070AAXX  02184 82983 32595 32705 10364 20144 39657 40064 83100 333 59010;EQDQ01  00002PRCP06
0198829830999992002090300004-09380-040480FM-12+037099999V0209999C000012200019N0020001N1+03061+01471100881ADDAA106000091GF102991021011008001001001KA1240M+03721MA1999999096791MD1999999-0101REMSYN088AAXX  03004 82983 32595 20000 10306 20147 39679 40088 82100 333 10372 29041 55110 59010;EQDQ01  00002PRCP06
0186829830999992002090312004-09380-040480FM-12+037099999V0200901N003112200019N0020001N1+02841+01881101411ADDAA106000091GF101991011011008001001001KA1240N+02481MA1999999097311MD1999999+0151REMSYN076AAXX  03124 82983 32595 10906 10284 20188 39731 40141 81100 333 20248 58015;EQDQ01  00002PRCP06
0167829830999992002090318004-09380-040480FM-12+037099999V0200901N002612200019N0020001N1+03541+01671100921ADDAA106000091GF104991041011008001001001MA1999999096861MD1999999+0291REMSYN070AAXX  03184 82983 32595 40905 10354 20167 39686 40092 84100 333 58029;EQDQ01  00002PRCP06
0198829830999992002090400004-09380-040480FM-12+037099999V0201801N004112200019N0020001N1+03001+01881101361ADDAA106000091GF102991021011008001001001KA1240M+03621MA1999999097251MD1999999+0461REMSYN088AAXX  04004 82983 32595 21808 10300 20188 39725 40136 82100 333 10362 29048 55109 58046;EQDQ01  00002PRCP06
0186829830999992002090412004-09380-040480FM-12+037099999V0201401N003110075019N0020001N1+02561+01731101691ADDAA106000091GF106991061021008001001001KA1240N+02401MA1999999097571MD1999999+0261REMSYN076AAXX  04124 82983 32595 61406 10256 20173 39757 40169 86200 333 20240 58026;EQDQ01  00002PRCP06
0167829830999992002090418004-09380-040480FM-12+037099999V0201401N003112200019N0020001N1+03261+01471101121ADDAA106000091GF102991021011008001001001MA1999999097021MD1999999+0161REMSYN070AAXX  04184 82983 32595 21406 10326 20147 39702 40112 82100 333 58016;EQDQ01  00002PRCP06
0208829830999992002090500004-09380-040480FM-12+037099999V0200901N003112200019N0020001N1+02761+01661101501ADDAA106000091GA1001+999999999GF100991001001999999001001KA1240M+03361MA1999999097351MD1999999+0101REMSYN082AAXX  05004 82983 32995 00906 10276 20166 39735 40150 333 10336 29049 55093 58010;EQDQ01  00002PRCP06
0186829830999992002090512004-09380-040480FM-12+037099999V0200901N004110075019N0020001N1+02401+01701101791ADDAA106000091GF107991071021008001001001KA1240N+02181MA1999999097621MD1999999+0051REMSYN076AAXX  05124 82983 32595 70908 10240 20170 39762 40179 87200 333 20218 58005;EQDQ01  00002PRCP06
0208829830999992002090600004-09380-040480FM-12+037099999V0200901N003112200019N0020001N1+02841+01431101381ADDAA106000091GA1001+999999999GF100991001001999999001001KA1240M+03301MA1999999097231MD1999999-0121REMSYN082AAXX  06004 82983 32995 00906 10284 20143 39723 40138 333 10330 29046 55092 59012;EQDQ01  00002PRCP06
0186829830999992002090612004-09380-040480FM-12+037099999V0200901N005110075019N0020001N1+02501+01621101821ADDAA106000091GF106991061021008001001001KA1240N+02201MA1999999097661MD1999999+0041REMSYN076AAXX  06124 82983 32595 60910 10250 20162 39766 40182 86200 333 20220 58004;EQDQ01  00002PRCP06
0167829830999992002090618004-09380-040480FM-12+037099999V0200501N005110075019N0020001N1+03361+01311101141ADDAA106000091GF105991051021008001001001MA1999999097041MD1999999+0041REMSYN070AAXX  06184 82983 32595 50510 10336 20131 39704 40114 85200 333 58004;EQDQ01  00002PRCP06
0198829830999992002090700004-09380-040480FM-12+037099999V0200901N002612200019N0020001N1+02901+01401101351ADDAA106000091GF102991021011008001001001KA1240M+03401MA1999999097211MD1999999-0021REMSYN088AAXX  07004 82983 32595 20905 10290 20140 39721 40135 82100 333 10340 29042 55095 59002;EQDQ01  00002PRCP06
0186829830999992002090712004-09380-040480FM-12+037099999V0201401N004112200019N0020001N1+02401+01651101721ADDAA106000091GF104991041011008001001001KA1240N+01981MA1999999097561MD1999999-0101REMSYN076AAXX  07124 82983 32595 41408 10240 20165 39756 40172 84100 333 20198 59010;EQDQ01  00002PRCP06
0167829830999992002090718004-09380-040480FM-12+037099999V0200901N003112200019N0020001N1+03381+01431101111ADDAA106000091GF103991031011008001001001MA1999999097011MD1999999-0031REMSYN070AAXX  07184 82983 32595 30906 10338 20143 39701 40111 83100 333 59003;EQDQ01  00002PRCP06
0198829830999992002090800004-09380-040480FM-12+037099999V0201401N003112200019N0020001N1+03001+01371101291ADDAA106000091GF102991021011008001001001KA1240M+03461MA1999999097151MD1999999-0061REMSYN088AAXX  08004 82983 32595 21406 10300 20137 39715 40129 82100 333 10346 29042 55093 59006;EQDQ01  00002PRCP06
0186829830999992002090812004-09380-040480FM-12+037099999V0201401N004110075019N0020001N1+02441+01691101671ADDAA106000091GF105991051021008001001001KA1240N+02181MA1999999097531MD1999999-0031REMSYN076AAXX  08124 82983 32595 51408 10244 20169 39753 40167 85200 333 20218 59003;EQDQ01  00002PRCP06
0167829830999992002090818004-09380-040480FM-12+037099999V0201401N003110075019N0020001N1+03181+01491101191ADDAA106000091GF105991051011008001001001MA1999999097061MD1999999+0051REMSYN070AAXX  08184 82983 32595 51406 10318 20149 39706 40119 85100 333 58005;EQDQ01  00002PRCP06
0208829830999992002090900004-09380-040480FM-12+037099999V0201801N003112200019N0020001N1+02901+01201101421ADDAA106000091GA1001+999999999GF100991001001999999001001KA1240M+03261MA1999999097281MD1999999+0131REMSYN082AAXX  09004 82983 32995 01806 10290 20120 39728 40142 333 10326 29042 55101 58013;EQDQ01  00002PRCP06
0186829830999992002090912004-09380-040480FM-12+037099999V0201401N004110075019N0020001N1+02441+01641101821ADDAA106000091GF106991061021008001001001KA1240N+02161MA1999999097661MD1999999+0161REMSYN076AAXX  09124 82983 32595 61408 10244 20164 39766 40182 86200 333 20216 58016;EQDQ01  00002PRCP06
0167829830999992002090918004-09380-040480FM-12+037099999V0201401N004110075019N0020001N1+03161+01381101301ADDAA106000091GF106991061021008001001001MA1999999097161MD1999999+0101REMSYN070AAXX  09184 82983 32595 61408 10316 20138 39716 40130 86200 333 58010;EQDQ01  00002PRCP06
0198829830999992002091000004-09380-040480FM-12+037099999V0201401N005112200019N0020001N1+02481+01851101601ADDAA106000091GF102991021011008001001001KA1240M+03241MA1999999097421MD1999999+0141REMSYN088AAXX  10004 82983 32595 21410 10248 20185 39742 40160 82100 333 10324 29058 55099 58014;EQDQ01  00002PRCP06
0209829830999992002091012004-09380-040480FM-12+037099999V0200901N004110075019N0020001N1+02161+01781101891ADDAY121061AY221061GF107991999001008001021001KA1240N+02091MA1999999097681MD1999999+0021MW1501REMSYN088AAXX  10124 82983 21595 70908 10216 20178 39768 40189 75022 86020 333 20209 58002 69994;EQDQ01+000062SCOTLC
0148829830999992002091018004-09380-040480FM-12+037099999V0201401N005110075019N0020001N1+02861+01651101391ADDAA106000021GF106991061021008001001001MA1999999097221MD1999999+0061REMSYN070AAXX  10184 82983 32595 61410 10286 20165 39722 40139 86200 333 58006;
0198829830999992002091100004-09380-040480FM-12+037099999V0200901N004112200019N0020001N1+02381+01781101711ADDAA106000091GF103991031021008001001001KA1240M+02931MA1999999097501MD1999999+0081REMSYN088AAXX  11004 82983 32595 30908 10238 20178 39750 40171 83200 333 10293 29066 55060 58008;EQDQ01  00002PRCP06
0186829830999992002091112004-09380-040480FM-12+037099999V0201401N004110075019N0020001N1+02241+01691101871ADDAA106000091GF108991081051008001999999KA1240N+02021MA1999999097661MD1999999-0021REMSYN076AAXX  11124 82983 32595 81408 10224 20169 39766 40187 885// 333 20202 59002;EQDQ01  00002PRCP06
0171829830999992002091118004-09380-040480FM-12+037099999V0200901N005110075019N0020001N1+02621+01701101521ADDAY151061AY221061GF108991081051008001999999MA1999999097331MD1999999+0111MW1501REMSYN082AAXX  11184 82983 21595 80910 10262 20170 39733 40152 75052 885// 333 58011 69991;
0179829830999992002091200004-09380-040480FM-12+037099999V0201401N002612200019N0020001N1+02481+01621101551ADDAA106000021GF102991021021008001001001KA1240M+02801MA1999999097361MD1999999-0141REMSYN088AAXX  12004 82983 32595 21405 10248 20162 39736 40155 82200 333 10280 29062 55029 59014;
0162829830999992002091212004-09380-040480FM-12+037099999V0201401N003110075019N0020001N1+02361+01591101741ADDGF105991051011008001001001KA1240N+02001MA1999999097551MD1999999-0111REMSYN082AAXX  12124 82983 22595 51406 10236 20159 39755 40174 85100 333 20200 59011 69904;
0167829830999992002091218004-09380-040480FM-12+037099999V0200901N005112200019N0020001N1+03121+01441101131ADDAA106000091GF102991011011008001001011MA1999999096991MD1999999-0341REMSYN070AAXX  12184 82983 32595 20910 10312 20144 39699 40113 81101 333 59034;EQDQ01  00002PRCP06
0208829830999992002091300004-09380-040480FM-12+037099999V0201401N003112200019N0020001N1+02701+01301101381ADDAA106000091GA1001+999999999GF100991001001999999001001KA1240M+03201MA1999999097221MD1999999-0141REMSYN082AAXX  13004 82983 32995 01406 10270 20130 39722 40138 333 10320 29046 55097 59014;EQDQ01  00002PRCP06
0186829830999992002091312004-09380-040480FM-12+037099999V0200901N004110075019N0020001N1+02341+01521101601ADDAA106000091GF106991061021008001001001KA1240N+02061MA1999999097431MD1999999-0121REMSYN076AAXX  13124 82983 32595 60908 10234 20152 39743 40160 86200 333 20206 59012;EQDQ01  00002PRCP06
0167829830999992002091318004-09380-040480FM-12+037099999V0200901N003112200019N0020001N1+03201+01281100961ADDAA106000091GF102991021011008001001001MA1999999096831MD1999999-0161REMSYN070AAXX  13184 82983 32595 20906 10320 20128 39683 40096 82100 333 59016;EQDQ01  00002PRCP06
0208829830999992002091400004-09380-040480FM-12+037099999V0201401N002112200019N0020001N1+02861+01291101181ADDAA106000091GA1001+999999999GF100991001001999999001001KA1240M+03261MA1999999097041MD1999999-0181REMSYN082AAXX  14004 82983 32995 01404 10286 20129 39704 40118 333 10326 29042 55104 59018;EQDQ01  00002PRCP06
0196829830999992002091412004-09380-040480FM-12+037099999V0200901N005112200019N0020001N1+02461+01631101561ADDAA106000091GA1001+999999999GF100991001001999999001001KA1240N+02251MA1999999097741MD1999999-0021REMSYN070AAXX  14124 82983 32995 00910 10246 20163 39774 40156 333 20225 59002;EQDQ01  00002PRCP06
0193829830999992002091418004-09380-040480FM-12+037099999V0200901N002612200019N0020001N1+03381+01481100951ADDAA106000091GA1001+999999999GF100991001001999999001001MA1999999096862MD1999999+0031REMSYN064AAXX  14184 82983 32995 00905 10338 20148 39686 40095 333 58003;EQDQ01+096863APOSP Q02  00002PRCP06
0208829830999992002091500004-09380-040480FM-12+037099999V0201401N003112200019N0020001N1+02981+01311101161ADDAA106000091GA1001+999999999GF100991001001999999001001KA1240M+03461MA1999999097031MD1999999-0011REMSYN082AAXX  15004 82983 32995 01406 10298 20131 39703 40116 333 10346 29041 55112 59001;EQDQ01  00002PRCP06
0202829830999992002091512004-09380-040480FM-12+037099999V0201401N005712200019N0200001N1+02141+01461101631ADDAA106000091GF101991011011017501001001KA1240N+01571MA1999999999999MD1999999+0061REMSYN076AAXX  15124 82983 32798 11411 10214 20146 39254 40163 81100 333 20157 58006;EQDQ01  00002PRCP06Q02 092543APOSP 
0193829830999992002091518004-09380-040480FM-12+037099999V0200901N003112200019N0020001N1+03491+01201100931ADDAA106000091GA1001+999999999GF100991001001999999001001MA1999999096842MD1999999+0041REMSYN064AAXX  15184 82983 32995 00906 10349 20120 39684 40093 333 58004;EQDQ01+096843APOSP Q02  00002PRCP06
0208829830999992002091600004-09380-040480FM-12+037099999V0201401N003112200019N0020001N1+03101+01241101241ADDAA106000091GA1001+999999999GF100991001001999999001001KA1240M+03581MA1999999097141MD1999999+0111REMSYN082AAXX  16004 82983 32995 01406 10310 20124 39714 40124 333 10358 29037 55111 58011;EQDQ01  00002PRCP06
0186829830999992002091612004-09380-040480FM-12+037099999V0201401N005112200019N0020001N1+02501+01501101811ADDAA106000091GF103991031011008001001001KA1240N+02151MA1999999097691MD1999999+0331REMSYN076AAXX  16124 82983 32595 31410 10250 20150 39769 40181 83100 333 20215 58033;EQDQ01  00002PRCP06
0167829830999992002091618004-09380-040480FM-12+037099999V0200901N004112200019N0020001N1+03221+01031101261ADDAA106000091GF101991011011008001001001MA1999999097141MD1999999+0301REMSYN070AAXX  16184 82983 32595 10908 10322 20103 39714 40126 81100 333 58030;EQDQ01  00002PRCP06
0208829830999992002091700004-09380-040480FM-12+037099999V0201401N004112200019N0020001N1+02861+01291101521ADDAA106000091GA1001+999999999GF100991001001999999001001KA1240M+03321MA1999999097381MD1999999+0241REMSYN082AAXX  17004 82983 32995 01408 10286 20129 39738 40152 333 10332 29039 55111 58024;EQDQ01  00002PRCP06
0186829830999992002091712004-09380-040480FM-12+037099999V0201401N005110075019N0020001N1+02361+01661101891ADDAA199000091GF107991071051008001001001KA1240N+02181MA1999999097721MD1999999+0031REMSYN076AAXX  17124 82983 32595 71410 10236 20166 39772 40189 87500 333 20218 58003;EQDQ01  00002PRCP99
0167829830999992002091718004-09380-040480FM-12+037099999V0201401N003112200019N0020001N1+03241+01261101291ADDAA106000091GF104991041011008001001001MA1999999097151MD1999999+0011REMSYN070AAXX  17184 82983 32595 41406 10324 20126 39715 40129 84100 333 58001;EQDQ01  00002PRCP06
0208829830999992002091800004-09380-040480FM-12+037099999V0201401N004112200019N0020001N1+02841+01231101471ADDAA106000091GA1001+999999999GF100991001001999999001001KA1240M+03261MA1999999097321MD1999999-0061REMSYN082AAXX  18004 82983 32995 01408 10284 20123 39732 40147 333 10326 29042 55083 59006;EQDQ01  00002PRCP06
0186829830999992002091812004-09380-040480FM-12+037099999V0201401N005110075019N0020001N1+02461+01711101721ADDAA106000091GF107991071051008001001001KA1240N+02201MA1999999097561MD1999999-0161REMSYN076AAXX  18124 82983 32595 71410 10246 20171 39756 40172 87500 333 20220 59016;EQDQ01  00002PRCP06
0167829830999992002091818004-09380-040480FM-12+037099999V0201401N004110075019N0020001N1+03161+01341101041ADDAA106000091GF106991061011008001001001MA1999999096921MD1999999-0231REMSYN070AAXX  18184 82983 32595 61408 10316 20134 39692 40104 86100 333 59023;EQDQ01  00002PRCP06
0208829830999992002091900004-09380-040480FM-12+037099999V0201401N004112200019N0020001N1+02761+01321101371ADDAA106000091GA1001+999999999GF100991001001999999001001KA1240M+03221MA1999999097221MD1999999-0101REMSYN082AAXX  19004 82983 32995 01408 10276 20132 39722 40137 333 10322 29044 55085 59010;EQDQ01  00002PRCP06
0196829830999992002091912004-09380-040480FM-12+037099999V0201401N005112200019N0020001N1+02581+01401101711ADDAA106000091GA1001+999999999GF100991001001999999001001KA1240N+02021MA1999999097551MD1999999-0011REMSYN070AAXX  19124 82983 32995 01410 10258 20140 39755 40171 333 20202 59001;EQDQ01  00002PRCP06
0167829830999992002091918004-09380-040480FM-12+037099999V0200901N004112200019N0020001N1+03241+00801101021ADDAA106000091GF102991021011008001001001MA1999999096891MD1999999-0031REMSYN070AAXX  19184 82983 32595 20908 10324 20080 39689 40102 82100 333 59003;EQDQ01  00002PRCP06
0208829830999992002092000004-09380-040480FM-12+037099999V0201401N003612200019N0020001N1+02841+01391101371ADDAA106000091GA1001+999999999GF100991001001999999001001KA1240M+03321MA1999999097231MD1999999+0011REMSYN082AAXX  20004 82983 32995 01407 10284 20139 39723 40137 333 10332 29038 55114 58001;EQDQ01  00002PRCP06
0186829830999992002092012004-09380-040480FM-12+037099999V0201401N004110075019N0020001N1+02481+01651101731ADDAA106000091GF106991061011008001001001KA1240N+02181MA1999999097571MD1999999+0021REMSYN076AAXX  20124 82983 32595 61408 10248 20165 39757 40173 86100 333 20218 58002;EQDQ01  00002PRCP06
0167829830999992002092018004-09380-040480FM-12+037099999V0200901N002612200019N0020001N1+03241+01161101021ADDAA106000091GF103991031011008001001001MA1999999096911MD1999999+0021REMSYN070AAXX  20184 82983 32595 30905 10324 20116 39691 40102 83100 333 58002;EQDQ01  00002PRCP06
0208829830999992002092100004-09380-040480FM-12+037099999V0201401N005112200019N0020001N1+02781+01881101331ADDAA106000091GA1001+999999999GF100991001001999999001001KA1240M+03341MA1999999097191MD1999999-0041REMSYN082AAXX  21004 82983 32995 01410 10278 20188 39719 40133 333 10334 29048 55101 59004;EQDQ01  00002PRCP06
0186829830999992002092112004-09380-040480FM-12+037099999V0200901N003112200019N0020001N1+02441+01691101561ADDAA106000091GF105991041011008001001011KA1240N+02181MA1999999097401MD1999999-0171REMSYN076AAXX  21124 82983 32595 50906 10244 20169 39740 40156 84101 333 20218 59017;EQDQ01  00002PRCP06
0167829830999992002092118004-09380-040480FM-12+037099999V0201401N002612200019N0020001N1+03421+01361100791ADDAA106000091GF102991021011008001001011MA1999999096711MD1999999-0201REMSYN070AAXX  21184 82983 32595 21405 10342 20136 39671 40079 82101 333 59020;EQDQ01  00002PRCP06
0198829830999992002092200004-09380-040480FM-12+037099999V0201401N001512200019N0020001N1+02961+01251101091ADDAA106000091GF103991031011008001001001KA1240M+03521MA1999999096961MD1999999-0231REMSYN088AAXX  22004 82983 32595 31403 10296 20125 39696 40109 83100 333 10352 29040 55110 59023;EQDQ01  00002PRCP06
0186829830999992002092212004-09380-040480FM-12+037099999V0200901N003112200019N0020001N1+02721+01851101381ADDAA106000091GF104991041011008001001001KA1240N+02311MA1999999097261MD1999999-0141REMSYN076AAXX  22124 82983 32595 40906 10272 20185 39726 40138 84100 333 20231 59014;EQDQ01  00002PRCP06
0167829830999992002092218004-09380-040480FM-12+037099999V0201801N001512200019N0020001N1+03441+01631100791ADDAA106000091GF103991031011008001001001MA1999999096721MD1999999+0011REMSYN070AAXX  22184 82983 32595 31803 10344 20163 39672 40079 83100 333 58001;EQDQ01  00002PRCP06
0208829830999992002092300004-09380-040480FM-12+037099999V0201401N002612200019N0020001N1+03101+01421100951ADDAA106000091GA1001+999999999GF100991001001999999001001KA1240M+03581MA1999999096861MD1999999-0101REMSYN082AAXX  23004 82983 32995 01405 10310 20142 39686 40095 333 10358 29041 55106 59010;EQDQ01  00002PRCP06
0186829830999992002092312004-09380-040480FM-12+037099999V0200901N003112200019N0020001N1+02681+01861101321ADDAA106000091GF102991021011008001001001KA1240N+02351MA1999999097211MD1999999-0051REMSYN076AAXX  23124 82983 32595 20906 10268 20186 39721 40132 82100 333 20235 59005;EQDQ01  00002PRCP06
0167829830999992002092318004-09380-040480FM-12+037099999V0201401N003112200019N0020001N1+03401+01641100791ADDAA106000091GF103991031011008001001001MA1999999096731MD1999999+0011REMSYN070AAXX  23184 82983 32595 31406 10340 20164 39673 40079 83100 333 58001;EQDQ01  00002PRCP06
0198829830999992002092400004-09380-040480FM-12+037099999V0201401N004112200019N0020001N1+03081+01601100961ADDAA106000091GF103991031011008001001001KA1240M+03501MA1999999096871MD1999999+0011REMSYN088AAXX  24004 82983 32595 31408 10308 20160 39687 40096 83100 333 10350 29044 55101 58001;EQDQ01  00002PRCP06
0186829830999992002092412004-09380-040480FM-12+037099999V0200901N005110075019N0020001N1+02701+01831101231ADDAA106000091GF106991061021008001001001KA1240N+02291MA1999999097131MD1999999-0081REMSYN076AAXX  24124 82983 32595 60910 10270 20183 39713 40123 86200 333 20229 59008;EQDQ01  00002PRCP06
0167829830999992002092418004-09380-040480FM-12+037099999V0200901N001510075019N0020001N1+03381+01661100691ADDAA106000091GF106991061021008001001001MA1999999096611MD1999999-0121REMSYN070AAXX  24184 82983 32595 60903 10338 20166 39661 40069 86200 333 59012;EQDQ01  00002PRCP06
0208829830999992002092500004-09380-040480FM-12+037099999V0200901N001512200019N0020001N1+03061+01511100821ADDAA106000091GA1001+999999999GF100991001001999999001001KA1240M+03471MA1999999096741MD1999999-0131REMSYN082AAXX  25004 82983 32995 00903 10306 20151 39674 40082 333 10347 29043 55094 59013;EQDQ01  00002PRCP06
0186829830999992002092512004-09380-040480FM-12+037099999V0203601N003112200019N0020001N1+02841+01631101231ADDAA106000091GF104991021021008001021001KA1240N+02551MA1999999097141MD1999999+0011REMSYN076AAXX  25124 82983 32595 43606 10284 20163 39714 40123 82220 333 20255 58001;EQDQ01  00002PRCP06
0167829830999992002092518004-09380-040480FM-12+037099999V0201801N001510075019N0020001N1+03441+01481100721ADDAA106000091GF106991061021008001001001MA1999999096661MD1999999+0051REMSYN070AAXX  25184 82983 32595 61803 10344 20148 39666 40072 86200 333 58005;EQDQ01  00002PRCP06
0198829830999992002092600004-09380-040480FM-12+037099999V0201401N001512200019N0020001N1+03001+01711100891ADDAA106000091GF102991021011008001001001KA1240M+03551MA1999999096801MD1999999+0061REMSYN088AAXX  26004 82983 32595 21403 10300 20171 39680 40089 82100 333 10355 29043 55091 58006;EQDQ01  00002PRCP06
0186829830999992002092612004-09380-040480FM-12+037099999V0200901N003112200019N0020001N1+02861+01841101251ADDAA106000091GF102991021011008001001001KA1240N+02521MA1999999097151MD1999999+0011REMSYN076AAXX  26124 82983 32595 20906 10286 20184 39715 40125 82100 333 20252 58001;EQDQ01  00002PRCP06
0167829830999992002092618004-09380-040480FM-12+037099999V0200901N002610450019N0020001N1+03501+01531100771ADDAA106000091GF106991041021008001021001MA1999999096711MD1999999+0051REMSYN070AAXX  26184 82983 32595 60905 10350 20153 39671 40077 84220 333 58005;EQDQ01  00002PRCP06
0190829830999992002092712004-09380-040480FM-12+037099999V0201401N003110075019N0020001N1+02401+02091101611ADDAY121061AY261061GF107991071021008001001001KA1240N+02181MA1999999097451MD1999999+0301MW1031REMSYN088AAXX  27124 82983 21595 71406 10240 20209 39745 40161 70326 87200 333 20218 58030 69984;
0167829830999992002092718004-09380-040480FM-12+037099999V0201401N003110075019N0020001N1+02921+01861101241ADDAA106000091GF106991061021008001001001MA1999999097101MD1999999+0391REMSYN070AAXX  27184 82983 32595 61406 10292 20186 39710 40124 86200 333 58039;EQDQ01  00002PRCP06
0208829830999992002092800004-09380-040480FM-12+037099999V0201401N003112200019N0020001N1+02641+01901101521ADDAA106000091GA1001+999999999GF100991001001999999001001KA1240M+02991MA1999999097351MD1999999+0221REMSYN082AAXX  28004 82983 32995 01406 10264 20190 39735 40152 333 10299 29066 55041 58022;EQDQ01  00002PRCP06
0190829830999992002092812004-09380-040480FM-12+037099999V0201401N003110075019N0020001N1+02421+01911101631ADDAY121061AY261061GF108991051051008001999999KA1240N+02121MA1999999097461MD1999999+0011MW1031REMSYN088AAXX  28124 82983 21595 81406 10242 20191 39746 40163 70326 855// 333 20212 58001 60014;
0167829830999992002092818004-09380-040480FM-12+037099999V0201401N004110075019N0020001N1+03061+01771101201ADDAA106000091GF106991061011008001001001MA1999999097071MD1999999-0031REMSYN070AAXX  28184 82983 32595 61408 10306 20177 39707 40120 86100 333 59003;EQDQ01  00002PRCP06
0208829830999992002092900004-09380-040480FM-12+037099999V0201401N003112200019N0020001N1+02741+01781101451ADDAA106000091GA1001+999999999GF100991001001999999001001KA1240M+03161MA1999999097301MD1999999-0051REMSYN082AAXX  29004 82983 32995 01406 10274 20178 39730 40145 333 10316 29058 55048 59005;EQDQ01  00002PRCP06
0186829830999992002092912004-09380-040480FM-12+037099999V0200901N005110075019N0020001N1+02441+01741101731ADDAA106000091GF107991071051008001001001KA1240N+02141MA1999999097561MD1999999+0101REMSYN076AAXX  29124 82983 32595 70910 10244 20174 39756 40173 87500 333 20214 58010;EQDQ01  00002PRCP06
0167829830999992002092918004-09380-040480FM-12+037099999V0201401N003110450019N0020001N1+03041+01371101171ADDAA106000091GF107991031011008001021001MA1999999097031MD1999999-0041REMSYN070AAXX  29184 82983 32595 71406 10304 20137 39703 40117 83120 333 59004;EQDQ01  00002PRCP06
0198829830999992002093000004-09380-040480FM-12+037099999V0201401N003112200019N0020001N1+02681+01521101401ADDAA106000091GF104991041061008001001001KA1240M+03101MA1999999097341MD1999999-0061REMSYN088AAXX  30004 82983 32595 41406 10268 20152 39734 40140 84600 333 10310 29050 55036 59006;EQDQ01  00002PRCP06
0186829830999992002093012004-09380-040480FM-12+037099999V0201401N003110075019N0020001N1+02321+01741101751ADDAA106000091GF107991071021008001001001KA1240N+02101MA1999999097571MD1999999+0011REMSYN076AAXX  30124 82983 32595 71406 10232 20174 39757 40175 87200 333 20210 58001;EQDQ01  00002PRCP06
0167829830999992002093018004-09380-040480FM-12+037099999V0200901N005110075019N0020001N1+03261+01561101181ADDAA106000091GF105991051021008001001001MA1999999097061MD1999999+0031REMSYN070AAXX  30184 82983 32595 50910 10326 20156 39706 40118 85200 333 58003;EQDQ01  00002PRCP06
0186829830999992002100100004-09380-040480FM-12+037099999V0200901N004119999999N0020001N1+02861+01781101461ADDAA106000091GF106991999021008001001001MA1999999097311REMSYN087AAXX  01004 82983 32595 60908 10286 20178 39731 40146 83200 33 10338 29052 55085 58007;EQDQ01+000032SCOTLCQ02  00002PRCP06
0186829830999992002100112004-09380-040480FM-12+037099999V0200501N005110075019N0020001N1+02501+01771101801ADDAA106000091GF108991081051008001999999KA1240N+02221MA1999999097651MD1999999+0081REMSYN076AAXX  01124 82983 32595 80510 10250 20177 39765 40180 885// 333 20222 58008;EQDQ01  00002PRCP06
0167829830999992002100118004-09380-040480FM-12+037099999V0201401N004110075019N0020001N1+03201+01371101211ADDAA106000091GF105991051021008001001001MA1999999097081MD1999999+0021REMSYN070AAXX  01184 82983 32595 51408 10320 20137 39708 40121 85200 333 58002;EQDQ01  00002PRCP06
0208829830999992002100200004-09380-040480FM-12+037099999V0201401N002612200019N0020001N1+02031+01301101311ADDAA106000091GA1001+999999999GF100991001001999999001001KA1240M+03341MA1999999097201MD1999999-0111REMSYN082AAXX  02004 82983 32995 01405 10203 20130 39720 40131 333 10334 29043 55009 59011;EQDQ01  00002PRCP06
0186829830999992002100212004-09380-040480FM-12+037099999V0201401N003112200019N0020001N1+02481+01751101551ADDAA106000091GF103991031011008001001001KA1240N+02201MA1999999097411MD1999999-0241REMSYN076AAXX  02124 82983 32595 31406 10248 20175 39741 40155 83100 333 20220 59024;EQDQ01  00002PRCP06
0167829830999992002100218004-09380-040480FM-12+037099999V0200501N001512200019N0020001N1+03561+00921100891ADDAA106000091GF102991021011008001001001MA1999999096801MD1999999-0281REMSYN070AAXX  02184 82983 32595 20503 10356 20092 39680 40089 82100 333 59028;EQDQ01  00002PRCP06
0208829830999992002100300004-09380-040480FM-12+037099999V0201401N002612200019N0020001N1+03101+01241101151ADDAA106000091GA1001+999999999GF100991001001999999001001KA1240M+03621MA1999999097051MD1999999-0151REMSYN082AAXX  03004 82983 32995 01405 10310 20124 39705 40115 333 10362 29037 55112 59015;EQDQ01  00002PRCP06
0186829830999992002100312004-09380-040480FM-12+037099999V0201401N004112200019N0020001N1+02661+01741101371ADDAA106000091GF102991021011008001001001KA1240N+02241MA1999999097261MD1999999-0151REMSYN076AAXX  03124 82983 32595 21408 10266 20174 39726 40137 82100 333 20224 59015;EQDQ01  00002PRCP06
0167829830999992002100318004-09380-040480FM-12+037099999V0200901N002612200019N0020001N1+03361+01511100871ADDAA106000091GF102991021011008001001001MA1999999096781MD1999999-0021REMSYN070AAXX  03184 82983 32595 20905 10336 20151 39678 40087 82100 333 59002;EQDQ01  00002PRCP06
0208829830999992002100400004-09380-040480FM-12+037099999V0201401N002612200019N0020001N1+02961+01211100991ADDAA106000091GA1001+999999999GF100991001001999999001001KA1240M+03401MA1999999096201MD1999999-0151REMSYN082AAXX  04004 82983 32995 01405 10296 20121 39620 40099 333 10340 29040 55109 59015;EQDQ01  00002PRCP06
0186829830999992002100412004-09380-040480FM-12+037099999V0200901N004112200019N0020001N1+02541+01711101571ADDAA106000091GF103991031011008001001001KA1240N+02261MA1999999097381MD1999999+0121REMSYN076AAXX  04124 82983 32595 30908 10254 20171 39738 40157 83100 333 20226 58012;EQDQ01  00002PRCP06
0167829830999992002100418004-09380-040480FM-12+037099999V0201401N003112200019N0020001N1+03341+01541100921ADDAA106000091GF106991041011008001001011MA1999999096831MD1999999+0051REMSYN070AAXX  04184 82983 32595 61406 10334 20154 39683 40092 84101 333 58005;EQDQ01  00002PRCP06
0208829830999992002100500004-09380-040480FM-12+037099999V0200901N003112200019N0020001N1+03001+01411101071ADDAA106000091GA1001+999999999GF100991001001999999001001KA1240M+03401MA1999999096951MD1999999+0051REMSYN082AAXX  05004 82983 32995 00906 10300 20141 39695 40107 333 10340 29040 55108 58005;EQDQ01  00002PRCP06
0186829830999992002100512004-09380-040480FM-12+037099999V0200901N004110075019N0020001N1+02321+01711101471ADDAA106000091GF106991061011008001001001KA1240N+02321MA1999999097331MD1999999-0031REMSYN076AAXX  05124 82983 32595 60908 10232 20171 39733 40147 86100 333 20232 59003;EQDQ01  00002PRCP06
0167829830999992002100518004-09380-040480FM-12+037099999V0200901N003112200019N0020001N1+03421+01471100831ADDAA106000091GF104991041011008001001001MA1999999096751MD1999999-0081REMSYN070AAXX  05184 82983 32595 40906 10342 20147 39675 40083 84100 333 59008;EQDQ01  00002PRCP06
0178829830999992002100600004-09380-040480FM-12+037099999V0201401N003112200019N0020001N1+99999+99999999999ADDAA106000091GA1001+999999999GF100991001001999999001001KA1240M+03461REMSYN081AAXX  06004 82983 32995 01406 1296 20129 39700 40114 333 10346 29042 55084 58005;EQDQ01  00002PRCP06
0186829830999992002100612004-09380-040480FM-12+037099999V0200901N004110075019N0020001N1+02701+01751101371ADDAA106000091GF106991061021008001001001KA1240N+02381MA1999999097261MD1999999-0071REMSYN076AAXX  06124 82983 32595 60908 10270 20175 39726 40137 86200 333 20238 59007;EQDQ01  00002PRCP06
0167829830999992002100618004-09380-040480FM-12+037099999V0201401N002610075019N0040001N1+03461+01341100801ADDAA106000091GF105991051011008001001001MA1999999096721MD1999999-0031REMSYN070AAXX  06184 82983 32596 51405 10346 20134 39672 40080 85100 333 59003;EQDQ01  00002PRCP06
0208829830999992002100700004-09380-040480FM-12+037099999V0200901N004112200019N0020001N1+03101+01421101051ADDAA106000091GA1001+999999999GF100991001001999999001001KA1240M+03541MA1999999096951MD1999999-0051REMSYN082AAXX  07004 82983 32995 00908 10310 20142 39695 40105 333 10354 29039 55107 59005;EQDQ01  00002PRCP06
0186829830999992002100712004-09380-040480FM-12+037099999V0201401N005110075019N0020001N1+02601+01681101571ADDAA106000091GF106991061011008001001001KA1240N+02211MA1999999097451MD1999999+0191REMSYN076AAXX  07124 82983 32595 61410 10260 20168 39745 40157 86100 333 20221 58019;EQDQ01  00002PRCP06
0167829830999992002100718004-09380-040480FM-12+037099999V0201401N004110450019N0020001N1+03321+01331101001ADDAA106000091GF106991021011008001011001MA1999999096911MD1999999+0191REMSYN070AAXX  07184 82983 32595 61408 10332 20133 39691 40100 82110 333 58019;EQDQ01  00002PRCP06
0208829830999992002100800004-09380-040480FM-12+037099999V0201401N004112200019N0020001N1+02961+01461101231ADDAA106000091GA1001+999999999GF100991001001999999001001KA1240M+03381MA1999999097111MD1999999+0161REMSYN082AAXX  08004 82983 32995 01408 10296 20146 39711 40123 333 10338 29042 55103 58016;EQDQ01  00002PRCP06
0186829830999992002100812004-09380-040480FM-12+037099999V0201401N005110075019N0020001N1+02501+01771101681ADDAA106000091GF108991081051008001999999KA1240N+02281MA1999999097491MD1999999+0041REMSYN076AAXX  08124 82983 32595 81410 10250 20177 39749 40168 885// 333 20228 58004;EQDQ01  00002PRCP06
0167829830999992002100818004-09380-040480FM-12+037099999V0200901N005110075019N0020001N1+03101+01621101181ADDAA106000091GF106991061021008001001001MA1999999097041MD1999999+0131REMSYN070AAXX  08184 82983 32595 60910 10310 20162 39704 40118 86200 333 58013;EQDQ01  00002PRCP06
0186829830999992002100912004-09380-040480FM-12+037099999V0201401N005110075019N0020001N1+02581+01721101621ADDAA106000091GF106991061021008001001001KA1240N+02271MA1999999097431MD1999999-0061REMSYN076AAXX  09124 82983 32595 61410 10258 20172 39743 40162 86200 333 20227 59006;EQDQ01  00002PRCP06
0198829830999992002101000004-09380-040480FM-12+037099999V0200901N005112200019N0020001N1+02821+01611101311ADDAA106000091GF102991021011008001001001KA1240M+03351MA1999999097171MD1999999+0071REMSYN088AAXX  10004 82983 32595 20910 10282 20161 39717 40131 82100 333 10335 29047 55102 58007;EQDQ01  00002PRCP06
0186829830999992002101012004-09380-040480FM-12+037099999V0201401N004610075019N0020001N1+02541+01781101571ADDAA106000091GF107991071021008001001001KA1240N+02381MA1999999097431MD1999999+0001REMSYN076AAXX  10124 82983 32595 71409 10254 20178 39743 40157 87200 333 20238 58000;EQDQ01  00002PRCP06
0167829830999992002101018004-09380-040480FM-12+037099999V0201401N005112200019N0020001N1+03361+01361100951ADDAA106000091GF104991041011008001001001MA1999999096861MD1999999-0091REMSYN070AAXX  10184 82983 32595 41410 10336 20136 39686 40095 84100 333 59009;EQDQ01  00002PRCP06
0208829830999992002101100004-09380-040480FM-12+037099999V0200901N003112200019N0020001N1+02941+01231101191ADDAA106000091GA1001+999999999GF100991001001999999001001KA1240M+03401MA1999999097071MD1999999-0101REMSYN082AAXX  11004 82983 32995 00906 10294 20123 39707 40119 333 10340 29041 55081 59010;EQDQ01  00002PRCP06
0186829830999992002101112004-09380-040480FM-12+037099999V0201401N003110075019N0020001N1+02501+01621101651ADDAA106000091GF107991071021008001001001KA1240N+02251MA1999999097511MD1999999+0081REMSYN076AAXX  11124 82983 32595 71406 10250 20162 39751 40165 87200 333 20225 58008;EQDQ01  00002PRCP06
0177829830999992002101118004-09380-040480FM-12+037099999V0200901N006712200019N0020001N1+03361+01311101021ADDAA106000091GA1001+999999999GF100991001001999999001001MA1999999096911MD1999999+0051REMSYN064AAXX  11184 82983 32995 00913 10336 20131 39691 40102 333 58005;EQDQ01  00002PRCP06
0208829830999992002101200004-09380-040480FM-12+037099999V0200901N004112200019N0020001N1+02801+01431101271ADDAA106000091GA1001+999999999GF100991001001999999001001KA1240M+03401MA1999999097131MD1999999+0061REMSYN082AAXX  12004 82983 32995 00908 10280 20143 39713 40127 333 10340 29043 55081 58006;EQDQ01  00002PRCP06
0186829830999992002101212004-09380-040480FM-12+037099999V0201401N005112200019N0020001N1+02541+01421101651ADDAA106000091GF103991031011008001001001KA1240N+02161MA1999999097501MD1999999-0011REMSYN076AAXX  12124 82983 32595 31410 10254 20142 39750 40165 83100 333 20216 59001;EQDQ01  00002PRCP06
0177829830999992002101218004-09380-040480FM-12+037099999V0201401N004112200019N0020001N1+03281+01391101091ADDAA106000091GA1001+999999999GF100991001001999999001001MA1999999096961MD1999999-0051REMSYN064AAXX  12184 82983 32995 01408 10328 20139 39696 40109 333 59005;EQDQ01  00002PRCP06
0208829830999992002101300004-09380-040480FM-12+037099999V0201401N003112200019N0020001N1+02901+01401101301ADDAA106000091GA1001+999999999GF100991001001999999001001KA1240M+03361MA1999999097161MD1999999+0031REMSYN082AAXX  13004 82983 32995 01406 10290 20140 39716 40130 333 10336 29040 55112 58003;EQDQ01  00002PRCP06
0186829830999992002101312004-09380-040480FM-12+037099999V0201401N004112200019N0020001N1+02561+01641101521ADDAA106000091GF102991021011008001001001KA1240N+02181MA1999999097391MD1999999-0111REMSYN076AAXX  13124 82983 32595 21408 10256 20164 39739 40152 82100 333 20218 59011;EQDQ01  00002PRCP06
0177829830999992002101318004-09380-040480FM-12+037099999V0200901N001512200019N0020001N1+03261+01471100941ADDAA106000091GA1001+999999999GF100991001001999999001001MA1999999096841MD1999999-0121REMSYN064AAXX  13184 82983 32995 00903 10326 20147 39684 40094 333 59012;EQDQ01  00002PRCP06
0208829830999992002101400004-09380-040480FM-12+037099999V0201801N003112200019N0020001N1+02941+01401101191ADDAA106000091GA1001+999999999GF100991001001999999001001KA1240M+03441MA1999999097071MD1999999-0091REMSYN082AAXX  14004 82983 32995 01806 10294 20140 39707 40119 333 10344 29042 55111 59009;EQDQ01  00002PRCP06
0186829830999992002101412004-09380-040480FM-12+037099999V0201401N004110075019N0020001N1+02441+01641101581ADDAA106000091GF108991081051008001999999KA1240N+02261MA1999999097441MD1999999+0051REMSYN076AAXX  14124 82983 32595 81408 10244 20164 39744 40158 885// 333 20226 58005;EQDQ01  00002PRCP06
0167829830999992002101418004-09380-040480FM-12+037099999V0201401N003112200019N0020001N1+03341+01351100881ADDAA106000091GF103991021011008001001011MA1999999096791MD1999999-0051REMSYN070AAXX  14184 82983 32595 31406 10334 20135 39679 40088 82101 333 59005;EQDQ01  00002PRCP06
0198829830999992002101500004-09380-040480FM-12+037099999V0201401N003112200019N0020001N1+02941+01401101191ADDAA106000091GF102991021011008001001001KA1240M+03401MA1999999097061MD1999999-0011REMSYN088AAXX  15004 82983 32595 21406 10294 20140 39706 40119 82100 333 10340 29042 55074 59001;EQDQ01  00002PRCP06
0186829830999992002101512004-09380-040480FM-12+037099999V0200901N005110075019N0020001N1+02641+01661101521ADDAA106000091GF106991061021008001001001KA1240N+02251MA1999999097391MD1999999-0051REMSYN076AAXX  15124 82983 32595 60910 10264 20166 39739 40152 86200 333 20225 59005;EQDQ01  00002PRCP06
0167829830999992002101518004-09380-040480FM-12+037099999V0201401N003112200019N0020001N1+03301+01311101001ADDAA106000091GF104991031011008001051001MA1999999096891MD1999999+0101REMSYN070AAXX  15184 82983 32595 41406 10330 20131 39689 40100 83150 333 58010;EQDQ01  00002PRCP06
0208829830999992002101600004-09380-040480FM-12+037099999V0201401N001512200019N0020001N1+02901+01361101171ADDAA106000091GA1001+999999999GF100991001001999999001001KA1240M+03401MA1999999097051MD1999999+0011REMSYN082AAXX  16004 82983 32995 01403 10290 20136 39705 40117 333 10340 29041 55113 58001;EQDQ01  00002PRCP06
0186829830999992002101612004-09380-040480FM-12+037099999V0201401N005710075019N0020001N1+02681+01521101561ADDAA106000091GF106991061021008001001001KA1240N+02271MA1999999097441MD1999999+0051REMSYN076AAXX  16124 82983 32595 61411 10268 20152 39744 40156 86200 333 20227 58005;EQDQ01  00002PRCP06
0167829830999992002101618004-09380-040480FM-12+037099999V0201401N002112200019N0020001N1+03261+01421100981ADDAA106000091GF102991021011008001001001MA1999999096871MD1999999-0021REMSYN070AAXX  16184 82983 32595 21404 10326 20142 39687 40098 82100 333 59002;EQDQ01  00002PRCP06
0208829830999992002101700004-09380-040480FM-12+037099999V0201401N001512200019N0020001N1+02901+01361101151ADDAA106000091GA1001+999999999GF100991001001999999001001KA1240M+03381MA1999999097051MD1999999+0001REMSYN082AAXX  17004 82983 32995 01403 10290 20136 39705 40115 333 10338 29040 55107 58000;EQDQ01  00002PRCP06
0186829830999992002101712004-09380-040480FM-12+037099999V0200901N005110075019N0020001N1+02421+01671101521ADDAA106000091GF107991071051008001001001KA1240N+02231MA1999999097371MD1999999-0071REMSYN076AAXX  17124 82983 32595 70910 10242 20167 39737 40152 87500 333 20223 59007;EQDQ01  00002PRCP06
0167829830999992002101718004-09380-040480FM-12+037099999V0200901N003110450019N0020001N1+03421+01561100771ADDAA106000091GF105991011011008001021001MA1999999096691MD1999999-0181REMSYN070AAXX  17184 82983 32595 50906 10342 20156 39669 40077 81120 333 59018;EQDQ01  00002PRCP06
0208829830999992002101800004-09380-040480FM-12+037099999V0201401N002612200019N0020001N1+03081+01481101031ADDAA106000091GA1001+999999999GF100991001001999999001001KA1240M+03581MA1999999096921MD1999999-0131REMSYN082AAXX  18004 82983 32995 01405 10308 20148 39692 40103 333 10358 29043 55081 59013;EQDQ01  00002PRCP06
0186829830999992002101812004-09380-040480FM-12+037099999V0201401N003112200019N0020001N1+02601+01651101361ADDAA106000091GF101991011011008001001001KA1240N+02261MA1999999097251MD1999999-0121REMSYN076AAXX  18124 82983 32595 11406 10260 20165 39725 40136 81100 333 20226 59012;EQDQ01  00002PRCP06
0167829830999992002101818004-09380-040480FM-12+037099999V0200901N003112200019N0200001N1+03581+01051100681ADDAA106000091GF102991011011008001001011MA1999999096621MD1999999-0071REMSYN070AAXX  18184 82983 32598 20906 10358 20105 39662 40068 81101 333 59007;EQDQ01  00002PRCP06
0208829830999992002101900004-09380-040480FM-12+037099999V0201401N005112200019N0020001N1+03101+01501101001ADDAA106000091GA1001+999999999GF100991001001999999001001KA1240M+03641MA1999999096911MD1999999-0011REMSYN082AAXX  19004 82983 32995 01410 10310 20150 39691 40100 333 10364 29038 55114 59001;EQDQ01  00002PRCP06
0186829830999992002101912004-09380-040480FM-12+037099999V0200901N005110075019N0020001N1+02701+01571101471ADDAA106000091GF106991061021008001001001KA1240N+02301MA1999999097351MD1999999+0101REMSYN076AAXX  19124 82983 32595 60910 10270 20157 39735 40147 86200 333 20230 58010;EQDQ01  00002PRCP06
0167829830999992002101918004-09380-040480FM-12+037099999V0201401N006712200019N0020001N1+03501+01201100751ADDAA106000091GF103991031011008001001001MA1999999096671MD1999999+0051REMSYN070AAXX  19184 82983 32595 31413 10350 20120 39667 40075 83100 333 58005;EQDQ01  00002PRCP06
0208829830999992002102000004-09380-040480FM-12+037099999V0200901N005112200019N0020001N1+03001+01411101061ADDAA106000091GA1001+999999999GF100991001001999999001001KA1240M+03601MA1999999096961MD1999999+0051REMSYN082AAXX  20004 82983 32995 00910 10300 20141 39696 40106 333 10360 29038 55113 58005;EQDQ01  00002PRCP06
0186829830999992002102012004-09380-040480FM-12+037099999V0200901N005710075019N0020001N1+02541+01571101451ADDAA106000091GF106991061021008001001001KA1240N+02261MA1999999097331MD1999999-0021REMSYN076AAXX  20124 82983 32595 60911 10254 20157 39733 40145 86200 333 20226 59002;EQDQ01  00002PRCP06
0183829830999992002102018004-09380-040480FM-12+037099999V0200901N004619999999N0020001N1+03321+01221100821ADDAA106000091GF105991999011008001001001MA1999999096741MD1999999+0071REMSYN070AAXX  20184 82983 32595 50909 10332 20122 39674 40082 84100 333 58007;EQDQ01+000042SCOTLCQ02  00002PRCP06
0198829830999992002102100004-09380-040480FM-12+037099999V0200901N002612200019N0020001N1+02941+01051101141ADDAA106000091GF103991031011008001001001KA1240M+03421MA1999999097021MD1999999+0061REMSYN088AAXX  21004 82983 32595 30905 10294 20105 39702 40114 83100 333 10342 29036 55114 58006;EQDQ01  00002PRCP06
0186829830999992002102112004-09380-040480FM-12+037099999V0200901N005112200019N0020001N1+02601+01651101541ADDAA106000091GF103991031011008001001001KA1240N+02301MA1999999097411MD1999999+0081REMSYN076AAXX  21124 82983 32595 30910 10260 20165 39741 40154 83100 333 20230 58008;EQDQ01  00002PRCP06
0167829830999992002102118004-09380-040480FM-12+037099999V0200901N003112200019N0020001N1+03361+01411100901ADDAA106000091GF103991031011008001001001MA1999999096811MD1999999+0071REMSYN070AAXX  21184 82983 32595 30906 10336 20141 39681 40090 83100 333 58007;EQDQ01  00002PRCP06
0198829830999992002102200004-09380-040480FM-12+037099999V0201401N002112200019N0020001N1+03041+01321101111ADDAA106000091GF104991041021008001001001KA1240M+03481MA1999999097011MD1999999-0011REMSYN088AAXX  22004 82983 32595 41404 10304 20132 39701 40111 84200 333 10348 29039 55111 59001;EQDQ01  00002PRCP06
0196829830999992002102212004-09380-040480FM-12+037099999V0201401N003112200019N0020001N1+02621+01671101471ADDAA106000091GA1001+999999999GF100991001001999999001001KA1240N+02241MA1999999097351MD1999999-0061REMSYN070AAXX  22124 82983 32995 01406 10262 20167 39735 40147 333 20224 59006;EQDQ01  00002PRCP06
0167829830999992002102218004-09380-040480FM-12+037099999V0200501N002612200019N0020001N1+03501+01431100881ADDAA106000091GF103991031011008001001001MA1999999096791MD1999999-0021REMSYN070AAXX  22184 82983 32595 30505 10350 20143 39679 40088 83100 333 59002;EQDQ01  00002PRCP06
0183829830999992002102300004-09380-040480FM-12+037099999V0201401N002612200019N0020001N1+03161+01341101151ADDAA106000091GF103991031011008001001001KA1240M+03561MA1999999096951REMSYN087AAXX  23004 82983 32595 31405 10316 20134 39695 40115 83100 333 10356 2903 55102 59006;EQDQ01  00002PRCP06
0186829830999992002102312004-09380-040480FM-12+037099999V0201401N005110075019N0020001N1+02701+01751101301ADDAA106000091GF105991051011008001001001KA1240N+02401MA1999999097241MD1999999-0111REMSYN076AAXX  23124 82983 32595 51410 10270 20175 39724 40130 85100 333 20240 59011;EQDQ01  00002PRCP06
0177829830999992002102318004-09380-040480FM-12+037099999V0200901N005112200019N0020001N1+03421+01361100801ADDAA106000091GA1001+999999999GF100991001001999999001001MA1999999096721MD1999999-0071REMSYN064AAXX  23184 82983 32995 00910 10342 20136 39672 40080 333 59007;EQDQ01  00002PRCP06
0208829830999992002102400004-09380-040480FM-12+037099999V0201401N004112200019N0020001N1+03081+01481101021ADDAA106000091GA1001+999999999GF100991001001999999001001KA1240M+03501MA1999999096931MD1999999-0021REMSYN082AAXX  24004 82983 32995 01408 10308 20148 39693 40102 333 10350 29040 55103 59002;EQDQ01  00002PRCP06
0186829830999992002102412004-09380-040480FM-12+037099999V0200901N005110075019N0020001N1+02641+01661101511ADDAA106000091GF106991061021008001001001KA1240N+02371MA1999999097391MD1999999+0151REMSYN076AAXX  24124 82983 32595 60910 10264 20166 39739 40151 86200 333 20237 58015;EQDQ01  00002PRCP06
0167829830999992002102418004-09380-040480FM-12+037099999V0201401N003112200019N0020001N1+03341+01351100811ADDAA106000091GF104991031011008001011001MA1999999096731MD1999999+0011REMSYN070AAXX  24184 82983 32595 41406 10334 20135 39673 40081 83110 333 58001;EQDQ01  00002PRCP06
0186829830999992002102512004-09380-040480FM-12+037099999V0201401N005110075019N0020001N1+02561+01591101341ADDAA106000091GF106991061021008001001001KA1240N+02281MA1999999097231MD1999999-0161REMSYN076AAXX  25124 82983 32595 61410 10256 20159 39723 40134 86200 333 20228 59016;EQDQ01  00002PRCP06
0167829830999992002102518004-09380-040480FM-12+037099999V0201801N003610450019N0020001N1+03381+01161100751ADDAA106000091GF105991021011008001011001MA1999999096671MD1999999-0061REMSYN070AAXX  25184 82983 32595 51807 10338 20116 39667 40075 82110 333 59006;EQDQ01  00002PRCP06
0167829830999992002102618004-09380-040480FM-12+037099999V0200901N005112200019N0020001N1+03461+01231100731ADDAA106000091GF102991021011008001001001MA1999999096631MD1999999-0021REMSYN070AAXX  26184 82983 32595 20910 10346 20123 39663 40073 82100 333 59002;EQDQ01  00002PRCP06
0208829830999992002102700004-09380-040480FM-12+037099999V0201401N001512200019N0020001N1+03041+01281100891ADDAA106000091GA1001+999999999GF100991001001999999001001KA1240M+03581MA1999999096801MD1999999-0031REMSYN082AAXX  27004 82983 32995 01403 10304 20128 39680 40089 333 10358 29038 55115 59003;EQDQ01  00002PRCP06
0196829830999992002102712004-09380-040480FM-12+037099999V0200901N003112200019N0020001N1+02681+01701101181ADDAA106000091GA1001+999999999GF100991001001999999001001KA1240N+02271MA1999999097081MD1999999-0141REMSYN070AAXX  27124 82983 32995 00906 10268 20170 39708 40118 333 20227 59014;EQDQ01  00002PRCP06
0167829830999992002102718004-09380-040480FM-12+037099999V0201801N002612200019N0020001N1+03551+01241100571ADDAA106000091GF102991021011008001001001MA1999999096521MD1999999-0131REMSYN070AAXX  27184 82983 32595 21805 10355 20124 39652 40057 82100 333 59013;EQDQ01  00002PRCP06
0208829830999992002102800004-09380-040480FM-12+037099999V0201401N001512200019N0020001N1+03101+01241100781ADDAA106000091GA1001+999999999GF100991001001999999001001KA1240M+03601MA1999999096701MD1999999-0101REMSYN082AAXX  28004 82983 32995 01403 10310 20124 39670 40078 333 10360 29036 55114 59010;EQDQ01  00002PRCP06
0186829830999992002102812004-09380-040480FM-12+037099999V0200901N003110075019N0020001N1+02661+01871101221ADDAA106000091GF108991081051008001999999KA1240N+02401MA1999999097121MD1999999+0041REMSYN076AAXX  28124 82983 32595 80906 10266 20187 39712 40122 885// 333 20240 58004;EQDQ01  00002PRCP06
0167829830999992002102818004-09380-040480FM-12+037099999V0201401N002610075019N0020001N1+03461+01641100581ADDAA106000091GF106991061021008001001001MA1999999096531MD1999999+0011REMSYN070AAXX  28184 82983 32595 61405 10346 20164 39653 40058 86200 333 58001;EQDQ01  00002PRCP06
0208829830999992002102900004-09380-040480FM-12+037099999V0201401N003112200019N0020001N1+03161+01631100761ADDAA106000091GA1001+999999999GF100991001001999999001001KA1240M+03521MA1999999096681MD1999999-0021REMSYN082AAXX  29004 82983 32995 01406 10316 20163 39668 40076 333 10352 29044 55082 59002;EQDQ01  00002PRCP06
0186829830999992002102912004-09380-040480FM-12+037099999V0200901N004110450019N0020001N1+02661+01791101201ADDAA106000091GF106991031021008001021001KA1240N+02381MA1999999097101MD1999999-0021REMSYN076AAXX  29124 82983 32595 60908 10266 20179 39710 40120 83220 333 20238 59002;EQDQ01  00002PRCP06
0167829830999992002102918004-09380-040480FM-12+037099999V0201401N003110450019N0020001N1+03421+01511100631ADDAA106000091GF106991041021008001021001MA1999999096551MD1999999+0021REMSYN070AAXX  29184 82983 32595 61406 10342 20151 39655 40063 84220 333 58002;EQDQ01  00002PRCP06
0208829830999992002103000004-09380-040480FM-12+037099999V0201801N001012200019N0020001N1+03021+01391100811ADDAA106000091GA1001+999999999GF100991001001999999001001KA1240M+03501MA1999999096731MD1999999+0051REMSYN082AAXX  30004 82983 32995 01802 10302 20139 39673 40081 333 10350 29041 55075 58005;EQDQ01  00002PRCP06
0186829830999992002103012004-09380-040480FM-12+037099999V0200901N003110075019N0020001N1+02741+01811101141ADDAA106000091GF106991061011008001001001KA1240N+02401MA1999999097041MD1999999-0061REMSYN076AAXX  30124 82983 32595 60906 10274 20181 39704 40114 86100 333 20240 59006;EQDQ01  00002PRCP06
0167829830999992002103018004-09380-040480FM-12+037099999V0200501N002610075019N0020001N1+03541+01461100561ADDAA106000091GF105991051011008001001001MA1999999096511MD1999999-0041REMSYN070AAXX  30184 82983 32595 50505 10354 20146 39651 40056 85100 333 59004;EQDQ01  00002PRCP06
0208829830999992002103100004-09380-040480FM-12+037099999V0209999C000012200019N0020001N1+03021+01211100761ADDAA106000091GA1001+999999999GF100991001001999999001001KA1240M+03541MA1999999096681MD1999999-0051REMSYN082AAXX  31004 82983 32995 00000 10302 20121 39668 40076 333 10354 29038 55112 59005;EQDQ01  00002PRCP06
0186829830999992002103112004-09380-040480FM-12+037099999V0200901N003110075019N0020001N1+02861+01761101101ADDAA106000091GF106991061011008001001001KA1240N+02441MA1999999097021MD1999999-0021REMSYN076AAXX  31124 82983 32595 60906 10286 20176 39702 40110 86100 333 20244 59002;EQDQ01  00002PRCP06
0167829830999992002103118004-09380-040480FM-12+037099999V0200901N003112200019N0020001N1+03561+01641100501ADDAA106000091GF103991031011008001001001MA1999999096451MD1999999-0061REMSYN070AAXX  31184 82983 32595 30906 10356 20164 39645 40050 83100 333 59006;EQDQ01  00002PRCP06
0208829830999992002110100004-09380-040480FM-12+037099999V0209999C000012200019N0020001N1+03061+01701100671ADDAA106000091GA1001+999999999GF100991001001999999001001KA1240M+03661MA1999999096601MD1999999-0081REMSYN082AAXX  01004 82983 32995 00000 10306 20170 39660 40067 333 10366 29044 55112 59008;EQDQ01  00002PRCP06
0196829830999992002110112004-09380-040480FM-12+037099999V0200901N003112200019N0020001N1+03041+01911101021ADDAA106000091GA1001+999999999GF100991001001999999001001KA1240N+02581MA1999999096951MD1999999-0071REMSYN070AAXX  01124 82983 32995 00906 10304 20191 39695 40102 333 20258 59007;EQDQ01  00002PRCP06
0167829830999992002110118004-09380-040480FM-12+037099999V0200901N003112200019N0020001N1+03701+01601100441ADDAA106000091GF103991031011008001001011MA1999999096421MD1999999-0031REMSYN070AAXX  01184 82983 32595 30906 10370 20160 39642 40044 83101 333 59003;EQDQ01  00002PRCP06
0221829830999992002110200004-09380-040480FM-12+037099999V0202301N003110075019N0020001N1+03041+01531100791ADDAY121061AY211061GF108991999021008001001001KA1240M+03801MA1999999096731MD1999999+0131MW1501REMSYN100AAXX  02004 82983 21595 82306 10304 20153 39673 40079 75021 86200 333 10380 29040 55106 58013 69901;EQDQ01+000062SCOTLC
0181829830999992002110212004-09380-040480FM-12+037099999V0200901N004112200019N0020001N1+02901+01991101111ADDGF104991999011008001001001KA1240N+02631MA1999999097031MD1999999+0081REMSYN082AAXX  02124 82983 21595 40908 10290 20199 39703 40111 82100 333 20263 58008 69914;EQDQ01+000022SCOTLC
0183829830999992002110218004-09380-040480FM-12+037099999V0201801N001519999999N0020001N1+03721+01621100451ADDAA106000091GF105991999011008001001001MA1999999096431MD1999999+0011REMSYN070AAXX  02184 82983 32595 51803 10372 20162 39643 40045 82100 333 58001;EQDQ01+000022SCOTLCQ02  00002PRCP06
0208829830999992002110300004-09380-040480FM-12+037099999V0209999C000012200019N0020001N1+03241+01751100591ADDAA106000091GA1001+999999999GF100991001001999999001001KA1240M+03791MA1999999096541MD1999999-0191REMSYN082AAXX  03004 82983 32995 00000 10324 20175 39654 40059 333 10379 29042 55104 59019;EQDQ01  00002PRCP06
0202829830999992002110312004-09380-040480FM-12+037099999V0200901N003112200019N0020001N1+03081+01851100941ADDAA106000091GF103991999011008001001001KA1240N+02661MA1999999096891MD1999999-0141REMSYN076AAXX  03124 82983 32595 30906 10308 20185 39689 40094 82100 333 20266 59014;EQDQ01+000022SCOTLCQ02  00002PRCP06
0167829830999992002110318004-09380-040480FM-12+037099999V0200501N002110075019N0100001N1+03521+01621100511ADDAA106000091GF106991061021008001001001MA1999999096491MD1999999+0061REMSYN070AAXX  03184 82983 32597 60504 10352 20162 39649 40051 86200 333 58006;EQDQ01  00002PRCP06
0214829830999992002110400004-09380-040480FM-12+037099999V0201401N001519999999N0020001N1+03121+01751100921ADDAA106000091GF106991999021008001001001KA1240M+03591MA1999999096831MD1999999+0321REMSYN088AAXX  04004 82983 32595 61403 10312 20175 39683 40092 83200 333 10359 29042 55042 58032;EQDQ01+000032SCOTLCQ02  00002PRCP06
0190829830999992002110412004-09380-040480FM-12+037099999V0203201N002610075019N0020001N1+02561+02111101241ADDAY121061AY251061GF107991071051008001001001KA1240N+02481MA1999999097141MD1999999+0251MW1031REMSYN088AAXX  04124 82983 21595 73205 10256 20211 39714 40124 70325 87500 333 20248 58025 60014;
0167829830999992002110418004-09380-040480FM-12+037099999V0203201N001510450019N0020001N1+03201+01631100771ADDAA106000091GF106991031021008001021011MA1999999096691MD1999999+0201REMSYN070AAXX  04184 82983 32595 63203 10320 20163 39669 40077 83221 333 58020;EQDQ01  00002PRCP06
0208829830999992002110500004-09380-040480FM-12+037099999V0202301N002612200019N0020001N1+02781+02041101041ADDAA106000091GA1001+999999999GF100991001001999999001001KA1240M+03361MA1999999096901MD1999999+0051REMSYN082AAXX  05004 82983 32995 02305 10278 20204 39690 40104 333 10336 29067 55045 58005;EQDQ01  00002PRCP06
0186829830999992002110512004-09380-040480FM-12+037099999V0201401N003110450019N0020001N1+02901+02021101271ADDAA106000091GF106991041021008001021001KA1240N+02551MA1999999097161MD1999999+0021REMSYN076AAXX  05124 82983 32595 61406 10290 20202 39716 40127 84220 333 20255 58002;EQDQ01  00002PRCP06
0183829830999992002110518004-09380-040480FM-12+037099999V0200501N005119999999N0020001N1+03501+01631100741ADDAA106000091GF106991999021008001001001MA1999999096671MD1999999-0021REMSYN070AAXX  05184 82983 32595 60510 10350 20163 39667 40074 84200 333 59002;EQDQ01+000042SCOTLCQ02  00002PRCP06
0208829830999992002110600004-09380-040480FM-12+037099999V0202701N001512200019N0020001N1+02861+02031100871ADDAA106000091GA1001+999999999GF100991001001999999001001KA1240M+03591MA1999999097761MD1999999-0131REMSYN082AAXX  06004 82983 32995 02703 10286 20203 39776 40087 333 10359 29054 55096 59013;EQDQ01  00002PRCP06
0186829830999992002110612004-09380-040480FM-12+037099999V0200901N002610450019N0020001N1+02761+01911101261ADDAA106000091GF107991041041008001021001KA1240N+02521MA1999999097151MD1999999-0011REMSYN076AAXX  06124 82983 32595 70905 10276 20191 39715 40126 84420 333 20252 59001;EQDQ01  00002PRCP06
0167829830999992002110618004-09380-040480FM-12+037099999V0201801N001510075019N0020001N1+03601+01521100761ADDAA106000091GF106991061021008001001001MA1999999096691MD1999999+0021REMSYN070AAXX  06184 82983 32595 61803 10360 20152 39669 40076 86200 333 58002;EQDQ01  00002PRCP06
0198829830999992002110700004-09380-040480FM-12+037099999V0200901N001510075019N0020001N1+03251+01541100971ADDAA106000091GF105991051021008001001001KA1240M+03701MA1999999096911MD1999999+0131REMSYN088AAXX  07004 82983 32595 50903 10325 20154 39691 40097 85200 333 10370 29040 55070 58013;EQDQ01  00002PRCP06
0186829830999992002110712004-09380-040480FM-12+037099999V0201801N004110450019N0020001N1+02781+02061101451ADDAA106000091GF105991031021008001021001KA1240N+02521MA1999999097361MD1999999+0211REMSYN076AAXX  07124 82983 32595 51808 10278 20206 39736 40145 83220 333 20252 58021;EQDQ01  00002PRCP06
0167829830999992002110718004-09380-040480FM-12+037099999V0200901N003110075019N0020001N1+03381+01481100891ADDAA106000091GF105991051011008001001001MA1999999096831MD1999999+0141REMSYN070AAXX  07184 82983 32595 50906 10338 20148 39683 40089 85100 333 58014;EQDQ01  00002PRCP06
0208829830999992002110800004-09380-040480FM-12+037099999V0201401N003112200019N0020001N1+03201+01481101091ADDAA106000091GA1001+999999999GF100991001001999999001001KA1240M+03471MA1999999097021MD1999999+0111REMSYN082AAXX  08004 82983 32995 01406 10320 20148 39702 40109 333 10347 29042 55108 58011;EQDQ01  00002PRCP06
0186829830999992002110812004-09380-040480FM-12+037099999V0201401N003110075019N0020001N1+02501+01721101531ADDAA106000091GF108991081051008001999999KA1240N+02321MA1999999097411MD1999999+0051REMSYN076AAXX  08124 82983 32595 81406 10250 20172 39741 40153 885// 333 20232 58005;EQDQ01  00002PRCP06
0167829830999992002110818004-09380-040480FM-12+037099999V0201401N003110075019N0020001N1+03381+01531100921ADDAA106000091GF105991051011008001001001MA1999999096831MD1999999+0001REMSYN070AAXX  08184 82983 32595 51406 10338 20153 39683 40092 85100 333 58000;EQDQ01  00002PRCP06
0208829830999992002110900004-09380-040480FM-12+037099999V0201401N005112200019N0020001N1+02861+01871101161ADDAA106000091GA1001+999999999GF100991001001999999001001KA1240M+03441MA1999999097061MD1999999+0041REMSYN082AAXX  09004 82983 32995 01410 10286 20187 39706 40116 333 10344 29051 55067 58004;EQDQ01  00002PRCP06
0186829830999992002110912004-09380-040480FM-12+037099999V0201401N003110075019N0020001N1+02441+02011101571ADDAA106000091GF107991071021008001001001KA1240N+02221MA1999999097421MD1999999+0011REMSYN076AAXX  09124 82983 32595 71406 10244 20201 39742 40157 87200 333 20222 58001;EQDQ01  00002PRCP06
0167829830999992002110918004-09380-040480FM-12+037099999V0201401N003112200019N0020001N1+03181+01801101031ADDAA106000091GF104991041011008001001001MA1999999096941MD1999999+0111REMSYN070AAXX  09184 82983 32595 41406 10318 20180 39694 40103 84100 333 58011;EQDQ01  00002PRCP06
0208829830999992002111000004-09380-040480FM-12+037099999V0201801N005112200019N0020001N1+02781+01921101261ADDAA106000091GA1001+999999999GF100991001001999999001001KA1240M+03301MA1999999097121MD1999999+0021REMSYN082AAXX  10004 82983 32995 01810 10278 20192 39712 40126 333 10330 29060 55080 58002;EQDQ01  00002PRCP06
0186829830999992002111012004-09380-040480FM-12+037099999V0201401N004112200019N0020001N1+02561+01591101551ADDAA106000091GF104991041011008001001001KA1240N+02241MA1999999097401MD1999999-0021REMSYN076AAXX  10124 82983 32595 41408 10256 20159 39740 40155 84100 333 20224 59002;EQDQ01  00002PRCP06
0167829830999992002111018004-09380-040480FM-12+037099999V0201401N002612200019N0020001N1+03401+01291100921ADDAA106000091GF102991021011008001001001MA1999999096841MD1999999-0101REMSYN070AAXX  10184 82983 32595 21405 10340 20129 39684 40092 82100 333 59010;EQDQ01  00002PRCP06
0208829830999992002111100004-09380-040480FM-12+037099999V0201401N002612200019N0020001N1+03041+01141101051ADDAA106000091GA1001+999999999GF100991001001999999001001KA1240M+03501MA1999999096951MD1999999-0171REMSYN082AAXX  11004 82983 32995 01405 10304 20114 39695 40105 333 10350 29036 55109 59017;EQDQ01  00002PRCP06
0186829830999992002111112004-09380-040480FM-12+037099999V0201401N004110075019N0020001N1+02641+01751101441ADDAA106000091GF106991061011008001001001KA1240N+02311MA1999999097331MD1999999-0071REMSYN076AAXX  11124 82983 32595 61408 10264 20175 39733 40144 86100 333 20231 59007;EQDQ01  00002PRCP06
0183829830999992002111118004-09380-040480FM-12+037099999V0201401N004119999999N0020001N1+03321+01651100951ADDAA106000091GF105991999021008001001001MA1999999096861MD1999999+0021REMSYN070AAXX  11184 82983 32595 51408 10332 20165 39686 40095 86200 333 58002;EQDQ01+000062SCOTLCQ02  00002PRCP06
0208829830999992002111200004-09380-040480FM-12+037099999V0201801N002112200019N0020001N1+02921+01671101061ADDAA106000091GA1001+999999999GF100991001001999999001001KA1240M+03401MA1999999096961MD1999999+0011REMSYN082AAXX  12004 82983 32995 01804 10292 20167 39696 40106 333 10340 29047 55083 58001;EQDQ01  00002PRCP06
0186829830999992002111212004-09380-040480FM-12+037099999V0201401N004112200019N0020001N1+02481+01601101591ADDAA106000091GF104991041011008001001001KA1240N+02271MA1999999097451MD1999999+0121REMSYN076AAXX  12124 82983 32595 41408 10248 20160 39745 40159 84100 333 20227 58012;EQDQ01  00002PRCP06
0167829830999992002111218004-09380-040480FM-12+037099999V0201401N004112200019N0020001N1+03461+01041100921ADDAA106000091GF102991021001008001001021MA1999999096831MD1999999-0031REMSYN070AAXX  12184 82983 32595 21408 10346 20104 39683 40092 82002 333 59003;EQDQ01  00002PRCP06
0208829830999992002111300004-09380-040480FM-12+037099999V0201401N005112200019N0020001N1+03021+01301101181ADDAA106000091GA1001+999999999GF100991001001999999001001KA1240M+03521MA1999999097061MD1999999+0101REMSYN082AAXX  13004 82983 32995 01410 10302 20130 39706 40118 333 10352 29038 55106 58010;EQDQ01  00002PRCP06
0186829830999992002111312004-09380-040480FM-12+037099999V0201401N005710075019N0020001N1+02541+01571101641ADDAA106000091GF106991061021008001001001KA1240N+02171MA1999999097521MD1999999+0071REMSYN076AAXX  13124 82983 32595 61411 10254 20157 39752 40164 86200 333 20217 58007;EQDQ01  00002PRCP06
0167829830999992002111318004-09380-040480FM-12+037099999V0200901N005112200019N0020001N1+03421+00941101021ADDAA106000091GF101991011011008001001001MA1999999096931MD1999999+0101REMSYN070AAXX  13184 82983 32595 10910 10342 20094 39693 40102 81100 333 58010;EQDQ01  00002PRCP06
0208829830999992002111400004-09380-040480FM-12+037099999V0201401N002612200019N0020001N1+02961+01291101231ADDAA106000091GA1001+999999999GF100991001001999999001001KA1240M+03491MA1999999097111MD1999999+0051REMSYN082AAXX  14004 82983 32995 01405 10296 20129 39711 40123 333 10349 29037 55116 58005;EQDQ01  00002PRCP06
0186829830999992002111412004-09380-040480FM-12+037099999V0201401N004110075019N0020001N1+02561+01621101611ADDAA106000091GF107991071021008001001001KA1240N+02241MA1999999097481MD1999999-0041REMSYN076AAXX  14124 82983 32595 71408 10256 20162 39748 40161 87200 333 20224 59004;EQDQ01  00002PRCP06
0167829830999992002111418004-09380-040480FM-12+037099999V0201401N004112200019N0020001N1+03261+01471101081ADDAA106000091GF103991031011008001001001MA1999999096961MD1999999+0031REMSYN070AAXX  14184 82983 32595 31408 10326 20147 39696 40108 83100 333 58003;EQDQ01  00002PRCP06
0208829830999992002111500004-09380-040480FM-12+037099999V0201401N001512200019N0020001N1+02981+01311101191ADDAA106000091GA1001+999999999GF100991001001999999001001KA1240M+03401MA1999999097071MD1999999-0041REMSYN082AAXX  15004 82983 32995 01403 10298 20131 39707 40119 333 10340 29040 55088 59004;EQDQ01  00002PRCP06
0186829830999992002111512004-09380-040480FM-12+037099999V0201401N004110120019N0020001N1+02541+01861101521ADDAA106000091GF108991051081008001999999KA1240N+02351MA1999999097401MD1999999-0081REMSYN076AAXX  15124 82983 32595 81408 10254 20186 39740 40152 858// 333 20235 59008;EQDQ01  00002PRCP06
0167829830999992002111518004-09380-040480FM-12+037099999V0201401N004110075019N0020001N1+03321+01481100941ADDAA106000091GF105991051021008001001001MA1999999096851MD1999999-0111REMSYN070AAXX  15184 82983 32595 51408 10332 20148 39685 40094 85200 333 59011;EQDQ01  00002PRCP06
0208829830999992002111600004-09380-040480FM-12+037099999V0201401N003112200019N0020001N1+02961+01381101171ADDAA106000091GA1001+999999999GF100991001001999999001001KA1240M+03381MA1999999097051MD1999999-0021REMSYN082AAXX  16004 82983 32995 01406 10296 20138 39705 40117 333 10338 29044 55077 59002;EQDQ01  00002PRCP06
0196829830999992002111612004-09380-040480FM-12+037099999V0201401N004112200019N0020001N1+02621+01501101471ADDAA106000091GA1001+999999999GF100991001001999999001001KA1240N+02211MA1999999097351MD1999999-0051REMSYN070AAXX  16124 82983 32995 01408 10262 20150 39735 40147 333 20221 59005;EQDQ01  00002PRCP06
0177829830999992002111618004-09380-040480FM-12+037099999V0201401N002612200019N0020001N1+03481+00931100851ADDAA106000091GA1001+999999999GF100991001001999999001001MA1999999096761MD1999999-0091REMSYN064AAXX  16184 82983 32995 01405 10348 20093 39676 40085 333 59009;EQDQ01  00002PRCP06
0208829830999992002111700004-09380-040480FM-12+037099999V0201801N002612200019N0020001N1+03061+01001101001ADDAA106000091GA1001+999999999GF100991001001999999001001KA1240M+03561MA1999999096911MD1999999-0141REMSYN082AAXX  17004 82983 32995 01805 10306 20100 39691 40100 333 10356 29032 55119 59014;EQDQ01  00002PRCP06
0186829830999992002111712004-09380-040480FM-12+037099999V0201401N003112200019N0020001N1+02541+01681101411ADDAA106000091GF104991041021008001001001KA1240N+02261MA1999999097301MD1999999-0051REMSYN076AAXX  17124 82983 32595 41406 10254 20168 39730 40141 84200 333 20226 59005;EQDQ01  00002PRCP06
0177829830999992002111718004-09380-040480FM-12+037099999V0201401N003112200019N0020001N1+03441+01271100751ADDAA106000091GA1001+999999999GF100991001001999999001001MA1999999096671MD1999999-0091REMSYN064AAXX  17184 82983 32995 01406 10344 20127 39667 40075 333 59009;EQDQ01  00002PRCP06
0208829830999992002111800004-09380-040480FM-12+037099999V0201401N001512200019N0020001N1+03061+00891100931ADDAA106000091GA1001+999999999GF100991001001999999001001KA1240M+03541MA1999999096841MD1999999-0071REMSYN082AAXX  18004 82983 32995 01403 10306 20089 39684 40093 333 10354 29034 55112 59007;EQDQ01  00002PRCP06
0186829830999992002111812004-09380-040480FM-12+037099999V0201401N003112200019N0020001N1+02781+01731101351ADDAA106000091GF102991021011008001001001KA1240N+02301MA1999999097241MD1999999-0061REMSYN076AAXX  18124 82983 32595 21406 10278 20173 39724 40135 82100 333 20230 59006;EQDQ01  00002PRCP06
0167829830999992002111818004-09380-040480FM-12+037099999V0201401N003112200019N0020001N1+03541+01461100701ADDAA106000091GF102991021011008001001001MA1999999096641MD1999999-0031REMSYN070AAXX  18184 82983 32595 21406 10354 20146 39664 40070 82100 333 59003;EQDQ01  00002PRCP06
0208829830999992002111900004-09380-040480FM-12+037099999V0201401N001512200019N0020001N1+03141+01321100901ADDAA106000091GA1001+999999999GF100991001001999999001001KA1240M+03641MA1999999096821MD1999999-0021REMSYN082AAXX  19004 82983 32995 01403 10314 20132 39682 40090 333 10364 29037 55118 59002;EQDQ01  00002PRCP06
0196829830999992002111912004-09380-040480FM-12+037099999V0201401N004112200019N0020001N1+02781+01701101261ADDAA106000091GA1001+999999999GF100991001001999999001001KA1240N+02381MA1999999097161MD1999999-0081REMSYN070AAXX  19124 82983 32995 01408 10278 20170 39716 40126 333 20238 59008;EQDQ01  00002PRCP06
0167829830999992002111918004-09380-040480FM-12+037099999V0200901N004112200019N0020001N1+03501+01481100721ADDAA106000091GF102991021011008001001001MA1999999096651MD1999999+0011REMSYN070AAXX  19184 82983 32595 20908 10350 20148 39665 40072 82100 333 58001;EQDQ01  00002PRCP06
0208829830999992002112000004-09380-040480FM-12+037099999V0201401N001512200019N0020001N1+02201+01411100881ADDAA106000091GA1001+999999999GF100991001001999999001001KA1240M+03561MA1999999096821MD1999999+0001REMSYN082AAXX  20004 82983 32995 01403 10220 20141 39682 40088 333 10356 29038 55117 58000;EQDQ01  00002PRCP06
0186829830999992002112012004-09380-040480FM-12+037099999V0201401N003610075019N0020001N1+02821+01861101161ADDAA106000091GF105991051011008001001001KA1240N+02431MA1999999097091MD1999999-0071REMSYN076AAXX  20124 82983 32595 51407 10282 20186 39709 40116 85100 333 20243 59007;EQDQ01  00002PRCP06
0167829830999992002112018004-09380-040480FM-12+037099999V0201401N003112200019N0020001N1+03441+01721100701ADDAA106000091GF102991021011008001001001MA1999999096631MD1999999-0021REMSYN070AAXX  20184 82983 32595 21406 10344 20172 39663 40070 82100 333 59002;EQDQ01  00002PRCP06
0198829830999992002112100004-09380-040480FM-12+037099999V0201801N001512200019N0020001N1+03201+01671100901ADDAA106000091GF102991021011008001001001KA1240M+03531MA1999999096841MD1999999+0021REMSYN088AAXX  21004 82983 32595 21803 10320 20167 39684 40090 82100 333 10353 29043 55115 58002;EQDQ01  00002PRCP06
0186829830999992002112112004-09380-040480FM-12+037099999V0201401N003112200019N0020001N1+02801+01781101341ADDAA106000091GF102991021011008001001001KA1240N+02411MA1999999097261MD1999999+0171REMSYN076AAXX  21124 82983 32595 21406 10280 20178 39726 40134 82100 333 20241 58017;EQDQ01  00002PRCP06
0167829830999992002112118004-09380-040480FM-12+037099999V0201401N003112200019N0020001N1+03461+01641100811ADDAA106000091GF102991021011008001001001MA1999999096741MD1999999+0111REMSYN070AAXX  21184 82983 32595 21406 10346 20164 39674 40081 82100 333 58011;EQDQ01  00002PRCP06
0208829830999992002112200004-09380-040480FM-12+037099999V0203601N001512200019N0020001N1+03201+01321100821ADDAA106000091GA1001+999999999GF100991001001999999001001KA1240M+03581MA1999999096761MD1999999-0081REMSYN082AAXX  22004 82983 32995 03603 10320 20132 39676 40082 333 10358 29038 55117 59008;EQDQ01  00002PRCP06
0186829830999992002112212004-09380-040480FM-12+037099999V0201401N004110075019N0020001N1+02801+01871101341ADDAA106000091GF106991061021008001001001KA1240N+02411MA1999999097261MD1999999+0001REMSYN076AAXX  22124 82983 32595 61408 10280 20187 39726 40134 86200 333 20241 58000;EQDQ01  00002PRCP06
0167829830999992002112218004-09380-040480FM-12+037099999V0201401N003112200019N0020001N1+03441+01721100881ADDAA106000091GF102991021011008001001001MA1999999096801MD1999999+0061REMSYN070AAXX  22184 82983 32595 21406 10344 20172 39680 40088 82100 333 58006;EQDQ01  00002PRCP06
0198829830999992002112300004-09380-040480FM-12+037099999V0201401N002112200019N0020001N1+03221+01391100961ADDAA106000091GF104991041011008001001001KA1240M+03541MA1999999096901MD1999999+0141REMSYN088AAXX  23004 82983 32595 41404 10322 20139 39690 40096 84100 333 10354 29040 55114 58014;EQDQ01  00002PRCP06
0186829830999992002112312004-09380-040480FM-12+037099999V0201401N005110075019N0020001N1+02801+01871101351ADDAA106000091GF106991061021008001001001KA1240N+02521MA1999999097301MD1999999+0041REMSYN076AAXX  23124 82983 32595 61410 10280 20187 39730 40135 86200 333 20252 58004;EQDQ01  00002PRCP06
0171829830999992002112318004-09380-040480FM-12+037099999V0200901N006710075019N0020001N1+03481+01611100961ADDAY111061AY221061GF106991061021008001001001MA1999999096881MD1999999+0081MW1501REMSYN082AAXX  23184 82983 21595 60913 10348 20161 39688 40096 75012 86200 333 58008 69901;
0184829830999992002112400004-09380-040480FM-12+037099999V0201401N005112200019N0020001N1+02741+01921101211ADDGA1001+999999999GF100991001001999999001001KA1240M+03521MA1999999097091MD1999999+0191REMSYN088AAXX  24004 82983 22995 01410 10274 20192 39709 40121 333 10352 29053 55098 58019 60021;
0167829830999992002112418004-09380-040480FM-12+037099999V0201401N004110075019N0020001N1+03461+01601100911ADDAA106000091GF106991061021008001001001MA1999999096851MD1999999-0031REMSYN070AAXX  24184 82983 32595 61408 10346 20160 39685 40091 86200 333 59003;EQDQ01  00002PRCP06
0208829830999992002112500004-09380-040480FM-12+037099999V0201401N004112200019N0020001N1+03041+01601101181ADDAA106000091GA1001+999999999GF100991001001999999001001KA1240M+03541MA1999999097081MD1999999-0011REMSYN082AAXX  25004 82983 32995 01408 10304 20160 39708 40118 333 10354 29044 55079 59001;EQDQ01  00002PRCP06
0202829830999992002112512004-09380-040480FM-12+037099999V0201401N004110075019N0020001N1+02661+01621101521ADDAA106000091GF106991061021008001001001KA1240N+99999MA1999999097401MD1999999+0121REMSYN076AAXX  25124 82983 32595 61408 10266 20162 39740 40152 86200 333 20276 58012;EQDQ01  00002PRCP06Q02 +02762ATMN  
0167829830999992002112518004-09380-040480FM-12+037099999V0201801N005112200019N0020001N1+03401+01241100941ADDAA106000091GF102991021011008001001001MA1999999096851MD1999999+0001REMSYN070AAXX  25184 82983 32595 21810 10340 20124 39685 40094 82100 333 58000;EQDQ01  00002PRCP06
0208829830999992002112600004-09380-040480FM-12+037099999V0201401N003112200019N0020001N1+03121+01301101111ADDAA106000091GA1001+999999999GF100991001001999999001001KA1240M+03491MA1999999097011MD1999999-0071REMSYN082AAXX  26004 82983 32995 01406 10312 20130 39701 40111 333 10349 29037 55114 59007;EQDQ01  00002PRCP06
0186829830999992002112612004-09380-040480FM-12+037099999V0201401N004110075019N0020001N1+02641+01691101531ADDAA106000091GF107991071021008001001001KA1240N+02341MA1999999097411MD1999999+0011REMSYN076AAXX  26124 82983 32595 71408 10264 20169 39741 40153 87200 333 20234 58001;EQDQ01  00002PRCP06
0167829830999992002112618004-09380-040480FM-12+037099999V0201401N004112200019N0020001N1+03321+01431100921ADDAA106000091GF104991041011008001001001MA1999999096831MD1999999-0021REMSYN070AAXX  26184 82983 32595 41408 10332 20143 39683 40092 84100 333 59002;EQDQ01  00002PRCP06
0198829830999992002112700004-09380-040480FM-12+037099999V0201401N003112200019N0020001N1+03001+01491101061ADDAA106000091GF102991021011008001001001KA1240M+03461MA1999999096961MD1999999-0051REMSYN088AAXX  27004 82983 32595 21406 10300 20149 39696 40106 82100 333 10346 29042 55102 59005;EQDQ01  00002PRCP06
0186829830999992002112712004-09380-040480FM-12+037099999V0201401N003110075019N0020001N1+02581+01661101521ADDAA106000091GF108991081051008001999999KA1240N+02361MA1999999097421MD1999999+0011REMSYN076AAXX  27124 82983 32595 81406 10258 20166 39742 40152 885// 333 20236 58001;EQDQ01  00002PRCP06
0167829830999992002112718004-09380-040480FM-12+037099999V0201401N004112200019N0020001N1+03281+01661100891ADDAA106000091GF104991041011008001001001MA1999999096801MD1999999-0031REMSYN070AAXX  27184 82983 32595 41408 10328 20166 39680 40089 84100 333 59003;EQDQ01  00002PRCP06
0198829830999992002112800004-09380-040480FM-12+037099999V0201401N002612200019N0020001N1+03101+01581101001ADDAA106000091GF104991041011008001001001KA1240M+03461MA1999999096911MD1999999-0051REMSYN088AAXX  28004 82983 32595 41405 10310 20158 39691 40100 84100 333 10346 29044 55078 59005;EQDQ01  00002PRCP06
0186829830999992002112812004-09380-040480FM-12+037099999V0201401N004110075019N0020001N1+02761+01831101251ADDAA106000091GF106991061021008001001001KA1240N+02461MA1999999097151MD1999999-0271REMSYN076AAXX  28124 82983 32595 61408 10276 20183 39715 40125 86200 333 20246 59027;EQDQ01  00002PRCP06
0167829830999992002112818004-09380-040480FM-12+037099999V0201401N003110450019N0020001N1+03501+01531100721ADDAA106000091GF105991031011008001011001MA1999999096661MD1999999-0141REMSYN070AAXX  28184 82983 32595 51406 10350 20153 39666 40072 83110 333 59014;EQDQ01  00002PRCP06
0198829830999992002112900004-09380-040480FM-12+037099999V0201401N004110075019N0020001N1+02921+01711100981ADDAA106000091GF105991051021008001001001KA1240M+03581MA1999999096891MD1999999-0021REMSYN088AAXX  29004 82983 32595 51408 10292 20171 39689 40098 85200 333 10358 29046 55105 59002;EQDQ01  00002PRCP06
0186829830999992002112912004-09380-040480FM-12+037099999V0201401N003610075019N0020001N1+02701+01881101441ADDAA106000091GF106991061021008001001001KA1240N+02421MA1999999097331MD1999999+0181REMSYN076AAXX  29124 82983 32595 61407 10270 20188 39733 40144 86200 333 20242 58018;EQDQ01  00002PRCP06
0167829830999992002112918004-09380-040480FM-12+037099999V0201401N004110450019N0020001N1+03401+01541100801ADDAA106000091GF105991031011008001021001MA1999999096731MD1999999+0071REMSYN070AAXX  29184 82983 32595 51408 10340 20154 39673 40080 83120 333 58007;EQDQ01  00002PRCP06
0202829830999992002113000004-09380-040480FM-12+037099999V0200901N002112200019N0020001N1+02541+02091101171ADDAY121061AY261061GF104991041021008001001001KA1240M+03531MA1999999097031MD1999999+0141MW1011REMSYN100AAXX  30004 82983 21595 40904 10254 20209 39703 40117 70126 84200 333 10353 29062 55087 58014 60081;
0162829830999992002113012004-09380-040480FM-12+037099999V0201401N002610075019N0020001N1+02601+01961101551ADDGF106991061021008001001001KA1240N+02251MA1999999097391MD1999999+0061REMSYN082AAXX  30124 82983 22595 61405 10260 20196 39739 40155 86200 333 20225 58006 60084;
0167829830999992002113018004-09380-040480FM-12+037099999V0201401N004110450019N0020001N1+03341+01491100931ADDAA106000091GF105991031021008001051001MA1999999096841MD1999999+0111REMSYN070AAXX  30184 82983 32595 51408 10334 20149 39684 40093 83250 333 58011;EQDQ01  00002PRCP06
0208829830999992002120100004-09380-040480FM-12+037099999V0201401N002612200019N0020001N1+03001+01451101121ADDAA106000091GA1001+999999999GF100991001001999999001001KA1240M+03391MA1999999097021MD1999999-0011REMSYN082AAXX  01004 82983 32995 01405 10300 20145 39702 40112 333 10339 29045 55097 59001;EQDQ01  00002PRCP06
0186829830999992002120112004-09380-040480FM-12+037099999V0201401N003110075019N0020001N1+02661+01781101401ADDAA106000091GF105991051011008001001001KA1240N+02341MA1999999097291MD1999999-0101REMSYN076AAXX  01124 82983 32595 51406 10266 20178 39729 40140 85100 333 20234 59010;EQDQ01  00002PRCP06
0186829830999992002120212004-09380-040480FM-12+037099999V0201401N004610075019N0020001N1+02541+01811101361ADDAA106000091GF107991071051008001001001KA1240N+02351MA1999999097251MD1999999-0041REMSYN076AAXX  02124 82983 32595 71409 10254 20181 39725 40136 87500 333 20235 59004;EQDQ01  00002PRCP06
0167829830999992002120218004-09380-040480FM-12+037099999V0200901N002612200019N0020001N1+03281+01701100801ADDAA106000091GF104991041011008001001001MA1999999096731MD1999999+0071REMSYN070AAXX  02184 82983 32595 40905 10328 20170 39673 40080 84100 333 58007;EQDQ01  00002PRCP06
0208829830999992002120300004-09380-040480FM-12+037099999V0201401N002112200019N0020001N1+03041+01571100891ADDAA106000091GA1001+999999999GF100991001001999999001001KA1240M+03401MA1999999096801MD1999999-0071REMSYN082AAXX  03004 82983 32995 01404 10304 20157 39680 40089 333 10340 29046 55089 59007;EQDQ01  00002PRCP06
0186829830999992002120312004-09380-040480FM-12+037099999V0201401N004112200019N0020001N1+02761+01891101261ADDAA106000091GF102991021011008001001001KA1240N+02371MA1999999097151MD1999999-0101REMSYN076AAXX  03124 82983 32595 21408 10276 20189 39715 40126 82100 333 20237 59010;EQDQ01  00002PRCP06
0167829830999992002120318004-09380-040480FM-12+037099999V0201801N003110075019N0020001N1+03541+01461100721ADDAA106000091GF105991051011008001001001MA1999999096651MD1999999-0081REMSYN070AAXX  03184 82983 32595 51806 10354 20146 39665 40072 85100 333 59008;EQDQ01  00002PRCP06
0208829830999992002120400004-09380-040480FM-12+037099999V0201801N003112200019N0020001N1+03201+01421100911ADDAA106000091GA1001+999999999GF100991001001999999001001KA1240M+03601MA1999999096851MD1999999+0051REMSYN082AAXX  04004 82983 32995 01806 10320 20142 39685 40091 333 10360 29039 55117 58005;EQDQ01  00002PRCP06
0186829830999992002120412004-09380-040480FM-12+037099999V0201401N005110075019N0020001N1+02801+01951101261ADDAA106000091GF106991061021008001001001KA1240N+02481MA1999999097181MD1999999+0031REMSYN076AAXX  04124 82983 32595 61410 10280 20195 39718 40126 86200 333 20248 58003;EQDQ01  00002PRCP06
0167829830999992002120418004-09380-040480FM-12+037099999V0201401N003110075019N0020001N1+03421+01831100831ADDAA106000091GF106991061021008001001001MA1999999096751MD1999999+0101REMSYN070AAXX  04184 82983 32595 61406 10342 20183 39675 40083 86200 333 58010;EQDQ01  00002PRCP06
0208829830999992002120500004-09380-040480FM-12+037099999V0201801N001512200019N0020001N1+03181+01611100891ADDAA106000091GA1001+999999999GF100991001001999999001001KA1240M+03531MA1999999096831MD1999999-0021REMSYN082AAXX  05004 82983 32995 01803 10318 20161 39683 40089 333 10353 29044 55101 59002;EQDQ01  00002PRCP06
0186829830999992002120512004-09380-040480FM-12+037099999V0201401N003112200019N0020001N1+02701+01831101361ADDAA106000091GF104991041011008001001001KA1240N+02421MA1999999097261MD1999999+0081REMSYN076AAXX  05124 82983 32595 41406 10270 20183 39726 40136 84100 333 20242 58008;EQDQ01  00002PRCP06
0208829830999992002120600004-09380-040480FM-12+037099999V0201401N001512200019N0020001N1+03221+01431100911ADDAA106000091GA1001+999999999GF100991001001999999001001KA1240M+03601MA1999999096831MD1999999+0001REMSYN082AAXX  06004 82983 32995 01403 10322 20143 39683 40091 333 10360 29040 55114 58000;EQDQ01  00002PRCP06
0196829830999992002120612004-09380-040480FM-12+037099999V0200901N003112200019N0020001N1+02761+01661101081ADDAA106000091GA1001+999999999GF100991001001999999001001KA1240N+02391MA1999999097011MD1999999-0251REMSYN070AAXX  06124 82983 32995 00906 10276 20166 39701 40108 333 20239 59025;EQDQ01  00002PRCP06
0167829830999992002120618004-09380-040480FM-12+037099999V0201401N001512200019N0020001N1+03641+01261100521ADDAA106000091GF101991011011008001001001MA1999999096471MD1999999-0211REMSYN070AAXX  06184 82983 32595 11403 10364 20126 39647 40052 81100 333 59021;EQDQ01  00002PRCP06
0208829830999992002120700004-09380-040480FM-12+037099999V0200901N001512200019N0020001N1+03161+01381100591ADDAA106000091GA1001+999999999GF100991001001999999001001KA1240M+03741MA1999999096531MD1999999-0301REMSYN082AAXX  07004 82983 32995 00903 10316 20138 39653 40059 333 10374 29036 55118 59030;EQDQ01  00002PRCP06
0202829830999992002120712004-09380-040480FM-12+037099999V0200501N003119999999N0020001N1+02901+01751100931ADDAA106000091GF106991999011008001001001KA1240N+02461MA1999999096871MD1999999-0141REMSYN076AAXX  07124 82983 32595 60506 10290 20175 39687 40093 82100 333 20246 59014;EQDQ01+000022SCOTLCQ02  00002PRCP06
0183829830999992002120718004-09380-040480FM-12+037099999V0202701N001519999999N0020001N1+03701+01551100421ADDAA106000091GF106991999011008001001001MA1999999096371MD1999999-0101REMSYN070AAXX  07184 82983 32595 62703 10370 20155 39637 40042 82100 333 59010;EQDQ01+000022SCOTLCQ02  00002PRCP06
0198829830999992002120800004-09380-040480FM-12+037099999V0202701N001512200019N0020001N1+03061+01901100621ADDAA106000091GF101991011011008001001001KA1240M+03791MA1999999096561MD1999999+0031REMSYN088AAXX  08004 82983 32595 12703 10306 20190 39656 40062 81100 333 10379 29044 55082 58003;EQDQ01  00002PRCP06
0209829830999992002120812004-09380-040480FM-12+037099999V0209999C000010120019N0020001N1+02301+02181101151ADDAY121061AY261061GF108991999081008001051999KA1240N+02211MA1999999097021MD1999999+0151MW1021REMSYN088AAXX  08124 82983 21595 80000 10230 20218 39702 40115 70226 8885/ 333 20221 58015 60164;EQDQ01+000082SCOTLC
0171829830999992002120818004-09380-040480FM-12+037099999V0203601N003110075019N0020001N1+02561+02151100841ADDAY161061AY221061GF108991081051008001999999MA1999999096721MD1999999+0351MW1021REMSYN082AAXX  08184 82983 21595 83606 10256 20215 39672 40084 70262 885// 333 58035 60051;
0198829830999992002120900004-09380-040480FM-12+037099999V0202701N001510075019N0020001N1+02401+02091101131ADDAA106000091GF106991061061008001001001KA1240M+03021MA1999999096951MD1999999+0391REMSYN088AAXX  09004 82983 32595 62703 10240 20209 39695 40113 86600 333 10302 29084 55000 58039;EQDQ01  00002PRCP06
0190829830999992002120912004-09380-040480FM-12+037099999V0203201N002610075019N0020001N1+02321+02201101391ADDAY121061AY261061GF108991081061008001999999KA1240N+02251MA1999999097211MD1999999+0191MW1501REMSYN088AAXX  09124 82983 21595 83205 10232 20220 39721 40139 75026 886// 333 20225 58019 60074;
0171829830999992002120918004-09380-040480FM-12+037099999V0202301N002610075019N0020001N1+02681+02111101071ADDAY161061AY221061GF106991061071008001001001MA1999999096911MD1999999+0191MW1011REMSYN082AAXX  09184 82983 21595 62305 10268 20211 39691 40107 70162 86700 333 58019 60041;
0198829830999992002121000004-09380-040480FM-12+037099999V0209999C000010075019N0020001N1+02581+02171101271ADDAA106000091GF105991051021008001001001KA1240M+02741MA1999999097111MD1999999+0161REMSYN088AAXX  10004 82983 32595 50000 10258 20217 39711 40127 85200 333 10274 29080 55004 58016;EQDQ01  00002PRCP06
0162829830999992002121012004-09380-040480FM-12+037099999V0200901N001510450019N0020001N1+02621+02141101461ADDGF106991021011008001051001KA1240N+02321MA1999999097311MD1999999+0101REMSYN082AAXX  10124 82983 22595 60903 10262 20214 39731 40146 82150 333 20232 58010 60044;
0198829830999992002121100004-09380-040480FM-12+037099999V0203601N002112200019N0020001N1+02641+02031101321ADDAA106000091GF104991041021008001001001KA1240M+03351MA1999999097181MD1999999+0071REMSYN088AAXX  11004 82983 32595 43604 10264 20203 39718 40132 84200 333 10335 29071 55053 58007;EQDQ01  00002PRCP06
0186829830999992002121112004-09380-040480FM-12+037099999V0200901N005110075019N0020001N1+02741+02021101521ADDAA106000091GF106991051011008001021001KA1240N+02431MA1999999097381MD1999999+0071REMSYN076AAXX  11124 82983 32595 60910 10274 20202 39738 40152 85120 333 20243 58007;EQDQ01  00002PRCP06
0198829830999992002121200004-09380-040480FM-12+037099999V0209999C000012200019N0020001N1+03041+01751101141ADDAA106000091GF101991011011008001001001KA1240M+03481MA1999999097041MD1999999-0141REMSYN088AAXX  12004 82983 32595 10000 10304 20175 39704 40114 81100 333 10348 29052 55115 59014;EQDQ01  00002PRCP06
0186829830999992002121212004-09380-040480FM-12+037099999V0200901N003612200019N0020001N1+02721+01851101451ADDAA106000091GF104991041011008001001001KA1240N+02391MA1999999097341MD1999999-0041REMSYN076AAXX  12124 82983 32595 40907 10272 20185 39734 40145 84100 333 20239 59004;EQDQ01  00002PRCP06
0198829830999992002121300004-09380-040480FM-12+037099999V0201401N002612200019N0020001N1+03181+01571101061ADDAA106000091GF103991031011008001001001KA1240M+03561MA1999999096981MD1999999-0061REMSYN088AAXX  13004 82983 32595 31405 10318 20157 39698 40106 83100 333 10356 29045 55114 59006;EQDQ01  00002PRCP06
0186829830999992002121312004-09380-040480FM-12+037099999V0201401N005710075019N0020001N1+02681+01921101421ADDAA106000091GF106991061021008001001001KA1240N+02391MA1999999097321MD1999999-0021REMSYN076AAXX  13124 82983 32595 61411 10268 20192 39732 40142 86200 333 20239 59002;EQDQ01  00002PRCP06
0198829830999992002121400004-09380-040480FM-12+037099999V0209999C000012200019N0020001N1+02901+01931101011ADDAA106000091GF102991021011008001001001KA1240M+03321MA1999999096921MD1999999-0061REMSYN088AAXX  14004 82983 32595 20000 10290 20193 39692 40101 82100 333 10332 29058 55051 59006;EQDQ01  00002PRCP06
0186829830999992002121412004-09380-040480FM-12+037099999V0201401N003110075019N0020001N1+02761+02021101411ADDAA106000091GF106991061021008001001001KA1240N+02451MA1999999097301MD1999999-0021REMSYN076AAXX  14124 82983 32595 61406 10276 20202 39730 40141 86200 333 20245 59002;EQDQ01  00002PRCP06
0198829830999992002121500004-09380-040480FM-12+037099999V0201801N002612200019N0020001N1+03201+01781101041ADDAA106000091GF104991041021008001001001KA1240M+03521MA1999999096971MD1999999+0051REMSYN088AAXX  15004 82983 32595 41805 10320 20178 39697 40104 84200 333 10352 29050 55095 58005;EQDQ01  00002PRCP06
0186829830999992002121512004-09380-040480FM-12+037099999V0200901N004110075019N0100001N1+02741+02071101371ADDAA106000091GF106991061021008001001001KA1240N+02511MA1999999097271MD1999999-0031REMSYN076AAXX  15124 82983 32597 60908 10274 20207 39727 40137 86200 333 20251 59003;EQDQ01  00002PRCP06
0198829830999992002121600004-09380-040480FM-12+037099999V0201401N003110075019N0020001N1+03161+01821100971ADDAA106000091GF106991061021008001001001KA1240M+03521MA1999999096891MD1999999-0081REMSYN088AAXX  16004 82983 32595 61406 10316 20182 39689 40097 86200 333 10352 29052 55068 59008;EQDQ01  00002PRCP06
0186829830999992002121612004-09380-040480FM-12+037099999V0201401N005112200019N0020001N1+02841+01931101211ADDAA106000091GF103991031011008001001001KA1240N+02491MA1999999097141MD1999999-0131REMSYN076AAXX  16124 82983 32595 31410 10284 20193 39714 40121 83100 333 20249 59013;EQDQ01  00002PRCP06
0198829830999992002121700004-09380-040480FM-12+037099999V0200901N001512200019N0020001N1+03181+01731100881ADDAA106000091GF102991021011008001001001KA1240M+03541MA1999999096821MD1999999-0071REMSYN088AAXX  17004 82983 32595 20903 10318 20173 39682 40088 82100 333 10354 29047 55080 59007;EQDQ01  00002PRCP06
0186829830999992002121712004-09380-040480FM-12+037099999V0201401N003110075019N0020001N1+02781+02091101191ADDAA106000091GF106991061021008001001001KA1240N+02551MA1999999097121MD1999999-0021REMSYN076AAXX  17124 82983 32595 61406 10278 20209 39712 40119 86200 333 20255 59002;EQDQ01  00002PRCP06
0198829830999992002121800004-09380-040480FM-12+037099999V0209999C000010075019N0020001N1+03041+01881100971ADDAA106000091GF106991061021008001001001KA1240M+03361MA1999999096881MD1999999+0061REMSYN088AAXX  18004 82983 32595 60000 10304 20188 39688 40097 86200 333 10336 29055 55071 58006;EQDQ01  00002PRCP06
0186829830999992002121812004-09380-040480FM-12+037099999V0200901N004110075019N0020001N1+02781+02041101261ADDAA106000091GF106991061021008001001001KA1240N+02561MA1999999097151MD1999999+0031REMSYN076AAXX  18124 82983 32595 60908 10278 20204 39715 40126 86200 333 20256 58003;EQDQ01  00002PRCP06
0198829830999992002121900004-09380-040480FM-12+037099999V0201401N002610075019N0020001N1+03221+01771100891ADDAA106000091GF105991051021008001001001KA1240M+03501MA1999999096831MD1999999-0051REMSYN088AAXX  19004 82983 32595 51405 10322 20177 39683 40089 85200 333 10350 29049 55085 59005;EQDQ01  00002PRCP06
0186829830999992002121912004-09380-040480FM-12+037099999V0201401N003110450019N0020001N1+02761+02041101201ADDAA106000091GF105991021011008001021001KA1240N+02591MA1999999097131MD1999999-0021REMSYN076AAXX  19124 82983 32595 51406 10276 20204 39713 40120 82120 333 20259 59002;EQDQ01  00002PRCP06
0202829830999992002122000004-09380-040480FM-12+037099999V0201801N001512200019N0020001N1+02721+02151101081ADDAY161061AY201061GF102991021011008001001001KA1240M+03551MA1999999096961MD1999999+0131MW1011REMSYN100AAXX  20004 82983 21595 21803 10272 20215 39696 40108 70160 82100 333 10355 29069 55077 58013 60031;
0162829830999992002122012004-09380-040480FM-12+037099999V0201401N003110075019N0020001N1+02621+02011101641ADDGF107991071021008001001001KA1240N+02581MA1999999097491MD1999999+0361REMSYN082AAXX  20124 82983 22595 71406 10262 20201 39749 40164 87200 333 20258 58036 60034;
0198829830999992002122100004-09380-040480FM-12+037099999V0201801N001512200019N0020001N1+03041+01681101181ADDAA106000091GF102991021011008001001001KA1240M+03421MA1999999097081MD1999999+0121REMSYN088AAXX  21004 82983 32595 21803 10304 20168 39708 40118 82100 333 10342 29052 55087 58012;EQDQ01  00002PRCP06
0186829830999992002122112004-09380-040480FM-12+037099999V0200901N004112200019N0020001N1+02641+01881101571ADDAA106000091GF103991031021008001001001KA1240N+02451MA1999999097451MD1999999-0041REMSYN076AAXX  21124 82983 32595 30908 10264 20188 39745 40157 83200 333 20245 59004;EQDQ01  00002PRCP06
0198829830999992002122200004-09380-040480FM-12+037099999V0200901N001512200019N0020001N1+03181+01311101021ADDAA106000091GF102991021011008001001001KA1240M+03571MA1999999096931MD1999999-0151REMSYN088AAXX  22004 82983 32595 20903 10318 20131 39693 40102 82100 333 10357 29042 55099 59015;EQDQ01  00002PRCP06
0198829830999992002122300004-09380-040480FM-12+037099999V0201401N001512200019N0020001N1+03221+02011100081ADDAA106000091GF104991041011008001001001KA1240M+03641MA1999999096801MD1999999-0131REMSYN088AAXX  23004 82983 32595 41403 10322 20201 39680 40008 84100 333 10364 29046 55118 59013;EQDQ01  00002PRCP06
0186829830999992002122312004-09380-040480FM-12+037099999V0200901N001512200019N0020001N1+02901+02041101201ADDAA106000091GF102991021011008001001001KA1240N+02581MA1999999097131MD1999999-0051REMSYN076AAXX  23124 82983 32595 20903 10290 20204 39713 40120 82100 333 20258 59005;EQDQ01  00002PRCP06
0208829830999992002122400004-09380-040480FM-12+037099999V0209999C000012200019N0020001N1+03241+01671100891ADDAA106000091GA1001+999999999GF100991001001999999001001KA1240M+03721MA1999999096831MD1999999+0031REMSYN082AAXX  24004 82983 32995 00000 10324 20167 39683 40089 333 10372 29046 55115 58003;EQDQ01  00002PRCP06
0186829830999992002122412004-09380-040480FM-12+037099999V0203601N001512200019N0020001N1+03001+02001101241ADDAA106000091GF102991021011008001001001KA1240N+02651MA1999999097161MD1999999+0031REMSYN076AAXX  24124 82983 32595 23603 10300 20200 39716 40124 82100 333 20265 58003;EQDQ01  00002PRCP06
0208829830999992002122500004-09380-040480FM-12+037099999V0202301N001012200019N0020001N1+03021+02041100891ADDAA106000091GA1001+999999999GF100991001001999999001001KA1240M+03731MA1999999096831MD1999999+0001REMSYN082AAXX  25004 82983 32995 02302 10302 20204 39683 40089 333 10373 29056 55112 58000;EQDQ01  00002PRCP06
0202829830999992002122512004-09380-040480FM-12+037099999V0203601N005710075019N0020001N1+02641+02121101311ADDAA106000091GF108991999021008001001001KA1240N+02541MA1999999097201MD1999999+0041REMSYN076AAXX  25124 82983 32595 83611 10264 20212 39720 40131 85200 333 20254 58004;EQDQ01+000052SCOTLCQ02  00002PRCP06
0198829830999992002122600004-09380-040480FM-12+037099999V0202701N001012200019N0020001N1+02681+02021101281ADDAA106000091GF103991031011008001001001KA1240M+03261MA1999999097141MD1999999+0311REMSYN088AAXX  26004 82983 32595 32702 10268 20202 39714 40128 83100 333 10326 29069 55041 58031;EQDQ01  00002PRCP06
0186829830999992002122612004-09380-040480FM-12+037099999V0203601N004110450019N0020001N1+02921+02041101341ADDAA106000091GF106991021011008001021001KA1240N+02401MA1999999097231MD1999999+0031REMSYN076AAXX  26124 82983 32595 63608 10292 20204 39723 40134 82120 333 20240 58003;EQDQ01  00002PRCP06
0202829830999992002122700004-09380-040480FM-12+037099999V0202301N004110075019N0020001N1+02421+02051101201ADDAY121061AY261061GF108991081061008001999999KA1240M+03381MA1999999097061MD1999999-0081MW1631REMSYN100AAXX  27004 82983 21595 82308 10242 20205 39706 40120 76326 886// 333 10338 29073 55068 59008 60091;
0190829830999992002122712004-09380-040480FM-12+037099999V0203201N001510075019N0020001N1+02121+02071101561ADDAY161061AY261061GF108991081061008001999999KA1240N+02131MA1999999097361MD1999999+0131MW1501REMSYN088AAXX  27124 82983 21595 83203 10212 20207 39736 40156 75066 886// 333 20213 58013 60414;
0202829830999992002122800004-09380-040480FM-12+037099999V0209999C000012200019N0020001N1+02481+02191101251ADDAY121061AY221061GF101991011011008001001001KA1240M+02621MA1999999097071MD1999999+0011MW1011REMSYN100AAXX  28004 82983 21595 10000 10248 20219 39707 40125 70122 81100 333 10262 29088 55008 58001 60041;
0162829830999992002122812004-09380-040480FM-12+037099999V0200501N002610075019N0020001N1+02501+02171101271ADDGF108991081051008001999999KA1240N+02321MA1999999097121MD1999999-0241REMSYN082AAXX  28124 82983 22595 80505 10250 20217 39712 40127 885// 333 20232 59024 60044;
0202829830999992002122912004-09380-040480FM-12+037099999V0200501N002619999999N0020001N1+02581+02121101291ADDAA106000091GF108991999011008001001001KA1240N+02471MA1999999097151MD1999999+0031REMSYN076AAXX  29124 82983 32595 80505 10258 20212 39715 40129 82100 333 20247 58003;EQDQ01+000022SCOTLCQ02  00002PRCP06
0198829830999992002123000004-09380-040480FM-12+037099999V0201801N001512200019N0020001N1+02661+02001101181ADDAA106000091GF102991021011008001001001KA1240M+03141MA1999999097041MD1999999+0141REMSYN088AAXX  30004 82983 32595 21803 10266 20200 39704 40118 82100 333 10314 29070 55001 58014;EQDQ01  00002PRCP06
0186829830999992002123012004-09380-040480FM-12+037099999V0200901N003610075019N0020001N1+02641+02001101431ADDAA106000091GF105991051011008001001001KA1240N+02391MA1999999097291MD1999999+0141REMSYN076AAXX  30124 82983 32595 50907 10264 20200 39729 40143 85100 333 20239 58014;EQDQ01  00002PRCP06
0198829830999992002123100004-09380-040480FM-12+037099999V0201801N002112200019N0020001N1+02881+01911101141ADDAA106000091GF101991011011008001001001KA1240M+03301MA1999999097021MD1999999-0021REMSYN088AAXX  31004 82983 32595 11804 10288 20191 39702 40114 81100 333 10330 29060 55114 59002;EQDQ01  00002PRCP06
0186829830999992002123112004-09380-040480FM-12+037099999V0200901N003610075019N0020001N1+02581+01941101461ADDAA106000091GF106991061021008001001001KA1240N+02381MA1999999097341MD1999999+0051REMSYN076AAXX  31124 82983 32595 60907 10258 20194 39734 40146 86200 333 20238 58005;EQDQ01  00002PRCP06
0167829830999992002123118004-09380-040480FM-12+037099999V0201401N001512200019N0020001N1+03121+01921101081ADDAA106000091GF104991041021008001001001MA1999999096961MD1999999+0001REMSYN070AAXX  31184 82983 32595 41403 10312 20192 39696 40108 84200 333 58000;EQDQ01  00002PRCP06
