0198829860999992002010100004-09390-038210FM-12+0252SBUF V0200901N001010090019N0010001N1+02541+02021101121ADDAA199000091GF108991081081004501999999KA1240M+02771MA1999999098261MD1999999-0061REMSYN088AAXX  01004 82986 32494 80902 10254 20202 39826 40112 888// 333 10277 29077 55000 59006;EQDQ01  00002PRCP99
0173829860999992002010112004-09390-038210FM-12+0252SBUF V0201401N001510450019N0040001N1+02631+02211101151ADDAA124001091GF107991041021004501081011KA1240N+02221MA1999999098311MD1999999-0191REMSYN082AAXX  01124 82986 22496 71403 10263 20221 39831 40115 84281 333 20222 59019 60014;
0180829860999992002010118004-09390-038210FM-12+0252SBUF V0200501N001010450019N0100001N1+03001+02161100661ADDAA199000091AY121061AY221061GF106991031021004501081011MD1999999-0261MW1151REMSYN076AAXX  01184 82986 31497 60502 10300 20216 30/85 40066 71522 83281 333 59026;EQDQ01  00002PRCP99
0198829860999992002010200004-09390-038210FM-12+0252SBUF V0201801N000510450019N0010001N1+02571+02251101071ADDAA199000091GF106991031021004501081001KA1240M+03181MA1999999098231MD1999999-0031REMSYN088AAXX  02004 82986 32494 61801 10257 20225 39823 40107 83280 333 10318 29076 55038 59003;EQDQ01  00002PRCP99
0201829860999992002010212004-09390-038210FM-12+0252SBUF V0203601N001010450019N0100001N1+02591+02081101141ADDAA124000191AY151061AY221061GF106991031021004501081001KA1240N+02361MA1999999098301MD1999999-0011MW1201REMSYN088AAXX  02124 82986 21497 63602 10259 20208 39830 40114 72052 83280 333 20236 59001 69914;
0148829860999992002010218004-09390-038210FM-12+0252SBUF V0203201N001510450019N0200001N1+03201+02151100631ADDAA199000021GF107991041021004501081011MA1999999097831MD1999999-0021REMSYN070AAXX  02184 82986 32498 73203 10320 20215 39783 40063 84281 333 59002;
0213829860999992002010300004-09390-038210FM-12+0252SBUF V0203201N000510042019N0010001N1+02271+02181101271ADDAA106035191AY191061AY261061GF108991081091004501999999KA1240M+03281MA1999999098411MD1999999+0181MW1921REMSYN100AAXX  03004 82986 21494 83201 10227 20218 39841 40127 79296 889// 333 10328 29080 55041 58018 60351;
0220829860999992002010312004-09390-038210FM-12+0252SBUF V0203601N001510042019N0040001N1+02491+02051101201ADDAA124047091AY161061AY251061GF108991999071004501081999KA1240N+02111MA1999999098341MD1999999+0041MW1211REMSYN088AAXX  03124 82986 21496 83603 10249 20205 39834 40120 72165 8878/ 333 20211 58004 60474;EQDQ01+000082SCOTLC
0148829860999992002010318004-09390-038210FM-12+0252SBUF V0203201N001010450019N0100001N1+03061+01991100771ADDAA199000021GF107991011011008001091001MA1999999097951MD1999999+0121REMSYN070AAXX  03184 82986 32597 73202 10306 20199 39795 40077 81190 333 58012;
0213829860999992002010400004-09390-038210FM-12+0252SBUF V0200901N002610075019N0020001N1+02391+02241101111ADDAA106017091AY181061AY261061GF106991051071008001999001KA1240M+03121MA1999999098251MD1999999-0161MW1011REMSYN100AAXX  04004 82986 21595 60905 10239 20224 39825 40111 70186 857/0 333 10312 29079 55015 59016 60171;
0201829860999992002010412004-09390-038210FM-12+0252SBUF V0202701N001010042019N0040001N1+02501+02251101281ADDAA124024991AY181061AY261061GF108991081071004501999999KA1240N+02281MA1999999098421MD1999999+0081MW1021REMSYN088AAXX  04124 82986 21496 82702 10250 20225 39842 40128 70286 887// 333 20228 58008 60254;
0182829860999992002010418004-09390-038210FM-12+0252SBUF V0203201N002610042019N0040001N1+02621+02011100961ADDAA106000191AY161061AY251061GF107991051071004501081001MA1999999098121MD1999999+0161MW1031REMSYN082AAXX  04184 82986 21496 73205 10262 20201 39812 40096 70365 85780 333 58016 69911;
0201829860999992002010512004-09390-038210FM-12+0252SBUF V0203201N000510450019N0100001N1+02641+02181101371ADDAA124000391AY151061AY221061GF106991011071008001071001KA1240N+02241MA1999999098511MD1999999+0091MW1031REMSYN088AAXX  05124 82986 21597 63201 10264 20218 39851 40137 70352 81770 333 20224 58009 69934;
0167829860999992002010518004-09390-038210FM-12+0252SBUF V0203201N002110450019N0100001N1+03001+02221100931ADDAA199000091GF107991041021004501081011MA1999999098111MD1999999-0011REMSYN070AAXX  05184 82986 32497 73204 10300 20222 39811 40093 84281 333 59001;EQDQ01  00002PRCP99
0198829860999992002010600004-09390-038210FM-12+0252SBUF V0200901N004110450019N0010001N1+02701+02231101101ADDAA199000091GF106991041021004501081001KA1240M+03171MA1999999098271MD1999999-0191REMSYN088AAXX  06004 82986 32494 60908 10270 20223 39827 40110 84280 333 10317 29071 55012 59019;EQDQ01  00002PRCP99
0220829860999992002010612004-09390-038210FM-12+0252SBUF V0203201N001510042019N0040001N1+02431+02191101201ADDAA124023991AY161061AY251061GF108991999071004501081999KA1240N+02241MA1999999098361MD1999999-0151MW1031REMSYN088AAXX  06124 82986 21496 83203 10243 20219 39836 40120 70365 8878/ 333 20224 59015 60244;EQDQ01+000082SCOTLC
0167829860999992002010618004-09390-038210FM-12+0252SBUF V0203201N001510450019N0100001N1+02901+02301100761ADDAA199000091GF106991041021004501081001MA1999999097941MD1999999-0171REMSYN070AAXX  06184 82986 32497 63203 10290 20230 39794 40076 84280 333 59017;EQDQ01  00002PRCP99
0213829860999992002010700004-09390-038210FM-12+0252SBUF V0200901N003110060019N0005001N1+02361+02191101171ADDAA106000191AY161061AY261061GF108991081081002501999999KA1240M+02931MA1999999098301MD1999999+0031MW1911REMSYN100AAXX  07004 82986 21393 80906 10236 20219 39830 40117 79166 888// 333 10293 29084 55017 58003 69921;
0326829860999992002010712004-09390-038210SY-MT+0252SBUF V0201401N001510045019N0020001N1+02351+02201101341ADDAA124013091AY161061AY251061GA1071+004509999GA2071+024009999GF108991081081002501999999KA1240N+02141MA1101391098461MD1999999+0101MW1031REMSYN088AAXX  07124 82986 21395 81403 10235 20220 39846 40134 70365 888// 333 20214 58010 60134;MET052SBUF 071200Z 14008KT 9999 BKN015 BKN080 24/22 Q1014;EQDQ01+000000PRSWM2Q02    003PRSWM1
0167829860999992002010718004-09390-038210FM-12+0252SBUF V0201401N001510090019N0040001N1+02591+02081101011ADDAA199000091GF108991081081004501999999MA1999999098151MD1999999+0211REMSYN070AAXX  07184 82986 32496 81403 10259 20208 39815 40101 888// 333 58021;EQDQ01  00002PRCP99
0208829860999992002010800004-09390-038210FM-12+0252SBUF V0200901N001512200019N0010001N1+02371+02111101211ADDAA199000091GA1001+999999999GF100991001001999999001001KA1240M+02681MA1999999098341MD1999999+0041REMSYN082AAXX  08004 82986 32994 00903 10237 20211 39834 40121 333 10268 29085 55000 58004;EQDQ01  00002PRCP99
0186829860999992002010812004-09390-038210FM-12+0252SBUF V0200901N001511050019N0100001N1+02651+02121101291ADDAA199000091GF106991031021008001001051KA1240N+02201MA1999999098431MD1999999-0031REMSYN076AAXX  08124 82986 32597 60903 10265 20212 39843 40129 83205 333 20220 59003;EQDQ01  00002PRCP99
0182829860999992002010818004-09390-038210FM-12+0252SBUF V0201401N007710075019N0040001N1+02991+02041100881ADDAA106000391AY121061AY221061GF106991051021008001081001MA1999999098061MD1999999-0091MW1611REMSYN082AAXX  08184 82986 21596 61415 10299 20204 39806 40088 76122 85280 333 59009 69931;
0213829860999992002010900004-09390-038210FM-12+0252SBUF V0200901N003110075019N0020001N1+02371+02241101211ADDAA106000191AY161061AY221061GF105991051071008001001001KA1240M+03091MA1999999098361MD1999999+0021MW1011REMSYN100AAXX  09004 82986 21595 50906 10237 20224 39836 40121 70162 85700 333 10309 29079 55079 58002 69921;
0201829860999992002010912004-09390-038210FM-12+0252SBUF V0200901N003110450019N0040001N1+02611+02191101351ADDAA124003091AY161061AY251061GF106991041021004501081001KA1240N+02201MA1999999098491MD1999999+0061MW1031REMSYN088AAXX  09124 82986 21496 60906 10261 20219 39849 40135 70365 84280 333 20220 58006 60034;
0167829860999992002010918004-09390-038210FM-12+0252SBUF V0201401N005710450019N0200001N1+02991+02201100951ADDAA199000091GF106991031021012501041021MA1999999098131MD1999999+0071REMSYN070AAXX  09184 82986 32698 61411 10299 20220 39813 40095 83242 333 58007;EQDQ01  00002PRCP99
0213829860999992002011000004-09390-038210FM-12+0252SBUF V0200901N002610120019N0020001N1+02431+02071101451ADDAA106000591AY181061AY221061GF106991061081008001999001KA1240M+03101MA1999999098591MD1999999+0231MW1021REMSYN100AAXX  10004 82986 21595 60905 10243 20207 39859 40145 70282 868/0 333 10310 29076 55084 58023 69951;
0173829860999992002011012004-09390-038210FM-12+0252SBUF V0200901N005110075019N0100001N1+02651+02121101541ADDAA124000591GF106991051021008001031001KA1240N+02221MA1999999098691MD1999999+0201REMSYN082AAXX  10124 82986 22597 60910 10265 20212 39869 40154 85230 333 20222 58020 69954;
0139829860999992002011014004-09390-038210FM-15+0252SBUF V0201201N004110060019N0112651N1+02901+02201999999ADDGA1071+006009999GF107991999999999999999999MA1101591999999MW1001REMMET045SBUF 101400Z 12008KT 9999 BKN020 29/22 Q1016;EQDQ01+000000PRSWM2
0167829860999992002011018004-09390-038210FM-12+0252SBUF V0200901N005110042019N0100001N1+03071+01961101061ADDAA199000091GF106991051021004501081001MA1999999098231MD1999999+0101REMSYN070AAXX  10184 82986 32497 60910 10307 20196 39823 40106 85280 333 58010;EQDQ01  00002PRCP99
0208829860999992002011100004-09390-038210FM-12+0252SBUF V0200901N003112200019N0020001N1+02441+02191101511ADDAA199000091GA1001+999999999GF100991001001999999001001KA1240M+03081MA1999999098651MD1999999+0061REMSYN082AAXX  11004 82986 32995 00906 10244 20219 39865 40151 333 10308 29074 55096 58006;EQDQ01  00002PRCP99
0182829860999992002011118004-09390-038210FM-12+0252SBUF V0200901N004110450019N0040001N1+02851+02171101231ADDAA106004191AY161061AY251061GF106991041021004501081001MA1999999098391MD1999999+0161MW1031REMSYN082AAXX  11184 82986 21496 60908 10285 20217 39839 40123 70365 84280 333 58016 60041;
0208829860999992002011200004-09390-038210FM-12+0252SBUF V0200901N003112200019N0020001N1+02431+02171101531ADDAA199000091GA1001+999999999GF100991001001999999001001KA1240M+02951MA1999999098671MD1999999+0021REMSYN082AAXX  12004 82986 32995 00906 10243 20217 39867 40153 333 10295 29080 55052 58002;EQDQ01  00002PRCP99
0201829860999992002011212004-09390-038210FM-12+0252SBUF V0201401N003610042019N0040001N1+02371+02191101591ADDAA124006191AY161061AY251061GF107991051071004501081001KA1240N+02211MA1999999098711MD1999999-0051MW1031REMSYN088AAXX  12124 82986 21496 71407 10237 20219 39871 40159 70365 85780 333 20221 59005 60064;
0182829860999992002011218004-09390-038210FM-12+0252SBUF V0202301N001510450019N0040001N1+02661+02331101131ADDAA106003091AY161061AY221061GF106991041021004501081001MA1999999098291MD1999999-0101MW1161REMSYN082AAXX  12184 82986 21496 62303 10266 20233 39829 40113 71662 84280 333 59010 60031;
0213829860999992002011300004-09390-038210FM-12+0252SBUF V0201401N003112200019N0010001N1+02431+02261101451ADDAA106002091AY161061AY221061GF103991031021008001001001KA1240M+02841MA1999999098581MD1999999-0091MW1021REMSYN100AAXX  13004 82986 21594 31406 10243 20226 39858 40145 70262 83200 333 10284 29089 55015 59009 60021;
0173829860999992002011312004-09390-038210FM-12+0252SBUF V0200901N001510042019N0040001N1+02511+02111101411ADDAA124004191GF107991051021004501081001KA1240N+02201MA1999999098541MD1999999-0171REMSYN082AAXX  13124 82986 22496 70903 10251 20211 39854 40141 85280 333 20220 59017 60044;
0167829860999992002011318004-09390-038210FM-12+0252SBUF V0200901N001512200019N0100001N1+03001+02081101071ADDAA199000091GF105991041021008001001011MA1999999098241MD1999999-0051REMSYN070AAXX  13184 82986 32597 50903 10300 20208 39824 40107 84201 333 59005;EQDQ01  00002PRCP99
0198829860999992002011400004-09390-038210FM-12+0252SBUF V0200901N002612200019N0010001N1+02591+02231101281ADDAA199000091GF102991021001012501061001KA1240M+03071MA1999999098431MD1999999-0151REMSYN088AAXX  14004 82986 32694 20905 10259 20223 39843 40128 82060 333 10307 29075 55072 59015;EQDQ01  00002PRCP99
0186829860999992002011412004-09390-038210FM-12+0252SBUF V0200901N001510450019N0100001N1+02651+02161101291ADDAA199000091GF106991041021004501081001KA1240N+02211MA1999999098451MD1999999-0091REMSYN076AAXX  14124 82986 32497 60903 10265 20216 39845 40129 84280 333 20221 59009;EQDQ01  00002PRCP99
0167829860999992002011418004-09390-038210FM-12+0252SBUF V0203201N001011050019N0200001N1+03141+02181100771ADDAA199000091GF105991041021012501001021MA1999999097961MD1999999-0281REMSYN070AAXX  14184 82986 32698 53202 10314 20218 39796 40077 84202 333 59028;EQDQ01  00002PRCP99
0198829860999992002011500004-09390-038210FM-12+0252SBUF V0200901N002619999999N0020001N1+02671+02071100981ADDAA199000091GF106991061001012501071001KA1240M+03171MA1999999098151MD1999999-0281REMSYN088AAXX  15004 82986 32695 60905 10267 20207 39815 40098 86070 333 10317 29068 55092 59028;EQDQ01  00002PRCP99
0202829860999992002011512004-09390-038210FM-12+0252SBUF V0203201N001510042019N0040001N1+02531+02191101061ADDAA199000091GF108991999071004501081999KA1240N+02241MA1999999098221MD1999999-0231REMSYN076AAXX  15124 82986 32496 83203 10253 20219 39822 40106 8878/ 333 20224 59023;EQDQ01+000082SCOTLCQ02  00002PRCP99
0226829860999992002011600004-09390-038210FM-12+0252SBUF V0202701N001019999999N0020001N1+02671+02241100881ADDAA199000091AY121061AY221061GF108991021071012501999999KA1240M+02971MA1999999098051MD1999999-0101MW1131REMSYN094AAXX  16004 82986 31695 82702 10267 20224 39805 40088 71322 827// 333 10297 29077 55005 59010;EQDQ01  00002PRCP99
0201829860999992002011612004-09390-038210FM-12+0252SBUF V0201801N000510090019N0040001N1+02491+02271101111ADDAA124000891AY121061AY221061GF108991081081004501999999KA1240N+02321MA1999999098271MD1999999+0051MW1551REMSYN088AAXX  16124 82986 21496 81801 10249 20227 39827 40111 75522 888// 333 20232 58005 69984;
0213829860999992002011700004-09390-038210FM-12+0252SBUF V0200901N001510060019N0002001N1+02281+02161101131ADDAA106000591AY161061AY261061GF108991081081002501999999KA1240M+02951MA1999999098251MD1999999+0201MW1911REMSYN100AAXX  17004 82986 21392 80903 10228 20216 39825 40113 79166 888// 333 10295 29087 55005 58020 69951;
0201829860999992002011712004-09390-038210FM-12+0252SBUF V0201401N003110042019N0040001N1+02451+02231101161ADDAA124001091AY151061AY221061GF108991081071004501999999KA1240N+02241MA1999999098291MD1999999+0021MW1021REMSYN088AAXX  17124 82986 21496 81406 10245 20223 39829 40116 70252 887// 333 20224 58002 60014;
0182829860999992002011718004-09390-038210FM-12+0252SBUF V0203601N001510450019N0200001N1+02921+02361100781ADDAA106000791AY121061AY221061GF106991041021008001071001MA1999999097961MD1999999-0021MW1511REMSYN082AAXX  17184 82986 21598 63603 10292 20236 39796 40078 75122 84270 333 59002 69901;
0213829860999992002011800004-09390-038210FM-12+0252SBUF V0200501N002110060019N0001001N1+02351+02221101231ADDAA106045091AY161061AY261061GF108991081081001501999999KA1240M+03031MA1999999098361MD1999999+0111MW1921REMSYN100AAXX  18004 82986 21291 80504 10235 20222 39836 40123 79266 888// 333 10303 29086 55028 58011 60451;
0201829860999992002011812004-09390-038210FM-12+0252SBUF V0200901N001510042019N0020001N1+02491+02231101341ADDAA124096091AY161061AY251061GF107991051071004501081001KA1240N+02191MA1999999098471MD1999999+0181MW1031REMSYN088AAXX  18124 82986 21495 70903 10249 20223 39847 40134 70365 85780 333 20219 58018 60964;
0167829860999992002011818004-09390-038210FM-12+0252SBUF V0200901N002110450019N0100001N1+03031+01891100961ADDAA199000091GF106991031011008001081021MA1999999098131MD1999999+0171REMSYN070AAXX  18184 82986 32597 60904 10303 20189 39813 40096 83182 333 58017;EQDQ01  00002PRCP99
0198829860999992002011900004-09390-038210FM-12+0252SBUF V0200901N003610450019N0010001N1+02331+02131101101ADDAA199000091GF106991041021004501081001KA1240M+03101MA1999999098241MD1999999-0121REMSYN088AAXX  19004 82986 32494 60907 10233 20213 39824 40110 84280 333 10310 29079 55068 59012;EQDQ01  00002PRCP99
0186829860999992002011912004-09390-038210FM-12+0252SBUF V0200901N003110450019N0040001N1+02571+02151101231ADDAA199000091GF106991041021004501081001KA1240N+02131MA1999999098371MD1999999-0101REMSYN076AAXX  19124 82986 32496 60906 10257 20215 39837 40123 84280 333 20213 59010;EQDQ01  00002PRCP99
0167829860999992002011918004-09390-038210FM-12+0252SBUF V0200901N001512200019N0100001N1+02991+02121100891ADDAA199000091GF105991041021008001001011MA1999999098061MD1999999-0071REMSYN070AAXX  19184 82986 32597 50903 10299 20212 39806 40089 84201 333 59007;EQDQ01  00002PRCP99
0198829860999992002012000004-09390-038210FM-12+0252SBUF V0200901N002119999999N0010001N1+02611+02121101151ADDAA199000091GF106991061001012501071001KA1240M+03061MA1999999098311MD1999999+0071REMSYN088AAXX  20004 82986 32694 60904 10261 20212 39831 40115 86070 333 10306 29072 55085 58007;EQDQ01  00002PRCP99
0201829860999992002012012004-09390-038210FM-12+0252SBUF V0200901N002110075019N0100001N1+02641+02161101351ADDAA124000791AY151061AY221061GF105991051021008001001001KA1240N+02221MA1999999098511MD1999999+0141MW1021REMSYN088AAXX  20124 82986 21597 50904 10264 20216 39851 40135 70252 85200 333 20222 58014 69904;
0167829860999992002012018004-09390-038210FM-12+0252SBUF V0200901N003610120019N0200001N1+03051+02031101031ADDAA199000091GF105991051021012501001001MA1999999098201MD1999999+0141REMSYN070AAXX  20184 82986 32698 50907 10305 20203 39820 40103 85200 333 58014;EQDQ01  00002PRCP99
0208829860999992002012100004-09390-038210FM-12+0252SBUF V0200901N004612200019N0020001N1+02631+02161101351ADDAA199000091GA1001+999999999GF100991001001999999001001KA1240M+03101MA1999999098511MD1999999+0201REMSYN082AAXX  21004 82986 32995 00909 10263 20216 39851 40135 333 10310 29070 55114 58020;EQDQ01  00002PRCP99
0186829860999992002012112004-09390-038210FM-12+0252SBUF V0201401N001510450019N0100001N1+02621+02211101511ADDAA199000091GF106991031011004501081001KA1240N+02241MA1999999098671MD1999999+0161REMSYN076AAXX  21124 82986 32497 61403 10262 20221 39867 40151 83180 333 20224 58016;EQDQ01  00002PRCP99
0182829860999992002012118004-09390-038210FM-12+0252SBUF V0201401N003110060019N0040001N1+02391+02211101321ADDAA106002091AY121061AY221061GF108991071081002501091999MA1999999098451MD1999999+0251MW1291REMSYN082AAXX  21184 82986 21396 81406 10239 20221 39845 40132 72922 8789/ 333 58025 60021;
0213829860999992002012200004-09390-038210FM-12+0252SBUF V0200901N001019999999N0020001N1+02341+02201101571ADDAA106000591AY161061AY251061GF108991041071004501999999KA1240M+03041MA1999999098711MD1999999+0201MW1021REMSYN100AAXX  22004 82986 21495 80902 10234 20220 39871 40157 70265 847// 333 10304 29088 55061 58020 69941;
0201829860999992002012212004-09390-038210FM-12+0252SBUF V0200901N003110042019N0100001N1+02441+02231101621ADDAA124004191AY161061AY251061GF107991051071004501081001KA1240N+02151MA1999999098741MD1999999+0071MW1011REMSYN088AAXX  22124 82986 21497 70906 10244 20223 39874 40162 70165 85780 333 20215 58007 60044;
0167829860999992002012218004-09390-038210FM-12+0252SBUF V0200901N002110450019N0100001N1+02811+01981101281ADDAA199000091GF107991041021004501081001MA1999999098431MD1999999-0021REMSYN070AAXX  22184 82986 32497 70904 10281 20198 39843 40128 84280 333 59002;EQDQ01  00002PRCP99
0213829860999992002012300004-09390-038210FM-12+0252SBUF V0200901N001010450019N0020001N1+02371+02131101521ADDAA106000191AY161061AY251061GF106991031011008001081001KA1240M+02921MA1999999098641MD1999999-0071MW1031REMSYN100AAXX  23004 82986 21595 60902 10237 20213 39864 40152 70365 83180 333 10292 29081 55011 59007 69911;
0173829860999992002012312004-09390-038210FM-12+0252SBUF V0201401N002610450019N0100001N1+02581+02211101581ADDAA124000191GF106991041021008001061011KA1240N+02121MA1999999098721MD1999999-0021REMSYN082AAXX  23124 82986 22597 61405 10258 20221 39872 40158 84261 333 20212 59002 69914;
0167829860999992002012318004-09390-038210FM-12+0252SBUF V0200901N002610450019N0200001N1+02991+02091101201ADDAA199000091GF106991041021004501081011MA1999999098361MD1999999-0071REMSYN070AAXX  23184 82986 32498 60905 10299 20209 39836 40120 84281 333 59007;EQDQ01  00002PRCP99
0208829860999992002012400004-09390-038210FM-12+0252SBUF V0200901N003112200019N0020001N1+02531+02111101381ADDAA199000091GA1001+999999999GF100991001001999999001001KA1240M+03121MA1999999098531MD1999999-0111REMSYN082AAXX  24004 82986 32995 00906 10253 20211 39853 40138 333 10312 29074 55102 59011;EQDQ01  00002PRCP99
0186829860999992002012412004-09390-038210FM-12+0252SBUF V0201401N001510450019N0040001N1+02531+02131101471ADDAA199000091GF106991021011008001081001KA1240N+02111MA1999999098611MD1999999-0111REMSYN076AAXX  24124 82986 32596 61403 10253 20213 39861 40147 82180 333 20211 59011;EQDQ01  00002PRCP99
0167829860999992002012418004-09390-038210FM-12+0252SBUF V0200901N001512200019N0200001N1+03071+02171101031ADDAA199000091GF104991041011008001081001MA1999999098201MD1999999-0161REMSYN070AAXX  24184 82986 32598 40903 10307 20217 39820 40103 84180 333 59016;EQDQ01  00002PRCP99
0198829860999992002012500004-09390-038210FM-12+0252SBUF V0200901N001510450019N0020001N1+02511+02291101271ADDAA199000091GF105991021011008001081001KA1240M+03111MA1999999098411MD1999999-0121REMSYN088AAXX  25004 82986 32595 50903 10251 20229 39841 40127 82180 333 10311 29079 55082 59012;EQDQ01  00002PRCP99
0186829860999992002012512004-09390-038210FM-12+0252SBUF V0201401N001510042019N0040001N1+02641+02231101461ADDAA199000091GF107991051071004501081001KA1240N+02311MA1999999098611MD1999999+0001REMSYN076AAXX  25124 82986 32496 71403 10264 20223 39861 40146 85780 333 20231 58000;EQDQ01  00002PRCP99
0167829860999992002012518004-09390-038210FM-12+0252SBUF V0200901N001510450019N0100001N1+02991+02151101061ADDAA199000091GF106991031011008001081001MA1999999098231MD1999999+0031REMSYN070AAXX  25184 82986 32597 60903 10299 20215 39823 40106 83180 333 58003;EQDQ01  00002PRCP99
0208829860999992002012600004-09390-038210FM-12+0252SBUF V0200901N001512200019N0020001N1+02551+02271101311ADDAA199000091GA1001+999999999GF100991001001999999001001KA1240M+03091MA1999999098471MD1999999+0061REMSYN082AAXX  26004 82986 32995 00903 10255 20227 39847 40131 333 10309 29077 55037 58006;EQDQ01  00002PRCP99
0186829860999992002012612004-09390-038210FM-12+0252SBUF V0201401N002610450019N0100001N1+02581+02121101621ADDAA199000091GF105991021011008001081001KA1240N+02211MA1999999098761MD1999999+0151REMSYN076AAXX  26124 82986 32597 51405 10258 20212 39876 40162 82180 333 20221 58015;EQDQ01  00002PRCP99
0167829860999992002012618004-09390-038210FM-12+0252SBUF V0201401N002612200019N0200001N1+03031+01891101131ADDAA199000091GF103991021011012501001021MA1999999098301MD1999999+0071REMSYN070AAXX  26184 82986 32698 31405 10303 20189 39830 40113 82102 333 58007;EQDQ01  00002PRCP99
0198829860999992002012700004-09390-038210FM-12+0252SBUF V0200901N004112200019N0020001N1+02581+02151101361ADDAA199000091GF102991021001017501041001KA1240M+03111MA1999999098511MD1999999+0041REMSYN088AAXX  27004 82986 32795 20908 10258 20215 39851 40136 82040 333 10311 29070 55005 58004;EQDQ01  00002PRCP99
0186829860999992002012712004-09390-038210FM-12+0252SBUF V0200901N004610075019N0100001N1+02581+02081101511ADDAA199000091GF106991051021008001061021KA1240N+02221MA1999999098661MD1999999-0101REMSYN076AAXX  27124 82986 32597 60909 10258 20208 39866 40151 85262 333 20222 59010;EQDQ01  00002PRCP99
0167829860999992002012718004-09390-038210FM-12+0252SBUF V0200901N002612200019N0200001N1+03011+01881101031ADDAA199000091GF104991031011012501001051MA1999999098201MD1999999-0101REMSYN070AAXX  27184 82986 32698 40905 10301 20188 39820 40103 83105 333 59010;EQDQ01  00002PRCP99
0198829860999992002012800004-09390-038210FM-12+0252SBUF V0201401N004112200019N0020001N1+02601+02121101141ADDAA199000091GF101991011001017501041001KA1240M+03081MA1999999098301MD1999999-0211REMSYN088AAXX  28004 82986 32795 11408 10260 20212 39830 40114 81040 333 10308 29069 55100 59021;EQDQ01  00002PRCP99
0186829860999992002012812004-09390-038210FM-12+0252SBUF V0200901N003110075019N0100001N1+02561+02151101401ADDAA199000091GF107991051021008001081001KA1240N+02181MA1999999098551MD1999999-0111REMSYN076AAXX  28124 82986 32597 70906 10256 20215 39855 40140 85280 333 20218 59011;EQDQ01  00002PRCP99
0167829860999992002012818004-09390-038210FM-12+0252SBUF V0200901N002110450019N0200001N1+03111+02001100961ADDAA199000091GF105991021011008001081001MA1999999098141MD1999999-0061REMSYN070AAXX  28184 82986 32598 50904 10311 20200 39814 40096 82180 333 59006;EQDQ01  00002PRCP99
0208829860999992002012900004-09390-038210FM-12+0252SBUF V0200901N001512200019N0020001N1+02571+02021101021ADDAA199000091GA1001+999999999GF100991001001999999001001KA1240M+03131MA1999999098181MD1999999-0121REMSYN082AAXX  29004 82986 32995 00903 10257 20202 39818 40102 333 10313 29068 55094 59012;EQDQ01  00002PRCP99
0186829860999992002012912004-09390-038210FM-12+0252SBUF V0201401N002112200019N0200001N1+02551+02041101351ADDAA199000091GF102991021011012501001001KA1240N+02001MA1999999098501MD1999999-0051REMSYN076AAXX  29124 82986 32698 21404 10255 20204 39850 40135 82100 333 20200 59005;EQDQ01  00002PRCP99
0167829860999992002012918004-09390-038210FM-12+0252SBUF V0201401N002110450019N0200001N1+03081+01821100981ADDAA199000091GF105991021011008001081001MA1999999098151MD1999999+0011REMSYN070AAXX  29184 82986 32598 51404 10308 20182 39815 40098 82180 333 58001;EQDQ01  00002PRCP99
0208829860999992002013000004-09390-038210FM-12+0252SBUF V0200901N002112200019N0020001N1+02561+01951101131ADDAA199000091GA1001+999999999GF100991001001999999001001KA1240M+03151MA1999999098291MD1999999+0111REMSYN082AAXX  30004 82986 32995 00904 10256 20195 39829 40113 333 10315 29063 55112 58011;EQDQ01  00002PRCP99
0186829860999992002013012004-09390-038210FM-12+0252SBUF V0201401N002110450019N0100001N1+02571+02131101401ADDAA199000091GF106991031011008001081011KA1240N+02081MA1999999098551MD1999999+0051REMSYN076AAXX  30124 82986 32597 61404 10257 20213 39855 40140 83181 333 20208 58005;EQDQ01  00002PRCP99
0167829860999992002013018004-09390-038210FM-12+0252SBUF V0201401N001510450019N0200001N1+03151+01911100991ADDAA199000091GF105991021011008001081001MA1999999098171MD1999999+0021REMSYN070AAXX  30184 82986 32598 51403 10315 20191 39817 40099 82180 333 58002;EQDQ01  00002PRCP99
0186829860999992002013112004-09390-038210FM-12+0252SBUF V0200901N003610450019N0100001N1+02551+02131101361ADDAA199000091GF106991041021004501081001KA1240N+02201MA1999999098521MD1999999-0031REMSYN076AAXX  31124 82986 32497 60907 10255 20213 39852 40136 84280 333 20220 59003;EQDQ01  00002PRCP99
0167829860999992002013118004-09390-038210FM-12+0252SBUF V0200901N002612200019N0200001N1+03161+02021100921ADDAA199000091GF104991021021008001001011MA1999999098101MD1999999-0071REMSYN070AAXX  31184 82986 32598 40905 10316 20202 39810 40092 82201 333 59007;EQDQ01  00002PRCP99
0208829860999992002020100004-09390-038210FM-12+0252SBUF V0200901N004112200019N0020001N1+02671+02091101141ADDAA199000091GA1001+999999999GF100991001001999999001001KA1240M+03201MA1999999098301MD1999999-0051REMSYN082AAXX  01004 82986 32995 00908 10267 20209 39830 40114 333 10320 29068 55086 59005;EQDQ01  00002PRCP99
0186829860999992002020112004-09390-038210FM-12+0252SBUF V0200901N001512200019N0200001N1+02681+02061101451ADDAA199000091GF104991021011008001001011KA1240N+02201MA1999999098611MD1999999+0091REMSYN076AAXX  01124 82986 32598 40903 10268 20206 39861 40145 82101 333 20220 58009;EQDQ01  00002PRCP99
0167829860999992002020118004-09390-038210FM-12+0252SBUF V0200901N002612200019N0200001N1+03161+01671101021ADDAA199000091GF104991011011012501001021MA1999999098211MD1999999+0111REMSYN070AAXX  01184 82986 32698 40905 10316 20167 39821 40102 81102 333 58011;EQDQ01  00002PRCP99
0208829860999992002020200004-09390-038210FM-12+0252SBUF V0200901N002112200019N0020001N1+02561+01801101101ADDAA199000091GA1001+999999999GF100991001001999999001001KA1240M+03231MA1999999098271MD1999999-0031REMSYN082AAXX  02004 82986 32995 00904 10256 20180 39827 40110 333 10323 29059 55092 59003;EQDQ01  00002PRCP99
0186829860999992002020212004-09390-038210FM-12+0252SBUF V0200901N003112200019N0100001N1+02611+02011101451ADDAA199000091GF102991011011008001051001KA1240N+02041MA1999999098601MD1999999-0011REMSYN076AAXX  02124 82986 32597 20906 10261 20201 39860 40145 81150 333 20204 59001;EQDQ01  00002PRCP99
0183829860999992002020218004-09390-038210FM-12+0252SBUF V0200901N002612200019N0200001N1+03291+01491999999ADDAA199000091GF102991021011012501001001MA1999999098101MD1999999-0111REMSYN070AAXX  02184 82986 32698 20905 10329 20149 39810 40012 82100 333 59011;EQDQ01+100123APOSLPQ02  00002PRCP99
0208829860999992002020300004-09390-038210FM-12+0252SBUF V0200901N002112200019N0020001N1+02621+01671101091ADDAA199000091GA1001+999999999GF100991001001999999001001KA1240M+03341MA1999999098251MD1999999-0021REMSYN082AAXX  03004 82986 32995 00904 10262 20167 39825 40109 333 10334 29054 55110 59002;EQDQ01  00002PRCP99
0202829860999992002020312004-09390-038210FM-12+0252SBUF V0203201N001519999999N0200001N1+02711+01961101191ADDAA199000091GF106991001001999999001081KA1240N+02061MA1999999098361MD1999999-0241REMSYN076AAXX  03124 82986 32998 63203 10271 20196 39836 40119 86008 333 20206 59024;EQDQ01+000062SCOTLCQ02  00002PRCP99
0167829860999992002020318004-09390-038210FM-12+0252SBUF V0203601N002610450019N0200001N1+03431+02061100791ADDAA199000091GF106991041021004501081011MA1999999097981MD1999999-0121REMSYN070AAXX  03184 82986 32498 63605 10343 20206 39798 40079 84281 333 59012;EQDQ01  00002PRCP99
0226829860999992002020400004-09390-038210FM-12+0252SBUF V0203601N001510450019N0010001N1+02801+02221101051ADDAA199000091AY121061AY221061GF106991041021004501081001KA1240M+03451MA1999999098221MD1999999-0031MW1131REMSYN094AAXX  04004 82986 31494 63603 10280 20222 39822 40105 71322 84280 333 10345 29063 55086 59003;EQDQ01  00002PRCP99
0201829860999992002020412004-09390-038210FM-12+0252SBUF V0203201N002610450019N0100001N1+02691+02131101311ADDAA124052191AY191061AY261061GF106991021011008001051011KA1240N+02111MA1999999098481MD1999999+0121MW1021REMSYN088AAXX  04124 82986 21597 63205 10269 20213 39848 40131 70296 82151 333 20211 58012 60524;
0182829860999992002020418004-09390-038210FM-12+0252SBUF V0200901N003110042019N0020001N1+03061+02171100961ADDAA106000191AY161061AY251061GF107991051071004501081001MA1999999098141MD1999999+0161MW1151REMSYN082AAXX  04184 82986 21495 70906 10306 20217 39814 40096 71565 85780 333 58016 69911;
0213829860999992002020500004-09390-038210FM-12+0252SBUF V0203201N000510450019N0010001N1+02461+02231101191ADDAA106001091AY161061AY251061GF106991041011004501081001KA1240M+03191MA1999999098351MD1999999+0131MW1031REMSYN100AAXX  05004 82986 21494 63201 10246 20223 39835 40119 70365 84180 333 10319 29075 55080 58013 69991;
0201829860999992002020512004-09390-038210FM-12+0252SBUF V0203201N002610090019N0005001N1+02301+02181101521ADDAA124045091AY161061AY261061GF108991081081004501999999KA1240N+02181MA1999999098641MD1999999+0161MW1911REMSYN088AAXX  05124 82986 21493 83205 10230 20218 39864 40152 79166 888// 333 20218 58016 60454;
0182829860999992002020518004-09390-038210FM-12+0252SBUF V0202301N001510042019N0100001N1+02791+02251101141ADDAA106001091AY161061AY251061GF107991051071004501081001MA1999999098301MD1999999+0161MW1031REMSYN082AAXX  05184 82986 21497 72303 10279 20225 39830 40114 70365 85780 333 58016 60011;
0179829860999992002020600004-09390-038210FM-12+0252SBUF V0200901N001510450019N0010001N1+02291+02071101541ADDAA199000021GF106991041021004501081001KA1240M+02851MA1999999098661MD1999999+0311REMSYN088AAXX  06004 82986 32494 60903 10229 20207 39866 40154 84280 333 10285 29086 55004 58031;
0201829860999992002020612004-09390-038210FM-12+0252SBUF V0201401N001510042019N0040001N1+02421+02171101421ADDAA124003091AY161061AY251061GF107991051071004501081001KA1240N+02121MA1999999098541MD1999999-0101MW1031REMSYN088AAXX  06124 82986 21496 71403 10242 20217 39854 40142 70365 85780 333 20212 59010 60034;
0167829860999992002020618004-09390-038210FM-12+0252SBUF V0200901N001510450019N0100001N1+02901+02171101101ADDAA199000091GF106991041021008001081001MA1999999098261MD1999999-0041REMSYN070AAXX  06184 82986 32597 60903 10290 20217 39826 40110 84280 333 59004;EQDQ01  00002PRCP99
0162829860999992002020709004-09390-038210FM-15+0252SBUF V0201301N003110900019N0112651N1+02301+02201999999ADDGA1021+006009999GA2071+090009999GF107991999999999999999999MA1101491999999MW1001REMMET052SBUF 070900Z 13006KT 9999 FEW020 BKN300 23/22 Q1015;EQDQ01+000000PRSWM2
0162829860999992002020710004-09390-038210FM-15+0252SBUF V0201301N002610900019N0112651N1+02401+02301999999ADDGA1021+006909999GA2071+090009999GF107991999999999999999999MA1101591999999MW1001REMMET052SBUF 071000Z 13005KT 9999 FEW023 BKN300 24/23 Q1016;EQDQ01+000000PRSWM2
0162829860999992002020711004-09390-038210FM-15+0252SBUF V0201201N004110900019N0112651N1+02601+02201999999ADDGA1021+006909999GA2071+090009999GF107991999999999999999999MA1101591999999MW1001REMMET052SBUF 071100Z 12008KT 9999 SCT023 BKN300 26/22 Q1016;EQDQ01+000000PRSWM2
0167829860999992002020718004-09390-038210FM-12+0252SBUF V0201401N004111050019N0200001N1+02811+01951101101ADDAA199000091GF106991021021008001001081MA1999999098261MD1999999+0001REMSYN070AAXX  07184 82986 32598 61408 10281 20195 39826 40110 82208 333 58000;EQDQ01  00002PRCP99
0198829860999992002020800004-09390-038210FM-12+0252SBUF V0200901N004612200019N0020001N1+02511+02111101281ADDAA199000091GF102991021011012501001001KA1240M+02951MA1999999098431MD1999999-0091REMSYN088AAXX  08004 82986 32695 20909 10251 20211 39843 40128 82100 333 10295 29075 55073 59009;EQDQ01  00002PRCP99
0186829860999992002020812004-09390-038210FM-12+0252SBUF V0200901N003110075019N0100001N1+02551+02131101361ADDAA199000091GF105991051021008001001001KA1240N+02161MA1999999098511MD1999999-0131REMSYN076AAXX  08124 82986 32597 50906 10255 20213 39851 40136 85200 333 20216 59013;EQDQ01  00002PRCP99
0167829860999992002020818004-09390-038210FM-12+0252SBUF V0200901N005112200019N0200001N1+02991+01921100961ADDAA199000091GF104991041021012501001001MA1999999098131MD1999999-0131REMSYN070AAXX  08184 82986 32698 40910 10299 20192 39813 40096 84200 333 59013;EQDQ01  00002PRCP99
0186829860999992002020912004-09390-038210FM-12+0252SBUF V0201401N002110075019N0100001N1+02501+02211101401ADDAA199000091GF106991051071008001081001KA1240N+02171MA1999999098541MD1999999+0031REMSYN076AAXX  09124 82986 32597 61404 10250 20221 39854 40140 85780 333 20217 58003;EQDQ01  00002PRCP99
0167829860999992002020918004-09390-038210FM-12+0252SBUF V0200901N001510450019N0100001N1+03001+02031101161ADDAA199000091GF106991031011008001081011MA1999999098331MD1999999+0201REMSYN070AAXX  09184 82986 32597 60903 10300 20203 39833 40116 83181 333 58020;EQDQ01  00002PRCP99
0186829860999992002021012004-09390-038210FM-12+0252SBUF V0201401N003110120019N0100001N1+02501+02171101481ADDAA199000091GF106991051081008001081001KA1240N+02211MA1999999098621MD1999999+0081REMSYN076AAXX  10124 82986 32597 61406 10250 20217 39862 40148 85880 333 20221 58008;EQDQ01  00002PRCP99
0167829860999992002021018004-09390-038210FM-12+0252SBUF V0200901N003110450019N0200001N1+03071+02051101111ADDAA199000091GF106991041021004501081011MA1999999098281MD1999999-0051REMSYN070AAXX  10184 82986 32498 60906 10307 20205 39828 40111 84281 333 59005;EQDQ01  00002PRCP99
0208829860999992002021100004-09390-038210FM-12+0252SBUF V0209999C000012200019N0020001N1+02381+02011101311ADDAA199000091GA1001+999999999GF100991001001999999001001KA1240M+03131MA1999999098451MD1999999-0011REMSYN082AAXX  11004 82986 32995 00900 10238 20201 39845 40131 333 10313 29074 55083 59001;EQDQ01  00002PRCP99
0202829860999992002021112004-09390-038210FM-12+0252SBUF V0200901N003119999999N0100001N1+02591+02141101361ADDAA199000091GF106991999021004501001001KA1240N+02171MA1999999098511MD1999999-0111REMSYN076AAXX  11124 82986 32497 60906 10259 20214 39851 40136 84200 333 20217 59011;EQDQ01+000042SCOTLCQ02  00002PRCP99
0167829860999992002021118004-09390-038210FM-12+0252SBUF V0201401N003110450019N0100001N1+02691+02161101061ADDAA199000091GF106991041021004501081081MA1999999098221MD1999999-0061REMSYN070AAXX  11184 82986 32497 61406 10269 20216 39822 40106 84288 333 59006;EQDQ01  00002PRCP99
0186829860999992002021212004-09390-038210FM-12+0252SBUF V0201401N003610450019N0040001N1+02531+02151101471ADDAA199000091GF106991041021004501081001KA1240N+02151MA1999999098601MD1999999+0091REMSYN076AAXX  12124 82986 32496 61407 10253 20215 39860 40147 84280 333 20215 58009;EQDQ01  00002PRCP99
0167829860999992002021218004-09390-038210FM-12+0252SBUF V0201401N003111050019N0200001N1+03031+01891101131ADDAA199000091GF106991041021008001001081MA1999999098301MD1999999+0081REMSYN070AAXX  12184 82986 32598 61406 10303 20189 39830 40113 84208 333 58008;EQDQ01  00002PRCP99
0223829860999992002021300004-09390-038210FM-12+0252SBUF V0201401N000512200019N0020001N1+02141+01971101401ADDAA106000191AY151061AY211061GA1001+999999999GF100991001001999999001001KA1240M+03071MA1999999098501MD1999999+0051MW1001REMSYN094AAXX  13004 82986 21995 01401 10214 20197 39850 40140 70051 333 10307 29078 55083 58005 69911;
0173829860999992002021312004-09390-038210FM-12+0252SBUF V0201401N001510042019N0040001N1+02391+02151101531ADDAA124000191GF107991051071004501081001KA1240N+02041MA1999999098641MD1999999+0041REMSYN082AAXX  13124 82986 22496 71403 10239 20215 39864 40153 85780 333 20204 58004 69914;
0167829860999992002021318004-09390-038210FM-12+0252SBUF V0200901N004110450019N0100001N1+02691+01971101301ADDAA199000091GF106991011041008001081081MA1999999098441MD1999999+0141REMSYN070AAXX  13184 82986 32597 60908 10269 20197 39844 40130 81488 333 58014;EQDQ01  00002PRCP99
0186829860999992002021412004-09390-038210FM-12+0252SBUF V0200901N001510450019N0040001N1+02501+02231101541ADDAA199000091GF106991041021004501081001KA1240N+02121MA1999999098671MD1999999+0031REMSYN076AAXX  14124 82986 32496 60903 10250 20223 39867 40154 84280 333 20212 58003;EQDQ01  00002PRCP99
0167829860999992002021418004-09390-038210FM-12+0252SBUF V0200901N003111050019N0200001N1+03001+02171101091ADDAA199000091GF106991021021012501031061MA1999999098261MD1999999-0181REMSYN070AAXX  14184 82986 32698 60906 10300 20217 39826 40109 82236 333 59018;EQDQ01  00002PRCP99
0198829860999992002021500004-09390-038210FM-12+0252SBUF V0200901N004110450019N0020001N1+02311+02111101511ADDAA199000091GF107991031071008001051999KA1240M+03071MA1999999098641MD1999999+0071REMSYN088AAXX  15004 82986 32595 70908 10231 20211 39864 40151 8375/ 333 10307 29081 55034 58007;EQDQ01  00002PRCP99
0186829860999992002021512004-09390-038210FM-12+0252SBUF V0200901N003110075019N0100001N1+02561+02211101511ADDAA199000091GF107991051071008001081001KA1240N+02181MA1999999098641MD1999999-0031REMSYN076AAXX  15124 82986 32597 70906 10256 20221 39864 40151 85780 333 20218 59003;EQDQ01  00002PRCP99
0167829860999992002021518004-09390-038210FM-12+0252SBUF V0201401N004610042019N0100001N1+02511+02291101251ADDAA199000091GF107991051071004501081001MA1999999098391MD1999999+0131REMSYN070AAXX  15184 82986 32497 71409 10251 20229 39839 40125 85780 333 58013;EQDQ01  00002PRCP99
0198829860999992002021600004-09390-038210FM-12+0252SBUF V0201401N002610450019N0005001N1+02431+02251101401ADDAA199000091GF106991041021004501081001KA1240M+02951MA1999999098531MD1999999-0111REMSYN088AAXX  16004 82986 32493 61405 10243 20225 39853 40140 84280 333 10295 29087 55040 59011;EQDQ01  00002PRCP99
0186829860999992002021612004-09390-038210FM-12+0252SBUF V0201401N002110450019N0100001N1+02591+02191101561ADDAA199000091GF106991031021008001071021KA1240N+02221MA1999999098701MD1999999+0061REMSYN076AAXX  16124 82986 32597 61404 10259 20219 39870 40156 83272 333 20222 58006;EQDQ01  00002PRCP99
0167829860999992002021618004-09390-038210FM-12+0252SBUF V0200901N003110450019N0100001N1+02951+02191101191ADDAA199000091GF106991041021004501081011MA1999999098361MD1999999-0031REMSYN070AAXX  16184 82986 32497 60906 10295 20219 39836 40119 84281 333 59003;EQDQ01  00002PRCP99
0198829860999992002021700004-09390-038210FM-12+0252SBUF V0200901N003610450019N0020001N1+02591+02041101291ADDAA199000091GF106991031011008001081001KA1240M+03051MA1999999098451MD1999999-0081REMSYN088AAXX  17004 82986 32595 60907 10259 20204 39845 40129 83180 333 10305 29072 55066 59008;EQDQ01  00002PRCP99
0186829860999992002021712004-09390-038210FM-12+0252SBUF V0201401N002610450019N0100001N1+02451+02071101481ADDAA199000091GF106991041021004501081001KA1240N+02141MA1999999098621MD1999999-0081REMSYN076AAXX  17124 82986 32497 61405 10245 20207 39862 40148 84280 333 20214 59008;EQDQ01  00002PRCP99
0167829860999992002021718004-09390-038210FM-12+0252SBUF V0200901N003112200019N0200001N1+03081+01951101081ADDAA199000091GF104991041011008001001001MA1999999098261MD1999999-0101REMSYN070AAXX  17184 82986 32598 40906 10308 20195 39826 40108 84100 333 59010;EQDQ01  00002PRCP99
0208829860999992002021800004-09390-038210FM-12+0252SBUF V0200901N001512200019N0020001N1+02601+02141101251ADDAA199000091GA1001+999999999GF100991001001999999001001KA1240M+03131MA1999999098401MD1999999-0051REMSYN082AAXX  18004 82986 32995 00903 10260 20214 39840 40125 333 10313 29071 55090 59005;EQDQ01  00002PRCP99
0186829860999992002021812004-09390-038210FM-12+0252SBUF V0200901N003110450019N0100001N1+02521+02191101331ADDAA199000091GF106991041021004501081001KA1240N+02211MA1999999098481MD1999999-0141REMSYN076AAXX  18124 82986 32497 60906 10252 20219 39848 40133 84280 333 20221 59014;EQDQ01  00002PRCP99
0167829860999992002021818004-09390-038210FM-12+0252SBUF V0200901N001512200019N0200001N1+03161+01961100921ADDAA199000091GF104991021011008001001021MA1999999098101MD1999999-0161REMSYN070AAXX  18184 82986 32598 40903 10316 20196 39810 40092 82102 333 59016;EQDQ01  00002PRCP99
0208829860999992002021900004-09390-038210FM-12+0252SBUF V0200901N002612200019N0020001N1+02661+02181101151ADDAA199000091GA1001+999999999GF100991001001999999001001KA1240M+03221MA1999999098301MD1999999-0101REMSYN082AAXX  19004 82986 32995 00905 10266 20218 39830 40115 333 10322 29070 55099 59010;EQDQ01  00002PRCP99
0186829860999992002021912004-09390-038210FM-12+0252SBUF V0201401N003110075019N0100001N1+02691+02161101401ADDAA199000091GF105991051021008001001001KA1240N+02221MA1999999098571MD1999999+0091REMSYN076AAXX  19124 82986 32597 51406 10269 20216 39857 40140 85200 333 20222 58009;EQDQ01  00002PRCP99
0167829860999992002021918004-09390-038210FM-12+0252SBUF V0200901N002112200019N0200001N1+03171+02051100971ADDAA199000091GF104991031021008001041001MA1999999098161MD1999999+0061REMSYN070AAXX  19184 82986 32598 40904 10317 20205 39816 40097 83240 333 58006;EQDQ01  00002PRCP99
0198829860999992002022000004-09390-038210FM-12+0252SBUF V0200901N004612200019N0020001N1+02621+02121101211ADDAA199000091GF103991031001017501051001KA1240M+03221MA1999999098381MD1999999+0081REMSYN088AAXX  20004 82986 32795 30909 10262 20212 39838 40121 83050 333 10322 29068 55112 58008;EQDQ01  00002PRCP99
0186829860999992002022012004-09390-038210FM-12+0252SBUF V0201401N002610450019N0100001N1+02581+02061101481ADDAA199000091GF106991031011008001081001KA1240N+02111MA1999999098631MD1999999+0061REMSYN076AAXX  20124 82986 32597 61405 10258 20206 39863 40148 83180 333 20211 58006;EQDQ01  00002PRCP99
0167829860999992002022018004-09390-038210FM-12+0252SBUF V0200501N003112200019N0200001N1+03171+01891101031ADDAA199000091GF103991021011012501041001MA1999999098211MD1999999+0051REMSYN070AAXX  20184 82986 32698 30506 10317 20189 39821 40103 82140 333 58005;EQDQ01  00002PRCP99
0186829860999992002022112004-09390-038210FM-12+0252SBUF V0200901N006210120019N0100001N1+02671+02041101341ADDAA199000091GF106991051021012501041001KA1240N+02181MA1999999098501MD1999999-0131REMSYN076AAXX  21124 82986 32697 60912 10267 20204 39850 40134 85240 333 20218 59013;EQDQ01  00002PRCP99
0167829860999992002022118004-09390-038210FM-12+0252SBUF V0200501N004612200019N0200001N1+03001+02051100911ADDAA199000091GF104991021021004501081001MA1999999098091MD1999999-0121REMSYN070AAXX  21184 82986 32498 40509 10300 20205 39809 40091 82280 333 59012;EQDQ01  00002PRCP99
0208829860999992002022200004-09390-038210FM-12+0252SBUF V0200901N002112200019N0020001N1+02561+02081101121ADDAA199000091GA1001+999999999GF100991001001999999001001KA1240M+03071MA1999999098281MD1999999-0141REMSYN082AAXX  22004 82986 32995 00904 10256 20208 39828 40112 333 10307 29069 55099 59014;EQDQ01  00002PRCP99
0186829860999992002022212004-09390-038210FM-12+0252SBUF V0200501N002612200019N0200001N1+02701+02031101181ADDAA199000091GF103991031011012501001001KA1240N+02181MA1999999098351MD1999999-0151REMSYN076AAXX  22124 82986 32698 30505 10270 20203 39835 40118 83100 333 20218 59015;EQDQ01  00002PRCP99
0167829860999992002022218004-09390-038210FM-12+0252SBUF V0201401N003112200019N0500001N1+03211+01751100801ADDAA199000091GF104991021011008001081001MA1999999097991MD1999999-0101REMSYN070AAXX  22184 82986 32599 41406 10321 20175 39799 40080 82180 333 59010;EQDQ01  00002PRCP99
0208829860999992002022300004-09390-038210FM-12+0252SBUF V0200901N004112200019N0020001N1+02701+02131101011ADDAA199000091GA1001+999999999GF100991001001999999001001KA1240M+03271MA1999999098191MD1999999-0091REMSYN082AAXX  23004 82986 32995 00908 10270 20213 39819 40101 333 10327 29063 55104 59009;EQDQ01  00002PRCP99
0186829860999992002022312004-09390-038210FM-12+0252SBUF V0200901N002110450019N0100001N1+02651+02121101351ADDAA199000091GF105991021011008001081001KA1240N+02121MA1999999098511MD1999999+0161REMSYN076AAXX  23124 82986 32597 50904 10265 20212 39851 40135 82180 333 20212 58016;EQDQ01  00002PRCP99
0167829860999992002022318004-09390-038210FM-12+0252SBUF V0201401N001512200019N0500001N1+03341+01671100901ADDAA199000091GF103991031011012501001001MA1999999098091MD1999999+0101REMSYN070AAXX  23184 82986 32699 31403 10334 20167 39809 40090 83100 333 58010;EQDQ01  00002PRCP99
0186829860999992002022412004-09390-038210FM-12+0252SBUF V0200901N002112200019N0200001N1+02671+02091101481ADDAA199000091GF104991021011008001061001KA1240N+02221MA1999999098641MD1999999+0131REMSYN076AAXX  24124 82986 32598 40904 10267 20209 39864 40148 82160 333 20222 58013;EQDQ01  00002PRCP99
0167829860999992002022418004-09390-038210FM-12+0252SBUF V0200901N001012200019N0500001N1+03381+01911101001ADDAA199000091GF103991031001012501061001MA1999999098201MD1999999+0111REMSYN070AAXX  24184 82986 32699 30902 10338 20191 39820 40100 83060 333 58011;EQDQ01  00002PRCP99
0167829860999992002022518004-09390-038210FM-12+0252SBUF V0201401N002112200019N0200001N1+03301+01911100901ADDAA199000091GF102991021011012501001001MA1999999098101MD1999999-0101REMSYN070AAXX  25184 82986 32698 21404 10330 20191 39810 40090 82100 333 59010;EQDQ01  00002PRCP99
0208829860999992002022600004-09390-038210FM-12+0252SBUF V0201401N007712200019N0040001N1+02761+02091101231ADDAA199000091GA1001+999999999GF100991001001999999001001KA1240M+03381MA1999999098401MD1999999+0081REMSYN082AAXX  26004 82986 32996 01415 10276 20209 39840 40123 333 10338 29063 55091 58008;EQDQ01  00002PRCP99
0186829860999992002022612004-09390-038210FM-12+0252SBUF V0200901N001510450019N0100001N1+02681+02131101421ADDAA199000091GF106991041021004501081001KA1240N+02291MA1999999098591MD1999999-0011REMSYN076AAXX  26124 82986 32497 60903 10268 20213 39859 40142 84280 333 20229 59001;EQDQ01  00002PRCP99
0167829860999992002022618004-09390-038210FM-12+0252SBUF V0201401N003112200019N0200001N1+03231+01911100951ADDAA199000091GF103991031021012501001001MA1999999098151MD1999999+0051REMSYN070AAXX  26184 82986 32698 31406 10323 20191 39815 40095 83200 333 58005;EQDQ01  00002PRCP99
0208829860999992002022700004-09390-038210FM-12+0252SBUF V0201401N006212200019N0040001N1+02651+01881101301ADDAA199000091GA1001+999999999GF100991001001999999001001KA1240M+03291MA1999999098461MD1999999+0061REMSYN082AAXX  27004 82986 32996 01412 10265 20188 39846 40130 333 10329 29061 55081 58006;EQDQ01  00002PRCP99
0173829860999992002022712004-09390-038210FM-12+0252SBUF V0200901N004110075019N0100001N1+02691+02111101511ADDAA124000791GF106991051021008001061001KA1240N+02241MA1999999098671MD1999999+0081REMSYN082AAXX  27124 82986 22597 60908 10269 20211 39867 40151 85260 333 20224 58008 69904;
0139829860999992002022714004-09390-038210FM-15+0252SBUF V0201501N005112200019N0112651N1+03001+02001999999ADDGA1021+006009999GF104991999999999999999999MA1101591999999MW1001REMMET045SBUF 271400Z 15010KT 9999 SCT020 30/20 Q1016;EQDQ01+000000PRSWM2
0167829860999992002022718004-09390-038210FM-12+0252SBUF V0201401N003612200019N0500001N1+03311+01591101051ADDAA199000091GF104991021011008001081001MA1999999098231MD1999999+0081REMSYN070AAXX  27184 82986 32599 41407 10331 20159 39823 40105 82180 333 58008;EQDQ01  00002PRCP99
0208829860999992002022800004-09390-038210FM-12+0252SBUF V0200901N004112200019N0020001N1+02641+02031101291ADDAA199000091GA1001+999999999GF100991001001999999001001KA1240M+03371MA1999999098451MD1999999+0011REMSYN082AAXX  28004 82986 32995 00908 10264 20203 39845 40129 333 10337 29061 55096 58001;EQDQ01  00002PRCP99
0186829860999992002022812004-09390-038210FM-12+0252SBUF V0200901N004110075019N0100001N1+02631+02121101361ADDAA199000091GF106991061021008001001001KA1240N+02261MA1999999098521MD1999999-0151REMSYN076AAXX  28124 82986 32597 60908 10263 20212 39852 40136 86200 333 20226 59015;EQDQ01  00002PRCP99
0167829860999992002022818004-09390-038210FM-12+0252SBUF V0201401N004610450019N0200001N1+03251+01751100891ADDAA199000091GF105991021011008001081001MA1999999098081MD1999999-0151REMSYN070AAXX  28184 82986 32598 51409 10325 20175 39808 40089 82180 333 59015;EQDQ01  00002PRCP99
0198829860999992002030100004-09390-038210FM-12+0252SBUF V0200901N005110450019N0020001N1+02641+01981101211ADDAA199000091GF106991031011008001081001KA1240M+03391MA1999999098371MD1999999-0081REMSYN088AAXX  01004 82986 32595 60910 10264 20198 39837 40121 83180 333 10339 29062 55090 59008;EQDQ01  00002PRCP99
0186829860999992002030112004-09390-038210FM-12+0252SBUF V0201401N004610450019N0100001N1+02711+01991101341ADDAA199000091GF106991031011008001081001KA1240N+02111MA1999999098501MD1999999-0021REMSYN076AAXX  01124 82986 32597 61409 10271 20199 39850 40134 83180 333 20211 59002;EQDQ01  00002PRCP99
0167829860999992002030118004-09390-038210FM-12+0252SBUF V0201401N003110450019N0200001N1+03291+01861101011ADDAA199000091GF105991021011008001061001MA1999999098201MD1999999+0121REMSYN070AAXX  01184 82986 32598 51406 10329 20186 39820 40101 82160 333 58012;EQDQ01  00002PRCP99
0167829860999992002030218004-09390-038210FM-12+0252SBUF V0201401N004112200019N0200001N1+03381+01871100851ADDAA199000091GF104991031011008001001011MA1999999098051MD1999999-0151REMSYN070AAXX  02184 82986 32598 41408 10338 20187 39805 40085 83101 333 59015;EQDQ01  00002PRCP99
0167829860999992002030318004-09390-038210FM-12+0252SBUF V0200901N005711050019N0200001N1+03191+01911100901ADDAA199000091GF106991031021008001001081MA1999999098091MD1999999+0041REMSYN070AAXX  03184 82986 32598 60911 10319 20191 39809 40090 83208 333 58004;EQDQ01  00002PRCP99
0201829860999992002030412004-09390-038210FM-12+0252SBUF V0200901N003110450019N0040001N1+02511+02271101321ADDAA124000191AY151061AY221061GF106991041021004501081001KA1240N+02221MA1999999098471MD1999999+0001MW1501REMSYN088AAXX  04124 82986 21496 60906 10251 20227 39847 40132 75052 84280 333 20222 58000 69924;
0229829860999992002030500004-09390-038210FM-12+0252SBUF V0200901N003110012019N0020001N1+02461+02131101231ADDAA106000791AY151061AY221061GA1091+999999999GF109991091999999999999999KA1240M+03361MA1999999098381MD1999999+0051MW1001REMSYN100AAXX  05004 82986 21595 90906 10246 20213 39838 40123 70052 89/// 333 10336 29072 55068 58005 69901;
0201829860999992002030512004-09390-038210FM-12+0252SBUF V0200901N001010450019N0100001N1+02281+02011101441ADDAA124006191AY181061AY221061GF106991021071008001071001KA1240N+02061MA1999999098561MD1999999+0091MW1021REMSYN088AAXX  05124 82986 21597 60902 10228 20201 39856 40144 70282 82770 333 20206 58009 60064;
0167829860999992002030518004-09390-038210FM-12+0252SBUF V0201401N004610450019N0200001N1+02931+01861101131ADDAA199000091GF106991041021004501081011MA1999999098281MD1999999+0201REMSYN070AAXX  05184 82986 32498 61409 10293 20186 39828 40113 84281 333 58020;EQDQ01  00002PRCP99
0198829860999992002030600004-09390-038210FM-12+0252SBUF V0200901N001510450019N0020001N1+02471+02131101341ADDAA199000091GF106991031011008001081001KA1240M+03011MA1999999098461MD1999999+0081REMSYN088AAXX  06004 82986 32595 60903 10247 20213 39846 40134 83180 333 10301 29075 55055 58008;EQDQ01  00002PRCP99
0186829860999992002030612004-09390-038210FM-12+0252SBUF V0201401N002110075019N0100001N1+02591+02211101371ADDAA199000091GF106991051021008001001041KA1240N+02221MA1999999098521MD1999999-0041REMSYN076AAXX  06124 82986 32597 61404 10259 20221 39852 40137 85204 333 20222 59004;EQDQ01  00002PRCP99
0167829860999992002030618004-09390-038210FM-12+0252SBUF V0200901N002612200019N0500001N1+03231+01981100931ADDAA199000091GF104991021011008001081011MA1999999098121MD1999999-0161REMSYN070AAXX  06184 82986 32599 40905 10323 20198 39812 40093 82181 333 59016;EQDQ01  00002PRCP99
0198829860999992002030700004-09390-038210FM-12+0252SBUF V0200901N005110450019N0020001N1+02601+02191101291ADDAA199000091GF106991031011008001081001KA1240M+03281MA1999999098451MD1999999-0011REMSYN088AAXX  07004 82986 32595 60910 10260 20219 39845 40129 83180 333 10328 29071 55083 59001;EQDQ01  00002PRCP99
0186829860999992002030712004-09390-038210FM-12+0252SBUF V0200901N003610450019N0100001N1+02681+02161101451ADDAA199000091GF106991041021004501081011KA1240N+02251MA1999999098601MD1999999+0081REMSYN076AAXX  07124 82986 32497 60907 10268 20216 39860 40145 84281 333 20225 58008;EQDQ01  00002PRCP99
0167829860999992002030718004-09390-038210FM-12+0252SBUF V0200901N002111050019N0200001N1+03221+01981101031ADDAA199000091GF105991021011008001081081MA1999999098211MD1999999+0091REMSYN070AAXX  07184 82986 32598 50904 10322 20198 39821 40103 82188 333 58009;EQDQ01  00002PRCP99
0208829860999992002030800004-09390-038210FM-12+0252SBUF V0200901N001512200019N0020001N1+02611+02101101411ADDAA199000091GA1001+999999999GF100991001001999999001001KA1240M+03271MA1999999098571MD1999999+0121REMSYN082AAXX  08004 82986 32995 00903 10261 20210 39857 40141 333 10327 29067 55056 58012;EQDQ01  00002PRCP99
0186829860999992002030812004-09390-038210FM-12+0252SBUF V0200901N005110450019N0100001N1+02671+02021101561ADDAA199000091GF106991041021004501081001KA1240N+02191MA1999999098711MD1999999+0111REMSYN076AAXX  08124 82986 32497 60910 10267 20202 39871 40156 84280 333 20219 58011;EQDQ01  00002PRCP99
0167829860999992002030818004-09390-038210FM-12+0252SBUF V0200901N002612200019N0500001N1+03201+01631101081ADDAA199000091GF104991021021008001001021MA1999999098261MD1999999+0051REMSYN070AAXX  08184 82986 32599 40905 10320 20163 39826 40108 82202 333 58005;EQDQ01  00002PRCP99
0186829860999992002030912004-09390-038210FM-12+0252SBUF V0200901N004110450019N0100001N1+02611+02081101501ADDAA199000091GF106991041021004501081011KA1240N+02161MA1999999098651MD1999999-0061REMSYN076AAXX  09124 82986 32497 60908 10261 20208 39865 40150 84281 333 20216 59006;EQDQ01  00002PRCP99
0167829860999992002030918004-09390-038210FM-12+0252SBUF V0200901N004112200019N0200001N1+03231+01611101041ADDAA199000091GF105991031011012501001081MA1999999098221MD1999999-0041REMSYN070AAXX  09184 82986 32698 50908 10323 20161 39822 40104 83108 333 59004;EQDQ01  00002PRCP99
0208829860999992002031000004-09390-038210FM-12+0252SBUF V02099999999992200019N0020001N1+02611+01891101421ADDAA199000091GA1001+999999999GF100991001001999999001001KA1240M+03321MA1999999098571MD1999999+0001REMSYN082AAXX  10004 82986 32995 09013 10261 20189 39857 40142 333 10332 29060 55088 58000;EQDQ01  00002PRCP99
0186829860999992002031012004-09390-038210FM-12+0252SBUF V0200901N004610450019N0100001N1+02661+02071101471ADDAA199000091GF106991021011008001081011KA1240N+02141MA1999999098631MD1999999-0021REMSYN076AAXX  10124 82986 32597 60909 10266 20207 39863 40147 82181 333 20214 59002;EQDQ01  00002PRCP99
0198829860999992002031100004-09390-038210FM-12+0252SBUF V0200901N004112200019N0020001N1+02631+01881101321ADDAA199000091GF103991031021999999001999KA1240M+03291MA1999999098481MD1999999-0091REMSYN088AAXX  11004 82986 32995 30908 10263 20188 39848 40132 8320/ 333 10329 29060 55082 59009;EQDQ01  00002PRCP99
0211829860999992002031112004-09390-038210FM-12+0252SBUF V0200901N004611050019N0100001N1+02631+02071101481ADDAA199000091AJ199999999999999GF107991031021008001001081IA1179KA1240N+02201MA1999999098641REMSYN076AAXX  11124 82986 32597 70909 10263 20207 39864 40148 83208 333 20220 40146;EQDQ01  00002PRCP99Q02  01462SNDP  
0279829860999992002031118004-09390-038210SY-MT+0252SBUF V0200901N005112200019N0200001N1+03191+01651101101ADDAA199000091GA1021+006009999GA2021+090009999GF106991031011008001081071MA1101291098271MD1999999+0051MW1001REMSYN070AAXX  11184 82986 32598 60910 10319 20165 39827 40110 83187 333 58005;MET052SBUF 111800Z 13012KT 9999 FEW020 SCT300 32/16 Q1013;EQDQ01+000000PRSWM2Q02  00002PRCP99
0208829860999992002031200004-09390-038210FM-12+0252SBUF V0200901N004112200019N0020001N1+02611+01991101391ADDAA199000091GA1001+999999999GF100991001001999999001001KA1240M+03221MA1999999098551MD1999999+0071REMSYN082AAXX  12004 82986 32995 00908 10261 20199 39855 40139 333 10322 29062 55068 58007;EQDQ01  00002PRCP99
0186829860999992002031212004-09390-038210FM-12+0252SBUF V0200901N005110075019N0200001N1+02721+02051101591ADDAA199000091GF106991051021008001001011KA1240N+02201MA1999999098741MD1999999+0101REMSYN076AAXX  12124 82986 32598 60910 10272 20205 39874 40159 85201 333 20220 58010;EQDQ01  00002PRCP99
0167829860999992002031218004-09390-038210FM-12+0252SBUF V0200901N003612200019N0500001N1+03301+01641101171ADDAA199000091GF104991021011008001081001MA1999999098351MD1999999+0081REMSYN070AAXX  12184 82986 32599 40907 10330 20164 39835 40117 82180 333 58008;EQDQ01  00002PRCP99
0208829860999992002031300004-09390-038210FM-12+0252SBUF V0200901N002612200019N0020001N1+02631+01881101491ADDAA199000091GA1001+999999999GF100991001001999999001001KA1240M+03381MA1999999098661MD1999999+0111REMSYN082AAXX  13004 82986 32995 00905 10263 20188 39866 40149 333 10338 29058 55087 58011;EQDQ01  00002PRCP99
0186829860999992002031312004-09390-038210FM-12+0252SBUF V0200901N004610450019N0200001N1+02661+01971101571ADDAA199000091GF106991031011008001081001KA1240N+02191MA1999999098721MD1999999-0021REMSYN076AAXX  13124 82986 32598 60909 10266 20197 39872 40157 83180 333 20219 59002;EQDQ01  00002PRCP99
0167829860999992002031318004-09390-038210FM-12+0252SBUF V0201401N002112200019N0500001N1+03311+01641101041ADDAA199000091GF104991021011008001061001MA1999999098231MD1999999-0121REMSYN070AAXX  13184 82986 32599 41404 10331 20164 39823 40104 82160 333 59012;EQDQ01  00002PRCP99
0208829860999992002031400004-09390-038210FM-12+0252SBUF V0201401N005112200019N0020001N1+02651+01981101391ADDAA199000091GA1001+999999999GF100991001001999999001001KA1240M+03411MA1999999098551MD1999999-0111REMSYN082AAXX  14004 82986 32995 01410 10265 20198 39855 40139 333 10341 29059 55098 59011;EQDQ01  00002PRCP99
0186829860999992002031412004-09390-038210FM-12+0252SBUF V0201401N002610450019N0100001N1+02561+01991101361ADDAA199000091GF106991041021004501081001KA1240N+02051MA1999999098521MD1999999-0201REMSYN076AAXX  14124 82986 32497 61405 10256 20199 39852 40136 84280 333 20205 59020;EQDQ01  00002PRCP99
0167829860999992002031418004-09390-038210FM-12+0252SBUF V0203601N002112200019N0500001N1+03391+01831100911ADDAA199000091GF103991031011008001001001MA1999999098101MD1999999-0131REMSYN070AAXX  14184 82986 32599 33604 10339 20183 39810 40091 83100 333 59013;EQDQ01  00002PRCP99
0208829860999992002031500004-09390-038210FM-12+0252SBUF V0200901N004612200019N0020001N1+02771+02021101171ADDAA199000091GA1001+999999999GF100991001001999999001001KA1240M+03461MA1999999098341MD1999999-0211REMSYN082AAXX  15004 82986 32995 00909 10277 20202 39834 40117 333 10346 29060 55101 59021;EQDQ01  00002PRCP99
0186829860999992002031512004-09390-038210FM-12+0252SBUF V0200901N002612200019N0200001N1+02751+02001101361ADDAA199000091GF104991021011008001061011KA1240N+02161MA1999999098531MD1999999+0011REMSYN076AAXX  15124 82986 32598 40905 10275 20200 39853 40136 82161 333 20216 58001;EQDQ01  00002PRCP99
0167829860999992002031518004-09390-038210FM-12+0252SBUF V0201401N001512200019N0200001N1+03441+01631100811ADDAA199000091GF104991031011008001001021MA1999999098011MD1999999-0091REMSYN070AAXX  15184 82986 32598 41403 10344 20163 39801 40081 83102 333 59009;EQDQ01  00002PRCP99
0208829860999992002031600004-09390-038210FM-12+0252SBUF V0200901N004112200019N0020001N1+02851+01851101031ADDAA199000091GA1001+999999999GF100991001001999999001001KA1240M+03481MA1999999098221MD1999999-0121REMSYN082AAXX  16004 82986 32995 00908 10285 20185 39822 40103 333 10348 29052 55103 59012;EQDQ01  00002PRCP99
0186829860999992002031612004-09390-038210FM-12+0252SBUF V0203201N001510450019N0100001N1+02641+02161101331ADDAA199000091GF106991031011008001081011KA1240N+02211MA1999999098501MD1999999-0031REMSYN076AAXX  16124 82986 32597 63203 10264 20216 39850 40133 83181 333 20221 59003;EQDQ01  00002PRCP99
0167829860999992002031618004-09390-038210FM-12+0252SBUF V0201401N002612200019N0200001N1+03391+01661100821ADDAA199000091GF103991021011012501001011MA1999999098021MD1999999+0011REMSYN070AAXX  16184 82986 32698 31405 10339 20166 39802 40082 82101 333 58001;EQDQ01  00002PRCP99
0198829860999992002031700004-09390-038210FM-12+0252SBUF V0200901N006212200019N0020001N1+02721+02051101171ADDAA199000091GF102991021011012501001001KA1240M+03471MA1999999098341MD1999999+0121REMSYN088AAXX  17004 82986 32695 20912 10272 20205 39834 40117 82100 333 10347 29061 55095 58012;EQDQ01  00002PRCP99
0186829860999992002031712004-09390-038210FM-12+0252SBUF V0201401N002612200019N0200001N1+02731+02031101261ADDAA199000091GF103991031011012501001001KA1240N+02231MA1999999098431MD1999999-0071REMSYN076AAXX  17124 82986 32698 31405 10273 20203 39843 40126 83100 333 20223 59007;EQDQ01  00002PRCP99
0167829860999992002031718004-09390-038210FM-12+0252SBUF V0200501N004111050019N0500001N1+03411+01501100831ADDAA199000091GF105991021011008001081011MA1999999098021MD1999999+0001REMSYN070AAXX  17184 82986 32599 50508 10341 20150 39802 40083 82181 333 58000;EQDQ01  00002PRCP99
0208829860999992002031800004-09390-038210FM-12+0252SBUF V0200901N005712200019N0020001N1+02751+02001101101ADDAA199000091GA1001+999999999GF100991001001999999001001KA1240M+03471MA1999999098271MD1999999-0071REMSYN082AAXX  18004 82986 32995 00911 10275 20200 39827 40110 333 10347 29056 55106 59007;EQDQ01  00002PRCP99
0186829860999992002031812004-09390-038210FM-12+0252SBUF V0201401N002110075019N0100001N1+02781+02161101281ADDAA199000091GF106991051051008001061001KA1240N+02321MA1999999098451MD1999999+0021REMSYN076AAXX  18124 82986 32597 61404 10278 20216 39845 40128 85560 333 20232 58002;EQDQ01  00002PRCP99
0167829860999992002031818004-09390-038210FM-12+0252SBUF V0201401N002611050019N0500001N1+03471+01781100721ADDAA199000091GF105991021011008001081011MA1999999097921MD1999999-0101REMSYN070AAXX  18184 82986 32599 51405 10347 20178 39792 40072 82181 333 59010;EQDQ01  00002PRCP99
0208829860999992002031900004-09390-038210FM-12+0252SBUF V0200901N002612200019N0020001N1+02661+02161101101ADDAA199000091GA1001+999999999GF100991001001999999001001KA1240M+03501MA1999999098271MD1999999+0001REMSYN082AAXX  19004 82986 32995 00905 10266 20216 39827 40110 333 10350 29063 55093 58000;EQDQ01  00002PRCP99
0139829860999992002031910004-09390-038210FM-15+0252SBUF V0201001N002610030019N0112651N1+02501+02201999999ADDGA1071+003009999GF107991999999999999999999MA1101191999999MW1001REMMET045SBUF 191000Z 10005KT 9999 BKN010 25/22 Q1012;EQDQ01+000000PRSWM2
0162829860999992002031911004-09390-038210FM-15+0252SBUF V0201401N002612200019N0112651N1+02501+02101999999ADDGA1021+004509999GA2021+021009999GF104991999999999999999999MA1101291999999MW1001REMMET052SBUF 191100Z 14005KT 9999 SCT015 SCT070 25/21 Q1013;EQDQ01+000000PRSWM2
0298829860999992002031912004-09390-038210SY-MT+0252SBUF V0201401N002112200019N0100001N1+02651+02141101171ADDAA199000091GA1021+004509999GA2021+021009999GF106991031011008001081011KA1240N+02311MA1101291098331MD1999999-0121MW1001REMSYN076AAXX  19124 82986 32597 61404 10265 20214 39833 40117 83181 333 20231 59012;MET052SBUF 191200Z 18005KT 9999 FEW015 SCT070 27/22 Q1013;EQDQ01+000000PRSWM2Q02  00002PRCP99
0162829860999992002031913004-09390-038210FM-15+0252SBUF V0201301N003612200019N0112651N1+03001+02101999999ADDGA1021+006009999GA2021+021009999GF104991999999999999999999MA1101291999999MW1001REMMET052SBUF 191300Z 13007KT 9999 SCT020 SCT070 30/21 Q1013;EQDQ01+000000PRSWM2
0162829860999992002031914004-09390-038210FM-15+0252SBUF V0201501N002610060019N0112651N1+03101+02101999999ADDGA1071+006009999GA2071+021009999GF107991999999999999999999MA1101191999999MW1001REMMET052SBUF 191400Z 15005KT 9999 BKN020 BKN070 31/21 Q1012;EQDQ01+000000PRSWM2
0162829860999992002031915004-09390-038210FM-15+0252SBUF V0201001N002610060019N0112651N1+03201+02001999999ADDGA1071+006009999GA2071+024009999GF107991999999999999999999MA1101081999999MW1001REMMET052SBUF 191500Z 10005KT 9999 BKN020 BKN080 32/20 Q1011;EQDQ01+000000PRSWM2
0162829860999992002031916004-09390-038210FM-15+0252SBUF V0201501N004110090019N0112651N1+03201+02101999999ADDGA1071+009009999GA2071+024009999GF107991999999999999999999MA1101021999999MW1001REMMET052SBUF 191600Z 15008KT 9999 BKN030 BKN080 32/21 Q1010;EQDQ01+000000PRSWM2
0162829860999992002031917004-09390-038210FM-15+0252SBUF V0201001N005110240019N0112651N1+03301+02001999999ADDGA1021+009009999GA2071+024009999GF107991999999999999999999MA1100911999999MW1001REMMET052SBUF 191700Z 10010KT 9999 SCT030 BKN080 33/20 Q1009;EQDQ01+000000PRSWM2
0167829860999992002031918004-09390-038210FM-12+0252SBUF V0201401N004610450019N0200001N1+03301+01981100701ADDAA199000091GF106991031011008001081011MA1999999097901MD1999999-0021REMSYN070AAXX  19184 82986 32598 61409 10330 20198 39790 40070 83181 333 59002;EQDQ01  00002PRCP99
0208829860999992002032000004-09390-038210FM-12+0252SBUF V0200901N004612200019N0020001N1+02611+02171101031ADDAA199000091GA1001+999999999GF100991001001999999001001KA1240M+03341MA1999999098201MD1999999-0071REMSYN082AAXX  20004 82986 32995 00909 10261 20217 39820 40103 333 10334 29069 55033 59007;EQDQ01  00002PRCP99
0186829860999992002032012004-09390-038210FM-12+0252SBUF V0201401N001510450019N0040001N1+02681+02131101341ADDAA199000091GF106991041021004501081001KA1240N+02341MA1999999098501MD1999999+0171REMSYN076AAXX  20124 82986 32496 61403 10268 20213 39850 40134 84280 333 20234 58017;EQDQ01  00002PRCP99
0182829860999992002032018004-09390-038210FM-12+0252SBUF V0201801N001511050019N0100001N1+03191+01801100821ADDAA106000191AY151061AY221061GF106991031021008001001081MA1999999098011MD1999999+0111MW1021REMSYN082AAXX  20184 82986 21597 61803 10319 20180 39801 40082 70252 83208 333 58011 69911;
0208829860999992002032100004-09390-038210FM-12+0252SBUF V0200901N003112200019N0020001N1+02751+02171101061ADDAA199000091GA1001+999999999GF100991001001999999001001KA1240M+03281MA1999999098231MD1999999+0031REMSYN082AAXX  21004 82986 32995 00906 10275 20217 39823 40106 333 10328 29065 55008 58003;EQDQ01  00002PRCP99
0173829860999992002032112004-09390-038210FM-12+0252SBUF V0200901N000512200019N0200001N1+02721+02171101251ADDAA124000191GF104991021011008001001011KA1240N+02261MA1999999098421MD1999999-0081REMSYN082AAXX  21124 82986 22598 40901 10272 20217 39842 40125 82101 333 20226 59008 69914;
0167829860999992002032118004-09390-038210FM-12+0252SBUF V0200901N006012200019N0200001N1+03521+01791100711ADDAA199000091GF104991031011012501001011MA1999999097921MD1999999-0091REMSYN070AAXX  21180 82986 32698 40906 10352 20179 39792 40071 83101 333 59009;EQDQ01  00002PRCP99
0208829860999992002032200004-09390-038210FM-12+0252SBUF V0200901N004612200019N0020001N1+02951+01881100931ADDAA199000091GA1001+999999999GF100991001001999999001001KA1240M+03551MA1999999098131MD1999999-0101REMSYN082AAXX  22004 82986 32995 00909 10295 20188 39813 40093 333 10355 29054 55103 59010;EQDQ01  00002PRCP99
0186829860999992002032212004-09390-038210FM-12+0252SBUF V0200901N000510450019N0100001N1+02701+02221101221ADDAA199000091GF106991031021008001031001KA1240N+02361MA1999999098411MD1999999-0011REMSYN076AAXX  22124 82986 32597 60901 10270 20222 39841 40122 83230 333 20236 59001;EQDQ01  00002PRCP99
0167829860999992002032218004-09390-038210FM-12+0252SBUF V0201401N002112200019N0200001N1+03531+01831100661ADDAA199000091GF105991041021012501001011MA1999999097881MD1999999-0041REMSYN070AAXX  22184 82986 32698 51404 10353 20183 39788 40066 84201 333 59004;EQDQ01  00002PRCP99
0226829860999992002032300004-09390-038210FM-12+0252SBUF V0200901N005110120019N0020001N1+02791+02181101141ADDAA199000091AY121061AY221061GF107991051081008001999999KA1240M+03581MA1999999098321MD1999999+0191MW1131REMSYN094AAXX  23004 82986 31595 70910 10279 20218 39832 40114 71322 858// 333 10358 29063 55086 58019;EQDQ01  00002PRCP99
0201829860999992002032312004-09390-038210FM-12+0252SBUF V0200901N005710450019N0100001N1+02671+02201101381ADDAA124005191AY191061AY261061GF106991041021008001051061KA1240N+02281MA1999999098551MD1999999+0141MW1011REMSYN088AAXX  23124 82986 21597 60911 10267 20220 39855 40138 70196 84256 333 20228 58014 60054;
0167829860999992002032318004-09390-038210FM-12+0252SBUF V0200901N002610042019N0100001N1+03131+01851101001ADDAA199000091GF107991051021004501081001MA1999999098181MD1999999+0301REMSYN070AAXX  23184 82986 32497 70905 10313 20185 39818 40100 85280 333 58030;EQDQ01  00002PRCP99
0208829860999992002032400004-09390-038210FM-12+0252SBUF V0200901N003612200019N0020001N1+02631+02121101241ADDAA199000091GA1001+999999999GF100991001001999999001001KA1240M+03231MA1999999098401MD1999999+0081REMSYN082AAXX  24004 82986 32995 00907 10263 20212 39840 40124 333 10323 29069 55025 58008;EQDQ01  00002PRCP99
0186829860999992002032412004-09390-038210FM-12+0252SBUF V0200901N003110075019N0200001N1+02701+02131101421ADDAA199000091GF106991061021008001001001KA1240N+02241MA1999999098581MD1999999+0031REMSYN076AAXX  24124 82986 32598 60906 10270 20213 39858 40142 86200 333 20224 58003;EQDQ01  00002PRCP99
0167829860999992002032418004-09390-038210FM-12+0252SBUF V0201401N001510450019N0500001N1+03331+01611100891ADDAA199000091GF105991021011008001081001MA1999999098081MD1999999-0101REMSYN070AAXX  24184 82986 32599 51403 10333 20161 39808 40089 82180 333 59010;EQDQ01  00002PRCP99
0198829860999992002032500004-09390-038210FM-12+0252SBUF V0200901N004112200019N0020001N1+02741+02001101201ADDAA199000091GF104991021021004501081001KA1240M+03421MA1999999098371MD1999999-0031REMSYN088AAXX  25004 82986 32495 40908 10274 20200 39837 40120 82280 333 10342 29059 55091 59003;EQDQ01  00002PRCP99
0186829860999992002032512004-09390-038210FM-12+0252SBUF V0200901N005110450019N0100001N1+02731+02001101351ADDAA199000091GF106991041021004501081001KA1240N+02181MA1999999098511MD1999999-0071REMSYN076AAXX  25124 82986 32497 60910 10273 20200 39851 40135 84280 333 20218 59007;EQDQ01  00002PRCP99
0167829860999992002032518004-09390-038210FM-12+0252SBUF V0200901N003112200019N0500001N1+03281+01931100821ADDAA199000091GF105991031021008001001011MA1999999098021MD1999999-0061REMSYN070AAXX  25184 82986 32599 50906 10328 20193 39802 40082 83201 333 59006;EQDQ01  00002PRCP99
0208829860999992002032600004-09390-038210FM-12+0252SBUF V0200901N004612200019N0020001N1+02741+02001101131ADDAA199000091GA1001+999999999GF100991001001999999001001KA1240M+03361MA1999999098311MD1999999-0061REMSYN082AAXX  26004 82986 32995 00909 10274 20200 39831 40113 333 10336 29060 55089 59006;EQDQ01  00002PRCP99
0186829860999992002032612004-09390-038210FM-12+0252SBUF V0200901N003110450019N0040001N1+02531+02021101321ADDAA199000091GF106991041021004501081001KA1240N+02201MA1999999098481MD1999999-0031REMSYN076AAXX  26124 82986 32496 60906 10253 20202 39848 40132 84280 333 20220 59003;EQDQ01  00002PRCP99
0167829860999992002032618004-09390-038210FM-12+0252SBUF V0200901N003112200019N0500001N1+03451+01481100781ADDAA199000091GF103991031011008001001001MA1999999097991MD1999999-0031REMSYN070AAXX  26184 82986 32599 30906 10345 20148 39799 40078 83100 333 59003;EQDQ01  00002PRCP99
0208829860999992002032700004-09390-038210FM-12+0252SBUF V0200901N006212200019N0020001N1+02751+02171101111ADDAA199000091GA1001+999999999GF100991001001999999001001KA1240M+03481MA1999999098281MD1999999-0031REMSYN082AAXX  27004 82986 32995 00912 10275 20217 39828 40111 333 10348 29062 55084 59003;EQDQ01  00002PRCP99
0186829860999992002032712004-09390-038210FM-12+0252SBUF V0201401N005110075019N0200001N1+02791+02181101371ADDAA199000091GF105991051021008001001001KA1240N+02271MA1999999098541MD1999999+0061REMSYN076AAXX  27124 82986 32598 51410 10279 20218 39854 40137 85200 333 20227 58006;EQDQ01  00002PRCP99
0167829860999992002032718004-09390-038210FM-12+0252SBUF V0200501N004112200019N0200001N1+03381+01401100911ADDAA199000091GF103991031011012501001001MA1999999098111MD1999999+0121REMSYN070AAXX  27184 82986 32698 30508 10338 20140 39811 40091 83100 333 58012;EQDQ01  00002PRCP99
0208829860999992002032800004-09390-038210FM-12+0252SBUF V0200901N006212200019N0020001N1+02661+01921101341ADDAA199000091GA1001+999999999GF100991001001999999001001KA1240M+03451MA1999999098511MD1999999+0231REMSYN082AAXX  28004 82986 32995 00912 10266 20192 39851 40134 333 10345 29057 55098 58023;EQDQ01  00002PRCP99
0186829860999992002032812004-09390-038210FM-12+0252SBUF V0200901N005110450019N0100001N1+02661+02091101501ADDAA199000091GF106991041021004501081011KA1240N+02161MA1999999098661MD1999999+0121REMSYN076AAXX  28124 82986 32497 60910 10266 20209 39866 40150 84281 333 20216 58012;EQDQ01  00002PRCP99
0182829860999992002032818004-09390-038210FM-12+0252SBUF V0201401N004610450019N0100001N1+03171+01961101021ADDAA106000191AY151061AY221061GF106991041021008001081081MA1999999098201MD1999999+0091MW1201REMSYN082AAXX  28184 82986 21597 61409 10317 20196 39820 40102 72052 84288 333 58009 69911;
0213829860999992002032900004-09390-038210FM-12+0252SBUF V0201401N003110042019N0020001N1+02351+02151101311ADDAA106000391AY161061AY251061GF108991061051004501081999KA1240M+03221MA1999999098451MD1999999-0061MW1021REMSYN100AAXX  29004 82986 21495 81406 10235 20215 39845 40131 70265 8658/ 333 10322 29075 55036 59006 69931;
0201829860999992002032912004-09390-038210FM-12+0252SBUF V0201401N003110450019N0100001N1+02531+02231101331ADDAA124000891AY151061AY221061GF106991041021004501081061KA1240N+02181MA1999999098471MD1999999-0191MW1021REMSYN088AAXX  29124 82986 21497 61406 10253 20223 39847 40133 70252 84286 333 20218 59019 69974;
0167829860999992002032918004-09390-038210FM-12+0252SBUF V0200901N005710450019N0200001N1+03301+01681100881ADDAA199000091GF106991041021004501081011MA1999999098071MD1999999-0131REMSYN070AAXX  29184 82986 32498 60911 10330 20168 39807 40088 84281 333 59013;EQDQ01  00002PRCP99
0208829860999992002033000004-09390-038210FM-12+0252SBUF V0200901N002612200019N0020001N1+02621+01981101271ADDAA199000091GA1001+999999999GF100991001001999999001001KA1240M+03401MA1999999098421MD1999999-0031REMSYN082AAXX  30004 82986 32995 00905 10262 20198 39842 40127 333 10340 29064 55056 59003;EQDQ01  00002PRCP99
0214829860999992002033012004-09390-038210FM-12+0252SBUF V0200901N004610450019N0100001N1+02691+02091101341ADDAA199000091AY121061AY221061GF106991041021004501081001KA1240N+02201MA1999999098501MD1999999+0031MW1151REMSYN082AAXX  30124 82986 31497 60909 10269 20209 39850 40134 71522 84280 333 20220 58003;EQDQ01  00002PRCP99
0167829860999992002033018004-09390-038210FM-12+0252SBUF V0200901N003610450019N0500001N1+03371+01731100831ADDAA199000091GF106991031011008001081021MA1999999098021MD1999999-0051REMSYN070AAXX  30184 82986 32599 60907 10337 20173 39802 40083 83182 333 59005;EQDQ01  00002PRCP99
0208829860999992002033100004-09390-038210FM-12+0252SBUF V0200901N004612200019N0020001N1+02771+01911101211ADDAA199000091GA1001+999999999GF100991001001999999001001KA1240M+03411MA1999999098381MD1999999-0041REMSYN082AAXX  31004 82986 32995 00909 10277 20191 39838 40121 333 10341 29057 55092 59004;EQDQ01  00002PRCP99
0186829860999992002033112004-09390-038210FM-12+0252SBUF V0200901N005110450019N0100001N1+02681+02111101451ADDAA199000091GF106991041021004501081001KA1240N+02251MA1999999098611MD1999999+0111REMSYN076AAXX  31124 82986 32497 60910 10268 20211 39861 40145 84280 333 20225 58011;EQDQ01  00002PRCP99
0167829860999992002033118004-09390-038210FM-12+0252SBUF V0200901N005110450019N0200001N1+03271+01951100941ADDAA199000091GF106991031011008001081081MA1999999098131MD1999999+0111REMSYN070AAXX  31184 82986 32598 60910 10327 20195 39813 40094 83188 333 58011;EQDQ01  00002PRCP99
0208829860999992002040100004-09390-038210FM-12+0252SBUF V0200901N001512200019N0020001N1+02571+01951101321ADDAA199000091GA1001+999999999GF100991001001999999001001KA1240M+03281MA1999999098481MD1999999+0101REMSYN082AAXX  01004 82986 32995 00903 10257 20195 39848 40132 333 10328 29064 55048 58010;EQDQ01  00002PRCP99
0186829860999992002040112004-09390-038210FM-12+0252SBUF V0200901N005110450019N0040001N1+02671+02091101341ADDAA199000091GF106991041021004501081011KA1240N+02321MA1999999098501MD1999999-0111REMSYN076AAXX  01124 82986 32496 60910 10267 20209 39850 40134 84281 333 20232 59011;EQDQ01  00002PRCP99
0208829860999992002040200004-09390-038210FM-12+0252SBUF V0200901N005112200019N0020001N1+02691+02061101221ADDAA199000091GA1001+999999999GF100991001001999999001001KA1240M+03421MA1999999098391MD1999999-0091REMSYN082AAXX  02004 82986 32995 00910 10269 20206 39839 40122 333 10342 29062 55064 59009;EQDQ01  00002PRCP99
0201829860999992002040212004-09390-038210FM-12+0252SBUF V0200901N003110450019N0040001N1+02591+02211101361ADDAA124000191AY151061AY221061GF106991031071004501081001KA1240N+02341MA1999999098521MD1999999+0021MW1031REMSYN088AAXX  02124 82986 21496 60906 10259 20221 39852 40136 70352 83780 333 20234 58002 69914;
0182829860999992002040218004-09390-038210FM-12+0252SBUF V0201401N005110450019N0100001N1+03081+01951101021ADDAA106000391AY161061AY221061GF106991031021004501051061MA1999999098211MD1999999+0151MW1151REMSYN082AAXX  02184 82986 21497 61410 10308 20195 39821 40102 71562 83256 333 58015 69931;
0208829860999992002040300004-09390-038210FM-12+0252SBUF V0200901N005112200019N0020001N1+02701+01991101361ADDAA199000091GA1001+999999999GF100991001001999999001001KA1240M+03181MA1999999098521MD1999999+0131REMSYN082AAXX  03004 82986 32995 00910 10270 20199 39852 40136 333 10318 29065 55038 58013;EQDQ01  00002PRCP99
0173829860999992002040312004-09390-038210FM-12+0252SBUF V0201401N004610450019N0100001N1+02761+02071101421ADDAA124000391GF106991041021017501081001KA1240N+02271MA1999999098591MD1999999+0071REMSYN082AAXX  03124 82986 22797 61409 10276 20207 39859 40142 84280 333 20227 58007 69934;
0167829860999992002040318004-09390-038210FM-12+0252SBUF V0200901N004110075019N0200001N1+03161+01861101021ADDAA199000091GF106991061021008001001001MA1999999098211MD1999999+0001REMSYN070AAXX  03184 82986 32598 60908 10316 20186 39821 40102 86200 333 58000;EQDQ01  00002PRCP99
0198829860999992002040400004-09390-038210FM-12+0252SBUF V0200901N004112200019N0020001N1+02531+02021101421ADDAA199000091GF102991021001017501041001KA1240M+03331MA1999999098581MD1999999+0061REMSYN088AAXX  04004 82986 32795 20908 10253 20202 39858 40142 82040 333 10333 29065 55075 58006;EQDQ01  00002PRCP99
0186829860999992002040412004-09390-038210FM-12+0252SBUF V0200901N004110042019N0100001N1+02571+02061101481ADDAA199000091GF108991061051004501081999KA1240N+02281MA1999999098631MD1999999+0041REMSYN076AAXX  04124 82986 32497 80908 10257 20206 39863 40148 8658/ 333 20228 58004;EQDQ01  00002PRCP99
0182829860999992002040418004-09390-038210FM-12+0252SBUF V0201401N005710450019N0100001N1+02911+02071101051ADDAA106000391AY161061AY221061GF106991031041008001041081MA1999999098221MD1999999+0011MW1151REMSYN082AAXX  04184 82986 21597 61411 10291 20207 39822 40105 71562 83448 333 58001 69931;
0208829860999992002040500004-09390-038210FM-12+0252SBUF V0201401N003612200019N0020001N1+02461+01971101301ADDAA199000091GA1001+999999999GF100991001001999999001001KA1240M+03051MA1999999098451MD1999999-0131REMSYN082AAXX  05004 82986 32995 01407 10246 20197 39845 40130 333 10305 29071 55032 59013;EQDQ01  00002PRCP99
0173829860999992002040512004-09390-038210FM-12+0252SBUF V0201401N003110075019N0100001N1+02631+02051101281ADDAA124000391GF108991051071008001081999KA1240N+02141MA1999999098441MD1999999-0141REMSYN082AAXX  05124 82986 22597 81406 10263 20205 39844 40128 8578/ 333 20214 59014 69934;
0167829860999992002040518004-09390-038210FM-12+0252SBUF V0201401N002110450019N0500001N1+03181+01801100781ADDAA199000091GF106991041021004501081011MA1999999097961MD1999999-0261REMSYN070AAXX  05184 82986 32499 61404 10318 20180 39796 40078 84281 333 59026;EQDQ01  00002PRCP99
0198829860999992002040600004-09390-038210FM-12+0252SBUF V0200901N004610450019N0020001N1+02611+02101101081ADDAA199000091GF105991021011008001081001KA1240M+03281MA1999999098241MD1999999-0211REMSYN088AAXX  06004 82986 32595 50909 10261 20210 39824 40108 82180 333 10328 29066 55027 59021;EQDQ01  00002PRCP99
0186829860999992002040612004-09390-038210FM-12+0252SBUF V0200901N003110450019N0040001N1+02641+01981101141ADDAA199000091GF106991041021004501081011KA1240N+02191MA1999999098301MD1999999-0141REMSYN076AAXX  06124 82986 32496 60906 10264 20198 39830 40114 84281 333 20219 59014;EQDQ01  00002PRCP99
0167829860999992002040618004-09390-038210FM-12+0252SBUF V0200901N003112200019N0500001N1+03381+01481100621ADDAA199000091GF104991021011008001051011MA1999999097821MD1999999-0141REMSYN070AAXX  06184 82986 32599 40906 10338 20148 39782 40062 82151 333 59014;EQDQ01  00002PRCP99
0208829860999992002040700004-09390-038210FM-12+0252SBUF V0201401N003112200019N0020001N1+02731+01981101071ADDAA199000091GA1001+999999999GF100991001001999999001001KA1240M+03431MA1999999098241MD1999999+0001REMSYN082AAXX  07004 82986 32995 01406 10273 20198 39824 40107 333 10343 29057 55085 58000;EQDQ01  00002PRCP99
0186829860999992002040712004-09390-038210FM-12+0252SBUF V0200901N001511050019N0100001N1+02651+02031101331ADDAA199000091GF105991021021008001091011KA1240N+02171MA1999999098501MD1999999+0201REMSYN076AAXX  07124 82986 32597 50903 10265 20203 39850 40133 82291 333 20217 58020;EQDQ01  00002PRCP99
0167829860999992002040718004-09390-038210FM-12+0252SBUF V0200901N001510450019N0200001N1+03321+01821100681ADDAA199000091GF106991041011008001081081MA1999999097881MD1999999+0061REMSYN070AAXX  07184 82986 32598 60903 10332 20182 39788 40068 84188 333 58006;EQDQ01  00002PRCP99
0201829860999992002040812004-09390-038210FM-12+0252SBUF V0201401N003110450019N0040001N1+02711+02081101281ADDAA124004191AY161061AY221061GF106991041021004501081001KA1240N+02241MA1999999098431MD1999999-0071MW1021REMSYN088AAXX  08124 82986 21496 61406 10271 20208 39843 40128 70262 84280 333 20224 59007 60044;
0167829860999992002040818004-09390-038210FM-12+0252SBUF V0201401N001512200019N0200001N1+03271+01801100731ADDAA199000091GF106991041021012501001061MA1999999097931MD1999999+0051REMSYN070AAXX  08184 82986 32698 61403 10327 20180 39793 40073 84206 333 58005;EQDQ01  00002PRCP99
0208829860999992002040900004-09390-038210FM-12+0252SBUF V0200901N005112200019N0020001N1+02731+02151100981ADDAA199000091GA1001+999999999GF100991001001999999001001KA1240M+03341MA1999999098161MD1999999-0161REMSYN082AAXX  09004 82986 32995 00910 10273 20215 39816 40098 333 10334 29063 55084 59016;EQDQ01  00002PRCP99
0186829860999992002040912004-09390-038210FM-12+0252SBUF V0201401N002112200019N0200001N1+02671+02071101211ADDAA199000091GF104991031011008001061001KA1240N+02241MA1999999098381MD1999999-0051REMSYN076AAXX  09124 82986 32598 41404 10267 20207 39838 40121 83160 333 20224 59005;EQDQ01  00002PRCP99
0167829860999992002040918004-09390-038210FM-12+0252SBUF V0209999C001512200019N0200001N1+03391+01711100661ADDAA199000091GF104991041021012501001001MA1999999097871MD1999999-0061REMSYN070AAXX  09184 82986 32698 40003 10339 20171 39787 40066 84200 333 59006;EQDQ01  00002PRCP99
0208829860999992002041000004-09390-038210FM-12+0252SBUF V0200901N005112200019N0020001N1+02691+02061101041ADDAA199000091GA1001+999999999GF100991001001999999001001KA1240M+03431MA1999999098211MD1999999+0051REMSYN082AAXX  10004 82986 32995 00910 10269 20206 39821 40104 333 10343 29060 55106 58005;EQDQ01  00002PRCP99
0186829860999992002041012004-09390-038210FM-12+0252SBUF V0201401N002110075019N0100001N1+02531+02131101221ADDAA199000091GF106991051051008001001011KA1240N+02211MA1999999098381MD1999999+0001REMSYN076AAXX  10124 82986 32597 61404 10253 20213 39838 40122 85501 333 20221 58000;EQDQ01  00002PRCP99
0167829860999992002041018004-09390-038210FM-12+0252SBUF V0201401N002110450019N0200001N1+03311+01761100661ADDAA199000091GF106991021011008001081071MA1999999097851MD1999999-0021REMSYN070AAXX  10184 82986 32598 61404 10331 20176 39785 40066 82187 333 59002;EQDQ01  00002PRCP99
0208829860999992002041100004-09390-038210FM-12+0252SBUF V0200901N005112200019N0020001N1+02791+02111101071ADDAA199000091GA1001+999999999GF100991001001999999001001KA1240M+03361MA1999999098231MD1999999+0021REMSYN082AAXX  11004 82986 32995 00910 10279 20211 39823 40107 333 10336 29063 55073 58002;EQDQ01  00002PRCP99
0186829860999992002041112004-09390-038210FM-12+0252SBUF V0200901N002611050019N0100001N1+02741+02171101281ADDAA199000091GF106991031021008001001081KA1240N+02281MA1999999098451MD1999999+0071REMSYN076AAXX  11124 82986 32597 60905 10274 20217 39845 40128 83208 333 20228 58007;EQDQ01  00002PRCP99
0167829860999992002041118004-09390-038210FM-12+0252SBUF V0201401N002110450019N0500001N1+03391+01831100731ADDAA199000091GF106991021011008001081011MA1999999097931MD1999999+0081REMSYN070AAXX  11184 82986 32599 61404 10339 20183 39793 40073 82181 333 58008;EQDQ01  00002PRCP99
0198829860999992002041200004-09390-038210FM-12+0252SBUF V0200901N003110450019N0010001N1+02711+02131101111ADDAA199000091GF105991021011008001081001KA1240M+03421MA1999999098281MD1999999+0051REMSYN088AAXX  12004 82986 32594 50906 10271 20213 39828 40111 82180 333 10342 29063 55085 58005;EQDQ01  00002PRCP99
0201829860999992002041212004-09390-038210FM-12+0252SBUF V0200901N003110042019N0040001N1+02611+02231101331ADDAA124000391AY161061AY251061GF107991051071004501021001KA1240N+02361MA1999999098491MD1999999+0041MW1031REMSYN088AAXX  12124 82986 21496 70906 10261 20223 39849 40133 70365 85720 333 20236 58004 69934;
0167829860999992002041218004-09390-038210FM-12+0252SBUF V0200901N001510450019N0100001N1+03051+02091100891ADDAA199000091GF106991031021004501081081MA1999999098081MD1999999+0151REMSYN070AAXX  12184 82986 32497 60903 10305 20209 39808 40089 83288 333 58015;EQDQ01  00002PRCP99
0198829860999992002041300004-09390-038210FM-12+0252SBUF V0200501N003110450019N0010001N1+02681+02181101241ADDAA199000091GF106991041021004501081001KA1240M+03141MA1999999098401MD1999999+0121REMSYN088AAXX  13004 82986 32494 60506 10268 20218 39840 40124 84280 333 10314 29071 55000 58012;EQDQ01  00002PRCP99
0186829860999992002041312004-09390-038210FM-12+0252SBUF V0201401N002112200019N0100001N1+02751+02101101351ADDAA199000091GF104991011011008001061001KA1240N+02301MA1999999098511MD1999999+0021REMSYN076AAXX  13124 82986 32597 41404 10275 20210 39851 40135 81160 333 20230 58002;EQDQ01  00002PRCP99
0167829860999992002041318004-09390-038210FM-12+0252SBUF V0201401N001512200019N0500001N1+03391+01951100821ADDAA199000091GF104991021001012501061011MA1999999098021MD1999999-0061REMSYN070AAXX  13184 82986 32699 41403 10339 20195 39802 40082 82061 333 59006;EQDQ01  00002PRCP99
0198829860999992002041400004-09390-038210FM-12+0252SBUF V0201401N005112200019N0020001N1+02711+02151101271ADDAA199000091GF104991041021012501001001KA1240M+03461MA1999999098441MD1999999+0041REMSYN088AAXX  14004 82986 32695 41410 10271 20215 39844 40127 84200 333 10346 29064 55090 58004;EQDQ01  00002PRCP99
0186829860999992002041412004-09390-038210FM-12+0252SBUF V0200901N003110450019N0100001N1+02701+02131101391ADDAA199000091GF106991041021004501081011KA1240N+02391MA1999999098561MD1999999+0051REMSYN076AAXX  14124 82986 32497 60906 10270 20213 39856 40139 84281 333 20239 58005;EQDQ01  00002PRCP99
0167829860999992002041418004-09390-038210FM-12+0252SBUF V0201401N001510450019N0200001N1+03151+01841100921ADDAA199000091GF106991021011008001031081MA1999999098111MD1999999+0091REMSYN070AAXX  14184 82986 32598 61403 10315 20184 39811 40092 82138 333 58009;EQDQ01  00002PRCP99
0208829860999992002041500004-09390-038210FM-12+0252SBUF V0200901N004112200019N0020001N1+02631+01911101241ADDAA199000091GA1001+999999999GF100991001001999999001001KA1240M+03271MA1999999098401MD1999999-0041REMSYN082AAXX  15004 82986 32995 00908 10263 20191 39840 40124 333 10327 29062 55034 59004;EQDQ01  00002PRCP99
0201829860999992002041512004-09390-038210FM-12+0252SBUF V0200901N001510042019N0020001N1+02321+02181101461ADDAA124000591AY161061AY251061GF107991051071004501081001KA1240N+02101MA1999999098601MD1999999+0041MW1031REMSYN088AAXX  15124 82986 21495 70903 10232 20218 39860 40146 70365 85780 333 20210 58004 69954;
0201829860999992002041612004-09390-038210FM-12+0252SBUF V0200901N003610075019N0200001N1+02691+02161101371ADDAA124006191AY161061AY251061GF106991061021008001001001KA1240N+02221MA1999999098531MD1999999-0071MW1011REMSYN088AAXX  16124 82986 21598 60907 10269 20216 39853 40137 70165 86200 333 20222 59007 60064;
0167829860999992002041618004-09390-038210FM-12+0252SBUF V0201801N003110450019N0100001N1+03171+01821100961ADDAA199000091GF106991021011008001081011MA1999999098151MD1999999+0061REMSYN070AAXX  16184 82986 32597 61806 10317 20182 39815 40096 82181 333 58006;EQDQ01  00002PRCP99
0198829860999992002041700004-09390-038210FM-12+0252SBUF V0201401N003110450019N0010001N1+02651+02121101321ADDAA199000091GF106991031011008001081001KA1240M+03251MA1999999098491MD1999999+0111REMSYN088AAXX  17004 82986 32594 61406 10265 20212 39849 40132 83180 333 10325 29066 55086 58011;EQDQ01  00002PRCP99
0139829860999992002041719004-09390-038210FM-15+0252SBUF V0201401N005112200019N0112651N1+03401+01501999999ADDGA1021+007509999GF102991999999999999999999MA1101191999999MW1001REMMET045SBUF 171900Z 14010KT 9999 FEW025 34/15 Q1012;EQDQ01+000000PRSWM2
0208829860999992002041800004-09390-038210FM-12+0252SBUF V0200901N004112200019N0020001N1+02651+02031101311ADDAA199000091GA1001+999999999GF100991001001999999001001KA1240M+03391MA1999999098471MD1999999-0021REMSYN082AAXX  18004 82986 32995 00908 10265 20203 39847 40131 333 10339 29060 55107 59002;EQDQ01  00002PRCP99
0186829860999992002041812004-09390-038210FM-12+0252SBUF V0200901N011010450019N0100001N1+02741+02021101431ADDAA199000091GF106991041021004501081001KA1240N+02181MA1999999098591MD1999999-0091REMSYN076AAXX  18120 82986 32497 60911 10274 20202 39859 40143 84280 333 20218 59009;EQDQ01  00002PRCP99
0167829860999992002041818004-09390-038210FM-12+0252SBUF V0200901N005110450019N0200001N1+03311+01761100961ADDAA199000091GF105991021011008001061001MA1999999098151MD1999999-0011REMSYN070AAXX  18184 82986 32598 50910 10331 20176 39815 40096 82160 333 59001;EQDQ01  00002PRCP99
0208829860999992002041900004-09390-038210FM-12+0252SBUF V0200901N004612200019N0020001N1+02641+01881101281ADDAA199000091GA1001+999999999GF100991001001999999001001KA1240M+03421MA1999999098451MD1999999-0021REMSYN082AAXX  19004 82986 32995 00909 10264 20188 39845 40128 333 10342 29058 55096 59002;EQDQ01  00002PRCP99
0186829860999992002041912004-09390-038210FM-12+0252SBUF V0200901N003610450019N0100001N1+02731+01981101321ADDAA199000091GF106991041021004501081001KA1240N+02191MA1999999098491MD1999999-0101REMSYN076AAXX  19124 82986 32497 60907 10273 20198 39849 40132 84280 333 20219 59010;EQDQ01  00002PRCP99
0167829860999992002041918004-09390-038210FM-12+0252SBUF V0200901N004612200019N0500001N1+03321+01521100821ADDAA199000091GF104991021011008001061001MA1999999098011MD1999999-0141REMSYN070AAXX  19184 82986 32599 40909 10332 20152 39801 40082 82160 333 59014;EQDQ01  00002PRCP99
0208829860999992002042000004-09390-038210FM-12+0252SBUF V0200901N006712200019N0020001N1+02591+01821101201ADDAA199000091GA1001+999999999GF100991001001999999001001KA1240M+03381MA1999999098371MD1999999-0081REMSYN082AAXX  20004 82986 32995 00913 10259 20182 39837 40120 333 10338 29056 55104 59008;EQDQ01  00002PRCP99
0186829860999992002042012004-09390-038210FM-12+0252SBUF V0200901N005110075019N0200001N1+02631+01981101311ADDAA199000091GF105991051021008001001001KA1240N+02081MA1999999098471MD1999999-0021REMSYN076AAXX  20124 82986 32598 50910 10263 20198 39847 40131 85200 333 20208 59002;EQDQ01  00002PRCP99
0167829860999992002042018004-09390-038210FM-12+0252SBUF V0200901N005711050019N0200001N1+03291+01441100791ADDAA199000091GF106991031011008001001081MA1999999097981MD1999999-0031REMSYN070AAXX  20184 82986 32598 60911 10329 20144 39798 40079 83108 333 59003;EQDQ01  00002PRCP99
0201829860999992002042112004-09390-038210FM-12+0252SBUF V0200901N003110090019N0040001N1+02351+02271101401ADDAA124002091AY161061AY251061GF108991081081004501999999KA1240N+02181MA1999999098541MD1999999+0071MW1151REMSYN088AAXX  21124 82986 21496 80906 10235 20227 39854 40140 71565 888// 333 20218 58007 60024;
0208829860999992002042200004-09390-038210FM-12+0252SBUF V0200901N005112200019N0020001N1+02771+01971101251ADDAA199000091GA1001+999999999GF100991001001999999001001KA1240M+03301MA1999999098401MD1999999+0021REMSYN082AAXX  22004 82986 32995 00910 10277 20197 39840 40125 333 10330 29065 55058 58002;EQDQ01  00002PRCP99
0201829860999992002042212004-09390-038210FM-12+0252SBUF V0200901N005110021019N0020001N1+02311+02181101311ADDAA124000391AY121061AY221061GF108991061071002501081999KA1240N+02061MA1999999098461MD1999999-0081MW1501REMSYN088AAXX  22124 82986 21395 80910 10231 20218 39846 40131 75022 8678/ 333 20206 59008 69934;
0182829860999992002042218004-09390-038210FM-12+0252SBUF V0201401N005110450019N0040001N1+02691+02351100981ADDAA106002091AY161061AY221061GF106991041021004501081061MA1999999098131MD1999999+0081MW1151REMSYN082AAXX  22184 82986 21496 61410 10269 20235 39813 40098 71562 84286 333 58008 60021;
0213829860999992002042300004-09390-038210FM-12+0252SBUF V0200901N001510450019N0010001N1+02321+02221101281ADDAA106000891AY161061AY251061GF106991041021004501081001KA1240M+03051MA1999999098401MD1999999+0001MW1031REMSYN100AAXX  23004 82986 21494 60903 10232 20222 39840 40128 70365 84280 333 10305 29091 55033 58000 69981;
0201829860999992002042312004-09390-038210FM-12+0252SBUF V0201401N002610090019N0040001N1+02471+02151101231ADDAA124004191AY181061AY221061GF107991051081004501071001KA1240N+02001MA1999999098371MD1999999-0091MW1161REMSYN088AAXX  23124 82986 21496 71405 10247 20215 39837 40123 71682 85870 333 20200 59009 60044;
0167829860999992002042318004-09390-038210FM-12+0252SBUF V0201401N003610450019N0040001N1+02711+01951100911ADDAA199000091GF106991041021004501081001MA1999999098071MD1999999-0061REMSYN070AAXX  23184 82986 32496 61407 10271 20195 39807 40091 84280 333 59006;EQDQ01  00002PRCP99
0208829860999992002042400004-09390-038210FM-12+0252SBUF V0200901N003612200019N0020001N1+02541+01951101221ADDAA199000091GA1001+999999999GF100991001001999999001001KA1240M+02971MA1999999098371MD1999999-0031REMSYN082AAXX  24004 82986 32995 00907 10254 20195 39837 40122 333 10297 29072 55040 59003;EQDQ01  00002PRCP99
0186829860999992002042412004-09390-038210FM-12+0252SBUF V0200901N002110042019N0040001N1+02471+01991101201ADDAA199000091GF107991051021004501081001KA1240N+02041MA1999999098351MD1999999-0021REMSYN076AAXX  24124 82986 32496 70904 10247 20199 39835 40120 85280 333 20204 59002;EQDQ01  00002PRCP99
0167829860999992002042418004-09390-038210FM-12+0252SBUF V0200901N003110450019N0100001N1+02971+01841100781ADDAA199000091GF106991041021004501081011MA1999999097951MD1999999-0121REMSYN070AAXX  24184 82986 32497 60906 10297 20184 39795 40078 84281 333 59012;EQDQ01  00002PRCP99
0208829860999992002042500004-09390-038210FM-12+0252SBUF V0200901N006012200019N0020001N1+02561+01971101151ADDAA199000091GA1001+999999999GF100991001001999999001001KA1240M+03081MA1999999098301MD1999999-0071REMSYN082AAXX  25000 82986 32995 00906 10256 20197 39830 40115 333 10308 29067 55019 59007;EQDQ01  00002PRCP99
0186829860999992002042512004-09390-038210FM-12+0252SBUF V0200901N002610042019N0040001N1+02571+02111101541ADDAA199000091GF107991051071004501081001KA1240N+02121MA1999999098491MD1999999+0141REMSYN076AAXX  25124 82986 32496 70905 10257 20211 39849 40154 85780 333 20212 58014;EQDQ01  00002PRCP99
0167829860999992002042518004-09390-038210FM-12+0252SBUF V0200901N002610450019N0100001N1+03081+01921100911ADDAA199000091GF106991041021004501081001MA1999999098091MD1999999+0141REMSYN070AAXX  25184 82986 32497 60905 10308 20192 39809 40091 84280 333 58014;EQDQ01  00002PRCP99
0208829860999992002042600004-09390-038210FM-12+0252SBUF V0200901N003112200019N0020001N1+02571+02061101251ADDAA199000091GA1001+999999999GF100991001001999999001001KA1240M+03111MA1999999098401MD1999999-0101REMSYN082AAXX  26004 82986 32995 00906 10257 20206 39840 40125 333 10311 29069 55007 59010;EQDQ01  00002PRCP99
0186829860999992002042612004-09390-038210FM-12+0252SBUF V0200901N002610450019N0040001N1+02641+02031101451ADDAA199000091GF106991031021004501081011KA1240N+02181MA1999999098601MD1999999+0111REMSYN076AAXX  26124 82986 32496 60905 10264 20203 39860 40145 83281 333 20218 58011;EQDQ01  00002PRCP99
0167829860999992002042618004-09390-038210FM-12+0252SBUF V0200901N003612200019N0200001N1+03171+01631100971ADDAA199000091GF106991021011008001001011MA1999999098151MD1999999+0061REMSYN070AAXX  26184 82986 32598 60907 10317 20163 39815 40097 82101 333 58006;EQDQ01  00002PRCP99
0214829860999992002042700004-09390-038210FM-12+0252SBUF V0200901N005719999999N0020001N1+02111+01841101211ADDAA199000091GF106991001001999999001081KA1240M+03251MA1999999098371MD1999999-0031REMSYN088AAXX  27004 82986 32995 60911 10211 20184 39837 40121 86008 333 10325 29059 55042 59003;EQDQ01+000062SCOTLCQ02  00002PRCP99
0186829860999992002042712004-09390-038210FM-12+0252SBUF V0201401N002611050019N0040001N1+02571+01991101401ADDAA199000091GF106991031021004501001021KA1240N+02041MA1999999098551MD1999999-0051REMSYN076AAXX  27124 82986 32496 61405 10257 20199 39855 40140 83202 333 20204 59005;EQDQ01  00002PRCP99
0214829860999992002042800004-09390-038210FM-12+0252SBUF V0200901N005712200019N0040001N1+02571+01731101131ADDAA199000091GF101991999011999999001001KA1240M+03231MA1999999098291MD1999999-0081REMSYN088AAXX  28004 82986 32996 10911 10257 20173 39829 40113 88100 333 10323 29057 55084 59008;EQDQ01+000082SCOTLCQ02  00002PRCP99
0186829860999992002042812004-09390-038210FM-12+0252SBUF V0201401N005110075019N0100001N1+02631+01881101391ADDAA199000091GF106991061021008001001001KA1240N+01981MA1999999098541MD1999999-0011REMSYN076AAXX  28124 82986 32597 61410 10263 20188 39854 40139 86200 333 20198 59001;EQDQ01  00002PRCP99
0167829860999992002042818004-09390-038210FM-12+0252SBUF V0201401N001510450019N0200001N1+03221+01521100951ADDAA199000091GF106991031011008001081001MA1999999098121MD1999999+0051REMSYN070AAXX  28184 82986 32598 61403 10322 20152 39812 40095 83180 333 58005;EQDQ01  00002PRCP99
0198829860999992002042900004-09390-038210FM-12+0252SBUF V0200901N003610450019N0020001N1+02561+01901101291ADDAA199000091GF105991021011008001081001KA1240M+03291MA1999999098451MD1999999+0161REMSYN088AAXX  29004 82986 32595 50907 10256 20190 39845 40129 82180 333 10329 29058 55100 58016;EQDQ01  00002PRCP99
0186829860999992002042912004-09390-038210FM-12+0252SBUF V0200901N004112200019N0200001N1+02711+01751101481ADDAA199000091GF103991031011008001001001KA1240N+01981MA1999999098641MD1999999+0101REMSYN076AAXX  29124 82986 32598 30908 10271 20175 39864 40148 83100 333 20198 58010;EQDQ01  00002PRCP99
0167829860999992002042918004-09390-038210FM-12+0252SBUF V0200901N004110450019N0500001N1+03231+01611100991ADDAA199000091GF106991031011008001081001MA1999999098161MD1999999+0041REMSYN070AAXX  29184 82986 32599 60908 10323 20161 39816 40099 83180 333 58004;EQDQ01  00002PRCP99
0208829860999992002043000004-09390-038210FM-12+0252SBUF V0200901N004112200019N0020001N1+02511+01941101361ADDAA199000091GA1001+999999999GF100991001001999999001001KA1240M+03321MA1999999098521MD1999999+0071REMSYN082AAXX  30004 82986 32995 00908 10251 20194 39852 40136 333 10332 29059 55105 58007;EQDQ01  00002PRCP99
0186829860999992002043012004-09390-038210FM-12+0252SBUF V0201401N004110450019N0100001N1+02671+01921101561ADDAA199000091GF105991021011008001081001KA1240N+01971MA1999999098711MD1999999+0071REMSYN076AAXX  30124 82986 32597 51408 10267 20192 39871 40156 82180 333 20197 58007;EQDQ01  00002PRCP99
0167829860999992002043018004-09390-038210FM-12+0252SBUF V0201401N002612200019N0500001N1+03321+01701101031ADDAA199000091GF104991021011008001031001MA1999999098211MD1999999+0051REMSYN070AAXX  30184 82986 32599 41405 10332 20170 39821 40103 82130 333 58005;EQDQ01  00002PRCP99
0208829860999992002050100004-09390-038210FM-12+0252SBUF V0201801N005112200019N0020001N1+02641+02071101341ADDAA199000091GA1001+999999999GF100991001001999999001001KA1240M+03371MA1999999098501MD1999999-0021REMSYN082AAXX  01004 82986 32995 01810 10264 20207 39850 40134 333 10337 29061 55089 59002;EQDQ01  00002PRCP99
0167829860999992002050118004-09390-038210FM-12+0252SBUF V0201401N003110450019N0200001N1+03271+01951100901ADDAA199000091GF106991031011008001081011MA1999999098101MD1999999-0111REMSYN070AAXX  01184 82986 32598 61406 10327 20195 39810 40090 83181 333 59011;EQDQ01  00002PRCP99
0201829860999992002050212004-09390-038210FM-12+0252SBUF V0201401N001510450019N0040001N1+02491+02111101391ADDAA124003091AY161061AY221061GF106991031021004501081001KA1240N+02331MA1999999098531MD1999999-0101MW1021REMSYN088AAXX  02124 82986 21496 61403 10249 20211 39853 40139 70262 83280 333 20233 59010 60034;
0195829860999992002050218004-09390-038210FM-12+0252SBUF V0201401N005110450019N0200001N1+02951+02081100951ADDAA199000091AY121061AY221061GF106991021021008001051001MA1999999098121MD1999999+0021MW1151REMSYN076AAXX  02184 82986 32598 61410 10295 20208 39812 40095 71522 82250 333 58002;EQDQ01  00002PRCP99
0208829860999992002050300004-09390-038210FM-12+0252SBUF V0200901N003112200019N0020001N1+02521+02071101211ADDAA199000091GA1001+999999999GF100991001001999999001001KA1240M+03131MA1999999098361MD1999999-0141REMSYN082AAXX  03004 82986 32995 00906 10252 20207 39836 40121 333 10313 29073 55048 59014;EQDQ01  00002PRCP99
0186829860999992002050312004-09390-038210FM-12+0252SBUF V0201401N001510042019N0040001N1+02441+02111101341ADDAA199000091GF107991051071004501081001KA1240N+02141MA1999999098481MD1999999-0051REMSYN076AAXX  03124 82986 32496 71403 10244 20211 39848 40134 85780 333 20214 59005;EQDQ01  00002PRCP99
0167829860999992002050318004-09390-038210FM-12+0252SBUF V0201401N001511050019N0200001N1+03091+01981100861ADDAA199000091GF105991041021008001001091MA1999999098041MD1999999-0081REMSYN070AAXX  03184 82986 32598 51403 10309 20198 39804 40086 84209 333 59008;EQDQ01  00002PRCP99
0198829860999992002050400004-09390-038210FM-12+0252SBUF V0201401N004112200019N0020001N1+02511+02151101181ADDAA199000091GF102991021001017501041001KA1240M+03171MA1999999098331MD1999999-0031REMSYN088AAXX  04004 82986 32795 21408 10251 20215 39833 40118 82040 333 10317 29074 55038 59003;EQDQ01  00002PRCP99
0186829860999992002050412004-09390-038210FM-12+0252SBUF V0201401N003112200019N0200001N1+02661+02041101381ADDAA199000091GF103991031011012501001001KA1240N+02141MA1999999098531MD1999999+0041REMSYN076AAXX  04124 82986 32698 31406 10266 20204 39853 40138 83100 333 20214 58004;EQDQ01  00002PRCP99
0167829860999992002050418004-09390-038210FM-12+0252SBUF V0200901N004112200019N0500001N1+03331+01701100881ADDAA199000091GF103991031001012501061001MA1999999098071MD1999999+0031REMSYN070AAXX  04184 82986 32699 30908 10333 20170 39807 40088 83060 333 58003;EQDQ01  00002PRCP99
0208829860999992002050500004-09390-038210FM-12+0252SBUF V0200901N003112200019N0020001N1+02631+01761101311ADDAA199000091GA1001+999999999GF100991001001999999001001KA1240M+03371MA1999999098471MD1999999+0141REMSYN082AAXX  05004 82986 32995 00906 10263 20176 39847 40131 333 10337 29056 55104 58014;EQDQ01  00002PRCP99
0186829860999992002050512004-09390-038210FM-12+0252SBUF V0201401N003110075019N0200001N1+02591+01971101601ADDAA199000091GF105991051011008001001001KA1240N+01961MA1999999098751MD1999999+0221REMSYN076AAXX  05124 82986 32598 51406 10259 20197 39875 40160 85100 333 20196 58022;EQDQ01  00002PRCP99
0167829860999992002050518004-09390-038210FM-12+0252SBUF V0200901N003612200019N0500001N1+03271+01641101081ADDAA199000091GF101991011001012501041001MA1999999098251MD1999999+0181REMSYN070AAXX  05184 82986 32699 10907 10327 20164 39825 40108 81040 333 58018;EQDQ01  00002PRCP99
0208829860999992002050600004-09390-038210FM-12+0252SBUF V0200901N003112200019N0020001N1+02631+01881101421ADDAA199000091GA1001+999999999GF100991001001999999001001KA1240M+03311MA1999999098581MD1999999+0111REMSYN082AAXX  06004 82986 32995 00906 10263 20188 39858 40142 333 10331 29059 55094 58011;EQDQ01  00002PRCP99
0186829860999992002050612004-09390-038210FM-12+0252SBUF V0201401N003610042019N0040001N1+02511+02001101611ADDAA199000091GF107991051071004501081001KA1240N+02131MA1999999098751MD1999999+0001REMSYN076AAXX  06124 82986 32496 71407 10251 20200 39875 40161 85780 333 20213 58000;EQDQ01  00002PRCP99
0195829860999992002050618004-09390-038210FM-12+0252SBUF V0201401N001510450019N0100001N1+03101+02031101081ADDAA199000091AY121061AY221061GF106991041021008001081001MA1999999098251MD1999999+0001MW1151REMSYN076AAXX  06184 82986 31597 61403 10310 20203 39825 40108 71522 84280 333 58000;EQDQ01  00002PRCP99
0213829860999992002050700004-09390-038210FM-12+0252SBUF V0201801N001010090019N0010001N1+02261+02121101551ADDAA106007991AY161061AY251061GF108991081081004501999999KA1240M+03191MA1999999098681MD1999999+0101MW1031REMSYN100AAXX  07004 82986 21494 81802 10226 20212 39868 40155 70365 888// 333 10319 29078 55025 58010 60081;
0201829860999992002050712004-09390-038210FM-12+0252SBUF V0201401N003111050019N0100001N1+02421+02251101511ADDAA124008991AY161061AY251061GF105991021011008001081011KA1240N+02161MA1999999098621MD1999999-0131MW1031REMSYN088AAXX  07124 82986 21597 51406 10242 20225 39862 40151 70365 82181 333 20216 59013 60094;
0167829860999992002050718004-09390-038210FM-12+0252SBUF V0201401N003112200019N0100001N1+03061+01831101031ADDAA199000091GF106991031021008001001011MA1999999098201MD1999999-0051REMSYN070AAXX  07184 82986 32597 61406 10306 20183 39820 40103 83201 333 59005;EQDQ01  00002PRCP99
0208829860999992002050800004-09390-038210FM-12+0252SBUF V0200901N002112200019N0020001N1+02481+02011101441ADDAA199000091GA1001+999999999GF100991001001999999001001KA1240M+03121MA1999999098581MD1999999-0101REMSYN082AAXX  08004 82986 32995 00904 10248 20201 39858 40144 333 10312 29072 55055 59010;EQDQ01  00002PRCP99
0186829860999992002050812004-09390-038210FM-12+0252SBUF V0200901N002610075019N0100001N1+02521+01911101511ADDAA199000091GF105991051021008001001001KA1240N+02071MA1999999098651MD1999999+0031REMSYN076AAXX  08124 82986 32597 50905 10252 20191 39865 40151 85200 333 20207 58003;EQDQ01  00002PRCP99
0167829860999992002050818004-09390-038210FM-12+0252SBUF V0201401N004110450019N0200001N1+03041+01681101101ADDAA199000091GF105991031021008001041001MA1999999098271MD1999999+0071REMSYN070AAXX  08184 82986 32598 51408 10304 20168 39827 40110 83240 333 58007;EQDQ01  00002PRCP99
0198829860999992002050900004-09390-038210FM-12+0252SBUF V0200901N002612200019N0020001N1+02391+01911101501ADDAA199000091GF101991011001017501041001KA1240M+03091MA1999999098631MD1999999+0051REMSYN088AAXX  09004 82986 32795 10905 10239 20191 39863 40150 81040 333 10309 29066 55107 58005;EQDQ01  00002PRCP99
0186829860999992002050912004-09390-038210FM-12+0252SBUF V0201401N001512200019N0200001N1+02511+01961101671ADDAA199000091GF104991021011008001061001KA1240N+01981MA1999999098801MD1999999+0151REMSYN076AAXX  09124 82986 32598 41403 10251 20196 39880 40167 82160 333 20198 58015;EQDQ01  00002PRCP99
0167829860999992002050918004-09390-038210FM-12+0252SBUF V0200901N005112200019N0200001N1+03141+01691101201ADDAA199000091GF104991041021012501001001MA1999999098371MD1999999+0101REMSYN070AAXX  09184 82986 32698 40910 10314 20169 39837 40120 84200 333 58010;EQDQ01  00002PRCP99
0208829860999992002051000004-09390-038210FM-12+0252SBUF V0201401N004612200019N0020001N1+02541+02041101571ADDAA199000091GA1001+999999999GF100991001001999999001001KA1240M+03191MA1999999098711MD1999999+0081REMSYN082AAXX  10004 82986 32995 01409 10254 20204 39871 40157 333 10319 29066 55098 58008;EQDQ01  00002PRCP99
0186829860999992002051012004-09390-038210FM-12+0252SBUF V0201401N005110075019N0100001N1+02651+02201101671ADDAA199000091GF106991051021008001081001KA1240N+02231MA1999999098821MD1999999+0021REMSYN076AAXX  10124 82986 32597 61410 10265 20220 39882 40167 85280 333 20223 58002;EQDQ01  00002PRCP99
0167829860999992002051018004-09390-038210FM-12+0252SBUF V0200901N003612200019N0200001N1+03171+01921101181ADDAA199000091GF104991021011008001061001MA1999999098361MD1999999-0011REMSYN070AAXX  10184 82986 32598 40907 10317 20192 39836 40118 82160 333 59001;EQDQ01  00002PRCP99
0213829860999992002051100004-09390-038210FM-12+0252SBUF V0200901N002610042019N0005001N1+02431+02321101621ADDAA106004191AY161061AY251061GF107991051071004501081001KA1240M+03291MA1999999098761MD1999999+0051MW1031REMSYN100AAXX  11004 82986 21493 70905 10243 20232 39876 40162 70365 85780 333 10329 29078 55073 58005 60041;
0201829860999992002051112004-09390-038210FM-12+0252SBUF V0201401N005110042019N0100001N1+02661+02221101691ADDAA124006191AY161061AY251061GF106991051021004501081001KA1240N+02221MA1999999098831MD1999999+0011MW1101REMSYN088AAXX  11124 82986 21497 61410 10266 20222 39883 40169 71065 85280 333 20222 58001 60064;
0167829860999992002051118004-09390-038210FM-12+0252SBUF V0201401N003110450019N0200001N1+03071+01991101201ADDAA199000091GF106991031011008001081001MA1999999098371MD1999999+0011REMSYN070AAXX  11184 82986 32598 61406 10307 20199 39837 40120 83180 333 58001;EQDQ01  00002PRCP99
0213829860999992002051200004-09390-038210FM-12+0252SBUF V0200901N004010450019N0005001N1+02481+02151101561ADDAA106000591AY161061AY251061GF106991041071004501081001KA1240M+03181MA1999999098701MD1999999-0061MW1031REMSYN100AAXX  12001 82986 21493 60904 10248 20215 39870 40156 70365 84780 333 10318 29073 55074 59006 69961;
0201829860999992002051212004-09390-038210FM-12+0252SBUF V0201401N006210450019N0040001N1+02521+02171101631ADDAA124000891AY161061AY251061GF106991041021004501081011KA1240N+02141MA1999999098771MD1999999-0061MW1031REMSYN088AAXX  12124 82986 21496 61412 10252 20217 39877 40163 70365 84281 333 20214 59006 69974;
0208829860999992002051300004-09390-038210FM-12+0252SBUF V0200901N003112200019N0020001N1+02471+01851101561ADDAA199000091GA1001+999999999GF100991001001999999001001KA1240M+03111MA1999999098701MD1999999+0001REMSYN082AAXX  13004 82986 32995 00906 10247 20185 39870 40156 333 10311 29067 55086 58000;EQDQ01  00002PRCP99
0186829860999992002051312004-09390-038210FM-12+0252SBUF V0200901N005110450019N0100001N1+02631+01961101541ADDAA199000091GF106991041021004501081011KA1240N+02061MA1999999098681MD1999999-0091REMSYN076AAXX  13124 82986 32497 60910 10263 20196 39868 40154 84281 333 20206 59009;EQDQ01  00002PRCP99
0167829860999992002051318004-09390-038210FM-12+0252SBUF V0200901N004111050019N0200001N1+03081+01641101211ADDAA199000091GF105991021011008001081011MA1999999098381MD1999999+0001REMSYN070AAXX  13184 82986 32598 50908 10308 20164 39838 40121 82181 333 58000;EQDQ01  00002PRCP99
0208829860999992002051400004-09390-038210FM-12+0252SBUF V0200901N003112200019N0020001N1+02461+01851101561ADDAA199000091GA1001+999999999GF100991001001999999001001KA1240M+03131MA1999999098701MD1999999+0001REMSYN082AAXX  14004 82986 32995 00906 10246 20185 39870 40156 333 10313 29062 55082 58000;EQDQ01  00002PRCP99
0186829860999992002051412004-09390-038210FM-12+0252SBUF V0201401N003110450019N0040001N1+02431+01991101611ADDAA199000091GF106991041021004501081001KA1240N+01891MA1999999098741MD1999999+0061REMSYN076AAXX  14124 82986 32496 61406 10243 20199 39874 40161 84280 333 20189 58006;EQDQ01  00002PRCP99
0167829860999992002051418004-09390-038210FM-12+0252SBUF V0200901N005711050019N0200001N1+03111+01771101191ADDAA199000091GF105991041021008001001051MA1999999098351MD1999999-0031REMSYN070AAXX  14184 82986 32598 50911 10311 20177 39835 40119 84205 333 59003;EQDQ01  00002PRCP99
0198829860999992002051500004-09390-038210FM-12+0252SBUF V0200901N005112200019N0020001N1+02511+02071101491ADDAA199000091GF102991021051012501001001KA1240M+03161MA1999999098621MD1999999-0081REMSYN088AAXX  15004 82986 32695 20910 10251 20207 39862 40149 82500 333 10316 29069 55082 59008;EQDQ01  00002PRCP99
0125829860999992002051512004-09390-038210FM-12+0252SBUF V0201801N004619999999N0100001N1+02541+99999999999ADDGF105991999999008001999999REMSYN087AAXX  15124 82986 21597 51809 10254 0209 39875 40161 70252 84201 333 20214 58001 69914;
0167829860999992002051518004-09390-038210FM-12+0252SBUF V0200901N004110075019N0200001N1+02951+01691101241ADDAA199000091GF107991061051008001071001MA1999999098401MD1999999+0051REMSYN070AAXX  15184 82986 32598 70908 10295 20169 39840 40124 86570 333 58005;EQDQ01  00002PRCP99
0198829860999992002051600004-09390-038210FM-12+0252SBUF V0200901N004110120019N0020001N1+02531+02021101441ADDAA199000091GF105991051051012501001001KA1240M+03021MA1999999098591MD1999999-0031REMSYN088AAXX  16004 82986 32695 50908 10253 20202 39859 40144 85500 333 10302 29068 55044 59003;EQDQ01  00002PRCP99
0201829860999992002051612004-09390-038210FM-12+0252SBUF V0201401N004110042019N0100001N1+02571+02231101431ADDAA124000591AY151061AY221061GF107991051071004501061091KA1240N+02181MA1999999098581MD1999999-0171MW1151REMSYN088AAXX  16124 82986 21497 71408 10257 20223 39858 40143 71552 85769 333 20218 59017 69944;
0167829860999992002051618004-09390-038210FM-12+0252SBUF V0201401N003610042019N0100001N1+02751+02301101131ADDAA199000091GF107991051071004501081001MA1999999098281MD1999999-0121REMSYN070AAXX  16184 82986 32497 71407 10275 20230 39828 40113 85780 333 59012;EQDQ01  00002PRCP99
0213829860999992002051700004-09390-038210FM-12+0252SBUF V0200901N001510060019N0001001N1+02291+02231101371ADDAA106005191AY161061AY261061GF108991081081001501999999KA1240M+03021MA1999999098501MD1999999-0091MW1911REMSYN100AAXX  17004 82986 21291 80903 10229 20223 39850 40137 79166 888// 333 10302 29088 55045 59009 60051;
0201829860999992002051712004-09390-038210FM-12+0252SBUF V0201401N003610060019N0020001N1+02241+02171101521ADDAA124066091AY161061AY261061GF108991081081002501999999KA1240N+02081MA1999999098631MD1999999+0051MW1551REMSYN088AAXX  17124 82986 21395 81407 10224 20217 39863 40152 75566 888// 333 20208 58005 60664;
0182829860999992002051718004-09390-038210FM-12+0252SBUF V0201401N002610042019N0020001N1+02741+02171101001ADDAA106000191AY161061AY251061GF107991051071004501081001MA1999999098161MD1999999-0121MW1031REMSYN082AAXX  17184 82986 21495 71405 10274 20217 39816 40100 70365 85780 333 59012 69911;
0179829860999992002051800004-09390-038210FM-12+0252SBUF V0200901N003110042019N0010001N1+02531+02231101221ADDAA199000021GF107991051071004501081001KA1240M+02791MA1999999098351MD1999999-0151REMSYN088AAXX  18004 82986 32494 70906 10253 20223 39835 40122 85780 333 10279 29084 55000 59015;
0173829860999992002051812004-09390-038210FM-12+0252SBUF V0201401N003110450019N0040001N1+02531+02191101301ADDAA124000191GF107991041021004501081011KA1240N+02211MA1999999098451MD1999999-0181REMSYN082AAXX  18124 82986 22496 71406 10253 20219 39845 40130 84281 333 20221 59018 69914;
0167829860999992002051818004-09390-038210FM-12+0252SBUF V0200901N001512200019N0200001N1+03011+02001100901ADDAA199000091GF104991031011008001001051MA1999999098081MD1999999-0081REMSYN070AAXX  18184 82986 32598 40903 10301 20200 39808 40090 83105 333 59008;EQDQ01  00002PRCP99
0198829860999992002051900004-09390-038210FM-12+0252SBUF V0200901N003110450019N0010001N1+02491+02211101311ADDAA199000091GF106991031061004501081001KA1240M+03031MA1999999098451MD1999999+0101REMSYN088AAXX  19004 82986 32494 60906 10249 20221 39845 40131 83680 333 10303 29077 55032 58010;EQDQ01  00002PRCP99
0186829860999992002051912004-09390-038210FM-12+0252SBUF V0201401N002110450019N0040001N1+02491+02091101511ADDAA199000091GF106991041021004501081001KA1240N+02181MA1999999098651MD1999999+0201REMSYN076AAXX  19124 82986 32496 61404 10249 20209 39865 40151 84280 333 20218 58020;EQDQ01  00002PRCP99
0167829860999992002051918004-09390-038210FM-12+0252SBUF V0201401N002112200019N0200001N1+03031+02021101061ADDAA199000091GF104991041021008001001001MA1999999098231MD1999999+0151REMSYN070AAXX  19184 82986 32598 41404 10303 20202 39823 40106 84200 333 58015;EQDQ01  00002PRCP99
0198829860999992002052000004-09390-038210FM-12+0252SBUF V0201401N004610075019N0200001N1+02491+02231101361ADDAA199000091GF105991051021008001001001KA1240M+03051MA1999999098501MD1999999+0051REMSYN088AAXX  20004 82986 32598 51409 10249 20223 39850 40136 85200 333 10305 29077 55077 58005;EQDQ01  00002PRCP99
0186829860999992002052012004-09390-038210FM-12+0252SBUF V0201401N002110450019N0040001N1+02551+02171101471ADDAA199000091GF106991031021004501081011KA1240N+02241MA1999999098611MD1999999-0041REMSYN076AAXX  20124 82986 32496 61404 10255 20217 39861 40147 83281 333 20224 59004;EQDQ01  00002PRCP99
0167829860999992002052018004-09390-038210FM-12+0252SBUF V0200901N001510075019N0200001N1+03071+02021101071ADDAA199000091GF106991061021008001001001MA1999999098251MD1999999+0021REMSYN070AAXX  20184 82986 32598 60903 10307 20202 39825 40107 86200 333 58002;EQDQ01  00002PRCP99
0198829860999992002052100004-09390-038210FM-12+0252SBUF V0201401N003110075019N0020001N1+02481+02251101371ADDAA199000091GF106991051051008001999001KA1240M+03141MA1999999098511MD1999999+0011REMSYN088AAXX  21004 82986 32595 61406 10248 20225 39851 40137 855/0 333 10314 29077 55085 58001;EQDQ01  00002PRCP99
0186829860999992002052112004-09390-038210FM-12+0252SBUF V0201401N003112200019N0100001N1+02571+02081101491ADDAA199000091GF103991031011008001001001KA1240N+02221MA1999999098641MD1999999+0031REMSYN076AAXX  21124 82986 32597 31406 10257 20208 39864 40149 83100 333 20222 58003;EQDQ01  00002PRCP99
0167829860999992002052118004-09390-038210FM-12+0252SBUF V0200901N003112200019N0200001N1+03031+02021101031ADDAA199000091GF102991011011012501001021MA1999999098201MD1999999-0051REMSYN070AAXX  21184 82986 32698 20906 10303 20202 39820 40103 81102 333 59005;EQDQ01  00002PRCP99
0198829860999992002052200004-09390-038210FM-12+0252SBUF V0200901N003612200019N0020001N1+02591+02251101271ADDAA199000091GF103991031051012501001001KA1240M+03071MA1999999098431MD1999999-0081REMSYN088AAXX  22004 82986 32695 30907 10259 20225 39843 40127 83500 333 10307 29074 55104 59008;EQDQ01  00002PRCP99
0202829860999992002052212004-09390-038210FM-12+0252SBUF V0201801N001519999999N0100001N1+02701+02131101371ADDAA199000091GF106991999041004501021081KA1240N+02261MA1999999098531MD1999999-0111REMSYN076AAXX  22124 82986 32497 61803 10270 20213 39853 40137 88428 333 20226 59011;EQDQ01+000082SCOTLCQ02  00002PRCP99
0167829860999992002052218004-09390-038210FM-12+0252SBUF V0201401N002111050019N0200001N1+03051+02001100901ADDAA199000091GF106991021011012501001081MA1999999098081MD1999999-0121REMSYN070AAXX  22184 82986 32698 61404 10305 20200 39808 40090 82108 333 59012;EQDQ01  00002PRCP99
0198829860999992002052300004-09390-038210FM-12+0252SBUF V0200901N002610450019N0020001N1+02521+02111101171ADDAA199000091GF106991031011008001081001KA1240M+03091MA1999999098331MD1999999-0101REMSYN088AAXX  23004 82986 32595 60905 10252 20211 39833 40117 83180 333 10309 29070 55092 59010;EQDQ01  00002PRCP99
0186829860999992002052312004-09390-038210FM-12+0252SBUF V0201401N002610090019N0040001N1+02611+02141101401ADDAA199000091GF106991051081004501061001KA1240N+02231MA1999999098551MD1999999+0021REMSYN076AAXX  23124 82986 32496 61405 10261 20214 39855 40140 85860 333 20223 58002;EQDQ01  00002PRCP99
0167829860999992002052318004-09390-038210FM-12+0252SBUF V0200901N002112200019N0200001N1+03031+01961100901ADDAA199000091GF103991021011008001061001MA1999999098081MD1999999+0001REMSYN070AAXX  23184 82986 32598 30904 10303 20196 39808 40090 82160 333 58000;EQDQ01  00002PRCP99
0198829860999992002052400004-09390-038210FM-12+0252SBUF V0201401N003610450019N0020001N1+02371+02091101321ADDAA199000091GF106991031011008001081001KA1240M+03061MA1999999098471MD1999999+0141REMSYN088AAXX  24004 82986 32595 61407 10237 20209 39847 40132 83180 333 10306 29075 55082 58014;EQDQ01  00002PRCP99
0186829860999992002052412004-09390-038210FM-12+0252SBUF V0201401N003110450019N0040001N1+02511+02051101471ADDAA199000091GF106991041021004501081011KA1240N+02141MA1999999098601MD1999999+0051REMSYN076AAXX  24124 82986 32496 61406 10251 20205 39860 40147 84281 333 20214 58005;EQDQ01  00002PRCP99
0182829860999992002052418004-09390-038210FM-12+0252SBUF V0200901N001510042019N0040001N1+02351+02181101131ADDAA106002091AY161061AY261061GF107991051071004501081001MA1999999098261MD1999999+0181MW1211REMSYN082AAXX  24184 82986 21496 70903 10235 20218 39826 40113 72166 85780 333 58018 60021;
0232829860999992002052500004-09390-038210FM-12+0252SBUF V0201401N003110042019N0020001N1+02311+02161101371ADDAA106000191AY161061AY251061GF108991999071004501081999KA1240M+02781MA1999999098501MD1999999+0031MW1031REMSYN100AAXX  25004 82986 21495 81406 10231 20216 39850 40137 70365 8878/ 333 10278 29088 55018 58003 69911;EQDQ01+000082SCOTLC
0201829860999992002052512004-09390-038210FM-12+0252SBUF V0201401N003610042019N0020001N1+02271+02011101571ADDAA124004191AY161061AY251061GF107991051071004501081001KA1240N+02081MA1999999098681MD1999999+0081MW1031REMSYN088AAXX  25124 82986 21495 71407 10227 20201 39868 40157 70365 85780 333 20208 58008 60044;
0195829860999992002052518004-09390-038210FM-12+0252SBUF V0201401N002110042019N0040001N1+02601+01961101231ADDAA199000091AY121061AY221061GF107991051071004501081001MA1999999098371MD1999999+0111MW1151REMSYN076AAXX  25184 82986 31496 71404 10260 20196 39837 40123 71522 85780 333 58011;EQDQ01  00002PRCP99
0198829860999992002052600004-09390-038210FM-12+0252SBUF V0201401N001510450019N0020001N1+02281+02011101481ADDAA199000091GF106991041021004501081001KA1240M+02721MA1999999098601MD1999999+0101REMSYN088AAXX  26004 82986 32495 61403 10228 20201 39860 40148 84280 333 10272 29081 55008 58010;EQDQ01  00002PRCP99
0186829860999992002052612004-09390-038210FM-12+0252SBUF V0201401N003610450019N0040001N1+02271+01821101731ADDAA199000091GF106991041021004501081001KA1240N+02001MA1999999098841MD1999999+0161REMSYN076AAXX  26124 82986 32496 61407 10227 20182 39884 40173 84280 333 20200 58016;EQDQ01  00002PRCP99
0167829860999992002052618004-09390-038210FM-12+0252SBUF V0201401N003110450019N0100001N1+02311+01811101441ADDAA199000091GF108991021071004501071999MA1999999098561MD1999999+0191REMSYN070AAXX  26184 82986 32497 81406 10231 20181 39856 40144 8277/ 333 58019;EQDQ01  00002PRCP99
0213829860999992002052700004-09390-038210FM-12+0252SBUF V0201401N002619999999N0020001N1+02111+01841101621ADDAA106000791AY151061AY221061GF108991081001012501071999KA1240M+02511MA1999999098721MD1999999+0121MW1201REMSYN100AAXX  27004 82986 21695 81405 10211 20184 39872 40162 72052 8807/ 333 10251 29080 55009 58012 69901;
0201829860999992002052712004-09390-038210FM-12+0252SBUF V0201401N001510090019N0040001N1+02141+02071101701ADDAA124000891AY161061AY251061GF108991081081004501999999KA1240N+01961MA1999999098791MD1999999-0051MW1211REMSYN088AAXX  27124 82986 21496 81403 10214 20207 39879 40170 72165 888// 333 20196 59005 69974;
0148829860999992002052718004-09390-038210FM-12+0252SBUF V0201401N003110450019N0200001N1+02811+01901101221ADDAA199000021GF105991021021008001061001MA1999999098361MD1999999-0201REMSYN070AAXX  27184 82986 32598 51406 10281 20190 39836 40122 82260 333 59020;
0213829860999992002052800004-09390-038210FM-12+0252SBUF V0200901N003112200019N0020001N1+02291+01961101451ADDAA106000191AY151061AY221061GF103991031051012501001001KA1240M+02831MA1999999098561MD1999999-0161MW1011REMSYN100AAXX  28004 82986 21695 30906 10229 20196 39856 40145 70152 83500 333 10283 29080 55045 59016 69911;
0201829860999992002052812004-09390-038210FM-12+0252SBUF V0201401N003110450019N0100001N1+02291+01961101591ADDAA124000391AY151061AY221061GF106991031021008001051001KA1240N+01981MA1999999098701MD1999999-0091MW1011REMSYN088AAXX  28124 82986 21597 61406 10229 20196 39870 40159 70152 83250 333 20198 59009 69934;
0167829860999992002052818004-09390-038210FM-12+0252SBUF V0200901N002610450019N0100001N1+02711+01861101191ADDAA199000091GF106991031011008001081001MA1999999098331MD1999999-0031REMSYN070AAXX  28184 82986 32597 60905 10271 20186 39833 40119 83180 333 59003;EQDQ01  00002PRCP99
0198829860999992002052900004-09390-038210FM-12+0252SBUF V0200901N001510450019N0010001N1+02331+01981101371ADDAA199000091GF106991031011008001081001KA1240M+02851MA1999999098491MD1999999-0071REMSYN088AAXX  29004 82986 32594 60903 10233 20198 39849 40137 83180 333 10285 29076 55045 59007;EQDQ01  00002PRCP99
0167829860999992002052918004-09390-038210FM-12+0252SBUF V0201401N003610450019N0200001N1+02791+01911101191ADDAA199000091GF106991041021004501081001MA1999999098341MD1999999+0011REMSYN070AAXX  29184 82986 32498 61407 10279 20191 39834 40119 84280 333 58001;EQDQ01  00002PRCP99
0198829860999992002053000004-09390-038210FM-12+0252SBUF V0200901N002110450019N0020001N1+02421+01991101441ADDAA199000091GF106991031011008001031001KA1240M+02971MA1999999098571MD1999999+0081REMSYN088AAXX  30004 82986 32595 60904 10242 20199 39857 40144 83130 333 10297 29074 55064 58008;EQDQ01  00002PRCP99
0186829860999992002053012004-09390-038210FM-12+0252SBUF V0201401N004110450019N0040001N1+02451+02071101601ADDAA199000091GF106991041021004501081011KA1240N+02001MA1999999098731MD1999999+0061REMSYN076AAXX  30124 82986 32496 61408 10245 20207 39873 40160 84281 333 20200 58006;EQDQ01  00002PRCP99
0167829860999992002053018004-09390-038210FM-12+0252SBUF V0200901N001510042019N0100001N1+02681+02021101461ADDAA199000091GF107991051011004501081001MA1999999098401MD1999999+0061REMSYN070AAXX  30184 82986 32497 70903 10268 20202 39840 40146 85180 333 58006;EQDQ01  00002PRCP99
0198829860999992002053100004-09390-038210FM-12+0252SBUF V0201401N005710450019N0010001N1+02421+02011101501ADDAA199000091GF106991031011008001081001KA1240M+02831MA1999999098641MD1999999+0071REMSYN088AAXX  31004 82986 32594 61411 10242 20201 39864 40150 83180 333 10283 29076 55036 58007;EQDQ01  00002PRCP99
0201829860999992002053112004-09390-038210FM-12+0252SBUF V0201401N003610450019N0040001N1+02491+02031101691ADDAA124000191AY161061AY251061GF106991041021004501081001KA1240N+02091MA1999999098801MD1999999+0071MW1031REMSYN088AAXX  31124 82986 21496 61407 10249 20203 39880 40169 70365 84280 333 20209 58007 69924;
0182829860999992002053118004-09390-038210FM-12+0252SBUF V0201401N004610060019N0020001N1+02611+02081101361ADDAA106000191AY161061AY261061GF108991081081002501999999MA1999999098501MD1999999+0101MW1511REMSYN082AAXX  31184 82986 21395 81409 10261 20208 39850 40136 75166 888// 333 58010 69911;
0223829860999992002060100004-09390-038210FM-12+0252SBUF V0200901N003112200019N0020001N1+02151+02041101641ADDAA106002091AY121061AY261061GA1001+999999999GF100991001001999999001001KA1240M+02771MA1999999098751MD1999999+0111MW1011REMSYN094AAXX  01004 82986 21995 00906 10215 20204 39875 40164 70126 333 10277 29084 55035 58011 60021;
0173829860999992002060112004-09390-038210FM-12+0252SBUF V0201401N001510450019N0040001N1+02411+02091101731ADDAA124002091GF106991031021004501081011KA1240N+02021MA1999999098841MD1999999+0041REMSYN082AAXX  01124 82986 22496 61403 10241 20209 39884 40173 83281 333 20202 58004 60024;
0167829860999992002060118004-09390-038210FM-12+0252SBUF V0201401N003612200019N0200001N1+02841+02011101341ADDAA199000091GF104991031021008001041041MA1999999098481MD1999999-0021REMSYN070AAXX  01184 82986 32598 41407 10284 20201 39848 40134 83244 333 59002;EQDQ01  00002PRCP99
0208829860999992002060200004-09390-038210FM-12+0252SBUF V0201401N003612200019N0020001N1+02311+02011101671ADDAA199000091GA1001+999999999GF100991001001999999001001KA1240M+02931MA1999999098791MD1999999+0041REMSYN082AAXX  02004 82986 32995 01407 10231 20201 39879 40167 333 10293 29078 55065 58004;EQDQ01  00002PRCP99
0186829860999992002060212004-09390-038210FM-12+0252SBUF V0201401N003110075019N0100001N1+02481+02071101681ADDAA199000091GF105991051021008001001001KA1240N+01941MA1999999098801MD1999999-0041REMSYN076AAXX  02124 82986 32597 51406 10248 20207 39880 40168 85200 333 20194 59004;EQDQ01  00002PRCP99
0167829860999992002060218004-09390-038210FM-12+0252SBUF V0201401N004112200019N0200001N1+02991+01551101341ADDAA199000091GF104991031021008001081001MA1999999098491MD1999999+0011REMSYN070AAXX  02184 82986 32598 41408 10299 20155 39849 40134 83280 333 58001;EQDQ01  00002PRCP99
0208829860999992002060300004-09390-038210FM-12+0252SBUF V0200901N003112200019N0020001N1+02351+01811101671ADDAA199000091GA1001+999999999GF100991001001999999001001KA1240M+03011MA1999999098791MD1999999+0001REMSYN082AAXX  03004 82986 32995 00906 10235 20181 39879 40167 333 10301 29066 55102 58000;EQDQ01  00002PRCP99
0201829860999992002060312004-09390-038210FM-12+0252SBUF V0200901N002110042019N0100001N1+02311+02011101651ADDAA124000791AY121061AY221061GF107991051071004501081001KA1240N+02001MA1999999098771MD1999999-0031MW1201REMSYN088AAXX  03124 82986 21497 70904 10231 20201 39877 40165 72022 85780 333 20200 59003 69904;
0148829860999992002060318004-09390-038210FM-12+0252SBUF V0201401N001510450019N0200001N1+02881+02031101221ADDAA199000021GF106991021021008001051001MA1999999098371MD1999999-0121REMSYN070AAXX  03184 82986 32598 61403 10288 20203 39837 40122 82250 333 59012;
0213829860999992002060400004-09400-038220FM-12+0252SBUF V0201401N002610450019N0020001N1+02391+02131101531ADDAA106000891AY161061AY221061GF106991041021004501081001KA1240M+02911MA1999999098651MD1999999-0141MW1011REMSYN100AAXX  04004 82986 21495 61405 10239 20213 39865 40153 70162 84280 333 10291 29079 55033 59014 69971;
0173829860999992002060412004-09400-038220FM-12+0252SBUF V0201401N003110075019N0100001N1+02411+02031101601ADDAA124000891GF106991051021008001001011KA1240N+02091MA1999999098721MD1999999-0051REMSYN082AAXX  04124 82986 22597 61406 10241 20203 39872 40160 85201 333 20209 59005 69974;
0167829860999992002060418004-09400-038220FM-12+0252SBUF V0201401N001512200019N0200001N1+02941+01871101151ADDAA199000091GF103991021011012501001011MA1999999098311MD1999999-0061REMSYN070AAXX  04184 82986 32698 31403 10294 20187 39831 40115 82101 333 59006;EQDQ01  00002PRCP99
0198829860999992002060500004-09400-038220FM-12+0252SBUF V0200901N002112200019N0020001N1+02451+01791101471ADDAA199000091GF102991021001999999051001KA1240M+02981MA1999999098601MD1999999-0051REMSYN088AAXX  05004 82986 32995 20904 10245 20179 39860 40147 82050 333 10298 29067 55089 59005;EQDQ01  00002PRCP99
0201829860999992002060512004-09400-038220FM-12+0252SBUF V0201401N002610042019N0040001N1+02421+02131101611ADDAA124000191AY161061AY251061GF107991051071004501081001KA1240N+02131MA1999999098701MD1999999-0021MW1031REMSYN088AAXX  05124 82986 21496 71405 10242 20213 39870 40161 70365 85780 333 20213 59002 69914;
0167829860999992002060518004-09400-038220FM-12+0252SBUF V0200901N001512200019N0200001N1+02931+01741101201ADDAA199000091GF103991031011008001001001MA1999999098361MD1999999+0051REMSYN070AAXX  05184 82986 32598 30903 10293 20174 39836 40120 83100 333 58005;EQDQ01  00002PRCP99
0208829860999992002060600004-09400-038220FM-12+0252SBUF V0201401N002112200019N0020001N1+02331+01831101471ADDAA199000091GA1001+999999999GF100991001001999999001001KA1240M+02991MA1999999098601MD1999999+0001REMSYN082AAXX  06004 82986 32995 01404 10233 20183 39860 40147 333 10299 29070 55058 58000;EQDQ01  00002PRCP99
0167829860999992002060618004-09400-038220FM-12+0252SBUF V0200901N002112200019N0200001N1+03041+01641101091ADDAA199000091GF104991041021008001001001MA1999999098251MD1999999-0111REMSYN070AAXX  06184 82986 32598 40904 10304 20164 39825 40109 84200 333 59011;EQDQ01  00002PRCP99
0208829860999992002060700004-09400-038220FM-12+0252SBUF V0200901N001512200019N0020001N1+02371+01731101501ADDAA199000091GA1001+999999999GF100991001001999999001001KA1240M+03071MA1999999098631MD1999999+0031REMSYN082AAXX  07004 82986 32995 00903 10237 20173 39863 40150 333 10307 29065 55089 58003;EQDQ01  00002PRCP99
0190829860999992002060712004-09400-038220FM-12+0252SBUF V0201401N001510042019N0040001N1+02181+02061101611ADDAY161061AY251061GF107991051071004501081001KA1240N+01871MA1999999098721MD1999999-0031MW1151REMSYN088AAXX  07124 82986 21496 71403 10218 20206 39872 40161 71565 85780 333 20187 59003 69974;
0171829860999992002060718004-09400-038220FM-12+0252SBUF V0201401N002110450019N0100001N1+02341+02151101361ADDAY161061AY251061GF107991021041008001081061MA1999999098471MD1999999+0221MW1211REMSYN082AAXX  07184 82986 21597 71404 10234 20215 39847 40136 72165 82486 333 58022 60011;
0162829860999992002060812004-09400-038220FM-12+0252SBUF V0201401N003610042019N0040001N1+02431+02091101791ADDGF107991051071004501031091KA1240N+02091MA1999999098911MD1999999+0191REMSYN082AAXX  08124 82986 22496 71407 10243 20209 39891 40179 85739 333 20209 58019 60014;
0195829860999992002060818004-09400-038220FM-12+0252SBUF V0201401N003610450019N0100001N1+02531+02021101471ADDAA199000091AY121061AY221061GF106991031031008001091001MA1999999098601MD1999999+0131MW1151REMSYN076AAXX  08184 82986 31597 61407 10253 20202 39860 40147 71522 83390 333 58013;EQDQ01  00002PRCP99
0212829860999992002060900004-09400-038220FM-12+0252SBUF V0200901N001512200019N0020001N1+02211+02061101681ADDAY161061AY211061GA1001+999999999GF100991001001999999001001KA1240M+02761MA1999999098791MD1999999+0101MW1021REMSYN094AAXX  09004 82986 21995 00903 10221 20206 39879 40168 70261 333 10276 29085 55021 58010 60011;
0162829860999992002060912004-09400-038220FM-12+0252SBUF V0201401N003610021019N0040001N1+02411+02231101711ADDGF107991051071002501081001KA1240N+01981MA1999999098821MD1999999-0091REMSYN082AAXX  09124 82986 22396 71407 10241 20223 39882 40171 85780 333 20198 59009 60014;
0171829860999992002060918004-09400-038220FM-12+0252SBUF V0200901N004110450019N0100001N1+02691+02061101281ADDAY151061AY221061GF106991031071004501081001MA1999999098421MD1999999-0181MW1151REMSYN082AAXX  09184 82986 21497 60908 10269 20206 39842 40128 71552 83780 333 59018 69901;
0202829860999992002061000004-09400-038220FM-12+0252SBUF V0200901N004110075019N0020001N1+02331+02071101581ADDAY161061AY251061GF108991051071008001051001KA1240M+02751MA1999999098621MD1999999-0171MW1021REMSYN100AAXX  10004 82986 21595 80908 10233 20207 39862 40158 70265 85750 333 10275 29083 55025 59017 60011;
0162829860999992002061012004-09400-038220FM-12+0252SBUF V0201401N003610075019N0100001N1+02411+01991101661ADDGF106991051021008001051001KA1240N+01941MA1999999098781MD1999999-0041REMSYN082AAXX  10124 82986 22597 61407 10241 20199 39878 40166 85250 333 20194 59004 60014;
0167829860999992002061018004-09400-038220FM-12+0252SBUF V0200901N001012200019N0200001N1+02911+01781101211ADDAA199000091GF103991031021008001001001MA1999999098361MD1999999-0061REMSYN070AAXX  10184 82986 32598 30902 10291 20178 39836 40121 83200 333 59006;EQDQ01  00002PRCP99
0208829860999992002061100004-09400-038220FM-12+0252SBUF V0200901N001512200019N0020001N1+02321+01981101561ADDAA199000091GA1001+999999999GF100991001001999999001001KA1240M+02961MA1999999098681MD1999999+0061REMSYN082AAXX  11004 82986 32995 00903 10232 20198 39868 40156 333 10296 29073 55079 58006;EQDQ01  00002PRCP99
0139829860999992002061110004-09400-038220FM-15+0252SBUF V0201901N001512200019N0112651N1+02201+02101999999ADDGA1021+003609999GF104991999999999999999999MA1101691999999MW1001REMMET045SBUF 111000Z 19003KT 9999 SCT012 22/21 Q1017;EQDQ01+000000PRSWM2
0161829860999992002061111004-09400-038220FM-15+0252SBUF V02099999999990210019N0112651N1+02301+02101999999ADDGA1021+003609999GA2071+021009999GF107991999999999999999999MA1101801999999MW1001REMMET051SBUF 111100Z 2003KT 9999 SCT012 BKN070 23/21 Q1018;EQDQ01+000000PRSWM2
0292829860999992002061112004-09400-038220SY-MT+0252SBUF V0200901N001010045019N0100001N1+02361+02051101611ADDAY161061AY251061GA1071+004509999GF105991051021008001001001KA1240N+02181MA1101801098731MD1999999-0051MW1031REMSYN088AAXX  11124 82986 21597 50902 10236 20205 39873 40161 70365 85200 333 20218 59005 60024;MET045SBUF 111200Z 14004KT 9999 BKN015 24/21 Q1018;EQDQ01+000000PRSWM2Q02    003PRSWM1
0139829860999992002061113004-09400-038220FM-15+0252SBUF V0201301N002612200019N0112651N1+02601+02001999999ADDGA1021+005109999GF104991999999999999999999MA1101801999999MW1001REMMET045SBUF 111300Z 13005KT 9999 SCT017 26/20 Q1018;EQDQ01+000000PRSWM2
0167829860999992002061118004-09400-038220FM-12+0252SBUF V0200901N001512200019N0200001N1+02911+01691101201ADDAA199000091GF103991031021008001001001MA1999999098361MD1999999+0001REMSYN070AAXX  11184 82986 32598 30903 10291 20169 39836 40120 83200 333 58000;EQDQ01  00002PRCP99
0208829860999992002061200004-09400-038220FM-12+0252SBUF V0200901N001512200019N0020001N1+02361+01971101481ADDAA199000091GA1001+999999999GF100991001001999999001001KA1240M+02941MA1999999098601MD1999999-0081REMSYN082AAXX  12004 82986 32995 00903 10236 20197 39860 40148 333 10294 29072 55066 59008;EQDQ01  00002PRCP99
0186829860999992002061212004-09400-038220FM-12+0252SBUF V0201401N001510450019N0100001N1+02391+01971101611ADDAA199000091GF106991031021008001081011KA1240N+02041MA1999999098731MD1999999+0001REMSYN076AAXX  12124 82986 32597 61403 10239 20197 39873 40161 83281 333 20204 58000;EQDQ01  00002PRCP99
0167829860999992002061218004-09400-038220FM-12+0252SBUF V0200901N003610450019N0100001N1+02551+02111101371ADDAA199000091GF106991041021004501081001MA1999999098501MD1999999+0141REMSYN070AAXX  12184 82986 32497 60907 10255 20211 39850 40137 84280 333 58014;EQDQ01  00002PRCP99
0202829860999992002061400004-09400-038220FM-12+0252SBUF V0201401N007012200019N0020001N1+02321+02071101611ADDAY151061AY211061GF103991031001017501051001KA1240M+02771MA1999999098721MD1999999-0021MW1011REMSYN100AAXX  14000 82986 21795 31407 10232 20207 39872 40161 70151 83050 333 10277 29071 55024 59002 69901;
0190829860999992002061412004-09400-038220FM-12+0252SBUF V0200901N001510021019N0010001N1+02221+02081101801ADDAY161061AY261061GF108991081011002501999999KA1240N+02041MA1999999098901MD1999999+0051MW1511REMSYN088AAXX  14124 82986 21394 80903 10222 20208 39890 40180 75166 881// 333 20204 58005 60084;
0190829860999992002061512004-09400-038220FM-12+0252SBUF V0201401N004110450019N0040001N1+02331+02031101741ADDAY161061AY251061GF107991041071004501071001KA1240N+02101MA1999999098851MD1999999-0051MW1161REMSYN088AAXX  15124 82986 21496 71408 10233 20203 39885 40174 71665 84770 333 20210 59005 60024;
0183829860999992002061600004-09400-038220FM-12+0252SBUF V0200901N003110090019N0010001N1+02131+02091101801ADDAY161061AY251061GF108991081081004501999999MA1999999098941MD1999999+0091MW1511REMSYN094AAXX  16004 82986 21494 80906 10213 20209 39894 40180 75165 888// 333 29090 5001/ 58009 60031;
0190829860999992002061612004-09400-038220FM-12+0252SBUF V0201401N002610042019N0100001N1+02351+02091101811ADDAY161061AY251061GF106991051021004501061001KA1240N+01901MA1999999098911MD1999999-0041MW1151REMSYN088AAXX  16124 82986 21497 61405 10235 20209 39891 40181 71565 85260 333 20190 59004 60044;
0171829860999992002061618004-09400-038220FM-12+0252SBUF V0201401N005110450019N0100001N1+02671+01691101421ADDAY151061AY221061GF106991031071004501081001MA1999999098551MD1999999-0121MW1511REMSYN082AAXX  16184 82986 21497 61410 10267 20169 39855 40142 75152 83780 333 59012 69901;
0196829860999992002061700004-09400-038220FM-12+0252SBUF V0200901N003110042019N0010001N1+02151+02111101711ADDAY161061AY261061GF108991081071004501999999KA1240M+02351MA1999999098801MD1999999-0141MW1511REMSYN094AAXX  17004 82986 21494 80906 10215 20211 39880 40171 75166 887// 333 10235 29050 59014 60041;
0190829860999992002061712004-09400-038220FM-12+0252SBUF V0200901N002610450019N0040001N1+02311+02111101811ADDAY161061AY251061GF106991031021004501081001KA1240N+01981MA1999999098911MD1999999+0001MW1031REMSYN088AAXX  17124 82986 21496 60905 10231 20211 39891 40181 70365 83280 333 20198 58000 60064;
0167829860999992002061718004-09400-038220FM-12+0252SBUF V0200901N003112200019N0200001N1+02791+01701101441ADDAA199000091GF103991031021008001001001MA1999999098571MD1999999+0021REMSYN070AAXX  17184 82986 32598 30906 10279 20170 39857 40144 83200 333 58002;EQDQ01  00002PRCP99
0198829860999992002061800004-09400-038220FM-12+0252SBUF V0201401N003119999999N0020001N1+02261+01861101691ADDAA199000091GF106991061001012501071001KA1240M+02821MA1999999098801MD1999999+0001REMSYN088AAXX  18004 82986 32695 61406 10226 20186 39880 40169 86070 333 10282 29074 55070 58000;EQDQ01  00002PRCP99
0190829860999992002061812004-09390-038210FM-12+0252SBUF V0200901N003110042019N0040001N1+02241+02141101831ADDAY161061AY251061GF107991051071004501081001KA1240N+02001MA1999999098931MD1999999+0021MW1211REMSYN088AAXX  18124 82986 21496 70906 10224 20214 39893 40183 72165 85780 333 20200 58002 60024;
0189829860999992002061900004-09390-038210FM-12+0252SBUF V0201401N001512200019N0020001N1+02171+01761101811ADDAA199000021GA1001+999999999GF100991001001999999001001KA1240M+02351MA1999999098901MD1999999-0101REMSYN082AAXX  19004 82986 32995 01403 10217 20176 39890 40181 333 10235 29076 55061 59010;
0202829860999992002061912004-09390-038210FM-12+0252SBUF V0201401N003612200019N0020001N1+02321+02071101611ADDAY151061AY211061GF103991031001017501051001KA1240M+02771MA1999999098721MD1999999-0021MW1011REMSYN100AAXX  19124 82986 21795 31407 10232 20207 39872 40161 70151 83050 333 10277 29071 55024 59002 69901;
0198829860999992002062000004-09390-038210FM-12+0252SBUF V0201401N001010450019N0020001N1+02431+02011101741ADDAA199000091GF108991041071008001081001KA1240M+02751MA1999999098861MD1999999-0041REMSYN088AAXX  20004 82986 32595 81402 10243 20201 39886 40174 84780 333 10275 29075 55068 59004;EQDQ01  00002PRCP99
0190829860999992002062012004-09390-038210FM-12+0252SBUF V0200901N001510090019N0040001N1+02171+02021101901ADDAY161061AY261061GF108991081081004501999999KA1240N+02101MA1999999099001MD1999999+0071MW1211REMSYN088AAXX  20124 82986 21496 80903 10217 20202 39900 40190 72166 888// 333 20210 58007 60054;
0171829860999992002062018004-09390-038210FM-12+0252SBUF V0201401N003610450019N0100001N1+02521+02071101481ADDAY151061AY221061GF106991041081004501051001MA1999999098611MD1999999+0151MW1151REMSYN082AAXX  20184 82986 21497 61407 10252 20207 39861 40148 71552 84850 333 58015 69901;
0171829860999992002062118004-09400-038220FM-12+0252SBUF V0200901N004110450019N0100001N1+02411+01971101531ADDAY161061AY221061GF106991021041004501071001MA1999999098651MD1999999+0041MW1011REMSYN082AAXX  21184 82986 21497 60908 10241 20197 39865 40153 70162 82470 333 58004 69921;
0202829860999992002062200004-09400-038220FM-12+0252SBUF V0201401N001510450019N0020001N1+02131+02041101781ADDAY161061AY261061GF108991041071012501081001KA1240M+02651MA1999999098871MD1999999+0001MW1501REMSYN100AAXX  22004 82986 21695 81403 10213 20204 39887 40178 75066 84780 333 10265 29090 55004 58000 60051;
0190829860999992002062212004-09400-038220FM-12+0252SBUF V0201401N002610042019N0040001N1+02271+02051101911ADDAY161061AY251061GF108991061071004501081999KA1240N+01961MA1999999099001MD1999999+0031MW1151REMSYN088AAXX  22124 82986 21496 81405 10227 20205 39900 40191 71565 8678/ 333 20196 58003 60114;
0167829860999992002062218004-09400-038220FM-12+0252SBUF V0200901N001512200019N0200001N1+02691+01881101441ADDAA199000091GF104991021021017501081001MA1999999098581MD1999999-0071REMSYN070AAXX  22184 82986 32798 40903 10269 20188 39858 40144 82280 333 59007;EQDQ01  00002PRCP99
0198829860999992002062300004-09400-038220FM-12+0252SBUF V0201401N001010120019N0020001N1+02271+01991101801ADDAA199000091GF108991051051012501061001KA1240M+02751MA1999999098901MD1999999+0031REMSYN088AAXX  23004 82986 32695 81402 10227 20199 39890 40180 85560 333 10275 29080 55057 58003;EQDQ01  00002PRCP99
0186829860999992002062312004-09400-038220FM-12+0252SBUF V0201401N004110450019N0040001N1+02341+01911101951ADDAA199000091GF106991041021004501081001KA1240N+01921MA1999999099051MD1999999+0051REMSYN076AAXX  23124 82986 32496 61408 10234 20191 39905 40195 84280 333 20192 58005;EQDQ01  00002PRCP99
0167829860999992002062318004-09400-038220FM-12+0252SBUF V0201401N003110450019N0200001N1+02641+01631101591ADDAA199000091GF105991031021008001051001MA1999999098711MD1999999+0141REMSYN070AAXX  23184 82986 32598 51406 10264 20163 39871 40159 83250 333 58014;EQDQ01  00002PRCP99
0214829860999992002062400004-09400-038220FM-12+0252SBUF V0200901N001510042019N0020001N1+02161+01921101901ADDAA199000091GF108991999071004501081999KA1240M+02721MA1999999099001MD1999999+0101REMSYN088AAXX  24004 82986 32495 80903 10216 20192 39900 40190 8878/ 333 10272 29076 55046 58010;EQDQ01+000082SCOTLCQ02  00002PRCP99
0190829860999992002062412004-09400-038220FM-12+0252SBUF V0200901N002610042019N0020001N1+02091+02051102021ADDAY161061AY251061GF107991051071004501081001KA1240N+01961MA1999999099101MD1999999+0051MW1031REMSYN088AAXX  24124 82986 21495 70905 10209 20205 39910 40202 70365 85780 333 20196 58005 69924;
0171829860999992002062418004-09400-038220FM-12+0252SBUF V0201801N001510042019N0040001N1+02461+02151101621ADDAY161061AY261061GF107991051071004501081001MA1999999098741MD1999999+0011MW1611REMSYN082AAXX  24184 82986 21496 71803 10246 20215 39874 40162 76166 85780 333 58001 69981;
0202829860999992002062500004-09400-038220FM-12+0252SBUF V0201801N001510042019N0020001N1+02161+02041101911ADDAY161061AY251061GF107991051071004501081001KA1240M+02621MA1999999099001MD1999999+0001MW1031REMSYN100AAXX  25004 82986 21495 71803 10216 20204 39900 40191 70365 85780 333 10262 29092 55009 58000 60011;
0190829860999992002062512004-09400-038220FM-12+0252SBUF V0200901N003110090019N0040001N1+02231+02051102091ADDAY161061AY251061GF108991081081004501999999KA1240N+01791MA1999999099181MD1999999+0081MW1031REMSYN088AAXX  25124 82986 21496 80906 10223 20205 39918 40209 70365 888// 333 20179 58008 60034;
0195829860999992002062518004-09400-038220FM-12+0252SBUF V0201401N005110450019N0040001N1+02641+02071101721ADDAA199000091AY121061AY221061GF106991041081004501051041MA1999999098851MD1999999+0111MW1151REMSYN076AAXX  25184 82986 31496 61410 10264 20207 39885 40172 71522 84854 333 58011;EQDQ01  00002PRCP99
0202829860999992002062600004-09400-038220FM-12+0252SBUF V0201401N002110450019N0020001N1+02271+02071102051ADDAY161061AY221061GF107991041051004501081001KA1240M+02841MA1999999099141MD1999999+0141MW1001REMSYN100AAXX  26004 82986 21495 71404 10227 20207 39914 40205 70062 84580 333 10284 29085 55037 58014 69921;
0162829860999992002062710004-09400-038220FM-15+0252SBUF V0201801N002610210019N0112651N1+02001+01901999999ADDGA1041+003909999GA2071+021009999GF107991999999999999999999MA1102001999999MW1001REMMET052SBUF 271000Z 18005KT 9999 SCT013 BKN070 20/19 Q1020;EQDQ01+000000PRSWM2
0315829860999992002062712004-09400-038220SY-MT+0252SBUF V0201401N002610030019N0100001N1+02131+02021101981ADDAY121061AY221061GA1071+003009999GA2071+021009999GF108991051071002501081999KA1240N+01901MA1102201099071MD1999999-0071MW1211REMSYN088AAXX  27124 82986 21397 81405 10213 20202 39907 40198 72122 8578/ 333 20190 59007 69964;MET052SBUF 271200Z 16005KT 9999 BKN010 BKN070 22/21 Q1022;EQDQ01+000000PRSWM2Q02    003PRSWM1
0162829860999992002062713004-09400-038220FM-15+0252SBUF V0201501N002610210019N0112651N1+02301+02001999999ADDGA1041+003909999GA2071+021009999GF107991999999999999999999MA1102201999999MW1001REMMET052SBUF 271300Z 15005KT 9999 SCT013 BKN070 23/20 Q1022;EQDQ01+000000PRSWM2
0162829860999992002062714004-09400-038220FM-15+0252SBUF V0201401N003610210019N0112651N1+02301+02001999999ADDGA1041+003609999GA2071+021009999GF107991999999999999999999MA1102201999999MW1001REMMET052SBUF 271400Z 14007KT 9999 SCT012 BKN070 23/20 Q1022;EQDQ01+000000PRSWM2
0171829860999992002062718004-09400-038220FM-12+0252SBUF V0201401N004110042019N0100001N1+02431+01931101691ADDAY161061AY251061GF107991051071004501081999MA1999999098801MD1999999-0031MW1151REMSYN082AAXX  27184 82986 21497 71408 10243 20193 39880 40169 71565 8578/ 333 59003 60011;
0198829860999992002062800004-09400-038220FM-12+0252SBUF V0200901N001510450019N0010001N1+02211+01941999999ADDAA199000021GF106991031011008001081001KA1240M+02521MA1999999098951MD1999999-0131REMSYN088AAXX  28004 82986 32594 60903 10221 20194 39895 40487 83180 333 10252 29084 55001 59013;EQDQ01 104873APOSLP
0162829860999992002062812004-09400-038220FM-12+0252SBUF V0201901N003610075019N0100001N1+02271+01921101921ADDGF106991051021008001001021KA1240N+01881MA1999999099021MD1999999-0051REMSYN082AAXX  28124 82986 22597 61907 10227 20192 39902 40192 85202 333 20188 59005 60014;
0198829860999992002062900004-09400-038220FM-12+0252SBUF V0201401N001510450019N0010001N1+02251+01961101781ADDAA199000091GF106991041021004501081001KA1240M+02831MA1999999098881MD1999999-0071REMSYN088AAXX  29004 82986 32494 61403 10225 20196 39888 40178 84280 333 10283 29077 55076 59007;EQDQ01  00002PRCP99
0190829860999992002062912004-09400-038220FM-12+0252SBUF V0201401N003110450019N0040001N1+02361+02071101901ADDAY121061AY221061GF106991041021004501081001KA1240N+01961MA1999999099001MD1999999-0021MW1151REMSYN088AAXX  29124 82986 21496 61406 10236 20207 39900 40190 71522 84280 333 20196 59002 69904;
0167829860999992002062918004-09400-038220FM-12+0252SBUF V0201401N004610075019N0200001N1+02801+01951101501ADDAA199000091GF105991051021008001001001MA1999999098641MD1999999+0031REMSYN070AAXX  29184 82986 32598 51409 10280 20195 39864 40150 85200 333 58003;EQDQ01  00002PRCP99
0186829860999992002063012004-09400-038220FM-12+0252SBUF V0201401N005110450019N0100001N1+02311+01961102001ADDAA199000091GF106991041021004501081001KA1240N+02041MA1999999099101MD1999999+0101REMSYN076AAXX  30124 82986 32497 61410 10231 20196 39910 40200 84280 333 20204 58010;EQDQ01  00002PRCP99
0190829860999992002063018004-09400-038220FM-12+0252SBUF V0201801N003110042019N0040001N1+02491+01921101731ADDAY121061AY221061GF108991999071004501081999MA1999999098851MD1999999+0211MW1151REMSYN082AAXX  30184 82986 21496 81806 10249 20192 39885 40173 71522 8878/ 333 58021 69901;EQDQ01+000082SCOTLC
0202829860999992002070100004-09400-038220FM-12+0252SBUF V0200901N002110060019N0005001N1+02091+01951102011ADDAY161061AY251061GF108991081081002501999999KA1240M+02651MA1999999099101MD1999999+0131MW1511REMSYN100AAXX  01004 82986 21393 80904 10209 20195 39910 40201 75165 888// 333 10265 29084 55025 58013 69921;
0190829860999992002070112004-09400-038220FM-12+0252SBUF V0201401N003610021019N0040001N1+02191+02041102101ADDAY161061AY251061GF107991061071002501081999KA1240N+01961MA1999999099181MD1999999+0081MW1201REMSYN088AAXX  01124 82986 21396 71407 10219 20204 39918 40210 72065 8678/ 333 20196 58008 60024;
0171829860999992002070118004-09400-038220FM-12+0252SBUF V0201401N003110060019N0010001N1+02431+02011101781ADDAY161061AY261061GF108991081081002501999999MA1999999098891MD1999999+0041MW1611REMSYN082AAXX  01184 82986 21394 81406 10243 20201 39889 40178 76166 888// 333 58004 69961;
0202829860999992002070200004-09400-038220FM-12+0252SBUF V0201401N003110450019N0020001N1+02201+01941101961ADDAY161061AY251061GF108991031041008001081999KA1240M+02611MA1999999099051MD1999999-0051MW1501REMSYN100AAXX  02004 82986 21595 81406 10220 20194 39905 40196 75065 8348/ 333 10261 29085 55053 59005 69991;
0190829860999992002070212004-09400-038220FM-12+0252SBUF V0201401N005110450019N0100001N1+02271+01941101931ADDAY151061AY221061GF106991041081004501051001KA1240N+01781MA1999999099031MD1999999-0151MW1021REMSYN088AAXX  02124 82986 21497 61410 10227 20194 39903 40193 70252 84850 333 20178 59015 60024;
0167829860999992002070218004-09400-038220FM-12+0252SBUF V0201401N002610450019N0100001N1+02621+01621101571ADDAA199000091GF106991041011008001051001MA1999999098691MD1999999-0201REMSYN070AAXX  02184 82986 32597 61405 10262 20162 39869 40157 84150 333 59020;EQDQ01  00002PRCP99
0208829860999992002070300004-09400-038220FM-12+0252SBUF V0200901N002112200019N0020001N1+01971+01571101801ADDAA199000091GA1001+999999999GF100991001001999999001001KA1240M+02701MA1999999098841MD1999999-0161REMSYN082AAXX  03004 82986 32995 00904 10197 20157 39884 40180 333 10270 29073 55043 59016;EQDQ01  00002PRCP99
0186829860999992002070312004-09400-038220FM-12+0252SBUF V0201401N002110450019N0100001N1+02131+01881101861ADDAA199000091GF106991041021008001061001KA1240N+01741MA1999999098941MD1999999-0091REMSYN076AAXX  03124 82986 32597 61404 10213 20188 39894 40186 84260 333 20174 59009;EQDQ01  00002PRCP99
0167829860999992002070318004-09400-038220FM-12+0252SBUF V0201401N004110450019N0200001N1+02851+01631101411ADDAA199000091GF106991031011008001081001MA1999999098541MD1999999-0151REMSYN070AAXX  03184 82986 32598 61408 10285 20163 39854 40141 83180 333 59015;EQDQ01  00002PRCP99
0208829860999992002070400004-09400-038220FM-12+0252SBUF V0200901N003612200019N0020001N1+02221+01711101811ADDAA199000091GA1001+999999999GF100991001001999999001001KA1240M+02891MA1999999098891MD1999999+0001REMSYN082AAXX  04004 82986 32995 00907 10222 20171 39889 40181 333 10289 29070 55070 58000;EQDQ01  00002PRCP99
0186829860999992002070412004-09400-038220FM-12+0252SBUF V0201401N001510075019N0200001N1+02251+01901101891ADDAA199000091GF106991051041008001061091KA1240N+01681MA1999999098991MD1999999+0051REMSYN076AAXX  04124 82986 32598 61403 10225 20190 39899 40189 85469 333 20168 58005;EQDQ01  00002PRCP99
0154829860999992002070413004-09400-038220FM-15+0252SBUF V0201501N002610240019N0112651N1+02501+01801999999ADDGA1041+006009999GA2071+024009999GF107991999999999999999999MA1102101999999MW1001REMMET044SBUF 15005KT 9999 SCT020 BKN080 25/18 Q1021;EQDQ01+000000PRSWM2
0154829860999992002070414004-09400-038220FM-15+0252SBUF V0201301N003110210019N0112651N1+02401+02001999999ADDGA1041+006009999GA2071+021009999GF107991999999999999999999MA1102001999999MW1001REMMET044SBUF 13006KT 9999 SCT020 BKN070 24/20 Q1020;EQDQ01+000000PRSWM2
0195829860999992002070418004-09400-038220FM-12+0252SBUF V0201401N003610450019N0100001N1+02571+01971101551ADDAA199000091AY121061AY221061GF106991041021004501081001MA1999999098651MD1999999+0111MW1151REMSYN076AAXX  04184 82986 31497 61407 10257 20197 39865 40155 71522 84280 333 58011;EQDQ01  00002PRCP99
0202829860999992002070500004-09400-038220FM-12+0252SBUF V0201401N003610060019N0005001N1+02101+02031101851ADDAY161061AY251061GF108991081081002501999999KA1240M+02641MA1999999098941MD1999999+0051MW1031REMSYN100AAXX  05004 82986 21393 81407 10210 20203 39894 40185 70365 888// 333 10264 29086 55028 58005 60021;
0190829860999992002070512004-09400-038220FM-12+0252SBUF V0201401N004110060019N0002001N1+02081+02011101901ADDAY161061AY261061GF108991081081001501999999KA1240N+01921MA1999999098981MD1999999-0011MW1911REMSYN088AAXX  05124 82986 21292 81408 10208 20201 39898 40190 79166 888// 333 20192 59001 60034;
0171829860999992002070518004-09400-038220FM-12+0252SBUF V0201401N003110060019N0005001N1+02411+02171101481ADDAY161061AY261061GF108991081081001501999999MA1999999098601MD1999999-0051MW1911REMSYN082AAXX  05184 82986 21293 81406 10241 20217 39860 40148 79166 888// 333 59005 60011;
0221829860999992002070600004-09400-038220FM-12+0252SBUF V0200901N001510042019N0010001N1+02051+01921101711ADDAY161061AY251061GF108991999071004501081999KA1240M+02601MA1999999098801MD1999999-0141MW1031REMSYN100AAXX  06004 82986 21494 80903 10205 20192 39880 40171 70365 8878/ 333 10260 29092 55005 59014 60031;EQDQ01+000082SCOTLC
0190829860999992002070612004-09400-038220FM-12+0252SBUF V0201401N003110450019N0100001N1+02321+01981101871ADDAY161061AY221061GF106991041041004501061001KA1240N+01941MA1999999098961MD1999999-0021MW1031REMSYN088AAXX  06124 82986 21497 61406 10232 20198 39896 40187 70362 84460 333 20194 59002 60064;
0167829860999992002070618004-09400-038220FM-12+0252SBUF V0201401N002610450019N0200001N1+02761+01721101371ADDAA199000091GF105991031021008001061001MA1999999098511MD1999999-0091REMSYN070AAXX  06184 82986 32598 51405 10276 20172 39851 40137 83260 333 59009;EQDQ01  00002PRCP99
0198829860999992002070700004-09400-038220FM-12+0252SBUF V0201401N003110450019N0020001N1+02161+01861101701ADDAA199000091GF106991031011008001081001KA1240M+02791MA1999999098801MD1999999-0021REMSYN088AAXX  07004 82986 32595 61406 10216 20186 39880 40170 83180 333 10279 29075 55056 59002;EQDQ01  00002PRCP99
0186829860999992002070712004-09400-038220FM-12+0252SBUF V0201801N001010450019N0100001N1+02291+01881101961ADDAA199000091GF108991031011008001081001KA1240N+01781MA1999999099061MD1999999+0101REMSYN076AAXX  07124 82986 32597 81802 10229 20188 39906 40196 83180 333 20178 58010;EQDQ01  00002PRCP99
0167829860999992002070718004-09400-038220FM-12+0252SBUF V0200901N003110075019N0200001N1+02031+01621101441ADDAA199000091GF105991051021008001001001MA1999999098571MD1999999+0061REMSYN070AAXX  07184 82986 32598 50906 10203 20162 39857 40144 85200 333 58006;EQDQ01  00002PRCP99
0208829860999992002070800004-09400-038220FM-12+0252SBUF V0200901N001512200019N0020001N1+02091+01721101751ADDAA199000091GA1001+999999999GF100991001001999999001001KA1240M+02791MA1999999098851MD1999999+0051REMSYN082AAXX  08004 82986 32995 00903 10209 20172 39885 40175 333 10279 29072 55094 58005;EQDQ01  00002PRCP99
0202829860999992002070812004-09400-038220FM-12+0252SBUF V0200901N003119999999N0100001N1+02251+01901101871ADDAA199000091GF105991999011008001001001KA1240N+01721MA1999999098961MD1999999-0101REMSYN076AAXX  08124 82986 32597 50906 10225 20190 39896 40187 82100 333 20172 59010;EQDQ01+000022SCOTLCQ02  00002PRCP99
0167829860999992002070818004-09400-038220FM-12+0252SBUF V0200501N003112200019N0200001N1+02851+01761101351ADDAA199000091GF101991011011012501001001MA1999999098491MD1999999-0081REMSYN070AAXX  08184 82986 32698 10506 10285 20176 39849 40135 81100 333 59008;EQDQ01  00002PRCP99
0208829860999992002070900004-09400-038220FM-12+0252SBUF V0201801N001512200019N0020001N1+02191+01761101691ADDAA199000091GA1001+999999999GF100991001001999999001001KA1240M+02901MA1999999098791MD1999999-0061REMSYN082AAXX  09004 82986 32995 01803 10219 20176 39879 40169 333 10290 29072 55099 59006;EQDQ01  00002PRCP99
0167829860999992002070918004-09400-038220FM-12+0252SBUF V0200901N004112200019N0200001N1+02901+01871101451ADDAA199000091GF102991021011012501001001MA1999999098601MD1999999+0111REMSYN070AAXX  09184 82986 32698 20908 10290 20187 39860 40145 82100 333 58011;EQDQ01  00002PRCP99
0198829860999992002071000004-09400-038220FM-12+0252SBUF V0201401N003110450019N0020001N1+02271+01901101811ADDAA199000091GF106991031011008001081001KA1240M+02951MA1999999098901MD1999999+0111REMSYN088AAXX  10004 82986 32595 61406 10227 20190 39890 40181 83180 333 10295 29075 55067 58011;EQDQ01  00002PRCP99
0186829860999992002071012004-09400-038220FM-12+0252SBUF V0201401N003110450019N0100001N1+02431+02051101911ADDAA199000091GF106991041021008001051001KA1240N+02081MA1999999099021MD1999999-0011REMSYN076AAXX  10124 82986 32597 61406 10243 20205 39902 40191 84250 333 20208 59001;EQDQ01  00002PRCP99
0167829860999992002071018004-09400-038220FM-12+0252SBUF V0201401N002611050019N0100001N1+02771+02041101471ADDAA199000091GF105991021011008001061021MA1999999098621MD1999999+0021REMSYN070AAXX  10184 82986 32597 51405 10277 20204 39862 40147 82162 333 58002;EQDQ01  00002PRCP99
0198829860999992002071100004-09400-038220FM-12+0252SBUF V0200901N003110450019N0010001N1+02251+01981101791ADDAA199000091GF106991031011008001081001KA1240M+02811MA1999999098891MD1999999-0011REMSYN088AAXX  11004 82986 32594 60906 10225 20198 39889 40179 83180 333 10281 29079 55042 59001;EQDQ01  00002PRCP99
0185829860999992002071118004-09400-038220FM-15+0252SBUF V0201801N002610054019N0112651N1+02501+02201999999ADDGA1041+003009999GA2071+005409999GA3071+024009999GF107991999999999999999999MA1101591999999MW1001REMMET059SBUF 111800Z 18005KT 9999 SCT010 BKN018 BKN080 25/22 Q1016;EQDQ01+000000PRSWM2
0208829860999992002071200004-09400-038220FM-12+0252SBUF V0200901N001512200019N0020001N1+02191+01941101641ADDAA199000091GA1001+999999999GF100991001001999999001001KA1240M+02771MA1999999098751MD1999999-0141REMSYN082AAXX  12004 82986 32995 00903 10219 20194 39875 40164 333 10277 29086 55035 59014;EQDQ01  00002PRCP99
0186829860999992002071212004-09400-038220FM-12+0252SBUF V0201401N001510450019N0040001N1+02141+01901101761ADDAA199000091GF106991041021004501081001KA1240N+01721MA1999999098841MD1999999-0121REMSYN076AAXX  12124 82986 32496 61403 10214 20190 39884 40176 84280 333 20172 59012;EQDQ01  00002PRCP99
0167829860999992002071218004-09400-038220FM-12+0252SBUF V0201401N002610450019N0100001N1+02711+01991101371ADDAA199000091GF106991041021004501081001MA1999999098511MD1999999-0091REMSYN070AAXX  12184 82986 32497 61405 10271 20199 39851 40137 84280 333 59009;EQDQ01  00002PRCP99
0202829860999992002071300004-09400-038220FM-12+0252SBUF V0201401N001512200019N0020001N1+02241+02101101591ADDAY161061AY221061GF103991031001012501061001KA1240M+02751MA1999999098691MD1999999-0061MW1021REMSYN100AAXX  13004 82986 21695 31403 10224 20210 39869 40159 70262 83060 333 10275 29084 55049 59006 69951;
0254829860999992002071312004-09400-038220SY-MT+0252SBUF V0200901N001510450019N0100001N1+02371+01871101691ADDGA1041+005409999GF105991031011004501061001KA1240N+01981MA1101901098801MD1999999-0041MW1001REMSYN082AAXX  13124 82986 22497 50903 10237 20187 39880 40169 83160 333 20198 59004 69954;MET045SBUF 131200Z 16003KT 9999 SCT018 24/19 Q1019;EQDQ01+000000PRSWM2
0167829860999992002071318004-09400-038220FM-12+0252SBUF V0201401N004112200019N0200001N1+02901+01621101221ADDAA199000091GF101991011011012501001001MA1999999098381MD1999999-0131REMSYN070AAXX  13184 82986 32698 11408 10290 20162 39838 40122 81100 333 59013;EQDQ01  00002PRCP99
0186829860999992002071412004-09400-038220FM-12+0252SBUF V0200901N001510120019N0100001N1+02391+01971101681ADDAA199000091GF106991061051012501001001KA1240N+02031MA1999999098801MD1999999+0001REMSYN076AAXX  14124 82986 32697 60903 10239 20197 39880 40168 86500 333 20203 58000;EQDQ01  00002PRCP99
0167829860999992002071418004-09400-038220FM-12+0252SBUF V0201401N001512200019N0200001N1+03051+01881101191ADDAA199000091GF103991021011012501001011MA1999999098361MD1999999-0021REMSYN070AAXX  14184 82986 32698 31403 10305 20188 39836 40119 82101 333 59002;EQDQ01  00002PRCP99
0208829860999992002071500004-09400-038220FM-12+0252SBUF V0200901N003112200019N0020001N1+02321+01961101601ADDAA199000091GA1001+999999999GF100991001001999999001001KA1240M+03091MA1999999098721MD1999999+0071REMSYN082AAXX  15004 82986 32995 00906 10232 20196 39872 40160 333 10309 29072 55083 58007;EQDQ01  00002PRCP99
0186829860999992002071512004-09400-038220FM-12+0252SBUF V0200901N003110450019N0100001N1+02401+02071101831ADDAA199000091GF107991041021008001081001KA1240N+02061MA1999999098941MD1999999+0141REMSYN076AAXX  15124 82986 32597 70906 10240 20207 39894 40183 84280 333 20206 58014;EQDQ01  00002PRCP99
0167829860999992002071618004-09400-038220FM-12+0252SBUF V0200901N003610450019N0200001N1+02901+01621101431ADDAA199000091GF105991021011008001081001MA1999999098581MD1999999+0061REMSYN070AAXX  16184 82986 32598 50907 10290 20162 39858 40143 82180 333 58006;EQDQ01  00002PRCP99
0224829860999992002071700004-09400-038220FM-12+0252SBUF V0201401N003112200019N0010001N1+02391+01891101781ADDAA199000091GA1001+999999999GF100991001001999999001001KA1240M+99999MA1999999098891MD1999999+0071REMSYN082AAXX  17004 82986 32994 01406 10239 20189 39889 40178 333 10229 29068 55085 58007;EQDQ01  00002PRCP99Q02 +02292ATMX  
0186829860999992002071712004-09400-038220FM-12+0252SBUF V0200901N004110450019N0100001N1+02431+01841101911ADDAA199000091GF106991041021004501081001KA1240N+01981MA1999999099021MD1999999+0081REMSYN076AAXX  17124 82986 32497 60908 10243 20184 39902 40191 84280 333 20198 58008;EQDQ01  00002PRCP99
0167829860999992002071718004-09400-038220FM-12+0252SBUF V0201401N002112200019N0200001N1+02921+01571101411ADDAA199000091GF104991021011008001061011MA1999999098561MD1999999-0021REMSYN070AAXX  17184 82986 32598 41404 10292 20157 39856 40141 82161 333 59002;EQDQ01  00002PRCP99
0208829860999992002071800004-09400-038220FM-12+0252SBUF V0201401N003612200019N0020001N1+02351+01761101721ADDAA199000091GA1001+999999999GF100991001001999999001001KA1240M+02981MA1999999098841MD1999999-0051REMSYN082AAXX  18004 82986 32995 01407 10235 20176 39884 40172 333 10298 29064 55099 59005;EQDQ01  00002PRCP99
0186829860999992002071812004-09400-038220FM-12+0252SBUF V0201401N003610450019N0100001N1+02281+01981101801ADDAA199000091GF106991041021004501081001KA1240N+01911MA1999999098901MD1999999-0121REMSYN076AAXX  18124 82986 32497 61407 10228 20198 39890 40180 84280 333 20191 59012;EQDQ01  00002PRCP99
0167829860999992002071818004-09400-038220FM-12+0252SBUF V0201401N002112200019N0200001N1+02921+01571101411ADDAA199000091GF104991021011008001061011MA1999999098561MD1999999-0021REMSYN070AAXX  18184 82986 32598 41404 10292 20157 39856 40141 82161 333 59002;EQDQ01  00002PRCP99
0208829860999992002071900004-09400-038220FM-12+0252SBUF V0201401N003112200019N0020001N1+02351+01871101771ADDAA199000091GA1001+999999999GF100991001001999999001001KA1240M+03011MA1999999098881MD1999999+0041REMSYN082AAXX  19004 82986 32995 01406 10235 20187 39888 40177 333 10301 29070 55085 58004;EQDQ01  00002PRCP99
0186829860999992002071912004-09400-038220FM-12+0252SBUF V0201401N003110450019N0100001N1+02311+01961101871ADDAA199000091GF106991031041004501081011KA1240N+01961MA1999999098981MD1999999+0091REMSYN076AAXX  19124 82986 32497 61406 10231 20196 39898 40187 83481 333 20196 58009;EQDQ01  00002PRCP99
0167829860999992002071918004-09400-038220FM-12+0252SBUF V0201401N004610075019N0200001N1+02871+01781101401ADDAA199000091GF106991051021008001041051MA1999999098551MD1999999+0101REMSYN070AAXX  19184 82986 32598 61409 10287 20178 39855 40140 85245 333 58010;EQDQ01  00002PRCP99
0208829860999992002072000004-09400-038220FM-12+0252SBUF V0200901N004612200019N0020001N1+02201+01741101731ADDAA199000091GA1001+999999999GF100991001001999999001001KA1240M+02891MA1999999098831MD1999999-0051REMSYN082AAXX  20004 82986 32995 00909 10220 20174 39883 40173 333 10289 29070 55056 59005;EQDQ01  00002PRCP99
0186829860999992002072012004-09400-038220FM-12+0252SBUF V0201401N002110450019N0100001N1+02251+01901101931ADDAA199000091GF106991031041008001051001KA1240N+01801MA1999999099021MD1999999+0041REMSYN076AAXX  20124 82986 32597 61404 10225 20190 39902 40193 83450 333 20180 58004;EQDQ01  00002PRCP99
0167829860999992002072018004-09400-038220FM-12+0252SBUF V0201401N004110450019N0200001N1+02611+01801101441ADDAA199000091GF107991021041008001071001MA1999999098561MD1999999+0011REMSYN070AAXX  20184 82986 32598 71408 10261 20180 39856 40144 82470 333 58001;EQDQ01  00002PRCP99
0190829860999992002072112004-09400-038220FM-12+0252SBUF V0201401N002610075019N0200001N1+02291+01961101491ADDAY151061AY221061GF106991061021008001001001KA1240N+01901MA1999999098601MD1999999-0421MW1021REMSYN088AAXX  21124 82986 21598 61405 10229 20196 39860 40149 70252 86200 333 20190 59042 69924;
0167829860999992002072118004-09400-038220FM-12+0252SBUF V0201401N002610450019N0200001N1+02761+01721101301ADDAA199000091GF106991031011008001081001MA1999999098451MD1999999-0111REMSYN070AAXX  21184 82986 32598 61405 10276 20172 39845 40130 83180 333 59011;EQDQ01  00002PRCP99
0198829860999992002072200004-09400-038220FM-12+0252SBUF V0201401N002610450019N0020001N1+02411+01801101661ADDAA199000091GF106991031011008001081001KA1240M+02911MA1999999098771MD1999999-0031REMSYN088AAXX  22004 82986 32595 61405 10241 20180 39877 40166 83180 333 10291 29068 55056 59003;EQDQ01  00002PRCP99
0186829860999992002072312004-09400-038220FM-12+0252SBUF V0200901N003110450019N0040001N1+02351+01911101831ADDAA199000091GF106991041021004501081001KA1240N+01981MA1999999098831MD1999999+0011REMSYN076AAXX  23124 82986 32496 60906 10235 20191 39883 40183 84280 333 20198 58001;EQDQ01  00002PRCP99
0167829860999992002072318004-09400-038220FM-12+0252SBUF V0201401N003112200019N0200001N1+03031+01731101291ADDAA199000091GF103991031011008001001001MA1999999098451MD1999999-0011REMSYN070AAXX  23184 82986 32598 31406 10303 20173 39845 40129 83100 333 59001;EQDQ01  00002PRCP99
0208829860999992002072400004-09400-038220FM-12+0252SBUF V0200901N004612200019N0020001N1+02431+01881101661ADDAA199000091GA1001+999999999GF100991001001999999001001KA1240M+03051MA1999999098781MD1999999+0091REMSYN082AAXX  24004 82986 32995 00909 10243 20188 39878 40166 333 10305 29067 55085 58009;EQDQ01  00002PRCP99
0186829860999992002072412004-09400-038220FM-12+0252SBUF V0200901N003610450019N0040001N1+02331+01911101771ADDAA199000091GF107991041021004501081001KA1240N+01961MA1999999098881MD1999999-0051REMSYN076AAXX  24124 82986 32496 70907 10233 20191 39888 40177 84280 333 20196 59005;EQDQ01  00002PRCP99
0167829860999992002072418004-09400-038220FM-12+0252SBUF V0200901N004110450019N0200001N1+02991+01621101391ADDAA199000091GF106991031011008001081001MA1999999098541MD1999999+0091REMSYN070AAXX  24184 82986 32598 60908 10299 20162 39854 40139 83180 333 58009;EQDQ01  00002PRCP99
0208829860999992002072500004-09400-038220FM-12+0252SBUF V0201401N004112200019N0020001N1+02401+01861101821ADDAA199000091GA1001+999999999GF100991001001999999001001KA1240M+03041MA1999999098931MD1999999+0151REMSYN082AAXX  25004 82986 32995 01408 10240 20186 39893 40182 333 10304 29067 55054 58015;EQDQ01  00002PRCP99
0186829860999992002072512004-09400-038220FM-12+0252SBUF V0201401N004110450019N0040001N1+02341+01981101931ADDAA199000091GF106991031021004501081001KA1240N+02001MA1999999099041MD1999999+0161REMSYN076AAXX  25124 82986 32496 61408 10234 20198 39904 40193 83280 333 20200 58016;EQDQ01  00002PRCP99
0167829860999992002072518004-09400-038220FM-12+0252SBUF V0201401N005110450019N0200001N1+03011+01681101441ADDAA199000091GF105991041021008001041001MA1999999098601MD1999999+0061REMSYN070AAXX  25184 82986 32598 51410 10301 20168 39860 40144 84240 333 58006;EQDQ01  00002PRCP99
0198829860999992002072600004-09400-038220FM-12+0252SBUF V0200901N003112200019N0020001N1+02391+01841101831ADDAA199000091GF102991011011012501041001KA1240M+03091MA1999999098971MD1999999+0041REMSYN088AAXX  26004 82986 32695 20906 10239 20184 39897 40183 81140 333 10309 29067 55073 58004;EQDQ01  00002PRCP99
0186829860999992002072612004-09400-038220FM-12+0252SBUF V0201401N002610450019N0040001N1+02221+02121101921ADDAA199000091GF106991031021004501081001KA1240N+01961MA1999999099021MD1999999-0021REMSYN076AAXX  26124 82986 32496 61405 10222 20212 39902 40192 83280 333 20196 59002;EQDQ01  00002PRCP99
0167829860999992002072618004-09400-038220FM-12+0252SBUF V0200901N003610450019N0200001N1+02991+01791101481ADDAA199000091GF106991031021008001051001MA1999999098631MD1999999+0031REMSYN070AAXX  26184 82986 32598 60907 10299 20179 39863 40148 83250 333 58003;EQDQ01  00002PRCP99
0202829860999992002072700004-09400-038220FM-12+0252SBUF V0200901N003610021019N0020001N1+02221+02141101791ADDAY161061AY221061GF108991061071002501999999KA1240M+03031MA1999999098891MD1999999-0081MW1501REMSYN100AAXX  27004 82986 21395 80907 10222 20214 39889 40179 75062 867// 333 10303 29083 55050 59008 60011;
0190829860999992002072712004-09400-038220FM-12+0252SBUF V0201401N003610060019N0010001N1+02171+02111101931ADDAY161061AY261061GF108991081081002501999999KA1240N+02001MA1999999099021MD1999999+0001MW1511REMSYN088AAXX  27124 82986 21394 81407 10217 20211 39902 40193 75166 888// 333 20200 58000 60184;
0148829860999992002072718004-09400-038220FM-12+0252SBUF V0201401N003110450019N0040001N1+02331+02201101601ADDAA199000021GF107991041021004501081001MA1999999098711MD1999999+0151REMSYN070AAXX  27184 82986 32496 71406 10233 20220 39871 40160 84280 333 58015;
0202829860999992002072800004-09400-038220FM-12+0252SBUF V0201401N002110060019N0005001N1+02191+02111101871ADDAY161061AY251061GF108991081081002501999999KA1240M+02641MA1999999098961MD1999999+0071MW1031REMSYN100AAXX  28004 82986 21393 81404 10219 20211 39896 40187 70365 888// 333 10264 29095 55011 58007 60201;
0190829860999992002072812004-09400-038220FM-12+0252SBUF V0200901N001510042019N0040001N1+02261+02161101971ADDAY161061AY251061GF107991051071004501081001KA1240N+02081MA1999999099071MD1999999+0051MW1031REMSYN088AAXX  28124 82986 21496 70903 10226 20216 39907 40197 70365 85780 333 20208 58005 60224;
0167829860999992002072818004-09400-038220FM-12+0252SBUF V0200901N003112200019N0200001N1+02871+02011101611ADDAA199000091GF104991021011008001061001MA1999999098761MD1999999+0051REMSYN070AAXX  28184 82986 32598 40906 10287 20201 39876 40161 82160 333 58005;EQDQ01  00002PRCP99
0208829860999992002072900004-09400-038220FM-12+0252SBUF V0200901N003112200019N0020001N1+02361+02131101811ADDAA199000091GA1001+999999999GF100991001001999999001001KA1240M+02911MA1999999098911MD1999999-0051REMSYN082AAXX  29004 82986 32995 00906 10236 20213 39891 40181 333 10291 29082 55055 59005;EQDQ01  00002PRCP99
0186829860999992002072912004-09400-038220FM-12+0252SBUF V0201401N003610042019N0040001N1+02331+02031101991ADDAA199000091GF107991051071004501081001KA1240N+02041MA1999999099091MD1999999+0021REMSYN076AAXX  29124 82986 32496 71407 10233 20203 39909 40199 85780 333 20204 58002;EQDQ01  00002PRCP99
0137829860999992002072918004-09400-038220FM-12+0252SBUF V0201401N003612200019N0200001N1+02921+01861101591ADDGF104991021011008001061021MA1999999098741MD1999999-0021REMSYN070AAXX  29184 82986 22598 41407 10292 20186 39874 40159 82162 333 59002;
0186829860999992002073012004-09400-038220FM-12+0252SBUF V0201401N002610042019N0040001N1+02201+02031102041ADDAA199000091GF107991051071004501081001KA1240N+02031MA1999999099131MD1999999+0041REMSYN076AAXX  30124 82986 32496 71405 10220 20203 39913 40204 85780 333 20203 58004;EQDQ01  00002PRCP99
0171829860999992002073018004-09400-038220FM-12+0252SBUF V0200901N002610450019N0100001N1+02751+01921101601ADDAY161061AY221061GF106991031021004501081001MA1999999098741MD1999999+0001MW1151REMSYN082AAXX  30184 82986 21497 60905 10275 20192 39874 40160 71562 83280 333 58000 69961;
0202829860999992002073100004-09400-038220FM-12+0252SBUF V0200901N002612200019N0020001N1+02221+02081101871ADDAY151061AY221061GF104991021021008001081001KA1240M+02801MA1999999098961MD1999999-0111MW1201REMSYN100AAXX  31004 82986 21595 40905 10222 20208 39896 40187 72052 82280 333 10280 29084 55025 59011 69911;
0162829860999992002073112004-09400-038220FM-12+0252SBUF V0200901N003110450019N0040001N1+02291+01941101901ADDGF106991031071004501081001KA1240N+02001MA1999999099001MD1999999-0131REMSYN082AAXX  31124 82986 22496 60906 10229 20194 39900 40190 83780 333 20200 59013 69974;
0171829860999992002073118004-09400-038220FM-12+0252SBUF V0200901N005112200019N0200001N1+02831+01651101361ADDAY151061AY221061GF103991021021008001001011MA1999999098511MD1999999-0231MW1021REMSYN082AAXX  31184 82986 21598 30910 10283 20165 39851 40136 70252 82201 333 59023 69911;
0208829860999992002080100004-09400-038220FM-12+0252SBUF V0200901N004612200019N0020001N1+02211+01921101611ADDAA199000091GA1001+999999999GF100991001001999999001001KA1240M+02891MA1999999098721MD1999999-0241REMSYN082AAXX  01004 82986 32995 00909 10221 20192 39872 40161 333 10289 29072 55080 59024;EQDQ01  00002PRCP99
0186829860999992002080112004-09400-038220FM-12+0252SBUF V0200901N003610042019N0040001N1+02311+01941101731ADDAA199000091GF106991061021004501001001KA1240N+01881MA1999999098831MD1999999-0171REMSYN076AAXX  01124 82986 32496 60907 10231 20194 39883 40173 86200 333 20188 59017;EQDQ01  00002PRCP99
0167829860999992002080118004-09400-038220FM-12+0252SBUF V0200901N004112200019N0200001N1+02891+01801101301ADDAA199000091GF102991021021008001001001MA1999999098451MD1999999-0061REMSYN070AAXX  01184 82986 32598 20908 10289 20180 39845 40130 82200 333 59006;EQDQ01  00002PRCP99
0198829860999992002080200004-09400-038220FM-12+0252SBUF V0200901N006212200019N0020001N1+02351+02031101691ADDAA199000091GF102991011011008001081001KA1240M+02931MA1999999098811MD1999999+0091REMSYN088AAXX  02004 82986 32595 20912 10235 20203 39881 40169 81180 333 10293 29075 55092 58009;EQDQ01  00002PRCP99
0186829860999992002080212004-09400-038220FM-12+0252SBUF V0201401N003110450019N0100001N1+02381+02051101861ADDAA199000091GF106991041021008001081001KA1240N+02081MA1999999098971MD1999999+0141REMSYN076AAXX  02124 82986 32597 61406 10238 20205 39897 40186 84280 333 20208 58014;EQDQ01  00002PRCP99
0167829860999992002080218004-09400-038220FM-12+0252SBUF V0200901N003612200019N0200001N1+02891+01861101551ADDAA199000091GF104991011011008001061001MA1999999098691MD1999999+0241REMSYN070AAXX  02184 82986 32598 40907 10289 20186 39869 40155 81160 333 58024;EQDQ01  00002PRCP99
0198829860999992002080300004-09400-038220FM-12+0252SBUF V0200901N003610450019N0010001N1+02441+02051101841ADDAA199000091GF106991041021004501081001KA1240M+02931MA1999999098951MD1999999+0141REMSYN088AAXX  03004 82986 32494 60907 10244 20205 39895 40184 84280 333 10293 29073 55085 58014;EQDQ01  00002PRCP99
0214829860999992002080312004-09400-038220FM-12+0252SBUF V0201401N005110042019N0040001N1+02311+02001102011ADDAA199000091AY121061AY221061GF106991051021004501081001KA1240N+02081MA1999999099121MD1999999+0151MW1101REMSYN082AAXX  03124 82986 31496 61410 10231 20200 39912 40201 71022 85280 333 20208 58015;EQDQ01  00002PRCP99
0167829860999992002080318004-09400-038220FM-12+0252SBUF V0200901N003112200019N0200001N1+02961+01641101481ADDAA199000091GF104991021011008001061001MA1999999098621MD1999999-0071REMSYN070AAXX  03184 82986 32598 40906 10296 20164 39862 40148 82160 333 59007;EQDQ01  00002PRCP99
0198829860999992002080400004-09400-038220FM-12+0252SBUF V0200901N002610450019N0010001N1+02331+01911101781ADDAA199000091GF106991031011008001081001KA1240M+03001MA1999999098881MD1999999-0071REMSYN088AAXX  04004 82986 32594 60905 10233 20191 39888 40178 83180 333 10300 29071 55089 59007;EQDQ01  00002PRCP99
0186829860999992002080412004-09400-038220FM-12+0252SBUF V0200901N002110450019N0100001N1+02291+01901101901ADDAA199000091GF105991021011008001061001KA1240N+01931MA1999999099001MD1999999-0121REMSYN076AAXX  04124 82986 32597 50904 10229 20190 39900 40190 82160 333 20193 59012;EQDQ01  00002PRCP99
0208829860999992002080500004-09400-038220FM-12+0252SBUF V0201401N003112200019N0020001N1+02321+01831101551ADDAA199000091GA1001+999999999GF100991001001999999001001KA1240M+02901MA1999999098671MD1999999-0211REMSYN082AAXX  05004 82986 32995 01406 10232 20183 39867 40155 333 10290 29067 55090 59021;EQDQ01  00002PRCP99
0186829860999992002080512004-09400-038220FM-12+0252SBUF V0201401N004110450019N0100001N1+02391+01891101851ADDAA199000091GF106991031011008001081011KA1240N+01881MA1999999098951MD1999999-0151REMSYN076AAXX  05124 82986 32597 61408 10239 20189 39895 40185 83181 333 20188 59015;EQDQ01  00002PRCP99
0167829860999992002080518004-09400-038220FM-12+0252SBUF V0200901N001512200019N0200001N1+02901+01481101321ADDAA199000091GF103991031011012501001001MA1999999098461MD1999999-0091REMSYN070AAXX  05184 82986 32698 30903 10290 20148 39846 40132 83100 333 59009;EQDQ01  00002PRCP99
0208829860999992002080600004-09400-038220FM-12+0252SBUF V0200901N002612200019N0020001N1+02311+01791101601ADDAA199000091GA1001+999999999GF100991001001999999001001KA1240M+02941MA1999999098741MD1999999+0071REMSYN082AAXX  06004 82986 32995 00905 10231 20179 39874 40160 333 10294 29066 55096 58007;EQDQ01  00002PRCP99
0186829860999992002080612004-09400-038220FM-12+0252SBUF V0200901N002110075019N0100001N1+02251+01861101841ADDAA199000091GF105991051021008001001001KA1240N+01871MA1999999098951MD1999999+0001REMSYN076AAXX  06124 82986 32597 50904 10225 20186 39895 40184 85200 333 20187 58000;EQDQ01  00002PRCP99
0177829860999992002080618004-09400-038220FM-12+0252SBUF V0200501N003112200019N0200001N1+02911+01621101451ADDAA199000091GA1001+999999999GF100991001001999999001001MA1999999098491MD1999999+0031REMSYN064AAXX  06184 82986 32998 00506 10291 20162 39849 40145 333 58003;EQDQ01  00002PRCP99
0208829860999992002080700004-09400-038220FM-12+0252SBUF V0200901N002112200019N0020001N1+02151+01501101711ADDAA199000091GA1001+999999999GF100991001001999999001001KA1240M+02941MA1999999098781MD1999999+0071REMSYN082AAXX  07004 82986 32995 00904 10215 20150 39878 40171 333 10294 29065 55088 58007;EQDQ01  00002PRCP99
0186829860999992002080712004-09400-038220FM-12+0252SBUF V0200901N001510450019N0040001N1+02271+01941101971ADDAA199000091GF106991041021004501081001KA1240N+01681MA1999999099061MD1999999+0111REMSYN076AAXX  07124 82986 32496 60903 10227 20194 39906 40197 84280 333 20168 58011;EQDQ01  00002PRCP99
0167829860999992002080718004-09400-038220FM-12+0252SBUF V0200901N005712200019N0200001N1+02971+01501101401ADDAA199000091GF103991031011012501001001MA1999999098541MD1999999+0051REMSYN070AAXX  07184 82986 32698 30911 10297 20150 39854 40140 83100 333 58005;EQDQ01  00002PRCP99
0208829860999992002080800004-09400-038220FM-12+0252SBUF V0200901N004112200019N0020001N1+02311+01651101801ADDAA199000091GA1001+999999999GF100991001001999999001001KA1240M+03021MA1999999098911MD1999999+0101REMSYN082AAXX  08004 82986 32995 00908 10231 20165 39891 40180 333 10302 29064 55081 58010;EQDQ01  00002PRCP99
0186829860999992002080812004-09400-038220FM-12+0252SBUF V0200901N004610075019N0100001N1+02381+01841101911ADDAA199000091GF106991051021008001061001KA1240N+01801MA1999999099021MD1999999-0041REMSYN076AAXX  08124 82986 32597 60909 10238 20184 39902 40191 85260 333 20180 59004;EQDQ01  00002PRCP99
0167829860999992002080818004-09400-038220FM-12+0252SBUF V0200901N005111050019N0200001N1+02951+01231101421ADDAA199000091GF105991021011008001061011MA1999999098571MD1999999+0031REMSYN070AAXX  08184 82986 32598 50910 10295 20123 39857 40142 82161 333 58003;EQDQ01  00002PRCP99
0208829860999992002080900004-09400-038220FM-12+0252SBUF V0200901N003112200019N0020001N1+02241+01601101771ADDAA199000091GA1001+999999999GF100991001001999999001001KA1240M+03011MA1999999098871MD1999999-0041REMSYN082AAXX  09004 82986 32995 00906 10224 20160 39887 40177 333 10301 29060 55093 59004;EQDQ01  00002PRCP99
0190829860999992002080912004-09400-038220FM-12+0252SBUF V0201401N003110450019N0100001N1+02281+01941101881ADDAY151061AY221061GF107991041021004501071001KA1240N+01721MA1999999098981MD1999999-0041MW1021REMSYN088AAXX  09124 82986 21497 71406 10228 20194 39898 40188 70252 84270 333 20172 59004 69914;
0167829860999992002080918004-09400-038220FM-12+0252SBUF V0200901N003612200019N0200001N1+02951+01401101471ADDAA199000091GF104991021011008001061001MA1999999098601MD1999999+0031REMSYN070AAXX  09184 82986 32598 40907 10295 20140 39860 40147 82160 333 58003;EQDQ01  00002PRCP99
0208829860999992002081000004-09400-038220FM-12+0252SBUF V0201401N004112200019N0020001N1+02321+01741101771ADDAA199000091GA1001+999999999GF100991001001999999001001KA1240M+02981MA1999999098871MD1999999+0001REMSYN082AAXX  10004 82986 32995 01408 10232 20174 39887 40177 333 10298 29065 55068 58000;EQDQ01  00002PRCP99
0186829860999992002081012004-09400-038220FM-12+0252SBUF V0201401N003610450019N0040001N1+02351+01821101871ADDAA199000091GF106991041021004501081001KA1240N+01921MA1999999098971MD1999999-0011REMSYN076AAXX  10124 82986 32496 61407 10235 20182 39897 40187 84280 333 20192 59001;EQDQ01  00002PRCP99
0167829860999992002081018004-09400-038220FM-12+0252SBUF V0200901N005112200019N0200001N1+02971+01291101411ADDAA199000091GF103991011011008001061011MA1999999098561MD1999999-0041REMSYN070AAXX  10184 82986 32598 30910 10297 20129 39856 40141 81161 333 59004;EQDQ01  00002PRCP99
0208829860999992002081100004-09400-038220FM-12+0252SBUF V0201401N003612200019N0020001N1+02271+01571101731ADDAA199000091GA1001+999999999GF100991001001999999001001KA1240M+03001MA1999999098841MD1999999-0031REMSYN082AAXX  11004 82986 32995 01407 10227 20157 39884 40173 333 10300 29061 55094 59003;EQDQ01  00002PRCP99
0186829860999992002081112004-09400-038220FM-12+0252SBUF V0201401N002110450019N0040001N1+02291+01811102011ADDAA199000091GF106991041021004501081011KA1240N+01701MA1999999099111MD1999999+0141REMSYN076AAXX  11124 82986 32496 61404 10229 20181 39911 40201 84281 333 20170 58014;EQDQ01  00002PRCP99
0195829860999992002081118004-09400-038220FM-12+0252SBUF V0200901N003110450019N0100001N1+02411+02031101641ADDAA199000091AY121061AY221061GF106991031011004501081001MA1999999098731MD1999999+0171MW1151REMSYN076AAXX  11184 82986 31497 60906 10241 20203 39873 40164 71522 83180 333 58017;EQDQ01  00002PRCP99
0202829860999992002081200004-09400-038220FM-12+0252SBUF V0200901N001512200019N0020001N1+02121+01931101891ADDAY161061AY221061GF102991021001012501051001KA1240M+02661MA1999999098981MD1999999+0141MW1021REMSYN100AAXX  12004 82986 21695 20903 10212 20193 39898 40189 70262 82050 333 10266 29083 55023 58014 69911;
0190829860999992002081212004-09400-038220FM-12+0252SBUF V0201401N001510450019N0040001N1+02261+02031101981ADDAY151061AY221061GF106991031021004501081001KA1240N+01911MA1999999099071MD1999999-0041MW1201REMSYN088AAXX  12124 82986 21496 61403 10226 20203 39907 40198 72052 83280 333 20191 59004 69914;
0148829860999992002081218004-09400-038220FM-12+0252SBUF V0200901N004112200019N0200001N1+02911+01781101511ADDAA199000021GF103991031021012501001001MA1999999098651MD1999999-0081REMSYN070AAXX  12184 82986 32698 30908 10291 20178 39865 40151 83200 333 59008;
0179829860999992002081300004-09400-038220FM-12+0252SBUF V0201401N005112200019N0020001N1+02351+01871101831ADDAA199000021GF102991021001008001051001KA1240M+02971MA1999999098941MD1999999-0041REMSYN088AAXX  13004 82986 32595 21410 10235 20187 39894 40183 82050 333 10297 29072 55065 59004;
0190829860999992002081312004-09400-038220FM-12+0252SBUF V0201401N001510042019N0100001N1+02331+01941101941ADDAY151061AY221061GF106991061021004501001001KA1240N+02021MA1999999099051MD1999999-0021MW1021REMSYN088AAXX  13124 82986 21497 61403 10233 20194 39905 40194 70252 86200 333 20202 59002 69904;
0167829860999992002081318004-09400-038220FM-12+0252SBUF V0200901N005112200019N0200001N1+03031+01591101441ADDAA199000091GF103991031011012501001001MA1999999098601MD1999999-0051REMSYN070AAXX  13184 82986 32698 30910 10303 20159 39860 40144 83100 333 59005;EQDQ01  00002PRCP99
0198829860999992002081400004-09400-038220FM-12+0252SBUF V0200901N004610450019N0020001N1+02411+01991101801ADDAA199000091GF106991031021008001051001KA1240M+03111MA1999999098911MD1999999-0031REMSYN088AAXX  14004 82986 32595 60909 10241 20199 39891 40180 83250 333 10311 29069 55085 59003;EQDQ01  00002PRCP99
0190829860999992002081412004-09400-038220FM-12+0252SBUF V0200901N002610450019N0100001N1+02271+02121101981ADDAY161061AY251061GF106991041021004501081011KA1240N+02061MA1999999099091MD1999999+0041MW1211REMSYN088AAXX  14124 82986 21497 60905 10227 20212 39909 40198 72165 84281 333 20206 58004 69994;
0171829860999992002081418004-09400-038220FM-12+0252SBUF V0201401N003610450019N0200001N1+02841+01991101541ADDAY161061AY251061GF106991041021004501081021MA1999999098681MD1999999+0081MW1031REMSYN082AAXX  14184 82986 21498 61407 10284 20199 39868 40154 70365 84282 333 58008 60021;
0179829860999992002081500004-09400-038220FM-12+0252SBUF V0200901N005110450019N0010001N1+02411+01931101881ADDAA199000021GF106991031011008001081001KA1240M+02951MA1999999098981MD1999999+0071REMSYN088AAXX  15004 82986 32594 60910 10241 20193 39898 40188 83180 333 10295 29075 55036 58007;
0190829860999992002081512004-09400-038220FM-12+0252SBUF V0201401N004110075019N0100001N1+02391+01991101961ADDAY161061AY251061GF107991051021008001081001KA1240N+02081MA1999999099081MD1999999-0011MW1021REMSYN088AAXX  15124 82986 21597 71408 10239 20199 39908 40196 70265 85280 333 20208 59001 60044;
0167829860999992002081518004-09400-038220FM-12+0252SBUF V0200901N004110450019N0200001N1+02941+01791101561ADDAA199000091GF105991021011008001081001MA1999999098701MD1999999+0021REMSYN070AAXX  15184 82986 32598 50908 10294 20179 39870 40156 82180 333 58002;EQDQ01  00002PRCP99
0202829860999992002081600004-09400-038220FM-12+0252SBUF V0200901N002610060019N0005001N1+02161+02081101931ADDAY161061AY261061GF108991081081002501999999KA1240M+02991MA1999999099031MD1999999+0051MW1911REMSYN100AAXX  16004 82986 21393 80905 10216 20208 39903 40193 79166 888// 333 10299 29080 55039 58005 69931;
0190829860999992002081612004-09400-038220FM-12+0252SBUF V0201401N004110450019N0040001N1+02401+02031101991ADDAY161061AY251061GF106991031021004501081001KA1240N+02021MA1999999099091MD1999999+0011MW1021REMSYN088AAXX  16124 82986 21496 61408 10240 20203 39909 40199 70265 83280 333 20202 58001 60024;
0171829860999992002081618004-09400-038220FM-12+0252SBUF V0200901N003610450019N0100001N1+02791+01931101591ADDAY161061AY251061GF106991041021004501081001MA1999999098731MD1999999+0031MW1031REMSYN082AAXX  16184 82986 21497 60907 10279 20193 39873 40159 70365 84280 333 58003 69981;
0208829860999992002081700004-09400-038220FM-12+0252SBUF V0200901N003112200019N0020001N1+02221+01841101921ADDAA199000091GA1001+999999999GF100991001001999999001001KA1240M+02871MA1999999099021MD1999999-0011REMSYN082AAXX  17004 82986 32995 00906 10222 20184 39902 40192 333 10287 29075 55054 59001;EQDQ01  00002PRCP99
0162829860999992002081712004-09400-038220FM-12+0252SBUF V0200901N005710060019N0020001N1+02271+01821102071ADDGF108991081081002501999999KA1240N+01831MA1999999099161MD1999999+0071REMSYN082AAXX  17124 82986 22395 80911 10227 20182 39916 40207 888// 333 20183 58007 69984;
0206829860999992002081718004-09400-038220FM-12+0252SBUF V0201401N002610450019N0100001N1+02711+01751101581ADDAY161061AY221061GF106991031011008001081001MA1999999999999MD1999999-0231MW1021REMSYN082AAXX  17184 82986 21597 61405 10271 20175 39196 40158 70262 83180 333 59023 69921;EQDQ01+091963APOSP Q02 091963APOSP 
0208829860999992002081800004-09400-038220FM-12+0252SBUF V0200901N002612200019N0020001N1+02221+01781101801ADDAA199000091GA1001+999999999GF100991001001999999001001KA1240M+02911MA1999999098901MD1999999-0121REMSYN082AAXX  18004 82986 32995 00905 10222 20178 39890 40180 333 10291 29055 55055 59012;EQDQ01  00002PRCP99
0190829860999992002081812004-09400-038220FM-12+0252SBUF V0201401N003111050019N0100001N1+02411+01821101941ADDAY161061AY211061GF105991041021008001001051KA1240N+01851MA1999999099041MD1999999-0121MW1021REMSYN088AAXX  18124 82986 21597 51406 10241 20182 39904 40194 70261 84205 333 20185 59012 69934;
0190829860999992002081912004-09400-038220FM-12+0252SBUF V0200901N003610450019N0040001N1+02311+02051101861ADDAY161061AY251061GF106991031071004501081001KA1240N+01921MA1999999098971MD1999999-0071MW1151REMSYN088AAXX  19124 82986 21496 60907 10231 20205 39897 40186 71565 83780 333 20192 59007 60024;
0171829860999992002081918004-09400-038220FM-12+0252SBUF V0200901N005110450019N0100001N1+02451+01761101661ADDAY151061AY221061GF107991031021008001071001MA1999999098771MD1999999+0161MW1011REMSYN082AAXX  19184 82986 21597 70910 10245 20176 39877 40166 70152 83270 333 58016 69971;
0208829860999992002082000004-09400-038220FM-12+0252SBUF V0200901N003612200019N0020001N1+02221+01781101891ADDAA199000091GA1001+999999999GF100991001001999999001001KA1240M+02761MA1999999098991MD1999999+0161REMSYN082AAXX  20004 82986 32995 00907 10222 20178 39899 40189 333 10276 29076 55006 58016;EQDQ01  00002PRCP99
0190829860999992002082012004-09400-038220FM-12+0252SBUF V0200901N004610021019N0040001N1+02151+02001101951ADDAY161061AY221061GF107991051071002501081001KA1240N+01911MA1999999099041MD1999999+0071MW1601REMSYN088AAXX  20124 82986 21396 70909 10215 20200 39904 40195 76062 85780 333 20191 58007 60024;
0171829860999992002082018004-09400-038220FM-12+0252SBUF V0200901N005110450019N0100001N1+02681+01781101561ADDAY161061AY251061GF106991041021004501081001MA1999999098691MD1999999-0081MW1031REMSYN082AAXX  20184 82986 21497 60910 10268 20178 39869 40156 70365 84280 333 59008 69911;
0179829860999992002082100004-09400-038220FM-12+0252SBUF V0200901N003610021019N0005001N1+02161+01861101951ADDAA199000021GF107991051071002501081001KA1240M+02861MA1999999099031MD1999999+0041REMSYN088AAXX  21004 82986 32393 70907 10216 20186 39903 40195 85780 333 10286 29079 55035 58004;
0171829860999992002082118004-09400-038220FM-12+0252SBUF V0200901N005710450019N0100001N1+02661+01971101621ADDAY161061AY251061GF106991031011008001081001MA1999999098741MD1999999+0051MW1031REMSYN082AAXX  21184 82986 21597 60911 10266 20197 39874 40162 70365 83180 333 58005 69951;
0208829860999992002082200004-09400-038220FM-12+0252SBUF V0200901N002612200019N0020001N1+02161+01701101991ADDAA199000091GA1001+999999999GF100991001001999999001001KA1240M+02791MA1999999099071MD1999999+0041REMSYN082AAXX  22004 82986 32995 00905 10216 20170 39907 40199 333 10279 29076 55041 58004;EQDQ01  00002PRCP99
0162829860999992002082212004-09400-038220FM-12+0252SBUF V0200901N003110090019N0020001N1+02161+01991102051ADDGF108991081081004501999999KA1240N+01801MA1999999099131MD1999999-0011REMSYN082AAXX  22124 82986 22495 80906 10216 20199 39913 40205 888// 333 20180 59001 69954;
0171829860999992002082218004-09400-038220FM-12+0252SBUF V0200901N003110090019N0040001N1+02221+02141101651ADDAY161061AY261061GF108991081081004501999999MA1999999098741MD1999999+0001MW1511REMSYN082AAXX  22184 82986 21496 80906 10222 20214 39874 40165 75166 888// 333 58000 60011;
0198829860999992002082300004-09400-038220FM-12+0252SBUF V0200901N002610042019N0020001N1+02101+01911101901ADDAA199000021GF107991051071004501081001KA1240M+02801MA1999999999999MD1999999-0081REMSYN088AAXX  23004 82986 32495 70905 10210 20191 38999 40190 85780 333 10280 29091 55025 59008;EQDQ01 089993APOSP 
0190829860999992002082312004-09400-038220FM-12+0252SBUF V0201401N006710450019N0040001N1+02341+01831101881ADDAY161061AY251061GF106991041021004501081001KA1240N+01911MA1999999098971MD1999999-0161MW1031REMSYN088AAXX  23124 82986 21496 61413 10234 20183 39897 40188 70365 84280 333 20191 59016 60014;
0183829860999992002082318004-09400-038220FM-12+0252SBUF V0200901N004610450019N0200001N1+02901+01241101901ADDAA199000091GF105991031011008001061001MA1999999099902MD1999999+0291REMSYN070AAXX  23184 82986 32598 50909 10290 20124 39990 40190 83160 333 58029;EQDQ01+099903APOSP Q02  00002PRCP99
0198829860999992002082400004-09400-038220FM-12+0252SBUF V0200901N003112200019N0020001N1+02171+01721101761ADDAA199000091GF102991021001012501041001KA1240M+02951MA1999999098861MD1999999-0131REMSYN088AAXX  24004 82986 32695 20906 10217 20172 39886 40176 82040 333 10295 29065 55080 59013;EQDQ01  00002PRCP99
0190829860999992002082412004-09400-038220FM-12+0252SBUF V0200901N001510090019N0020001N1+02171+01801101891ADDAY151061AY251061GF108991081081004501999999KA1240N+01811MA1999999098981MD1999999+0011MW1201REMSYN088AAXX  24124 82986 21495 80903 10217 20180 39898 40189 72055 888// 333 20181 58001 69904;
0176829860999992002082418004-09400-038220FM-12+0252SBUF V0201401N005110450019N0200001N1+02701+01911101451ADDAA199000021AY121061AY221061GF105991031011008001081001MA1999999098571MD1999999-0031MW1151REMSYN076AAXX  24184 82986 31598 51410 10270 20191 39857 40145 71522 83180 333 59003;
0202829860999992002082500004-09400-038220FM-12+0252SBUF V0201401N003610042019N0010001N1+02131+01911101801ADDAY161061AY251061GF107991051071004501081001KA1240M+02811MA1999999098881MD1999999+0021MW1031REMSYN100AAXX  25004 82986 21494 71407 10213 20191 39888 40180 70365 85780 333 10281 29079 55053 58002 69981;
0162829860999992002082512004-09400-038220FM-12+0252SBUF V0201401N002610450019N0100001N1+02291+01791101871ADDGF105991031011008001081001KA1240N+01821MA1999999098961MD1999999-0021REMSYN082AAXX  25124 82986 22597 51405 10229 20179 39896 40187 83180 333 20182 59002 69984;
0167829860999992002082518004-09400-038220FM-12+0252SBUF V0201401N003112200019N0200001N1+02811+01601101391ADDAA199000091GF104991021011008001061001MA1999999098531MD1999999-0041REMSYN070AAXX  25184 82986 32598 41406 10281 20160 39853 40139 82160 333 59004;EQDQ01  00002PRCP99
0198829860999992002082600004-09400-038220FM-12+0252SBUF V0200901N003610450019N0010001N1+02251+01711101781ADDAA199000091GF106991041021004501081001KA1240M+02891MA1999999098881MD1999999+0001REMSYN088AAXX  26004 82986 32494 60907 10225 20171 39888 40178 84280 333 10289 29066 55074 58000;EQDQ01  00002PRCP99
0186829860999992002082612004-09400-038220FM-12+0252SBUF V0201401N005111050019N0100001N1+02371+01731101931ADDAA199000091GF107991041011008001001091KA1240N+01741MA1999999099031MD1999999+0071REMSYN076AAXX  26124 82986 32597 71410 10237 20173 39903 40193 84109 333 20174 58007;EQDQ01  00002PRCP99
0167829860999992002082618004-09400-038220FM-12+0252SBUF V0200901N003610450019N0200001N1+02971+01461101441ADDAA199000091GF106991031011008001081011MA1999999098571MD1999999+0041REMSYN070AAXX  26184 82986 32598 60907 10297 20146 39857 40144 83181 333 58004;EQDQ01  00002PRCP99
0198829860999992002082700004-09400-038220FM-12+0252SBUF V0200901N003110450019N0010001N1+02231+01651101771ADDAA199000091GF106991031011008001081001KA1240M+03071MA1999999098871MD1999999-0011REMSYN088AAXX  27004 82986 32594 60906 10223 20165 39887 40177 83180 333 10307 29062 55098 59001;EQDQ01  00002PRCP99
0230829860999992002082712004-09400-038220FM-12+0252SBUF V0201401N003112200019N0100001N1+02411+01951101841ADDAA199000091AY151061AY221061GF102991999021008001081001KA1240N+01921MA1999999098951MD1999999-0081MW1021REMSYN082AAXX  27124 82986 31597 21406 10241 20195 39895 40184 70252 85280 333 20192 59008;EQDQ01+000052SCOTLCQ02  00002PRCP99
0167829860999992002082718004-09400-038220FM-12+0252SBUF V0200901N003610450019N0200001N1+03021+01591101341ADDAA199000091GF106991031011008001081001MA1999999098501MD1999999+0001REMSYN070AAXX  27184 82986 32598 60907 10302 20159 39850 40134 83180 333 59000;EQDQ01  00002PRCP99
0198829860999992002082800004-09400-038220FM-12+0252SBUF V0200901N004110450019N0020001N1+02311+01701101741ADDAA199000091GF106991031011008001081001KA1240M+03081MA1999999098841MD1999999-0031REMSYN088AAXX  28004 82986 32595 60908 10231 20170 39884 40174 83180 333 10308 29064 55069 59003;EQDQ01  00002PRCP99
0186829860999992002082812004-09400-038220FM-12+0252SBUF V0201401N005110450019N0100001N1+02461+01731101791ADDAA199000091GF106991031011008001081011KA1240N+01801MA1999999098901MD1999999-0051REMSYN076AAXX  28124 82986 32597 61410 10246 20173 39890 40179 83181 333 20180 59005;EQDQ01  00002PRCP99
0167829860999992002082818004-09400-038220FM-12+0252SBUF V0201401N007210450019N0200001N1+02931+01771101221ADDAA199000091GF105991031011008001061001MA1999999098371MD1999999-0131REMSYN070AAXX  28184 82986 32598 51414 10293 20177 39837 40122 83160 333 59013;EQDQ01  00002PRCP99
0208829860999992002082900004-09400-038220FM-12+0252SBUF V0200901N005112200019N0020001N1+02261+01711101551ADDAA199000091GA1001+999999999GF100991001001999999001001KA1240M+03081MA1999999098671MD1999999-0171REMSYN082AAXX  29004 82986 32995 00910 10226 20171 39867 40155 333 10308 29064 55092 59017;EQDQ01  00002PRCP99
0202829860999992002082912004-09400-038220FM-12+0252SBUF V0201401N004110450019N0040001N1+02241+01921101581ADDAY161061AY251061GF107991041021004501081011KA1240N+01901MA1999999098681MD1999999-0121MW1031REMSYN100AAXX  29124 82986 21496 71408 10224 20192 39868 40158 70365 84281 333 20190 29064 55092 59012 69924;
0179829860999992002082918004-09400-038220FM-12+0252SBUF V0200901N005110450019N0200001N1+02991+01441101151ADDAA106000091GF106991031011008001081001MA1999999098301MD1999999-0071REMSYN082AAXX  29184 82986 32598 60910 10299 20144 39830 40115 83180 333 29064 55092 59007;EQDQ01  00002PRCP06
0208829860999992002083000004-09400-038220FM-12+0252SBUF V0201401N005112200019N0020001N1+02291+01701101531ADDAA106000091GA1001+999999999GF100991001001999999001001KA1240M+03101MA1999999098641MD1999999-0031REMSYN082AAXX  30004 82986 32995 01410 10229 20170 39864 40153 333 10310 29065 55070 59003;EQDQ01  00002PRCP06
0186829860999992002083012004-09400-038220FM-12+0252SBUF V0201401N003112200019N0100001N1+02421+01771101631ADDAA106000091GF105991041021008001001011KA1240N+01841MA1999999098751MD1999999+0071REMSYN076AAXX  30124 82986 32597 51406 10242 20177 39875 40163 84201 333 20184 58007;EQDQ01  00002PRCP06
0167829860999992002083018004-09400-038220FM-12+0252SBUF V0200901N004610120019N0200001N1+02941+01531101121ADDAA106000091GF106991051011012501001011MA1999999098271MD1999999-0031REMSYN070AAXX  30184 82986 32698 60909 10294 20153 39827 40112 85101 333 59003;EQDQ01  00002PRCP06
0208829860999992002083100004-09400-038220FM-12+0252SBUF V0200901N005712200019N0020001N1+02371+01891101441ADDAA106000091GA1001+999999999GF100991001001999999001001KA1240M+03031MA1999999098571MD1999999-0071REMSYN082AAXX  31004 82986 32995 00911 10237 20189 39857 40144 333 10303 29065 55069 59007;EQDQ01  00002PRCP06
0186829860999992002083112004-09400-038220FM-12+0252SBUF V0200901N004110450019N0100001N1+02521+01821101701ADDAA106000091GF106991031011008001081001KA1240N+02101MA1999999098831MD1999999+0081REMSYN076AAXX  31124 82986 32597 60908 10252 20182 39883 40170 83180 333 20210 58008;EQDQ01  00002PRCP06
0167829860999992002083118004-09400-038220FM-12+0252SBUF V0200501N002612200019N0200001N1+03171+01431101131ADDAA106000091GF104991031011012501001011MA1999999098311MD1999999+0041REMSYN070AAXX  31184 82986 32698 40505 10317 20143 39831 40113 83101 333 58004;EQDQ01  00002PRCP06
0198829860999992002090100004-09400-038220FM-12+0252SBUF V0201801N005712200019N0020001N1+02421+01971101491ADDAA106000091GF101991011011012501001001KA1240M+03251MA1999999098621MD1999999+0051REMSYN088AAXX  01004 82986 32695 11811 10242 20197 39862 40149 81100 333 10325 29063 55099 58005;EQDQ01  00002PRCP06
0186829860999992002090112004-09400-038220FM-12+0252SBUF V0200901N002610075019N0200001N1+02451+01901101531ADDAA106000091GF106991061021008001001001KA1240N+02101MA1999999098661MD1999999-0171REMSYN076AAXX  01124 82986 32598 60905 10245 20190 39866 40153 86200 333 20210 59017;EQDQ01  00002PRCP06
0177829860999992002090118004-09400-038220FM-12+0252SBUF V0200501N001012200019N0500001N1+03321+01381100821ADDAA106000091GA1001+999999999GF100991001001999999001001MA1999999098011MD1999999-0301REMSYN064AAXX  01184 82986 32999 00502 10332 20138 39801 40082 333 59030;EQDQ01  00002PRCP06
0208829860999992002090200004-09400-038220FM-12+0252SBUF V0201401N003612200019N0020001N1+02651+01661101111ADDAA106000091GA1001+999999999GF100991001001999999001001KA1240M+03371MA1999999098261MD1999999-0361REMSYN082AAXX  02004 82986 32995 01407 10265 20166 39826 40111 333 10337 29053 55088 59036;EQDQ01  00002PRCP06
0186829860999992002090212004-09400-038220FM-12+0252SBUF V0203201N001012200019N0200001N1+02491+01941101381ADDAA106000091GF101991011011012501001001KA1240N+02041MA1999999098531MD1999999-0131REMSYN076AAXX  02124 82986 32698 13202 10249 20194 39853 40138 81100 333 20204 59013;EQDQ01  00002PRCP06
0177829860999992002090218004-09400-038220FM-12+0252SBUF V0203201N000512200019N0500001N1+03471+01231100701ADDAA106000091GA1001+999999999GF100991001001999999001001MA1999999097891MD1999999-0121REMSYN064AAXX  02184 82986 32999 03201 10347 20123 39789 40070 333 59012;EQDQ01  00002PRCP06
0208829860999992002090300004-09400-038220FM-12+0252SBUF V0200901N004612200019N0020001N1+02861+01951101041ADDAA106000091GA1001+999999999GF100991001001999999001001KA1240M+03551MA1999999098211MD1999999-0021REMSYN082AAXX  03004 82986 32995 00909 10286 20195 39821 40104 333 10355 29053 55098 59002;EQDQ01  00002PRCP06
0196829860999992002090312004-09400-038220FM-12+0252SBUF V0203201N001512200019N0100001N1+02621+01961101511ADDAA106000091GA1001+999999999GF100991001001999999001001KA1240N+02081MA1999999098671MD1999999+0141REMSYN070AAXX  03124 82986 32997 03203 10262 20196 39867 40151 333 20208 58014;EQDQ01  00002PRCP06
0167829860999992002090318004-09400-038220FM-12+0252SBUF V0201401N003612200019N0500001N1+03421+01741101001ADDAA106000091GF104991041001012501061001MA1999999098191MD1999999+0301REMSYN070AAXX  03184 82986 32699 41407 10342 20174 39819 40100 84060 333 58030;EQDQ01  00002PRCP06
0208829860999992002090400004-09400-038220FM-12+0252SBUF V0200901N006712200019N0020001N1+02611+02031101541ADDAA106000091GA1001+999999999GF100991001001999999001001KA1240M+03481MA1999999098691MD1999999+0481REMSYN082AAXX  04004 82986 32995 00913 10261 20203 39869 40154 333 10348 29061 55097 58048;EQDQ01  00002PRCP06
0186829860999992002090412004-09400-038220FM-12+0252SBUF V0200901N003110450019N0040001N1+02491+01831101781ADDAA106000091GF107991041021004501081011KA1240N+02111MA1999999098911MD1999999+0241REMSYN076AAXX  04124 82986 32496 70906 10249 20183 39891 40178 84281 333 20211 58024;EQDQ01  00002PRCP06
0167829860999992002090418004-09400-038220FM-12+0252SBUF V0201401N003110450019N0200001N1+03011+01641101351ADDAA106000091GF106991031011008001081001MA1999999098501MD1999999+0311REMSYN070AAXX  04184 82986 32598 61406 10301 20164 39850 40135 83180 333 58031;EQDQ01  00002PRCP06
0208829860999992002090500004-09400-038220FM-12+0252SBUF V0201401N005112200019N0020001N1+02471+01971101681ADDAA106000091GA1001+999999999GF100991001001999999001001KA1240M+03101MA1999999098811MD1999999+0121REMSYN082AAXX  05004 82986 32995 01410 10247 20197 39881 40168 333 10310 29065 55060 58012;EQDQ01  00002PRCP06
0186829860999992002090512004-09400-038220FM-12+0252SBUF V0201401N003110450019N0040001N1+02481+01941101791ADDAA106000091GF106991031021004501081001KA1240N+02071MA1999999098921MD1999999+0011REMSYN076AAXX  05124 82986 32496 61406 10248 20194 39892 40179 83280 333 20207 58001;EQDQ01  00002PRCP06
0139829860999992002090521004-09400-038220FM-15+0252SBUF V0201201N006212200019N0112651N1+02801+01801999999ADDGA1041+009009999GF104991999999999999999999MA1101491999999MW1001REMMET045SBUF 052100Z 12012KT 9999 SCT030 28/18 Q1015;EQDQ01+000000PRSWM2
0208829860999992002090600004-09400-038220FM-12+0252SBUF V0201401N003112200019N0020001N1+02651+01881101611ADDAA106000091GA1001+999999999GF100991001001999999001001KA1240M+03261MA1999999098751MD1999999-0061REMSYN082AAXX  06004 82986 32995 01406 10265 20188 39875 40161 333 10326 29059 55075 59006;EQDQ01  00002PRCP06
0186829860999992002090612004-09400-038220FM-12+0252SBUF V0201401N003110075019N0100001N1+02561+01801101851ADDAA106000091GF105991051021008001001001KA1240N+02191MA1999999098991MD1999999+0071REMSYN076AAXX  06124 82986 32597 51406 10256 20180 39899 40185 85200 333 20219 58007;EQDQ01  00002PRCP06
0167829860999992002090618004-09400-038220FM-12+0252SBUF V0200901N003110120019N0200001N1+03141+01501101281ADDAA106000091GF106991061021012501001001MA1999999098461MD1999999+0091REMSYN070AAXX  06184 82986 32698 60906 10314 20150 39846 40128 86200 333 58009;EQDQ01  00002PRCP06
0208829860999992002090700004-09400-038220FM-12+0252SBUF V0201401N004612200019N0020001N1+02431+01821101611ADDAA106000091GA1001+999999999GF100991001001999999001001KA1240M+03201MA1999999098751MD1999999+0001REMSYN082AAXX  07004 82986 32995 01409 10243 20182 39875 40161 333 10320 29057 55092 58000;EQDQ01  00002PRCP06
0186829860999992002090712004-09400-038220FM-12+0252SBUF V0201401N004610075019N0100001N1+02461+01831101761ADDAA106000091GF106991061021008001001001KA1240N+02021MA1999999098891MD1999999-0101REMSYN076AAXX  07124 82986 32597 61409 10246 20183 39889 40176 86200 333 20202 59010;EQDQ01  00002PRCP06
0167829860999992002090718004-09400-038220FM-12+0252SBUF V0201401N003610450019N0500001N1+03051+01641101341ADDAA106000091GF106991021011008001061001MA1999999098501MD1999999+0041REMSYN070AAXX  07184 82986 32599 61407 10305 20164 39850 40134 82160 333 58004;EQDQ01  00002PRCP06
0198829860999992002090800004-09400-038220FM-12+0252SBUF V0201401N003610450019N0010001N1+02361+01931101641ADDAA106000091GF106991031011008001081001KA1240M+03171MA1999999098761MD1999999+0011REMSYN088AAXX  08004 82986 32594 61407 10236 20193 39876 40164 83180 333 10317 29066 55100 58001;EQDQ01  00002PRCP06
0186829860999992002090812004-09400-038220FM-12+0252SBUF V0201401N004610075019N0100001N1+02451+01901101751ADDAA106000091GF107991061021008001081999KA1240N+02121MA1999999098871MD1999999-0021REMSYN076AAXX  08124 82986 32597 71409 10245 20190 39887 40175 8628/ 333 20212 59002;EQDQ01  00002PRCP06
0167829860999992002090818004-09400-038220FM-12+0252SBUF V0201401N004612200019N0200001N1+03221+01391101201ADDAA106000091GF104991011011008001061001MA1999999098381MD1999999-0121REMSYN070AAXX  08184 82986 32598 41409 10322 20139 39838 40120 81160 333 59012;EQDQ01  00002PRCP06
0208829860999992002090900004-09400-038220FM-12+0252SBUF V0201401N004112200019N0020001N1+02461+01811101691ADDAA106000091GA1001+999999999GF100991001001999999001001KA1240M+03291MA1999999098821MD1999999+0061REMSYN082AAXX  09004 82986 32995 01408 10246 20181 39882 40169 333 10329 29060 55065 58006;EQDQ01  00002PRCP06
0190829860999992002090912004-09400-038220FM-12+0252SBUF V0200901N002610450019N0040001N1+02201+01991101941ADDAY161061AY251061GF107991041021004501081011KA1240N+01961MA1999999099051MD1999999+0181MW1031REMSYN088AAXX  09124 82986 21496 70905 10220 20199 39905 40194 70365 84281 333 20196 58018 69944;
0167829860999992002090918004-09400-038220FM-12+0252SBUF V0200901N003110450019N0200001N1+02801+01841101481ADDAA106000091GF106991031021008001081001MA1999999098621MD1999999+0241REMSYN070AAXX  09184 82986 32598 60906 10280 20184 39862 40148 83280 333 58024;EQDQ01  00002PRCP06
0202829860999992002091000004-09400-038220FM-12+0252SBUF V0201401N003110450019N0020001N1+02031+01941101851ADDAY151061AY221061GF106991031021004501081001KA1240M+02861MA1999999098931MD1999999+0111MW1201REMSYN100AAXX  10004 82986 21495 61406 10203 20194 39893 40185 72052 83280 333 10286 29083 55025 58011 69901;
0190829860999992002091012004-09400-038220FM-12+0252SBUF V0201401N004110060019N0010001N1+02151+02001101941ADDAY161061AY261061GF108991081081002501999999KA1240N+01931MA1999999099021MD1999999-0031MW1911REMSYN088AAXX  10124 82986 21394 81408 10215 20200 39902 40194 79166 888// 333 20193 59003 60024;
0171829860999992002091018004-09400-038220FM-12+0252SBUF V0201401N004610450019N0200001N1+02811+01811101451ADDAY161061AY221061GF105991031021008001031001MA1999999098591MD1999999-0031MW1021REMSYN082AAXX  10184 82986 21598 51409 10281 20181 39859 40145 70262 83230 333 59003 69911;
0208829860999992002091100004-09400-038220FM-12+0252SBUF V0201801N004112200019N0020001N1+02191+01821101811ADDAA106000091GA1001+999999999GF100991001001999999001001KA1240M+02881MA1999999098901MD1999999-0031REMSYN082AAXX  11004 82986 32995 01808 10219 20182 39890 40181 333 10288 29077 55034 59003;EQDQ01  00002PRCP06
0190829860999992002091112004-09400-038220FM-12+0252SBUF V0201401N003110450019N0040001N1+02141+01901101891ADDAY161061AY251061GF106991031021004501081001KA1240N+01911MA1999999098981MD1999999-0041MW1211REMSYN088AAXX  11124 82986 21496 61406 10214 20190 39898 40189 72165 83280 333 20191 59004 69984;
0148829860999992002091118004-09400-038220FM-12+0252SBUF V0200901N005110120019N0200001N1+03001+01331101391ADDAA106000021GF106991061021012501001001MA1999999098531MD1999999-0061REMSYN070AAXX  11184 82986 32698 60910 10300 20133 39853 40139 86200 333 59006;
0208829860999992002091200004-09400-038220FM-12+0252SBUF V0201401N004612200019N0020001N1+02241+01601101771ADDAA106000091GA1001+999999999GF100991001001999999001001KA1240M+03101MA1999999098871MD1999999-0031REMSYN082AAXX  12004 82986 32995 01409 10224 20160 39887 40177 333 10310 29064 55078 59003;EQDQ01  00002PRCP06
0186829860999992002091212004-09400-038220FM-12+0252SBUF V0200901N004111050019N0200001N1+02361+01711101771ADDAA106000091GF105991041021008001001051KA1240N+01761MA1999999098881MD1999999-0101REMSYN076AAXX  12124 82986 32598 50908 10236 20171 39888 40177 84205 333 20176 59010;EQDQ01  00002PRCP06
0167829860999992002091218004-09400-038220FM-12+0252SBUF V0201401N005112200019N0200001N1+03131+01251101191ADDAA106000091GF103991021011012501001051MA1999999098341MD1999999-0191REMSYN070AAXX  12184 82986 32698 31410 10313 20125 39834 40119 82105 333 59019;EQDQ01  00002PRCP06
0208829860999992002091300004-09400-038220FM-12+0252SBUF V0201401N005712200019N0020001N1+02321+01741101591ADDAA106000091GA1001+999999999GF100991001001999999001001KA1240M+03171MA1999999098711MD1999999-0161REMSYN082AAXX  13004 82986 32995 01411 10232 20174 39871 40159 333 10317 29060 55102 59016;EQDQ01  00002PRCP06
0186829860999992002091312004-09400-038220FM-12+0252SBUF V0200901N005110075019N0100001N1+02581+01691101621ADDAA106000091GF106991061021008001001001KA1240N+01881MA1999999098751MD1999999-0131REMSYN076AAXX  13124 82986 32597 60910 10258 20169 39875 40162 86200 333 20188 59013;EQDQ01  00002PRCP06
0167829860999992002091318004-09400-038220FM-12+0252SBUF V0201401N005112200019N0200001N1+03141+01221101051ADDAA106000091GF101991011011012501001001MA1999999098211MD1999999-0131REMSYN070AAXX  13184 82986 32698 11410 10314 20122 39821 40105 81100 333 59013;EQDQ01  00002PRCP06
0208829860999992002091400004-09400-038220FM-12+0252SBUF V0201401N003112200019N0020001N1+02431+01591101411ADDAA106000091GA1001+999999999GF100991001001999999001001KA1240M+03211MA1999999098561MD1999999-0151REMSYN082AAXX  14004 82986 32995 01406 10243 20159 39856 40141 333 10321 29052 55098 59015;EQDQ01  00002PRCP06
0167829860999992002091418004-09400-038220FM-12+0252SBUF V0200901N002612200019N0500001N1+03091+01481101131ADDAA106000091GF102991021001012501061001MA1999999098271MD1999999+0061REMSYN070AAXX  14184 82986 32699 20905 10309 20148 39827 40113 82060 333 58006;EQDQ01  00002PRCP06
0208829860999992002091500004-09400-038220FM-12+0252SBUF V0200901N004612200019N0020001N1+02581+01801101461ADDAA106000091GA1001+999999999GF100991001001999999001001KA1240M+03221MA1999999098611MD1999999+0061REMSYN082AAXX  15004 82986 32995 00909 10258 20180 39861 40146 333 10322 29057 55097 58006;EQDQ01  00002PRCP06
0196829860999992002091512004-09400-038220FM-12+0252SBUF V0200901N004112200019N0100001N1+02511+01591101651ADDAA106000091GA1001+999999999GF100991001001999999001001KA1240N+01851MA1999999098791MD1999999+0011REMSYN070AAXX  15124 82986 32997 00908 10251 20159 39879 40165 333 20185 58001;EQDQ01  00002PRCP06
0177829860999992002091518004-09400-038220FM-12+0252SBUF V0201901N002112200019N0500001N1+03311+01311101081ADDAA106000091GA1001+999999999GF100991001001999999001001MA1999999098241MD1999999-0031REMSYN064AAXX  15184 82986 32999 01904 10331 20131 39824 40108 333 59003;EQDQ01  00002PRCP06
0186829860999992002091612004-09400-038220FM-12+0252SBUF V0200901N003110450019N0100001N1+02491+01731101951ADDAA106000091GF106991031011008001081001KA1240N+01901MA1999999099081MD1999999+0291REMSYN076AAXX  16124 82986 32597 60906 10249 20173 39908 40195 83180 333 20190 58029;EQDQ01  00002PRCP06
0167829860999992002091618004-09400-038220FM-12+0252SBUF V0200901N004112200019N0500001N1+03131+01601101411ADDAA106000091GF104991041021012501001001MA1999999098561MD1999999+0321REMSYN070AAXX  16184 82986 32699 40908 10313 20160 39856 40141 84200 333 58032;EQDQ01  00002PRCP06
0208829860999992002091700004-09400-038220FM-12+0252SBUF V0200901N006212200019N0020001N1+02441+01641101811ADDAA106000091GA1001+999999999GF100991001001999999001001KA1240M+03261MA1999999098931MD1999999+0231REMSYN082AAXX  17004 82986 32995 00912 10244 20164 39893 40181 333 10326 29056 55099 58023;EQDQ01  00002PRCP06
0186829860999992002091712004-09400-038220FM-12+0252SBUF V0201401N003610450019N0100001N1+02631+01781101931ADDAA199000091GF105991031011008001081001KA1240N+02061MA1999999099061MD1999999-0021REMSYN076AAXX  17124 82986 32597 51407 10263 20178 39906 40193 83180 333 20206 59002;EQDQ01  00002PRCP99
0167829860999992002091718004-09400-038220FM-12+0252SBUF V0200901N003112200019N0200001N1+03231+01391101351ADDAA106000091GF104991041021012501001001MA1999999098521MD1999999-0041REMSYN070AAXX  17184 82986 32698 40906 10323 20139 39852 40135 84200 333 59004;EQDQ01  00002PRCP06
0198829860999992002091800004-09400-038220FM-12+0252SBUF V0200901N006210120019N0020001N1+01811+01811101821ADDAA106000091GF105991051051012501001001KA1240M+03301MA1999999098951MD1999999+0021REMSYN088AAXX  18004 82986 32695 50912 10181 20181 39895 40182 85500 333 10330 29059 55096 58002;EQDQ01  00002PRCP06
0186829860999992002091812004-09400-038220FM-12+0252SBUF V0200901N005110075019N0100001N1+02561+01781101761ADDAA106000091GF105991051021008001001001KA1240N+01911MA1999999098891MD1999999-0171REMSYN076AAXX  18124 82986 32597 50910 10256 20178 39889 40176 85200 333 20191 59017;EQDQ01  00002PRCP06
0167829860999992002091818004-09400-038220FM-12+0252SBUF V0200901N005112200019N0200001N1+03111+01141101251ADDAA106000091GF104991041011012501001001MA1999999098401MD1999999-0121REMSYN070AAXX  18184 82986 32698 40910 10311 20114 39840 40125 84100 333 59012;EQDQ01  00002PRCP06
0198829860999992002091900004-09400-038220FM-12+0252SBUF V0201401N004612200019N0020001N1+02281+01701101691ADDAA106000091GF101991011041008001001001KA1240M+03261MA1999999098811MD1999999-0141REMSYN088AAXX  19004 82986 32595 11409 10228 20170 39881 40169 81400 333 10326 29058 55096 59014;EQDQ01  00002PRCP06
0186829860999992002091912004-09400-038220FM-12+0252SBUF V0200901N004612200019N0200001N1+02551+01631101801ADDAA106000091GF102991021011008001001001KA1240N+01721MA1999999098921MD1999999+0031REMSYN076AAXX  19124 82986 32598 20909 10255 20163 39892 40180 82100 333 20172 58003;EQDQ01  00002PRCP06
0167829860999992002091918004-09400-038220FM-12+0252SBUF V0201401N004612200019N0200001N1+03151+01121101091ADDAA106000091GF102991021001012501061001MA1999999098241MD1999999-0161REMSYN070AAXX  19184 82986 32698 21409 10315 20112 39824 40109 82060 333 59016;EQDQ01  00002PRCP06
0208829860999992002092000004-09400-038220FM-12+0252SBUF V0200901N004112200019N0020001N1+02451+01591101581ADDAA106000091GA1001+999999999GF100991001001999999001001KA1240M+03251MA1999999098721MD1999999-0091REMSYN082AAXX  20004 82986 32995 00908 10245 20159 39872 40158 333 10325 29051 55109 59009;EQDQ01  00002PRCP06
0186829860999992002092012004-09400-038220FM-12+0252SBUF V0200901N004610075019N0100001N1+02471+01811101731ADDAA106000091GF106991061021008001001001KA1240N+01981MA1999999098861MD1999999-0061REMSYN076AAXX  20124 82986 32597 60909 10247 20181 39886 40173 86200 333 20198 59006;EQDQ01  00002PRCP06
0167829860999992002092018004-09400-038220FM-12+0252SBUF V0200901N004110450019N0200001N1+03191+01441101141ADDAA106000091GF106991031011008001081001MA1999999098301MD1999999+0061REMSYN070AAXX  20184 82986 32598 60908 10319 20144 39830 40114 83180 333 58006;EQDQ01  00002PRCP06
0208829860999992002092100004-09400-038220FM-12+0252SBUF V0200901N004612200019N0020001N1+02481+01831101491ADDAA106000091GA1001+999999999GF100991001001999999001001KA1240M+03291MA1999999098631MD1999999-0091REMSYN082AAXX  21004 82986 32995 00909 10248 20183 39863 40149 333 10329 29059 55094 59009;EQDQ01  00002PRCP06
0186829860999992002092112004-09400-038220FM-12+0252SBUF V0200901N003110450019N0040001N1+02591+01691101611ADDAA106000091GF106991031011008001081011KA1240N+02021MA1999999098751MD1999999-0111REMSYN076AAXX  21124 82986 32596 60906 10259 20169 39875 40161 83181 333 20202 59011;EQDQ01  00002PRCP06
0167829860999992002092118004-09400-038220FM-12+0252SBUF V0200901N001512200019N0200001N1+03351+01351100931ADDAA106000091GF102991011001012501061011MA1999999098111MD1999999-0191REMSYN070AAXX  21184 82986 32698 20903 10335 20135 39811 40093 81061 333 59019;EQDQ01  00002PRCP06
0156829860999992002092212004-09400-038220FM-12+0252SBUF V0203201N002112200019N0100001N1+99999+99999999999ADDAA106000091GF103991999999012501999999KA1240N+01931REMSYN075AAXX  22124 82986 32697 33204 1042 20186 39866 40152 83040 333 20193 59009;EQDQ01  00002PRCP06
0167829860999992002092218004-09400-038220FM-12+0252SBUF V0200501N001512200019N0200001N1+03361+01411100891ADDAA106000091GF102991011001012501041011MA1999999098071MD1999999-0041REMSYN070AAXX  22184 82986 32698 20503 10336 20141 39807 40089 81041 333 59004;EQDQ01  00002PRCP06
0208829860999992002092300004-09400-038220FM-12+0252SBUF V0200901N005112200019N0020001N1+02711+01941101231ADDAA106000091GA1001+999999999GF100991001001999999001001KA1240M+03421MA1999999098381MD1999999-0111REMSYN082AAXX  23004 82986 32995 00910 10271 20194 39838 40123 333 10342 29057 55091 59011;EQDQ01  00002PRCP06
0186829860999992002092312004-09400-038220FM-12+0252SBUF V0202701N001012200019N0200001N1+02621+01781101461ADDAA106000091GF103991031001012501061001KA1240N+01991MA1999999098621MD1999999-0041REMSYN076AAXX  23124 82986 32698 32702 10262 20178 39862 40146 83060 333 20199 59004;EQDQ01  00002PRCP06
0167829860999992002092318004-09400-038220FM-12+0252SBUF V0200901N003112200019N0200001N1+03351+01541101961ADDAA106000091GF104991041011012501001001MA1999999098141MD1999999+0071REMSYN070AAXX  23184 82986 32698 40906 10335 20154 39814 40196 84100 333 58007;EQDQ01  00002PRCP06
0208829860999992002092400004-09400-038220FM-12+0252SBUF V0200901N007712200019N0020001N1+02571+01951101251ADDAA106000091GA1001+999999999GF100991001001999999001001KA1240M+03411MA1999999098411MD1999999+0031REMSYN082AAXX  24004 82986 32995 00915 10257 20195 39841 40125 333 10341 29058 55108 58003;EQDQ01  00002PRCP06
0186829860999992002092412004-09400-038220FM-12+0252SBUF V0203201N001012200019N0200001N1+02631+01911101361ADDAA106000091GF103991031001012501061001KA1240N+02111MA1999999098511MD1999999-0111REMSYN076AAXX  24124 82986 32698 33202 10263 20191 39851 40136 83060 333 20211 59011;EQDQ01  00002PRCP06
0167829860999992002092418004-09400-038220FM-12+0252SBUF V0203201N001512200019N0200001N1+03421+01511100691ADDAA106000091GF103991031011012501001001MA1999999097891MD1999999-0251REMSYN070AAXX  24184 82986 32698 33203 10342 20151 39789 40069 83100 333 59025;EQDQ01  00002PRCP06
0198829860999992002092500004-09400-038220FM-12+0252SBUF V0200901N005712200019N0020001N1+02691+02091101021ADDAA106000091GF102991011011012501041001KA1240M+03491MA1999999098191MD1999999-0221REMSYN088AAXX  25004 82986 32695 20911 10269 20209 39819 40102 81140 333 10349 29059 55100 59022;EQDQ01  00002PRCP06
0202829860999992002092512004-09400-038220FM-12+0252SBUF V0203201N001512200019N0200001N1+02761+01751101331ADDAA106000091GF102991001001999999001011KA1240N+02121MA1999999098501MD1999999-0011REMSYN076AAXX  25124 82986 32998 23203 10276 20175 39850 40133 82001 333 20212 59001;EQDQ01+000022SCOTLCQ02  00002PRCP06
0208829860999992002092600004-09400-038220FM-12+0252SBUF V0200901N004612200019N0020001N1+02771+01991101111ADDAA106000091GA1001+999999999GF100991001001999999001001KA1240M+03531MA1999999098291MD1999999+0101REMSYN082AAXX  26004 82986 32995 00909 10277 20199 39829 40111 333 10353 29053 55110 58010;EQDQ01  00002PRCP06
0186829860999992002092612004-09400-038220FM-12+0252SBUF V0203201N001512200019N0200001N1+02611+01871101361ADDAA106000091GF101991011011012501001001KA1240N+02081MA1999999098531MD1999999+0031REMSYN076AAXX  26124 82986 32698 13203 10261 20187 39853 40136 81100 333 20208 58003;EQDQ01  00002PRCP06
0167829860999992002092618004-09400-038220FM-12+0252SBUF V0200901N002110450019N0500001N1+03431+01411100921ADDAA106000091GF106991031011008001081001MA1999999098111MD1999999+0121REMSYN070AAXX  26184 82986 32599 60904 10343 20141 39811 40092 83180 333 58012;EQDQ01  00002PRCP06
0186829860999992002092712004-09400-038220FM-12+0252SBUF V0200501N002110450019N0100001N1+02631+01881101591ADDAA106000091GF106991021011008001081011KA1240N+02281MA1999999098751MD1999999+0021REMSYN076AAXX  27124 82986 32597 60504 10263 20188 39875 40159 82181 333 20228 58002;EQDQ01  00002PRCP06
0167829860999992002092718004-09400-038220FM-12+0252SBUF V0200901N002610450019N0200001N1+03241+01671101131ADDAA106000091GF106991031011008001081001MA1999999098311MD1999999+0201REMSYN070AAXX  27184 82986 32598 60905 10324 20167 39831 40113 83180 333 58020;EQDQ01  00002PRCP06
0208829860999992002092800004-09400-038220FM-12+0252SBUF V0200901N006212200019N0020001N1+02621+01961101551ADDAA106000091GA1001+999999999GF100991001001999999001001KA1240M+03351MA1999999098701MD1999999+0231REMSYN082AAXX  28004 82986 32995 00912 10262 20196 39870 40155 333 10335 29059 55062 58023;EQDQ01  00002PRCP06
0186829860999992002092812004-09400-038220FM-12+0252SBUF V0200501N003110450019N0040001N1+02611+01821101681ADDAA106000091GF106991041021004501081001KA1240N+02021MA1999999098831MD1999999+0081REMSYN076AAXX  28124 82986 32496 60506 10261 20182 39883 40168 84280 333 20202 58008;EQDQ01  00002PRCP06
0167829860999992002092818004-09400-038220FM-12+0252SBUF V0200901N003110042019N0200001N1+03051+01641101291ADDAA106000091GF107991051011004501081001MA1999999098451MD1999999+0141REMSYN070AAXX  28184 82986 32498 70906 10305 20164 39845 40129 85180 333 58014;EQDQ01  00002PRCP06
0208829860999992002092900004-09400-038220FM-12+0252SBUF V0200901N003112200019N0020001N1+02531+01581101611ADDAA106000091GA1001+999999999GF100991001001999999001001KA1240M+03121MA1999999098751MD1999999+0051REMSYN082AAXX  29004 82986 32995 00906 10253 20158 39875 40161 333 10312 29054 55043 58005;EQDQ01  00002PRCP06
0186829860999992002092912004-09400-038220FM-12+0252SBUF V0200901N004610450019N0100001N1+02611+01791101721ADDAA106000091GF106991041021008001081011KA1240N+02001MA1999999098861MD1999999+0031REMSYN076AAXX  29124 82986 32597 60909 10261 20179 39886 40172 84281 333 20200 58003;EQDQ01  00002PRCP06
0167829860999992002092918004-09400-038220FM-12+0252SBUF V0200901N005110450019N0200001N1+03151+01501101231ADDAA106000091GF107991041041008001011001MA1999999098391MD1999999-0061REMSYN070AAXX  29184 82986 32598 70910 10315 20150 39839 40123 84410 333 59006;EQDQ01  00002PRCP06
0198829860999992002093000004-09400-038220FM-12+0252SBUF V0200901N007212200019N0020001N1+02491+01701101601ADDAA106000091GF102991021011012501001001KA1240M+03271MA1999999098741MD1999999-0011REMSYN088AAXX  30004 82986 32695 20914 10249 20170 39874 40160 82100 333 10327 29056 55081 59001;EQDQ01  00002PRCP06
0230829860999992002093012004-09400-038220FM-12+0252SBUF V0201401N003110042019N0040001N1+02411+01801101801ADDAA106000091AY121061AY221061GF108991999071004501081999KA1240N+02021MA1999999098921MD1999999+0061MW1151REMSYN082AAXX  30124 82986 31496 81406 10241 20180 39892 40180 71522 8878/ 333 20202 58006;EQDQ01+000082SCOTLCQ02  00002PRCP06
0167829860999992002093018004-09400-038220FM-12+0252SBUF V0201401N003110450019N0200001N1+02991+01791101381ADDAA106000091GF106991031021008001051081MA1999999098531MD1999999+0141REMSYN070AAXX  30184 82986 32598 61406 10299 20179 39853 40138 83258 333 58014;EQDQ01  00002PRCP06
0186829860999992002100112004-09400-038220FM-12+0252SBUF V0200901N005112200019N0100001N1+02631+01831101811ADDAA106000091GF106991041021008001001011KA1240N+01941MA1999999098951MD1999999+0031REMSYN076AAXX  01124 82986 32597 60910 10263 20183 39895 40181 84201 333 20194 58003;EQDQ01  00002PRCP06
0167829860999992002100118004-09400-038220FM-12+0252SBUF V0200901N003111050019N0200001N1+03191+01571101271ADDAA106000091GF105991021011008001061011MA1999999098431MD1999999-0101REMSYN070AAXX  01184 82986 32598 50906 10319 20157 39843 40127 82161 333 59010;EQDQ01  00002PRCP06
0208829860999992002100200004-09400-038220FM-12+0252SBUF V0200901N003612200019N0020001N1+02551+01811101561ADDAA106000091GA1001+999999999GF100991001001999999001001KA1240M+03301MA1999999098711MD1999999-0121REMSYN082AAXX  02004 82986 32995 00907 10255 20181 39871 40156 333 10330 29057 55095 59012;EQDQ01  00002PRCP06
0196829860999992002100212004-09400-038220FM-12+0252SBUF V0200501N002612200019N0200001N1+02671+01741101541ADDAA106000091GA1001+999999999GF100991001001999999001001KA1240N+01941MA1999999098691MD1999999-0261REMSYN070AAXX  02124 82986 32998 00505 10267 20174 39869 40154 333 20194 59026;EQDQ01  00002PRCP06
0167829860999992002100218004-09400-038220FM-12+0252SBUF V0200901N002612200019N0500001N1+03421+01251101021ADDAA106000091GF103991021001012501061011MA1999999098201MD1999999-0231REMSYN070AAXX  02184 82986 32699 30905 10342 20125 39820 40102 82061 333 59023;EQDQ01  00002PRCP06
0208829860999992002100300004-09400-038220FM-12+0252SBUF V0200901N005112200019N0020001N1+02621+01911101431ADDAA106000091GA1001+999999999GF100991001001999999001001KA1240M+03471MA1999999098591MD1999999-0121REMSYN082AAXX  03004 82986 32995 00910 10262 20191 39859 40143 333 10347 29053 55109 59012;EQDQ01  00002PRCP06
0186829860999992002100312004-09400-038220FM-12+0252SBUF V0200501N002110450019N0200001N1+02591+01821101511ADDAA106000091GF106991031011008001081001KA1240N+02131MA1999999098661MD1999999-0031REMSYN076AAXX  03124 82986 32598 60504 10259 20182 39866 40151 83180 333 20213 59003;EQDQ01  00002PRCP06
0167829860999992002100318004-09400-038220FM-12+0252SBUF V0200901N002612200019N0200001N1+03251+01671100951ADDAA106000091GF104991021011008001061001MA1999999098131MD1999999-0071REMSYN070AAXX  03184 82986 32598 40905 10325 20167 39813 40095 82160 333 59007;EQDQ01  00002PRCP06
0208829860999992002100400004-09400-038220FM-12+0252SBUF V0200901N006212200019N0020001N1+02591+01801101281ADDAA106000091GA1001+999999999GF100991001001999999001001KA1240M+03331MA1999999098441MD1999999-0151REMSYN082AAXX  04004 82986 32995 00912 10259 20180 39844 40128 333 10333 29056 55095 59015;EQDQ01  00002PRCP06
0186829860999992002100412004-09400-038220FM-12+0252SBUF V0200501N003110450019N0100001N1+02551+01831101591ADDAA106000091GF106991031011008001081001KA1240N+01991MA1999999098731MD1999999+0071REMSYN076AAXX  04124 82986 32597 60506 10255 20183 39873 40159 83180 333 20199 58007;EQDQ01  00002PRCP06
0167829860999992002100418004-09400-038220FM-12+0252SBUF V0200901N003112200019N0500001N1+03361+01461100961ADDAA106000091GF103991031001012501061001MA1999999098141MD1999999+0011REMSYN070AAXX  04184 82986 32699 30906 10336 20146 39814 40096 83060 333 58001;EQDQ01  00002PRCP06
0208829860999992002100500004-09400-038220FM-12+0252SBUF V0200901N005112200019N0020001N1+02621+01861101331ADDAA106000091GA1001+999999999GF100991001001999999001001KA1240M+03401MA1999999098491MD1999999+0051REMSYN082AAXX  05004 82986 32995 00910 10262 20186 39849 40133 333 10340 29056 55103 58005;EQDQ01  00002PRCP06
0186829860999992002100512004-09400-038220FM-12+0252SBUF V0200501N003112200019N0200001N1+02641+01751101551ADDAA106000091GF104991041011012501001001KA1240N+02001MA1999999098701MD1999999-0031REMSYN076AAXX  05124 82986 32698 40506 10264 20175 39870 40155 84100 333 20200 59003;EQDQ01  00002PRCP06
0167829860999992002100518004-09400-038220FM-12+0252SBUF V0200901N003112200019N0200001N1+03401+01181100971ADDAA106000091GF102991021011012501001001MA1999999098151MD1999999+0011REMSYN070AAXX  05184 82986 32698 20906 10340 20118 39815 40097 82100 333 58001;EQDQ01  00002PRCP06
0198829860999992002100600004-09400-038220FM-12+0252SBUF V0200901N008212200019N0020001N1+02651+01981101341ADDAA106000091GF102991021001017501041001KA1240M+03471MA1999999098501MD1999999+0011REMSYN088AAXX  06004 82986 32795 20916 10265 20198 39850 40134 82040 333 10347 29055 55102 58001;EQDQ01  00002PRCP06
0186829860999992002100612004-09400-038220FM-12+0252SBUF V0200501N001512200019N0200001N1+02881+01731101451ADDAA106000091GF104991021011008001061001KA1240N+02121MA1999999098621MD1999999-0081REMSYN076AAXX  06124 82986 32598 40503 10288 20173 39862 40145 82160 333 20212 59008;EQDQ01  00002PRCP06
0167829860999992002100618004-09400-038220FM-12+0252SBUF V0200501N007712200019N0200001N1+03381+01481100951ADDAA106000091GF103991031011012501001001MA1999999098161MD1999999+0011REMSYN070AAXX  06184 82986 32698 30515 10338 20148 39816 40095 83100 333 58001;EQDQ01  00002PRCP06
0208829860999992002100700004-09400-038220FM-12+0252SBUF V0200901N006212200019N0020001N1+02551+01781101411ADDAA106000091GA1001+999999999GF100991001001999999001001KA1240M+03421MA1999999098581MD1999999+0081REMSYN082AAXX  07004 82986 32995 00912 10255 20178 39858 40141 333 10342 29052 55110 58008;EQDQ01  00002PRCP06
0186829860999992002100712004-09400-038220FM-12+0252SBUF V0200901N005110450019N0100001N1+02611+01761101601ADDAA106000091GF107991031021004501081999KA1240N+02061MA1999999098751MD1999999+0131REMSYN076AAXX  07124 82986 32497 70910 10261 20176 39875 40160 8328/ 333 20206 58013;EQDQ01  00002PRCP06
0167829860999992002100718004-09400-038220FM-12+0252SBUF V0200501N005110450019N0100001N1+03151+01771101161ADDAA106000091GF107991041021004501081011MA1999999098331MD1999999+0171REMSYN070AAXX  07184 82986 32497 70510 10315 20177 39833 40116 84281 333 58017;EQDQ01  00002PRCP06
0198829860999992002100800004-09400-038220FM-12+0252SBUF V0200901N005710450019N0010001N1+02501+01841101541ADDAA106000091GF106991031011008001081001KA1240M+03181MA1999999098691MD1999999+0111REMSYN088AAXX  08004 82986 32594 60911 10250 20184 39869 40154 83180 333 10318 29057 55027 58011;EQDQ01  00002PRCP06
0190829860999992002100812004-09400-038220FM-12+0252SBUF V0200501N005110042019N0100001N1+02371+02191101661ADDAY151061AY221061GF108991061071004501081999KA1240N+02071MA1999999098791MD1999999+0041MW1251REMSYN088AAXX  08124 82986 21497 80510 10237 20219 39879 40166 72552 8678/ 333 20207 58004 69914;
0133829860999992002100818004-09400-038220FM-12+0252SBUF V0200901N005119999999N0200001N1+03161+01471999999ADDAA106000021GF106991999999008001999999MA1999999098361REMSYN069AAXX  08184 82986 32598 60910 10316 20147 39836 0119 82182 333 58003;
0208829860999992002100900004-09400-038220FM-12+0252SBUF V0200901N005112200019N0020001N1+02481+01831101511ADDAA106000091GA1001+999999999GF100991001001999999001001KA1240M+03281MA1999999098641MD1999999-0051REMSYN082AAXX  09004 82986 32995 00910 10248 20183 39864 40151 333 10328 29065 55053 59005;EQDQ01  00002PRCP06
0186829860999992002100912004-09400-038220FM-12+0252SBUF V0200901N004110450019N0040001N1+02641+01881101541ADDAA106000091GF107991041021004501081001KA1240N+02081MA1999999098691MD1999999-0101REMSYN076AAXX  09124 82986 32496 70908 10264 20188 39869 40154 84280 333 20208 59010;EQDQ01  00002PRCP06
0167829860999992002100918004-09400-038220FM-12+0252SBUF V0201401N003610450019N0200001N1+03021+01851101171ADDAA106000091GF106991031011008001081001MA1999999098341MD1999999-0021REMSYN070AAXX  09184 82986 32598 61407 10302 20185 39834 40117 83180 333 59002;EQDQ01  00002PRCP06
0208829860999992002101000004-09400-038220FM-12+0252SBUF V0200901N005112200019N0020001N1+02491+01851101531ADDAA106000091GA1001+999999999GF100991001001999999001001KA1240M+03281MA1999999098681MD1999999+0041REMSYN082AAXX  10004 82986 32995 00910 10249 20185 39868 40153 333 10328 29062 55060 58004;EQDQ01  00002PRCP06
0186829860999992002101012004-09400-038220FM-12+0252SBUF V0200501N004110450019N0040001N1+02621+01831101671ADDAA106000091GF106991041021004501081001KA1240N+02111MA1999999098811MD1999999+0121REMSYN076AAXX  10124 82986 32496 60508 10262 20183 39881 40167 84280 333 20211 58012;EQDQ01  00002PRCP06
0167829860999992002101018004-09400-038220FM-12+0252SBUF V0200501N005112200019N0200001N1+03291+01341101081ADDAA106000091GF104991021011008001061001MA1999999098261MD1999999-0081REMSYN070AAXX  10184 82986 32598 40510 10329 20134 39826 40108 82160 333 59008;EQDQ01  00002PRCP06
0208829860999992002101100004-09400-038220FM-12+0252SBUF V0200901N005112200019N0020001N1+02511+01721101481ADDAA106000091GA1001+999999999GF100991001001999999001001KA1240M+03361MA1999999098631MD1999999-0051REMSYN082AAXX  11004 82986 32995 00910 10251 20172 39863 40148 333 10336 29054 55088 59005;EQDQ01  00002PRCP06
0186829860999992002101112004-09400-038220FM-12+0252SBUF V0200501N004610075019N0100001N1+02761+01801101721ADDAA106000091GF105991051021008001001001KA1240N+01981MA1999999098871MD1999999+0061REMSYN076AAXX  11124 82986 32597 50509 10276 20180 39887 40172 85200 333 20198 58006;EQDQ01  00002PRCP06
0167829860999992002101118004-09400-038220FM-12+0252SBUF V0200501N006712200019N0200001N1+03231+01391101191ADDAA106000091GF104991041011012501001001MA1999999098361MD1999999-0101REMSYN070AAXX  11184 82986 32698 40513 10323 20139 39836 40119 84100 333 59010;EQDQ01  00002PRCP06
0208829860999992002101200004-09400-038220FM-12+0252SBUF V0200901N006212200019N0020001N1+02451+01641101521ADDAA106000091GA1001+999999999GF100991001001999999001001KA1240M+03291MA1999999098671MD1999999+0041REMSYN082AAXX  12004 82986 32995 00912 10245 20164 39867 40152 333 10329 29053 55099 58004;EQDQ01  00002PRCP06
0186829860999992002101212004-09400-038220FM-12+0252SBUF V0200901N006212200019N0200001N1+02711+01661101651ADDAA106000091GF104991041021008001001001KA1240N+01981MA1999999098801MD1999999-0071REMSYN076AAXX  12124 82986 32598 40912 10271 20166 39880 40165 84200 333 20198 59007;EQDQ01  00002PRCP06
0167829860999992002101218004-09400-038220FM-12+0252SBUF V0200501N003112200019N0200001N1+03251+01361101191ADDAA106000091GF103991031011012501001001MA1999999098361MD1999999+0001REMSYN070AAXX  12184 82986 32698 30506 10325 20136 39836 40119 83100 333 58000;EQDQ01  00002PRCP06
0208829860999992002101300004-09400-038220FM-12+0252SBUF V0200901N006712200019N0020001N1+02501+01671101571ADDAA106000091GA1001+999999999GF100991001001999999001001KA1240M+03291MA1999999098721MD1999999+0051REMSYN082AAXX  13004 82986 32995 00913 10250 20167 39872 40157 333 10329 29051 55090 58005;EQDQ01  00002PRCP06
0186829860999992002101312004-09400-038220FM-12+0252SBUF V0200501N004110075019N0100001N1+02651+01721101611ADDAA106000091GF106991051021008001001011KA1240N+01981MA1999999098761MD1999999-0041REMSYN076AAXX  13124 82986 32597 60508 10265 20172 39876 40161 85201 333 20198 59004;EQDQ01  00002PRCP06
0167829860999992002101318004-09400-038220FM-12+0252SBUF V0200501N004112200019N0500001N1+03281+01391101071ADDAA106000091GF104991011011012501061001MA1999999098241MD1999999-0121REMSYN070AAXX  13184 82986 32699 40508 10328 20139 39824 40107 81160 333 59012;EQDQ01  00002PRCP06
0208829860999992002101400004-09400-038220FM-12+0252SBUF V0200901N007212200019N0020001N1+02571+01701101431ADDAA106000091GA1001+999999999GF100991001001999999001001KA1240M+03341MA1999999098581MD1999999-0141REMSYN082AAXX  14004 82986 32995 00914 10257 20170 39858 40143 333 10334 29052 55108 59014;EQDQ01  00002PRCP06
0186829860999992002101412004-09400-038220FM-12+0252SBUF V0200501N005110075019N0100001N1+02651+01801101591ADDAA106000091GF106991061021008001001001KA1240N+02181MA1999999098741MD1999999-0021REMSYN076AAXX  14124 82986 32597 60510 10265 20180 39874 40159 86200 333 20218 59002;EQDQ01  00002PRCP06
0167829860999992002101418004-09400-038220FM-12+0252SBUF V0200901N003111050019N0200001N1+03291+01391101101ADDAA106000091GF105991021011012501061021MA1999999098281MD1999999+0041REMSYN070AAXX  14184 82986 32698 50906 10329 20139 39828 40110 82162 333 58004;EQDQ01  00002PRCP06
0198829860999992002101500004-09400-038220FM-12+0252SBUF V0200901N004610450019N0005001N1+02381+01841101491ADDAA106000091GF107991041021004501081001KA1240M+03351MA1999999098631MD1999999+0051REMSYN088AAXX  15004 82986 32493 70909 10238 20184 39863 40149 84280 333 10335 29059 55083 58005;EQDQ01  00002PRCP06
0186829860999992002101512004-09400-038220FM-12+0252SBUF V0200501N003610042019N0040001N1+02611+01761101621ADDAA106000091GF107991051021004501081001KA1240N+02131MA1999999098761MD1999999+0021REMSYN076AAXX  15124 82986 32496 70507 10261 20176 39876 40162 85280 333 20213 58002;EQDQ01  00002PRCP06
0167829860999992002101518004-09400-038220FM-12+0252SBUF V0200901N004111050019N0200001N1+03291+01441101031ADDAA106000091GF105991031021008001001091MA1999999098211MD1999999-0071REMSYN070AAXX  15184 82986 32598 50908 10329 20144 39821 40103 83209 333 59007;EQDQ01  00002PRCP06
0208829860999992002101600004-09400-038220FM-12+0252SBUF V0200901N004612200019N0020001N1+02491+01801101401ADDAA106000091GA1001+999999999GF100991001001999999001001KA1240M+03341MA1999999098551MD1999999-0081REMSYN082AAXX  16004 82986 32995 00909 10249 20180 39855 40140 333 10334 29056 55078 59008;EQDQ01  00002PRCP06
0186829860999992002101612004-09400-038220FM-12+0252SBUF V0200901N003610450019N0100001N1+02671+01871101621ADDAA106000091GF106991041021004501081001KA1240N+02081MA1999999098771MD1999999+0011REMSYN076AAXX  16124 82986 32497 60907 10267 20187 39877 40162 84280 333 20208 58001;EQDQ01  00002PRCP06
0167829860999992002101618004-09400-038220FM-12+0252SBUF V0200501N001512200019N0500001N1+03331+01431101031ADDAA106000091GF104991031011012501001011MA1999999098211MD1999999+0001REMSYN070AAXX  16184 82986 32699 40503 10333 20143 39821 40103 83101 333 58000;EQDQ01  00002PRCP06
0208829860999992002101700004-09400-038220FM-12+0252SBUF V0200901N007212200019N0020001N1+02511+01821101461ADDAA106000091GA1001+999999999GF100991001001999999001001KA1240M+03381MA1999999098611MD1999999-0061REMSYN082AAXX  17004 82986 32995 00914 10251 20182 39861 40146 333 10338 29056 55099 59006;EQDQ01  00002PRCP06
0186829860999992002101712004-09400-038220FM-12+0252SBUF V0200901N003112200019N0100001N1+02711+01751101521ADDAA106000091GF104991021011008001001051KA1240N+02161MA1999999098671MD1999999-0101REMSYN076AAXX  17124 82986 32597 40906 10271 20175 39867 40152 82105 333 20216 59010;EQDQ01  00002PRCP06
0167829860999992002101718004-09400-038220FM-12+0252SBUF V0200501N003112200019N0200001N1+03431+01471100891ADDAA106000091GF104991011011012501001021MA1999999098081MD1999999-0131REMSYN070AAXX  17184 82986 32698 40506 10343 20147 39808 40089 81102 333 59013;EQDQ01  00002PRCP06
0214829860999992002101800004-09400-038220FM-12+0252SBUF V0200901N005119999999N0020001N1+02621+01811101271ADDAA106000091GF106991001001999999001081KA1240M+03491MA1999999098431MD1999999-0181REMSYN088AAXX  18004 82986 32995 60910 10262 20181 39843 40127 86008 333 10349 29052 55097 59018;EQDQ01+000062SCOTLCQ02  00002PRCP06
0186829860999992002101812004-09400-038220FM-12+0252SBUF V0200901N003110450019N0100001N1+02701+01781101451ADDAA106000091GF105991021011008001061001KA1240N+02121MA1999999098611MD1999999-0061REMSYN076AAXX  18124 82986 32597 50906 10270 20178 39861 40145 82160 333 20212 59006;EQDQ01  00002PRCP06
0167829860999992002101818004-09400-038220FM-12+0252SBUF V0200901N006712200019N0200001N1+03511+01431100811ADDAA106000091GF102991021011012501001001MA1999999098011MD1999999-0071REMSYN070AAXX  18184 82986 32698 20913 10351 20143 39801 40081 82100 333 59007;EQDQ01  00002PRCP06
0198829860999992002101900004-09400-038220FM-12+0252SBUF V0200901N007712200019N0020001N1+02521+01861101351ADDAA106000091GF104991041051012501001001KA1240M+03541MA1999999098501MD1999999+0071REMSYN088AAXX  19004 82986 32695 40915 10252 20186 39850 40135 84500 333 10354 29055 55093 58007;EQDQ01  00002PRCP06
0186829860999992002101912004-09400-038220FM-12+0252SBUF V0200901N005710075019N0100001N1+02841+01821101511ADDAA106000091GF106991061021008001001001KA1240N+02181MA1999999098671MD1999999+0061REMSYN076AAXX  19124 82986 32597 60911 10284 20182 39867 40151 86200 333 20218 58006;EQDQ01  00002PRCP06
0167829860999992002101918004-09400-038220FM-12+0252SBUF V0200501N008210450019N0500001N1+03291+01441100961ADDAA106000091GF106991031011008001081001MA1999999098141MD1999999+0131REMSYN070AAXX  19184 82986 32599 60516 10329 20144 39814 40096 83180 333 58013;EQDQ01  00002PRCP06
0198829860999992002102000004-09400-038220FM-12+0252SBUF V0200901N003610450019N0020001N1+02481+01851101351ADDAA106000091GF106991031011008001081001KA1240M+03421MA1999999098511MD1999999+0011REMSYN088AAXX  20004 82986 32595 60907 10248 20185 39851 40135 83180 333 10342 29056 55103 58001;EQDQ01  00002PRCP06
0202829860999992002102012004-09400-038220FM-12+0252SBUF V0200901N006219999999N0100001N1+02811+01721101451ADDAA106000091GF105991999011008001001001KA1240N+02181MA1999999098611MD1999999-0061REMSYN076AAXX  20124 82986 32597 50912 10281 20172 39861 40145 84100 333 20218 59006;EQDQ01+000042SCOTLCQ02  00002PRCP06
0167829860999992002102018004-09400-038220FM-12+0252SBUF V0200901N006210450019N0200001N1+03231+01341100971ADDAA106000091GF106991031011008001081001MA1999999098151MD1999999+0011REMSYN070AAXX  20184 82986 32598 60912 10323 20134 39815 40097 83180 333 58001;EQDQ01  00002PRCP06
0198829860999992002102100004-09400-038220FM-12+0252SBUF V0200901N006710450019N0020001N1+02531+01741101351ADDAA106000091GF105991021011008001061001KA1240M+03371MA1999999098511MD1999999+0001REMSYN088AAXX  21004 82986 32595 50913 10253 20174 39851 40135 82160 333 10337 29052 55093 58000;EQDQ01  00002PRCP06
0186829860999992002102112004-09400-038220FM-12+0252SBUF V0200501N003610450019N0100001N1+02731+01741101571ADDAA106000091GF106991021011008001081011KA1240N+02121MA1999999098721MD1999999+0111REMSYN076AAXX  21124 82986 32597 60507 10273 20174 39872 40157 82181 333 20212 58011;EQDQ01  00002PRCP06
0167829860999992002102118004-09400-038220FM-12+0252SBUF V0200901N003112200019N0200001N1+03361+01461101031ADDAA106000091GF104991041021008001001001MA1999999098211MD1999999+0061REMSYN070AAXX  21184 82986 32598 40906 10336 20146 39821 40103 84200 333 58006;EQDQ01  00002PRCP06
0208829860999992002102200004-09400-038220FM-12+0252SBUF V0200901N003112200019N0020001N1+02581+01741101351ADDAA106000091GA1001+999999999GF100991001001999999001001KA1240M+03381MA1999999098511MD1999999+0001REMSYN082AAXX  22004 82986 32995 00906 10258 20174 39851 40135 333 10338 29052 55097 58000;EQDQ01  00002PRCP06
0186829860999992002102212004-09400-038220FM-12+0252SBUF V0200501N003610450019N0100001N1+02691+01891101531ADDAA106000091GF105991021011012501061001KA1240N+02131MA1999999098691MD1999999-0031REMSYN076AAXX  22124 82986 32697 50507 10269 20189 39869 40153 82160 333 20213 59003;EQDQ01  00002PRCP06
0167829860999992002102218004-09400-038220FM-12+0252SBUF V0200901N003112200019N0500001N1+03461+01601100981ADDAA106000091GF103991031011012501001001MA1999999098171MD1999999-0041REMSYN070AAXX  22184 82986 32699 30906 10346 20160 39817 40098 83100 333 59004;EQDQ01  00002PRCP06
0208829860999992002102300004-09400-038220FM-12+0252SBUF V0200901N006212200019N0020001N1+02661+02001101351ADDAA106000091GA1001+999999999GF100991001001999999001001KA1240M+03501MA1999999098521MD1999999+0011REMSYN082AAXX  23004 82986 32995 00912 10266 20200 39852 40135 333 10350 29057 55105 58001;EQDQ01  00002PRCP06
0186829860999992002102312004-09400-038220FM-12+0252SBUF V0200901N003110450019N0100001N1+02771+01831101471ADDAA106000091GF105991021011008001061001KA1240N+02201MA1999999098631MD1999999-0061REMSYN076AAXX  23124 82986 32597 50906 10277 20183 39863 40147 82160 333 20220 59006;EQDQ01  00002PRCP06
0183829860999992002102318004-09400-038220FM-12+0252SBUF V0200901N006212200019N0200001N1+03381+01621100931ADDAA106000091GF103991999011012501001001MA1999999098121MD1999999-0051REMSYN070AAXX  23184 82986 32698 30912 10338 20162 39812 40093 82100 333 59005;EQDQ01+000022SCOTLCQ02  00002PRCP06
0198829860999992002102400004-09400-038220FM-12+0252SBUF V0200901N006712200019N0020001N1+02571+01781101391ADDAA106000091GF102991021001017501081001KA1240M+03441MA1999999098551MD1999999+0031REMSYN088AAXX  24004 82986 32795 20913 10257 20178 39855 40139 82080 333 10344 29054 55108 58003;EQDQ01  00002PRCP06
0186829860999992002102412004-09400-038220FM-12+0252SBUF V0200901N005110450019N0100001N1+02631+01881101491ADDAA106000091GF105991021011008001081001KA1240N+02151MA1999999098641MD1999999+0011REMSYN076AAXX  24124 82986 32597 50910 10263 20188 39864 40149 82180 333 20215 58001;EQDQ01  00002PRCP06
0167829860999992002102418004-09400-038220FM-12+0252SBUF V0200901N005112200019N0200001N1+03381+01381100921ADDAA106000091GF105991031011008001001061MA1999999098111MD1999999-0011REMSYN070AAXX  24184 82986 32598 50910 10338 20138 39811 40092 83106 333 59001;EQDQ01  00002PRCP06
0186829860999992002102512004-09400-038220FM-12+0252SBUF V0200901N005110075019N0100001N1+02621+01831101391ADDAA106000091GF106991061021008001001001KA1240N+02061MA1999999098541MD1999999-0011REMSYN076AAXX  25124 82986 32597 60910 10262 20183 39854 40139 86200 333 20206 59001;EQDQ01  00002PRCP06
0167829860999992002102518004-09400-038220FM-12+0252SBUF V0200501N005112200019N0200001N1+03291+01241100871ADDAA106000091GF103991011001012501061021MA1999999098051MD1999999-0061REMSYN070AAXX  25184 82986 32698 30510 10329 20124 39805 40087 81062 333 59006;EQDQ01  00002PRCP06
0177829860999992002102618004-09400-038220FM-12+0252SBUF V0200901N004612200019N0200001N1+03481+01061100871ADDAA106000091GA1001+999999999GF100991001001999999001001MA1999999098061MD1999999+0011REMSYN064AAXX  26184 82986 32698 00909 10348 20106 39806 40087 333 58001;EQDQ01  00002PRCP06
0208829860999992002102700004-09400-038220FM-12+0252SBUF V0200901N003612200019N0020001N1+02631+01671101201ADDAA106000091GA1001+999999999GF100991001001999999001001KA1240M+03521MA1999999098371MD1999999+0011REMSYN082AAXX  27004 82986 32995 00907 10263 20167 39837 40120 333 10352 29047 55113 58001;EQDQ01  00002PRCP06
0186829860999992002102712004-09400-038220FM-12+0252SBUF V0200901N002112200019N0100001N1+02641+01851101341ADDAA106000091GF103991031001012501061001KA1240N+02101MA1999999098501MD1999999-0081REMSYN076AAXX  27124 82986 32697 30904 10264 20185 39850 40134 83060 333 20210 59008;EQDQ01  00002PRCP06
0167829860999992002102718004-09400-038220FM-12+0252SBUF V0200501N001512200019N0200001N1+03551+01461100661ADDAA106000091GF102991011001012501061021MA1999999097861MD1999999-0201REMSYN070AAXX  27184 82986 32698 20503 10355 20146 39786 40066 81062 333 59020;EQDQ01  00002PRCP06
0208829860999992002102800004-09400-038220FM-12+0252SBUF V0200901N005112200019N0020001N1+02731+01931101101ADDAA106000091GA1001+999999999GF100991001001999999001001KA1240M+03611MA1999999098271MD1999999-0101REMSYN082AAXX  28004 82986 32995 00910 10273 20193 39827 40110 333 10361 29054 55104 59010;EQDQ01  00002PRCP06
0186829860999992002102812004-09400-038220FM-12+0252SBUF V0200501N003110450019N0040001N1+02761+01801101311ADDAA106000091GF106991031011008001061071KA1240N+02201MA1999999098481MD1999999-0021REMSYN076AAXX  28124 82986 32596 60506 10276 20180 39848 40131 83167 333 20220 59002;EQDQ01  00002PRCP06
0167829860999992002102818004-09400-038220FM-12+0252SBUF V0200901N002112200019N0200001N1+03441+01431100701ADDAA106000091GF103991011001012501061051MA1999999097901MD1999999+0041REMSYN070AAXX  28184 82986 32698 30904 10344 20143 39790 40070 81065 333 58004;EQDQ01  00002PRCP06
0208829860999992002102900004-09400-038220FM-12+0252SBUF V0200901N007712200019N0020001N1+02741+01921100991ADDAA106000091GA1001+999999999GF100991001001999999001001KA1240M+03491MA1999999098171MD1999999-0101REMSYN082AAXX  29004 82986 32995 00915 10274 20192 39817 40099 333 10349 29052 55083 59010;EQDQ01  00002PRCP06
0186829860999992002102912004-09400-038220FM-12+0252SBUF V0200501N004612200019N0100001N1+02761+01801101251ADDAA106000091GF103991011001008001061051KA1240N+02151MA1999999098421MD1999999-0061REMSYN076AAXX  29124 82986 32597 30509 10276 20180 39842 40125 81065 333 20215 59006;EQDQ01  00002PRCP06
0167829860999992002102918004-09400-038220FM-12+0252SBUF V0200901N004112200019N0200001N1+03491+01361100691ADDAA106000091GF103991021011012501001051MA1999999097891MD1999999-0071REMSYN070AAXX  29184 82986 32698 30908 10349 20136 39789 40069 82105 333 59007;EQDQ01  00002PRCP06
0208829860999992002103000004-09400-038220FM-12+0252SBUF V0200901N006212200019N0020001N1+02721+01901101001ADDAA106000091GA1001+999999999GF100991001001999999001001KA1240M+03521MA1999999098181MD1999999+0011REMSYN082AAXX  30004 82986 32995 00912 10272 20190 39818 40100 333 10352 29052 55107 58001;EQDQ01  00002PRCP06
0186829860999992002103012004-09400-038220FM-12+0252SBUF V0200501N000512200019N0200001N1+02801+01721101201ADDAA106000091GF101991011001012501031001KA1240N+02161MA1999999098381MD1999999-0041REMSYN076AAXX  30124 82986 32698 10501 10280 20172 39838 40120 81030 333 20216 59004;EQDQ01  00002PRCP06
0183829860999992002103018004-09400-038220FM-12+0252SBUF V0200901N003112200019N0200001N1+03511+01381100631ADDAA106000091GF103991031021012501001001MA1999999097132MD1999999-0061REMSYN070AAXX  30184 82986 32698 30906 10351 20138 39713 40063 83200 333 59006;EQDQ01+097133APOSP Q02  00002PRCP06
0208829860999992002103100004-09400-038220FM-12+0252SBUF V0200901N005712200019N0020001N1+02741+02001101021ADDAA106000091GA1001+999999999GF100991001001999999001001KA1240M+03561MA1999999098201MD1999999+0021REMSYN082AAXX  31004 82986 32995 00911 10274 20200 39820 40102 333 10356 29052 55109 58002;EQDQ01  00002PRCP06
0224829860999992002103112004-09400-038220FM-12+0252SBUF V0203201N001012200019N0100001N1+02871+01921101181ADDAA106000091AY141061AY201061GA1001+999999999GF100991001001999999001001KA1240N+02221MA1999999098361MD1999999-0021MW1051REMSYN076AAXX  31124 82986 31997 03202 10287 20192 39836 40118 70540 333 20222 59002;EQDQ01  00002PRCP06
0167829860999992002103118004-09400-038220FM-12+0252SBUF V0200501N002112200019N0500001N1+03691+01351100561ADDAA106000091GF103991031001012501061001MA1999999097781MD1999999-0051REMSYN070AAXX  31184 82986 32699 30504 10369 20135 39778 40056 83060 333 59005;EQDQ01  00002PRCP06
0208829860999992002110100004-09400-038220FM-12+0252SBUF V0200901N005112200019N0020001N1+02841+02091100871ADDAA106000091GA1001+999999999GF100991001001999999001001KA1240M+03751MA1999999098071MD1999999-0131REMSYN082AAXX  01004 82986 32995 00910 10284 20209 39807 40087 333 10375 29052 55110 59013;EQDQ01  00002PRCP06
0214829860999992002110112004-09400-038220FM-12+0252SBUF V0203201N001512200019N0040001N1+02721+01981101131ADDAA106000091AY141061AY201061GF102991001001999999001011KA1240N+02181MA1999999098311MD1999999-0051MW1051REMSYN082AAXX  01124 82986 31996 23203 10272 20198 39831 40113 70540 80001 333 20218 59005;EQDQ01  00002PRCP06
0167829860999992002110118004-09400-038220FM-12+0252SBUF V0203201N002112200019N0500001N1+03711+01371100561ADDAA106000091GF102991011001012501041021MA1999999097781MD1999999+0001REMSYN070AAXX  01184 82986 32699 23204 10371 20137 39778 40056 81042 333 58000;EQDQ01  00002PRCP06
0208829860999992002110200004-09400-038220FM-12+0252SBUF V0200901N005112200019N0020001N1+02941+01941100971ADDAA106000091GA1001+999999999GF100991001001999999001001KA1240M+03761MA1999999098171MD1999999+0101REMSYN082AAXX  02004 82986 32995 00910 10294 20194 39817 40097 333 10376 29047 55107 58010;EQDQ01  00002PRCP06
0196829860999992002110212004-09400-038220FM-12+0252SBUF V0203201N001512200019N0100001N1+02811+01871101231ADDAA106000091GA1001+999999999GF100991001001999999001001KA1240N+02261MA1999999098421MD1999999+0111REMSYN070AAXX  02124 82986 32997 03203 10281 20187 39842 40123 333 20226 58011;EQDQ01  00002PRCP06
0167829860999992002110218004-09400-038220FM-12+0252SBUF V0201801N001512200019N0500001N1+03641+01381100581ADDAA106000091GF102991021001012501041001MA1999999097801MD1999999+0021REMSYN070AAXX  02184 82986 32699 21803 10364 20138 39780 40058 82040 333 58002;EQDQ01  00002PRCP06
0208829860999992002110300004-09400-038220FM-12+0252SBUF V0200901N005112200019N0020001N1+02881+01941100851ADDAA106000091GA1001+999999999GF100991001001999999001001KA1240M+03691MA1999999098051MD1999999-0121REMSYN082AAXX  03004 82986 32995 00910 10288 20194 39805 40085 333 10369 29049 55106 59012;EQDQ01  00002PRCP06
0196829860999992002110312004-09400-038220FM-12+0252SBUF V0203201N002112200019N0200001N1+02861+01681101161ADDAA106000091GA1001+999999999GF100991001001999999001001KA1240N+02251MA1999999098351MD1999999-0071REMSYN070AAXX  03124 82986 32998 03204 10286 20168 39835 40116 333 20225 59007;EQDQ01  00002PRCP06
0167829860999992002110318004-09400-038220FM-12+0252SBUF V0203201N001512200019N0500001N1+03591+01331100621ADDAA106000091GF104991031001012501051011MA1999999097831MD1999999+0031REMSYN070AAXX  03184 82986 32699 43203 10359 20133 39783 40062 83051 333 58003;EQDQ01  00002PRCP06
0208829860999992002110400004-09400-038220FM-12+0252SBUF V0200901N003112200019N0020001N1+02761+01891101011ADDAA106000091GA1001+999999999GF100991001001999999001001KA1240M+03601MA1999999098201MD1999999+0151REMSYN082AAXX  04004 82986 32995 00906 10276 20189 39820 40101 333 10360 29048 55093 58015;EQDQ01  00002PRCP06
0186829860999992002110412004-09400-038220FM-12+0252SBUF V0203201N001512200019N0200001N1+02741+01891101281ADDAA106000091GF103991011001012501041021KA1240N+02241MA1999999098451MD1999999+0101REMSYN076AAXX  04124 82986 32698 33203 10274 20189 39845 40128 81042 333 20224 58010;EQDQ01  00002PRCP06
0167829860999992002110418004-09400-038220FM-12+0252SBUF V0203601N002110450019N0200001N1+03391+01621100731ADDAA106000091GF106991021021008001041081MA1999999097931MD1999999+0101REMSYN070AAXX  04184 82986 32598 63604 10339 20162 39793 40073 82248 333 58010;EQDQ01  00002PRCP06
0198829860999992002110500004-09400-038220FM-12+0252SBUF V0200901N005712200019N0020001N1+02981+01891100911ADDAA106000091GF102991021011012501001001KA1240M+03451MA1999999098101MD1999999+0101REMSYN088AAXX  05004 82986 32695 20911 10298 20189 39810 40091 82100 333 10345 29050 55077 58010;EQDQ01  00002PRCP06
0186829860999992002110512004-09400-038220FM-12+0252SBUF V0203201N000512200019N0200001N1+02831+01911101321ADDAA106000091GF103991011001012501041081KA1240N+02321MA1999999098511MD1999999+0061REMSYN076AAXX  05124 82986 32698 33201 10283 20191 39851 40132 81048 333 20232 58006;EQDQ01  00002PRCP06
0167829860999992002110518004-09400-038220FM-12+0252SBUF V0203201N002111050019N0200001N1+03691+01691100721ADDAA106000091GF106991031011012501001081MA1999999097941MD1999999+0011REMSYN070AAXX  05184 82986 32698 63204 10369 20169 39794 40072 83108 333 58001;EQDQ01  00002PRCP06
0208829860999992002110600004-09400-038220FM-12+0252SBUF V0200901N005112200019N0020001N1+02821+02021101041ADDAA106000091GA1001+999999999GF100991001001999999001001KA1240M+03721MA1999999098231MD1999999+0131REMSYN082AAXX  06004 82986 32995 00910 10282 20202 39823 40104 333 10372 29053 55102 58013;EQDQ01  00002PRCP06
0214829860999992002110612004-09400-038220FM-12+0252SBUF V0200501N001519999999N0100001N1+02821+01681101341ADDAA106000091AY141061AY201061GF106991001001999999001081KA1240N+02161MA1999999098521MD1999999+0011MW1051REMSYN082AAXX  06124 82986 31997 60503 10282 20168 39852 40134 70540 80008 333 20216 58001;EQDQ01  00002PRCP06
0167829860999992002110618004-09400-038220FM-12+0252SBUF V0200901N002112200019N0500001N1+03591+01081100871ADDAA106000091GF102991011001012501041011MA1999999098071MD1999999+0131REMSYN070AAXX  06184 82986 32699 20904 10359 20108 39807 40087 81041 333 58013;EQDQ01  00002PRCP06
0208829860999992002110700004-09400-038220FM-12+0252SBUF V0200901N007212200019N0020001N1+02741+01891101221ADDAA106000091GA1001+999999999GF100991001001999999001001KA1240M+03641MA1999999098401MD1999999+0171REMSYN082AAXX  07004 82986 32995 00914 10274 20189 39840 40122 333 10364 29048 55109 58017;EQDQ01  00002PRCP06
0214829860999992002110712004-09400-038220FM-12+0252SBUF V0200901N004110450019N0100001N1+02791+01701101511ADDAA106000091AY141061AY201061GF106991041021008001031001KA1240N+02221MA1999999098681MD1999999+0161MW1051REMSYN082AAXX  07124 82986 31597 60908 10279 20170 39868 40151 70540 84230 333 20222 58016;EQDQ01  00002PRCP06
0167829860999992002110718004-09400-038220FM-12+0252SBUF V0200501N003112200019N0500001N1+03431+01361100931ADDAA106000091GF103991011001012501041011MA1999999098131MD1999999+0061REMSYN070AAXX  07184 82986 32699 30506 10343 20136 39813 40093 81041 333 58006;EQDQ01  00002PRCP06
0208829860999992002110800004-09400-038220FM-12+0252SBUF V0200901N007212200019N0020001N1+02751+01761101321ADDAA106000091GA1001+999999999GF100991001001999999001001KA1240M+03491MA1999999098501MD1999999+0101REMSYN082AAXX  08004 82986 32995 00914 10275 20176 39850 40132 333 10349 29048 55104 58010;EQDQ01  00002PRCP06
0186829860999992002110812004-09400-038220FM-12+0252SBUF V0200901N003110450019N0100001N1+02731+01931101531ADDAA106000091GF108991041021004501081001KA1240N+02161MA1999999098701MD1999999+0021REMSYN076AAXX  08124 82986 32497 80906 10273 20193 39870 40153 84280 333 20216 58002;EQDQ01  00002PRCP06
0167829860999992002110818004-09400-038220FM-12+0252SBUF V0201401N003112200019N0500001N1+03451+01631100951ADDAA106000091GF103991031001008001061001MA1999999098141MD1999999+0011REMSYN070AAXX  08184 82986 32599 31406 10345 20163 39814 40095 83060 333 58001;EQDQ01  00002PRCP06
0208829860999992002110900004-09400-038220FM-12+0252SBUF V0200901N006712200019N0020001N1+02791+01851101391ADDAA106000091GA1001+999999999GF100991001001999999001001KA1240M+03201MA1999999098561MD1999999+0061REMSYN082AAXX  09004 82986 32995 00913 10279 20185 39856 40139 333 10320 29052 55092 58006;EQDQ01  00002PRCP06
0186829860999992002110912004-09400-038220FM-12+0252SBUF V0200901N003110042019N0040001N1+02671+01771101561ADDAA106000091GF107991051021004501081001KA1240N+02351MA1999999098731MD1999999+0031REMSYN076AAXX  09124 82986 32496 70906 10267 20177 39873 40156 85280 333 20235 58003;EQDQ01  00002PRCP06
0167829860999992002110918004-09400-038220FM-12+0252SBUF V0200901N003112200019N0200001N1+03361+01601101031ADDAA106000091GF104991031011008001061061MA1999999098221MD1999999+0081REMSYN070AAXX  09184 82986 32598 40906 10336 20160 39822 40103 83166 333 58008;EQDQ01  00002PRCP06
0224829860999992002111000004-09400-038220FM-12+0252SBUF V0200901N001512200019N0040001N1+02811+01851999999ADDAA106000091GA1001+999999999GF100991001001999999001001KA1240M+03351MA1999999999999MD1999999+0151REMSYN082AAXX  10004 82986 32996 00903 10281 20185 39642 40911 333 10335 29054 55097 58015;EQDQ01  00002PRCP06Q02 096423APOSP 
0186829860999992002111012004-09400-038220FM-12+0252SBUF V0200901N003110450019N0100001N1+02781+01671101511ADDAA106000091GF105991021011008001061001KA1240N+02151MA1999999098681MD1999999-0051REMSYN076AAXX  10124 82986 32597 50906 10278 20167 39868 40151 82160 333 20215 59005;EQDQ01  00002PRCP06
0167829860999992002111018004-09400-038220FM-12+0252SBUF V0201401N005112200019N0200001N1+03431+01201100981ADDAA106000091GF101991011001017501041001MA1999999098171MD1999999-0051REMSYN070AAXX  10184 82986 32798 11410 10343 20120 39817 40098 81040 333 59005;EQDQ01  00002PRCP06
0208829860999992002111100004-09400-038220FM-12+0252SBUF V0200901N006712200019N0020001N1+02631+01731101261ADDAA106000091GA1001+999999999GF100991001001999999001001KA1240M+03481MA1999999098431MD1999999-0101REMSYN082AAXX  11004 82986 32995 00913 10263 20173 39843 40126 333 10348 29048 55104 59010;EQDQ01  00002PRCP06
0186829860999992002111112004-09400-038220FM-12+0252SBUF V0200901N004110450019N0100001N1+02771+01941101491ADDAA106000091GF106991031011004501081001KA1240N+02301MA1999999098651MD1999999-0031REMSYN076AAXX  11124 82986 32497 60908 10277 20194 39865 40149 83180 333 20230 59003;EQDQ01  00002PRCP06
0167829860999992002111118004-09400-038220FM-12+0252SBUF V0200501N006212200019N0200001N1+03491+01521100931ADDAA106000091GF104991041021012501001001MA1999999098141MD1999999-0031REMSYN070AAXX  11184 82986 32698 40512 10349 20152 39814 40093 84200 333 59003;EQDQ01  00002PRCP06
0208829860999992002111200004-09400-038220FM-12+0252SBUF V0200901N006212200019N0020001N1+02631+01831101331ADDAA106000091GA1001+999999999GF100991001001999999001001KA1240M+03581MA1999999098501MD1999999+0071REMSYN082AAXX  12004 82986 32995 00912 10263 20183 39850 40133 333 10358 29054 55084 58007;EQDQ01  00002PRCP06
0186829860999992002111212004-09400-038220FM-12+0252SBUF V0200901N006210075019N0100001N1+02711+01781101571ADDAA106000091GF106991061021008001001001KA1240N+02121MA1999999098721MD1999999+0071REMSYN076AAXX  12124 82986 32597 60912 10271 20178 39872 40157 86200 333 20212 58007;EQDQ01  00002PRCP06
0167829860999992002111218004-09400-038220FM-12+0252SBUF V0200501N005112200019N0500001N1+03331+01221101031ADDAA106000091GF102991021001012501041001MA1999999098211MD1999999+0071REMSYN070AAXX  12184 82986 32699 20510 10333 20122 39821 40103 82040 333 58007;EQDQ01  00002PRCP06
0208829860999992002111300004-09400-038220FM-12+0252SBUF V0200901N006212200019N0020001N1+02601+01571101461ADDAA106000091GA1001+999999999GF100991001001999999001001KA1240M+03411MA1999999098621MD1999999+0121REMSYN082AAXX  13004 82986 32995 00912 10260 20157 39862 40146 333 10341 29048 55099 58012;EQDQ01  00002PRCP06
0186829860999992002111312004-09400-038220FM-12+0252SBUF V0200901N005710450019N0200001N1+02771+01801101671ADDAA106000091GF105991041021008001081001KA1240N+02091MA1999999098831MD1999999+0111REMSYN076AAXX  13124 82986 32598 50911 10277 20180 39883 40167 84280 333 20209 58011;EQDQ01  00002PRCP06
0167829860999992002111318004-09400-038220FM-12+0252SBUF V0200501N003612200019N0200001N1+03261+01331101231ADDAA106000091GF103991031001012501041001MA1999999098401MD1999999+0191REMSYN070AAXX  13184 82986 32698 30507 10326 20133 39840 40123 83040 333 58019;EQDQ01  00002PRCP06
0208829860999992002111400004-09400-038220FM-12+0252SBUF V0200901N005112200019N0020001N1+02591+01741101521ADDAA106000091GA1001+999999999GF100991001001999999001001KA1240M+03331MA1999999098681MD1999999+0061REMSYN082AAXX  14004 82986 32995 00910 10259 20174 39868 40152 333 10333 29052 55103 58006;EQDQ01  00002PRCP06
0186829860999992002111412004-09400-038220FM-12+0252SBUF V0200901N004610450019N0100001N1+02691+01861101611ADDAA106000091GF106991041021004501081011KA1240N+02091MA1999999098761MD1999999-0071REMSYN076AAXX  14124 82986 32497 60909 10269 20186 39876 40161 84281 333 20209 59007;EQDQ01  00002PRCP06
0167829860999992002111418004-09400-038220FM-12+0252SBUF V0200901N003612200019N0200001N1+03441+01211101121ADDAA106000091GF103991021011008001041001MA1999999098301MD1999999-0101REMSYN070AAXX  14184 82986 32598 30907 10344 20121 39830 40112 82140 333 59010;EQDQ01  00002PRCP06
0208829860999992002111500004-09400-038220FM-12+0252SBUF V0200901N006212200019N0020001N1+02531+01931101511ADDAA106000091GA1001+999999999GF100991001001999999001001KA1240M+03491MA1999999098691MD1999999+0011REMSYN082AAXX  15004 82986 32995 00912 10253 20193 39869 40151 333 10349 29057 55099 58001;EQDQ01  00002PRCP06
0186829860999992002111512004-09400-038220FM-12+0252SBUF V0200501N004610450019N0040001N1+02671+01711101601ADDAA106000091GF106991031011008001081001KA1240N+02141MA1999999098751MD1999999-0011REMSYN076AAXX  15124 82986 32596 60509 10267 20171 39875 40160 83180 333 20214 59001;EQDQ01  00002PRCP06
0167829860999992002111518004-09400-038220FM-12+0252SBUF V0200901N004612200019N0200001N1+03201+01511101031ADDAA106000091GF104991021011008001061001MA1999999098201MD1999999-0101REMSYN070AAXX  15184 82986 32598 40909 10320 20151 39820 40103 82160 333 59010;EQDQ01  00002PRCP06
0208829860999992002111600004-09400-038220FM-12+0252SBUF V0200901N007712200019N0020001N1+02511+01721101461ADDAA106000091GA1001+999999999GF100991001001999999001001KA1240M+03391MA1999999098611MD1999999-0081REMSYN082AAXX  16004 82986 32995 00915 10251 20172 39861 40146 333 10339 29054 55099 59008;EQDQ01  00002PRCP06
0186829860999992002111612004-09400-038220FM-12+0252SBUF V0200901N005110075019N0100001N1+02801+01691101551ADDAA106000091GF105991051021008001001001KA1240N+02061MA1999999098701MD1999999-0051REMSYN076AAXX  16124 82986 32597 50910 10280 20169 39870 40155 85200 333 20206 59005;EQDQ01  00002PRCP06
0167829860999992002111618004-09400-038220FM-12+0252SBUF V0200501N003112200019N0200001N1+03351+01351100931ADDAA106000091GF103991031011012501001001MA1999999098111MD1999999-0091REMSYN070AAXX  16184 82986 32698 30506 10335 20135 39811 40093 83100 333 59009;EQDQ01  00002PRCP06
0208829860999992002111700004-09400-038220FM-12+0252SBUF V0200901N005712200019N0020001N1+02571+01701101281ADDAA106000091GA1001+999999999GF100991001001999999001001KA1240M+03421MA1999999098451MD1999999-0161REMSYN082AAXX  17004 82986 32995 00911 10257 20170 39845 40128 333 10342 29050 55114 59016;EQDQ01  00002PRCP06
0186829860999992002111712004-09400-038220FM-12+0252SBUF V0200901N003110450019N0100001N1+02661+01791101501ADDAA106000091GF105991021011008001081001KA1240N+02021MA1999999098651MD1999999-0011REMSYN076AAXX  17124 82986 32597 50906 10266 20179 39865 40150 82180 333 20202 59001;EQDQ01  00002PRCP06
0167829860999992002111718004-09400-038220FM-12+0252SBUF V0200501N003112200019N0200001N1+03361+01311100891ADDAA106000091GF101991011011012501001001MA1999999098081MD1999999-0031REMSYN070AAXX  17184 82986 32698 10506 10336 20131 39808 40089 81100 333 59003;EQDQ01  00002PRCP06
0208829860999992002111800004-09400-038220FM-12+0252SBUF V0200901N006212200019N0020001N1+02701+01721101201ADDAA106000091GA1001+999999999GF100991001001999999001001KA1240M+03441MA1999999098371MD1999999-0081REMSYN082AAXX  18004 82986 32995 00912 10270 20172 39837 40120 333 10344 29050 55097 59008;EQDQ01  00002PRCP06
0214829860999992002111812004-09400-038220FM-12+0252SBUF V0200501N004112200019N0100001N1+02851+01791101431ADDAA106000091AY141061AY201061GF104991041011012501001001KA1240N+02121MA1999999098601MD1999999-0051MW1051REMSYN082AAXX  18124 82986 31697 40508 10285 20179 39860 40143 70540 84100 333 20212 59005;EQDQ01  00002PRCP06
0167829860999992002111818004-09400-038220FM-12+0252SBUF V0200501N004112200019N0500001N1+03511+01321100851ADDAA106000091GF103991021001012501061021MA1999999098051MD1999999-0031REMSYN070AAXX  18184 82986 32699 30508 10351 20132 39805 40085 82062 333 59003;EQDQ01  00002PRCP06
0208829860999992002111900004-09400-038220FM-12+0252SBUF V0200901N006212200019N0020001N1+02741+01761101171ADDAA106000091GA1001+999999999GF100991001001999999001001KA1240M+03561MA1999999098351MD1999999-0021REMSYN082AAXX  19004 82986 32995 00912 10274 20176 39835 40117 333 10356 29047 55112 59002;EQDQ01  00002PRCP06
0214829860999992002111912004-09400-038220FM-12+0252SBUF V0200501N001512200019N0040001N1+02801+01751101391ADDAA106000091AY141061AY201061GF102991021011012501001001KA1240N+02081MA1999999098561MD1999999-0041MW1051REMSYN082AAXX  19124 82986 31696 20503 10280 20175 39856 40139 70540 82100 333 20208 59004;EQDQ01  00002PRCP06
0177829860999992002111918004-09400-038220FM-12+0252SBUF V0200501N003612200019N0500001N1+03471+01341100871ADDAA106000091GA1001+999999999GF100991001001999999001001MA1999999098061MD1999999+0011REMSYN064AAXX  19184 82986 32999 00507 10347 20134 39806 40087 333 58001;EQDQ01  00002PRCP06
0208829860999992002112000004-09400-038220FM-12+0252SBUF V0200901N006712200019N0020001N1+02811+01921101101ADDAA106000091GA1001+999999999GF100991001001999999001001KA1240M+03511MA1999999098291MD1999999-0061REMSYN082AAXX  20004 82986 32995 00913 10281 20192 39829 40110 333 10351 29050 55112 59006;EQDQ01  00002PRCP06
0214829860999992002112012004-09400-038220FM-12+0252SBUF V0200901N003110450019N0040001N1+02751+01871101361ADDAA106000091AY121061AY221061GF106991021011008001081011KA1240N+02241MA1999999098541MD1999999-0021MW1051REMSYN082AAXX  20124 82986 31596 60906 10275 20187 39854 40136 70522 82181 333 20224 59002;EQDQ01  00002PRCP06
0167829860999992002112018004-09400-038220FM-12+0252SBUF V0200901N003112200019N0200001N1+03471+01451100801ADDAA106000091GF102991021001012501041001MA1999999098001MD1999999-0061REMSYN070AAXX  20184 82986 32698 20906 10347 20145 39800 40080 82040 333 59006;EQDQ01  00002PRCP06
0198829860999992002112100004-09400-038220FM-12+0252SBUF V0200901N006710450019N0020001N1+02671+01871101211ADDAA106000091GF106991031061012501081001KA1240M+03521MA1999999098381MD1999999+0091REMSYN088AAXX  21004 82986 32695 60913 10267 20187 39838 40121 83680 333 10352 29053 55103 58009;EQDQ01  00002PRCP06
0186829860999992002112112004-09400-038220FM-12+0252SBUF V0200901N003110450019N0100001N1+02671+01871101511ADDAA106000091GF106991031011008001081001KA1240N+02291MA1999999098671MD1999999+0131REMSYN076AAXX  21124 82986 32597 60906 10267 20187 39867 40151 83180 333 20229 58013;EQDQ01  00002PRCP06
0167829860999992002112118004-09400-038220FM-12+0252SBUF V0200901N003112200019N0200001N1+03491+01521100901ADDAA106000091GF102991001001999999001031MA1999999098101MD1999999+0101REMSYN070AAXX  21184 82986 32998 20906 10349 20152 39810 40090 80003 333 58010;EQDQ01  00002PRCP06
0208829860999992002112200004-09400-038220FM-12+0252SBUF V0200901N008212200019N0020001N1+02731+01901101111ADDAA106000091GA1001+999999999GF100991001001999999001001KA1240M+03521MA1999999098281MD1999999-0101REMSYN082AAXX  22004 82986 32995 00916 10273 20190 39828 40111 333 10352 29054 55098 59010;EQDQ01  00002PRCP06
0186829860999992002112212004-09400-038220FM-12+0252SBUF V0200501N004610450019N0100001N1+02821+01861101421ADDAA106000091GF105991021011008001061001KA1240N+02281MA1999999098601MD1999999-0071REMSYN076AAXX  22124 82986 32597 50509 10282 20186 39860 40142 82160 333 20228 59007;EQDQ01  00002PRCP06
0167829860999992002112218004-09400-038220FM-12+0252SBUF V0200901N004612200019N0200001N1+03511+01631100951ADDAA106000091GF102991021011012501001001MA1999999098151MD1999999+0051REMSYN070AAXX  22184 82986 32698 20909 10351 20163 39815 40095 82100 333 58005;EQDQ01  00002PRCP06
0198829860999992002112300004-09400-038220FM-12+0252SBUF V0200901N006212200019N0020001N1+02591+02061101301ADDAA106000091GF101991011011008001001001KA1240M+03561MA1999999098471MD1999999+0191REMSYN088AAXX  23004 82986 32595 10912 10259 20206 39847 40130 81100 333 10356 29059 55108 58019;EQDQ01  00002PRCP06
0186829860999992002112312004-09400-038220FM-12+0252SBUF V0200901N004610450019N0100001N1+02741+02051101491ADDAA106000091GF106991031011008001081001KA1240N+02341MA1999999098651MD1999999+0051REMSYN076AAXX  23124 82986 32597 60909 10274 20205 39865 40149 83180 333 20234 58005;EQDQ01  00002PRCP06
0167829860999992002112318004-09400-038220FM-12+0252SBUF V0200501N006210450019N0200001N1+03551+01621100951ADDAA106000091GF105991041021008001041001MA1999999098161MD1999999+0011REMSYN070AAXX  23184 82986 32598 50512 10355 20162 39816 40095 84240 333 58001;EQDQ01  00002PRCP06
0198829860999992002112400004-09400-038220FM-12+0252SBUF V0200501N003110120019N0020001N1+02541+02061101431ADDAA106000091GF106991061051012501001001KA1240M+03581MA1999999098591MD1999999+0121REMSYN088AAXX  24004 82986 32695 60506 10254 20206 39859 40143 86500 333 10358 29062 55087 58012;EQDQ01  00002PRCP06
0167829860999992002112418004-09400-038220FM-12+0252SBUF V0200501N006210450019N0500001N1+03421+01741101031ADDAA106000091GF106991031011008001081001MA1999999098231MD1999999+0071REMSYN070AAXX  24184 82986 32599 60512 10342 20174 39823 40103 83180 333 58007;EQDQ01  00002PRCP06
0208829860999992002112500004-09400-038220FM-12+0252SBUF V0200901N007212200019N0020001N1+02681+01841101441ADDAA106000091GA1001+999999999GF100991001001999999001001KA1240M+03531MA1999999098621MD1999999+0031REMSYN082AAXX  25004 82986 32995 00914 10268 20184 39862 40144 333 10353 29055 55099 58003;EQDQ01  00002PRCP06
0186829860999992002112512004-09400-038220FM-12+0252SBUF V0200901N005710075019N0100001N1+02771+01771101581ADDAA106000091GF106991051011008001081001KA1240N+02221MA1999999098741MD1999999+0111REMSYN076AAXX  25124 82986 32597 60911 10277 20177 39874 40158 85180 333 20222 58011;EQDQ01  00002PRCP06
0167829860999992002112518004-09400-038220FM-12+0252SBUF V0200901N005710450019N0500001N1+03351+01681101071ADDAA106000091GF106991021011008001081001MA1999999098261MD1999999+0031REMSYN070AAXX  25184 82986 32599 60911 10335 20168 39826 40107 82180 333 58003;EQDQ01  00002PRCP06
0208829860999992002112600004-09400-038220FM-12+0252SBUF V0200901N005112200019N0020001N1+02601+01811101401ADDAA106000091GA1001+999999999GF100991001001999999001001KA1240M+03431MA1999999098571MD1999999-0051REMSYN082AAXX  26004 82986 32995 00910 10260 20181 39857 40140 333 10343 29053 55104 59005;EQDQ01  00002PRCP06
0186829860999992002112612004-09400-038220FM-12+0252SBUF V0200501N004110450019N0040001N1+02751+01871101561ADDAA106000091GF106991041021004501081001KA1240N+02211MA1999999098731MD1999999-0011REMSYN076AAXX  26124 82986 32496 60508 10275 20187 39873 40156 84280 333 20221 59001;EQDQ01  00002PRCP06
0167829860999992002112618004-09400-038220FM-12+0252SBUF V0200901N003112200019N0200001N1+03331+01571101011ADDAA106000091GF105991021021008001001061MA1999999098201MD1999999-0061REMSYN070AAXX  26184 82986 32598 50906 10333 20157 39820 40101 82206 333 59006;EQDQ01  00002PRCP06
0180829860999992002112700004-09400-038220FM-12+0252SBUF V0200901N008212200019N0020001N1+02601+01841101321ADDAA106000091GA1001+999999999GF100991001001999999001001MA1999999098491REMSYN081AAXX  27004 82986 32995 00916 10260 20184 39849 40132 333 1032 29055 55074 59008;EQDQ01  00002PRCP06
0186829860999992002112712004-09400-038220FM-12+0252SBUF V0200501N004610450019N0040001N1+02791+01911101491ADDAA106000091GF106991021011008001081011KA1240N+02271MA1999999098651MD1999999-0081REMSYN076AAXX  27124 82986 32596 60509 10279 20191 39865 40149 82181 333 20227 59008;EQDQ01  00002PRCP06
0167829860999992002112718004-09400-038220FM-12+0252SBUF V0200901N005112200019N0200001N1+03511+01531100901ADDAA106000091GF104991031021008001001011MA1999999098101MD1999999-0101REMSYN070AAXX  27184 82986 32598 40910 10351 20153 39810 40090 83201 333 59010;EQDQ01  00002PRCP06
0208829860999992002112800004-09400-038220FM-12+0252SBUF V0200901N004612200019N0020001N1+02681+01971101311ADDAA106000091GA1001+999999999GF100991001001999999001001KA1240M+03521MA1999999098481MD1999999-0011REMSYN082AAXX  28004 82986 32995 00909 10268 20197 39848 40131 333 10352 29055 55100 59001;EQDQ01  00002PRCP06
0186829860999992002112812004-09400-038220FM-12+0252SBUF V0200901N004610042019N0040001N1+02691+02061101291ADDAA106000091GF107991051021004501081001KA1240N+02351MA1999999098461MD1999999-0191REMSYN076AAXX  28124 82986 32496 70909 10269 20206 39846 40129 85280 333 20235 59019;EQDQ01  00002PRCP06
0167829860999992002112818004-09400-038220FM-12+0252SBUF V0200901N006710450019N0200001N1+03351+01751100861ADDAA106000091GF106991021011008001041081MA1999999098061MD1999999-0041REMSYN070AAXX  28184 82986 32598 60913 10335 20175 39806 40086 82148 333 59004;EQDQ01  00002PRCP06
0208829860999992002112900004-09400-038220FM-12+0252SBUF V0200901N006212200019N0020001N1+02701+01881101281ADDAA106000091GA1001+999999999GF100991001001999999001001KA1240M+03501MA1999999098451MD1999999-0031REMSYN082AAXX  29004 82986 32995 00912 10270 20188 39845 40128 333 10350 29058 55067 59003;EQDQ01  00002PRCP06
0186829860999992002112912004-09400-038220FM-12+0252SBUF V0200501N005110450019N0040001N1+02841+01881101451ADDAA106000091GF106991021021004501081091KA1240N+02321MA1999999098621MD1999999+0161REMSYN076AAXX  29124 82986 32496 60510 10284 20188 39862 40145 82289 333 20232 58016;EQDQ01  00002PRCP06
0167829860999992002112918004-09400-038220FM-12+0252SBUF V0200501N007710450019N0200001N1+03231+01841101021ADDAA106000091GF106991031021008001081091MA1999999098211MD1999999+0151REMSYN070AAXX  29184 82986 32598 60515 10323 20184 39821 40102 83289 333 58015;EQDQ01  00002PRCP06
0198829860999992002113000004-09400-038220FM-12+0252SBUF V0200901N005112200019N0020001N1+02641+01831101341ADDAA106000091GF102991021001022501051001KA1240M+03371MA1999999098511MD1999999+0061REMSYN088AAXX  30004 82986 32895 20910 10264 20183 39851 40134 82050 333 10337 29056 55057 58006;EQDQ01  00002PRCP06
0186829860999992002113012004-09400-038220FM-12+0252SBUF V0200901N005110450019N0100001N1+02691+01861101511ADDAA106000091GF108991041021004501071999KA1240N+02221MA1999999098671MD1999999+0051REMSYN076AAXX  30124 82986 32497 80910 10269 20186 39867 40151 8427/ 333 20222 58005;EQDQ01  00002PRCP06
0167829860999992002113018004-09400-038220FM-12+0252SBUF V0200901N003610450019N0200001N1+03231+01521101031ADDAA106000091GF106991021011008001081011MA1999999098211MD1999999+0001REMSYN070AAXX  30184 82986 32598 60907 10323 20152 39821 40103 82181 333 58000;EQDQ01  00002PRCP06
0208829860999992002120100004-09400-038220FM-12+0252SBUF V0200901N005712200019N0020001N1+02681+01701101391ADDAA106000091GA1001+999999999GF100991001001999999001001KA1240M+03341MA1999999098561MD1999999+0051REMSYN082AAXX  01004 82986 32995 00911 10268 20170 39856 40139 333 10334 29052 55039 58005;EQDQ01  00002PRCP06
0186829860999992002120112004-09400-038220FM-12+0252SBUF V0200901N005710450019N0200001N1+02761+01861101411ADDAA106000091GF106991031011008001051021KA1240N+02121MA1999999098581MD1999999-0091REMSYN076AAXX  01124 82986 32598 60911 10276 20186 39858 40141 83152 333 20212 59009;EQDQ01  00002PRCP06
0208829860999992002120200004-09400-038220FM-12+0252SBUF V0200901N005112200019N0020001N1+02721+01851101191ADDAA106000091GA1001+999999999GF100991001001999999001001KA1240M+03441MA1999999098371MD1999999-0191REMSYN082AAXX  02004 82986 32995 00910 10272 20185 39837 40119 333 10344 29052 55082 59019;EQDQ01  00002PRCP06
0186829860999992002120212004-09400-038220FM-12+0252SBUF V0200501N004110450019N0040001N1+02701+01801101361ADDAA106000091GF106991031011008001081001KA1240N+02181MA1999999098531MD1999999-0051REMSYN076AAXX  02124 82986 32596 60508 10270 20180 39853 40136 83180 333 20218 59005;EQDQ01  00002PRCP06
0167829860999992002120218004-09400-038220FM-12+0252SBUF V0203201N003112200019N0200001N1+03361+01561100871ADDAA106000091GF103991011011008001041001MA1999999098061MD1999999+0001REMSYN070AAXX  02184 82986 32598 33206 10336 20156 39806 40087 81140 333 58000;EQDQ01  00002PRCP06
0208829860999992002120300004-09400-038220FM-12+0252SBUF V0200901N006712200019N0020001N1+02671+01871101111ADDAA106000091GA1001+999999999GF100991001001999999001001KA1240M+03411MA1999999098281MD1999999-0091REMSYN082AAXX  03004 82986 32995 00913 10267 20187 39828 40111 333 10341 29054 55103 59009;EQDQ01  00002PRCP06
0186829860999992002120312004-09400-038220FM-12+0252SBUF V0200501N002112200019N0100001N1+02731+01951101341ADDAA106000091GF103991021001012501061011KA1240N+02131MA1999999098511MD1999999-0021REMSYN076AAXX  03124 82986 32697 30504 10273 20195 39851 40134 82061 333 20213 59002;EQDQ01  00002PRCP06
0167829860999992002120318004-09400-038220FM-12+0252SBUF V0202301N001512200019N0200001N1+03501+01531100801ADDAA106000091GF103991031001012501061001MA1999999098001MD1999999-0061REMSYN070AAXX  03184 82986 32698 32303 10350 20153 39800 40080 83060 333 59006;EQDQ01  00002PRCP06
0208829860999992002120400004-09400-038220FM-12+0252SBUF V0200901N005112200019N0020001N1+02831+02001101181ADDAA106000091GA1001+999999999GF100991001001999999001001KA1240M+03561MA1999999098361MD1999999+0081REMSYN082AAXX  04004 82986 32995 00910 10283 20200 39836 40118 333 10356 29054 55103 58008;EQDQ01  00002PRCP06
0186829860999992002120412004-09400-038220FM-12+0252SBUF V0200901N003610450019N0100001N1+02821+01861101241ADDAA106000091GF105991031011008001081001KA1240N+02341MA1999999098521MD1999999+0011REMSYN076AAXX  04124 82986 32597 50907 10282 20186 39852 40124 83180 333 20234 58001;EQDQ01  00002PRCP06
0167829860999992002120418004-09400-038220FM-12+0252SBUF V0200901N003611050019N0500001N1+03511+01581100891ADDAA106000091GF105991021011008001081011MA1999999098101MD1999999+0101REMSYN070AAXX  04184 82986 32599 50907 10351 20158 39810 40089 82181 333 58010;EQDQ01  00002PRCP06
0208829860999992002120500004-09400-038220FM-12+0252SBUF V0200901N006712200019N0020001N1+02741+01841101211ADDAA106000091GA1001+999999999GF100991001001999999001001KA1240M+03561MA1999999098381MD1999999+0031REMSYN082AAXX  05004 82986 32995 00913 10274 20184 39838 40121 333 10356 29051 55099 58003;EQDQ01  00002PRCP06
0186829860999992002120512004-09400-038220FM-12+0252SBUF V0200901N003112200019N0100001N1+02841+01761101371ADDAA106000091GF103991031001012501061001KA1240N+02181MA1999999098551MD1999999+0031REMSYN076AAXX  05124 82986 32697 30906 10284 20176 39855 40137 83060 333 20218 58003;EQDQ01  00002PRCP06
0167829860999992002120518004-09400-038220FM-12+0252SBUF V0200901N005112200019N0200001N1+03461+01601100851ADDAA106000091GF103991031001012501061001MA1999999098051MD1999999-0051REMSYN070AAXX  05184 82986 32698 30910 10346 20160 39805 40085 83060 333 59005;EQDQ01  00002PRCP06
0208829860999992002120600004-09400-038220FM-12+0252SBUF V0200901N004112200019N0020001N1+02711+01721101211ADDAA106000091GA1001+999999999GF100991001001999999001001KA1240M+03511MA1999999098391MD1999999+0001REMSYN082AAXX  06004 82986 32995 00908 10271 20172 39839 40121 333 10351 29049 55107 58000;EQDQ01  00002PRCP06
0224829860999992002120612004-09400-038220FM-12+0252SBUF V0201301N003112200019N0100001N1+02771+01721101201ADDAA106000091AY141061AY201061GA1001+999999999GF100991001001999999001001KA1240N+02041MA1999999098381MD1999999-0171MW1051REMSYN076AAXX  06124 82986 31997 01306 10277 20172 39838 40120 70540 333 20204 59017;EQDQ01  00002PRCP06
0177829860999992002120618004-09400-038220FM-12+0252SBUF V0201801N002612200019N0200001N1+03541+01041100671ADDAA106000091GA1001+999999999GF100991001001999999001001MA1999999097871MD1999999-0181REMSYN064AAXX  06184 82986 32998 01805 10354 20104 39787 40067 333 59018;EQDQ01  00002PRCP06
0208829860999992002120700004-09400-038220FM-12+0252SBUF V0200901N005712200019N0020001N1+02741+01841100831ADDAA106000091GA1001+999999999GF100991001001999999001001KA1240M+03641MA1999999098021MD1999999-0371REMSYN082AAXX  07004 82986 32995 00911 10274 20184 39802 40083 333 10364 29049 55112 59037;EQDQ01  00002PRCP06
0214829860999992002120712004-09400-038220FM-12+0252SBUF V0203201N001519999999N0100001N1+02801+01901100961ADDAA106000091AY141061AY201061GF105991001001999999001081KA1240N+02121MA1999999098141MD1999999-0241MW1051REMSYN082AAXX  07124 82986 31997 53203 10280 20190 39814 40096 70540 80008 333 20212 59024;EQDQ01  00002PRCP06
0167829860999992002120718004-09400-038220FM-12+0252SBUF V0203201N001510450019N0500001N1+03641+01191100451ADDAA106000091GF106991031011012501061071MA1999999097671MD1999999-0201REMSYN070AAXX  07184 82986 32699 63203 10364 20119 39767 40045 83167 333 59020;EQDQ01  00002PRCP06
0208829860999992002120800004-09400-038220FM-12+0252SBUF V0200901N004612200019N0020001N1+02891+01941100741ADDAA106000091GA1001+999999999GF100991001001999999001001KA1240M+03661MA1999999097941MD1999999-0081REMSYN082AAXX  08004 82986 32995 00909 10289 20194 39794 40074 333 10366 29049 55088 59008;EQDQ01  00002PRCP06
0186829860999992002120812004-09400-038220FM-12+0252SBUF V0203201N003110450019N0200001N1+02931+02141101011ADDAA106000091GF106991031011008001081081KA1240N+02331MA1999999098211MD1999999+0071REMSYN076AAXX  08124 82986 32598 63206 10293 20214 39821 40101 83188 333 20233 58007;EQDQ01  00002PRCP06
0167829860999992002120818004-09400-038220FM-12+0252SBUF V0203201N003110042019N0200001N1+03281+01821100541ADDAA106000091GF107991051021004501081001MA1999999097751MD1999999+0081REMSYN070AAXX  08184 82986 32498 73206 10328 20182 39775 40054 85280 333 58008;EQDQ01  00002PRCP06
0202829860999992002120900004-09400-038220FM-12+0252SBUF V0202301N001510090019N0020001N1+02491+02231101071ADDAY151061AY221061GF108991081081004501999999KA1240M+03331MA1999999098241MD1999999+0301MW1201REMSYN100AAXX  09004 82986 21495 82303 10249 20223 39824 40107 72052 888// 333 10333 29069 55033 58030 69901;
0190829860999992002120912004-09400-038220FM-12+0252SBUF V0202701N000510450019N0040001N1+02571+02151101331ADDAY151061AY261061GF107991041021004501081001KA1240N+02201MA1999999098481MD1999999+0211MW1031REMSYN088AAXX  09124 82986 21496 72701 10257 20215 39848 40133 70356 84280 333 20220 58021 60014;
0167829860999992002120918004-09400-038220FM-12+0252SBUF V0203201N001011050019N0200001N1+03191+02221100861ADDAA106000091GF105991021021004501051011MA1999999098051MD1999999+0301REMSYN070AAXX  09184 82986 32498 53202 10319 20222 39805 40086 82251 333 58030;EQDQ01  00002PRCP06
0202829860999992002121000004-09400-038220FM-12+0252SBUF V0201801N001510090019N0020001N1+02471+02151101371ADDAY161061AY261061GF108991081081004501999999KA1240M+03371MA1999999098511MD1999999+0271MW1621REMSYN100AAXX  10004 82986 21495 81803 10247 20215 39851 40137 76266 888// 333 10337 29075 55025 58027 69951;
0190829860999992002121012004-09400-038220FM-12+0252SBUF V0201401N001010042019N0040001N1+02601+02191101521ADDAY161061AY251061GF107991051021004501081001KA1240N+02201MA1999999098671MD1999999+0191MW1031REMSYN088AAXX  10124 82986 21496 71402 10260 20219 39867 40152 70365 85280 333 20220 58019 60034;
0167829860999992002121018004-09400-038220FM-12+0252SBUF V0200501N002610450019N0200001N1+03431+01701100991ADDAA106000091GF106991041021008001041081MA1999999098191MD1999999+0061REMSYN070AAXX  10184 82986 32598 60505 10343 20170 39819 40099 84248 333 58006;EQDQ01  00002PRCP06
0226829860999992002121100004-09400-038220FM-12+0252SBUF V0200901N004111050019N0020001N1+02771+02021101471ADDAA106000091AY111061AY211061GF105991021051017501031011KA1240M+03501MA1999999098631MD1999999+0121MW1131REMSYN094AAXX  11004 82986 31795 50908 10277 20202 39863 40147 71311 82531 333 10350 29061 55074 58012;EQDQ01  00002PRCP06
0186829860999992002121112004-09400-038220FM-12+0252SBUF V0200901N002610042019N0040001N1+02681+02061101531ADDAA106000091GF107991051021004501081001KA1240N+02261MA1999999098701MD1999999+0031REMSYN076AAXX  11124 82986 32496 70905 10268 20206 39870 40153 85280 333 20226 58003;EQDQ01  00002PRCP06
0167829860999992002121118004-09400-038220FM-12+0252SBUF V0200901N003612200019N0200001N1+03491+01611101011ADDAA106000091GF104991021011012501001081MA1999999098211MD1999999+0021REMSYN070AAXX  11184 82986 32698 40907 10349 20161 39821 40101 82108 333 58002;EQDQ01  00002PRCP06
0208829860999992002121200004-09400-038220FM-12+0252SBUF V0200901N007212200019N0020001N1+02741+01811101331ADDAA106000091GA1001+999999999GF100991001001999999001001KA1240M+03561MA1999999098501MD1999999-0131REMSYN082AAXX  12004 82986 32995 00914 10274 20181 39850 40133 333 10356 29054 55080 59013;EQDQ01  00002PRCP06
0214829860999992002121212004-09400-038220FM-12+0252SBUF V0200901N005112200019N0100001N1+02751+01871101501ADDAA106000091AY141061AY211061GF104991031011008001001091KA1240N+02101MA1999999098671MD1999999-0031MW1051REMSYN082AAXX  12124 82986 31597 40910 10275 20187 39867 40150 70541 83109 333 20210 59003;EQDQ01  00002PRCP06
0177829860999992002121218004-09400-038220FM-12+0252SBUF V0200501N003112200019N0200001N1+03481+01521100931ADDAA106000091GA1001+999999999GF100991001001999999001001MA1999999098131MD1999999-0081REMSYN064AAXX  12184 82986 32998 00506 10348 20152 39813 40093 333 59008;EQDQ01  00002PRCP06
0208829860999992002121300004-09400-038220FM-12+0252SBUF V0200901N007712200019N0020001N1+02721+01931101331ADDAA106000091GA1001+999999999GF100991001001999999001001KA1240M+03531MA1999999098501MD1999999+0001REMSYN082AAXX  13004 82986 32995 00915 10272 20193 39850 40133 333 10353 29053 55112 58000;EQDQ01  00002PRCP06
0186829860999992002121312004-09400-038220FM-12+0252SBUF V0200501N004610075019N0100001N1+02911+01901101521ADDAA106000091GF106991061021008001001001KA1240N+02251MA1999999098691MD1999999+0021REMSYN076AAXX  13124 82986 32597 60509 10291 20190 39869 40152 86200 333 20225 58002;EQDQ01  00002PRCP06
0167829860999992002121318004-09400-038220FM-12+0252SBUF V0200901N003110450019N0200001N1+03421+01511100961ADDAA106000091GF106991031011008001081001MA1999999098161MD1999999+0031REMSYN070AAXX  13184 82986 32598 60906 10342 20151 39816 40096 83180 333 58003;EQDQ01  00002PRCP06
0208829860999992002121400004-09400-038220FM-12+0252SBUF V0200901N006712200019N0020001N1+02731+01981101251ADDAA106000091GA1001+999999999GF100991001001999999001001KA1240M+03571MA1999999098431MD1999999-0071REMSYN082AAXX  14004 82986 32995 00913 10273 20198 39843 40125 333 10357 29054 55094 59007;EQDQ01  00002PRCP06
0186829860999992002121412004-09400-038220FM-12+0252SBUF V0200501N003112200019N0200001N1+02841+01991101421ADDAA106000091GF104991031011008001001091KA1240N+02281MA1999999098601MD1999999-0091REMSYN076AAXX  14124 82986 32598 40506 10284 20199 39860 40142 83109 333 20228 59009;EQDQ01  00002PRCP06
0167829860999992002121418004-09400-038220FM-12+0252SBUF V0200901N003111050019N0200001N1+03551+01711100891ADDAA106000091GF105991021011008001081021MA1999999098101MD1999999-0061REMSYN070AAXX  14184 82986 32598 50906 10355 20171 39810 40089 82182 333 59006;EQDQ01  00002PRCP06
0208829860999992002121500004-09400-038220FM-12+0252SBUF V0200901N006712200019N0020001N1+02781+02061101271ADDAA106000091GA1001+999999999GF100991001001999999001001KA1240M+03631MA1999999098451MD1999999+0021REMSYN082AAXX  15004 82986 32995 00913 10278 20206 39845 40127 333 10363 29056 55097 58002;EQDQ01  00002PRCP06
0186829860999992002121512004-09400-038220FM-12+0252SBUF V0200501N003110450019N0100001N1+02731+02031101471ADDAA106000091GF106991031011008001081011KA1240N+02401MA1999999098641MD1999999+0041REMSYN076AAXX  15124 82986 32597 60506 10273 20203 39864 40147 83181 333 20240 58004;EQDQ01  00002PRCP06
0167829860999992002121518004-09400-038220FM-12+0252SBUF V0200901N003110450019N0200001N1+03571+01681100891ADDAA106000091GF105991031011008001061001MA1999999098101MD1999999+0001REMSYN070AAXX  15184 82986 32598 50906 10357 20168 39810 40089 83160 333 58000;EQDQ01  00002PRCP06
0208829860999992002121600004-09400-038220FM-12+0252SBUF V0200901N005112200019N0020001N1+02811+02131101231ADDAA106000091GA1001+999999999GF100991001001999999001001KA1240M+03631MA1999999098401MD1999999-0051REMSYN082AAXX  16004 82986 32995 00910 10281 20213 39840 40123 333 10363 29058 55078 59005;EQDQ01  00002PRCP06
0186829860999992002121612004-09400-038220FM-12+0252SBUF V0200901N003110450019N0100001N1+02801+02031101351ADDAA106000091GF106991031011008001081001KA1240N+02361MA1999999098531MD1999999-0111REMSYN076AAXX  16124 82986 32597 60906 10280 20203 39853 40135 83180 333 20236 59011;EQDQ01  00002PRCP06
0167829860999992002121618004-09400-038220FM-12+0252SBUF V0200901N003112200019N0100001N1+03451+01761100801ADDAA106000091GF104991041011008001001001MA1999999098011MD1999999-0091REMSYN070AAXX  16184 82986 32597 40906 10345 20176 39801 40080 84100 333 59009;EQDQ01  00002PRCP06
0208829860999992002121700004-09400-038220FM-12+0252SBUF V0200901N005112200019N0020001N1+02871+02111101101ADDAA106000091GA1001+999999999GF100991001001999999001001KA1240M+03541MA1999999098271MD1999999-0131REMSYN082AAXX  17004 82986 32995 00910 10287 20211 39827 40110 333 10354 29057 55086 59013;EQDQ01  00002PRCP06
0186829860999992002121712004-09400-038220FM-12+0252SBUF V0200501N002619999999N0200001N1+02731+02001101261ADDAA106000091GF105991031001004501061021KA1240N+02341MA1999999098441MD1999999-0091REMSYN076AAXX  17124 82986 32498 50505 10273 20200 39844 40126 83062 333 20234 59009;EQDQ01  00002PRCP06
0167829860999992002121718004-09400-038220FM-12+0252SBUF V0200901N003612200019N0200001N1+03571+01461100711ADDAA106000091GF105991031011012501001061MA1999999097931MD1999999-0081REMSYN070AAXX  17184 82986 32698 50907 10357 20146 39793 40071 83106 333 59008;EQDQ01  00002PRCP06
0198829860999992002121800004-09400-038220FM-12+0252SBUF V0200901N007212200019N0020001N1+02861+02011101241ADDAA106000091GF101991001001999999001011KA1240M+03631MA1999999098321MD1999999+0051REMSYN088AAXX  18004 82986 32995 10914 10286 20201 39832 40124 80001 333 10363 29054 55087 58005;EQDQ01  00002PRCP06
0214829860999992002121812004-09400-038220FM-12+0252SBUF V0201801N000510075019N0040001N1+02691+02131101321ADDAA106000091AY121061AY221061GF108991051021008001071999KA1240N+02431MA1999999098501MD1999999+0061MW1101REMSYN082AAXX  18124 82986 31596 81801 10269 20213 39850 40132 71022 8527/ 333 20243 58006;EQDQ01  00002PRCP06
0167829860999992002121818004-09400-038220FM-12+0252SBUF V0200901N002610450019N0500001N1+03461+01781100821ADDAA106000091GF106991031011008001081011MA1999999098041MD1999999+0111REMSYN070AAXX  18184 82986 32599 60905 10346 20178 39804 40082 83181 333 58011;EQDQ01  00002PRCP06
0198829860999992002121900004-09400-038220FM-12+0252SBUF V0200901N005110450019N0010001N1+02861+02061101071ADDAA106000091GF106991031011008001081001KA1240M+03481MA1999999098261MD1999999-0061REMSYN088AAXX  19004 82986 32594 60910 10286 20206 39826 40107 83180 333 10348 29058 55051 59006;EQDQ01  00002PRCP06
0214829860999992002121912004-09400-038220FM-12+0252SBUF V0201401N001510075019N0040001N1+02811+02131101281ADDAA106000091AY141061AY211061GF106991051021008001061011KA1240N+02421MA1999999098471MD1999999-0031MW1051REMSYN082AAXX  19124 82986 31596 61403 10281 20213 39847 40128 70541 85261 333 20242 59003;EQDQ01  00002PRCP06
0167829860999992002121918004-09400-038220FM-12+0252SBUF V0200901N003610450019N0200001N1+03471+01641100921ADDAA106000091GF106991021011008001081011MA1999999098131MD1999999+0091REMSYN070AAXX  19184 82986 32598 60907 10347 20164 39813 40092 82181 333 58009;EQDQ01  00002PRCP06
0208829860999992002122000004-09400-038220FM-12+0252SBUF V0200901N005712200019N0020001N1+02771+01991101281ADDAA106000091GA1001+999999999GF100991001001999999001001KA1240M+03541MA1999999098461MD1999999+0201REMSYN082AAXX  20004 82986 32995 00911 10277 20199 39846 40128 333 10354 29057 55077 58020;EQDQ01  00002PRCP06
0186829860999992002122012004-09400-038220FM-12+0252SBUF V0200901N003610450019N0100001N1+02821+02001101611ADDAA106000091GF106991031011008001081001KA1240N+02291MA1999999098781MD1999999+0311REMSYN076AAXX  20124 82986 32597 60907 10282 20200 39878 40161 83180 333 20229 58031;EQDQ01  00002PRCP06
0167829860999992002122018004-09400-038220FM-12+0252SBUF V0200901N005112200019N0200001N1+03481+01611101071ADDAA106000091GF103991031011012501001001MA1999999098271MD1999999+0141REMSYN070AAXX  20184 82986 32698 30910 10348 20161 39827 40107 83100 333 58014;EQDQ01  00002PRCP06
0208829860999992002122100004-09400-038220FM-12+0252SBUF V0200901N006712200019N0020001N1+02851+01911101281ADDAA106000091GA1001+999999999GF100991001001999999001001KA1240M+03551MA1999999098471MD1999999+0011REMSYN082AAXX  21004 82986 32995 00913 10285 20191 39847 40128 333 10355 29052 55101 58001;EQDQ01  00002PRCP06
0186829860999992002122112004-09400-038220FM-12+0252SBUF V0201401N003110450019N0100001N1+02751+01951101621ADDAA106000091GF106991031011008001081001KA1240N+02211MA1999999098791MD1999999+0011REMSYN076AAXX  21124 82986 32597 61406 10275 20195 39879 40162 83180 333 20221 58001;EQDQ01  00002PRCP06
0167829860999992002122118004-09400-038220FM-12+0252SBUF V0200901N003112200019N0500001N1+03461+01551101001ADDAA106000091GF102991021001012501041001MA1999999098201MD1999999+0071REMSYN070AAXX  21184 82986 32699 20906 10346 20155 39820 40100 82040 333 58007;EQDQ01  00002PRCP06
0208829860999992002122200004-09400-038220FM-12+0252SBUF V0200901N006212200019N0020001N1+02901+01871101171ADDAA106000091GA1001+999999999GF100991001001999999001001KA1240M+03531MA1999999098361MD1999999-0111REMSYN082AAXX  22004 82986 32995 00912 10290 20187 39836 40117 333 10353 29050 55102 59011;EQDQ01  00002PRCP06
0208829860999992002122300004-09400-038220FM-12+0252SBUF V0200901N006712200019N0020001N1+02911+02041101051ADDAA106000091GA1001+999999999GF100991001001999999001001KA1240M+03611MA1999999098241MD1999999-0121REMSYN082AAXX  23004 82986 32995 00913 10291 20204 39824 40105 333 10361 29055 55100 59012;EQDQ01  00002PRCP06
0214829860999992002122312004-09400-038220FM-12+0252SBUF V0203201N001512200019N0100001N1+02821+02151101211ADDAA106000091AY141061AY211061GF103991031001012501061001KA1240N+02321MA1999999098401MD1999999-0161MW1051REMSYN082AAXX  23124 82986 31697 33203 10282 20215 39840 40121 70541 83060 333 20232 59016;EQDQ01  00002PRCP06
0167829860999992002122318004-09400-038220FM-12+0252SBUF V0201401N001512200019N0500001N1+03631+01531100751ADDAA106000091GF104991021011008001061001MA1999999097971MD1999999-0091REMSYN070AAXX  23184 82986 32599 41403 10363 20153 39797 40075 82160 333 59009;EQDQ01  00002PRCP06
0208829860999992002122400004-09400-038220FM-12+0252SBUF V0200901N006212200019N0020001N1+02941+01941101051ADDAA106000091GA1001+999999999GF100991001001999999001001KA1240M+03711MA1999999098251MD1999999+0011REMSYN082AAXX  24004 82986 32995 00912 10294 20194 39825 40105 333 10371 29051 55100 58001;EQDQ01  00002PRCP06
0214829860999992002122412004-09400-038220FM-12+0252SBUF V0203201N001512200019N0040001N1+02841+02191101251ADDAA106000091AY101061AY221061GF103991011011008001061011KA1240N+02341MA1999999098441MD1999999+0041MW1051REMSYN082AAXX  24124 82986 31596 33203 10284 20219 39844 40125 70502 81161 333 20234 58004;EQDQ01  00002PRCP06
0167829860999992002122418004-09400-038220FM-12+0252SBUF V0203201N001010450019N0500001N1+03631+01741100691ADDAA106000091GF106991021011008001081021MA1999999097911MD1999999-0061REMSYN070AAXX  24184 82986 32599 63202 10363 20174 39791 40069 82182 333 59006;EQDQ01  00002PRCP06
0208829860999992002122500004-09400-038220FM-12+0252SBUF V0200901N005112200019N0020001N1+03061+02171100941ADDAA106000091GA1001+999999999GF100991001001999999001001KA1240M+03711MA1999999098151MD1999999-0101REMSYN082AAXX  25004 82986 32995 00910 10306 20217 39815 40094 333 10371 29055 55107 59010;EQDQ01  00002PRCP06
0186829860999992002122512004-09400-038220FM-12+0252SBUF V0203201N003112200019N0100001N1+03001+02221101181ADDAA106000091GF103991021011008001031091KA1240N+02481MA1999999098391MD1999999-0051REMSYN076AAXX  25124 82986 32597 33206 10300 20222 39839 40118 82139 333 20248 59005;EQDQ01  00002PRCP06
0167829860999992002122518004-09400-038220FM-12+0252SBUF V0203201N003110450019N0040001N1+03171+01961100871ADDAA106000091GF106991041021004501081001MA1999999098051MD1999999+0161REMSYN070AAXX  25184 82986 32496 63206 10317 20196 39805 40087 84280 333 58016;EQDQ01  00002PRCP06
0198829860999992002122600004-09400-038220FM-12+0252SBUF V0200901N002110450019N0005001N1+02881+02181101111ADDAA106000091GF107991041021004501081001KA1240M+03421MA1999999098311MD1999999+0161REMSYN088AAXX  26004 82986 32493 70904 10288 20218 39831 40111 84280 333 10342 29061 55073 58016;EQDQ01  00002PRCP06
0190829860999992002122612004-09400-038220FM-12+0252SBUF V0203201N003110450019N0040001N1+02811+02311101391ADDAY161061AY251061GF106991041021004501081011KA1240N+02311MA1999999098571MD1999999+0181MW1031REMSYN088AAXX  26124 82986 21496 63206 10281 20231 39857 40139 70365 84281 333 20231 58018 69954;
0195829860999992002122618004-09400-038220FM-12+0252SBUF V0203201N002610090019N0040001N1+03121+02221100861ADDAA106000091AY121061AY221061GF108991081081004501999999MA1999999098051MD1999999+0001MW1151REMSYN076AAXX  26184 82986 31496 83205 10312 20222 39805 40086 71522 888// 333 58000;EQDQ01  00002PRCP06
0208829860999992002122700004-09400-038220FM-12+0252SBUF V0200901N001512200019N0020001N1+02441+02131101241ADDAA106000091GA1001+999999999GF100991001001999999001001KA1240M+03221MA1999999098401MD1999999+0091REMSYN082AAXX  27004 82986 32995 00903 10244 20213 39840 40124 333 10322 29075 55032 58009;EQDQ01  00002PRCP06
0190829860999992002122712004-09400-038220FM-12+0252SBUF V0202301N002610450019N0040001N1+02421+02111101511ADDAY161061AY251061GF107991041021004501081001KA1240N+02281MA1999999098641MD1999999+0071MW1031REMSYN088AAXX  27124 82986 21496 72305 10242 20211 39864 40151 70365 84280 333 20228 58007 69994;
0167829860999992002122718004-09400-038220FM-12+0252SBUF V0203201N001510090019N0040001N1+02661+02041101201ADDAA106000091GF108991081081004501999999MA1999999098351MD1999999+0301REMSYN070AAXX  27184 82986 32496 83203 10266 20204 39835 40120 888// 333 58030;EQDQ01  00002PRCP06
0208829860999992002122800004-09400-038220FM-12+0252SBUF V0200901N003112200019N0020001N1+02531+01911101291ADDAA106000091GA1001+999999999GF100991001001999999001001KA1240M+02731MA1999999098431MD1999999+0031REMSYN082AAXX  28004 82986 32995 00906 10253 20191 39843 40129 333 10273 29072 55000 58003;EQDQ01  00002PRCP06
0186829860999992002122812004-09400-038220FM-12+0252SBUF V0203201N001010042019N0040001N1+02701+02111101291ADDAA106000091GF107991051021004501081001KA1240N+02241MA1999999098451MD1999999-0191REMSYN076AAXX  28124 82986 32496 73202 10270 20211 39845 40129 85280 333 20224 59019;EQDQ01  00002PRCP06
0167829860999992002122818004-09400-038220FM-12+0252SBUF V0200501N002610450019N0100001N1+03301+01681100851ADDAA106000091GF107991011011008001051001MA1999999098041MD1999999-0311REMSYN070AAXX  28184 82986 32597 70505 10330 20168 39804 40085 81150 333 59031;EQDQ01  00002PRCP06
0208829860999992002122900004-09400-038220FM-12+0252SBUF V0200901N006712200019N0020001N1+02571+02131101101ADDAA106000091GA1001+999999999GF100991001001999999001001KA1240M+03371MA1999999098281MD1999999-0151REMSYN082AAXX  29004 82986 32995 00913 10257 20213 39828 40110 333 10337 29061 55013 59015;EQDQ01  00002PRCP06
0156829860999992002122912004-09400-038220FM-12+0252SBUF V0201801N001510450019N0200001N1+02741+01841101311ADDGF106991041011008001081011KA1240N+02361MA1999999098481MD1999999+0031REMSYN076AAXX  29124 82986 21598 61803 10274 20184 39848 40131 84181 333 20236 58003;
0167829860999992002122918004-09400-038220FM-12+0252SBUF V0200901N004112200019N0200001N1+03451+01581100801ADDAA106000091GF106991031011008001001061MA1999999098011MD1999999-0031REMSYN070AAXX  29184 82986 32598 60908 10345 20158 39801 40080 83106 333 59003;EQDQ01  00002PRCP06
0193829860999992002123000004-09400-038220FM-12+0252SBUF V0200901N006212200019N0020001N1+02751+02021101231ADDAA106000091GA1001+999999999GF100991001001999999001001KA1240M+03511MA1999999098401REMSYN081AAXX  30004 82986 32995 00912 10275 20202 39840 40123 333 10351 29055 55064 5812;EQDQ01  00002PRCP06
0186829860999992002123012004-09400-038220FM-12+0252SBUF V0200901N003111050019N0100001N1+02711+01911101441ADDAA106000091GF106991031011008001001081KA1240N+02221MA1999999098611MD1999999+0331REMSYN076AAXX  30124 82986 32597 60906 10271 20191 39861 40144 83108 333 20222 58033;EQDQ01  00002PRCP06
0167829860999992002123018004-09400-038220FM-12+0252SBUF V0200901N002610450019N0200001N1+03341+01671101001ADDAA106000091GF106991021011008001081011MA1999999098191MD1999999+0181REMSYN070AAXX  30184 82986 32598 60905 10334 20167 39819 40100 82181 333 58018;EQDQ01  00002PRCP06
0208829860999992002123100004-09400-038220FM-12+0252SBUF V0200901N006212200019N0020001N1+02731+01981101321ADDAA106000091GA1001+999999999GF100991001001999999001001KA1240M+03451MA1999999098491MD1999999+0091REMSYN082AAXX  31004 82986 32995 00912 10273 20198 39849 40132 333 10345 29057 55067 58009;EQDQ01  00002PRCP06
0186829860999992002123112004-09400-038220FM-12+0252SBUF V0200901N004112200019N0100001N1+02761+01891101451ADDAA106000091GF103991031011008001001001KA1240N+02201MA1999999098621MD1999999+0011REMSYN076AAXX  31124 82986 32597 30908 10276 20189 39862 40145 83100 333 20220 58001;EQDQ01  00002PRCP06
0167829860999992002123118004-09400-038220FM-12+0252SBUF V0200901N003110450019N0200001N1+03361+01651101051ADDAA106000091GF106991041021004501081001MA1999999098241MD1999999+0051REMSYN070AAXX  31184 82986 32498 60906 10336 20165 39824 40105 84280 333 58005;EQDQ01  00002PRCP06
