0183830960999992002010218004-10910-037050FM-12+000699999V0200901N045820120019N0020001N1+02791+02401100921ADDAA199000091GF106991061051012501001001MA1999999100851MD1999999-0121REMSYN070AAXX  02184 83096 32695 60989 10279 20240 30085 40092 86500 333 59012;EQDQ01+004583WOSPD Q02  00002PRCP99
0167830960999992002010318004-10910-037050FM-12+000699999V0200901N003119999999N0020001N1+02761+02321101021ADDAA199000091GF106991061001012501071001MA1999999100951MD1999999+0101REMSYN070AAXX  03184 83096 32695 60906 10276 20232 30095 40102 86070 333 58010;EQDQ01  00002PRCP99
0198830960999992002010400004-10910-037050FM-12+000699999V0200501N003119999999N0020001N1+02651+02481101231ADDAA199000091GF106991061001012501071001KA1240M+02971MA1999999101161MD1999999+0081REMSYN088AAXX  04004 83096 32695 60506 10265 20248 30116 40123 86070 333 10297 29087 55000 58008;EQDQ01  00002PRCP99
0186830960999992002010412004-10910-037050FM-12+000699999V0203601N001519999999N0020001N1+02691+02461101301ADDAA199000091GF106991061001012501071001KA1240N+02281MA1999999101231MD1999999-0071REMSYN076AAXX  04124 83096 32695 63603 10269 20246 30123 40130 86070 333 20228 59007;EQDQ01  00002PRCP99
0182830960999992002010418004-10910-037050FM-12+000699999V0201401N000519999999N0020001N1+02471+02231101141ADDAA106008991AY161061AY261061GF106991061001012501071001MA1999999101071MD1999999+0121MW1211REMSYN082AAXX  04184 83096 21695 61401 10247 20223 30107 40114 72166 86070 333 58012 60091;
0213830960999992002010500004-10910-037050FM-12+000699999V0200501N000519999999N0020001N1+02491+02471101371ADDAA106000591AY161061AY261061GF106991061001012501071001KA1240M+03081MA1999999101301MD1999999+0141MW1211REMSYN100AAXX  05004 83096 21695 60501 10249 20247 30130 40137 72166 86070 333 10308 29092 55002 58014 69961;
0173830960999992002010512004-10910-037050FM-12+000699999V0203601N001512200019N0020001N1+02791+02341101331ADDAA124008991GF103991031051012501001001KA1240N+02331MA1999999101261MD1999999+0031REMSYN082AAXX  05124 83096 22695 33603 10279 20234 30126 40133 83500 333 20233 58003 60094;
0182830960999992002010518004-10910-037050FM-12+000699999V0203601N001510075019N0010001N1+02671+02331101091ADDAA106001091AY161061AY261061GF106991061051008001001001MA1999999101021MD1999999-0051MW1601REMSYN082AAXX  05184 83096 21594 63603 10267 20233 30102 40109 76066 86500 333 59005 60011;
0213830960999992002010600004-10910-037050FM-12+000699999V0200501N003110075019N0010001N1+02561+02291101191ADDAA106015091AY161061AY261061GF108991081071008001999999KA1240M+02951MA1999999101121MD1999999-0181MW1601REMSYN100AAXX  06004 83096 21594 80506 10256 20229 30112 40119 76066 887// 333 10295 29082 55036 59018 60151;
0201830960999992002010612004-10910-037050FM-12+000699999V0200501N001510042019N0190001N1+02491+02291101081ADDAA124026991AY161061AY261061GF108991081071004501999999KA1240N+02411MA1999999101011MD1999999-0011MW1211REMSYN088AAXX  06124 83096 21469 80503 10249 20229 30101 40108 72166 887// 333 20241 59001 60274;
0182830960999992002010618004-10910-037050FM-12+000699999V0200901N004110075019N0010001N1+02431+02251101021ADDAA106001091AY161061AY261061GF108991081071008001999999MA1999999100951MD1999999-0071MW1601REMSYN082AAXX  06184 83096 21594 80908 10243 20225 30095 40102 76066 887// 333 59007 60011;
0179830960999992002010700004-10910-037050FM-12+000699999V0200501N003610120019N0020001N1+02471+02251101121ADDAA199000021GF105991051051012501001001KA1240M+02811MA1999999101051MD1999999-0071REMSYN088AAXX  07004 83096 32695 50507 10247 20225 30105 40112 85500 333 10281 29088 55000 59007;
0201830960999992002010712004-10910-037050FM-12+000699999V0200501N001519999999N0020001N1+02281+02161101421ADDAA124007191AY161061AY261061GF108991081001012501071001KA1240N+02221MA1999999101351MD1999999+0341MW1611REMSYN088AAXX  07124 83096 21695 80503 10228 20216 30135 40142 76166 88070 333 20222 58034 60074;
0182830960999992002010718004-10910-037050FM-12+000699999V0200901N002112200019N0020001N1+02811+02501101121ADDAA106000191AY161061AY261061GF104991041001012501021001MA1999999101051MD1999999+0101MW1201REMSYN082AAXX  07184 83096 21695 40904 10281 20250 30105 40112 72066 84020 333 58010 69921;
0179830960999992002010800004-10910-037050FM-12+000699999V0200901N003110120019N0020001N1+02281+99999101311ADDAA199000021GF106991061051012501001001KA1240M+02911MA1999999101241MD1999999+0191REMSYN088AAXX  08004 83096 32695 60906 10228 20231 30124 40131 86500 333 10291 29088 55054 58019;
0173830960999992002010812004-10910-037050FM-12+000699999V0201401N001512200019N0020001N1+02791+02521101341ADDAA124000191GF103991021011012501001011KA1240N+02261MA1999999101271MD1999999-0081REMSYN082AAXX  08124 83096 22695 31403 10279 20252 30127 40134 82101 333 20226 59008 69924;
0167830960999992002010818004-10910-037050FM-12+000699999V0201401N003112200019N0020001N1+02811+02461101091ADDAA199000091GF103991031011012501001001MA1999999101021MD1999999-0031REMSYN070AAXX  08184 83096 32695 31406 10281 20246 30102 40109 83100 333 59003;EQDQ01  00002PRCP99
0213830960999992002010900004-10910-037050FM-12+000699999V0200901N003110075019N0010001N1+02511+02471101311ADDAA106007991AY161061AY261061GF108991081051008001999999KA1240M+02981MA1999999101241MD1999999+0001MW1601REMSYN100AAXX  09004 83096 21594 80906 10251 20247 30124 40131 76066 885// 333 10298 29090 55097 58000 60081;
0173830960999992002010912004-10910-037050FM-12+000699999V0201401N002112200019N0010001N1+02791+02341101311ADDAA124007991GF103991031051012501001001KA1240N+02331MA1999999101241MD1999999-0031REMSYN082AAXX  09124 83096 22694 31404 10279 20234 30124 40131 83500 333 20233 59003 60084;
0167830960999992002010918004-10910-037050FM-12+000699999V0201401N003112200019N0020001N1+02711+02301101231ADDAA199000091GF103991031051012501001001MA1999999101161MD1999999+0141REMSYN070AAXX  09184 83096 32695 31406 10271 20230 30116 40123 83500 333 58014;EQDQ01  00002PRCP99
0198830960999992002011000004-10910-037050FM-12+000699999V0200901N002112200019N0020001N1+02591+02371101331ADDAA199000091GF102991021051012501001001KA1240M+02871MA1999999101261MD1999999+0021REMSYN088AAXX  10004 83096 32695 20904 10259 20237 30126 40133 82500 333 10287 29083 55065 58002;EQDQ01  00002PRCP99
0201830960999992002011012004-10910-037050FM-12+000699999V0200901N002110120019N0020001N1+02651+02291101521ADDAA124002091AY161061AY261061GF105991051051012501001001KA1240N+02361MA1999999101451MD1999999+0211MW1201REMSYN088AAXX  10124 83096 21695 50904 10265 20229 30145 40152 72066 85500 333 20236 58021 60024;
0182830960999992002011018004-10910-037050FM-12+000699999V0200901N003612200019N0020001N1+02671+02291101331ADDAA106000391AY161061AY261061GF103991031051008001001001MA1999999101261MD1999999-0101MW1601REMSYN082AAXX  10184 83096 21595 30907 10267 20229 30126 40133 76066 83500 333 59010 69931;
0213830960999992002011100004-10910-037050FM-12+000699999V0200901N002112200019N0020001N1+02571+02351101451ADDAA106004191AY161061AY261061GF102991021051008001001001KA1240M+02911MA1999999101381MD1999999+0121MW1601REMSYN100AAXX  11004 83096 21595 20904 10257 20235 30138 40145 76066 82500 333 10291 29084 55092 58012 60041;
0182830960999992002011118004-10910-037050FM-12+000699999V0200901N002610120019N0020001N1+02671+02371101431ADDAA106000591AY161061AY261061GF106991061071012501001001MA1999999101361MD1999999+0101MW1211REMSYN082AAXX  11184 83096 21695 60905 10267 20237 30136 40143 72166 86700 333 58010 69941;
0179830960999992002011200004-10910-037050FM-12+000699999V0200901N002610120019N0020001N1+02651+02391101651ADDAA199000021GF105991051051012501001001KA1240M+02771MA1999999101581MD1999999+0201REMSYN088AAXX  12004 83096 32695 50905 10265 20239 30158 40165 85500 333 10277 29088 55004 58020;
0173830960999992002011212004-10910-037050FM-12+000699999V0200901N003112200019N0020001N1+02831+02311101631ADDAA124000591GF102991021001012501001011KA1240N+02241MA1999999101561MD1999999-0131REMSYN082AAXX  12124 83096 22695 20906 10283 20231 30156 40163 82001 333 20224 59013 69944;
0167830960999992002011218004-10910-037050FM-12+000699999V0201401N003612200019N0020001N1+02811+02581101411ADDAA199000091GF104991021011012501001011MA1999999101341MD1999999-0021REMSYN070AAXX  12184 83096 32695 41407 10281 20258 30134 40141 82101 333 59002;EQDQ01  00002PRCP99
0213830960999992002011300004-10910-037050FM-12+000699999V0201401N002112200019N0020001N1+02631+02311101391ADDAA106000191AY161061AY261061GF102991021051012501001001KA1240M+02991MA1999999101321MD1999999-0161MW1201REMSYN100AAXX  13004 83096 21695 21404 10263 20231 30132 40139 72066 82500 333 10299 29081 55104 59016 69921;
0201830960999992002011312004-10910-037050FM-12+000699999V0200901N002112200019N0020001N1+02831+02331101391ADDAA124001091AY161061AY261061GF102991021011012501001001KA1240N+02251MA1999999101321MD1999999-0241MW1201REMSYN088AAXX  13124 83096 21695 20904 10283 20233 30132 40139 72066 82100 333 20225 59024 60014;
0148830960999992002011318004-10910-037050FM-12+000699999V0201401N002112200019N0020001N1+02851+02311101211ADDAA199000021GF102991021011012501001001MA1999999101141MD1999999-0201REMSYN070AAXX  13184 83096 32695 21404 10285 20231 30114 40121 82100 333 59020;
0179830960999992002011400004-10910-037050FM-12+000699999V0200901N002612200019N0020001N1+02661+02241101431ADDAA199000021GF102991021011012501001001KA1240M+02971MA1999999101361MD1999999+0041REMSYN088AAXX  14004 83096 32695 20905 10266 20224 30136 40143 82100 333 10297 29076 55109 58004;
0186830960999992002011412004-10910-037050FM-12+000699999V0200901N001512200019N0020001N1+02691+02311101291ADDAA199000091GF102991021051012501001001KA1240N+02301MA1999999101221MD1999999-0101REMSYN076AAXX  14124 83096 32695 20903 10269 20231 30122 40129 82500 333 20230 59010;EQDQ01  00002PRCP99
0167830960999992002011418004-10910-037050FM-12+000699999V0200901N003112200019N0020001N1+02891+02411101071ADDAA199000091GF103991031001012501001011MA1999999101001MD1999999-0141REMSYN070AAXX  14184 83096 32695 30906 10289 20241 30100 40107 83001 333 59014;EQDQ01  00002PRCP99
0198830960999992002011500004-10910-037050FM-12+000699999V0200901N003112200019N0020001N1+02691+02331101071ADDAA199000091GF103991031051012501001001KA1240M+02971MA1999999101001MD1999999-0361REMSYN088AAXX  15004 83096 32695 30906 10269 20233 30100 40107 83500 333 10297 29079 55092 59036;EQDQ01  00002PRCP99
0160830960999992002011600004-10910-037050FM-12+000699999V0203201N001510075019N0020001N1+02341+02291100961ADDAY161061AY261061GF107991999051008001001001MA1999999100891MW1211REMSYN066AAXX  16004 83096 21595 73203 10234 20229 30089 40096 72166 85500;EQDQ01+000052SCOTLC
0201830960999992002011612004-10910-037050FM-12+000699999V0200501N002110120019N0020001N1+02651+02461101151ADDAA124038191AY161061AY261061GF106991061051012501001001KA1240N+02161MA1999999101081MD1999999+0141MW1211REMSYN088AAXX  16124 83096 21695 60504 10265 20246 30108 40115 72166 86500 333 20216 58014 60384;
0182830960999992002011618004-10910-037050FM-12+000699999V0200901N001510075019N0020001N1+02651+02501100951ADDAA106007991AY161061AY261061GF108991081051008001999999MA1999999100881MD1999999+0241MW1601REMSYN082AAXX  16184 83096 21595 80903 10265 20250 30088 40095 76066 885// 333 58024 60081;
0213830960999992002011700004-10910-037050FM-12+000699999V0203201N002110120019N0020001N1+02511+02421101161ADDAA106001091AY161061AY261061GF106991061051012501001001KA1240M+02751MA1999999101091MD1999999+0201MW1211REMSYN100AAXX  17004 83096 21695 63204 10251 20242 30109 40116 72166 86500 333 10275 29092 55000 58020 60011;
0173830960999992002011712004-10910-037050FM-12+000699999V0200901N002112200019N0020001N1+02711+02411101101ADDAA124008991GF104991041051012501001001KA1240N+02201MA1999999101031MD1999999-0051REMSYN082AAXX  17124 83096 22695 40904 10271 20241 30103 40110 84500 333 20220 59005 60094;
0167830960999992002011718004-10910-037050FM-12+000699999V0200901N004112200019N0020001N1+02851+02401101011ADDAA199000091GF103991031001012501001011MA1999999100941MD1999999+0061REMSYN070AAXX  17184 83096 32695 30908 10285 20240 30094 40101 83001 333 58006;EQDQ01  00002PRCP99
0198830960999992002011800004-10910-037050FM-12+000699999V0200901N003612200019N0020001N1+02651+02421101081ADDAA199000091GF102991021011012501001001KA1240M+02961MA1999999101011MD1999999-0081REMSYN088AAXX  18004 83096 32695 20907 10265 20242 30101 40108 82100 333 10296 29084 55055 59008;EQDQ01  00002PRCP99
0186830960999992002011812004-10910-037050FM-12+000699999V0200901N002112200019N0020001N1+02791+02401101311ADDAA199000091GF103991021051012501011001KA1240N+02411MA1999999101241MD1999999+0211REMSYN076AAXX  18124 83096 32695 30904 10279 20240 30124 40131 82510 333 20241 58021;EQDQ01  00002PRCP99
0167830960999992002011818004-10910-037050FM-12+000699999V0200901N003110120019N0020001N1+02711+02301101181ADDAA199000091GF105991051051012501001001MA1999999101111MD1999999+0171REMSYN070AAXX  18184 83096 32695 50906 10271 20230 30111 40118 85500 333 58017;EQDQ01  00002PRCP99
0198830960999992002011900004-10910-037050FM-12+000699999V0200901N002612200019N0020001N1+02531+02231101211ADDAA199000091GF102991021051012501001001KA1240M+02991MA1999999101141MD1999999+0131REMSYN088AAXX  19004 83096 32695 20905 10253 20223 30114 40121 82500 333 10299 29081 55059 58013;EQDQ01  00002PRCP99
0201830960999992002011912004-10910-037050FM-12+000699999V0200501N001510120019N0020001N1+02531+02441101341ADDAA124002091AY161061AY261061GF106991061051012501001001KA1240N+02351MA1999999101271MD1999999+0031MW1211REMSYN088AAXX  19124 83096 21695 60503 10253 20244 30127 40134 72166 86500 333 20235 58003 60024;
0148830960999992002011918004-10910-037050FM-12+000699999V0201401N003112200019N0020001N1+02741+02301101121ADDAA199000021GF102991021011012501001001MA1999999101051MD1999999-0061REMSYN070AAXX  19184 83096 32695 21406 10274 20230 30105 40112 82100 333 59006;
0167830960999992002012000004-10910-037050FM-12+000699999V0200901N002610120019N0020001N1+02591+02441101311ADDAA199000021GF105991051051012501001001KA1240M+02981MA1999999101241MD1999999+0161REMSYN076AAXX  20004 83096 32695 50905 10259 20244 30124 40131 85500 333 10298 58016;
0173830960999992002012012004-10910-037050FM-12+000699999V0200901N002612200019N0020001N1+02831+02481101471ADDAA124008991GF102991021011012501001001KA1240N+02331MA1999999101401MD1999999+0131REMSYN082AAXX  20124 83096 22695 20905 10283 20248 30140 40147 82100 333 20233 58013 60094;
0167830960999992002012018004-10910-037050FM-12+000699999V0200901N003612200019N0020001N1+02891+02481101271ADDAA199000091GF102991021011012501001001MA1999999101201MD1999999+0151REMSYN070AAXX  20184 83096 32695 20907 10289 20248 30120 40127 82100 333 58015;EQDQ01  00002PRCP99
0198830960999992002012100004-10910-037050FM-12+000699999V0200901N003112200019N0020001N1+02701+02411101381ADDAA199000091GF102991021011012501001001KA1240M+03011MA1999999101311MD1999999+0031REMSYN088AAXX  21004 83096 32695 20906 10270 20241 30131 40138 82100 333 10301 29082 55107 58003;EQDQ01  00002PRCP99
0201830960999992002012112004-10910-037050FM-12+000699999V0201401N002110120019N0020001N1+02691+02391101391ADDAA124000591AY161061AY261061GF105991051051012501001001KA1240N+02241MA1999999101321MD1999999-0081MW1201REMSYN088AAXX  21124 83096 21695 51404 10269 20239 30132 40139 72066 85500 333 20224 59008 69944;
0148830960999992002012118004-10910-037050FM-12+000699999V0200901N003110120019N0020001N1+02791+02271101381ADDAA199000021GF106991061051012501001001MA1999999101311MD1999999+0111REMSYN070AAXX  21184 83096 32695 60906 10279 20227 30131 40138 86500 333 58011;
0179830960999992002012200004-10910-037050FM-12+000699999V0200901N003112200019N0020001N1+02611+02311101471ADDAA199000021GF104991041051012501001001KA1240M+02951MA1999999101401MD1999999+0091REMSYN088AAXX  22004 83096 32695 40906 10261 20231 30140 40147 84500 333 10295 29081 55019 58009;
0201830960999992002012212004-10910-037050FM-12+000699999V0200901N002610120019N0020001N1+02781+02211101681ADDAA124002091AY161061AY261061GF106991061001012501021001KA1240N+02351MA1999999101611MD1999999+0291MW1211REMSYN088AAXX  22124 83096 21695 60905 10278 20221 30161 40168 72166 86020 333 20235 58029 60024;
0148830960999992002012218004-10910-037050FM-12+000699999V0201401N003110450019N0020001N1+02821+02201101471ADDAA199000021GF105991021011012501021001MA1999999101401MD1999999+0091REMSYN070AAXX  22184 83096 32695 51406 10282 20220 30140 40147 82120 333 58009;
0179830960999992002012300004-10910-037050FM-12+000699999V0200901N002612200019N0020001N1+02671+02221101471ADDAA199000021GF102991021011012501001001KA1240M+03001MA1999999101401MD1999999+0001REMSYN088AAXX  23004 83096 32695 20905 10267 20222 30140 40147 82100 333 10300 29073 55068 58000;
0202830960999992002012312004-10910-037050FM-12+000699999V0200901N002110120019N0020001N1+02891+02251101531ADDAA199000091GF106991999011012501001001KA1240N+02301MA1999999101461MD1999999+0151REMSYN076AAXX  23124 83096 32695 60904 10289 20225 30146 40153 85100 333 20230 58015;EQDQ01+000052SCOTLCQ02  00002PRCP99
0167830960999992002012318004-10910-037050FM-12+000699999V0201401N003112200019N0020001N1+02811+02201101431ADDAA199000091GF102991021011012501001001MA1999999101361MD1999999-0041REMSYN070AAXX  23184 83096 32695 21406 10281 20220 30136 40143 82100 333 59004;EQDQ01  00002PRCP99
0198830960999992002012400004-10910-037050FM-12+000699999V0200901N002612200019N0020001N1+02671+02391101431ADDAA199000091GF102991021011012501001001KA1240M+02991MA1999999101361MD1999999-0041REMSYN088AAXX  24004 83096 32695 20905 10267 20239 30136 40143 82100 333 10299 29077 55090 59004;EQDQ01  00002PRCP99
0186830960999992002012412004-10910-037050FM-12+000699999V0200901N001010120019N0020001N1+02871+02311101501ADDAA199000091GF106991061011012501001001KA1240N+02301MA1999999101431MD1999999-0031REMSYN076AAXX  24124 83096 32695 60902 10287 20231 30143 40150 86100 333 20230 59003;EQDQ01  00002PRCP99
0167830960999992002012418004-10910-037050FM-12+000699999V0200901N003110120019N0020001N1+02871+02581101311ADDAA199000091GF105991051011012501001001MA1999999101241MD1999999-0121REMSYN070AAXX  24184 83096 32695 50906 10287 20258 30124 40131 85100 333 59012;EQDQ01  00002PRCP99
0198830960999992002012500004-10910-037050FM-12+000699999V0200901N002612200019N0020001N1+02711+02431101371ADDAA199000091GF102991021001012501031001KA1240M+03051MA1999999101301MD1999999-0061REMSYN088AAXX  25004 83096 32695 20905 10271 20243 30130 40137 82030 333 10305 29081 55074 59006;EQDQ01  00002PRCP99
0186830960999992002012512004-10910-037050FM-12+000699999V0200901N003112200019N0020001N1+02831+02361101371ADDAA199000091GF104991041051012501001001KA1240N+02281MA1999999101301MD1999999-0131REMSYN076AAXX  25124 83096 32695 40906 10283 20236 30130 40137 84500 333 20228 59013;EQDQ01  00002PRCP99
0182830960999992002012518004-10910-037050FM-12+000699999V0200901N004112200019N0020001N1+02891+02461101271ADDAA106000891AY161061AY261061GF103991031011012501001001MA1999999101201MD1999999-0041MW1201REMSYN082AAXX  25184 83096 21695 30908 10289 20246 30120 40127 72066 83100 333 59004 69981;
0179830960999992002012600004-10910-037050FM-12+000699999V0200901N003112200019N0020001N1+02691+02331101371ADDAA199000021GF103991031051012501001001KA1240M+02991MA1999999101301MD1999999+0001REMSYN088AAXX  26004 83096 32695 30906 10269 20233 30130 40137 83500 333 10299 29079 55095 58000;
0173830960999992002012612004-10910-037050FM-12+000699999V0200901N002612200019N0020001N1+02841+02311101531ADDAA124000891GF102991021011012501001001KA1240N+02411MA1999999101461MD1999999+0161REMSYN082AAXX  26124 83096 22695 20905 10284 20231 30146 40153 82100 333 20241 58016 69984;
0167830960999992002012618004-10910-037050FM-12+000699999V0200901N002612200019N0020001N1+02891+02371101401ADDAA199000091GF101991011011012501001001MA1999999101331MD1999999+0131REMSYN070AAXX  26184 83096 32695 10905 10289 20237 30133 40140 81100 333 58013;EQDQ01  00002PRCP99
0198830960999992002012700004-10910-037050FM-12+000699999V0200901N003612200019N0020001N1+02691+02391101371ADDAA199000091GF103991031051012501001001KA1240M+03011MA1999999101301MD1999999+0001REMSYN088AAXX  27004 83096 32695 30907 10269 20239 30130 40137 83500 333 10301 29078 55107 58000;EQDQ01  00002PRCP99
0186830960999992002012712004-10910-037050FM-12+000699999V0200901N002112200019N0020001N1+02891+02321101471ADDAA199000091GF104991041011012501001001KA1240N+02511MA1999999101401MD1999999-0061REMSYN076AAXX  27124 83096 32695 40904 10289 20232 30140 40147 84100 333 20251 59006;EQDQ01  00002PRCP99
0167830960999992002012718004-10910-037050FM-12+000699999V0200901N002610120019N0020001N1+02891+02371101231ADDAA199000091GF106991061011012501001001MA1999999101161MD1999999-0171REMSYN070AAXX  27184 83096 32695 60905 10289 20237 30116 40123 86100 333 59017;EQDQ01  00002PRCP99
0198830960999992002012800004-10910-037050FM-12+000699999V0200901N002612200019N0020001N1+02751+02251101261ADDAA199000091GF102991021011012501001001KA1240M+03011MA1999999101191MD1999999-0111REMSYN088AAXX  28004 83096 32695 20905 10275 20225 30119 40126 82100 333 10301 29073 55118 59011;EQDQ01  00002PRCP99
0201830960999992002012812004-10910-037050FM-12+000699999V0201401N000510075019N0020001N1+02591+02441101361ADDAA124000891AY161061AY261061GF106991061051008001001001KA1240N+02281MA1999999101291MD1999999-0111MW1601REMSYN088AAXX  28124 83096 21595 61401 10259 20244 30129 40136 76066 86500 333 20228 59011 69984;
0148830960999992002012818004-10910-037050FM-12+000699999V0200901N003112200019N0020001N1+02871+02281101141ADDAA199000021GF101991011011012501001001MA1999999101071MD1999999-0091REMSYN070AAXX  28184 83096 32695 10906 10287 20228 30107 40114 81100 333 59009;
0179830960999992002012900004-10910-037050FM-12+000699999V0200901N002612200019N0020001N1+02631+02181101131ADDAA199000021GF101991011011012501001001KA1240M+02971MA1999999101061MD1999999-0131REMSYN088AAXX  29004 83096 32695 10905 10263 20218 30106 40113 81100 333 10297 29078 55075 59013;
0201830960999992002012912004-10910-037050FM-12+000699999V0200901N001512200019N0020001N1+02651+02271101311ADDAA124000391AY161061AY261061GF102991021011012501001001KA1240N+02201MA1999999101241MD1999999-0051MW1201REMSYN088AAXX  29124 83096 21695 20903 10265 20227 30124 40131 72066 82100 333 20220 59005 69934;
0148830960999992002012918004-10910-037050FM-12+000699999V0200901N003112200019N0020001N1+02891+02221101161ADDAA199000021GF101991011011012501001001MA1999999101091MD1999999+0021REMSYN070AAXX  29184 83096 32695 10906 10289 20222 30109 40116 81100 333 58002;
0179830960999992002013000004-10910-037050FM-12+000699999V0200901N003112200019N0020001N1+02671+02201101191ADDAA199000021GF101991011011012501001001KA1240M+03011MA1999999101171MD1999999+0061REMSYN088AAXX  30004 83096 32695 10906 10267 20220 30117 40119 81100 333 10301 29074 55103 58006;
0186830960999992002013012004-10910-037050FM-12+000699999V0200901N002112200019N0020001N1+02731+02241101411ADDAA199000091GF102991021011012501001001KA1240N+02201MA1999999101341MD1999999+0101REMSYN076AAXX  30124 83096 32695 20904 10273 20224 30134 40141 82100 333 20220 58010;EQDQ01  00002PRCP99
0167830960999992002013018004-10910-037050FM-12+000699999V0200901N003112200019N0020001N1+02931+02291101241ADDAA199000091GF102991021011012501001001MA1999999101171MD1999999+0081REMSYN070AAXX  30184 83096 32695 20906 10293 20229 30117 40124 82100 333 58008;EQDQ01  00002PRCP99
0198830960999992002013100004-10910-037050FM-12+000699999V0200901N003112200019N0020001N1+02691+02281101251ADDAA199000091GF101991011011012501001001KA1240M+03011MA1999999101181MD1999999+0061REMSYN088AAXX  31004 83096 32695 10906 10269 20228 30118 40125 81100 333 10301 29075 55116 58006;EQDQ01  00002PRCP99
0201830960999992002013112004-10910-037050FM-12+000699999V0200501N001010450019N0020001N1+02701+02501101351ADDAA124000591AY161061AY261061GF106991031011012501071001KA1240N+02521MA1999999101281MD1999999-0061MW1201REMSYN088AAXX  31124 83096 21695 60502 10270 20250 30128 40135 72066 83170 333 20252 59006 69944;
0182830960999992002013118004-10910-037050FM-12+000699999V0200901N003112200019N0020001N1+02901+02431101221ADDAA106003091AY161061AY261061GF102991021011012501001011MA1999999101151MD1999999-0021MW1001REMSYN082AAXX  31184 83096 21695 20906 10290 20243 30115 40122 70066 82101 333 59002 60031;
0179830960999992002020100004-10910-037050FM-12+000699999V0200901N002612200019N0020001N1+02671+02291101191ADDAA199000021GF101991011011012501001001KA1240M+03031MA1999999101121MD1999999-0061REMSYN088AAXX  01004 83096 32695 10905 10267 20229 30112 40119 81100 333 10303 29081 55090 59006;
0173830960999992002020112004-10910-037050FM-12+000699999V0200901N003112200019N0020001N1+02891+02461101511ADDAA124003091GF102991011011012501001011KA1240N+02571MA1999999101441MD1999999+0161REMSYN082AAXX  01124 83096 22695 20906 10289 20246 30144 40151 81101 333 20257 58016 60034;
0167830960999992002020118004-10910-037050FM-12+000699999V0200901N004112200019N0020001N1+02911+02341101211ADDAA199000091GF102991021011012501001001MA1999999101141MD1999999-0011REMSYN070AAXX  01184 83096 32695 20908 10291 20234 30114 40121 82100 333 59001;EQDQ01  00002PRCP99
0198830960999992002020200004-10910-037050FM-12+000699999V0200901N004612200019N0020001N1+02691+02411101191ADDAA199000091GF101991011011012501001001KA1240M+03021MA1999999101221MD1999999+0101REMSYN088AAXX  02004 83096 32695 10909 10269 20241 30122 40119 81100 333 10302 29080 55113 58010;EQDQ01  00002PRCP99
0186830960999992002020212004-10910-037050FM-12+000699999V0200501N003612200019N0020001N1+02871+02321101411ADDAA199000091GF101991011011012501001001KA1240N+02471MA1999999101341MD1999999-0101REMSYN076AAXX  02124 83096 32695 10507 10287 20232 30134 40141 81100 333 20247 59010;EQDQ01  00002PRCP99
0167830960999992002020218004-10910-037050FM-12+000699999V0200501N006712200019N0020001N1+02861+02231101121ADDAA199000091GF101991011011012501001001MA1999999101051MD1999999-0091REMSYN070AAXX  02184 83096 32695 10513 10286 20223 30105 40112 81100 333 59009;EQDQ01  00002PRCP99
0192830960999992002020300004-10910-037050FM-12+000699999V0200901N003612200019N0020001N1+02771+02371101141ADDAA199000091GF101991011001012501001001KA1240M+03001MA1999999101071MD1999999-0051REMSYN082AAXX  03004 83096 32695 10907 10277 20237 30107 40114 81000 333 10300 29072 59005;EQDQ01  00002PRCP99
0186830960999992002020312004-10910-037050FM-12+000699999V0200501N004610450019N0020001N1+02731+02221101311ADDAA199000091GF107991021051012501031011KA1240N+02241MA1999999101241MD1999999-0101REMSYN076AAXX  03124 83096 32695 70509 10273 20222 30124 40131 82531 333 20224 59010;EQDQ01  00002PRCP99
0183830960999992002020318004-10910-037050FM-12+000699999V0200901N004110120019N0020001N1+02811+02221100981ADDAA199000091GF107991999051012501001001MA1999999100911MD1999999-0141REMSYN070AAXX  03184 83096 32695 70908 10281 20222 30091 40098 86500 333 59014;EQDQ01+000062SCOTLCQ02  00002PRCP99
0198830960999992002020400004-10910-037050FM-12+000699999V0200901N004112200019N0020001N1+02691+02391101191ADDAA199000091GF103991031051012501001001KA1240M+03001MA1999999101121MD1999999+0051REMSYN088AAXX  04004 83096 32695 30908 10269 20239 30112 40119 83500 333 10300 29078 55090 58005;EQDQ01  00002PRCP99
0186830960999992002020412004-10910-037050FM-12+000699999V0200501N004110120019N0020001N1+02811+02311101401ADDAA199000091GF107991071051012501001001KA1240N+02421MA1999999101331MD1999999+0091REMSYN076AAXX  04124 83096 32695 70508 10281 20231 30133 40140 87500 333 20242 58009;EQDQ01  00002PRCP99
0182830960999992002020418004-10910-037050FM-12+000699999V0203601N002110075019N0020001N1+02501+02271101221ADDAA106003091AY161061AY261061GF107991071051008001001001MA1999999101151MD1999999+0141MW1201REMSYN082AAXX  04184 83096 21595 73604 10250 20227 30115 40122 72066 87500 333 58014 60031;
0179830960999992002020500004-10910-037050FM-12+000699999V0200501N003110120019N0020001N1+02631+02371101211ADDAA199000021GF106991061051012501001001KA1240M+03011MA1999999101141MD1999999+0021REMSYN088AAXX  05004 83096 32695 60506 10263 20237 30114 40121 86500 333 10301 29083 55037 58002;
0173830960999992002020512004-10910-037050FM-12+000699999V0200501N002112200019N0020001N1+02731+02521101481ADDAA124003091GF104991021011012501001011KA1240N+02511MA1999999101411MD1999999+0081REMSYN082AAXX  05124 83096 22695 40504 10273 20252 30141 40148 82101 333 20251 58008 60034;
0167830960999992002020518004-10910-037050FM-12+000699999V0201401N002110120019N0020001N1+02791+02441101261ADDAA199000091GF106991061001012501021001MA1999999101191MD1999999+0041REMSYN070AAXX  05184 83096 32695 61404 10279 20244 30119 40126 86020 333 58004;EQDQ01  00002PRCP99
0213830960999992002020600004-10910-037050FM-12+000699999V0203601N001510075019N0020001N1+02341+02261101551ADDAA106020191AY161061AY261061GF108991081071008001999999KA1240M+02961MA1999999101481MD1999999+0241MW1601REMSYN100AAXX  06004 83096 21595 83603 10234 20226 30148 40155 76066 887// 333 10296 29090 55024 58024 60201;
0201830960999992002020612004-10910-037050FM-12+000699999V0201801N001510120019N0020001N1+02701+02391101471ADDAA124023991AY161061AY261061GF106991061001012501021001KA1240N+02331MA1999999101401MD1999999-0011MW1201REMSYN088AAXX  06124 83096 21695 61803 10270 20239 30140 40147 72066 86020 333 20233 59001 60244;
0148830960999992002020618004-10910-037050FM-12+000699999V0200901N003110120019N0020001N1+02691+02501101251ADDAA199000021GF107991071001012501021001MA1999999101181MD1999999-0011REMSYN070AAXX  06184 83096 32695 70906 10269 20250 30118 40125 87020 333 59001;
0167830960999992002020718004-10910-037050FM-12+000699999V0201401N002610450019N0020001N1+02901+02341101271ADDAA199000091GF106991031051012501031001MA1999999101201MD1999999+0021REMSYN070AAXX  07184 83096 32695 61405 10290 20234 30120 40127 83530 333 58002;EQDQ01  00002PRCP99
0198830960999992002020800004-10910-037050FM-12+000699999V0200901N003112200019N0020001N1+02671+02311101371ADDAA199000091GF102991021051012501001001KA1240M+03021MA1999999101301MD1999999-0111REMSYN088AAXX  08004 83096 32695 20906 10267 20231 30130 40137 82500 333 10302 29077 55071 59011;EQDQ01  00002PRCP99
0201830960999992002020812004-10910-037050FM-12+000699999V0200901N002612200019N0020001N1+02871+02111101491ADDAA124001091AY161061AY261061GF101991011011012501001001KA1240N+02491MA1999999101421MD1999999-0061MW1201REMSYN088AAXX  08124 83096 21695 10905 10287 20211 30142 40149 72066 81100 333 20249 59006 60014;
0148830960999992002020818004-10910-037050FM-12+000699999V0201401N003112200019N0020001N1+02891+02211101181ADDAA199000021GF101991011011012501001001MA1999999101111MD1999999-0091REMSYN070AAXX  08184 83096 32695 11406 10289 20221 30111 40118 81100 333 59009;
0179830960999992002020900004-10910-037050FM-12+000699999V0201801N002110120019N0020001N1+02691+02311101361ADDAA199000021GF106991061051012501001001KA1240M+03031MA1999999101291MD1999999-0011REMSYN088AAXX  09004 83096 32695 61804 10269 20231 30129 40136 86500 333 10303 29071 55109 59001;
0201830960999992002020912004-10910-037050FM-12+000699999V0200901N002112200019N0020001N1+02821+02401101451ADDAA124002091AY161061AY261061GF103991031011012501001001KA1240N+02331MA1999999101381MD1999999-0041MW1211REMSYN088AAXX  09124 83096 21695 30904 10282 20240 30138 40145 72166 83100 333 20233 59004 60024;
0148830960999992002020918004-10910-037050FM-12+000699999V0201401N003112200019N0020001N1+02811+02341101301ADDAA199000021GF105991021011012501001011MA1999999101231MD1999999+0121REMSYN070AAXX  09184 83096 32695 51406 10281 20234 30123 40130 82101 333 58012;
0179830960999992002021000004-10910-037050FM-12+000699999V0200901N001510120019N0020001N1+02651+02311101431ADDAA199000021GF106991061051012501001001KA1240M+02971MA1999999101361MD1999999+0071REMSYN088AAXX  10004 83096 32695 60903 10265 20231 30136 40143 86500 333 10297 29079 55102 58007;
0167830960999992002021018004-10910-037050FM-12+000699999V0201401N003112200019N0020001N1+02851+02421101301ADDAA199000091GF103991031001012501001011MA1999999101231MD1999999+0001REMSYN070AAXX  10184 83096 32695 31406 10285 20242 30123 40130 83001 333 58000;EQDQ01  00002PRCP99
0198830960999992002021100004-10910-037050FM-12+000699999V0200901N002612200019N0020001N1+02681+02351101431ADDAA199000091GF101991011011012501001001KA1240M+03011MA1999999101361MD1999999+0001REMSYN088AAXX  11004 83096 32695 10905 10268 20235 30136 40143 81100 333 10301 29080 55102 58000;EQDQ01  00002PRCP99
0201830960999992002021112004-10910-037050FM-12+000699999V0200901N003110075019N0020001N1+02531+02421101451ADDAA124005191AY161061AY261061GF108991081051008001999999KA1240N+02351MA1999999101381MD1999999-0081MW1601REMSYN088AAXX  11124 83096 21595 80906 10253 20242 30138 40145 76066 885// 333 20235 59008 60054;
0167830960999992002021118004-10910-037050FM-12+000699999V0201401N004112200019N0020001N1+02881+02231101181ADDAA199000021GF103991999051012501001001MA1999999101111MD1999999-0121REMSYN070AAXX  11184 83096 32695 31408 10288 20223 30111 40118 82500 333 59012;EQDQ01+000022SCOTLC
0179830960999992002021200004-10910-037050FM-12+000699999V0201401N003112200019N0020001N1+02721+02341101361ADDAA199000021GF101991011011012501001001KA1240M+03001MA1999999101291MD1999999-0071REMSYN088AAXX  12004 83096 32695 11406 10272 20234 30129 40136 81100 333 10300 29081 55074 59007;
0186830960999992002021212004-10910-037050FM-12+000699999V0201801N002612200019N0020001N1+02861+02211101511ADDAA199000091GF102991021051012501001001KA1240N+02451MA1999999101441MD1999999+0061REMSYN076AAXX  12124 83096 32695 21805 10286 20221 30144 40151 82500 333 20245 58006;EQDQ01  00002PRCP99
0167830960999992002021218004-10910-037050FM-12+000699999V0201801N003112200019N0020001N1+02871+02191101481ADDAA199000091GF102991021051012501001001MA1999999101411MD1999999+0301REMSYN070AAXX  12184 83096 32695 21806 10287 20219 30141 40148 82500 333 58030;EQDQ01  00002PRCP99
0198830960999992002021300004-10910-037050FM-12+000699999V0201801N002112200019N0020001N1+02661+02161101451ADDAA199000091GF101991011011012501001001KA1240M+03031MA1999999101381MD1999999+0091REMSYN088AAXX  13004 83096 32695 11804 10266 20216 30138 40145 81100 333 10303 29071 55111 58009;EQDQ01  00002PRCP99
0186830960999992002021312004-10910-037050FM-12+000699999V0201801N002112200019N0020001N1+02711+02331101391ADDAA199000091GF104991041051012501001001KA1240N+02281MA1999999101321MD1999999-0121REMSYN076AAXX  13124 83096 32695 41804 10271 20233 30132 40139 84500 333 20228 59012;EQDQ01  00002PRCP99
0167830960999992002021318004-10910-037050FM-12+000699999V0200901N002112200019N0020001N1+02771+02341101361ADDAA199000091GF104991041051012501001001MA1999999101291MD1999999-0121REMSYN070AAXX  13184 83096 32695 40904 10277 20234 30129 40136 84500 333 59012;EQDQ01  00002PRCP99
0186830960999992002021412004-10910-037050FM-12+000699999V0200901N003110120019N0020001N1+02901+02561101531ADDAA199000091GF105991051011012501001001KA1240N+02391MA1999999101461MD1999999+0141REMSYN076AAXX  14124 83096 32695 50906 10290 20256 30146 40153 85100 333 20239 58014;EQDQ01  00002PRCP99
0182830960999992002021418004-10910-037050FM-12+000699999V0201401N001510120019N0020001N1+02641+02351101371ADDAA106008991AY161061AY261061GF106991051051012501001011MA1999999101301MD1999999+0011MW1211REMSYN082AAXX  14184 83096 21695 61403 10264 20235 30130 40137 72166 85501 333 58001 60091;
0179830960999992002021500004-10910-037050FM-12+000699999V0200901N002110120019N0020001N1+02601+02331101541ADDAA199000021GF106991061051012501001001KA1240M+03021MA1999999101471MD1999999+0171REMSYN088AAXX  15004 83096 32695 60904 10260 20233 30147 40154 86500 333 10302 29084 55025 58017;
0201830960999992002021512004-10910-037050FM-12+000699999V0201801N003110120019N0020001N1+02691+02261101551ADDAA124009991AY161061AY261061GF106991061051012501001001KA1240N+02241MA1999999101481MD1999999+0021MW1201REMSYN088AAXX  15124 83096 21695 61806 10269 20226 30148 40155 72066 86500 333 20224 58002 60104;
0182830960999992002021518004-10910-037050FM-12+000699999V0200501N002110120019N0020001N1+02591+02291101301ADDAA106003091AY161061AY261061GF107991071051012501001001MA1999999101231MD1999999-0071MW1201REMSYN082AAXX  15184 83096 21695 70504 10259 20229 30123 40130 72066 87500 333 59007 60031;
0179830960999992002021600004-10910-037050FM-12+000699999V0200901N002612200019N0020001N1+02651+02271101431ADDAA199000021GF101991011011012501001001KA1240M+03011MA1999999101361MD1999999-0111REMSYN088AAXX  16004 83096 32695 10905 10265 20227 30136 40143 81100 333 10301 29080 55034 59011;
0201830960999992002021612004-10910-037050FM-12+000699999V0200901N003612200019N0020001N1+02851+02261101601ADDAA124003091AY161061AY261061GF102991011011012501001011KA1240N+02471MA1999999101531MD1999999+0051MW1201REMSYN088AAXX  16124 83096 21695 20907 10285 20226 30153 40160 72066 81101 333 20247 58005 60034;
0148830960999992002021618004-10910-037050FM-12+000699999V0201401N002612200019N0020001N1+02891+02281101351ADDAA199000021GF102991011011012501001011MA1999999101281MD1999999+0051REMSYN070AAXX  16184 83096 32695 21405 10289 20228 30128 40135 81101 333 58005;
0179830960999992002021700004-10910-037050FM-12+000699999V0200901N002612200019N0020001N1+02691+02201101381ADDAA199000021GF101991011011012501001001KA1240M+03031MA1999999101311MD1999999-0051REMSYN088AAXX  17004 83096 32695 10905 10269 20220 30131 40138 81100 333 10303 29073 55099 59005;
0186830960999992002021712004-10910-037050FM-12+000699999V0200901N001512200019N0020001N1+02851+02291101371ADDAA199000091GF103991031011012501001001KA1240N+02391MA1999999101301MD1999999-0231REMSYN076AAXX  17124 83096 32695 30903 10285 20229 30130 40137 83100 333 20239 59023;EQDQ01  00002PRCP99
0167830960999992002021718004-10910-037050FM-12+000699999V0201401N003112200019N0020001N1+02931+02311101291ADDAA199000091GF102991021011012501001001MA1999999101221MD1999999-0061REMSYN070AAXX  17184 83096 32695 21406 10293 20231 30122 40129 82100 333 59006;EQDQ01  00002PRCP99
0198830960999992002021800004-10910-037050FM-12+000699999V0200901N002612200019N0020001N1+02701+02371101321ADDAA199000091GF101991011011012501001001KA1240M+03011MA1999999101251MD1999999-0061REMSYN088AAXX  18004 83096 32695 10905 10270 20237 30125 40132 81100 333 10301 29076 55106 59006;EQDQ01  00002PRCP99
0186830960999992002021812004-10910-037050FM-12+000699999V0200901N002112200019N0020001N1+02891+02441101271ADDAA199000091GF103991031051012501001001KA1240N+02351MA1999999101201MD1999999-0101REMSYN076AAXX  18124 83096 32695 30904 10289 20244 30120 40127 83500 333 20235 59010;EQDQ01  00002PRCP99
0167830960999992002021818004-10910-037050FM-12+000699999V0200901N004612200019N0020001N1+02951+02331101121ADDAA199000091GF101991011001012501001011MA1999999101051MD1999999-0171REMSYN070AAXX  18184 83096 32695 10909 10295 20233 30105 40112 81001 333 59017;EQDQ01  00002PRCP99
0198830960999992002021900004-10910-037050FM-12+000699999V0200901N003112200019N0020001N1+02751+02361101321ADDAA199000091GF101991011011012501001001KA1240M+03091MA1999999101251MD1999999+0001REMSYN088AAXX  19004 83096 32695 10906 10275 20236 30125 40132 81100 333 10309 29076 55113 58000;EQDQ01  00002PRCP99
0201830960999992002021912004-10910-037050FM-12+000699999V0200501N001510120019N0020001N1+02701+02351101471ADDAA124000391AY161061AY261061GF106991061051012501001001KA1240N+02021MA1999999101401MD1999999+0201MW1201REMSYN088AAXX  19124 83096 21695 60503 10270 20235 30140 40147 72066 86500 333 20202 58020 69934;
0148830960999992002021918004-10910-037050FM-12+000699999V0200901N003612200019N0020001N1+02951+02311101221ADDAA199000021GF101991011011012501001001MA1999999101151MD1999999+0101REMSYN070AAXX  19184 83096 32695 10907 10295 20231 30115 40122 81100 333 58010;
0179830960999992002022000004-10910-037050FM-12+000699999V0200901N003112200019N0020001N1+02711+02301101451ADDAA199000021GF101991011011012501001001KA1240M+03051MA1999999101381MD1999999+0131REMSYN088AAXX  20004 83096 32695 10906 10271 20230 30138 40145 81100 333 10305 29077 55092 58013;
0186830960999992002022012004-10910-037050FM-12+000699999V0201401N002112200019N0020001N1+02921+02341101531ADDAA199000091GF102991021051012501001001KA1240N+02451MA1999999101461MD1999999+0061REMSYN076AAXX  20124 83096 32695 21404 10292 20234 30146 40153 82500 333 20245 58006;EQDQ01  00002PRCP99
0167830960999992002022018004-10910-037050FM-12+000699999V0200501N003110120019N0020001N1+02711+02371101251ADDAA199000091GF106991061051012501001001MA1999999101181MD1999999+0031REMSYN070AAXX  20184 83096 32695 60506 10271 20237 30118 40125 86500 333 58003;EQDQ01  00002PRCP99
0198830960999992002022100004-10910-037050FM-12+000699999V0200901N003612200019N0020001N1+02701+02331101351ADDAA199000091GF101991011011012501001001KA1240M+03051MA1999999101281MD1999999-0101REMSYN088AAXX  21004 83096 32695 10907 10270 20233 30128 40135 81100 333 10305 29078 55097 59010;EQDQ01  00002PRCP99
0186830960999992002022112004-10910-037050FM-12+000699999V0200901N002112200019N0020001N1+02891+02321101361ADDAA199000091GF103991031011012501001001KA1240N+02531MA1999999101291MD1999999-0171REMSYN076AAXX  21124 83096 32695 30904 10289 20232 30129 40136 83100 333 20253 59017;EQDQ01  00002PRCP99
0167830960999992002022118004-10910-037050FM-12+000699999V0200901N002112200019N0020001N1+02911+02371101141ADDAA199000091GF102991021011012501001001MA1999999101071MD1999999-0111REMSYN070AAXX  21184 83096 32695 20904 10291 20237 30107 40114 82100 333 59011;EQDQ01  00002PRCP99
0198830960999992002022200004-10910-037050FM-12+000699999V0200901N003112200019N0020001N1+02691+02371101141ADDAA199000091GF102991021011012501001001KA1240M+03041MA1999999101071MD1999999-0211REMSYN088AAXX  22004 83096 32695 20906 10269 20237 30107 40114 82100 333 10304 29077 55104 59021;EQDQ01  00002PRCP99
0186830960999992002022212004-10910-037050FM-12+000699999V0200901N001512200019N0020001N1+02831+02381101281ADDAA199000091GF103991021011012501001011KA1240N+02391MA1999999101211MD1999999-0081REMSYN076AAXX  22124 83096 32695 30903 10283 20238 30121 40128 82101 333 20239 59008;EQDQ01  00002PRCP99
0167830960999992002022218004-10910-037050FM-12+000699999V0200901N005112200019N0020001N1+02951+02281101001ADDAA199000091GF101991011001012501001011MA1999999100931MD1999999-0141REMSYN070AAXX  22184 83096 32695 10910 10295 20228 30093 40100 81001 333 59014;EQDQ01  00002PRCP99
0198830960999992002022300004-10910-037050FM-12+000699999V0200901N004612200019N0020001N1+02711+02321101141ADDAA199000091GF101991011011012501001001KA1240M+03071MA1999999101071MD1999999+0001REMSYN088AAXX  23004 83096 32695 10909 10271 20232 30107 40114 81100 333 10307 29075 55097 58000;EQDQ01  00002PRCP99
0186830960999992002022312004-10910-037050FM-12+000699999V0200501N004112200019N0020001N1+02911+02221101441ADDAA199000091GF101991011011012501001001KA1240N+02301MA1999999101371MD1999999+0161REMSYN076AAXX  23124 83096 32695 10508 10291 20222 30137 40144 81100 333 20230 58016;EQDQ01  00002PRCP99
0167830960999992002022318004-10910-037050FM-12+000699999V0200901N005112200019N0040001N1+02931+02261101101ADDAA199000091GF101991011011012501001001MA1999999101031MD1999999+0101REMSYN070AAXX  23184 83096 32696 10910 10293 20226 30103 40110 81100 333 58010;EQDQ01  00002PRCP99
0198830960999992002022400004-10910-037050FM-12+000699999V0200901N005112200019N0020001N1+02721+02281101321ADDAA199000091GF101991011011012501001001KA1240M+03061MA1999999101251MD1999999+0121REMSYN088AAXX  24004 83096 32695 10910 10272 20228 30125 40132 81100 333 10306 29072 55112 58012;EQDQ01  00002PRCP99
0186830960999992002022412004-10910-037050FM-12+000699999V0200501N003612200019N0020001N1+02901+02251101541ADDAA199000091GF101991011011012501001001KA1240N+02371MA1999999101471MD1999999+0101REMSYN076AAXX  24124 83096 32695 10507 10290 20225 30147 40154 81100 333 20237 58010;EQDQ01  00002PRCP99
0167830960999992002022418004-10910-037050FM-12+000699999V0200901N004612200019N0020001N1+02991+02241101311ADDAA199000091GF101991011011012501001001MA1999999101241MD1999999+0211REMSYN070AAXX  24184 83096 32695 10909 10299 20224 30124 40131 81100 333 58021;EQDQ01  00002PRCP99
0167830960999992002022518004-10910-037050FM-12+000699999V0200901N003612200019N0020001N1+02931+02221101301ADDAA199000091GF101991011011012501001001MA1999999101231MD1999999-0011REMSYN070AAXX  25184 83096 32695 10907 10293 20222 30123 40130 81100 333 59001;EQDQ01  00002PRCP99
0198830960999992002022600004-10910-037050FM-12+000699999V0200901N003612200019N0020001N1+02721+02341101381ADDAA199000091GF101991011011012501001001KA1240M+03081MA1999999101321MD1999999+0011REMSYN088AAXX  26004 83096 32695 10907 10272 20234 30132 40138 81100 333 10308 29074 55111 58001;EQDQ01  00002PRCP99
0186830960999992002022612004-10910-037050FM-12+000699999V0200901N002110120019N0020001N1+02861+02351101381ADDAA199000091GF105991051011012501001001KA1240N+02381MA1999999101311MD1999999-0141REMSYN076AAXX  26124 83096 32695 50904 10286 20235 30131 40138 85100 333 20238 59014;EQDQ01  00002PRCP99
0167830960999992002022618004-10910-037050FM-12+000699999V0200901N003612200019N0020001N1+02951+02361101241ADDAA199000091GF103991031011012501001001MA1999999101171MD1999999-0061REMSYN070AAXX  26184 83096 32695 30907 10295 20236 30117 40124 83100 333 59006;EQDQ01  00002PRCP99
0198830960999992002022700004-10910-037050FM-12+000699999V0200901N003112200019N0020001N1+02731+02391101341ADDAA199000091GF102991021011012501001001KA1240M+03101MA1999999101271MD1999999-0051REMSYN088AAXX  27004 83096 32695 20906 10273 20239 30127 40134 82100 333 10310 29077 55095 59005;EQDQ01  00002PRCP99
0186830960999992002022712004-10910-037050FM-12+000699999V0200901N003112200019N0020001N1+02951+02281101491ADDAA199000091GF105991031011012501001011KA1240N+02301MA1999999101421MD1999999+0111REMSYN076AAXX  27124 83096 32695 50906 10295 20228 30142 40149 83101 333 20230 58011;EQDQ01  00002PRCP99
0167830960999992002022718004-10910-037050FM-12+000699999V0201401N003612200019N0020001N1+02931+02311101291ADDAA199000091GF101991011011012501001001MA1999999101221MD1999999+0051REMSYN070AAXX  27184 83096 32695 11407 10293 20231 30122 40129 81100 333 58005;EQDQ01  00002PRCP99
0198830960999992002022800004-10910-037050FM-12+000699999V0201401N002612200019N0020001N1+02751+02321101391ADDAA199000091GF101991011011012501001001KA1240M+03101MA1999999101321MD1999999+0051REMSYN088AAXX  28004 83096 32695 11405 10275 20232 30132 40139 81100 333 10310 29076 55096 58005;EQDQ01  00002PRCP99
0186830960999992002022812004-10910-037050FM-12+000699999V0200901N004112200019N0020001N1+02931+02271101491ADDAA199000091GF101991011011012501001001KA1240N+02311MA1999999101421MD1999999+0001REMSYN076AAXX  28124 83096 32695 10908 10293 20227 30142 40149 81100 333 20231 58000;EQDQ01  00002PRCP99
0167830960999992002022818004-10910-037050FM-12+000699999V0201401N003112200019N0020001N1+02951+02211101221ADDAA199000091GF101991011011012501001001MA1999999101151MD1999999-0071REMSYN070AAXX  28184 83096 32695 11406 10295 20221 30115 40122 81100 333 59007;EQDQ01  00002PRCP99
0198830960999992002030100004-10910-037050FM-12+000699999V0200901N003612200019N0020001N1+02711+02201101341ADDAA199000091GF101991011011012501001001KA1240M+03071MA1999999101271MD1999999+0051REMSYN088AAXX  01004 83096 32695 10907 10271 20220 30127 40134 81100 333 10307 29070 55107 58005;EQDQ01  00002PRCP99
0186830960999992002030112004-10910-037050FM-12+000699999V0201401N003112200019N0020001N1+02911+02271101351ADDAA199000091GF102991021011012501001001KA1240N+02531MA1999999101281MD1999999-0141REMSYN076AAXX  01124 83096 32695 21406 10291 20227 30128 40135 82100 333 20253 59014;EQDQ01  00002PRCP99
0182830960999992002030118004-10910-037050FM-12+000699999V0201401N002112200019N0020001N1+02871+02521101211ADDAA106000891AY161061AY261061GF103991031051008001001001MA1999999101141MD1999999-0011MW1601REMSYN082AAXX  01184 83096 21595 31404 10287 20252 30114 40121 76066 83500 333 59001 69971;
0167830960999992002030218004-10910-037050FM-12+000699999V0201401N002612200019N0020001N1+02931+02341101141ADDAA199000091GF101991011011012501001001MA1999999101071MD1999999-0071REMSYN070AAXX  02184 83096 32695 11405 10293 20234 30107 40114 81100 333 59007;EQDQ01  00002PRCP99
0201830960999992002030412004-10910-037050FM-12+000699999V0200901N004112200019N0020001N1+02991+02321101401ADDAA124002091AY161061AY261061GF102991021001012501001011KA1240N+02401MA1999999101331MD1999999+0191MW1211REMSYN088AAXX  04124 83096 21695 20908 10299 20232 30133 40140 72166 82001 333 20240 58019 60024;
0179830960999992002030500004-10910-037050FM-12+000699999V0201401N002612200019N0020001N1+02771+02301101311ADDAA199000021GF101991011011012501001001KA1240M+03101MA1999999101241MD1999999+0161REMSYN088AAXX  05004 83096 32695 11405 10277 20230 30124 40131 81100 333 10310 29070 55106 58016;
0201830960999992002030512004-10910-037050FM-12+000699999V0203201N001510120019N0020001N1+02611+02311101381ADDAA124015091AY161061AY261061GF107991071051012501001001KA1240N+02331MA1999999101311MD1999999-0021MW1201REMSYN088AAXX  05124 83096 21695 73203 10261 20231 30131 40138 72066 87500 333 20233 59002 60154;
0182830960999992002030518004-10910-037050FM-12+000699999V0200901N002110075019N0020001N1+02751+02361101291ADDAA106003091AY161061AY261061GF108991081051008001999999MA1999999101221MD1999999+0031MW1201REMSYN082AAXX  05184 83096 21595 80904 10275 20236 30122 40129 72066 885// 333 58003 60031;
0179830960999992002030600004-10910-037050FM-12+000699999V0201801N002110120019N0020001N1+02671+02311101361ADDAA199000021GF106991061051012501001001KA1240M+03071MA1999999101291MD1999999+0051REMSYN088AAXX  06004 83096 32695 61804 10267 20231 30129 40136 86500 333 10307 29082 55016 58005;
0173830960999992002030612004-10910-037050FM-12+000699999V0200901N002610120019N0020001N1+02771+02361101271ADDAA124003091GF105991051051012501001001KA1240N+02431MA1999999101201MD1999999-0111REMSYN082AAXX  06124 83096 22695 50905 10277 20236 30120 40127 85500 333 20243 59011 60034;
0167830960999992002030618004-10910-037050FM-12+000699999V0201401N002112200019N0020001N1+02831+02381101171ADDAA199000091GF103991031011012501001001MA1999999101101MD1999999-0121REMSYN070AAXX  06184 83096 32695 31404 10283 20238 30110 40117 83100 333 59012;EQDQ01  00002PRCP99
0198830960999992002030700004-10910-037050FM-12+000699999V0200901N002112200019N0020001N1+02811+02421101251ADDAA199000091GF102991021011012501001001KA1240M+02991MA1999999101181MD1999999-0111REMSYN088AAXX  07004 83096 32695 20904 10281 20242 30118 40125 82100 333 10299 29079 55043 59011;EQDQ01  00002PRCP99
0186830960999992002030712004-10910-037050FM-12+000699999V0200901N003612200019N0020001N1+02951+02261101401ADDAA199000091GF106991041011012501001011KA1240N+02411MA1999999101331MD1999999+0131REMSYN076AAXX  07124 83096 32695 60907 10295 20226 30133 40140 84101 333 20241 58013;EQDQ01  00002PRCP99
0167830960999992002030718004-10910-037050FM-12+000699999V0200901N003119999999N0020001N1+02971+02301101301ADDAA199000091GF106991061001012501001011MA1999999101231MD1999999+0131REMSYN070AAXX  07184 83096 32695 60906 10297 20230 30123 40130 86001 333 58013;EQDQ01  00002PRCP99
0198830960999992002030800004-10910-037050FM-12+000699999V0200901N003112200019N0020001N1+02751+02341101561ADDAA199000091GF101991011011012501001001KA1240M+03081MA1999999101491MD1999999+0411REMSYN088AAXX  08004 83096 32695 10906 10275 20234 30149 40156 81100 333 10308 29072 55087 58041;EQDQ01  00002PRCP99
0186830960999992002030812004-10910-037050FM-12+000699999V0200901N003112200019N0020001N1+02931+02221101601ADDAA199000091GF102991011011012501001011KA1240N+02341MA1999999101531MD1999999+0201REMSYN076AAXX  08124 83096 32695 20906 10293 20222 30153 40160 81101 333 20234 58020;EQDQ01  00002PRCP99
0167830960999992002030818004-10910-037050FM-12+000699999V0200901N004112200019N0020001N1+02891+02281101351ADDAA199000091GF105991031051012501001011MA1999999101281MD1999999+0051REMSYN070AAXX  08184 83096 32695 50908 10289 20228 30128 40135 83501 333 58005;EQDQ01  00002PRCP99
0198830960999992002030900004-10910-037050FM-12+000699999V0200901N002612200019N0020001N1+02711+02171101461ADDAA199000091GF101991011051012501001001KA1240M+03101MA1999999101391MD1999999-0101REMSYN088AAXX  09004 83096 32695 10905 10271 20217 30139 40146 81500 333 10310 29070 55104 59010;EQDQ01  00002PRCP99
0201830960999992002030912004-10910-037050FM-12+000699999V0200901N002612200019N0020001N1+02791+02181101531ADDAA124004191AY161061AY261061GF104991041051012501001001KA1240N+02371MA1999999101461MD1999999-0071MW1201REMSYN088AAXX  09124 83096 21695 40905 10279 20218 30146 40153 72066 84500 333 20237 59007 60044;
0148830960999992002030918004-10910-037050FM-12+000699999V0201401N003112200019N0020001N1+02911+02071101331ADDAA199000021GF102991011011012501001011MA1999999101261MD1999999-0021REMSYN070AAXX  09184 83096 32695 21406 10291 20207 30126 40133 81101 333 59002;
0179830960999992002031000004-10910-037050FM-12+000699999V0200901N003112200019N0020001N1+02701+02371101531ADDAA199000021GF102991021051012501001001KA1240M+03051MA1999999101461MD1999999+0071REMSYN088AAXX  10004 83096 32695 20906 10270 20237 30146 40153 82500 333 10305 29074 55099 58007;
0173830960999992002031012004-10910-037050FM-12+000699999V0200901N002112200019N0020001N1+02901+02301101511ADDAA124000191GF103991031051012501001001KA1240N+02421MA1999999101441MD1999999-0021REMSYN082AAXX  10124 83096 22695 30904 10290 20230 30144 40151 83500 333 20242 59002 69924;
0198830960999992002031100004-10910-037050FM-12+000699999V0200901N003112200019N0020001N1+02691+02311101361ADDAA199000091GF101991011011012501001001KA1240M+03091MA1999999101291MD1999999-0171REMSYN088AAXX  11004 83096 32695 10906 10269 20231 30129 40136 81100 333 10309 29074 55105 59017;EQDQ01  00002PRCP99
0186830960999992002031112004-10910-037050FM-12+000699999V0200901N003112200019N0020001N1+02851+02291101461ADDAA199000091GF103991031011012501001001KA1240N+02461MA1999999101391MD1999999-0051REMSYN076AAXX  11124 83096 32695 30906 10285 20229 30139 40146 83100 333 20246 59005;EQDQ01  00002PRCP99
0167830960999992002031118004-10910-037050FM-12+000699999V0200901N003112200019N0020001N1+02931+02341101321ADDAA199000091GF104991041011012501001001MA1999999101251MD1999999+0001REMSYN070AAXX  11184 83096 32695 40906 10293 20234 30125 40132 84100 333 58000;EQDQ01  00002PRCP99
0198830960999992002031200004-10910-037050FM-12+000699999V0200901N003112200019N0020001N1+02711+02301101341ADDAA199000091GF102991021051012501001001KA1240M+03081MA1999999101271MD1999999-0021REMSYN088AAXX  12004 83096 32695 20906 10271 20230 30127 40134 82500 333 10308 29075 55075 59002;EQDQ01  00002PRCP99
0186830960999992002031212004-10910-037050FM-12+000699999V0200901N003612200019N0020001N1+02911+02291101531ADDAA199000091GF103991031011012501001001KA1240N+02391MA1999999101461MD1999999+0071REMSYN076AAXX  12124 83096 32695 30907 10291 20229 30146 40153 83100 333 20239 58007;EQDQ01  00002PRCP99
0152830960999992002031218004-10910-037050FM-12+000699999V0200901N003110120019N0020001N1+02851+02331101461ADDAA199000091GF106991061001012501021001MA1999999101391REMSYN069AAXX  12184 83096 32695 60906 10285 20233 30139 40146 86020 33 58014;EQDQ01  00002PRCP99
0198830960999992002031300004-10910-037050FM-12+000699999V0200901N002612200019N0020001N1+02731+02401101681ADDAA199000091GF101991011011012501001001KA1240M+03071MA1999999101611MD1999999+0341REMSYN088AAXX  13004 83096 32695 10905 10273 20240 30161 40168 81100 333 10307 29076 55076 58034;EQDQ01  00002PRCP99
0201830960999992002031312004-10910-037050FM-12+000699999V0200901N002112200019N0020001N1+02911+02301101601ADDAA124002091AY161061AY261061GF101991011011012501001001KA1240N+02361MA1999999101531MD1999999+0071MW1201REMSYN088AAXX  13124 83096 21695 10904 10291 20230 30153 40160 72066 81100 333 20236 58007 60024;
0148830960999992002031318004-10910-037050FM-12+000699999V0201801N003110120019N0020001N1+02901+02321101321ADDAA199000021GF107991071051012501001001MA1999999101251MD1999999-0141REMSYN070AAXX  13184 83096 32695 71806 10290 20232 30125 40132 87500 333 59014;
0179830960999992002031400004-10910-037050FM-12+000699999V0200901N002110120019N0020001N1+02751+02191101451ADDAA199000021GF106991061051012501001001KA1240M+03111MA1999999101381MD1999999-0231REMSYN088AAXX  14004 83096 32695 60904 10275 20219 30138 40145 86500 333 10311 29071 55082 59023;
0186830960999992002031412004-10910-037050FM-12+000699999V0201801N001510120019N0020001N1+02591+02291101291ADDAA199000091GF105991051051012501001001KA1240N+02331MA1999999101221MD1999999-0311REMSYN076AAXX  14124 83096 32695 51803 10259 20229 30122 40129 85500 333 20233 59031;EQDQ01  00002PRCP99
0167830960999992002031418004-10910-037050FM-12+000699999V0200901N002112200019N0020001N1+02951+02311101131ADDAA199000091GF103991031011012501001001MA1999999101061MD1999999-0191REMSYN070AAXX  14184 83096 32695 30904 10295 20231 30106 40113 83100 333 59019;EQDQ01  00002PRCP99
0198830960999992002031500004-10910-037050FM-12+000699999V0200901N001512200019N0020001N1+02711+02281101141ADDAA199000091GF101991011011012501001001KA1240M+03021MA1999999101071MD1999999-0311REMSYN088AAXX  15004 83096 32695 10903 10271 20228 30107 40114 81100 333 10302 29077 55065 59031;EQDQ01  00002PRCP99
0186830960999992002031512004-10910-037050FM-12+000699999V0200901N001512200019N0020001N1+02941+02311101431ADDAA199000091GF101991011011012501001001KA1240N+02411MA1999999101361MD1999999+0141REMSYN076AAXX  15124 83096 32695 10903 10294 20231 30136 40143 81100 333 20241 58014;EQDQ01  00002PRCP99
0167830960999992002031518004-10910-037050FM-12+000699999V0200901N004112200019N0020001N1+02961+02311101061ADDAA199000091GF101991011011012501001001MA1999999100991MD1999999-0071REMSYN070AAXX  15184 83096 32695 10908 10296 20231 30099 40106 81100 333 59007;EQDQ01  00002PRCP99
0198830960999992002031600004-10910-037050FM-12+000699999V0200901N003612200019N0020001N1+02741+02361101251ADDAA199000091GF101991011011012501001001KA1240M+03091MA1999999101181MD1999999+0111REMSYN088AAXX  16004 83096 32695 10907 10274 20236 30118 40125 81100 333 10309 29074 55105 58011;EQDQ01  00002PRCP99
0186830960999992002031612004-10910-037050FM-12+000699999V0200501N002112200019N0020001N1+02781+02401101301ADDAA199000091GF103991031051012501001001KA1240N+02301MA1999999101221MD1999999-0141REMSYN076AAXX  16124 83096 32695 30504 10278 20240 30122 40130 83500 333 20230 59014;EQDQ01  00002PRCP99
0167830960999992002031618004-10910-037050FM-12+000699999V0200901N003112200019N0020001N1+02951+02451101281ADDAA199000091GF102991021011012501001001MA1999999101211MD1999999-0021REMSYN070AAXX  16184 83096 32695 20906 10295 20245 30121 40128 82100 333 59002;EQDQ01  00002PRCP99
0198830960999992002031700004-10910-037050FM-12+000699999V0200901N003612200019N0020001N1+02751+02381101141ADDAA199000091GF102991021011012501001001KA1240M+03081MA1999999101071MD1999999-0111REMSYN088AAXX  17004 83096 32695 20907 10275 20238 30107 40114 82100 333 10308 29079 55103 59011;EQDQ01  00002PRCP99
0186830960999992002031712004-10910-037050FM-12+000699999V0200901N002112200019N0020001N1+02931+02361101221ADDAA199000091GF104991041011012501001001KA1240N+02411MA1999999101181MD1999999-0041REMSYN076AAXX  17124 83096 32695 40904 10293 20236 30118 40122 84100 333 20241 59004;EQDQ01  00002PRCP99
0167830960999992002031718004-10910-037050FM-12+000699999V0200901N003112200019N0020001N1+02991+02421101121ADDAA199000091GF101991011011012501001001MA1999999101051MD1999999+0081REMSYN070AAXX  17184 83096 32695 10906 10299 20242 30105 40112 81100 333 58008;EQDQ01  00002PRCP99
0198830960999992002031800004-10910-037050FM-12+000699999V0200901N003612200019N0020001N1+02771+02401101081ADDAA199000091GF103991031011012501001001KA1240M+03091MA1999999101011MD1999999-0061REMSYN088AAXX  18004 83096 32695 30907 10277 20240 30101 40108 83100 333 10309 29076 55097 59006;EQDQ01  00002PRCP99
0186830960999992002031812004-10910-037050FM-12+000699999V0200901N001510120019N0020001N1+02941+02561101341ADDAA199000091GF107991071051012501001001KA1240N+02451MA1999999101271MD1999999+0091REMSYN076AAXX  18124 83096 32695 70903 10294 20256 30127 40134 87500 333 20245 58009;EQDQ01  00002PRCP99
0167830960999992002031818004-10910-037050FM-12+000699999V0200901N002110120019N0020001N1+02831+02501101111ADDAA199000091GF107991071051012501001001MA1999999101041MD1999999-0011REMSYN070AAXX  18184 83096 32695 70904 10283 20250 30104 40111 87500 333 59001;EQDQ01  00002PRCP99
0198830960999992002031900004-10910-037050FM-12+000699999V0200901N003112200019N0020001N1+02671+02391101171ADDAA199000091GF101991011011012501001001KA1240M+03071MA1999999101101MD1999999+0091REMSYN088AAXX  19004 83096 32695 10906 10267 20239 30110 40117 81100 333 10307 29083 55056 58009;EQDQ01  00002PRCP99
0186830960999992002031912004-10910-037050FM-12+000699999V0201801N001510120019N0020001N1+02671+02351101191ADDAA199000091GF106991061051012501001001KA1240N+02451MA1999999101121MD1999999-0151REMSYN076AAXX  19124 83096 32695 61803 10267 20235 30112 40119 86500 333 20245 59015;EQDQ01  00002PRCP99
0167830960999992002031918004-10910-037050FM-12+000699999V0200901N003112200019N0020001N1+02991+02371101021ADDAA199000091GF104991041011012501001001MA1999999100951MD1999999-0091REMSYN070AAXX  19184 83096 32695 40906 10299 20237 30095 40102 84100 333 59009;EQDQ01  00002PRCP99
0198830960999992002032000004-10910-037050FM-12+000699999V0200901N003112200019N0020001N1+02751+02301101041ADDAA199000091GF102991021051012501001001KA1240M+03101MA1999999100971MD1999999-0131REMSYN088AAXX  20004 83096 32695 20906 10275 20230 30097 40104 82500 333 10310 29077 55045 59013;EQDQ01  00002PRCP99
0186830960999992002032012004-10910-037050FM-12+000699999V0200901N003112200019N0020001N1+02951+02331101391ADDAA199000091GF104991021011012501001011KA1240N+02471MA1999999101321MD1999999+0201REMSYN076AAXX  20124 83096 32695 40906 10295 20233 30132 40139 82101 333 20247 58020;EQDQ01  00002PRCP99
0167830960999992002032018004-10910-037050FM-12+000699999V0200901N003610120019N0020001N1+02951+02281101071ADDAA199000091GF106991061001012501021001MA1999999101001MD1999999+0051REMSYN070AAXX  20184 83096 32695 60907 10295 20228 30100 40107 86020 333 58005;EQDQ01  00002PRCP99
0198830960999992002032100004-10910-037050FM-12+000699999V0200901N004112200019N0020001N1+02771+02341101171ADDAA199000091GF102991021011012501001001KA1240M+03111MA1999999101101MD1999999+0131REMSYN088AAXX  21004 83096 32695 20908 10277 20234 30110 40117 82100 333 10311 29072 55077 58013;EQDQ01  00002PRCP99
0186830960999992002032112004-10910-037050FM-12+000699999V0200501N001512200019N0020001N1+03011+02291101311ADDAA199000091GF102991021051012501001001KA1240N+02371MA1999999101241MD1999999-0081REMSYN076AAXX  21124 83096 32695 20503 10301 20229 30124 40131 82500 333 20237 59008;EQDQ01  00002PRCP99
0167830960999992002032118004-10910-037050FM-12+000699999V0200901N003112200019N0020001N1+03011+02371100981ADDAA199000091GF103991011011012501031011MA1999999100911MD1999999-0091REMSYN070AAXX  21184 83096 32695 30906 10301 20237 30091 40098 81131 333 59009;EQDQ01  00002PRCP99
0198830960999992002032200004-10910-037050FM-12+000699999V0200901N003612200019N0020001N1+02761+02461101141ADDAA199000091GF102991021011012501001001KA1240M+03141MA1999999101071MD1999999-0031REMSYN088AAXX  22004 83096 32695 20907 10276 20246 30107 40114 82100 333 10314 29076 55094 59003;EQDQ01  00002PRCP99
0186830960999992002032212004-10910-037050FM-12+000699999V0200901N002112200019N0020001N1+02931+02321101171ADDAA199000091GF103991031011012501001001KA1240N+02451MA1999999101101MD1999999-0141REMSYN076AAXX  22124 83096 32695 30904 10293 20232 30110 40117 83100 333 20245 59014;EQDQ01  00002PRCP99
0167830960999992002032218004-10910-037050FM-12+000699999V0200901N003612200019N0020001N1+02991+02351101021ADDAA199000091GF102991021011012501001001MA1999999100951MD1999999+0041REMSYN070AAXX  22184 83096 32695 20907 10299 20235 30095 40102 82100 333 58004;EQDQ01  00002PRCP99
0198830960999992002032300004-10910-037050FM-12+000699999V0200901N003612200019N0020001N1+02771+02301101241ADDAA199000091GF102991021011012501001001KA1240M+03101MA1999999101191MD1999999+0101REMSYN088AAXX  23004 83096 32695 20907 10277 20230 30119 40124 82100 333 10310 29073 55106 58010;EQDQ01  00002PRCP99
0186830960999992002032312004-10910-037050FM-12+000699999V0200901N003612200019N0020001N1+02981+02251101401ADDAA199000091GF103991031011012501001001KA1240N+02331MA1999999101331MD1999999+0231REMSYN076AAXX  23124 83096 32695 30907 10298 20225 30133 40140 83100 333 20233 58023;EQDQ01  00002PRCP99
0167830960999992002032318004-10910-037050FM-12+000699999V0201401N002612200019N0020001N1+02991+02321101201ADDAA199000091GF101991011001012501001011MA1999999101131MD1999999+0121REMSYN070AAXX  23184 83096 32695 11405 10299 20232 30113 40120 81001 333 58012;EQDQ01  00002PRCP99
0199830960999992002032400004-10910-037050FM-12+000699999V0200901N002612200019N0020001N1+02761+02301101271ADDAA199000091GF101991011011012501001001KA1240M+03361MD1999999+0031REMSYN088AAXX  24004 83096 32695 10905 10276 20230 32012 40127 81100 333 10336 29071 55110 58003;EQDQ01+020121APOSP Q02  00002PRCP99
0201830960999992002032412004-10910-037050FM-12+000699999V0200901N003112200019N0020001N1+02951+02311101401ADDAA124001091AY161061AY261061GF101991011011012501001001KA1240N+02331MA1999999101331MD1999999+0001MW1211REMSYN088AAXX  24124 83096 21695 10906 10295 20231 30133 40140 72166 81100 333 20233 58000 60014;
0148830960999992002032418004-10910-037050FM-12+000699999V0200901N005112200019N0020001N1+02991+02171101191ADDAA199000021GF101991011011012501001001MA1999999101121MD1999999-0011REMSYN070AAXX  24184 83096 32695 10910 10299 20217 30112 40119 81100 333 59001;
0179830960999992002032500004-10910-037050FM-12+000699999V0200901N003112200019N0020001N1+02751+02341101311ADDAA199000021GF101991011011012501001001KA1240M+03121MA1999999101241MD1999999-0041REMSYN088AAXX  25004 83096 32695 10906 10275 20234 30124 40131 81100 333 10312 29071 55109 59004;
0186830960999992002032512004-10910-037050FM-12+000699999V0200901N004112200019N0020001N1+02991+02221101321ADDAA199000091GF101991011011012501001001KA1240N+02331MA1999999101251MD1999999-0081REMSYN076AAXX  25124 83096 32695 10908 10299 20222 30125 40132 81100 333 20233 59008;EQDQ01  00002PRCP99
0167830960999992002032518004-10910-037050FM-12+000699999V0200901N004612200019N0020001N1+02971+02171101091ADDAA199000091GF101991011001012501001011MA1999999101021MD1999999-0101REMSYN070AAXX  25184 83096 32695 10909 10297 20217 30102 40109 81001 333 59010;EQDQ01  00002PRCP99
0198830960999992002032600004-10910-037050FM-12+000699999V0200901N003112200019N0020001N1+02751+02161101311ADDAA199000091GF101991011011012501001001KA1240M+03141MA1999999101241MD1999999+0001REMSYN088AAXX  26004 83096 32695 10906 10275 20216 30124 40131 81100 333 10314 29066 55099 58000;EQDQ01  00002PRCP99
0201830960999992002032612004-10910-037050FM-12+000699999V0200501N003612200019N0020001N1+02981+02231101341ADDAA124000591AY161061AY261061GF102991021051012501001001KA1240N+02321MA1999999101271MD1999999+0021MW1201REMSYN088AAXX  26124 83096 21695 20507 10298 20223 30127 40134 72066 82500 333 20232 58002 69944;
0148830960999992002032618004-10910-037050FM-12+000699999V0201401N003112200019N0020001N1+02911+02341101111ADDAA199000021GF102991021051012501001001MA1999999101041MD1999999+0021REMSYN070AAXX  26184 83096 32695 21406 10291 20234 30104 40111 82500 333 58002;
0179830960999992002032700004-10910-037050FM-12+000699999V0200901N005112200019N0020001N1+02791+02421101241ADDAA199000021GF101991011011012501001001KA1240M+03151MA1999999101171MD1999999-0071REMSYN088AAXX  27004 83096 32695 10910 10279 20242 30117 40124 81100 333 10315 29074 55106 59007;
0186830960999992002032712004-10910-037050FM-12+000699999V0200901N003112200019N0020001N1+02951+02331101351ADDAA199000091GF102991021011012501001001KA1240N+02461MA1999999101281MD1999999+0011REMSYN076AAXX  27124 83096 32695 20906 10295 20233 30128 40135 82100 333 20246 58001;EQDQ01  00002PRCP99
0167830960999992002032718004-10910-037050FM-12+000699999V0201401N003112200019N0020001N1+02991+02351101221ADDAA199000091GF102991021011012501001001MA1999999101151MD1999999+0111REMSYN070AAXX  27184 83096 32695 21406 10299 20235 30115 40122 82100 333 58011;EQDQ01  00002PRCP99
0198830960999992002032800004-10910-037050FM-12+000699999V0200901N002612200019N0020001N1+02771+02321101441ADDAA199000091GF103991031051012501001001KA1240M+03041MA1999999101371MD1999999+0201REMSYN088AAXX  28004 83096 32695 30905 10277 20232 30137 40144 83500 333 10304 29073 55109 58020;EQDQ01  00002PRCP99
0186830960999992002032812004-10910-037050FM-12+000699999V0201401N003612200019N0020001N1+02811+02401101501ADDAA199000091GF105991031011012501001011KA1240N+02331MA1999999101431MD1999999+0151REMSYN076AAXX  28124 83096 32695 51407 10281 20240 30143 40150 83101 333 20233 58015;EQDQ01  00002PRCP99
0182830960999992002032818004-10910-037050FM-12+000699999V0200901N001019999999N0020001N1+02541+02351101261ADDAA106002091AY161061AY261061GF108991081999008001071999MA1999999101191MD1999999+0041MW1601REMSYN082AAXX  28184 83096 21595 80902 10254 20235 30119 40126 76066 88/7/ 333 58004 60021;
0213830960999992002032900004-10910-037050FM-12+000699999V0201401N001510120019N0020001N1+02741+02241101331ADDAA106002091AY161061AY261061GF105991051051012501001001KA1240M+02971MA1999999101261MD1999999-0111MW1601REMSYN100AAXX  29004 83096 21695 51403 10274 20224 30126 40133 76066 85500 333 10297 29079 55013 59011 60021;
0201830960999992002032912004-10910-037050FM-12+000699999V0201401N003112200019N0020001N1+02791+02401101471ADDAA124010991AY161061AY261061GF102991021051012501001001KA1240N+02281MA1999999101401MD1999999-0031MW1201REMSYN088AAXX  29124 83096 21695 21406 10279 20240 30140 40147 72066 82500 333 20228 59003 60114;
0148830960999992002032918004-10910-037050FM-12+000699999V0201801N003110450019N0020001N1+02851+02241101131ADDAA199000021GF106991041051012501031001MA1999999101061MD1999999-0131REMSYN070AAXX  29184 83096 32695 61806 10285 20224 30106 40113 84530 333 59013;
0213830960999992002033000004-10910-037050FM-12+000699999V0201801N001010075019N0020001N1+02571+02231101411ADDAA106007191AY161061AY261061GF107991071051008001001001KA1240M+03051MA1999999101341MD1999999+0081MW1201REMSYN100AAXX  30004 83096 21595 71802 10257 20223 30134 40141 72066 87500 333 10305 29078 55082 58008 60071;
0201830960999992002033012004-10910-037050FM-12+000699999V0200901N003110450019N0020001N1+02911+02321101471ADDAA124015091AY161061AY261061GF106991041051008001031001KA1240N+02391MA1999999101401MD1999999+0001MW1201REMSYN088AAXX  30124 83096 21595 60906 10291 20232 30140 40147 72066 84530 333 20239 58000 60154;
0148830960999992002033018004-10910-037050FM-12+000699999V0200901N003612200019N0020001N1+02951+02331101141ADDAA199000021GF102991021051012501001001MA1999999101071MD1999999+0011REMSYN070AAXX  30184 83096 32695 20907 10295 20233 30107 40114 82500 333 58001;
0179830960999992002033100004-10910-037050FM-12+000699999V0200901N002612200019N0020001N1+02701+02411101401ADDAA199000021GF101991011011012501001001KA1240M+03091MA1999999101331MD1999999-0011REMSYN088AAXX  31004 83096 32695 10905 10270 20241 30133 40140 81100 333 10309 29077 55096 59001;
0201830960999992002033112004-10910-037050FM-12+000699999V0200901N003612200019N0020001N1+02951+02331101521ADDAA124000891AY161061AY261061GF102991021011008001001001KA1240N+02471MA1999999101451MD1999999+0051MW1201REMSYN088AAXX  31124 83096 21595 20907 10295 20233 30145 40152 72066 82100 333 20247 58005 69984;
0148830960999992002033118004-10910-037050FM-12+000699999V0200901N003112200019N0020001N1+02911+02271101251ADDAA199000021GF102991021051012501001001MA1999999101181MD1999999+0111REMSYN070AAXX  31184 83096 32695 20906 10291 20227 30118 40125 82500 333 58011;
0213830960999992002040100004-10910-037050FM-12+000699999V0200501N002612200019N0020001N1+02591+02291101411ADDAA106001091AY161061AY261061GF102991021051012501001001KA1240M+03121MA1999999101341MD1999999+0011MW1201REMSYN100AAXX  01004 83096 21695 20505 10259 20229 30134 40141 72066 82500 333 10312 29077 55060 58001 60011;
0201830960999992002040112004-10910-037050FM-12+000699999V0200901N003112200019N0020001N1+02831+02381101271ADDAA124002091AY161061AY261061GF103991031051012501001001KA1240N+02451MA1999999101201MD1999999-0251MW1201REMSYN088AAXX  01124 83096 21695 30906 10283 20238 30120 40127 72066 83500 333 20245 59025 60024;
0182830960999992002040118004-10910-037050FM-12+000699999V0201401N003110120019N0020001N1+02831+02381101161ADDAA106000191AY161061AY261061GF105991051011012501001001MA1999999101091MD1999999-0251MW1201REMSYN082AAXX  01184 83096 21695 51406 10283 20238 30109 40116 72066 85100 333 59025 69921;
0179830960999992002040200004-10910-037050FM-12+000699999V0200901N002612200019N0020001N1+02731+02321101351ADDAA199000021GF102991021011012501001001KA1240M+03061MA1999999101281MD1999999-0061REMSYN088AAXX  02004 83096 32695 20905 10273 20232 30128 40135 82100 333 10306 29078 55022 59006;
0201830960999992002040212004-10910-037050FM-12+000699999V0200901N003112200019N0040001N1+02921+02291101451ADDAA124006191AY161061AY261061GF102991021001012501041001KA1240N+02371MA1999999101381MD1999999+0181MW1211REMSYN088AAXX  02124 83096 21696 20906 10292 20229 30138 40145 72166 82040 333 20237 58018 60064;
0148830960999992002040218004-10910-037050FM-12+000699999V0200901N003110120019N0020001N1+02951+02351101231ADDAA199000021GF106991061051012501001001MA1999999101161MD1999999+0071REMSYN070AAXX  02184 83096 32695 60906 10295 20235 30116 40123 86500 333 58007;
0179830960999992002040300004-10910-037050FM-12+000699999V0200901N002612200019N0020001N1+02751+02421101471ADDAA199000021GF104991041051012501001001KA1240M+03081MA1999999101401MD1999999+0121REMSYN088AAXX  03004 83096 32695 40905 10275 20242 30140 40147 84500 333 10308 29076 55079 58012;
0186830960999992002040312004-10910-037050FM-12+000699999V0200901N002612200019N0020001N1+02931+02321101571ADDAA199000091GF103991031051012501001001KA1240N+02331MA1999999101501MD1999999+0121REMSYN076AAXX  03124 83096 32695 30905 10293 20232 30150 40157 83500 333 20233 58012;EQDQ01  00002PRCP99
0167830960999992002040318004-10910-037050FM-12+000699999V0200501N001010450019N0020001N1+02701+02301101321ADDAA199000091GF106991041051012501031001MA1999999101251MD1999999+0091REMSYN070AAXX  03184 83096 32695 60502 10270 20230 30125 40132 84530 333 58009;EQDQ01  00002PRCP99
0198830960999992002040400004-10910-037050FM-12+000699999V0201401N002610120019N0020001N1+02691+02171101461ADDAA199000091GF106991061051012501001001KA1240M+03091MA1999999101391MD1999999-0011REMSYN088AAXX  04004 83096 32695 61405 10269 20217 30139 40146 86500 333 10309 29074 55051 59001;EQDQ01  00002PRCP99
0201830960999992002040412004-10910-037050FM-12+000699999V0200901N001510075019N0010001N1+02431+02251101391ADDAA124007191AY161061AY261061GF108991081051008001999999KA1240N+02351MA1999999101321MD1999999-0181MW1601REMSYN088AAXX  04124 83096 21594 80903 10243 20225 30132 40139 76066 885// 333 20235 59018 60074;
0182830960999992002040418004-10910-037050FM-12+000699999V0200901N002110120019N0020001N1+02791+02361101171ADDAA106000591AY161061AY261061GF105991051051012501001001MA1999999101101MD1999999-0151MW1201REMSYN082AAXX  04184 83096 21695 50904 10279 20236 30110 40117 72066 85500 333 59015 69941;
0179830960999992002040500004-10910-037050FM-12+000699999V0201801N001512200019N0020001N1+02691+02351101171ADDAA199000021GF103991031051012501001001KA1240M+02911MA1999999101101MD1999999-0291REMSYN088AAXX  05004 83096 32695 31803 10269 20235 30110 40117 83500 333 10291 29083 55008 59029;
0173830960999992002040512004-10910-037050FM-12+000699999V0201401N001512200019N0020001N1+02931+02331101351ADDAA124000591GF102991021011012501001001KA1240N+02361MA1999999101281MD1999999-0041REMSYN082AAXX  05124 83096 22695 21403 10293 20233 30128 40135 82100 333 20236 59004 69944;
0167830960999992002040518004-10910-037050FM-12+000699999V0201401N003112200019N0020001N1+02851+02331101011ADDAA199000091GF102991021001012501001011MA1999999100941MD1999999-0161REMSYN070AAXX  05184 83096 32695 21406 10285 20233 30094 40101 82001 333 59016;EQDQ01  00002PRCP99
0198830960999992002040600004-10910-037050FM-12+000699999V0201401N003112200019N0020001N1+02711+02151101231ADDAA199000091GF102991021011012501001001KA1240M+03051MA1999999101161MD1999999+0061REMSYN088AAXX  06004 83096 32695 21406 10271 20215 30116 40123 82100 333 10305 29071 55084 58006;EQDQ01  00002PRCP99
0186830960999992002040612004-10910-037050FM-12+000699999V0201401N002612200019N0020001N1+02921+02221101251ADDAA199000091GF102991011011012501001011KA1240N+02281MA1999999101181MD1999999-0101REMSYN076AAXX  06124 83096 32695 21405 10292 20222 30118 40125 81101 333 20228 59010;EQDQ01  00002PRCP99
0167830960999992002040618004-10910-037050FM-12+000699999V0200901N002612200019N0020001N1+02881+02161100921ADDAA199000091GF103991021011012501001011MA1999999100851MD1999999-0091REMSYN070AAXX  06184 83096 32695 30905 10288 20216 30085 40092 82101 333 59009;EQDQ01  00002PRCP99
0198830960999992002040700004-10910-037050FM-12+000699999V0201401N001010120019N0020001N1+02671+02411101201ADDAA199000091GF105991051051012501001001KA1240M+03041MA1999999101131MD1999999-0031REMSYN088AAXX  07004 83096 32695 51402 10267 20241 30113 40120 85500 333 10304 29075 55063 59003;EQDQ01  00002PRCP99
0186830960999992002040712004-10910-037050FM-12+000699999V0200901N001512200019N0020001N1+02791+02321101171ADDAA199000091GF105991021051012501001011KA1240N+02301MA1999999101101MD1999999-0081REMSYN076AAXX  07124 83096 32695 50903 10279 20232 30110 40117 82501 333 20230 59008;EQDQ01  00002PRCP99
0167830960999992002040718004-10910-037050FM-12+000699999V0201401N003610120019N0020001N1+02871+02371101001ADDAA199000091GF106991061001012501021001MA1999999100931MD1999999+0081REMSYN070AAXX  07184 83096 32695 61407 10287 20237 30093 40100 86020 333 58008;EQDQ01  00002PRCP99
0198830960999992002040800004-10910-037050FM-12+000699999V0201401N002112200019N0150001N1+02761+02321101221ADDAA199000091GF102991021011999999001001KA1240M+03041MA1999999101151MD1999999+0021REMSYN088AAXX  08004 83096 32965 21404 10276 20232 30115 40122 82100 333 10304 29076 55072 58002;EQDQ01  00002PRCP99
0201830960999992002040812004-10910-037050FM-12+000699999V0200901N001512200019N0020001N1+02911+02301101351ADDAA124000191AY161061AY261061GF102991021011012501001001KA1240N+02371MA1999999101281MD1999999+0181MW1201REMSYN088AAXX  08124 83096 21695 20903 10291 20230 30128 40135 72066 82100 333 20237 58018 69924;
0148830960999992002040818004-10910-037050FM-12+000699999V0200901N003112200019N0020001N1+02921+02341101061ADDAA199000021GF102991011011012501001011MA1999999100991MD1999999+0001REMSYN070AAXX  08184 83096 32695 20906 10292 20234 30099 40106 81101 333 58000;
0179830960999992002040900004-10910-037050FM-12+000699999V0200901N003112200019N0020001N1+02741+02361101131ADDAA199000021GF101991011011012501001001KA1240M+03091MA1999999101061MD1999999-0091REMSYN088AAXX  09004 83096 32695 10906 10274 20236 30106 40113 81100 333 10309 29075 55093 59009;
0186830960999992002040912004-10910-037050FM-12+000699999V0200901N003112200019N0020001N1+02891+02321101171ADDAA199000091GF103991031011012501001001KA1240N+02451MA1999999101101MD1999999-0181REMSYN076AAXX  09124 83096 32695 30906 10289 20232 30110 40117 83100 333 20245 59018;EQDQ01  00002PRCP99
0167830960999992002040918004-10910-037050FM-12+000699999V0200901N003612200019N0020001N1+02951+02361100941ADDAA199000091GF101991011011012501001001MA1999999100871MD1999999-0121REMSYN070AAXX  09184 83096 32695 10907 10295 20236 30087 40094 81100 333 59012;EQDQ01  00002PRCP99
0198830960999992002041000004-10910-037050FM-12+000699999V0200901N003612200019N0020001N1+02731+02301100981ADDAA199000091GF101991011011012501001001KA1240M+03061MA1999999100911MD1999999-0151REMSYN088AAXX  10004 83096 32695 10907 10273 20230 30091 40098 81100 333 10306 29075 55093 59015;EQDQ01  00002PRCP99
0186830960999992002041012004-10910-037050FM-12+000699999V0200901N003112200019N0020001N1+02931+02331101231ADDAA199000091GF102991021011012501001001KA1240N+02301MA1999999101161MD1999999+0061REMSYN076AAXX  10124 83096 32695 20906 10293 20233 30116 40123 82100 333 20230 58006;EQDQ01  00002PRCP99
0167830960999992002041018004-10910-037050FM-12+000699999V0201401N003112200019N0020001N1+02941+02361100971ADDAA199000091GF103991031011012501001011MA1999999100901MD1999999+0031REMSYN070AAXX  10184 83096 32695 31406 10294 20236 30090 40097 83101 333 58003;EQDQ01  00002PRCP99
0198830960999992002041100004-10910-037050FM-12+000699999V0201401N002112200019N0020001N1+02791+02201101211ADDAA199000091GF101991011011012501001001KA1240M+03081MA1999999101141MD1999999+0231REMSYN088AAXX  11004 83096 32695 11404 10279 20220 30114 40121 81100 333 10308 29070 55096 58023;EQDQ01  00002PRCP99
0186830960999992002041112004-10910-037050FM-12+000699999V0200901N003110450019N0020001N1+02801+02381101371ADDAA199000091GF106991041051012501031001KA1240N+02341MA1999999101301MD1999999+0141REMSYN076AAXX  11124 83096 32695 60906 10280 20238 30130 40137 84530 333 20234 58014;EQDQ01  00002PRCP99
0167830960999992002041118004-10910-037050FM-12+000699999V0201401N003110450019N0020001N1+02831+02421101001ADDAA199000091GF107991021051012501031011MA1999999100931MD1999999+0031REMSYN070AAXX  11184 83096 32695 71406 10283 20242 30093 40100 82531 333 58003;EQDQ01  00002PRCP99
0198830960999992002041200004-10910-037050FM-12+000699999V0201401N001512200019N0020001N1+02731+02341101261ADDAA199000091GF101991011011012501001001KA1240M+03061MA1999999101191MD1999999+0051REMSYN088AAXX  12004 83096 32695 11403 10273 20234 30119 40126 81100 333 10306 29079 55024 58005;EQDQ01  00002PRCP99
0186830960999992002041212004-10910-037050FM-12+000699999V0200901N003612200019N0020001N1+02751+02341101271ADDAA199000091GF105991031051012501001011KA1240N+02361MA1999999101201MD1999999-0101REMSYN076AAXX  12124 83096 32695 50907 10275 20234 30120 40127 83501 333 20236 59010;EQDQ01  00002PRCP99
0167830960999992002041218004-10910-037050FM-12+000699999V0200901N002612200019N0020001N1+02951+02381101041ADDAA199000091GF102991021011012501001001MA1999999100971MD1999999+0041REMSYN070AAXX  12184 83096 32695 20905 10295 20238 30097 40104 82100 333 58004;EQDQ01  00002PRCP99
0198830960999992002041300004-10910-037050FM-12+000699999V0200901N001512200019N0020001N1+02751+02321101221ADDAA199000091GF102991021051012501001001KA1240M+03101MA1999999101151MD1999999-0041REMSYN088AAXX  13004 83096 32695 20903 10275 20232 30115 40122 82500 333 10310 29076 55065 59004;EQDQ01  00002PRCP99
0186830960999992002041312004-10910-037050FM-12+000699999V0200901N002112200019N0020001N1+02871+02391101251ADDAA199000091GF102991021051012501001001KA1240N+02411MA1999999101181MD1999999-0021REMSYN076AAXX  13124 83096 32695 20904 10287 20239 30118 40125 82500 333 20241 59002;EQDQ01  00002PRCP99
0167830960999992002041318004-10910-037050FM-12+000699999V0201401N002612200019N0020001N1+02931+02431101101ADDAA199000091GF102991021011012501001001MA1999999101031MD1999999+0061REMSYN070AAXX  13184 83096 32695 21405 10293 20243 30103 40110 82100 333 58006;EQDQ01  00002PRCP99
0198830960999992002041400004-10910-037050FM-12+000699999V0200901N002612200019N0020001N1+02711+02281101181ADDAA199000091GF102991021051012501001001KA1240M+03101MA1999999101111MD1999999-0041REMSYN088AAXX  14004 83096 32695 20905 10271 20228 30111 40118 82500 333 10310 29077 55100 59004;EQDQ01  00002PRCP99
0186830960999992002041412004-10910-037050FM-12+000699999V0200901N003612200019N0020001N1+02931+02291101351ADDAA199000091GF103991031011012501001001KA1240N+02421MA1999999101281MD1999999+0101REMSYN076AAXX  14124 83096 32695 30907 10293 20229 30128 40135 83100 333 20242 58010;EQDQ01  00002PRCP99
0167830960999992002041418004-10910-037050FM-12+000699999V0201401N003112200019N0020001N1+02891+02301101111ADDAA199000091GF103991031011012501001001MA1999999101041MD1999999+0011REMSYN070AAXX  14184 83096 32695 31406 10289 20230 30104 40111 83100 333 58001;EQDQ01  00002PRCP99
0198830960999992002041500004-10910-037050FM-12+000699999V0200901N002612200019N0020001N1+02731+02261101321ADDAA199000091GF102991021051012501001001KA1240M+03021MA1999999101251MD1999999+0141REMSYN088AAXX  15004 83096 32695 20905 10273 20226 30125 40132 82500 333 10302 29073 55104 58014;EQDQ01  00002PRCP99
0201830960999992002041512004-10910-037050FM-12+000699999V0200901N002110120019N0020001N1+02631+02481101411ADDAA124008991AY161061AY261061GF106991061021012501001021KA1240N+02301MA1999999101341MD1999999+0061MW1211REMSYN088AAXX  15124 83096 21695 60904 10263 20248 30134 40141 72166 86202 333 20230 58006 60094;
0173830960999992002041612004-10910-037050FM-12+000699999V0200501N001512200019N0020001N1+02791+02341101471ADDAA124000191GF102991021001012501061061KA1240N+02311MA1999999101401MD1999999+0061REMSYN082AAXX  16124 83096 22695 20503 10279 20234 30140 40147 82066 333 20231 58006 69924;
0182830960999992002041618004-10910-037050FM-12+000699999V0201801N002612200019N0020001N1+02891+02321101181ADDAA106002091AY161061AY261061GF101991011011012501001001MA1999999101111MD1999999+0111MW1201REMSYN082AAXX  16184 83096 21695 11805 10289 20232 30111 40118 72066 81100 333 58011 60021;
0179830960999992002041700004-10910-037050FM-12+000699999V0201801N001512200019N0020001N1+02721+02221101451ADDAA199000021GF101991011011012501001001KA1240M+03031MA1999999101381MD1999999+0111REMSYN088AAXX  17004 83096 32695 11803 10272 20222 30138 40145 81100 333 10303 29074 55086 58011;
0198830960999992002041800004-10910-037050FM-12+000699999V0200901N002112200019N0020001N1+02731+02321101341ADDAA199000091GF102991021011012501001001KA1240M+03061MA1999999101271MD1999999-0111REMSYN088AAXX  18004 83096 32695 20904 10273 20232 30127 40134 82100 333 10306 29075 55111 59011;EQDQ01  00002PRCP99
0186830960999992002041812004-10910-037050FM-12+000699999V0201401N003112200019N0020001N1+02951+02231101521ADDAA199000091GF101991011011012501001001KA1240N+02311MA1999999101451MD1999999+0131REMSYN076AAXX  18124 83096 32695 11406 10295 20223 30145 40152 81100 333 20231 58013;EQDQ01  00002PRCP99
0167830960999992002041818004-10910-037050FM-12+000699999V0200901N003612200019N0020001N1+02891+02221101291ADDAA199000091GF101991011011012501001001MA1999999101221MD1999999+0071REMSYN070AAXX  18184 83096 32695 10907 10289 20222 30122 40129 81100 333 58007;EQDQ01  00002PRCP99
0198830960999992002041900004-10910-037050FM-12+000699999V0200901N003112200019N0020001N1+02761+02231101411ADDAA199000091GF101991011011012501001001KA1240M+03061MA1999999101341MD1999999+0071REMSYN088AAXX  19004 83096 32695 10906 10276 20223 30134 40141 81100 333 10306 29070 55085 58007;EQDQ01  00002PRCP99
0186830960999992002041912004-10910-037050FM-12+000699999V0200901N003112200019N0020001N1+02911+02041101381ADDAA199000091GF101991011011012501001001KA1240N+02291MA1999999101311MD1999999-0141REMSYN076AAXX  19124 83096 32695 10906 10291 20204 30131 40138 81100 333 20229 59014;EQDQ01  00002PRCP99
0167830960999992002041918004-10910-037050FM-12+000699999V0201801N003112200019N0020001N1+02901+02101101141ADDAA199000091GF102991021011012501001001MA1999999101071MD1999999-0151REMSYN070AAXX  19184 83096 32695 21806 10290 20210 30107 40114 82100 333 59015;EQDQ01  00002PRCP99
0198830960999992002042000004-10910-037050FM-12+000699999V0201801N002112200019N0020001N1+02781+02181101361ADDAA199000091GF102991021011012501001001KA1240M+03091MA1999999101291MD1999999-0051REMSYN088AAXX  20004 83096 32695 21804 10278 20218 30129 40136 82100 333 10309 29066 55100 59005;EQDQ01  00002PRCP99
0186830960999992002042012004-10910-037050FM-12+000699999V0201801N002612200019N0020001N1+02801+02001101391ADDAA199000091GF101991011011012501001001KA1240N+02321MA1999999101321MD1999999+0011REMSYN076AAXX  20124 83096 32695 11805 10280 20200 30132 40139 81100 333 20232 58001;EQDQ01  00002PRCP99
0167830960999992002042018004-10910-037050FM-12+000699999V0201801N002610120019N0020001N1+02921+02361101101ADDAA199000091GF105991051051012501001001MA1999999101031MD1999999-0041REMSYN070AAXX  20184 83096 32695 51805 10292 20236 30103 40110 85500 333 59004;EQDQ01  00002PRCP99
0213830960999992002042100004-10910-037050FM-12+000699999V0201801N003112200019N0020001N1+02691+02391101341ADDAA106000591AY161061AY261061GF101991011051012501001001KA1240M+03091MA1999999101271MD1999999-0021MW1201REMSYN100AAXX  21004 83096 21695 11806 10269 20239 30127 40134 72066 81500 333 10309 29076 55096 59002 69941;
0201830960999992002042112004-10910-037050FM-12+000699999V0200901N004112200019N0020001N1+02851+02241101491ADDAA124006191AY161061AY261061GF104991021051012501001011KA1240N+02471MA1999999101421MD1999999+0101MW1201REMSYN088AAXX  21124 83096 21695 40908 10285 20224 30142 40149 72066 82501 333 20247 58010 60064;
0179830960999992002042200004-10910-037050FM-12+000699999V0200501N001010120019N0020001N1+02631+02291101341ADDAA199000021GF107991071051012501001001KA1240M+03051MA1999999101271MD1999999+0001REMSYN088AAXX  22004 83096 32695 70502 10263 20229 30127 40134 87500 333 10305 29074 55100 58000;
0201830960999992002042212004-10910-037050FM-12+000699999V0201401N003110120019N0020001N1+02751+02401101201ADDAA124004191AY161061AY261061GF105991051051012501001001KA1240N+02411MA1999999101131MD1999999+0291MW1201REMSYN088AAXX  22124 83096 21695 51406 10275 20240 30113 40120 72066 85500 333 20241 58029 60044;
0182830960999992002042218004-10910-037050FM-12+000699999V0201401N003612200019N0020001N1+02871+02231101161ADDAA106000891AY161061AY261061GF102991021011012501001001MA1999999101091MD1999999+0011MW1201REMSYN082AAXX  22184 83096 21695 21407 10287 20223 30109 40116 72066 82100 333 58001 69981;
0213830960999992002042300004-10910-037050FM-12+000699999V0201801N002612200019N0020001N1+02691+02331101171ADDAA106002091AY161061AY261061GF102991021051012501001001KA1240M+03011MA1999999101101MD1999999+0171MW1201REMSYN100AAXX  23004 83096 21695 21805 10269 20233 30110 40117 72066 82500 333 10301 29078 55082 58017 60021;
0201830960999992002042312004-10910-037050FM-12+000699999V0200901N003112200019N0020001N1+02881+02181101271ADDAA124006191AY161061AY261061GF102991021011012501001001KA1240N+02361MA1999999101201MD1999999+0071MW1211REMSYN088AAXX  23124 83096 21695 20906 10288 20218 30120 40127 72166 82100 333 20236 58007 60064;
0148830960999992002042318004-10910-037050FM-12+000699999V0201401N003612200019N0020001N1+02851+02191101041ADDAA199000021GF102991021011012501001001MA1999999100971MD1999999-0121REMSYN070AAXX  23184 83096 32695 21407 10285 20219 30097 40104 82100 333 59012;
0179830960999992002042400004-10910-037050FM-12+000699999V0200901N003110120019N0020001N1+02651+02221101331ADDAA199000021GF105991051051012501001001KA1240M+02991MA1999999101261MD1999999+0161REMSYN088AAXX  24004 83096 32695 50906 10265 20222 30126 40133 85500 333 10299 29072 55101 58016;
0201830960999992002042412004-10910-037050FM-12+000699999V0201801N002610120019N0020001N1+02791+02231101231ADDAA124001091AY161061AY261061GF106991061051012501001001KA1240N+02281MA1999999101161MD1999999-0041MW1021REMSYN088AAXX  24124 83096 21695 61805 10279 20223 30116 40123 70266 86500 333 20228 59004 60014;
0167830960999992002042418004-10910-037050FM-12+000699999V0201401N002110120019N0020001N1+02781+02301100971ADDAA199000091GF108991081051012501999999MA1999999100901MD1999999-0071REMSYN070AAXX  24184 83096 32695 81404 10278 20230 30090 40097 885// 333 59007;EQDQ01  00002PRCP99
0213830960999992002042500004-10910-037050FM-12+000699999V0200901N003110075019N0020001N1+02611+02231101291ADDAA106000191AY161061AY261061GF107991071051008001001001KA1240M+02971MA1999999101221MD1999999-0041MW1201REMSYN100AAXX  25004 83096 21595 70906 10261 20223 30122 40129 72066 87500 333 10297 29077 55050 59004 69911;
0201830960999992002042512004-10910-037050FM-12+000699999V0200901N002112200019N0020001N1+02731+02301101281ADDAA124003091AY161061AY261061GF102991021011012501001001KA1240N+02431MA1999999101211MD1999999+0051MW1201REMSYN088AAXX  25124 83096 21695 20904 10273 20230 30121 40128 72066 82100 333 20243 58005 60034;
0148830960999992002042518004-10910-037050FM-12+000699999V0201401N002112200019N0020001N1+02811+02381101071ADDAA199000021GF104991041051012501001001MA1999999101001MD1999999+0101REMSYN070AAXX  25184 83096 32695 41404 10281 20238 30100 40107 84500 333 58010;
0179830960999992002042600004-10910-037050FM-12+000699999V0201401N003112200019N0020001N1+02731+02281101171ADDAA199000021GF103991031051012501001001KA1240M+02911MA1999999101101MD1999999-0121REMSYN088AAXX  26004 83096 32695 31406 10273 20228 30110 40117 83500 333 10291 29077 55057 59012;
0186830960999992002042612004-10910-037050FM-12+000699999V0200901N001512200019N0020001N1+02891+02321101451ADDAA199000091GF102991021011012501001001KA1240N+02321MA1999999101381MD1999999+0171REMSYN076AAXX  26124 83096 32695 20903 10289 20232 30138 40145 82100 333 20232 58017;EQDQ01  00002PRCP99
0167830960999992002042618004-10910-037050FM-12+000699999V0201401N002112200019N0020001N1+02871+02371101221ADDAA199000091GF102991021001012501001011MA1999999101151MD1999999+0151REMSYN070AAXX  26184 83096 32695 21404 10287 20237 30115 40122 82001 333 58015;EQDQ01  00002PRCP99
0198830960999992002042700004-10910-037050FM-12+000699999V0201401N002612200019N0020001N1+02721+02171101391ADDAA199000091GF102991021011012501001001KA1240M+03021MA1999999101321MD1999999+0201REMSYN088AAXX  27004 83096 32695 21405 10272 20217 30132 40139 82100 333 10302 29072 55062 58020;EQDQ01  00002PRCP99
0186830960999992002042712004-10910-037050FM-12+000699999V0201401N002612200019N0020001N1+02831+01991101301ADDAA199000091GF102991021011012501001001KA1240N+02371MA1999999101231MD1999999-0151REMSYN076AAXX  27124 83096 32695 21405 10283 20199 30123 40130 82100 333 20237 59015;EQDQ01  00002PRCP99
0167830960999992002042718004-10910-037050FM-12+000699999V0201401N002112200019N0020001N1+02891+02101101161ADDAA199000091GF102991021001012501001011MA1999999101091MD1999999-0061REMSYN070AAXX  27184 83096 32695 21404 10289 20210 30109 40116 82001 333 59006;EQDQ01  00002PRCP99
0198830960999992002042800004-10910-037050FM-12+000699999V0200901N001012200019N0020001N1+02671+02161101281ADDAA199000091GF101991011011012501001001KA1240M+03021MA1999999101211MD1999999-0111REMSYN088AAXX  28004 83096 32695 10902 10267 20216 30121 40128 81100 333 10302 29067 55110 59011;EQDQ01  00002PRCP99
0186830960999992002042812004-10910-037050FM-12+000699999V0201401N002612200019N0020001N1+02911+01951101341ADDAA199000091GF103991031011012501001001KA1240N+02301MA1999999101271MD1999999+0041REMSYN076AAXX  28124 83096 32695 31405 10291 20195 30127 40134 83100 333 20230 58004;EQDQ01  00002PRCP99
0167830960999992002042818004-10910-037050FM-12+000699999V0201401N003112200019N0020001N1+02851+02141101241ADDAA199000091GF102991021011012501001001MA1999999101171MD1999999+0081REMSYN070AAXX  28184 83096 32695 21406 10285 20214 30117 40124 82100 333 58008;EQDQ01  00002PRCP99
0198830960999992002042900004-10910-037050FM-12+000699999V0201401N002112200019N0020001N1+02711+01981101431ADDAA199000091GF101991011011012501001001KA1240M+03041MA1999999101361MD1999999+0151REMSYN088AAXX  29004 83096 32695 11404 10271 20198 30136 40143 81100 333 10304 29062 55094 58015;EQDQ01  00002PRCP99
0186830960999992002042912004-10910-037050FM-12+000699999V0201801N003112200019N0020001N1+02811+01981101591ADDAA199000091GF101991011051012501001001KA1240N+02161MA1999999101521MD1999999+0251REMSYN076AAXX  29124 83096 32695 11806 10281 20198 30152 40159 81500 333 20216 58025;EQDQ01  00002PRCP99
0167830960999992002042918004-10910-037050FM-12+000699999V0201801N003112200019N0020001N1+02821+02051101321ADDAA199000091GF102991021051012501001001MA1999999101251MD1999999+0081REMSYN070AAXX  29184 83096 32695 21806 10282 20205 30125 40132 82500 333 58008;EQDQ01  00002PRCP99
0198830960999992002043000004-10910-037050FM-12+000699999V0201801N002112200019N0020001N1+02681+02091101651ADDAA199000091GF102991021011012501001001KA1240M+03051MA1999999101581MD1999999+0121REMSYN088AAXX  30004 83096 32695 21804 10268 20209 30158 40165 82100 333 10305 29066 55105 58012;EQDQ01  00002PRCP99
0186830960999992002043012004-10910-037050FM-12+000699999V0200901N002112200019N0020001N1+02871+02261101571ADDAA199000091GF102991021011012501001001KA1240N+02411MA1999999101501MD1999999-0021REMSYN076AAXX  30124 83096 32695 20904 10287 20226 30150 40157 82100 333 20241 59002;EQDQ01  00002PRCP99
0167830960999992002043018004-10910-037050FM-12+000699999V0201401N003112200019N0020001N1+02931+02291101421ADDAA199000091GF101991011011012501001001MA1999999101351MD1999999+0101REMSYN070AAXX  30184 83096 32695 11406 10293 20229 30135 40142 81100 333 58010;EQDQ01  00002PRCP99
0198830960999992002050100004-10910-037050FM-12+000699999V0201401N002112200019N0020001N1+02751+02281101441ADDAA199000091GF102991021011012501001001KA1240M+03061MA1999999101371MD1999999-0211REMSYN088AAXX  01004 83096 32695 21404 10275 20228 30137 40144 82100 333 10306 29072 55101 59021;EQDQ01  00002PRCP99
0186830960999992002050112004-10910-037050FM-12+000699999V0201401N002610120019N0020001N1+02851+02371101551ADDAA199000091GF106991061051012501001001KA1240N+02301MA1999999101481MD1999999-0021REMSYN076AAXX  01124 83096 32695 61405 10285 20237 30148 40155 86500 333 20230 59002;EQDQ01  00002PRCP99
0167830960999992002050118004-10910-037050FM-12+000699999V0200901N002612200019N0020001N1+02791+02321101241ADDAA199000091GF103991031011012501001001MA1999999101171MD1999999-0181REMSYN070AAXX  01184 83096 32695 30905 10279 20232 30117 40124 83100 333 59018;EQDQ01  00002PRCP99
0185830960999992002050200004-10910-037050FM-12+000699999V0200901N003110120019N0020001N1+02541+02401101451ADDAA106000591GF106991061051012501999999KA1240M+02951MA1999999101381MD1999999+0011REMSYN094AAXX  02004 83096 21695 60906 10254 20240 30138 40145 865// 333 10295 29084 5018/ 58001 69941;
0201830960999992002050212004-10910-037050FM-12+000699999V0200501N001512200019N0020001N1+02731+02341101481ADDAA124002091AY161061AY261061GF102991021051008001001001KA1240N+02381MA1999999101411MD1999999-0071MW1201REMSYN088AAXX  02124 83096 21595 20503 10273 20234 30141 40148 72066 82500 333 20238 59007 60024;
0148830960999992002050218004-10910-037050FM-12+000699999V0201801N003110120019N0020001N1+02741+02451101161ADDAA199000021GF107991071051012501001001MA1999999101091MD1999999-0081REMSYN070AAXX  02184 83096 32695 71806 10274 20245 30109 40116 87500 333 59008;
0179830960999992002050300004-10910-037050FM-12+000699999V0200901N001012200019N0020001N1+02651+02271101251ADDAA199000021GF101991011011012501001001KA1240M+03051MA1999999101181MD1999999-0201REMSYN088AAXX  03004 83096 32695 10902 10265 20227 30118 40125 81100 333 10305 29081 55070 59020;
0201830960999992002050312004-10910-037050FM-12+000699999V0203601N001510075019N0010001N1+02411+02131101401ADDAA124009991AY161061AY261061GF108991081051008001999999KA1240N+02351MA1999999101331MD1999999-0081MW1601REMSYN088AAXX  03124 83096 21594 83603 10241 20213 30133 40140 76066 885// 333 20235 59008 60104;
0182830960999992002050318004-10910-037050FM-12+000699999V0201401N001010120019N0020001N1+02671+02341101181ADDAA106000591AY161061AY261061GF106991061051012501001001MA1999999101121MD1999999+0031MW1201REMSYN082AAXX  03184 83096 21695 61402 10267 20234 30112 40118 72066 86500 333 58003 69941;
0179830960999992002050400004-10910-037050FM-12+000699999V0200901N002610120019N0020001N1+02651+02331101291ADDAA199000021GF105991051051012501001001KA1240M+02791MA1999999101221MD1999999+0041REMSYN088AAXX  04004 83096 32695 50905 10265 20233 30122 40129 85500 333 10279 29083 55001 58004;
0173830960999992002050412004-10910-037050FM-12+000699999V0200901N001512200019N0020001N1+02831+02271101411ADDAA124000591GF102991021051012501001001KA1240N+02351MA1999999101341MD1999999+0011REMSYN082AAXX  04124 83096 22695 20903 10283 20227 30134 40141 82500 333 20235 58001 69944;
0167830960999992002050418004-10910-037050FM-12+000699999V0200901N002112200019N0020001N1+02831+02241101361ADDAA199000091GF102991021011012501001001MA1999999101291MD1999999+0171REMSYN070AAXX  04184 83096 32695 20904 10283 20224 30129 40136 82100 333 58017;EQDQ01  00002PRCP99
0198830960999992002050500004-10910-037050FM-12+000699999V0200901N002112200019N0020001N1+02671+02291101471ADDAA199000091GF102991021011012501001001KA1240M+02951MA1999999101401MD1999999+0181REMSYN088AAXX  05004 83096 32695 20904 10267 20229 30140 40147 82100 333 10295 29075 55102 58018;EQDQ01  00002PRCP99
0186830960999992002050512004-10910-037050FM-12+000699999V0201401N002112200019N0020001N1+02831+02101101571ADDAA199000091GF101991011011012501001001KA1240N+02241MA1999999101501MD1999999+0161REMSYN076AAXX  05124 83096 32695 11404 10283 20210 30150 40157 81100 333 20224 58016;EQDQ01  00002PRCP99
0167830960999992002050518004-10910-037050FM-12+000699999V0201801N002612200019N0020001N1+02871+02191101231ADDAA199000091GF103991031011012501001001MA1999999101161MD1999999-0131REMSYN070AAXX  05184 83096 32695 31805 10287 20219 30116 40123 83100 333 59013;EQDQ01  00002PRCP99
0213830960999992002050600004-10910-037050FM-12+000699999V0201801N002610120019N0020001N1+02531+02331101571ADDAA106000591AY161061AY261061GF105991051051012501001001KA1240M+02971MA1999999101501MD1999999+0101MW1201REMSYN100AAXX  06004 83096 21695 51805 10253 20233 30150 40157 72066 85500 333 10297 29077 55091 58010 69941;
0201830960999992002050612004-10910-037050FM-12+000699999V0202701N002110075019N0020001N1+02531+02491101631ADDAA124018091AY161061AY261061GF108991081051008001999999KA1240N+02371MA1999999101561MD1999999+0061MW1201REMSYN088AAXX  06124 83096 21595 82704 10253 20249 30156 40163 72066 885// 333 20237 58006 60184;
0182830960999992002050618004-10910-037050FM-12+000699999V0200901N000519999999N0020001N1+02361+02311101381ADDAA106036191AY161061AY261061GF108991081999008001021999MA1999999101311MD1999999+0151MW1601REMSYN082AAXX  06184 83096 21595 80901 10236 20231 30131 40138 76066 88/2/ 333 58015 60361;
0213830960999992002050700004-10910-037050FM-12+000699999V0203201N001519999999N0020001N1+02341+02291101641ADDAA106023991AY161061AY261061GF108991081999012501021999KA1240M+02811MA1999999101571MD1999999+0071MW1211REMSYN100AAXX  07004 83096 21695 83203 10234 20229 30157 40164 72166 88/2/ 333 10281 29097 55000 58007 60241;
0201830960999992002050712004-10910-037050FM-12+000699999V0200901N003112200019N0020001N1+02811+02291101561ADDAA124065091AY161061AY261061GF101991011051012501001001KA1240N+02331MA1999999101491MD1999999-0071MW1201REMSYN088AAXX  07124 83096 21695 10906 10281 20229 30149 40156 72066 81500 333 20233 59007 60654;
0148830960999992002050718004-10910-037050FM-12+000699999V0200901N002112200019N0020001N1+02801+02221101311ADDAA199000021GF103991031051012501001001MA1999999101241MD1999999-0071REMSYN070AAXX  07184 83096 32695 30904 10280 20222 30124 40131 83500 333 59007;
0179830960999992002050800004-10910-037050FM-12+000699999V0201801N002612200019N0020001N1+02651+02271101481ADDAA199000021GF102991021051012501001001KA1240M+02971MA1999999101411MD1999999-0161REMSYN088AAXX  08004 83096 32695 21805 10265 20227 30141 40148 82500 333 10297 29076 55095 59016;
0201830960999992002050812004-10910-037050FM-12+000699999V0203601N001512200019N0020001N1+02471+02231101601ADDAA124002091AY161061AY261061GF103991031011012501001001KA1240N+02351MA1999999101531MD1999999+0041MW1201REMSYN088AAXX  08124 83096 21695 33603 10247 20223 30153 40160 72066 83100 333 20235 58004 60024;
0148830960999992002050818004-10910-037050FM-12+000699999V0200901N001512200019N0020001N1+02771+02251101391ADDAA199000021GF102991021011012501001001MA1999999101321MD1999999+0081REMSYN070AAXX  08184 83096 32695 20903 10277 20225 30132 40139 82100 333 58008;
0179830960999992002050900004-10910-037050FM-12+000699999V0200901N001512200019N0020001N1+02611+02311101491ADDAA199000021GF103991031051001501001001KA1240M+02911MA1999999101421MD1999999+0011REMSYN088AAXX  09004 83096 33295 30903 10261 20231 30142 40149 83500 333 10291 29082 55068 58001;
0186830960999992002050912004-10910-037050FM-12+000699999V0200901N002612200019N0020001N1+02851+02191101731ADDAA199000091GF102991021011012501001001KA1240N+02331MA1999999101661MD1999999+0131REMSYN076AAXX  09124 83096 32695 20905 10285 20219 30166 40173 82100 333 20233 58013;EQDQ01  00002PRCP99
0167830960999992002050918004-10910-037050FM-12+000699999V0201401N003112200019N0020001N1+02831+02171101441ADDAA199000091GF101991011001012501001011MA1999999101371MD1999999+0051REMSYN070AAXX  09184 83096 32695 11406 10283 20217 30137 40144 81001 333 58005;EQDQ01  00002PRCP99
0198830960999992002051000004-10910-037050FM-12+000699999V0200901N002612200019N0020001N1+02691+02261101651ADDAA199000091GF101991011011012501001001KA1240M+02971MA1999999101581MD1999999+0161REMSYN088AAXX  10004 83096 32695 10905 10269 20226 30158 40165 81100 333 10297 29072 55093 58016;EQDQ01  00002PRCP99
0186830960999992002051012004-10910-037050FM-12+000699999V0201801N002110120019N0020001N1+02911+02461101751ADDAA199000091GF105991051051012501001001KA1240N+02341MA1999999101681MD1999999+0021REMSYN076AAXX  10124 83096 32695 51804 10291 20246 30168 40175 85500 333 20234 58002;EQDQ01  00002PRCP99
0182830960999992002051018004-10910-037050FM-12+000699999V0201801N002610120019N0020001N1+02701+02431101491ADDAA106001091AY161061AY261061GF107991071051012501001001MA1999999101421MD1999999+0051MW1201REMSYN082AAXX  10184 83096 21695 71805 10270 20243 30142 40149 72066 87500 333 58005 60011;
0213830960999992002051100004-10910-037050FM-12+000699999V0201801N001010075019N0010001N1+02491+02411101721ADDAA106006191AY161061AY261061GF108991081051008001999999KA1240M+03001MA1999999101651MD1999999+0071MW1601REMSYN100AAXX  11004 83096 21594 81802 10249 20241 30165 40172 76066 885// 333 10300 29088 55073 58007 60061;
0201830960999992002051112004-10910-037050FM-12+000699999V0200901N002112200019N0020001N1+02851+02351101791ADDAA124040991AY161061AY261061GF102991021051012501001001KA1240N+02411MA1999999101721MD1999999+0041MW1201REMSYN088AAXX  11124 83096 21695 20904 10285 20235 30172 40179 72066 82500 333 20241 58004 60414;
0148830960999992002051118004-10910-037050FM-12+000699999V0201801N004112200019N0020001N1+02831+02291101461ADDAA199000021GF102991021051012501001001MA1999999101391MD1999999-0031REMSYN070AAXX  11184 83096 32695 21808 10283 20229 30139 40146 82500 333 59003;
0179830960999992002051200004-10910-037050FM-12+000699999V0201801N003112200019N0020001N1+02711+02281101681ADDAA199000021GF101991011011012501001001KA1240M+02991MA1999999101611MD1999999-0041REMSYN088AAXX  12004 83096 32695 11806 10271 20228 30161 40168 81100 333 10299 29076 55088 59004;
0201830960999992002051212004-10910-037050FM-12+000699999V0201801N002112200019N0020001N1+02811+02201101791ADDAA124000191AY161061AY261061GF102991021051012501001001KA1240N+02451MA1999999101721MD1999999+0001MW1201REMSYN088AAXX  12124 83096 21695 21804 10281 20220 30172 40179 72066 82500 333 20245 58000 69924;
0179830960999992002051300004-10910-037050FM-12+000699999V0200901N001510120019N0020001N1+02661+02221101601ADDAA199000021GF106991061051012501001001KA1240M+02971MA1999999101531MD1999999-0081REMSYN088AAXX  13004 83096 32695 60903 10266 20222 30153 40160 86500 333 10297 29075 55093 59008;
0186830960999992002051312004-10910-037050FM-12+000699999V0201401N002612200019N0020001N1+02771+02301101611ADDAA199000091GF103991031051012501001001KA1240N+02451MA1999999101541MD1999999-0181REMSYN076AAXX  13124 83096 32695 31405 10277 20230 30154 40161 83500 333 20245 59018;EQDQ01  00002PRCP99
0167830960999992002051318004-10910-037050FM-12+000699999V0201401N002112200019N0020001N1+02831+02151101541ADDAA199000091GF102991021011012501001001MA1999999101471MD1999999+0091REMSYN070AAXX  13184 83096 32695 21404 10283 20215 30147 40154 82100 333 58009;EQDQ01  00002PRCP99
0198830960999992002051400004-10910-037050FM-12+000699999V0201401N002112200019N0020001N1+02651+02181101571ADDAA199000091GF102991021011012501001001KA1240M+02951MA1999999101501MD1999999-0031REMSYN088AAXX  14004 83096 32695 21404 10265 20218 30150 40157 82100 333 10295 29073 55010 59003;EQDQ01  00002PRCP99
0201830960999992002051412004-10910-037050FM-12+000699999V0201401N002612200019N0020001N1+02791+02341101651ADDAA124006191AY161061AY261061GF103991031011012501001001KA1240N+02411MA1999999101581MD1999999+0041MW1211REMSYN088AAXX  14124 83096 21695 31405 10279 20234 30158 40165 72166 83100 333 20241 58004 60064;
0182830960999992002051418004-10910-037050FM-12+000699999V0200901N002110120019N0020001N1+02611+02311101471ADDAA106000891AY161061AY261061GF106991061001012501021001MA1999999101401MD1999999-0071MW1201REMSYN082AAXX  14184 83096 21695 60904 10261 20231 30140 40147 72066 86020 333 59007 69981;
0213830960999992002051500004-10910-037050FM-12+000699999V0201401N003112200019N0020001N1+02651+02391101591ADDAA106003091AY161061AY261061GF102991021051012501001001KA1240M+02931MA1999999101521MD1999999+0021MW1201REMSYN100AAXX  15004 83096 21695 21406 10265 20239 30152 40159 72066 82500 333 10293 29082 55066 58002 60031;
0201830960999992002051512004-10910-037050FM-12+000699999V0200901N004112200019N0020001N1+02851+02041101721ADDAA124004191AY161061AY261061GF104991031051012501001011KA1240N+02331MA1999999101651MD1999999+0071MW1201REMSYN088AAXX  15124 83096 21695 40908 10285 20204 30165 40172 72066 83501 333 20233 58007 60044;
0148830960999992002051518004-10910-037050FM-12+000699999V0201801N002112200019N0020001N1+02861+02261101451ADDAA199000021GF101991011051012501001001MA1999999101381MD1999999-0021REMSYN070AAXX  15184 83096 32695 11804 10286 20226 30138 40145 81500 333 59002;
0179830960999992002051600004-10910-037050FM-12+000699999V0201801N003110120019N0020001N1+02851+02331101521ADDAA199000021GF106991061051012501001001KA1240M+02991MA1999999101451MD1999999-0071REMSYN088AAXX  16004 83096 32695 61806 10285 20233 30145 40152 86500 333 10299 29075 55099 59007;
0201830960999992002051612004-10910-037050FM-12+000699999V0201401N002110075019N0010001N1+02431+02251101491ADDAA124016091AY161061AY261061GF108991081051008001999999KA1240N+02391MA1999999101421MD1999999-0231MW1601REMSYN088AAXX  16124 83096 21594 81404 10243 20225 30142 40149 76066 885// 333 20239 59023 60164;
0182830960999992002051618004-10910-037050FM-12+000699999V0201401N002110075019N0010001N1+02471+02281101411ADDAA106010991AY161061AY261061GF108991081051008001999999MA1999999101341MD1999999-0041MW1601REMSYN082AAXX  16184 83096 21594 81404 10247 20228 30134 40141 76066 885// 333 59004 60111;
0213830960999992002051700004-10910-037050FM-12+000699999V0201401N001510120019N0020001N1+02381+02211101401ADDAA106000191AY161061AY261061GF106991061051012501001001KA1240M+02731MA1999999101331MD1999999-0121MW1201REMSYN100AAXX  17004 83096 22695 61403 10238 20221 30133 40140 72066 86500 333 10273 29090 55000 59012 69921;
0201830960999992002051712004-10910-037050FM-12+000699999V02099999999999999999N0020001N1+02631+02481101421ADDAA124011991AY161061AY261061GF106991061001012501071001KA1240N+02331MA1999999101351MD1999999-0071MW1211REMSYN088AAXX  17124 83096 21695 618// 10263 20248 30135 40142 72166 86070 333 20233 59007 60124;
0148830960999992002051718004-10910-037050FM-12+000699999V02099999999992200019N0020001N1+02791+02311101081ADDAA199000021GF103991031011012501001001MA1999999101011MD1999999-0331REMSYN070AAXX  17184 83096 32695 309// 10279 20231 30101 40108 83100 333 59033;
0179830960999992002051800004-10910-037050FM-12+000699999V02099999999992200019N0020001N1+02671+02241101311ADDAA199000021GF101991011011012501051091KA1240M+02911MA1999999101241MD1999999-0091REMSYN088AAXX  18004 83096 32695 109// 10267 20224 30124 40131 81159 333 10291 29089 55047 59009;
0186830960999992002051812004-10910-037050FM-12+000699999V02099999999992200019N0020001N1+02791+02361101351ADDAA199000091GF101991011011012501001001KA1240N+02281MA1999999101281MD1999999-0071REMSYN076AAXX  18124 83096 32695 109// 10279 20236 30128 40135 81100 333 20228 59007;EQDQ01  00002PRCP99
0167830960999992002051818004-10910-037050FM-12+000699999V02099999999999999999N0020001N1+02521+02311101171ADDAA199000091GF106991061001012501011001MA1999999101101MD1999999+0091REMSYN070AAXX  18184 83096 32695 618// 10252 20231 30110 40117 86010 333 58009;EQDQ01  00002PRCP99
0198830960999992002051900004-10910-037050FM-12+000699999V02099999999990120019N0020001N1+02551+02271101451ADDAA199000091GF106991061001012501021001KA1240M+02931MA1999999101381MD1999999+0141REMSYN088AAXX  19004 83096 32695 618// 10255 20227 30138 40145 86020 333 10293 29083 55040 58014;EQDQ01  00002PRCP99
0200830960999992002051912004-10910-037050FM-12+000699999V02099999999990120019N0020001N1+02471+02411101641ADDAA124010991AY161061AY261061GF108991081001012501021001KA1240N+02301MA1999999101571MD1999999+0291MW1201REMSYN087AAXX  19124 83096 21695 818// 10247 20241 30157 4016472066 88020 333 20230 58029 60114;
0148830960999992002051918004-10910-037050FM-12+000699999V02099999999999999999N0020001N1+02731+02381101271ADDAA199000021GF106991061001012501011001MA1999999101201MD1999999+0101REMSYN070AAXX  19184 83096 32695 614// 10273 20238 30120 40127 86010 333 58010;
0179830960999992002052000004-10910-037050FM-12+000699999V02099999999999999999N0020001N1+02551+02421101371ADDAA199000021GF106991061001012501011001KA1240M+02851MA1999999101301MD1999999-0081REMSYN088AAXX  20004 83096 32695 609// 10255 20242 30130 40137 86010 333 10285 29090 55035 59008;
0201830960999992002052012004-10910-037050FM-12+000699999V02099999999990120019N0020001N1+02601+02231101541ADDAA124009991AY161061AY261061GF107991071051012501001001KA1240N+02321MA1999999101471MD1999999-0101MW1201REMSYN088AAXX  20124 83096 21695 705// 10260 20223 30147 40154 72066 87500 333 20232 59010 60104;
0148830960999992002052018004-10910-037050FM-12+000699999V02099999999990450019N0020001N1+02751+02361101311ADDAA199000021GF107991041051012501031001MA1999999101241MD1999999+0041REMSYN070AAXX  20184 83096 32695 705// 10275 20236 30124 40131 84530 333 58004;
0179830960999992002052100004-10910-037050FM-12+000699999V02099999999992200019N0020001N1+02661+02371101431ADDAA199000021GF102991021051012501001001KA1240M+02911MA1999999101361MD1999999+0061REMSYN088AAXX  21004 83096 32695 205// 10266 20237 30136 40143 82500 333 10291 29082 55047 58006;
0186830960999992002052112004-10910-037050FM-12+000699999V02099999999992200019N0020001N1+02711+02281101491ADDAA199000091GF102991021051012501001001KA1240N+02391MA1999999101421MD1999999-0051REMSYN076AAXX  21124 83096 32695 205// 10271 20228 30142 40149 82500 333 20239 59005;EQDQ01  00002PRCP99
0167830960999992002052118004-10910-037050FM-12+000699999V02099999999992200019N0020001N1+02831+02381101371ADDAA199000091GF102991021011012501001001MA1999999101301MD1999999+0061REMSYN070AAXX  21184 83096 32695 209// 10283 20238 30130 40137 82100 333 58006;EQDQ01  00002PRCP99
0198830960999992002052200004-10910-037050FM-12+000699999V02099999999992200019N0020001N1+02711+02301101371ADDAA199000091GF103991031011012501001001KA1240M+02931MA1999999101301MD1999999-0061REMSYN088AAXX  22004 83096 32695 309// 10271 20230 30130 40137 83100 333 10293 29078 55102 59006;EQDQ01  00002PRCP99
0201830960999992002052212004-10910-037050FM-12+000699999V02099999999992200019N0020001N1+02651+02521101551ADDAA124001091AY161061AY261061GF103991031011012501001001KA1240N+02411MA1999999101481MD1999999+0061MW1201REMSYN088AAXX  22124 83096 21695 305// 10265 20252 30148 40155 72066 83100 333 20241 58006 60014;
0148830960999992002052218004-10910-037050FM-12+000699999V02099999999992200019N0020001N1+02831+02311101091ADDAA199000021GF101991011011012501001001MA1999999101021MD1999999-0281REMSYN070AAXX  22184 83096 32695 109// 10283 20231 30102 40109 81100 333 59028;
0179830960999992002052300004-10910-037050FM-12+000699999V02099999999992200019N0020001N1+02711+02321101271ADDAA199000021GF101991011011012501001001KA1240M+02941MA1999999101201MD1999999-0101REMSYN088AAXX  23004 83096 32695 109// 10271 20232 30120 40127 81100 333 10294 29081 55089 59010;
0201830960999992002052312004-10910-037050FM-12+000699999V02099999999990120019N0020001N1+02691+02331101431ADDAA124001091AY161061AY261061GF107991071051012501001001KA1240N+02431MA1999999101361MD1999999-0121MW1201REMSYN088AAXX  23124 83096 21695 736// 10269 20233 30136 40143 72066 87500 333 20243 59012 60014;
0148830960999992002052318004-10910-037050FM-12+000699999V02099999999990120019N0020001N1+02471+02281101361ADDAA199000021GF107991071051012501001001MA1999999101291MD1999999+0271REMSYN070AAXX  23184 83096 32695 723// 10247 20228 30129 40136 87500 333 58027;
0213830960999992002052400004-10910-037050FM-12+000699999V02099999999990120019N0020001N1+02351+02181101401ADDAA106014091AY161061AY261061GF107991071051012501001001KA1240M+02951MA1999999101331MD1999999+0131MW1201REMSYN100AAXX  24004 83096 21695 722// 10235 20218 30133 40140 72066 87500 333 10295 29088 55026 58013 60141;
0201830960999992002052412004-10910-037050FM-12+000699999V02099999999992200019N0100001N1+02471+02251101521ADDAA124027991AY161061AY261061GF104991041051012501001001KA1240N+02241MA1999999101451MD1999999+0091MW1201REMSYN088AAXX  24124 83096 21697 422// 10247 20225 30145 40152 72066 84500 333 20224 58009 60284;
0148830960999992002052418004-10910-037050FM-12+000699999V02099999999990120019N0020001N1+02631+02231101291ADDAA199000021GF106991061051012501001001MA1999999101221MD1999999-0071REMSYN070AAXX  24184 83096 32695 614// 10263 20223 30122 40129 86500 333 59007;
0213830960999992002052500004-10910-037050FM-12+000699999V02099999999990120019N0020001N1+02451+02231101391ADDAA106000591AY161061AY261061GF105991051051012501001001KA1240M+02871MA1999999101321MD1999999-0011MW1201REMSYN100AAXX  25004 83096 21695 514// 10245 20223 30132 40139 72066 85500 333 10287 29085 55036 59001 69941;
0201830960999992002052512004-10910-037050FM-12+000699999V02099999999990075019N0010001N1+02341+02151101521ADDAA124025991AY161061AY261061GF108991081051008001999999KA1240N+02281MA1999999101451MD1999999+0001MW1601REMSYN088AAXX  25124 83096 21594 823// 10234 20215 30145 40152 76066 885// 333 20228 58000 60264;
0195830960999992002052518004-10910-037050FM-12+000699999V02099999999990075019N0010001N1+02401+02171101401ADDAA106000591AY101061AY261061GF108991081051008001999999MA1999999101331MD1999999+0111REMSYN082AAXX  25184 83096 21594 818// 10240 20217 30133 40140 77606 885// 333 58011 69961;EQDQ01+000762PRSWM1
0213830960999992002052600004-10910-037050FM-12+000699999V02099999999992200019N0020001N1+02431+02091101621ADDAA106010991AY161061AY261061GF104991041051012501001001KA1240M+02711MA1999999101551MD1999999+0231MW1201REMSYN100AAXX  26004 83096 21695 418// 10243 20209 30155 40162 72066 84500 333 10271 29085 55010 58023 60111;
0173830960999992002052612004-10910-037050FM-12+000699999V02099999999999999999N0020001N1+02301+02031101521ADDAA124015091GF106991021001012501061061KA1240N+02161MA1999999101451MD1999999+0001REMSYN082AAXX  26124 83096 21695 618// 10230 20203 30145 40152 82066 333 20216 58000 60154;
0182830960999992002052618004-10910-037050FM-12+000699999V02099999999990120019N0020001N1+02471+02191101521ADDAA106000891AY161061AY261061GF106991061051012501001001MA1999999101451MD1999999+0121MW1201REMSYN082AAXX  26184 83096 21695 623// 10247 20219 30145 40152 72066 86500 333 58012 69981;
0213830960999992002052700004-10910-037050FM-12+000699999V02099999999990120019N0020001N1+02201+01971101631ADDAA106002091AY161061AY261061GF106991061051012501001001KA1240M+02631MA1999999101561MD1999999+0011MW1201REMSYN100AAXX  27004 83096 21695 623// 10220 20197 30156 40163 72066 86500 333 10263 29085 55006 58001 60021;
0201830960999992002052712004-10910-037050FM-12+000699999V02099999999992200019N0020001N1+02491+02231101661ADDAA124007991AY161061AY261061GF102991021011012501001001KA1240N+02121MA1999999101591MD1999999+0141MW1201REMSYN088AAXX  27124 83096 21695 218// 10249 20223 30159 40166 72066 82100 333 20212 58014 60084;
0148830960999992002052718004-10910-037050FM-12+000699999V02099999999992200019N0020001N1+02771+02251101351ADDAA199000021GF101991011011012501001001MA1999999101281MD1999999-0171REMSYN070AAXX  27184 83096 32695 118// 10277 20225 30128 40135 81100 333 59017;
0179830960999992002052800004-10910-037050FM-12+000699999V02099999999992200019N0020001N1+02551+02151101641ADDAA199000021GF101991011011012501001001KA1240M+02891MA1999999101571MD1999999+0011REMSYN088AAXX  28004 83096 32695 118// 10255 20215 30157 40164 81100 333 10289 29078 55093 58001;
0201830960999992002052812004-10910-037050FM-12+000699999V02099999999992200019N0020001N1+02451+02111101591ADDAA124004191AY161061AY261061GF104991041051012501001001KA1240N+02161MA1999999101521MD1999999-0071MW1201REMSYN088AAXX  28124 83096 21695 423// 10245 20211 30152 40159 72066 84500 333 20216 59007 60044;
0148830960999992002052818004-10910-037050FM-12+000699999V02099999999992200019N0020001N1+02751+02051101331ADDAA199000021GF102991011051012501031001MA1999999101261MD1999999-0021REMSYN070AAXX  28184 83096 32695 214// 10275 20205 30126 40133 81530 333 59002;
0179830960999992002052900004-10910-037050FM-12+000699999V02099999999992200019N0020001N1+02551+02131101541ADDAA199000021GF101991011011012501001001KA1240M+02891MA1999999101471MD1999999-0101REMSYN088AAXX  29004 83096 32695 114// 10255 20213 30147 40154 81100 333 10289 29076 55061 59010;
0167830960999992002052918004-10910-037050FM-12+000699999V02099999999992200019N0020001N1+02751+02191101391ADDAA199000091GF101991011011012501001001MA1999999101321MD1999999+0061REMSYN070AAXX  29184 83096 32695 114// 10275 20219 30132 40139 81100 333 58006;EQDQ01  00002PRCP99
0198830960999992002053000004-10910-037050FM-12+000699999V02099999999992200019N0020001N1+02611+02191101491ADDAA199000091GF103991031051012501001001KA1240M+02891MA1999999101421MD1999999-0051REMSYN088AAXX  30004 83096 32695 314// 10261 20219 30142 40149 83500 333 10289 29074 55100 59005;EQDQ01  00002PRCP99
0186830960999992002053012004-10910-037050FM-12+000699999V02099999999999999999N0020001N1+02651+02291101671ADDAA199000091GF106991061001012501011001KA1240N+02301MA1999999101601MD1999999+0151REMSYN076AAXX  30124 83096 32695 614// 10265 20229 30160 40167 86010 333 20230 58015;EQDQ01  00002PRCP99
0167830960999992002053018004-10910-037050FM-12+000699999V02099999999999999999N0020001N1+02691+02171101391ADDAA199000091GF106991061001012501011001MA1999999101321MD1999999+0001REMSYN070AAXX  30184 83096 32695 614// 10269 20217 30132 40139 86010 333 58000;EQDQ01  00002PRCP99
0198830960999992002053100004-10910-037050FM-12+000699999V02099999999999999999N0020001N1+02671+02311101541ADDAA199000091GF105991051001012501011001KA1240M+02891MA1999999101471MD1999999+0051REMSYN088AAXX  31004 83096 32695 518// 10267 20231 30147 40154 85010 333 10289 29078 55029 58005;EQDQ01  00002PRCP99
0201830960999992002053112004-10910-037050FM-12+000699999V02099999999990120019N0020001N1+02631+02411101731ADDAA124002091AY161061AY261061GF107991071051012501001001KA1240N+02351MA1999999101661MD1999999+0061MW1201REMSYN088AAXX  31124 83096 21695 714// 10263 20241 30166 40173 72066 87500 333 20235 58006 60024;
0148830960999992002053118004-10910-037050FM-12+000699999V02099999999992200019N0020001N1+02771+02161101491ADDAA199000021GF101991011011012501001001MA1999999101421MD1999999+0101REMSYN070AAXX  31184 83096 32695 114// 10277 20216 30142 40149 81100 333 58010;
0179830960999992002060100004-10910-037050FM-12+000699999V02099999999992200019N0020001N1+02651+02231101721ADDAA199000021GF104991041051012501001001KA1240M+02931MA1999999101651MD1999999+0181REMSYN088AAXX  01004 83096 32695 405// 10265 20223 30165 40172 84500 333 10293 29078 55081 58018;
0201830960999992002060112004-10910-037050FM-12+000699999V02099999999990120019N0020001N1+02731+02261101741ADDAA124000891AY161061AY261061GF106991061051012501001001KA1240N+02301MA1999999101671MD1999999+0011MW1201REMSYN088AAXX  01124 83096 21695 614// 10273 20226 30167 40174 72066 86500 333 20230 58001 69974;
0148830960999992002060118004-10910-037050FM-12+000699999V02099999999992200019N0020001N1+02751+02141101491ADDAA199000021GF104991021051012501001011MA1999999101421MD1999999+0001REMSYN070AAXX  01184 83096 32695 414// 10275 20214 30142 40149 82501 333 58000;
0179830960999992002060200004-10910-037050FM-12+000699999V02099999999992200019N0020001N1+02611+02171101691ADDAA199000021GF101991011011012501001001KA1240M+02891MA1999999101621MD1999999+0021REMSYN088AAXX  02004 83096 32695 114// 10261 20217 30162 40169 81100 333 10289 29075 55081 58002;
0186830960999992002060212004-10910-037050FM-12+000699999V02099999999992200019N0020001N1+02801+02151101771ADDAA199000091GF102991021051012501001001KA1240N+02391MA1999999101701MD1999999+0031REMSYN076AAXX  02124 83096 32695 214// 10280 20215 30170 40177 82500 333 20239 58003;EQDQ01  00002PRCP99
0167830960999992002060218004-10910-037050FM-12+000699999V02099999999992200019N0020001N1+02811+02131101501ADDAA199000091GF102991021051012501001001MA1999999101431MD1999999+0011REMSYN070AAXX  02184 83096 32695 214// 10281 20213 30143 40150 82500 333 58001;EQDQ01  00002PRCP99
0198830960999992002060300004-10910-037050FM-12+000699999V02099999999992200019N0020001N1+02611+02271101691ADDAA199000091GF104991041051012501001001KA1240M+02951MA1999999101621MD1999999+0001REMSYN088AAXX  03004 83096 32695 414// 10261 20227 30162 40169 84500 333 10295 29075 55101 58000;EQDQ01  00002PRCP99
0201830960999992002060312004-10910-037050FM-12+000699999V02099999999992200019N0020001N1+02531+02191101601ADDAA124013091AY161061AY261061GF104991041051012501001001KA1240N+02221MA1999999101531MD1999999-0171MW1201REMSYN088AAXX  03124 83096 21695 423// 10253 20219 30153 40160 72066 84500 333 20222 59017 60134;
0182830960999992002060318004-10910-037050FM-12+000699999V02099999999992200019N0020001N1+02691+02241101391ADDAA106000391AY161061AY261061GF102991021011012501001001MA1999999101321MD1999999-0111MW1201REMSYN082AAXX  03184 83096 21695 209// 10269 20224 30132 40139 72066 82100 333 59011 69931;
0179830960999992002060400004-10920-037050FM-12+000699999V02099999999992200019N0020001N1+02631+02181101491ADDAA199000021GF102991021051012501001001KA1240M+02811MA1999999101421MD1999999-0201REMSYN088AAXX  04004 83096 32695 209// 10263 20218 30142 40149 82500 333 10281 29078 55076 59020;
0201830960999992002060412004-10920-037050FM-12+000699999V02099999999990075019N0020001N1+02571+02371101621ADDAA124004191AY161061AY261061GF108991081051008001999999KA1240N+02201MA1999999101551MD1999999+0021MW1611REMSYN088AAXX  04124 83096 21595 827// 10257 20237 30155 40162 76166 885// 333 20220 58002 60044;
0148830960999992002060418004-10920-037050FM-12+000699999V02099999999992200019N0020001N1+02771+02301101351ADDAA199000021GF101991011011012501001001MA1999999101281MD1999999-0041REMSYN070AAXX  04184 83096 32695 109// 10277 20230 30128 40135 81100 333 59004;
0179830960999992002060500004-10920-037050FM-12+000699999V02099999999992200019N0020001N1+02651+02201101571ADDAA199000021GF101991011001012501021001KA1240M+02891MA1999999101501MD1999999+0021REMSYN088AAXX  05004 83096 32695 114// 10265 20220 30150 40157 81020 333 10289 29079 55072 58002;
0201830960999992002060512004-10920-037050FM-12+000699999V02099999999992200019N0020001N1+02751+02121101651ADDAA124001091AY161061AY261061GF102991021051012501001001KA1240N+02281MA1999999101581MD1999999+0031MW1201REMSYN088AAXX  05124 83096 21695 214// 10275 20212 30158 40165 72066 82500 333 20228 58003 60014;
0148830960999992002060518004-10920-037050FM-12+000699999V02099999999992200019N0020001N1+02761+02121101411ADDAA199000021GF101991011011012501001001MA1999999101341MD1999999+0061REMSYN070AAXX  05184 83096 32695 114// 10276 20212 30134 40141 81100 333 58006;
0179830960999992002060600004-10920-037050FM-12+000699999V02099999999992200019N0020001N1+02611+02231101631ADDAA199000021GF102991021011012501001001KA1240M+02911MA1999999101561MD1999999+0061REMSYN088AAXX  06004 83096 32695 214// 10261 20223 30156 40163 82100 333 10291 29074 55098 58006;
0167830960999992002060618004-10920-037050FM-12+000699999V02099999999992200019N0020001N1+02771+02141101371ADDAA199000091GF102991021051012501071001MA1999999101301MD1999999-0041REMSYN070AAXX  06184 83096 32695 214// 10277 20214 30130 40137 82570 333 59004;EQDQ01  00002PRCP99
0198830960999992002060700004-10920-037050FM-12+000699999V02099999999992200019N0020001N1+02591+02211101481ADDAA199000091GF103991031051012501001001KA1240M+02871MA1999999101411MD1999999-0151REMSYN088AAXX  07004 83096 32695 314// 10259 20221 30141 40148 83500 333 10287 29075 55084 59015;EQDQ01  00002PRCP99
0186830960999992002060712004-10920-037050FM-12+000699999V02099999999999999999N0020001N1+02731+02121101641ADDAA199000091GF106991061001012501001011KA1240N+02411MA1999999101571MD1999999+0051REMSYN076AAXX  07124 83096 32695 614// 10273 20212 30157 40164 86001 333 20241 58005;EQDQ01  00002PRCP99
0167830960999992002060718004-10920-037050FM-12+000699999V02099999999999999999N0020001N1+02761+02161101431ADDAA199000091GF106991061001012501001021MA1999999101361MD1999999+0061REMSYN070AAXX  07184 83096 32695 614// 10276 20216 30136 40143 86002 333 58006;EQDQ01  00002PRCP99
0198830960999992002060800004-10920-037050FM-12+000699999V02099999999992200019N0020001N1+02631+02181101591ADDAA199000091GF101991011011012501001001KA1240M+02911MA1999999101521MD1999999+0111REMSYN088AAXX  08004 83096 32695 109// 10263 20218 30152 40159 81100 333 10291 29073 55087 58011;EQDQ01  00002PRCP99
0186830960999992002060812004-10920-037050FM-12+000699999V02099999999992200019N0020001N1+02751+02231101851ADDAA199000091GF101991011011012501001001KA1240N+02351MA1999999101781MD1999999+0211REMSYN076AAXX  08124 83096 32695 109// 10275 20223 30178 40185 81100 333 20235 58021;EQDQ01  00002PRCP99
0167830960999992002060818004-10920-037050FM-12+000699999V02099999999992200019N0020001N1+02791+02201101501ADDAA199000091GF101991011011012501051001MA1999999101431MD1999999+0071REMSYN070AAXX  08184 83096 32695 109// 10279 20220 30143 40150 81150 333 58007;EQDQ01  00002PRCP99
0198830960999992002060900004-10920-037050FM-12+000699999V02099999999992200019N0020001N1+02651+02141101711ADDAA199000091GF101991011011012501001001KA1240M+02881MA1999999101641MD1999999+0121REMSYN088AAXX  09004 83096 32695 109// 10265 20214 30164 40171 81100 333 10288 29072 55072 58012;EQDQ01  00002PRCP99
0096830960999992002060906004-10920-037050FM-12+000699999V0209999C000019999999N0040001N1+02401+02261101381ADDAA199000091REMSYN054AAXX  09060 83096 32/96 /0000 10240 20226 40138 8////;EQDQ01  00002PRCP99
0186830960999992002060912004-10920-037050FM-12+000699999V02099999999992200019N0020001N1+02791+02201101721ADDAA199000091GF101991011001012501001011KA1240N+02331MA1999999101651MD1999999+0131REMSYN076AAXX  09124 83096 32695 118// 10279 20220 30165 40172 81001 333 20233 58013;EQDQ01  00002PRCP99
0167830960999992002060918004-10920-037050FM-12+000699999V02099999999992200019N0020001N1+02771+02111101421ADDAA199000091GF101991011001012501001011MA1999999101351MD1999999-0081REMSYN070AAXX  09184 83096 32695 114// 10277 20211 30135 40142 81001 333 59008;EQDQ01  00002PRCP99
0198830960999992002061000004-10920-037050FM-12+000699999V02099999999992200019N0020001N1+02611+02161101661ADDAA199000091GF101991011001012501001011KA1240M+02911MA1999999101591MD1999999-0051REMSYN088AAXX  10004 83096 32695 114// 10261 20216 30159 40166 81001 333 10291 29072 55079 59005;EQDQ01  00002PRCP99
0190830960999992002061012004-10920-037050FM-12+000699999V02099999999992200019N0020001N1+02431+02051101711ADDAY161061AY261061GF102991021051012501001001KA1240N+02201MA1999999101641MD1999999-0011MW1201REMSYN088AAXX  10124 83096 21695 227// 10243 20205 30164 40171 72066 82500 333 20220 59001 60064;
0171830960999992002061018004-10920-037050FM-12+000699999V02099999999992200019N0020001N1+02611+02191101371ADDAY161061AY261061GF102991011051012501031001MA1999999101301MD1999999-0051MW1201REMSYN082AAXX  10184 83096 21695 209// 10261 20219 30130 40137 72066 81530 333 59005 69921;
0202830960999992002061100004-10920-037050FM-12+000699999V02099999999992200019N0020001N1+02521+02191101591ADDAY161061AY261061GF101991011011012501001001KA1240M+02821MA1999999101521MD1999999-0071MW1201REMSYN100AAXX  11004 83096 21695 114// 10252 20219 30152 40159 72066 81100 333 10282 29080 55069 59007 60011;
0190830960999992002061112004-10920-037050FM-12+000699999V02099999999992200019N0020001N1+02531+02191101621ADDAY161061AY261061GF104991041051012501001001KA1240N+02301MA1999999101551MD1999999-0091MW1201REMSYN088AAXX  11124 83096 21695 422// 10253 20219 30155 40162 72066 84500 333 20230 59009 60034;
0167830960999992002061118004-10920-037050FM-12+000699999V02099999999992200019N0020001N1+02651+02231101471ADDAA199000021GF101991999051012501001001MA1999999101401MD1999999+0101REMSYN070AAXX  11184 83096 32695 132// 10265 20223 30140 40147 83500 333 58010;EQDQ01+000032SCOTLC
0202830960999992002061200004-10920-037050FM-12+000699999V02099999999992200019N0020001N1+02511+02211101491ADDAY161061AY261061GF102991021051012501001001KA1240M+02851MA1999999101421MD1999999-0191MW1201REMSYN100AAXX  12004 83096 21695 214// 10251 20221 30142 40149 72066 82500 333 10285 29082 55078 59019 60041;
0190830960999992002061212004-10920-037050FM-12+000699999V02099999999999999999N0020001N1+02401+02301101641ADDAY161061AY261061GF108991081999008001021999KA1240N+02331MA1999999101571MD1999999+0021MW1211REMSYN088AAXX  12124 83096 21595 814// 10240 20230 30157 40164 72166 88/2/ 333 20233 58002 60174;
0167830960999992002061318004-10920-037050FM-12+000699999V02099999999992200019N0020001N1+02721+02151101521ADDAA199000091GF101991011011012501001001MA1999999101451MD1999999+0041REMSYN070AAXX  13180 83096 32695 118// 10272 20215 30145 40152 81100 333 58004;EQDQ01  00002PRCP99
0167830960999992002061418004-10920-037050FM-12+000699999V02099999999992200019N0020001N1+02771+02281101701ADDAA199000091GF104991041051012501001001MA1999999101631MD1999999+0181REMSYN070AAXX  14184 83096 32695 409// 10277 20228 30163 40170 84500 333 58018;EQDQ01  00002PRCP99
0198830960999992002061500004-10920-037050FM-12+000699999V02099999999992200019N0020001N1+02611+02191101701ADDAA199000091GF102991021051012501001001KA1240M+02871MA1999999101631MD1999999+0081REMSYN088AAXX  15004 83096 32695 209// 10261 20219 30163 40170 82500 333 10287 29079 55071 58008;EQDQ01  00002PRCP99
0190830960999992002061512004-10920-037050FM-12+000699999V02099999999990120019N0020001N1+02591+02151101841ADDAY161061AY261061GF105991051051012501001001KA1240N+02411MA1999999101771MD1999999+0121MW1201REMSYN088AAXX  15124 83096 21695 514// 10259 20215 30177 40184 72066 85500 333 20241 58012 69944;
0202830960999992002061600004-10920-037050FM-12+000699999V02099999999992200019N0020001N1+02631+02141101811ADDAY161061AY261061GF102991021051012501001001KA1240M+02811MA1999999101741MD1999999+0111MW1201REMSYN100AAXX  16004 83096 21695 214// 10263 20214 30174 40181 72066 82500 333 10281 29076 55006 58011 69991;
0162830960999992002061612004-10920-037050FM-12+000699999V02099999999992200019N0020001N1+02711+02221101801ADDGF104991041051012501001001KA1240N+02441MA1999999101731MD1999999-0041REMSYN082AAXX  16124 83096 22695 414// 10271 20222 30173 40180 84500 333 20244 59004 60024;
0171830960999992002061618004-10920-037050FM-12+000699999V02099999999990075019N0010001N1+02361+02091101601ADDAY161061AY261061GF106991061051008001001001MA1999999101531MD1999999-0101MW1021REMSYN082AAXX  16184 83096 21594 614// 10236 20209 30153 40160 70266 86500 333 59010 60031;
0202830960999992002061700004-10920-037050FM-12+000699999V02099999999992200019N0020001N1+02571+02021101731ADDAY161061AY261061GF102991021051012501001001KA1240M+02831MA1999999101661MD1999999-0081MW1201REMSYN100AAXX  17004 83096 21695 214// 10257 20202 30166 40173 72066 82500 333 10283 29076 55046 59008 69961;
0167830960999992002061718004-10920-037050FM-12+000699999V02099999999992200019N0020001N1+02711+02241101711ADDAA199000091GF102991021011012501001001MA1999999101641MD1999999+0111REMSYN070AAXX  17184 83096 32695 214// 10271 20224 30164 40171 82100 333 58011;EQDQ01  00002PRCP99
0198830960999992002061800004-10920-037050FM-12+000699999V02099999999992200019N0020001N1+02581+02121101751ADDAA199000091GF102991021011012501001001KA1240M+02811MA1999999101681MD1999999+0021REMSYN088AAXX  18004 83096 32695 214// 10258 20212 30168 40175 82100 333 10281 29073 55094 58002;EQDQ01  00002PRCP99
0190830960999992002061812004-10910-037050FM-12+000699999V02099999999992200019N0020001N1+02711+02061101901ADDAY161061AY261061GF101991011011012501001001KA1240N+02281MA1999999101831MD1999999+0091MW1201REMSYN088AAXX  18124 83096 21695 105// 10271 20206 30183 40190 72066 81100 333 20228 58009 60024;
0179830960999992002061900004-10910-037050FM-12+000699999V02099999999992200019N0020001N1+02551+01831101811ADDAA199000021GF101991011051012501001001KA1240M+02831MA1999999101741MD1999999+0061REMSYN088AAXX  19004 83096 32695 114// 10255 20183 30174 40181 81500 333 10283 29067 55101 58006;
0202830960999992002061912004-10910-037050FM-12+000699999V02099999999990120019N0020001N1+02361+02191101621ADDAY161061AY261061GF106991061051012501001001KA1240M+02851MA1999999101551MD1999999-0061MW1201REMSYN100AAXX  19124 83096 21695 605// 10236 20219 30155 40162 72066 86500 333 10285 29084 55056 59006 60011;
0179830960999992002062000004-10910-037050FM-12+000699999V02099999999990120019N0020001N1+02571+02171101831ADDAA199000021GF105991051051012501001001KA1240M+02731MA1999999101761MD1999999+0021REMSYN088AAXX  20004 83096 32695 514// 10257 20217 30176 40183 85500 333 10273 29078 55021 58002;
0190830960999992002062012004-10910-037050FM-12+000699999V02099999999990120019N0020001N1+02451+02071101981ADDAY161061AY261061GF108991081001012501021001KA1240N+02221MA1999999101911MD1999999+0061MW1211REMSYN088AAXX  20124 83096 21695 809// 10245 20207 30191 40198 72166 88020 333 20222 58006 60234;
0171830960999992002062018004-10910-037050FM-12+000699999V02099999999990120019N0020001N1+02751+02121101641ADDAY161061AY261061GF108991081001012501021001MA1999999101571MD1999999+0061MW1201REMSYN082AAXX  20184 83096 21695 818// 10275 20212 30157 40164 72066 88020 333 58006 60021;
0167830960999992002062118004-10920-037050FM-12+000699999V02099999999990450019N0020001N1+02711+02241101621ADDAA199000091GF106991041051012501031001MA1999999101551MD1999999-0021REMSYN070AAXX  21184 83096 32695 614// 10271 20224 30155 40162 84530 333 59002;EQDQ01  00002PRCP99
0198830960999992002062200004-10920-037050FM-12+000699999V02099999999990120019N0020001N1+02581+02101101841ADDAA199000091GF106991061051012501001001KA1240M+02831MA1999999101771MD1999999+0001REMSYN088AAXX  22004 83096 32695 614// 10258 20210 30177 40184 86500 333 10283 29075 55003 58000;EQDQ01  00002PRCP99
0190830960999992002062212004-10920-037050FM-12+000699999V02099999999992200019N0020001N1+02711+02111101921ADDAY161061AY261061GF104991031051012501031001KA1240N+02201MA1999999101851MD1999999+0061MW1201REMSYN088AAXX  22124 83096 21695 414// 10271 20211 30185 40192 72066 83530 333 20220 58006 60064;
0171830960999992002062218004-10920-037050FM-12+000699999V02099999999990075019N0010001N1+02531+02361101591ADDAY161061AY261061GF108991081051008001999999MA1999999101521MD1999999-0031MW1601REMSYN082AAXX  22184 83096 21594 805// 10253 20236 30152 40159 76066 885// 333 59003 60021;
0202830960999992002062300004-10920-037050FM-12+000699999V02099999999990120019N0020001N1+02451+02031101901ADDAY161061AY261061GF106991061051012501001001KA1240M+02791MA1999999101831MD1999999+0061MW1201REMSYN100AAXX  23004 83096 21695 614// 10245 20203 30183 40190 72066 86500 333 10279 29079 55053 58006 60071;
0190830960999992002062312004-10920-037050FM-12+000699999V02099999999990450019N0020001N1+02651+01881101971ADDAY161061AY261061GF106991041051012501031001KA1240N+02431MA1999999101901MD1999999+0051MW1201REMSYN088AAXX  23124 83096 21695 614// 10265 20188 30190 40197 72066 84530 333 20243 58005 60094;
0148830960999992002062318004-10920-037050FM-12+000699999V02099999999990120019N0020001N1+02611+02011101721ADDAA199000021GF107991071051012501001001MA1999999101651MD1999999+0131REMSYN070AAXX  23184 83096 32695 714// 10261 20201 30165 40172 87500 333 58013;
0179830960999992002062400004-10920-037050FM-12+000699999V02099999999990120019N0020001N1+02551+02021101921ADDAA199000021GF106991061051012501001001KA1240M+02771MA1999999101851MD1999999+0021REMSYN088AAXX  24004 83096 32695 614// 10255 20202 30185 40192 86500 333 10277 29070 55037 58002;
0190830960999992002062412004-10920-037050FM-12+000699999V02099999999990120019N0020001N1+02361+01991102041ADDAY161061AY261061GF106991061051012501001001KA1240N+02161MA1999999101971MD1999999+0071MW1201REMSYN088AAXX  24124 83096 21695 614// 10236 20199 30197 40204 72066 86500 333 20216 58007 60094;
0171830960999992002062418004-10920-037050FM-12+000699999V02099999999990075019N0020001N1+02301+01941101821ADDAY161061AY261061GF106991061051008001001001MA1999999101751MD1999999+0101MW1601REMSYN082AAXX  24184 83096 21595 618// 10230 20194 30175 40182 76066 86500 333 58010 60031;
0183830960999992002062500004-10920-037050FM-12+000699999V02099999999990120019N0020001N1+02511+02151101921ADDAA199000021GF106991061051012501001001KA1240M+02731MD1999999+0001REMSYN088AAXX  25004 83096 32695 614// 10251 20215 33018 40192 86500 333 10273 29080 55005 58000;EQDQ01+030181APOSP 
0190830960999992002062512004-10920-037050FM-12+000699999V02099999999990120019N0020001N1+02451+02391102141ADDAY161061AY261061GF106991061001012501021001KA1240N+02201MA1999999102071MD1999999+0101MW1211REMSYN088AAXX  25124 83096 21695 623// 10245 20239 30207 40214 72166 86020 333 20220 58010 60094;
0148830960999992002062518004-10920-037050FM-12+000699999V02099999999990120019N0020001N1+02681+02181101871ADDAA199000021GF106991061001012501021001MA1999999101801MD1999999+0051REMSYN070AAXX  25184 83096 32695 614// 10268 20218 30180 40187 86020 333 58005;
0179830960999992002062600004-10920-037050FM-12+000699999V02099999999990120019N0020001N1+02571+02211102071ADDAA199000021GF108991081001012501021001KA1240M+02771MA1999999102001MD1999999+0151REMSYN088AAXX  26004 83096 32695 814// 10257 20221 30200 40207 88020 333 10277 29083 55043 58015;
0186830960999992002062612004-10920-037050FM-12+000699999V02099999999990120019N0020001N1+02611+02101102141ADDAA199000091GF105991051051012501001001KA1240N+02241MA1999999102071MD1999999+0001REMSYN076AAXX  26124 83096 32695 509// 10261 20210 30207 40214 85500 333 20224 58000;EQDQ01  00002PRCP99
0190830960999992002062712004-10920-037050FM-12+000699999V02099999999992200019N0020001N1+02631+01961102041ADDAY161061AY261061GF103991031011012501001001KA1240N+02371MA1999999101971MD1999999-0101MW1201REMSYN088AAXX  27124 83096 21695 309// 10263 20196 30197 40204 72066 83100 333 20237 59010 69984;
0148830960999992002062718004-10920-037050FM-12+000699999V02099999999990120019N0020001N1+02651+02071101791ADDAA199000021GF105991051051012501001001MA1999999101721MD1999999-0111REMSYN070AAXX  27184 83096 32695 514// 10265 20207 30172 40179 85500 333 59011;
0179830960999992002062800004-10920-037050FM-12+000699999V02099999999992200019N0020001N1+02541+02131101801ADDAA199000021GF102991021051012501001001KA1240M+02771MA1999999101731MD1999999-0251REMSYN088AAXX  28004 83096 32695 214// 10254 20213 30173 40180 82500 333 10277 29073 55046 59025;
0190830960999992002062812004-10920-037050FM-12+000699999V02099999999990120019N0020001N1+02481+02401101911ADDAY161061AY261061GF106991061011012501001001KA1240N+02261MA1999999101841MD1999999-0131MW1201REMSYN088AAXX  28124 83096 21695 623// 10248 20240 30184 40191 72066 86100 333 20226 59013 60014;
0202830960999992002062900004-10920-037050FM-12+000699999V02099999999990120019N0020001N1+02431+02231101801ADDAY161061AY261061GF106991061001012501021001KA1240M+02621MA1999999101731MD1999999+0001MW1211REMSYN100AAXX  29004 83096 21695 609// 10243 20223 30173 40180 72166 86020 333 10262 29089 55026 58000 60081;
0190830960999992002062912004-10920-037050FM-12+000699999V02099999999992200019N0020001N1+02611+02181101971ADDAY161061AY261061GF103991031001012501001011KA1240N+02241MA1999999101901MD1999999+0061MW1211REMSYN088AAXX  29124 83096 21695 309// 10261 20218 30190 40197 72166 83001 333 20224 58006 60214;
0148830960999992002062918004-10920-037050FM-12+000699999V02099999999992200019N0200001N1+02681+02111101751ADDAA199000021GF101991011011008001001001MA1999999101681MD1999999+0071REMSYN070AAXX  29184 83096 32598 109// 10268 20211 30168 40175 81100 333 58007;
0179830960999992002063000004-10920-037050FM-12+000699999V02099999999992200019N0020001N1+02551+02151101961ADDAA199000021GF101991011001012501021001KA1240M+02771MA1999999101891MD1999999+0161REMSYN088AAXX  30004 83096 32695 109// 10255 20215 30189 40196 81020 333 10277 29076 55080 58016;
0171830960999992002063018004-10920-037050FM-12+000699999V02099999999990120019N0020001N1+02451+01941101991ADDAY161061AY261061GF106991061001012501021001MA1999999101921MD1999999+0241MW1211REMSYN082AAXX  30184 83096 21695 609// 10245 20194 30192 40199 72166 86020 333 58024 60011;
0202830960999992002070100004-10920-037050FM-12+000699999V02099999999990120019N0020001N1+02321+01961101931ADDAY161061AY261061GF105991051051012501001001KA1240M+02771MA1999999101861MD1999999-0031MW1201REMSYN100AAXX  01004 83096 21695 514// 10232 20196 30186 40193 72066 85500 333 10277 29076 55000 59003 60011;
0190830960999992002070112004-10920-037050FM-12+000699999V02099999999990075019N0010001N1+02361+02191102181ADDAY161061AY261061GF108991081051008001999999KA1240N+02321MA1999999102111MD1999999+0211MW1201REMSYN088AAXX  01124 83096 21594 809// 10236 20219 30211 40218 72066 885// 333 20232 58021 60054;
0148830960999992002070118004-10920-037050FM-12+000699999V02099999999992200019N0020001N1+02651+02051101901ADDAA199000021GF102991021051012501001001MA1999999101831MD1999999-0091REMSYN070AAXX  01184 83096 32695 214// 10265 20205 30183 40190 82500 333 59009;
0152830960999992002070212004-10920-037050FM-12+000699999V02099999999992200019N0020001N1+02631+01911999999ADDGF102991999999012501999999KA1240N+01901MA1999999101851MD1999999-0141REMSYN072AAXX  02124 83096 21695 214// 10263 20191 301852/ 333 20190 59014 60024;
0167830960999992002070218004-10920-037050FM-12+000699999V02099999999992200019N0020001N1+02691+01921101831ADDAA199000091GF102991021011012501001001MA1999999101761MD1999999-0071REMSYN070AAXX  02184 83096 32695 214// 10269 20192 30176 40183 82100 333 59007;EQDQ01  00002PRCP99
0202830960999992002070300004-10920-037050FM-12+000699999V02099999999990075019N0020001N1+02441+02071101801ADDAY161061AY261061GF105991051051008001001001KA1240M+02811MA1999999101731MD1999999-0161MW1601REMSYN100AAXX  03004 83096 21595 514// 10244 20207 30173 40180 76066 85500 333 10281 29072 55098 59016 60011;
0190830960999992002070312004-10920-037050FM-12+000699999V02099999999990120019N0020001N1+02601+02061101801ADDAY161061AY261061GF106991061001012501021001KA1240N+02351MA1999999101731MD1999999+0161MW1201REMSYN088AAXX  03124 83096 21695 609// 10260 20206 30173 40180 72066 86020 333 20235 58016 60024;
0148830960999992002070318004-10920-037050FM-12+000699999V02099999999992200019N0020001N1+02661+02111101611ADDAA199000021GF101991011011012501001001MA1999999101541MD1999999-0221REMSYN070AAXX  03184 83096 32695 114// 10266 20211 30154 40161 81100 333 59022;
0179830960999992002070400004-10920-037050FM-12+000699999V02099999999992200019N0020001N1+02441+02091101881ADDAA199000021GF104991041001012501021001KA1240M+02811MA1999999101811MD1999999+0081REMSYN088AAXX  04004 83096 32695 409// 10244 20209 30181 40188 84020 333 10281 29076 55058 58008;
0190830960999992002070412004-10920-037050FM-12+000699999V02099999999990120019N0020001N1+02511+02111101901ADDAY161061AY261061GF107991071051012501001001KA1240N+02261MA1999999101831MD1999999+0101MW1201REMSYN088AAXX  04124 83096 21695 718// 10251 20211 30183 40190 72066 87500 333 20226 58010 60024;
0171830960999992002070418004-10920-037050FM-12+000699999V02099999999990075019N0010001N1+02321+02291101721ADDAY161061AY261061GF108991081051008001999999MA1999999101651MD1999999+0111MW1601REMSYN082AAXX  04184 83096 21594 818// 10232 20229 30165 40172 76066 885// 333 58011 60021;
0202830960999992002070500004-10920-037050FM-12+000699999V02099999999990120019N0020001N1+02301+02071101841ADDAY161061AY261061GF106991061051012501001001KA1240M+02651MA1999999101771MD1999999-0041MW1201REMSYN100AAXX  05004 83096 21695 614// 10230 20207 30177 40184 72066 86500 333 10265 29088 55018 59004 60071;
0162830960999992002070512004-10920-037050FM-12+000699999V02099999999990120019N0020001N1+02401+02031101861ADDGF106991061051012501001001KA1240N+02201MA1999999101791MD1999999-0041REMSYN082AAXX  05124 83096 22695 614// 10240 20203 30179 40186 86500 333 20220 59004 60094;
0167830960999992002070518004-10920-037050FM-12+000699999V02099999999992200019N0020001N1+02651+01981101661ADDAA199000091GF103991031011012501001001MA1999999101591MD1999999-0061REMSYN070AAXX  05184 83096 32695 314// 10265 20198 30159 40166 83100 333 59006;EQDQ01  00002PRCP99
0198830960999992002070600004-10920-037050FM-12+000699999V02099999999992200019N0020001N1+02511+01911101701ADDAA199000091GF102991021011012501001001KA1240M+02751MA1999999101631MD1999999-0141REMSYN088AAXX  06004 83096 32695 214// 10251 20191 30163 40170 82100 333 10275 29072 55043 59014;EQDQ01  00002PRCP99
0186830960999992002070612004-10920-037050FM-12+000699999V02099999999992200019N0020001N1+02611+01961101831ADDAA199000091GF102991021011012501001001KA1240N+02221MA1999999101761MD1999999-0031REMSYN076AAXX  06124 83096 32695 214// 10261 20196 30176 40183 82100 333 20222 59003;EQDQ01  00002PRCP99
0171830960999992002070618004-10920-037050FM-12+000699999V02099999999992200019N0020001N1+02591+02011101621ADDAY161061AY261061GF101991011011012501001001MA1999999101551MD1999999-0041MW1201REMSYN082AAXX  06184 83096 21695 114// 10259 20201 30155 40162 72066 81100 333 59004 60061;
0179830960999992002070700004-10920-037050FM-12+000699999V02099999999992200019N0020001N1+02491+01831101701ADDAA199000021GF103991031011012501001001KA1240M+02771MA1999999101631MD1999999+0001REMSYN088AAXX  07004 83096 32695 314// 10249 20183 30163 40170 83100 333 10277 29068 55076 58000;
0134830960999992002070712004-10920-037050FM-12+000699999V02099999999992200019N0020001N1+02431+01881101841ADDGF102991021011012501001001MA1999999101771REMSYN081AAXX  07124 83096 22695 218// 10243 20188 30177 40184 82100 33 20206 58001 60064;
0167830960999992002070718004-10920-037050FM-12+000699999V02099999999992200019N0020001N1+02611+01941101611ADDAA199000091GF102991021011012501001001MA1999999101541MD1999999-0011REMSYN070AAXX  07184 83096 32695 214// 10261 20194 30154 40161 82100 333 59001;EQDQ01  00002PRCP99
0198830960999992002070800004-10920-037050FM-12+000699999V02099999999992200019N0020001N1+02451+01901101681ADDAA199000091GF102991021011012501001001KA1240M+02771MA1999999101621MD1999999-0011REMSYN088AAXX  08004 83096 32695 214// 10245 20190 30162 40168 82100 333 10277 29071 55093 59001;EQDQ01  00002PRCP99
0186830960999992002070812004-10920-037050FM-12+000699999V02099999999992200019N0020001N1+02541+02271101901ADDAA199000091GF101991011011012501001001KA1240N+02181MA1999999101831MD1999999+0061REMSYN076AAXX  08124 83096 32695 118// 10254 20227 30183 40190 81100 333 20218 58006;EQDQ01  00002PRCP99
0167830960999992002070818004-10920-037050FM-12+000699999V02099999999992200019N0020001N1+02631+02121101531ADDAA199000091GF101991011011012501001001MA1999999101461MD1999999-0081REMSYN070AAXX  08184 83096 32695 118// 10263 20212 30146 40153 81100 333 59008;EQDQ01  00002PRCP99
0198830960999992002070900004-10920-037050FM-12+000699999V02099999999992200019N0020001N1+02451+01951101701ADDAA199000091GF101991011011012501001001KA1240M+02751MA1999999101671MD1999999+0051REMSYN088AAXX  09004 83096 32695 118// 10245 20195 30167 40170 81100 333 10275 29076 55103 58005;EQDQ01  00002PRCP99
0186830960999992002070912004-10920-037050FM-12+000699999V02099999999990120019N0020001N1+02401+02111101941ADDAA199000091GF107991071051012501001001KA1240N+01991MA1999999101871MD1999999+0041REMSYN076AAXX  09124 83096 32695 722// 10240 20211 30187 40194 87500 333 20199 58004;EQDQ01  00002PRCP99
0167830960999992002070918004-10920-037050FM-12+000699999V02099999999990120019N0020001N1+02551+02191101701ADDAA199000091GF106991061051012501001001MA1999999101631MD1999999+0171REMSYN070AAXX  09184 83096 32695 614// 10255 20219 30163 40170 86500 333 58017;EQDQ01  00002PRCP99
0190830960999992002071012004-10920-037050FM-12+000699999V02099999999990075019N0010001N1+02361+02011101921ADDAY161061AY261061GF106991061051008001001001KA1240N+02271MA1999999101851MD1999999-0021MW1601REMSYN088AAXX  10124 83096 21594 605// 10236 20201 30185 40192 76066 86500 333 20227 59002 60084;
0171830960999992002071018004-10920-037050FM-12+000699999V02099999999992200019N0020001N1+02531+02131101711ADDAY161061AY261061GF104991041011012501001001MA1999999101641MD1999999+0011MW1201REMSYN082AAXX  10184 83096 21695 405// 10253 20213 30164 40171 72066 84100 333 58001 60071;
0179830960999992002071100004-10920-037050FM-12+000699999V02099999999992200019N0020001N1+02531+02151101821ADDAA199000021GF104991041051012501001001KA1240M+02671MA1999999101751MD1999999+0311REMSYN088AAXX  11004 83096 32695 414// 10253 20215 30175 40182 84500 333 10267 29080 55011 58031;
0174830960999992002071112004-10920-037050FM-12+000699999V02099999999990120019N0020001N1+02491+02171101931ADDGF106991061051012501001001KA1240N+02301MA1999999101861MD1999999+0011MW1201REMSYN088AAXX  11124 83096 21695 614// 10249 20217 30186 40193 720// 86500 333 20230 58001 60084;
0148830960999992002071118004-10920-037050FM-12+000699999V02099999999992200019N0020001N1+02631+02121101631ADDAA199000021GF101991011011012501001001MA1999999101561MD1999999-0081REMSYN070AAXX  11184 83096 32695 109// 10263 20212 30156 40163 81100 333 59008;
0179830960999992002071200004-10920-037050FM-12+000699999V02099999999992200019N0020001N1+02241+02121101751ADDAA199000021GF101991011011012501001001KA1240M+02771MA1999999101681MD1999999-0071REMSYN088AAXX  12004 83096 32695 118// 10224 20212 30168 40175 81100 333 10277 29084 55077 59007;
0190830960999992002071212004-10920-037050FM-12+000699999V02099999999990075019N0010001N1+02471+02371101771ADDAY161061AY261061GF108991081051008001999999KA1240N+02201MA1999999101701MD1999999-0161MW1601REMSYN088AAXX  12124 83096 21594 809// 10247 20237 30170 40177 76066 885// 333 20220 59016 60244;
0171830960999992002071218004-10920-037050FM-12+000699999V02099999999992200019N0020001N1+02631+02211101511ADDAY161061AY261061GF101991011011012501001001MA1999999101441MD1999999-0121MW1201REMSYN082AAXX  12184 83096 21695 109// 10263 20221 30144 40151 72066 81100 333 59012 69921;
0179830960999992002071300004-10920-037050FM-12+000699999V02099999999992200019N0020001N1+02471+02171101601ADDAA199000021GF101991011011012501001001KA1240M+02761MA1999999101531MD1999999-0151REMSYN088AAXX  13004 83096 32695 109// 10247 20217 30153 40160 81100 333 10276 29085 55070 59015;
0167830960999992002071318004-10920-037050FM-12+000699999V02099999999990450019N0020001N1+02671+02241101391ADDAA199000091GF106991041051012501031001MA1999999101321MD1999999-0121REMSYN070AAXX  13184 83096 32695 609// 10267 20224 30132 40139 84530 333 59012;EQDQ01  00002PRCP99
0198830960999992002071400004-10920-037050FM-12+000699999V0200901N005712200019N0020001N1+02501+02211101701ADDAA199000091GF102991021011012501001001KA1240M+02811MA1999999101631MD1999999+0101REMSYN088AAXX  14004 83096 32695 20911 10250 20221 30163 40170 82100 333 10281 29082 55090 58010;EQDQ01  00002PRCP99
0186830960999992002071412004-10920-037050FM-12+000699999V02099999999990120019N0020001N1+02621+02251101711ADDAA199000091GF106991061051012501001001KA1240N+02161MA1999999101641MD1999999+0041REMSYN076AAXX  14124 83096 32695 618// 10262 20225 30164 40171 86500 333 20216 58004;EQDQ01  00002PRCP99
0167830960999992002071418004-10920-037050FM-12+000699999V02099999999992200019N0020001N1+02671+02201101421ADDAA199000091GF101991011011012501001001MA1999999101351MD1999999+0031REMSYN070AAXX  14184 83096 32695 114// 10267 20220 30135 40142 81100 333 58003;EQDQ01  00002PRCP99
0202830960999992002071500004-10920-037050FM-12+000699999V02099999999992200019N0020001N1+02481+02211101721ADDAY161061AY261061GF101991011011012501001001KA1240M+02811MA1999999101651MD1999999+0021MW1201REMSYN100AAXX  15004 83096 21695 105// 10248 20221 30165 40172 72066 81100 333 10281 29082 55091 58002 69961;
0209830960999992002071512004-10920-037050FM-12+000699999V02099999999992200019N0020001N1+02591+02171101821ADDAY161061AY261061GF104991999051012501001001KA1240N+02371MA1999999101751MD1999999+0111MW1201REMSYN088AAXX  15124 83096 21695 405// 10259 20217 30175 40182 72066 85500 333 20237 58011 60024;EQDQ01+000052SCOTLC
0167830960999992002071618004-10920-037050FM-12+000699999V02099999999992200019N0020001N1+02691+02131101711ADDAA199000091GF101991011011012501001001MA1999999101641MD1999999+0001REMSYN070AAXX  16184 83096 32695 109// 10269 20213 30164 40171 81100 333 58000;EQDQ01  00002PRCP99
0221830960999992002071700004-10920-037050FM-12+000699999V02099999999992200019N0020001N1+02351+02201101911ADDAY161061AY261061GF101991999051012501001001KA1240M+02751MA1999999101841MD1999999+0171MW1201REMSYN100AAXX  17004 83096 21695 118// 10235 20220 30184 40191 72066 85500 333 10275 29081 55094 58017 60041;EQDQ01+000052SCOTLC
0209830960999992002071712004-10920-037050FM-12+000699999V02099999999992200019N0020001N1+02671+02071101931ADDAY161061AY261061GF101991999051012501001001KA1240N+02351MA1999999101861MD1999999+0011MW1201REMSYN088AAXX  17124 83096 21695 105// 10267 20207 30186 40193 72066 86500 333 20235 58001 60054;EQDQ01+000062SCOTLC
0148830960999992002071718004-10920-037050FM-12+000699999V02099999999992200019N0020001N1+02651+02071101721ADDAA199000021GF102991021051012501001001MA1999999101651MD1999999+0011REMSYN070AAXX  17184 83096 32695 209// 10265 20207 30165 40172 82500 333 58001;
0179830960999992002071800004-10920-037050FM-12+000699999V02099999999992200019N0020001N1+02531+02151101901ADDAA199000021GF102991021051012501001001KA1240M+02791MA1999999101831MD1999999-0011REMSYN088AAXX  18004 83096 32695 209// 10253 20215 30183 40190 82500 333 10279 29075 55103 59001;
0186830960999992002071812004-10920-037050FM-12+000699999V02099999999992200019N0020001N1+02491+02011101821ADDAA199000091GF104991041051012501001001KA1240N+02181MA1999999101751MD1999999+0111REMSYN076AAXX  18124 83096 32695 414// 10249 20201 30175 40182 84500 333 20218 58011;EQDQ01  00002PRCP99
0167830960999992002071818004-10920-037050FM-12+000699999V02099999999992200019N0020001N1+02651+02031101671ADDAA199000091GF102991021011012501001001MA1999999101601MD1999999-0051REMSYN070AAXX  18184 83096 32695 214// 10265 20203 30160 40167 82100 333 59005;EQDQ01  00002PRCP99
0214830960999992002071900004-10920-037050FM-12+000699999V02099999999992200019N0020001N1+02531+02151101811ADDAA199000091GF104991999051012501001001KA1240M+02811MA1999999101741MD1999999-0091REMSYN088AAXX  19004 83096 32695 414// 10253 20215 30174 40181 85500 333 10281 29076 55092 59009;EQDQ01+000052SCOTLCQ02  00002PRCP99
0186830960999992002071912004-10920-037050FM-12+000699999V02099999999992200019N0020001N1+02591+02031101841ADDAA199000091GF102991021011012501001001KA1240N+02371MA1999999101771MD1999999+0021REMSYN076AAXX  19124 83096 32695 214// 10259 20203 30177 40184 82100 333 20237 58002;EQDQ01  00002PRCP99
0167830960999992002071918004-10920-037050FM-12+000699999V02099999999992200019N0020001N1+02681+02021101671ADDAA199000091GF102991021011012501001001MA1999999101601MD1999999+0001REMSYN070AAXX  19184 83096 32695 218// 10268 20202 30160 40167 82100 333 58000;EQDQ01  00002PRCP99
0198830960999992002072000004-10920-037050FM-12+000699999V02099999999992200019N0020001N1+02431+02071101731ADDAA199000091GF102991021011012501001001KA1240M+02831MA1999999101661MD1999999-0081REMSYN088AAXX  20004 83096 32695 218// 10243 20207 30166 40173 82100 333 10283 29074 55103 59008;EQDQ01  00002PRCP99
0190830960999992002072012004-10920-037050FM-12+000699999V02099999999990075019N0020001N1+02181+02151101941ADDAY161061AY261061GF108991081001008001021001KA1240N+02161MA1999999101871MD1999999+0101MW1601REMSYN088AAXX  20124 83096 21595 814// 10218 20215 30187 40194 76066 88020 333 20216 58010 60064;
0148830960999992002072018004-10920-037050FM-12+000699999V02099999999992200019N0020001N1+02651+02291101571ADDAA199000021GF101991011011012501001001MA1999999101501MD1999999-0101REMSYN070AAXX  20184 83096 32695 118// 10265 20229 30150 40157 81100 333 59010;
0179830960999992002072100004-10920-037050FM-12+000699999V02099999999992200019N0020001N1+02361+02131101721ADDAA199000021GF101991011011012501001001KA1240M+02721MA1999999101651MD1999999-0011REMSYN088AAXX  21004 83096 32695 118// 10236 20213 30165 40172 81100 333 10272 29088 55063 59001;
0190830960999992002072112004-10920-037050FM-12+000699999V02099999999990120019N0020001N1+02301+02251101781ADDAY161061AY261061GF105991051011012501001001KA1240N+02021MA1999999101711MD1999999-0161MW1201REMSYN088AAXX  21124 83096 21695 518// 10230 20225 30171 40178 72066 85100 333 20202 59016 69984;
0148830960999992002072118004-10920-037050FM-12+000699999V02099999999992200019N0020001N1+02771+02251101531ADDAA199000021GF101991011011012501001001MA1999999101461MD1999999-0041REMSYN070AAXX  21184 83096 32695 114// 10277 20225 30146 40153 81100 333 59004;
0179830960999992002072200004-10920-037050FM-12+000699999V02099999999992200019N0020001N1+02451+02071101701ADDAA199000021GF102991021011012501001001KA1240M+02791MA1999999101631MD1999999-0021REMSYN088AAXX  22004 83096 32695 214// 10245 20207 30163 40170 82100 333 10279 29082 55068 59002;
0186830960999992002072312004-10920-037050FM-12+000699999V02099999999992200019N0020001N1+02691+02091101831ADDAA199000091GF104991041011012501001001KA1240N+02181MA1999999101761MD1999999+0121REMSYN076AAXX  23124 83096 32695 409// 10269 20209 30176 40183 84100 333 20218 58012;EQDQ01  00002PRCP99
0167830960999992002072318004-10920-037050FM-12+000699999V02099999999992200019N0020001N1+02691+02061101691ADDAA199000091GF101991011011012501001001MA1999999101621MD1999999+0081REMSYN070AAXX  23184 83096 32695 109// 10269 20206 30162 40169 81100 333 58008;EQDQ01  00002PRCP99
0198830960999992002072400004-10920-037050FM-12+000699999V02099999999992200019N0020001N1+02491+02071101731ADDAA199000091GF102991021011012501001001KA1240M+02811MA1999999101661MD1999999-0031REMSYN088AAXX  24004 83096 32695 209// 10249 20207 30166 40173 82100 333 10281 29073 55095 59003;EQDQ01  00002PRCP99
0190830960999992002072412004-10920-037050FM-12+000699999V02099999999992200019N0020001N1+02691+02151101781ADDAY161061AY261061GF101991011011012501001001KA1240N+02391MA1999999101711MD1999999-0061MW1201REMSYN088AAXX  24124 83096 21695 109// 10269 20215 30171 40178 72066 81100 333 20239 59006 69944;
0148830960999992002072418004-10920-037050FM-12+000699999V02099999999992200019N0020001N1+02711+02101101621ADDAA199000021GF101991011011012501001001MA1999999101551MD1999999-0071REMSYN070AAXX  24184 83096 32695 109// 10271 20210 30155 40162 81100 333 59007;
0179830960999992002072500004-10920-037050FM-12+000699999V02099999999992200019N0020001N1+02551+02211101941ADDAA199000021GF101991011011012501001001KA1240M+02821MA1999999101871MD1999999+0211REMSYN088AAXX  25004 83096 32695 109// 10255 20221 30187 40194 81100 333 10282 29076 55106 58021;
0190830960999992002072512004-10920-037050FM-12+000699999V02099999999990120019N0020001N1+02621+02211102001ADDAY161061AY261061GF106991061051012501001001KA1240N+02311MA1999999101931MD1999999+0221MW1201REMSYN088AAXX  25124 83096 21695 614// 10262 20221 30193 40200 72066 86500 333 20231 58022 69924;
0148830960999992002072518004-10920-037050FM-12+000699999V02099999999992200019N0020001N1+02671+02041101691ADDAA199000021GF102991021051012501001001MA1999999101621MD1999999+0071REMSYN070AAXX  25184 83096 32695 205// 10267 20204 30162 40169 82500 333 58007;
0179830960999992002072600004-10920-037050FM-12+000699999V02099999999992200019N0020001N1+02531+02071101901ADDAA199000021GF102991021051012501001001KA1240M+02811MA1999999101831MD1999999-0041REMSYN088AAXX  26004 83096 32695 214// 10253 20207 30183 40190 82500 333 10281 29075 55089 59004;
0186830960999992002072612004-10920-037050FM-12+000699999V02099999999992200019N0020001N1+02571+02171101901ADDAA199000091GF104991041011012501001001KA1240N+02391MA1999999101831MD1999999-0101REMSYN076AAXX  26124 83096 32695 414// 10257 20217 30183 40190 84100 333 20239 59010;EQDQ01  00002PRCP99
0167830960999992002072618004-10920-037050FM-12+000699999V02099999999990120019N0020001N1+02571+02151101691ADDAA199000091GF106991061051012501001001MA1999999101621MD1999999+0001REMSYN070AAXX  26184 83096 32695 614// 10257 20215 30162 40169 86500 333 58000;EQDQ01  00002PRCP99
0198830960999992002072700004-10920-037050FM-12+000699999V02099999999990120019N0020001N1+02571+02191101801ADDAA199000091GF105991051051012501001001KA1240M+02701MA1999999101731MD1999999-0101REMSYN088AAXX  27004 83096 32695 514// 10257 20219 30173 40180 85500 333 10270 29079 55030 59010;EQDQ01  00002PRCP99
0186830960999992002072712004-10920-037050FM-12+000699999V02099999999992200019N0020001N1+02611+02231101821ADDAA199000091GF104991041051012501001001KA1240N+02401MA1999999101751MD1999999-0081REMSYN076AAXX  27124 83096 32695 414// 10261 20223 30175 40182 84500 333 20240 59008;EQDQ01  00002PRCP99
0167830960999992002072718004-10920-037050FM-12+000699999V02099999999990120019N0020001N1+02451+02071101701ADDAA199000091GF105991051051012501001001MA1999999101631MD1999999+0011REMSYN070AAXX  27184 83096 32695 514// 10245 20207 30163 40170 85500 333 58001;EQDQ01  00002PRCP99
0198830960999992002072800004-10920-037050FM-12+000699999V02099999999990120019N0020001N1+02471+02131101801ADDAA199000091GF106991061051012501001001KA1240M+02701MA1999999101731MD1999999+0001REMSYN088AAXX  28004 83096 32695 614// 10247 20213 30173 40180 86500 333 10270 29081 55000 58000;EQDQ01  00002PRCP99
0190830960999992002072812004-10920-037050FM-12+000699999V02099999999990075019N0020001N1+02451+02111101921ADDAY161061AY261061GF105991051051008001001001KA1240N+02221MA1999999101851MD1999999+0101MW1601REMSYN088AAXX  28124 83096 21595 505// 10245 20211 30185 40192 76066 85500 333 20222 58010 60014;
0148830960999992002072818004-10920-037050FM-12+000699999V02099999999992200019N0020001N1+02691+02261101781ADDAA199000021GF102991021011012501001001MA1999999101711MD1999999+0081REMSYN070AAXX  28184 83096 32695 209// 10269 20226 30171 40178 82100 333 58008;
0179830960999992002072900004-10920-037050FM-12+000699999V02099999999992200019N0020001N1+02511+02171101791ADDAA199000021GF102991021011012501001001KA1240M+02791MA1999999101721MD1999999-0011REMSYN088AAXX  29004 83096 32695 209// 10251 20217 30172 40179 82100 333 10279 29081 55057 59001;
0186830960999992002072912004-10920-037050FM-12+000699999V02099999999992200019N0020001N1+02591+02311101991ADDAA199000091GF103991031011012501001001KA1240N+02201MA1999999101921MD1999999+0071REMSYN076AAXX  29124 83096 32695 309// 10259 20231 30192 40199 83100 333 20220 58007;EQDQ01  00002PRCP99
0167830960999992002072918004-10920-037050FM-12+000699999V02099999999992200019N0020001N1+02731+02281101851ADDAA199000091GF101991011011012501001001MA1999999101781MD1999999+0071REMSYN070AAXX  29184 83096 32695 109// 10273 20228 30178 40185 81100 333 58007;EQDQ01  00002PRCP99
0190830960999992002073012004-10920-037050FM-12+000699999V02099999999992200019N0020001N1+02631+02031102071ADDAY161061AY261061GF102991021051012501001001KA1240N+02201MA1999999102001MD1999999+0081MW1201REMSYN088AAXX  30124 83096 21695 214// 10263 20203 30200 40207 72066 82500 333 20220 58008 69944;
0171830960999992002073018004-10920-037050FM-12+000699999V02099999999990075019N0010001N1+02511+02431101811ADDAY161061AY261061GF108991081051008001999999MA1999999101741MD1999999-0041MW1601REMSYN082AAXX  30184 83096 21594 814// 10251 20243 30174 40181 76066 885// 333 59004 60051;
0202830960999992002073100004-10920-037050FM-12+000699999V02099999999990120019N0020001N1+02451+02271101931ADDAY161061AY261061GF106991061051012501001001KA1240M+02831MA1999999101861MD1999999-0131MW1201REMSYN100AAXX  31004 83096 21695 614// 10245 20227 30186 40193 72066 86500 333 10283 29086 55047 59013 60031;
0190830960999992002073112004-10920-037050FM-12+000699999V02099999999992200019N0020001N1+02551+02171101921ADDAY161061AY261061GF104991041051012501001001KA1240N+02391MA1999999101851MD1999999-0151MW1201REMSYN088AAXX  31124 83096 21695 409// 10255 20217 30185 40192 72066 84500 333 20239 59015 60094;
0148830960999992002073118004-10920-037050FM-12+000699999V02099999999992200019N0020001N1+02671+02051101671ADDAA199000021GF102991021051012501001001MA1999999101601MD1999999-0141REMSYN070AAXX  31184 83096 32695 209// 10267 20205 30160 40167 82500 333 59014;
0179830960999992002080100004-10920-037050FM-12+000699999V02099999999992200019N0020001N1+02511+02091101681ADDAA199000021GF103991031051012501001001KA1240M+02811MA1999999101611MD1999999-0251REMSYN088AAXX  01004 83096 32695 309// 10251 20209 30161 40168 83500 333 10281 29076 55091 59025;
0186830960999992002080112004-10920-037050FM-12+000699999V02099999999992200019N0020001N1+02411+02111101741ADDAA199000091GF102991021011012501001001KA1240N+02121MA1999999101671MD1999999+0181REMSYN076AAXX  01124 83096 32695 209// 10241 20211 30167 40174 82100 333 20212 58018;EQDQ01  00002PRCP99
0167830960999992002080118004-10920-037050FM-12+000699999V02099999999999999999N0020001N1+02671+02161101511ADDAA199000091GF106991061001012501001011MA1999999101441MD1999999-0161REMSYN070AAXX  01184 83096 32695 609// 10267 20216 30144 40151 86001 333 59016;EQDQ01  00002PRCP99
0198830960999992002080200004-10920-037050FM-12+000699999V02099999999992200019N0020001N1+02511+02231101851ADDAA199000091GF101991011011012501001001KA1240M+02821MA1999999101741MD1999999+0131REMSYN088AAXX  02004 83096 32695 109// 10251 20223 30174 40185 81100 333 10282 29081 55049 58013;EQDQ01  00002PRCP99
0190830960999992002080212004-10920-037050FM-12+000699999V02099999999990075019N0010001N1+02431+02211101921ADDAY161061AY261061GF108991081051008001999999KA1240N+02141MA1999999101851MD1999999+0181MW1201REMSYN088AAXX  02124 83096 21594 814// 10243 20221 30185 40192 72066 885// 333 20214 58018 60024;
0148830960999992002080218004-10920-037050FM-12+000699999V02099999999992200019N0020001N1+02651+02331101721ADDAA199000021GF101991011011012501001001MA1999999101651MD1999999+0211REMSYN070AAXX  02184 83096 32695 105// 10265 20233 30165 40172 81100 333 58021;
0179830960999992002080300004-10920-037050FM-12+000699999V02099999999992200019N0020001N1+02521+02271101971ADDAA199000021GF101991011011012501001001KA1240M+02791MA1999999101901MD1999999+0161REMSYN088AAXX  03004 83096 32695 105// 10252 20227 30190 40197 81100 333 10279 29086 55043 58016;
0186830960999992002080312004-10920-037050FM-12+000699999V02099999999992200019N0020001N1+02651+02051102021ADDAA199000091GF102991021051012501001001KA1240N+02471MA1999999101951MD1999999+0101REMSYN076AAXX  03124 83096 32695 214// 10265 20205 30195 40202 82500 333 20247 58010;EQDQ01  00002PRCP99
0167830960999992002080318004-10920-037050FM-12+000699999V02099999999992200019N0020001N1+02661+01951101681ADDAA199000091GF101991011011012501001001MA1999999101611MD1999999-0041REMSYN070AAXX  03184 83096 32695 114// 10266 20195 30161 40168 81100 333 59004;EQDQ01  00002PRCP99
0198830960999992002080400004-10920-037050FM-12+000699999V02099999999992200019N0020001N1+02461+02091101921ADDAA199000091GF101991011011012501001001KA1240M+02811MA1999999101851MD1999999-0051REMSYN088AAXX  04004 83096 32695 109// 10246 20209 30185 40192 81100 333 10281 29074 55092 59005;EQDQ01  00002PRCP99
0190830960999992002080412004-10920-037050FM-12+000699999V02099999999990120019N0020001N1+02281+02031101931ADDAY161061AY261061GF107991071051012501001001KA1240N+02021MA1999999101861MD1999999-0061MW1201REMSYN088AAXX  04124 83096 21695 727// 10228 20203 30186 40193 72066 87500 333 20202 59006 60014;
0148830960999992002080418004-10920-037050FM-12+000699999V02099999999992200019N0020001N1+02671+01971101611ADDAA199000021GF101991011011012501001001MA1999999101541MD1999999-0071REMSYN070AAXX  04184 83096 32695 109// 10267 20197 30154 40161 81100 333 59007;
0179830960999992002080500004-10920-037050FM-12+000699999V02099999999992200019N0020001N1+02491+02011101701ADDAA199000021GF102991021011012501001001KA1240M+02791MA1999999101631MD1999999-0221REMSYN088AAXX  05004 83096 32695 209// 10249 20201 30163 40170 82100 333 10279 29075 55079 59022;
0186830960999992002080512004-10920-037050FM-12+000699999V02099999999990120019N0020001N1+02431+01971101821ADDAA199000091GF105991051051012501001001KA1240N+02021MA1999999101751MD1999999-0111REMSYN076AAXX  05124 83096 32695 505// 10243 20197 30175 40182 85500 333 20202 59011;EQDQ01  00002PRCP99
0171830960999992002080518004-10920-037050FM-12+000699999V02099999999992200019N0020001N1+02691+01991101611ADDAY161061AY261061GF103991031011012501001001MA1999999101541MD1999999+0001MW1201REMSYN082AAXX  05184 83096 21695 309// 10269 20199 30154 40161 72066 83100 333 58000 69941;
0179830960999992002080600004-10920-037050FM-12+000699999V02099999999992200019N0020001N1+02471+02011101701ADDAA199000021GF102991021011012501001001KA1240M+02771MA1999999101631MD1999999+0001REMSYN088AAXX  06004 83096 32695 209// 10247 20201 30163 40170 82100 333 10277 29073 55069 58000;
0190830960999992002080612004-10920-037050FM-12+000699999V02099999999992200019N0020001N1+02301+02111101811ADDAY161061AY261061GF101991011011012501001001KA1240N+01961MA1999999101741MD1999999-0011MW1201REMSYN088AAXX  06124 83096 21695 109// 10230 20211 30174 40181 72066 81100 333 20196 59001 69944;
0148830960999992002080618004-10920-037050FM-12+000699999V02099999999992200019N0020001N1+02711+01981101591ADDAA199000021GF101991011011012501001001MA1999999101521MD1999999-0021REMSYN070AAXX  06184 83096 32695 109// 10271 20198 30152 40159 81100 333 59002;
0179830960999992002080700004-10920-037050FM-12+000699999V02099999999992200019N0020001N1+02541+02091101801ADDAA199000021GF101991011011012501001001KA1240M+02791MA1999999101731MD1999999+0101REMSYN088AAXX  07004 83096 32695 109// 10254 20209 30173 40180 81100 333 10279 29076 55106 58010;
0190830960999992002080712004-10920-037050FM-12+000699999V02099999999990075019N0010001N1+02331+02151102011ADDAY161061AY261061GF106991061051008001001001KA1240N+02011MA1999999101941MD1999999+0201MW1601REMSYN088AAXX  07124 83096 21594 609// 10233 20215 30194 40201 76066 86500 333 20201 58020 60054;
0148830960999992002080718004-10920-037050FM-12+000699999V02099999999992200019N0020001N1+02761+02121101621ADDAA199000021GF101991011011012501001001MA1999999101551MD1999999+0031REMSYN070AAXX  07184 83096 32695 109// 10276 20212 30155 40162 81100 333 58003;
0179830960999992002080800004-10920-037050FM-12+000699999V02099999999992200019N0020001N1+02521+01931101891ADDAA199000021GF101991011011012501001001KA1240M+02811MA1999999101821MD1999999+0091REMSYN088AAXX  08004 83096 32695 114// 10252 20193 30182 40189 81100 333 10281 29074 55080 58009;
0186830960999992002080812004-10920-037050FM-12+000699999V02099999999992200019N0020001N1+02631+01861101921ADDAA199000091GF102991021011012501001001KA1240N+02301MA1999999101851MD1999999-0091REMSYN076AAXX  08124 83096 32695 209// 10263 20186 30185 40192 82100 333 20230 59009;EQDQ01  00002PRCP99
0167830960999992002080818004-10920-037050FM-12+000699999V02099999999992200019N0020001N1+02691+01991101771ADDAA199000091GF102991021011012501001001MA1999999101701MD1999999+0151REMSYN070AAXX  08184 83096 32695 209// 10269 20199 30170 40177 82100 333 58015;EQDQ01  00002PRCP99
0198830960999992002080900004-10920-037050FM-12+000699999V02099999999992200019N0020001N1+02491+01961101821ADDAA199000091GF102991021011012501001001KA1240M+02771MA1999999101751MD1999999-0071REMSYN088AAXX  09004 83096 32695 209// 10249 20196 30175 40182 82100 333 10277 29068 55091 59007;EQDQ01  00002PRCP99
0190830960999992002080912004-10920-037050FM-12+000699999V02099999999992200019N0020001N1+02711+01881101921ADDAY161061AY261061GF101991011011012501001001KA1240N+02201MA1999999101851MD1999999+0001MW1201REMSYN088AAXX  09124 83096 21695 109// 10271 20188 30185 40192 72066 81100 333 20220 58000 60014;
0150830960999992002080918004-10920-037050FM-12+000699999V02099999999992200019N0020001N1+02771+02111101751ADDAA199000021GA1011+000159019GF101991999999012501999999MA1999999101681REMSYN070AAXX  09184 83096 32695 109// 10277 20211 30168 40175 333 81100 59002;
0179830960999992002081000004-10920-037050FM-12+000699999V02099999999990120019N0020001N1+02261+02071101891ADDAA199000021GF106991061001012501021001KA1240M+02841MA1999999101821MD1999999+0071REMSYN088AAXX  10004 83096 32695 609// 10226 20207 30182 40189 86020 333 10284 29076 55100 58007;
0190830960999992002081012004-10920-037050FM-12+000699999V02099999999992200019N0020001N1+02691+02151101961ADDAY161061AY261061GF101991011011012501001001KA1240N+02181MA1999999101891MD1999999+0041MW1201REMSYN088AAXX  10124 83096 21695 109// 10269 20215 30189 40196 72066 81100 333 20218 58004 69964;
0148830960999992002081018004-10920-037050FM-12+000699999V02099999999992200019N0020001N1+02621+02211101731ADDAA199000021GF101991011011012501001001MA1999999101661MD1999999-0021REMSYN070AAXX  10184 83096 32695 118// 10262 20221 30166 40173 81100 333 59002;
0179830960999992002081100004-10920-037050FM-12+000699999V02099999999992200019N0020001N1+02501+01821101851ADDAA199000021GF101991011011012501001001KA1240M+02801MA1999999101781MD1999999-0041REMSYN088AAXX  11004 83096 32695 109// 10250 20182 30178 40185 81100 333 10280 29070 55049 59004;
0186830960999992002081112004-10920-037050FM-12+000699999V02099999999990120019N0020001N1+02531+01981101931ADDAA199000091GF106991061011012501001001KA1240N+02261MA1999999101861MD1999999-0031REMSYN076AAXX  11124 83096 32695 609// 10253 20198 30186 40193 86100 333 20226 59003;EQDQ01  00002PRCP99
0167830960999992002081118004-10920-037050FM-12+000699999V02099999999992200019N0020001N1+02671+02061101761ADDAA199000091GF101991011001012501001011MA1999999101691MD1999999+0031REMSYN070AAXX  11184 83096 32695 109// 10267 20206 30169 40176 81001 333 58003;EQDQ01  00002PRCP99
0198830960999992002081200004-10920-037050FM-12+000699999V02099999999992200019N0020001N1+02431+02151101771ADDAA199000091GF102991021001012501021001KA1240M+02771MA1999999101701MD1999999-0081REMSYN088AAXX  12004 83096 32695 209// 10243 20215 30170 40177 82020 333 10277 29077 55020 59008;EQDQ01  00002PRCP99
0190830960999992002081212004-10920-037050FM-12+000699999V02099999999990120019N0020001N1+02571+02151101921ADDAY161061AY261061GF107991071051012501001001KA1240N+02201MA1999999101851MD1999999-0011MW1201REMSYN088AAXX  12124 83096 21695 714// 10257 20215 30185 40192 72066 87500 333 20220 59001 60044;
0148830960999992002081218004-10920-037050FM-12+000699999V02099999999990120019N0020001N1+02671+02091101801ADDAA199000021GF106991061051012501001001MA1999999101731MD1999999+0041REMSYN070AAXX  12184 83096 32695 609// 10267 20209 30173 40180 86500 333 58004;
0179830960999992002081300004-10920-037050FM-12+000699999V02099999999992200019N0020001N1+02461+02091101871ADDAA199000021GF102991021051012501001001KA1240M+02811MA1999999101801MD1999999+0101REMSYN088AAXX  13004 83096 32695 209// 10246 20209 30180 40187 82500 333 10281 29077 55063 58010;
0186830960999992002081312004-10920-037050FM-12+000699999V02099999999992200019N0020001N1+02651+02071101921ADDAA199000091GF103991031051012501001001KA1240N+02411MA1999999101851MD1999999+0001REMSYN076AAXX  13124 83096 32695 309// 10265 20207 30185 40192 83500 333 20241 58000;EQDQ01  00002PRCP99
0171830960999992002081318004-10920-037050FM-12+000699999V02099999999992200019N0020001N1+02631+02141101771ADDAY161061AY261061GF102991021051012501001001MA1999999101701MD1999999-0031MW1201REMSYN082AAXX  13184 83096 21695 214// 10263 20214 30170 40177 72066 82500 333 59003 69941;
0202830960999992002081400004-10920-037050FM-12+000699999V02099999999990075019N0020001N1+02471+02131101791ADDAY161061AY261061GF106991061051008001001001KA1240M+02751MA1999999101721MD1999999-0081MW1601REMSYN100AAXX  14004 83096 21595 605// 10247 20213 30172 40179 76066 86500 333 10275 29077 55078 59008 60011;
0203830960999992002081412004-10920-037050FM-12+000699999V02099999999990120019N0020001N1+02591+02171101981ADDAY161061AY261061GF106991061011012501001001KA1240N+02301MA1999999101911MD1999999+0061REMSYN088AAXX  14124 83096 21695 614// 10259 20217 30191 40198 77266 86100 333 20230 58006 60084;EQDQ01+000722PRSWM1
0167830960999992002081418004-10920-037050FM-12+000699999V02099999999992200019N0020001N1+02671+02161101811ADDAA199000091GF101991011011012501001001MA1999999101741MD1999999+0041REMSYN070AAXX  14184 83096 32695 109// 10267 20216 30174 40181 81100 333 58004;EQDQ01  00002PRCP99
0198830960999992002081500004-10920-037050FM-12+000699999V02099999999992200019N0020001N1+02551+02211101971ADDAA199000091GF101991011011012501001001KA1240M+02811MA1999999101901MD1999999+0181REMSYN088AAXX  15004 83096 32695 109// 10255 20221 30190 40197 81100 333 10281 29078 55082 58018;EQDQ01  00002PRCP99
0186830960999992002081512004-10920-037050FM-12+000699999V02099999999990120019N0020001N1+02601+02231102001ADDAA199000091GF107991071051012501001001KA1240N+02321MA1999999101931MD1999999+0021REMSYN076AAXX  15124 83096 32695 705// 10260 20223 30193 40200 87500 333 20232 58002;EQDQ01  00002PRCP99
0167830960999992002081518004-10920-037050FM-12+000699999V02099999999990120019N0020001N1+02551+02171101871ADDAA199000091GF106991061051012501001001MA1999999101801MD1999999+0061REMSYN070AAXX  15184 83096 32695 614// 10255 20217 30180 40187 86500 333 58006;EQDQ01  00002PRCP99
0202830960999992002081600004-10920-037050FM-12+000699999V02099999999990075019N0020001N1+02451+02231101981ADDAY161061AY261061GF107991071051008001001001KA1240M+02831MA1999999101911MD1999999+0011MW1021REMSYN100AAXX  16004 83096 21595 709// 10245 20223 30191 40198 70266 87500 333 10283 29084 55031 58001 60021;
0162830960999992002081612004-10920-037050FM-12+000699999V02099999999992200019N0020001N1+02591+01991102011ADDGF103991031051012501001001KA1240N+02391MA1999999101941MD1999999+0011REMSYN082AAXX  16124 83096 22695 314// 10259 20199 30194 40201 83500 333 20239 58001 60024;
0167830960999992002081618004-10920-037050FM-12+000699999V02099999999992200019N0020001N1+02711+02011101871ADDAA199000091GF103991031011012501001001MA1999999101801MD1999999+0001REMSYN070AAXX  16184 83096 32695 309// 10271 20201 30180 40187 83100 333 58000;EQDQ01  00002PRCP99
0198830960999992002081700004-10920-037050FM-12+000699999V02099999999992200019N0020001N1+02531+01981101991ADDAA199000091GF104991041051012501001001KA1240M+02811MA1999999101921MD1999999+0011REMSYN088AAXX  17004 83096 32695 409// 10253 20198 30192 40199 84500 333 10281 29070 55089 58001;EQDQ01  00002PRCP99
0186830960999992002081712004-10920-037050FM-12+000699999V02099999999992200019N0020001N1+02631+01861102001ADDAA199000091GF104991041011012501001001KA1240N+02281MA1999999101931MD1999999-0011REMSYN076AAXX  17124 83096 32695 414// 10263 20186 30193 40200 84100 333 20228 59001;EQDQ01  00002PRCP99
0167830960999992002081718004-10920-037050FM-12+000699999V02099999999992200019N0020001N1+02691+01971101791ADDAA199000091GF102991021051012501001001MA1999999101721MD1999999-0201REMSYN070AAXX  17184 83096 32695 214// 10269 20197 30172 40179 82500 333 59020;EQDQ01  00002PRCP99
0202830960999992002081800004-10920-037050FM-12+000699999V02099999999990120019N0020001N1+02401+01091101791ADDAY161061AY261061GF105991051051012501001001KA1240M+02791MA1999999101721MD1999999-0201MW1201REMSYN100AAXX  18004 83096 21695 509// 10240 20109 30172 40179 72066 85500 333 10279 29071 55096 59020 69921;
0190830960999992002081812004-10920-037050FM-12+000699999V02099999999992200019N0020001N1+02651+02051101901ADDAY161061AY261061GF104991041051012501001001KA1240N+02351MA1999999101831MD1999999-0101MW1201REMSYN088AAXX  18124 83096 21695 414// 10265 20205 30183 40190 72066 84500 333 20235 59010 60014;
0148830960999992002081818004-10920-037050FM-12+000699999V02099999999992200019N0020001N1+02671+02221101711ADDAA199000021GF101991011011012501001001MA1999999101641MD1999999-0061REMSYN070AAXX  18184 83096 32695 109// 10267 20222 30164 40171 81100 333 59006;
0202830960999992002081900004-10920-037050FM-12+000699999V02099999999990075019N0020001N1+02411+02091101791ADDAY161061AY261061GF105991051051008001001001KA1240M+02791MA1999999101721MD1999999+0001MW1601REMSYN100AAXX  19004 83096 21595 514// 10241 20209 30172 40179 76066 85500 333 10279 29078 55102 58000 69941;
0190830960999992002081912004-10920-037050FM-12+000699999V02099999999992200019N0020001N1+02691+02031101961ADDAY161061AY261061GF101991011011012501001001KA1240N+02241MA1999999101891MD1999999+0061MW1211REMSYN088AAXX  19124 83096 21695 109// 10269 20203 30189 40196 72166 81100 333 20224 58006 60024;
0148830960999992002081918004-10920-037050FM-12+000699999V02099999999992200019N0020001N1+02611+02181101811ADDAA199000021GF101991011011012501001001MA1999999101741MD1999999+0101REMSYN070AAXX  19184 83096 32695 109// 10261 20218 30174 40181 81100 333 58010;
0179830960999992002082000004-10920-037050FM-12+000699999V02099999999992200019N0020001N1+02491+02111101971ADDAA199000021GF101991011011012501001001KA1240M+02801MA1999999101901MD1999999+0181REMSYN088AAXX  20004 83096 32695 109// 10249 20211 30190 40197 81100 333 10280 29076 55080 58018;
0190830960999992002082012004-10920-037050FM-12+000699999V02099999999990120019N0020001N1+02611+01821101941ADDAY161061AY261061GF107991071051012501001001KA1240N+02281MA1999999101871MD1999999-0021MW1201REMSYN088AAXX  20124 83096 21695 709// 10261 20182 30187 40194 72066 87500 333 20228 59002 60034;
0167830960999992002082018004-10920-037050FM-12+000699999V02099999999992200019N0020001N1+02601+01961101791ADDAA199000021GF101991011051012501001001MA1999999101022MD1999999-0021REMSYN070AAXX  20184 83096 32695 109// 10260 20196 30102 40179 81500 333 59002;EQDQ01+101023APOSP 
0179830960999992002082100004-10920-037050FM-12+000699999V02099999999990120019N0020001N1+02511+01981101881ADDAA199000021GF106991061051012501001001KA1240M+02831MA1999999101811MD1999999-0091REMSYN088AAXX  21004 83096 32695 614// 10251 20198 30181 40188 86500 333 10283 29068 55074 59009;
0167830960999992002082118004-10920-037050FM-12+000699999V02099999999992200019N0020001N1+02731+01931101971ADDAA199000091GF101991011011012501001001MA1999999101901MD1999999+0181REMSYN070AAXX  21184 83096 32695 109// 10273 20193 30190 40197 81100 333 58018;EQDQ01  00002PRCP99
0198830960999992002082200004-10920-037050FM-12+000699999V02099999999992200019N0020001N1+02511+02031101991ADDAA199000091GF103991031051012501001001KA1240M+02811MA1999999101921MD1999999+0111REMSYN088AAXX  22004 83096 32695 309// 10251 20203 30192 40199 83500 333 10281 29070 55076 58011;EQDQ01  00002PRCP99
0190830960999992002082212004-10920-037050FM-12+000699999V02099999999992200019N0020001N1+02531+02251102001ADDAY161061AY261061GF104991041051012501001001KA1240N+02201MA1999999101931MD1999999-0051MW1211REMSYN088AAXX  22124 83096 21695 409// 10253 20225 30193 40200 72166 84500 333 20220 59005 60144;
0171830960999992002082218004-10920-037050FM-12+000699999V02099999999992200019N0020001N1+02511+02071101771ADDAY161061AY261061GF101991011011012501001001MA1999999101701MD1999999-0201MW1201REMSYN082AAXX  22184 83096 21695 109// 10251 20207 30170 40177 72066 81100 333 59020 69991;
0179830960999992002082300004-10920-037050FM-12+000699999V02099999999992200019N0020001N1+02481+02051101941ADDAA199000021GF101991011001012501021001KA1240M+02751MA1999999101871MD1999999-0051REMSYN088AAXX  23004 83096 32695 109// 10248 20205 30187 40194 81020 333 10275 29079 55066 59005;
0162830960999992002082312004-10920-037050FM-12+000699999V02099999999992200019N0020001N1+02631+01911101911ADDGF103991031051012501001001KA1240N+02211MA1999999101841MD1999999+0091REMSYN082AAXX  23124 83096 22695 309// 10263 20191 30184 40191 83500 333 20221 58009 69994;
0167830960999992002082318004-10920-037050FM-12+000699999V02099999999990120019N0020001N1+02601+01761101691ADDAA199000091GF106991061051012501001001MA1999999101621MD1999999-0081REMSYN070AAXX  23184 83096 32695 614// 10260 20176 30162 40169 86500 333 59008;EQDQ01  00002PRCP99
0198830960999992002082400004-10920-037050FM-12+000699999V02099999999992200019N0020001N1+02461+01991101821ADDAA199000091GF103991031051012501001001KA1240M+02791MA1999999101751MD1999999-0081REMSYN088AAXX  24004 83096 32695 314// 10246 20199 30175 40182 83500 333 10279 29068 55090 59008;EQDQ01  00002PRCP99
0190830960999992002082412004-10920-037050FM-12+000699999V02099999999992200019N0020001N1+02551+02021101891ADDAY161061AY261061GF102991021051012501001001KA1240N+02121MA1999999101821MD1999999-0021MW1201REMSYN088AAXX  24124 83096 21695 209// 10255 20202 30182 40189 72066 82500 333 20212 59002 60024;
0171830960999992002082418004-10920-037050FM-12+000699999V02099999999990120019N0020001N1+02561+02151101601ADDAY161061AY261061GF106991061051012501001001MA1999999101531MD1999999-0091MW1201REMSYN082AAXX  24184 83096 21695 614// 10256 20215 30153 40160 72066 86500 333 59009 60011;
0179830960999992002082500004-10920-037050FM-12+000699999V02099999999992200019N0020001N1+02491+02131101821ADDAA199000021GF102991021051012501001001KA1240M+02711MA1999999101751MD1999999+0001REMSYN088AAXX  25004 83096 32695 214// 10249 20213 30175 40182 82500 333 10271 29078 55036 58000;
0190830960999992002082512004-10920-037050FM-12+000699999V02099999999990120019N0020001N1+02321+02001101941ADDAY161061AY261061GF106991061051012501001001KA1240N+02101MA1999999101871MD1999999+0051MW1201REMSYN088AAXX  25124 83096 21695 605// 10232 20200 30187 40194 72066 86500 333 20210 58005 60034;
0184830960999992002082518004-10920-037050FM-12+000699999V02099999999990120019N0020001N1+02481+02111101651ADDAY101061AY261061GF107991071051012501001001MA1999999101581MD1999999+0051REMSYN082AAXX  25184 83096 21695 709// 10248 20211 30158 40165 77206 87500 333 58005 60041;EQDQ01+000722PRSWM1
0202830960999992002082600004-10920-037050FM-12+000699999V02099999999992200019N0020001N1+02461+02091101861ADDAY161061AY261061GF104991041051012501001001KA1240M+02691MA1999999101791MD1999999+0041MW1201REMSYN100AAXX  26004 83096 21695 409// 10246 20209 30179 40186 72066 84500 333 10269 29080 55040 58004 69991;
0162830960999992002082612004-10920-037050FM-12+000699999V02099999999992200019N0020001N1+02511+02091101861ADDGF103991031011012501001001KA1240N+02021MA1999999101791MD1999999-0081REMSYN082AAXX  26124 83096 22695 309// 10251 20209 30179 40186 83100 333 20202 59008 60054;
0167830960999992002082618004-10920-037050FM-12+000699999V02099999999990120019N0020001N1+02651+02051101591ADDAA199000091GF106991061051012501001001MA1999999101521MD1999999-0061REMSYN070AAXX  26184 83096 32695 614// 10265 20205 30152 40159 86500 333 59006;EQDQ01  00002PRCP99
0198830960999992002082700004-10920-037050FM-12+000699999V02099999999990450019N0020001N1+02481+01961101811ADDAA199000091GF105991031051012501031001KA1240M+02731MA1999999101741MD1999999-0051REMSYN088AAXX  27004 83096 32695 509// 10248 20196 30174 40181 83530 333 10273 29073 55028 59005;EQDQ01  00002PRCP99
0190830960999992002082712004-10920-037050FM-12+000699999V02099999999992200019N0020001N1+02591+02081101881ADDAY161061AY261061GF101991011011012501001001KA1240N+02331MA1999999101811MD1999999+0021MW1201REMSYN088AAXX  27124 83096 21695 109// 10259 20208 30181 40188 72066 81100 333 20233 58002 69944;
0148830960999992002082718004-10920-037050FM-12+000699999V02099999999992200019N0020001N1+02591+02141101721ADDAA199000021GF101991011011012501001001MA1999999101651MD1999999+0131REMSYN070AAXX  27184 83096 32695 109// 10259 20214 30165 40172 81100 333 58013;
0179830960999992002082800004-10920-037050FM-12+000699999V02099999999992200019N0020001N1+02521+02021101771ADDAA199000021GF101991011051012501001001KA1240M+02771MA1999999101701MD1999999-0041REMSYN088AAXX  28004 83096 32695 118// 10252 20202 30170 40177 81500 333 10277 29074 55096 59004;
0190830960999992002082812004-10920-037050FM-12+000699999V02099999999990075019N0010001N1+02261+01961101911ADDAY161061AY261061GF108991081051008001999999KA1240N+02211MA1999999101241MD1999999+0031MW1601REMSYN088AAXX  28124 83096 21594 818// 10226 20196 30124 40191 76066 885// 333 20221 58003 60034;
0148830960999992002082818004-10920-037050FM-12+000699999V02099999999992200019N0020001N1+02611+02061101481ADDAA199000021GF103991021051012501001011MA1999999101411MD1999999-0241REMSYN070AAXX  28184 83096 32695 309// 10261 20206 30141 40148 82501 333 59024;
0179830960999992002082900004-10920-037050FM-12+000699999V02099999999992200019N0020001N1+02431+02151101721ADDAA199000021GF102991021051012501001001KA1240M+02751MA1999999101651MD1999999-0051REMSYN088AAXX  29004 83096 32695 209// 10243 20215 30165 40172 82500 333 10275 29081 55064 59005;
0186830960999992002082912004-10920-037050FM-12+000699999V02099999999992200019N0020001N1+02631+02031101621ADDAA199000091GF103991031051012501001001KA1240N+02351MA1999999101551MD1999999-0291REMSYN076AAXX  29124 83096 32695 309// 10263 20203 30155 40162 83500 333 20235 59029;EQDQ01  00002PRCP99
0167830960999992002082918004-10920-037050FM-12+000699999V02099999999992200019N0020001N1+02631+02031101571ADDAA106000091GF104991041051012501001001MA1999999101501MD1999999+0091REMSYN070AAXX  29184 83096 32695 409// 10263 20203 30150 40157 84500 333 58009;EQDQ01  00002PRCP06
0198830960999992002083000004-10920-037050FM-12+000699999V02099999999992200019N0020001N1+02471+02051101501ADDAA106000091GF103991031051012501001001KA1240M+02791MA1999999101431MD1999999-0221REMSYN088AAXX  30004 83096 32695 309// 10247 20205 30143 40150 83500 333 10279 29074 55050 59022;EQDQ01  00002PRCP06
0186830960999992002083012004-10920-037050FM-12+000699999V02099999999990120019N0020001N1+02551+02021101621ADDAA106000091GF105991051051012501001001KA1240N+02201MA1999999101551MD1999999+0001REMSYN076AAXX  30124 83096 32695 509// 10255 20202 30155 40162 85500 333 20220 58000;EQDQ01  00002PRCP06
0171830960999992002083018004-10920-037050FM-12+000699999V02099999999992200019N0020001N1+02631+02031101491ADDAY161061AY261061GF104991041051012501001001MA1999999101421MD1999999-0081MW1201REMSYN082AAXX  30184 83096 21695 409// 10263 20203 30142 40149 72066 84500 333 59008 69921;
0174830960999992002083112004-10920-037050FM-12+000699999V02099999999992200019N0020001N1+02691+02091101711ADDGF102991021011012501001001KA1240N+02141MA1999999101641MD1999999+0091REMSYN094AAXX  31124 83096 22695 209// 10269 20209 30164 40171 82100 333 20214 29075 55030 58009 69924;
0179830960999992002083118004-10920-037050FM-12+000699999V02099999999992200019N0020001N1+02681+02241101471ADDAA106000091GF104991041051012501001001MA1999999101401MD1999999-0021REMSYN082AAXX  31184 83096 32695 414// 10268 20224 30140 40147 84500 333 29075 55030 59002;EQDQ01  00002PRCP06
0198830960999992002090100004-10920-037050FM-12+000699999V02099999999992200019N0020001N1+02511+02131101581ADDAA106000091GF102991021051012501001001KA1240M+02791MA1999999101511MD1999999-0021REMSYN088AAXX  01004 83096 32695 214// 10251 20213 30151 40158 82500 333 10279 29077 55096 59002;EQDQ01  00002PRCP06
0186830960999992002090112004-10920-037050FM-12+000699999V02099999999992200019N0020001N1+02671+02161101501ADDAA106000091GF102991021051012501001001KA1240N+02261MA1999999101431MD1999999-0211REMSYN076AAXX  01124 83096 32695 209// 10267 20216 30143 40150 82500 333 20226 59021;EQDQ01  00002PRCP06
0167830960999992002090118004-10920-037050FM-12+000699999V02099999999992200019N0020001N1+02711+02151101271ADDAA106000091GF101991011011012501001001MA1999999101201MD1999999-0201REMSYN070AAXX  01184 83096 32695 109// 10271 20215 30120 40127 81100 333 59020;EQDQ01  00002PRCP06
0198830960999992002090200004-10920-037050FM-12+000699999V02099999999992200019N0020001N1+02531+02151101291ADDAA106000091GF102991021011012501001001KA1240M+02791MA1999999101221MD1999999-0291REMSYN088AAXX  02004 83096 32695 209// 10253 20215 30122 40129 82100 333 10279 29076 55102 59029;EQDQ01  00002PRCP06
0186830960999992002090212004-10920-037050FM-12+000699999V02099999999992200019N0020001N1+02791+02131101921ADDAA106000091GF102991021051012501001001KA1240N+02281MA1999999101851MD1999999+0421REMSYN076AAXX  02124 83096 32695 205// 10279 20213 30185 40192 82500 333 20228 58042;EQDQ01  00002PRCP06
0199830960999992002090218004-10920-037050FM-12+000699999V02099999999992200019N0020001N1+02711+02281101032ADDAA106000091GF101991011011012501001001MA1999999100962MD1999999-0241REMSYN070AAXX  02184 83096 32695 105// 10271 20228 30096 40103 81100 333 59024;EQDQ01+100963APOSP Q02+101033APOSLPQ03  00002PRCP06
0198830960999992002090300004-10920-037050FM-12+000699999V02099999999992200019N0020001N1+02591+02251101301ADDAA106000091GF101991011011012501001001KA1240M+02871MA1999999101231MD1999999+0011REMSYN088AAXX  03004 83096 32695 105// 10259 20225 30123 40130 81100 333 10287 29079 55106 58001;EQDQ01  00002PRCP06
0186830960999992002090312004-10920-037050FM-12+000699999V02099999999990120019N0020001N1+02651+02231101601ADDAA106000091GF105991051051012501001001KA1240N+02351MA1999999101531MD1999999-0321REMSYN076AAXX  03124 83096 32695 509// 10265 20223 30153 40160 85500 333 20235 59032;EQDQ01  00002PRCP06
0167830960999992002090318004-10920-037050FM-12+000699999V02099999999992200019N0020001N1+02731+02191101571ADDAA106000091GF102991021011012501001001MA1999999101501MD1999999+0541REMSYN070AAXX  03184 83096 32695 209// 10273 20219 30150 40157 82100 333 58054;EQDQ01  00002PRCP06
0198830960999992002090400004-10920-037050FM-12+000699999V02099999999992200019N0020001N1+02571+02251101701ADDAA106000091GF102991021011012501001001KA1240M+02831MA1999999101631MD1999999+0401REMSYN088AAXX  04004 83096 32695 209// 10257 20225 30163 40170 82100 333 10283 29079 55072 58040;EQDQ01  00002PRCP06
0186830960999992002090412004-10920-037050FM-12+000699999V02099999999992200019N0020001N1+02611+02251101841ADDAA106000091GF101991011011012501001001KA1240N+02291MA1999999101771MD1999999+0241REMSYN076AAXX  04124 83096 32695 109// 10261 20225 30177 40184 81100 333 20229 58024;EQDQ01  00002PRCP06
0167830960999992002090418004-10920-037050FM-12+000699999V02099999999990120019N0020001N1+02711+02151101641ADDAA106000091GF106991061001012501021001MA1999999101571MD1999999+0071REMSYN070AAXX  04184 83096 32695 609// 10271 20215 30157 40164 86020 333 58007;EQDQ01  00002PRCP06
0198830960999992002090500004-10920-037050FM-12+000699999V02099999999992200019N0020001N1+02491+02171101841ADDAA106000091GF101991011011012501001001KA1240M+02831MA1999999101771MD1999999+0141REMSYN088AAXX  05004 83096 32695 109// 10249 20217 30177 40184 81100 333 10283 29080 55058 58014;EQDQ01  00002PRCP06
0186830960999992002090512004-10920-037050FM-12+000699999V02099999999992200019N0020001N1+02671+02071101891ADDAA106000091GF101991011011012501001001KA1240N+02261MA1999999101821MD1999999+0051REMSYN076AAXX  05124 83096 32695 109// 10267 20207 30182 40189 81100 333 20226 58005;EQDQ01  00002PRCP06
0198830960999992002090600004-10920-037050FM-12+000699999V02099999999992200019N0020001N1+02491+02111101761ADDAA106000091GF102991021011012501001001KA1240M+02851MA1999999101691MD1999999-0081REMSYN088AAXX  06004 83096 32695 209// 10249 20211 30169 40176 82100 333 10285 29076 55104 59008;EQDQ01  00002PRCP06
0186830960999992002090612004-10920-037050FM-12+000699999V02099999999992200019N0020001N1+02711+02151101911ADDAA106000091GF101991011011012501001001KA1240N+02301MA1999999101841MD1999999+0021REMSYN076AAXX  06124 83096 32695 109// 10271 20215 30184 40191 81100 333 20230 58002;EQDQ01  00002PRCP06
0167830960999992002090618004-10920-037050FM-12+000699999V02099999999992200019N0020001N1+02721+02171101631ADDAA106000091GF101991011011012501001001MA1999999101561MD1999999+0051REMSYN070AAXX  06184 83096 32695 109// 10272 20217 30156 40163 81100 333 58005;EQDQ01  00002PRCP06
0198830960999992002090700004-10920-037050FM-12+000699999V02099999999992200019N0020001N1+02521+02071101751ADDAA106000091GF101991011011012501001001KA1240M+02871MA1999999101681MD1999999-0011REMSYN088AAXX  07004 83096 32695 109// 10252 20207 30168 40175 81100 333 10287 29074 55100 59001;EQDQ01  00002PRCP06
0190830960999992002090712004-10920-037050FM-12+000699999V02099999999990120019N0020001N1+02661+02111101881ADDAY161061AY261061GF106991061001012501021001KA1240N+02351MA1999999101811MD1999999-0031MW1201REMSYN088AAXX  07124 83096 21695 609// 10266 20211 30181 40188 72066 86020 333 20235 59003 60014;
0148830960999992002090718004-10920-037050FM-12+000699999V02099999999992200019N0020001N1+02611+02181101691ADDAA106000021GF101991011011012501001001MA1999999101621MD1999999+0061REMSYN070AAXX  07184 83096 32695 109// 10261 20218 30162 40169 81100 333 58006;
0198830960999992002090800004-10920-037050FM-12+000699999V02099999999992200019N0020001N1+02491+02051101771ADDAA106000091GF101991011011012501001001KA1240M+02791MA1999999101701MD1999999+0021REMSYN088AAXX  08004 83096 32695 109// 10249 20205 30170 40177 81100 333 10279 29077 55064 58002;EQDQ01  00002PRCP06
0190830960999992002090812004-10920-037050FM-12+000699999V02099999999992200019N0020001N1+02621+02291101841ADDAY161061AY261061GF101991011011012501001001KA1240N+02241MA1999999101771MD1999999+0041MW1201REMSYN088AAXX  08124 83096 21695 109// 10262 20229 30177 40184 72066 81100 333 20224 58004 60024;
0171830960999992002090818004-10920-037050FM-12+000699999V02099999999992200019N0020001N1+02431+02271101641ADDAY161061AY261061GF101991011011012501001001MA1999999101551MD1999999-0071MW1201REMSYN082AAXX  08184 83096 21695 109// 10243 20227 30155 40164 72066 81100 333 59007 60021;
0179830960999992002090900004-10920-037050FM-12+000699999V02099999999992200019N0020001N1+02491+02231101831ADDAA106000021GF101991011011012501001001KA1240M+02831MA1999999101761MD1999999+0061REMSYN088AAXX  09004 83096 32695 109// 10249 20223 30176 40183 81100 333 10283 29085 55071 58006;
0171830960999992002090918004-10920-037050FM-12+000699999V02099999999990075019N0020001N1+02041+01971101781ADDAY161061AY261061GF108991081001008001021001MA1999999101711MD1999999+0161MW1601REMSYN082AAXX  09184 83096 21595 809// 10204 20197 30171 40178 76066 88020 333 58016 60061;
0202830960999992002091000004-10920-037050FM-12+000699999V02099999999990120019N0020001N1+02461+02151101801ADDAY161061AY261061GF106991061001012501021001KA1240M+02741MA1999999101731MD1999999-0031MW1211REMSYN100AAXX  10004 83096 21695 609// 10246 20215 30173 40180 72166 86020 333 10274 29084 55035 59003 60061;
0190830960999992002091012004-10920-037050FM-12+000699999V02099999999990075019N0010001N1+02321+02051101991ADDAY161061AY261061GF108991081051008001999999KA1240N+02161MA1999999101921MD1999999+0051MW1211REMSYN088AAXX  10124 83096 21594 814// 10232 20205 30192 40199 72166 885// 333 20216 58005 60174;
0171830960999992002091018004-10920-037050FM-12+000699999V02099999999990450019N0020001N1+02541+02021101721ADDAY161061AY261061GF106991041051012501031001MA1999999101651MD1999999-0061MW1201REMSYN082AAXX  10184 83096 21695 609// 10254 20202 30165 40172 72066 84530 333 59006 60051;
0179830960999992002091100004-10920-037050FM-12+000699999V02099999999992200019N0020001N1+02411+02031101921ADDAA106000021GF102991021051012501001001KA1240M+02701MA1999999101851MD1999999+0121REMSYN088AAXX  11004 83096 32695 209// 10241 20203 30185 40192 82500 333 10270 29079 55041 58012;
0162830960999992002091112004-10920-037050FM-12+000699999V02099999999992200019N0020001N1+02671+01951101921ADDGF102991021051012501001001KA1240N+02391MA1999999101851MD1999999-0071REMSYN082AAXX  11124 83096 22695 209// 10267 20195 30185 40192 82500 333 20239 59007 60054;
0167830960999992002091118004-10920-037050FM-12+000699999V02099999999992200019N0020001N1+02691+02091101851ADDAA106000091GF103991031051012501001001MA1999999101771MD1999999+0121REMSYN070AAXX  11184 83096 32695 309// 10269 20209 30177 40185 83500 333 58012;EQDQ01  00002PRCP06
0198830960999992002091200004-10920-037050FM-12+000699999V02099999999992200019N0020001N1+02491+01981101801ADDAA106000091GF102991021051012501001001KA1240M+02811MA1999999101731MD1999999-0121REMSYN088AAXX  12004 83096 32695 209// 10249 20198 30173 40180 82500 333 10281 29071 55104 59012;EQDQ01  00002PRCP06
0190830960999992002091212004-10920-037050FM-12+000699999V02099999999992200019N0020001N1+02671+02021101851ADDAY161061AY261061GF101991011011012501001001KA1240N+02261MA1999999101781MD1999999-0071MW1211REMSYN088AAXX  12124 83096 21695 109// 10267 20202 30178 40185 72166 81100 333 20226 59007 60014;
0148830960999992002091218004-10920-037050FM-12+000699999V02099999999992200019N0020001N1+02701+02111101551ADDAA106000021GF101991011011012501001001MA1999999101481MD1999999-0291REMSYN070AAXX  12184 83096 32695 109// 10270 20211 30148 40155 81100 333 59029;
0198830960999992002091300004-10920-037050FM-12+000699999V02099999999992200019N0020001N1+02491+01961101671ADDAA106000091GF101991011011012501001001KA1240M+02821MA1999999101601MD1999999-0131REMSYN088AAXX  13004 83096 32695 109// 10249 20196 30160 40167 81100 333 10282 29070 55105 59013;EQDQ01  00002PRCP06
0186830960999992002091312004-10920-037050FM-12+000699999V02099999999992200019N0020001N1+02661+01971101701ADDAA106000091GF104991041051012501001001KA1240N+02121MA1999999101631MD1999999-0151REMSYN076AAXX  13124 83096 32695 409// 10266 20197 30163 40170 84500 333 20212 59015;EQDQ01  00002PRCP06
0167830960999992002091318004-10920-037050FM-12+000699999V02099999999992200019N0020001N1+02651+02001101371ADDAA106000091GF101991011011012501001001MA1999999101301MD1999999-0181REMSYN070AAXX  13184 83096 32695 109// 10265 20200 30130 40137 81100 333 59018;EQDQ01  00002PRCP06
0198830960999992002091400004-10920-037050FM-12+000699999V02099999999992200019N0020001N1+02431+02011101601ADDAA106000091GF101991011011012501001001KA1240M+02841MA1999999101531MD1999999-0071REMSYN088AAXX  14004 83096 32695 114// 10243 20201 30153 40160 81100 333 10284 29072 55110 59007;EQDQ01  00002PRCP06
0186830960999992002091412004-10920-037050FM-12+000699999V02099999999992200019N0020001N1+02681+02091101711ADDAA106000091GF102991021051012501001001KA1240N+02141MA1999999101641MD1999999+0011REMSYN076AAXX  14124 83096 32695 209// 10268 20209 30164 40171 82500 333 20214 58001;EQDQ01  00002PRCP06
0198830960999992002091500004-10920-037050FM-12+000699999V02099999999990120019N0020001N1+02491+02151101641ADDAA106000091GF106991061051012501001001KA1240M+02831MA1999999101571MD1999999+0041REMSYN088AAXX  15004 83096 32695 609// 10249 20215 30157 40164 86500 333 10283 29076 55103 58004;EQDQ01  00002PRCP06
0186830960999992002091512004-10920-037050FM-12+000699999V02099999999992200019N0020001N1+02731+02001101741ADDAA106000091GF102991021051012501001001KA1240N+02241MA1999999101671MD1999999+0031REMSYN076AAXX  15124 83096 32695 205// 10273 20200 30167 40174 82500 333 20224 58003;EQDQ01  00002PRCP06
0167830960999992002091518004-10920-037050FM-12+000699999V02099999999992200019N0020001N1+02801+02111101391ADDAA106000091GF101991011011012501001001MA1999999101321MD1999999+0031REMSYN070AAXX  15184 83096 32695 105// 10280 20211 30132 40139 81100 333 58003;EQDQ01  00002PRCP06
0198830960999992002091600004-10920-037050FM-12+000699999V0200901N004112200019N0020001N1+02511+01821101891ADDAA106000091GF101991011011012501001001KA1240M+02841MA1999999101821MD1999999+0251REMSYN088AAXX  16004 83096 32695 10908 10251 20182 30182 40189 81100 333 10284 29065 55106 58025;EQDQ01  00002PRCP06
0186830960999992002091612004-10920-037050FM-12+000699999V0201401N002610120019N0020001N1+02651+02051102051ADDAA106000091GF106991061051012501001001KA1240N+02271MA1999999101981MD1999999+0311REMSYN076AAXX  16124 83096 32695 61405 10265 20205 30198 40205 86500 333 20227 58031;EQDQ01  00002PRCP06
0167830960999992002091618004-10920-037050FM-12+000699999V0201401N002612200019N0020001N1+02691+02021101751ADDAA106000091GF101991011011012501001001MA1999999101681MD1999999+0361REMSYN070AAXX  16184 83096 32695 11405 10269 20202 30168 40175 81100 333 58036;EQDQ01  00002PRCP06
0198830960999992002091700004-10920-037050FM-12+000699999V0201401N002612200019N0020001N1+02531+02021101991ADDAA106000091GF102991021051012501001001KA1240M+02891MA1999999101921MD1999999+0101REMSYN088AAXX  17004 83096 32695 21405 10253 20202 30192 40199 82500 333 10289 29071 55088 58010;EQDQ01  00002PRCP06
0186830960999992002091712004-10920-037050FM-12+000699999V0200901N003112200019N0020001N1+02771+02181102051ADDAA199000091GF101991011011012501001001KA1240N+02261MA1999999101981MD1999999+0001REMSYN076AAXX  17124 83096 32695 10906 10277 20218 30198 40205 81100 333 20226 58000;EQDQ01  00002PRCP99
0167830960999992002091718004-10920-037050FM-12+000699999V0201401N003110120019N0020001N1+02621+02051101731ADDAA106000091GF106991061001012501021001MA1999999101661MD1999999-0021REMSYN070AAXX  17184 83096 32695 61406 10262 20205 30166 40173 86020 333 59002;EQDQ01  00002PRCP06
0198830960999992002091800004-10920-037050FM-12+000699999V0200901N002610120019N0020001N1+02511+02021101941ADDAA106000091GF106991061001012501021001KA1240M+02821MA1999999101871MD1999999-0051REMSYN088AAXX  18004 83096 32695 60905 10251 20202 30187 40194 86020 333 10282 29072 55051 59005;EQDQ01  00002PRCP06
0190830960999992002091812004-10920-037050FM-12+000699999V0201801N002110120019N0020001N1+02721+02001101901ADDAY161061AY261061GF106991061051012501001001KA1240N+02221MA1999999101831MD1999999-0151MW1201REMSYN088AAXX  18124 83096 21695 61804 10272 20200 30183 40190 72066 86500 333 20222 59015 69934;
0171830960999992002091818004-10920-037050FM-12+000699999V0201401N002112200019N0020001N1+02591+01871101571ADDAY161061AY261061GF103991031011012501001001MA1999999101501MD1999999-0161MW1201REMSYN082AAXX  18184 83096 21695 31404 10259 20187 30150 40157 72066 83100 333 59016 60021;
0179830960999992002091900004-10920-037050FM-12+000699999V0200901N002112200019N0020001N1+02491+01851101691ADDAA106000021GF102991021011012501001001KA1240M+02771MA1999999101621MD1999999-0251REMSYN088AAXX  19004 83096 32695 20904 10249 20185 30162 40169 82100 333 10277 29066 55079 59025;
0162830960999992002091912004-10920-037050FM-12+000699999V0200901N002112200019N0020001N1+02651+01981101801ADDGF103991031011012501001001KA1240N+02201MA1999999101731MD1999999-0101REMSYN082AAXX  19124 83096 22695 30904 10265 20198 30173 40180 83100 333 20220 59010 60024;
0167830960999992002091918004-10920-037050FM-12+000699999V0200901N002612200019N0020001N1+02751+01841101271ADDAA106000091GF102991021011012501001001MA1999999101301MD1999999-0201REMSYN070AAXX  19184 83096 32695 20905 10275 20184 30130 40127 82100 333 59020;EQDQ01  00002PRCP06
0198830960999992002092000004-10920-037050FM-12+000699999V0201401N003612200019N0020001N1+02451+01991101581ADDAA106000091GF104991041051012501001001KA1240M+02851MA1999999101511MD1999999-0111REMSYN088AAXX  20004 83096 32695 41407 10245 20199 30151 40158 84500 333 10285 29069 55099 59011;EQDQ01  00002PRCP06
0190830960999992002092012004-10920-037050FM-12+000699999V0200901N002612200019N0020001N1+02741+02211101771ADDAY161061AY261061GF102991021011012501001001KA1240N+02361MA1999999101701MD1999999-0031MW1201REMSYN088AAXX  20124 83096 21695 20905 10274 20221 30170 40177 72066 82100 333 20236 59003 69944;
0148830960999992002092018004-10920-037050FM-12+000699999V0200901N002612200019N0020001N1+02661+02201101521ADDAA106000021GF101991011011012501001001MA1999999101451MD1999999+0151REMSYN070AAXX  20184 83096 32695 10905 10266 20220 30145 40152 81100 333 58015;
0198830960999992002092100004-10920-037050FM-12+000699999V0201401N003112200019N0020001N1+02491+02151101651ADDAA106000091GF101991011011012501001001KA1240M+02861MA1999999101581MD1999999+0071REMSYN088AAXX  21004 83096 32695 11406 10249 20215 30158 40165 81100 333 10286 29078 55099 58007;EQDQ01  00002PRCP06
0167830960999992002092118004-10920-037050FM-12+000699999V0200901N003112200019N0020001N1+02671+02201101741ADDAA106000091GF101991011011012501001011MA1999999101671MD1999999+0221REMSYN070AAXX  21184 83096 32695 10906 10267 20220 30167 40174 81101 333 58022;EQDQ01  00002PRCP06
0198830960999992002092200004-10920-037050FM-12+000699999V0200901N004112200019N0020001N1+02541+02171101501ADDAA106000091GF101991011011012501001001KA1240M+02861MA1999999101431MD1999999-0151REMSYN088AAXX  22004 83096 32695 10908 10254 20217 30143 40150 81100 333 10286 29076 55089 59015;EQDQ01  00002PRCP06
0186830960999992002092212004-10920-037050FM-12+000699999V0200501N003112200019N0020001N1+02651+02201101581ADDAA106000091GF101991011011012501001001KA1240N+02261MA1999999101511MD1999999-0121REMSYN076AAXX  22124 83096 32695 10506 10265 20220 30151 40158 81100 333 20226 59012;EQDQ01  00002PRCP06
0167830960999992002092218004-10920-037050FM-12+000699999V0200901N005112200019N0020001N1+02791+02271101201ADDAA106000091GF101991011011012501001001MA1999999101131MD1999999-0541REMSYN070AAXX  22184 83096 32695 10910 10279 20227 30113 40120 81100 333 59054;EQDQ01  00002PRCP06
0198830960999992002092300004-10920-037050FM-12+000699999V0200901N005112200019N0020001N1+02591+02251101361ADDAA106000091GF101991011011012501001001KA1240M+02591MA1999999101291MD1999999-0141REMSYN088AAXX  23004 83096 32695 10910 10259 20225 30129 40136 81100 333 10259 29078 55082 59014;EQDQ01  00002PRCP06
0186830960999992002092312004-10920-037050FM-12+000699999V0200901N002612200019N0020001N1+02731+02191101491ADDAA106000091GF102991021011012501001001KA1240N+02281MA1999999101421MD1999999-0091REMSYN076AAXX  23124 83096 32695 20905 10273 20219 30142 40149 82100 333 20228 59009;EQDQ01  00002PRCP06
0167830960999992002092318004-10920-037050FM-12+000699999V0200901N002612200019N0020001N1+02731+02171101261ADDAA106000091GF102991021011012501001001MA1999999101291MD1999999+0161REMSYN070AAXX  23184 83096 32695 20905 10273 20217 30129 40126 82100 333 58016;EQDQ01  00002PRCP06
0198830960999992002092400004-10920-037050FM-12+000699999V0200901N003112200019N0020001N1+02551+02191101381ADDAA106000091GF102991021011012501001001KA1240M+02891MA1999999101311MD1999999+0021REMSYN088AAXX  24004 83096 32695 20906 10255 20219 30131 40138 82100 333 10289 29077 55109 58002;EQDQ01  00002PRCP06
0186830960999992002092412004-10920-037050FM-12+000699999V0200501N003612200019N0020001N1+02751+02121101391ADDAA106000091GF103991031011012501001001KA1240N+02411MA1999999101321MD1999999-0101REMSYN076AAXX  24124 83096 32695 30507 10275 20212 30132 40139 83100 333 20241 59010;EQDQ01  00002PRCP06
0167830960999992002092418004-10920-037050FM-12+000699999V0200901N004112200019N0020001N1+02751+02241101151ADDAA106000091GF101991011011012501001001MA1999999101081MD1999999-0211REMSYN070AAXX  24184 83096 32695 10908 10275 20224 30108 40115 81100 333 59021;EQDQ01  00002PRCP06
0198830960999992002092500004-10920-037050FM-12+000699999V0200901N004112200019N0020001N1+02591+02271101181ADDAA106000091GF104991041051012501001001KA1240M+02911MA1999999101111MD1999999-0201REMSYN088AAXX  25004 83096 32695 40908 10259 20227 30111 40118 84500 333 10291 29077 55101 59020;EQDQ01  00002PRCP06
0186830960999992002092512004-10920-037050FM-12+000699999V0200901N004112200019N0020001N1+02801+02081101471ADDAA106000091GF101991011011012501001001KA1240N+02301MA1999999101401MD1999999+0081REMSYN076AAXX  25124 83096 32695 10908 10280 20208 30140 40147 81100 333 20230 58008;EQDQ01  00002PRCP06
0198830960999992002092600004-10920-037050FM-12+000699999V0200901N005112200019N0020001N1+02551+02271101341ADDAA106000091GF101991011011012501001001KA1240M+02911MA1999999101271MD1999999+0161REMSYN088AAXX  26004 83096 32695 10910 10255 20227 30127 40134 81100 333 10291 29077 55105 58016;EQDQ01  00002PRCP06
0186830960999992002092612004-10920-037050FM-12+000699999V0200901N004112200019N0020001N1+02731+02261101531ADDAA106000091GF102991021011012501001001KA1240N+02331MA1999999101461MD1999999+0061REMSYN076AAXX  26124 83096 32695 20908 10273 20226 30146 40153 82100 333 20233 58006;EQDQ01  00002PRCP06
0167830960999992002092618004-10920-037050FM-12+000699999V0200901N005110120019N0020001N1+02701+02261101371ADDAA106000091GF106991061011012501001001MA1999999101301MD1999999+0231REMSYN070AAXX  26184 83096 32695 60910 10270 20226 30130 40137 86100 333 58023;EQDQ01  00002PRCP06
0186830960999992002092712004-10920-037050FM-12+000699999V0203601N002110120019N0020001N1+02631+02211101521ADDAA106000091GF106991061051012501001001KA1240N+02371MA1999999101451MD1999999-0011REMSYN076AAXX  27124 83096 32695 63604 10263 20221 30145 40152 86500 333 20237 59001;EQDQ01  00002PRCP06
0167830960999992002092718004-10920-037050FM-12+000699999V0200901N003612200019N0020001N1+02751+02211101411ADDAA106000091GF104991041011012501001001MA1999999101241MD1999999+0041REMSYN070AAXX  27184 83096 32695 40907 10275 20221 30124 40141 84100 333 58004;EQDQ01  00002PRCP06
0198830960999992002092800004-10920-037050FM-12+000699999V0200901N003112200019N0020001N1+02551+02251101691ADDAA106000091GF102991021051012501001001KA1240M+02911MA1999999101621MD1999999+0141REMSYN088AAXX  28004 83096 32695 20906 10255 20225 30162 40169 82500 333 10291 29080 55038 58014;EQDQ01  00002PRCP06
0186830960999992002092812004-10920-037050FM-12+000699999V0200901N003612200019N0020001N1+02731+02191101731ADDAA106000091GF103991031011012501001001KA1240N+02451MA1999999101661MD1999999+0211REMSYN076AAXX  28124 83096 32695 30907 10273 20219 30166 40173 83100 333 20245 58021;EQDQ01  00002PRCP06
0167830960999992002092818004-10920-037050FM-12+000699999V0200901N003112200019N0020001N1+02731+02171101551ADDAA106000091GF102991021011012501001001MA1999999101481MD1999999+0141REMSYN070AAXX  28184 83096 32695 20906 10273 20217 30148 40155 82100 333 58014;EQDQ01  00002PRCP06
0198830960999992002092900004-10920-037050FM-12+000699999V0200901N002612200019N0010001N1+02551+02091101671ADDAA106000091GF102991021011012501001001KA1240M+02911MA1999999101601MD1999999-0021REMSYN088AAXX  29004 83096 32694 20905 10255 20209 30160 40167 82100 333 10291 29074 55106 59002;EQDQ01  00002PRCP06
0186830960999992002092912004-10920-037050FM-12+000699999V0200901N003112200019N0020001N1+02731+02081101791ADDAA106000091GF103991031011012501001001KA1240N+02371MA1999999101721MD1999999+0061REMSYN076AAXX  29124 83096 32695 30906 10273 20208 30172 40179 83100 333 20237 58006;EQDQ01  00002PRCP06
0167830960999992002092918004-10920-037050FM-12+000699999V0201401N003112200019N0020001N1+02691+02061101651ADDAA106000091GF104991041011012501001001MA1999999101581MD1999999+0101REMSYN070AAXX  29184 83096 32695 41406 10269 20206 30158 40165 84100 333 58010;EQDQ01  00002PRCP06
0198830960999992002093000004-10920-037050FM-12+000699999V0201401N002612200019N0020001N1+02551+02061101671ADDAA106000091GF103991031011012501001001KA1240M+02911MA1999999101601MD1999999+0001REMSYN088AAXX  30004 83096 32695 31405 10255 20206 30160 40167 83100 333 10291 29072 55075 58000;EQDQ01  00002PRCP06
0190830960999992002093012004-10920-037050FM-12+000699999V0200501N001010120019N0020001N1+02401+02231101881ADDAY161061AY261061GF106991061001012501021001KA1240N+02261MA1999999101811MD1999999+0091MW1211REMSYN088AAXX  30124 83096 21695 60502 10240 20223 30181 40188 72166 86020 333 20226 58009 60034;
0148830960999992002093018004-10920-037050FM-12+000699999V0200901N003112200019N0020001N1+02671+02111101621ADDAA106000021GF101991011011012501001001MA1999999101551MD1999999-0031REMSYN070AAXX  30184 83096 32695 10906 10267 20211 30155 40162 81100 333 59003;
0214830960999992002100100004-10920-037050FM-12+000699999V0200901N003112200019N0020001N1+02531+99999101821ADDAA106000091GF101991011011012501001001KA1240M+02751MA1999999101751MD1999999+0151REMSYN088AAXX  01004 83096 32695 10906 10253 21100 30175 40182 81100 333 10275 29077 55030 58015;EQDQ01  00002PRCP06Q02 -01003ATOD  
0186830960999992002100112004-10920-037050FM-12+000699999V0200901N002112200019N0020001N1+02711+02031101891ADDAA106000091GF103991031011012501001001KA1240N+02241MA1999999101821MD1999999+0011REMSYN076AAXX  01124 83096 32695 30904 10271 20203 30182 40189 83100 333 20224 58001;EQDQ01  00002PRCP06
0167830960999992002100118004-10920-037050FM-12+000699999V0201401N002112200019N0020001N1+02771+02121101651ADDAA106000091GF102991021011012501001001MA1999999101581MD1999999+0031REMSYN070AAXX  01184 83096 32695 21404 10277 20212 30158 40165 82100 333 58003;EQDQ01  00002PRCP06
0198830960999992002100200004-10920-037050FM-12+000699999V0200901N002112200019N0020001N1+02531+02071101671ADDAA106000091GF101991011011012501001001KA1240M+02891MA1999999101601MD1999999-0151REMSYN088AAXX  02004 83096 32695 10904 10253 20207 30160 40167 81100 333 10289 29072 55110 59015;EQDQ01  00002PRCP06
0186830960999992002100212004-10920-037050FM-12+000699999V0200901N003112200019N0020001N1+02711+02061101691ADDAA106000091GF103991031011012501001001KA1240N+02161MA1999999101621MD1999999-0201REMSYN076AAXX  02124 83096 32695 30906 10271 20206 30162 40169 83100 333 20216 59020;EQDQ01  00002PRCP06
0167830960999992002100218004-10920-037050FM-12+000699999V0201401N002112200019N0020001N1+02751+02071101461ADDAA106000091GF101991011011012501001001MA1999999101391MD1999999-0191REMSYN070AAXX  02184 83096 32695 11404 10275 20207 30139 40146 81100 333 59019;EQDQ01  00002PRCP06
0198830960999992002100300004-10920-037050FM-12+000699999V0200901N003112200019N0020001N1+02571+02171101571ADDAA106000091GF102991021011012501001001KA1240M+02871MA1999999101501MD1999999-0101REMSYN088AAXX  03004 83096 32695 20906 10257 20217 30150 40157 82100 333 10287 29073 55110 59010;EQDQ01  00002PRCP06
0186830960999992002100312004-10920-037050FM-12+000699999V0200501N004112200019N0020001N1+02791+02181101591ADDAA106000091GF101991011011012501001001KA1240N+02371MA1999999101521MD1999999-0101REMSYN076AAXX  03124 83096 32695 10508 10279 20218 30152 40159 81100 333 20237 59010;EQDQ01  00002PRCP06
0167830960999992002100318004-10920-037050FM-12+000699999V0200901N005112200019N0020001N1+02751+02071101281ADDAA106000091GF101991011011012501001001MA1999999101211MD1999999-0181REMSYN070AAXX  03184 83096 32695 10910 10275 20207 30121 40128 81100 333 59018;EQDQ01  00002PRCP06
0198830960999992002100400004-10920-037050FM-12+000699999V0200901N004612200019N0020001N1+02541+02151101491ADDAA106000091GF101991011011012501001001KA1240M+02951MA1999999101421MD1999999-0081REMSYN088AAXX  04004 83096 32695 10909 10254 20215 30142 40149 81100 333 10295 29073 55097 59008;EQDQ01  00002PRCP06
0186830960999992002100412004-10920-037050FM-12+000699999V0200901N004112200019N0020001N1+02771+02161101661ADDAA106000091GF101991011011012501001001KA1240N+02401MA1999999101591MD1999999+0071REMSYN076AAXX  04124 83096 32695 10908 10277 20216 30159 40166 81100 333 20240 58007;EQDQ01  00002PRCP06
0167830960999992002100418004-10920-037050FM-12+000699999V0200901N005112200019N0020001N1+02731+02241101261ADDAA106000091GF101991011011012501001001MA1999999101191MD1999999-0021REMSYN070AAXX  04184 83096 32695 10910 10273 20224 30119 40126 81100 333 59002;EQDQ01  00002PRCP06
0198830960999992002100500004-10920-037050FM-12+000699999V0200901N005112200019N0020001N1+02551+02081101561ADDAA106000091GF101991011011012501001001KA1240M+02931MA1999999101491MD1999999+0071REMSYN088AAXX  05004 83096 32695 10910 10255 20208 30149 40156 81100 333 10293 29073 55104 58007;EQDQ01  00002PRCP06
0186830960999992002100512004-10920-037050FM-12+000699999V0200901N003612200019N0020001N1+02791+02221101661ADDAA106000091GF101991011011012501001001KA1240N-00221MA1999999101591MD1999999+0001REMSYN076AAXX  05124 83096 32695 10907 10279 20222 30159 40166 81100 333 21022 58000;EQDQ01  00002PRCP06
0167830960999992002100518004-10920-037050FM-12+000699999V0201401N003612200019N0020001N1+02801+02221101281ADDAA106000091GF101991011011012501001001MA1999999101211MD1999999+0021REMSYN070AAXX  05184 83096 32695 11407 10280 20222 30121 40128 81100 333 58002;EQDQ01  00002PRCP06
0214830960999992002100600004-10920-037050FM-12+000699999V0200901N003112200019N0020001N1+02611+02271101541ADDAA106000091GF101991999001012501021001KA1240M+02931MA1999999101471MD1999999-0021REMSYN088AAXX  06004 83096 32695 10906 10261 20227 30147 40154 86020 333 10293 29076 55123 59002;EQDQ01+000062SCOTLCQ02  00002PRCP06
0186830960999992002100612004-10920-037050FM-12+000699999V0200901N003612200019N0020001N1+02791+02211101671ADDAA106000091GF103991031051012501001001KA1240N+02261MA1999999101601MD1999999+0011REMSYN076AAXX  06124 83096 32695 30907 10279 20221 30160 40167 83500 333 20226 58001;EQDQ01  00002PRCP06
0167830960999992002100618004-10920-037050FM-12+000699999V0200901N003612200019N0020001N1+02831+02201101371ADDAA106000091GF101991011011012501001001MA1999999101301MD1999999+0091REMSYN070AAXX  06184 83096 32695 10907 10283 20220 30130 40137 81100 333 58009;EQDQ01  00002PRCP06
0198830960999992002100700004-10920-037050FM-12+000699999V0200901N003112200019N0020001N1+02591+02081101571ADDAA106000091GF102991021051012501001001KA1240M+02951MA1999999101501MD1999999+0031REMSYN088AAXX  07004 83096 32695 20906 10259 20208 30150 40157 82500 333 10295 29072 55096 58003;EQDQ01  00002PRCP06
0186830960999992002100712004-10920-037050FM-12+000699999V0201401N002612200019N0020001N1+02731+02191101631ADDAA106000091GF103991031011012501001001KA1240N+02451MA1999999101561MD1999999-0041REMSYN076AAXX  07124 83096 32695 31405 10273 20219 30156 40163 83100 333 20245 59004;EQDQ01  00002PRCP06
0183830960999992002100718004-10920-037050FM-12+000699999V0201401N002612200019N0020001N1+02731+02101101541ADDAA106000091GF104991999051012501001001MA1999999101471MD1999999+0171REMSYN070AAXX  07184 83096 32695 41405 10273 20210 30147 40154 85500 333 58017;EQDQ01+000052SCOTLCQ02  00002PRCP06
0198830960999992002100800004-10920-037050FM-12+000699999V0201401N002612200019N0020001N1+02591+02121101571ADDAA106000091GF103991031051012501001001KA1240M+02911MA1999999101501MD1999999+0001REMSYN088AAXX  08004 83096 32695 31405 10259 20212 30150 40157 83500 333 10291 29073 55081 58000;EQDQ01  00002PRCP06
0190830960999992002100812004-10920-037050FM-12+000699999V0200901N003110120019N0020001N1+02631+02141101771ADDAY161061AY261061GF106991061001012501021001KA1240N+02281MA1999999101701MD1999999+0141MW1201REMSYN088AAXX  08124 83096 21695 60906 10263 20214 30170 40177 72066 86020 333 20228 58014 69964;
0148830960999992002100818004-10920-037050FM-12+000699999V0201401N003610120019N0020001N1+02671+02111101491ADDAA106000021GF108991081001012501021001MA1999999101421MD1999999-0051REMSYN070AAXX  08184 83096 32695 81407 10267 20211 30142 40149 88020 333 59005;
0198830960999992002100900004-10920-037050FM-12+000699999V0201401N003112200019N0020001N1+02571+02081101731ADDAA106000091GF101991011001012501021001KA1240M+02911MA1999999101661MD1999999+0161REMSYN088AAXX  09004 83096 32695 11406 10257 20208 30166 40173 81020 333 10291 29073 55079 58016;EQDQ01  00002PRCP06
0190830960999992002100912004-10920-037050FM-12+000699999V0201801N004110120019N0020001N1+02651+02161101681ADDAY161061AY261061GF107991071051012501001001KA1240N+02281MA1999999101611MD1999999-0091MW1201REMSYN088AAXX  09124 83096 21695 71808 10265 20216 30161 40168 72066 87500 333 20228 59009 69924;
0148830960999992002100918004-10920-037050FM-12+000699999V0201801N003112200019N0020001N1+02731+02171101491ADDAA106000021GF102991021051012501001001MA1999999101421MD1999999+0001REMSYN070AAXX  09184 83096 32695 21806 10273 20217 30142 40149 82500 333 58000;
0198830960999992002101000004-10920-037050FM-12+000699999V0201801N003112200019N0020001N1+02551+02171101651ADDAA106000091GF101991011051012501001001KA1240M+02911MA1999999101581MD1999999-0081REMSYN088AAXX  10004 83096 32695 11806 10255 20217 30158 40165 81500 333 10291 29076 55066 59008;EQDQ01  00002PRCP06
0190830960999992002101012004-10920-037050FM-12+000699999V0200901N002112200019N0020001N1+02611+02231101711ADDAY161061AY261061GF104991041051008001001001KA1240N+02301MA1999999101641MD1999999+0031MW1601REMSYN088AAXX  10124 83096 21595 40904 10261 20223 30164 40171 76066 84500 333 20230 58003 69944;
0171830960999992002101018004-10920-037050FM-12+000699999V0201401N002110075019N0010001N1+02411+02131101531ADDAY161061AY261061GF106991061051008001001001MA1999999101461MD1999999+0041MW1601REMSYN082AAXX  10184 83096 21594 61404 10241 20213 30146 40153 76066 86500 333 58004 60021;
0202830960999992002101100004-10920-037050FM-12+000699999V0200901N002612200019N0020001N1+02551+02061101491ADDAY161061AY261061GF104991041051012501001001KA1240M+02891MA1999999101421MD1999999-0161MW1021REMSYN100AAXX  11004 83096 21695 40905 10255 20206 30142 40149 70266 84500 333 10289 29079 55059 59016 69921;
0190830960999992002101112004-10920-037050FM-12+000699999V0200901N003112200019N0020001N1+02791+02081101871ADDAY161061AY261061GF101991011011012501001001KA1240N+02301MA1999999101801MD1999999+0161MW1201REMSYN088AAXX  11124 83096 21695 10906 10279 20208 30180 40187 72066 81100 333 20230 58016 60024;
0148830960999992002101118004-10920-037050FM-12+000699999V0201401N005112200019N0020001N1+02711+02081101581ADDAA106000021GF101991011011012501001001MA1999999101511MD1999999+0051REMSYN070AAXX  11184 83096 32695 11410 10271 20208 30151 40158 81100 333 58005;
0198830960999992002101200004-10920-037050FM-12+000699999V0200901N003112200019N0020001N1+02531+01781101651ADDAA106000091GF101991011011012501001001KA1240M+02901MA1999999101581MD1999999+0161REMSYN088AAXX  12004 83096 32695 10906 10253 20178 30158 40165 81100 333 10290 29064 55101 58016;EQDQ01  00002PRCP06
0186830960999992002101212004-10920-037050FM-12+000699999V0200901N004112200019N0020001N1+02771+01881101771ADDAA106000091GF101991011011012501001001KA1240N+02281MA1999999101701MD1999999-0101REMSYN076AAXX  12124 83096 32695 10908 10277 20188 30170 40177 81100 333 20228 59010;EQDQ01  00002PRCP06
0167830960999992002101218004-10920-037050FM-12+000699999V0201401N004112200019N0020001N1+02781+02061101551ADDAA106000091GF101991011011012501001001MA1999999101481MD1999999-0031REMSYN070AAXX  12184 83096 32695 11408 10278 20206 30148 40155 81100 333 59003;EQDQ01  00002PRCP06
0198830960999992002101300004-10920-037050FM-12+000699999V0200901N003112200019N0020001N1+02571+02061101731ADDAA106000091GF101991011011012501001001KA1240M+02971MA1999999101661MD1999999+0081REMSYN088AAXX  13004 83096 32695 10906 10257 20206 30166 40173 81100 333 10297 29067 55086 58008;EQDQ01  00002PRCP06
0190830960999992002101312004-10920-037050FM-12+000699999V0200901N005112200019N0020001N1+02771+02111101751ADDAY161061AY261061GF101991011011008001001001KA1240N+02301MA1999999101681MD1999999-0021MW1201REMSYN088AAXX  13124 83096 21595 10910 10277 20211 30168 40175 72066 81100 333 20230 59002 60014;
0148830960999992002101318004-10920-037050FM-12+000699999V0200901N005112200019N0020001N1+02731+02071101441ADDAA106000021GF101991011011012501001001MA1999999101371MD1999999-0111REMSYN070AAXX  13184 83096 32695 10910 10273 20207 30137 40144 81100 333 59011;
0198830960999992002101400004-10920-037050FM-12+000699999V0200901N003112200019N0020001N1+02531+02101101641ADDAA106000091GF101991011011012501001001KA1240M+02991MA1999999101571MD1999999-0091REMSYN088AAXX  14004 83096 32695 10906 10253 20210 30157 40164 81100 333 10299 29071 55111 59009;EQDQ01  00002PRCP06
0186830960999992002101412004-10920-037050FM-12+000699999V0201801N001512200019N0020001N1+02761+02091101711ADDAA106000091GF101991011051012501001001KA1240N+02281MA1999999101641MD1999999-0041REMSYN076AAXX  14124 83096 32695 11803 10276 20209 30164 40171 81500 333 20228 59004;EQDQ01  00002PRCP06
0167830960999992002101418004-10920-037050FM-12+000699999V0200901N005110120019N0020001N1+02601+02061101471ADDAA106000091GF107991071051012501001001MA1999999101401MD1999999+0031REMSYN070AAXX  14184 83096 32695 70910 10260 20206 30140 40147 87500 333 58003;EQDQ01  00002PRCP06
0198830960999992002101500004-10920-037050FM-12+000699999V0201801N003110120019N0020001N1+02551+02021101601ADDAA106000091GF107991071051012501001001KA1240M+02941MA1999999101531MD1999999-0041REMSYN088AAXX  15004 83096 32695 71806 10255 20202 30153 40160 87500 333 10294 29071 55044 59004;EQDQ01  00002PRCP06
0186830960999992002101512004-10920-037050FM-12+000699999V0200901N002112200019N0020001N1+02731+02001101691ADDAA106000091GF101991011011012501001001KA1240N+02361MA1999999101621MD1999999-0021REMSYN076AAXX  15124 83096 32695 10904 10273 20200 30162 40169 81100 333 20236 59002;EQDQ01  00002PRCP06
0167830960999992002101518004-10920-037050FM-12+000699999V0201401N003112200019N0020001N1+02751+02101101491ADDAA106000091GF102991021011012501001001MA1999999101421MD1999999+0021REMSYN070AAXX  15184 83096 32695 21406 10275 20210 30142 40149 82100 333 58002;EQDQ01  00002PRCP06
0198830960999992002101600004-10920-037050FM-12+000699999V0200901N002612200019N0020001N1+02551+02041101531ADDAA106000091GF102991021011012501001001KA1240M+02931MA1999999101461MD1999999-0071REMSYN088AAXX  16004 83096 32695 20905 10255 20204 30146 40153 82100 333 10293 29070 55094 59007;EQDQ01  00002PRCP06
0202830960999992002101612004-10920-037050FM-12+000699999V0200901N003619999999N0020001N1+02661+02161101731ADDAA106000091GF105991999011012501001001KA1240N+02301MA1999999101661MD1999999+0041REMSYN076AAXX  16124 83096 32695 50907 10266 20216 30166 40173 84100 333 20230 58004;EQDQ01+000042SCOTLCQ02  00002PRCP06
0171830960999992002101618004-10920-037050FM-12+000699999V0200901N005112200019N0020001N1+02761+02071101441ADDAY161061AY261061GF101991011011012501001001MA1999999101371MD1999999-0051MW1201REMSYN082AAXX  16184 83096 21695 10910 10276 20207 30137 40144 72066 81100 333 59005 69961;
0179830960999992002101700004-10920-037050FM-12+000699999V0200901N005112200019N0020001N1+02561+02111101611ADDAA106000021GF101991011011012501001001KA1240M+02901MA1999999101541MD1999999+0081REMSYN088AAXX  17004 83096 32695 10910 10256 20211 30154 40161 81100 333 10290 29073 55077 58008;
0190830960999992002101712004-10920-037050FM-12+000699999V0200901N003612200019N0020001N1+02711+01991101681ADDAY161061AY261061GF102991021051012501001001KA1240N+02351MA1999999101611MD1999999-0051MW1201REMSYN088AAXX  17124 83096 21695 20907 10271 20199 30161 40168 72066 82500 333 20235 59005 69964;
0148830960999992002101718004-10920-037050FM-12+000699999V0200901N004612200019N0020001N1+02731+02031101301ADDAA106000021GF102991021011012501001001MA1999999101231MD1999999-0141REMSYN070AAXX  17184 83096 32695 20909 10273 20203 30123 40130 82100 333 59014;
0198830960999992002101800004-10920-037050FM-12+000699999V0200901N004612200019N0020001N1+02531+02111101581ADDAA106000091GF101991011011012501001001KA1240M+02911MA1999999101511MD1999999-0031REMSYN088AAXX  18004 83096 32695 10909 10253 20211 30151 40158 81100 333 10291 29071 55106 59003;EQDQ01  00002PRCP06
0186830960999992002101812004-10920-037050FM-12+000699999V0200901N002612200019N0020001N1+02751+02261101591ADDAA106000091GF102991021011012501001001KA1240N+02371MA1999999101521MD1999999-0091REMSYN076AAXX  18124 83096 32695 20905 10275 20226 30152 40159 82100 333 20237 59009;EQDQ01  00002PRCP06
0167830960999992002101818004-10920-037050FM-12+000699999V0200901N002612200019N0020001N1+02731+02191101271ADDAA106000091GF104991041051012501001001MA1999999101201MD1999999-0031REMSYN070AAXX  18184 83096 32695 40905 10273 20219 30120 40127 84500 333 59003;EQDQ01  00002PRCP06
0198830960999992002101900004-10920-037050FM-12+000699999V0200901N003112200019N0020001N1+02611+02171101491ADDAA106000091GF104991041011012501001001KA1240M+02931MA1999999101421MD1999999-0091REMSYN088AAXX  19004 83096 32695 40906 10261 20217 30142 40149 84100 333 10293 29075 55096 59009;EQDQ01  00002PRCP06
0190830960999992002101912004-10920-037050FM-12+000699999V0200901N003612200019N0020001N1+02771+02231101671ADDAY161061AY261061GF103991031011012501001001KA1240N+02411MA1999999101601MD1999999+0081MW1201REMSYN088AAXX  19124 83096 21695 30907 10277 20223 30160 40167 72066 83100 333 20241 58008 60024;
0148830960999992002101918004-10920-037050FM-12+000699999V0200901N002612200019N0020001N1+02751+02191101291ADDAA106000021GF104991041011012501001001MA1999999101221MD1999999+0021REMSYN070AAXX  19184 83096 32695 40905 10275 20219 30122 40129 84100 333 58002;
0198830960999992002102000004-10920-037050FM-12+000699999V0200901N003112200019N0020001N1+02591+02121101571ADDAA106000091GF104991041051012501001001KA1240M+02921MA1999999101501MD1999999+0081REMSYN088AAXX  20004 83096 32695 40906 10259 20212 30150 40157 84500 333 10292 29074 55078 58008;EQDQ01  00002PRCP06
0186830960999992002102012004-10920-037050FM-12+000699999V0200901N002612200019N0020001N1+02691+02061101591ADDAA106000091GF104991041051012501001001KA1240N+02421MA1999999101521MD1999999-0081REMSYN076AAXX  20124 83096 32695 40905 10269 20206 30152 40159 84500 333 20242 59008;EQDQ01  00002PRCP06
0167830960999992002102018004-10920-037050FM-12+000699999V0200901N002612200019N0020001N1+02751+02071101461ADDAA106000091GF104991041011012501001001MA1999999101391MD1999999+0171REMSYN070AAXX  20184 83096 32695 40905 10275 20207 30139 40146 84100 333 58017;EQDQ01  00002PRCP06
0198830960999992002102100004-10920-037050FM-12+000699999V0200901N003112200019N0020001N1+02571+02021101581ADDAA106000091GF104991041051012501001001KA1240M+02921MA1999999101511MD1999999+0011REMSYN088AAXX  21004 83096 32695 40906 10257 20202 30151 40158 84500 333 10292 29070 55076 58001;EQDQ01  00002PRCP06
0190830960999992002102112004-10920-037050FM-12+000699999V0200901N003112200019N0020001N1+02691+02171101681ADDAY161061AY261061GF102991021011012501001001KA1240N+02301MA1999999101611MD1999999+0091MW1201REMSYN088AAXX  21124 83096 21695 20906 10269 20217 30161 40168 72066 82100 333 20230 58009 60054;
0148830960999992002102118004-10920-037050FM-12+000699999V0201401N003112200019N0020001N1+02751+02091101511ADDAA106000021GF101991011011012501001001MA1999999101441MD1999999+0051REMSYN070AAXX  21184 83096 32695 11406 10275 20209 30144 40151 81100 333 58005;
0198830960999992002102200004-10920-037050FM-12+000699999V0201401N003112200019N0020001N1+02571+02081101571ADDAA106000091GF101991011011012501001001KA1240M+02911MA1999999101501MD1999999-0011REMSYN088AAXX  22004 83096 32695 11406 10257 20208 30150 40157 81100 333 10291 29072 55102 59001;EQDQ01  00002PRCP06
0186830960999992002102212004-10920-037050FM-12+000699999V0200901N003110120019N0020001N1+02811+02271101631ADDAA106000091GF106991061051012501001001KA1240N+02281MA1999999101561MD1999999-0051REMSYN076AAXX  22124 83096 32695 60906 10281 20227 30156 40163 86500 333 20228 59005;EQDQ01  00002PRCP06
0167830960999992002102218004-10920-037050FM-12+000699999V0200901N003112200019N0020001N1+02771+02251101391ADDAA106000091GF104991041051012501001001MA1999999101321MD1999999-0121REMSYN070AAXX  22184 83096 32695 40906 10277 20225 30132 40139 84500 333 59012;EQDQ01  00002PRCP06
0198830960999992002102300004-10920-037050FM-12+000699999V0200901N005112200019N0020001N1+02571+02271101571ADDAA106000091GF101991011011012501001001KA1240M+02931MA1999999101501MD1999999+0001REMSYN088AAXX  23004 83096 32695 10910 10257 20227 30150 40157 81100 333 10293 29078 55099 58000;EQDQ01  00002PRCP06
0186830960999992002102312004-10920-037050FM-12+000699999V0200901N003612200019N0020001N1+02791+02211101611ADDAA106000091GF103991031051012501001001KA1240N+02351MA1999999101541MD1999999-0021REMSYN076AAXX  23124 83096 32695 30907 10279 20221 30154 40161 83500 333 20235 59002;EQDQ01  00002PRCP06
0167830960999992002102318004-10920-037050FM-12+000699999V0200901N003612200019N0020001N1+02831+02201101451ADDAA106000091GF102991021011012501001001MA1999999101381MD1999999+0061REMSYN070AAXX  23184 83096 32695 20907 10283 20220 30138 40145 82100 333 58006;EQDQ01  00002PRCP06
0198830960999992002102400004-10920-037050FM-12+000699999V0200901N002612200019N0020001N1+02611+02101999999ADDAA106000091GF102991021011012501001001KA1240M+02951MA1999999101401MD1999999-0101REMSYN088AAXX  24004 83096 32695 20905 10261 20210 30140 44014 82100 333 10295 29072 55104 59010;EQDQ01  00002PRCP06
0186830960999992002102412004-10920-037050FM-12+000699999V0200901N005112200019N0020001N1+02811+02151101611ADDAA106000091GF101991011011012501001001KA1240N+02301MA1999999101541MD1999999+0001REMSYN076AAXX  24124 83096 32695 10910 10281 20215 30154 40161 81100 333 20230 58000;EQDQ01  00002PRCP06
0167830960999992002102418004-10920-037050FM-12+000699999V0200901N003612200019N0020001N1+02781+02131101381ADDAA106000091GF101991011011012501001001MA1999999101311MD1999999+0071REMSYN070AAXX  24184 83096 32695 10907 10278 20213 30131 40138 81100 333 58007;EQDQ01  00002PRCP06
0186830960999992002102512004-10920-037050FM-12+000699999V0200901N004110120019N0020001N1+02701+02111101491ADDAA106000091GF106991061051012501001001KA1240N+02331MA1999999101421MD1999999-0121REMSYN076AAXX  25124 83096 32695 60908 10270 20211 30142 40149 86500 333 20233 59012;EQDQ01  00002PRCP06
0167830960999992002102518004-10920-037050FM-12+000699999V0200901N005112200019N0020001N1+02731+01981101171ADDAA106000091GF101991011051012501001001MA1999999101101MD1999999-0211REMSYN070AAXX  25184 83096 32695 10910 10273 20198 30110 40117 81500 333 59021;EQDQ01  00002PRCP06
0167830960999992002102618004-10920-037050FM-12+000699999V0200901N003612200019N0020001N1+02711+02031101241ADDAA106000091GF101991011011012501001001MA1999999101171MD1999999+0071REMSYN070AAXX  26184 83096 32695 10907 10271 20203 30117 40124 81100 333 58007;EQDQ01  00002PRCP06
0198830960999992002102700004-10920-037050FM-12+000699999V0200901N005112200019N0020001N1+02521+02071101471ADDAA106000091GF101991011011012501001001KA1240M+02931MA1999999101401MD1999999-0011REMSYN088AAXX  27004 83096 32695 10910 10252 20207 30140 40147 81100 333 10293 29076 55113 59001;EQDQ01  00002PRCP06
0186830960999992002102712004-10920-037050FM-12+000699999V0200501N003612200019N0020001N1+02811+02181101421ADDAA106000091GF101991011011012501001001KA1240N+02471MA1999999101351MD1999999-0191REMSYN076AAXX  27124 83096 32695 10507 10281 20218 30135 40142 81100 333 20247 59019;EQDQ01  00002PRCP06
0167830960999992002102718004-10920-037050FM-12+000699999V0200901N005112200019N0020001N1+02771+02281101071ADDAA106000091GF101991011011012501001001MA1999999101001MD1999999-0171REMSYN070AAXX  27184 83096 32695 10910 10277 20228 30100 40107 81100 333 59017;EQDQ01  00002PRCP06
0198830960999992002102800004-10920-037050FM-12+000699999V0200901N005712200019N0020001N1+02591+02331101391ADDAA106000091GF101991011011012501001001KA1240M+02961MA1999999101321MD1999999-0081REMSYN088AAXX  28004 83096 32695 10911 10259 20233 30132 40139 81100 333 10296 29079 55109 59008;EQDQ01  00002PRCP06
0186830960999992002102812004-10920-037050FM-12+000699999V0200901N002612200019N0020001N1+02771+02281101401ADDAA106000091GF103991031011012501001001KA1240N+02451MA1999999101331MD1999999-0021REMSYN076AAXX  28124 83096 32695 30905 10277 20228 30133 40140 83100 333 20245 59002;EQDQ01  00002PRCP06
0167830960999992002102818004-10920-037050FM-12+000699999V0200901N005112200019N0020001N1+02811+02361101201ADDAA106000091GF101991011011012501001001MA1999999101131MD1999999+0131REMSYN070AAXX  28184 83096 32695 10910 10281 20236 30113 40120 81100 333 58013;EQDQ01  00002PRCP06
0198830960999992002102900004-10920-037050FM-12+000699999V0200901N004112200019N0020001N1+02611+02391101171ADDAA106000091GF102991021011012501001001KA1240M+02961MA1999999101101MD1999999-0221REMSYN088AAXX  29004 83096 32695 20908 10261 20239 30110 40117 82100 333 10296 29082 55097 59022;EQDQ01  00002PRCP06
0186830960999992002102912004-10920-037050FM-12+000699999V0200901N004112200019N0020001N1+02831+02221101371ADDAA106000091GF103991021011012501001011KA1240N+02301MA1999999101301MD1999999-0031REMSYN076AAXX  29124 83096 32695 30908 10283 20222 30130 40137 82101 333 20230 59003;EQDQ01  00002PRCP06
0167830960999992002102918004-10920-037050FM-12+000699999V0200901N005112200019N0020001N1+02821+02241101061ADDAA106000091GF101991011011012501001001MA1999999100991MD1999999-0141REMSYN070AAXX  29184 83096 32695 10910 10282 20224 30099 40106 81100 333 59014;EQDQ01  00002PRCP06
0198830960999992002103000004-10920-037050FM-12+000699999V0200901N004112200019N0020001N1+02611+02291101201ADDAA106000091GF101991011011012501001001KA1240M+02981MA1999999101131MD1999999+0031REMSYN088AAXX  30004 83096 32695 10908 10261 20229 30113 40120 81100 333 10298 29076 55106 58003;EQDQ01  00002PRCP06
0190830960999992002103012004-10920-037050FM-12+000699999V0200501N003112200019N0020001N1+02751+02381101321ADDAY161061AY261061GF102991021051012501001001KA1240N+02261MA1999999101251MD1999999-0051MW1201REMSYN088AAXX  30124 83096 21695 20506 10275 20238 30125 40132 72066 82500 333 20226 59005 60014;
0148830960999992002103018004-10920-037050FM-12+000699999V0200901N004612200019N0020001N1+02771+02281101041ADDAA106000021GF101991011011012501001001MA1999999100971MD1999999-0021REMSYN070AAXX  30184 83096 32695 10909 10277 20228 30097 40104 81100 333 59002;
0198830960999992002103100004-10920-037050FM-12+000699999V0200901N004610120019N0020001N1+02591+02331101281ADDAA106000091GF107991071051012501001001KA1240M+02931MA1999999101211MD1999999+0081REMSYN088AAXX  31004 83096 32695 70909 10259 20233 30121 40128 87500 333 10293 29081 55105 58008;EQDQ01  00002PRCP06
0186830960999992002103112004-10920-037050FM-12+000699999V0200901N004112200019N0020001N1+02751+02301101311ADDAA106000091GF103991031011012501001001KA1240N+02451MA1999999101241MD1999999-0011REMSYN076AAXX  31124 83096 32695 30908 10275 20230 30124 40131 83100 333 20245 59001;EQDQ01  00002PRCP06
0167830960999992002103118004-10920-037050FM-12+000699999V0200901N004112200019N0020001N1+02811+02311101011ADDAA106000091GF101991011011012501001001MA1999999100941MD1999999-0031REMSYN070AAXX  31184 83096 32695 10908 10281 20231 30094 40101 81100 333 59003;EQDQ01  00002PRCP06
0198830960999992002110100004-10920-037050FM-12+000699999V0200901N004612200019N0020001N1+02591+02371100991ADDAA106000091GF102991021011012501001001KA1240M+02951MA1999999100921MD1999999-0291REMSYN088AAXX  01004 83096 32695 20909 10259 20237 30092 40099 82100 333 10295 29082 55105 59029;EQDQ01  00002PRCP06
0186830960999992002110112004-10920-037050FM-12+000699999V0200901N002612200019N0020001N1+02811+02271101181ADDAA106000091GF103991031051012501001001KA1240N+02451MA1999999101111MD1999999-0131REMSYN076AAXX  01124 83096 32695 30905 10281 20227 30111 40118 83500 333 20245 59013;EQDQ01  00002PRCP06
0167830960999992002110118004-10920-037050FM-12+000699999V0200901N005112200019N0020001N1+02811+02311101051ADDAA106000091GF102991021011012501001001MA1999999100981MD1999999+0041REMSYN070AAXX  01184 83096 32695 20910 10281 20231 30098 40105 82100 333 58004;EQDQ01  00002PRCP06
0198830960999992002110200004-10920-037050FM-12+000699999V0200901N004612200019N0020001N1+02591+02331101171ADDAA106000091GF102991021051012501001001KA1240M+02931MA1999999101101MD1999999+0181REMSYN088AAXX  02004 83096 32695 20909 10259 20233 30110 40117 82500 333 10293 29080 55108 58018;EQDQ01  00002PRCP06
0186830960999992002110212004-10920-037050FM-12+000699999V0200901N003612200019N0020001N1+02811+02131101391ADDAA106000091GF102991021051012501001001KA1240N+02431MA1999999101321MD1999999+0211REMSYN076AAXX  02124 83096 32695 20907 10281 20213 30132 40139 82500 333 20243 58021;EQDQ01  00002PRCP06
0183830960999992002110218004-10920-037050FM-12+000699999V0200901N004112200019N0020001N1+02811+02181101251ADDAA106000091GF102991999011012501001001MA1999999101181MD1999999+0201REMSYN070AAXX  02184 83096 32695 20908 10281 20218 30118 40125 83100 333 58020;EQDQ01+000032SCOTLCQ02  00002PRCP06
0198830960999992002110300004-10920-037050FM-12+000699999V0200901N004112200019N0020001N1+02571+02291101071ADDAA106000091GF102991021011012501001001KA1240M+02941MA1999999102011MD1999999-0091REMSYN088AAXX  03004 83096 32695 20908 10257 20229 30201 40107 82100 333 10294 29076 55096 59009;EQDQ01  00002PRCP06
0186830960999992002110312004-10920-037050FM-12+000699999V0200901N003112200019N0020001N1+02671+02111101201ADDAA106000091GF104991041011012501001001KA1240N+02391MA1999999101131MD1999999-0191REMSYN076AAXX  03124 83096 32695 40906 10267 20211 30113 40120 84100 333 20239 59019;EQDQ01  00002PRCP06
0167830960999992002110318004-10920-037050FM-12+000699999V0200901N004112200019N0020001N1+02671+02161101961ADDAA106000091GF103991031011012501001001MA1999999100991MD1999999-0191REMSYN070AAXX  03184 83096 32695 30908 10267 20216 30099 40196 83100 333 59019;EQDQ01  00002PRCP06
0198830960999992002110400004-10920-037050FM-12+000699999V0200901N004112200019N0020001N1+02591+02211101191ADDAA106000091GF102991021051012501001001KA1240M+02911MA1999999101121MD1999999+0111REMSYN088AAXX  04004 83096 32695 20908 10259 20221 30112 40119 82500 333 10291 29076 55088 58011;EQDQ01  00002PRCP06
0186830960999992002110412004-10920-037050FM-12+000699999V0200501N005112200019N0020001N1+02751+02211101371ADDAA106000091GF104991021051012501001011KA1240N+02411MA1999999101301MD1999999+0171REMSYN076AAXX  04124 83096 32695 40510 10275 20221 30130 40137 82501 333 20241 58017;EQDQ01  00002PRCP06
0167830960999992002110418004-10920-037050FM-12+000699999V0200901N004112200019N0020001N1+02741+02241101011ADDAA106000091GF106991041051012501001011MA1999999100941MD1999999-0051REMSYN070AAXX  04184 83096 32695 60908 10274 20224 30094 40101 84501 333 59005;EQDQ01  00002PRCP06
0198830960999992002110500004-10920-037050FM-12+000699999V0200901N005110450019N0020001N1+02551+02351101381ADDAA106000091GF106991041051012501031001KA1240M+02931MA1999999101311MD1999999+0191REMSYN088AAXX  05004 83096 32695 60910 10255 20235 30131 40138 84530 333 10293 29081 55085 58019;EQDQ01  00002PRCP06
0186830960999992002110512004-10920-037050FM-12+000699999V0200901N005112200019N0020001N1+02791+02181101411ADDAA106000091GF102991021051012501001001KA1240N+02451MA1999999101341MD1999999+0041REMSYN076AAXX  05124 83096 32695 20910 10279 20218 30134 40141 82500 333 20245 58004;EQDQ01  00002PRCP06
0167830960999992002110518004-10920-037050FM-12+000699999V0200901N005112200019N0020001N1+02751+02241101151ADDAA106000091GF102991021011012501001001MA1999999101081MD1999999+0141REMSYN070AAXX  05184 83096 32695 20910 10275 20224 30108 40115 82100 333 58014;EQDQ01  00002PRCP06
0198830960999992002110600004-10920-037050FM-12+000699999V0200901N003612200019N0020001N1+02551+02251101291ADDAA106000091GF102991021011012501001001KA1240M+02911MA1999999101221MD1999999-0091REMSYN088AAXX  06004 83096 32695 20907 10255 20225 30122 40129 82100 333 10291 29078 55097 59009;EQDQ01  00002PRCP06
0186830960999992002110612004-10920-037050FM-12+000699999V0200501N004112200019N0020001N1+02831+02261101431ADDAA106000091GF101991011011012501001001KA1240N+02411MA1999999101361MD1999999+0021REMSYN076AAXX  06124 83096 32695 10508 10283 20226 30136 40143 81100 333 20241 58002;EQDQ01  00002PRCP06
0167830960999992002110618004-10920-037050FM-12+000699999V0200901N005112200019N0020001N1+02811+02291101181ADDAA106000091GF101991011011012501001001MA1999999101111MD1999999+0031REMSYN070AAXX  06184 83096 32695 10910 10281 20229 30111 40118 81100 333 58003;EQDQ01  00002PRCP06
0198830960999992002110700004-10920-037050FM-12+000699999V0200901N003112200019N0020001N1+02551+02271101451ADDAA106000091GF101991011011012501001001KA1240M+02931MA1999999101381MD1999999+0161REMSYN088AAXX  07004 83096 32695 10906 10255 20227 30138 40145 81100 333 10293 29078 55102 58016;EQDQ01  00002PRCP06
0186830960999992002110712004-10920-037050FM-12+000699999V0200901N004112200019N0020001N1+02801+02131101621ADDAA106000091GF101991011011012501001001KA1240N+02371MA1999999101551MD1999999+0191REMSYN076AAXX  07124 83096 32695 10908 10280 20213 30155 40162 81100 333 20237 58019;EQDQ01  00002PRCP06
0167830960999992002110718004-10920-037050FM-12+000699999V0200901N003112200019N0020001N1+02771+02231101311ADDAA106000091GF101991011011012501001001MA1999999101241MD1999999+0131REMSYN070AAXX  07184 83096 32695 10906 10277 20223 30124 40131 81100 333 58013;EQDQ01  00002PRCP06
0198830960999992002110800004-10920-037050FM-12+000699999V0201401N002610120019N0020001N1+02601+02231101571ADDAA106000091GF106991061051012501001001KA1240M+02941MA1999999101501MD1999999+0121REMSYN088AAXX  08004 83096 32695 61405 10260 20223 30150 40157 86500 333 10294 29075 55112 58012;EQDQ01  00002PRCP06
0186830960999992002110812004-10920-037050FM-12+000699999V0200901N002612200019N0020001N1+02761+02321101611ADDAA106000091GF101991011001012501001011KA1240N+02351MA1999999101541MD1999999-0011REMSYN076AAXX  08124 83096 32695 10905 10276 20232 30154 40161 81001 333 20235 59001;EQDQ01  00002PRCP06
0167830960999992002110818004-10920-037050FM-12+000699999V0201401N003112200019N0020001N1+02761+02321101311ADDAA106000091GF101991001001999999001011MA1999999101241MD1999999+0001REMSYN070AAXX  08184 83096 32995 11406 10276 20232 30124 40131 80001 333 58000;EQDQ01  00002PRCP06
0198830960999992002110900004-10920-037050FM-12+000699999V0200901N003112200019N0020001N1+02631+02271101591ADDAA106000091GF101991011011012501001001KA1240M+02931MA1999999101521MD1999999+0021REMSYN088AAXX  09004 83096 32695 10906 10263 20227 30152 40159 81100 333 10293 29078 55108 58002;EQDQ01  00002PRCP06
0190830960999992002110912004-10920-037050FM-12+000699999V0200901N002612200019N0020001N1+02771+02271101661ADDAY161061AY261061GF102991021011012501001001KA1240N+02281MA1999999101591MD1999999+0051MW1211REMSYN088AAXX  09124 83096 21695 20905 10277 20227 30159 40166 72166 82100 333 20228 58005 60044;
0148830960999992002110918004-10920-037050FM-12+000699999V0200901N003112200019N0020001N1+02781+02301101401ADDAA106000021GF101991011011012501001001MA1999999101331MD1999999-0091REMSYN070AAXX  09184 83096 32695 10906 10278 20230 30133 40140 81100 333 59009;
0198830960999992002111000004-10920-037050FM-12+000699999V0200901N002112200019N0020001N1+02591+02171101581ADDAA106000091GF101991011011012501001001KA1240M+02951MA1999999101511MD1999999+0011REMSYN088AAXX  10004 83096 32695 10904 10259 20217 30151 40158 81100 333 10295 29076 55099 58001;EQDQ01  00002PRCP06
0202830960999992002111012004-10920-037050FM-12+000699999V0200901N005112200019N0020001N1+02751+02191101651ADDAA106000091GF101991999011012501001001KA1240N+02331MA1999999101581MD1999999-0011REMSYN076AAXX  10124 83096 32695 10910 10275 20219 30158 40165 86100 333 20233 59001;EQDQ01+000062SCOTLCQ02  00002PRCP06
0167830960999992002111018004-10920-037050FM-12+000699999V0200901N003112200019N0020001N1+02771+02251101341ADDAA106000091GF102991021011012501001001MA1999999101271MD1999999-0061REMSYN070AAXX  10184 83096 32695 20906 10277 20225 30127 40134 82100 333 59006;EQDQ01  00002PRCP06
0198830960999992002111100004-10920-037050FM-12+000699999V0200901N003112200019N0020001N1+02541+02191101631ADDAA106000091GF101991011011012501001001KA1240M+02941MA1999999101561MD1999999+0001REMSYN088AAXX  11004 83096 32695 10906 10254 20219 30156 40163 81100 333 10294 29076 55113 58000;EQDQ01  00002PRCP06
0190830960999992002111112004-10920-037050FM-12+000699999V0200901N005110120019N0020001N1+02811+02381101661ADDAY161061AY261061GF105991051011012501001001KA1240N+02341MA1999999101591MD1999999+0011MW1211REMSYN088AAXX  11124 83096 21695 50910 10281 20238 30159 40166 72166 85100 333 20234 58001 60044;
0148830960999992002111118004-10920-037050FM-12+000699999V0200901N005110120019N0020001N1+02801+02271101401ADDAA106000021GF106991061011012501001001MA1999999101331MD1999999+0061REMSYN070AAXX  11184 83096 32695 60910 10280 20227 30133 40140 86100 333 58006;
0198830960999992002111200004-10920-037050FM-12+000699999V0200901N005112200019N0020001N1+02631+02231101441ADDAA106000091GF101991011011012501001001KA1240M+02991MA1999999101371MD1999999+0191REMSYN088AAXX  12004 83096 32695 10910 10263 20223 30137 40144 81100 333 10299 29076 55110 58019;EQDQ01  00002PRCP06
0186830960999992002111212004-10920-037050FM-12+000699999V0200901N003612200019N0020001N1+02881+02181101721ADDAA106000091GF101991011011012501001001KA1240N+02321MA1999999101651MD1999999+0161REMSYN076AAXX  12124 83096 32695 10907 10288 20218 30165 40172 81100 333 20232 58016;EQDQ01  00002PRCP06
0167830960999992002111218004-10920-037050FM-12+000699999V0200901N003112200019N0020001N1+02771+02091101371ADDAA106000091GF101991011011012501001001MA1999999101301MD1999999-0031REMSYN070AAXX  12184 83096 32695 10906 10277 20209 30130 40137 81100 333 59003;EQDQ01  00002PRCP06
0198830960999992002111300004-10920-037050FM-12+000699999V0201401N003612200019N0020001N1+02561+02081101631ADDAA106000091GF101991011011012501001001KA1240M+03001MA1999999101561MD1999999+0191REMSYN088AAXX  13004 83096 32695 11407 10256 20208 30156 40163 81100 333 10300 29072 55100 58019;EQDQ01  00002PRCP06
0190830960999992002111312004-10920-037050FM-12+000699999V0200901N003612200019N0020001N1+02791+02061101691ADDAY161061AY261061GF103991031011012501001001KA1240N+02351MA1999999101621MD1999999-0031MW1211REMSYN088AAXX  13124 83096 21695 30907 10279 20206 30162 40169 72166 83100 333 20235 59003 60024;
0148830960999992002111318004-10920-037050FM-12+000699999V0200901N003112200019N0020001N1+02851+02141101551ADDAA106000021GF102991021011012501001001MA1999999101481MD1999999+0181REMSYN070AAXX  13184 83096 32695 20906 10285 20214 30148 40155 82100 333 58018;
0198830960999992002111400004-10920-037050FM-12+000699999V0200901N003112200019N0020001N1+02591+02151101561ADDAA106000091GF102991021011012501001001KA1240M+02931MA1999999101491MD1999999-0071REMSYN088AAXX  14004 83096 32695 20906 10259 20215 30149 40156 82100 333 10293 29071 55107 59007;EQDQ01  00002PRCP06
0186830960999992002111412004-10920-037050FM-12+000699999V0201401N003112200019N0020001N1+02811+02241101751ADDAA106000091GF102991021011012501001001KA1240N+02331MA1999999101681MD1999999+0061REMSYN076AAXX  14124 83096 32695 21406 10281 20224 30168 40175 82100 333 20233 58006;EQDQ01  00002PRCP06
0167830960999992002111418004-10920-037050FM-12+000699999V0201401N003110120019N0020001N1+02531+02251101521ADDAA106000091GF106991051011012501021001MA1999999101451MD1999999-0031REMSYN070AAXX  14184 83096 32695 61406 10253 20225 30145 40152 85120 333 59003;EQDQ01  00002PRCP06
0202830960999992002111500004-10920-037050FM-12+000699999V0200901N003110120019N0020001N1+02571+02171101631ADDAY161061AY261061GF108991071011012501021001KA1240M+02951MA1999999101561MD1999999+0071MW1201REMSYN100AAXX  15004 83096 21695 80906 10257 20217 30156 40163 72066 87120 333 10295 29078 55061 58007 69971;
0190830960999992002111512004-10920-037050FM-12+000699999V0200901N004612200019N0020001N1+02791+02161101681ADDAY181061AY281061GF102991021051012501001001KA1240N+02331MA1999999101161MD1999999-0071MW1201REMSYN088AAXX  15124 83096 21695 20909 10279 20216 30116 40168 72088 82500 333 20233 59007 60034;
0148830960999992002111518004-10920-037050FM-12+000699999V0201401N004112200019N0020001N1+02731+02151101351ADDAA106000021GF101991011011012501001001MA1999999101281MD1999999-0171REMSYN070AAXX  15184 83096 32695 11408 10273 20215 30128 40135 81100 333 59017;
0198830960999992002111600004-10920-037050FM-12+000699999V0200901N003112200019N0020001N1+02581+02101101591ADDAA106000091GF103991031051012501001001KA1240M+02961MA1999999101521MD1999999-0041REMSYN088AAXX  16004 83096 32695 30906 10258 20210 30152 40159 83500 333 10296 29073 55117 59004;EQDQ01  00002PRCP06
0186830960999992002111612004-10920-037050FM-12+000699999V0200901N004112200019N0020001N1+02811+01981101631ADDAA106000091GF101991011011012501001001KA1240N+02371MA1999999101561MD1999999+0051REMSYN076AAXX  16124 83096 32695 10908 10281 20198 30156 40163 81100 333 20237 58005;EQDQ01  00002PRCP06
0167830960999992002111618004-10920-037050FM-12+000699999V0200901N004112200019N0020001N1+02801+02081101291ADDAA106000091GF101991011011012501001001MA1999999101221MD1999999-0061REMSYN070AAXX  16184 83096 32695 10908 10280 20208 30122 40129 81100 333 59006;EQDQ01  00002PRCP06
0198830960999992002111700004-10920-037050FM-12+000699999V0201401N003112200019N0020001N1+02531+02021101471ADDAA106000091GF101991011011012501001001KA1240M+02951MA1999999101401MD1999999-0121REMSYN088AAXX  17004 83096 32695 11406 10253 20202 30140 40147 81100 333 10295 29068 55114 59012;EQDQ01  00002PRCP06
0186830960999992002111712004-10920-037050FM-12+000699999V0200901N005112200019N0020001N1+02771+02161101481ADDAA106000091GF104991041051012501001001KA1240N+02331MA1999999101411MD1999999-0151REMSYN076AAXX  17124 83096 32695 40910 10277 20216 30141 40148 84500 333 20233 59015;EQDQ01  00002PRCP06
0167830960999992002111718004-10920-037050FM-12+000699999V0200901N004112200019N0020001N1+02781+02211101171ADDAA106000091GF101991011011012501001001MA1999999101101MD1999999-0121REMSYN070AAXX  17184 83096 32695 10908 10278 20221 30110 40117 81100 333 59012;EQDQ01  00002PRCP06
0198830960999992002111800004-10920-037050FM-12+000699999V0200901N005112200019N0020001N1+02601+02231101411ADDAA106000091GF102991021051012501001001KA1240M+02971MA1999999101341MD1999999-0061REMSYN088AAXX  18004 83096 32695 20910 10260 20223 30134 40141 82500 333 10297 29075 55110 59006;EQDQ01  00002PRCP06
0186830960999992002111812004-10920-037050FM-12+000699999V0200901N005112200019N0020001N1+02851+02231101551ADDAA106000091GF101991011011012501001001KA1240N+02301MA1999999101481MD1999999+0071REMSYN076AAXX  18124 83096 32695 10910 10285 20223 30148 40155 81100 333 20230 58007;EQDQ01  00002PRCP06
0167830960999992002111818004-10920-037050FM-12+000699999V0200901N005112200019N0020001N1+02811+02271101171ADDAA106000091GF101991011011012501001001MA1999999101101MD1999999+0001REMSYN070AAXX  18184 83096 32695 10910 10281 20227 30110 40117 81100 333 58000;EQDQ01  00002PRCP06
0198830960999992002111900004-10920-037050FM-12+000699999V0200901N005112200019N0020001N1+02631+02231101451ADDAA106000091GF101991011011012501001001KA1240M+03001MA1999999101301MD1999999+0041REMSYN088AAXX  19004 83096 32695 10910 10263 20223 30130 40145 81100 333 10300 29074 55113 58004;EQDQ01  00002PRCP06
0186830960999992002111912004-10920-037050FM-12+000699999V0200901N003112200019N0020001N1+02811+02181101411ADDAA106000091GF104991041011012501001001KA1240N+02351MA1999999101341MD1999999-0141REMSYN076AAXX  19124 83096 32695 40906 10281 20218 30134 40141 84100 333 20235 59014;EQDQ01  00002PRCP06
0167830960999992002111918004-10920-037050FM-12+000699999V0200901N005112200019N0020001N1+02851+02261101271ADDAA106000091GF102991021011017501001001MA1999999101201MD1999999+0101REMSYN070AAXX  19184 83096 32795 20910 10285 20226 30120 40127 82100 333 58010;EQDQ01  00002PRCP06
0198830960999992002112000004-10920-037050FM-12+000699999V0200901N005112200019N0020001N1+02631+02181101321ADDAA106000091GF103991031051012501001001KA1240M+02991MA1999999101251MD1999999-0131REMSYN088AAXX  20004 83096 32695 30910 10263 20218 30125 40132 83500 333 10299 29073 55110 59013;EQDQ01  00002PRCP06
0186830960999992002112012004-10920-037050FM-12+000699999V0200901N005112200019N0020001N1+02821+02331101411ADDAA106000091GF102991021051012501001001KA1240N+02391MA1999999101341MD1999999+0001REMSYN076AAXX  20124 83096 32695 20910 10282 20233 30134 40141 82500 333 20239 58000;EQDQ01  00002PRCP06
0167830960999992002112018004-10920-037050FM-12+000699999V0200901N005712200019N0020001N1+02811+02311101141ADDAA106000091GF101991011011012501001001MA1999999101071MD1999999-0131REMSYN070AAXX  20184 83096 32695 10911 10281 20231 30107 40114 81100 333 59013;EQDQ01  00002PRCP06
0198830960999992002112100004-10920-037050FM-12+000699999V0200901N005112200019N0020001N1+02581+02211101381ADDAA106000091GF101991011011012501001001KA1240M+02971MA1999999101311MD1999999+0061REMSYN088AAXX  21004 83096 32695 10910 10258 20221 30131 40138 81100 333 10297 29078 55098 58006;EQDQ01  00002PRCP06
0186830960999992002112112004-10920-037050FM-12+000699999V0200901N002612200019N0020001N1+02731+02241101491ADDAA106000091GF104991041011012501001001KA1240N+02391MA1999999101421MD1999999+0081REMSYN076AAXX  21124 83096 32695 40905 10273 20224 30142 40149 84100 333 20239 58008;EQDQ01  00002PRCP06
0167830960999992002112118004-10920-037050FM-12+000699999V0200901N003612200019N0020001N1+02851+02221101241ADDAA106000091GF102991021011017501001001MA1999999101221MD1999999+0151REMSYN070AAXX  21184 83096 32795 20907 10285 20222 30122 40124 82100 333 58015;EQDQ01  00002PRCP06
0186830960999992002112212004-10920-037050FM-12+000699999V0200901N004112200019N0020001N1+02831+02291101531ADDAA106000091GF101991011011012501001001KA1240N+02301MA1999999101481MD1999999+0061REMSYN076AAXX  22124 83096 32695 10908 10283 20229 30148 40153 81100 333 20230 58006;EQDQ01  00002PRCP06
0167830960999992002112218004-10920-037050FM-12+000699999V0200901N004112200019N0020001N1+02831+02261101351ADDAA106000091GF101991011011012501001001MA1999999101281MD1999999+0061REMSYN070AAXX  22184 83096 32695 10908 10283 20226 30128 40135 81100 333 58006;EQDQ01  00002PRCP06
0198830960999992002112300004-10920-037050FM-12+000699999V0200901N004112200019N0020001N1+02661+02291101491ADDAA106000091GF101991011011012501001001KA1240M+02991MA1999999101421MD1999999+0121REMSYN088AAXX  23004 83096 32695 10908 10266 20229 30142 40149 81100 333 10299 29076 55109 58012;EQDQ01  00002PRCP06
0190830960999992002112312004-10920-037050FM-12+000699999V0200901N003112200019N0020001N1+02741+02451101621ADDAY161061AY261061GF104991031011012501021001KA1240N+02341MA1999999101551MD1999999+0071MW1201REMSYN088AAXX  23124 83096 21695 40906 10274 20245 30155 40162 72066 83120 333 20234 58007 60024;
0148830960999992002112318004-10920-037050FM-12+000699999V0201401N003112200019N0020001N1+02691+02301101421ADDAA106000021GF101991011011012501001001MA1999999101351MD1999999+0071REMSYN070AAXX  23184 83096 32695 11406 10269 20230 30135 40142 81100 333 58007;
0202830960999992002112400004-10920-037050FM-12+000699999V0200901N003110120019N0020001N1+02511+02361101551ADDAY161061AY261061GF108991061011012501021001KA1240M+03011MA1999999101481MD1999999+0061MW1211REMSYN100AAXX  24004 83096 21695 80906 10251 20236 30148 40155 72166 86120 333 10301 29086 55059 58006 60021;
0171830960999992002112418004-10920-037050FM-12+000699999V0200901N003110120019N0020001N1+02581+02371101491ADDAY161061AY261061GF108991081051012501001001MA1999999101421MD1999999+0071MW1201REMSYN082AAXX  24184 83096 21695 80906 10258 20237 30142 40149 72066 88500 333 58007 60011;
0179830960999992002112500004-10920-037050FM-12+000699999V0200901N004112200019N0020001N1+02611+02271101651ADDAA106000021GF101991011011012501001001KA1240M+02941MA1999999101581MD1999999+0101REMSYN088AAXX  25004 83096 32695 10908 10261 20227 30158 40165 81100 333 10294 29081 55052 58010;
0190830960999992002112512004-10920-037050FM-12+000699999V0200901N004612200019N0020001N1+02851+02221101701ADDAY161061AY261061GF101991011051012501001001KA1240N+02281MA1999999101631MD1999999+0091MW1201REMSYN088AAXX  25124 83096 21695 10909 10285 20222 30163 40170 72066 81500 333 20228 58009 60014;
0148830960999992002112518004-10920-037050FM-12+000699999V0200901N004112200019N0020001N1+02851+02221101461ADDAA106000021GF101991011051012501001001MA1999999101391MD1999999-0031REMSYN070AAXX  25184 83096 32695 10908 10285 20222 30139 40146 81500 333 59003;
0198830960999992002112600004-10920-037050FM-12+000699999V0200901N004112200019N0020001N1+02601+02191101681ADDAA106000091GF101991011051012501001001KA1240M+03021MA1999999101611MD1999999+0031REMSYN088AAXX  26004 83096 32695 10908 10260 20219 30161 40168 81500 333 10302 29074 55109 58003;EQDQ01  00002PRCP06
0190830960999992002112612004-10920-037050FM-12+000699999V0200901N003612200019N0020001N1+02811+02111101571ADDAY161061AY261061GF103991031011012501001001KA1240N+02361MA1999999101501MD1999999-0131MW1201REMSYN088AAXX  26124 83096 21695 30907 10281 20211 30150 40157 72066 83100 333 20236 59013 69934;
0148830960999992002112618004-10920-037050FM-12+000699999V0201401N002112200019N0020001N1+02851+02221101381ADDAA106000021GF102991021011012501001001MA1999999101311MD1999999-0081REMSYN070AAXX  26184 83096 32695 21404 10285 20222 30131 40138 82100 333 59008;
0198830960999992002112700004-10920-037050FM-12+000699999V0201101N002112200019N0020001N1+02611+02101101471ADDAA106000091GF103991031011012501001001KA1240M+03011MA1999999101401MD1999999-0211REMSYN088AAXX  27004 83096 32695 31104 10261 20210 30140 40147 83100 333 10301 29071 55112 59021;EQDQ01  00002PRCP06
0186830960999992002112712004-10920-037050FM-12+000699999V0200901N003612200019N0020001N1+02871+02211101591ADDAA106000091GF102991021011012501001001KA1240N+02301MA1999999101521MD1999999+0021REMSYN076AAXX  27124 83096 32695 20907 10287 20221 30152 40159 82100 333 20230 58002;EQDQ01  00002PRCP06
0167830960999992002112718004-10920-037050FM-12+000699999V0200901N004110120019N0020001N1+02861+02231101301ADDAA106000091GF108991081051012501001001MA1999999101231MD1999999+0081REMSYN070AAXX  27184 83096 32695 80908 10286 20223 30123 40130 88500 333 58008;EQDQ01  00002PRCP06
0198830960999992002112800004-10920-037050FM-12+000699999V0201401N003110120019N0020001N1+02591+02351101441ADDAA106000091GF105991051051012501001001KA1240M+03011MA1999999101371MD1999999+0031REMSYN088AAXX  28004 83096 32695 51406 10259 20235 30137 40144 85500 333 10301 29078 55084 58003;EQDQ01  00002PRCP06
0190830960999992002112812004-10920-037050FM-12+000699999V0200901N004612200019N0020001N1+02851+02261101501ADDAY161061AY261061GF102991021051008001001001KA1240N+02321MA1999999101431MD1999999-0091MW1201REMSYN088AAXX  28124 83096 21595 20909 10285 20226 30143 40150 72066 82500 333 20232 59009 60024;
0148830960999992002112818004-10920-037050FM-12+000699999V0200901N005110450019N0020001N1+02861+02351101271ADDAA106000021GF106991021051012501031011MA1999999101201MD1999999-0031REMSYN070AAXX  28184 83096 32695 60910 10286 20235 30120 40127 82531 333 59003;
0198830960999992002112900004-10920-037050FM-12+000699999V0200901N003612200019N0020001N1+02611+02291101671ADDAA106000091GF101991011011012501001001KA1240M+03051MA1999999101601MD1999999+0231REMSYN088AAXX  29004 83096 32695 10907 10261 20229 30160 40167 81100 333 10305 29078 55081 58023;EQDQ01  00002PRCP06
0186830960999992002112912004-10920-037050FM-12+000699999V0201401N003112200019N0020001N1+02771+02281101591ADDAA106000091GF104991041051012501001001KA1240N+02351MA1999999101521MD1999999+0091REMSYN076AAXX  29124 83096 32695 41406 10277 20228 30152 40159 84500 333 20235 58009;EQDQ01  00002PRCP06
0171830960999992002112918004-10920-037050FM-12+000699999V0200901N003612200019N0020001N1+02891+02181101351ADDAY161061AY261061GF103991031011012501001001MA1999999101281MD1999999+0081MW1201REMSYN082AAXX  29184 83096 21695 30907 10289 20218 30128 40135 72066 83100 333 58008 60021;
0179830960999992002113000004-10920-037050FM-12+000699999V0200901N004112200019N0020001N1+02631+02271101571ADDAA106000021GF102991021011012501001001KA1240M+03001MA1999999101501MD1999999-0101REMSYN088AAXX  30004 83096 32695 20908 10263 20227 30150 40157 82100 333 10300 29076 55040 59010;
0190830960999992002113012004-10920-037050FM-12+000699999V0200901N004110075019N0020001N1+02531+02231101591ADDAY161061AY261061GF106991061051008001001001KA1240N+02331MA1999999101521MD1999999+0001MW1201REMSYN088AAXX  30124 83096 21595 60908 10253 20223 30152 40159 72066 86500 333 20233 58000 69934;
0148830960999992002113018004-10920-037050FM-12+000699999V0200901N003112200019N0020001N1+02791+02301101351ADDAA106000021GF103991031051012501001001MA1999999101281MD1999999+0001REMSYN070AAXX  30184 83096 32695 30906 10279 20230 30128 40135 83500 333 58000;
0202830960999992002120100004-10920-037050FM-12+000699999V0200901N003112200019N0020001N1+02591+02231101471ADDAY161061AY261061GF102991021011012501001001KA1240M+02951MA1999999101401MD1999999-0101MW1201REMSYN100AAXX  01004 83096 21695 20906 10259 20223 30140 40147 72066 82100 333 10295 29080 55045 59010 69921;
0162830960999992002120112004-10920-037050FM-12+000699999V0200901N003112200019N0020001N1+02831+02271101471ADDGF104991041051012501001001KA1240N+02431MA1999999101401MD1999999-0121REMSYN082AAXX  01124 83096 22695 40906 10283 20227 30140 40147 84500 333 20243 59012 69924;
0198830960999992002120200004-10920-037050FM-12+000699999V0200901N002612200019N0020001N1+02591+02271101381ADDAA106000091GF102991021051012501001001KA1240M+02971MA1999999101311MD1999999-0091REMSYN088AAXX  02004 83096 32695 20905 10259 20227 30131 40138 82500 333 10297 29078 55095 59009;EQDQ01  00002PRCP06
0190830960999992002120212004-10920-037050FM-12+000699999V0200901N005112200019N0040001N1+02811+02271101461ADDAY161061AY261061GF102991021011008001001001KA1240N+02301MA1999999101391MD1999999-0011MW1201REMSYN088AAXX  02124 83096 21596 20910 10281 20227 30139 40146 72066 82100 333 20230 59001 60014;
0148830960999992002120218004-10920-037050FM-12+000699999V0200901N005112200019N0020001N1+02831+02261101151ADDAA106000021GF102991021011012501001001MA1999999101081MD1999999-0091REMSYN070AAXX  02184 83096 32695 20910 10283 20226 30108 40115 82100 333 59009;
0198830960999992002120300004-10920-037050FM-12+000699999V0200901N005112200019N0020001N1+02611+02211101361ADDAA106000091GF102991021011012501001001KA1240M+02981MA1999999101271MD1999999-0041REMSYN088AAXX  03004 83096 32695 20910 10261 20221 30127 40136 82100 333 10298 29075 55100 59004;EQDQ01  00002PRCP06
0186830960999992002120312004-10920-037050FM-12+000699999V0200901N004112200019N0020001N1+02851+02331101421ADDAA106000091GF103991011051012501031011KA1240N+02271MA1999999101351MD1999999-0041REMSYN076AAXX  03124 83096 32695 30908 10285 20233 30135 40142 81531 333 20227 59004;EQDQ01  00002PRCP06
0167830960999992002120318004-10920-037050FM-12+000699999V0200901N004612200019N0020001N1+02831+02381101081ADDAA106000091GF102991021051012501001001MA1999999101011MD1999999-0071REMSYN070AAXX  03184 83096 32695 20909 10283 20238 30101 40108 82500 333 59007;EQDQ01  00002PRCP06
0198830960999992002120400004-10920-037050FM-12+000699999V0200901N005112200019N0020001N1+02651+02291101461ADDAA106000091GF101991011011012501001001KA1240M+02981MA1999999101391MD1999999+0121REMSYN088AAXX  04004 83096 32695 10910 10265 20229 30139 40146 81100 333 10298 29078 55116 58012;EQDQ01  00002PRCP06
0186830960999992002120412004-10920-037050FM-12+000699999V0200901N004112200019N0020001N1+02811+02341101471ADDAA106000091GF103991031051012501001001KA1240N+02401MA1999999101401MD1999999+0051REMSYN076AAXX  04124 83096 32695 30908 10281 20234 30140 40147 83500 333 20240 58005;EQDQ01  00002PRCP06
0167830960999992002120418004-10920-037050FM-12+000699999V0200901N005112200019N0020001N1+02891+02391101361ADDAA106000091GF102991021011012501001001MA1999999101291MD1999999+0281REMSYN070AAXX  04184 83096 32695 20910 10289 20239 30129 40136 82100 333 58028;EQDQ01  00002PRCP06
0198830960999992002120500004-10920-037050FM-12+000699999V0200901N004112200019N0020001N1+02651+02311101361ADDAA106000091GF102991021011012501001001KA1240M+03021MA1999999101291MD1999999-0101REMSYN088AAXX  05004 83096 32695 20908 10265 20231 30129 40136 82100 333 10302 29079 55111 59010;EQDQ01  00002PRCP06
0186830960999992002120512004-10920-037050FM-12+000699999V0200901N004112200019N0020001N1+02791+02361101551ADDAA106000091GF102991021011012501001001KA1240N+02331MA1999999101481MD1999999+0081REMSYN076AAXX  05124 83096 32695 20908 10279 20236 30148 40155 82100 333 20233 58008;EQDQ01  00002PRCP06
0167830960999992002120518004-10920-037050FM-12+000699999V0200901N005112200019N0020001N1+02821+02331101261ADDAA106000091GF102991021011012501001001MA1999999101191MD1999999-0101REMSYN070AAXX  05184 83096 32695 20910 10282 20233 30119 40126 82100 333 59010;EQDQ01  00002PRCP06
0198830960999992002120600004-10920-037050FM-12+000699999V0200901N004112200019N0020001N1+02611+02271101431ADDAA106000091GF102991021011012501001001KA1240M+03001MA1999999101361MD1999999+0071REMSYN088AAXX  06004 83096 32695 20908 10261 20227 30136 40143 82100 333 10300 29079 55102 58007;EQDQ01  00002PRCP06
0186830960999992002120612004-10920-037050FM-12+000699999V0200901N003112200019N0020001N1+02831+02151101301ADDAA106000091GF104991021051012501031001KA1240N+02211MA1999999101231MD1999999-0251REMSYN076AAXX  06124 83096 32695 40906 10283 20215 30123 40130 82530 333 20221 59025;EQDQ01  00002PRCP06
0167830960999992002120618004-10920-037050FM-12+000699999V0200901N005112200019N0020001N1+02811+02221100981ADDAA106000091GF101991011011012501001001MA1999999100911MD1999999+0281REMSYN070AAXX  06184 83096 32695 10910 10281 20222 30091 40098 81100 333 58028;EQDQ01  00002PRCP06
0198830960999992002120700004-10920-037050FM-12+000699999V0200901N003112200019N0020001N1+02551+02191101071ADDAA106000091GF101991011011012501001001KA1240M+03021MA1999999101001MD1999999-0361REMSYN088AAXX  07004 83096 32695 10906 10255 20219 30100 40107 81100 333 10302 29075 55113 59036;EQDQ01  00002PRCP06
0186830960999992002120712004-10920-037050FM-12+000699999V0200901N005112200019N0020001N1+02831+02171101091ADDAA106000091GF103991011051012501031011KA1240N+02331MA1999999101021MD1999999-0211REMSYN076AAXX  07124 83096 32695 30910 10283 20217 30102 40109 81531 333 20233 59021;EQDQ01  00002PRCP06
0167830960999992002120718004-10920-037050FM-12+000699999V0200901N004110450019N0020001N1+02811+02291100961ADDAA106000091GF106991021051012501031011MA1999999100891MD1999999-0021REMSYN070AAXX  07184 83096 32695 60908 10281 20229 30089 40096 82531 333 59002;EQDQ01  00002PRCP06
0198830960999992002120800004-10920-037050FM-12+000699999V0200901N005712200019N0020001N1+02611+02351101011ADDAA106000091GF102991021051012501001001KA1240M+03001MA1999999100941MD1999999-0061REMSYN088AAXX  08004 83096 32695 20911 10261 20235 30094 40101 82500 333 10300 29078 55109 59006;EQDQ01  00002PRCP06
0186830960999992002120812004-10920-037050FM-12+000699999V0200501N003110450019N0020001N1+02951+02261101041ADDAA106000091GF106991021051012501031011KA1240N+02471MA1999999100971MD1999999-0051REMSYN076AAXX  08124 83096 32695 60506 10295 20226 30097 40104 82531 333 20247 59005;EQDQ01  00002PRCP06
0167830960999992002120818004-10920-037050FM-12+000699999V0200901N005112200019N0020001N1+02831+02561100741ADDAA106000091GF101991011011012501001001MA1999999100671MD1999999-0221REMSYN070AAXX  08184 83096 32695 10910 10283 20256 30067 40074 81100 333 59022;EQDQ01  00002PRCP06
0198830960999992002120900004-10920-037050FM-12+000699999V0202201N001012200019N0020001N1+02651+02031101031ADDAA106000091GF101991011051012501001001KA1240M+03091MA1999999100961MD1999999+0021REMSYN088AAXX  09004 83096 32695 12202 10265 20203 30096 40103 81500 333 10309 29076 55060 58002;EQDQ01  00002PRCP06
0186830960999992002120912004-10920-037050FM-12+000699999V0200901N002612200019N0020001N1+02891+02351101171ADDAA106000091GF103991031011017501001001KA1240N+02471MA1999999101101MD1999999+0131REMSYN076AAXX  09124 83096 32795 30905 10289 20235 30110 40117 83100 333 20247 58013;EQDQ01  00002PRCP06
0167830960999992002120918004-10920-037050FM-12+000699999V0200901N005112200019N0020001N1+02911+02501101021ADDAA106000091GF102991021011012501001001MA1999999100951MD1999999+0281REMSYN070AAXX  09184 83096 32695 20910 10291 20250 30095 40102 82100 333 58028;EQDQ01  00002PRCP06
0198830960999992002121000004-10920-037050FM-12+000699999V0200901N003112200019N0020001N1+02671+02411101251ADDAA106000091GF102991021011017501001001KA1240M+03121MA1999999101181MD1999999+0221REMSYN088AAXX  10004 83096 32795 20906 10267 20241 30118 40125 82100 333 10312 29080 55100 58022;EQDQ01  00002PRCP06
0186830960999992002121012004-10920-037050FM-12+000699999V0200901N004112200019N0020001N1+02911+02411101541ADDAA106000091GF102991021011012501001001KA1240N+02301MA1999999101471MD1999999+0371REMSYN076AAXX  10124 83096 32695 20908 10291 20241 30147 40154 82100 333 20230 58037;EQDQ01  00002PRCP06
0167830960999992002121018004-10920-037050FM-12+000699999V0200901N005112200019N0020001N1+02871+02411101351ADDAA106000091GF102991021011012501001001MA1999999101281MD1999999+0331REMSYN070AAXX  10184 83096 32695 20910 10287 20241 30128 40135 82100 333 58033;EQDQ01  00002PRCP06
0198830960999992002121100004-10920-037050FM-12+000699999V0200901N005112200019N0020001N1+02651+02441101591ADDAA106000091GF102991021011012501001001KA1240M+03031MA1999999101521MD1999999+0341REMSYN088AAXX  11004 83096 32695 20910 10265 20244 30152 40159 82100 333 10303 29082 55106 58034;EQDQ01  00002PRCP06
0186830960999992002121112004-10920-037050FM-12+000699999V0200901N004612200019N0020001N1+02831+02381101681ADDAA106000091GF102991011011012501001011KA1240N+02331MA1999999101611MD1999999+0141REMSYN076AAXX  11124 83096 32695 20909 10283 20238 30161 40168 81101 333 20233 58014;EQDQ01  00002PRCP06
0167830960999992002121118004-10920-037050FM-12+000699999V0200901N003612200019N0020001N1+02811+02401101381ADDAA106000091GF101991011051012501001001MA1999999101311MD1999999+0031REMSYN070AAXX  11184 83096 32695 10907 10281 20240 30131 40138 81500 333 58003;EQDQ01  00002PRCP06
0198830960999992002121200004-10920-037050FM-12+000699999V0200901N004612200019N0020001N1+02611+02351101581ADDAA106000091GF101991011011012501001001KA1240M+03031MA1999999101511MD1999999-0011REMSYN088AAXX  12004 83096 32695 10909 10261 20235 30151 40158 81100 333 10303 29082 55106 59001;EQDQ01  00002PRCP06
0186830960999992002121212004-10920-037050FM-12+000699999V0200901N003112200019N0020001N1+02811+02271101571ADDAA106000091GF102991021011012501001001KA1240N+02451MA1999999101501MD1999999-0111REMSYN076AAXX  12124 83096 32695 20906 10281 20227 30150 40157 82100 333 20245 59011;EQDQ01  00002PRCP06
0167830960999992002121218004-10920-037050FM-12+000699999V0200901N005112200019N0020001N1+02891+02281101381ADDAA106000091GF102991021011012501001001MA1999999101311MD1999999+0001REMSYN070AAXX  12184 83096 32695 20910 10289 20228 30131 40138 82100 333 58000;EQDQ01  00002PRCP06
0214830960999992002121300004-10920-037050FM-12+000699999V0200901N004119999999N0020001N1+02631+02311101471ADDAA106000091GF106991999051012501001001KA1240M+03011MA1999999101401MD1999999-0111REMSYN088AAXX  13004 83096 32695 60908 10263 20231 30140 40147 83500 333 10301 29077 55111 59011;EQDQ01+000032SCOTLCQ02  00002PRCP06
0186830960999992002121312004-10920-037050FM-12+000699999V0200901N005112200019N0020001N1+02851+02311101681ADDAA106000091GF102991021011012501001001KA1240N+02331MA1999999101611MD1999999+0111REMSYN076AAXX  13124 83096 32695 20910 10285 20231 30161 40168 82100 333 20233 58011;EQDQ01  00002PRCP06
0167830960999992002121318004-10920-037050FM-12+000699999V0200901N005112200019N0020001N1+02891+02301101321ADDAA106000091GF101991011011012501001001MA1999999101251MD1999999-0061REMSYN070AAXX  13184 83096 32695 10910 10289 20230 30125 40132 81100 333 59006;EQDQ01  00002PRCP06
0198830960999992002121400004-10920-037050FM-12+000699999V0200901N005112200019N0020001N1+02651+02311101431ADDAA106000091GF101991011011012501001001KA1240M+03061MA1999999101361MD1999999-0041REMSYN088AAXX  14004 83096 32695 10910 10265 20231 30136 40143 81100 333 10306 29076 55109 59004;EQDQ01  00002PRCP06
0186830960999992002121412004-10920-037050FM-12+000699999V0200901N002610120019N0020001N1+02711+02391101561ADDAA106000091GF106991061011012501001001KA1240N+02371MA1999999101491MD1999999-0121REMSYN076AAXX  14124 83096 32695 60905 10271 20239 30149 40156 86100 333 20237 59012;EQDQ01  00002PRCP06
0167830960999992002121418004-10920-037050FM-12+000699999V0200901N004112200019N0020001N1+02831+02381101321ADDAA106000091GF101991011011012501001001MA1999999101251MD1999999+0001REMSYN070AAXX  14184 83096 32695 10908 10283 20238 30125 40132 81100 333 58000;EQDQ01  00002PRCP06
0198830960999992002121500004-10920-037050FM-12+000699999V0200901N005112200019N0020001N1+02651+02411101571ADDAA106000091GF101991011011012501001001KA1240M+03081MA1999999101501MD1999999+0141REMSYN088AAXX  15004 83096 32695 10910 10265 20241 30150 40157 81100 333 10308 29082 55092 58014;EQDQ01  00002PRCP06
0190830960999992002121512004-10920-037050FM-12+000699999V0200901N004112200019N0020001N1+02871+02351101571ADDAY161061AY261061GF101991011011012501001001KA1240N+02331MA1999999101501MD1999999+0011MW1201REMSYN088AAXX  15124 83096 21695 10908 10287 20235 30150 40157 72066 81100 333 20233 58001 69944;
0148830960999992002121518004-10920-037050FM-12+000699999V0200901N005112200019N0020001N1+02851+02371101311ADDAA106000021GF101991011011012501001001MA1999999101241MD1999999-0011REMSYN070AAXX  15184 83096 32695 10910 10285 20237 30124 40131 81100 333 59001;
0198830960999992002121600004-10920-037050FM-12+000699999V0200901N003112200019N0020001N1+02651+02371101581ADDAA106000091GF101991011011012501001001KA1240M+03021MA1999999101511MD1999999+0011REMSYN088AAXX  16004 83096 32695 10906 10265 20237 30151 40158 81100 333 10302 29079 55097 58001;EQDQ01  00002PRCP06
0186830960999992002121612004-10920-037050FM-12+000699999V0200901N002612200019N0020001N1+02871+02281101471ADDAA106000091GF102991021051012501001001KA1240N+02301MA1999999101401MD1999999-0101REMSYN076AAXX  16124 83096 32695 20905 10287 20228 30140 40147 82500 333 20230 59010;EQDQ01  00002PRCP06
0167830960999992002121618004-10920-037050FM-12+000699999V0200901N004612200019N0020001N1+02831+02331101131ADDAA106000091GF101991011011012501001001MA1999999101061MD1999999-0181REMSYN070AAXX  16184 83096 32695 10909 10283 20233 30106 40113 81100 333 59018;EQDQ01  00002PRCP06
0198830960999992002121700004-10920-037050FM-12+000699999V0200901N005112200019N0020001N1+02631+02271101291ADDAA106000091GF101991011011012501001001KA1240M+03031MA1999999101221MD1999999-0291REMSYN088AAXX  17004 83096 32695 10910 10263 20227 30122 40129 81100 333 10303 29078 55114 59029;EQDQ01  00002PRCP06
0190830960999992002121712004-10920-037050FM-12+000699999V0200901N003612200019N0020001N1+02831+02331101371ADDAY161061AY261061GF102991021011012501001001KA1240N+02451MA1999999101301MD1999999-0101MW1201REMSYN088AAXX  17124 83096 21695 20907 10283 20233 30130 40137 72066 82100 333 20245 59010 69984;
0148830960999992002121718004-10920-037050FM-12+000699999V0200901N004112200019N0020001N1+02851+02261101131ADDAA106000021GF102991021011012501001001MA1999999101061MD1999999+0001REMSYN070AAXX  17184 83096 32695 20908 10285 20226 30106 40113 82100 333 58000;
0198830960999992002121800004-10920-037050FM-12+000699999V0200901N002612200019N0020001N1+02671+02351101271ADDAA106000091GF103991031051012501001001KA1240M+03011MA1999999101201MD1999999-0021REMSYN088AAXX  18004 83096 32695 30905 10267 20235 30120 40127 83500 333 10301 29078 55116 59002;EQDQ01  00002PRCP06
0186830960999992002121812004-10920-037050FM-12+000699999V0200901N003112200019N0020001N1+02731+02361101351ADDAA106000091GF103991031011012501001001KA1240N+02341MA1999999101281MD1999999-0021REMSYN076AAXX  18124 83096 32695 30906 10273 20236 30128 40135 83100 333 20234 59002;EQDQ01  00002PRCP06
0167830960999992002121818004-10920-037050FM-12+000699999V0200901N004112200019N0020001N1+02871+02371101111ADDAA106000091GF103991031011012501001001MA1999999101041MD1999999-0021REMSYN070AAXX  18184 83096 32695 30908 10287 20237 30104 40111 83100 333 59002;EQDQ01  00002PRCP06
0198830960999992002121900004-10920-037050FM-12+000699999V0200901N005112200019N0020001N1+02661+02311101331ADDAA106000091GF101991011011012501001001KA1240M+03091MA1999999101261MD1999999+0061REMSYN088AAXX  19004 83096 32695 10910 10266 20231 30126 40133 81100 333 10309 29079 55063 58006;EQDQ01  00002PRCP06
0186830960999992002121912004-10920-037050FM-12+000699999V0200901N004612200019N0020001N1+02871+02391101401ADDAA106000091GF101991011011012501001001KA1240N+02351MA1999999101331MD1999999+0051REMSYN076AAXX  19124 83096 32695 10909 10287 20239 30133 40140 81100 333 20235 58005;EQDQ01  00002PRCP06
0167830960999992002121918004-10920-037050FM-12+000699999V0200901N004612200019N0020001N1+02891+02301101321ADDAA106000091GF101991011011012501001001MA1999999101251MD1999999+0211REMSYN070AAXX  19184 83096 32695 10909 10289 20230 30125 40132 81100 333 58021;EQDQ01  00002PRCP06
0198830960999992002122000004-10920-037050FM-12+000699999V0201401N003112200019N0020001N1+02671+02431101551ADDAA106000091GF101991011011012501001001KA1240M+03071MA1999999101481MD1999999+0221REMSYN088AAXX  20004 83096 32695 11406 10267 20243 30148 40155 81100 333 10307 29080 55111 58022;EQDQ01  00002PRCP06
0186830960999992002122012004-10920-037050FM-12+000699999V0201401N002612200019N0020001N1+02791+02251101661ADDAA106000091GF103991031051012501001001KA1240N+02361MA1999999101591MD1999999+0261REMSYN076AAXX  20124 83096 32695 31405 10279 20225 30159 40166 83500 333 20236 58026;EQDQ01  00002PRCP06
0167830960999992002122018004-10920-037050FM-12+000699999V0200901N003112200019N0020001N1+02931+02241101421ADDAA106000091GF102991021011012501001001MA1999999101351MD1999999+0101REMSYN070AAXX  20184 83096 32695 20906 10293 20224 30135 40142 82100 333 58010;EQDQ01  00002PRCP06
0198830960999992002122100004-10920-037050FM-12+000699999V0200901N002612200019N0020001N1+02651+02291101371ADDAA106000091GF103991031011012501001001KA1240M+03011MA1999999101301MD1999999-0181REMSYN088AAXX  21004 83096 32695 30905 10265 20229 30130 40137 83100 333 10301 29075 55114 59018;EQDQ01  00002PRCP06
0186830960999992002122112004-10920-037050FM-12+000699999V0200901N003112200019N0020001N1+02871+02211101671ADDAA106000091GF102991021011012501001001KA1240N+02361MA1999999101601MD1999999+0011REMSYN076AAXX  21124 83096 32695 20906 10287 20221 30160 40167 82100 333 20236 58001;EQDQ01  00002PRCP06
0167830960999992002122118004-10920-037050FM-12+000699999V0201401N002612200019N0020001N1+02891+02211101321ADDAA106000091GF102991021011012501001001MA1999999101251MD1999999-0101REMSYN070AAXX  21184 83096 32695 21405 10289 20221 30125 40132 82100 333 59010;EQDQ01  00002PRCP06
0198830960999992002122200004-10920-037050FM-12+000699999V0200901N004112200019N0020001N1+02671+02221101371ADDAA106000091GF102991021011012501001001KA1240M+03011MA1999999101301MD1999999+0001REMSYN088AAXX  22004 83096 32695 20908 10267 20222 30130 40137 82100 333 10301 29072 55119 58000;EQDQ01  00002PRCP06
0214830960999992002122300004-10920-037050FM-12+000699999V0200901N003612200019N0020001N1+02691+02391101271ADDAA106000091GF104991999051012501001001KA1240M+03061MA1999999101201MD1999999-0101REMSYN088AAXX  23004 83096 32695 40907 10269 20239 30120 40127 83500 333 10306 29075 55106 59010;EQDQ01+000032SCOTLCQ02  00002PRCP06
0186830960999992002122312004-10920-037050FM-12+000699999V0200901N003112200019N0020001N1+02911+02341101281ADDAA106000091GF102991021011012501001001KA1240N+02361MA1999999101211MD1999999-0091REMSYN076AAXX  23124 83096 32695 20906 10291 20234 30121 40128 82100 333 20236 59009;EQDQ01  00002PRCP06
0167830960999992002122318004-10920-037050FM-12+000699999V0200901N003112200019N0020001N1+02951+02281101091ADDAA106000091GF101991011011012501001001MA1999999101021MD1999999-0221REMSYN070AAXX  23184 83096 32695 10906 10295 20228 30102 40109 81100 333 59022;EQDQ01  00002PRCP06
0198830960999992002122400004-10920-037050FM-12+000699999V0200901N004112200019N0020001N1+02711+02431101321ADDAA106000091GF101991011011012501001001KA1240M+03101MA1999999101251MD1999999+0051REMSYN088AAXX  24004 83096 32695 10908 10271 20243 30125 40132 81100 333 10310 29077 55108 58005;EQDQ01  00002PRCP06
0186830960999992002122412004-10920-037050FM-12+000699999V0200501N004112200019N0020001N1+02931+02341101301ADDAA106000091GF101991011011012501001001KA1240N+02351MA1999999101231MD1999999+0021REMSYN076AAXX  24124 83096 32695 10508 10293 20234 30123 40130 81100 333 20235 58002;EQDQ01  00002PRCP06
0167830960999992002122418004-10920-037050FM-12+000699999V0200901N005112200019N0020001N1+02911+02481100991ADDAA106000091GF105991011011012501001011MA1999999100921MD1999999-0101REMSYN070AAXX  24184 83096 32695 50910 10291 20248 30092 40099 81101 333 59010;EQDQ01  00002PRCP06
0198830960999992002122500004-10920-037050FM-12+000699999V0200901N005112200019N0020001N1+02691+02431101141ADDAA106000091GF101991011011012501001001KA1240M+03091MA1999999101071MD1999999-0181REMSYN088AAXX  25004 83096 32695 10910 10269 20243 30107 40114 81100 333 10309 29080 55113 59018;EQDQ01  00002PRCP06
0186830960999992002122512004-10920-037050FM-12+000699999V0200901N002612200019N0020001N1+03091+02371101191ADDAA106000091GF103991031011012501001001KA1240N+02451MA1999999101121MD1999999-0111REMSYN076AAXX  25124 83096 32695 30905 10309 20237 30112 40119 83100 333 20245 59011;EQDQ01  00002PRCP06
0167830960999992002122518004-10920-037050FM-12+000699999V0200901N002612200019N0020001N1+02931+02501100841ADDAA106000091GF101991011011012501001001MA1999999100771MD1999999-0151REMSYN070AAXX  25184 83096 32695 10905 10293 20250 30077 40084 81100 333 59015;EQDQ01  00002PRCP06
0198830960999992002122600004-10920-037050FM-12+000699999V0200901N002112200019N0020001N1+02831+02401101071ADDAA106000091GF102991021011012501001001KA1240M+03101MA1999999101001MD1999999-0071REMSYN088AAXX  26004 83096 32695 20904 10283 20240 30100 40107 82100 333 10310 29075 55105 59007;EQDQ01  00002PRCP06
0190830960999992002122612004-10920-037050FM-12+000699999V0200301N002610120019N0020001N1+02631+02481101351ADDAY161061AY261061GF106991061051012501001001KA1240N+02411MA1999999101281MD1999999+0161MW1201REMSYN088AAXX  26124 83096 21695 60305 10263 20248 30128 40135 72066 86500 333 20241 58016 69984;
0148830960999992002122618004-10920-037050FM-12+000699999V0200501N004110120019N0020001N1+02611+02311101111ADDAA106000021GF106991061051012501001001MA1999999101041MD1999999+0271REMSYN070AAXX  26184 83096 32695 60508 10261 20231 30104 40111 86500 333 58027;
0202830960999992002122700004-10920-037050FM-12+000699999V0200501N001510120019N0020001N1+02471+02361101351ADDAY161061AY261061GF106991061051012501001001KA1240M+03051MA1999999101281MD1999999+0281MW1201REMSYN100AAXX  27004 83096 21695 60503 10247 20236 30128 40135 72066 86500 333 10305 29090 55001 58028 60011;
0190830960999992002122712004-10920-037050FM-12+000699999V0203201N001010075019N0010001N1+02611+02291101521ADDAY161061AY261061GF108991081051008001999999KA1240N+02371MA1999999101451MD1999999+0171MW1201REMSYN088AAXX  27124 83096 21594 83202 10261 20229 30145 40152 72066 885// 333 20237 58017 60014;
0148830960999992002122718004-10920-037050FM-12+000699999V0202701N001510120019N0020001N1+02611+02251101361ADDAA106000021GF108991081051012501999999MA1999999101291MD1999999+0251REMSYN070AAXX  27184 83096 32695 82703 10261 20225 30129 40136 885// 333 58025;
0198830960999992002122800004-10920-037050FM-12+000699999V0200501N001510120019N0020001N1+02551+02131101361ADDAA106000091GF106991061051012501001001KA1240M+03021MA1999999101291MD1999999+0011REMSYN088AAXX  28004 83096 32695 60503 10255 20213 30129 40136 86500 333 10302 29080 55000 58001;EQDQ01  00002PRCP06
0186830960999992002122812004-10920-037050FM-12+000699999V0203601N004110120019N0020001N1+02701+02411101351ADDAA106000091GF107991071051012501001001KA1240N+02371MA1999999101281MD1999999-0171REMSYN076AAXX  28124 83096 32695 73608 10270 20241 30128 40135 87500 333 20237 59017;EQDQ01  00002PRCP06
0167830960999992002122818004-10920-037050FM-12+000699999V0200901N004610450019N0020001N1+02811+02401101151ADDAA106000091GF107991041051012501031001MA1999999101081MD1999999-0211REMSYN070AAXX  28184 83096 32695 70909 10281 20240 30108 40115 84530 333 59021;EQDQ01  00002PRCP06
0186830960999992002122912004-10920-037050FM-12+000699999V0200901N005112200019N0020001N1+02871+02351101411ADDAA106000091GF101991011011012501001001KA1240N+02421MA1999999101341MD1999999+0061REMSYN076AAXX  29124 83096 32695 10910 10287 20235 30134 40141 81100 333 20242 58006;EQDQ01  00002PRCP06
0167830960999992002122918004-10920-037050FM-12+000699999V0200901N006210450019N0020001N1+02821+02401101161ADDAA106000091GF106991041051012501031001MA1999999101091MD1999999+0011REMSYN070AAXX  29184 83096 32695 60912 10282 20240 30109 40116 84530 333 58001;EQDQ01  00002PRCP06
0198830960999992002123000004-10920-037050FM-12+000699999V0200901N005112200019N0020001N1+02601+02291101471ADDAA106000091GF101991011011012501001001KA1240M+03051MA1999999101401MD1999999+0221REMSYN088AAXX  30004 83096 32695 10910 10260 20229 30140 40147 81100 333 10305 29080 55112 58022;EQDQ01  00002PRCP06
0186830960999992002123012004-10920-037050FM-12+000699999V0200901N002612200019N0020001N1+02851+02351101491ADDAA106000091GF103991031011012501001001KA1240N+02441MA1999999101421MD1999999+0081REMSYN076AAXX  30124 83096 32695 30905 10285 20235 30142 40149 83100 333 20244 58008;EQDQ01  00002PRCP06
0167830960999992002123018004-10920-037050FM-12+000699999V0200901N004112200019N0020001N1+02811+02421101401ADDAA106000091GF102991021011012501001001MA1999999101331MD1999999+0241REMSYN070AAXX  30184 83096 32695 20908 10281 20242 30133 40140 82100 333 58024;EQDQ01  00002PRCP06
0198830960999992002123100004-10920-037050FM-12+000699999V0200901N004112200019N0020001N1+02651+02311101471ADDAA106000091GF101991011011012501001001KA1240M+03021MA1999999101401MD1999999+0001REMSYN088AAXX  31004 83096 32695 10908 10265 20231 30140 40147 81100 333 10302 29080 55117 58000;EQDQ01  00002PRCP06
0186830960999992002123112004-10920-037050FM-12+000699999V0200901N003112200019N0020001N1+02891+02271101591ADDAA106000091GF102991021011012501001001KA1240N+02411MA1999999101521MD1999999+0101REMSYN076AAXX  31124 83096 32695 20906 10289 20227 30152 40159 82100 333 20241 58010;EQDQ01  00002PRCP06
0167830960999992002123118004-10920-037050FM-12+000699999V0200901N003112200019N0020001N1+02851+02391101301ADDAA106000091GF102991021011012501001001MA1999999101231MD1999999-0101REMSYN070AAXX  31184 83096 32695 20906 10285 20239 30123 40130 82100 333 59010;EQDQ01  00002PRCP06
