0198831820999992002010100004-11290-041860FM-12+074799999V0200501N003610450019N0010001N1+02121+01981101191ADDAA199000091GF108991021061004501071999KA1240M+02661MA1999999092831MD1999999-0121REMSYN088AAXX  01004 83182 32494 80507 10212 20198 39283 40119 8267/ 333 10266 29084 55018 59012;EQDQ01  00002PRCP99
0201831820999992002010112004-11290-041860FM-12+074799999V0200901N001510042019N0100001N1+02271+02001101341ADDAA124002091AY161061AY221061GF108991061071004501021999KA1240N+02011MA1999999092981MD1999999+0051MW1021REMSYN088AAXX  01124 83182 21497 80903 10227 20200 39298 40134 70262 8672/ 333 20201 58005 60024;
0168831820999992002010118004-11290-041860FM-12+074799999V0203201N002110450019N0100001N1+02901+01951100781ADDAA199000091GF108991021031008001061011MD1999999-0081REMSYN070AAXX  01184 83182 32597 83204 10290 20195 30249 40078 82361 333 59008;EQDQ01+102493APOSP Q02  00002PRCP99
0198831820999992002010200004-11290-041860FM-12+074799999V0202701N001010042019N0020001N1+02441+02031101031ADDAA199000091GF108991051071004501021999KA1240M+02881MA1999999092731MD1999999-0101REMSYN088AAXX  02004 83182 32495 82702 10244 20203 39273 40103 8572/ 333 10288 29075 55051 59010;EQDQ01  00002PRCP99
0201831820999992002010212004-11290-041860FM-12+074799999V02099999999990450019N0020001N1+02061+02031101211ADDAA124021191AY161061AY221061GF108991031071004501021999KA1240N+01991MA1999999092871MD1999999-0111MW1611REMSYN088AAXX  02124 83182 21495 832// 10206 20203 39287 40121 76162 8372/ 333 20199 59011 60214;
0182831820999992002010218004-11290-041860FM-12+074799999V0203601N003110042019N0020001N1+02411+02201100801ADDAA106002091AY161061AY221061GF108991061071004501021999MA1999999092491MD1999999+0001MW1211REMSYN082AAXX  02184 83182 21495 83606 10241 20220 39249 40080 72162 8672/ 333 58000 60021;
0213831820999992002010300004-11290-041860FM-12+074799999V0203601N003110042019N0005001N1+02041+01991101241ADDAA106019191AY161061AY261061GF108991051071004501021999KA1240M+02651MA1999999092861MD1999999+0131MW1281REMSYN100AAXX  03004 83182 21493 83606 10204 20199 39286 40124 72866 8572/ 333 10265 29095 55019 58013 60191;
0201831820999992002010312004-11290-041860FM-12+074799999V0203601N004110042019N0040001N1+02101+01951101271ADDAA124021191AY161061AY221061GF108991061071004501021999KA1240N+01971MA1999999092891MD1999999+0021MW1021REMSYN088AAXX  03124 83182 21496 83608 10210 20195 39289 40127 70262 8672/ 333 20197 58002 60214;
0182831820999992002010318004-11290-041860FM-12+074799999V0203201N004110450019N0100001N1+02501+02051100841ADDAA106003091AY161061AY261061GF108991021021008001011999MA1999999092541MD1999999+0051MW1021REMSYN082AAXX  03184 83182 21597 83208 10250 20205 39254 40084 70266 8221/ 333 58005 60031;
0213831820999992002010400004-11290-041860FM-12+074799999V0203601N003110042019N0005001N1+02121+02071101231ADDAA106007191AY121061AY221061GF108991051071004501021999KA1240M+02551MA1999999092861MD1999999+0001MW1611REMSYN100AAXX  04004 83182 21493 83606 10212 20207 39286 40123 76122 8572/ 333 10255 29090 55004 58000 60071;
0201831820999992002010412004-11290-041860FM-12+074799999V0203201N003610042019N0002001N1+02121+02071101301ADDAA124032091AY161061AY261061GF108991081071004501999999KA1240N+01991MA1999999092931MD1999999+0041MW1611REMSYN088AAXX  04124 83182 21492 83207 10212 20207 39293 40130 76166 887// 333 20199 58004 60324;
0182831820999992002010418004-11290-041860FM-12+074799999V0202701N005710450019N0100001N1+02251+02021101031ADDAA106021191AY161061AY261061GF108991031061004501011999MA1999999092671MD1999999+0131MW1021REMSYN082AAXX  04184 83182 21497 82711 10225 20202 39267 40103 70266 8361/ 333 58013 60211;
0213831820999992002010500004-11290-041860FM-12+074799999V0209999C000010042019N0002001N1+01971+01941101401ADDAA106011991AY161061AY261061GF108991081071004501999999KA1240M+02391MA1999999093011MD1999999+0151MW1611REMSYN100AAXX  05004 83182 21492 80000 10197 20194 39301 40140 76166 887// 333 10239 29095 55001 58015 60121;
0201831820999992002010512004-11290-041860FM-12+074799999V0203601N000510042019N0002001N1+02061+02011101521ADDAA124048091AY161061AY261061GF108991081071004501999999KA1240N+01921MA1999999093111MD1999999+0181MW1611REMSYN088AAXX  05124 83182 21492 83601 10206 20201 39311 40152 76166 887// 333 20192 58018 60484;
0182831820999992002010518004-11290-041860FM-12+074799999V0203201N002110450019N0100001N1+02351+02061101101ADDAA106004191AY161061AY261061GF108991041021008001051011MA1999999092721MD1999999+0051MW1611REMSYN082AAXX  05184 83182 21597 83204 10235 20206 39272 40110 76166 84251 333 58005 60041;
0179831820999992002010600004-11290-041860FM-12+074799999V0203201N000510075019N0010001N1+02061+01991101301ADDAA199000021GF108991051021008001051011KA1240M+02451MA1999999092921MD1999999-0091REMSYN088AAXX  06004 83182 32594 83201 10206 20199 39292 40130 85251 333 10245 29093 55005 59009;
0173831820999992002010612004-11290-041860FM-12+074799999V0201801N001510450019N0200001N1+02551+02011101141ADDAA124005191GF108991011021008001031011KA1240N+02031MA1999999092821MD1999999-0291REMSYN082AAXX  06124 83182 22598 81803 10255 20201 39282 40114 81231 333 20203 59029 60054;
0195831820999992002010618004-11290-041860FM-12+074799999V0202701N003110450019N0100001N1+02711+02161100761ADDAA199000091AY121061AY221061GF108991031031004501031021MA1999999092471MD1999999-0251MW1151REMSYN076AAXX  06184 83182 31497 82706 10271 20216 39247 40076 71522 83332 333 59025;EQDQ01  00002PRCP99
0213831820999992002010700004-11290-041860FM-12+074799999V0203601N002110042019N0010001N1+02161+02091101141ADDAA106003091AY161061AY221061GF108991051071004501021999KA1240M+02741MA1999999092831MD1999999-0091MW1211REMSYN100AAXX  07004 83182 21494 83604 10216 20209 39283 40114 72162 8572/ 333 10274 29084 55078 59009 60031;
0201831820999992002010712004-11290-041860FM-12+074799999V0203601N004110042019N0040001N1+02121+02051101261ADDAA124022191AY161061AY261061GF108991061071004501021999KA1240N+01961MA1999999092901MD1999999+0081MW1211REMSYN088AAXX  07124 83182 21496 83608 10212 20205 39290 40126 72166 8672/ 333 20196 58008 60224;
0148831820999992002010718004-11290-041860FM-12+074799999V0203201N004610075019N0100001N1+02581+02101100801ADDAA199000021GF108991051031008001061021MA1999999092501MD1999999+0031REMSYN070AAXX  07184 83182 32597 83209 10258 20210 39250 40080 85362 333 58003;
0213831820999992002010800004-11290-041860FM-12+074799999V0200501N003110042019N0005001N1+02111+01941101261ADDAA106041991AY121061AY261061GF108991061071004501021999KA1240M+02621MA1999999092891MD1999999+0061MW1611REMSYN100AAXX  08004 83182 21493 80506 10211 20194 39289 40126 76126 8672/ 333 10262 29088 55041 58006 60421;
0201831820999992002010812004-11290-041860FM-12+074799999V0200901N006710075019N0100001N1+02301+01941101351ADDAA124052191AY161061AY261061GF108991051021008001051011KA1240N+01891MA1999999092991MD1999999+0091MW1021REMSYN088AAXX  08124 83182 21597 80913 10230 20194 39299 40135 70266 85251 333 20189 58009 60524;
0167831820999992002010818004-11290-041860FM-12+074799999V0200901N003610450019N0100001N1+02701+01911100961ADDAA199000091GF108991021021008001041011MA1999999092671MD1999999+0171REMSYN070AAXX  08184 83182 32597 80907 10270 20191 39267 40096 82241 333 58017;EQDQ01  00002PRCP99
0198831820999992002010900004-11290-041860FM-12+074799999V0200901N003610450019N0010001N1+02261+01841101261ADDAA199000091GF108991041051008001061011KA1240M+02741MA1999999092931MD1999999+0041REMSYN088AAXX  09004 83182 32594 80907 10226 20184 39293 40126 84561 333 10274 29074 55068 58004;EQDQ01  00002PRCP99
0186831820999992002010912004-11290-041860FM-12+074799999V0200901N004110075019N0100001N1+02401+01821101441ADDAA199000091GF108991051021008001041021KA1240N+01921MA1999999093081MD1999999+0091REMSYN076AAXX  09124 83182 32597 80908 10240 20182 39308 40144 85242 333 20192 58009;EQDQ01  00002PRCP99
0167831820999992002010918004-11290-041860FM-12+074799999V0200901N006212200019N0100001N1+02821+01801101061ADDAA199000091GF108991021021008001001011MA1999999092781MD1999999+0111REMSYN070AAXX  09184 83182 32597 80912 10282 20180 39278 40106 82201 333 58011;EQDQ01  00002PRCP99
0198831820999992002011000004-11290-041860FM-12+074799999V0200901N005112200019N0020001N1+02241+01801101371ADDAA199000091GF108991021001017501041011KA1240M+02861MA1999999093031MD1999999+0101REMSYN088AAXX  10004 83182 32795 80910 10224 20180 39303 40137 82041 333 10286 29069 55065 58010;EQDQ01  00002PRCP99
0186831820999992002011012004-11290-041860FM-12+074799999V0200901N004610075019N0200001N1+02241+01841101601ADDAA199000091GF108991061021008001001011KA1240N+01851MA1999999093231MD1999999+0151REMSYN076AAXX  10124 83182 32598 80909 10224 20184 39323 40160 86201 333 20185 58015;EQDQ01  00002PRCP99
0137831820999992002011018004-11290-041860FM-12+074799999V0200901N006219999999N0200001N1+02761+01911999999ADDAA199000091GF108991999999008001999999REMSYN069AAXX  10184 83182 32598 80912 10276 20191 3926 40119 86251 333 58008;EQDQ01  00002PRCP99
0198831820999992002011100004-11290-041860FM-12+074799999V0200901N008012200019N0010001N1+02151+01921101591ADDAA199000091GF108991021021008001001011KA1240M+02821MA1999999093211MD1999999+0181REMSYN088AAXX  11000 83182 32594 80908 10215 20192 39321 40159 82201 333 10282 29078 55069 58018;EQDQ01  00002PRCP99
0201831820999992002011112004-11290-041860FM-12+074799999V02099999999990075019N9999999N1+02341+01931101691ADDAA124000191AY161061AY221061GF108991051021008001001021KA1240N+01911MA1999999093311MD1999999+0081MW1021REMSYN088AAXX  11124 83182 2159/ 809// 10234 20193 39331 40169 70262 85202 333 20191 58008 69924;
0195831820999992002011118004-11290-041860FM-12+074799999V0200501N003110450019N0005001N1+02631+01921101411ADDAA199000091AY121061AY221061GF108991041061004501021011MA1999999093021MD1999999+0161MW1161REMSYN076AAXX  11184 83182 31493 80506 10263 20192 39302 40141 71622 84621 333 58016;EQDQ01  00002PRCP99
0213831820999992002011200004-11290-041860FM-12+074799999V0201401N002610450019N0010001N1+02171+01941101661ADDAA106004191AY161061AY221061GF108991031021008001011999KA1240M+02861MA1999999093281MD1999999+0071MW1021REMSYN100AAXX  12004 83182 21594 81405 10217 20194 39328 40166 70262 8321/ 333 10286 29079 55064 58007 60041;
0201831820999992002011212004-11290-041860FM-12+074799999V0200901N006210075019N0200001N1+02331+01991101691ADDAA124006191AY161061AY221061GF108991071021008001001011KA1240N+01961MA1999999093311MD1999999+0001MW1021REMSYN088AAXX  12124 83182 21598 80912 10233 20199 39331 40169 70262 87201 333 20196 58000 60064;
0167831820999992002011218004-11290-041860FM-12+074799999V0200901N004611050019N0200001N1+02821+01911101271ADDAA199000091GF106991041021008001001021MA1999999092891MD1999999-0131REMSYN070AAXX  12184 83182 32598 60909 10282 20191 39289 40127 84202 333 59013;EQDQ01  00002PRCP99
0213831820999992002011300004-11290-041860FM-12+074799999V0200901N003112200019N0010001N1+02301+01831101431ADDAA106000591AY161061AY221061GF106991011021008001001011KA1240M+02901MA1999999093081MD1999999-0201MW1031REMSYN100AAXX  13004 83182 21594 60906 10230 20183 39308 40143 70362 81201 333 10290 29072 55085 59020 69951;
0173831820999992002011312004-11290-041860FM-12+074799999V0200901N003110075019N0200001N1+02231+01871101551ADDAA124000591GF108991081051008001999999KA1240N+01841MA1999999093181MD1999999-0131REMSYN082AAXX  13124 83182 22598 80906 10223 20187 39318 40155 885// 333 20184 59013 69954;
0167831820999992002011318004-11290-041860FM-12+074799999V0201401N002612200019N0100001N1+02921+01741101161ADDAA199000091GF108991041021008001001011MA1999999092791MD1999999-0101REMSYN070AAXX  13184 83182 32597 81405 10292 20174 39279 40116 84201 333 59010;EQDQ01  00002PRCP99
0198831820999992002011400004-11290-041860FM-12+074799999V0200901N003112200019N0010001N1+02371+01881101331ADDAA199000091GF108991011021008001001011KA1240M+03001MA1999999092991MD1999999-0091REMSYN088AAXX  14004 83182 32594 80906 10237 20188 39299 40133 81201 333 10300 29069 55066 59009;EQDQ01  00002PRCP99
0186831820999992002011412004-11290-041860FM-12+074799999V0201401N002612200019N0100001N1+02351+02001101381ADDAA199000091GF108991021021008001001011KA1240N+01911MA1999999093051MD1999999-0131REMSYN076AAXX  14124 83182 32597 81405 10235 20200 39305 40138 82201 333 20191 59013;EQDQ01  00002PRCP99
0167831820999992002011418004-11290-041860FM-12+074799999V0202701N002610450019N0200001N1+02881+01861100821ADDAA199000091GF108991021031008001011011MA1999999092511MD1999999-0281REMSYN070AAXX  14184 83182 32598 82705 10288 20186 39251 40082 82311 333 59028;EQDQ01  00002PRCP99
0199831820999992002011500004-11290-041860FM-12+074799999V0201801N001510042019N0002001N1+02111+02031101161ADDAA106011991AY191061AY221061GF108991081071004501999999KA1240M+02981MA1999999092831MW1611REMSYN100AAXX  15004 83182 21492 81803 10211 20203 39283 40116 76192 887// 333 10298 29081 55061 5916/ 60121;
0201831820999992002011512004-11290-041860FM-12+074799999V0202301N002610042019N0010001N1+02131+02031101001ADDAA124010991AY161061AY261061GF108991081071004501999999KA1240N+02091MA1999999092831MD1999999-0321MW1601REMSYN088AAXX  15124 83182 21494 82305 10213 20203 39283 40100 76066 887// 333 20209 59032 60114;
0232831820999992002011600004-11290-041860FM-12+074799999V0202301N002110042019N0010001N1+01981+01951100931ADDAA106009991AY161061AY221061GF106991999061004501001001KA1240M+02411MA1999999092581MD1999999-0251MW1031REMSYN100AAXX  16004 83182 21494 62304 10198 20195 39258 40093 70362 85600 333 10241 29095 55001 59025 60101;EQDQ01+000052SCOTLC
0201831820999992002011612004-11290-041860FM-12+074799999V0203201N002610042019N0200001N1+02091+02021101131ADDAA124011991AY161061AY221061GF108991081071004501999999KA1240N+01891MA1999999092761MD1999999-0051MW1021REMSYN088AAXX  16124 83182 21498 83205 10209 20202 39276 40113 70262 887// 333 20189 59005 60124;
0182831820999992002011618004-11290-041860FM-12+074799999V0203201N002110450019N0200001N1+02411+02041100771ADDAA106001091AY161061AY221061GF108991021031004501011999MA1999999092421MD1999999-0041MW1021REMSYN082AAXX  16184 83182 21498 83204 10241 20204 39242 40077 70262 8231/ 333 59004 60011;
0213831820999992002011700004-11290-041860FM-12+074799999V0203601N003610042019N0005001N1+02091+02021101121ADDAA106000591AY161061AY221061GF108991081071004501999999KA1240M+02521MA1999999092761MD1999999+0181MW1211REMSYN100AAXX  17004 83182 21493 83607 10209 20202 39276 40112 72162 887// 333 10252 29092 55025 58018 69961;
0201831820999992002011712004-11290-041860FM-12+074799999V0203201N001510450019N0100001N1+02111+02031101281ADDAA124003091AY161061AY261061GF108991041071004501011011KA1240N+01951MA1999999092911MD1999999+0151MW1021REMSYN088AAXX  17124 83182 21497 83203 10211 20203 39291 40128 70266 84711 333 20195 58015 60034;
0195831820999992002011718004-11290-041860FM-12+074799999V0203201N003112200019N0200001N1+02651+01941100951ADDAA199000091AY121061AY221061GF108991031031004501001011MA1999999092591MD1999999+0171MW1151REMSYN076AAXX  17184 83182 31498 83206 10265 20194 39259 40095 71522 83301 333 58017;EQDQ01  00002PRCP99
0213831820999992002011800004-11290-041860FM-12+074799999V0200901N001510042019N0002001N1+02091+02061101301ADDAA106004191AY161061AY221061GF108991081071004501999999KA1240M+02741MA1999999092931MD1999999+0171MW1611REMSYN100AAXX  18004 83182 21492 80903 10209 20206 39293 40130 76162 887// 333 10274 29089 55025 58017 60041;
0201831820999992002011812004-11290-041860FM-12+074799999V0200501N002610042019N0200001N1+02231+99999101411ADDAA124006191AY161061AY261061GF108991081061004501999999KA1240N+02031MA1999999093041MD1999999+0131MW1021REMSYN088AAXX  18124 83182 21498 80505 10223 20226 39304 40141 70266 886// 333 20203 58013 60064;
0167831820999992002011818004-11290-041860FM-12+074799999V0200501N003610450019N0200001N1+02631+01971101061ADDAA199000091GF107991021021008001011011MA1999999092701MD1999999+0111REMSYN070AAXX  18184 83182 32598 70507 10263 20197 39270 40106 82211 333 58011;EQDQ01  00002PRCP99
0198831820999992002011900004-11290-041860FM-12+074799999V0200501N001012200019N0010001N1+02211+01961101161ADDAA199000091GF104991011041008001001011KA1240M+02681MA1999999092821MD1999999-0111REMSYN088AAXX  19004 83182 32594 40502 10221 20196 39282 40116 81401 333 10268 29082 55021 59011;EQDQ01  00002PRCP99
0186831820999992002011912004-11290-041860FM-12+074799999V0201401N004612200019N0200001N1+02311+01821101351ADDAA199000091GF106991021021008001001011KA1240N+01931MA1999999093001MD1999999-0041REMSYN076AAXX  19124 83182 32598 61409 10231 20182 39300 40135 82201 333 20193 59004;EQDQ01  00002PRCP99
0167831820999992002011918004-11290-041860FM-12+074799999V0200501N003612200019N0200001N1+02811+01671101071ADDAA199000091GF108991031021008001001011MA1999999092711MD1999999+0011REMSYN070AAXX  19184 83182 32598 80507 10281 20167 39271 40107 83201 333 58001;EQDQ01  00002PRCP99
0226831820999992002012000004-11290-041860FM-12+074799999V0200901N002612200019N0010001N1+02301+01721101251ADDAA199000091AY121061AY221061GF106991011031004501001011KA1240M+02941MA1999999092921MD1999999+0101MW1131REMSYN094AAXX  20004 83182 31494 60905 10230 20172 39292 40125 71322 81301 333 10294 29066 55100 58010;EQDQ01  00002PRCP99
0186831820999992002012012004-11290-041860FM-12+074799999V0200901N003610075019N0200001N1+02311+01861101521ADDAA199000091GF108991071051008001001011KA1240N+01891MA1999999093161MD1999999+0161REMSYN076AAXX  20124 83182 32598 80907 10231 20186 39316 40152 87501 333 20189 58016;EQDQ01  00002PRCP99
0167831820999992002012018004-11290-041860FM-12+074799999V0201801N000510075019N0200001N1+02861+01921101201ADDAA199000091GF106991051021008001001011MA1999999092841MD1999999+0131REMSYN070AAXX  20184 83182 32598 61801 10286 20192 39284 40120 85201 333 58013;EQDQ01  00002PRCP99
0198831820999992002012100004-11290-041860FM-12+074799999V0201401N003112200019N0010001N1+02311+01841101341ADDAA199000091GF102991001001999999001011KA1240M+02961MA1999999093001MD1999999+0081REMSYN088AAXX  21004 83182 32994 21406 10231 20184 39300 40134 80001 333 10296 29070 55092 58008;EQDQ01  00002PRCP99
0186831820999992002012112004-11290-041860FM-12+074799999V0200901N005710075019N0200001N1+02411+01901101631ADDAA199000091GF106991061021008001001001KA1240N+01991MA1999999093271MD1999999+0111REMSYN076AAXX  21124 83182 32598 60911 10241 20190 39327 40163 86200 333 20199 58011;EQDQ01  00002PRCP99
0167831820999992002012118004-11290-041860FM-12+074799999V0200901N003112200019N0200001N1+02931+01611101281ADDAA199000091GF103991031021008001001001MA1999999092921MD1999999+0081REMSYN070AAXX  21184 83182 32598 30906 10293 20161 39292 40128 83200 333 58008;EQDQ01  00002PRCP99
0198831820999992002012200004-11290-041860FM-12+074799999V0200901N003612200019N0020001N1+02271+01811101481ADDAA199000091GF102991001001999999001011KA1240M+03021MA1999999093141MD1999999+0141REMSYN088AAXX  22004 83182 32995 20907 10227 20181 39314 40148 80001 333 10302 29069 55113 58014;EQDQ01  00002PRCP99
0186831820999992002012212004-11290-041860FM-12+074799999V0200901N003610042019N0200001N1+02201+01841101801ADDAA199000091GF108991081071004501999999KA1240N+01931MA1999999093411MD1999999+0141REMSYN076AAXX  22124 83182 32498 80907 10220 20184 39341 40180 887// 333 20193 58014;EQDQ01  00002PRCP99
0182831820999992002012218004-11290-041860FM-12+074799999V0200501N005712200019N0200001N1+02651+01641101481ADDAA106000191AY161061AY221061GF108991031021008001001011MA1999999093091MD1999999+0171MW1021REMSYN082AAXX  22184 83182 21598 80511 10265 20164 39309 40148 70262 83201 333 58017 69911;
0198831820999992002012300004-11290-041860FM-12+074799999V0200901N003619999999N0020001N1+02141+01611101521ADDAA199000091GF106991001001999999001011KA1240M+02771MA1999999093141MD1999999+0001REMSYN088AAXX  23004 83182 32995 60907 10214 20161 39314 40152 80001 333 10277 29070 55071 58000;EQDQ01  00002PRCP99
0173831820999992002012312004-11290-041860FM-12+074799999V0200901N003612200019N0100001N1+02311+01801101691ADDAA124000191GF108991011001017501061011KA1240N+01731MA1999999093301MD1999999-0111REMSYN082AAXX  23124 83182 22797 80907 10231 20180 39330 40169 81061 333 20173 59011 69914;
0167831820999992002012318004-11290-041860FM-12+074799999V0201401N001012200019N0100001N1+02921+01531101331ADDAA199000091GF102991021021008001001001MA1999999092931MD1999999-0161REMSYN070AAXX  23184 83182 32597 21402 10292 20153 39293 40133 82200 333 59016;EQDQ01  00002PRCP99
0198831820999992002012400004-11290-041860FM-12+074799999V0200901N004112200019N0020001N1+02451+01651101351ADDAA199000091GF101991011021008001001001KA1240M+03041MA1999999093031MD1999999-0111REMSYN088AAXX  24004 83182 32595 10908 10245 20165 39303 40135 81200 333 10304 29060 55115 59011;EQDQ01  00002PRCP99
0186831820999992002012412004-11290-041860FM-12+074799999V0200901N003110075019N0100001N1+02291+01841101551ADDAA199000091GF106991051021008001001011KA1240N+01731MA1999999093201MD1999999-0111REMSYN076AAXX  24124 83182 32597 60906 10229 20184 39320 40155 85201 333 20173 59011;EQDQ01  00002PRCP99
0167831820999992002012418004-11290-041860FM-12+074799999V0201801N002612200019N0100001N1+03011+01721101191ADDAA199000091GF103991021021008001001011MA1999999092831MD1999999-0101REMSYN070AAXX  24184 83182 32597 31805 10301 20172 39283 40119 82201 333 59010;EQDQ01  00002PRCP99
0208831820999992002012500004-11290-041860FM-12+074799999V0200901N004112200019N0020001N1+02511+01901101221ADDAA199000091GA1001+999999999GF100991001001999999001001KA1240M+03121MA1999999092911MD1999999-0121REMSYN082AAXX  25004 83182 32995 00908 10251 20190 39291 40122 333 10312 29065 55117 59012;EQDQ01  00002PRCP99
0186831820999992002012512004-11290-041860FM-12+074799999V0200901N002610450019N0100001N1+02451+02021101491ADDAA199000091GF108991011021008001051011KA1240N+01991MA1999999093171MD1999999-0031REMSYN076AAXX  25124 83182 32597 80905 10245 20202 39317 40149 81251 333 20199 59003;EQDQ01  00002PRCP99
0195831820999992002012518004-11290-041860FM-12+074799999V0203601N004110450019N0100001N1+02851+01971101151ADDAA199000091AY121061AY221061GF107991011021008001051021MA1999999092821MD1999999-0011MW1151REMSYN076AAXX  25184 83182 31597 73608 10285 20197 39282 40115 71522 81252 333 59001;EQDQ01  00002PRCP99
0226831820999992002012600004-11290-041860FM-12+074799999V0203201N002610450019N0020001N1+02491+01951101351ADDAA199000091AY121061AY221061GF108991021031004501011011KA1240M+03041MA1999999093041MD1999999+0131MW1131REMSYN094AAXX  26004 83182 31495 83205 10249 20195 39304 40135 71322 82311 333 10304 29070 55099 58013;EQDQ01  00002PRCP99
0186831820999992002012612004-11290-041860FM-12+074799999V0200901N004112200019N0200001N1+02461+01991101591ADDAA199000091GF105991021021008001001011KA1240N+02031MA1999999093261MD1999999+0091REMSYN076AAXX  26124 83182 32598 50908 10246 20199 39326 40159 82201 333 20203 58009;EQDQ01  00002PRCP99
0195831820999992002012618004-11290-041860FM-12+074799999V0200501N001512200019N0200001N1+03021+01921101101ADDAA199000091AY121061AY221061GF105991041021008001001011MA1999999092771MD1999999-0051MW1151REMSYN076AAXX  26184 83182 31598 50503 10302 20192 39277 40110 71522 84201 333 59005;EQDQ01  00002PRCP99
0213831820999992002012700004-11290-041860FM-12+074799999V0200901N002612200019N0020001N1+02281+01921101331ADDAA106000591AY161061AY211061GF102991001001999999001011KA1240M+03161MA1999999093001MD1999999-0041MW1031REMSYN100AAXX  27004 83182 21995 20905 10228 20192 39300 40133 70361 80001 333 10316 29072 55099 59004 69961;
0173831820999992002012712004-11290-041860FM-12+074799999V0200901N003612200019N0200001N1+02391+02021101521ADDAA124000591GF101991011011012501001001KA1240N+01841MA1999999093171MD1999999-0091REMSYN082AAXX  27124 83182 22698 10907 10239 20202 39317 40152 81100 333 20184 59009 69964;
0167831820999992002012718004-11290-041860FM-12+074799999V0200901N003112200019N0100001N1+02981+01691101121ADDAA199000091GF102991021021008001001001MA1999999092751MD1999999-0021REMSYN070AAXX  27184 83182 32597 20906 10298 20169 39275 40112 82200 333 59002;EQDQ01  00002PRCP99
0208831820999992002012800004-11290-041860FM-12+074799999V0200901N003612200019N0020001N1+02351+01631101181ADDAA199000091GA1001+999999999GF100991001001999999001001KA1240M+03021MA1999999092861MD1999999-0141REMSYN082AAXX  28004 83182 32995 00907 10235 20163 39286 40118 333 10302 29064 55116 59014;EQDQ01  00002PRCP99
0196831820999992002012812004-11290-041860FM-12+074799999V0200901N001012200019N0200001N1+02541+01711101411ADDAA199000091GA1001+999999999GF100991001001999999001001KA1240N+01681MA1999999093091MD1999999-0081REMSYN070AAXX  28124 83182 32998 00902 10254 20171 39309 40141 333 20168 59008;EQDQ01  00002PRCP99
0167831820999992002012818004-11290-041860FM-12+074799999V0201401N002612200019N0200001N1+03071+01511101011ADDAA199000091GF102991021021008001001001MA1999999092651MD1999999-0101REMSYN070AAXX  28184 83182 32598 21405 10307 20151 39265 40101 82200 333 59010;EQDQ01  00002PRCP99
0198831820999992002012900004-11290-041860FM-12+074799999V0200901N004612200019N0020001N1+02431+01581101021ADDAA199000091GF102991011021999999051011KA1240M+03141MA1999999092741MD1999999-0121REMSYN088AAXX  29004 83182 32995 20909 10243 20158 39274 40102 81251 333 10314 29054 55118 59012;EQDQ01  00002PRCP99
0196831820999992002012912004-11290-041860FM-12+074799999V0200901N002612200019N0100001N1+02441+01791101281ADDAA199000091GA1001+999999999GF100991001001999999001001KA1240N+02451MA1999999092981MD1999999-0111REMSYN070AAXX  29124 83182 32997 00905 10244 20179 39298 40128 333 20245 59011;EQDQ01  00002PRCP99
0167831820999992002012918004-11290-041860FM-12+074799999V0200901N003112200019N0100001N1+02971+01821101001ADDAA199000091GF102991021021008001001001MA1999999092661MD1999999+0011REMSYN070AAXX  29184 83182 32597 20906 10297 20182 39266 40100 82200 333 58001;EQDQ01  00002PRCP99
0208831820999992002013000004-11290-041860FM-12+074799999V0200901N003112200019N0020001N1+02441+01591101101ADDAA199000091GA1001+999999999GF100991001001999999001001KA1240M+03061MA1999999092811MD1999999+0071REMSYN082AAXX  30004 83182 32995 00906 10244 20159 39281 40110 333 10306 29059 55107 58007;EQDQ01  00002PRCP99
0196831820999992002013012004-11290-041860FM-12+074799999V0200901N002612200019N0100001N1+02471+01771101391ADDAA199000091GA1001+999999999GF100991001001999999001001KA1240N+01821MA1999999093071MD1999999+0091REMSYN070AAXX  30124 83182 32997 00905 10247 20177 39307 40139 333 20182 58009;EQDQ01  00002PRCP99
0167831820999992002013018004-11290-041860FM-12+074799999V0201801N003112200019N0100001N1+03101+01041101041ADDAA199000091GF101991011021008001001001MA1999999092701MD1999999+0041REMSYN070AAXX  30184 83182 32597 11806 10310 20104 39270 40104 81200 333 58004;EQDQ01  00002PRCP99
0208831820999992002013100004-11290-041860FM-12+074799999V0200901N003612200019N0020001N1+02401+01471101111ADDAA199000091GA1001+999999999GF100991001001999999001001KA1240M+03151MA1999999092821MD1999999+0011REMSYN082AAXX  31004 83182 32995 00907 10240 20147 39282 40111 333 10315 29051 55117 58001;EQDQ01  00002PRCP99
0186831820999992002013112004-11290-041860FM-12+074799999V0200901N005112200019N0100001N1+02281+01861101431ADDAA199000091GF102991011011012501001011KA1240N+01791MA1999999093091MD1999999+0021REMSYN076AAXX  31124 83182 32697 20910 10228 20186 39309 40143 81101 333 20179 58002;EQDQ01  00002PRCP99
0167831820999992002013118004-11290-041860FM-12+074799999V0203601N002612200019N0100001N1+02981+01791101051ADDAA199000091GF102991021021008001001001MA1999999092701MD1999999+0001REMSYN070AAXX  31184 83182 32597 23605 10298 20179 39270 40105 82200 333 58000;EQDQ01  00002PRCP99
0208831820999992002020100004-11290-041860FM-12+074799999V0200901N001512200019N0020001N1+02431+01731101191ADDAA199000091GA1001+999999999GF100991001001999999001001KA1240M+03051MA1999999092871MD1999999+0051REMSYN082AAXX  01004 83182 32995 00903 10243 20173 39287 40119 333 10305 29064 55109 58005;EQDQ01  00002PRCP99
0186831820999992002020112004-11290-041860FM-12+074799999V0200901N003612200019N0100001N1+02411+01871101461ADDAA199000091GF104991031021008001001011KA1240N+01831MA1999999093131MD1999999+0041REMSYN076AAXX  01124 83182 32597 40907 10241 20187 39313 40146 83201 333 20183 58004;EQDQ01  00002PRCP99
0167831820999992002020118004-11290-041860FM-12+074799999V0200901N002112200019N0100001N1+03061+01511101091ADDAA199000091GF107991011021008001001011MA1999999092741MD1999999+0041REMSYN070AAXX  01184 83182 32597 70904 10306 20151 39274 40109 81201 333 58004;EQDQ01  00002PRCP99
0198831820999992002020200004-11290-041860FM-12+074799999V0200901N001512200019N0010001N1+02481+01681101141ADDAA199000091GF104991001001999999001011KA1240M+03141MA1999999092851MD1999999-0021REMSYN088AAXX  02004 83182 32994 40903 10248 20168 39285 40114 80001 333 10314 29058 55103 59002;EQDQ01  00002PRCP99
0186831820999992002020212004-11290-041860FM-12+074799999V0200901N002112200019N0100001N1+02591+01911101361ADDAA199000091GF108991011001017501031011KA1240N+02081MA1999999093061MD1999999-0071REMSYN076AAXX  02124 83182 32797 80904 10259 20191 39306 40136 81031 333 20208 59007;EQDQ01  00002PRCP99
0167831820999992002020218004-11290-041860FM-12+074799999V0202701N001512200019N0100001N1+03171+01601100911ADDAA199000091GF108991021021008001001011MA1999999092611MD1999999-0131REMSYN070AAXX  02184 83182 32597 82703 10317 20160 39261 40091 82201 333 59013;EQDQ01  00002PRCP99
0213831820999992002020300004-11290-041860FM-12+074799999V0200501N001510450019N0005001N1+02351+02021101121ADDAA106004191AY191061AY221061GF108991041051004501021999KA1240M+03241MA1999999092831MD1999999-0021MW1131REMSYN100AAXX  03004 83182 21493 80503 10235 20202 39283 40112 71392 8452/ 333 10324 29067 55092 59002 60041;
0201831820999992002020312004-11290-041860FM-12+074799999V0203601N003612200019N0100001N1+02591+01981101261ADDAA124006191AY161061AY261061GF104991021061017501001011KA1240N+02051MA1999999092951MD1999999-0111MW1031REMSYN088AAXX  03124 83182 21797 43607 10259 20198 39295 40126 70366 82601 333 20205 59011 60064;
0167831820999992002020318004-11290-041860FM-12+074799999V0203201N003110450019N0040001N1+02831+01901100911ADDAA199000091GF108991031021008001051011MA1999999092591MD1999999-0021REMSYN070AAXX  03184 83182 32596 83206 10283 20190 39259 40091 83251 333 59002;EQDQ01  00002PRCP99
0198831820999992002020400004-11290-041860FM-12+074799999V0203201N001010450019N0010001N1+02501+01891101101ADDAA199000091GF108991041021008001011999KA1240M+02951MA1999999092821MD1999999-0011REMSYN088AAXX  04004 83182 32594 83202 10250 20189 39282 40110 8421/ 333 10295 29066 55065 59001;EQDQ01  00002PRCP99
0201831820999992002020412004-11290-041860FM-12+074799999V0203201N001510042019N0100001N1+02401+02091101311ADDAA124000191AY161061AY221061GF108991061061004501051999KA1240N+02081MA1999999093001MD1999999+0051MW1021REMSYN088AAXX  04124 83182 21497 83203 10240 20209 39300 40131 70262 8665/ 333 20208 58005 69914;
0182831820999992002020418004-11290-041860FM-12+074799999V0203201N002610042019N0010001N1+02151+02101101151ADDAA106007191AY161061AY261061GF108991081071004501999999MA1999999092831MD1999999+0241MW1401REMSYN082AAXX  04184 83182 21494 83205 10215 20210 39283 40115 74066 887// 333 58024 60071;
0213831820999992002020500004-11290-041860FM-12+074799999V0201801N000510075019N0010001N1+02151+02081101361ADDAA106000191AY161061AY221061GF108991051021008001011999KA1240M+02561MA1999999093021MD1999999+0201MW1021REMSYN100AAXX  05004 83182 21594 81801 10215 20208 39302 40136 70262 8521/ 333 10256 29093 55013 58020 69921;
0125831820999992002020512004-11290-041860FM-12+074799999V0201401N002619999999N0100001N1+02221+99999999999ADDGF108991999999004501999999REMSYN087AAXX  05124 83182 21497 81405 10222 2199 39322 40160 70262 8365/ 333 20195 58022 60124;
0167831820999992002020518004-11290-041860FM-12+074799999V0203601N002612200019N0040001N1+02591+02001101251ADDAA199000091GF106991021021008001001011MA1999999092871MD1999999+0041REMSYN070AAXX  05184 83182 32596 63605 10259 20200 39287 40125 82201 333 58004;EQDQ01  00002PRCP99
0198831820999992002020600004-11290-041860FM-12+074799999V0203201N001010075019N0010001N1+02261+02141101431ADDAA199000091GF106991051021008001001011KA1240M+02641MA1999999093071MD1999999+0051REMSYN088AAXX  06004 83182 32594 63202 10226 20214 39307 40143 85201 333 10264 29086 55030 58005;EQDQ01  00002PRCP99
0201831820999992002020612004-11290-041860FM-12+074799999V0201801N001510042019N0002001N1+02011+01981101551ADDAA124083191AY161061AY261061GF108991081071004501999999KA1240N+01921MA1999999093161MD1999999-0061MW1611REMSYN088AAXX  06124 83182 21492 81803 10201 20198 39316 40155 76166 887// 333 20192 59006 60834;
0182831820999992002020618004-11290-041860FM-12+074799999V0201801N001510042019N0005001N1+02131+01981101311ADDAA106014091AY161061AY261061GF108991081071004501999999MA1999999092941MD1999999+0071MW1611REMSYN082AAXX  06184 83182 21493 81803 10213 20198 39294 40131 76166 887// 333 58007 60141;
0167831820999992002020718004-11290-041860FM-12+074799999V0200501N004610450019N0100001N1+02751+01881101111ADDAA199000091GF107991031021008001051011MA1999999092741MD1999999-0201REMSYN070AAXX  07184 83182 32597 70509 10275 20188 39274 40111 83251 333 59020;EQDQ01  00002PRCP99
0198831820999992002020800004-11290-041860FM-12+074799999V0200901N003112200019N0010001N1+02171+01871101421ADDAA199000091GF104991021001017501011011KA1240M+02781MA1999999093051MD1999999-0051REMSYN088AAXX  08004 83182 32794 40906 10217 20187 39305 40142 82011 333 10278 29079 55089 59005;EQDQ01  00002PRCP99
0186831820999992002020812004-11290-041860FM-12+074799999V0200901N004612200019N0040001N1+02211+01701101511ADDAA199000091GF108991021021008001001011KA1240N+01741MA1999999093141MD1999999-0041REMSYN076AAXX  08124 83182 32596 80909 10221 20170 39314 40151 82201 333 20174 59004;EQDQ01  00002PRCP99
0167831820999992002020818004-11290-041860FM-12+074799999V0200901N004110075019N0100001N1+02731+01801101191ADDAA199000091GF107991051021008001001011MA1999999092801MD1999999+0061REMSYN070AAXX  08184 83182 32597 70908 10273 20180 39280 40119 85201 333 58006;EQDQ01  00002PRCP99
0186831820999992002020912004-11290-041860FM-12+074799999V0201401N003112200019N0100001N1+02181+01781101571ADDAA199000091GF104991041021008001001001KA1240N+01671MA1999999093191MD1999999+0051REMSYN076AAXX  09124 83182 32597 41406 10218 20178 39319 40157 84200 333 20167 58005;EQDQ01  00002PRCP99
0167831820999992002020918004-11290-041860FM-12+074799999V0200501N002612200019N0100001N1+02781+01581101171ADDAA199000091GF104991031021008001001011MA1999999092851MD1999999+0051REMSYN070AAXX  09184 83182 32597 40505 10278 20158 39285 40117 83201 333 58005;EQDQ01  00002PRCP99
0186831820999992002021012004-11290-041860FM-12+074799999V0200901N004112200019N0100001N1+02291+01911101531ADDAA199000091GF108991041021008001001011KA1240N+01911MA1999999093161MD1999999-0031REMSYN076AAXX  10124 83182 32597 80908 10229 20191 39316 40153 84201 333 20191 59003;EQDQ01  00002PRCP99
0167831820999992002021018004-11290-041860FM-12+074799999V0200901N001512200019N0100001N1+02941+01551101071ADDAA199000091GF104991031021008001001011MA1999999092791MD1999999-0061REMSYN070AAXX  10184 83182 32597 40903 10294 20155 39279 40107 83201 333 59006;EQDQ01  00002PRCP99
0173831820999992002021112004-11290-041860FM-12+074799999V0200901N004610075019N0100001N1+02351+01901101451ADDAA124000191GF108991081051008001999999KA1240N+01871MA1999999093101MD1999999-0061REMSYN082AAXX  11124 83182 22597 80909 10235 20190 39310 40145 885// 333 20187 59006 69924;
0167831820999992002021118004-11290-041860FM-12+074799999V0200901N003612200019N0100001N1+02821+01771101101ADDAA199000091GF106991021021008001001011MA1999999092811MD1999999+0021REMSYN070AAXX  11184 83182 32597 60907 10282 20177 39281 40110 82201 333 58002;EQDQ01  00002PRCP99
0186831820999992002021212004-11290-041860FM-12+074799999V0200901N005110075019N0100001N1+02281+01811101651ADDAA199000091GF108991061021008001001011KA1240N+01661MA1999999093251MD1999999+0151REMSYN076AAXX  12124 83182 32597 80910 10228 20181 39325 40165 86201 333 20166 58015;EQDQ01  00002PRCP99
0167831820999992002021218004-11290-041860FM-12+074799999V0200901N004611050019N0100001N1+02591+01911101301ADDAA199000091GF108991021021008001001021MA1999999092971MD1999999+0161REMSYN070AAXX  12184 83182 32597 80909 10259 20191 39297 40130 82202 333 58016;EQDQ01  00002PRCP99
0198831820999992002021300004-11290-041860FM-12+074799999V0200901N007011050019N0020001N1+02121+01841101531ADDAA199000091GF108991021001017501051021KA1240M+02711MA1999999093151MD1999999+0151REMSYN088AAXX  13000 83182 32795 80907 10212 20184 39315 40153 82052 333 10271 29077 55090 58015;EQDQ01  00002PRCP99
0186831820999992002021312004-11290-041860FM-12+074799999V0200901N004612200019N0100001N1+02221+01621101601ADDAA199000091GF101991011021008001001001KA1240N+01651MA1999999093211MD1999999-0041REMSYN076AAXX  13124 83182 32597 10909 10222 20162 39321 40160 81200 333 20165 59004;EQDQ01  00002PRCP99
0167831820999992002021318004-11290-041860FM-12+074799999V0200901N004112200019N0100001N1+02831+01781101131ADDAA199000091GF101991011021008001001001MA1999999092831MD1999999-0141REMSYN070AAXX  13184 83182 32597 10908 10283 20178 39283 40113 81200 333 59014;EQDQ01  00002PRCP99
0186831820999992002021412004-11290-041860FM-12+074799999V0201401N003112200019N0100001N1+02341+01871101521ADDAA199000091GF101991011021008001001001KA1240N+01691MA1999999093151MD1999999-0061REMSYN076AAXX  14124 83182 32597 11406 10234 20187 39315 40152 81200 333 20169 59006;EQDQ01  00002PRCP99
0167831820999992002021418004-11290-041860FM-12+074799999V0200501N002611050019N0100001N1+02911+01791101111ADDAA199000091GF105991021031008001061011MA1999999092821MD1999999-0011REMSYN070AAXX  14184 83182 32597 50505 10291 20179 39282 40111 82361 333 59001;EQDQ01  00002PRCP99
0213831820999992002021500004-11290-041860FM-12+074799999V0200901N002610042019N0010001N1+02271+01991101461ADDAA106020191AY161061AY261061GF108991061071004501021999KA1240M+03021MA1999999093111MD1999999+0051MW1021REMSYN100AAXX  15004 83182 21494 80905 10227 20199 39311 40146 70266 8672/ 333 10302 29074 55095 58005 60201;
0173831820999992002021512004-11290-041860FM-12+074799999V02099999999990075019N0100001N1+02351+01941101601ADDAA124020191GF105991051021008001001001KA1240N+01851MA1999999093241MD1999999+0091REMSYN082AAXX  15124 83182 22597 514// 10235 20194 39324 40160 85200 333 20185 58009 60204;
0167831820999992002021518004-11290-041860FM-12+074799999V0201401N002612200019N0100001N1+02921+02011101061ADDAA199000091GF106991041031008001001011MA1999999092781MD1999999-0031REMSYN070AAXX  15184 83182 32597 61405 10292 20201 39278 40106 84301 333 59003;EQDQ01  00002PRCP99
0198831820999992002021600004-11290-041860FM-12+074799999V0200901N002612200019N0020001N1+02181+01951101391ADDAA199000091GF104991021001017501061011KA1240M+02981MA1999999093041MD1999999-0071REMSYN088AAXX  16004 83182 32795 40905 10218 20195 39304 40139 82061 333 10298 29078 55080 59007;EQDQ01  00002PRCP99
0186831820999992002021612004-11290-041860FM-12+074799999V0200901N004110075019N0100001N1+02481+02131101551ADDAA199000091GF108991051021008001051011KA1240N+01931MA1999999093201MD1999999-0041REMSYN076AAXX  16124 83182 32597 80908 10248 20213 39320 40155 85251 333 20193 59004;EQDQ01  00002PRCP99
0195831820999992002021618004-11290-041860FM-12+074799999V0200901N002110450019N0100001N1+02711+02071101131ADDAA199000091AY121061AY221061GF108991031031008001061021MA1999999092841MD1999999+0061MW1151REMSYN076AAXX  16184 83182 31597 80904 10271 20207 39284 40113 71522 83362 333 58006;EQDQ01  00002PRCP99
0198831820999992002021700004-11290-041860FM-12+074799999V0200901N003112200019N0020001N1+02251+02021101361ADDAA199000091GF106991021001017501051011KA1240M+03051MA1999999093031MD1999999-0011REMSYN088AAXX  17004 83182 32795 60906 10225 20202 39303 40136 82051 333 10305 29081 55067 59001;EQDQ01  00002PRCP99
0186831820999992002021712004-11290-041860FM-12+074799999V0201401N002112200019N0100001N1+02441+02211101471ADDAA199000091GF106991041021008001001011KA1240N+01841MA1999999093131MD1999999-0071REMSYN076AAXX  17124 83182 32597 61404 10244 20221 39313 40147 84201 333 20184 59007;EQDQ01  00002PRCP99
0167831820999992002021718004-11290-041860FM-12+074799999V0200901N003112200019N0100001N1+02811+01961101101ADDAA199000091GF106991021021008001001011MA1999999092821MD1999999-0021REMSYN070AAXX  17184 83182 32597 60906 10281 20196 39282 40110 82201 333 59002;EQDQ01  00002PRCP99
0186831820999992002021812004-11290-041860FM-12+074799999V0201401N005112200019N0100001N1+02421+02021101371ADDAA199000091GF108991021021008001001011KA1240N+01811MA1999999093031MD1999999-0101REMSYN076AAXX  18124 83182 32597 81410 10242 20202 39303 40137 82201 333 20181 59010;EQDQ01  00002PRCP99
0167831820999992002021818004-11290-041860FM-12+074799999V0201401N003112200019N0100001N1+02901+01811100961ADDAA199000091GF103991021021008001001011MA1999999092681MD1999999-0141REMSYN070AAXX  18184 83182 32597 31406 10290 20181 39268 40096 82201 333 59014;EQDQ01  00002PRCP99
0198831820999992002021900004-11290-041860FM-12+074799999V0200901N003612200019N0020001N1+02211+01831101211ADDAA199000091GF102991001001999999001011KA1240M+02961MA1999999092881MD1999999-0191REMSYN088AAXX  19004 83182 32995 20907 10221 20183 39288 40121 80001 333 10296 29072 55115 59019;EQDQ01  00002PRCP99
0186831820999992002021912004-11290-041860FM-12+074799999V0201401N004112200019N0100001N1+02501+01981101481ADDAA199000091GF105991041021008001001011KA1240N+01811MA1999999093141MD1999999+0111REMSYN076AAXX  19124 83182 32597 51408 10250 20198 39314 40148 84201 333 20181 58011;EQDQ01  00002PRCP99
0167831820999992002021918004-11290-041860FM-12+074799999V0200901N002612200019N0100001N1+02841+01671101041ADDAA199000091GF104991021021008001001011MA1999999092761MD1999999+0081REMSYN070AAXX  19184 83182 32597 40905 10284 20167 39276 40104 82201 333 58008;EQDQ01  00002PRCP99
0198831820999992002022000004-11290-041860FM-12+074799999V0200901N003112200019N0020001N1+02251+01811101231ADDAA199000091GF102991011001017501041011KA1240M+03001MA1999999092921MD1999999+0041REMSYN088AAXX  20004 83182 32795 20906 10225 20181 39292 40123 81041 333 10300 29068 55113 58004;EQDQ01  00002PRCP99
0186831820999992002022012004-11290-041860FM-12+074799999V0200901N005110075019N0100001N1+02381+01751101591ADDAA199000091GF105991051021008001001001KA1240N+01871MA1999999093241MD1999999+0091REMSYN076AAXX  20124 83182 32597 50910 10238 20175 39324 40159 85200 333 20187 58009;EQDQ01  00002PRCP99
0167831820999992002022018004-11290-041860FM-12+074799999V0200501N005112200019N0100001N1+02871+01821101101ADDAA199000091GF102991011021008001001011MA1999999092821MD1999999+0061REMSYN070AAXX  20184 83182 32597 20510 10287 20182 39282 40110 81201 333 58006;EQDQ01  00002PRCP99
0198831820999992002022100004-11290-041860FM-12+074799999V02099999999992200019N0020001N1+02171+01691101341ADDAA199000091GF101991011001017501041001KA1240M+02941MA1999999093001MD1999999+0081REMSYN088AAXX  21004 83182 32795 114// 10217 20169 39300 40134 81040 333 10294 29068 55117 58008;EQDQ01  00002PRCP99
0186831820999992002022112004-11290-041860FM-12+074799999V0200901N005712200019N0100001N1+02401+01821101431ADDAA199000091GF101991011021008001001001KA1240N+01751MA1999999093081MD1999999-0151REMSYN076AAXX  21124 83182 32597 10911 10240 20182 39308 40143 81200 333 20175 59015;EQDQ01  00002PRCP99
0167831820999992002022118004-11290-041860FM-12+074799999V0200501N003612200019N0100001N1+02921+01421100971ADDAA199000091GF102991011021008001001011MA1999999092691MD1999999-0131REMSYN070AAXX  21184 83182 32597 20507 10292 20142 39269 40097 81201 333 59013;EQDQ01  00002PRCP99
0208831820999992002022200004-11290-041860FM-12+074799999V0200901N003112200019N0020001N1+02131+01551101231ADDAA199000091GA1001+999999999GF100991001001999999001001KA1240M+02971MA1999999092891MD1999999-0111REMSYN082AAXX  22004 83182 32995 00906 10213 20155 39289 40123 333 10297 29062 55109 59011;EQDQ01  00002PRCP99
0186831820999992002022212004-11290-041860FM-12+074799999V0201401N002612200019N0100001N1+02441+01741101331ADDAA199000091GF108991011011012501001011KA1240N+01711MA1999999092991MD1999999-0091REMSYN076AAXX  22124 83182 32697 81405 10244 20174 39299 40133 81101 333 20171 59009;EQDQ01  00002PRCP99
0167831820999992002022218004-11290-041860FM-12+074799999V0202301N001512200019N0100001N1+03051+01531100811ADDAA199000091GF108991011021008001001011MA1999999092551MD1999999-0141REMSYN070AAXX  22184 83182 32597 82303 10305 20153 39255 40081 81201 333 59014;EQDQ01  00002PRCP99
0198831820999992002022300004-11290-041860FM-12+074799999V0200901N003119999999N0020001N1+02271+01721101041ADDAA199000091GF108991001001999999001011KA1240M+03151MA1999999092741MD1999999-0151REMSYN088AAXX  23004 83182 32995 80906 10227 20172 39274 40104 80001 333 10315 29063 55115 59015;EQDQ01  00002PRCP99
0196831820999992002022312004-11290-041860FM-12+074799999V0201401N002612200019N0100001N1+02581+02011101331ADDAA199000091GA1001+999999999GF100991001001999999001001KA1240N+01741MA1999999093051MD1999999+0061REMSYN070AAXX  23124 83182 32997 01405 10258 20201 39305 40133 333 20174 58006;EQDQ01  00002PRCP99
0167831820999992002022318004-11290-041860FM-12+074799999V0200901N000512200019N0100001N1+03101+01661100941ADDAA199000091GF102991021021008001001001MA1999999092691MD1999999+0141REMSYN070AAXX  23184 83182 32597 20901 10310 20166 39269 40094 82200 333 58014;EQDQ01  00002PRCP99
0186831820999992002022412004-11290-041860FM-12+074799999V0200901N002112200019N0100001N1+02611+01971101471ADDAA199000091GF101991001001999999001011KA1240N+01781MA1999999093161MD1999999+0111REMSYN076AAXX  24124 83182 32997 10904 10261 20197 39316 40147 80001 333 20178 58011;EQDQ01  00002PRCP99
0167831820999992002022418004-11290-041860FM-12+074799999V0201401N004112200019N0100001N1+03181+01351101021ADDAA199000091GF102991011021008001001011MA1999999092771MD1999999+0041REMSYN070AAXX  24184 83182 32597 21408 10318 20135 39277 40102 81201 333 58004;EQDQ01  00002PRCP99
0167831820999992002022518004-11290-041860FM-12+074799999V0200901N002612200019N0100001N1+03201+01551100921ADDAA199000091GF108991011011012501001011MA1999999092671MD1999999-0101REMSYN070AAXX  25184 83182 32697 80905 10320 20155 39267 40092 81101 333 59010;EQDQ01  00002PRCP99
0198831820999992002022600004-11290-041860FM-12+074799999V0200901N005119999999N0020001N1+02311+01621101301ADDAA199000091GF108991001001999999001011KA1240M+03321MA1999999093001MD1999999+0071REMSYN088AAXX  26004 83182 32995 80910 10231 20162 39300 40130 80001 333 10332 29055 55111 58007;EQDQ01  00002PRCP99
0186831820999992002022612004-11290-041860FM-12+074799999V0200901N004612200019N0100001N1+02341+01831101511ADDAA199000091GF102991011021008001001011KA1240N+01751MA1999999093161MD1999999+0081REMSYN076AAXX  26124 83182 32597 20909 10234 20183 39316 40151 81201 333 20175 58008;EQDQ01  00002PRCP99
0167831820999992002022618004-11290-041860FM-12+074799999V0200901N002612200019N0100001N1+03031+01811101051ADDAA199000091GF102991021021008001001001MA1999999092771MD1999999+0101REMSYN070AAXX  26184 83182 32597 20905 10303 20181 39277 40105 82200 333 58010;EQDQ01  00002PRCP99
0208831820999992002022700004-11290-041860FM-12+074799999V0200901N004612200019N0010001N1+02251+01491101381ADDAA199000091GA1001+999999999GF100991001001999999001001KA1240M+03081MA1999999093041MD1999999+0041REMSYN082AAXX  27004 83182 32994 00909 10225 20149 39304 40138 333 10308 29061 55112 58004;EQDQ01  00002PRCP99
0186831820999992002022712004-11290-041860FM-12+074799999V0200901N005112200019N0100001N1+02361+01851101601ADDAA199000091GF108991021021008001001011KA1240N+01701MA1999999093241MD1999999+0081REMSYN076AAXX  27124 83182 32597 80910 10236 20185 39324 40160 82201 333 20170 58008;EQDQ01  00002PRCP99
0167831820999992002022718004-11290-041860FM-12+074799999V0201401N003612200019N0100001N1+02921+01601101191ADDAA199000091GF108991021021008001001011MA1999999092901MD1999999+0131REMSYN070AAXX  27184 83182 32597 81407 10292 20160 39290 40119 82201 333 58013;EQDQ01  00002PRCP99
0198831820999992002022800004-11290-041860FM-12+074799999V0200901N004119999999N0020001N1+02251+01641101371ADDAA199000091GF108991001001999999001011KA1240M+03031MA1999999093031MD1999999-0011REMSYN088AAXX  28004 83182 32995 80908 10225 20164 39303 40137 80001 333 10303 29064 55093 59001;EQDQ01  00002PRCP99
0186831820999992002022812004-11290-041860FM-12+074799999V0201401N007212200019N0100001N1+02301+01651101571ADDAA199000091GF108991011021008001001011KA1240N+01541MA1999999093211MD1999999-0031REMSYN076AAXX  28124 83182 32597 81414 10230 20165 39321 40157 81201 333 20154 59003;EQDQ01  00002PRCP99
0167831820999992002022818004-11290-041860FM-12+074799999V0200501N003112200019N0100001N1+03021+01261101021ADDAA199000091GF108991021021008001001011MA1999999092731MD1999999-0171REMSYN070AAXX  28184 83182 32597 80506 10302 20126 39273 40102 82201 333 59017;EQDQ01  00002PRCP99
0198831820999992002030100004-11290-041860FM-12+074799999V0201401N003619999999N0020001N1+02141+01591101341ADDAA199000091GF108991001001999999001011KA1240M+03101MA1999999092941MD1999999-0051REMSYN088AAXX  01004 83182 32995 81407 10214 20159 39294 40134 80001 333 10310 29061 55104 59005;EQDQ01  00002PRCP99
0186831820999992002030112004-11290-041860FM-12+074799999V02099999999990075019N0100001N1+02431+01911101431ADDAA199000091GF106991051021008001001011KA1240N+01771MA1999999093081MD1999999-0131REMSYN076AAXX  01124 83182 32597 614// 10243 20191 39308 40143 85201 333 20177 59013;EQDQ01  00002PRCP99
0167831820999992002030118004-11290-041860FM-12+074799999V0201401N004110075019N0100001N1+03021+01801101121ADDAA199000091GF108991051021008001001011MA1999999092841MD1999999+0111REMSYN070AAXX  01184 83182 32597 81408 10302 20180 39284 40112 85201 333 58011;EQDQ01  00002PRCP99
0167831820999992002030218004-11290-041860FM-12+074799999V0200901N004612200019N0100001N1+03001+01411101031ADDAA199000091GF106991041021008001001011MA1999999092751MD1999999-0091REMSYN070AAXX  02184 83182 32597 60909 10300 20141 39275 40103 84201 333 59009;EQDQ01  00002PRCP99
0104831820999992002030318004-11290-041860FM-12+074799999V0201401N006219999999N0100001N1+02951+99999999999ADDAA199000091GF108991999999008001999999REMSYN036AAXX  03184 83182 32597 81412 10295;EQDQ01  00002PRCP99
0186831820999992002030412004-11290-041860FM-12+074799999V0200901N005712200019N0100001N1+02461+02011101461ADDAA199000091GF108991031021008001001011KA1240N+01791MA1999999093121MD1999999-0051REMSYN076AAXX  04124 83182 32597 80911 10246 20201 39312 40146 83201 333 20179 59005;EQDQ01  00002PRCP99
0167831820999992002030418004-11290-041860FM-12+074799999V0200901N005710450019N0100001N1+02931+01541101101ADDAA199000091GF108991011021008001011011MA1999999092821MD1999999+0041REMSYN070AAXX  04184 83182 32597 80911 10293 20154 39282 40110 81211 333 58004;EQDQ01  00002PRCP99
0186831820999992002030512004-11290-041860FM-12+074799999V0201401N003610042019N0100001N1+02221+01901101531ADDAA199000091GF108991051071004501021999KA1240N+01771MA1999999093171MD1999999+0051REMSYN076AAXX  05124 83182 32497 81407 10222 20190 39317 40153 8572/ 333 20177 58005;EQDQ01  00002PRCP99
0167831820999992002030518004-11290-041860FM-12+074799999V0201401N004110450019N0100001N1+02541+01951101411ADDAA199000091GF108991021051008001011999MA1999999093051MD1999999+0231REMSYN070AAXX  05184 83182 32597 81408 10254 20195 39305 40141 8251/ 333 58023;EQDQ01  00002PRCP99
0214831820999992002030600004-11290-041860FM-12+074799999V0201401N010010450019N0020001N1+02111+01921101291ADDAA199000091GF108991021011008001051999KA1240M+02661MA1999999999999MD1999999-0071REMSYN088AAXX  06000 83182 32595 81410 10211 20192 30302 40129 8215/ 333 10266 29082 55000 59007;EQDQ01  00002PRCP99Q02 103023APOSP 
0186831820999992002030612004-11290-041860FM-12+074799999V0201401N003610075019N0100001N1+02441+01811101501ADDAA199000091GF108991061021008001051011KA1240N+01901MA1999999093161MD1999999-0011REMSYN076AAXX  06124 83182 32597 81407 10244 20181 39316 40150 86251 333 20190 59001;EQDQ01  00002PRCP99
0167831820999992002030618004-11290-041860FM-12+074799999V0200901N003110450019N0100001N1+02961+01641101071ADDAA199000091GF108991031021008001061021MA1999999092791MD1999999-0161REMSYN070AAXX  06184 83182 32597 80906 10296 20164 39279 40107 83262 333 59016;EQDQ01  00002PRCP99
0198831820999992002030700004-11290-041860FM-12+074799999V0201401N004110450019N0020001N1+02251+01841101321ADDAA199000091GF108991021021008001041011KA1240M+03071MA1999999092991MD1999999-0031REMSYN088AAXX  07004 83182 32595 81408 10225 20184 39299 40132 82241 333 10307 29067 55054 59003;EQDQ01  00002PRCP99
0186831820999992002030712004-11290-041860FM-12+074799999V02099999999990075019N0100001N1+02511+01851101561ADDAA199000091GF108991061021008001001011KA1240N+01891MA1999999093221MD1999999+0061REMSYN076AAXX  07124 83182 32597 809// 10251 20185 39322 40156 86201 333 20189 58006;EQDQ01  00002PRCP99
0167831820999992002030718004-11290-041860FM-12+074799999V0200901N003612200019N0100001N1+02981+01921101101ADDAA199000091GF108991041031008001001011MA1999999092831MD1999999+0041REMSYN070AAXX  07184 83182 32597 80907 10298 20192 39283 40110 84301 333 58004;EQDQ01  00002PRCP99
0213831820999992002030800004-11290-041860FM-12+074799999V0200901N003112200019N0020001N1+02191+01981101461ADDAA106001091AY161061AY221061GF108991021001017501061011KA1240M+03081MA1999999093111MD1999999+0121MW1021REMSYN100AAXX  08004 83182 21795 80906 10219 20198 39311 40146 70262 82061 333 10308 29074 55078 58012 60011;
0173831820999992002030812004-11290-041860FM-12+074799999V0200901N005110075019N0100001N1+02341+01831101661ADDAA124001091GF108991081051008001999999KA1240N+01831MA1999999093281MD1999999+0061REMSYN082AAXX  08124 83182 22597 80910 10234 20183 39328 40166 885// 333 20183 58006 60014;
0167831820999992002030818004-11290-041860FM-12+074799999V0200901N004110450019N0100001N1+02921+01621101211ADDAA199000091GF106991041021008001061011MA1999999092921MD1999999-0091REMSYN070AAXX  08184 83182 32597 60908 10292 20162 39292 40121 84261 333 59009;EQDQ01  00002PRCP99
0198831820999992002030900004-11290-041860FM-12+074799999V0200901N003112200019N0020001N1+02171+01811101501ADDAA199000091GF104991011021008001061011KA1240M+03021MA1999999093141MD1999999+0031REMSYN088AAXX  09004 83182 32595 40906 10217 20181 39314 40150 81261 333 10302 29070 55070 58003;EQDQ01  00002PRCP99
0186831820999992002030912004-11290-041860FM-12+074799999V0200901N005112200019N0100001N1+02541+01731101531ADDAA199000091GF108991011011012501001011KA1240N+01691MA1999999093181MD1999999-0101REMSYN076AAXX  09124 83182 32697 80910 10254 20173 39318 40153 81101 333 20169 59010;EQDQ01  00002PRCP99
0167831820999992002030918004-11290-041860FM-12+074799999V0200901N005112200019N0100001N1+02971+01651101151ADDAA199000091GF108991031021008001001011MA1999999092871MD1999999-0051REMSYN070AAXX  09184 83182 32597 80910 10297 20165 39287 40115 83201 333 59005;EQDQ01  00002PRCP99
0198831820999992002031000004-11290-041860FM-12+074799999V0200901N004119999999N0020001N1+02261+01841101441ADDAA199000091GF108991001001999999001011KA1240M+03101MA1999999093111MD1999999-0031REMSYN088AAXX  10004 83182 32995 80908 10226 20184 39311 40144 80001 333 10310 29065 5106/ 59003;EQDQ01  00002PRCP99
0196831820999992002031012004-11290-041860FM-12+074799999V0200901N005112200019N0100001N1+02481+01851101521ADDAA199000091GA1001+999999999GF100991001001999999001001KA1240N+01761MA1999999093171MD1999999-0011REMSYN070AAXX  10124 83182 32997 00910 10248 20185 39317 40152 333 20176 59001;EQDQ01  00002PRCP99
0208831820999992002031100004-11290-041860FM-12+074799999V0200901N003612200019N0020001N1+02281+01731101541ADDAA199000091GA1001+999999999GF100991001001999999001001KA1240M+03181MA1999999093201MD1999999-0091REMSYN082AAXX  11004 83182 32995 00907 10228 20173 39320 40154 333 10318 29064 55112 59009;EQDQ01  00002PRCP99
0186831820999992002031112004-11290-041860FM-12+074799999V0200901N00511220001CN0100001N1+02471+01681101571ADDAA199000091GF108991011021008001001041KA1240N+01851MA1999999093231MD1999999+0061REMSYN076AAXX  11124 83182 32597 80910 10247 20168 39323 40157 81204 333 20185 58006;EQDQ01  00002PRCP99
0167831820999992002031118004-11290-041860FM-12+074799999V0200901N005110450019N0100001N1+02751+01741101231ADDAA199000091GF108991021021008001011999MA1999999092931MD1999999+0151REMSYN070AAXX  11184 83182 32597 80910 10275 20174 39293 40123 8221/ 333 58015;EQDQ01  00002PRCP99
0198831820999992002031200004-11290-041860FM-12+074799999V0201401N003110150019N0020001N1+02121+01781101591ADDAA199000091GF108991081001017501011999KA1240M+02831MA1999999093231MD1999999+0031REMSYN088AAXX  12004 83182 32795 81406 10212 20178 39323 40159 8801/ 333 10283 29070 55033 58003;EQDQ01  00002PRCP99
0186831820999992002031212004-11290-041860FM-12+074799999V0200901N004110075019N0100001N1+02331+01861101771ADDAA199000091GF108991061051008001001011KA1240N+01771MA1999999093381MD1999999+0151REMSYN076AAXX  12124 83182 32597 80908 10233 20186 39338 40177 86501 333 20177 58015;EQDQ01  00002PRCP99
0167831820999992002031218004-11290-041860FM-12+074799999V0201401N005112200019N0100001N1+03011+01611101421ADDAA199000091GF108991021021008001001011MA1999999093011MD1999999+0081REMSYN070AAXX  12184 83182 32597 81410 10301 20161 39301 40142 82201 333 58008;EQDQ01  00002PRCP99
0198831820999992002031300004-11290-041860FM-12+074799999V0201401N003119999999N0010001N1+02321+01871101571ADDAA199000091GF108991001001999999001011KA1240M+03051MA1999999093211MD1999999-0021REMSYN088AAXX  13004 83182 32994 81406 10232 20187 39321 40157 80001 333 10305 29066 55069 59002;EQDQ01  00002PRCP99
0186831820999992002031312004-11290-041860FM-12+074799999V0200901N004612200019N0100001N1+02481+01621101691ADDAA199000091GF107991011021008001001041KA1240N+01831MA1999999093341MD1999999-0041REMSYN076AAXX  13124 83182 32597 70909 10248 20162 39334 40169 81204 333 20183 59004;EQDQ01  00002PRCP99
0167831820999992002031318004-11290-041860FM-12+074799999V0200901N004112200019N0100001N1+03061+01511101331ADDAA199000091GF102991021021008001001011MA1999999092921MD1999999-0091REMSYN070AAXX  13184 83182 32597 20908 10306 20151 39292 40133 82201 333 59009;EQDQ01  00002PRCP99
0208831820999992002031400004-11290-041860FM-12+074799999V0200901N003612200019N0010001N1+02301+01461101441ADDAA199000091GA1001+999999999GF100991001001999999001001KA1240M+03151MA1999999093111MD1999999-0101REMSYN082AAXX  14004 83182 32994 00907 10230 20146 39311 40144 333 10315 29054 55111 59010;EQDQ01  00002PRCP99
0196831820999992002031412004-11290-041860FM-12+074799999V0200901N005112200019N0100001N1+02661+01771101431ADDAA199000091GA1001+999999999GF100991001001999999001001KA1240N+01771MA1999999093121MD1999999-0221REMSYN070AAXX  14124 83182 32997 00910 10266 20177 39312 40143 333 20177 59022;EQDQ01  00002PRCP99
0167831820999992002031418004-11290-041860FM-12+074799999V0201401N003612200019N0100001N1+03171+01601101121ADDAA199000091GF106991031021008001001011MA1999999092861MD1999999-0061REMSYN070AAXX  14184 83182 32597 61407 10317 20160 39286 40112 83201 333 59006;EQDQ01  00002PRCP99
0198831820999992002031500004-11290-041860FM-12+074799999V0200901N003619999999N0020001N1+02311+01571101161ADDAA199000091GF108991001001999999001011KA1240M+03201MA1999999092871MD1999999-0241REMSYN088AAXX  15004 83182 32995 80907 10231 20157 39287 40116 80001 333 10320 29056 55110 59024;EQDQ01  00002PRCP99
0186831820999992002031512004-11290-041860FM-12+074799999V0200901N002610450019N0100001N1+02541+01931101401ADDAA199000091GF108991011021008001041011KA1240N+01821MA1999999093071MD1999999-0051REMSYN076AAXX  15124 83182 32597 80905 10254 20193 39307 40140 81241 333 20182 59005;EQDQ01  00002PRCP99
0167831820999992002031518004-11290-041860FM-12+074799999V0200901N002612200019N0100001N1+03151+01781100831ADDAA199000091GF108991021021008001001011MA1999999092581MD1999999-0271REMSYN070AAXX  15184 83182 32597 80905 10315 20178 39258 40083 82201 333 59027;EQDQ01  00002PRCP99
0198831820999992002031600004-11290-041860FM-12+074799999V0200901N003110450019N0020001N1+02391+01761101191ADDAA199000091GF108991031051008001041011KA1240M+03261MA1999999092891MD1999999+0021REMSYN088AAXX  16004 83182 32595 80906 10239 20176 39289 40119 83541 333 10326 29062 55087 58002;EQDQ01  00002PRCP99
0186831820999992002031612004-11290-041860FM-12+074799999V0200901N003110450019N0100001N1+02711+02011101371ADDAA199000091GF108991011021008001051011KA1240N+01921MA1999999093071MD1999999+0001REMSYN076AAXX  16124 83182 32597 80906 10271 20201 39307 40137 81251 333 20192 58000;EQDQ01  00002PRCP99
0167831820999992002031618004-11290-041860FM-12+074799999V0200501N002612200019N0100001N1+03141+01841100951ADDAA199000091GF107991031021008001001011MA1999999092621MD1999999+0031REMSYN070AAXX  16184 83182 32597 70505 10314 20184 39262 40095 83201 333 58003;EQDQ01  00002PRCP99
0226831820999992002031700004-11290-041860FM-12+074799999V0200901N003612200019N0010001N1+02521+02051101071ADDAA199000091AY121061AY221061GF106991021031008001001011KA1240M+03281MA1999999092801MD1999999-0091MW1131REMSYN094AAXX  17004 83182 31594 60907 10252 20205 39280 40107 71322 82301 333 10328 29066 55071 59009;EQDQ01  00002PRCP99
0186831820999992002031712004-11290-041860FM-12+074799999V0200901N004610450019N0100001N1+02421+01881101331ADDAA199000091GF108991021021008001051011KA1240N+01961MA1999999093051MD1999999-0021REMSYN076AAXX  17124 83182 32597 80909 10242 20188 39305 40133 82251 333 20196 59002;EQDQ01  00002PRCP99
0167831820999992002031718004-11290-041860FM-12+074799999V0200901N003110450019N0100001N1+02921+01831101011ADDAA199000091GF108991011021008001051011MA1999999092691MD1999999+0071REMSYN070AAXX  17184 83182 32597 80906 10292 20183 39269 40101 81251 333 58007;EQDQ01  00002PRCP99
0226831820999992002031800004-11290-041860FM-12+074799999V0200901N002110450019N0010001N1+02311+01801101251ADDAA199000091AY121061AY221061GF108991021021008001011011KA1240M+02991MA1999999092931MD1999999+0131MW1131REMSYN094AAXX  18004 83182 31594 80904 10231 20180 39293 40125 71322 82211 333 10299 29068 55061 58013;EQDQ01  00002PRCP99
0186831820999992002031812004-11290-041860FM-12+074799999V0200901N003619999999N0100001N1+02511+01781101351ADDAA199000091GF108991001001999999001021KA1240N+01931MA1999999093031MD1999999-0021REMSYN076AAXX  18124 83182 32997 80907 10251 20178 39303 40135 80002 333 20193 59002;EQDQ01  00002PRCP99
0167831820999992002031818004-11290-041860FM-12+074799999V0201801N003110450019N0100001N1+03161+01751100961ADDAA199000091GF106991021021008001051011MA1999999092621MD1999999-0071REMSYN070AAXX  18184 83182 32597 61806 10316 20175 39262 40096 82251 333 59007;EQDQ01  00002PRCP99
0198831820999992002031900004-11290-041860FM-12+074799999V0201401N002612200019N0010001N1+02431+01601101061ADDAA199000091GF106991011021008001001011KA1240M+03241MA1999999092781MD1999999-0151REMSYN088AAXX  19004 83182 32594 61405 10243 20160 39278 40106 81201 333 10324 29057 55104 59015;EQDQ01  00002PRCP99
0186831820999992002031912004-11290-041860FM-12+074799999V0201401N003610075019N0100001N1+02571+01701101291ADDAA199000091GF108991051021008001001011KA1240N+01871MA1999999092991MD1999999-0041REMSYN076AAXX  19124 83182 32597 81407 10257 20170 39299 40129 85201 333 20187 59004;EQDQ01  00002PRCP99
0167831820999992002031918004-11290-041860FM-12+074799999V0201401N003112200019N0100001N1+03151+01841100701ADDAA199000091GF105991031021008001001011MA1999999092481MD1999999-0141REMSYN070AAXX  19184 83182 32597 51406 10315 20184 39248 40070 83201 333 59014;EQDQ01  00002PRCP99
0198831820999992002032000004-11290-041860FM-12+074799999V0201401N003112200019N0020001N1+02451+01701101041ADDAA199000091GF108991021001017501041011KA1240M+03221MA1999999092761MD1999999-0021REMSYN088AAXX  20004 83182 32795 81406 10245 20170 39276 40104 82041 333 10322 29058 55097 59002;EQDQ01  00002PRCP99
0186831820999992002032012004-11290-041860FM-12+074799999V0200901N003612200019N0100001N1+02611+02001101361ADDAA199000091GF104991021021008001001011KA1240N+01881MA1999999093061MD1999999+0071REMSYN076AAXX  20124 83182 32597 40907 10261 20200 39306 40136 82201 333 20188 58007;EQDQ01  00002PRCP99
0167831820999992002032018004-11290-041860FM-12+074799999V0200901N002612200019N0100001N1+03161+01551100761ADDAA199000091GF103991031021008001001001MA1999999092541MD1999999+0061REMSYN070AAXX  20184 83182 32597 30905 10316 20155 39254 40076 83200 333 58006;EQDQ01  00002PRCP99
0198831820999992002032100004-11290-041860FM-12+074799999V0201401N003112200019N0020001N1+02421+01861101101ADDAA199000091GF102991021001017501041011KA1240M+03291MA1999999092821MD1999999-0061REMSYN088AAXX  21004 83182 32795 21406 10242 20186 39282 40110 82041 333 10329 29062 55096 59006;EQDQ01  00002PRCP99
0202831820999992002032112004-11290-041860FM-12+074799999V0201401N002610075019N0100001N1+02621+01981101291ADDAA199000091GF108991999021008001001001KA1240N+02011MA1999999092991MD1999999+0071REMSYN076AAXX  21124 83182 32597 81405 10262 20198 39299 40129 86200 333 20201 58007;EQDQ01+000062SCOTLCQ02  00002PRCP99
0167831820999992002032118004-11290-041860FM-12+074799999V0201801N002112200019N0100001N1+03201+01891100801ADDAA199000091GF104991041021008001001001MA1999999092581MD1999999+0041REMSYN070AAXX  21184 83182 32597 41804 10320 20189 39258 40080 84200 333 58004;EQDQ01  00002PRCP99
0208831820999992002032200004-11290-041860FM-12+074799999V0200901N002612200019N0020001N1+02321+01741101051ADDAA199000091GA1001+999999999GF100991001001999999001001KA1240M+03261MA1999999092761MD1999999-0061REMSYN082AAXX  22004 83182 32995 00905 10232 20174 39276 40105 333 10326 29064 55082 59006;EQDQ01  00002PRCP99
0186831820999992002032212004-11290-041860FM-12+074799999V0200901N003112200019N0100001N1+02611+02001101301ADDAA199000091GF108991031021008001001011KA1240N+01901MA1999999092991MD1999999+0001REMSYN076AAXX  22124 83182 32597 80906 10261 20200 39299 40130 83201 333 20190 58000;EQDQ01  00002PRCP99
0167831820999992002032218004-11290-041860FM-12+074799999V0201401N003112200019N0100001N1+03281+01341100921ADDAA199000091GF106991031021008001001011MA1999999092581MD1999999+0001REMSYN070AAXX  22184 83182 32597 61406 10328 20134 39258 40092 83201 333 58000;EQDQ01  00002PRCP99
0198831820999992002032300004-11290-041860FM-12+074799999V0201401N004112200019N0010001N1+02441+01561101191ADDAA199000091GF108991011021008001001011KA1240M+03361MA1999999092901MD1999999+0141REMSYN088AAXX  23004 83182 32594 81408 10244 20156 39290 40119 81201 333 10336 29054 55093 58014;EQDQ01  00002PRCP99
0186831820999992002032312004-11290-041860FM-12+074799999V0201401N005112200019N0100001N1+02541+01731101491ADDAA199000091GF103991021021008001001011KA1240N+01771MA1999999093171MD1999999+0181REMSYN076AAXX  23124 83182 32597 31410 10254 20173 39317 40149 82201 333 20177 58018;EQDQ01  00002PRCP99
0167831820999992002032318004-11290-041860FM-12+074799999V0200901N002612200019N0100001N1+03041+01571101141ADDAA199000091GF108991031021008001001011MA1999999092781MD1999999+0201REMSYN070AAXX  23184 83182 32597 80905 10304 20157 39278 40114 83201 333 58020;EQDQ01  00002PRCP99
0198831820999992002032400004-11290-041860FM-12+074799999V0200901N003112200019N0020001N1+02341+01491101271ADDAA199000091GF103991011021008001001011KA1240M+03141MA1999999092961MD1999999+0061REMSYN088AAXX  24004 83182 32595 30906 10234 20149 39296 40127 81201 333 10314 29055 55095 58006;EQDQ01  00002PRCP99
0186831820999992002032412004-11290-041860FM-12+074799999V0200901N004612200019N0100001N1+02521+01791101491ADDAA199000091GF102991011001017501051011KA1240N+01841MA1999999093161MD1999999-0011REMSYN076AAXX  24124 83182 32797 20909 10252 20179 39316 40149 81051 333 20184 59001;EQDQ01  00002PRCP99
0167831820999992002032418004-11290-041860FM-12+074799999V0200501N002612200019N0100001N1+03141+01121100981ADDAA199000091GF102991011021008001001011MA1999999092641MD1999999-0141REMSYN070AAXX  24184 83182 32597 20505 10314 20112 39264 40098 81201 333 59014;EQDQ01  00002PRCP99
0198831820999992002032500004-11290-041860FM-12+074799999V0200901N002610450019N0020001N1+02541+01391101181ADDAA199000091GF106991011021008001051011KA1240M+03201MA1999999092881MD1999999-0081REMSYN088AAXX  25004 83182 32595 60905 10254 20139 39288 40118 81251 333 10320 29048 55105 59008;EQDQ01  00002PRCP99
0186831820999992002032512004-11290-041860FM-12+074799999V0200901N002112200019N0100001N1+02661+01901101371ADDAA199000091GF108991011021008001001011KA1240N+01811MA1999999093081MD1999999-0081REMSYN076AAXX  25124 83182 32597 80904 10266 20190 39308 40137 81201 333 20181 59008;EQDQ01  00002PRCP99
0167831820999992002032518004-11290-041860FM-12+074799999V0201401N002612200019N0100001N1+03071+01541100811ADDAA199000091GF108991031021008001001011MA1999999092571MD1999999-0071REMSYN070AAXX  25184 83182 32597 81405 10307 20154 39257 40081 83201 333 59007;EQDQ01  00002PRCP99
0198831820999992002032600004-11290-041860FM-12+074799999V0200901N002610450019N0100001N1+02541+01861101161ADDAA199000091GF108991011021008001051011KA1240M+03271MA1999999092891MD1999999+0011REMSYN088AAXX  26004 83182 32597 80905 10254 20186 39289 40116 81251 333 10327 29059 55075 58001;EQDQ01  00002PRCP99
0186831820999992002032612004-11290-041860FM-12+074799999V0201401N003612200019N0100001N1+02601+01631101341ADDAA199000091GF101991011021008001001001KA1240N+01971MA1999999093051MD1999999-0031REMSYN076AAXX  26124 83182 32597 11407 10260 20163 39305 40134 81200 333 20197 59003;EQDQ01  00002PRCP99
0167831820999992002032618004-11290-041860FM-12+074799999V0201401N005110075019N0100001N1+03121+01891100791ADDAA199000091GF105991051021008001001001MA1999999092561MD1999999-0011REMSYN070AAXX  26184 83182 32597 51410 10312 20189 39256 40079 85200 333 59001;EQDQ01  00002PRCP99
0226831820999992002032700004-11290-041860FM-12+074799999V0201401N003111050019N0020001N1+02311+01711101231ADDAA199000091AY121061AY221061GF106991011031008001001021KA1240M+03261MA1999999092931MD1999999+0041MW1131REMSYN094AAXX  27004 83182 31595 61406 10231 20171 39293 40123 71322 81302 333 10326 29056 55099 58004;EQDQ01  00002PRCP99
0186831820999992002032712004-11290-041860FM-12+074799999V0200901N005110075019N0100001N1+02571+01861101511ADDAA199000091GF108991061021008001001011KA1240N+01861MA1999999093181MD1999999+0131REMSYN076AAXX  27124 83182 32597 80910 10257 20186 39318 40151 86201 333 20186 58013;EQDQ01  00002PRCP99
0167831820999992002032718004-11290-041860FM-12+074799999V0201801N003112200019N0100001N1+03171+01301101001ADDAA199000091GF105991031021008001001011MA1999999092751MD1999999+0191REMSYN070AAXX  27184 83182 32597 51806 10317 20130 39275 40100 83201 333 58019;EQDQ01  00002PRCP99
0198831820999992002032800004-11290-041860FM-12+074799999V0200901N003112200019N0020001N1+02501+01821101301ADDAA199000091GF103991011021008001041011KA1240M+03261MA1999999093011MD1999999+0081REMSYN088AAXX  28004 83182 32595 30906 10250 20182 39301 40130 81241 333 10326 29057 55089 58008;EQDQ01  00002PRCP99
0186831820999992002032812004-11290-041860FM-12+074799999V02099999999992200019N0100001N1+02541+01511101621ADDAA199000091GF101991011021008001001011KA1240N+01841MA1999999093291MD1999999+0111REMSYN076AAXX  28124 83182 32597 109// 10254 20151 39329 40162 81201 333 20184 58011;EQDQ01  00002PRCP99
0167831820999992002032818004-11290-041860FM-12+074799999V0201401N006212200019N0100001N1+02871+01691101131ADDAA199000091GF102991021021008001001001MA1999999092851MD1999999+0101REMSYN070AAXX  28184 83182 32597 21412 10287 20169 39285 40113 82200 333 58010;EQDQ01  00002PRCP99
0201831820999992002032912004-11290-041860FM-12+074799999V0201401N005710075019N0200001N1+02311+01951101531ADDAA124000891AY161061AY221061GF107991071051008001001001KA1240N+01931MA1999999093161MD1999999-0131MW1021REMSYN088AAXX  29124 83182 21598 71411 10231 20195 39316 40153 70262 87500 333 20193 59013 69984;
0182831820999992002032918004-11290-041860FM-12+074799999V0200901N006210075019N0200001N1+02791+01711101171ADDAA106001091AY161061AY261061GF108991051021008001001011MA1999999092801MD1999999-0051MW1021REMSYN082AAXX  29184 83182 21598 80912 10279 20171 39280 40117 70266 85201 333 59005 60011;
0198831820999992002033000004-11290-041860FM-12+074799999V0201401N004119999999N0020001N1+02231+01831101321ADDAA199000091GF106991001001999999001011KA1240M+02881MA1999999092971MD1999999-0041REMSYN088AAXX  30004 83182 32995 61408 10223 20183 39297 40132 80001 333 10288 29072 55049 59004;EQDQ01  00002PRCP99
0173831820999992002033012004-11290-041860FM-12+074799999V0200901N005710450019N0200001N1+02431+01911101421ADDAA124001091GF108991031051008001051011KA1240N+01891MA1999999093081MD1999999-0081REMSYN082AAXX  30124 83182 22598 80911 10243 20191 39308 40142 83551 333 20189 59008 60014;
0167831820999992002033018004-11290-041860FM-12+074799999V0201401N004610450019N0200001N1+02921+00771101091ADDAA199000091GF108991021031004501051011MA1999999092731MD1999999-0071REMSYN070AAXX  30184 83182 32498 81409 10292 20077 39273 40109 82351 333 59007;EQDQ01  00002PRCP99
0213831820999992002033100004-11290-041860FM-12+074799999V0201401N006210042019N0020001N1+02211+01961101391ADDAA106000791AY151061AY221061GF108991081061004501999999KA1240M+03011MA1999999093051MD1999999+0081MW1021REMSYN100AAXX  31004 83182 21495 81412 10221 20196 39305 40139 70252 886// 333 10301 29068 55069 58008 69901;
0201831820999992002033112004-11290-041860FM-12+074799999V0200901N004610075019N0200001N1+02291+01971101611ADDAA124004191AY161061AY221061GF108991071051008001051999KA1240N+01871MA1999999093241MD1999999+0161MW1021REMSYN088AAXX  31124 83182 21598 80909 10229 20197 39324 40161 70262 8755/ 333 20187 58016 60044;
0167831820999992002033118004-11290-041860FM-12+074799999V0200901N006712200019N0200001N1+02861+01751101211ADDAA199000091GF108991011021008001001011MA1999999092841MD1999999+0111REMSYN070AAXX  31184 83182 32598 80913 10286 20175 39284 40121 81201 333 58011;EQDQ01  00002PRCP99
0198831820999992002040100004-11290-041860FM-12+074799999V0201401N003612200019N0010001N1+02191+01891101431ADDAA199000091GF108991011021008001001011KA1240M+02921MA1999999093071MD1999999+0021REMSYN088AAXX  01004 83182 32594 81407 10219 20189 39307 40143 81201 333 10292 29075 55065 58002;EQDQ01  00002PRCP99
0186831820999992002040112004-11290-041860FM-12+074799999V0201401N005110450019N0100001N1+02391+01811101451ADDAA199000091GF108991011011012501031011KA1240N+01911MA1999999093101MD1999999-0141REMSYN076AAXX  01124 83182 32697 81410 10239 20181 39310 40145 81131 333 20191 59014;EQDQ01  00002PRCP99
0167831820999992002040118004-11290-041860FM-12+074799999V0201401N004110075019N0100001N1+02901+01721101141ADDAA199000091GF107991051021008001051011MA1999999092771MD1999999-0071REMSYN070AAXX  01184 83182 32597 71408 10290 20172 39277 40114 85251 333 59007;EQDQ01  00002PRCP99
0208831820999992002040200004-11290-041860FM-12+074799999V0200901N004610006019N0010001N1+02371+01651101311ADDAA199000091GA1091+999999999GF109991091999999999999999KA1240M+02961MA1999999092991MD1999999-0081REMSYN082AAXX  02004 83182 32994 90909 10237 20165 39299 40131 333 10296 29062 55073 59008;EQDQ01  00002PRCP99
0186831820999992002040212004-11290-041860FM-12+074799999V0201401N004110075019N0100001N1+02511+01951101441ADDAA199000091GF108991061051008001001011KA1240N+01961MA1999999093121MD1999999+0021REMSYN076AAXX  02124 83182 32597 81408 10251 20195 39312 40144 86501 333 20196 58002;EQDQ01  00002PRCP99
0167831820999992002040218004-11290-041860FM-12+074799999V0201401N005712200019N0100001N1+02961+01811101071ADDAA199000091GF108991041021008001001011MA1999999092801MD1999999+0031REMSYN070AAXX  02184 83182 32597 81411 10296 20181 39280 40107 84201 333 58003;EQDQ01  00002PRCP99
0198831820999992002040300004-11290-041860FM-12+074799999V0201401N004612200019N0010001N1+02261+01891101431ADDAA199000091GF108991011021008001001011KA1240M+03031MA1999999093101MD1999999+0111REMSYN088AAXX  03004 83182 32594 81409 10226 20189 39310 40143 81201 333 10303 29070 55073 58011;EQDQ01  00002PRCP99
0186831820999992002040312004-11290-041860FM-12+074799999V0200901N006212200019N0100001N1+02521+01771101521ADDAA199000091GF108991011021008001001011KA1240N+01871MA1999999093181MD1999999+0061REMSYN076AAXX  03124 83182 32597 80912 10252 20177 39318 40152 81201 333 20187 58006;EQDQ01  00002PRCP99
0167831820999992002040318004-11290-041860FM-12+074799999V0201401N004610075019N0100001N1+02831+01591101191ADDAA199000091GF108991081051008001999999MA1999999092901MD1999999+0101REMSYN070AAXX  03184 83182 32597 81409 10283 20159 39290 40119 885// 333 58010;EQDQ01  00002PRCP99
0198831820999992002040400004-11290-041860FM-12+074799999V0201401N002610450019N0010001N1+02191+01831101431ADDAA199000091GF108991041051008001061011KA1240M+02901MA1999999093091MD1999999-0011REMSYN088AAXX  04004 83182 32594 81405 10219 20183 39309 40143 84561 333 10290 29068 55061 59001;EQDQ01  00002PRCP99
0186831820999992002040412004-11290-041860FM-12+074799999V0201401N00571220001CN0100001N1+02341+01691101601ADDAA199000091GF108991011021008001001041KA1240N+01761MA1999999093231MD1999999+0051REMSYN076AAXX  04124 83182 32597 81411 10234 20169 39323 40160 81204 333 20176 58005;EQDQ01  00002PRCP99
0167831820999992002040418004-11290-041860FM-12+074799999V0201401N003112200019N0100001N1+03071+01671101071ADDAA199000091GF106991041021008001001011MA1999999092791MD1999999-0111REMSYN070AAXX  04184 83182 32597 61406 10307 20167 39279 40107 84201 333 59011;EQDQ01  00002PRCP99
0198831820999992002040500004-11290-041860FM-12+074799999V0201401N004112200019N0010001N1+02251+01751101341ADDAA199000091GF102991001001999999001011KA1240M+03101MA1999999093001MD1999999-0091REMSYN088AAXX  05004 83182 32994 21408 10225 20175 39300 40134 80001 333 10310 29064 55101 59009;EQDQ01  00002PRCP99
0186831820999992002040512004-11290-041860FM-12+074799999V0201401N005112200019N0100001N1+02331+01821101421ADDAA199000091GF102991021021008001001001KA1240N+01691MA1999999093071MD1999999-0161REMSYN076AAXX  05124 83182 32597 21410 10233 20182 39307 40142 82200 333 20169 59016;EQDQ01  00002PRCP99
0167831820999992002040518004-11290-041860FM-12+074799999V0202301N001512200019N0100001N1+03041+01411100941ADDAA199000091GF102991021021008001001011MA1999999092571MD1999999-0221REMSYN070AAXX  05184 83182 32597 22303 10304 20141 39257 40094 82201 333 59022;EQDQ01  00002PRCP99
0198831820999992002040600004-11290-041860FM-12+074799999V0201401N004112200019N0010001N1+02351+01771101121ADDAA199000091GF102991011021008001001011KA1240M+03121MA1999999092811MD1999999-0191REMSYN088AAXX  06004 83182 32594 21408 10235 20177 39281 40112 81201 333 10312 29062 55095 59019;EQDQ01  00002PRCP99
0186831820999992002040612004-11290-041860FM-12+074799999V0201401N002612200019N0100001N1+02401+01771101271ADDAA199000091GF103991021021008001061011KA1240N+01831MA1999999092951MD1999999-0121REMSYN076AAXX  06124 83182 32597 31405 10240 20177 39295 40127 82261 333 20183 59012;EQDQ01  00002PRCP99
0167831820999992002040618004-11290-041860FM-12+074799999V0201801N005711050019N0100001N1+03021+01551100841ADDAA199000091GF108991021021008001001021MA1999999092561MD1999999-0061REMSYN070AAXX  06184 83182 32597 81811 10302 20155 39256 40084 82202 333 59006;EQDQ01  00002PRCP99
0198831820999992002040700004-11290-041860FM-12+074799999V0200901N002612200019N0010001N1+02361+01561101101ADDAA199000091GF104991021021008001001011KA1240M+03141MA1999999092801MD1999999-0011REMSYN088AAXX  07004 83182 32594 40905 10236 20156 39280 40110 82201 333 10314 29058 55102 59001;EQDQ01  00002PRCP99
0186831820999992002040712004-11290-041860FM-12+074799999V0200901N004610075019N0200001N1+02511+01921101401ADDAA199000091GF107991061021008001041011KA1240N+01951MA1999999093081MD1999999+0131REMSYN076AAXX  07124 83182 32598 70909 10251 20192 39308 40140 86241 333 20195 58013;EQDQ01  00002PRCP99
0167831820999992002040718004-11290-041860FM-12+074799999V0200901N002110075019N0100001N1+02981+01511100971ADDAA199000091GF108991051041008001031021MA1999999092641MD1999999+0131REMSYN070AAXX  07184 83182 32597 80904 10298 20151 39264 40097 85432 333 58013;EQDQ01  00002PRCP99
0186831820999992002040812004-11290-041860FM-12+074799999V0200901N005110450019N0100001N1+02641+01931101301ADDAA199000091GF105991031021008001031001KA1240N+02071MA1999999093001MD1999999-0081REMSYN076AAXX  08124 83182 32597 50910 10264 20193 39300 40130 83230 333 20207 59008;EQDQ01  00002PRCP99
0167831820999992002040818004-11290-041860FM-12+074799999V0200901N003610075019N0100001N1+02981+01621100851ADDAA199000091GF106991051021008001061001MA1999999092611MD1999999-0031REMSYN070AAXX  08184 83182 32597 60907 10298 20162 39261 40085 85260 333 59003;EQDQ01  00002PRCP99
0214831820999992002040900004-11290-041860FM-12+074799999V0200901N003112200019N0010001N1+02441+01191101762ADDAA199000091GF102991021001017501061001KA1240M+03221MA1999999092911MD1999999+0041REMSYN088AAXX  09004 83182 32794 20906 10244 20119 39291 40176 82060 333 10322 29060 55073 58004;EQDQ01+101763APOSLPQ02  00002PRCP99
0186831820999992002040912004-11290-041860FM-12+074799999V0201401N003610075019N0100001N1+02651+01901101291ADDAA199000091GF106991061021008001001001KA1240N+02011MA1999999092991MD1999999-0011REMSYN076AAXX  09124 83182 32597 61407 10265 20190 39299 40129 86200 333 20201 59001;EQDQ01  00002PRCP99
0182831820999992002040918004-11290-041860FM-12+074799999V0201401N002110450019N0040001N1+02611+01921100871ADDAA106003091AY161061AY221061GF108991031031008001061011MA1999999092571MD1999999-0041MW1151REMSYN082AAXX  09184 83182 21596 81404 10261 20192 39257 40087 71562 83361 333 59004 60031;
0198831820999992002041000004-11290-041860FM-12+074799999V0201401N002610075019N0020001N1+02411+01871101051ADDAA199000091GF108991081051008001999999KA1240M+02971MA1999999092771MD1999999-0141REMSYN088AAXX  10004 83182 32595 81405 10241 20187 39277 40105 885// 333 10297 29068 55050 59014;EQDQ01  00002PRCP99
0173831820999992002041012004-11290-041860FM-12+074799999V0201401N004612200019N0100001N1+02501+01361101321ADDAA124003091GF108991041021008001001011KA1240N+02081MA1999999093011MD1999999+0021REMSYN082AAXX  10124 83182 22597 81409 10250 20136 39301 40132 84201 333 20208 58002 60034;
0167831820999992002041018004-11290-041860FM-12+074799999V0200901N003610450019N0100001N1+03041+01601100701ADDAA199000091GF108991021021008001051011MA1999999092471MD1999999-0101REMSYN070AAXX  10184 83182 32597 80907 10304 20160 39247 40070 82251 333 59010;EQDQ01  00002PRCP99
0198831820999992002041100004-11290-041860FM-12+074799999V0201401N003112200019N0020001N1+02421+01841101171ADDAA199000091GF108991021001017501051011KA1240M+03121MA1999999092871MD1999999+0101REMSYN088AAXX  11004 83182 32795 81406 10242 20184 39287 40117 82051 333 10312 29062 55093 58010;EQDQ01  00002PRCP99
0186831820999992002041112004-11290-041860FM-12+074799999V0200901N002610075019N0100001N1+02311+01841101461ADDAA199000091GF108991081051008001999999KA1240N+02071MA1999999093121MD1999999+0111REMSYN076AAXX  11124 83182 32597 80905 10231 20184 39312 40146 885// 333 20207 58011;EQDQ01  00002PRCP99
0167831820999992002041118004-11290-041860FM-12+074799999V0201801N001510450019N0100001N1+02741+01871100981ADDAA199000091GF108991041021008001061011MA1999999092691MD1999999+0221REMSYN070AAXX  11184 83182 32597 81803 10274 20187 39269 40098 84261 333 58022;EQDQ01  00002PRCP99
0198831820999992002041200004-11290-041860FM-12+074799999V0200901N001010450019N0020001N1+02331+01901101261ADDAA199000091GF108991031071004501021999KA1240M+02921MA1999999092931MD1999999+0061REMSYN088AAXX  12004 83182 32495 80902 10233 20190 39293 40126 8372/ 333 10292 29072 55007 58006;EQDQ01  00002PRCP99
0186831820999992002041212004-11290-041860FM-12+074799999V0201401N003612200019N0100001N1+02541+01981101381ADDAA199000091GF102991021021008001051011KA1240N+02051MA1999999093061MD1999999-0061REMSYN076AAXX  12124 83182 32597 21407 10254 20198 39306 40138 82251 333 20205 59006;EQDQ01  00002PRCP99
0182831820999992002041218004-11290-041860FM-12+074799999V0203201N002610450019N0100001N1+02501+02071101001ADDAA106003091AY161061AY221061GF108991031021008001061021MA1999999092711MD1999999+0021MW1151REMSYN082AAXX  12184 83182 21597 83205 10250 20207 39271 40100 71562 83262 333 58002 60031;
0213831820999992002041300004-11290-041860FM-12+074799999V0201801N001510450019N0010001N1+02141+02091101341ADDAA106002091AY161061AY261061GF108991041071004501021999KA1240M+02851MA1999999093011MD1999999+0081MW1211REMSYN100AAXX  13004 83182 21494 81803 10214 20209 39301 40134 72166 8472/ 333 10285 29090 55027 58008 60021;
0173831820999992002041312004-11290-041860FM-12+074799999V0200901N002610075019N0100001N1+02521+02021101411ADDAA124004191GF107991061021008001001011KA1240N+01941MA1999999093071MD1999999+0011REMSYN082AAXX  13124 83182 22597 70905 10252 20202 39307 40141 86201 333 20194 58001 60044;
0167831820999992002041318004-11290-041860FM-12+074799999V0201401N003610450019N0100001N1+03061+01621100921ADDAA199000091GF106991021021008001061011MA1999999092671MD1999999-0041REMSYN070AAXX  13184 83182 32597 61407 10306 20162 39267 40092 82261 333 59004;EQDQ01  00002PRCP99
0198831820999992002041400004-11290-041860FM-12+074799999V0202301N001510075019N0010001N1+02281+02011101411ADDAA199000091GF108991081051008001999999KA1240M+03121MA1999999093081MD1999999+0071REMSYN088AAXX  14004 83182 32594 82303 10228 20201 39308 40141 885// 333 10312 29072 55077 58007;EQDQ01  00002PRCP99
0186831820999992002041412004-11290-041860FM-12+074799999V0200901N006712200019N0100001N1+02531+01931101541ADDAA199000091GF106991041021008001001011KA1240N+01911MA1999999093201MD1999999+0131REMSYN076AAXX  14124 83182 32597 60913 10253 20193 39320 40154 84201 333 20191 58013;EQDQ01  00002PRCP99
0167831820999992002041418004-11290-041860FM-12+074799999V0201401N006212200019N0100001N1+02901+01871101051ADDAA199000091GF104991021021008001051011MA1999999092771MD1999999+0101REMSYN070AAXX  14184 83182 32597 41412 10290 20187 39277 40105 82251 333 58010;EQDQ01  00002PRCP99
0198831820999992002041500004-11290-041860FM-12+074799999V0201401N005712200019N0010001N1+02531+01871101241ADDAA199000091GF102991011001017501041011KA1240M+03041MA1999999092941MD1999999-0141REMSYN088AAXX  15004 83182 32794 21411 10253 20187 39294 40124 81041 333 10304 29068 55105 59014;EQDQ01  00002PRCP99
0186831820999992002041512004-11290-041860FM-12+074799999V02099999999990075019N0100001N1+02371+01831101491ADDAA199000091GF107991071021008001001001KA1240N+01931MA1999999093161MD1999999-0041REMSYN076AAXX  15124 83182 32597 709// 10237 20183 39316 40149 87200 333 20193 59004;EQDQ01  00002PRCP99
0186831820999992002041612004-11290-041860FM-12+074799999V0201401N006712200019N0100001N1+02461+01711101511ADDAA199000091GF101991011021008001001001KA1240N+01871MA1999999093151MD1999999-0011REMSYN076AAXX  16124 83182 32597 11413 10246 20171 39315 40151 81200 333 20187 59001;EQDQ01  00002PRCP99
0167831820999992002041618004-11290-041860FM-12+074799999V0201401N003110450019N0100001N1+03051+01721101071ADDAA199000091GF106991041021008001061011MA1999999092801MD1999999+0001REMSYN070AAXX  16184 83182 32597 61406 10305 20172 39280 40107 84261 333 58000;EQDQ01  00002PRCP99
0208831820999992002041700004-11290-041860FM-12+074799999V0201401N003112200019N0010001N1+02351+01631101361ADDAA199000091GA1001+999999999GF100991001001999999001001KA1240M+03101MA1999999093041MD1999999+0031REMSYN082AAXX  17004 83182 32994 01406 10235 20163 39304 40136 333 10310 29059 55082 58003;EQDQ01  00002PRCP99
0208831820999992002041800004-11290-041860FM-12+074799999V0200901N003112200019N0010001N1+02341+01491101361ADDAA199000091GA1001+999999999GF100991001001999999001001KA1240M+03251MA1999999093051MD1999999+0011REMSYN082AAXX  18004 83182 32994 00906 10234 20149 39305 40136 333 10325 29054 55103 58001;EQDQ01  00002PRCP99
0186831820999992002041812004-11290-041860FM-12+074799999V0201401N006710450019N0100001N1+02581+01801101491ADDAA199000091GF106991011021008001051001KA1240N+01901MA1999999093161MD1999999-0091REMSYN076AAXX  18124 83182 32597 61413 10258 20180 39316 40149 81250 333 20190 59009;EQDQ01  00002PRCP99
0167831820999992002041818004-11290-041860FM-12+074799999V0201401N005112200019N0100001N1+03041+01751101041ADDAA199000091GF103991031021008001001001MA1999999092781MD1999999-0011REMSYN070AAXX  18184 83182 32597 31410 10304 20175 39278 40104 83200 333 59001;EQDQ01  00002PRCP99
0208831820999992002041900004-11290-041860FM-12+074799999V0200901N004112200019N0010001N1+02361+01761101271ADDAA199000091GA1001+999999999GF100991001001999999001001KA1240M+03121MA1999999092961MD1999999-0091REMSYN082AAXX  19004 83182 32994 00908 10236 20176 39296 40127 333 10312 29061 55102 59009;EQDQ01  00002PRCP99
0186831820999992002041912004-11290-041860FM-12+074799999V0200901N006710075019N0100001N1+02511+01981101421ADDAA199000091GF106991061021008001001001KA1240N+01931MA1999999093101MD1999999-0061REMSYN076AAXX  19124 83182 32597 60913 10251 20198 39310 40142 86200 333 20193 59006;EQDQ01  00002PRCP99
0167831820999992002041918004-11290-041860FM-12+074799999V0200901N008212200019N0100001N1+03061+01541100961ADDAA199000091GF102991021021008001001001MA1999999092701MD1999999-0081REMSYN070AAXX  19184 83182 32597 20916 10306 20154 39270 40096 82200 333 59008;EQDQ01  00002PRCP99
0208831820999992002042000004-11290-041860FM-12+074799999V0201401N006212200019N0010001N1+02291+01821101291ADDAA199000091GA1001+999999999GF100991001001999999001001KA1240M+03091MA1999999092971MD1999999+0011REMSYN082AAXX  20004 83182 32994 01412 10229 20182 39297 40129 333 10309 29066 55109 58001;EQDQ01  00002PRCP99
0196831820999992002042012004-11290-041860FM-12+074799999V0201401N005712200019N0100001N1+02541+01511101451ADDAA199000091GA1001+999999999GF100991001001999999001001KA1240N+01691MA1999999093121MD1999999+0021REMSYN070AAXX  20124 83182 32997 01411 10254 20151 39312 40145 333 20169 58002;EQDQ01  00002PRCP99
0167831820999992002042018004-11290-041860FM-12+074799999V0201401N006212200019N0100001N1+03011+01161100911ADDAA199000091GF102991011011012501001021MA1999999092651MD1999999-0051REMSYN070AAXX  20184 83182 32697 21412 10301 20116 39265 40091 81102 333 59005;EQDQ01  00002PRCP99
0240831820999992002042100004-11290-041860FM-12+074799999V0200901N003112200019N0010001N1+02371+02221101371ADDAA199000091GA1001+999999999GF100991001001999999001001KA1240M+03041MA1999999999999MD1999999-0061REMSYN082AAXX  21004 83182 32794 00906 10237 20222 39881 40137 333 10304 29079 55102 59006;EQDQ01+098813APOSP Q02  00002PRCP99Q03 098813APOSP 
0186831820999992002042112004-11290-041860FM-12+074799999V0201401N005112200019N0100001N1+02491+01791101481ADDAA199000091GF101991011021008001001001KA1240N+01751MA1999999093141MD1999999+0021REMSYN076AAXX  21124 83182 32597 11410 10249 20179 39314 40148 81200 333 20175 58002;EQDQ01  00002PRCP99
0213831820999992002042200004-11290-041860FM-12+074799999V0201401N005112200019N0010001N1+02181+01881101281ADDAA106000591AY161061AY211061GF101991011051008001001001KA1240M+03061MA1999999092951MD1999999-0051MW1011REMSYN100AAXX  22004 83182 21594 11410 10218 20188 39295 40128 70161 81500 333 10306 29070 55094 59005 69941;
0173831820999992002042212004-11290-041860FM-12+074799999V0201401N007712200019N0100001N1+02311+01591101451ADDAA124000591GF102991021021008001001001KA1240N+01721MA1999999093091MD1999999-0051REMSYN082AAXX  22124 83182 22597 21415 10231 20159 39309 40145 82200 333 20172 59005 69944;
0167831820999992002042218004-11290-041860FM-12+074799999V0200901N006210450019N0100001N1+02811+01781101071ADDAA199000091GF106991031021008001061001MA1999999092771MD1999999+0081REMSYN070AAXX  22184 83182 32597 60912 10281 20178 39277 40107 83260 333 58008;EQDQ01  00002PRCP99
0198831820999992002042300004-11290-041860FM-12+074799999V0201401N003612200019N0010001N1+02241+01751101291ADDAA199000091GF102991011001017501041021KA1240M+02921MA1999999092951MD1999999+0001REMSYN088AAXX  23004 83182 32794 21407 10224 20175 39295 40129 81042 333 10292 29066 55078 58000;EQDQ01  00002PRCP99
0186831820999992002042312004-11290-041860FM-12+074799999V0201401N007712200019N0100001N1+02481+01461101351ADDAA199000091GF102991021021008001001001KA1240N+01911MA1999999093021MD1999999-0071REMSYN076AAXX  23124 83182 32597 21415 10248 20146 39302 40135 82200 333 20191 59007;EQDQ01  00002PRCP99
0167831820999992002042318004-11290-041860FM-12+074799999V0201401N006712200019N0100001N1+02791+01831100951ADDAA199000091GF102991021021008001001001MA1999999092671MD1999999-0101REMSYN070AAXX  23184 83182 32597 21413 10279 20183 39267 40095 82200 333 59010;EQDQ01  00002PRCP99
0208831820999992002042400004-11290-041860FM-12+074799999V0201401N005712200019N0010001N1+02211+01701101301ADDAA199000091GA1001+999999999GF100991001001999999001001KA1240M+02991MA1999999092971MD1999999+0021REMSYN082AAXX  24004 83182 32994 01411 10221 20170 39297 40130 333 10299 29064 55097 58002;EQDQ01  00002PRCP99
0186831820999992002042412004-11290-041860FM-12+074799999V0201401N006710075019N0100001N1+02341+01741101351ADDAA199000091GF107991071051008001001001KA1240N+01761MA1999999093011MD1999999-0011REMSYN076AAXX  24124 83182 32597 71413 10234 20174 39301 40135 87500 333 20176 59001;EQDQ01  00002PRCP99
0167831820999992002042418004-11290-041860FM-12+074799999V0200901N005710450019N0100001N1+02781+01551100901ADDAA199000091GF106991041021008001061001MA1999999092611MD1999999-0061REMSYN070AAXX  24184 83182 32597 60911 10278 20155 39261 40090 84260 333 59006;EQDQ01  00002PRCP99
0198831820999992002042500004-11290-041860FM-12+074799999V0201401N004112200019N0010001N1+02211+01741101171ADDAA199000091GF102991011001017501041021KA1240M+02881MA1999999092851MD1999999-0121REMSYN088AAXX  25004 83182 32794 21408 10221 20174 39285 40117 81042 333 10288 29066 55075 59012;EQDQ01  00002PRCP99
0186831820999992002042512004-11290-041860FM-12+074799999V0200901N006212200019N0100001N1+02481+01701101451ADDAA199000091GF105991041021008001001041KA1240N+01891MA1999999093111MD1999999+0101REMSYN076AAXX  25124 83182 32597 50912 10248 20170 39311 40145 84204 333 20189 58010;EQDQ01  00002PRCP99
0183831820999992002042518004-11290-041860FM-12+074799999V0201401N001010075019N0100001N1+02831+01301100991ADDAA199000091GF106991999021008001001001MA1999999092711MD1999999+0101REMSYN070AAXX  25184 83182 32597 61402 10283 20130 39271 40099 85200 333 58010;EQDQ01+000052SCOTLCQ02  00002PRCP99
0198831820999992002042600004-11290-041860FM-12+074799999V0201401N004619999999N0010001N1+02281+01641101251ADDAA199000091GF106991001001999999001011KA1240M+03021MA1999999092941MD1999999+0091REMSYN088AAXX  26004 83182 32994 61409 10228 20164 39294 40125 80001 333 10302 29059 55103 58009;EQDQ01  00002PRCP99
0186831820999992002042612004-11290-041860FM-12+074799999V0201401N004111050019N0100001N1+02361+01691101751ADDAA199000091GF108991011021008001001021KA1240N+01911MA1999999093371MD1999999+0261REMSYN076AAXX  26124 83182 32597 81408 10236 20169 39337 40175 81202 333 20191 58026;EQDQ01  00002PRCP99
0167831820999992002042618004-11290-041860FM-12+074799999V0200901N004110450019N0100001N1+02861+01551101191ADDAA199000091GF108991021021008001041041MA1999999092891MD1999999+0181REMSYN070AAXX  26184 83182 32597 80908 10286 20155 39289 40119 82244 333 58018;EQDQ01  00002PRCP99
0198831820999992002042700004-11290-041860FM-12+074799999V0201401N004111050019N0010001N1+02201+01691101371ADDAA199000091GF108991011001017501051021KA1240M+02941MA1999999093031MD1999999+0091REMSYN088AAXX  27004 83182 32794 81408 10220 20169 39303 40137 81052 333 10294 29064 55056 58009;EQDQ01  00002PRCP99
0186831820999992002042712004-11290-041860FM-12+074799999V0201401N006210075019N0100001N1+02251+01691101561ADDAA199000091GF108991081051008001999999KA1240N+01801MA1999999093191MD1999999-0181REMSYN076AAXX  27124 83182 32597 81412 10225 20169 39319 40156 885// 333 20180 59018;EQDQ01  00002PRCP99
0167831820999992002042718004-11290-041860FM-12+074799999V0201401N003112200019N0100001N1+03121+01301101021ADDAA199000091GF108991031021008001001011MA1999999092731MD1999999-0161REMSYN070AAXX  27184 83182 32597 81406 10312 20130 39273 40102 83201 333 59016;EQDQ01  00002PRCP99
0198831820999992002042800004-11290-041860FM-12+074799999V0200901N005112200019N0010001N1+02301+01751101231ADDAA199000091GF108991011001017501041011KA1240M+03131MA1999999092901MD1999999+0131REMSYN088AAXX  28004 83182 32794 80910 10230 20175 39290 40123 81041 333 10313 29061 55088 58013;EQDQ01  00002PRCP99
0186831820999992002042812004-11290-041860FM-12+074799999V0201401N004112200019N0100001N1+02521+01431101431ADDAA199000091GF103991001001999999001011KA1240N+01801MA1999999093101MD1999999-0091REMSYN076AAXX  28124 83182 32997 31408 10252 20143 39310 40143 80001 333 20180 59009;EQDQ01  00002PRCP99
0167831820999992002042818004-11290-041860FM-12+074799999V0201401N003612200019N0100001N1+03201+01011101001ADDAA199000091GF102991011011012501001011MA1999999092741MD1999999+0011REMSYN070AAXX  28184 83182 32697 21407 10320 20101 39274 40100 81101 333 58001;EQDQ01  00002PRCP99
0198831820999992002042900004-11290-041860FM-12+074799999V0201401N003112200019N0010001N1+02181+01371101361ADDAA199000091GF102991011001017501041011KA1240M+03221MA1999999093031MD1999999+0131REMSYN088AAXX  29004 83182 32794 21406 10218 20137 39303 40136 81041 333 10322 29049 55108 58013;EQDQ01  00002PRCP99
0186831820999992002042912004-11290-041860FM-12+074799999V0201401N005112200019N0100001N1+02461+01501101651ADDAA199000091GF101991011011012501001001KA1240N+01641MA1999999093281MD1999999+0181REMSYN076AAXX  29124 83182 32697 11410 10246 20150 39328 40165 81100 333 20164 58018;EQDQ01  00002PRCP99
0177831820999992002042918004-11290-041860FM-12+074799999V0200901N003612200019N0100001N1+03111+01241101101ADDAA199000091GA1001+999999999GF100991001001999999001001MA1999999092831MD1999999+0071REMSYN064AAXX  29184 83182 32997 00907 10311 20124 39283 40110 333 58007;EQDQ01  00002PRCP99
0208831820999992002043000004-11290-041860FM-12+074799999V0201401N003112200019N0010001N1+02311+01381101391ADDAA199000091GA1001+999999999GF100991001001999999001001KA1240M+03121MA1999999093061MD1999999+0031REMSYN082AAXX  30004 83182 32994 01406 10231 20138 39306 40139 333 10312 29050 55108 58003;EQDQ01  00002PRCP99
0186831820999992002043012004-11290-041860FM-12+074799999V0201401N004612200019N0100001N1+02531+01561101711ADDAA199000091GF102991021011012501001001KA1240N+01631MA1999999093351MD1999999+0071REMSYN076AAXX  30124 83182 32697 21409 10253 20156 39335 40171 82100 333 20163 58007;EQDQ01  00002PRCP99
0167831820999992002043018004-11290-041860FM-12+074799999V0201401N004112200019N0100001N1+03061+01381101221ADDAA199000091GF101991011021008001001001MA1999999092921MD1999999+0111REMSYN070AAXX  30184 83182 32597 11408 10306 20138 39292 40122 81200 333 58011;EQDQ01  00002PRCP99
0208831820999992002050100004-11290-041860FM-12+074799999V0201401N004112200019N0100001N1+02331+01441101461ADDAA199000091GA1001+999999999GF100991001001999999001001KA1240M+03121MA1999999093141MD1999999+0081REMSYN082AAXX  01004 83182 32997 01408 10233 20144 39314 40146 333 10312 29052 55106 58008;EQDQ01  00002PRCP99
0186831820999992002050112004-11290-041860FM-12+074799999V0201401N003112200019N0100001N1+02541+01541101561ADDAA199000091GF101991001001999999001011KA1240N+01711MA1999999093231MD1999999-0121REMSYN076AAXX  01124 83182 32997 11406 10254 20154 39323 40156 80001 333 20171 59012;EQDQ01  00002PRCP99
0167831820999992002050118004-11290-041860FM-12+074799999V0201401N003112200019N0100001N1+03161+01291101081ADDAA199000091GF101991011021008001001001MA1999999092801MD1999999-0121REMSYN070AAXX  01184 83182 32597 11406 10316 20129 39280 40108 81200 333 59012;EQDQ01  00002PRCP99
0208831820999992002050200004-11290-041860FM-12+074799999V0201401N002612200019N0010001N1+02341+01571101271ADDAA199000091GA1001+999999999GF100991001001999999001001KA1240M+03211MA1999999092961MD1999999-0181REMSYN082AAXX  02004 83182 32994 01405 10234 20157 39296 40127 333 10321 29052 55108 59018;EQDQ01  00002PRCP99
0186831820999992002050212004-11290-041860FM-12+074799999V0201401N004612200019N0100001N1+02461+01731101421ADDAA199000091GF108991011011012501001011KA1240N+01931MA1999999093091MD1999999-0141REMSYN076AAXX  02124 83182 32697 81409 10246 20173 39309 40142 81101 333 20193 59014;EQDQ01  00002PRCP99
0167831820999992002050218004-11290-041860FM-12+074799999V0201401N002610450019N0100001N1+03081+01401100991ADDAA199000091GF108991031021008001061011MA1999999092721MD1999999-0081REMSYN070AAXX  02184 83182 32597 81405 10308 20140 39272 40099 83261 333 59008;EQDQ01  00002PRCP99
0198831820999992002050300004-11290-041860FM-12+074799999V0200901N003610450019N0010001N1+02411+01531101171ADDAA199000091GF108991011051008001041011KA1240M+03141MA1999999092871MD1999999-0091REMSYN088AAXX  03004 83182 32594 80907 10241 20153 39287 40117 81541 333 10314 29054 55089 59009;EQDQ01  00002PRCP99
0186831820999992002050312004-11290-041860FM-12+074799999V0200901N004110450019N0100001N1+02481+01731101491ADDAA199000091GF108991011021008001051011KA1240N+01841MA1999999093161MD1999999+0071REMSYN076AAXX  03124 83182 32597 80908 10248 20173 39316 40149 81251 333 20184 58007;EQDQ01  00002PRCP99
0167831820999992002050318004-11290-041860FM-12+074799999V0201801N002610450019N0100001N1+03151+01411100901ADDAA199000091GF106991021021008001041011MA1999999092671MD1999999-0051REMSYN070AAXX  03184 83182 32597 61805 10315 20141 39267 40090 82241 333 59005;EQDQ01  00002PRCP99
0198831820999992002050400004-11290-041860FM-12+074799999V0200901N004112200019N0010001N1+02381+01631101121ADDAA199000091GF102991001001999999001011KA1240M+03151MA1999999092831MD1999999-0041REMSYN088AAXX  04004 83182 32994 20908 10238 20163 39283 40112 80001 333 10315 29056 55095 59004;EQDQ01  00002PRCP99
0186831820999992002050412004-11290-041860FM-12+074799999V0200901N002610075019N0100001N1+02511+01781101551ADDAA199000091GF105991051021008001001001KA1240N+01751MA1999999093221MD1999999+0061REMSYN076AAXX  04124 83182 32597 50905 10251 20178 39322 40155 85200 333 20175 58006;EQDQ01  00002PRCP99
0167831820999992002050418004-11290-041860FM-12+074799999V0200901N002612200019N0100001N1+03131+01421100971ADDAA199000091GF102991021021008001001001MA1999999092701MD1999999+0051REMSYN070AAXX  04184 83182 32597 20905 10313 20142 39270 40097 82200 333 58005;EQDQ01  00002PRCP99
0208831820999992002050500004-11290-041860FM-12+074799999V0200901N004112200019N0010001N1+02441+01641101321ADDAA199000091GA1001+999999999GF100991001001999999001001KA1240M+03221MA1999999093021MD1999999+0191REMSYN082AAXX  05004 83182 32994 00908 10244 20164 39302 40132 333 10322 29055 55103 58019;EQDQ01  00002PRCP99
0186831820999992002050512004-11290-041860FM-12+074799999V0201401N005112200019N0100001N1+02361+01711101711ADDAA199000091GF102991011011012501001011KA1240N+01611MA1999999093351MD1999999+0131REMSYN076AAXX  05124 83182 32697 21410 10236 20171 39335 40171 81101 333 20161 58013;EQDQ01  00002PRCP99
0167831820999992002050518004-11290-041860FM-12+074799999V0201401N003612200019N0100001N1+03101+01331101191ADDAA199000091GF101991011021008001001011MA1999999092891MD1999999+0191REMSYN070AAXX  05184 83182 32597 11407 10310 20133 39289 40119 81201 333 58019;EQDQ01  00002PRCP99
0208831820999992002050600004-11290-041860FM-12+074799999V0200901N003112200019N0010001N1+02241+01401101581ADDAA199000091GA1001+999999999GF100991001001999999001001KA1240M+03121MA1999999093221MD1999999+0201REMSYN082AAXX  06004 83182 32994 00906 10224 20140 39322 40158 333 10312 29055 55107 58020;EQDQ01  00002PRCP99
0186831820999992002050612004-11290-041860FM-12+074799999V0201401N006212200019N0100001N1+02401+01551101811ADDAA199000091GF102991011021008001001011KA1240N+01601MA1999999093431MD1999999+0081REMSYN076AAXX  06124 83182 32597 21412 10240 20155 39343 40181 81201 333 20160 58008;EQDQ01  00002PRCP99
0167831820999992002050618004-11290-041860FM-12+074799999V0200901N004612200019N0100001N1+02981+01591101211ADDAA199000091GF104991031041008001021001MA1999999092901MD1999999+0011REMSYN070AAXX  06184 83182 32597 40909 10298 20159 39290 40121 83420 333 58001;EQDQ01  00002PRCP99
0198831820999992002050700004-11290-041860FM-12+074799999V0201401N005112200019N0010001N1+02271+01781101601ADDAA199000091GF102991021001017501051001KA1240M+03081MA1999999093251MD1999999+0031REMSYN088AAXX  07004 83182 32794 21410 10227 20178 39325 40160 82050 333 10308 29062 55107 58003;EQDQ01  00002PRCP99
0186831820999992002050712004-11290-041860FM-12+074799999V0200901N005710075019N0100001N1+02381+01751101611ADDAA199000091GF108991081051008001999999KA1240N+01921MA1999999093251MD1999999-0181REMSYN076AAXX  07124 83182 32597 80911 10238 20175 39325 40161 885// 333 20192 59018;EQDQ01  00002PRCP99
0167831820999992002050718004-11290-041860FM-12+074799999V0201401N004110450019N0100001N1+02721+01821101241ADDAA199000091GF108991041021008001061011MA1999999092911MD1999999+0011REMSYN070AAXX  07184 83182 32597 81408 10272 20182 39291 40124 84261 333 58001;EQDQ01  00002PRCP99
0198831820999992002050800004-11290-041860FM-12+074799999V0201401N004610075019N0010001N1+02141+01801101591ADDAA199000091GF108991081051008001999999KA1240M+02891MA1999999093221MD1999999-0031REMSYN088AAXX  08004 83182 32594 81409 10214 20180 39322 40159 885// 333 10289 29072 55075 59003;EQDQ01  00002PRCP99
0186831820999992002050812004-11290-041860FM-12+074799999V0200901N004610450019N0100001N1+02431+01581101701ADDAA199000091GF108991011021008001041011KA1240N+02001MA1999999093331MD1999999+0081REMSYN076AAXX  08124 83182 32597 80909 10243 20158 39333 40170 81241 333 20200 58008;EQDQ01  00002PRCP99
0167831820999992002050818004-11290-041860FM-12+074799999V0200901N004610075019N0100001N1+02831+01421101131ADDAA199000091GF106991051021008001041011MA1999999092841MD1999999-0071REMSYN070AAXX  08184 83182 32597 60909 10283 20142 39284 40113 85241 333 59007;EQDQ01  00002PRCP99
0198831820999992002050900004-11290-041860FM-12+074799999V0200901N003612200019N0010001N1+02131+01621101471ADDAA199000091GF104991021001017501041011KA1240M+02941MA1999999093121MD1999999-0101REMSYN088AAXX  09004 83182 32794 40907 10213 20162 39312 40147 82041 333 10294 29061 55082 59010;EQDQ01  00002PRCP99
0186831820999992002050912004-11290-041860FM-12+074799999V0200901N003612200019N0100001N1+02481+01651101781ADDAA199000091GF101991011021008001001001KA1240N+01761MA1999999093401MD1999999+0071REMSYN076AAXX  09124 83182 32597 10907 10248 20165 39340 40178 81200 333 20176 58007;EQDQ01  00002PRCP99
0167831820999992002050918004-11290-041860FM-12+074799999V0201401N003112200019N0100001N1+02991+01311101241ADDAA199000091GF103991031021008001001001MA1999999092941MD1999999+0101REMSYN070AAXX  09184 83182 32597 31406 10299 20131 39294 40124 83200 333 58010;EQDQ01  00002PRCP99
0208831820999992002051000004-11290-041860FM-12+074799999V0201401N004612200019N0010001N1+02341+01521101521ADDAA199000091GA1001+999999999GF100991001001999999001001KA1240M+03101MA1999999093181MD1999999-0061REMSYN082AAXX  10004 83182 32994 01409 10234 20152 39318 40152 333 10310 29054 55095 59006;EQDQ01  00002PRCP99
0186831820999992002051012004-11290-041860FM-12+074799999V0201401N005112200019N0100001N1+02541+01511101771ADDAA199000091GF101991011011012501001001KA1240N+01721MA1999999093421MD1999999+0021REMSYN076AAXX  10124 83182 32697 11410 10254 20151 39342 40177 81100 333 20172 58002;EQDQ01  00002PRCP99
0167831820999992002051018004-11290-041860FM-12+074799999V0201401N004612200019N0100001N1+03041+01281101451ADDAA199000091GF108991011011012501001011MA1999999093131MD1999999+0191REMSYN070AAXX  10184 83182 32697 81409 10304 20128 39313 40145 81101 333 58019;EQDQ01  00002PRCP99
0198831820999992002051100004-11290-041860FM-12+074799999V0201401N003119999999N0010001N1+02261+01341101691ADDAA199000091GF108991001001999999001011KA1240M+03081MA1999999093341MD1999999+0161REMSYN088AAXX  11004 83182 32994 81406 10226 20134 39334 40169 80001 333 10308 29050 55106 58016;EQDQ01  00002PRCP99
0186831820999992002051112004-11290-041860FM-12+074799999V0201401N007210450019N0100001N1+02581+01581101841ADDAA199000091GF108991011021008001041011KA1240N+01641MA1999999093471MD1999999+0051REMSYN076AAXX  11124 83182 32597 81414 10258 20158 39347 40184 81241 333 20164 58005;EQDQ01  00002PRCP99
0167831820999992002051118004-11290-041860FM-12+074799999V0201401N005710075019N0100001N1+02771+01721101411ADDAA199000091GF108991061021008001061011MA1999999093071MD1999999-0061REMSYN070AAXX  11184 83182 32597 81411 10277 20172 39307 40141 86261 333 59006;EQDQ01  00002PRCP99
0198831820999992002051200004-11290-041860FM-12+074799999V0201401N004110450019N0010001N1+02261+01791101681ADDAA199000091GF106991021051008001061011KA1240M+02931MA1999999093331MD1999999-0011REMSYN088AAXX  12004 83182 32594 61408 10226 20179 39333 40168 82561 333 10293 29064 55046 59001;EQDQ01  00002PRCP99
0202831820999992002051212004-11290-041860FM-12+074799999V0200901N006710120019N0100001N1+02481+01751101781ADDAA199000091GF108991999081008001051999KA1240N+01801MA1999999093411MD1999999-0061REMSYN076AAXX  12124 83182 32597 80913 10248 20175 39341 40178 8885/ 333 20180 59006;EQDQ01+000082SCOTLCQ02  00002PRCP99
0198831820999992002051300004-11290-041860FM-12+074799999V0201401N005110450019N0010001N1+02241+01691101641ADDAA199000091GF108991021051008001061011KA1240M+02971MA1999999093281MD1999999-0051REMSYN088AAXX  13004 83182 32594 81410 10224 20169 39328 40164 82561 333 10297 29064 55074 59005;EQDQ01  00002PRCP99
0186831820999992002051312004-11290-041860FM-12+074799999V0200901N005712200019N0100001N1+02461+01681101731ADDAA199000091GF104991041021008001001001KA1240N+01831MA1999999093361MD1999999-0051REMSYN076AAXX  13124 83182 32597 40911 10246 20168 39336 40173 84200 333 20183 59005;EQDQ01  00002PRCP99
0167831820999992002051318004-11290-041860FM-12+074799999V0200901N005710075019N0100001N1+02851+01401101391ADDAA199000091GF105991051021008001001001MA1999999093061MD1999999+0041REMSYN070AAXX  13184 83182 32597 50911 10285 20140 39306 40139 85200 333 58004;EQDQ01  00002PRCP99
0198831820999992002051400004-11290-041860FM-12+074799999V0201401N003110042019N0010001N1+02181+01701101751ADDAA199000091GF108991081071004501999999KA1240M+02901MA1999999093371MD1999999+0091REMSYN088AAXX  14004 83182 32494 81406 10218 20170 39337 40175 887// 333 10290 29063 55073 58009;EQDQ01  00002PRCP99
0186831820999992002051412004-11290-041860FM-12+074799999V0201401N006710075019N0100001N1+02431+01501101791ADDAA199000091GF105991051021008001001001KA1240N+01841MA1999999093411MD1999999+0051REMSYN076AAXX  14124 83182 32597 51413 10243 20150 39341 40179 85200 333 20184 58005;EQDQ01  00002PRCP99
0167831820999992002051418004-11290-041860FM-12+074799999V0201401N005710075019N0100001N1+02751+01481101351ADDAA199000091GF106991061021008001001001MA1999999093021MD1999999-0041REMSYN070AAXX  14184 83182 32597 61411 10275 20148 39302 40135 86200 333 59004;EQDQ01  00002PRCP99
0198831820999992002051500004-11290-041860FM-12+074799999V0201401N005710075019N0010001N1+02171+01711101311ADDAA199000091GF108991081051008001999999KA1240M+02861MA1999999093251MD1999999-0121REMSYN088AAXX  15004 83182 32594 81411 10217 20171 39325 40131 885// 333 10286 29063 55090 59012;EQDQ01  00002PRCP99
0186831820999992002051512004-11290-041860FM-12+074799999V0200901N005112200019N0100001N1+02431+01521101821ADDAA199000091GF104991041021008001001001KA1240N+01831MA1999999093441MD1999999+0031REMSYN076AAXX  15124 83182 32597 40910 10243 20152 39344 40182 84200 333 20183 58003;EQDQ01  00002PRCP99
0167831820999992002051518004-11290-041860FM-12+074799999V0200901N005112200019N0100001N1+02951+01411101341ADDAA199000091GF103991031021008001001001MA1999999093021MD1999999+0011REMSYN070AAXX  15184 83182 32597 30910 10295 20141 39302 40134 83200 333 58001;EQDQ01  00002PRCP99
0198831820999992002051600004-11290-041860FM-12+074799999V0201401N003612200019N0010001N1+02121+01441101581ADDAA199000091GF102991021001017501041001KA1240M+02971MA1999999093221MD1999999-0031REMSYN088AAXX  16004 83182 32794 21407 10212 20144 39322 40158 82040 333 10297 29056 55101 59003;EQDQ01  00002PRCP99
0186831820999992002051612004-11290-041860FM-12+074799999V0201401N004612200019N0100001N1+02341+01551101621ADDAA199000091GF101991001001999999001041KA1240N+01651MA1999999093251MD1999999-0141REMSYN076AAXX  16124 83182 32997 11409 10234 20155 39325 40162 80004 333 20165 59014;EQDQ01  00002PRCP99
0167831820999992002051618004-11290-041860FM-12+074799999V0203601N001512200019N0100001N1+03011+01251101111ADDAA199000091GF101991011021008001001001MA1999999092811MD1999999-0221REMSYN070AAXX  16184 83182 32597 13603 10301 20125 39281 40111 81200 333 59022;EQDQ01  00002PRCP99
0198831820999992002051700004-11290-041860FM-12+074799999V0201401N004612200019N0010001N1+02271+01521101421ADDAA199000091GF102991021001017501051001KA1240M+03141MA1999999093071MD1999999-0151REMSYN088AAXX  17004 83182 32794 21409 10227 20152 39307 40142 82050 333 10314 29056 55106 59015;EQDQ01  00002PRCP99
0196831820999992002051712004-11290-041860FM-12+074799999V0201401N003112200019N0100001N1+02541+01571101461ADDAA199000091GA1001+999999999GF100991001001999999001001KA1240N+01701MA1999999093131MD1999999-0121REMSYN070AAXX  17124 83182 32997 01406 10254 20157 39313 40146 333 20170 59012;EQDQ01  00002PRCP99
0167831820999992002051718004-11290-041860FM-12+074799999V0201801N004612200019N0100001N1+03251+00801100821ADDAA199000091GF101991011021008001001001MA1999999092561MD1999999-0251REMSYN070AAXX  17184 83182 32597 11809 10325 20080 39256 40082 81200 333 59025;EQDQ01  00002PRCP99
0214831820999992002051800004-11290-041860FM-12+074799999V0200901N004612200019N0010001N1+02411+01601101111ADDAA199000091GF102991999001017501051001KA1240M+03301MA1999999092831MD1999999-0241REMSYN088AAXX  18004 83182 32794 20909 10241 20160 39283 40111 81050 333 10330 29050 55109 59024;EQDQ01+000012SCOTLCQ02  00002PRCP99
0186831820999992002051812004-11290-041860FM-12+074799999V0201401N005112200019N0100001N1+02501+01621101391ADDAA199000091GF101991001001999999001011KA1240N+01731MA1999999093071MD1999999-0061REMSYN076AAXX  18124 83182 32997 11410 10250 20162 39307 40139 80001 333 20173 59006;EQDQ01  00002PRCP99
0167831820999992002051818004-11290-041860FM-12+074799999V0201401N004112200019N0100001N1+03091+01271100911ADDAA199000091GF106991031021008001001011MA1999999092631MD1999999+0071REMSYN070AAXX  18184 83182 32597 61408 10309 20127 39263 40091 83201 333 58007;EQDQ01  00002PRCP99
0198831820999992002051900004-11290-041860FM-12+074799999V0201401N004112200019N0010001N1+02311+01531101301ADDAA199000091GF102991011001017501041011KA1240M+03141MA1999999092981MD1999999+0151REMSYN088AAXX  19004 83182 32794 21408 10231 20153 39298 40130 81041 333 10314 29054 55090 58015;EQDQ01  00002PRCP99
0186831820999992002051912004-11290-041860FM-12+074799999V0201401N004612200019N0100001N1+02311+01641101691ADDAA199000091GF104991041021008001001001KA1240N+01721MA1999999093321MD1999999+0251REMSYN076AAXX  19124 83182 32597 41409 10231 20164 39332 40169 84200 333 20172 58025;EQDQ01  00002PRCP99
0167831820999992002051918004-11290-041860FM-12+074799999V0200501N003112200019N0100001N1+03091+01321101101ADDAA199000091GF108991031021008001001011MA1999999092791MD1999999+0161REMSYN070AAXX  19184 83182 32597 80506 10309 20132 39279 40110 83201 333 58016;EQDQ01  00002PRCP99
0198831820999992002052000004-11290-041860FM-12+074799999V0201401N004119999999N0010001N1+02321+01601101431ADDAA199000091GF108991001001999999001011KA1240M+03161MA1999999093081MD1999999+0101REMSYN088AAXX  20004 83182 32994 81408 10232 20160 39308 40143 80001 333 10316 29057 55099 58010;EQDQ01  00002PRCP99
0186831820999992002052012004-11290-041860FM-12+074799999V0201401N003610150019N0100001N1+02511+01451101621ADDAA199000091GF106991061001017501021011KA1240N+01921MA1999999093271MD1999999-0051REMSYN076AAXX  20124 83182 32797 61407 10251 20145 39327 40162 86021 333 20192 59005;EQDQ01  00002PRCP99
0167831820999992002052018004-11290-041860FM-12+074799999V0201401N002112200019N0100001N1+03001+01291101171ADDAA199000091GF101991011011008001001001MA1999999092861MD1999999+0071REMSYN070AAXX  20184 83182 32597 11404 10300 20129 39286 40117 81100 333 58007;EQDQ01  00002PRCP99
0208831820999992002052100004-11290-041860FM-12+074799999V0200501N003612200019N0010001N1+02311+01361101341ADDAA199000091GA1001+999999999GF100991001001999999001001KA1240M+03081MA1999999093001MD1999999-0081REMSYN082AAXX  21004 83182 32994 00507 10231 20136 39300 40134 333 10308 29095 55098 59008;EQDQ01  00002PRCP99
0186831820999992002052112004-11290-041860FM-12+074799999V0200901N003612200019N0100001N1+02601+01741101551ADDAA199000091GF108991021021008001001011KA1240N+01691MA1999999093221MD1999999-0051REMSYN076AAXX  21124 83182 32597 80907 10260 20174 39322 40155 82201 333 20169 59005;EQDQ01  00002PRCP99
0167831820999992002052118004-11290-041860FM-12+074799999V0200501N002112200019N0100001N1+03181+01401101031ADDAA199000091GF103991031021008001001001MA1999999092751MD1999999-0111REMSYN070AAXX  21184 83182 32597 30504 10318 20140 39275 40103 83200 333 59011;EQDQ01  00002PRCP99
0198831820999992002052200004-11290-041860FM-12+074799999V0200901N002112200019N0010001N1+02451+01611101321ADDAA199000091GF103991031001017501051001KA1240M+03221MA1999999093031MD1999999+0031REMSYN088AAXX  22004 83182 32794 30904 10245 20161 39303 40132 83050 333 10322 29053 55091 58003;EQDQ01  00002PRCP99
0186831820999992002052212004-11290-041860FM-12+074799999V0200901N003110450019N0100001N1+02471+01781101491ADDAA199000091GF108991021021008001051021KA1240N+01941MA1999999093161MD1999999-0061REMSYN076AAXX  22124 83182 32597 80906 10247 20178 39316 40149 82252 333 20194 59006;EQDQ01  00002PRCP99
0167831820999992002052218004-11290-041860FM-12+074799999V0200501N001510450019N0100001N1+02841+01631101001ADDAA199000091GF108991021031008001061021MA1999999092711MD1999999-0041REMSYN070AAXX  22184 83182 32597 80503 10284 20163 39271 40100 82362 333 59004;EQDQ01  00002PRCP99
0213831820999992002052300004-11290-041860FM-12+074799999V0201801N002610450019N0010001N1+02291+01861101341ADDAA106000191AY161061AY221061GF106991031051008001061001KA1240M+02901MA1999999093001MD1999999-0031MW1011REMSYN100AAXX  23004 83182 21594 61805 10229 20186 39300 40134 70162 83560 333 10290 29067 55031 59003 69911;
0173831820999992002052312004-11290-041860FM-12+074799999V0201401N005710450019N0100001N1+02581+01771101481ADDAA124000191GF106991021021008001051001KA1240N+02001MA1999999093151MD1999999+0011REMSYN082AAXX  23124 83182 22597 61411 10258 20177 39315 40148 82250 333 20200 58001 69914;
0167831820999992002052318004-11290-041860FM-12+074799999V0201401N006210450019N0100001N1+02671+01751101061ADDAA199000091GF108991021021008001051021MA1999999092761MD1999999+0051REMSYN070AAXX  23184 83182 32597 81412 10267 20175 39276 40106 82252 333 58005;EQDQ01  00002PRCP99
0198831820999992002052400004-11290-041860FM-12+074799999V0201401N004610075019N0010001N1+02221+01741101391ADDAA199000091GF108991081051008001999999KA1240M+02881MA1999999093061MD1999999+0061REMSYN088AAXX  24004 83182 32594 81409 10222 20174 39306 40139 885// 333 10288 29066 55030 58006;EQDQ01  00002PRCP99
0186831820999992002052412004-11290-041860FM-12+074799999V0201401N002610075019N0100001N1+02181+01591101661ADDAA199000091GF108991081051008001999999KA1240N+01921MA1999999093271MD1999999+0121REMSYN076AAXX  24124 83182 32597 81405 10218 20159 39327 40166 885// 333 20192 58012;EQDQ01  00002PRCP99
0167831820999992002052418004-11290-041860FM-12+074799999V0201401N003610075019N0100001N1+02431+01601101311ADDAA199000091GF108991081051008001999999MA1999999092951MD1999999+0191REMSYN070AAXX  24184 83182 32597 81407 10243 20160 39295 40131 885// 333 58019;EQDQ01  00002PRCP99
0198831820999992002052500004-11290-041860FM-12+074799999V0200901N002610075019N0010001N1+02081+01621101501ADDAA199000091GF108991081051008001999999KA1240M+02431MA1999999093141MD1999999+0081REMSYN088AAXX  25004 83182 32594 80905 10208 20162 39314 40150 885// 333 10243 29070 55004 58008;EQDQ01  00002PRCP99
0201831820999992002052512004-11290-041860FM-12+074799999V0201401N005110450019N0100001N1+02011+01611101721ADDAA124003091AY161061AY261061GF108991031071004501021999KA1240N+01731MA1999999093311MD1999999+0041MW1021REMSYN088AAXX  25124 83182 21497 81410 10201 20161 39331 40172 70266 8372/ 333 20173 58004 60034;
0167831820999992002052518004-11290-041860FM-12+074799999V0200501N002610075019N0100001N1+02461+01551101381ADDAA199000091GF108991061051008001021999MA1999999093011MD1999999+0061REMSYN070AAXX  25184 83182 32597 80505 10246 20155 39301 40138 8652/ 333 58006;EQDQ01  00002PRCP99
0198831820999992002052600004-11290-041860FM-12+074799999V0201401N003110075019N0010001N1+02041+01581101731ADDAA199000091GF108991061051008001021999KA1240M+02501MA1999999093321MD1999999+0181REMSYN088AAXX  26004 83182 32594 81406 10204 20158 39332 40173 8652/ 333 10250 29071 55004 58018;EQDQ01  00002PRCP99
0201831820999992002052612004-11290-041860FM-12+074799999V0201401N006212200019N0100001N1+02251+01321101821ADDAA124000391AY161061AY221061GF102991011021008001041001KA1240N+01541MA1999999093421MD1999999+0111MW1011REMSYN088AAXX  26124 83182 21597 21412 10225 20132 39342 40182 70162 81240 333 20154 58011 69934;
0167831820999992002052618004-11290-041860FM-12+074799999V0201401N004112200019N0100001N1+02731+01211101331ADDAA199000091GF102991021021008001001001MA1999999092981MD1999999-0031REMSYN070AAXX  26184 83182 32597 21408 10273 20121 39298 40133 82200 333 59003;EQDQ01  00002PRCP99
0198831820999992002052700004-11290-041860FM-12+074799999V0201401N003112200019N0010001N1+02031+01151101611ADDAA199000091GF101991011001017501051001KA1240M+02761MA1999999093221MD1999999-0101REMSYN088AAXX  27004 83182 32794 11406 10203 20115 39322 40161 81050 333 10276 29052 55102 59010;EQDQ01  00002PRCP99
0196831820999992002052712004-11290-041860FM-12+074799999V0201401N006712200019N0100001N1+02131+01311101721ADDAA199000091GA1001+999999999GF100991001001999999001001KA1240N+01421MA1999999093321MD1999999-0101REMSYN070AAXX  27124 83182 32997 01413 10213 20131 39332 40172 333 20142 59010;EQDQ01  00002PRCP99
0167831820999992002052718004-11290-041860FM-12+074799999V0201801N003612200019N0100001N1+02761+01081101261ADDAA199000091GF101991011011012501001001MA1999999092891MD1999999-0091REMSYN070AAXX  27184 83182 32697 11807 10276 20108 39289 40126 81100 333 59009;EQDQ01  00002PRCP99
0208831820999992002052800004-11290-041860FM-12+074799999V0201401N004112200019N0010001N1+01971+01091101501ADDAA199000091GA1001+999999999GF100991001001999999001001KA1240M+02821MA1999999093101MD1999999-0121REMSYN082AAXX  28004 83182 32994 01408 10197 20109 39310 40150 333 10282 29052 55106 59012;EQDQ01  00002PRCP99
0196831820999992002052812004-11290-041860FM-12+074799999V0201401N005712200019N0100001N1+02161+01321101711ADDAA199000091GA1001+999999999GF100991001001999999001001KA1240N+01411MA1999999093301MD1999999-0021REMSYN070AAXX  28124 83182 32997 01411 10216 20132 39330 40171 333 20141 59002;EQDQ01  00002PRCP99
0177831820999992002052818004-11290-041860FM-12+074799999V0201401N001512200019N0100001N1+02911+00381101131ADDAA199000091GA1001+999999999GF100991001001999999001001MA1999999092811MD1999999-0081REMSYN064AAXX  28184 83182 32997 01403 10291 20038 39281 40113 333 59008;EQDQ01  00002PRCP99
0208831820999992002052900004-11290-041860FM-12+074799999V0201401N003612200019N0010001N1+02071+01101101451ADDAA199000091GA1001+999999999GF100991001001999999001001KA1240M+02941MA1999999093061MD1999999-0041REMSYN082AAXX  29004 83182 32994 01407 10207 20110 39306 40145 333 10294 29047 55106 59004;EQDQ01  00002PRCP99
0167831820999992002052918004-11290-041860FM-12+074799999V0200501N003112200019N0100001N1+02921+00771101181ADDAA199000091GF105991011011012501001011MA1999999092851MD1999999+0051REMSYN070AAXX  29184 83182 32697 50506 10292 20077 39285 40118 81101 333 58005;EQDQ01  00002PRCP99
0198831820999992002053000004-11290-041860FM-12+074799999V0201401N004112200019N0010001N1+02081+01121101551ADDAA199000091GF103991011001017501041011KA1240M+02961MA1999999093171MD1999999+0111REMSYN088AAXX  30004 83182 32794 31408 10208 20112 39317 40155 81041 333 10296 29046 55104 58011;EQDQ01  00002PRCP99
0186831820999992002053012004-11290-041860FM-12+074799999V0201401N006219999999N0100001N1+02321+01501101701ADDAA199000091GF108991001001999999001011KA1240N+01451MA1999999093311MD1999999+0051REMSYN076AAXX  30124 83182 32997 81412 10232 20150 39331 40170 80001 333 20145 58005;EQDQ01  00002PRCP99
0167831820999992002053018004-11290-041860FM-12+074799999V0200901N002112200019N0100001N1+02981+01131101221ADDAA199000091GF108991011011012501001011MA1999999092891MD1999999+0041REMSYN070AAXX  30184 83182 32697 80904 10298 20113 39289 40122 81101 333 58004;EQDQ01  00002PRCP99
0198831820999992002053100004-11290-041860FM-12+074799999V0201401N003619999999N0010001N1+02141+01311101601ADDAA199000091GF108991001001999999001011KA1240M+03001MA1999999093231MD1999999+0061REMSYN088AAXX  31004 83182 32994 81407 10214 20131 39323 40160 80001 333 10300 29052 55099 58006;EQDQ01  00002PRCP99
0186831820999992002053112004-11290-041860FM-12+074799999V0201401N005112200019N0100001N1+02361+01661101861ADDAA199000091GF108991011021008001001011KA1240N+01751MA1999999093471MD1999999+0161REMSYN076AAXX  31124 83182 32597 81410 10236 20166 39347 40186 81201 333 20175 58016;EQDQ01  00002PRCP99
0167831820999992002053118004-11290-041860FM-12+074799999V0201401N002610450019N0100001N1+02881+01391101351ADDAA199000091GF108991031021008001051011MA1999999093021MD1999999+0131REMSYN070AAXX  31184 83182 32597 81405 10288 20139 39302 40135 83251 333 58013;EQDQ01  00002PRCP99
0198831820999992002060100004-11290-041860FM-12+074799999V0200901N004112200019N0010001N1+02191+01611101611ADDAA199000091GF103991021001017501051011KA1240M+02941MA1999999093251MD1999999+0021REMSYN088AAXX  01004 83182 32794 30908 10219 20161 39325 40161 82051 333 10294 29061 55070 58002;EQDQ01  00002PRCP99
0186831820999992002060112004-11290-041860FM-12+074799999V0201401N004612200019N0100001N1+02421+01621101821ADDAA199000091GF108991011021008001001011KA1240N+01771MA1999999093441MD1999999-0031REMSYN076AAXX  01124 83182 32597 81409 10242 20162 39344 40182 81201 333 20177 59003;EQDQ01  00002PRCP99
0167831820999992002060118004-11290-041860FM-12+074799999V0201801N003112200019N0100001N1+02881+01351101391ADDAA199000091GF108991041021008001001011MA1999999093061MD1999999+0041REMSYN070AAXX  01184 83182 32597 81806 10288 20135 39306 40139 84201 333 58004;EQDQ01  00002PRCP99
0198831820999992002060200004-11290-041860FM-12+074799999V0201401N004112200019N0010001N1+02261+01541101591ADDAA199000091GF108991011001017501041011KA1240M+02931MA1999999093231MD1999999-0021REMSYN088AAXX  02004 83182 32794 81408 10226 20154 39323 40159 81041 333 10293 29057 55081 59002;EQDQ01  00002PRCP99
0186831820999992002060212004-11290-041860FM-12+074799999V0201801N007712200019N0100001N1+02381+01581101791ADDAA199000091GF108991011021008001001011KA1240N+01671MA1999999093411MD1999999-0031REMSYN076AAXX  02124 83182 32597 81815 10238 20158 39341 40179 81201 333 20167 59003;EQDQ01  00002PRCP99
0167831820999992002060218004-11290-041860FM-12+074799999V0201401N004112200019N0100001N1+02791+01181101461ADDAA199000091GF106991041021008001001011MA1999999093101MD1999999+0041REMSYN070AAXX  02184 83182 32597 61408 10279 20118 39310 40146 84201 333 58004;EQDQ01  00002PRCP99
0198831820999992002060300004-11290-041860FM-12+074799999V0200901N004612200019N0010001N1+02131+01391101681ADDAA199000091GF102991011001017501041011KA1240M+02881MA1999999093301MD1999999+0071REMSYN088AAXX  03004 83182 32794 20909 10213 20139 39330 40168 81041 333 10288 29056 55087 58007;EQDQ01  00002PRCP99
0186831820999992002060312004-11290-041860FM-12+074799999V0201401N005112200019N0100001N1+02321+01471101691ADDAA199000091GF102991011021008001001011KA1240N+01581MA1999999093311MD1999999-0101REMSYN076AAXX  03124 83182 32597 21410 10232 20147 39331 40169 81201 333 20158 59010;EQDQ01  00002PRCP99
0167831820999992002060318004-11290-041860FM-12+074799999V0200501N002612200019N0100001N1+02861+01211101281ADDAA199000091GF102991011021008001001011MA1999999092961MD1999999-0141REMSYN070AAXX  03184 83182 32597 20505 10286 20121 39296 40128 81201 333 59014;EQDQ01  00002PRCP99
0208831820999992002060400004-11300-041870FM-12+074799999V0201401N003612200019N0010001N1+02181+01371101621ADDAA199000091GA1001+999999999GF100991001001999999001001KA1240M+02901MA1999999093251MD1999999-0051REMSYN082AAXX  04004 83182 32994 01407 10218 20137 39325 40162 333 10290 29054 55104 59005;EQDQ01  00002PRCP99
0186831820999992002060412004-11300-041870FM-12+074799999V0200901N005112200019N0100001N1+02401+01731101711ADDAA199000091GF102991021021008001001001KA1240N+01721MA1999999093341MD1999999+0031REMSYN076AAXX  04124 83182 32597 20910 10240 20173 39334 40171 82200 333 20172 58003;EQDQ01  00002PRCP99
0167831820999992002060418004-11300-041870FM-12+074799999V0201401N003612200019N0100001N1+02901+01441101251ADDAA199000091GF101991011021008001001001MA1999999092931MD1999999-0031REMSYN070AAXX  04184 83182 32597 11407 10290 20144 39293 40125 81200 333 59003;EQDQ01  00002PRCP99
0208831820999992002060500004-11300-041870FM-12+074799999V0201401N002112200019N0010001N1+02181+01561101541ADDAA199000091GA1001+999999999GF100991001001999999001001KA1240M+02921MA1999999093181MD1999999-0071REMSYN082AAXX  05004 83182 32994 01404 10218 20156 39318 40154 333 10292 29061 55103 59007;EQDQ01  00002PRCP99
0186831820999992002060512004-11300-041870FM-12+074799999V0201401N004110075019N0100001N1+02321+01631101681ADDAA199000091GF108991081051008001999999KA1240N+01801MA1999999093301MD1999999-0041REMSYN076AAXX  05124 83182 32597 81408 10232 20163 39330 40168 885// 333 20180 59004;EQDQ01  00002PRCP99
0167831820999992002060518004-11300-041870FM-12+074799999V0200901N005112200019N0100001N1+02841+01271101271ADDAA199000091GF104991041021008001001001MA1999999092951MD1999999+0021REMSYN070AAXX  05184 83182 32597 40910 10284 20127 39295 40127 84200 333 58002;EQDQ01  00002PRCP99
0208831820999992002060600004-11300-041870FM-12+074799999V0201401N004112200019N0010001N1+02141+01431101531ADDAA199000091GA1001+999999999GF100991001001999999001001KA1240M+02891MA1999999093461MD1999999-0021REMSYN082AAXX  06004 83182 32994 01408 10214 20143 39346 40153 333 10289 29058 55062 59002;EQDQ01  00002PRCP99
0167831820999992002060618004-11300-041870FM-12+074799999V0201401N005112200019N0100001N1+02911+01111101211ADDAA199000091GF102991021021008001001001MA1999999092901MD1999999-0051REMSYN070AAXX  06184 83182 32597 21410 10291 20111 39290 40121 82200 333 59005;EQDQ01  00002PRCP99
0208831820999992002060700004-11300-041870FM-12+074799999V0201401N004112200019N0010001N1+02171+01191101571ADDAA199000091GA1001+999999999GF100991001001999999001001KA1240M+02941MA1999999093211MD1999999+0051REMSYN082AAXX  07004 83182 32994 01408 10217 20119 39321 40157 333 10294 29050 55097 58005;EQDQ01  00002PRCP99
0186831820999992002060712004-11300-041870FM-12+074799999V0201401N006212200019N0100001N1+02361+01321101701ADDAA199000091GF101991011021008001001001KA1240N+01561MA1999999093321MD1999999-0011REMSYN076AAXX  07124 83182 32597 11412 10236 20132 39332 40170 81200 333 20156 59001;EQDQ01  00002PRCP99
0167831820999992002060718004-11300-041870FM-12+074799999V0200901N005112200019N0100001N1+02841+00961101311ADDAA199000091GF101991011011012501001001MA1999999093001MD1999999+0101REMSYN070AAXX  07184 83182 32697 10910 10284 20096 39300 40131 81100 333 58010;EQDQ01  00002PRCP99
0208831820999992002060800004-11300-041870FM-12+074799999V0201401N002612200019N0010001N1+02021+01271101661ADDAA199000091GA1001+999999999GF100991001001999999001001KA1240M+02841MA1999999093271MD1999999+0061REMSYN082AAXX  08004 83182 32994 01405 10202 20127 39327 40166 333 10284 29052 55103 58006;EQDQ01  00002PRCP99
0186831820999992002060812004-11300-041870FM-12+074799999V0201401N005110075019N0100001N1+02301+01561101971ADDAA199000091GF108991061051008001041011KA1240N+01741MA1999999093551MD1999999+0231REMSYN076AAXX  08124 83182 32597 81410 10230 20156 39355 40197 86541 333 20174 58023;EQDQ01  00002PRCP99
0167831820999992002060818004-11300-041870FM-12+074799999V0200901N005710450019N0100001N1+02641+01511101551ADDAA199000091GF108991031021008001041041MA1999999093181MD1999999+0181REMSYN070AAXX  08184 83182 32597 80911 10264 20151 39318 40155 83244 333 58018;EQDQ01  00002PRCP99
0198831820999992002060900004-11300-041870FM-12+074799999V0201401N004110450019N0010001N1+02101+01721101801ADDAA199000091GF108991031051008001041021KA1240M+02731MA1999999093411MD1999999+0141REMSYN088AAXX  09004 83182 32594 81408 10210 20172 39341 40180 83542 333 10273 29067 55044 58014;EQDQ01  00002PRCP99
0186831820999992002060912004-11300-041870FM-12+074799999V0200901N005711050019N0100001N1+02341+01491101881ADDAA199000091GF105991031051008001001021KA1240N+01771MA1999999093481MD1999999-0071REMSYN076AAXX  09124 83182 32597 50911 10234 20149 39348 40188 83502 333 20177 59007;EQDQ01  00002PRCP99
0167831820999992002060918004-11300-041870FM-12+074799999V0201401N004112200019N0100001N1+02661+01501101431ADDAA199000091GF108991041021008001001011MA1999999093091MD1999999-0091REMSYN070AAXX  09184 83182 32597 81408 10266 20150 39309 40143 84201 333 59009;EQDQ01  00002PRCP99
0198831820999992002061000004-11300-041870FM-12+074799999V0201401N002610450019N0100001N1+02001+01461102001ADDAA199000091GF108991021021008001051011KA1240M+02741MA1999999093351MD1999999-0061REMSYN088AAXX  10004 83182 32597 81405 10200 20146 39335 40200 82251 333 10274 29062 55070 59006;EQDQ01  00002PRCP99
0186831820999992002061012004-11300-041870FM-12+074799999V0201401N005712200019N0100001N1+02101+01321101841ADDAA199000091GF101991011021008001001001KA1240N+01461MA1999999093421MD1999999-0061REMSYN076AAXX  10124 83182 32597 11411 10210 20132 39342 40184 81200 333 20146 59006;EQDQ01  00002PRCP99
0167831820999992002061018004-11300-041870FM-12+074799999V0200901N005112200019N0100001N1+02741+01341101381ADDAA199000091GF102991021021008001001001MA1999999093031MD1999999-0061REMSYN070AAXX  10184 83182 32597 20910 10274 20134 39303 40138 82200 333 59006;EQDQ01  00002PRCP99
0208831820999992002061100004-11300-041870FM-12+074799999V0201401N003612200019N0010001N1+01961+01591101691ADDAA199000091GA1001+999999999GF100991001001999999001001KA1240M+02821MA1999999093281MD1999999-0071REMSYN082AAXX  11004 83182 32994 01407 10196 20159 39328 40169 333 10282 29065 55105 59007;EQDQ01  00002PRCP99
0186831820999992002061112004-11300-041870FM-12+074799999V0201401N004110075019N0100001N1+02101+01701101811ADDAA199000091GF108991081051008001999999KA1240N+01691MA1999999093391MD1999999-0031REMSYN076AAXX  11124 83182 32597 81408 10210 20170 39339 40181 885// 333 20169 59003;EQDQ01  00002PRCP99
0167831820999992002061118004-11300-041870FM-12+074799999V0201401N004610450019N0100001N1+02491+01651101461ADDAA199000091GF105991041021008001041001MA1999999093071MD1999999+0041REMSYN070AAXX  11184 83182 32597 51409 10249 20165 39307 40146 84240 333 58004;EQDQ01  00002PRCP99
0198831820999992002061200004-11300-041870FM-12+074799999V0201401N004110075019N0010001N1+02221+01551101681ADDAA199000091GF108991081051008001999999KA1240M+02601MA1999999093281MD1999999+0001REMSYN088AAXX  12004 83182 32594 81408 10222 20155 39328 40168 885// 333 10260 29068 55039 58000;EQDQ01  00002PRCP99
0162831820999992002061212004-11300-041870FM-12+074799999V0201401N006712200019N0020001N1+02241+01641101741ADDGF103991031021008001001001KA1240N+01741MA1999999093351MD1999999-0041REMSYN082AAXX  12124 83182 22595 31413 10224 20164 39335 40174 83200 333 20174 59004 69924;
0198831820999992002061300004-11300-041870FM-12+074799999V0201401N006210075019N0010001N1+02181+01761101711ADDAA199000091GF106991061051008001001001KA1240M+02861MA1999999093321MD1999999+0041REMSYN088AAXX  13004 83182 32594 61412 10218 20176 39332 40171 86500 333 10286 29066 55087 58004;EQDQ01  00002PRCP99
0186831820999992002061412004-11300-041870FM-12+074799999V0201401N004110075019N0100001N1+02171+01661101921ADDAA199000091GF108991081051008001999999KA1240N+01741MA1999999093511MD1999999+0021REMSYN076AAXX  14124 83182 32597 81408 10217 20166 39351 40192 885// 333 20174 58002;EQDQ01  00002PRCP99
0195831820999992002061418004-11300-041870FM-12+074799999V0200901N005710075019N0100001N1+02801+01691101591ADDAA199000091AY121061AY221061GF106991061051008001001001MA1999999093231MD1999999+0101MW1151REMSYN076AAXX  14184 83182 31597 60911 10280 20169 39323 40159 71522 86500 333 58010;EQDQ01  00002PRCP99
0217831820999992002061500004-11300-041870FM-12+074799999V0201401N003112200019N0010001N1+01961+01771101861ADDAA199000091AJ199999999999999GF103991031051008001001001IA1219KA1240M+02821MA1999999093441REMSYN082AAXX  15004 83182 32594 31406 10196 20177 39344 40186 83500 333 10282 29076 45801;EQDQ01  00002PRCP99Q02  08012SNDP  
0186831820999992002061512004-11300-041870FM-12+074799999V0201401N006210075019N0100001N1+02181+01591102021ADDAA199000091GF108991081051008001999999KA1240N+01681MA1999999093581MD1999999+0071REMSYN076AAXX  15124 83182 32597 81412 10218 20159 39358 40202 885// 333 20168 58007;EQDQ01  00002PRCP99
0198831820999992002061600004-11300-041870FM-12+074799999V0201401N005110150019N0010001N1+02101+01661101901ADDAA199000091GF105991051001017501051001KA1240M+02851MA1999999093501MD1999999+0061REMSYN088AAXX  16004 83182 32794 51410 10210 20166 39350 40190 85050 333 10285 29064 55070 58006;EQDQ01  00002PRCP99
0186831820999992002061612004-11300-041870FM-12+074799999V0201401N005110075019N0100001N1+02101+01531101991ADDAA199000091GF108991081051008001999999KA1240N+01461MA1999999093561MD1999999-0021REMSYN076AAXX  16124 83182 32597 81410 10210 20153 39356 40199 885// 333 20146 59002;EQDQ01  00002PRCP99
0186831820999992002061712004-11300-041870FM-12+074799999V0200901N006710075019N0100001N1+02141+01701101881ADDAA199000091GF108991081051008001999999KA1240N+01821MA1999999093471MD1999999-0091REMSYN076AAXX  17124 83182 32597 80913 10214 20170 39347 40188 885// 333 20182 59009;EQDQ01  00002PRCP99
0167831820999992002061718004-11300-041870FM-12+074799999V0201401N005712200019N0100001N1+02641+01091101591ADDAA199000091GF103991031021008001001001MA1999999093231MD1999999+0001REMSYN070AAXX  17184 83182 32597 31411 10264 20109 39323 40159 83200 333 58000;EQDQ01  00002PRCP99
0186831820999992002061812004-11290-041860FM-12+074799999V0201401N004610042019N0100001N1+01841+01621102071ADDAA199000091GF108991061071004501021999KA1240N+01451MA1999999093601MD1999999+0131REMSYN076AAXX  18124 83182 32497 81409 10184 20162 39360 40207 8672/ 333 20145 58013;EQDQ01  00002PRCP99
0198831820999992002061900004-11290-041860FM-12+074799999V0200901N003112200019N0010001N1+02141+01231101911ADDAA199000091GF103991031001017501051001KA1240M+02791MA1999999093471MD1999999+0031REMSYN088AAXX  19004 83182 32794 30906 10214 20123 39347 40191 83050 333 10279 29050 55072 58003;EQDQ01  00002PRCP99
0186831820999992002061912004-11290-041860FM-12+074799999V0200901N004612200019N0100001N1+02301+01461102001ADDAA199000091GF102991021021008001001001KA1240N+01471MA1999999093591MD1999999-0011REMSYN076AAXX  19124 83182 32597 20909 10230 20146 39359 40200 82200 333 20147 59001;EQDQ01  00002PRCP99
0208831820999992002062000004-11290-041860FM-12+074799999V0200901N004612200019N0010001N1+01981+01401101911ADDAA199000091GA1001+999999999GF100991001001999999001001KA1240M+02781MA1999999093521MD1999999+0051REMSYN082AAXX  20004 83182 32994 00909 10198 20140 39352 40191 333 10278 29059 55083 58005;EQDQ01  00002PRCP99
0186831820999992002062012004-11290-041860FM-12+074799999V0201401N005710075019N0100001N1+02181+01421101991ADDAA199000091GF107991071051008001001001KA1240N+01621MA1999999093561MD1999999-0031REMSYN076AAXX  20124 83182 32597 71411 10218 20142 39356 40199 87500 333 20162 59003;EQDQ01  00002PRCP99
0167831820999992002062018004-11290-041860FM-12+074799999V0201401N005712200019N0100001N1+02611+01351101571ADDAA199000091GF102991011021008001041001MA1999999093201MD1999999-0071REMSYN070AAXX  20184 83182 32597 21411 10261 20135 39320 40157 81240 333 59007;EQDQ01  00002PRCP99
0167831820999992002062118004-11300-041870FM-12+074799999V02099999999990075019N0100001N1+02431+01571101641ADDAA199000091GF108991081051008001999999MA1999999093251MD1999999+0051REMSYN070AAXX  21184 83182 32597 809// 10243 20157 39325 40164 885// 333 58005;EQDQ01  00002PRCP99
0198831820999992002062200004-11300-041870FM-12+074799999V0201401N002610450019N0010001N1+02011+01631101891ADDAA199000091GF108991021051008001061021KA1240M+02461MA1999999093481MD1999999+0001REMSYN088AAXX  22004 83182 32594 81405 10201 20163 39348 40189 82562 333 10246 29069 55010 58000;EQDQ01  00002PRCP99
0186831820999992002062212004-11300-041870FM-12+074799999V0200901N004610075019N0100001N1+02121+01501102021ADDAA199000091GF108991081051008001999999KA1240N+01671MA1999999093581MD1999999+0001REMSYN076AAXX  22124 83182 32597 80909 10212 20150 39358 40202 885// 333 20167 58000;EQDQ01  00002PRCP99
0167831820999992002062218004-11300-041870FM-12+074799999V0201401N005110075019N0100001N1+02561+01351101611ADDAA199000091GF108991051021008001061021MA1999999093241MD1999999-0011REMSYN070AAXX  22184 83182 32597 81410 10256 20135 39324 40161 85262 333 59001;EQDQ01  00002PRCP99
0198831820999992002062300004-11300-041870FM-12+074799999V0201401N003612200019N0010001N1+01951+01581101991ADDAA199000091GF102991011021008001001021KA1240M+02611MA1999999093551MD1999999+0071REMSYN088AAXX  23004 83182 32594 21407 10195 20158 39355 40199 81202 333 10261 29068 55056 58007;EQDQ01  00002PRCP99
0186831820999992002062312004-11300-041870FM-12+074799999V0200401N006211050019N0100001N1+02241+01321102001ADDAA199000091GF106991041011008001001021KA1240N+01441MA1999999093601MD1999999+0021REMSYN076AAXX  23124 83182 32597 60412 10224 20132 39360 40200 84102 333 20144 58002;EQDQ01  00002PRCP99
0167831820999992002062318004-11300-041870FM-12+074799999V0200901N005111050019N0100001N1+02631+01121101601ADDAA199000091GF108991031021008001001021MA1999999093231MD1999999-0011REMSYN070AAXX  23184 83182 32597 80910 10263 20112 39323 40160 83202 333 59001;EQDQ01  00002PRCP99
0186831820999992002062412004-11300-041870FM-12+074799999V0201401N00621220001CN0100001N1+02161+01471102121ADDAA199000091GF108991011021008001001041KA1240N+01471MA1999999093671MD1999999+0071REMSYN076AAXX  24124 83182 32597 81412 10216 20147 39367 40212 81204 333 20147 58007;EQDQ01  00002PRCP99
0167831820999992002062418004-11300-041870FM-12+074799999V0201401N005710075019N0100001N1+02541+01391101751ADDAA199000091GF107991061051008001061001MA1999999093351MD1999999+0121REMSYN070AAXX  24184 83182 32597 71411 10254 20139 39335 40175 86560 333 58012;EQDQ01  00002PRCP99
0186831820999992002062512004-11300-041870FM-12+074799999V0200901N006210450019N0100001N1+02251+01431102201ADDAA199000091GF108991021021008001061021KA1240N+01711MA1999999093761MD1999999+0091REMSYN076AAXX  25124 83182 32597 80912 10225 20143 39376 40220 82262 333 20171 58009;EQDQ01  00002PRCP99
0167831820999992002062518004-11300-041870FM-12+074799999V0201401N004611050019N0100001N1+02701+01411101821ADDAA199000091GF108991031021008001001021MA1999999093451MD1999999+0101REMSYN070AAXX  25184 83182 32597 81409 10270 20141 39345 40182 83202 333 58010;EQDQ01  00002PRCP99
0198831820999992002062600004-11300-041870FM-12+074799999V0201401N004110450019N0010001N1+01981+01591102111ADDAA199000091GF108991021051008001011061KA1240M+02721MA1999999093671MD1999999+0061REMSYN088AAXX  26004 83182 32594 81408 10198 20159 39367 40211 82516 333 10272 29065 55042 58006;EQDQ01  00002PRCP99
0186831820999992002062612004-11300-041870FM-12+074799999V0201401N004110450019N0100001N1+02141+01611102191ADDAA199000091GF108991031051008001011999KA1240N+01661MA1999999093741MD1999999-0021REMSYN076AAXX  26124 83182 32597 81408 10214 20161 39374 40219 8351/ 333 20166 59002;EQDQ01  00002PRCP99
0186831820999992002062712004-11300-041870FM-12+074799999V0201401N006210075019N0100001N1+02601+01521102181ADDAA199000091GF108991081051008001999999KA1240N+01731MA1999999093731MD1999999-0011REMSYN076AAXX  27124 83182 32597 81412 10260 20152 39373 40218 885// 333 20173 59001;EQDQ01  00002PRCP99
0167831820999992002062718004-11300-041870FM-12+074799999V0201401N004610075019N0100001N1+02461+01381101771ADDAA199000091GF108991081051008001999999MA1999999093371MD1999999-0111REMSYN070AAXX  27184 83182 32597 81409 10246 20138 39337 40177 885// 333 59011;EQDQ01  00002PRCP99
0198831820999992002062800004-11300-041870FM-12+074799999V0200901N002110450019N0010001N1+01881+01511101941ADDAA199000091GF108991021051008001051999KA1240M+02601MA1999999093491MD1999999-0181REMSYN088AAXX  28004 83182 32594 80904 10188 20151 39349 40194 8255/ 333 10260 29070 55033 59018;EQDQ01  00002PRCP99
0186831820999992002062812004-11300-041870FM-12+074799999V0201401N004610075019N0100001N1+02091+01451102071ADDAA199000091GF108991081051008001999999KA1240N+01721MA1999999093621MD1999999-0111REMSYN076AAXX  28124 83182 32597 81409 10209 20145 39362 40207 885// 333 20172 59011;EQDQ01  00002PRCP99
0167831820999992002062818004-11300-041870FM-12+074799999V0201401N005112200019N0100001N1+02641+01451101611ADDAA199000091GF103991031021008001001001MA1999999093241MD1999999-0131REMSYN070AAXX  28184 83182 32597 31410 10264 20145 39324 40161 83200 333 59013;EQDQ01  00002PRCP99
0198831820999992002062900004-11300-041870FM-12+074799999V0201401N004612200019N0010001N1+01911+01631101911ADDAA199000091GF101991011051008001001001KA1240M+02671MA1999999093471MD1999999-0021REMSYN088AAXX  29004 83182 32594 11409 10191 20163 39347 40191 81500 333 10267 29071 55046 59002;EQDQ01  00002PRCP99
0167831820999992002062918004-11300-041870FM-12+074799999V0200901N006710075019N0100001N1+02401+01521101681ADDAA199000091GF106991051051008001061001MA1999999093291MD1999999+0051REMSYN070AAXX  29184 83182 32597 60913 10240 20152 39329 40168 85560 333 58005;EQDQ01  00002PRCP99
0198831820999992002063000004-11300-041870FM-12+074799999V0201401N005710450019N0010001N1+01961+01611102011ADDAA199000091GF106991041051008001061001KA1240M+02541MA1999999093581MD1999999+0111REMSYN088AAXX  30004 83182 32594 61411 10196 20161 39358 40201 84560 333 10254 29071 55062 58011;EQDQ01  00002PRCP99
0189831820999992002063012004-11300-041870FM-12+074799999V0201401N006712200019N0100001N1+02231+01351999999ADDAA199000091GF102991999999008001999999KA1240N+01431MA1999999999999REMSYN077AAXX  30124 83182 32597 21413 10223 20135 398376 40221 82200 333 20143 58014;EQDQ01  00002PRCP99Q02 098373APOSP 
0183831820999992002063018004-11300-041870FM-12+074799999V0200901N004612200019N0100001N1+02681+01321101781ADDAA199000091GF103991031021008001001001MA1999999093382MD1999999+0091REMSYN070AAXX  30184 83182 32597 30909 10268 20132 39338 40178 83200 333 58009;EQDQ01+093383APOSP Q02  00002PRCP99
0198831820999992002070100004-11300-041870FM-12+074799999V0201401N003612200019N0010001N1+01981+01401102061ADDAA199000091GF102991021001017501041001KA1240M+02731MA1999999093631MD1999999+0051REMSYN088AAXX  01004 83182 32794 21407 10198 20140 39363 40206 82040 333 10273 29060 55101 58005;EQDQ01  00002PRCP99
0186831820999992002070112004-11300-041870FM-12+074799999V0201401N006712200019N0100001N1+02291+01601102221ADDAA199000091GF103991011021008001041001KA1240N+01751MA1999999093821MD1999999+0061REMSYN076AAXX  01124 83182 32597 31413 10229 20160 39382 40222 81240 333 20175 58006;EQDQ01  00002PRCP99
0215831820999992002070118004-11300-041870FM-12+074799999V0201401N003612200019N0100001N1+02801+01471101441ADDAA199000091GF103991999021008001001001MA1999999999999MD1999999+0021REMSYN070AAXX  01184 83182 32597 31407 10280 20147 39693 40144 82200 333 58002;EQDQ01+000022SCOTLCQ02+096933APOSP Q03  00002PRCP99Q04 096933APOSP 
0208831820999992002070200004-11300-041870FM-12+074799999V0200901N004112200019N0010001N1+02041+01501102071ADDAA199000091GA1001+999999999GF100991001001999999001001KA1240M+02821MA1999999093651MD1999999+0021REMSYN082AAXX  02004 83182 32994 00908 10204 20150 39365 40207 333 10282 29062 55078 58002;EQDQ01  00002PRCP99
0186831820999992002070212004-11300-041870FM-12+074799999V0201401N006212200019N0100001N1+02201+01651102071ADDAA199000091GF104991041021008001001001KA1240N+01591MA1999999093641MD1999999-0181REMSYN076AAXX  02124 83182 32597 41412 10220 20165 39364 40207 84200 333 20159 59018;EQDQ01  00002PRCP99
0167831820999992002070218004-11300-041870FM-12+074799999V0201401N005112200019N0100001N1+02781+01181101571ADDAA199000091GF103991031021008001001001MA1999999093221MD1999999-0191REMSYN070AAXX  02184 83182 32597 31410 10278 20118 39322 40157 83200 333 59019;EQDQ01  00002PRCP99
0208831820999992002070300004-11300-041870FM-12+074799999V0200901N004112200019N0010001N1+01921+01571101921ADDAA199000091GA1001+999999999GF100991001001999999001001KA1240M+02801MA1999999093491MD1999999-0161REMSYN082AAXX  03004 83182 32994 00908 10192 20157 39349 40192 333 10280 29067 55097 59016;EQDQ01  00002PRCP99
0186831820999992002070312004-11300-041870FM-12+074799999V0200901N006210075019N0100001N1+02101+01391101691ADDAA199000091GF108991081051008001999999KA1240N+01601MA1999999093521MD1999999-0121REMSYN076AAXX  03124 83182 32597 80912 10210 20139 39352 40169 885// 333 20160 59012;EQDQ01  00002PRCP99
0167831820999992002070318004-11300-041870FM-12+074799999V0200901N004112200019N0100001N1+02481+01571101581ADDAA199000091GF104991031021008001041001MA1999999093211MD1999999-0011REMSYN070AAXX  03184 83182 32597 40908 10248 20157 39321 40158 83240 333 59001;EQDQ01  00002PRCP99
0186831820999992002070412004-11300-041870FM-12+074799999V0201401N003110042019N0100001N1+02031+01531102101ADDAA199000091GF108991061071004501021999KA1240N+01511MA1999999093651MD1999999+0131REMSYN076AAXX  04124 83182 32497 81406 10203 20153 39365 40210 8672/ 333 20151 58013;EQDQ01  00002PRCP99
0167831820999992002070418004-11300-041870FM-12+074799999V0200901N005110075019N0100001N1+02601+01321101661ADDAA199000091GF105991051021008001001001MA1999999093271MD1999999+0061REMSYN070AAXX  04184 83182 32597 50910 10260 20132 39327 40166 85200 333 58006;EQDQ01  00002PRCP99
0186831820999992002070512004-11300-041870FM-12+074799999V0201401N006210075019N0100001N1+02151+01501102021ADDAA199000091GF106991061051008001001001KA1240N+01671MA1999999093571MD1999999-0081REMSYN076AAXX  05124 83182 32597 61412 10215 20150 39357 40202 86500 333 20167 59008;EQDQ01  00002PRCP99
0167831820999992002070518004-11300-041870FM-12+074799999V0201401N005110075019N0100001N1+02531+01531101541ADDAA199000091GF106991061051008001001001MA1999999093151MD1999999-0121REMSYN070AAXX  05184 83182 32597 61410 10253 20153 39315 40154 86500 333 59012;EQDQ01  00002PRCP99
0198831820999992002070600004-11300-041870FM-12+074799999V0201401N003112200019N0010001N1+01911+01391101791ADDAA199000091GF102991021051008001001001KA1240M+02561MA1999999093371MD1999999-0191REMSYN088AAXX  06004 83182 32594 21406 10191 20139 39337 40179 82500 333 10256 29066 55064 59019;EQDQ01  00002PRCP99
0186831820999992002070612004-11300-041870FM-12+074799999V0201401N008212200019N0100001N1+02241+01401101981ADDAA199000091GF102991021021008001001011KA1240N+01651MA1999999093551MD1999999-0021REMSYN076AAXX  06124 83182 32597 21416 10224 20140 39355 40198 82201 333 20165 59002;EQDQ01  00002PRCP99
0167831820999992002070618004-11300-041870FM-12+074799999V0200901N003112200019N0100001N1+02811+01121101411ADDAA199000091GF102991021011012501001001MA1999999093081MD1999999-0071REMSYN070AAXX  06184 83182 32697 20906 10281 20112 39308 40141 82100 333 59007;EQDQ01  00002PRCP99
0186831820999992002070712004-11300-041870FM-12+074799999V0201401N002612200019N0100001N1+02131+01451102041ADDAA199000091GF102991021021008001001001KA1240N+01431MA1999999093601MD1999999+0051REMSYN076AAXX  07124 83182 32597 21405 10213 20145 39360 40204 82200 333 20143 58005;EQDQ01  00002PRCP99
0167831820999992002070718004-11300-041870FM-12+074799999V0201401N001512200019N0100001N1+02841+00961101421ADDAA199000091GF101991011021008001001001MA1999999093071MD1999999-0011REMSYN070AAXX  07184 83182 32597 11403 10284 20096 39307 40142 81200 333 59001;EQDQ01  00002PRCP99
0208831820999992002070800004-11300-041870FM-12+074799999V0200901N003112200019N0010001N1+02001+01121101781ADDAA199000091GA1001+999999999GF100991001001999999001001KA1240M+02851MA1999999093361MD1999999+0061REMSYN082AAXX  08004 83182 32994 00906 10200 20112 39336 40178 333 10285 29052 55104 58006;EQDQ01  00002PRCP99
0186831820999992002070812004-11300-041870FM-12+074799999V0200901N003112200019N0100001N1+02181+01421101891ADDAA199000091GF103991001001999999001011KA1240N+01341MA1999999093471MD1999999-0131REMSYN076AAXX  08124 83182 32997 30906 10218 20142 39347 40189 80001 333 20134 59013;EQDQ01  00002PRCP99
0167831820999992002070818004-11300-041870FM-12+074799999V0201801N003619999999N0100001N1+02991+00771101291ADDAA199000091GF108991001001999999001011MA1999999092971MD1999999-0101REMSYN070AAXX  08184 83182 32997 81807 10299 20077 39297 40129 80001 333 59010;EQDQ01  00002PRCP99
0198831820999992002070900004-11300-041870FM-12+074799999V0200901N003619999999N0010001N1+02141+01251101671ADDAA199000091GF108991001001999999001011KA1240M+03031MA1999999093271MD1999999-0091REMSYN088AAXX  09004 83182 32994 80907 10214 20125 39327 40167 80001 333 10303 29050 55097 59009;EQDQ01  00002PRCP99
0186831820999992002070912004-11300-041870FM-12+074799999V0201401N004119999999N0100001N1+02441+01241101951ADDAA199000091GF108991001001999999001011KA1240N+01531MA1999999093561MD1999999+0091REMSYN076AAXX  09124 83182 32997 81408 10244 20124 39356 40195 80001 333 20153 58009;EQDQ01  00002PRCP99
0167831820999992002070918004-11300-041870FM-12+074799999V0200901N003612200019N0100001N1+03011+00871101481ADDAA199000091GF102991011011012501001011MA1999999093141MD1999999+0171REMSYN070AAXX  09184 83182 32697 20907 10301 20087 39314 40148 81101 333 58017;EQDQ01  00002PRCP99
0186831820999992002071012004-11300-041870FM-12+074799999V0201401N005112200019N0100001N1+02321+01601102031ADDAA199000091GF102991021021008001001001KA1240N+01551MA1999999093631MD1999999+0071REMSYN076AAXX  10124 83182 32597 21410 10232 20160 39363 40203 82200 333 20155 58007;EQDQ01  00002PRCP99
0167831820999992002071018004-11300-041870FM-12+074799999V0201401N005112200019N0100001N1+02751+01521101601ADDAA199000091GF103991031021008001001001MA1999999093251MD1999999+0111REMSYN070AAXX  10184 83182 32597 31410 10275 20152 39325 40160 83200 333 58011;EQDQ01  00002PRCP99
0214831820999992002071100004-11300-041870FM-12+074799999V0201401N003112200019N0100001N1+02111+01711101911ADDAA199000091GF102991999021008001001001KA1240M+02851MA1999999093511MD1999999+0051REMSYN088AAXX  11004 83182 32597 21406 10211 20171 39351 40191 81200 333 10285 29067 55089 58005;EQDQ01+000012SCOTLCQ02  00002PRCP99
0186831820999992002071112004-11300-041870FM-12+074799999V0201401N005710075019N0100001N1+02151+01601101991ADDAA199000091GF108991081051008001999999KA1240N+01831MA1999999093571MD1999999-0061REMSYN076AAXX  11124 83182 32597 81411 10215 20160 39357 40199 885// 333 20183 59006;EQDQ01  00002PRCP99
0167831820999992002071118004-11300-041870FM-12+074799999V0201401N004610075019N0100001N1+02641+01321101561ADDAA199000091GF106991061021008001001001MA1999999093201MD1999999-0051REMSYN070AAXX  11184 83182 32597 61409 10264 20132 39320 40156 86200 333 59005;EQDQ01  00002PRCP99
0196831820999992002071212004-11300-041870FM-12+074799999V0201401N005712200019N0100001N1+02161+01401101891ADDAA199000091GA1001+999999999GF100991001001999999001001KA1240N+01451MA1999999093461MD1999999-0111REMSYN070AAXX  12124 83182 32997 01411 10216 20140 39346 40189 333 20145 59011;EQDQ01  00002PRCP99
0186831820999992002071312004-11300-041870FM-12+074799999V0201401N002612200019N0100001N1+02221+01651101801ADDAA199000091GF104991041021008001001001KA1240N+01401MA1999999093391MD1999999-0071REMSYN076AAXX  13124 83182 32597 41405 10222 20165 39339 40180 84200 333 20140 59007;EQDQ01  00002PRCP99
0167831820999992002071318004-11300-041870FM-12+074799999V0201801N002612200019N0100001N1+03061+00891101181ADDAA199000091GF108991011021008001001011MA1999999092881MD1999999-0131REMSYN070AAXX  13184 83182 32597 81805 10306 20089 39288 40118 81201 333 59013;EQDQ01  00002PRCP99
0167831820999992002071418004-11300-041870FM-12+074799999V0201401N003610450019N0100001N1+03141+00421101221ADDAA199000091GF108991011021008001041011MA1999999092911MD1999999+0031REMSYN070AAXX  14184 83182 32597 81407 10314 20042 39291 40122 81241 333 58003;EQDQ01  00002PRCP99
0186831820999992002071512004-11300-041870FM-12+074799999V0200901N005110450019N0100001N1+02461+01611101741ADDAA199000091GF108991011021008001051011KA1240N+01741MA1999999093381MD1999999+0031REMSYN076AAXX  15124 83182 32597 80910 10246 20161 39338 40174 81251 333 20174 58003;EQDQ01  00002PRCP99
0167831820999992002071618004-11300-041870FM-12+074799999V0200901N005110450019N0100001N1+02641+01421101601ADDAA199000091GF106991041021008001061011MA1999999093241MD1999999+0151REMSYN070AAXX  16184 83182 32597 60910 10264 20142 39324 40160 84261 333 58015;EQDQ01  00002PRCP99
0186831820999992002071712004-11300-041870FM-12+074799999V0200901N005712200019N0100001N1+02191+01681102001ADDAA199000091GF105991041021008001001011KA1240N+01751MA1999999093581MD1999999+0041REMSYN076AAXX  17124 83182 32597 50911 10219 20168 39358 40200 84201 333 20175 58004;EQDQ01  00002PRCP99
0167831820999992002071718004-11300-041870FM-12+074799999V0200901N005712200019N0100001N1+02801+01351101521ADDAA199000091GF103991021021008001001011MA1999999093181MD1999999-0061REMSYN070AAXX  17184 83182 32597 30911 10280 20135 39318 40152 82201 333 59006;EQDQ01  00002PRCP99
0186831820999992002071812004-11300-041870FM-12+074799999V0200901N004110075019N0100001N1+02241+01671101961ADDAA199000091GF108991081051008001999999KA1240N+01711MA1999999093551MD1999999-0031REMSYN076AAXX  18124 83182 32597 80908 10224 20167 39355 40196 885// 333 20171 59003;EQDQ01  00002PRCP99
0167831820999992002071818004-11300-041870FM-12+074799999V0200901N004112200019N0100001N1+02781+01371101511ADDAA199000091GF103991021021008001001011MA1999999093171MD1999999-0011REMSYN070AAXX  18184 83182 32597 30908 10278 20137 39317 40151 82201 333 59001;EQDQ01  00002PRCP99
0186831820999992002071912004-11300-041870FM-12+074799999V0201401N006212200019N0100001N1+02181+01371101961ADDAA199000091GF108991011021008001001011KA1240N+01641MA1999999093561MD1999999+0011REMSYN076AAXX  19124 83182 32597 81412 10218 20137 39356 40196 81201 333 20164 58001;EQDQ01  00002PRCP99
0167831820999992002071918004-11300-041870FM-12+074799999V0201401N004612200019N0100001N1+02701+01191101531ADDAA199000091GF108991021021008001001011MA1999999093151MD1999999-0021REMSYN070AAXX  19184 83182 32597 81409 10270 20119 39315 40153 82201 333 59002;EQDQ01  00002PRCP99
0186831820999992002072012004-11300-041870FM-12+074799999V0201401N005710075019N0100001N1+02051+01391102041ADDAA199000091GF108991081051008001999999KA1240N+01541MA1999999093581MD1999999+0021REMSYN076AAXX  20124 83182 32597 81411 10205 20139 39358 40204 885// 333 20154 58002;EQDQ01  00002PRCP99
0167831820999992002072018004-11300-041870FM-12+074799999V0201401N005112200019N0100001N1+02741+01181101421ADDAA199000091GF104991021021008001001011MA1999999093061MD1999999-0091REMSYN070AAXX  20184 83182 32597 41410 10274 20118 39306 40142 82201 333 59009;EQDQ01  00002PRCP99
0186831820999992002072112004-11300-041870FM-12+074799999V0201401N005712200019N0100001N1+02261+01421101831ADDAA199000091GF108991011021008001001011KA1240N+01461MA1999999093421MD1999999-0161REMSYN076AAXX  21124 83182 32597 81411 10226 20142 39342 40183 81201 333 20146 59016;EQDQ01  00002PRCP99
0167831820999992002072118004-11300-041870FM-12+074799999V0201401N002110075019N0100001N1+02851+01151101321ADDAA199000091GF106991051021008001001011MA1999999092991MD1999999-0071REMSYN070AAXX  21184 83182 32597 61404 10285 20115 39299 40132 85201 333 59007;EQDQ01  00002PRCP99
0186831820999992002072312004-11300-041870FM-12+074799999V0201401N004112200019N0100001N1+02351+01601101921ADDAA199000091GF102991021021008001001001KA1240N+01671MA1999999093531MD1999999+0071REMSYN076AAXX  23124 83182 32597 21408 10235 20160 39353 40192 82200 333 20167 58007;EQDQ01  00002PRCP99
0167831820999992002072318004-11300-041870FM-12+074799999V0201801N003612200019N0100001N1+02971+01261101281ADDAA199000091GF103991031021008001001001MA1999999092981MD1999999-0071REMSYN070AAXX  23184 83182 32597 31807 10297 20126 39298 40128 83200 333 59007;EQDQ01  00002PRCP99
0186831820999992002072412004-11300-041870FM-12+074799999V0200901N006212200019N0100001N1+02341+01601101851ADDAA199000091GF102991021021008001001001KA1240N+01671MA1999999093461MD1999999-0071REMSYN076AAXX  24124 83182 32597 20912 10234 20160 39346 40185 82200 333 20167 59007;EQDQ01  00002PRCP99
0167831820999992002072418004-11300-041870FM-12+074799999V0201401N004112200019N0100001N1+02991+01091101411ADDAA199000091GF101991011021008001001001MA1999999093101MD1999999+0121REMSYN070AAXX  24184 83182 32597 11408 10299 20109 39310 40141 81200 333 58012;EQDQ01  00002PRCP99
0186831820999992002072512004-11300-041870FM-12+074799999V0200901N008212200019N0100001N1+02431+01521101911ADDAA199000091GF102991021021008001001001KA1240N+01721MA1999999093531MD1999999+0071REMSYN076AAXX  25124 83182 32597 20916 10243 20152 39353 40191 82200 333 20172 58007;EQDQ01  00002PRCP99
0167831820999992002072518004-11300-041870FM-12+074799999V0201401N005712200019N0100001N1+02861+01151101501ADDAA199000091GF102991021021008001001001MA1999999093171MD1999999+0101REMSYN070AAXX  25184 83182 32597 21411 10286 20115 39317 40150 82200 333 58010;EQDQ01  00002PRCP99
0186831820999992002072612004-11300-041870FM-12+074799999V0201401N005710075019N0100001N1+02241+01291101981ADDAA199000091GF106991061051008001001001KA1240N+01741MA1999999093571MD1999999+0041REMSYN076AAXX  26124 83182 32597 61411 10224 20129 39357 40198 86500 333 20174 58004;EQDQ01  00002PRCP99
0183831820999992002072618004-11300-041870FM-12+074799999V0200901N006219999999N0100001N1+02631+01831101641ADDAA199000091GF105991999021008001001001MA1999999093271MD1999999+0101REMSYN070AAXX  26184 83182 32597 50912 10263 20183 39327 40164 81200 333 58010;EQDQ01+000012SCOTLCQ02  00002PRCP99
0198831820999992002072700004-11300-041870FM-12+074799999V0201401N003112200019N0100001N1+02041+01531101891ADDAA199000091GF102991021021008001001001KA1240M+02701MA1999999093491MD1999999-0031REMSYN088AAXX  27004 83182 32597 21406 10204 20153 39349 40189 82200 333 10270 29060 55083 59003;EQDQ01  00002PRCP99
0186831820999992002072712004-11300-041870FM-12+074799999V0201401N005710075019N0100001N1+02241+01551102021ADDAA199000091GF107991071051008001001001KA1240N+01621MA1999999093601MD1999999+0031REMSYN076AAXX  27124 83182 32597 71411 10224 20155 39360 40202 87500 333 20162 58003;EQDQ01  00002PRCP99
0167831820999992002072718004-11300-041870FM-12+074799999V0200501N003110450019N0100001N1+02761+01461101631ADDAA199000091GF105991041021008001041001MA1999999093271MD1999999+0001REMSYN070AAXX  27184 83182 32597 50506 10276 20146 39327 40163 84240 333 58000;EQDQ01  00002PRCP99
0198831820999992002072800004-11300-041870FM-12+074799999V0200901N004610450019N0010001N1+02241+01691101851ADDAA199000091GF107991021051008001051001KA1240M+02841MA1999999093461MD1999999-0031REMSYN088AAXX  28004 83182 32594 70909 10224 20169 39346 40185 82550 333 10284 29063 55091 59003;EQDQ01  00002PRCP99
0186831820999992002072812004-11300-041870FM-12+074799999V0200901N004112200019N0100001N1+02421+01721101981ADDAA199000091GF102991011011012501041011KA1240N+01701MA1999999093601MD1999999+0001REMSYN076AAXX  28124 83182 32697 20908 10242 20172 39360 40198 81141 333 20170 58000;EQDQ01  00002PRCP99
0167831820999992002072818004-11300-041870FM-12+074799999V0201401N002612200019N0100001N1+03161+01141101511ADDAA199000091GF102991021021008001001001MA1999999093211MD1999999-0061REMSYN070AAXX  28184 83182 32597 21405 10316 20114 39321 40151 82200 333 59006;EQDQ01  00002PRCP99
0208831820999992002072900004-11300-041870FM-12+074799999V0200901N004612200019N0010001N1+02341+01641101741ADDAA199000091GA1001+999999999GF100991001001999999001001KA1240M+03181MA1999999093381MD1999999-0081REMSYN082AAXX  29004 83182 32994 00909 10234 20164 39338 40174 333 10318 29056 55103 59008;EQDQ01  00002PRCP99
0186831820999992002072912004-11300-041870FM-12+074799999V0201401N005112200019N0100001N1+02451+01531101961ADDAA199000091GF101991011021008001001001KA1240N+01691MA1999999093591MD1999999-0011REMSYN076AAXX  29124 83182 32597 11410 10245 20153 39359 40196 81200 333 20169 59001;EQDQ01  00002PRCP99
0167831820999992002072918004-11300-041870FM-12+074799999V0201401N006212200019N0100001N1+02851+01311101641ADDAA199000091GF103991031021008001001001MA1999999093301MD1999999+0091REMSYN070AAXX  29184 83182 32597 31412 10285 20131 39330 40164 83200 333 58009;EQDQ01  00002PRCP99
0186831820999992002073012004-11300-041870FM-12+074799999V0201401N006712200019N0100001N1+02321+01421102091ADDAA199000091GF108991041021008001001011KA1240N+01851MA1999999093681MD1999999+0091REMSYN076AAXX  30124 83182 32597 81413 10232 20142 39368 40209 84201 333 20185 58009;EQDQ01  00002PRCP99
0167831820999992002073018004-11300-041870FM-12+074799999V0201401N007212200019N0100001N1+02831+01341101611ADDAA199000091GF108991021021008001001011MA1999999093261MD1999999-0041REMSYN070AAXX  30184 83182 32597 81414 10283 20134 39326 40161 82201 333 59004;EQDQ01  00002PRCP99
0198831820999992002073100004-11300-041870FM-12+074799999V0200901N005110075019N0100001N1+02191+01661101931ADDAA199000091GF108991071051008001001011KA1240M+02841MA1999999093541MD1999999-0021REMSYN088AAXX  31004 83182 32597 80910 10219 20166 39354 40193 87501 333 10284 29060 55095 59002;EQDQ01  00002PRCP99
0186831820999992002073112004-11300-041870FM-12+074799999V0201401N006210075019N0100001N1+02211+01561102001ADDAA199000091GF106991061051008001001001KA1240N+01831MA1999999093591MD1999999-0091REMSYN076AAXX  31124 83182 32597 61412 10221 20156 39359 40200 86500 333 20183 59009;EQDQ01  00002PRCP99
0167831820999992002073118004-11300-041870FM-12+074799999V0201401N005710075019N0100001N1+02601+01541101491ADDAA199000091GF107991071051008001001001MA1999999093141MD1999999-0121REMSYN070AAXX  31184 83182 32597 71411 10260 20154 39314 40149 87500 333 59012;EQDQ01  00002PRCP99
0198831820999992002080100004-11300-041870FM-12+074799999V0201401N006210075019N0010001N1+01971+01771101741ADDAA199000091GF108991081051008001999999KA1240M+02861MA1999999093341MD1999999-0201REMSYN088AAXX  01004 83182 32594 81412 10197 20177 39334 40174 885// 333 10286 29074 55047 59020;EQDQ01  00002PRCP99
0186831820999992002080112004-11300-041870FM-12+074799999V0201401N005112200019N0100001N1+02221+01431101881ADDAA199000091GF102991021021008001001001KA1240N+01821MA1999999093461MD1999999-0131REMSYN076AAXX  01124 83182 32597 21410 10222 20143 39346 40188 82200 333 20182 59013;EQDQ01  00002PRCP99
0167831820999992002080118004-11300-041870FM-12+074799999V0200901N003612200019N0100001N1+02901+01161101351ADDAA199000091GF102991021021008001001001MA1999999093041MD1999999-0101REMSYN070AAXX  01184 83182 32597 20907 10290 20116 39304 40135 82200 333 59010;EQDQ01  00002PRCP99
0186831820999992002080212004-11300-041870FM-12+074799999V0201401N002112200019N0100001N1+02311+01461101961ADDAA199000091GF102991001001999999001011KA1240N+01671MA1999999093551MD1999999+0091REMSYN076AAXX  02124 83182 32997 21404 10231 20146 39355 40196 80001 333 20167 58009;EQDQ01  00002PRCP99
0167831820999992002080218004-11300-041870FM-12+074799999V0201801N002612200019N0100001N1+03061+00891101501ADDAA199000091GF102991021021008001001001MA1999999093181MD1999999+0141REMSYN070AAXX  02184 83182 32597 21805 10306 20089 39318 40150 82200 333 58014;EQDQ01  00002PRCP99
0208831820999992002080300004-11300-041870FM-12+074799999V0201401N004112200019N0010001N1+02151+01591101851ADDAA199000091GA1001+999999999GF100991001001999999001001KA1240M+03071MA1999999093461MD1999999+0061REMSYN082AAXX  03004 83182 32994 01408 10215 20159 39346 40185 333 10307 29057 55103 58006;EQDQ01  00002PRCP99
0186831820999992002080312004-11300-041870FM-12+074799999V0201401N004612200019N0100001N1+02301+01461102001ADDAA199000091GF101991011011012501001001KA1240N+01541MA1999999093601MD1999999+0051REMSYN076AAXX  03124 83182 32697 11409 10230 20146 39360 40200 81100 333 20154 58005;EQDQ01  00002PRCP99
0177831820999992002080318004-11300-041870FM-12+074799999V0200901N003112200019N0100001N1+03001+00721101451ADDAA199000091GA1001+999999999GF100991001001999999001001MA1999999093131MD1999999-0051REMSYN064AAXX  03184 83182 32997 00906 10300 20072 39313 40145 333 59005;EQDQ01  00002PRCP99
0208831820999992002080400004-11300-041870FM-12+074799999V0200901N003112200019N0010001N1+02101+01241101791ADDAA199000091GA1001+999999999GF100991001001999999001001KA1240M+03031MA1999999093401MD1999999-0061REMSYN082AAXX  04004 83182 32994 00906 10210 20124 39340 40179 333 10303 29050 55105 59006;EQDQ01  00002PRCP99
0196831820999992002080412004-11300-041870FM-12+074799999V0200901N005112200019N0100001N1+02301+01431101921ADDAA199000091GA1001+999999999GF100991001001999999001001KA1240N+01501MA1999999093521MD1999999-0081REMSYN070AAXX  04124 83182 32997 00910 10230 20143 39352 40192 333 20150 59008;EQDQ01  00002PRCP99
0208831820999992002080500004-11300-041870FM-12+074799999V0200901N004112200019N0010001N1+02141+01031101631ADDAA199000091GA1001+999999999GF100991001001999999001001KA1240M+03041MA1999999093251MD1999999-0151REMSYN082AAXX  05004 83182 32994 00908 10214 20103 39325 40163 333 10304 29044 55106 59015;EQDQ01  00002PRCP99
0196831820999992002080512004-11300-041870FM-12+074799999V0201401N005112200019N0100001N1+02271+01351101821ADDAA199000091GA1001+999999999GF100991001001999999001001KA1240N+01401MA1999999093431MD1999999-0091REMSYN070AAXX  05124 83182 32997 01410 10227 20135 39343 40182 333 20140 59009;EQDQ01  00002PRCP99
0177831820999992002080518004-11300-041870FM-12+074799999V02099999999992200019N0100001N1+02951+01151101321ADDAA199000091GA1001+999999999GF100991001001999999001001MA1999999093001MD1999999-0111REMSYN064AAXX  05184 83182 32997 009// 10295 20115 39300 40132 333 59011;EQDQ01  00002PRCP99
0208831820999992002080600004-11300-041870FM-12+074799999V0200901N002612200019N0010001N1+02051+01441101711ADDAA199000091GA1001+999999999GF100991001001999999001001KA1240M+02981MA1999999093311MD1999999+0061REMSYN082AAXX  06004 83182 32994 00905 10205 20144 39331 40171 333 10298 29056 55106 58006;EQDQ01  00002PRCP99
0187831820999992002080612004-11300-041870FM-12+074799999V0201401N005712200019N0100001N1+02141+01231101961ADDAA199000091GF101991011021008001001001KA1240N+01411MD1999999+0111REMSYN076AAXX  06124 83182 32597 11411 10214 20123 33935 40196 81200 333 20141 58011;EQDQ01+039351APOSP Q02  00002PRCP99
0177831820999992002080618004-11300-041870FM-12+074799999V0201401N004612200019N0100001N1+02981+00771101341ADDAA199000091GA1001+999999999GF100991001001999999001001MA1999999093021MD1999999+0021REMSYN064AAXX  06184 83182 32997 01409 10298 20077 39302 40134 333 58002;EQDQ01  00002PRCP99
0208831820999992002080700004-11300-041870FM-12+074799999V0201401N003112200019N0010001N1+02081+01061101841ADDAA199000091GA1001+999999999GF100991001001999999001001KA1240M+03001MA1999999093431MD1999999+0121REMSYN082AAXX  07004 83182 32994 01406 10208 20106 39343 40184 333 10300 29046 55103 58012;EQDQ01  00002PRCP99
0186831820999992002080712004-11300-041870FM-12+074799999V0200901N005112200019N0100001N1+02251+01301102091ADDAA199000091GF103991031021008001001001KA1240N+01371MA1999999093661MD1999999+0121REMSYN076AAXX  07124 83182 32597 30910 10225 20130 39366 40209 83200 333 20137 58012;EQDQ01  00002PRCP99
0167831820999992002080718004-11300-041870FM-12+074799999V0200901N005112200019N0100001N1+02861+01251101521ADDAA199000091GF102991021021008001001001MA1999999093171MD1999999+0151REMSYN070AAXX  07184 83182 32597 20910 10286 20125 39317 40152 82200 333 58015;EQDQ01  00002PRCP99
0208831820999992002080800004-11300-041870FM-12+074799999V0201401N003112200019N0010001N1+02121+01361101841ADDAA199000091GA1001+999999999GF100991001001999999001001KA1240M+02881MA1999999093451MD1999999+0021REMSYN082AAXX  08004 83182 32994 01406 10212 20136 39345 40184 333 10288 29054 55106 58002;EQDQ01  00002PRCP99
0186831820999992002080812004-11300-041870FM-12+074799999V0200901N010312200019N0100001N1+02221+01161101991ADDAA199000091GF101991011021008001001001KA1240N+01721MA1999999093571MD1999999-0091REMSYN076AAXX  08124 83182 32597 10920 10222 20116 39357 40199 81200 333 20172 59009;EQDQ01  00002PRCP99
0167831820999992002080818004-11300-041870FM-12+074799999V0200901N006712200019N0100001N1+02681+01171101481ADDAA199000091GF108991011021008001001011MA1999999093171MD1999999+0001REMSYN070AAXX  08184 83182 32597 80913 10268 20117 39317 40148 81201 333 58000;EQDQ01  00002PRCP99
0198831820999992002080900004-11300-041870FM-12+074799999V0201401N004119999999N0010001N1+02081+01371101821ADDAA199000091GF108991001001999999001011KA1240M+02721MA1999999093421MD1999999-0031REMSYN088AAXX  09004 83182 32994 81408 10208 20137 39342 40182 80001 333 10272 29054 55105 59003;EQDQ01  00002PRCP99
0186831820999992002080912004-11300-041870FM-12+074799999V0201401N006712200019N0100001N1+02231+01221101981ADDAA199000091GF105991041021008001001011KA1240N+01301MA1999999093561MD1999999-0011REMSYN076AAXX  09124 83182 32597 51413 10223 20122 39356 40198 84201 333 20130 59001;EQDQ01  00002PRCP99
0167831820999992002080918004-11300-041870FM-12+074799999V0201401N005112200019N0100001N1+02841+00811101581ADDAA199000091GF101991011011012501001001MA1999999093221MD1999999+0051REMSYN070AAXX  09184 83182 32697 11410 10284 20081 39322 40158 81100 333 58005;EQDQ01  00002PRCP99
0208831820999992002081000004-11300-041870FM-12+074799999V0201401N004112200019N0010001N1+02021+01431101871ADDAA199000091GA1001+999999999GF100991001001999999001001KA1240M+02871MA1999999093461MD1999999+0021REMSYN082AAXX  10004 83182 32994 01408 10202 20143 39346 40187 333 10287 29055 55085 58002;EQDQ01  00002PRCP99
0186831820999992002081012004-11300-041870FM-12+074799999V0201401N006210075019N0100001N1+02151+01481102041ADDAA199000091GF108991081051008001999999KA1240N+01601MA1999999093611MD1999999+0051REMSYN076AAXX  10124 83182 32597 81412 10215 20148 39361 40204 885// 333 20160 58005;EQDQ01  00002PRCP99
0167831820999992002081018004-11300-041870FM-12+074799999V0200901N005710075019N0100001N1+02761+01161101531ADDAA199000091GF105991051021008001001001MA1999999093171MD1999999-0051REMSYN070AAXX  10184 83182 32597 50911 10276 20116 39317 40153 85200 333 59005;EQDQ01  00002PRCP99
0198831820999992002081100004-11300-041870FM-12+074799999V0201401N004612200019N0010001N1+01981+01421101851ADDAA199000091GF102991021001017501041001KA1240M+02881MA1999999093431MD1999999-0031REMSYN088AAXX  11004 83182 32794 21409 10198 20142 39343 40185 82040 333 10288 29056 55090 59003;EQDQ01  00002PRCP99
0202831820999992002081112004-11300-041870FM-12+074799999V0201401N005119999999N0100001N1+02201+01441102071ADDAA199000091GF106991999001008001041001KA1240N+01481MA1999999093641MD1999999+0031REMSYN076AAXX  11124 83182 32597 61410 10220 20144 39364 40207 82040 333 20148 58003;EQDQ01+000022SCOTLCQ02  00002PRCP99
0167831820999992002081118004-11300-041870FM-12+074799999V0200901N003612200019N0100001N1+02691+01061101611ADDAA199000091GF101991011011012501001001MA1999999093241MD1999999+0071REMSYN070AAXX  11184 83182 32697 10907 10269 20106 39324 40161 81100 333 58007;EQDQ01  00002PRCP99
0208831820999992002081200004-11300-041870FM-12+074799999V0201401N003112200019N0010001N1+02011+01001101921ADDAA199000091GA1001+999999999GF100991001001999999001001KA1240M+02721MA1999999093501MD1999999+0071REMSYN082AAXX  12004 83182 32994 01406 10201 20100 39350 40192 333 10272 29050 55098 58007;EQDQ01  00002PRCP99
0186831820999992002081212004-11300-041870FM-12+074799999V0201401N005112200019N0100001N1+02191+01301102121ADDAA199000091GF101991011011012501001001KA1240N+01321MA1999999093681MD1999999+0041REMSYN076AAXX  12124 83182 32697 11410 10219 20130 39368 40212 81100 333 20132 58004;EQDQ01  00002PRCP99
0167831820999992002081218004-11300-041870FM-12+074799999V0200501N004112200019N0100001N1+02941+01101101551ADDAA199000091GF102991021021008001001001MA1999999093211MD1999999-0031REMSYN070AAXX  12184 83182 32597 20508 10294 20110 39321 40155 82200 333 59003;EQDQ01  00002PRCP99
0208831820999992002081300004-11300-041870FM-12+074799999V0201401N005112200019N0010001N1+02291+01611101921ADDAA199000091GA1001+999999999GF100991001001999999001001KA1240M+02981MA1999999093511MD1999999+0011REMSYN082AAXX  13004 83182 32994 01410 10229 20161 39351 40192 333 10298 29059 55101 58001;EQDQ01  00002PRCP99
0186831820999992002081312004-11300-041870FM-12+074799999V0201401N006210075019N0100001N1+02231+01471102051ADDAA199000091GF106991051021008001001011KA1240N+01781MA1999999093631MD1999999-0051REMSYN076AAXX  13124 83182 32597 61412 10223 20147 39363 40205 85201 333 20178 59005;EQDQ01  00002PRCP99
0167831820999992002081318004-11300-041870FM-12+074799999V0200901N005112200019N0100001N1+02851+01211101541ADDAA199000091GF108991011021008001001011MA1999999093211MD1999999+0001REMSYN070AAXX  13184 83182 32597 80910 10285 20121 39321 40154 81201 333 58000;EQDQ01  00002PRCP99
0198831820999992002081400004-11300-041870FM-12+074799999V0200901N004119999999N0010001N1+02141+01361101831ADDAA199000091GF108991001001999999001011KA1240M+02891MA1999999093471MD1999999-0041REMSYN088AAXX  14004 83182 32994 80908 10214 20136 39347 40183 80001 333 10289 29055 55087 59004;EQDQ01  00002PRCP99
0186831820999992002081412004-11300-041870FM-12+074799999V0201401N005112200019N0100001N1+02431+01511102041ADDAA199000091GF106991011021008001001011KA1240N+01611MA1999999093651MD1999999+0021REMSYN076AAXX  14124 83182 32597 61410 10243 20151 39365 40204 81201 333 20161 58002;EQDQ01  00002PRCP99
0167831820999992002081418004-11300-041870FM-12+074799999V0200901N003112200019N0100001N1+03041+01091101481ADDAA199000091GF104991021021008001001011MA1999999093161MD1999999-0051REMSYN070AAXX  14184 83182 32597 40906 10304 20109 39316 40148 82201 333 59005;EQDQ01  00002PRCP99
0198831820999992002081500004-11300-041870FM-12+074799999V0201401N005712200019N0010001N1+02281+01541101841ADDAA199000091GF103991011001017501051011KA1240M+03091MA1999999093451MD1999999-0021REMSYN088AAXX  15004 83182 32794 31411 10228 20154 39345 40184 81051 333 10309 29053 55104 59002;EQDQ01  00002PRCP99
0186831820999992002081512004-11300-041870FM-12+074799999V0201401N006212200019N0100001N1+02311+01331102031ADDAA199000091GF103991031001017501041001KA1240N+01801MA1999999093641MD1999999-0011REMSYN076AAXX  15124 83182 32797 31412 10231 20133 39364 40203 83040 333 20180 59001;EQDQ01  00002PRCP99
0167831820999992002081518004-11300-041870FM-12+074799999V0201401N006212200019N0100001N1+03011+01251101521ADDAA199000091GF104991021021008001041001MA1999999093211MD1999999+0051REMSYN070AAXX  15184 83182 32597 41412 10301 20125 39321 40152 82240 333 58005;EQDQ01  00002PRCP99
0186831820999992002081612004-11300-041870FM-12+074799999V0201401N007710450019N0100001N1+02341+01621102081ADDAA199000091GF107991041021008001051001KA1240N+01841MA1999999093691MD1999999+0051REMSYN076AAXX  16124 83182 32597 71415 10234 20162 39369 40208 84250 333 20184 58005;EQDQ01  00002PRCP99
0167831820999992002081618004-11300-041870FM-12+074799999V0201801N006210075019N0100001N1+02601+01741101701ADDAA199000091GF106991051021008001061001MA1999999093341MD1999999+0131REMSYN070AAXX  16184 83182 32597 61812 10260 20174 39334 40170 85260 333 58013;EQDQ01  00002PRCP99
0198831820999992002081700004-11300-041870FM-12+074799999V0201801N005110075019N0010001N1+02051+01691102031ADDAA199000091GF108991081051008001999999KA1240M+02631MA1999999093621MD1999999+0081REMSYN088AAXX  17004 83182 32594 81810 10205 20169 39362 40203 885// 333 10263 29071 55073 58008;EQDQ01  00002PRCP99
0186831820999992002081712004-11300-041870FM-12+074799999V0201401N006210075019N0100001N1+02101+01601102121ADDAA199000091GF108991081051008001999999KA1240N+01681MA1999999093681MD1999999-0011REMSYN076AAXX  17124 83182 32597 81412 10210 20160 39368 40212 885// 333 20168 59001;EQDQ01  00002PRCP99
0167831820999992002081718004-11300-041870FM-12+074799999V0201401N006712200019N0100001N1+02751+01311101601ADDAA199000091GF101991011021008001001001MA1999999093241MD1999999-0101REMSYN070AAXX  17184 83182 32597 11413 10275 20131 39324 40160 81200 333 59010;EQDQ01  00002PRCP99
0186831820999992002081812004-11300-041870FM-12+074799999V0201401N008710075019N0100001N1+02121+01411102061ADDAA199000091GF108991081051008001999999KA1240N+01701MA1999999093631MD1999999-0051REMSYN076AAXX  18124 83182 32597 81417 10212 20141 39363 40206 885// 333 20170 59005;EQDQ01  00002PRCP99
0167831820999992002081818004-11300-041870FM-12+074799999V0201401N006212200019N0100001N1+02681+01131101581ADDAA199000091GF105991041021008001001011MA1999999093221MD1999999-0021REMSYN070AAXX  18184 83182 32597 51412 10268 20113 39322 40158 84201 333 59002;EQDQ01  00002PRCP99
0198831820999992002081900004-11300-041870FM-12+074799999V0200901N005112200019N0010001N1+02081+01451101791ADDAA199000091GF103991021001017501041021KA1240M+02701MA1999999093381MD1999999+0001REMSYN088AAXX  19004 83182 32794 30910 10208 20145 39338 40179 82042 333 10270 29059 55071 58000;EQDQ01  00002PRCP99
0122831820999992002081912004-11300-041870FM-12+074799999V0200901N004119999999N0100001N1+01981+01741999999ADDGF108991999999004501999999REMSYN084AAXX  19124 83182 21497 80908 10198 20174 20167 39366 40211 58003 60014 72121 8672/;
0167831820999992002081918004-11300-041870FM-12+074799999V0200901N009310450019N0100001N1+02301+01511101741ADDAA199000091GF105991021021008001061001MA1999999093331MD1999999+0111REMSYN070AAXX  19184 83182 32597 50918 10230 20151 39333 40174 82260 333 58011;EQDQ01  00002PRCP99
0208831820999992002082000004-11300-041870FM-12+074799999V0201401N005112200019N0010001N1+01951+01491102011ADDAA199000091GA1001+999999999GF100991001001999999001001KA1240M+02621MA1999999093551MD1999999+0171REMSYN082AAXX  20004 83182 32994 01410 10195 20149 39355 40201 333 10262 29074 55061 58017;EQDQ01  00002PRCP99
0186831820999992002082012004-11300-041870FM-12+074799999V0201401N005710075019N0100001N1+02101+01491102041ADDAA199000091GF108991081051008001999999KA1240N+01571MA1999999093601MD1999999-0061REMSYN076AAXX  20124 83182 32597 81411 10210 20149 39360 40204 885// 333 20157 59006;EQDQ01  00002PRCP99
0167831820999992002082018004-11300-041870FM-12+074799999V0201401N007710075019N0100001N1+02641+01581101581ADDAA199000091GF106991061021008001001001MA1999999093211MD1999999-0121REMSYN070AAXX  20184 83182 32597 61415 10264 20158 39321 40158 86200 333 59012;EQDQ01  00002PRCP99
0198831820999992002082100004-11300-041870FM-12+074799999V0201401N006212200019N0010001N1+01951+01561101991ADDAA199000091GF101991011001017501041001KA1240M+02671MA1999999093151MD1999999+0001REMSYN088AAXX  21004 83182 32794 11412 10195 20156 39315 40199 81040 333 10267 29069 55058 58000;EQDQ01  00002PRCP99
0167831820999992002082118004-11300-041870FM-12+074799999V0200901N006712200019N0100001N1+02681+01171101721ADDAA199000091GF103991021021008001001011MA1999999093331MD1999999+0121REMSYN070AAXX  21184 83182 32597 30913 10268 20117 39333 40172 82201 333 58012;EQDQ01  00002PRCP99
0198831820999992002082200004-11300-041870FM-12+074799999V0201401N002612200019N0010001N1+02001+01201102051ADDAA199000091GF102991011021008001001011KA1240M+02721MA1999999093641MD1999999+0091REMSYN088AAXX  22004 83182 32594 21405 10200 20120 39364 40205 81201 333 10272 29054 55105 58009;EQDQ01  00002PRCP99
0186831820999992002082212004-11300-041870FM-12+074799999V0200901N003110042019N0100001N1+02061+01761102121ADDAA199000091GF108991061071004501021999KA1240N+01641MA1999999093671MD1999999-0181REMSYN076AAXX  22124 83182 32497 80906 10206 20176 39367 40212 8672/ 333 20164 59018;EQDQ01  00002PRCP99
0167831820999992002082218004-11300-041870FM-12+074799999V0200901N005710075019N0100001N1+02661+01331101611ADDAA199000091GF106991051021008001061001MA1999999093241MD1999999-0091REMSYN070AAXX  22184 83182 32597 60911 10266 20133 39324 40161 85260 333 59009;EQDQ01  00002PRCP99
0096831820999992002082300004-11300-041870FM-12+074799999V02099999999999999999N9999999N1+99999+99999999999REMSYN087AAXX  23004 83182 2597 30913 10220 20128 39348 40189 81260 333 10268 29060 55034 59016;
0186831820999992002082312004-11300-041870FM-12+074799999V0201401N008212200019N0100001N1+02241+01241101981ADDAA199000091GF101991011021008001001001KA1240N+01661MA1999999093571MD1999999-0101REMSYN076AAXX  23124 83182 32597 11416 10224 20124 39357 40198 81200 333 20166 59010;EQDQ01  00002PRCP99
0167831820999992002082318004-11300-041870FM-12+074799999V0200901N005712200019N0100001N1+02831+01051101421ADDAA199000091GF101991011021008001001001MA1999999093091MD1999999-0151REMSYN070AAXX  23184 83182 32597 10911 10283 20105 39309 40142 81200 333 59015;EQDQ01  00002PRCP99
0208831820999992002082400004-11300-041870FM-12+074799999V0200901N003612200019N0010001N1+02031+01301101811ADDAA199000091GA1001+999999999GF100991001001999999001001KA1240M+02841MA1999999093411MD1999999-0071REMSYN082AAXX  24004 83182 32994 00907 10203 20130 39341 40181 333 10284 29052 55104 59007;EQDQ01  00002PRCP99
0186831820999992002082412004-11300-041870FM-12+074799999V0200901N004610075019N0100001N1+02041+01411102031ADDAA199000091GF108991081051008001999999KA1240N+01411MA1999999093591MD1999999+0021REMSYN076AAXX  24124 83182 32597 80909 10204 20141 39359 40203 885// 333 20141 58002;EQDQ01  00002PRCP99
0167831820999992002082418004-11300-041870FM-12+074799999V0200901N005112200019N0100001N1+02731+01001101481ADDAA199000091GF108991021021008001001011MA1999999093111MD1999999+0021REMSYN070AAXX  24184 83182 32597 80910 10273 20100 39311 40148 82201 333 58002;EQDQ01  00002PRCP99
0198831820999992002082500004-11300-041870FM-12+074799999V0201401N003112200019N0010001N1+02061+01431101891ADDAA199000091GF108991011021008001001011KA1240M+02771MA1999999093461MD1999999+0051REMSYN088AAXX  25004 83182 32594 81406 10206 20143 39346 40189 81201 333 10277 29059 55075 58005;EQDQ01  00002PRCP99
0186831820999992002082512004-11300-041870FM-12+074799999V0200901N005110075019N0100001N1+02211+01591102001ADDAA199000091GF108991081051008001999999KA1240N+01801MA1999999093581MD1999999-0011REMSYN076AAXX  25124 83182 32597 80910 10221 20159 39358 40200 885// 333 20180 59001;EQDQ01  00002PRCP99
0167831820999992002082518004-11300-041870FM-12+074799999V0200901N006712200019N0100001N1+02651+01401101451ADDAA199000091GF108991041021008001001011MA1999999093111MD1999999+0001REMSYN070AAXX  25184 83182 32597 80913 10265 20140 39311 40145 84201 333 58000;EQDQ01  00002PRCP99
0198831820999992002082600004-11300-041870FM-12+074799999V0201401N005110450019N0010001N1+01901+01591101841ADDAA199000091GF108991041051008001061011KA1240M+02781MA1999999093421MD1999999-0041REMSYN088AAXX  26004 83182 32594 81410 10190 20159 39342 40184 84561 333 10278 29070 55056 59004;EQDQ01  00002PRCP99
0186831820999992002082612004-11300-041870FM-12+074799999V0200901N006210075019N0100001N1+02161+01431102041ADDAA199000091GF107991061021008001001011KA1240N+01661MA1999999093601MD1999999+0021REMSYN076AAXX  26124 83182 32597 70912 10216 20143 39360 40204 86201 333 20166 58002;EQDQ01  00002PRCP99
0167831820999992002082618004-11300-041870FM-12+074799999V0201401N002610075019N0100001N1+02751+01151101471ADDAA199000091GF108991051021008001001011MA1999999093131MD1999999+0021REMSYN070AAXX  26184 83182 32597 81405 10275 20115 39313 40147 85201 333 58002;EQDQ01  00002PRCP99
0198831820999992002082700004-11300-041870FM-12+074799999V0201401N005112200019N0010001N1+02091+01451101761ADDAA199000091GF108991011001017501041011KA1240M+02821MA1999999093361MD1999999-0061REMSYN088AAXX  27004 83182 32794 81410 10209 20145 39336 40176 81041 333 10282 29058 55083 59006;EQDQ01  00002PRCP99
0186831820999992002082712004-11300-041870FM-12+074799999V0201401N007212200019N0100001N1+02261+01341101901ADDAA199000091GF108991011021008001001011KA1240N+01541MA1999999093501MD1999999-0101REMSYN076AAXX  27124 83182 32597 81414 10226 20134 39350 40190 81201 333 20154 59010;EQDQ01  00002PRCP99
0167831820999992002082718004-11300-041870FM-12+074799999V0201401N004112200019N0100001N1+02881+01001101441ADDAA199000091GF108991041021008001001011MA1999999093111MD1999999-0021REMSYN070AAXX  27184 83182 32597 81408 10288 20100 39311 40144 84201 333 59002;EQDQ01  00002PRCP99
0198831820999992002082800004-11300-041870FM-12+074799999V0201401N004619999999N0010001N1+02121+01441101691ADDAA199000091GF108991001001999999001011KA1240M+02891MA1999999093301MD1999999-0061REMSYN088AAXX  28004 83182 32994 81409 10212 20144 39330 40169 80001 333 10289 29054 55103 59006;EQDQ01  00002PRCP99
0186831820999992002082812004-11300-041870FM-12+074799999V0201401N006210075019N0100001N1+02181+01391101851ADDAA199000091GF108991081051008001999999KA1240N+01751MA1999999093451MD1999999-0051REMSYN076AAXX  28124 83182 32597 81412 10218 20139 39345 40185 885// 333 20175 59005;EQDQ01  00002PRCP99
0167831820999992002082818004-11300-041870FM-12+074799999V0200901N005112200019N0200001N1+02801+01281101241ADDAA199000091GF101991011011008001001001MA1999999092931MD1999999-0181REMSYN070AAXX  28184 83182 32598 10910 10280 20128 39293 40124 81100 333 59018;EQDQ01  00002PRCP99
0208831820999992002082900004-11300-041870FM-12+074799999V0200901N005112200019N0010001N1+02111+01331101601ADDAA199000091GA1001+999999999GF100991001001999999001001KA1240M+02831MA1999999093211MD1999999-0091REMSYN082AAXX  29004 83182 32994 00910 10211 20133 39321 40160 333 10283 29058 55086 59009;EQDQ01  00002PRCP99
0186831820999992002082912004-11300-041870FM-12+074799999V0200901N006212200019N0100001N1+02281+01361101781ADDAA199000091GF108991031021008001001011KA1240N+01651MA1999999093391MD1999999-0061REMSYN076AAXX  29124 83182 32597 80912 10228 20136 39339 40178 83201 333 20165 59006;EQDQ01  00002PRCP99
0167831820999992002082918004-11300-041870FM-12+074799999V0201401N004112200019N0100001N1+02911+01281101121ADDAA106000091GF108991021021008001001011MA1999999092831MD1999999-0101REMSYN070AAXX  29184 83182 32597 81408 10291 20128 39283 40112 82201 333 59010;EQDQ01  00002PRCP06
0198831820999992002083000004-11300-041870FM-12+074799999V0200901N003119999999N0010001N1+02081+01561101431ADDAA106000091GF108991001001999999001011KA1240M+02921MA1999999093061MD1999999-0151REMSYN088AAXX  30004 83182 32994 80906 10208 20156 39306 40143 80001 333 10292 29059 55084 59015;EQDQ01  00002PRCP06
0202831820999992002083012004-11300-041870FM-12+074799999V0200901N005710075019N0100001N1+02321+01391101691ADDAA106000091GF106991999021008001001001KA1240N+01611MA1999999093301MD1999999-0091REMSYN076AAXX  30124 83182 32597 60911 10232 20139 39330 40169 85200 333 20161 59009;EQDQ01+000052SCOTLCQ02  00002PRCP06
0167831820999992002083018004-11300-041870FM-12+074799999V0201401N003612200019N0100001N1+03041+01141101041ADDAA106000091GF108991011011012501001011MA1999999092761MD1999999-0071REMSYN070AAXX  30184 83182 32697 81407 10304 20114 39276 40104 81101 333 59007;EQDQ01  00002PRCP06
0198831820999992002083100004-11300-041870FM-12+074799999V0200901N002619999999N0010001N1+02191+01301101591ADDAA106000091GF108991001001999999001011KA1240M+03051MA1999999093221MD1999999+0161REMSYN088AAXX  31004 83182 32994 80905 10219 20130 39322 40159 80001 333 10305 29050 55106 58016;EQDQ01  00002PRCP06
0186831820999992002083112004-11300-041870FM-12+074799999V0200901N003110075019N0100001N1+02321+01601101721ADDAA106000091GF108991081051008001999999KA1240N+01671MA1999999093341MD1999999+0041REMSYN076AAXX  31124 83182 32597 80906 10232 20160 39334 40172 885// 333 20167 58004;EQDQ01  00002PRCP06
0167831820999992002083118004-11300-041870FM-12+074799999V0200901N004612200019N0100001N1+02971+01271101151ADDAA106000091GF102991011011012501001011MA1999999092861MD1999999+0101REMSYN070AAXX  31184 83182 32697 20909 10297 20127 39286 40115 81101 333 58010;EQDQ01  00002PRCP06
0208831820999992002090100004-11300-041870FM-12+074799999V0200901N005112200019N0010001N1+02261+01381101521ADDAA106000091GA1001+999999999GF100991001001999999001001KA1240M+03021MA1999999093161MD1999999-0061REMSYN082AAXX  01004 83182 32994 00910 10226 20138 39316 40152 333 10302 29055 55084 59006;EQDQ01  00002PRCP06
0196831820999992002090112004-11300-041870FM-12+074799999V0200901N003112200019N0100001N1+02521+01631101451ADDAA106000091GA1001+999999999GF100991001001999999001001KA1240N+01621MA1999999093121MD1999999-0221REMSYN070AAXX  01124 83182 32597 00906 10252 20163 39312 40145 333 20162 59022;EQDQ01  00002PRCP06
0167831820999992002090118004-11300-041870FM-12+074799999V0200501N001512200019N0100001N1+03271+01231100771ADDAA106000091GF102991021021008001001001MA1999999092541MD1999999-0321REMSYN070AAXX  01184 83182 32597 20503 10327 20123 39254 40077 82200 333 59032;EQDQ01  00002PRCP06
0208831820999992002090200004-11300-041870FM-12+074799999V0200901N003612200019N0010001N1+02461+01551101201ADDAA106000091GA1001+999999999GF100991001001999999001001KA1240M+03321MA1999999092911MD1999999-0251REMSYN082AAXX  02004 83182 32994 00907 10246 20155 39291 40120 333 10332 29050 55101 59025;EQDQ01  00002PRCP06
0186831820999992002090212004-11300-041870FM-12+074799999V0200901N001012200019N0010001N1+02701+01541101361ADDAA106000091GF102991011001017501041011KA1240N+01771MA1999999093071MD1999999-0051REMSYN076AAXX  02124 83182 32794 20902 10270 20154 39307 40136 81041 333 20177 59005;EQDQ01  00002PRCP06
0167831820999992002090218004-11300-041870FM-12+074799999V0200501N004112200019N0100001N1+03441+01211100751ADDAA106000091GF102991021021008001001001MA1999999092551MD1999999+0011REMSYN070AAXX  02184 83182 32597 20508 10344 20121 39255 40075 82200 333 58001;EQDQ01  00002PRCP06
0208831820999992002090300004-11300-041870FM-12+074799999V0200501N001012200019N0010001N1+02681+01131101011ADDAA106000091GA1001+999999999GF100991001001999999001001KA1240M+03471MA1999999092761MD1999999-0151REMSYN082AAXX  03004 83182 32994 00502 10268 20113 39276 40101 333 10347 29038 55102 59015;EQDQ01  00002PRCP06
0186831820999992002090312004-11300-041870FM-12+074799999V0200901N005710450019N0100001N1+02701+01801101591ADDAA106000091GF108991031021008001031011KA1240N+02091MA1999999093301MD1999999+0231REMSYN076AAXX  03124 83182 32597 80911 10270 20180 39330 40159 83231 333 20209 58023;EQDQ01  00002PRCP06
0167831820999992002090318004-11300-041870FM-12+074799999V0200901N005712200019N0100001N1+03141+01581101161ADDAA106000091GF108991031021008001001011MA1999999092911MD1999999+0361REMSYN070AAXX  03184 83182 32597 80911 10314 20158 39291 40116 83201 333 58036;EQDQ01  00002PRCP06
0198831820999992002090400004-11300-041870FM-12+074799999V0201401N004612200019N0100001N1+02381+01841101531ADDAA106000091GF108991011021008001001011KA1240M+03141MA1999999093221MD1999999+0461REMSYN088AAXX  04004 83182 32597 81409 10238 20184 39322 40153 81201 333 10314 29060 55097 58046;EQDQ01  00002PRCP06
0186831820999992002090412004-11300-041870FM-12+074799999V0201401N004610075019N0100001N1+02471+01661101801ADDAA106000091GF108991081051008001999999KA1240N+02121MA1999999093451MD1999999+0151REMSYN076AAXX  04124 83182 32597 81409 10247 20166 39345 40180 885// 333 20212 58015;EQDQ01  00002PRCP06
0167831820999992002090418004-11300-041870FM-12+074799999V0200901N005712200019N0100001N1+02981+01551101271ADDAA106000091GF106991041021008001001011MA1999999093001MD1999999+0091REMSYN070AAXX  04184 83182 32597 60911 10298 20155 39300 40127 84201 333 58009;EQDQ01  00002PRCP06
0198831820999992002090500004-11300-041870FM-12+074799999V0200901N004612200019N0010001N1+02341+01551101721ADDAA106000091GF103991001001999999001011KA1240M+03021MA1999999093361MD1999999+0141REMSYN088AAXX  05004 83182 32994 30909 10234 20155 39336 40172 80001 333 10302 29056 55068 58014;EQDQ01  00002PRCP06
0186831820999992002090512004-11300-041870FM-12+074799999V0201401N006212200019N0100001N1+02471+01551101871ADDAA106000091GF101991011021008001001001KA1240N+01821MA1999999093501MD1999999+0051REMSYN076AAXX  05124 83182 32597 11412 10247 20155 39350 40187 81200 333 20182 58005;EQDQ01  00002PRCP06
0198831820999992002090600004-11300-041870FM-12+074799999V0201401N004119999999N0010001N1+02241+01641101681ADDAA106000091GF108991001001999999001011KA1240M+03041MA1999999093321MD1999999-0041REMSYN088AAXX  06004 83182 32994 81408 10224 20164 39332 40168 80001 333 10304 29059 55106 59004;EQDQ01  00002PRCP06
0186831820999992002090612004-11300-041870FM-12+074799999V0200901N006210075019N0100001N1+02281+01511101981ADDAA106000091GF106991061021008001001001KA1240N+01831MA1999999093581MD1999999+0081REMSYN076AAXX  06124 83182 32597 60912 10228 20151 39358 40198 86200 333 20183 58008;EQDQ01  00002PRCP06
0167831820999992002090618004-11300-041870FM-12+074799999V0200901N005112200019N0100001N1+02961+01251101341ADDAA106000091GF104991041021008001001001MA1999999093041MD1999999-0011REMSYN070AAXX  06184 83182 32597 40910 10296 20125 39304 40134 84200 333 59001;EQDQ01  00002PRCP06
0186831820999992002090712004-11300-041870FM-12+074799999V0200901N003612200019N0100001N1+02501+01641101781ADDAA106000091GF102991011021008001001011KA1240N+01771MA1999999093411MD1999999-0171REMSYN076AAXX  07124 83182 32597 20907 10250 20164 39341 40178 81201 333 20177 59017;EQDQ01  00002PRCP06
0167831820999992002090718004-11300-041870FM-12+074799999V0201401N004112200019N0100001N1+03201+01321101221ADDAA106000091GF103991021021008001001011MA1999999092951MD1999999-0091REMSYN070AAXX  07184 83182 32597 31408 10320 20132 39295 40122 82201 333 59009;EQDQ01  00002PRCP06
0168831820999992002090800004-11300-041870FM-12+074799999V0200901N004619999999N0100001N1+02421+99999999999ADDAA106000091GF108991999999999999999999KA1240M+03231REMSYN087AAXX  08004 83182 32997 80909 10242 2015 39323 40156 80001 333 10323 29051 55104 59006;EQDQ01  00002PRCP06
0186831820999992002090812004-11300-041870FM-12+074799999V0200901N005710075019N0100001N1+02261+01571101921ADDAA106000091GF108991081051008001999999KA1240N+01931MA1999999093541MD1999999+0131REMSYN076AAXX  08124 83182 32597 80911 10226 20157 39354 40192 885// 333 20193 58013;EQDQ01  00002PRCP06
0167831820999992002090818004-11300-041870FM-12+074799999V0200901N005110075019N0100001N1+02791+01481101451ADDAA106000091GF106991061021008001001001MA1999999093131MD1999999+0181REMSYN070AAXX  08184 83182 32597 60910 10279 20148 39313 40145 86200 333 58018;EQDQ01  00002PRCP06
0208831820999992002090900004-11300-041870FM-12+074799999V0200901N003112200019N0010001N1+02251+01241101771ADDAA106000091GA1001+999999999GF100991001001999999001001KA1240M+02821MA1999999093381MD1999999+0051REMSYN082AAXX  09004 83182 32994 00906 10225 20124 39338 40177 333 10282 29054 55068 58005;EQDQ01  00002PRCP06
0186831820999992002090912004-11300-041870FM-12+074799999V0201401N007210075019N0100001N1+02221+01271102021ADDAA106000091GF106991061021008001001001KA1240N+01491MA1999999093621MD1999999+0081REMSYN076AAXX  09124 83182 32597 61414 10222 20127 39362 40202 86200 333 20149 58008;EQDQ01  00002PRCP06
0167831820999992002090918004-11300-041870FM-12+074799999V0200901N006712200019N0100001N1+02931+01421101491ADDAA106000091GF101991011021008001001001MA1999999093151MD1999999+0021REMSYN070AAXX  09184 83182 32597 10913 10293 20142 39315 40149 81200 333 58002;EQDQ01  00002PRCP06
0208831820999992002091000004-11300-041870FM-12+074799999V0200901N004612200019N0010001N1+02171+01441101781ADDAA106000091GA1001+999999999GF100991001001999999001001KA1240M+02931MA1999999093391MD1999999+0011REMSYN082AAXX  10004 83182 32994 00909 10217 20144 39339 40178 333 10293 29056 55106 58001;EQDQ01  00002PRCP06
0186831820999992002091012004-11300-041870FM-12+074799999V0201401N007710075019N0100001N1+02281+01461102001ADDAA106000091GF108991081051008001999999KA1240N+01681MA1999999093601MD1999999-0021REMSYN076AAXX  10124 83182 32597 81415 10228 20146 39360 40200 885// 333 20168 59002;EQDQ01  00002PRCP06
0167831820999992002091018004-11300-041870FM-12+074799999V0201401N006210450019N0100001N1+02581+01721101571ADDAA106000091GF108991021021008001061011MA1999999093211MD1999999+0061REMSYN070AAXX  10184 83182 32597 81412 10258 20172 39321 40157 82261 333 58006;EQDQ01  00002PRCP06
0198831820999992002091100004-11300-041870FM-12+074799999V0200901N007219999999N0010001N1+02041+01501101751ADDAA106000091GF108991001001999999001011KA1240M+02721MA1999999093351MD1999999-0041REMSYN088AAXX  11004 83182 32994 80914 10204 20150 39335 40175 80001 333 10272 29064 55097 59004;EQDQ01  00002PRCP06
0186831820999992002091112004-11300-041870FM-12+074799999V0201401N008710075019N0100001N1+02181+01321102011ADDAA106000091GF106991061021008001001001KA1240N+01601MA1999999093581MD1999999-0021REMSYN076AAXX  11124 83182 32597 61417 10218 20132 39358 40201 86200 333 20160 59002;EQDQ01  00002PRCP06
0167831820999992002091118004-11300-041870FM-12+074799999V0201401N006712200019N0100001N1+02751+01071101531ADDAA106000091GF106991041021008001001011MA1999999093171MD1999999-0071REMSYN070AAXX  11184 83182 32597 61413 10275 20107 39317 40153 84201 333 59007;EQDQ01  00002PRCP06
0198831820999992002091200004-11300-041870FM-12+074799999V0200901N005712200019N0010001N1+02081+01301101801ADDAA106000091GF102991011001017501041011KA1240M+02821MA1999999093401MD1999999+0051REMSYN088AAXX  12004 83182 32794 20911 10208 20130 39340 40180 81041 333 10282 29054 55105 58005;EQDQ01  00002PRCP06
0186831820999992002091212004-11300-041870FM-12+074799999V0200901N007710075019N0100001N1+02281+01491101801ADDAA106000091GF106991051021008001001011KA1240N+01521MA1999999093411MD1999999-0171REMSYN076AAXX  12124 83182 32597 60915 10228 20149 39341 40180 85201 333 20152 59017;EQDQ01  00002PRCP06
0167831820999992002091218004-11300-041870FM-12+074799999V0200901N005712200019N0100001N1+02831+01371101351ADDAA106000091GF104991041021008001001001MA1999999093021MD1999999-0151REMSYN070AAXX  12184 83182 32597 40911 10283 20137 39302 40135 84200 333 59015;EQDQ01  00002PRCP06
0208831820999992002091300004-11300-041870FM-12+074799999V0201401N006712200019N0010001N1+01981+01571101671ADDAA106000091GA1001+999999999GF100991001001999999001001KA1240M+02931MA1999999093271MD1999999-0131REMSYN082AAXX  13004 83182 32994 01413 10198 20157 39327 40167 333 10293 29064 55098 59013;EQDQ01  00002PRCP06
0186831820999992002091312004-11300-041870FM-12+074799999V0201401N005112200019N0100001N1+02351+01421101721ADDAA106000091GF101991011021008001001001KA1240N+01771MA1999999093311MD1999999-0101REMSYN076AAXX  13124 83182 32597 11410 10235 20142 39331 40172 81200 333 20177 59010;EQDQ01  00002PRCP06
0167831820999992002091318004-11300-041870FM-12+074799999V0201401N003112200019N0100001N1+02921+01261101121ADDAA106000091GF102991021021008001001001MA1999999092841MD1999999-0181REMSYN070AAXX  13184 83182 32597 21406 10292 20126 39284 40112 82200 333 59018;EQDQ01  00002PRCP06
0208831820999992002091400004-11300-041870FM-12+074799999V0201401N004112200019N0010001N1+02291+01301101431ADDAA106000091GA1001+999999999GF100991001001999999001001KA1240M+02981MA1999999093081MD1999999-0191REMSYN082AAXX  14004 83182 32994 01408 10229 20130 39308 40143 333 10298 29050 55106 59019;EQDQ01  00002PRCP06
0196831820999992002091412004-11300-041870FM-12+074799999V0201401N004612200019N0100001N1+02561+01381101571ADDAA106000091GA1001+999999999GF100991001001999999001001KA1240N+01601MA1999999093241MD1999999-0071REMSYN070AAXX  14124 83182 32997 01409 10256 20138 39324 40157 333 20160 59007;EQDQ01  00002PRCP06
0167831820999992002091418004-11300-041870FM-12+074799999V0203601N002112200019N0100001N1+03281+00891100961ADDAA106000091GF102991011021008001001011MA1999999092721MD1999999-0121REMSYN070AAXX  14184 83182 32597 23604 10328 20089 39272 40096 81201 333 59012;EQDQ01  00002PRCP06
0198831820999992002091500004-11300-041870FM-12+074799999V0200901N004612200019N0100001N1+02531+01501101321ADDAA106000091GF101991011001017501051001KA1240M+03301MA1999999093031MD1999999-0051REMSYN088AAXX  15004 83182 32797 10909 10253 20150 39303 40132 81050 333 10330 29044 55107 59005;EQDQ01  00002PRCP06
0196831820999992002091512004-11300-041870FM-12+074799999V0201401N004612200019N0100001N1+02541+01631101541ADDAA106000091GA1001+999999999GF100991001001999999001001KA1240N+01781MA1999999093231MD1999999-0011REMSYN070AAXX  15124 83182 32997 01409 10254 20163 39323 40154 333 20178 59001;EQDQ01  00002PRCP06
0167831820999992002091518004-11300-041870FM-12+074799999V0201401N005112200019N0100001N1+03361+01021101051ADDAA106000091GF102991021021008001001001MA1999999092811MD1999999+0091REMSYN070AAXX  15184 83182 32597 21410 10336 20102 39281 40105 82200 333 58009;EQDQ01  00002PRCP06
0208831820999992002091600004-11300-041870FM-12+074799999V0201401N006212200019N0010001N1+02431+01321101551ADDAA106000091GA1001+999999999GF100991001001999999001001KA1240M+03481MA1999999093231MD1999999+0201REMSYN082AAXX  16004 83182 32994 01412 10243 20132 39323 40155 333 10348 29046 55107 58020;EQDQ01  00002PRCP06
0186831820999992002091612004-11300-041870FM-12+074799999V0200901N006712200019N0100001N1+02421+01281101971ADDAA106000091GF108991011021008001001011KA1240N+01761MA1999999093601MD1999999+0231REMSYN076AAXX  16124 83182 32597 80913 10242 20128 39360 40197 81201 333 20176 58023;EQDQ01  00002PRCP06
0167831820999992002091618004-11300-041870FM-12+074799999V0200901N007712200019N0100001N1+03021+01071101361ADDAA106000091GF108991021021008001001011MA1999999093061MD1999999+0251REMSYN070AAXX  16184 83182 32597 80915 10302 20107 39306 40136 82201 333 58025;EQDQ01  00002PRCP06
0198831820999992002091700004-11300-041870FM-12+074799999V0201401N003619999999N0010001N1+02231+01231101881ADDAA106000091GF108991001001999999001011KA1240M+03091MA1999999093511MD1999999+0281REMSYN088AAXX  17004 83182 32994 81407 10223 20123 39351 40188 80001 333 10309 29046 55109 58028;EQDQ01  00002PRCP06
0196831820999992002091712004-11300-041870FM-12+074799999V0201401N008212200019N0100001N1+02271+01351102031ADDAA199000091GA1001+999999999GF100991001001999999001001KA1240N+01661MA1999999093631MD1999999+0031REMSYN070AAXX  17124 83182 32997 01416 10227 20135 39363 40203 333 20166 58003;EQDQ01  00002PRCP99
0167831820999992002091718004-11300-041870FM-12+074799999V0200901N006712200019N0100001N1+02931+00091101501ADDAA106000091GF101991011011008001001001MA1999999093171MD1999999+0111REMSYN070AAXX  17184 83182 32597 10913 10293 20009 39317 40150 81100 333 58011;EQDQ01  00002PRCP06
0208831820999992002091800004-11300-041870FM-12+074799999V0200901N003612200019N0010001N1+02241+01451101821ADDAA106000091GA1001+999999999GF100991001001999999001001KA1240M+02961MA1999999093431MD1999999-0081REMSYN082AAXX  18004 83182 32994 00907 10224 20145 39343 40182 333 10296 29052 55109 59008;EQDQ01  00002PRCP06
0186831820999992002091812004-11300-041870FM-12+074799999V0200901N006712200019N0100001N1+02281+01301101951ADDAA106000091GF101991011021008001001001KA1240N+01671MA1999999093551MD1999999-0081REMSYN076AAXX  18124 83182 32597 10913 10228 20130 39355 40195 81200 333 20167 59008;EQDQ01  00002PRCP06
0167831820999992002091818004-11300-041870FM-12+074799999V0200901N005112200019N0100001N1+02861+00981101351ADDAA106000091GF101991011021008001001001MA1999999093031MD1999999-0141REMSYN070AAXX  18184 83182 32597 10910 10286 20098 39303 40135 81200 333 59014;EQDQ01  00002PRCP06
0198831820999992002091900004-11300-041870FM-12+074799999V0200901N003610450019N0010001N1+02201+01081101741ADDAA106000091GF108991011021008001051011KA1240M+02921MA1999999093351MD1999999-0081REMSYN088AAXX  19004 83182 32594 80907 10220 20108 39335 40174 81251 333 10292 29046 55108 59008;EQDQ01  00002PRCP06
0186831820999992002091912004-11300-041870FM-12+074799999V0200901N006710075019N0100001N1+02461+01351101831ADDAA106000091GF106991061021008001001001KA1240N+01371MA1999999093441MD1999999-0111REMSYN076AAXX  19124 83182 32597 60913 10246 20135 39344 40183 86200 333 20137 59011;EQDQ01  00002PRCP06
0167831820999992002091918004-11300-041870FM-12+074799999V0200901N005110075019N0100001N1+02761+01661101371ADDAA106000091GF106991051021008001001011MA1999999093041MD1999999+0011REMSYN070AAXX  19184 83182 32597 60910 10276 20166 39304 40137 85201 333 58001;EQDQ01  00002PRCP06
0198831820999992002092000004-11300-041870FM-12+074799999V0201401N005112200019N0010001N1+02411+01701101611ADDAA106000091GF108991031001017501041011KA1240M+02871MA1999999093251MD1999999-0101REMSYN088AAXX  20004 83182 32794 81410 10241 20170 39325 40161 83041 333 10287 29063 55095 59010;EQDQ01  00002PRCP06
0186831820999992002092012004-11300-041870FM-12+074799999V0201401N005110450019N0100001N1+02421+01541101871ADDAA106000091GF108991031021008001041011KA1240N+01741MA1999999093491MD1999999+0051REMSYN076AAXX  20124 83182 32597 81410 10242 20154 39349 40187 83241 333 20174 58005;EQDQ01  00002PRCP06
0167831820999992002092018004-11300-041870FM-12+074799999V0200501N002610075019N0100001N1+02881+01351101221ADDAA106000091GF107991061021008001061001MA1999999092941MD1999999-0101REMSYN070AAXX  20184 83182 32597 70505 10288 20135 39294 40122 86260 333 59010;EQDQ01  00002PRCP06
0198831820999992002092100004-11300-041870FM-12+074799999V0201401N004112200019N0010001N1+02171+01611101691ADDAA106000091GF101991001001999999001011KA1240M+02901MA1999999093321MD1999999+0071REMSYN088AAXX  21004 83182 32994 11408 10217 20161 39332 40169 80001 333 10290 29060 55067 58007;EQDQ01  00002PRCP06
0186831820999992002092112004-11300-041870FM-12+074799999V0200901N003619999999N0100001N1+02581+01521101611ADDAA106000091GF108991001001999999001011KA1240N+01661MA1999999093261MD1999999-0231REMSYN076AAXX  21124 83182 32997 80907 10258 20152 39326 40161 80001 333 20166 59023;EQDQ01  00002PRCP06
0167831820999992002092118004-11300-041870FM-12+074799999V0201801N003111050019N0100001N1+03431+00941100831ADDAA106000091GF108991021021008001001021MA1999999092621MD1999999-0321REMSYN070AAXX  21184 83182 32597 81806 10343 20094 39262 40083 82202 333 59032;EQDQ01  00002PRCP06
0186831820999992002092212004-11300-041870FM-12+074799999V0200901N002110150019N0100001N1+02591+01611101411ADDAA106000091GF108991061081012501001011KA1240N+01841MA1999999093121MD1999999-0141REMSYN076AAXX  22124 83182 32697 80904 10259 20161 39312 40141 86801 333 20184 59014;EQDQ01  00002PRCP06
0167831820999992002092218004-11300-041870FM-12+074799999V0200501N002112200019N0100001N1+03361+01141100841ADDAA106000091GF105991031021008001001011MA1999999092631MD1999999+0011REMSYN070AAXX  22184 83182 32597 50504 10336 20114 39263 40084 83201 333 58001;EQDQ01  00002PRCP06
0198831820999992002092300004-11300-041870FM-12+074799999V0200901N002610450019N0010001N1+02561+01281101211ADDAA106000091GF108991021021008001061011KA1240M+03391MA1999999092941MD1999999-0031REMSYN088AAXX  23004 83182 32594 80905 10256 20128 39294 40121 82261 333 10339 29043 55084 59003;EQDQ01  00002PRCP06
0186831820999992002092312004-11300-041870FM-12+074799999V0200901N004110450019N0100001N1+02531+01611101431ADDAA106000091GF108991011021008001041011KA1240N+02001MA1999999093131MD1999999+0011REMSYN076AAXX  23124 83182 32597 80908 10253 20161 39313 40143 81241 333 20200 58001;EQDQ01  00002PRCP06
0167831820999992002092318004-11300-041870FM-12+074799999V0200901N003110450019N0100001N1+03121+01481100921ADDAA106000091GF108991041031008001061011MA1999999092681MD1999999+0051REMSYN070AAXX  23184 83182 32597 80906 10312 20148 39268 40092 84361 333 58005;EQDQ01  00002PRCP06
0198831820999992002092400004-11300-041870FM-12+074799999V0201401N005112200019N0010001N1+02431+01581101281ADDAA106000091GF108991011001017501051011KA1240M+03131MA1999999092981MD1999999+0041REMSYN088AAXX  24004 83182 32794 81410 10243 20158 39298 40128 81051 333 10313 29053 55056 58004;EQDQ01  00002PRCP06
0186831820999992002092412004-11300-041870FM-12+074799999V0200901N002619999999N0100001N1+02691+01621101251ADDAA106000091GF108991001001999999001011KA1240N+01881MA1999999092961MD1999999-0171REMSYN076AAXX  24124 83182 32997 80905 10269 20162 39296 40125 80001 333 20188 59017;EQDQ01  00002PRCP06
0167831820999992002092418004-11300-041870FM-12+074799999V0203601N002110075019N0100001N1+03151+01461100731ADDAA106000091GF108991051021008001001011MA1999999092511MD1999999-0171REMSYN070AAXX  24184 83182 32597 83604 10315 20146 39251 40073 85201 333 59017;EQDQ01  00002PRCP06
0202831820999992002092500004-11300-041870FM-12+074799999V0200501N004610042019N0010001N1+02241+01781101131ADDAY161061AY221061GF108991061071004501021999KA1240M+03271MA1999999092841MD1999999-0141MW1611REMSYN100AAXX  25004 83182 21494 80509 10224 20178 39284 40113 76162 8672/ 333 10327 29060 55078 59014 60021;
0162831820999992002092512004-11300-041870FM-12+074799999V0200901N003110450019N0100001N1+02511+01811101421ADDGF108991031021008001061011KA1240N+02051MA1999999093091MD1999999+0131REMSYN082AAXX  25124 83182 22597 80906 10251 20181 39309 40142 83261 333 20205 58013 60024;
0198831820999992002092600004-11300-041870FM-12+074799999V0201401N004610450019N0010001N1+02431+01751101431ADDAA106000091GF108991011021008001061011KA1240M+02951MA1999999093111MD1999999+0271REMSYN088AAXX  26004 83182 32594 81409 10243 20175 39311 40143 81261 333 10295 29062 55046 58027;EQDQ01  00002PRCP06
0162831820999992002092612004-11300-041870FM-12+074799999V0201401N003110075019N0100001N1+02501+01841101481ADDGF108991081051008001999999KA1240N+02101MA1999999093151MD1999999+0061REMSYN082AAXX  26124 83182 22597 81406 10250 20184 39315 40148 885// 333 20210 58006 69964;
0171831820999992002092618004-11300-041870FM-12+074799999V0201401N003110042019N0020001N1+02161+01951101561ADDAY161061AY261061GF108991061071004501021999MA1999999093191MD1999999+0411MW1611REMSYN082AAXX  26184 83182 21495 81406 10216 20195 39319 40156 76166 8672/ 333 58041 60031;
0162831820999992002092712004-11300-041870FM-12+074799999V0201401N006210075019N0100001N1+02231+01871101731ADDGF108991081051008001999999KA1240N+01901MA1999999093331MD1999999+0181REMSYN082AAXX  27124 83182 22597 81412 10223 20187 39333 40173 885// 333 20190 58018 60094;
0167831820999992002092718004-11300-041870FM-12+074799999V0201401N006210450019N0100001N1+02761+01691101331ADDAA106000091GF108991041021008001031011MA1999999093011MD1999999-0181REMSYN070AAXX  27184 83182 32597 81412 10276 20169 39301 40133 84231 333 59018;EQDQ01  00002PRCP06
0198831820999992002092800004-11300-041870FM-12+074799999V0201401N004110450019N0100001N1+02201+01821101751ADDAA106000091GF108991021051008001051011KA1240M+02831MA1999999093351MD1999999+0121REMSYN088AAXX  28004 83182 32597 81408 10220 20182 39335 40175 82551 333 10283 29072 55/// 58012;EQDQ01  00002PRCP06
0186831820999992002092812004-11300-041870FM-12+074799999V0201401N005710075019N0100001N1+02431+01701101741ADDAA106000091GF108991061021008001001011KA1240N+01921MA1999999093361MD1999999+0031REMSYN076AAXX  28124 83182 32597 81411 10243 20170 39336 40174 86201 333 20192 58003;EQDQ01  00002PRCP06
0167831820999992002092818004-11300-041870FM-12+074799999V0201401N006210450019N0100001N1+02821+01771101371ADDAA106000091GF108991021031008001061011MA1999999093061MD1999999+0051REMSYN070AAXX  28184 83182 32597 81412 10282 20177 39306 40137 82361 333 58005;EQDQ01  00002PRCP06
0198831820999992002092900004-11300-041870FM-12+074799999V0200901N004610450019N0010001N1+02131+01831101711ADDAA106000091GF108991021051008001051011KA1240M+02881MA1999999093341MD1999999-0011REMSYN088AAXX  29004 83182 32594 80909 10213 20183 39334 40171 82551 333 10288 29071 55059 59001;EQDQ01  00002PRCP06
0186831820999992002092912004-11300-041870FM-12+074799999V0200901N006210075019N0100001N1+02401+01651101811ADDAA106000091GF108991081051008001999999KA1240N+01911MA1999999093421MD1999999+0061REMSYN076AAXX  29124 83182 32597 80912 10240 20165 39342 40181 885// 333 20191 58006;EQDQ01  00002PRCP06
0167831820999992002092918004-11300-041870FM-12+074799999V0200901N004610075019N0100001N1+02641+01451101451ADDAA106000091GF107991051021008001071001MA1999999093121MD1999999+0061REMSYN070AAXX  29184 83182 32597 70909 10264 20145 39312 40145 85270 333 58006;EQDQ01  00002PRCP06
0198831820999992002093000004-11300-041870FM-12+074799999V0200901N003112200019N0010001N1+02181+01631101631ADDAA106000091GF103991021001017501051011KA1240M+02691MA1999999093261MD1999999-0081REMSYN088AAXX  30004 83182 32794 30906 10218 20163 39326 40163 82051 333 10269 29063 55037 59008;EQDQ01  00002PRCP06
0186831820999992002093012004-11300-041870FM-12+074799999V0200901N006212200019N0100001N1+02341+01361101831ADDAA106000091GF102991021021008001001001KA1240N+01701MA1999999093441MD1999999+0021REMSYN076AAXX  30124 83182 32597 20912 10234 20136 39344 40183 82200 333 20170 58002;EQDQ01  00002PRCP06
0167831820999992002093018004-11300-041870FM-12+074799999V0201401N001512200019N0100001N1+03031+01131101441ADDAA106000091GF102991021021008001001001MA1999999093051MD1999999-0071REMSYN070AAXX  30184 83182 32597 21403 10303 20113 39305 40144 82200 333 59007;EQDQ01  00002PRCP06
0186831820999992002100112004-11300-041870FM-12+074799999V0200901N003112200019N0100001N1+02601+01541101841ADDAA106000091GF101991011021008001001001KA1240N+01801MA1999999093491MD1999999+0051REMSYN076AAXX  01124 83182 32597 10906 10260 20154 39349 40184 81200 333 20180 58005;EQDQ01  00002PRCP06
0167831820999992002100118004-11300-041870FM-12+074799999V0201801N003612200019N0100001N1+03161+01091101231ADDAA106000091GF102991021021008001001001MA1999999092971MD1999999-0081REMSYN070AAXX  01184 83182 32597 21807 10316 20109 39297 40123 82200 333 59008;EQDQ01  00002PRCP06
0208831820999992002100200004-11300-041870FM-12+074799999V0200901N004612200019N0010001N1+02431+01651101571ADDAA106000091GA1001+999999999GF100991001001999999001001KA1240M+03231MA1999999093251MD1999999+0081REMSYN082AAXX  02004 83182 32994 00909 10243 20165 39325 40157 333 10323 29051 55112 58008;EQDQ01  00002PRCP06
0196831820999992002100212004-11300-041870FM-12+074799999V0200901N003112200019N0100001N1+02651+01551101481ADDAA106000091GA1001+999999999GF100991001001999999001001KA1240N+01681MA1999999093171MD1999999-0321REMSYN070AAXX  02124 83182 32997 00906 10265 20155 39317 40148 333 20168 59032;EQDQ01  00002PRCP06
0167831820999992002100218004-11300-041870FM-12+074799999V0201401N006212200019N0100001N1+03251+00931100931ADDAA106000091GF101991011021008001001001MA1999999092691MD1999999-0281REMSYN070AAXX  02184 83182 32597 11412 10325 20093 39269 40093 81200 333 59028;EQDQ01  00002PRCP06
0198831820999992002100300004-11300-041870FM-12+074799999V0201401N003110450019N0010001N1+02381+01421101611ADDAA106000091GF107991021021008001051011KA1240M+03481MA1999999093281MD1999999+0031REMSYN088AAXX  03004 83182 32594 71406 10238 20142 39328 40161 82251 333 10348 29046 55109 58003;EQDQ01  00002PRCP06
0186831820999992002100312004-11300-041870FM-12+074799999V0201401N005112200019N0100001N1+02501+01481101491ADDAA106000091GF101991011021008001001001KA1240N+01711MA1999999093161MD1999999-0011REMSYN076AAXX  03124 83182 32597 11410 10250 20148 39316 40149 81200 333 20171 59001;EQDQ01  00002PRCP06
0195831820999992002100318004-11300-041870FM-12+074799999V0200501N003110450019N0100001N1+03061+01201101081ADDAA106000091AY121061AY211061GF108991011021008001031011MA1999999092811MD1999999+0121MW1051REMSYN076AAXX  03184 83182 31597 80506 10306 20120 39281 40108 70521 81231 333 58012;EQDQ01  00002PRCP06
0198831820999992002100400004-11300-041870FM-12+074799999V0200901N005110075019N0010001N1+02571+01321101281ADDAA106000091GF108991081051008001999999KA1240M+03101MA1999999092991MD1999999-0291REMSYN088AAXX  04004 83182 32594 80910 10257 20132 39299 40128 885// 333 10310 29044 55106 59029;EQDQ01  00002PRCP06
0214831820999992002100412004-11300-041870FM-12+074799999V0200901N004612200019N0100001N1+02561+01281101511ADDAA106000091AY121061AY221061GF108991011001017501041011KA1240N+01831MA1999999093201MD1999999+0041MW1051REMSYN082AAXX  04124 83182 31797 80909 10256 20128 39320 40151 70522 81041 333 20183 58004;EQDQ01  00002PRCP06
0195831820999992002100418004-11300-041870FM-12+074799999V0200501N002112200019N0100001N1+03251+01161100941ADDAA106000091AY121061AY221061GF108991031021008001001011MA1999999092701MD1999999-0101MW1051REMSYN076AAXX  04184 83182 31597 80504 10325 20116 39270 40094 70522 83201 333 59010;EQDQ01  00002PRCP06
0198831820999992002100500004-11300-041870FM-12+074799999V0200901N003119999999N0010001N1+02581+01431101291ADDAA106000091GF108991001001999999001011KA1240M+03291MA1999999093001MD1999999+0011REMSYN088AAXX  05004 83182 32994 80906 10258 20143 39300 40129 80001 333 10329 29043 55087 58001;EQDQ01  00002PRCP06
0214831820999992002100512004-11300-041870FM-12+074799999V0200901N005712200019N0100001N1+02671+01571101541ADDAA106000091AY121061AY221061GF108991021021008001001011KA1240N+01941MA1999999093251MD1999999+0051MW1051REMSYN082AAXX  05124 83182 31597 80911 10267 20157 39325 40154 70522 82201 333 20194 58005;EQDQ01  00002PRCP06
0195831820999992002100518004-11300-041870FM-12+074799999V0201401N005110450019N0100001N1+03021+01351101061ADDAA106000091AY121061AY221061GF108991041021008001061011MA1999999092801MD1999999+0101MW1051REMSYN076AAXX  05184 83182 31597 81410 10302 20135 39280 40106 70522 84261 333 58010;EQDQ01  00002PRCP06
0198831820999992002100600004-11300-041870FM-12+074799999V0200901N005119999999N0010001N1+02421+01371101421ADDAA106000091GF108991001001999999001011KA1240M+03121MA1999999093121MD1999999+0101REMSYN088AAXX  06004 83182 32994 80910 10242 20137 39312 40142 80001 333 10312 29048 55101 58010;EQDQ01  00002PRCP06
0186831820999992002100612004-11300-041870FM-12+074799999V0200901N005112200019N0100001N1+02481+01461101521ADDAA106000091GF101991011021008001001001KA1240N+01771MA1999999093191MD1999999-0061REMSYN076AAXX  06124 83182 32597 10910 10248 20146 39319 40152 81200 333 20177 59006;EQDQ01  00002PRCP06
0167831820999992002100618004-11300-041870FM-12+074799999V0200501N003112200019N0100001N1+03161+00981101011ADDAA106000091GF102991011021008001001011MA1999999092751MD1999999-0051REMSYN070AAXX  06184 83182 32597 20506 10316 20098 39275 40101 81201 333 59005;EQDQ01  00002PRCP06
0208831820999992002100700004-11300-041870FM-12+074799999V0200901N005112200019N0010001N1+02561+01101101331ADDAA106000091GA1001+999999999GF100991001001999999001001KA1240M+03241MA1999999093031MD1999999-0091REMSYN082AAXX  07004 83182 32994 00910 10256 20110 39303 40133 333 10324 29040 55106 59009;EQDQ01  00002PRCP06
0186831820999992002100712004-11300-041870FM-12+074799999V0200901N00821220001CN0100001N1+02481+01321101651ADDAA106000091GF108991011021008001001041KA1240N+01941MA1999999093321MD1999999+0131REMSYN076AAXX  07124 83182 32597 80916 10248 20132 39332 40165 81204 333 20194 58013;EQDQ01  00002PRCP06
0167831820999992002100718004-11300-041870FM-12+074799999V0200901N005711050019N0100001N1+03081+01221101081ADDAA106000091GF108991021021008001001021MA1999999092821MD1999999+0071REMSYN070AAXX  07184 83182 32597 80911 10308 20122 39282 40108 82202 333 58007;EQDQ01  00002PRCP06
0198831820999992002100800004-11300-041870FM-12+074799999V0200901N007219999999N0010001N1+02481+01371101491ADDAA106000091GF108991001001999999001021KA1240M+03251MA1999999093171MD1999999+0141REMSYN088AAXX  08004 83182 32994 80914 10248 20137 39317 40149 80002 333 10325 29046 55083 58014;EQDQ01  00002PRCP06
0186831820999992002100812004-11300-041870FM-12+074799999V0200901N004611050019N0100001N1+02431+01381101711ADDAA106000091GF108991011021008001001021KA1240N+01821MA1999999093361MD1999999-0041REMSYN076AAXX  08124 83182 32597 80909 10243 20138 39336 40171 81202 333 20182 59004;EQDQ01  00002PRCP06
0167831820999992002100818004-11300-041870FM-12+074799999V0200901N006711050019N0100001N1+02961+01291101271ADDAA106000091GF108991011021008001001021MA1999999092981MD1999999+0161REMSYN070AAXX  08184 83182 32597 80913 10296 20129 39298 40127 81202 333 58016;EQDQ01  00002PRCP06
0198831820999992002100900004-11300-041870FM-12+074799999V0201401N002119999999N0010001N1+02301+01291101561ADDAA106000091GF108991001001999999001021KA1240M+03021MA1999999093211MD1999999+0041REMSYN088AAXX  09004 83182 32994 81404 10230 20129 39321 40156 80002 333 10302 29048 55065 58004;EQDQ01  00002PRCP06
0186831820999992002100912004-11300-041870FM-12+074799999V0200901N004619999999N0100001N1+02421+01371101731ADDAA106000091GF108991001001999999001011KA1240N+01721MA1999999093361MD1999999+0001REMSYN076AAXX  09124 83182 32997 80909 10242 20137 39336 40173 80001 333 20172 58000;EQDQ01  00002PRCP06
0167831820999992002100918004-11300-041870FM-12+074799999V0200901N005710450019N0100001N1+03121+01111101181ADDAA106000091GF108991021021008001041011MA1999999092911MD1999999-0071REMSYN070AAXX  09184 83182 32597 80911 10312 20111 39291 40118 82241 333 59007;EQDQ01  00002PRCP06
0198831820999992002101000004-11300-041870FM-12+074799999V0200901N004619999999N0010001N1+02381+01241101531ADDAA106000091GF108991001001999999001011KA1240M+03181MA1999999093191MD1999999-0041REMSYN088AAXX  10004 83182 32994 80909 10238 20124 39319 40153 80001 333 10318 29045 55102 59004;EQDQ01  00002PRCP06
0186831820999992002101012004-11300-041870FM-12+074799999V0200901N005112200019N0100001N1+02541+01391101671ADDAA106000091GF102991011021008001001011KA1240N+01741MA1999999093331MD1999999-0061REMSYN076AAXX  10124 83182 32597 20910 10254 20139 39333 40167 81201 333 20174 59006;EQDQ01  00002PRCP06
0183831820999992002101018004-11300-041870FM-12+074799999V0201401N004112200019N0100001N1+03141+00961100852ADDAA106000091GF102991011021008001001011MA1999999092801MD1999999-0111REMSYN070AAXX  10184 83182 32597 21408 10314 20096 39280 40085 81201 333 59011;EQDQ01+100853APOSLPQ02  00002PRCP06
0198831820999992002101100004-11300-041870FM-12+074799999V0200901N004612200019N0010001N1+02501+01191101201ADDAA106000091GF101991001001999999001011KA1240M+03231MA1999999093071MD1999999-0121REMSYN088AAXX  11004 83182 32994 10909 10250 20119 39307 40120 80001 333 10323 29041 55096 59012;EQDQ01  00002PRCP06
0186831820999992002101112004-11300-041870FM-12+074799999V0200901N005112200019N0100001N1+02541+01541101541ADDAA106000091GF101991011021008001001001KA1240N+01831MA1999999093381MD1999999+0051REMSYN076AAXX  11124 83182 32597 10910 10254 20154 39338 40154 81200 333 20183 58005;EQDQ01  00002PRCP06
0167831820999992002101118004-11300-041870FM-12+074799999V0200501N006212200019N0100001N1+03181+01101101021ADDAA106000091GF108991011021008001001011MA1999999092971MD1999999+0171REMSYN070AAXX  11184 83182 32597 80512 10318 20110 39297 40102 81201 333 58017;EQDQ01  00002PRCP06
0198831820999992002101200004-11300-041870FM-12+074799999V0200901N003119999999N0010001N1+02401+01291101221ADDAA106000091GF108991001001999999001011KA1240M+03201MA1999999093071MD1999999+0001REMSYN088AAXX  12004 83182 32994 80906 10240 20129 39307 40122 80001 333 10320 29046 55110 58000;EQDQ01  00002PRCP06
0186831820999992002101212004-11300-041870FM-12+074799999V0200901N004619999999N0100001N1+02401+01441101551ADDAA106000091GF108991001001999999001041KA1240N+01741MA1999999093551MD1999999-0031REMSYN076AAXX  12124 83182 32997 80909 10240 20144 39355 40155 80004 333 20174 59003;EQDQ01  00002PRCP06
0167831820999992002101218004-11300-041870FM-12+074799999V0201801N004112200019N0100001N1+03121+01111100981ADDAA106000091GF108991011021008001001011MA1999999092901MD1999999-0071REMSYN070AAXX  12184 83182 32597 81808 10312 20111 39290 40098 81201 333 59007;EQDQ01  00002PRCP06
0198831820999992002101300004-11300-041870FM-12+074799999V0200901N004119999999N0010001N1+02381+01341101481ADDAA106000091GF108991001001999999001011KA1240M+03151MA1999999093291MD1999999+0221REMSYN088AAXX  13004 83182 32994 80908 10238 20134 39329 40148 80001 333 10315 29047 55103 58022;EQDQ01  00002PRCP06
0186831820999992002101312004-11300-041870FM-12+074799999V0200901N004612200019N0100001N1+02451+01541101501ADDAA106000091GF108991011021008001001011KA1240N+01761MA1999999093311MD1999999-0041REMSYN076AAXX  13124 83182 32597 80909 10245 20154 39331 40150 81201 333 20176 59004;EQDQ01  00002PRCP06
0167831820999992002101318004-11300-041870FM-12+074799999V0200901N005119999999N0100001N1+03061+01251100861ADDAA106000091GF108991001001999999001021MA1999999092791MD1999999-0111REMSYN070AAXX  13184 83182 32997 80910 10306 20125 39279 40086 80002 333 59011;EQDQ01  00002PRCP06
0214831820999992002101400004-11300-041870FM-12+074799999V0200901N004119999999N0010001N1+02411+01301101221ADDAA106000091GF100991001001999999001001KA1240M+03291MA1999999093071MD1999999-0221REMSYN088AAXX  14004 83182 32994 80908 10241 20130 39307 40122 80000 333 10329 29088 55088 59022;EQDQ01+000082SCOTCVQ02  00002PRCP06
0186831820999992002101412004-11300-041870FM-12+074799999V0200901N006219999999N0100001N1+02491+01491101461ADDAA106000091GF108991021021999999001011KA1240N+01801MA1999999093291MD1999999-0021REMSYN076AAXX  14124 83182 32997 80912 10249 20149 39329 40146 82201 333 20180 59002;EQDQ01  00002PRCP06
0167831820999992002101418004-11300-041870FM-12+074799999V0201801N004112200019N0100001N1+03221+01141100821ADDAA106000091GF101991011021008001001001MA1999999092791MD1999999+0001REMSYN070AAXX  14184 83182 32597 11808 10322 20114 39279 40082 81200 333 58000;EQDQ01  00002PRCP06
0208831820999992002101500004-11300-041870FM-12+074799999V0200901N004112200019N0010001N1+02411+01501101211ADDAA106000091GA1001+999999999GF100991001001999999001001KA1240M+03261MA1999999093061MD1999999-0011REMSYN082AAXX  15004 83182 32994 00908 10241 20150 39306 40121 333 10326 29049 55112 59001;EQDQ01  00002PRCP06
0186831820999992002101512004-11300-041870FM-12+074799999V0200901N006212200019N0100001N1+02591+01281101661ADDAA106000091GF101991011011012501001001KA1240N+01731MA1999999093251MD1999999-0041REMSYN076AAXX  15124 83182 32697 10912 10259 20128 39325 40166 81100 333 20173 59004;EQDQ01  00002PRCP06
0193831820999992002101518004-11300-041870FM-12+074799999V0200901N005712200019N0100001N1+03081+01311100082ADDAA106000091GA1001+999999999GF100991001001999999001001MA1999999092811MD1999999+0021REMSYN064AAXX  15184 83182 32997 00911 10308 20131 39281 40008 333 58002;EQDQ01+100083APOSLPQ02  00002PRCP06
0208831820999992002101600004-11300-041870FM-12+074799999V0200901N004612200019N0010001N1+02351+01131101211ADDAA106000091GA1001+999999999GF100991001001999999001001KA1240M+03121MA1999999093081MD1999999+0021REMSYN082AAXX  16004 83182 32994 00909 10235 20113 39308 40121 333 10312 29044 55112 58002;EQDQ01  00002PRCP06
0186831820999992002101612004-11300-041870FM-12+074799999V0200901N004112200019N0100001N1+02511+01431101391ADDAA106000091GF102991001001999999001011KA1240N+01661MA1999999093231MD1999999-0021REMSYN076AAXX  16124 83182 32997 20908 10251 20143 39323 40139 80001 333 20166 59002;EQDQ01  00002PRCP06
0167831820999992002101618004-11300-041870FM-12+074799999V0201801N002112200019N0100001N1+03291+01141100791ADDAA106000091GF105991021021008001001011MA1999999092761MD1999999-0051REMSYN070AAXX  16184 83182 32597 51804 10329 20114 39276 40079 82201 333 59005;EQDQ01  00002PRCP06
0198831820999992002101700004-11300-041870FM-12+074799999V0200901N004119999999N0010001N1+02641+00971101101ADDAA106000091GF108991001001999999001011KA1240M+03331MA1999999093011MD1999999-0071REMSYN088AAXX  17004 83182 32994 80908 10264 20097 39301 40110 80001 333 10333 29037 55103 59007;EQDQ01  00002PRCP06
0186831820999992002101712004-11300-041870FM-12+074799999V0200901N004112200019N0100001N1+02701+01601101211ADDAA106000091GF101991001001999999001011KA1240N+01841MA1999999093161MD1999999-0071REMSYN076AAXX  17124 83182 32997 10908 10270 20160 39316 40121 80001 333 20184 59007;EQDQ01  00002PRCP06
0167831820999992002101718004-11300-041870FM-12+074799999V0201401N003612200019N0100001N1+03261+01281100671ADDAA106000091GF102991011021008001001011MA1999999092661MD1999999-0101REMSYN070AAXX  17184 83182 32597 21407 10326 20128 39266 40067 81201 333 59010;EQDQ01  00002PRCP06
0208831820999992002101800004-11300-041870FM-12+074799999V0200901N004612200019N0010001N1+02361+01401101411ADDAA106000091GA1001+999999999GF100991001001999999001001KA1240M+03321MA1999999093091MD1999999-0021REMSYN082AAXX  18004 83182 32994 00909 10236 20140 39309 40141 333 10332 29048 55112 59002;EQDQ01  00002PRCP06
0186831820999992002101812004-11300-041870FM-12+074799999V0200901N003112200019N0100001N1+02601+01481101261ADDAA106000091GF102991011001017501041011KA1240N+01931MA1999999093131MD1999999-0061REMSYN076AAXX  18124 83182 32797 20906 10260 20148 39313 40126 81041 333 20193 59006;EQDQ01  00002PRCP06
0167831820999992002101818004-11300-041870FM-12+074799999V0200901N005112200019N0100001N1+03301+01151100651ADDAA106000091GF103991011021008001041011MA1999999092661MD1999999+0001REMSYN070AAXX  18184 83182 32597 30910 10330 20115 39266 40065 81241 333 58000;EQDQ01  00002PRCP06
0198831820999992002101900004-11300-041870FM-12+074799999V0200901N004119999999N0010001N1+02501+01421101081ADDAA106000091GF108991001001999999001011KA1240M+03351MA1999999092971MD1999999-0121REMSYN088AAXX  19004 83182 32994 80908 10250 20142 39297 40108 80001 333 10335 29045 55098 59012;EQDQ01  00002PRCP06
0186831820999992002101912004-11300-041870FM-12+074799999V0200901N007212200019N0100001N1+02581+01431101371ADDAA106000091GF102991011021008001001011KA1240N+01951MA1999999093251MD1999999+0121REMSYN076AAXX  19124 83182 32597 20914 10258 20143 39325 40137 81201 333 20195 58012;EQDQ01  00002PRCP06
0167831820999992002101918004-11300-041870FM-12+074799999V0200901N007212200019N0100001N1+02981+01441100831ADDAA106000091GF108991021021008001001011MA1999999092761MD1999999+0101REMSYN070AAXX  19184 83182 32597 80914 10298 20144 39276 40083 82201 333 58010;EQDQ01  00002PRCP06
0198831820999992002102000004-11300-041870FM-12+074799999V0200901N006712200019N0010001N1+02461+01711101151ADDAA106000091GF108991021001017501051011KA1240M+03101MA1999999093021MD1999999+0051REMSYN088AAXX  20004 83182 32794 80913 10246 20171 39302 40115 82051 333 10310 29054 55105 58005;EQDQ01  00002PRCP06
0186831820999992002102012004-11300-041870FM-12+074799999V0200901N005712200019N0100001N1+02461+01581101431ADDAA106000091GF104991041021008001001001KA1240N+01921MA1999999093261MD1999999+0011REMSYN076AAXX  20124 83182 32597 40911 10246 20158 39326 40143 84200 333 20192 58001;EQDQ01  00002PRCP06
0167831820999992002102018004-11300-041870FM-12+074799999V0200901N005712200019N0100001N1+03121+00761100751ADDAA106000091GF108991011011012501001011MA1999999092711MD1999999-0051REMSYN070AAXX  20184 83182 32697 80911 10312 20076 39271 40075 81101 333 59005;EQDQ01  00002PRCP06
0198831820999992002102100004-11300-041870FM-12+074799999V0200901N005112200019N0010001N1+02341+01601101271ADDAA106000091GF108991011001017501041011KA1240M+03231MA1999999093101MD1999999+0081REMSYN088AAXX  21004 83182 32794 80910 10234 20160 39310 40127 81041 333 10323 29052 55100 58008;EQDQ01  00002PRCP06
0186831820999992002102112004-11300-041870FM-12+074799999V0200901N006212200019N0100001N1+02531+01411101401ADDAA106000091GF102991011011012501001011KA1240N+01761MA1999999093241MD1999999-0021REMSYN076AAXX  21124 83182 32697 20912 10253 20141 39324 40140 81101 333 20176 59002;EQDQ01  00002PRCP06
0167831820999992002102118004-11300-041870FM-12+074799999V0201401N003112200019N0100001N1+03241+00921100871ADDAA106000091GF101991011021008001001001MA1999999092841MD1999999+0131REMSYN070AAXX  21184 83182 32597 11406 10324 20092 39284 40087 81200 333 58013;EQDQ01  00002PRCP06
0208831820999992002102200004-11300-041870FM-12+074799999V0200901N004112200019N0010001N1+02531+01141101101ADDAA106000091GA1001+999999999GF100991001001999999001001KA1240M+03291MA1999999092991MD1999999-0111REMSYN082AAXX  22004 83182 32994 00908 10253 20114 39299 40110 333 10329 29040 55116 59011;EQDQ01  00002PRCP06
0186831820999992002102212004-11300-041870FM-12+074799999V0201401N004112200019N0100001N1+02701+01411101351ADDAA106000091GF101991001001999999001011KA1240N+01741MA1999999093241MD1999999+0001REMSYN076AAXX  22124 83182 32997 11408 10270 20141 39324 40135 80001 333 20174 58000;EQDQ01  00002PRCP06
0167831820999992002102218004-11300-041870FM-12+074799999V0201801N004112200019N0100001N1+03421+00731100711ADDAA106000091GF106991021021008001001011MA1999999092721MD1999999-0121REMSYN070AAXX  22184 83182 32597 61808 10342 20073 39272 40071 82201 333 59012;EQDQ01  00002PRCP06
0198831820999992002102300004-11300-041870FM-12+074799999V0200901N005719999999N0010001N1+02671+01121101081ADDAA106000091GF108991001001999999001011KA1240M+03471MA1999999093031MD1999999+0041REMSYN088AAXX  23004 83182 32994 80911 10267 20112 39303 40108 80001 333 10347 29035 55114 58004;EQDQ01  00002PRCP06
0186831820999992002102312004-11300-041870FM-12+074799999V0200901N005712200019N0010001N1+02631+01591101271ADDAA106000091GF102991021021008001001001KA1240N+02021MA1999999093181MD1999999-0061REMSYN076AAXX  23124 83182 32594 20911 10263 20159 39318 40127 82200 333 20202 59006;EQDQ01  00002PRCP06
0167831820999992002102318004-11300-041870FM-12+074799999V0200901N005112200019N0100001N1+03231+01351100701ADDAA106000091GF106991041021008001001011MA1999999092711MD1999999-0011REMSYN070AAXX  23184 83182 32597 60910 10323 20135 39271 40070 84201 333 59001;EQDQ01  00002PRCP06
0208831820999992002102400004-11300-041870FM-12+074799999V0200901N005112200019N0010001N1+02561+01281101101ADDAA106000091GA1001+999999999GF100991001001999999001001KA1240M+03281MA1999999093011MD1999999-0021REMSYN082AAXX  24004 83182 32994 00910 10256 20128 39301 40110 333 10328 29044 55111 59002;EQDQ01  00002PRCP06
0186831820999992002102412004-11300-041870FM-12+074799999V0200901N005112200019N0100001N1+02561+01381101371ADDAA106000091GF108991011011012501001011KA1240N+01901MA1999999093251MD1999999+0071REMSYN076AAXX  24124 83182 32697 80910 10256 20138 39325 40137 81101 333 20190 58007;EQDQ01  00002PRCP06
0167831820999992002102418004-11300-041870FM-12+074799999V0200901N003612200019N0100001N1+03241+01041100831ADDAA106000091GF108991011021008001001011MA1999999092811MD1999999+0101REMSYN070AAXX  24184 83182 32597 80907 10324 20104 39281 40083 81201 333 58010;EQDQ01  00002PRCP06
0186831820999992002102512004-11300-041870FM-12+074799999V0201401N005119999999N0100001N1+02551+01491101221ADDAA106000091GF108991001001999999001011KA1240N+01981MA1999999093101MD1999999-0151REMSYN076AAXX  25124 83182 32997 81410 10255 20149 39310 40122 80001 333 20198 59015;EQDQ01  00002PRCP06
0167831820999992002102518004-11300-041870FM-12+074799999V0200901N004112200019N0100001N1+03181+00991100631ADDAA106000091GF108991011021008001001011MA1999999092611MD1999999-0201REMSYN070AAXX  25184 83182 32597 80908 10318 20099 39261 40063 81201 333 59020;EQDQ01  00002PRCP06
0167831820999992002102618004-11300-041870FM-12+074799999V0201401N003612200019N0100001N1+03381+00911100591ADDAA106000091GF106991021021008001001011MA1999999092611MD1999999+0001REMSYN070AAXX  26184 83182 32597 61407 10338 20091 39261 40059 82201 333 58000;EQDQ01  00002PRCP06
0198831820999992002102700004-11300-041870FM-12+074799999V0200901N004619999999N0010001N1+02641+01091100941ADDAA106000091GF106991001001999999001011KA1240M+03451MA1999999092881MD1999999+0051REMSYN088AAXX  27004 83182 32994 60909 10264 20109 39288 40094 80001 333 10345 29035 55117 58005;EQDQ01  00002PRCP06
0186831820999992002102712004-11300-041870FM-12+074799999V0200901N003612200019N0100001N1+02811+01201100981ADDAA106000091GF101991001001999999001011KA1240N+01861MA1999999092951MD1999999-0151REMSYN076AAXX  27124 83182 32997 10907 10281 20120 39295 40098 80001 333 20186 59015;EQDQ01  00002PRCP06
0167831820999992002102718004-11300-041870FM-12+074799999V0201401N004110450019N0100001N1+03421+01071100361ADDAA106000091GF106991031021008001041011MA1999999092441MD1999999-0171REMSYN070AAXX  27184 83182 32597 61408 10342 20107 39244 40036 83241 333 59017;EQDQ01  00002PRCP06
0198831820999992002102800004-11300-041870FM-12+074799999V0200901N004110450019N0010001N1+02761+01391100731ADDAA106000091GF108991011021008001051011KA1240M+03541MA1999999092741MD1999999-0141REMSYN088AAXX  28004 83182 32594 80908 10276 20139 39274 40073 81251 333 10354 29037 55102 59014;EQDQ01  00002PRCP06
0186831820999992002102812004-11300-041870FM-12+074799999V0201401N004110450019N0100001N1+02731+01601101021ADDAA106000091GF108991021021008001041011KA1240N+02101MA1999999092991MD1999999+0041REMSYN076AAXX  28124 83182 32597 81408 10273 20160 39299 40102 82241 333 20210 58004;EQDQ01  00002PRCP06
0167831820999992002102818004-11300-041870FM-12+074799999V0200901N002612200019N0100001N1+03141+01501100551ADDAA106000091GF108991041021008001001011MA1999999092571MD1999999+0131REMSYN070AAXX  28184 83182 32597 80905 10314 20150 39257 40055 84201 333 58013;EQDQ01  00002PRCP06
0198831820999992002102900004-11300-041870FM-12+074799999V0200901N003110450019N0010001N1+02631+01501100791ADDAA106000091GF108991021021008001051011KA1240M+03221MA1999999092761MD1999999+0021REMSYN088AAXX  29004 83182 32594 80906 10263 20150 39276 40079 82251 333 10322 29047 55070 58002;EQDQ01  00002PRCP06
0186831820999992002102912004-11300-041870FM-12+074799999V0200901N005119999999N0100001N1+02661+01681101031ADDAA106000091GF108991001001999999001011KA1240N+02071MA1999999092961MD1999999-0031REMSYN076AAXX  29124 83182 32997 80910 10266 20168 39296 40103 80001 333 20207 59003;EQDQ01  00002PRCP06
0167831820999992002102918004-11300-041870FM-12+074799999V0200501N004110075019N0100001N1+03101+01461100501ADDAA106000091GF108991051021008001001011MA1999999092511MD1999999-0061REMSYN070AAXX  29184 83182 32597 80508 10310 20146 39251 40050 85201 333 59006;EQDQ01  00002PRCP06
0198831820999992002103000004-11300-041870FM-12+074799999V0200901N002110450019N0010001N1+02551+01381100841ADDAA106000091GF108991031051008001051011KA1240M+03131MA1999999092771MD1999999+0011REMSYN088AAXX  30004 83182 32594 80904 10255 20138 39277 40084 83551 333 10313 29047 55045 58001;EQDQ01  00002PRCP06
0186831820999992002103012004-11300-041870FM-12+074799999V0200901N004112200019N0100001N1+02701+01661101031ADDAA106000091GF108991011021008001001011KA1240N+02041MA1999999092961MD1999999+0001REMSYN076AAXX  30124 83182 32597 80908 10270 20166 39296 40103 81201 333 20204 58000;EQDQ01  00002PRCP06
0167831820999992002103018004-11300-041870FM-12+074799999V0200501N004110450019N0100001N1+03201+01421100401ADDAA106000091GF108991031021008001061011MA1999999092441MD1999999-0071REMSYN070AAXX  30184 83182 32597 80508 10320 20142 39244 40040 83261 333 59007;EQDQ01  00002PRCP06
0198831820999992002103100004-11300-041870FM-12+074799999V0200901N004110450019N0010001N1+02641+01451100781ADDAA106000091GF108991011021008001061011KA1240M+03261MA1999999092741MD1999999-0031REMSYN088AAXX  31004 83182 32594 80908 10264 20145 39274 40078 81261 333 10326 29046 55081 59003;EQDQ01  00002PRCP06
0186831820999992002103112004-11300-041870FM-12+074799999V0200901N005712200019N0100001N1+02741+01641100971ADDAA106000091GF108991011021008001001011KA1240N+02061MA1999999092931MD1999999-0031REMSYN076AAXX  31124 83182 32597 80911 10274 20164 39293 40097 81201 333 20206 59003;EQDQ01  00002PRCP06
0167831820999992002103118004-11300-041870FM-12+074799999V0200501N002610450019N0100001N1+03221+01431100381ADDAA106000091GF108991031021008001051011MA1999999092421MD1999999-0021REMSYN070AAXX  31184 83182 32597 80505 10322 20143 39242 40038 83251 333 59002;EQDQ01  00002PRCP06
0198831820999992002110100004-11300-041870FM-12+074799999V0200901N004610450019N0010001N1+02861+01721100731ADDAA106000091GF108991041051008001051011KA1240M+03261MA1999999092741MD1999999+0001REMSYN088AAXX  01004 83182 32594 80909 10286 20172 39274 40073 84551 333 10326 29046 55063 58000;EQDQ01  00002PRCP06
0186831820999992002110112004-11300-041870FM-12+074799999V0200501N003610450019N0100001N1+02981+01791100861ADDAA106000091GF108991041031008001061011KA1240N+02231MA1999999092891MD1999999-0041REMSYN076AAXX  01124 83182 32597 80507 10298 20179 39289 40086 84361 333 20223 59004;EQDQ01  00002PRCP06
0167831820999992002110118004-11300-041870FM-12+074799999V0202301N005710075019N0100001N1+02701+01961100541ADDAA106000091GF108991051031008001021011MA1999999092511MD1999999+0091REMSYN070AAXX  01184 83182 32597 82311 10270 20196 39251 40054 85321 333 58009;EQDQ01  00002PRCP06
0198831820999992002110200004-11300-041870FM-12+074799999V0201401N005110450019N0010001N1+02291+01821101051ADDAA106000091GF108991031071004501021999KA1240M+03331MA1999999092981MD1999999+0241REMSYN088AAXX  02004 83182 32494 81410 10229 20182 39298 40105 8372/ 333 10333 29066 55040 58024;EQDQ01  00002PRCP06
0186831820999992002110212004-11300-041870FM-12+074799999V0200901N004610450019N0010001N1+02641+01901101151ADDAA106000091GF108991021081012501061011KA1240N+01971MA1999999093011MD1999999+0121REMSYN076AAXX  02124 83182 32694 80909 10264 20190 39301 40115 82861 333 20197 58012;EQDQ01  00002PRCP06
0171831820999992002110218004-11300-041870FM-12+074799999V0203201N005110042019N0010001N1+02201+01991100881ADDAY121061AY221061GF108991061031004501021999MA1999999092691MD1999999+0181MW1951REMSYN082AAXX  02184 83182 21494 83210 10220 20199 39269 40088 79522 8632/ 333 58018 60371;
0202831820999992002110300004-11300-041870FM-12+074799999V0200901N001510450019N0010001N1+02351+02041100831ADDAY161061AY221061GF108991021051008001051011KA1240M+03251MA1999999092731MD1999999-0251MW1001REMSYN100AAXX  03004 83182 21594 80903 10235 20204 39273 40083 70062 82551 333 10325 29080 55048 59025 60121;
0162831820999992002110312004-11300-041870FM-12+074799999V0200901N003610450019N0100001N1+02521+01841101081ADDGF108991011021008001061011KA1240N+02121MA1999999092941MD1999999-0071REMSYN082AAXX  03124 83182 22597 80907 10252 20184 39294 40108 81261 333 20212 59007 60494;
0167831820999992002110318004-11300-041870FM-12+074799999V0200501N003110450019N0100001N1+03001+01681100591ADDAA106000091GF108991011031008001061011MA1999999092551MD1999999-0141REMSYN070AAXX  03184 83182 32597 80506 10300 20168 39255 40059 81361 333 59014;EQDQ01  00002PRCP06
0202831820999992002110400004-11300-041870FM-12+074799999V0203201N003110042019N0010001N1+02181+02081101201ADDAY191061AY221061GF108991051031004501021999KA1240M+03021MA1999999093021MD1999999+0291MW1211REMSYN100AAXX  04004 83182 21494 83206 10218 20208 39302 40120 72192 8532/ 333 10302 29075 55038 58029 60021;
0190831820999992002110412004-11300-041870FM-12+074799999V0200901N003110450019N0100001N1+02301+02041101251ADDAY161061AY221061GF108991041071004501021999KA1240N+01961MA1999999093031MD1999999+0091MW1021REMSYN088AAXX  04124 83182 21497 80906 10230 20204 39303 40125 70262 8472/ 333 20196 58009 60024;
0195831820999992002110418004-11300-041870FM-12+074799999V0203201N000510042019N0100001N1+02751+01821100801ADDAA106000091AY121061AY221061GF108991061031004501021999MA1999999092681MD1999999+0131MW1161REMSYN076AAXX  04184 83182 31497 83201 10275 20182 39268 40080 71622 8632/ 333 58013;EQDQ01  00002PRCP06
0202831820999992002110500004-11300-041870FM-12+074799999V0202701N004110450019N0010001N1+02131+02051101271ADDAY161061AY221061GF108991041071004501021999KA1240M+02781MA1999999093031MD1999999+0011MW1441REMSYN100AAXX  05004 83182 21494 82708 10213 20205 39303 40127 74462 8472/ 333 10278 29083 55006 58001 60021;
0190831820999992002110512004-11300-041870FM-12+074799999V0200901N002110042019N0020001N1+02331+02061101501ADDAY121061AY221061GF108991061071004501021999KA1240N+01951MA1999999093261MD1999999+0201MW1161REMSYN088AAXX  05124 83182 21495 80904 10233 20206 39326 40150 71622 8672/ 333 20195 58020 60024;
0171831820999992002110518004-11300-041870FM-12+074799999V0201801N004610042019N0010001N1+02831+02001100911ADDAY161061AY221061GF108991061031004501021999MA1999999092801MD1999999+0121MW1161REMSYN082AAXX  05184 83182 21494 81809 10283 20200 39280 40091 71662 8632/ 333 58012 60061;
0202831820999992002110600004-11300-041870FM-12+074799999V0200901N000510042019N0010001N1+02201+02051101261ADDAY161061AY261061GF108991061071004501021999KA1240M+02931MA1999999093041MD1999999-0011MW1021REMSYN100AAXX  06004 83182 21494 80901 10220 20205 39304 40126 70266 8672/ 333 10293 29082 55033 59001 60171;
0162831820999992002110612004-11300-041870FM-12+074799999V0200901N002610450019N0100001N1+02561+01991101351ADDGF108991031021008001041011KA1240N+01991MA1999999093171MD1999999-0091REMSYN082AAXX  06124 83182 22597 80905 10256 20199 39317 40135 83241 333 20199 59009 60234;
0167831820999992002110618004-11300-041870FM-12+074799999V0201401N001010450019N0100001N1+03181+01691100891ADDAA106000091GF108991041021008001061011MA1999999092721MD1999999+0081REMSYN070AAXX  06184 83182 32597 81402 10318 20169 39272 40089 84261 333 58008;EQDQ01  00002PRCP06
0198831820999992002110700004-11300-041870FM-12+074799999V0201801N002610075019N0010001N1+02251+01811101201ADDAA106000091GF108991081051008001999999KA1240M+03241MA1999999093041MD1999999+0001REMSYN088AAXX  07004 83182 32594 81805 10225 20181 39304 40120 885// 333 10324 29066 55074 58000;EQDQ01  00002PRCP06
0186831820999992002110712004-11300-041870FM-12+074799999V0200901N004610075019N0100001N1+02361+01871101501ADDAA106000091GF108991081051008001999999KA1240N+02011MA1999999093271MD1999999+0101REMSYN076AAXX  07124 83182 32597 80909 10236 20187 39327 40150 885// 333 20201 58010;EQDQ01  00002PRCP06
0167831820999992002110718004-11300-041870FM-12+074799999V0200901N005110450019N0100001N1+02711+01801101051ADDAA106000091GF108991031021008001041011MA1999999092911MD1999999+0191REMSYN070AAXX  07184 83182 32597 80910 10271 20180 39291 40105 83241 333 58019;EQDQ01  00002PRCP06
0198831820999992002110800004-11300-041870FM-12+074799999V0201401N003110450019N0010001N1+02291+01781101351ADDAA106000091GF108991031051008001041011KA1240M+02751MA1999999093041MD1999999+0111REMSYN088AAXX  08004 83182 32594 81406 10229 20178 39304 40135 83541 333 10275 29070 55025 58011;EQDQ01  00002PRCP06
0186831820999992002110812004-11300-041870FM-12+074799999V0201401N004610075019N0100001N1+02521+01841101451ADDAA106000091GF108991061021008001041011KA1240N+01931MA1999999093261MD1999999-0011REMSYN076AAXX  08124 83182 32597 81409 10252 20184 39326 40145 86241 333 20193 59001;EQDQ01  00002PRCP06
0167831820999992002110818004-11300-041870FM-12+074799999V0200901N004610450019N0100001N1+02981+01471100921ADDAA106000091GF106991031021008001041011MA1999999092851MD1999999-0061REMSYN070AAXX  08184 83182 32597 60909 10298 20147 39285 40092 83241 333 59006;EQDQ01  00002PRCP06
0198831820999992002110900004-11300-041870FM-12+074799999V0200901N005112200019N0010001N1+02381+01751101251ADDAA106000091GF102991021001017501041001KA1240M+03001MA1999999093101MD1999999+0061REMSYN088AAXX  09004 83182 32794 20910 10238 20175 39310 40125 82040 333 10300 29060 55073 58006;EQDQ01  00002PRCP06
0186831820999992002110912004-11300-041870FM-12+074799999V0200901N004110075019N0100001N1+02361+01691101571ADDAA106000091GF108991081051008001999999KA1240N+01911MA1999999093351MD1999999+0091REMSYN076AAXX  09124 83182 32597 80908 10236 20169 39335 40157 885// 333 20191 58009;EQDQ01  00002PRCP06
0167831820999992002110918004-11300-041870FM-12+074799999V0200901N004112200019N0100001N1+03061+01531101001ADDAA106000091GF104991041021008001001001MA1999999092921MD1999999+0071REMSYN070AAXX  09184 83182 32597 40908 10306 20153 39292 40100 84200 333 58007;EQDQ01  00002PRCP06
0198831820999992002111000004-11300-041870FM-12+074799999V0200901N005112200019N0010001N1+02401+01821101301ADDAA106000091GF102991011001017501041011KA1240M+03101MA1999999093131MD1999999+0031REMSYN088AAXX  10004 83182 32794 20910 10240 20182 39313 40130 81041 333 10310 29062 55067 58003;EQDQ01  00002PRCP06
0186831820999992002111012004-11300-041870FM-12+074799999V0200901N005110075019N0100001N1+02521+01791101411ADDAA106000091GF106991061021008001001001KA1240N+01941MA1999999093251MD1999999-0101REMSYN076AAXX  10124 83182 32597 60910 10252 20179 39325 40141 86200 333 20194 59010;EQDQ01  00002PRCP06
0167831820999992002111018004-11300-041870FM-12+074799999V0201801N007710075019N0100001N1+02941+01621100971ADDAA106000091GF105991051021008001001001MA1999999092891MD1999999+0061REMSYN070AAXX  10184 83182 32597 51815 10294 20162 39289 40097 85200 333 58006;EQDQ01  00002PRCP06
0208831820999992002111100004-11300-041870FM-12+074799999V0200901N002612200019N0010001N1+02481+01621101151ADDAA106000091GA1001+999999999GF100991001001999999001001KA1240M+03121MA1999999093021MD1999999-0111REMSYN082AAXX  11004 83182 32994 00905 10248 20162 39302 40115 333 10312 29057 55086 59011;EQDQ01  00002PRCP06
0186831820999992002111112004-11300-041870FM-12+074799999V0200901N004112200019N0100001N1+02531+01371101421ADDAA106000091GF102991001001999999001011KA1240N+01721MA1999999093271MD1999999+0021REMSYN076AAXX  11124 83182 32997 20908 10253 20137 39327 40142 80001 333 20172 58002;EQDQ01  00002PRCP06
0167831820999992002111118004-11300-041870FM-12+074799999V0200901N005712200019N0100001N1+03201+01231100861ADDAA106000091GF103991021021008001001011MA1999999092811MD1999999-0081REMSYN070AAXX  11184 83182 32597 30911 10320 20123 39281 40086 82201 333 59008;EQDQ01  00002PRCP06
0198831820999992002111200004-11300-041870FM-12+074799999V0200901N004112200019N0010001N1+02581+01641101081ADDAA106000091GF102991011001017501041011KA1240M+03361MA1999999092971MD1999999-0051REMSYN088AAXX  12004 83182 32794 20908 10258 20164 39297 40108 81041 333 10336 29048 55118 59005;EQDQ01  00002PRCP06
0186831820999992002111212004-11300-041870FM-12+074799999V0200901N005712200019N0100001N1+02621+01401101351ADDAA106000091GF102991001001999999001011KA1240N+01821MA1999999093241MD1999999-0031REMSYN076AAXX  12124 83182 32997 20911 10262 20140 39324 40135 80001 333 20182 59003;EQDQ01  00002PRCP06
0167831820999992002111218004-11300-041870FM-12+074799999V0200901N004112200019N0100001N1+03181+00811100841ADDAA106000091GF102991011021008001001011MA1999999092811MD1999999+0001REMSYN070AAXX  12184 83182 32597 20908 10318 20081 39281 40084 81201 333 58000;EQDQ01  00002PRCP06
0198831820999992002111300004-11300-041870FM-12+074799999V0200901N005112200019N0010001N1+02541+01331101221ADDAA106000091GF101991001001999999001011KA1240M+03241MA1999999093121MD1999999+0151REMSYN088AAXX  13004 83182 32994 10910 10254 20133 39312 40122 80001 333 10324 29041 55117 58015;EQDQ01  00002PRCP06
0186831820999992002111312004-11300-041870FM-12+074799999V0200901N008212200019N0100001N1+02471+01391101601ADDAA106000091GF102991021021008001001001KA1240N+01921MA1999999093441MD1999999+0201REMSYN076AAXX  13124 83182 32597 20916 10247 20139 39344 40160 82200 333 20192 58020;EQDQ01  00002PRCP06
0167831820999992002111318004-11300-041870FM-12+074799999V0200501N006212200019N0100001N1+03081+01271101031ADDAA106000091GF102991011021008001001011MA1999999092961MD1999999+0151REMSYN070AAXX  13184 83182 32597 20512 10308 20127 39296 40103 81201 333 58015;EQDQ01  00002PRCP06
0208831820999992002111400004-11300-041870FM-12+074799999V0200901N004612200019N0010001N1+02361+01231101401ADDAA106000091GA1001+999999999GF100991001001999999001001KA1240M+03131MA1999999093221MD1999999+0101REMSYN082AAXX  14004 83182 32994 00909 10236 20123 39322 40140 333 10313 29046 55116 58010;EQDQ01  00002PRCP06
0186831820999992002111412004-11300-041870FM-12+074799999V0200901N005112200019N0100001N1+02581+01521101591ADDAA106000091GF102991021021008001001001KA1240N+01771MA1999999093411MD1999999-0031REMSYN076AAXX  14124 83182 32597 20910 10258 20152 39341 40159 82200 333 20177 59003;EQDQ01  00002PRCP06
0167831820999992002111418004-11300-041870FM-12+074799999V0200901N005112200019N0100001N1+03161+00661101001ADDAA106000091GF102991021021008001001001MA1999999092941MD1999999-0021REMSYN070AAXX  14184 83182 32597 20910 10316 20066 39294 40100 82200 333 59002;EQDQ01  00002PRCP06
0208831820999992002111500004-11300-041870FM-12+074799999V0200901N004112200019N0010001N1+02501+01671101301ADDAA106000091GA1001+999999999GF100991001001999999001001KA1240M+03231MA1999999093181MD1999999-0041REMSYN082AAXX  15004 83182 32994 00908 10250 20167 39318 40130 333 10323 29048 55116 59004;EQDQ01  00002PRCP06
0186831820999992002111512004-11300-041870FM-12+074799999V0200901N006210075019N0100001N1+02501+01671101481ADDAA106000091GF108991081051008001999999KA1240N+01921MA1999999093331MD1999999-0081REMSYN076AAXX  15124 83182 32597 80912 10250 20167 39333 40148 885// 333 20192 59008;EQDQ01  00002PRCP06
0167831820999992002111518004-11300-041870FM-12+074799999V0200901N004612200019N0100001N1+03101+01241100931ADDAA106000091GF103991031021008001001001MA1999999092871MD1999999-0071REMSYN070AAXX  15184 83182 32597 30909 10310 20124 39287 40093 83200 333 59007;EQDQ01  00002PRCP06
0208831820999992002111600004-11300-041870FM-12+074799999V0200901N004112200019N0010001N1+02431+01311101231ADDAA106000091GA1001+999999999GF100991001001999999001001KA1240M+03131MA1999999093081MD1999999-0101REMSYN082AAXX  16004 83182 32994 00908 10243 20131 39308 40123 333 10313 29048 55102 59010;EQDQ01  00002PRCP06
0186831820999992002111612004-11300-041870FM-12+074799999V0200901N004619999999N0100001N1+02561+01411101411ADDAA106000091GF108991001001999999001011KA1240N+01641MA1999999093261MD1999999-0071REMSYN076AAXX  16124 83182 32997 80909 10256 20141 39326 40141 80001 333 20164 59007;EQDQ01  00002PRCP06
0167831820999992002111618004-11300-041870FM-12+074799999V0201401N003112200019N0100001N1+03191+00871100811ADDAA106000091GF108991011011012501001011MA1999999092761MD1999999-0111REMSYN070AAXX  16184 83182 32697 81406 10319 20087 39276 40081 81101 333 59011;EQDQ01  00002PRCP06
0198831820999992002111700004-11300-041870FM-12+074799999V0200901N003119999999N0010001N1+02501+00891101011ADDAA106000091GF108991001001999999001011KA1240M+03241MA1999999092911MD1999999-0171REMSYN088AAXX  17004 83182 32994 80906 10250 20089 39291 40101 80001 333 10324 29036 55100 59017;EQDQ01  00002PRCP06
0186831820999992002111712004-11300-041870FM-12+074799999V0200901N004112200019N0100001N1+02681+01391101261ADDAA106000091GF101991001001999999001011KA1240N+01771MA1999999093151MD1999999-0111REMSYN076AAXX  17124 83182 32997 10908 10268 20139 39315 40126 80001 333 20177 59011;EQDQ01  00002PRCP06
0167831820999992002111718004-11300-041870FM-12+074799999V0203201N003112200019N0100001N1+03381+01271100581ADDAA106000091GF103991011011012501001011MA1999999092601MD1999999-0161REMSYN070AAXX  17184 83182 32697 33206 10338 20127 39260 40058 81101 333 59016;EQDQ01  00002PRCP06
0198831820999992002111800004-11300-041870FM-12+074799999V0200901N005712200019N0010001N1+02641+00971100881ADDAA106000091GF101991001001999999001011KA1240M+03431MA1999999092831MD1999999-0081REMSYN088AAXX  18004 83182 32994 10911 10264 20097 39283 40088 80001 333 10343 29034 55118 59008;EQDQ01  00002PRCP06
0186831820999992002111812004-11300-041870FM-12+074799999V0200901N003619999999N0100001N1+02611+01491101241ADDAA106000091GF108991001001999999001011KA1240N+01841MA1999999093151MD1999999+0001REMSYN076AAXX  18124 83182 32997 80907 10261 20149 39315 40124 80001 333 20184 58000;EQDQ01  00002PRCP06
0167831820999992002111818004-11300-041870FM-12+074799999V0201801N002112200019N0100001N1+03421+00801100561ADDAA106000091GF108991011021008001001011MA1999999092581MD1999999-0021REMSYN070AAXX  18184 83182 32597 81804 10342 20080 39258 40056 81201 333 59002;EQDQ01  00002PRCP06
0198831820999992002111900004-11300-041870FM-12+074799999V0200901N004112200019N0100001N1+02751+01271100861ADDAA106000091GF108991011021008001001011KA1240M+03521MA1999999092831MD1999999+0001REMSYN088AAXX  19004 83182 32597 80908 10275 20127 39283 40086 81201 333 10352 29038 55118 58000;EQDQ01  00002PRCP06
0186831820999992002111912004-11300-041870FM-12+074799999V0200901N006219999999N0100001N1+02701+01631101161ADDAA106000091GF108991001001999999001011KA1240N+01931MA1999999093121MD1999999-0031REMSYN076AAXX  19124 83182 32997 80912 10270 20163 39312 40116 80001 333 20193 59003;EQDQ01  00002PRCP06
0167831820999992002111918004-11300-041870FM-12+074799999V0201401N002612200019N0100001N1+03381+01331100511ADDAA106000091GF105991021021008001001011MA1999999092551MD1999999-0031REMSYN070AAXX  19184 83182 32597 51405 10338 20133 39255 40051 82201 333 59003;EQDQ01  00002PRCP06
0198831820999992002112000004-11300-041870FM-12+074799999V0200901N003112200019N0010001N1+02711+01541100921ADDAA106000091GF101991001001999999001011KA1240M+03441MA1999999092881MD1999999+0031REMSYN088AAXX  20004 83182 32994 10906 10271 20154 39288 40092 80001 333 10344 29045 55115 58003;EQDQ01  00002PRCP06
0186831820999992002112012004-11300-041870FM-12+074799999V0200901N005719999999N0100001N1+02711+01671101121ADDAA106000091GF108991001001999999001011KA1240N+01961MA1999999093061MD1999999-0061REMSYN076AAXX  20124 83182 32997 80911 10271 20167 39306 40112 80001 333 20196 59006;EQDQ01  00002PRCP06
0167831820999992002112018004-11300-041870FM-12+074799999V0200901N005712200019N0100001N1+03261+01431100721ADDAA106000091GF108991011021008001001011MA1999999092691MD1999999+0141REMSYN070AAXX  20184 83182 32597 80911 10326 20143 39269 40072 81201 333 58014;EQDQ01  00002PRCP06
0198831820999992002112100004-11300-041870FM-12+074799999V0200901N004619999999N0010001N1+02701+01571101051ADDAA106000091GF108991001001999999001011KA1240M+03301MA1999999093001MD1999999+0121REMSYN088AAXX  21004 83182 32994 80909 10270 20157 39300 40105 80001 333 10330 29046 55117 58012;EQDQ01  00002PRCP06
0186831820999992002112112004-11300-041870FM-12+074799999V0200901N005712200019N0100001N1+02581+01821101291ADDAA106000091GF101991011021008001001001KA1240N+02081MA1999999093191MD1999999+0131REMSYN076AAXX  21124 83182 32597 10911 10258 20182 39319 40129 81200 333 20208 58013;EQDQ01  00002PRCP06
0167831820999992002112118004-11300-041870FM-12+074799999V0200901N003112200019N0100001N1+03261+01471100731ADDAA106000091GF102991021021008001001001MA1999999092741MD1999999+0051REMSYN070AAXX  21184 83182 32597 20906 10326 20147 39274 40073 82200 333 58005;EQDQ01  00002PRCP06
0208831820999992002112200004-11300-041870FM-12+074799999V0200901N003112200019N0010001N1+02641+02091101061ADDAA106000091GA1001+999999999GF100991001001999999001001KA1240M+03331MA1999999092971MD1999999-0031REMSYN082AAXX  22004 83182 32994 00906 10264 20209 39297 40106 333 10333 29050 55108 59003;EQDQ01  00002PRCP06
0186831820999992002112212004-11300-041870FM-12+074799999V0200901N005112200019N0100001N1+02701+01661101211ADDAA106000091GF104991021021008001001011KA1240N+01971MA1999999093131MD1999999-0061REMSYN076AAXX  22124 83182 32597 40910 10270 20166 39313 40121 82201 333 20197 59006;EQDQ01  00002PRCP06
0167831820999992002112218004-11300-041870FM-12+074799999V0200501N004112200019N0100001N1+03281+01441100771ADDAA106000091GF106991041021008001001011MA1999999092771MD1999999+0031REMSYN070AAXX  22184 83182 32597 60508 10328 20144 39277 40077 84201 333 58003;EQDQ01  00002PRCP06
0198831820999992002112300004-11300-041870FM-12+074799999V0200901N004112200019N0010001N1+02641+01481101031ADDAA106000091GF108991011001017501041011KA1240M+03421MA1999999092961MD1999999-0011REMSYN088AAXX  23004 83182 32794 80908 10264 20148 39296 40103 81041 333 10342 29046 55109 59001;EQDQ01  00002PRCP06
0186831820999992002112312004-11300-041870FM-12+074799999V0200901N006710075019N0100001N1+02471+01701101511ADDAA106000091GF108991081051008001999999KA1240N+02021MA1999999093371MD1999999+0041REMSYN076AAXX  23124 83182 32597 80913 10247 20170 39337 40151 885// 333 20202 58004;EQDQ01  00002PRCP06
0167831820999992002112318004-11300-041870FM-12+074799999V0200901N005712200019N0100001N1+03221+01341100841ADDAA106000091GF105991041021008001001011MA1999999092821MD1999999+0051REMSYN070AAXX  23184 83182 32597 50911 10322 20134 39282 40084 84201 333 58005;EQDQ01  00002PRCP06
0198831820999992002112400004-11300-041870FM-12+074799999V0200901N006712200019N0010001N1+02421+01791101331ADDAA106000091GF102991011001017501041011KA1240M+03301MA1999999093171MD1999999+0161REMSYN088AAXX  24004 83182 32794 20913 10242 20179 39317 40133 81041 333 10330 29058 55089 58016;EQDQ01  00002PRCP06
0171831820999992002112418004-11300-041870FM-12+074799999V0200901N005110450019N0100001N1+03001+01611101061ADDAY161061AY221061GF108991041021008001061011MA1999999092911MD1999999+0021MW1151REMSYN082AAXX  24184 83182 21597 80910 10300 20161 39291 40106 71562 84261 333 58002 60011;
0198831820999992002112500004-11300-041870FM-12+074799999V0200901N003112200019N0010001N1+02511+01561101201ADDAA106000091GF108991021001017501041011KA1240M+03141MA1999999093121MD1999999-0051REMSYN088AAXX  25004 83182 32794 80906 10251 20156 39312 40120 82041 333 10314 29053 55067 59005;EQDQ01  00002PRCP06
0162831820999992002112512004-11300-041870FM-12+074799999V0200901N007712200019N0100001N1+02601+01481101531ADDGF102991011011012501001011KA1240N+01991MA1999999093391MD1999999+0151REMSYN082AAXX  25124 83182 21697 20915 10260 20148 39339 40153 81101 333 20199 58015 60014;
0167831820999992002112518004-11300-041870FM-12+074799999V0200901N006212200019N0100001N1+03201+01071100821ADDAA106000091GF102991011011012501001011MA1999999092801MD1999999-0111REMSYN070AAXX  25184 83182 32697 20912 10320 20107 39280 40082 81101 333 59011;EQDQ01  00002PRCP06
0198831820999992002112600004-11300-041870FM-12+074799999V0200901N003112200019N0010001N1+02501+01191101251ADDAA106000091GF101991001001999999001011KA1240M+03221MA1999999093131MD1999999+0011REMSYN088AAXX  26004 83182 32994 10906 10250 20119 39313 40125 80001 333 10322 29041 55116 58001;EQDQ01  00002PRCP06
0186831820999992002112612004-11300-041870FM-12+074799999V0200901N004612200019N0100001N1+02621+01501101441ADDAA106000091GF108991011021008001001011KA1240N+01921MA1999999093311MD1999999-0081REMSYN076AAXX  26124 83182 32597 80909 10262 20150 39331 40144 81201 333 20192 59008;EQDQ01  00002PRCP06
0167831820999992002112618004-11300-041870FM-12+074799999V0200901N005112200019N0100001N1+03241+01041100791ADDAA106000091GF108991021021008001001011MA1999999092771MD1999999-0031REMSYN070AAXX  26184 83182 32597 80910 10324 20104 39277 40079 82201 333 59003;EQDQ01  00002PRCP06
0198831820999992002112700004-11300-041870FM-12+074799999V0200901N005119999999N0010001N1+02541+01261101081ADDAA106000091GF108991001001999999001011KA1240M+03271MA1999999092991MD1999999-0141REMSYN088AAXX  27004 83182 32994 80910 10254 20126 39299 40108 80001 333 10327 29042 55106 59014;EQDQ01  00002PRCP06
0186831820999992002112712004-11300-041870FM-12+074799999V0200901N006212200019N0100001N1+02611+01631101331ADDAA106000091GF108991011011012501001011KA1240N+01831MA1999999093221MD1999999-0091REMSYN076AAXX  27124 83182 32697 80912 10261 20163 39322 40133 81101 333 20183 59009;EQDQ01  00002PRCP06
0167831820999992002112718004-11300-041870FM-12+074799999V0200901N004112200019N0100001N1+03321+01011100771ADDAA106000091GF103991021021008001001011MA1999999092751MD1999999-0021REMSYN070AAXX  27184 83182 32597 30908 10332 20101 39275 40077 82201 333 59002;EQDQ01  00002PRCP06
0198831820999992002112800004-11300-041870FM-12+074799999V0200901N004612200019N0010001N1+02581+01461101101ADDAA106000091GF101991001001999999001011KA1240M+03341MA1999999093011MD1999999+0021REMSYN088AAXX  28004 83182 32994 10909 10258 20146 39301 40110 80001 333 10334 29045 55116 58002;EQDQ01  00002PRCP06
0186831820999992002112812004-11300-041870FM-12+074799999V0200901N005710075019N0100001N1+02701+01661101211ADDAA106000091GF106991061021008001001001KA1240N+01921MA1999999093131MD1999999-0091REMSYN076AAXX  28124 83182 32597 60911 10270 20166 39313 40121 86200 333 20192 59009;EQDQ01  00002PRCP06
0167831820999992002112818004-11300-041870FM-12+074799999V0200501N004110450019N0100001N1+03241+01191100621ADDAA106000091GF108991041021008001041011MA1999999092641MD1999999-0111REMSYN070AAXX  28184 83182 32597 80508 10324 20119 39264 40062 84241 333 59011;EQDQ01  00002PRCP06
0208831820999992002112900004-11300-041870FM-12+074799999V0200901N004612200019N0100001N1+02621+01591101041ADDAA106000091GA1001+999999999GF100991001001999999001001KA1240M+03361MA1999999092971MD1999999-0041REMSYN082AAXX  29004 83182 32997 00909 10262 20159 39297 40104 333 10336 29047 55095 59004;EQDQ01  00002PRCP06
0186831820999992002112912004-11300-041870FM-12+074799999V0200901N005110450019N0100001N1+02681+01391101321ADDAA106000091GF108991011021008001041011KA1240N+01981MA1999999093231MD1999999+0101REMSYN076AAXX  29124 83182 32597 80910 10268 20139 39323 40132 81241 333 20198 58010;EQDQ01  00002PRCP06
0167831820999992002112918004-11300-041870FM-12+074799999V0200901N006711050019N0100001N1+03301+01091100781ADDAA106000091GF105991021021008001041011MA1999999092781MD1999999+0141REMSYN070AAXX  29184 83182 32597 50913 10330 20109 39278 40078 82241 333 58014;EQDQ01  00002PRCP06
0198831820999992002113000004-11300-041870FM-12+074799999V0200901N005112200019N0010001N1+02701+01341101141ADDAA106000091GF103991011001017501041011KA1240M+03321MA1999999093081MD1999999+0111REMSYN088AAXX  30004 83182 32794 30910 10270 20134 39308 40114 81041 333 10332 29039 55111 58011;EQDQ01  00002PRCP06
0186831820999992002113012004-11300-041870FM-12+074799999V0200901N006212200019N0100001N1+02631+01561101401ADDAA106000091GF102991011021008001041001KA1240N+01941MA1999999093301MD1999999+0071REMSYN076AAXX  30124 83182 32597 20912 10263 20156 39330 40140 81240 333 20194 58007;EQDQ01  00002PRCP06
0167831820999992002113018004-11300-041870FM-12+074799999V0200901N005112200019N0100001N1+03331+00911100811ADDAA106000091GF102991021021008001001001MA1999999092811MD1999999+0031REMSYN070AAXX  30184 83182 32597 20910 10333 20091 39281 40081 82200 333 58003;EQDQ01  00002PRCP06
0208831820999992002120100004-11300-041870FM-12+074799999V0200901N005712200019N0010001N1+02501+01581101201ADDAA106000091GA1001+999999999GF100991001001999999001001KA1240M+03351MA1999999093071MD1999999-0011REMSYN082AAXX  01004 83182 32994 00911 10250 20158 39307 40120 333 10335 29046 55116 59001;EQDQ01  00002PRCP06
0202831820999992002120112004-11300-041870FM-12+074799999V0200901N005712200019N0100001N1+02601+01481101241ADDAA106000091GF101991999011008001021001KA1240N+01881MA1999999093181MD1999999-0121REMSYN076AAXX  01124 83182 32597 10911 10260 20148 39318 40124 88120 333 20188 59012;EQDQ01+000082SCOTLCQ02  00002PRCP06
0208831820999992002120200004-11300-041870FM-12+074799999V0200901N005112200019N0010001N1+02591+01401101061ADDAA106000091GA1001+999999999GF100991001001999999001001KA1240M+03301MA1999999092971MD1999999-0101REMSYN082AAXX  02004 83182 32994 00910 10259 20140 39297 40106 333 10330 29043 55116 59010;EQDQ01  00002PRCP06
0186831820999992002120212004-11300-041870FM-12+074799999V0200901N004612200019N0100001N1+02561+01591101241ADDAA106000091GF102991021021008001001001KA1240N+01921MA1999999093141MD1999999-0041REMSYN076AAXX  02124 83182 32597 20909 10256 20159 39314 40124 82200 333 20192 59004;EQDQ01  00002PRCP06
0167831820999992002120218004-11300-041870FM-12+074799999V0200901N003112200019N0100001N1+03321+01171100601ADDAA106000091GF102991011011012501001011MA1999999092621MD1999999+0011REMSYN070AAXX  02184 83182 32697 20906 10332 20117 39262 40060 81101 333 58001;EQDQ01  00002PRCP06
0208831820999992002120300004-11300-041870FM-12+074799999V0200901N005112200019N0010001N1+02641+01321100871ADDAA106000091GA1001+999999999GF100991001001999999001001KA1240M+03371MA1999999092801MD1999999-0171REMSYN082AAXX  03004 83182 32994 00910 10264 20132 39280 40087 333 10337 29040 55119 59017;EQDQ01  00002PRCP06
0196831820999992002120312004-11300-041870FM-12+074799999V0201401N003112200019N0100001N1+02871+01491101071ADDAA106000091GA1001+999999999GF100991001001999999001001KA1240N+01831MA1999999093041MD1999999-0101REMSYN070AAXX  03124 83182 32997 01406 10287 20149 39304 40107 333 20183 59010;EQDQ01  00002PRCP06
0167831820999992002120318004-11300-041870FM-12+074799999V0201401N005712200019N0100001N1+03471+00611100511ADDAA106000091GF101991011021008001001001MA1999999092571MD1999999-0051REMSYN070AAXX  03184 83182 32597 11411 10347 20061 39257 40051 81200 333 59005;EQDQ01  00002PRCP06
0208831820999992002120400004-11300-041870FM-12+074799999V0200901N004112200019N0010001N1+02561+01351101001ADDAA106000091GA1001+999999999GF100991001001999999001001KA1240M+03501MA1999999092951MD1999999+0101REMSYN082AAXX  04004 83182 32994 00908 10256 20135 39295 40100 333 10350 29038 55120 58010;EQDQ01  00002PRCP06
0186831820999992002120412004-11300-041870FM-12+074799999V0200901N005112200019N0100001N1+02661+01561101221ADDAA106000091GF102991011011012501001011KA1240N+01771MA1999999093121MD1999999+0081REMSYN076AAXX  04124 83182 32697 20910 10266 20156 39312 40122 81101 333 20177 58008;EQDQ01  00002PRCP06
0167831820999992002120418004-11300-041870FM-12+074799999V0201801N001512200019N0100001N1+03341+01191100631ADDAA106000091GF106991031021008001001011MA1999999092651MD1999999+0081REMSYN070AAXX  04184 83182 32597 61803 10334 20119 39265 40063 83201 333 58008;EQDQ01  00002PRCP06
0208831820999992002120500004-11300-041870FM-12+074799999V0200901N004112200019N0010001N1+02751+01341100871ADDAA106000091GA1001+999999999GF100991001001999999001001KA1240M+03401MA1999999092841MD1999999-0111REMSYN082AAXX  05004 83182 32994 00908 10275 20134 39284 40087 333 10340 29040 55112 59011;EQDQ01  00002PRCP06
0186831820999992002120512004-11300-041870FM-12+074799999V0200901N004612200019N0100001N1+02701+01751101251ADDAA106000091GF108991011021008001001011KA1240N+02121MA1999999093201MD1999999+0081REMSYN076AAXX  05124 83182 32597 80909 10270 20175 39320 40125 81201 333 20212 58008;EQDQ01  00002PRCP06
0167831820999992002120518004-11300-041870FM-12+074799999V0201801N003112200019N0100001N1+03381+01271100571ADDAA106000091GF105991041021008001001011MA1999999092631MD1999999-0021REMSYN070AAXX  05184 83182 32597 51806 10338 20127 39263 40057 84201 333 59002;EQDQ01  00002PRCP06
0208831820999992002120600004-11300-041870FM-12+074799999V0200901N004112200019N0010001N1+02741+01511100921ADDAA106000091GA1001+999999999GF100991001001999999001001KA1240M+03461MA1999999092881MD1999999+0041REMSYN082AAXX  06004 83182 32994 00908 10274 20151 39288 40092 333 10346 29044 55110 58004;EQDQ01  00002PRCP06
0186831820999992002120612004-11300-041870FM-12+074799999V0201401N002119999999N0100001N1+02901+01591100941ADDAA106000091GF108991001001999999001011KA1240N+02001MA1999999092931MD1999999-0271REMSYN076AAXX  06124 83182 32997 81404 10290 20159 39293 40094 80001 333 20200 59027;EQDQ01  00002PRCP06
0167831820999992002120618004-11300-041870FM-12+074799999V0202301N003112200019N0100001N1+03621+01041100351ADDAA106000091GF106991041021008001001011MA1999999092471MD1999999-0161REMSYN070AAXX  06184 83182 32597 62306 10362 20104 39247 40035 84201 333 59016;EQDQ01  00002PRCP06
0198831820999992002120700004-11300-041870FM-12+074799999V0200501N003112200019N0010001N1+02981+01471100501ADDAA106000091GF102991001001999999001011KA1240M+03681MA1999999092571MD1999999-0311REMSYN088AAXX  07004 83182 32994 20506 10298 20147 39257 40050 80001 333 10368 29036 55117 59031;EQDQ01  00002PRCP06
0186831820999992002120712004-11300-041870FM-12+074799999V0201401N001510450019N0100001N1+02881+01391100701ADDAA106000091GF108991031021008001041011KA1240N+02131MA1999999092761MD1999999-0171REMSYN076AAXX  07124 83182 32597 81403 10288 20139 39276 40070 83241 333 20213 59017;EQDQ01  00002PRCP06
0167831820999992002120718004-11300-041870FM-12+074799999V0201801N004610450019N0100001N1+03341+01351100671ADDAA106000091GF108991021021008001041011MA1999999092281MD1999999-0191REMSYN070AAXX  07184 83182 32597 81809 10334 20135 39228 40067 82241 333 59019;EQDQ01  00002PRCP06
0202831820999992002120800004-11300-041870FM-12+074799999V0201801N007210042019N0010001N1+01921+01861101882ADDAY191061AY291061GF108991051031004501021999KA1240M+03431MA1999999093021MD1999999+0451MW1951REMSYN100AAXX  08004 83182 21494 81814 10192 20186 39302 40188 79599 8532/ 333 10343 29052 55064 58045 60301;
0190831820999992002120812004-11300-041870FM-12+074799999V0200901N001010042019N0100001N1+02261+02091101101ADDAY191061AY221061GF108991061071004501021999KA1240N+01871MA1999999092841MD1999999+0081MW1021REMSYN088AAXX  08124 83182 21497 80902 10226 20209 39284 40110 70292 8672/ 333 20187 58008 60394;
0171831820999992002120818004-11300-041870FM-12+074799999V0203601N001510042019N0100001N1+02341+02051100821ADDAY161061AY261061GF108991061071004501021999MA1999999092621MD1999999+0341MW1021REMSYN082AAXX  08184 83182 21497 83603 10234 20205 39262 40082 70266 8672/ 333 58034 60021;
0198831820999992002120900004-11300-041870FM-12+074799999V0203201N002110042019N0010001N1+02011+01891101151ADDAA106000091GF108991081071004501999999KA1240M+02651MA1999999092901MD1999999-0121REMSYN088AAXX  09004 83182 32494 83204 10201 20189 39290 40115 887// 333 10265 29090 55018 59012;EQDQ01  00002PRCP06
0162831820999992002120912004-11300-041870FM-12+074799999V0202701N002610450019N0100001N1+02501+01941101241ADDGF108991021021008001061021KA1240N+01921MA1999999093021MD1999999+0181REMSYN082AAXX  09124 83182 22597 82705 10250 20194 39302 40124 82262 333 20192 58018 60024;
0167831820999992002120918004-11300-041870FM-12+074799999V0203601N005110042019N0100001N1+02281+01921101181ADDAA106000091GF108991061071004501021999MA1999999092961MD1999999+0341REMSYN070AAXX  09184 83182 32497 83610 10228 20192 39296 40118 8672/ 333 58034;EQDQ01  00002PRCP06
0202831820999992002121000004-11300-041870FM-12+074799999V0201401N001010042019N0010001N1+02001+01931101341ADDAY161061AY261061GF108991061071004501021999KA1240M+02631MA1999999093111MD1999999+0211MW1021REMSYN100AAXX  10004 83182 21494 81402 10200 20193 39311 40134 70266 8672/ 333 10263 29086 55021 58021 60161;
0162831820999992002121012004-11300-041870FM-12+074799999V0200501N002110450019N0100001N1+02501+02031101491ADDGF108991031021008001051011KA1240N+01961MA1999999093251MD1999999+0231REMSYN082AAXX  10124 83182 22597 80504 10250 20203 39325 40149 83251 333 20196 58023 60164;
0171831820999992002121018004-11300-041870FM-12+074799999V0201401N004110042019N0010001N1+02151+01961101251ADDAY161061AY221061GF108991061071004501021999MA1999999093011MD1999999+0051MW1631REMSYN082AAXX  10184 83182 21494 81408 10215 20196 39301 40125 76362 8672/ 333 58005 60121;
0202831820999992002121100004-11300-041870FM-12+074799999V0201401N003110042019N0010001N1+02121+01971101441ADDAY121061AY221061GF108991061071004501021999KA1240M+02901MA1999999093221MD1999999+0111MW1601REMSYN100AAXX  11004 83182 21494 81406 10212 20197 39322 40144 76022 8672/ 333 10290 29086 55030 58011 60051;
0190831820999992002121112004-11300-041870FM-12+074799999V0200501N005110075019N0100001N1+02481+01941101571ADDAY161061AY221061GF108991081051008001999999KA1240N+02031MA1999999093341MD1999999+0091MW1021REMSYN088AAXX  11124 83182 21597 80510 10248 20194 39334 40157 70262 885// 333 20203 58009 60174;
0167831820999992002121118004-11300-041870FM-12+074799999V0200501N003612200019N0100001N1+03051+01491100951ADDAA106000091GF106991041021008001001011MA1999999092891MD1999999-0121REMSYN070AAXX  11184 83182 32597 60507 10305 20149 39289 40095 84201 333 59012;EQDQ01  00002PRCP06
0198831820999992002121200004-11300-041870FM-12+074799999V0201401N003112200019N0010001N1+02501+01641101291ADDAA106000091GF108991031001017501051011KA1240M+03081MA1999999093151MD1999999-0071REMSYN088AAXX  12004 83182 32794 81406 10250 20164 39315 40129 83051 333 10308 29057 55098 59007;EQDQ01  00002PRCP06
0186831820999992002121212004-11300-041870FM-12+074799999V0200901N004612200019N0100001N1+02481+01731101431ADDAA106000091GF106991021021008001001011KA1240N+01951MA1999999093281MD1999999-0061REMSYN076AAXX  12124 83182 32597 60909 10248 20173 39328 40143 82201 333 20195 59006;EQDQ01  00002PRCP06
0167831820999992002121218004-11300-041870FM-12+074799999V0200901N003612200019N0100001N1+03221+01431100841ADDAA106000091GF104991021021008001001011MA1999999092811MD1999999-0081REMSYN070AAXX  12184 83182 32597 40907 10322 20143 39281 40084 82201 333 59008;EQDQ01  00002PRCP06
0198831820999992002121300004-11300-041870FM-12+074799999V0200901N004112200019N0200001N1+02501+01481101211ADDAA106000091GF103991011001017501041011KA1240M+03231MA1999999093081MD1999999-0071REMSYN088AAXX  13004 83182 32798 30908 10250 20148 39308 40121 81041 333 10323 29051 55108 59007;EQDQ01  00002PRCP06
0186831820999992002121312004-11300-041870FM-12+074799999V0200901N004110075019N0100001N1+02501+01721101381ADDAA106000091GF106991051021008001001021KA1240N+01931MA1999999093241MD1999999-0041REMSYN076AAXX  13124 83182 32597 60908 10250 20172 39324 40138 85202 333 20193 59004;EQDQ01  00002PRCP06
0167831820999992002121318004-11300-041870FM-12+074799999V0200501N002612200019N0100001N1+03021+01731100971ADDAA106000091GF108991041021008001001011MA1999999092891MD1999999+0081REMSYN070AAXX  13184 83182 32597 80505 10302 20173 39289 40097 84201 333 58008;EQDQ01  00002PRCP06
0198831820999992002121400004-11300-041870FM-12+074799999V0200901N002612200019N0010001N1+02411+01761101291ADDAA106000091GF102991001001999999001011KA1240M+03221MA1999999093141MD1999999+0061REMSYN088AAXX  14004 83182 32994 20905 10241 20176 39314 40129 80001 333 10322 29064 55095 58006;EQDQ01  00002PRCP06
0186831820999992002121412004-11300-041870FM-12+074799999V0200901N004610075019N0100001N1+02541+01761101411ADDAA106000091GF106991061021008001001001KA1240N+01921MA1999999093261MD1999999+0021REMSYN076AAXX  14124 83182 32597 60909 10254 20176 39326 40141 86200 333 20192 58002;EQDQ01  00002PRCP06
0167831820999992002121418004-11300-041870FM-12+074799999V0200901N004112200019N0100001N1+03221+01341100791ADDAA106000091GF103991031021008001001001MA1999999092771MD1999999-0121REMSYN070AAXX  14184 83182 32597 30908 10322 20134 39277 40079 83200 333 59012;EQDQ01  00002PRCP06
0198831820999992002121500004-11300-041870FM-12+074799999V0200901N004112200019N0010001N1+02541+01761101181ADDAA106000091GF106991031001017501051011KA1240M+03261MA1999999093061MD1999999-0081REMSYN088AAXX  15004 83182 32794 60908 10254 20176 39306 40118 83051 333 10326 29054 55101 59008;EQDQ01  00002PRCP06
0186831820999992002121512004-11300-041870FM-12+074799999V0200901N005110075019N0100001N1+02561+01881101321ADDAA106000091GF106991061021008001001011KA1240N+02051MA1999999093201MD1999999-0061REMSYN076AAXX  15124 83182 32597 60910 10256 20188 39320 40132 86201 333 20205 59006;EQDQ01  00002PRCP06
0167831820999992002121518004-11300-041870FM-12+074799999V0200501N003112200019N0100001N1+03141+01581100811ADDAA106000091GF108991041021008001001011MA1999999092781MD1999999-0011REMSYN070AAXX  15184 83182 32597 80506 10314 20158 39278 40081 84201 333 59001;EQDQ01  00002PRCP06
0198831820999992002121600004-11300-041870FM-12+074799999V0200901N004119999999N0010001N1+02661+01641101091ADDAA106000091GF108991001001999999001011KA1240M+03221MA1999999093001MD1999999-0061REMSYN088AAXX  16004 83182 32994 80908 10266 20164 39300 40109 80001 333 10322 29054 55107 59006;EQDQ01  00002PRCP06
0186831820999992002121612004-11300-041870FM-12+074799999V0200901N005119999999N0100001N1+02681+01641101201ADDAA106000091GF108991001001999999001011KA1240N+02121MA1999999093121MD1999999-0081REMSYN076AAXX  16124 83182 32997 80910 10268 20164 39312 40120 80001 333 20212 59008;EQDQ01  00002PRCP06
0167831820999992002121618004-11300-041870FM-12+074799999V0200901N003612200019N0100001N1+03191+01651100611ADDAA106000091GF108991021021008001001011MA1999999092591MD1999999-0191REMSYN070AAXX  16184 83182 32597 80907 10319 20165 39259 40061 82201 333 59019;EQDQ01  00002PRCP06
0198831820999992002121700004-11300-041870FM-12+074799999V0200901N003119999999N0010001N1+02641+01511100961ADDAA106000091GF108991001001999999001011KA1240M+03341MA1999999092901MD1999999+0101REMSYN088AAXX  17004 83182 32994 80906 10264 20151 39290 40096 80001 333 10334 29048 55099 58010;EQDQ01  00002PRCP06
0186831820999992002121712004-11300-041870FM-12+074799999V0200901N003612200019N0100001N1+02711+01661101131ADDAA106000091GF108991021001017501041011KA1240N+02061MA1999999093071MD1999999-0051REMSYN076AAXX  17124 83182 32797 80907 10271 20166 39307 40113 82041 333 20206 59005;EQDQ01  00002PRCP06
0167831820999992002121718004-11300-041870FM-12+074799999V0200501N001510450019N0100001N1+03301+01641100641ADDAA106000091GF108991041031008001021011MA1999999092641MD1999999+0051REMSYN070AAXX  17184 83182 32597 80503 10330 20164 39264 40064 84321 333 58005;EQDQ01  00002PRCP06
0198831820999992002121800004-11300-041870FM-12+074799999V0201401N001510450019N0010001N1+02181+02041101101ADDAA106000091GF108991021071004501021999KA1240M+03401MA1999999092961MD1999999+0061REMSYN088AAXX  18004 83182 32494 81403 10218 20204 39296 40110 8272/ 333 10340 29068 55073 58006;EQDQ01  00002PRCP06
0186831820999992002121812004-11300-041870FM-12+074799999V0201401N002612200019N0100001N1+02461+01901101351ADDAA106000091GF108991021021008001001011KA1240N+02041MA1999999093141MD1999999+0071REMSYN076AAXX  18124 83182 32597 81405 10246 20190 39314 40135 82201 333 20204 58007;EQDQ01  00002PRCP06
0167831820999992002121818004-11300-041870FM-12+074799999V0201801N002612200019N0100001N1+03041+01491101491ADDAA106000091GF108991041021008001001011MA1999999092661MD1999999+0021REMSYN070AAXX  18184 83182 32597 81805 10304 20149 39266 40149 84201 333 58002;EQDQ01  00002PRCP06
0198831820999992002121900004-11300-041870FM-12+074799999V0200901N004111050019N0010001N1+02601+02011101021ADDAA106000091GF108991031001017501051021KA1240M+03101MA1999999092921MD1999999-0041REMSYN088AAXX  19004 83182 32794 80908 10260 20201 39292 40102 83052 333 10310 29062 55066 59004;EQDQ01  00002PRCP06
0186831820999992002121912004-11300-041870FM-12+074799999V0200901N004110075019N0100001N1+02481+01751101331ADDAA106000091GF108991081051008001999999KA1240N+01931MA1999999093211MD1999999+0071REMSYN076AAXX  19124 83182 32597 80908 10248 20175 39321 40133 885// 333 20193 58007;EQDQ01  00002PRCP06
0167831820999992002121918004-11300-041870FM-12+074799999V0200901N004112200019N0100001N1+03001+01521101011ADDAA106000091GF108991021021008001001011MA1999999092931MD1999999+0271REMSYN070AAXX  19184 83182 32597 80908 10300 20152 39293 40101 82201 333 58027;EQDQ01  00002PRCP06
0198831820999992002122000004-11300-041870FM-12+074799999V0201401N003612200019N0010001N1+02491+01431101321ADDAA106000091GF101991001001999999001011KA1240M+03041MA1999999093181MD1999999+0261REMSYN088AAXX  20004 83182 32994 11407 10249 20143 39318 40132 80001 333 10304 29052 55081 58026;EQDQ01  00002PRCP06
0186831820999992002122012004-11300-041870FM-12+074799999V0200901N005110075019N0100001N1+02421+01621100151ADDAA106000091GF106991061021008001001001KA1240N+01901MA1999999093401MD1999999+0191REMSYN076AAXX  20124 83182 32597 60910 10242 20162 39340 40015 86200 333 20190 58019;EQDQ01  00002PRCP06
0183831820999992002122018004-11300-041870FM-12+074799999V0200901N002612200019N0100001N1+03181+01311101022ADDAA106000091GF102991011021008001001011MA1999999092951MD1999999+0021REMSYN070AAXX  20184 83182 32597 20905 10318 20131 39295 40102 81201 333 58002;EQDQ01+101023APOSLPQ02  00002PRCP06
0208831820999992002122100004-11300-041870FM-12+074799999V0200901N004112200019N0010001N1+02511+01221101271ADDAA106000091GA1001+999999999GF100991001001999999001001KA1240M+03231MA1999999093121MD1999999-0061REMSYN082AAXX  21004 83182 32994 00908 10251 20122 39312 40127 333 10323 29046 55114 59006;EQDQ01  00002PRCP06
0196831820999992002122112004-11300-041870FM-12+074799999V0201401N003112200019N0100001N1+02711+01611101421ADDAA106000091GA1001+999999999GF100991001001999999001001KA1240N+01821MA1999999093311MD1999999-0091REMSYN070AAXX  21124 83182 32997 01406 10271 20161 39331 40142 333 20182 59009;EQDQ01  00002PRCP06
0167831820999992002122118004-11300-041870FM-12+074799999V0201801N004612200019N0100001N1+03371+01141100841ADDAA106000091GF101991011021008001001001MA1999999092841MD1999999-0111REMSYN070AAXX  21184 83182 32597 11809 10337 20114 39284 40084 81200 333 59011;EQDQ01  00002PRCP06
0208831820999992002122200004-11300-041870FM-12+074799999V02099999999992200019N0010001N1+02601+01211101001ADDAA106000091GA1001+999999999GF100991001001999999001001KA1240M+03401MA1999999092971MD1999999-0121REMSYN082AAXX  22004 83182 32994 009// 10260 20121 39297 40100 333 10340 29040 55119 59012;EQDQ01  00002PRCP06
0198831820999992002122300004-11300-041870FM-12+074799999V0200901N002612200019N0010001N1+02681+00871100891ADDAA106000091GF102991011001017501041011KA1240M+03581MA1999999092891MD1999999-0081REMSYN088AAXX  23004 83182 32794 20905 10268 20087 39289 40089 81041 333 10358 29032 55120 59008;EQDQ01  00002PRCP06
0186831820999992002122312004-11300-041870FM-12+074799999V0200901N002112200019N0100001N1+02901+01621101111ADDAA106000091GF108991011021008001001011KA1240N+01871MA1999999093091MD1999999+0071REMSYN076AAXX  23124 83182 32597 80904 10290 20162 39309 40111 81201 333 20187 58007;EQDQ01  00002PRCP06
0167831820999992002122318004-11300-041870FM-12+074799999V0202701N002112200019N0100001N1+03451+01391100601ADDAA106000091GF108991011021008001001011MA1999999092661MD1999999+0051REMSYN070AAXX  23184 83182 32597 82704 10345 20139 39266 40060 81201 333 58005;EQDQ01  00002PRCP06
0198831820999992002122400004-11300-041870FM-12+074799999V0200901N001012200019N0010001N1+02891+01311100851ADDAA106000091GF108991011001017501041011KA1240M+03501MA1999999092881MD1999999-0011REMSYN088AAXX  24004 83182 32794 80902 10289 20131 39288 40085 81041 333 10350 29038 55110 59001;EQDQ01  00002PRCP06
0186831820999992002122412004-11300-041870FM-12+074799999V0203601N001012200019N0100001N1+02941+01591101011ADDAA106000091GF108991011021008001001011KA1240N+02201MA1999999093031MD1999999-0061REMSYN076AAXX  24124 83182 32597 83602 10294 20159 39303 40101 81201 333 20220 59006;EQDQ01  00002PRCP06
0167831820999992002122418004-11300-041870FM-12+074799999V0200501N001010450019N0100001N1+03231+01341100441ADDAA106000091GF108991031021008001061021MA1999999092551MD1999999-0111REMSYN070AAXX  24184 83182 32597 80502 10323 20134 39255 40044 83262 333 59011;EQDQ01  00002PRCP06
0198831820999992002122500004-11300-041870FM-12+074799999V0203601N003610450019N0010001N1+02741+01641100881ADDAA106000091GF108991021021008001061021KA1240M+03581MA1999999092891MD1999999+0011REMSYN088AAXX  25004 83182 32594 83607 10274 20164 39289 40088 82262 333 10358 29043 55098 58001;EQDQ01  00002PRCP06
0190831820999992002122512004-11300-041870FM-12+074799999V0202701N002110450019N0100001N1+02631+02081101061ADDAY161061AY261061GF108991011021008001061011KA1240N+02141MA1999999093011MD1999999-0021MW1021REMSYN088AAXX  25124 83182 21597 82704 10263 20208 39301 40106 70266 81261 333 20214 59002 60034;
0195831820999992002122518004-11300-041870FM-12+074799999V0203601N006210450019N0100001N1+02661+01871100911ADDAA106000091AY121061AY221061GF108991021031008001021999MA1999999092801MD1999999+0251MW1151REMSYN076AAXX  25184 83182 31597 83612 10266 20187 39280 40091 71522 8232/ 333 58025;EQDQ01  00002PRCP06
0198831820999992002122600004-11300-041870FM-12+074799999V0200901N001010450019N0010001N1+02441+02011101151ADDAA106000091GF108991031071004501021999KA1240M+03141MA1999999093041MD1999999+0151REMSYN088AAXX  26004 83182 32494 80902 10244 20201 39304 40115 8372/ 333 10314 29066 55059 58015;EQDQ01  00002PRCP06
0186831820999992002122612004-11300-041870FM-12+074799999V0203201N004110450019N0100001N1+02581+02041101311ADDAA106000091GF108991041021008001061011KA1240N+02161MA1999999093171MD1999999+0061REMSYN076AAXX  26124 83182 32597 83208 10258 20204 39317 40131 84261 333 20216 58006;EQDQ01  00002PRCP06
0195831820999992002122618004-11300-041870FM-12+074799999V0202701N003610450019N0100001N1+02661+02021100821ADDAA106000091AY121061AY221061GF108991031031008001021011MA1999999092721MD1999999-0081MW1151REMSYN076AAXX  26184 83182 31597 82707 10266 20202 39272 40082 71522 83321 333 59008;EQDQ01  00002PRCP06
0202831820999992002122700004-11300-041870FM-12+074799999V0200901N000510042019N0010001N1+02181+02031101211ADDAY161061AY261061GF108991051071004501021999KA1240M+02901MA1999999093051MD1999999+0051MW1021REMSYN100AAXX  27004 83182 21494 80901 10218 20203 39305 40121 70266 8572/ 333 10290 29080 55011 58005 60081;
0190831820999992002122712004-11300-041870FM-12+074799999V0200901N001510450019N0100001N1+02401+01971101301ADDAY161061AY261061GF108991021021008001061021KA1240N+02001MA1999999093091MD1999999-0081MW1021REMSYN088AAXX  27124 83182 21597 80903 10240 20197 39309 40130 70266 82262 333 20200 59008 60124;
0171831820999992002122718004-11300-041870FM-12+074799999V0203601N003610450019N0040001N1+02141+02001101091ADDAY161061AY261061GF108991041071004501021999MA1999999092851MD1999999+0131MW1611REMSYN082AAXX  27184 83182 21496 83607 10214 20200 39285 40109 76166 8472/ 333 58013 60121;
0202831820999992002122800004-11300-041870FM-12+074799999V0203601N001010450019N0010001N1+02161+01921101221ADDAY161061AY221061GF108991041021004501061011KA1240M+02751MA1999999093021MD1999999-0031MW1021REMSYN100AAXX  28004 83182 21494 83602 10216 20192 39302 40122 70262 84261 333 10275 29085 55006 59003 69911;
0190831820999992002122812004-11300-041870FM-12+074799999V0200901N003610042019N0100001N1+02381+01781101261ADDAY121061AY261061GF108991051071004501021999KA1240N+02001MA1999999093041MD1999999-0051MW1211REMSYN088AAXX  28124 83182 21497 80907 10238 20178 39304 40126 72126 8572/ 333 20200 59005 60164;
0171831820999992002122818004-11300-041870FM-12+074799999V0202701N003610450019N0100001N1+02261+02071100891ADDAY121061AY221061GF108991041071004501021999MA1999999092701MD1999999-0151MW1611REMSYN082AAXX  28184 83182 21497 82707 10226 20207 39270 40089 76122 8472/ 333 59015 60011;
0202831820999992002122900004-11300-041870FM-12+074799999V0200501N002610042019N0010001N1+02301+02011101101ADDAY161061AY261061GF108991051071004501021999KA1240M+02641MA1999999092931MD1999999-0091MW1611REMSYN100AAXX  29004 83182 21494 80505 10230 20201 39293 40110 76166 8572/ 333 10264 29082 55009 59009 60021;
0190831820999992002122912004-11300-041870FM-12+074799999V0201401N002610042019N0100001N1+02241+02031101441ADDAY161061AY261061GF108991061071004501021999KA1240N+01911MA1999999093201MD1999999-0161MW1021REMSYN088AAXX  29124 83182 21497 81405 10224 20203 39320 40144 70266 8672/ 333 20191 59016 60234;
0171831820999992002122918004-11300-041870FM-12+074799999V0203601N005110042019N0005001N1+02141+02071101131ADDAY161061AY221061GF108991061071004501021999MA1999999092871MD1999999+0171MW1611REMSYN082AAXX  29184 83182 21493 83610 10214 20207 39287 40113 76162 8672/ 333 58017 69961;
0202831820999992002123000004-11300-041870FM-12+074799999V0202701N001010042019N0005001N1+01941+01871101511ADDAY161061AY261061GF108991061071004501021999KA1240M+02651MA1999999093201MD1999999+0021MW1611REMSYN100AAXX  30004 83182 21493 82702 10194 20187 39320 40151 76166 8672/ 333 10265 29094 55005 58002 60491;
0190831820999992002123012004-11300-041870FM-12+074799999V0200901N004110075019N0100001N1+02281+01901101541ADDAY161061AY221061GF108991081051008001999999KA1240N+01851MA1999999093281MD1999999+0081MW1021REMSYN088AAXX  30124 83182 21597 80908 10228 20190 39328 40154 70262 885// 333 20185 58008 60524;
0195831820999992002123018004-11300-041870FM-12+074799999V0200901N002110450019N0100001N1+02681+02021101061ADDAA106000091AY121061AY221061GF108991041031008001061011MA1999999092891MD1999999+0021MW1151REMSYN076AAXX  30184 83182 31597 80904 10268 20202 39289 40106 71522 84361 333 58002;EQDQ01  00002PRCP06
0202831820999992002123100004-11300-041870FM-12+074799999V0201401N001510450019N0010001N1+02251+02111101401ADDAY161061AY221061GF108991021051008001051011KA1240M+02761MA1999999093161MD1999999-0041MW1021REMSYN100AAXX  31004 83182 21594 81403 10225 20211 39316 40140 70262 82551 333 10276 29082 55033 59004 69921;
0162831820999992002123112004-11300-041870FM-12+074799999V0201401N004610075019N0100001N1+02441+01951101441ADDGF108991081051008001999999KA1240N+02011MA1999999093241MD1999999-0041REMSYN082AAXX  31124 83182 22597 81409 10244 20195 39324 40144 885// 333 20201 59004 69924;
0167831820999992002123118004-11300-041870FM-12+074799999V0201401N003112200019N0100001N1+02881+01801100941ADDAA106000091GF108991021031008001001011MA1999999092851MD1999999-0041REMSYN070AAXX  31184 83182 32597 81406 10288 20180 39285 40094 82301 333 59004;EQDQ01  00002PRCP06
