0181832360999992002010218004-12140-045000FM-12+044099999V0203601N003110075019N0100001N1+02721+02431100491ADDAA106000891AY161061AY261061GF107991071051008001001001MA1999999095631MD1999999-0231MW1021REMSYN081AAXX  02184 83236 21597 73606 10272 20243 39563 4004970266 87500 333 59023 69981;
0182832360999992002010318004-12140-045000FM-12+044099999V0209999C000010450019N0040001N1+02381+02221100661ADDAA106000591AY191061AY251061GF108991041051008001021999MA1999999095771MD1999999+0141MW1151REMSYN082AAXX  03184 83236 21596 80000 10238 20222 39577 40066 71595 8452/ 333 58014 69941;
0198832360999992002010400004-12140-045000FM-12+044099999V0200501N002610042019N0040001N1+02321+02271100961ADDAA199000091GF108991081071004501999999KA1240M+02801MA1999999096071MD1999999+0141REMSYN088AAXX  04004 83236 32496 80505 10232 20227 39607 40096 887// 333 10280 29092 55000 58014;EQDQ01  00002PRCP99
0173832360999992002010412004-12140-045000FM-12+044099999V0200901N001010075019N0040001N1+02441+02271101081ADDAA124000591GF108991061051008001021999KA1240N+02251MA1999999096181MD1999999+0121REMSYN082AAXX  04124 83236 32596 80902 10244 20227 39618 40108 8652/ 333 20225 58012 69944;
0182832360999992002010418004-12140-045000FM-12+044099999V0201401N003110075019N0040001N1+02571+02231100691ADDAA106032091AY161061AY261061GF108991061071008001021999MA1999999095811MD1999999+0041MW1151REMSYN082AAXX  04184 83236 21596 81406 10257 20223 39581 40069 71566 8672/ 333 58004 60321;
0213832360999992002010500004-12140-045000FM-12+044099999V0209999C000010450019N0040001N1+02211+02181101091ADDAA106048091AY161061AY261061GF108991041071008001021999KA1240M+02751MA1999999096171MD1999999+0101MW1501REMSYN100AAXX  05004 83236 21596 80000 10221 20218 39617 40109 75066 8472/ 333 10275 29092 55000 58010 60481;
0201832360999992002010512004-12140-045000FM-12+044099999V0200501N002110075019N0200001N1+02401+02241101201ADDAA124081091AY151061AY251061GF107991061071008001021001KA1240N+02181MA1999999096281MD1999999+0101MW1031REMSYN088AAXX  05124 83236 21598 70504 10240 20224 39628 40120 70355 86720 333 20218 58010 60814;
0182832360999992002010518004-12140-045000FM-12+044099999V0203601N003110075019N0040001N1+02281+02181100971ADDAA106029091AY161061AY251061GF108991051071008001021999MA1999999096051MD1999999+0241MW1511REMSYN082AAXX  05184 83236 21596 83606 10228 20218 39605 40097 75165 8572/ 333 58024 60291;
0213832360999992002010600004-12140-045000FM-12+044099999V0209999C000010075019N0040001N1+02271+02211101081ADDAA106001091AY121061AY221061GF108991061071008001999999KA1240M+02761MA1999999096171MD1999999+0001MW1151REMSYN100AAXX  06004 83236 21596 80000 10227 20221 39617 40108 71522 867// 333 10276 29095 55007 58000 60011;
0201832360999992002010612004-12140-045000FM-12+044099999V0200501N001010075019N0040001N1+02431+02251101001ADDAA124031091AY121061AY221061GF108991051071008001021001KA1240N+02221MA1999999096101MD1999999-0181MW1151REMSYN088AAXX  06124 83236 21596 80502 10243 20225 39610 40100 71522 85720 333 20222 59018 60314;
0167832360999992002010618004-12140-045000FM-12+044099999V0200501N002610450019N0200001N1+03061+02301100451ADDAA199000091GF106991031041008001051071MA1999999095631MD1999999-0421REMSYN070AAXX  06184 83236 32598 60505 10306 20230 39563 40045 83457 333 59042;EQDQ01  00002PRCP99
0226832360999992002010700004-12140-045000FM-12+044099999V0201401N001510075019N0200001N1+02321+02251100801ADDAA199000091AY121061AY221061GF105991051051008001001001KA1240M+03141MA1999999095911MD1999999-0261MW1131REMSYN094AAXX  07004 83236 31598 51403 10232 20225 39591 40080 71322 85500 333 10314 29086 55087 59026;EQDQ01  00002PRCP99
0201832360999992002010712004-12140-045000FM-12+044099999V0200501N002110075019N0020001N1+02381+02281101001ADDAA124036191AY161061AY251061GF108991061071008001021999KA1240N+02181MA1999999096101MD1999999+0001MW1151REMSYN088AAXX  07124 83236 21595 80504 10238 20228 39610 40100 71565 8672/ 333 20218 58000 60364;
0182832360999992002010718004-12140-045000FM-12+044099999V0209999C000010075019N0040001N1+02561+02351100591ADDAA106002091AY151061AY251061GF108991071071008001021999MA1999999095721MD1999999+0091MW1031REMSYN082AAXX  07184 83236 21596 80000 10256 20235 39572 40059 70355 8772/ 333 58009 60021;
0213832360999992002010800004-12140-045000FM-12+044099999V0209999C000010075019N0040001N1+02231+02151100901ADDAA106002091AY151061AY251061GF108991061071008001999999KA1240M+02771MA1999999095921MD1999999+0081MW1031REMSYN100AAXX  08004 83236 21596 80000 10223 20215 39592 40090 70355 867// 333 10277 29094 55000 58008 60021;
0201832360999992002010812004-12140-045000FM-12+044099999V0200501N003610075019N0040001N1+02351+02171101071ADDAA124007191AY151061AY251061GF108991061071008001021999KA1240N+02191MA1999999096161MD1999999+0061MW1101REMSYN088AAXX  08124 83236 21596 80507 10235 20217 39616 40107 71055 8672/ 333 20219 58006 60074;
0167832360999992002010818004-12140-045000FM-12+044099999V0200501N004610075019N0100001N1+02741+02171100671ADDAA199000091GF107991051071008001031001MA1999999095801MD1999999+0081REMSYN070AAXX  08184 83236 32597 70509 10274 20217 39580 40067 85730 333 58008;EQDQ01  00002PRCP99
0198832360999992002010900004-12140-045000FM-12+044099999V0200501N001510075019N0100001N1+02291+02091101081ADDAA199000091GF106991051071008001021001KA1240M+02821MA1999999096161MD1999999+0241REMSYN088AAXX  09004 83236 32597 60503 10229 20209 39616 40108 85720 333 10282 29085 55015 58024;EQDQ01  00002PRCP99
0186832360999992002010912004-12140-045000FM-12+044099999V0200501N003110075019N0100001N1+02391+02151101231ADDAA199000091GF108991061071008001021999KA1240N+02191MA1999999096321MD1999999+0161REMSYN076AAXX  09124 83236 32597 80506 10239 20215 39632 40123 8672/ 333 20219 58016;EQDQ01  00002PRCP99
0167832360999992002010918004-12140-045000FM-12+044099999V0203601N004110075019N0100001N1+02791+02211100841ADDAA199000091GF107991051041008001081051MA1999999095971MD1999999+0171REMSYN070AAXX  09184 83236 32597 73608 10279 20221 39597 40084 85485 333 58017;EQDQ01  00002PRCP99
0213832360999992002011000004-12140-045000FM-12+044099999V0203601N001510075019N0040001N1+02251+02171101181ADDAA106000591AY151061AY251061GF108991061071008001021999KA1240M+02481MA1999999096261MD1999999+0101MW1031REMSYN100AAXX  10004 83236 21596 83603 10225 20217 39626 40118 70355 8672/ 333 10248 29088 55038 58010 69961;
0173832360999992002011012004-12140-045000FM-12+044099999V0200501N002110450019N0200001N1+02481+02051101391ADDAA124005191GF105991031021008001061051KA1240N+02141MA1999999096471MD1999999+0151REMSYN082AAXX  10124 83236 22598 50504 10248 20205 39647 40139 83265 333 20214 58015 60054;
0205832360999992002011018004-12140-045000FM-12+044099999V0200501N003610001519N0200001N1+02861+02011101031ADDAA199000091GA1071+000159059GF199999041021008001041071MA1999999096161MD1999999+0101REMSYN076AAXX  10184 83236 32598 60507 10286 20201 39616 40103 84247 333 58010 87600;EQDQ01+000062SCOTCVQ02  00002PRCP99
0208832360999992002011100004-12140-045000FM-12+044099999V0209999C000012200019N0200001N1+02311+02141101241ADDAA199000091GA1001+999999999GF100991001001999999001001KA1240M+02971MA1999999096341MD1999999+0081REMSYN082AAXX  11004 83236 32998 00000 10231 20214 39634 40124 333 10297 29082 55096 58008;EQDQ01  00002PRCP99
0167832360999992002011118004-12140-045000FM-12+044099999V0203601N004112200019N0200001N1+02871+02111101091ADDAA199000091GF104991031041008001061001MA1999999096211MD1999999+0051REMSYN070AAXX  11184 83236 32598 43608 10287 20211 39621 40109 83460 333 58005;EQDQ01  00002PRCP99
0226832360999992002011200004-12140-045000FM-12+044099999V0202301N001012200019N0200001N1+02531+02091101331ADDAA199000091AY121061AY221061GF104991041051008001001001KA1240M+03041MA1999999096451MD1999999+0111MW1131REMSYN094AAXX  12004 83236 31598 42302 10253 20209 39645 40133 71322 84500 333 10304 29071 55094 58011;EQDQ01  00002PRCP99
0186832360999992002011212004-12140-045000FM-12+044099999V0200501N002110450019N0200001N1+02601+02121101411ADDAA199000091GF105991031021008001061031KA1240N+02091MA1999999096531MD1999999+0011REMSYN076AAXX  12124 83236 32598 50504 10260 20212 39653 40141 83263 333 20209 58001;EQDQ01  00002PRCP99
0167832360999992002011218004-12140-045000FM-12+044099999V0203601N002110450019N0200001N1+02951+02261100981ADDAA199000091GF106991031041008001071051MA1999999096121MD1999999-0091REMSYN070AAXX  12184 83236 32598 63604 10295 20226 39612 40098 83475 333 59009;EQDQ01  00002PRCP99
0226832360999992002011300004-12140-045000FM-12+044099999V0202301N001012200019N0200001N1+02411+02241101151ADDAA199000091AY121061AY221061GF103991031051008001001001KA1240M+03131MA1999999096271MD1999999-0181MW1131REMSYN094AAXX  13004 83236 31598 32302 10241 20224 39627 40115 71322 83500 333 10313 29081 55092 59018;EQDQ01  00002PRCP99
0186832360999992002011312004-12140-045000FM-12+044099999V0200501N002110450019N0200001N1+02581+02151101261ADDAA199000091GF106991031021008001061071KA1240N+02161MA1999999096371MD1999999-0161REMSYN076AAXX  13124 83236 32598 60504 10258 20215 39637 40126 83267 333 20216 59016;EQDQ01  00002PRCP99
0167832360999992002011318004-12140-045000FM-12+044099999V0200501N004110450019N0200001N1+03001+02191100871ADDAA199000091GF106991031041008001071051MA1999999096021MD1999999-0101REMSYN070AAXX  13184 83236 32598 60508 10300 20219 39602 40087 83475 333 59010;EQDQ01  00002PRCP99
0226832360999992002011400004-12140-045000FM-12+044099999V0209999C000010075019N0100001N1+02521+02331101101ADDAA199000091AY121061AY221061GF108991051051008001999999KA1240M+03101MA1999999096231MD1999999-0041MW1131REMSYN094AAXX  14004 83236 31597 80000 10252 20233 39623 40110 71322 855// 333 10310 29079 55093 59004;EQDQ01  00002PRCP99
0186832360999992002011412004-12140-045000FM-12+044099999V0202701N001010075019N0100001N1+02521+02211101191ADDAA199000091GF107991051071008001041001KA1240N+02201MA1999999096321MD1999999-0051REMSYN076AAXX  14124 83236 32597 72702 10252 20221 39632 40119 85740 333 20220 59005;EQDQ01  00002PRCP99
0182832360999992002011418004-12140-045000FM-12+044099999V0201801N001510075019N0040001N1+02281+02231100911ADDAA106007191AY191061AY251061GF108991061071008001021999MA1999999096001MD1999999-0021MW1501REMSYN082AAXX  14184 83236 21596 81803 10228 20223 39600 40091 75095 8672/ 333 59002 60071;
0213832360999992002011500004-12140-045000FM-12+044099999V0209999C000010075019N0040001N1+02271+02231100891ADDAA106002091AY151061AY251061GF108991061071008001021999KA1240M+02981MA1999999096001MD1999999-0231MW1031REMSYN100AAXX  15004 83236 21596 80000 10227 20223 39600 40089 70355 8672/ 333 10298 29094 55026 59023 60021;
0118832360999992002011512004-12140-045000FM-12+044099999V0200501N002119999999N0100001N1+02481+02251999999ADDAA124002091GF107991999999008001999999MA1999999096381REMSYN054AAXX  15124 83236 21597 70504 10248 20225 39638 60024;
0232832360999992002011600004-12140-045000FM-12+044099999V0209999C000019999999N0040001N1+02101+99999100681ADDAA106014091AY191061AY261061GF107991999081008001999999KA1240M+02861MA1999999097861MD1999999-0271MW1031REMSYN100AAXX  16004 83236 21596 70000 10210 20239 39786 40068 70396 888// 333 10286 29094 55001 59027 60141;EQDQ01+000082SCOTLC
0201832360999992002011612004-12140-045000FM-12+044099999V0200501N002610075019N0020001N1+02301+02161100841ADDAA124015091AY151061AY251061GF108991061071008001021999KA1240N+02111MA1999999095931MD1999999-0071MW1161REMSYN088AAXX  16124 83236 21595 80505 10230 20216 39593 40084 71655 8672/ 333 20211 59007 60154;
0182832360999992002011618004-12140-045000FM-12+044099999V0200901N002110120019N0100001N1+02641+02351100921ADDAA106006191AY161061AY261061GF107991051081008001031001MA1999999096031MD1999999+0431MW1031REMSYN082AAXX  16184 83236 21597 70904 10264 20235 39603 40092 70366 85830 333 58043 60061;
0213832360999992002011700004-12140-045000FM-12+044099999V0200501N002110075019N0020001N1+02291+02231100731ADDAA106003091AY151061AY251061GF108991061051008001021999KA1240M+02431MA1999999095831MD1999999+0041MW1131REMSYN100AAXX  17004 83236 21595 80504 10229 20223 39583 40073 71355 8652/ 333 10243 29082 55003 58004 60031;
0201832360999992002011712004-12140-045000FM-12+044099999V0200501N002610075019N0040001N1+02281+02201100981ADDAA124017091AY161061AY251061GF108991061071008001021999KA1240N+02171MA1999999096071MD1999999+0141MW1161REMSYN088AAXX  17124 83236 21596 80505 10228 20220 39607 40098 71665 8672/ 333 20217 58014 60174;
0182832360999992002011718004-12140-045000FM-12+044099999V0200501N002610075019N0040001N1+02421+02151100811ADDAA106002091AY151061AY251061GF108991051071008001021999MA1999999095911MD1999999-0121MW1031REMSYN082AAXX  17184 83236 32596 80505 10242 20215 39591 40081 70355 8572/ 333 59012 60021;
0232832360999992002011800004-12140-045000FM-12+044099999V0200901N001510075019N0040001N1+02251+02161100971ADDAA106000191AY151061AY251061GF108991071071008001021999KA1240M+02501MA1999999095052MD1999999+0221MW1031REMSYN100AAXX  18004 83236 21596 80903 10225 20216 39505 40097 70355 8772/ 333 10250 29092 55000 58022 69921;EQDQ01+095053APOSP 
0173832360999992002011812004-12140-045000FM-12+044099999V0200501N001510075019N0100001N1+02401+02171101151ADDAA124002091GF108991061071008001051999KA1240N+02151MA1999999096221MD1999999+0151REMSYN082AAXX  18124 83236 21597 80503 10240 20217 39622 40115 8675/ 333 20215 58015 60024;
0182832360999992002011818004-12140-045000FM-12+044099999V0200501N005110075019N0040001N1+02431+02281100921ADDAA106014091AY151061AY251061GF108991071071008001021999MA1999999096011MD1999999+0101MW1031REMSYN082AAXX  18184 83236 21596 80510 10243 20228 39601 40092 70355 8772/ 333 58010 60141;
0198832360999992002011900004-12140-045000FM-12+044099999V0200501N001010075019N0040001N1+02321+02051101021ADDAA199000091GF108991061071008001021999KA1240M+02881MA1999999096121MD1999999+0071REMSYN088AAXX  19004 83236 32596 80502 10232 20205 39612 40102 8672/ 333 10288 29087 55020 58007;EQDQ01  00002PRCP99
0173832360999992002011912004-12140-045000FM-12+044099999V0200501N001510450019N0200001N1+02511+02231101101ADDAA124014091GF105991031021008001061071KA1240N+02061MA1999999096201MD1999999-0021REMSYN082AAXX  19124 83236 22598 50503 10251 20223 39620 40110 83267 333 20206 59002 60144;
0167832360999992002011918004-12140-045000FM-12+044099999V0203601N003110075019N0200001N1+02841+02121100781ADDAA199000091GF107991051041008001071051MA1999999095921MD1999999-0091REMSYN070AAXX  19184 83236 32598 73606 10284 20212 39592 40078 85475 333 59009;EQDQ01  00002PRCP99
0198832360999992002012000004-12140-045000FM-12+044099999V0201801N001511050019N0200001N1+02331+02201100961ADDAA199000091GF105991021001022501051071KA1240M+02971MA1999999096071MD1999999-0051REMSYN088AAXX  20004 83236 32898 51803 10233 20220 39607 40096 82057 333 10297 29084 55066 59005;EQDQ01  00002PRCP99
0186832360999992002012012004-12140-045000FM-12+044099999V0209999C000012200019N0100001N1+02501+02191101281ADDAA199000091GF104991011011008001001041KA1240N+02001MA1999999096371MD1999999+0171REMSYN076AAXX  20124 83236 32597 40000 10250 20219 39637 40128 81104 333 20200 58017;EQDQ01  00002PRCP99
0167832360999992002012018004-12140-045000FM-12+044099999V0203601N003612200019N0100001N1+03031+02101100911ADDAA199000091GF105991031021008001001041MA1999999096061MD1999999+0141REMSYN070AAXX  20184 83236 32597 53607 10303 20210 39606 40091 83204 333 58014;EQDQ01  00002PRCP99
0198832360999992002012100004-12140-045000FM-12+044099999V0202701N000512200019N0100001N1+02411+02241101101ADDAA199000091GF104991021021008001001041KA1240M+03041MA1999999096211MD1999999+0141REMSYN088AAXX  21004 83236 32597 42701 10241 20224 39621 40110 82204 333 10304 29081 55098 58014;EQDQ01  00002PRCP99
0186832360999992002012112004-12140-045000FM-12+044099999V0203601N000512200019N0200001N1+02551+02131101371ADDAA199000091GF102991021011008001001001KA1240N+02041MA1999999096481MD1999999+0111REMSYN076AAXX  21124 83236 32598 23601 10255 20213 39648 40137 82100 333 20204 58011;EQDQ01  00002PRCP99
0167832360999992002012118004-12140-045000FM-12+044099999V0203601N003112200019N0200001N1+03071+02381101021ADDAA199000091GF104991041091008001001001MA1999999096161MD1999999+0101REMSYN070AAXX  21184 83236 32598 43606 10307 20238 39616 40102 84900 333 58010;EQDQ01  00002PRCP99
0198832360999992002012200004-12140-045000FM-12+044099999V0202301N001010450019N0100001N1+02501+02371101201ADDAA199000091GF105991041081008001061001KA1240M+03191MA1999999096321MD1999999+0111REMSYN088AAXX  22004 83236 32597 52302 10250 20237 39632 40120 84860 333 10319 29077 55113 58011;EQDQ01  00002PRCP99
0186832360999992002012212004-12140-045000FM-12+044099999V0203601N001012200019N0200001N1+02621+02161101501ADDAA199000091GF102991021011008001001001KA1240N+02061MA1999999096611MD1999999+0131REMSYN076AAXX  22124 83236 32598 23602 10262 20216 39661 40150 82100 333 20206 58013;EQDQ01  00002PRCP99
0167832360999992002012218004-12140-045000FM-12+044099999V0200901N002112200019N0100001N1+03151+02101101051ADDAA199000091GF104991041021008001001001MA1999999096211MD1999999+0051REMSYN070AAXX  22184 83236 32597 40904 10315 20210 39621 40105 84200 333 58005;EQDQ01  00002PRCP99
0198832360999992002012300004-12140-045000FM-12+044099999V0209999C000012200019N0100001N1+02461+02031101061ADDAA199000091GF104991041001022501051001KA1240M+03261MA1999999096191MD1999999-0131REMSYN088AAXX  23004 83236 32897 40000 10246 20203 39619 40106 84050 333 10326 29071 55114 59013;EQDQ01  00002PRCP99
0186832360999992002012312004-12140-045000FM-12+044099999V0201801N000512200019N0200001N1+02461+02031101501ADDAA199000091GF103991001001999999001041KA1240N+01921MA1999999096591MD1999999-0021REMSYN076AAXX  23124 83236 32998 31801 10246 20203 39659 40150 80004 333 20192 59002;EQDQ01  00002PRCP99
0183832360999992002012318004-12140-045000FM-12+044099999V0203601N001512200019N0200001N1+03061+01991101051ADDAA199000091GF104991999021008001001001MA1999999096171MD1999999-0041REMSYN070AAXX  23184 83236 32598 43603 10306 20199 39617 40105 83200 333 59004;EQDQ01+000032SCOTLCQ02  00002PRCP99
0198832360999992002012400004-12140-045000FM-12+044099999V0203601N002612200019N0100001N1+02581+02121101131ADDAA199000091GF103991031021008001001001KA1240M+03171MA1999999096251MD1999999+0061REMSYN088AAXX  24004 83236 32597 33605 10258 20212 39625 40113 83200 333 10317 29070 55113 58006;EQDQ01  00002PRCP99
0186832360999992002012412004-12140-045000FM-12+044099999V0200501N001012200019N0200001N1+02471+02071101321ADDAA199000091GF102991001001999999001041KA1240N+01881MA1999999096431MD1999999-0161REMSYN076AAXX  24124 83236 32998 20502 10247 20207 39643 40132 80004 333 20188 59016;EQDQ01  00002PRCP99
0167832360999992002012418004-12140-045000FM-12+044099999V0200501N003112200019N0200001N1+03111+01941100941ADDAA199000091GF103991021021008001001071MA1999999096081MD1999999-0091REMSYN070AAXX  24184 83236 32598 30506 10311 20194 39608 40094 82207 333 59009;EQDQ01  00002PRCP99
0198832360999992002012500004-12140-045000FM-12+044099999V0201801N001512200019N0100001N1+02341+02151101011ADDAA199000091GF103991001001999999001071KA1240M+03211MA1999999096121MD1999999-0131REMSYN088AAXX  25004 83236 32997 31803 10234 20215 39612 40101 80007 333 10321 29077 55116 59013;EQDQ01  00002PRCP99
0186832360999992002012512004-12140-045000FM-12+044099999V0209999C000012200019N0200001N1+02641+02121101301ADDAA199000091GF103991001001999999001041KA1240N+01941MA1999999096411MD1999999-0021REMSYN076AAXX  25124 83236 32998 30000 10264 20212 39641 40130 80004 333 20194 59002;EQDQ01  00002PRCP99
0167832360999992002012518004-12140-045000FM-12+044099999V0203601N002111050019N0100001N1+03211+02031100841ADDAA199000091GF106991031021008001001021MA1999999095991MD1999999-0091REMSYN070AAXX  25184 83236 32597 63604 10321 20203 39599 40084 83202 333 59009;EQDQ01  00002PRCP99
0198832360999992002012600004-12140-045000FM-12+044099999V0200501N002110450019N0100001N1+02781+02181100971ADDAA199000091GF106991021071008001011001KA1240M+03321MA1999999096141MD1999999-0021REMSYN088AAXX  26004 83236 32597 60504 10278 20218 39614 40097 82710 333 10332 29066 55097 59002;EQDQ01  00002PRCP99
0186832360999992002012612004-12140-045000FM-12+044099999V0200501N004612200019N0100001N1+02671+02241101331ADDAA199000091GF105991031031008001001041KA1240N+02091MA1999999096481MD1999999+0071REMSYN076AAXX  26124 83236 32597 50509 10267 20224 39648 40133 83304 333 20209 58007;EQDQ01  00002PRCP99
0167832360999992002012618004-12140-045000FM-12+044099999V0203601N003112200019N0100001N1+03181+02251100831ADDAA199000091GF105991041021008001001011MA1999999096001MD1999999+0011REMSYN070AAXX  26184 83236 32597 53606 10318 20225 39600 40083 84201 333 58001;EQDQ01  00002PRCP99
0198832360999992002012700004-12140-045000FM-12+044099999V0201801N002110450019N0100001N1+02411+02151101021ADDAA199000091GF106991031071008001021001KA1240M+03261MA1999999096171MD1999999+0031REMSYN088AAXX  27004 83236 31597 61804 10241 20215 39617 40102 83720 333 10326 29077 55093 58003;EQDQ01  00002PRCP99
0186832360999992002012712004-12140-045000FM-12+044099999V0203601N002112200019N0200001N1+02721+02241101271ADDAA199000091GF103991011011008001001081KA1240N+02091MA1999999096391MD1999999-0091REMSYN076AAXX  27124 83236 32598 33604 10272 20224 39639 40127 81108 333 20209 59009;EQDQ01  00002PRCP99
0167832360999992002012718004-12140-045000FM-12+044099999V0200501N003112200019N0200001N1+03151+02041100781ADDAA199000091GF103991031011008001001001MA1999999095951MD1999999-0051REMSYN070AAXX  27184 83236 32598 30506 10315 20204 39595 40078 83100 333 59005;EQDQ01  00002PRCP99
0226832360999992002012800004-12140-045000FM-12+044099999V0201801N001012200019N0200001N1+02581+02211100841ADDAA199000091AY101061AY221061GF103991021071008001011001KA1240M+03271MA1999999096001MD1999999-0171MW1131REMSYN094AAXX  28004 83236 31598 31802 10258 20221 39600 40084 71302 82710 333 10327 29072 55105 59017;EQDQ01  00002PRCP99
0186832360999992002012812004-12140-045000FM-12+044099999V0202301N002112200019N0100001N1+02601+02191101231ADDAA199000091GF104991041021008001001001KA1240N+02001MA1999999096361MD1999999-0031REMSYN076AAXX  28124 83236 32597 42304 10260 20219 39636 40123 84200 333 20200 59003;EQDQ01  00002PRCP99
0167832360999992002012818004-12140-045000FM-12+044099999V0203601N003612200019N0200001N1+03261+01911100641ADDAA199000091GF103991031021008001001001MA1999999096821MD1999999-0131REMSYN070AAXX  28184 83236 32598 33607 10326 20191 39682 40064 83200 333 59013;EQDQ01  00002PRCP99
0242832360999992002012900004-12140-045000FM-12+044099999V0209999C000012200019N0100001N1+02451+02251100741ADDAA199000091AY101061AY221061GF104991021031008001011001KA1240M+03381MA1999999095882MD1999999-0121MW1131REMSYN094AAXX  29004 83236 31597 40000 10245 20225 39588 40074 71302 82310 333 10338 29075 55104 59012;EQDQ01+095883APOSP Q02  00002PRCP99
0186832360999992002012912004-12140-045000FM-12+044099999V0209999C000010450019N0200001N1+02651+02231101101ADDAA199000091GF105991031021008001031001KA1240N+02021MA1999999096231MD1999999-0131REMSYN076AAXX  29124 83236 32598 50000 10265 20223 39623 40110 83230 333 20202 59013;EQDQ01  00002PRCP99
0167832360999992002012918004-12140-045000FM-12+044099999V0203601N003112200019N0200001N1+03281+02131100691ADDAA199000091GF103991031021008001001001MA1999999095861MD1999999+0041REMSYN070AAXX  29184 83236 32598 33606 10328 20213 39586 40069 83200 333 58004;EQDQ01  00002PRCP99
0214832360999992002013000004-12140-045000FM-12+044099999V0202301N001012200019N0200001N1+02541+02331100751ADDAA199000091GF103991999001022501041001KA1240M+03361MA1999999095911MD1999999+0031REMSYN088AAXX  30004 83236 32898 32302 10254 20233 39591 40075 82040 333 10336 29076 55112 58003;EQDQ01+000022SCOTLCQ02  00002PRCP99
0186832360999992002013012004-12140-045000FM-12+044099999V0203601N003610120019N0100001N1+02761+02231101181ADDAA199000091GF105991051081008001001001KA1240N+02181MA1999999096331MD1999999+0101REMSYN076AAXX  30124 83236 32597 53607 10276 20223 39633 40118 85800 333 20218 58010;EQDQ01  00002PRCP99
0167832360999992002013018004-12140-045000FM-12+044099999V0203601N002112200019N0200001N1+03271+02021100731ADDAA199000091GF103991031021008001001001MA1999999095911MD1999999+0051REMSYN070AAXX  30184 83236 32598 33604 10327 20202 39591 40073 83200 333 58005;EQDQ01  00002PRCP99
0198832360999992002013100004-12140-045000FM-12+044099999V0202701N001512200019N0100001N1+02591+02191100781ADDAA199000091GF103991031001022501011001KA1240M+03391MA1999999095951MD1999999+0041REMSYN088AAXX  31004 83236 32897 32703 10259 20219 39595 40078 83010 333 10339 29070 55111 58004;EQDQ01  00002PRCP99
0196832360999992002013112004-12140-045000FM-12+044099999V0200901N002112200019N0200001N1+02721+02031101081ADDAA199000091GA1001+999999999GF100991001001999999001001KA1240N+02171MA1999999096231MD1999999-0101REMSYN070AAXX  31124 83236 32998 00904 10272 20203 39623 40108 333 20217 59010;EQDQ01  00002PRCP99
0167832360999992002013118004-12140-045000FM-12+044099999V0200501N002612200019N0200001N1+03201+01991100731ADDAA199000091GF103991011011008001001041MA1999999095921MD1999999+0011REMSYN070AAXX  31184 83236 32598 30505 10320 20199 39592 40073 81104 333 58001;EQDQ01  00002PRCP99
0226832360999992002020100004-12140-045000FM-12+044099999V0201801N001012200019N0100001N1+02561+02131100851ADDAA199000091AY101061AY221061GF104991021071008001021001KA1240M+03281MA1999999096011MD1999999+0061MW1131REMSYN094AAXX  01004 83236 31597 41802 10256 20213 39601 40085 71302 82720 333 10328 29067 55108 58006;EQDQ01  00002PRCP99
0196832360999992002020112004-12140-045000FM-12+044099999V0203601N001012200019N0200001N1+02531+02001101241ADDAA199000091GA1001+999999999GF100991001001999999001001KA1240N+01831MA1999999096361MD1999999+0131REMSYN070AAXX  01124 83236 32998 03602 10253 20200 39636 40124 333 20183 58013;EQDQ01  00002PRCP99
0167832360999992002020118004-12140-045000FM-12+044099999V0203601N003112200019N0200001N1+03211+01931100801ADDAA199000091GF103991031011008001001001MA1999999095941MD1999999+0021REMSYN070AAXX  01184 83236 32598 33606 10321 20193 39594 40080 83100 333 58002;EQDQ01  00002PRCP99
0226832360999992002020200004-12140-045000FM-12+044099999V0203601N001012200019N0200001N1+02571+02081100881ADDAA199000091AY101061AY221061GF104991021071008001021001KA1240M+03331MA1999999096021MD1999999+0011MW1131REMSYN094AAXX  02004 83236 31598 43602 10257 20208 39602 40088 71302 82720 333 10333 29068 55112 58001;EQDQ01  00002PRCP99
0186832360999992002020212004-12140-045000FM-12+044099999V0202301N001010450019N0200001N1+02651+02161101231ADDAA199000091GF107991041021008001021001KA1240N+02151MA1999999096361MD1999999+0001REMSYN076AAXX  02124 83236 32598 72302 10265 20216 39636 40123 84220 333 20215 58000;EQDQ01  00002PRCP99
0167832360999992002020218004-12140-045000FM-12+044099999V0202701N001512200019N0200001N1+03301+02021100651ADDAA199000091GF104991041021008001001001MA1999999095841MD1999999-0101REMSYN070AAXX  02184 83236 32598 42703 10330 20202 39584 40065 84200 333 59010;EQDQ01  00002PRCP99
0226832360999992002020300004-12140-045000FM-12+044099999V0202301N001010450019N0100001N1+02691+02411100841ADDAA199000091AY101061AY221061GF106991041071008001021001KA1240M+03451MA1999999096001MD1999999-0021MW1131REMSYN094AAXX  03004 83236 31597 62302 10269 20241 39600 40084 71302 84720 333 10345 29073 55078 59002;EQDQ01  00002PRCP99
0201832360999992002020312004-12140-045000FM-12+044099999V0203601N003610075019N0040001N1+02241+02171101101ADDAA124003091AY161061AY261061GF108991051051008001021999KA1240N+02141MA1999999096211MD1999999-0151MW1401REMSYN088AAXX  03124 83236 21596 83607 10224 20217 39621 40110 74066 8552/ 333 20214 59015 60034;
0182832360999992002020318004-12140-045000FM-12+044099999V0203601N001510450019N0020001N1+02421+02321100891ADDAA106023191AY161061AY261061GF108991041071008001021999MA1999999095971MD1999999+0131MW1621REMSYN082AAXX  03184 83236 21595 83603 10242 20232 39597 40089 76266 8472/ 333 58013 60231;
0226832360999992002020400004-12140-045000FM-12+044099999V0209999C000010042019N0010001N1+02211+02151101131ADDAA106033091AY191061AY261061GF108991081071004501999999KA1240M+02731MA1999999096191MD1999999+0191REMSYN100AAXX  04004 83236 21494 80000 10221 20215 39619 40113 74896 887// 333 10273 29096 55000 58019 60331;EQDQ01+000482PRSWM1
0201832360999992002020412004-12140-045000FM-12+044099999V0209999C000010075019N0100001N1+02371+02151101211ADDAA124057991AY151061AY251061GF108991071071008001041999KA1240N+02081MA1999999096291MD1999999+0081MW1031REMSYN088AAXX  04124 83236 21597 80000 10237 20215 39629 40121 70355 8774/ 333 20208 58008 60584;
0183832360999992002020418004-12140-045000FM-12+044099999V0202701N001510120019N0200001N1+02871+02191100831ADDAA199000091GF108991999081008001021999MA1999999095961MD1999999-0011REMSYN070AAXX  04184 83236 32598 82703 10287 20219 39596 40083 8882/ 333 59001;EQDQ01+000082SCOTLCQ02  00002PRCP99
0232832360999992002020500004-12140-045000FM-12+044099999V0200501N002610075019N0020001N1+02231+02121101221ADDAA106003091AY151061AY251061GF108991999071008001021999KA1240M+02971MA1999999096301MD1999999+0111MW1161REMSYN100AAXX  05004 83236 21595 80505 10223 20212 39630 40122 71655 8872/ 333 10297 29086 55009 58011 60031;EQDQ01+000082SCOTLC
0201832360999992002020512004-12140-045000FM-12+044099999V0209999C000010075019N0040001N1+02331+02131101371ADDAA124011991AY161061AY251061GF108991071071008001021001KA1240N+02131MA1999999096441MD1999999+0151MW1101REMSYN088AAXX  05124 83236 21596 80000 10233 20213 39644 40137 71065 87720 333 20213 58015 60124;
0167832360999992002020518004-12140-045000FM-12+044099999V0203601N001510075019N0200001N1+02831+02151100911ADDAA199000091GF106991051041008001071031MA1999999096031MD1999999+0071REMSYN070AAXX  05184 83236 32598 63603 10283 20215 39603 40091 85473 333 58007;EQDQ01  00002PRCP99
0213832360999992002020600004-12140-045000FM-12+044099999V0200501N002110042019N0020001N1+02141+02121101331ADDAA106015091AY161061AY251061GF108991081071004501999999KA1240M+02941MA1999999096391MD1999999+0091MW1511REMSYN100AAXX  06004 83236 21495 80504 10214 20212 39639 40133 75165 887// 333 10294 29088 55018 58009 60151;
0201832360999992002020612004-12140-045000FM-12+044099999V0201801N001010075019N0040001N1+02311+02181101381ADDAA124023191AY151061AY251061GF108991071071008001021999KA1240N+02141MA1999999096431MD1999999-0011MW1031REMSYN088AAXX  06124 83236 21596 81802 10231 20218 39643 40138 70355 8772/ 333 20214 59001 60234;
0167832360999992002020618004-12140-045000FM-12+044099999V0200501N003110450019N0200001N1+02871+02311100841ADDAA199000091GF105991031021008001051071MA1999999095971MD1999999-0061REMSYN070AAXX  06184 83236 32598 50506 10287 20231 39597 40084 83257 333 59006;EQDQ01  00002PRCP99
0183832360999992002020718004-12140-045000FM-12+044099999V0200501N003610075019N0200001N1+02831+02151100841ADDAA199000091GF106991999041008001001001MA1999999095961MD1999999-0011REMSYN070AAXX  07184 83236 32598 60507 10283 20215 39596 40084 85400 333 59001;EQDQ01+000052SCOTLCQ02  00002PRCP99
0213832360999992002020800004-12140-045000FM-12+044099999V0201401N001010075019N0040001N1+02251+02161101041ADDAA106003091AY161061AY261061GF106991051041008001071001KA1240M+03051MA1999999096131MD1999999-0141MW1031REMSYN100AAXX  08004 83236 21596 61402 10225 20216 39613 40104 70366 85470 333 10305 29085 55077 59014 60031;
0173832360999992002020812004-12140-045000FM-12+044099999V0203601N001010075019N0100001N1+02451+02211101221ADDAA124003091GF108991061071008001021999KA1240N+02191MA1999999096431MD1999999-0071REMSYN082AAXX  08124 83236 22597 83602 10245 20221 39643 40122 8672/ 333 20219 59007 60034;
0167832360999992002020818004-12140-045000FM-12+044099999V0200501N002110120019N0200001N1+02881+02181100891ADDAA199000091GF107991061081008001051001MA1999999096041MD1999999+0081REMSYN070AAXX  08184 83236 32598 70504 10288 20218 39604 40089 86850 333 58008;EQDQ01  00002PRCP99
0198832360999992002020900004-12140-045000FM-12+044099999V0201401N001010120019N0040001N1+02331+02221101121ADDAA199000091GF108991061081008001041001KA1240M+02981MA1999999096221MD1999999+0091REMSYN088AAXX  09004 83236 32596 81402 10233 20222 39622 40112 86840 333 10298 29085 55037 58009;EQDQ01  00002PRCP99
0186832360999992002020912004-12140-045000FM-12+044099999V0209999C000010075019N0200001N1+02581+02231101311ADDAA199000091GF106991051041008001001071KA1240N+02151MA1999999096411MD1999999+0071REMSYN076AAXX  09124 83236 32598 60000 10258 20223 39641 40131 85407 333 20215 58007;EQDQ01  00002PRCP99
0167832360999992002020918004-12140-045000FM-12+044099999V0200501N002610450019N0200001N1+02841+02091100911ADDAA199000091GF106991041031008001071031MA1999999096031MD1999999-0011REMSYN070AAXX  09184 83236 32598 60505 10284 20209 39603 40091 84373 333 59001;EQDQ01  00002PRCP99
0226832360999992002021000004-12140-045000FM-12+044099999V0209999C000010075019N0040001N1+02421+02351101121ADDAA199000091AY121061AY221061GF108991061051008001081999KA1240M+03051MA1999999096241MD1999999+0021MW1131REMSYN094AAXX  10004 83236 31596 80000 10242 20235 39624 40112 71322 8658/ 333 10305 29084 55058 58002;EQDQ01  00002PRCP99
0186832360999992002021012004-12140-045000FM-12+044099999V0209999C000010450019N0100001N1+02421+02261101341ADDAA199000091GF107991041021008001061051KA1240N+02191MA1999999096431MD1999999+0021REMSYN076AAXX  10124 83236 32597 70000 10242 20226 39643 40134 84265 333 20219 58002;EQDQ01  00002PRCP99
0167832360999992002021018004-12140-045000FM-12+044099999V0200501N003110450019N0200001N1+02961+02211100821ADDAA199000091GF106991041031008001071051MA1999999095971MD1999999-0061REMSYN070AAXX  10184 83236 32598 60506 10296 20221 39597 40082 84375 333 59006;EQDQ01  00002PRCP99
0213832360999992002021100004-12140-045000FM-12+044099999V0202301N001510450019N0040001N1+02211+02101101151ADDAA106000191AY151061AY251061GF108991041031008001061999KA1240M+03031MA1999999096231MD1999999-0011MW1031REMSYN100AAXX  11004 83236 21596 82303 10221 20210 39623 40115 70355 8436/ 333 10303 29086 55066 59001 69921;
0173832360999992002021112004-12140-045000FM-12+044099999V0200501N003110450019N0200001N1+02591+02211101261ADDAA124000191GF106991031021008001061051KA1240N+02111MA1999999096351MD1999999-0081REMSYN082AAXX  11124 83236 22598 60506 10259 20221 39635 40126 83265 333 20211 59008 69924;
0167832360999992002021118004-12140-045000FM-12+044099999V0200501N003611050019N0200001N1+02991+02011100711ADDAA199000091GF106991041051008001001051MA1999999095861MD1999999-0111REMSYN070AAXX  11184 83236 32598 60507 10299 20201 39586 40071 84505 333 59011;EQDQ01  00002PRCP99
0226832360999992002021200004-12140-045000FM-12+044099999V0202701N001010075019N0040001N1+02391+02281101051ADDAA199000091AY121061AY221061GF108991061051008001071999KA1240M+03121MA1999999096171MD1999999+0061MW1131REMSYN094AAXX  12004 83236 31596 82702 10239 20228 39617 40105 71322 8657/ 333 10312 29081 55072 58006;EQDQ01  00002PRCP99
0186832360999992002021212004-12140-045000FM-12+044099999V0200501N002110075019N0100001N1+02401+02031101451ADDAA199000091GF107991051021008001061051KA1240N+02101MA1999999096541MD1999999+0191REMSYN076AAXX  12124 83236 32597 70504 10240 20203 39654 40145 85265 333 20210 58019;EQDQ01  00002PRCP99
0167832360999992002021218004-12140-045000FM-12+044099999V0200501N004110450019N0200001N1+02911+02101101051ADDAA199000091GF106991041041008001071031MA1999999096171MD1999999+0311REMSYN070AAXX  12184 83236 32598 60508 10291 20210 39617 40105 84473 333 58031;EQDQ01  00002PRCP99
0198832360999992002021300004-12140-045000FM-12+044099999V0202701N002112200019N0200001N1+02351+02131101191ADDAA199000091GF103991031001022501051001KA1240M+03011MA1999999096291MD1999999+0121REMSYN088AAXX  13004 83236 32898 32704 10235 20213 39629 40119 83050 333 10301 29080 55073 58012;EQDQ01  00002PRCP99
0186832360999992002021312004-12140-045000FM-12+044099999V0200501N002612200019N0200001N1+02461+02011101371ADDAA199000091GF103991031021008001001001KA1240N+01881MA1999999096461MD1999999-0081REMSYN076AAXX  13124 83236 32598 30505 10246 20201 39646 40137 83200 333 20188 59008;EQDQ01  00002PRCP99
0167832360999992002021318004-12140-045000FM-12+044099999V0200501N004112200019N0200001N1+02991+01921100951ADDAA199000091GF103991031021008001001001MA1999999096071MD1999999-0101REMSYN070AAXX  13184 83236 32598 30508 10299 20192 39607 40095 83200 333 59010;EQDQ01  00002PRCP99
0186832360999992002021412004-12140-045000FM-12+044099999V0200501N001512200019N0200001N1+02521+01931101341ADDAA199000091GF103991001001999999001031KA1240N+01791MA1999999096431MD1999999-0031REMSYN076AAXX  14124 83236 32998 30503 10252 20193 39643 40134 80003 333 20179 59003;EQDQ01  00002PRCP99
0167832360999992002021418004-12140-045000FM-12+044099999V0200501N002111050019N0200001N1+03031+01961100961ADDAA199000091GF105991021021008001001071MA1999999096081MD1999999+0011REMSYN070AAXX  14184 83236 32598 50504 10303 20196 39608 40096 82207 333 58001;EQDQ01  00002PRCP99
0208832360999992002021500004-12140-045000FM-12+044099999V0201801N001012200019N0200001N1+02321+02091101151ADDAA199000091GA1001+999999999GF100991001001999999001001KA1240M+03131MA1999999096251MD1999999+0031REMSYN082AAXX  15004 83236 32998 01802 10232 20209 39625 40115 333 10313 29074 55113 58003;EQDQ01  00002PRCP99
0186832360999992002021512004-12140-045000FM-12+044099999V0200501N001012200019N0200001N1+02521+02091101391ADDAA199000091GF102991001001999999001051KA1240N+01861MA1999999096481MD1999999+0051REMSYN076AAXX  15124 83236 32998 20502 10252 20209 39648 40139 80005 333 20186 58005;EQDQ01  00002PRCP99
0167832360999992002021518004-12140-045000FM-12+044099999V0203601N002110450019N0200001N1+03161+02201100901ADDAA199000091GF105991021021008001071051MA1999999096041MD1999999-0041REMSYN070AAXX  15184 83236 32598 53604 10316 20220 39604 40090 82275 333 59004;EQDQ01  00002PRCP99
0208832360999992002021600004-12140-045000FM-12+044099999V0202301N001012200019N0200001N1+02511+02231101101ADDAA199000091GA1001+999999999GF100991001001999999001001KA1240M+03271MA1999999096221MD1999999-0031REMSYN082AAXX  16004 83236 32998 02302 10251 20223 39622 40110 333 10327 29076 55104 59003;EQDQ01  00002PRCP99
0186832360999992002021612004-12140-045000FM-12+044099999V0200501N003110450019N0200001N1+02521+02131101361ADDAA199000091GF105991031021008001051071KA1240N+02021MA1999999096471MD1999999-0011REMSYN076AAXX  16124 83236 32598 50506 10252 20213 39647 40136 83257 333 20202 59001;EQDQ01  00002PRCP99
0167832360999992002021618004-12140-045000FM-12+044099999V0200501N004110450019N0200001N1+03181+02221100861ADDAA199000091GF106991031021008001061071MA1999999096021MD1999999-0021REMSYN070AAXX  16184 83236 32598 60508 10318 20222 39602 40086 83267 333 59002;EQDQ01  00002PRCP99
0226832360999992002021700004-12140-045000FM-12+044099999V0201801N001510450019N0200001N1+02381+02241101111ADDAA199000091AY121061AY221061GF105991031051008001061001KA1240M+03251MA1999999096221MD1999999+0001MW1131REMSYN094AAXX  17004 83236 31598 51803 10238 20224 39622 40111 71322 83560 333 10325 29080 55090 58000;EQDQ01  00002PRCP99
0186832360999992002021712004-12140-045000FM-12+044099999V0202701N001012200019N0200001N1+02601+02311101221ADDAA199000091GF103991011021012501001031KA1240N+02091MA1999999096341MD1999999-0131REMSYN076AAXX  17124 83236 32698 32702 10260 20231 39634 40122 81203 333 20209 59013;EQDQ01  00002PRCP99
0167832360999992002021718004-12140-045000FM-12+044099999V0200501N003110450019N0100001N1+03061+02171100831ADDAA199000091GF107991041041008001071051MA1999999095981MD1999999-0041REMSYN070AAXX  17184 83236 32597 70506 10306 20217 39598 40083 84475 333 59004;EQDQ01  00002PRCP99
0226832360999992002021800004-12140-045000FM-12+044099999V0201801N001512200019N0200001N1+02451+02271100981ADDAA199000091AY121061AY221061GF104991041051008001001001KA1240M+03211MA1999999096111MD1999999-0111MW1131REMSYN094AAXX  18004 83236 31598 41803 10245 20227 39611 40098 71322 84500 333 10321 29081 55077 59011;EQDQ01  00002PRCP99
0186832360999992002021812004-12140-045000FM-12+044099999V0201801N001011050019N0200001N1+02591+02311101141ADDAA199000091GF105991021021012501001051KA1240N+02171MA1999999096261MD1999999-0081REMSYN076AAXX  18124 83236 32698 51802 10259 20231 39626 40114 82205 333 20217 59008;EQDQ01  00002PRCP99
0167832360999992002021818004-12140-045000FM-12+044099999V0200501N002611050019N0200001N1+03231+02141100601ADDAA199000091GF105991031031012501001071MA1999999095791MD1999999-0191REMSYN070AAXX  18184 83236 32698 50505 10323 20214 39579 40060 83307 333 59019;EQDQ01  00002PRCP99
0226832360999992002021900004-12140-045000FM-12+044099999V0202301N001512200019N0200001N1+02451+02171100881ADDAA199000091AY121061AY221061GF103991021051008001001051KA1240M+03331MA1999999096021MD1999999-0091MW1131REMSYN094AAXX  19004 83236 31598 32303 10245 20217 39602 40088 71322 82505 333 10333 29074 55091 59009;EQDQ01  00002PRCP99
0186832360999992002021912004-12140-045000FM-12+044099999V0200501N002112200019N0200001N1+02731+02051101201ADDAA199000091GF103991001001999999001041KA1240N+02191MA1999999096341MD1999999+0081REMSYN076AAXX  19124 83236 32998 30504 10273 20205 39634 40120 80004 333 20219 58008;EQDQ01  00002PRCP99
0167832360999992002021918004-12140-045000FM-12+044099999V0200501N002112200019N0100001N1+03211+02121100751ADDAA199000091GF106991021011008001001061MA1999999095931MD1999999+0141REMSYN070AAXX  19184 83236 32597 60504 10321 20212 39593 40075 82106 333 58014;EQDQ01  00002PRCP99
0198832360999992002022000004-12140-045000FM-12+044099999V0209999C000012200019N0100001N1+02521+02291100881ADDAA199000091GF103991031001022501041001KA1240M+03321MA1999999096031MD1999999+0011REMSYN088AAXX  20004 83236 32897 30000 10252 20229 39603 40088 83040 333 10332 29074 55092 58001;EQDQ01  00002PRCP99
0186832360999992002022012004-12140-045000FM-12+044099999V0200501N003612200019N0200001N1+02701+02081101261ADDAA199000091GF103991001001999999001041KA1240N+02071MA1999999096391MD1999999+0051REMSYN076AAXX  20124 83236 32998 30507 10270 20208 39639 40126 80004 333 20207 58005;EQDQ01  00002PRCP99
0167832360999992002022018004-12140-045000FM-12+044099999V0200501N003112200019N0200001N1+03181+01981100871ADDAA199000091GF103991031011008001001001MA1999999096031MD1999999+0101REMSYN070AAXX  20184 83236 32598 30506 10318 20198 39603 40087 83100 333 58010;EQDQ01  00002PRCP99
0208832360999992002022100004-12140-045000FM-12+044099999V0200501N002112200019N0100001N1+02581+01901100941ADDAA199000091GA1001+999999999GF100991001001999999001001KA1240M+03291MA1999999096101MD1999999+0071REMSYN082AAXX  21004 83236 32997 00504 10258 20190 39610 40094 333 10329 29062 55111 58007;EQDQ01  00002PRCP99
0186832360999992002022112004-12140-045000FM-12+044099999V0209999C000012200019N0200001N1+02551+01781101201ADDAA199000091GF102991001001999999001041KA1240N+01821MA1999999096331MD1999999-0061REMSYN076AAXX  21124 83236 32998 20000 10255 20178 39633 40120 80004 333 20182 59006;EQDQ01  00002PRCP99
0167832360999992002022118004-12140-045000FM-12+044099999V0203601N003612200019N0200001N1+03211+01751100751ADDAA199000091GF104991031011008001001041MA1999999095901MD1999999-0131REMSYN070AAXX  21184 83236 32598 43607 10321 20175 39590 40075 83104 333 59013;EQDQ01  00002PRCP99
0198832360999992002022200004-12140-045000FM-12+044099999V0209999C000012200019N0100001N1+02441+02071100901ADDAA199000091GF102991021011008001001001KA1240M+03331MA1999999096021MD1999999-0071REMSYN088AAXX  22004 83236 32597 20000 10244 20207 39602 40090 82100 333 10333 29066 55110 59007;EQDQ01  00002PRCP99
0196832360999992002022212004-12140-045000FM-12+044099999V0200501N002112200019N0200001N1+02561+01901101051ADDAA199000091GA1001+999999999GF100991001001999999001001KA1240N+01751MA1999999096171MD1999999-0161REMSYN070AAXX  22124 83236 32998 00504 10256 20190 39617 40105 333 20175 59016;EQDQ01  00002PRCP99
0183832360999992002022218004-12140-045000FM-12+044099999V0203201N001512200019N0200001N1+03331+01611100561ADDAA199000091GF103991999011008001001001MA1999999095721MD1999999-0181REMSYN070AAXX  22184 83236 32598 33203 10333 20161 39572 40056 82100 333 59018;EQDQ01+000022SCOTLCQ02  00002PRCP99
0202832360999992002022300004-12140-045000FM-12+044099999V0202701N001012200019N0200001N1+02561+02021999999ADDAA199000091GA1001+999999999GF100991001001999999001001KA1240M+03441MA1999999095881MD1999999-0151REMSYN076AAXX  23004 83236 32998 02702 10256 20202 39588 333 10344 29062 55111 59015;EQDQ01  00002PRCP99
0186832360999992002022312004-12140-045000FM-12+044099999V0209999C000012200019N0200001N1+02501+01891101151ADDAA199000091GF104991001001999999001071KA1240N+01711MA1999999096281MD1999999+0111REMSYN076AAXX  23124 83236 32998 40000 10250 20189 39628 40115 80007 333 20171 58011;EQDQ01  00002PRCP99
0167832360999992002022318004-12140-045000FM-12+044099999V0203601N002112200019N0200001N1+03421+01651100711ADDAA199000091GF104991021021008001001021MA1999999095871MD1999999+0151REMSYN070AAXX  23184 83236 32598 43604 10342 20165 39587 40071 82202 333 58015;EQDQ01  00002PRCP99
0198832360999992002022400004-12140-045000FM-12+044099999V0209999C000012200019N0100001N1+02381+01911100991ADDAA199000091GF103991031041008001001001KA1240M+03541MA1999999096111MD1999999+0231REMSYN088AAXX  24004 83236 32597 30000 10238 20191 39611 40099 83400 333 10354 29064 55101 58023;EQDQ01  00002PRCP99
0186832360999992002022412004-12140-045000FM-12+044099999V0209999C000012200019N0200001N1+02571+02021101321ADDAA199000091GF103991001001999999001021KA1240N+01751MA1999999096431MD1999999+0151REMSYN076AAXX  24124 83236 32998 30000 10257 20202 39643 40132 80002 333 20175 58015;EQDQ01  00002PRCP99
0167832360999992002022418004-12140-045000FM-12+044099999V0203201N001512200019N0200001N1+03401+01501100881ADDAA199000091GF105991031021008001001061MA1999999096031MD1999999+0161REMSYN070AAXX  24184 83236 32598 53203 10340 20150 39603 40088 83206 333 58016;EQDQ01  00002PRCP99
0167832360999992002022518004-12140-045000FM-12+044099999V0200501N005111050019N0200001N1+03391+01751100701ADDAA199000091GF105991021021008001001051MA1999999095881MD1999999-0151REMSYN070AAXX  25184 83236 32598 50510 10339 20175 39588 40070 82205 333 59015;EQDQ01  00002PRCP99
0198832360999992002022600004-12140-045000FM-12+044099999V0201801N001012200019N0100001N1+02321+01961100941ADDAA199000091GF103991001001999999001041KA1240M+03491MA1999999096071MD1999999-0021REMSYN088AAXX  26004 83236 32997 31802 10232 20196 39607 40094 80004 333 10349 29066 55104 59002;EQDQ01  00002PRCP99
0186832360999992002022612004-12140-045000FM-12+044099999V0209999C000019999999N0200001N1+02491+01961101231ADDAA199000091GF108991001001999999001021KA1240N+01811MA1999999096331MD1999999+0041REMSYN076AAXX  26124 83236 32998 80000 10249 20196 39633 40123 80002 333 20181 58004;EQDQ01  00002PRCP99
0167832360999992002022618004-12140-045000FM-12+044099999V0203601N009812200019N0200001N1+03271+01841100751ADDAA199000091GF102991021011008001001001MA1999999095911MD1999999+0031REMSYN070AAXX  26184 83236 32598 23619 10327 20184 39591 40075 82100 333 58003;EQDQ01  00002PRCP99
0186832360999992002022712004-12140-045000FM-12+044099999V0200501N000512200019N0200001N1+02541+01831101301ADDAA199000091GF103991001001999999001041KA1240N+01771MA1999999096401MD1999999+0071REMSYN076AAXX  27124 83236 32998 30501 10254 20183 39640 40130 80004 333 20177 58007;EQDQ01  00002PRCP99
0167832360999992002022718004-12140-045000FM-12+044099999V0200501N001512200019N0200001N1+03281+01821100821ADDAA199000091GF104991021021008001001021MA1999999095971MD1999999+0061REMSYN070AAXX  27184 83236 32598 40503 10328 20182 39597 40082 82202 333 58006;EQDQ01  00002PRCP99
0198832360999992002022800004-12140-045000FM-12+044099999V0202701N001012200019N0100001N1+02481+02051101031ADDAA199000091GF104991001001999999001051KA1240M+03391MA1999999096151MD1999999-0021REMSYN088AAXX  28004 83236 32997 42702 10248 20205 39615 40103 80005 333 10339 29065 55103 59002;EQDQ01  00002PRCP99
0186832360999992002022812004-12140-045000FM-12+044099999V0201801N001012200019N0200001N1+02501+01701101261ADDAA199000091GF103991001001999999001021KA1240N+01721MA1999999096371MD1999999-0031REMSYN076AAXX  28124 83236 32998 31802 10250 20170 39637 40126 80002 333 20172 59003;EQDQ01  00002PRCP99
0167832360999992002022818004-12140-045000FM-12+044099999V0201401N002612200019N0200001N1+03331+01481100771ADDAA199000091GF103991021021008001001021MA1999999095921MD1999999-0051REMSYN070AAXX  28184 83236 32598 31405 10333 20148 39592 40077 82202 333 59005;EQDQ01  00002PRCP99
0208832360999992002030100004-12140-045000FM-12+044099999V0209999C000012200019N0200001N1+02431+02011101021ADDAA199000091GA1001+999999999GF100991001001999999001001KA1240M+03441MA1999999096141MD1999999-0011REMSYN082AAXX  01004 83236 32998 00000 10243 20201 39614 40102 333 10344 29062 55100 59001;EQDQ01  00002PRCP99
0186832360999992002030112004-12140-045000FM-12+044099999V0202701N001012200019N0200001N1+02581+01801101241ADDAA199000091GF103991001001999999001041KA1240N+01801MA1999999096351MD1999999-0021REMSYN076AAXX  01124 83236 32998 32702 10258 20180 39635 40124 80004 333 20180 59002;EQDQ01  00002PRCP99
0167832360999992002030118004-12140-045000FM-12+044099999V0201401N001510075019N0200001N1+03201+01511100901ADDAA199000091GF105991051021008001001001MA1999999096061MD1999999+0141REMSYN070AAXX  01184 83236 32598 51403 10320 20151 39606 40090 85200 333 58014;EQDQ01  00002PRCP99
0195832360999992002030218004-12140-045000FM-12+044099999V0200901N004610075019N0200001N1+03011+01781100871ADDAA199000091AY101061AY221061GF106991061071008001001001MA1999999095981MD1999999-0081MW1151REMSYN076AAXX  02184 83236 31598 60909 10301 20178 39598 40087 71502 86700 333 59008;EQDQ01  00002PRCP99
0186832360999992002030412004-12140-045000FM-12+044099999V0202301N000512200019N0200001N1+02561+02071101341ADDAA199000091GF104991001001999999001051KA1240N+01961MA1999999096441MD1999999+0131REMSYN076AAXX  04124 83236 32998 42301 10256 20207 39644 40134 80005 333 20196 58013;EQDQ01  00002PRCP99
0167832360999992002030418004-12140-045000FM-12+044099999V0200501N003111050019N0200001N1+03151+01801100961ADDAA199000091GF105991041031008001001031MA1999999096021MD1999999+0111REMSYN070AAXX  04184 83236 32598 50506 10315 20180 39602 40096 84303 333 58011;EQDQ01  00002PRCP99
0201832360999992002030512004-12140-045000FM-12+044099999V0201801N001510450019N0100001N1+02361+02091101421ADDAA124004191AY161061AY261061GF107991041051008001021001KA1240N+01951MA1999999096521MD1999999+0081MW1021REMSYN088AAXX  05124 83236 21597 71803 10236 20209 39652 40142 70266 84520 333 20195 58008 60044;
0167832360999992002030518004-12140-045000FM-12+044099999V0200501N005110450019N0100001N1+02991+01861101081ADDAA199000091GF107991031021008001011001MA1999999096191MD1999999+0171REMSYN070AAXX  05184 83236 32597 70510 10299 20186 39619 40108 83210 333 58017;EQDQ01  00002PRCP99
0198832360999992002030600004-12140-045000FM-12+044099999V0209999C000010450019N0100001N1+02541+02191101141ADDAA199000091GF107991031051008001021001KA1240M+03151MA1999999096251MD1999999-0071REMSYN088AAXX  06004 83236 32597 70000 10254 20219 39625 40114 83520 333 10315 29074 55041 59007;EQDQ01  00002PRCP99
0186832360999992002030612004-12140-045000FM-12+044099999V0202301N001010075019N0100001N1+02421+02211101311ADDAA199000091GF108991061071008001021999KA1240N+02011MA1999999096421MD1999999-0101REMSYN076AAXX  06124 83236 32597 82302 10242 20221 39642 40131 8672/ 333 20201 59010;EQDQ01  00002PRCP99
0167832360999992002030618004-12140-045000FM-12+044099999V0201401N001010450019N0200001N1+03131+01921100851ADDAA199000091GF106991041021008001071051MA1999999096001MD1999999-0191REMSYN070AAXX  06184 83236 32598 61402 10313 20192 39600 40085 84275 333 59019;EQDQ01  00002PRCP99
0198832360999992002030700004-12140-045000FM-12+044099999V0209999C000012200019N0200001N1+02391+02071101011ADDAA199000091GF102991021021012501001001KA1240M+03281MA1999999096121MD1999999-0131REMSYN088AAXX  07004 83236 32698 20000 10239 20207 39612 40101 82200 333 10328 29076 55043 59013;EQDQ01  00002PRCP99
0186832360999992002030712004-12140-045000FM-12+044099999V0209999C000010450019N0200001N1+02531+02051101331ADDAA199000091GF107991031021008001091081KA1240N+02011MA1999999096431MD1999999+0011REMSYN076AAXX  07124 83236 32598 70000 10253 20205 39643 40133 83298 333 20201 58001;EQDQ01  00002PRCP99
0167832360999992002030718004-12140-045000FM-12+044099999V0200501N002110450019N0200001N1+03231+01881100881ADDAA199000091GF106991031021008001071031MA1999999096031MD1999999+0031REMSYN070AAXX  07184 83236 32598 60504 10323 20188 39603 40088 83273 333 58003;EQDQ01  00002PRCP99
0226832360999992002030800004-12140-045000FM-12+044099999V0202701N001510075019N0100001N1+02581+02081101161ADDAA199000091AY191061AY221061GF108991051051008001021999KA1240M+03441MA1999999096291MD1999999+0171MW1131REMSYN094AAXX  08004 83236 31597 82703 10258 20208 39629 40116 71392 8552/ 333 10344 29067 55074 58017;EQDQ01  00002PRCP99
0186832360999992002030812004-12140-045000FM-12+044099999V0200501N002111050019N0200001N1+02761+02041101361ADDAA199000091GF105991021021012501081031KA1240N+02251MA1999999096501MD1999999+0071REMSYN076AAXX  08124 83236 32698 50504 10276 20204 39650 40136 82283 333 20225 58007;EQDQ01  00002PRCP99
0167832360999992002030818004-12140-045000FM-12+044099999V0201801N001511050019N0200001N1+03251+01931100861ADDAA199000091GF106991041021008001001051MA1999999096041MD1999999+0011REMSYN070AAXX  08184 83236 32598 61803 10325 20193 39604 40086 84205 333 58001;EQDQ01  00002PRCP99
0198832360999992002030900004-12140-045000FM-12+044099999V0201801N001012200019N0200001N1+02571+02111101021ADDAA199000091GF102991001001999999001031KA1240M+03511MA1999999096171MD1999999-0121REMSYN088AAXX  09004 83236 32998 21802 10257 20211 39617 40102 80003 333 10351 29066 55092 59012;EQDQ01  00002PRCP99
0186832360999992002030912004-12140-045000FM-12+044099999V0202301N001010450019N0200001N1+02611+01821101291ADDAA199000091GF105991031021012501071051KA1240N+02011MA1999999096421MD1999999-0081REMSYN076AAXX  09124 83236 32698 52302 10261 20182 39642 40129 83275 333 20201 59008;EQDQ01  00002PRCP99
0167832360999992002030918004-12140-045000FM-12+044099999V0202701N001011050019N0200001N1+03331+01851100821ADDAA199000091GF105991031021008001001031MA1999999096021MD1999999-0021REMSYN070AAXX  09184 83236 32598 52702 10333 20185 39602 40082 83203 333 59002;EQDQ01  00002PRCP99
0198832360999992002031000004-12140-045000FM-12+044099999V0201801N001012200019N0200001N1+02521+02191101031ADDAA199000091GF103991021001022501061031KA1240M+03451MA1999999096161MD1999999-0011REMSYN088AAXX  10004 83236 32898 31802 10252 20219 39616 40103 82063 333 10345 29067 55081 59001;EQDQ01  00002PRCP99
0186832360999992002031012004-12140-045000FM-12+044099999V0200501N001012200019N0200001N1+02671+01951101271ADDAA199000091GF102991001001999999001031KA1240N+01981MA1999999096401MD1999999-0021REMSYN076AAXX  10124 83236 32998 20502 10267 20195 39640 40127 80003 333 20198 59002;EQDQ01  00002PRCP99
0198832360999992002031100004-12140-045000FM-12+044099999V0201801N001512200019N0200001N1+02511+02001100891ADDAA199000091GF102991021001022501071001KA1240M+03551MA1999999096041MD1999999-0121REMSYN088AAXX  11004 83236 32898 21803 10251 20200 39604 40089 82070 333 10355 29066 55108 59012;EQDQ01  00002PRCP99
0186832360999992002031112004-12140-045000FM-12+044099999V0200501N001011050019N0200001N1+02751+02021101291ADDAA199000091GF105991021001022501071051KA1240N+02171MA1999999096431MD1999999+0031REMSYN076AAXX  11124 83236 32898 50502 10275 20202 39643 40129 82075 333 20217 58003;EQDQ01  00002PRCP99
0167832360999992002031118004-12140-045000FM-12+044099999V0200501N002610075019N0100001N1+03321+01801100811ADDAA199000091GF107991051041008001071051MA1999999096021MD1999999+0081REMSYN070AAXX  11184 83236 32597 70505 10332 20180 39602 40081 85475 333 58008;EQDQ01  00002PRCP99
0226832360999992002031200004-12140-045000FM-12+044099999V0200501N001011050019N0200001N1+02621+02161101121ADDAA199000091AY121061AY221061GF105991041051008001001071KA1240M+03461MA1999999096281MD1999999+0241MW1131REMSYN094AAXX  12004 83236 31598 50502 10262 20216 39628 40112 71322 84507 333 10346 29065 55089 58024;EQDQ01  00002PRCP99
0186832360999992002031212004-12140-045000FM-12+044099999V0202701N001010450019N0200001N1+02691+01991101521ADDAA199000091GF106991041021008001061051KA1240N+02171MA1999999096651MD1999999+0221REMSYN076AAXX  12124 83236 32598 62702 10269 20199 39665 40152 84265 333 20217 58022;EQDQ01  00002PRCP99
0167832360999992002031218004-12140-045000FM-12+044099999V0203201N002110450019N0200001N1+03311+01911100991ADDAA199000091GF106991031041008001051031MA1999999096181MD1999999+0161REMSYN070AAXX  12184 83236 32598 63204 10331 20191 39618 40099 83453 333 58016;EQDQ01  00002PRCP99
0198832360999992002031300004-12140-045000FM-12+044099999V0201801N001012200019N0200001N1+02481+02211101181ADDAA199000091GF104991041001022501061001KA1240M+03441MA1999999096321MD1999999+0041REMSYN088AAXX  13004 83236 32898 41802 10248 20221 39632 40118 84060 333 10344 29070 55058 58004;EQDQ01  00002PRCP99
0186832360999992002031312004-12140-045000FM-12+044099999V0200901N001012200019N0200001N1+02751+02071101371ADDAA199000091GF104991021001022501061051KA1240N+02231MA1999999096501MD1999999-0151REMSYN076AAXX  13124 83236 32898 40902 10275 20207 39650 40137 82065 333 20223 59015;EQDQ01  00002PRCP99
0167832360999992002031318004-12140-045000FM-12+044099999V0201401N003111050019N0200001N1+03451+01721100831ADDAA199000091GF106991041021008001001071MA1999999096051MD1999999-0131REMSYN070AAXX  13184 83236 32598 61406 10345 20172 39605 40083 84207 333 59013;EQDQ01  00002PRCP99
0198832360999992002031400004-12140-045000FM-12+044099999V0201401N001512200019N0200001N1+02501+02071100991ADDAA199000091GF104991031021008001061001KA1240M+03571MA1999999096141MD1999999-0181REMSYN088AAXX  14004 83236 32598 41403 10250 20207 39614 40099 83260 333 10357 29064 55096 59018;EQDQ01  00002PRCP99
0186832360999992002031412004-12140-045000FM-12+044099999V0200901N001012200019N0200001N1+02801+01871101181ADDAA199000091GF103991001001999999001051KA1240N+02011MA1999999096331MD1999999-0171REMSYN076AAXX  14124 83236 32998 30902 10280 20187 39633 40118 80005 333 20201 59017;EQDQ01  00002PRCP99
0198832360999992002031500004-12140-045000FM-12+044099999V0209999C000012200019N0200001N1+02531+02151100841ADDAA199000091GF102991001001999999001071KA1240M+03581MA1999999096001MD1999999-0141REMSYN088AAXX  15004 83236 32998 20000 10253 20215 39600 40084 80007 333 10358 29063 55113 59014;EQDQ01  00002PRCP99
0186832360999992002031512004-12140-045000FM-12+044099999V0200501N004611050019N0200001N1+02861+01841101111ADDAA199000091GF105991031001022501071051KA1240N+02141MA1999999096271MD1999999-0061REMSYN076AAXX  15124 83236 32898 50509 10286 20184 39627 40111 83075 333 20214 59006;EQDQ01  00002PRCP99
0167832360999992002031518004-12140-045000FM-12+044099999V0203601N003610450019N0200001N1+03491+01841100671ADDAA199000091GF106991031021012501081051MA1999999095801MD1999999-0141REMSYN070AAXX  15184 83236 32698 63607 10349 20184 39580 40067 83285 333 59014;EQDQ01  00002PRCP99
0198832360999992002031600004-12140-045000FM-12+044099999V0209999C000012200019N0200001N1+02601+02171100781ADDAA199000091GF102991001001999999001071KA1240M+03581MA1999999095961MD1999999-0041REMSYN088AAXX  16004 83236 32998 20000 10260 20217 39596 40078 80007 333 10358 29062 55099 59004;EQDQ01  00002PRCP99
0186832360999992002031612004-12140-045000FM-12+044099999V0201401N003110450019N0200001N1+02681+02091101161ADDAA199000091GF106991031021008001051071KA1240N+02231MA1999999096311MD1999999+0041REMSYN076AAXX  16124 83236 32598 61406 10268 20209 39631 40116 83257 333 20223 58004;EQDQ01  00002PRCP99
0167832360999992002031618004-12140-045000FM-12+044099999V0200501N001510450019N0200001N1+03421+01911100541ADDAA199000091GF106991031021008001071071MA1999999095751MD1999999-0051REMSYN070AAXX  16184 83236 32598 60503 10342 20191 39575 40054 83277 333 59005;EQDQ01  00002PRCP99
0226832360999992002031700004-12140-045000FM-12+044099999V0202301N001512200019N0200001N1+02661+02071100881ADDAA199000091AY121061AY221061GF104991041051008001001001KA1240M+03541MA1999999096041MD1999999+0081MW1131REMSYN094AAXX  17004 83236 31598 42303 10266 20207 39604 40088 71322 84500 333 10354 29063 55081 58008;EQDQ01  00002PRCP99
0186832360999992002031712004-12140-045000FM-12+044099999V0200901N001510450019N0200001N1+02691+02161101081ADDAA199000091GF106991031021012501071051KA1240N+02211MA1999999096241MD1999999-0071REMSYN076AAXX  17124 83236 32698 60903 10269 20216 39624 40108 83275 333 20221 59007;EQDQ01  00002PRCP99
0167832360999992002031718004-12140-045000FM-12+044099999V0202301N002110450019N0200001N1+03371+01971100561ADDAA199000091GF106991041021008001051071MA1999999095771MD1999999+0021REMSYN070AAXX  17184 83236 32598 62304 10337 20197 39577 40056 84257 333 58002;EQDQ01  00002PRCP99
0226832360999992002031800004-12140-045000FM-12+044099999V0209999C000010075019N0100001N1+02541+02111101051ADDAA199000091AY121061AY221061GF108991061051008001071999KA1240M+03481MA1999999096191MD1999999+0151MW1171REMSYN094AAXX  18004 83236 31597 80000 10254 20211 39619 40105 71722 8657/ 333 10348 29068 55085 58015;EQDQ01  00002PRCP99
0173832360999992002031812004-12140-045000FM-12+044099999V0203201N001011050019N0200001N1+02621+02101101081ADDAA124000191GF105991021021008001001071KA1240N+02111MA1999999096221MD1999999-0021REMSYN082AAXX  18124 83236 22598 53202 10262 20210 39622 40108 82207 333 20211 59002 69924;
0167832360999992002031818004-12140-045000FM-12+044099999V0200501N003110450019N0200001N1+03421+01941100571ADDAA199000091GF105991031021008001051071MA1999999095781MD1999999+0011REMSYN070AAXX  18184 83236 32598 50506 10342 20194 39578 40057 83257 333 58001;EQDQ01  00002PRCP99
0201832360999992002031912004-12140-045000FM-12+044099999V0209999C000010450019N0200001N1+02421+02281101091ADDAA124007991AY161061AY251061GF106991031021008001061071KA1240N+02281MA1999999096211MD1999999-0011MW1031REMSYN088AAXX  19124 83236 21598 60000 10242 20228 39621 40109 70365 83267 333 20228 59001 60084;
0167832360999992002031918004-12140-045000FM-12+044099999V0203601N002610450019N0200001N1+03091+02131100501ADDAA199000091GF106991031021008001051071MA1999999095701MD1999999-0081REMSYN070AAXX  19184 83236 32598 63605 10309 20213 39570 40050 83257 333 59008;EQDQ01  00002PRCP99
0198832360999992002032000004-12140-045000FM-12+044099999V0201801N001510450019N0200001N1+02541+02171100771ADDAA199000091GF105991021021008001061051KA1240M+03311MA1999999095911MD1999999-0041REMSYN088AAXX  20004 83236 32598 51803 10254 20217 39591 40077 82265 333 10331 29077 55040 59004;EQDQ01  00002PRCP99
0201832360999992002032012004-12140-045000FM-12+044099999V0200501N001510450019N0100001N1+02451+02091101181ADDAA124000191AY151061AY251061GF107991041021008001071051KA1240N+02201MA1999999096301MD1999999+0091MW1031REMSYN088AAXX  20124 83236 21597 70503 10245 20209 39630 40118 70355 84275 333 20220 58009 69914;
0167832360999992002032018004-12140-045000FM-12+044099999V0203601N003111050019N0200001N1+03311+02051100631ADDAA199000091GF105991041031008001001071MA1999999095821MD1999999+0121REMSYN070AAXX  20184 83236 32598 53606 10331 20205 39582 40063 84307 333 58012;EQDQ01  00002PRCP99
0198832360999992002032100004-12140-045000FM-12+044099999V0202301N002110075019N0100001N1+02511+02151100841ADDAA199000091GF108991061071008001021999KA1240M+03391MA1999999095971MD1999999+0061REMSYN088AAXX  21004 83236 32597 82304 10251 20215 39597 40084 8672/ 333 10339 29073 55063 58006;EQDQ01  00002PRCP99
0186832360999992002032112004-12140-045000FM-12+044099999V0209999C000010075019N0100001N1+02521+02211101131ADDAA199000091GF105991051021008001001001KA1240N+02131MA1999999096251MD1999999-0051REMSYN076AAXX  21124 83236 32597 50000 10252 20221 39625 40113 85200 333 20213 59005;EQDQ01  00002PRCP99
0167832360999992002032118004-12140-045000FM-12+044099999V0200501N003612200019N0100001N1+03331+02141100571ADDAA199000091GF104991041031008001001001MA1999999095761MD1999999-0061REMSYN070AAXX  21184 83236 32597 40507 10333 20214 39576 40057 84300 333 59006;EQDQ01  00002PRCP99
0226832360999992002032200004-12140-045000FM-12+044099999V0201801N000512200019N0100001N1+02561+02271100771ADDAA199000091AY101061AY221061GF103991031071008001001001KA1240M+03391MA1999999095921MD1999999-0051MW1131REMSYN094AAXX  22004 83236 31597 31801 10256 20227 39592 40077 71302 83700 333 10339 29074 55082 59005;EQDQ01  00002PRCP99
0201832360999992002032212004-12140-045000FM-12+044099999V0200501N001010075019N0100001N1+02401+02171101151ADDAA124006191AY161061AY261061GF108991051051008001021999KA1240N+02201MA1999999096271MD1999999+0021MW1021REMSYN088AAXX  22124 83236 21597 80502 10240 20217 39627 40115 70266 8552/ 333 20220 58002 60064;
0167832360999992002032218004-12140-045000FM-12+044099999V0202701N000510450019N0100001N1+02891+02231100811ADDAA199000091GF107991021071008001011001MA1999999095951MD1999999+0191REMSYN070AAXX  22184 83236 32597 72701 10289 20223 39595 40081 82710 333 58019;EQDQ01  00002PRCP99
0198832360999992002032300004-12140-045000FM-12+044099999V0209999C000010450019N0100001N1+02541+02381101161ADDAA199000091GF108991031071008001021999KA1240M+03011MA1999999096271MD1999999+0351REMSYN088AAXX  23004 83236 32597 80000 10254 20238 39627 40116 8372/ 333 10301 29002 55084 58035;EQDQ01  00002PRCP99
0186832360999992002032312004-12140-045000FM-12+044099999V0201801N004112200019N0100001N1+02731+02171101371ADDAA199000091GF104991041021008001001001KA1240N+02161MA1999999096521MD1999999+0061REMSYN076AAXX  23124 83236 32597 41808 10273 20217 39652 40137 84200 333 20216 58006;EQDQ01  00002PRCP99
0191832360999992002032318004-12140-045000FM-12+044099999V0200501N003612200019N0100001N1+03151+02001100801ADDAA199000091AY101061AY221061GA1041+000159099GF104991999999008001999999MA1999999095961MW1151REMSYN070AAXX  23184 83236 31597 40507 10315 20200 39596 40080 71502 333 84900;EQDQ01  00002PRCP99
0198832360999992002032400004-12140-045000FM-12+044099999V0209999C000012200019N0100001N1+02521+02311100981ADDAA199000091GF104991021041008001011001KA1240M+03361MA1999999096131MD1999999-0141REMSYN088AAXX  24004 83236 32597 40000 10252 20231 39613 40098 82410 333 10336 29074 55084 59014;EQDQ01  00002PRCP99
0201832360999992002032412004-12140-045000FM-12+044099999V0203201N001010075019N0100001N1+02481+02111101351ADDAA124026991AY161061AY261061GF106991061021008001001001KA1240N+02151MA1999999096461MD1999999-0061MW1021REMSYN088AAXX  24124 83236 21597 63202 10248 20211 39646 40135 70266 86200 333 20215 59006 60274;
0167832360999992002032418004-12140-045000FM-12+044099999V0200501N004112200019N0100001N1+03131+01921100801ADDAA199000091GF105991041021008001001041MA1999999095951MD1999999-0011REMSYN070AAXX  24184 83236 32597 50508 10313 20192 39595 40080 84204 333 59001;EQDQ01  00002PRCP99
0198832360999992002032500004-12140-045000FM-12+044099999V0209999C000010450019N0100001N1+02421+02191101041ADDAA199000091GF106991021041008001021001KA1240M+03251MA1999999096151MD1999999+0031REMSYN088AAXX  25004 83236 32597 60000 10242 20219 39615 40104 82420 333 10325 29077 55079 58003;EQDQ01  00002PRCP99
0214832360999992002032512004-12140-045000FM-12+044099999V0202701N001510075019N0100001N1+02501+02171101301ADDAA199000091AY101061AY221061GF107991071051008001001001KA1240N+02061MA1999999096401MD1999999-0061MW1151REMSYN082AAXX  25124 83236 31597 72703 10250 20217 39640 40130 71502 87500 333 20206 59006;EQDQ01  00002PRCP99
0182832360999992002032518004-12140-045000FM-12+044099999V0201401N002110450019N0100001N1+02911+02071100781ADDAA106000191AY151061AY251061GF107991021021008001021001MA1999999095911MD1999999-0041MW1021REMSYN082AAXX  25184 83236 21597 71404 10291 20207 39591 40078 70255 82220 333 59004 69921;
0198832360999992002032600004-12140-045000FM-12+044099999V0209999C000010120019N0100001N1+02401+02331101041ADDAA199000091GF106991061081008001001001KA1240M+02971MA1999999096151MD1999999+0001REMSYN088AAXX  26004 83236 32597 60000 10240 20233 39615 40104 86800 333 10297 29084 55014 58000;EQDQ01  00002PRCP99
0173832360999992002032612004-12140-045000FM-12+044099999V0209999C000010120019N0100001N1+02441+02171101261ADDAA124000191GF107991071081008001001001KA1240N+02231MA1999999096351MD1999999-0051REMSYN082AAXX  26124 83236 22597 70000 10244 20217 39635 40126 87800 333 20223 59005 69924;
0167832360999992002032618004-12140-045000FM-12+044099999V0200501N003110120019N0100001N1+03151+02161100631ADDAA199000091GF106991051081008001001041MA1999999095801MD1999999+0111REMSYN070AAXX  26184 83236 32597 60506 10315 20216 39580 40063 85804 333 58011;EQDQ01  00002PRCP99
0198832360999992002032700004-12140-045000FM-12+044099999V0201801N001010450019N0100001N1+02491+02321101081ADDAA199000091GF108991021071008001021999KA1240M+03331MA1999999096191MD1999999+0041REMSYN088AAXX  27004 83236 32597 81802 10249 20232 39619 40108 8272/ 333 10333 29081 55042 58004;EQDQ01  00002PRCP99
0201832360999992002032712004-12140-045000FM-12+044099999V0202301N000512200019N0100001N1+02401+02091101331ADDAA124002091AY161061AY261061GF104991011011008001041001KA1240N+02011MA1999999096431MD1999999+0081MW1021REMSYN088AAXX  27124 83236 21597 42301 10240 20209 39643 40133 70266 81140 333 20201 58008 60024;
0167832360999992002032718004-12140-045000FM-12+044099999V0203601N003611050019N0100001N1+03061+02111100861ADDAA199000091GF105991031021008001001021MA1999999096001MD1999999+0201REMSYN070AAXX  27184 83236 32597 53607 10306 20211 39600 40086 83202 333 58020;EQDQ01  00002PRCP99
0198832360999992002032800004-12140-045000FM-12+044099999V0201801N000512200019N0100001N1+02451+02191101131ADDAA199000091GF103991031001022501081001KA1240M+03231MA1999999096231MD1999999+0081REMSYN088AAXX  28004 83236 32897 31801 10245 20219 39623 40113 83080 333 10323 29080 55083 58008;EQDQ01  00002PRCP99
0196832360999992002032812004-12140-045000FM-12+044099999V0209999C000012200019N0200001N1+02671+02071101331ADDAA199000091GA1001+999999999GF100991001001999999001001KA1240N+02071MA1999999096451MD1999999+0021REMSYN070AAXX  28124 83236 32998 00000 10267 20207 39645 40133 333 20207 58002;EQDQ01  00002PRCP99
0167832360999992002032818004-12140-045000FM-12+044099999V0201801N003612200019N0200001N1+03231+01691100891ADDAA199000091GF104991041021008001001001MA1999999096041MD1999999+0041REMSYN070AAXX  28184 83236 32598 41807 10323 20169 39604 40089 84200 333 58004;EQDQ01  00002PRCP99
0208832360999992002032900004-12140-045000FM-12+044099999V0209999C000012200019N0100001N1+02341+01931100981ADDAA199000091GA1001+999999999GF100991001001999999001001KA1240M+03351MA1999999096111MD1999999-0121REMSYN082AAXX  29004 83236 32997 00000 10234 20193 39611 40098 333 10335 29066 55103 59012;EQDQ01  00002PRCP99
0186832360999992002032912004-12140-045000FM-12+044099999V0203601N000512200019N0200001N1+02521+01931101361ADDAA199000091GF102991021001022501041001KA1240N+01701MA1999999096461MD1999999+0011REMSYN076AAXX  29124 83236 32898 23601 10252 20193 39646 40136 82040 333 20170 58001;EQDQ01  00002PRCP99
0167832360999992002032918004-12140-045000FM-12+044099999V0200901N001012200019N0200001N1+03211+01891100801ADDAA199000091GF104991041021008001001001MA1999999095941MD1999999-0101REMSYN070AAXX  29184 83236 32598 40902 10321 20189 39594 40080 84200 333 59010;EQDQ01  00002PRCP99
0198832360999992002033000004-12140-045000FM-12+044099999V0201801N001010450019N0100001N1+02371+01971101001ADDAA199000091GF107991021041008001021001KA1240M+03341MA1999999096121MD1999999+0011REMSYN088AAXX  30004 83236 32597 71802 10237 20197 39612 40100 82420 333 10334 29068 55093 58001;EQDQ01  00002PRCP99
0186832360999992002033012004-12140-045000FM-12+044099999V0201801N001012200019N0200001N1+02551+01951101341ADDAA199000091GF103991011011008001001041KA1240N+01901MA1999999096441MD1999999-0021REMSYN076AAXX  30124 83236 32598 31802 10255 20195 39644 40134 81104 333 20190 59002;EQDQ01  00002PRCP99
0198832360999992002033100004-12140-045000FM-12+044099999V0201401N001512200019N0200001N1+02361+02131101091ADDAA199000091GF104991021041008001011001KA1240M+03271MA1999999096201MD1999999+0081REMSYN088AAXX  31004 83236 32598 41403 10236 20213 39620 40109 82410 333 10327 29073 55095 58008;EQDQ01  00002PRCP99
0201832360999992002033112004-12140-045000FM-12+044099999V0201401N001010450019N0100001N1+02481+02151101381ADDAA124002091AY161061AY261061GF105991031081008001061001KA1240N+02161MA1999999096471MD1999999+0031MW1021REMSYN088AAXX  31124 83236 21597 51402 10248 20215 39647 40138 70266 83860 333 20216 58003 60024;
0137832360999992002033118004-12140-045000FM-12+044099999V0200501N002612200019N0100001N1+03221+01911100881ADDGF105991041021008001001041MA1999999096051MD1999999+0011REMSYN070AAXX  31184 83236 22597 50505 10322 20191 39605 40088 84204 333 58001;
0198832360999992002040100004-12140-045000FM-12+044099999V0201801N001012200019N0100001N1+02361+02091101021ADDAA199000091GF104991041061008001001001KA1240M+03331MA1999999096131MD1999999-0071REMSYN088AAXX  01004 83236 32597 41802 10236 20209 39613 40102 84600 333 10333 29074 55078 59007;EQDQ01  00002PRCP99
0186832360999992002040112004-12140-045000FM-12+044099999V0209999C000012200019N0200001N1+02701+02011101261ADDAA199000091GF104991011011008001001041KA1240N+02061MA1999999096381MD1999999-0091REMSYN076AAXX  01124 83236 32598 40000 10270 20201 39638 40126 81104 333 20206 59009;EQDQ01  00002PRCP99
0167832360999992002040118004-12140-045000FM-12+044099999V0203201N002111050019N0100001N1+03351+01831100701ADDAA199000091GF106991041031008001001031MA1999999095891MD1999999-0161REMSYN070AAXX  01184 83236 32597 63204 10335 20183 39589 40070 84303 333 59016;EQDQ01  00002PRCP99
0198832360999992002040200004-12140-045000FM-12+044099999V0201801N001512200019N0100001N1+02481+02191100941ADDAA199000091GF104991041061008001001001KA1240M+03431MA1999999096091MD1999999-0041REMSYN088AAXX  02004 83236 32597 41803 10248 20219 39609 40094 84600 333 10343 29069 55087 59004;EQDQ01  00002PRCP99
0186832360999992002040212004-12140-045000FM-12+044099999V0209999C000011050019N0100001N1+02691+02131101231ADDAA199000091GF107991021001022501041091KA1240N+02211MA1999999096361MD1999999-0021REMSYN076AAXX  02124 83236 32897 70000 10269 20213 39636 40123 82049 333 20221 59002;EQDQ01  00002PRCP99
0167832360999992002040218004-12140-045000FM-12+044099999V0200901N002611050019N0100001N1+03171+01991100831ADDAA199000091GF107991031081008001001091MA1999999096011MD1999999+0121REMSYN070AAXX  02184 83236 32597 70905 10317 20199 39601 40083 83809 333 58012;EQDQ01  00002PRCP99
0198832360999992002040300004-12140-045000FM-12+044099999V0209999C000012200019N0100001N1+02501+02171101011ADDAA199000091GF104991001001999999001071KA1240M+03281MA1999999096161MD1999999+0071REMSYN088AAXX  03004 83236 32997 40000 10250 20217 39616 40101 80007 333 10328 29072 55021 58007;EQDQ01  00002PRCP99
0186832360999992002040312004-12140-045000FM-12+044099999V0201801N000512200019N0200001N1+02791+02061101251ADDAA199000091GF102991001001999999001041KA1240N+02051MA1999999096391MD1999999+0031REMSYN076AAXX  03124 83236 32998 21801 10279 20206 39639 40125 80004 333 20205 58003;EQDQ01  00002PRCP99
0167832360999992002040318004-12140-045000FM-12+044099999V0201801N005112200019N0100001N1+03291+01861100971ADDAA199000091GF106991031021008001001041MA1999999096141MD1999999+0131REMSYN070AAXX  03184 83236 32597 61810 10329 20186 39614 40097 83204 333 58013;EQDQ01  00002PRCP99
0198832360999992002040400004-12140-045000FM-12+044099999V0209999C000012200019N0100001N1+02421+02091101011ADDAA199000091GF103991031001022501041001KA1240M+03451MA1999999096161MD1999999+0001REMSYN088AAXX  04004 83236 32897 30000 10242 20209 39616 40101 83040 333 10345 29068 55093 58000;EQDQ01  00002PRCP99
0186832360999992002040412004-12140-045000FM-12+044099999V0202701N001012200019N0200001N1+02491+01851101361ADDAA199000091GF103991031001022501061001KA1240N+02091MA1999999096461MD1999999+0071REMSYN076AAXX  04124 83236 32898 32702 10249 20185 39646 40136 83060 333 20209 58007;EQDQ01  00002PRCP99
0167832360999992002040418004-12140-045000FM-12+044099999V0201401N001510075019N0100001N1+03181+01691100801ADDAA199000091GF106991051021008001041001MA1999999095971MD1999999-0171REMSYN070AAXX  04184 83236 32597 61403 10318 20169 39597 40080 85240 333 59017;EQDQ01  00002PRCP99
0198832360999992002040500004-12140-045000FM-12+044099999V0209999C000012200019N0100001N1+02341+02001101061ADDAA199000091GF103991031001022501011001KA1240M+03501MA1999999096161MD1999999+0001REMSYN088AAXX  05004 83236 32897 30000 10234 20200 39616 40106 83010 333 10350 29068 55079 58000;EQDQ01  00002PRCP99
0202832360999992002040512004-12140-045000FM-12+044099999V0201401N001012200019N0200001N1+02551+01831101201ADDAA199000091GF103991999001022501041071KA1240N+01821MA1999999096311MD1999999-0151REMSYN076AAXX  05124 83236 32898 31402 10255 20183 39631 40120 80047 333 20182 59015;EQDQ01+000002SCOTLCQ02  00002PRCP99
0167832360999992002040518004-12140-045000FM-12+044099999V0203601N001012200019N0200001N1+03391+01621100601ADDAA199000091GF104991041021008001001001MA1999999095771MD1999999-0201REMSYN070AAXX  05184 83236 32598 43602 10339 20162 39577 40060 84200 333 59020;EQDQ01  00002PRCP99
0208832360999992002040600004-12140-045000FM-12+044099999V0201801N001012200019N0100001N1+02291+02001100891ADDAA199000091GA1001+999999999GF100991001001999999001001KA1240M+03491MA1999999096001MD1999999-0161REMSYN082AAXX  06004 83236 32997 01802 10229 20200 39600 40089 333 10349 29067 55102 59016;EQDQ01  00002PRCP99
0186832360999992002040612004-12140-045000FM-12+044099999V0200501N001512200019N0100001N1+02651+01931101041ADDAA199000091GF102991001001999999001051KA1240N+01841MA1999999096151MD1999999-0161REMSYN076AAXX  06124 83236 32997 20503 10265 20193 39615 40104 80005 333 20184 59016;EQDQ01  00002PRCP99
0167832360999992002040618004-12140-045000FM-12+044099999V0202301N001011050019N0100001N1+03321+01701100511ADDAA199000091GF105991041021008001001051MA1999999095681MD1999999-0091REMSYN070AAXX  06184 83236 32597 52302 10332 20170 39568 40051 84205 333 59009;EQDQ01  00002PRCP99
0198832360999992002040700004-12140-045000FM-12+044099999V0201801N002112200019N0100001N1+02401+02011100781ADDAA199000091GF102991021061022501001999KA1240M+03471MA1999999095921MD1999999-0081REMSYN088AAXX  07004 83236 32897 21804 10240 20201 39592 40078 8260/ 333 10347 29065 55107 59008;EQDQ01  00002PRCP99
0186832360999992002040712004-12140-045000FM-12+044099999V0200501N001510450019N0100001N1+02661+01971101111ADDAA199000091GF106991031021008001071051KA1240N+01891MA1999999096241MD1999999+0091REMSYN076AAXX  07124 83236 32597 60503 10266 20197 39624 40111 83275 333 20189 58009;EQDQ01  00002PRCP99
0167832360999992002040718004-12140-045000FM-12+044099999V0200501N001510450019N0200001N1+03181+01941100761ADDAA199000091GF106991041021008001061041MA1999999095911MD1999999+0231REMSYN070AAXX  07184 83236 32598 60503 10318 20194 39591 40076 84264 333 58023;EQDQ01  00002PRCP99
0198832360999992002040800004-12140-045000FM-12+044099999V0209999C000012200019N0200001N1+02501+02051100921ADDAA199000091GF104991041021012501051001KA1240M+03281MA1999999096071MD1999999+0151REMSYN088AAXX  08004 83236 32698 40000 10250 20205 39607 40092 84250 333 10328 29067 55077 58015;EQDQ01  00002PRCP99
0186832360999992002040812004-12140-045000FM-12+044099999V0203601N001510450019N0100001N1+02501+01981101191ADDAA199000091GF106991041041008001071051KA1240N+02001MA1999999096311MD1999999+0071REMSYN076AAXX  08124 83236 32597 63603 10250 20198 39631 40119 84475 333 20200 58007;EQDQ01  00002PRCP99
0167832360999992002040818004-12140-045000FM-12+044099999V0200501N001512200019N0200001N1+03421+01701100521ADDAA199000091GF104991041021008001001001MA1999999095711MD1999999-0201REMSYN070AAXX  08184 83236 32598 40503 10342 20170 39571 40052 84200 333 59020;EQDQ01  00002PRCP99
0213832360999992002040900004-12140-045000FM-12+044099999V0202301N003610075019N0040001N1+02361+02051100941ADDAA106005191AY121061AY221061GF108991071061008001999999KA1240M+03501MA1999999096061MD1999999+0011MW1621REMSYN100AAXX  09004 83236 21596 82307 10236 20205 39606 40094 76222 876// 333 10350 29069 55091 58001 60051;
0173832360999992002040912004-12140-045000FM-12+044099999V0202301N001510450019N0100001N1+02461+02171101141ADDAA124013091GF106991041041008001071031KA1240N+02011MA1999999096241MD1999999-0071REMSYN082AAXX  09124 83236 22597 62303 10246 20217 39624 40114 84473 333 20201 59007 60134;
0167832360999992002040918004-12140-045000FM-12+044099999V0200501N003110450019N0200001N1+03081+02041100531ADDAA199000091GF106991031021008001071051MA1999999095701MD1999999-0011REMSYN070AAXX  09184 83236 32598 60506 10308 20204 39570 40053 83275 333 59001;EQDQ01  00002PRCP99
0198832360999992002041000004-12140-045000FM-12+044099999V0203601N001012200019N0200001N1+02511+02231100891ADDAA199000091GF102991021021012501001001KA1240M+03181MA1999999096021MD1999999-0041REMSYN088AAXX  10004 83236 32698 23602 10251 20223 39602 40089 82200 333 10318 29077 55082 59004;EQDQ01  00002PRCP99
0186832360999992002041012004-12140-045000FM-12+044099999V0202301N001011050019N0200001N1+02511+02131101071ADDAA199000091GF105991031001022501071051KA1240N+02201MA1999999096191MD1999999-0051REMSYN076AAXX  10124 83236 32898 52302 10251 20213 39619 40107 83075 333 20220 59005;EQDQ01  00002PRCP99
0195832360999992002041018004-12140-045000FM-12+044099999V0201801N001510075019N0200001N1+03151+02161100501ADDAA199000091AY121061AY221061GF106991061051008001071001MA1999999095691MD1999999-0011MW1171REMSYN076AAXX  10184 83236 31598 61803 10315 20216 39569 40050 71722 86570 333 59001;EQDQ01  00002PRCP99
0213832360999992002041100004-12140-045000FM-12+044099999V0209999C000010450019N0100001N1+02301+02251100971ADDAA106004191AY161061AY261061GF106991041051008001071001KA1240M+03321MA1999999096081MD1999999+0061MW1131REMSYN100AAXX  11004 83236 21597 60000 10230 20225 39608 40097 71366 84570 333 10332 29082 55071 58006 60041;
0201832360999992002041112004-12140-045000FM-12+044099999V0209999C000010075019N0040001N1+02241+02141101411ADDAA124020191AY161061AY261061GF108991071061008001021999KA1240N+02031MA1999999096461MD1999999+0271MW1101REMSYN088AAXX  11124 83236 21596 80000 10224 20214 39646 40141 71066 8762/ 333 20203 58027 60204;
0182832360999992002041118004-12140-045000FM-12+044099999V0200501N001010075019N0100001N1+02681+02181100901ADDAA106000591AY151061AY251061GF108991061061008001081999MA1999999096021MD1999999+0331MW1151REMSYN082AAXX  11184 83236 21597 80502 10268 20218 39602 40090 71555 8668/ 333 58033 69951;
0198832360999992002041200004-12140-045000FM-12+044099999V0200501N001012200019N0200001N1+02421+02281101161ADDAA199000091GF102991021021012501001001KA1240M+02801MA1999999096251MD1999999+0171REMSYN088AAXX  12004 83236 32698 20502 10242 20228 39625 40116 82200 333 10280 29088 55006 58017;EQDQ01  00002PRCP99
0173832360999992002041212004-12140-045000FM-12+044099999V0202701N001010075019N0100001N1+02331+02201101201ADDAA124000591GF108991061071008001051999KA1240N+02101MA1999999096381MD1999999-0081REMSYN082AAXX  12124 83236 22597 82702 10233 20220 39638 40120 8675/ 333 20210 59008 69954;
0183832360999992002041218004-12140-045000FM-12+044099999V0201401N003610024019N0100001N1+02971+02201100781ADDAA199000091GA1091+999999999GF109991091999999999999999MA1999999095921MD1999999-0101REMSYN070AAXX  12184 83236 32597 91407 10297 20220 39592 40078 85475 333 59010;EQDQ01  00002PRCP99
0226832360999992002041300004-12140-045000FM-12+044099999V0200501N005110075019N0100001N1+02341+02151101171ADDAA199000091AY121061AY221061GF108991071051008001071999KA1240M+03161MA1999999096261MD1999999+0011MW1161REMSYN094AAXX  13004 83236 31597 80510 10234 20215 39626 40117 71622 8757/ 333 10316 29084 55040 58001;EQDQ01  00002PRCP99
0186832360999992002041312004-12140-045000FM-12+044099999V0202301N001510450019N0200001N1+02421+02171101281ADDAA199000091GF106991031021008001061051KA1240N+02111MA1999999096371MD1999999-0011REMSYN076AAXX  13124 83236 32598 62303 10242 20217 39637 40128 83265 333 20211 59001;EQDQ01  00002PRCP99
0195832360999992002041318004-12140-045000FM-12+044099999V0200901N003610075019N0100001N1+03041+02061100781ADDAA199000091AY121061AY221061GF106991051051008001071051MA1999999095941MD1999999+0021MW1171REMSYN076AAXX  13184 83236 31597 60907 10304 20206 39594 40078 71722 85575 333 58002;EQDQ01  00002PRCP99
0198832360999992002041400004-12140-045000FM-12+044099999V0202301N001010075019N0100001N1+02511+02211101151ADDAA199000091GF105991051021008001061001KA1240M+03311MA1999999096261MD1999999+0001REMSYN088AAXX  14004 83236 32597 52302 10251 20221 39626 40115 85260 333 10331 29078 55087 58000;EQDQ01  00002PRCP99
0186832360999992002041412004-12140-045000FM-12+044099999V0209999C000010450019N0200001N1+02601+02121101311ADDAA199000091GF105991031021012501061051KA1240N+02071MA1999999096431MD1999999+0061REMSYN076AAXX  14124 83236 32698 50000 10260 20212 39643 40131 83265 333 20207 58006;EQDQ01  00002PRCP99
0182832360999992002041418004-12140-045000FM-12+044099999V0201401N005110075019N0100001N1+02511+02231101011ADDAA106009991AY161061AY261061GF108991061051008001071999MA1999999096111MD1999999+0171MW1171REMSYN082AAXX  14184 83236 21597 81410 10251 20223 39611 40101 71766 8657/ 333 58017 60101;
0185832360999992002041500004-12140-045000FM-12+044099999V0209999C000010075019N0100001N1+02301+02251101091ADDAA106000191GF108991061021008001061999KA1240M+03151MA1999999096201MD1999999-0061REMSYN094AAXX  15004 83236 22597 80000 10230 20225 39620 40109 8626/ 333 10315 29088 55054 59006 69921;
0173832360999992002041512004-12140-045000FM-12+044099999V0201401N001012200019N0200001N1+02501+01911101281ADDAA124009991GF104991021001022501061051KA1240N+02011MA1999999096371MD1999999-0061REMSYN082AAXX  15124 83236 22898 41402 10250 20191 39637 40128 82065 333 20201 59006 60104;
0186832360999992002041612004-12140-045000FM-12+044099999V0202701N001012200019N0200001N1+02581+01991101311ADDAA199000091GF103991001001999999001071KA1240N+02171MA1999999096411MD1999999+0041REMSYN076AAXX  16124 83236 32998 32702 10258 20199 39641 40131 80007 333 20217 58004;EQDQ01  00002PRCP99
0167832360999992002041618004-12140-045000FM-12+044099999V0200901N001510075019N0200001N1+03021+01991100891ADDAA199000091GF106991051021008001001051MA1999999096041MD1999999+0111REMSYN070AAXX  16184 83236 32598 60903 10302 20199 39604 40089 85205 333 58011;EQDQ01  00002PRCP99
0208832360999992002041700004-12140-045000FM-12+044099999V0201801N001512200019N0200001N1+02301+02111101171ADDAA199000091GA1001+999999999GF100991001001999999001001KA1240M+03261MA1999999096281MD1999999+0141REMSYN082AAXX  17004 83236 32998 01803 10230 20211 39628 40117 333 10326 29076 55100 58014;EQDQ01  00002PRCP99
0198832360999992002041800004-12140-045000FM-12+044099999V0201801N001512200019N0200001N1+02351+02071101061ADDAA199000091GF102991021001022501061001KA1240M+03401MA1999999096171MD1999999-0111REMSYN088AAXX  18004 83236 32898 21803 10235 20207 39617 40106 82060 333 10340 29072 55107 59011;EQDQ01  00002PRCP99
0196832360999992002041812004-12140-045000FM-12+044099999V0202301N001012200019N0200001N1+02621+02011101341ADDAA199000091GA1001+999999999GF100991001001999999001001KA1240N+02051MA1999999096451MD1999999-0051REMSYN070AAXX  18124 83236 32998 02302 10262 20201 39645 40134 333 20205 59005;EQDQ01  00002PRCP99
0167832360999992002041818004-12140-045000FM-12+044099999V0201401N002112200019N0200001N1+03261+01911100801ADDAA199000091GF104991041021008001001001MA1999999095971MD1999999-0051REMSYN070AAXX  18184 83236 32598 41404 10326 20191 39597 40080 84200 333 59005;EQDQ01  00002PRCP99
0198832360999992002041900004-12140-045000FM-12+044099999V0202701N001010075019N0200001N1+02501+02131100911ADDAA199000091GF106991051041008001061051KA1240M+03381MA1999999096051MD1999999-0121REMSYN088AAXX  19004 83236 32598 62702 10250 20213 39605 40091 85465 333 10338 29069 55107 59012;EQDQ01  00002PRCP99
0186832360999992002041912004-12140-045000FM-12+044099999V0200501N001012200019N0200001N1+02701+01941101171ADDAA199000091GF102991021021012501001001KA1240N+02031MA1999999096311MD1999999-0141REMSYN076AAXX  19124 83236 32698 20502 10270 20194 39631 40117 82200 333 20203 59014;EQDQ01  00002PRCP99
0167832360999992002041918004-12140-045000FM-12+044099999V0201401N002612200019N0200001N1+03261+01841100721ADDAA199000091GF103991031021008001001001MA1999999095911MD1999999-0061REMSYN070AAXX  19184 83236 32598 31405 10326 20184 39591 40072 83200 333 59006;EQDQ01  00002PRCP99
0198832360999992002042000004-12140-045000FM-12+044099999V0209999C000012200019N0200001N1+02281+02031100961ADDAA199000091GF104991041001022501061001KA1240M+03341MA1999999096081MD1999999+0031REMSYN088AAXX  20004 83236 32898 40000 10228 20203 39608 40096 84060 333 10334 29070 55108 58003;EQDQ01  00002PRCP99
0186832360999992002042012004-12140-045000FM-12+044099999V0200501N001012200019N0200001N1+02631+01881101171ADDAA199000091GF101991011011008001001001KA1240N+01861MA1999999096281MD1999999-0031REMSYN076AAXX  20124 83236 32598 10502 10263 20188 39628 40117 81100 333 20186 59003;EQDQ01  00002PRCP99
0167832360999992002042018004-12140-045000FM-12+044099999V0201801N002112200019N0200001N1+03121+01641100731ADDAA199000091GF104991041021008001001001MA1999999095881MD1999999-0031REMSYN070AAXX  20184 83236 32598 41804 10312 20164 39588 40073 84200 333 59003;EQDQ01  00002PRCP99
0198832360999992002042100004-12140-045000FM-12+044099999V0201801N001512200019N0200001N1+02551+01931100981ADDAA199000091GF104991041021008001001001KA1240M+03191MA1999999096131MD1999999+0051REMSYN088AAXX  21004 83236 32598 41803 10255 20193 39613 40098 84200 333 10319 29061 55107 58005;EQDQ01  00002PRCP99
0196832360999992002042112004-12140-045000FM-12+044099999V0202701N001012200019N0200001N1+02511+01721101261ADDAA199000091GA1001+999999999GF100991001001999999001001KA1240N+02001MA1999999096381MD1999999+0101REMSYN070AAXX  21124 83236 32998 02702 10251 20172 39638 40126 333 20200 58010;EQDQ01  00002PRCP99
0198832360999992002042200004-12140-045000FM-12+044099999V0203601N001510120019N0100001N1+02421+01741100941ADDAA199000091GF107991071081008001001001KA1240M+03391MA1999999096061MD1999999-0071REMSYN088AAXX  22004 83236 32597 73603 10242 20174 39606 40094 87800 333 10339 29055 55105 59007;EQDQ01  00002PRCP99
0186832360999992002042212004-12140-045000FM-12+044099999V0201801N003112200019N0200001N1+02711+01801101301ADDAA199000091GF102991021011008001001001KA1240N+02211MA1999999096421MD1999999+0041REMSYN076AAXX  22124 83236 32598 21806 10271 20180 39642 40130 82100 333 20221 58004;EQDQ01  00002PRCP99
0167832360999992002042218004-12140-045000FM-12+044099999V0200901N004112200019N0200001N1+03101+01281100811ADDAA199000091GF103991031011008001001001MA1999999095971MD1999999+0081REMSYN070AAXX  22184 83236 32598 30908 10310 20128 39597 40081 83100 333 58008;EQDQ01  00002PRCP99
0198832360999992002042300004-12140-045000FM-12+044099999V0201801N001512200019N0200001N1+02221+01781100951ADDAA199000091GF103991031021008001001001KA1240M+03231MA1999999096071MD1999999+0011REMSYN088AAXX  23004 83236 32598 31803 10222 20178 39607 40095 83200 333 10323 29061 55107 58001;EQDQ01  00002PRCP99
0186832360999992002042312004-12140-045000FM-12+044099999V0201401N002112200019N0200001N1+02671+01681101211ADDAA199000091GF101991011011008001001001KA1240N+01761MA1999999096331MD1999999-0101REMSYN076AAXX  23124 83236 32598 11404 10267 20168 39633 40121 81100 333 20176 59010;EQDQ01  00002PRCP99
0167832360999992002042318004-12140-045000FM-12+044099999V0201401N005112200019N0200001N1+03181+01491100731ADDAA199000091GF104991041021008001001001MA1999999095871MD1999999-0101REMSYN070AAXX  23184 83236 32598 41410 10318 20149 39587 40073 84200 333 59010;EQDQ01  00002PRCP99
0198832360999992002042400004-12140-045000FM-12+044099999V0201801N002112200019N0200001N1+02341+01831100961ADDAA199000091GF104991041041008001001001KA1240M+03261MA1999999096091MD1999999+0021REMSYN088AAXX  24004 83236 32598 41804 10234 20183 39609 40096 84400 333 10326 29059 55105 58002;EQDQ01  00002PRCP99
0202832360999992002042412004-12140-045000FM-12+044099999V0201801N002112200019N0200001N1+02541+01881101211ADDAA199000091GF102991999011008001001001KA1240N+01881MA1999999096321MD1999999+0001REMSYN076AAXX  24124 83236 32598 21804 10254 20188 39632 40121 80100 333 20188 58000;EQDQ01+000002SCOTLCQ02  00002PRCP99
0167832360999992002042418004-12140-045000FM-12+044099999V0201401N003612200019N0200001N1+03201+01461100631ADDAA199000091GF103991031021008001001001MA1999999095801MD1999999-0071REMSYN070AAXX  24184 83236 32598 31407 10320 20146 39580 40063 83200 333 59007;EQDQ01  00002PRCP99
0198832360999992002042500004-12140-045000FM-12+044099999V0202301N001512200019N0100001N1+02321+02001100831ADDAA199000091GF104991041081008001001001KA1240M+03301MA1999999095951MD1999999-0141REMSYN088AAXX  25004 83236 32597 42303 10232 20200 39595 40083 84800 333 10330 29065 55105 59014;EQDQ01  00002PRCP99
0196832360999992002042512004-12140-045000FM-12+044099999V0209999C000012200019N0200001N1+02501+01771101291ADDAA199000091GA1001+999999999GF100991001001999999001001KA1240N+01831MA1999999096381MD1999999+0061REMSYN070AAXX  25124 83236 32998 00000 10250 20177 39638 40129 333 20183 58006;EQDQ01  00002PRCP99
0167832360999992002042518004-12140-045000FM-12+044099999V0200901N002112200019N0200001N1+03271+01681100751ADDAA199000091GF104991041021008001001001MA1999999095911MD1999999+0111REMSYN070AAXX  25184 83236 32598 40904 10327 20168 39591 40075 84200 333 58011;EQDQ01  00002PRCP99
0198832360999992002042600004-12140-045000FM-12+044099999V0201801N001012200019N0200001N1+02471+02051100921ADDAA199000091GF103991031021008001001001KA1240M+03411MA1999999096051MD1999999+0101REMSYN088AAXX  26004 83236 32598 31802 10247 20205 39605 40092 83200 333 10341 29065 55094 58010;EQDQ01  00002PRCP99
0186832360999992002042612004-12140-045000FM-12+044099999V0201801N001012200019N0200001N1+02561+01881101311ADDAA199000091GF102991001001999999001041KA1240N+01911MA1999999096421MD1999999+0041REMSYN076AAXX  26124 83236 32998 21802 10256 20188 39642 40131 80004 333 20191 58004;EQDQ01  00002PRCP99
0167832360999992002042618004-12140-045000FM-12+044099999V0201401N002112200019N0200001N1+03291+01581100851ADDAA199000091GF104991031021008001001021MA1999999096001MD1999999+0031REMSYN070AAXX  26184 83236 32598 41404 10329 20158 39600 40085 83202 333 58003;EQDQ01  00002PRCP99
0198832360999992002042700004-12140-045000FM-12+044099999V0201801N001012200019N0200001N1+02281+01961101021ADDAA199000091GF102991001001999999001021KA1240M+03421MA1999999096131MD1999999+0081REMSYN088AAXX  27004 83236 32998 21802 10228 20196 39613 40102 80002 333 10342 29066 55094 58008;EQDQ01  00002PRCP99
0186832360999992002042712004-12140-045000FM-12+044099999V0201801N001512200019N0200001N1+02471+01881101181ADDAA199000091GF104991001001999999001061KA1240N+01651MA1999999096371MD1999999-0051REMSYN076AAXX  27124 83236 32998 41803 10247 20188 39637 40118 80006 333 20165 59005;EQDQ01  00002PRCP99
0167832360999992002042718004-12140-045000FM-12+044099999V0201401N001510075019N0200001N1+03171+01631100751ADDAA199000091GF105991051021008001001001MA1999999095901MD1999999-0101REMSYN070AAXX  27184 83236 32598 51403 10317 20163 39590 40075 85200 333 59010;EQDQ01  00002PRCP99
0208832360999992002042800004-12140-045000FM-12+044099999V0201801N000512200019N0200001N1+02281+01811100921ADDAA199000091GA1001+999999999GF100991001001999999001001KA1240M+03371MA1999999096031MD1999999-0101REMSYN082AAXX  28004 83236 32998 01801 10228 20181 39603 40092 333 10337 29065 55093 59010;EQDQ01  00002PRCP99
0186832360999992002042812004-12140-045000FM-12+044099999V0202701N001512200019N0200001N1+02521+01741101211ADDAA199000091GF101991011011008001001001KA1240N+01521MA1999999096311MD1999999-0061REMSYN076AAXX  28124 83236 32598 12703 10252 20174 39631 40121 81100 333 20152 59006;EQDQ01  00002PRCP99
0167832360999992002042818004-12140-045000FM-12+044099999V0201801N002110075019N0200001N1+03201+01711100771ADDAA199000091GF105991051021008001001001MA1999999095911MD1999999+0011REMSYN070AAXX  28184 83236 32598 51804 10320 20171 39591 40077 85200 333 58001;EQDQ01  00002PRCP99
0208832360999992002042900004-12140-045000FM-12+044099999V0202701N001012200019N0200001N1+02281+01941100931ADDAA199000091GA1001+999999999GF100991001001999999001001KA1240M+03411MA1999999096071MD1999999+0041REMSYN082AAXX  29004 83236 32998 02702 10228 20194 39607 40093 333 10341 29066 55094 58004;EQDQ01  00002PRCP99
0196832360999992002042912004-12140-045000FM-12+044099999V0203601N001012200019N0200001N1+02641+01831101311ADDAA199000091GA1001+999999999GF100991001001999999001001KA1240N+01741MA1999999096411MD1999999+0101REMSYN070AAXX  29124 83236 32998 03602 10264 20183 39641 40131 333 20174 58010;EQDQ01  00002PRCP99
0183832360999992002042918004-12140-045000FM-12+044099999V0201801N001012200019N0200001N1+03281+01701100811ADDAA199000091GF104991999041008001021001MA1999999095971MD1999999+0061REMSYN070AAXX  29184 83236 32598 41802 10328 20170 39597 40081 88420 333 58006;EQDQ01+000082SCOTLCQ02  00002PRCP99
0208832360999992002043000004-12140-045000FM-12+044099999V0201801N001012200019N0200001N1+02321+02021101031ADDAA199000091GA1001+999999999GF100991001001999999001001KA1240M+03381MA1999999096151MD1999999+0081REMSYN082AAXX  30004 83236 32998 01802 10232 20202 39615 40103 333 10338 29067 55100 58008;EQDQ01  00002PRCP99
0186832360999992002043012004-12140-045000FM-12+044099999V0209999C000012200019N0200001N1+02481+01751101451ADDAA199000091GF102991001001999999001041KA1240N+01671MA1999999096541MD1999999+0131REMSYN076AAXX  30124 83236 32998 20000 10248 20175 39654 40145 80004 333 20167 58013;EQDQ01  00002PRCP99
0167832360999992002043018004-12140-045000FM-12+044099999V0202301N001512200019N0200001N1+03301+01591100951ADDAA199000091GF103991031021008001001001MA1999999096101MD1999999+0031REMSYN070AAXX  30184 83236 32598 32303 10330 20159 39610 40095 83200 333 58003;EQDQ01  00002PRCP99
0178832360999992002050100004-12140-045000FM-12+044099999V0201401N002112200019N9999999N1+02281+01831101201ADDGA1001+999999999GF100991001001999999001001KA1240M+03451MA1999999096301MD1999999+0151REMSYN082AAXX  01004 83236 2/98/ 01404 10228 20183 39630 40120 333 10345 29063 55104 58015;
0196832360999992002050112004-12140-045000FM-12+044099999V0202301N001512200019N0200001N1+02481+01701101341ADDAA199000091GA1001+999999999GF100991001001999999001001KA1240N+01711MA1999999096431MD1999999-0111REMSYN070AAXX  01124 83236 32998 02303 10248 20170 39643 40134 333 20171 59011;EQDQ01  00002PRCP99
0208832360999992002050200004-12140-045000FM-12+044099999V0202301N001012200019N0200001N1+02221+01901101001ADDAA199000091GA1001+999999999GF100991001001999999001001KA1240M+03601MA1999999096101MD1999999-0201REMSYN082AAXX  02004 83236 32998 02302 10222 20190 39610 40100 333 10360 29063 55103 59020;EQDQ01  00002PRCP99
0196832360999992002050212004-12140-045000FM-12+044099999V0209999C000012200019N0200001N1+02371+01511101261ADDAA199000091GA1001+999999999GF100991001001999999001001KA1240N+01601MA1999999096341MD1999999-0071REMSYN070AAXX  02124 83236 32998 00000 10237 20151 39634 40126 333 20160 59007;EQDQ01  00002PRCP99
0167832360999992002050218004-12140-045000FM-12+044099999V0200501N001512200019N0200001N1+03371+01461100721ADDAA199000091GF103991031021008001001001MA1999999095871MD1999999-0081REMSYN070AAXX  02184 83236 32598 30503 10337 20146 39587 40072 83200 333 59008;EQDQ01  00002PRCP99
0198832360999992002050300004-12140-045000FM-12+044099999V0202701N001012200019N0100001N1+02301+01961100851ADDAA199000091GF103991001001999999001041KA1240M+03491MA1999999095951MD1999999-0151REMSYN088AAXX  03004 83236 32997 32702 10230 20196 39595 40085 80004 333 10349 29063 55098 59015;EQDQ01  00002PRCP99
0186832360999992002050312004-12140-045000FM-12+044099999V0209999C000012200019N0200001N1+02361+01611101221ADDAA199000091GF102991001001999999001041KA1240N+01681MA1999999096311MD1999999-0031REMSYN076AAXX  03124 83236 32998 20000 10236 20161 39631 40122 80004 333 20168 59003;EQDQ01  00002PRCP99
0167832360999992002050318004-12140-045000FM-12+044099999V0201801N001012200019N0200001N1+03391+01481100661ADDAA199000091GF103991031021008001001001MA1999999095811MD1999999-0021REMSYN070AAXX  03184 83236 32598 31802 10339 20148 39581 40066 83200 333 59002;EQDQ01  00002PRCP99
0198832360999992002050400004-12140-045000FM-12+044099999V0209999C000012200019N0100001N1+02221+02081100881ADDAA199000091GF104991001001999999001071KA1240M+03501MA1999999095971MD1999999+0021REMSYN088AAXX  04004 83236 32997 40000 10222 20208 39597 40088 80007 333 10350 29067 55101 58002;EQDQ01  00002PRCP99
0186832360999992002050412004-12140-045000FM-12+044099999V0203601N000512200019N0200001N1+02471+01831101291ADDAA199000091GF102991021001022501061001KA1240N+01611MA1999999096371MD1999999+0061REMSYN076AAXX  04124 83236 32898 23601 10247 20183 39637 40129 82060 333 20161 58006;EQDQ01  00002PRCP99
0167832360999992002050418004-12140-045000FM-12+044099999V0201801N001012200019N0200001N1+03451+01481100711ADDAA199000091GF103991031021008001001001MA1999999095881MD1999999+0071REMSYN070AAXX  04184 83236 32598 31802 10345 20148 39588 40071 83200 333 58007;EQDQ01  00002PRCP99
0198832360999992002050500004-12140-045000FM-12+044099999V0201801N001012200019N0200001N1+02391+01871101021ADDAA199000091GF102991021011008001001001KA1240M+03531MA1999999096141MD1999999+0171REMSYN088AAXX  05004 83236 32598 21802 10239 20187 39614 40102 82100 333 10353 29061 55102 58017;EQDQ01  00002PRCP99
0186832360999992002050512004-12140-045000FM-12+044099999V0200901N001012200019N0200001N1+02651+01841101371ADDAA199000091GF102991001001999999001051KA1240N+01901MA1999999096481MD1999999+0111REMSYN076AAXX  05124 83236 32998 20902 10265 20184 39648 40137 80005 333 20190 58011;EQDQ01  00002PRCP99
0167832360999992002050518004-12140-045000FM-12+044099999V0201401N003112200019N0200001N1+03421+01511100841ADDAA199000091GF104991041021008001001001MA1999999096011MD1999999+0131REMSYN070AAXX  05184 83236 32598 41406 10342 20151 39601 40084 84200 333 58013;EQDQ01  00002PRCP99
0198832360999992002050600004-12140-045000FM-12+044099999V0201801N001010210019N0200001N1+02451+01971101141ADDAA199000091GF105991051001022501061001KA1240M+03621MA1999999096271MD1999999+0131REMSYN088AAXX  06004 83236 32898 51802 10245 20197 39627 40114 85060 333 10362 29061 55102 58013;EQDQ01  00002PRCP99
0186832360999992002050612004-12140-045000FM-12+044099999V0202301N001012200019N0200001N1+02511+01591101521ADDAA199000091GF102991001001999999001051KA1240N+01751MA1999999096621MD1999999+0141REMSYN076AAXX  06124 83236 32998 22302 10251 20159 39662 40152 80005 333 20175 58014;EQDQ01  00002PRCP99
0167832360999992002050618004-12140-045000FM-12+044099999V0201801N003112200019N0200001N1+03371+01261100921ADDAA199000091GF102991021021012501001001MA1999999096081MD1999999+0071REMSYN070AAXX  06184 83236 32698 21806 10337 20126 39608 40092 82200 333 58007;EQDQ01  00002PRCP99
0208832360999992002050700004-12140-045000FM-12+044099999V0202301N002112200019N0200001N1+02041+01851101211ADDAA199000091GA1001+999999999GF100991001001999999001001KA1240M+03511MA1999999096271MD1999999+0001REMSYN082AAXX  07004 83236 32998 02304 10204 20185 39627 40121 333 10351 29066 55107 58000;EQDQ01  00002PRCP99
0202832360999992002050712004-12140-045000FM-12+044099999V0201801N001019999999N0200001N1+02441+01591101361ADDAA199000091GF105991999001022501071061KA1240N+01531MA1999999096461MD1999999-0161REMSYN076AAXX  07124 83236 32898 51802 10244 20159 39646 40136 80076 333 20153 59016;EQDQ01+000002SCOTLCQ02  00002PRCP99
0167832360999992002050718004-12140-045000FM-12+044099999V0201401N003610450019N0200001N1+03351+01451100821ADDAA199000091GF106991031021008001051071MA1999999095961MD1999999-0121REMSYN070AAXX  07184 83236 32598 61407 10335 20145 39596 40082 83257 333 59012;EQDQ01  00002PRCP99
0208832360999992002050800004-12140-045000FM-12+044099999V0201801N001012200019N0200001N1+02321+01791101091ADDAA199000091GA1001+999999999GF100991001001999999001001KA1240M+03491MA1999999096191MD1999999-0081REMSYN082AAXX  08004 83236 32998 01802 10232 20179 39619 40109 333 10349 29059 55100 59008;EQDQ01  00002PRCP99
0186832360999992002050812004-12140-045000FM-12+044099999V0203601N002110450019N0200001N1+02591+01971101401ADDAA199000091GF106991041041008001051071KA1240N+02051MA1999999096501MD1999999+0041REMSYN076AAXX  08124 83236 32598 63604 10259 20197 39650 40140 84457 333 20205 58004;EQDQ01  00002PRCP99
0167832360999992002050818004-12140-045000FM-12+044099999V0200901N002111050019N0200001N1+03221+01731100881ADDAA199000091GF105991031021008001001071MA1999999096041MD1999999+0081REMSYN070AAXX  08184 83236 32598 50904 10322 20173 39604 40088 83207 333 58008;EQDQ01  00002PRCP99
0214832360999992002050900004-12140-045000FM-12+044099999V0201801N001519999999N0200001N1+02501+02031101051ADDAA199000091GF105991999001012501061001KA1240M+03331MA1999999096181MD1999999-0011REMSYN088AAXX  09004 83236 32698 51803 10250 20203 39618 40105 82060 333 10333 29065 55079 59001;EQDQ01+000022SCOTLCQ02  00002PRCP99
0186832360999992002050912004-12140-045000FM-12+044099999V0203601N001012200019N0200001N1+02531+01891101481ADDAA199000091GF104991031021008001061001KA1240N+02091MA1999999096581MD1999999+0081REMSYN076AAXX  09124 83236 32598 43602 10253 20189 39658 40148 83260 333 20209 58008;EQDQ01  00002PRCP99
0167832360999992002050918004-12140-045000FM-12+044099999V0203601N001510075019N0100001N1+03321+01651100951ADDAA199000091GF107991051041008001071051MA1999999096131MD1999999+0091REMSYN070AAXX  09184 83236 32597 73603 10332 20165 39613 40095 85475 333 58009;EQDQ01  00002PRCP99
0198832360999992002051000004-12140-045000FM-12+044099999V0201801N001512200019N0200001N1+02431+01911101181ADDAA199000091GF104991041001022501061001KA1240M+03441MA1999999096301MD1999999+0121REMSYN088AAXX  10004 83236 32898 41803 10243 20191 39630 40118 84060 333 10344 29063 55073 58012;EQDQ01  00002PRCP99
0186832360999992002051012004-12140-045000FM-12+044099999V0209999C000011050019N0200001N1+02551+01861101511ADDAA199000091GF105991021001022501071051KA1240N+01811MA1999999096611MD1999999+0051REMSYN076AAXX  10124 83236 32898 50000 10255 20186 39661 40151 82075 333 20181 58005;EQDQ01  00002PRCP99
0167832360999992002051018004-12140-045000FM-12+044099999V0201801N003110450019N0200001N1+03241+01631101041ADDAA199000091GF106991041021008001051051MA1999999096181MD1999999+0051REMSYN070AAXX  10184 83236 32598 61806 10324 20163 39618 40104 84255 333 58005;EQDQ01  00002PRCP99
0208832360999992002051100004-12140-045000FM-12+044099999V0201801N001512200019N0200001N1+02541+01731101351ADDAA199000091GA1001+999999999GF100991001001999999001001KA1240M+03501MA1999999096471MD1999999+0171REMSYN082AAXX  11004 83236 32998 01803 10254 20173 39647 40135 333 10350 29057 55097 58017;EQDQ01  00002PRCP99
0186832360999992002051112004-12140-045000FM-12+044099999V0201801N003111050019N0200001N1+02581+01641101561ADDAA199000091GF105991021001022501081051KA1240N+01811MA1999999096671MD1999999+0061REMSYN076AAXX  11124 83236 32898 51806 10258 20164 39667 40156 82085 333 20181 58006;EQDQ01  00002PRCP99
0167832360999992002051118004-12140-045000FM-12+044099999V0200901N002611050019N0200001N1+03331+01331101021ADDAA199000091GF105991021021012501001051MA1999999096191MD1999999+0011REMSYN070AAXX  11184 83236 32698 50905 10333 20133 39619 40102 82205 333 58001;EQDQ01  00002PRCP99
0198832360999992002051200004-12140-045000FM-12+044099999V0202301N002110210019N0200001N1+02451+01531101251ADDAA199000091GF105991051001022501061001KA1240M+03471MA1999999096361MD1999999-0111REMSYN088AAXX  12004 83236 32898 52304 10245 20153 39636 40125 85060 333 10347 29050 55105 59011;EQDQ01  00002PRCP99
0186832360999992002051212004-12140-045000FM-12+044099999V0202301N001510450019N0200001N1+02521+01891101541ADDAA199000091GF106991031021012501071051KA1240N+01941MA1999999096641MD1999999-0031REMSYN076AAXX  12124 83236 32698 62303 10252 20189 39664 40154 83275 333 20194 59003;EQDQ01  00002PRCP99
0198832360999992002051300004-12140-045000FM-12+044099999V0201401N001010450019N0200001N1+02661+01921101301ADDAA199000091GF105991031021012501061001KA1240M+03341MA1999999096431MD1999999+0071REMSYN088AAXX  13004 83236 32698 51402 10266 20192 39643 40130 83260 333 10334 29060 55048 58007;EQDQ01  00002PRCP99
0167832360999992002051318004-12140-045000FM-12+044099999V0200901N003110075019N0100001N1+03191+01771100991ADDAA199000091GF107991061041008001071051MA1999999096171MD1999999-0061REMSYN070AAXX  13184 83236 32597 70906 10319 20177 39617 40099 86475 333 59006;EQDQ01  00002PRCP99
0198832360999992002051400004-12140-045000FM-12+044099999V0201401N003112200019N0200001N1+02481+01901101301ADDAA199000091GF103991031001999999061001KA1240M+03311MA1999999096411MD1999999+0021REMSYN088AAXX  14004 83236 32998 31406 10248 20190 39641 40130 83060 333 10331 29064 55040 58002;EQDQ01  00002PRCP99
0186832360999992002051412004-12140-045000FM-12+044099999V0200501N003612200019N0200001N1+02621+01731101441ADDAA199000091GF104991041021012501001001KA1240N+02021MA1999999096551MD1999999-0071REMSYN076AAXX  14124 83236 32698 40507 10262 20173 39655 40144 84200 333 20202 59007;EQDQ01  00002PRCP99
0167832360999992002051418004-12140-045000FM-12+044099999V0200901N003612200019N0200001N1+03151+01581100941ADDAA199000091GF103991031021008001001001MA1999999096091MD1999999-0081REMSYN070AAXX  14184 83236 32598 30907 10315 20158 39609 40094 83200 333 59008;EQDQ01  00002PRCP99
0198832360999992002051500004-12140-045000FM-12+044099999V0202301N001510120019N0200001N1+02421+01741101171ADDAA199000091GF105991051021012501061001KA1240M+03311MA1999999096291MD1999999-0121REMSYN088AAXX  15004 83236 32698 52303 10242 20174 39629 40117 85260 333 10331 29057 55107 59012;EQDQ01  00002PRCP99
0186832360999992002051512004-12140-045000FM-12+044099999V0202301N001012200019N0200001N1+02421+01741101511ADDAA199000091GF102991021021012501001001KA1240N+01731MA1999999096591MD1999999+0041REMSYN076AAXX  15124 83236 32698 22302 10242 20174 39659 40151 82200 333 20173 58004;EQDQ01  00002PRCP99
0167832360999992002051518004-12140-045000FM-12+044099999V0200901N003112200019N0200001N1+03281+01581100991ADDAA199000091GF103991031021008001001001MA1999999096131MD1999999+0041REMSYN070AAXX  15184 83236 32598 30906 10328 20158 39613 40099 83200 333 58004;EQDQ01  00002PRCP99
0208832360999992002051600004-12140-045000FM-12+044099999V0202301N001512200019N0200001N1+02211+01781101251ADDAA199000091GA1001+999999999GF100991001001999999001001KA1240M+03391MA1999999096331MD1999999+0041REMSYN082AAXX  16004 83236 32998 02303 10221 20178 39633 40125 333 10339 29064 55106 58004;EQDQ01  00002PRCP99
0196832360999992002051612004-12140-045000FM-12+044099999V0209999C000012200019N0200001N1+02461+01661101361ADDAA199000091GA1001+999999999GF100991001001999999001001KA1240N+01651MA1999999096441MD1999999-0151REMSYN070AAXX  16124 83236 32998 00000 10246 20166 39644 40136 333 20165 59015;EQDQ01  00002PRCP99
0167832360999992002051618004-12140-045000FM-12+044099999V0209999C000012200019N0200001N1+03351+01541100861ADDAA199000091GF103991031021008001001001MA1999999096001MD1999999-0131REMSYN070AAXX  16184 83236 32598 30000 10335 20154 39600 40086 83200 333 59013;EQDQ01  00002PRCP99
0208832360999992002051700004-12140-045000FM-12+044099999V0201401N001512200019N0200001N1+02231+01881101041ADDAA199000091GA1001+999999999GF100991001001999999001001KA1240M+03451MA1999999096141MD1999999-0191REMSYN082AAXX  17004 83236 32998 01403 10223 20188 39614 40104 333 10345 29064 55104 59019;EQDQ01  00002PRCP99
0186832360999992002051712004-12140-045000FM-12+044099999V0202301N001512200019N0200001N1+02511+01701101251ADDAA199000091GF104991031021012501061001KA1240N+01771MA1999999096341MD1999999-0101REMSYN076AAXX  17124 83236 32698 42303 10251 20170 39634 40125 83260 333 20177 59010;EQDQ01  00002PRCP99
0167832360999992002051718004-12140-045000FM-12+044099999V0201401N002111050019N0200001N1+03231+01521100661ADDAA199000091GF105991031021008001001071MA1999999095801MD1999999-0201REMSYN070AAXX  17184 83236 32598 51404 10323 20152 39580 40066 83207 333 59020;EQDQ01  00002PRCP99
0208832360999992002051800004-12140-045000FM-12+044099999V0201801N001512200019N0200001N1+02361+01641100841ADDAA199000091GA1001+999999999GF100991001001999999001001KA1240M+03511MA1999999095961MD1999999-0181REMSYN082AAXX  18004 83236 32998 01803 10236 20164 39596 40084 333 10351 29056 55096 59018;EQDQ01  00002PRCP99
0186832360999992002051812004-12140-045000FM-12+044099999V0201401N001012200019N0200001N1+02411+01601101091ADDAA199000091GF104991001001999999001071KA1240N+01641MA1999999096191MD1999999-0151REMSYN076AAXX  18124 83236 32998 41402 10241 20160 39619 40109 80007 333 20164 59015;EQDQ01  00002PRCP99
0167832360999992002051818004-12140-045000FM-12+044099999V0203201N001512200019N0200001N1+03441+01431100521ADDAA199000091GF103991031021008001001001MA1999999095691MD1999999-0111REMSYN070AAXX  18184 83236 32598 33203 10344 20143 39569 40052 83200 333 59011;EQDQ01  00002PRCP99
0198832360999992002051900004-12140-045000FM-12+044099999V0201801N001012200019N0200001N1+02311+01851100931ADDAA199000091GF102991001001999999001051KA1240M+03561MA1999999096031MD1999999+0071REMSYN088AAXX  19004 83236 32998 21802 10231 20185 39603 40093 80005 333 10356 29061 55106 58007;EQDQ01  00002PRCP99
0186832360999992002051912004-12140-045000FM-12+044099999V0200501N002610450019N0200001N1+02681+01641101271ADDAA199000091GF105991031021008001061051KA1240N+01911MA1999999096381MD1999999+0191REMSYN076AAXX  19124 83236 32598 50505 10268 20164 39638 40127 83265 333 20191 58019;EQDQ01  00002PRCP99
0167832360999992002051918004-12140-045000FM-12+044099999V0201401N001010450019N0200001N1+03461+01451100711ADDAA199000091GF106991041021008001071051MA1999999095901MD1999999+0211REMSYN070AAXX  19184 83236 32598 61402 10346 20145 39590 40071 84275 333 58021;EQDQ01  00002PRCP99
0198832360999992002052000004-12140-045000FM-12+044099999V0209999C000011050019N0200001N1+02361+01931100981ADDAA199000091GF105991021001022501051071KA1240M+03561MA1999999096111MD1999999+0081REMSYN088AAXX  20004 83236 32898 50000 10236 20193 39611 40098 82057 333 10356 29060 55089 58008;EQDQ01  00002PRCP99
0186832360999992002052012004-12140-045000FM-12+044099999V0200501N001012200019N0200001N1+02631+01811101331ADDAA199000091GF103991021021012501001051KA1240N+01991MA1999999096441MD1999999+0061REMSYN076AAXX  20124 83236 32698 30502 10263 20181 39644 40133 82205 333 20199 58006;EQDQ01  00002PRCP99
0167832360999992002052018004-12140-045000FM-12+044099999V0203201N001510075019N0200001N1+03461+01601100721ADDAA199000091GF105991051041008001001001MA1999999095921MD1999999+0021REMSYN070AAXX  20184 83236 32598 53203 10346 20160 39592 40072 85400 333 58002;EQDQ01  00002PRCP99
0198832360999992002052100004-12140-045000FM-12+044099999V0209999C000010075019N0100001N1+02481+02011100911ADDAA199000091GF108991061051008001071999KA1240M+03591MA1999999096051MD1999999-0061REMSYN088AAXX  21004 83236 32597 80000 10248 20201 39605 40091 8657/ 333 10359 29061 55087 59006;EQDQ01  00002PRCP99
0186832360999992002052112004-12140-045000FM-12+044099999V0209999C000010075019N0100001N1+02651+01831101271ADDAA199000091GF107991051041008001051071KA1240N+02171MA1999999096391MD1999999-0051REMSYN076AAXX  21124 83236 32597 70000 10265 20183 39639 40127 85457 333 20217 59005;EQDQ01  00002PRCP99
0167832360999992002052118004-12140-045000FM-12+044099999V0203201N001011050019N0200001N1+03251+01711100671ADDAA199000091GF105991041041008001001051MA1999999095871MD1999999-0051REMSYN070AAXX  21184 83236 32598 53202 10325 20171 39587 40067 84405 333 59005;EQDQ01  00002PRCP99
0198832360999992002052200004-12140-045000FM-12+044099999V0201801N001010075019N0100001N1+02541+02131100971ADDAA199000091GF108991061041008001071999KA1240M+03441MA1999999096121MD1999999+0071REMSYN088AAXX  22004 83236 32597 81802 10254 20213 39612 40097 8647/ 333 10344 29064 55054 58007;EQDQ01  00002PRCP99
0186832360999992002052212004-12140-045000FM-12+044099999V0203201N001510075019N0200001N1+02511+01911101171ADDAA199000091GF107991051021008001061071KA1240N+02231MA1999999096311MD1999999-0081REMSYN076AAXX  22124 83236 32598 73203 10251 20191 39631 40117 85267 333 20223 59008;EQDQ01  00002PRCP99
0156832360999992002052218004-12140-045000FM-12+044099999V0201401N003610075019N0100001N1+02541+02251100761ADDAY151061AY251061GF106991051051008001001071MA1999999095891MW1161REMSYN081AAXX  22184 83236 21597 61407 10254 20225 39589 40076 71655 85507 333 8002 60021;
0213832360999992002052300004-12140-045000FM-12+044099999V0201401N001510075019N0200001N1+02501+02191101041ADDAA106000591AY151061AY251061GF107991061021008001061051KA1240M+03451MA1999999096161MD1999999+0041MW1031REMSYN100AAXX  23004 83236 21598 71403 10250 20219 39616 40104 70355 86265 333 10345 29080 55075 58004 69961;
0201832360999992002052312004-12140-045000FM-12+044099999V0200501N002110075019N0100001N1+02311+02231101341ADDAA124023191AY161061AY261061GF108991071071008001041999KA1240N+02171MA1999999096431MD1999999+0121MW1101REMSYN088AAXX  23124 83236 21597 80504 10231 20223 39643 40134 71066 8774/ 333 20217 58012 60234;
0182832360999992002052318004-12140-045000FM-12+044099999V0203601N002110075019N0040001N1+02351+02221101021ADDAA106003091AY161061AY251061GF108991061061008001051999MA1999999096091MD1999999+0201MW1151REMSYN082AAXX  23184 83236 21596 83604 10235 20222 39609 40102 71565 8665/ 333 58020 60031;
0213832360999992002052400004-12140-045000FM-12+044099999V0201401N002110075019N0020001N1+02221+01511101311ADDAA106000591AY151061AY251061GF108991071061008001021999KA1240M+02921MA1999999096371MD1999999+0211MW1511REMSYN100AAXX  24004 83236 21595 81404 10222 20151 39637 40131 75155 8762/ 333 10292 29095 55005 58021 69961;
0173832360999992002052412004-12140-045000FM-12+044099999V0201401N002110075019N0100001N1+02271+01961101541ADDAA124003091GF107991071051008001001001KA1240N+02061MA1999999096591MD1999999+0161REMSYN082AAXX  24124 83236 22597 71404 10227 20196 39659 40154 87500 333 20206 58016 60034;
0167832360999992002052418004-12140-045000FM-12+044099999V0203601N001010075019N0100001N1+02881+01861100981ADDAA199000091GF106991061021008001001001MA1999999096111MD1999999+0021REMSYN070AAXX  24184 83236 32597 63602 10288 20186 39611 40098 86200 333 58002;EQDQ01  00002PRCP99
0198832360999992002052500004-12140-045000FM-12+044099999V0200501N005110450019N0100001N1+02291+02001101281ADDAA199000091GF107991031041008001051001KA1240M+03051MA1999999096351MD1999999-0021REMSYN088AAXX  25004 83236 32597 70510 10229 20200 39635 40128 83450 333 10305 29076 55041 59002;EQDQ01  00002PRCP99
0186832360999992002052512004-12140-045000FM-12+044099999V0201801N002112200019N0100001N1+02411+01891101511ADDAA199000091GF104991031021008001081001KA1240N+01991MA1999999096581MD1999999-0011REMSYN076AAXX  25124 83236 32597 41804 10241 20189 39658 40151 83280 333 20199 59001;EQDQ01  00002PRCP99
0167832360999992002052518004-12140-045000FM-12+044099999V0201401N002110075019N0100001N1+02841+01601101091ADDAA199000091GF106991061021008001001001MA1999999096211MD1999999+0101REMSYN070AAXX  25184 83236 32597 61404 10284 20160 39621 40109 86200 333 58010;EQDQ01  00002PRCP99
0198832360999992002052600004-12140-045000FM-12+044099999V0201801N001012200019N0100001N1+02221+01801101421ADDAA199000091GF103991031001022501031001KA1240M+03051MA1999999096481MD1999999+0131REMSYN088AAXX  26004 83236 32897 31802 10222 20180 39648 40142 83030 333 10305 29068 55063 58013;EQDQ01  00002PRCP99
0196832360999992002052612004-12140-045000FM-12+044099999V0202701N001012200019N0200001N1+02211+01461101641ADDAA199000091GA1001+999999999GF100991001001999999001001KA1240N+01581MA1999999096671MD1999999+0091REMSYN070AAXX  26124 83236 32998 02702 10221 20146 39667 40164 333 20158 58009;EQDQ01  00002PRCP99
0167832360999992002052618004-12140-045000FM-12+044099999V0201801N002112200019N0200001N1+02971+01251101131ADDAA199000091GF102991021011008001001001MA1999999096221MD1999999+0011REMSYN070AAXX  26184 83236 32598 21804 10297 20125 39622 40113 82100 333 58001;EQDQ01  00002PRCP99
0208832360999992002052700004-12140-045000FM-12+044099999V0209999C000012200019N0100001N1+01911+01661101481ADDAA199000091GA1001+999999999GF100991001001999999001001KA1240M+03081MA1999999096491MD1999999+0011REMSYN082AAXX  27004 83236 32997 00000 10191 20166 39649 40148 333 10308 29068 55101 58001;EQDQ01  00002PRCP99
0196832360999992002052712004-12140-045000FM-12+044099999V0202301N001512200019N0200001N1+02001+01251101641ADDAA199000091GA1001+999999999GF100991001001999999001001KA1240N+01281MA1999999096631MD1999999-0041REMSYN070AAXX  27124 83236 32998 02303 10200 20125 39663 40164 333 20128 59004;EQDQ01  00002PRCP99
0177832360999992002052718004-12140-045000FM-12+044099999V0200901N002612200019N0200001N1+02951+01051101061ADDAA199000091GA1001+999999999GF100991001001999999001001MA1999999096121MD1999999-0101REMSYN064AAXX  27184 83236 32998 00905 10295 20105 39612 40106 333 59010;EQDQ01  00002PRCP99
0208832360999992002052800004-12140-045000FM-12+044099999V0202701N001512200019N0100001N1+01891+01661101301ADDAA199000091GA1001+999999999GF100991001001999999001001KA1240M+03081MA1999999096301MD1999999-0191REMSYN082AAXX  28004 83236 32997 02703 10189 20166 39630 40130 333 10308 29067 55103 59019;EQDQ01  00002PRCP99
0196832360999992002052812004-12140-045000FM-12+044099999V0203201N001012200019N0200001N1+02071+01101101581ADDAA199000091GA1001+999999999GF100991001001999999001001KA1240N+01251MA1999999096581MD1999999-0051REMSYN070AAXX  28124 83236 32998 03202 10207 20110 39658 40158 333 20125 59005;EQDQ01  00002PRCP99
0177832360999992002052818004-12140-045000FM-12+044099999V0201401N001512200019N0200001N1+03041+00981100961ADDAA199000091GA1001+999999999GF100991001001999999001001MA1999999096031MD1999999-0091REMSYN064AAXX  28184 83236 32998 01403 10304 20098 39603 40096 333 59009;EQDQ01  00002PRCP99
0208832360999992002052900004-12140-045000FM-12+044099999V0202701N000512200019N0200001N1+02741+01491101301ADDAA199000091GA1001+999999999GF100991001001999999001001KA1240M+03151MA1999999096301MD1999999+0001REMSYN082AAXX  29004 83236 32998 02701 10274 20149 39630 40130 333 10315 29063 55106 58000;EQDQ01  00002PRCP99
0177832360999992002052918004-12140-045000FM-12+044099999V0203601N001512200019N0200001N1+02091+01171101031ADDAA199000091GA1001+999999999GF100991001001999999001001MA1999999096081MD1999999+0051REMSYN064AAXX  29184 83236 32998 03603 10209 20117 39608 40103 333 58005;EQDQ01  00002PRCP99
0208832360999992002053000004-12140-045000FM-12+044099999V0209999C000012200019N0200001N1+01961+01501101341ADDAA199000091GA1001+999999999GF100991001001999999001001KA1240M+03121MA1999999096341MD1999999+0041REMSYN082AAXX  30004 83236 32998 00000 10196 20150 39634 40134 333 10312 29062 55106 58004;EQDQ01  00002PRCP99
0186832360999992002053012004-12140-045000FM-12+044099999V0202301N001012200019N0200001N1+02011+01251101511ADDAA199000091GF103991001001999999001071KA1240N+01251MA1999999096511MD1999999-0011REMSYN076AAXX  30124 83236 32998 32302 10201 20125 39651 40151 80007 333 20125 59001;EQDQ01  00002PRCP99
0167832360999992002053018004-12140-045000FM-12+044099999V0200901N002619999999N0200001N1+03171+01031100961ADDAA199000091GF105991001001999999001071MA1999999096051MD1999999-0031REMSYN070AAXX  30184 83236 32998 50905 10317 20103 39605 40096 80007 333 59003;EQDQ01  00002PRCP99
0208832360999992002053100004-12140-045000FM-12+044099999V0202701N001012200019N0100001N1+01931+01571101381ADDAA199000091GA1001+999999999GF100991001001999999001001KA1240M+03311MA1999999096381MD1999999+0041REMSYN082AAXX  31004 83236 32997 02702 10193 20157 39638 40138 333 10331 29062 55100 58004;EQDQ01  00002PRCP99
0196832360999992002053112004-12140-045000FM-12+044099999V0202301N001012200019N0200001N1+02151+01331101701ADDAA199000091GA1001+999999999GF100991001001999999001001KA1240N+01341MA1999999096701MD1999999+0191REMSYN070AAXX  31124 83236 32998 02302 10215 20133 39670 40170 333 20134 58019;EQDQ01  00002PRCP99
0167832360999992002053118004-12140-045000FM-12+044099999V0203601N001512200019N0200001N1+03331+01281101081ADDAA199000091GF104991001001999999001071MA1999999096191MD1999999+0141REMSYN070AAXX  31184 83236 32998 43603 10333 20128 39619 40108 80007 333 58014;EQDQ01  00002PRCP99
0198832360999992002060100004-12140-045000FM-12+044099999V0209999C000012200019N0100001N1+02071+01641101351ADDAA199000091GF103991001001999999001041KA1240M+03401MA1999999096381MD1999999+0001REMSYN088AAXX  01004 83236 32997 30000 10207 20164 39638 40135 80004 333 10340 29061 55101 58000;EQDQ01  00002PRCP99
0186832360999992002060112004-12140-045000FM-12+044099999V0203201N001012200019N0200001N1+02241+01451101701ADDAA199000091GF104991001001999999001041KA1240N+01471MA1999999096721MD1999999+0021REMSYN076AAXX  01124 83236 32998 43202 10224 20145 39672 40170 80004 333 20147 58002;EQDQ01  00002PRCP99
0167832360999992002060118004-12140-045000FM-12+044099999V0201801N000519999999N0200001N1+03201+01371101131ADDAA199000091GF105991001001999999001051MA1999999096231MD1999999+0041REMSYN070AAXX  01184 83236 32998 51801 10320 20137 39623 40113 80005 333 58004;EQDQ01  00002PRCP99
0208832360999992002060200004-12140-045000FM-12+044099999V0201801N001512200019N0100001N1+02021+01601101391ADDAA199000091GA1001+999999999GF100991001001999999001001KA1240M+03311MA1999999096431MD1999999+0031REMSYN082AAXX  02004 83236 32997 01803 10202 20160 39643 40139 333 10331 29062 55010 58003;EQDQ01  00002PRCP99
0186832360999992002060212004-12140-045000FM-12+044099999V0201801N002612200019N0200001N1+02291+01491101651ADDAA199000091GF103991001001999999001081KA1240N+01471MA1999999096671MD1999999-0051REMSYN076AAXX  02124 83236 32998 31805 10229 20149 39667 40165 80008 333 20147 59005;EQDQ01  00002PRCP99
0167832360999992002060218004-12140-045000FM-12+044099999V0201801N001512200019N0200001N1+03131+01351101141ADDAA199000091GF104991041021008001001001MA1999999096241MD1999999+0011REMSYN070AAXX  02184 83236 32598 41803 10313 20135 39624 40114 84200 333 58001;EQDQ01  00002PRCP99
0198832360999992002060300004-12140-045000FM-12+044099999V0202701N001510120019N0100001N1+02351+01641101371ADDAA199000091GF106991061081008001001001KA1240M+03311MA1999999096441MD1999999+0011REMSYN088AAXX  03004 83236 32597 62703 10235 20164 39644 40137 86800 333 10331 29056 55089 58001;EQDQ01  00002PRCP99
0196832360999992002060312004-12140-045000FM-12+044099999V0202701N001512200019N0200001N1+02221+01351101541ADDAA199000091GA1001+999999999GF100991001001999999001001KA1240N+01481MA1999999096601MD1999999-0071REMSYN070AAXX  03124 83236 32998 02703 10222 20135 39660 40154 333 20148 59007;EQDQ01  00002PRCP99
0177832360999992002060318004-12140-045000FM-12+044099999V0202701N001012200019N0200001N1+03111+01241100991ADDAA199000091GA1001+999999999GF100991001001999999001001MA1999999096121MD1999999-0121REMSYN064AAXX  03184 83236 32998 02702 10311 20124 39612 40099 333 59012;EQDQ01  00002PRCP99
0208832360999992002060400004-12150-045000FM-12+044099999V0202701N001012200019N0100001N1+01931+01571101271ADDAA199000091GA1001+999999999GF100991001001999999001001KA1240M+03281MA1999999096401MD1999999-0041REMSYN082AAXX  04004 83236 32997 02702 10193 20157 39640 40127 333 10328 29062 55104 59004;EQDQ01  00002PRCP99
0196832360999992002060412004-12150-045000FM-12+044099999V0202701N002112200019N0200001N1+02181+01441101621ADDAA199000091GA1001+999999999GF100991001001999999001001KA1240N+01361MA1999999096631MD1999999+0031REMSYN070AAXX  04124 83236 32998 02704 10218 20144 39663 40162 333 20136 58003;EQDQ01  00002PRCP99
0167832360999992002060418004-12150-045000FM-12+044099999V0202301N001012200019N0200001N1+03231+01191100981ADDAA199000091GF101991011011008001001001MA1999999096071MD1999999-0071REMSYN070AAXX  04184 83236 32598 12302 10323 20119 39607 40098 81100 333 59007;EQDQ01  00002PRCP99
0208832360999992002060500004-12150-045000FM-12+044099999V0202701N001012200019N0100001N1+02021+01601101301ADDAA199000091GA1001+999999999GF100991001001999999001001KA1240M+03351MA1999999096331MD1999999-0071REMSYN082AAXX  05004 83236 32997 02702 10202 20160 39633 40130 333 10335 29062 55105 59007;EQDQ01  00002PRCP99
0186832360999992002060512004-12150-045000FM-12+044099999V0202301N001012200019N0200001N1+02211+01611101471ADDAA199000091GF101991011011008001001001KA1240N+01511MA1999999096491MD1999999-0141REMSYN076AAXX  05124 83236 32598 12302 10221 20161 39649 40147 81100 333 20151 59014;EQDQ01  00002PRCP99
0167832360999992002060518004-12150-045000FM-12+044099999V0200901N001012200019N0200001N1+03171+01471100911ADDAA199000091GF104991041021008001001001MA1999999096061MD1999999-0011REMSYN070AAXX  05184 83236 32598 40902 10317 20147 39606 40091 84200 333 59001;EQDQ01  00002PRCP99
0208832360999992002060600004-12150-045000FM-12+044099999V0209999C000012200019N0200001N1+02021+01741101291ADDAA199000091GA1001+999999999GF100991001001999999001001KA1240M+03371MA1999999096321MD1999999-0011REMSYN082AAXX  06004 83236 32998 00000 10202 20174 39632 40129 333 10337 29068 55090 59001;EQDQ01  00002PRCP99
0167832360999992002060618004-12150-045000FM-12+044099999V0200901N001010075019N0200001N1+03081+01441100951ADDAA199000091GF105991051021008001001001MA1999999096061MD1999999+0011REMSYN070AAXX  06184 83236 32598 50902 10308 20144 39606 40095 85200 333 58001;EQDQ01  00002PRCP99
0186832360999992002060712004-12150-045000FM-12+044099999V0202701N000510210019N0200001N1+02141+01571101541ADDAA199000091GF106991061001022501051001KA1240N+01681MA1999999096561MD1999999+0031REMSYN076AAXX  07124 83236 32898 62701 10214 20157 39656 40154 86050 333 20168 58003;EQDQ01  00002PRCP99
0167832360999992002060718004-12150-045000FM-12+044099999V0200901N003112200019N0200001N1+03201+01071100981ADDAA199000091GF104991041021008001001001MA1999999096101MD1999999+0041REMSYN070AAXX  07184 83236 32598 40906 10320 20107 39610 40098 84200 333 58004;EQDQ01  00002PRCP99
0198832360999992002060800004-12150-045000FM-12+044099999V0202301N001012200019N0100001N1+01991+01541101331ADDAA199000091GF103991031021008001001001KA1240M+03311MA1999999096351MD1999999+0071REMSYN088AAXX  08004 83236 32597 32302 10199 20154 39635 40133 83200 333 10331 29062 55079 58007;EQDQ01  00002PRCP99
0202832360999992002060812004-12150-045000FM-12+044099999V0202301N001512200019N0200001N1+02261+01591101731ADDAA199000091GF103991999001999999061001KA1240N+01491MA1999999096741MD1999999+0181REMSYN076AAXX  08124 83236 32998 32303 10226 20159 39674 40173 80060 333 20149 58018;EQDQ01+000002SCOTLCQ02  00002PRCP99
0167832360999992002060818004-12150-045000FM-12+044099999V0201401N001010075019N0200001N1+03211+01321101111ADDAA199000091GF106991051021008001001051MA1999999096221MD1999999+0121REMSYN070AAXX  08184 83236 32598 61402 10321 20132 39622 40111 85205 333 58012;EQDQ01  00002PRCP99
0198832360999992002060900004-12150-045000FM-12+044099999V0200901N001010075019N0200001N1+02511+01641101431ADDAA199000091GF108991071021008001061999KA1240M+03361MA1999999096521MD1999999+0171REMSYN088AAXX  09004 83236 32598 80902 10251 20164 39652 40143 8726/ 333 10336 29054 55093 58017;EQDQ01  00002PRCP99
0167832360999992002060918004-12150-045000FM-12+044099999V0201401N002111050019N0200001N1+03191+01571101051ADDAA199000091GF106991041021008001001071MA1999999096201MD1999999-0021REMSYN070AAXX  09184 83236 32598 61404 10319 20157 39620 40105 84207 333 59002;EQDQ01  00002PRCP99
0208832360999992002061000004-12150-045000FM-12+044099999V0202301N001512200019N0200001N1+02181+01701101331ADDAA199000091GA1001+999999999GF100991001001999999001001KA1240M+03291MA1999999096391MD1999999-0131REMSYN082AAXX  10004 83236 32998 02303 10218 20170 39639 40133 333 10329 29064 55083 59013;EQDQ01  00002PRCP99
0186832360999992002061012004-12150-045000FM-12+044099999V0202301N001512200019N0200001N1+02251+01451101651ADDAA199000091GF103991001001999999001071KA1240N+01511MA1999999096681MD1999999-0011REMSYN076AAXX  10124 83236 32998 32303 10225 20145 39668 40165 80007 333 20151 59001;EQDQ01  00002PRCP99
0167832360999992002061018004-12150-045000FM-12+044099999V0201801N001512200019N0200001N1+03241+01361101021ADDAA199000091GF103991011011012501001051MA1999999096151MD1999999-0051REMSYN070AAXX  10184 83236 32698 31803 10324 20136 39615 40102 81105 333 59005;EQDQ01  00002PRCP99
0208832360999992002061100004-12150-045000FM-12+044099999V0202701N001012200019N0200001N1+02121+01411101131ADDAA199000091GA1001+999999999GF100991001001999999001001KA1240M+03331MA1999999096361MD1999999-0031REMSYN082AAXX  11004 83236 32998 02702 10212 20141 39636 40113 333 10333 29055 55105 59003;EQDQ01  00002PRCP99
0196832360999992002061112004-12150-045000FM-12+044099999V0201801N001512200019N0200001N1+02211+01341101581ADDAA199000091GA1001+999999999GF100991001001999999001001KA1240N+01511MA1999999096611MD1999999-0071REMSYN070AAXX  11124 83236 32998 01803 10221 20134 39661 40158 333 20151 59007;EQDQ01  00002PRCP99
0208832360999992002061200004-12150-045000FM-12+044099999V0209999C000012200019N0200001N1+02111+01491101321ADDAA199000091GA1001+999999999GF100991001001999999001001KA1240M+03321MA1999999096361MD1999999+0001REMSYN082AAXX  12004 83236 32998 00000 10211 20149 39636 40132 333 10332 29056 55106 58000;EQDQ01  00002PRCP99
0196832360999992002061212004-12150-045000FM-12+044099999V0202301N001012200019N0200001N1+02281+01641101571ADDAA199000091GA1001+999999999GF100991001001999999001001KA1240N+01551MA1999999096611MD1999999+0001REMSYN070AAXX  12124 83236 32998 02302 10228 20164 39661 40157 333 20155 58000;EQDQ01  00002PRCP99
0198832360999992002061300004-12150-045000FM-12+044099999V0202301N001012200019N0200001N1+02171+01631101351ADDAA199000091GF103991031001022501061001KA1240M+03341MA1999999096401MD1999999+0041REMSYN088AAXX  13004 83236 32898 32302 10217 20163 39640 40135 83060 333 10334 29060 55091 58004;EQDQ01  00002PRCP99
0162832360999992002061412004-12150-045000FM-12+044099999V0209999C000012200019N0200001N1+02551+01811101641ADDGF101991011011999999001001KA1240N+01881MA1999999096731MD1999999+0051REMSYN082AAXX  14124 83236 22998 10000 10255 20181 39673 40164 81100 333 20188 58005 69994;
0167832360999992002061418004-12150-045000FM-12+044099999V0200901N002612200019N0200001N1+03291+01291101191ADDAA199000091GF103991031021012501001001MA1999999096341MD1999999+0101REMSYN070AAXX  14184 83236 32698 30905 10329 20129 39634 40119 83200 333 58010;EQDQ01  00002PRCP99
0198832360999992002061500004-12150-045000FM-12+044099999V0202701N001512200019N0200001N1+02111+01511101431ADDAA199000091GF103991031001022501061001KA1240M+03361MA1999999096511MD1999999+0131REMSYN088AAXX  15004 83236 32898 32703 10211 20151 39651 40143 83060 333 10336 29058 5016/ 58013;EQDQ01  00002PRCP99
0186832360999992002061512004-12150-045000FM-12+044099999V0203201N001012200019N0200001N1+02301+01611101841ADDAA199000091GF101991011021012501001001KA1240N+01651MA1999999096861MD1999999+0131REMSYN076AAXX  15124 83236 32698 13202 10230 20161 39686 40184 81200 333 20165 58013;EQDQ01  00002PRCP99
0208832360999992002061600004-12150-045000FM-12+044099999V0201401N002612200019N0200001N1+02321+01191101521ADDAA199000091GA1001+999999999GF100991001001999999001001KA1240M+03311MA1999999096581MD1999999+0071REMSYN082AAXX  16004 83236 32998 01405 10232 20119 39658 40152 333 10331 29048 55106 58007;EQDQ01  00002PRCP99
0196832360999992002061612004-12150-045000FM-12+044099999V0201801N003112200019N0200001N1+02241+01501101811ADDAA199000091GA1001+999999999GF100991001001999999001001KA1240N+01551MA1999999096851MD1999999-0011REMSYN070AAXX  16124 83236 32998 01806 10224 20150 39685 40181 333 20155 59001;EQDQ01  00002PRCP99
0186832360999992002061712004-12150-045000FM-12+044099999V0202301N001012200019N0200001N1+02291+01441101721ADDAA199000091GF102991021011012501001001KA1240N+01641MA1999999096751MD1999999-0101REMSYN076AAXX  17124 83236 32698 22302 10229 20144 39675 40172 82100 333 20164 59010;EQDQ01  00002PRCP99
0167832360999992002061718004-12150-045000FM-12+044099999V0200901N002612200019N0200001N1+03091+01441101191ADDAA199000091GF103991031021008001001001MA1999999096321MD1999999-0061REMSYN070AAXX  17184 83236 32598 30905 10309 20144 39632 40119 83200 333 59006;EQDQ01  00002PRCP99
0198832360999992002061800004-12150-045000FM-12+044099999V0202301N001512200019N0200001N1+02321+01471101441ADDAA199000091GF104991041021012501061001KA1240M+03271MA1999999096501MD1999999-0071REMSYN088AAXX  18004 83236 32698 42303 10232 20147 39650 40144 84260 333 10327 29054 55100 59007;EQDQ01  00002PRCP99
0186832360999992002061812004-12140-045000FM-12+044099999V0200501N003112200019N0200001N1+02511+01391101741ADDAA199000091GF101991011021012501001001KA1240N+01631MA1999999096811MD1999999+0061REMSYN076AAXX  18124 83236 32698 10506 10251 20139 39681 40174 81200 333 20163 58006;EQDQ01  00002PRCP99
0198832360999992002061900004-12140-045000FM-12+044099999V0203201N001012200019N0200001N1+02031+01481101621ADDAA199000091GF104991041021012501061001KA1240M+03181MA1999999096661MD1999999+0161REMSYN088AAXX  19004 83236 32698 43202 10203 20148 39666 40162 84260 333 10318 29056 55106 58016;EQDQ01  00002PRCP99
0174832360999992002061912004-12140-045000FM-12+044099999V0202301N002110075019N0200001N1+02341+01931101301ADDGF106991051041008001071001KA1240M+03271MA1999999096381MD1999999-0021REMSYN094AAXX  19124 83236 22598 62304 10234 20193 39638 40130 85470 333 10327 29073 55074 59002 69921;
0198832360999992002062000004-12140-045000FM-12+044099999V0209999C000010120019N0200001N1+02131+01641101581ADDAA199000091GF105991051021012501061001KA1240M+03111MA1999999096651MD1999999-0011REMSYN088AAXX  20004 83236 32698 50000 10213 20164 39665 40158 85260 333 10311 29063 55100 59001;EQDQ01  00002PRCP99
0186832360999992002062012004-12140-045000FM-12+044099999V0201401N002612200019N0200001N1+02331+01701101791ADDAA199000091GF104991041021012501001001KA1240N+01821MA1999999096831MD1999999-0011REMSYN076AAXX  20124 83236 32698 41405 10233 20170 39683 40179 84200 333 20182 59001;EQDQ01  00002PRCP99
0167832360999992002062018004-12140-045000FM-12+044099999V0200901N002112200019N0200001N1+03071+01251101181ADDAA199000091GF102991021021008001001001MA1999999096311MD1999999-0171REMSYN070AAXX  20184 83236 32598 20904 10307 20125 39631 40118 82200 333 59017;EQDQ01  00002PRCP99
0167832360999992002062118004-12150-045000FM-12+044099999V0201401N002110075019N0200001N1+03051+01491101311ADDAA199000091GF108991061041008001071999MA1999999096351MD1999999+0041REMSYN070AAXX  21184 83236 32598 81404 10305 20149 39635 40131 8647/ 333 58004;EQDQ01  00002PRCP99
0186832360999992002062212004-12150-045000FM-12+044099999V0201801N003110075019N0200001N1+02301+01631101751ADDAA199000091GF107991051021008001071051KA1240N+01901MA1999999096811MD1999999-0011REMSYN076AAXX  22124 83236 32598 71806 10230 20163 39681 40175 85275 333 20190 59001;EQDQ01  00002PRCP99
0167832360999992002062218004-12150-045000FM-12+044099999V0201401N003610075019N0200001N1+02921+01471101341ADDAA199000091GF108991071041008001071999MA1999999096451MD1999999+0101REMSYN070AAXX  22184 83236 32598 81407 10292 20147 39645 40134 8747/ 333 58010;EQDQ01  00002PRCP99
0198832360999992002062300004-12150-045000FM-12+044099999V0202701N001010120019N0200001N1+02281+01491101631ADDAA199000091GF106991051021012501061071KA1240M+03081MA1999999096681MD1999999+0041REMSYN088AAXX  23004 83236 32698 62702 10228 20149 39668 40163 85267 333 10308 29057 55023 58004;EQDQ01  00002PRCP99
0186832360999992002062312004-12150-045000FM-12+044099999V0202701N000512200019N0200001N1+02301+01431101761ADDAA199000091GF104991021001022501061041KA1240N+01801MA1999999096811MD1999999+0001REMSYN076AAXX  23124 83236 32898 42701 10230 20143 39681 40176 82064 333 20180 58000;EQDQ01  00002PRCP99
0167832360999992002062318004-12150-045000FM-12+044099999V0200501N004111050019N0200001N1+03041+01231101281ADDAA199000091GF105991031021008001001021MA1999999096401MD1999999-0051REMSYN070AAXX  23184 83236 32598 50508 10304 20123 39640 40128 83202 333 59005;EQDQ01  00002PRCP99
0198832360999992002062400004-12150-045000FM-12+044099999V0202601N002111050019N0100001N1+02371+01321101641ADDAA199000091GF106991021001022501061081KA1240M+03201MA1999999096711MD1999999+0031REMSYN088AAXX  24004 83236 32897 62604 10237 20132 39671 40164 82068 333 10320 29049 55090 58003;EQDQ01  00002PRCP99
0186832360999992002062412004-12150-045000FM-12+044099999V0201801N002112200019N0200001N1+02001+01301101961ADDAA199000091GF105991021001022501041061KA1240N+01591MA1999999096981MD1999999+0171REMSYN076AAXX  24124 83236 32898 51804 10200 20130 39698 40196 82046 333 20159 58017;EQDQ01  00002PRCP99
0167832360999992002062418004-12150-045000FM-12+044099999V0200501N001012200019N0200001N1+02991+01131101431ADDAA199000091GF104991001001999999001061MA1999999096521MD1999999+0121REMSYN070AAXX  24184 83236 32998 40502 10299 20113 39652 40143 80006 333 58012;EQDQ01  00002PRCP99
0198832360999992002062500004-12150-045000FM-12+044099999V0202701N001019999999N0100001N1+02091+01491101731ADDAA199000091GF107991071051999999001001KA1240M+03091MA1999999096731MD1999999+0021REMSYN088AAXX  25004 83236 32997 72702 10209 20149 39673 40173 87500 333 10309 29058 55077 58002;EQDQ01  00002PRCP99
0186832360999992002062512004-12150-045000FM-12+044099999V0200901N000512200019N0200001N1+02341+01601101961ADDAA199000091GF104991001001999999001051KA1240N+01631MA1999999096981MD1999999+0001REMSYN076AAXX  25124 83236 32998 40901 10234 20160 39698 40196 80005 333 20163 58000;EQDQ01  00002PRCP99
0167832360999992002062518004-12150-045000FM-12+044099999V0200901N001512200019N0200001N1+03031+01471101471ADDAA199000091GF106991041021008001001061MA1999999096561MD1999999+0041REMSYN070AAXX  25184 83236 32598 60903 10303 20147 39656 40147 84206 333 58004;EQDQ01  00002PRCP99
0198832360999992002062600004-12150-045000FM-12+044099999V0202701N001010450019N0100001N1+02311+01611101731ADDAA199000091GF108991021011008001021999KA1240M+03251MA1999999096781MD1999999+0051REMSYN088AAXX  26004 83236 32597 82702 10231 20161 39678 40173 8212/ 333 10325 29058 55075 58005;EQDQ01  00002PRCP99
0186832360999992002062612004-12150-045000FM-12+044099999V0201801N003112200019N0200001N1+02281+01491101971ADDAA199000091GF104991001001999999001051KA1240N+01781MA1999999097011MD1999999+0031REMSYN076AAXX  26124 83236 32998 41806 10228 20149 39701 40197 80005 333 20178 58003;EQDQ01  00002PRCP99
0186832360999992002062712004-12150-045000FM-12+044099999V0200901N001510075019N0100001N1+02301+01791101921ADDAA199000091GF108991081051008001999999KA1240N+01971MA1999999096971MD1999999-0041REMSYN076AAXX  27124 83236 32597 80903 10230 20179 39697 40192 885// 333 20197 59004;EQDQ01  00002PRCP99
0167832360999992002062718004-12150-045000FM-12+044099999V0200901N003612200019N0200001N1+02881+01501101381ADDAA199000091GF105991031021008001001041MA1999999096481MD1999999-0171REMSYN070AAXX  27184 83236 32598 50907 10288 20150 39648 40138 83204 333 59017;EQDQ01  00002PRCP99
0196832360999992002062812004-12150-045000FM-12+044099999V0209999C000012200019N0200001N1+02141+01431101881ADDAA199000091GA1001+999999999GF100991001001999999001001KA1240N+01471MA1999999096881MD1999999-0091REMSYN070AAXX  28124 83236 32998 00000 10214 20143 39688 40188 333 20147 59009;EQDQ01  00002PRCP99
0167832360999992002062818004-12150-045000FM-12+044099999V0200901N003112200019N0200001N1+03051+01041101241ADDAA199000091GF102991021011008001001001MA1999999096351MD1999999-0131REMSYN070AAXX  28184 83236 32598 20906 10305 20104 39635 40124 82100 333 59013;EQDQ01  00002PRCP99
0198832360999992002062900004-12150-045000FM-12+044099999V0202301N001512200019N0100001N1+02271+01281101531ADDAA199000091GF103991031021008001001001KA1240M+03211MA1999999096571MD1999999-0121REMSYN088AAXX  29004 83236 32597 32303 10227 20128 39657 40153 83200 333 10321 29050 55102 59012;EQDQ01  00002PRCP99
0196832360999992002062912004-12150-045000FM-12+044099999V0202701N000512200019N0200001N1+02331+01581101741ADDAA199000091GA1001+999999999GF100991001001999999001001KA1240N+01501MA1999999096791MD1999999-0091REMSYN070AAXX  29124 83236 32998 02701 10233 20158 39679 40174 333 20150 59009;EQDQ01  00002PRCP99
0167832360999992002062918004-12150-045000FM-12+044099999V0200901N003612200019N0200001N1+03181+01351101221ADDAA199000091GF104991041021008001001001MA1999999096321MD1999999-0031REMSYN070AAXX  29184 83236 32598 40907 10318 20135 39632 40122 84200 333 59003;EQDQ01  00002PRCP99
0198832360999992002063000004-12150-045000FM-12+044099999V0202701N001512200019N0100001N1+02331+01471101571ADDAA199000091GF104991041021008001001001KA1240M+03301MA1999999096641MD1999999+0001REMSYN088AAXX  30004 83236 32597 42703 10233 20147 39664 40157 84200 333 10330 29051 55092 58000;EQDQ01  00002PRCP99
0196832360999992002063012004-12150-045000FM-12+044099999V0200901N001012200019N0200001N1+02341+01551101871ADDAA199000091GA1001+999999999GF100991001001999999001001KA1240N+01801MA1999999096931MD1999999+0141REMSYN070AAXX  30124 83236 32998 00902 10234 20155 39693 40187 333 20180 58014;EQDQ01  00002PRCP99
0167832360999992002063018004-12150-045000FM-12+044099999V0200501N001012200019N0200001N1+03061+01301101321ADDAA199000091GF104991041011008001001001MA1999999096471MD1999999+0151REMSYN070AAXX  30184 83236 32598 40502 10306 20130 39647 40132 84100 333 58015;EQDQ01  00002PRCP99
0208832360999992002070100004-12150-045000FM-12+044099999V0203601N000512200019N0200001N1+01991+01481101681ADDAA199000091GA1001+999999999GF100991001001999999001001KA1240M+03201MA1999999096701MD1999999+0061REMSYN082AAXX  01004 83236 32998 03601 10199 20148 39670 40168 333 10320 29060 55098 58006;EQDQ01  00002PRCP99
0196832360999992002070112004-12150-045000FM-12+044099999V0201801N002612200019N0200001N1+02171+01271102101ADDAA199000091GA1001+999999999GF100991001001999999001001KA1240N+01311MA1999999097091MD1999999+0161REMSYN070AAXX  01124 83236 32998 01805 10217 20127 39709 40210 333 20131 58016;EQDQ01  00002PRCP99
0167832360999992002070118004-12150-045000FM-12+044099999V0201401N004112200019N0200001N1+03201+01281101481ADDAA199000091GF101991011011008001001001MA1999999096551MD1999999+0081REMSYN070AAXX  01184 83236 32598 11408 10320 20128 39655 40148 81100 333 58008;EQDQ01  00002PRCP99
0208832360999992002070200004-12150-045000FM-12+044099999V0202701N001012200019N0200001N1+02041+01451101701ADDAA199000091GA1001+999999999GF100991001001999999001001KA1240M+03301MA1999999096711MD1999999+0011REMSYN082AAXX  02004 83236 32998 02702 10204 20145 39671 40170 333 10330 29056 55102 58001;EQDQ01  00002PRCP99
0196832360999992002070212004-12150-045000FM-12+044099999V0201801N001012200019N0200001N1+02211+01341101891ADDAA199000091GA1001+999999999GF100991001001999999001001KA1240N+01431MA1999999096891MD1999999-0201REMSYN070AAXX  02124 83236 32998 01802 10221 20134 39689 40189 333 20143 59020;EQDQ01  00002PRCP99
0167832360999992002070218004-12150-045000FM-12+044099999V0201401N003612200019N0200001N1+03141+01271101241ADDAA199000091GF102991021011008001001001MA1999999096341MD1999999-0211REMSYN070AAXX  02184 83236 32598 21407 10314 20127 39634 40124 82100 333 59021;EQDQ01  00002PRCP99
0208832360999992002070300004-12150-045000FM-12+044099999V0201801N001512200019N0200001N1+02181+01321101521ADDAA199000091GA1001+999999999GF100991001001999999001001KA1240M+03231MA1999999096561MD1999999-0151REMSYN082AAXX  03004 83236 32998 01803 10218 20132 39656 40152 333 10323 29052 55101 59015;EQDQ01  00002PRCP99
0186832360999992002070312004-12150-045000FM-12+044099999V0201801N002612200019N0200001N1+02271+01571101821ADDAA199000091GF101991011011008001001001KA1240N+01521MA1999999096851MD1999999-0041REMSYN076AAXX  03124 83236 32598 11805 10227 20157 39685 40182 81100 333 20152 59004;EQDQ01  00002PRCP99
0167832360999992002070318004-12150-045000FM-12+044099999V0200901N002110075019N0200001N1+03011+01001101331ADDAA199000091GF105991051021008001001001MA1999999096391MD1999999+0051REMSYN070AAXX  03184 83236 32598 50904 10301 20100 39639 40133 85200 333 58005;EQDQ01  00002PRCP99
0198832360999992002070400004-12150-045000FM-12+044099999V0202701N001012200019N0200001N1+02061+01261101531ADDAA199000091GF103991031021008001001001KA1240M+03131MA1999999096561MD1999999+0001REMSYN088AAXX  04004 83236 32598 32702 10206 20126 39656 40153 83200 333 10313 29054 55090 58000;EQDQ01  00002PRCP99
0186832360999992002070412004-12150-045000FM-12+044099999V0200901N004110450019N0200001N1+02321+01631101871ADDAA199000091GF107991041021008001061001KA1240N+01991MA1999999096891MD1999999+0041REMSYN076AAXX  04124 83236 32598 70908 10232 20163 39689 40187 84260 333 20199 58004;EQDQ01  00002PRCP99
0167832360999992002070418004-12150-045000FM-12+044099999V0201401N005110075019N0200001N1+02951+01231101351ADDAA199000091GF105991051021008001001001MA1999999096461MD1999999+0071REMSYN070AAXX  04184 83236 32598 51410 10295 20123 39646 40135 85200 333 58007;EQDQ01  00002PRCP99
0198832360999992002070500004-12150-045000FM-12+044099999V0201801N003612200019N0200001N1+02261+01391101581ADDAA199000091GF103991031061008001001001KA1240M+03051MA1999999096641MD1999999+0081REMSYN088AAXX  05004 83236 32598 31807 10226 20139 39664 40158 83600 333 10305 29054 55068 58008;EQDQ01  00002PRCP99
0196832360999992002070512004-12150-045000FM-12+044099999V0201801N003612200019N0200001N1+02171+01681101781ADDAA199000091GA1001+999999999GF100991001001999999001001KA1240N+01451MA1999999096811MD1999999-0081REMSYN070AAXX  05124 83236 32998 01807 10217 20168 39681 40178 333 20145 59008;EQDQ01  00002PRCP99
0167832360999992002070518004-12150-045000FM-12+044099999V0202301N001012200019N0200001N1+03151+01411101101ADDAA199000091GF103991031011008001001001MA1999999096181MD1999999-0281REMSYN070AAXX  05184 83236 32598 32302 10315 20141 39618 40110 83100 333 59028;EQDQ01  00002PRCP99
0198832360999992002070600004-12150-045000FM-12+044099999V0202301N001012200019N0200001N1+02421+01461101381ADDAA199000091GF103991031021008001001001KA1240M+03361MA1999999096451MD1999999-0191REMSYN088AAXX  06004 83236 32598 32302 10242 20146 39645 40138 83200 333 10336 29041 55102 59019;EQDQ01  00002PRCP99
0186832360999992002070612004-12150-045000FM-12+044099999V0202701N000512200019N0200001N1+02261+01341101691ADDAA199000091GF101991001001999999001011KA1240N+01591MA1999999096751MD1999999-0061REMSYN076AAXX  06124 83236 32998 12701 10226 20134 39675 40169 80001 333 20159 59006;EQDQ01  00002PRCP99
0167832360999992002070618004-12150-045000FM-12+044099999V0202701N002112200019N0200001N1+03161+01241101061ADDAA199000091GF102991021011008001001001MA1999999096191MD1999999+0011REMSYN070AAXX  06184 83236 32598 22704 10316 20124 39619 40106 82100 333 58001;EQDQ01  00002PRCP99
0198832360999992002070700004-12150-045000FM-12+044099999V0201801N002112200019N0100001N1+02181+01491101391ADDAA199000091GF104991041021008001001001KA1240M+03291MA1999999096441MD1999999-0011REMSYN088AAXX  07004 83236 32597 41804 10218 20149 39644 40139 84200 333 10329 29054 55106 59001;EQDQ01  00002PRCP99
0186832360999992002070712004-12150-045000FM-12+044099999V0200901N000512200019N0200001N1+02191+01341101781ADDAA199000091GF102991021011008001001001KA1240N+01401MA1999999096811MD1999999+0061REMSYN076AAXX  07124 83236 32598 20901 10219 20134 39681 40178 82100 333 20140 58006;EQDQ01  00002PRCP99
0167832360999992002070718004-12150-045000FM-12+044099999V0202701N004112200019N0200001N1+03161+01031101141ADDAA199000091GF102991021011008001001001MA1999999096221MD1999999+0031REMSYN070AAXX  07184 83236 32598 22708 10316 20103 39622 40114 82100 333 58003;EQDQ01  00002PRCP99
0198832360999992002070800004-12150-045000FM-12+044099999V0209999C000012200019N0200001N1+02001+01461101431ADDAA199000091GF103991031011008001001001KA1240M+03331MA1999999096461MD1999999+0021REMSYN088AAXX  08004 83236 32598 30000 10200 20146 39646 40143 83100 333 10333 29057 55107 58002;EQDQ01  00002PRCP99
0186832360999992002070812004-12150-045000FM-12+044099999V0202301N001011050019N0200001N1+01971+01261101631ADDAA199000091GF105991021001022501051071KA1240N+01341MA1999999096631MD1999999-0181REMSYN076AAXX  08124 83236 32898 52302 10197 20126 39663 40163 82057 333 20134 59018;EQDQ01  00002PRCP99
0167832360999992002070818004-12150-045000FM-12+044099999V0200901N002112200019N0200001N1+03231+01031101121ADDAA199000091GF103991031011008001001001MA1999999096201MD1999999-0021REMSYN070AAXX  08184 83236 32598 30904 10323 20103 39620 40112 83100 333 59002;EQDQ01  00002PRCP99
0208832360999992002070900004-12150-045000FM-12+044099999V0201801N001512200019N0200001N1+02101+01341101401ADDAA199000091GA1001+999999999GF100991001001999999001001KA1240M+03371MA1999999096421MD1999999+0041REMSYN082AAXX  09004 83236 32998 01803 10210 20134 39642 40140 333 10337 29054 55100 58004;EQDQ01  00002PRCP99
0180832360999992002070912004-12150-045000FM-12+044099999V0209999C000012200019N0200001N1+02411+01251101751ADDAA199000091GF102991999999999999999999KA1240N+01371MA1999999096761MD1999999-0131REMSYN070AAXX  09124 83236 32998 20000 10241 20125 39676 40175 333 20137 59013;EQDQ01  00002PRCP99
0167832360999992002070918004-12150-045000FM-12+044099999V0203201N001511050019N0200001N1+03391+01101101141ADDAA199000091GF105991031021012501001051MA1999999096251MD1999999+0051REMSYN070AAXX  09184 83236 32698 53203 10339 20110 39625 40114 83205 333 58005;EQDQ01  00002PRCP99
0198832360999992002071000004-12150-045000FM-12+044099999V0201801N001012200019N0200001N1+02191+01541101491ADDAA199000091GF103991031021012501001001KA1240M+03471MA1999999096521MD1999999+0101REMSYN088AAXX  10004 83236 32698 31802 10219 20154 39652 40149 83200 333 10347 29054 55102 58010;EQDQ01  00002PRCP99
0196832360999992002071012004-12150-045000FM-12+044099999V0209999C000012200019N0200001N1+02261+01471101731ADDAA199000091GA1001+999999999GF100991001001999999001001KA1240N+01441MA1999999096761MD1999999+0001REMSYN070AAXX  10124 83236 32998 00000 10226 20147 39676 40173 333 20144 58000;EQDQ01  00002PRCP99
0167832360999992002071018004-12150-045000FM-12+044099999V0201401N002612200019N0200001N1+03381+01221101141ADDAA199000091GF102991021011012501001001MA1999999096261MD1999999+0011REMSYN070AAXX  10184 83236 32698 21405 10338 20122 39626 40114 82100 333 58001;EQDQ01  00002PRCP99
0208832360999992002071100004-12150-045000FM-12+044099999V0202301N001512200019N0200001N1+02231+01301101491ADDAA199000091GA1001+999999999GF100991001001999999001001KA1240M+03521MA1999999096541MD1999999+0021REMSYN082AAXX  11004 83236 32998 02303 10223 20130 39654 40149 333 10352 29050 55102 58002;EQDQ01  00002PRCP99
0196832360999992002071112004-12150-045000FM-12+044099999V0201401N002112200019N0200001N1+02341+01411101751ADDAA199000091GA1001+999999999GF100991001001999999001001KA1240N+01601MA1999999096801MD1999999+0041REMSYN070AAXX  11124 83236 32998 01404 10234 20141 39680 40175 333 20160 58004;EQDQ01  00002PRCP99
0208832360999992002071200004-12150-045000FM-12+044099999V0202701N001512200019N0200001N1+02251+01371101361ADDAA199000091GA1001+999999999GF100991001001999999001001KA1240M+03401MA1999999096431MD1999999-0111REMSYN082AAXX  12004 83236 32998 02703 10225 20137 39643 40136 333 10340 29050 55106 59011;EQDQ01  00002PRCP99
0196832360999992002071212004-12150-045000FM-12+044099999V0202301N001012200019N0200001N1+02281+01381101641ADDAA199000091GA1001+999999999GF100991001001999999001001KA1240N+01501MA1999999096681MD1999999-0121REMSYN070AAXX  12124 83236 32998 02302 10228 20138 39668 40164 333 20150 59012;EQDQ01  00002PRCP99
0177832360999992002071218004-12150-045000FM-12+044099999V0202701N001512200019N0200001N1+03271+01331101011ADDAA199000091GA1001+999999999GF100991001001999999001001MA1999999096141MD1999999-0111REMSYN064AAXX  12184 83236 32998 02703 10327 20133 39614 40101 333 59011;EQDQ01  00002PRCP99
0186832360999992002071412004-12150-045000FM-12+044099999V0203201N001012200019N0200001N1+02311+01461101491ADDAA199000091GF104991041021008001001001KA1240N+01661MA1999999096541MD1999999-0041REMSYN076AAXX  14124 83236 32598 43202 10231 20146 39654 40149 84200 333 20166 59004;EQDQ01  00002PRCP99
0167832360999992002071418004-12150-045000FM-12+044099999V0203201N001011050019N0200001N1+03431+01251100931ADDAA199000091GF106991041021008001001051MA1999999096071MD1999999+0011REMSYN070AAXX  14184 83236 32598 63202 10343 20125 39607 40093 84205 333 58001;EQDQ01  00002PRCP99
0208832360999992002071500004-12150-045000FM-12+044099999V0202301N001512200019N0200001N1+02321+01551101231ADDAA199000091GA1001+999999999GF100991001001999999001001KA1240M+03541MA1999999096311MD1999999+0081REMSYN082AAXX  15004 83236 32998 02303 10232 20155 39631 40123 333 10354 29053 55099 58008;EQDQ01  00002PRCP99
0186832360999992002071512004-12150-045000FM-12+044099999V0209999C000010450019N0200001N1+02391+01531101531ADDAA199000091GF106991041041008001071051KA1240N+02031MA1999999096601MD1999999+0061REMSYN076AAXX  15124 83236 32598 60000 10239 20153 39660 40153 84475 333 20203 58006;EQDQ01  00002PRCP99
0167832360999992002071618004-12150-045000FM-12+044099999V0201801N001510075019N0200001N1+03091+01681101141ADDAA199000091GF108991051051008001071999MA1999999096291MD1999999+0081REMSYN070AAXX  16184 83236 32598 81803 10309 20168 39629 40114 8557/ 333 58008;EQDQ01  00002PRCP99
0202832360999992002071700004-12150-045000FM-12+044099999V0209999C000010450019N0200001N1+02241+01981101511ADDAY151061AY251061GF106991031021008001061051KA1240M+03191MA1999999096591MD1999999+0171MW1031REMSYN100AAXX  17004 83236 21598 60000 10224 20198 39659 40151 70355 83265 333 10319 29068 55053 58017 69921;
0162832360999992002071712004-12150-045000FM-12+044099999V0200901N001012200019N0200001N1+02381+01631101671ADDGF102991021001022501071001KA1240N+01751MA1999999096721MD1999999+0041REMSYN082AAXX  17124 83236 22898 20902 10238 20163 39672 40167 82070 333 20175 58004 69924;
0167832360999992002071718004-12150-045000FM-12+044099999V0201401N001512200019N0200001N1+03341+01351101091ADDAA199000091GF103991031031008001001001MA1999999096221MD1999999-0071REMSYN070AAXX  17184 83236 32598 31403 10334 20135 39622 40109 83300 333 59007;EQDQ01  00002PRCP99
0198832360999992002071800004-12150-045000FM-12+044099999V0202301N001012200019N0200001N1+02321+01531101341ADDAA199000091GF102991001001999999001051KA1240M+03451MA1999999096421MD1999999-0171REMSYN088AAXX  18004 83236 32998 22302 10232 20153 39642 40134 80005 333 10345 29054 55101 59017;EQDQ01  00002PRCP99
0186832360999992002071812004-12150-045000FM-12+044099999V0209999C000012200019N0200001N1+02381+01481101631ADDAA199000091GF102991021001022501071001KA1240N+01591MA1999999096701MD1999999-0021REMSYN076AAXX  18124 83236 32898 20000 10238 20148 39670 40163 82070 333 20159 59002;EQDQ01  00002PRCP99
0167832360999992002071818004-12150-045000FM-12+044099999V0201401N002110075019N0200001N1+03301+01261101111ADDAA199000091GF105991051021008001001001MA1999999096231MD1999999+0011REMSYN070AAXX  18184 83236 32598 51404 10330 20126 39623 40111 85200 333 58001;EQDQ01  00002PRCP99
0198832360999992002071900004-12150-045000FM-12+044099999V0201401N002112200019N0200001N1+02521+01241101281ADDAA199000091GF102991001001999999001031KA1240M+03451MA1999999096381MD1999999-0041REMSYN088AAXX  19004 83236 32998 21404 10252 20124 39638 40128 80003 333 10345 29044 55086 59004;EQDQ01  00002PRCP99
0186832360999992002071912004-12150-045000FM-12+044099999V0209999C000012200019N0200001N1+02391+01501101641ADDAA199000091GF103991001001999999001071KA1240N+01681MA1999999096731MD1999999+0031REMSYN076AAXX  19124 83236 32998 30000 10239 20150 39673 40164 80007 333 20168 58003;EQDQ01  00002PRCP99
0167832360999992002071918004-12150-045000FM-12+044099999V0200501N001510075019N0200001N1+03181+01311101091ADDAA199000091GF105991051021008001001001MA1999999096231MD1999999+0001REMSYN070AAXX  19184 83236 32598 50503 10318 20131 39623 40109 85200 333 58000;EQDQ01  00002PRCP99
0208832360999992002072000004-12150-045000FM-12+044099999V0201401N003112200019N0200001N1+02481+01211101371ADDAA199000091GA1001+999999999GF100991001001999999001001KA1240M+03331MA1999999096471MD1999999+0091REMSYN082AAXX  20004 83236 32998 01406 10248 20121 39647 40137 333 10333 29045 55091 58009;EQDQ01  00002PRCP99
0186832360999992002072012004-12150-045000FM-12+044099999V0201401N002612200019N0200001N1+02281+01411101731ADDAA199000091GF104991001001999999001071KA1240N+01541MA1999999096801MD1999999+0071REMSYN076AAXX  20124 83236 32998 41405 10228 20141 39680 40173 80007 333 20154 58007;EQDQ01  00002PRCP99
0167832360999992002072018004-12150-045000FM-12+044099999V0201401N003611050019N0200001N1+03171+01141101041ADDAA199000091GF105991021021012501001051MA1999999096161MD1999999-0071REMSYN070AAXX  20184 83236 32698 51407 10317 20114 39616 40104 82205 333 59007;EQDQ01  00002PRCP99
0208832360999992002072100004-12150-045000FM-12+044099999V0201401N002612200019N0200001N1+02251+01051101341ADDAA199000091GA1001+999999999GF100991001001999999001001KA1240M+03311MA1999999096401MD1999999-0071REMSYN082AAXX  21004 83236 32998 01405 10225 20105 39640 40134 333 10331 29045 55100 59007;EQDQ01  00002PRCP99
0186832360999992002072112004-12150-045000FM-12+044099999V0201801N001519999999N0200001N1+02221+01161101651ADDAA199000091GF105991001001999999001071KA1240N+01421MA1999999096681MD1999999-0121REMSYN076AAXX  21124 83236 32998 51803 10222 20116 39668 40165 80007 333 20142 59012;EQDQ01  00002PRCP99
0167832360999992002072118004-12150-045000FM-12+044099999V0200901N002119999999N0200001N1+03171+00961101051ADDAA199000091GF106991031001012501071051MA1999999096151MD1999999-0011REMSYN070AAXX  21184 83236 32698 60904 10317 20096 39615 40105 83075 333 59001;EQDQ01  00002PRCP99
0198832360999992002072200004-12150-045000FM-12+044099999V0202301N001512200019N0200001N1+02051+01161101431ADDAA199000091GF102991001001999999001051KA1240M+03281MA1999999096461MD1999999+0061REMSYN088AAXX  22004 83236 32998 22303 10205 20116 39646 40143 80005 333 10328 29048 55103 58006;EQDQ01  00002PRCP99
0196832360999992002072312004-12150-045000FM-12+044099999V0202301N001012200019N0200001N1+02331+01501999999ADDAA199000091GA1001+999999999GF100991001001999999001001KA1240N+01541MA1999999096731MD1999999+0001REMSYN070AAXX  23124 83236 32998 02302 10233 20150 39673 44016 333 20154 58000;EQDQ01  00002PRCP99
0167832360999992002072318004-12150-045000FM-12+044099999V0201801N002612200019N0200001N1+03381+01331101031ADDAA199000091GF103991021011008001001091MA1999999096171MD1999999+0011REMSYN070AAXX  23184 83236 32598 31805 10338 20133 39617 40103 82109 333 58001;EQDQ01  00002PRCP99
0198832360999992002072400004-12150-045000FM-12+044099999V0202701N002112200019N0200001N1+02441+01391101241ADDAA199000091GF103991031001022501061001KA1240M+03531MA1999999096341MD1999999-0031REMSYN088AAXX  24004 83236 32898 32704 10244 20139 39634 40124 83060 333 10353 29048 55104 59003;EQDQ01  00002PRCP99
0196832360999992002072412004-12150-045000FM-12+044099999V0200501N000512200019N0200001N1+02461+01251101551ADDAA199000091GA1001+999999999GF100991001001999999001001KA1240N+01621MA1999999096641MD1999999-0091REMSYN070AAXX  24124 83236 32998 00501 10246 20125 39664 40155 333 20162 59009;EQDQ01  00002PRCP99
0167832360999992002072418004-12150-045000FM-12+044099999V0201401N002112200019N0200001N1+03351+01351101011ADDAA199000091GF104991041021008001001001MA1999999096161MD1999999+0001REMSYN070AAXX  24184 83236 32598 41404 10335 20135 39616 40101 84200 333 58000;EQDQ01  00002PRCP99
0198832360999992002072500004-12150-045000FM-12+044099999V0202701N000512200019N0200001N1+02461+01521101351ADDAA199000091GF103991031021008001001001KA1240M+03491MA1999999096451MD1999999+0111REMSYN088AAXX  25004 83236 32598 32701 10246 20152 39645 40135 83200 333 10349 29047 55096 58011;EQDQ01  00002PRCP99
0186832360999992002072512004-12150-045000FM-12+044099999V0201801N001512200019N0200001N1+02581+01661101711ADDAA199000091GF102991021011008001001001KA1240N+01871MA1999999096801MD1999999+0161REMSYN076AAXX  25124 83236 32598 21803 10258 20166 39680 40171 82100 333 20187 58016;EQDQ01  00002PRCP99
0167832360999992002072518004-12150-045000FM-12+044099999V0200901N003110075019N0200001N1+03231+01331101101ADDAA199000091GF105991051021008001001001MA1999999096271MD1999999+0111REMSYN070AAXX  25184 83236 32598 50906 10323 20133 39627 40110 85200 333 58011;EQDQ01  00002PRCP99
0202832360999992002072600004-12150-045000FM-12+044099999V0202701N001512200019N0200001N1+02181+01901101421ADDAY161061AY261061GF104991041001022501061001KA1240M+03471MA1999999096521MD1999999+0071MW1021REMSYN100AAXX  26004 83236 21898 42703 10218 20190 39652 40142 70266 84060 333 10347 29064 55090 58007 60151;
0162832360999992002072612004-12150-045000FM-12+044099999V0201801N002112200019N0200001N1+02381+01631101711ADDGF102991021001022501041001KA1240N+01791MA1999999096761MD1999999-0041REMSYN082AAXX  26124 83236 22898 21804 10238 20163 39676 40171 82040 333 20179 59004 60154;
0167832360999992002072618004-12150-045000FM-12+044099999V0201801N001512200019N0200001N1+03321+01431101091ADDAA199000091GF104991031021008001061001MA1999999096251MD1999999-0021REMSYN070AAXX  26184 83236 32598 41803 10332 20143 39625 40109 83260 333 59002;EQDQ01  00002PRCP99
0198832360999992002072700004-12150-045000FM-12+044099999V0202301N001012200019N0200001N1+02491+01701101361ADDAA199000091GF103991031001022501041001KA1240M+03441MA1999999096451MD1999999-0071REMSYN088AAXX  27004 83236 32898 32302 10249 20170 39645 40136 83040 333 10344 29055 55094 59007;EQDQ01  00002PRCP99
0186832360999992002072712004-12150-045000FM-12+044099999V0200501N000512200019N0200001N1+02291+01591101721ADDAA199000091GF102991021001022501041001KA1240N+01701MA1999999096791MD1999999+0031REMSYN076AAXX  27124 83236 32898 20501 10229 20159 39679 40172 82040 333 20170 58003;EQDQ01  00002PRCP99
0167832360999992002072718004-12150-045000FM-12+044099999V0202701N001512200019N0200001N1+03291+01341101151ADDAA199000091GF103991011011008001041001MA1999999096321MD1999999+0071REMSYN070AAXX  27184 83236 32598 32703 10329 20134 39632 40115 81140 333 58007;EQDQ01  00002PRCP99
0198832360999992002072800004-12150-045000FM-12+044099999V0202301N001012200019N0200001N1+02271+01731101461ADDAA199000091GF104991041021008001001001KA1240M+03451MA1999999096521MD1999999+0071REMSYN088AAXX  28004 83236 32598 42302 10227 20173 39652 40146 84200 333 10345 29060 55102 58007;EQDQ01  00002PRCP99
0196832360999992002072812004-12150-045000FM-12+044099999V0201801N001012200019N0200001N1+02441+01641101771ADDAA199000091GA1001+999999999GF100991001001999999001001KA1240N+01821MA1999999096831MD1999999+0041REMSYN070AAXX  28124 83236 32898 01802 10244 20164 39683 40177 333 20182 58004;EQDQ01  00002PRCP99
0183832360999992002072818004-12150-045000FM-12+044099999V0200301N020612200019N0200001N1+03401+01501101151ADDAA199000091GF101991999011008001001001MA1999999096351MD1999999+0031REMSYN070AAXX  28184 83236 32598 10340 10340 20150 39635 40115 83100 333 58003;EQDQ01+000032SCOTLCQ02  00002PRCP99
0208832360999992002072900004-12150-045000FM-12+044099999V0209999C000012200019N0200001N1+02331+01791101351ADDAA199000091GA1001+999999999GF100991001001999999001001KA1240M+03531MA1999999096441MD1999999-0081REMSYN082AAXX  29004 83236 32998 00000 10233 20179 39644 40135 333 10353 29059 55101 59008;EQDQ01  00002PRCP99
0186832360999992002072912004-12150-045000FM-12+044099999V0203601N000512200019N0200001N1+02491+01621101591ADDAA199000091GF103991031001022501081001KA1240N+01781MA1999999096671MD1999999-0161REMSYN076AAXX  29124 83236 32898 33601 10249 20162 39667 40159 83080 333 20178 59016;EQDQ01  00002PRCP99
0167832360999992002072918004-12150-045000FM-12+044099999V0202301N001010450019N0200001N1+03211+01511101151ADDAA199000091GF107991031021008001071001MA1999999096271MD1999999-0011REMSYN070AAXX  29184 83236 32598 72302 10321 20151 39627 40115 83270 333 59001;EQDQ01  00002PRCP99
0186832360999992002073012004-12150-045000FM-12+044099999V0201801N003119999999N0200001N1+02431+01651101771ADDAA199000091GF106991001001999999001061KA1240N+02011MA1999999096901MD1999999+0231REMSYN076AAXX  30124 83236 32998 61806 10243 20165 39690 40177 80006 333 20201 58023;EQDQ01  00002PRCP99
0167832360999992002073018004-12150-045000FM-12+044099999V0200901N004612200019N0200001N1+03261+01331101171ADDAA199000091GF103991011011008001001051MA1999999096351MD1999999+0081REMSYN070AAXX  30184 83236 32598 30909 10326 20133 39635 40117 81105 333 58008;EQDQ01  00002PRCP99
0208832360999992002073100004-12150-045000FM-12+044099999V0201801N001512200019N0200001N1+02561+01381101391ADDAA199000091GA1001+999999999GF100991001001999999001001KA1240M+03391MA1999999096501MD1999999+0021REMSYN082AAXX  31004 83236 32998 01803 10256 20138 39650 40139 333 10339 29047 55103 58002;EQDQ01  00002PRCP99
0186832360999992002073112004-12150-045000FM-12+044099999V0200501N001512200019N0200001N1+02461+01611101771ADDAA199000091GF101991011011008001001001KA1240N+01911MA1999999096861MD1999999-0041REMSYN076AAXX  31124 83236 32598 10503 10246 20161 39686 40177 81100 333 20191 59004;EQDQ01  00002PRCP99
0167832360999992002073118004-12150-045000FM-12+044099999V0200901N001512200019N0200001N1+03241+01361101071ADDAA199000091GF104991041021008001001001MA1999999096221MD1999999-0131REMSYN070AAXX  31184 83236 32598 40903 10324 20136 39622 40107 84200 333 59013;EQDQ01  00002PRCP99
0198832360999992002080100004-12150-045000FM-12+044099999V0201801N001012200019N0200001N1+02511+01621101201ADDAA199000091GF103991031021008001001001KA1240M+03391MA1999999096321MD1999999-0181REMSYN088AAXX  01004 83236 32598 31802 10251 20162 39632 40120 83200 333 10339 29052 55105 59018;EQDQ01  00002PRCP99
0196832360999992002080112004-12150-045000FM-12+044099999V0202301N000512200019N0200001N1+02411+01581101531ADDAA199000091GA1001+999999999GF100991001001999999001001KA1240N+01821MA1999999096621MD1999999-0241REMSYN070AAXX  01124 83236 32998 02301 10241 20158 39662 40153 333 20182 59024;EQDQ01  00002PRCP99
0167832360999992002080118004-12150-045000FM-12+044099999V0200901N001512200019N0200001N1+03301+01461101091ADDAA199000091GF104991041021008001001001MA1999999096151MD1999999-0071REMSYN070AAXX  01184 83236 32598 40903 10330 20146 39615 40109 84200 333 59007;EQDQ01  00002PRCP99
0198832360999992002080200004-12150-045000FM-12+044099999V0201801N001012200019N0200001N1+02381+01801101271ADDAA199000091GF104991041021008001001001KA1240M+03431MA1999999096361MD1999999+0041REMSYN088AAXX  02004 83236 32598 41802 10238 20180 39636 40127 84200 333 10343 29058 55106 58004;EQDQ01  00002PRCP99
0186832360999992002080212004-12150-045000FM-12+044099999V0203601N003112200019N0200001N1+02601+01451101611ADDAA199000091GF102991011011008001001011KA1240N+01931MA1999999096711MD1999999-0091REMSYN076AAXX  02124 83236 32598 23606 10260 20145 39671 40161 81101 333 20193 59009;EQDQ01  00002PRCP99
0167832360999992002080218004-12150-045000FM-12+044099999V0201801N001010075019N0200001N1+03371+01461101071ADDAA199000091GF105991051021008001001001MA1999999096241MD1999999+0091REMSYN070AAXX  02184 83236 32598 51802 10337 20146 39624 40107 85200 333 58009;EQDQ01  00002PRCP99
0198832360999992002080300004-12150-045000FM-12+044099999V0209999C000010120019N0200001N1+02681+01771101371ADDAA199000091GF105991051081008001001001KA1240M+03531MA1999999096511MD1999999+0151REMSYN088AAXX  03004 83236 32598 50000 10268 20177 39651 40137 85800 333 10353 29052 55100 58015;EQDQ01  00002PRCP99
0196832360999992002080312004-12150-045000FM-12+044099999V0200901N001012200019N0200001N1+02441+01391101621ADDAA199000091GA1001+999999999GF100991001001999999001001KA1240N+01771MA1999999096731MD1999999+0021REMSYN070AAXX  03124 83236 32998 00902 10244 20139 39673 40162 333 20177 58002;EQDQ01  00002PRCP99
0167832360999992002080318004-12150-045000FM-12+044099999V0201401N002112200019N0200001N1+03471+01231100941ADDAA199000091GF101991011011008001001001MA1999999096121MD1999999+0121REMSYN070AAXX  03184 83236 32598 11404 10347 20123 39612 40094 81100 333 58012;EQDQ01  00002PRCP99
0208832360999992002080400004-12150-045000FM-12+044099999V0202701N001512200019N0200001N1+02721+00711101251ADDAA199000091GA1001+999999999GF100991001001999999001001KA1240M+03621MA1999999096381MD1999999-0131REMSYN082AAXX  04004 83236 32998 02703 10272 20071 39638 40125 333 10362 29034 55105 59013;EQDQ01  00002PRCP99
0196832360999992002080412004-12150-045000FM-12+044099999V0209999C000012200019N0200001N1+02281+01151101581ADDAA199000091GA1001+999999999GF100991001001999999001001KA1240N+01461MA1999999096691MD1999999-0041REMSYN070AAXX  04124 83236 32998 00000 10228 20115 39669 40158 333 20146 59004;EQDQ01  00002PRCP99
0167832360999992002080418004-12150-045000FM-12+044099999V0203201N001012200019N0200001N1+03401+01121101031ADDAA199000091GF102991021011008001001001MA1999999096101MD1999999+0041REMSYN070AAXX  04184 83236 32598 23202 10340 20112 39610 40103 82100 333 58004;EQDQ01  00002PRCP99
0198832360999992002080500004-12150-045000FM-12+044099999V0201401N001512200019N0200001N1+02401+01291101231ADDAA199000091GF104991041081008001001001KA1240M+03531MA1999999096321MD1999999-0061REMSYN088AAXX  05004 83236 32598 41403 10240 20129 39632 40123 84800 333 10353 29044 55105 59006;EQDQ01  00002PRCP99
0196832360999992002080512004-12150-045000FM-12+044099999V0203601N001012200019N0200001N1+02261+01281101571ADDAA199000091GA1001+999999999GF100991001001999999001001KA1240N+01431MA1999999096641MD1999999-0051REMSYN070AAXX  05124 83236 32998 03602 10226 20128 39664 40157 333 20143 59005;EQDQ01  00002PRCP99
0167832360999992002080518004-12150-045000FM-12+044099999V0200501N002112200019N0200001N1+03521+00811100831ADDAA199000091GF102991021011008001001001MA1999999095981MD1999999-0181REMSYN070AAXX  05184 83236 32598 20504 10352 20081 39598 40083 82100 333 59018;EQDQ01  00002PRCP99
0208832360999992002080600004-12150-045000FM-12+044099999V0202301N001512200019N0200001N1+02341+01011101151ADDAA199000091GA1001+999999999GF100991001001999999001001KA1240M+03651MA1999999096231MD1999999-0091REMSYN082AAXX  06004 83236 32998 02303 10234 20101 39623 40115 333 10365 29040 55106 59009;EQDQ01  00002PRCP99
0196832360999992002080612004-12150-045000FM-12+044099999V0201401N000512200019N0200001N1+02381+01311101611ADDAA199000091GA1001+999999999GF100991001001999999001001KA1240N+01551MA1999999096681MD1999999+0041REMSYN070AAXX  06124 83236 32998 01401 10238 20131 39668 40161 333 20155 58004;EQDQ01  00002PRCP99
0205832360999992002080618004-12150-045000FM-12+044099999V0201801N004612200019N0200001N1+03431+00571100911ADDAA199000091AY101061AY201061GA1001+999999999GF100991001001999999001001MA1999999096051MD1999999+0071MW1051REMSYN070AAXX  06184 83236 31998 01809 10343 20057 39605 40091 70500 333 58007;EQDQ01  00002PRCP99
0236832360999992002080700004-12150-045000FM-12+044099999V0201801N004112200019N0200001N1+02561+00061101281ADDAA199000091AY101061AY201061GA1001+999999999GF100991001001999999001001KA1240M+03581MA1999999096381MD1999999+0151MW1051REMSYN088AAXX  07004 83236 31998 01808 10256 20006 39638 40128 70500 333 10358 29032 55107 58015;EQDQ01  00002PRCP99
0224832360999992002080712004-12150-045000FM-12+044099999V0200501N002612200019N0200001N1+02461+01121101641ADDAA199000091AY101061AY201061GA1001+999999999GF100991001001999999001001KA1240N+01481MA1999999096741MD1999999+0061MW1051REMSYN076AAXX  07124 83236 31998 00505 10246 20112 39674 40164 70500 333 20148 58006;EQDQ01  00002PRCP99
0177832360999992002080718004-12150-045000FM-12+044099999V0200501N002612200019N0200001N1+03341+00881101121ADDAA199000091GA1001+999999999GF100991001001999999001001MA1999999096251MD1999999+0201REMSYN064AAXX  07184 83236 32998 00505 10334 20088 39625 40112 333 58020;EQDQ01  00002PRCP99
0208832360999992002080800004-12150-045000FM-12+044099999V0202301N001012200019N0200001N1+01961+01091101481ADDAA199000091GA1001+999999999GF100991001001999999001001KA1240M+03541MA1999999096521MD1999999+0141REMSYN082AAXX  08004 83236 32998 02302 10196 20109 39652 40148 333 10354 29045 55108 58014;EQDQ01  00002PRCP99
0186832360999992002080812004-12150-045000FM-12+044099999V0202301N001012200019N0200001N1+02311+01291101771ADDAA199000091GF103991001001999999001071KA1240N+01421MA1999999096791MD1999999+0051REMSYN076AAXX  08124 83236 32998 32302 10231 20129 39679 40177 80007 333 20142 58005;EQDQ01  00002PRCP99
0167832360999992002080818004-12150-045000FM-12+044099999V0200901N003619999999N0200001N1+03351+00591101111ADDAA199000091GF105991001001999999001071MA1999999096211MD1999999-0041REMSYN070AAXX  08184 83236 32998 50907 10335 20059 39621 40111 80007 333 59004;EQDQ01  00002PRCP99
0198832360999992002080900004-12150-045000FM-12+044099999V0202301N001012200019N0200001N1+02321+00081101411ADDAA199000091GF102991001001999999001051KA1240M+03491MA1999999096471MD1999999-0051REMSYN088AAXX  09004 83236 32998 22302 10232 20008 39647 40141 80005 333 10349 29038 55107 59005;EQDQ01  00002PRCP99
0186832360999992002080912004-12150-045000FM-12+044099999V0201801N001512200019N0200001N1+02331+01251101771ADDAA199000091GF102991001001999999001071KA1240N+01441MA1999999096821MD1999999+0031REMSYN076AAXX  09124 83236 32998 21803 10233 20125 39682 40177 80007 333 20144 58003;EQDQ01  00002PRCP99
0177832360999992002080918004-12150-045000FM-12+044099999V0201401N002112200019N0200001N1+03251+00661101241ADDAA199000091GA1001+999999999GF100991001001999999001001MA1999999096331MD1999999+0121REMSYN064AAXX  09184 83236 32998 01404 10325 20066 39633 40124 333 58012;EQDQ01  00002PRCP99
0208832360999992002081000004-12150-045000FM-12+044099999V0201801N001012200019N0200001N1+02271+01071101441ADDAA199000091GA1001+999999999GF100991001001999999001001KA1240M+03341MA1999999096501MD1999999+0031REMSYN082AAXX  10004 83236 32998 01802 10227 20107 39650 40144 333 10334 29041 55107 58003;EQDQ01  00002PRCP99
0196832360999992002081012004-12150-045000FM-12+044099999V0209999C000012200019N0200001N1+02291+01211101721ADDAA199000091GA1001+999999999GF100991001001999999001001KA1240N+01381MA1999999096771MD1999999-0051REMSYN070AAXX  10124 83236 32998 00000 10229 20121 39677 40172 333 20138 59005;EQDQ01  00002PRCP99
0177832360999992002081018004-12150-045000FM-12+044099999V0201401N001512200019N0200001N1+03271+00941101101ADDAA199000091GA1001+999999999GF100991001001999999001001MA1999999096201MD1999999-0131REMSYN064AAXX  10184 83236 32998 01403 10327 20094 39620 40110 333 59013;EQDQ01  00002PRCP99
0236832360999992002081100004-12150-045000FM-12+044099999V0202301N001012200019N0200001N1+02191+00871101391ADDAA199000091AY101061AY201061GA1001+999999999GF100991001001999999001001KA1240M+03391MA1999999096451MD1999999-0051MW1051REMSYN088AAXX  11004 83236 31998 02302 10219 20087 39645 40139 70500 333 10339 29040 55106 59005;EQDQ01  00002PRCP99
0196832360999992002081112004-12150-045000FM-12+044099999V0200501N001512200019N0200001N1+02331+01191101751ADDAA199000091GA1001+999999999GF100991001001999999001001KA1240N+01401MA1999999096791MD1999999+0021REMSYN070AAXX  11124 83236 32998 00503 10233 20119 39679 40175 333 20140 58002;EQDQ01  00002PRCP99
0177832360999992002081118004-12150-045000FM-12+044099999V0201801N003112200019N0200001N1+03271+00881101201ADDAA199000091GA1001+999999999GF100991001001999999001001MA1999999096301MD1999999+0101REMSYN064AAXX  11184 83236 32998 01806 10327 20088 39630 40120 333 58010;EQDQ01  00002PRCP99
0208832360999992002081200004-12150-045000FM-12+044099999V0202701N001012200019N0200001N1+02161+01011101511ADDAA199000091GA1001+999999999GF100991001001999999001001KA1240M+03381MA1999999096561MD1999999+0111REMSYN082AAXX  12004 83236 32998 02702 10216 20101 39656 40151 333 10338 29042 55108 58011;EQDQ01  00002PRCP99
0186832360999992002081212004-12150-045000FM-12+044099999V0201801N001512200019N0200001N1+02301+01171101801ADDAA199000091GF102991021001022501071001KA1240N+01311MA1999999096841MD1999999+0051REMSYN076AAXX  12124 83236 32898 21803 10230 20117 39684 40180 82070 333 20131 58005;EQDQ01  00002PRCP99
0177832360999992002081218004-12150-045000FM-12+044099999V0201401N002612200019N0200001N1+03191+00871101251ADDAA199000091GA1001+999999999GF100991001001999999001001MA1999999096331MD1999999+0031REMSYN064AAXX  12184 83236 32998 01405 10319 20087 39633 40125 333 58003;EQDQ01  00002PRCP99
0208832360999992002081300004-12150-045000FM-12+044099999V0202301N002112200019N0200001N1+02401+00961101501ADDAA199000091GA1001+999999999GF100991001001999999001001KA1240M+03321MA1999999096571MD1999999+0011REMSYN082AAXX  13004 83236 32998 02304 10240 20096 39657 40150 333 10332 29038 55108 58001;EQDQ01  00002PRCP99
0186832360999992002081312004-12150-045000FM-12+044099999V0201401N001012200019N0200001N1+02251+01091101761ADDAA199000091GF104991021001022501081051KA1240N+01331MA1999999096811MD1999999-0031REMSYN076AAXX  13124 83236 32898 41402 10225 20109 39681 40176 82085 333 20133 59003;EQDQ01  00002PRCP99
0167832360999992002081318004-12150-045000FM-12+044099999V0200501N001511050019N0200001N1+03301+01041101171ADDAA199000091GF105991021011008001001051MA1999999096271MD1999999-0061REMSYN070AAXX  13184 83236 32598 50503 10330 20104 39627 40117 82105 333 59006;EQDQ01  00002PRCP99
0198832360999992002081400004-12150-045000FM-12+044099999V0201801N001510450019N0200001N1+02261+01371101451ADDAA199000091GF106991041021008001061001KA1240M+03401MA1999999096501MD1999999-0071REMSYN088AAXX  14004 83236 32598 61803 10226 20137 39650 40145 84260 333 10340 29047 55090 59007;EQDQ01  00002PRCP99
0186832360999992002081412004-12150-045000FM-12+044099999V0201401N001512200019N0200001N1+02281+01301101751ADDAA199000091GF104991021001022501071051KA1240N+01301MA1999999096801MD1999999-0011REMSYN076AAXX  14124 83236 32898 41403 10228 20130 39680 40175 82075 333 20130 59001;EQDQ01  00002PRCP99
0167832360999992002081418004-12150-045000FM-12+044099999V0201401N002111050019N0200001N1+03391+01041101141ADDAA199000091GF105991031011008001001051MA1999999096271MD1999999+0001REMSYN070AAXX  14184 83236 32598 51404 10339 20104 39627 40114 83105 333 58000;EQDQ01  00002PRCP99
0198832360999992002081500004-12150-045000FM-12+044099999V0201801N002112200019N0200001N1+02501+01121101401ADDAA199000091GF102991021001022501061001KA1240M+03491MA1999999096491MD1999999-0011REMSYN088AAXX  15004 83236 32898 21804 10250 20112 39649 40140 82060 333 10349 29040 55097 59001;EQDQ01  00002PRCP99
0196832360999992002081512004-12150-045000FM-12+044099999V0201401N001012200019N0200001N1+02521+01371101741ADDAA199000091GA1001+999999999GF100991001001999999001001KA1240N+01621MA1999999096831MD1999999+0031REMSYN070AAXX  15124 83236 32998 01402 10252 20137 39683 40174 333 20162 58003;EQDQ01  00002PRCP99
0167832360999992002081518004-12150-045000FM-12+044099999V0201401N001511050019N0200001N1+03231+01431101191ADDAA199000091GF105991041021008001001051MA1999999096321MD1999999+0051REMSYN070AAXX  15184 83236 32598 51403 10323 20143 39632 40119 84205 333 58005;EQDQ01  00002PRCP99
0198832360999992002081600004-12150-045000FM-12+044099999V0202301N002112200019N0200001N1+02651+01281101371ADDAA199000091GF103991021011012501061001KA1240M+03471MA1999999096501MD1999999+0011REMSYN088AAXX  16004 83236 32698 32304 10265 20128 39650 40137 82160 333 10347 29042 55086 58001;EQDQ01  00002PRCP99
0196832360999992002081612004-12150-045000FM-12+044099999V0201401N003612200019N0200001N1+02631+01461101731ADDAA199000091GA1001+999999999GF100991001001999999001001KA1240N+01751MA1999999096851MD1999999+0021REMSYN070AAXX  16124 83236 32998 01407 10263 20146 39685 40173 333 20175 58002;EQDQ01  00002PRCP99
0167832360999992002081618004-12150-045000FM-12+044099999V0200901N002110075019N0200001N1+03431+01251101131ADDAA199000091GF105991051021008001001001MA1999999096301MD1999999-0021REMSYN070AAXX  16184 83236 32598 50904 10343 20125 39630 40113 85200 333 59002;EQDQ01  00002PRCP99
0198832360999992002081700004-12150-045000FM-12+044099999V0201801N001510075019N0200001N1+02721+01321101421ADDAA199000091GF106991051041008001061001KA1240M+03531MA1999999096551MD1999999+0051REMSYN088AAXX  17004 83236 32598 61803 10272 20132 39655 40142 85460 333 10353 29040 55101 58005;EQDQ01  00002PRCP99
0186832360999992002081712004-12150-045000FM-12+044099999V0200501N001011050019N0200001N1+02521+01631101741ADDAA199000091GF105991031021012501001051KA1240N+01831MA1999999096851MD1999999+0001REMSYN076AAXX  17124 83236 32698 50502 10252 20163 39685 40174 83205 333 20183 58000;EQDQ01  00002PRCP99
0167832360999992002081718004-12150-045000FM-12+044099999V0200901N003610075019N0200001N1+03251+01291101001ADDAA199000091GF106991051021008001001051MA1999999096281MD1999999-0021REMSYN070AAXX  17184 83236 32598 60907 10325 20129 39628 40100 85205 333 59002;EQDQ01  00002PRCP99
0198832360999992002081800004-12150-045000FM-12+044099999V0201801N001512200019N0200001N1+02531+01311101331ADDAA199000091GF102991021011012501001001KA1240M+03401MA1999999096441MD1999999-0111REMSYN088AAXX  18004 83236 32698 21803 10253 20131 39644 40133 82100 333 10340 29045 55105 59011;EQDQ01  00002PRCP99
0186832360999992002081812004-12150-045000FM-12+044099999V0201401N003610120019N0200001N1+02461+01611101791ADDAA199000091GF106991051021012501001071KA1240N+01641MA1999999096881MD1999999+0031REMSYN076AAXX  18124 83236 32698 61407 10246 20161 39688 40179 85207 333 20164 58003;EQDQ01  00002PRCP99
0167832360999992002081818004-12150-045000FM-12+044099999V0200901N004110075019N0200001N1+03171+01191101131ADDAA199000091GF106991051021008001051071MA1999999096271MD1999999-0011REMSYN070AAXX  18184 83236 32598 60908 10317 20119 39627 40113 85257 333 59001;EQDQ01  00002PRCP99
0198832360999992002081900004-12150-045000FM-12+044099999V0203201N001012200019N0200001N1+02401+01231101301ADDAA199000091GF104991021001022501061051KA1240M+03281MA1999999096401MD1999999-0041REMSYN088AAXX  19004 83236 32898 43202 10240 20123 39640 40130 82065 333 10328 29046 55102 59004;EQDQ01  00002PRCP99
0186832360999992002081912004-12150-045000FM-12+044099999V0202301N001512200019N0200001N1+02341+01361101791ADDAA199000091GF104991031011012501001071KA1240N+01591MA1999999096851MD1999999-0031REMSYN076AAXX  19124 83236 32698 42303 10234 20136 39685 40179 83107 333 20159 59003;EQDQ01  00002PRCP99
0167832360999992002081918004-12150-045000FM-12+044099999V0200501N003610075019N0200001N1+03131+01161101191ADDAA199000091GF105991051021008001001001MA1999999096321MD1999999+0051REMSYN070AAXX  19184 83236 32598 50507 10313 20116 39632 40119 85200 333 58005;EQDQ01  00002PRCP99
0198832360999992002082000004-12150-045000FM-12+044099999V0201801N002111050019N0200001N1+02451+01271101391ADDAA199000091GF105991031021012501001051KA1240M+03281MA1999999096481MD1999999+0081REMSYN088AAXX  20004 83236 32698 51804 10245 20127 39648 40139 83205 333 10328 29045 55108 58008;EQDQ01  00002PRCP99
0186832360999992002082012004-12150-045000FM-12+044099999V0200901N002612200019N0200001N1+02441+01451101791ADDAA199000091GF104991031011012501001071KA1240N+01751MA1999999096871MD1999999+0021REMSYN076AAXX  20124 83236 32698 40905 10244 20145 39687 40179 83107 333 20175 58002;EQDQ01  00002PRCP99
0167832360999992002082018004-12150-045000FM-12+044099999V0200501N003112200019N0200001N1+03201+01071101151ADDAA199000091GF102991021011012501001001MA1999999096301MD1999999-0021REMSYN070AAXX  20184 83236 32698 20506 10320 20107 39630 40115 82100 333 59002;EQDQ01  00002PRCP99
0198832360999992002082100004-12150-045000FM-12+044099999V0200501N003112200019N0200001N1+02691+01171101411ADDAA199000091GF103991031011012501001001KA1240M+03311MA1999999096531MD1999999+0051REMSYN088AAXX  21004 83236 32698 30506 10269 20117 39653 40141 83100 333 10331 29040 55109 58005;EQDQ01  00002PRCP99
0177832360999992002082118004-12150-045000FM-12+044099999V0200501N004612200019N0200001N1+03121+00821101261ADDAA199000091GA1001+999999999GF100991001001999999001001MA1999999096391MD1999999+0091REMSYN064AAXX  21184 83236 32998 00509 10312 20082 39639 40126 333 58009;EQDQ01  00002PRCP99
0208832360999992002082200004-12150-045000FM-12+044099999V0202301N001012200019N0200001N1+02361+00961101591ADDAA199000091GA1001+999999999GF100991001001999999001001KA1240M+03251MA1999999096671MD1999999+0141REMSYN082AAXX  22004 83236 32998 02302 10236 20096 39667 40159 333 10325 29040 55101 58014;EQDQ01  00002PRCP99
0186832360999992002082212004-12150-045000FM-12+044099999V0200901N001512200019N0200001N1+02541+01361101811ADDAA199000091GF104991021011008001041001KA1240N+01601MA1999999096891MD1999999+0141REMSYN076AAXX  22124 83236 32598 40903 10254 20136 39689 40181 82140 333 20160 58014;EQDQ01  00002PRCP99
0167832360999992002082218004-12150-045000FM-12+044099999V0200901N005112200019N0200001N1+03241+01311101171ADDAA199000091GF104991031021008001001011MA1999999096331MD1999999-0061REMSYN070AAXX  22184 83236 32598 40910 10324 20131 39633 40117 83201 333 59006;EQDQ01  00002PRCP99
0198832360999992002082300004-12150-045000FM-12+044099999V0201801N003112200019N0200001N1+02531+01341101451ADDAA199000091GF104991041021008001001001KA1240M+03371MA1999999096561MD1999999-0111REMSYN088AAXX  23004 83236 32598 41806 10253 20134 39656 40145 84200 333 10337 29044 55102 59011;EQDQ01  00002PRCP99
0196832360999992002082312004-12150-045000FM-12+044099999V0201401N002612200019N0200001N1+02591+01521101681ADDAA199000091GA1001+999999999GF100991001001999999001001KA1240N+01721MA1999999096781MD1999999-0111REMSYN070AAXX  23124 83236 32998 01405 10259 20152 39678 40168 333 20172 59011;EQDQ01  00002PRCP99
0167832360999992002082318004-12150-045000FM-12+044099999V0200901N002612200019N0200001N1+03321+01171101011ADDAA199000091GF103991031011008001001001MA1999999096151MD1999999-0181REMSYN070AAXX  23184 83236 32598 30905 10332 20117 39615 40101 83100 333 59018;EQDQ01  00002PRCP99
0208832360999992002082400004-12150-045000FM-12+044099999V0202301N001512200019N0200001N1+02521+01141101261ADDAA199000091GA1001+999999999GF100991001001999999001001KA1240M+03411MA1999999096381MD1999999-0181REMSYN082AAXX  24004 83236 32998 02303 10252 20114 39638 40126 333 10341 29041 55107 59018;EQDQ01  00002PRCP99
0186832360999992002082412004-12150-045000FM-12+044099999V0200901N002112200019N0200001N1+02461+01351101661ADDAA199000091GF104991001001999999001041KA1240N+01521MA1999999096751MD1999999-0031REMSYN076AAXX  24124 83236 32998 40904 10246 20135 39675 40166 80004 333 20152 59003;EQDQ01  00002PRCP99
0167832360999992002082418004-12150-045000FM-12+044099999V0201401N003611050019N0200001N1+03191+00991101051ADDAA199000091GF105991011011008001001051MA1999999096161MD1999999+0011REMSYN070AAXX  24184 83236 32598 51407 10319 20099 39616 40105 81105 333 58001;EQDQ01  00002PRCP99
0208832360999992002082500004-12150-045000FM-12+044099999V0202701N001012200019N0200001N1+02471+00971101331ADDAA199000091GA1001+999999999GF100991001001999999001001KA1240M+03351MA1999999096431MD1999999+0051REMSYN082AAXX  25004 83236 32998 02702 10247 20097 39643 40133 333 10335 29038 55106 58005;EQDQ01  00002PRCP99
0186832360999992002082512004-12150-045000FM-12+044099999V0200901N001012200019N0200001N1+02441+01241101741ADDAA199000091GF103991011011008001001041KA1240N+01561MA1999999096821MD1999999-0071REMSYN076AAXX  25124 83236 32598 30902 10244 20124 39682 40174 81104 333 20156 59007;EQDQ01  00002PRCP99
0167832360999992002082518004-12150-045000FM-12+044099999V0200501N001510075019N0200001N1+03111+01191101131ADDAA199000091GF105991051021008001001001MA1999999096251MD1999999+0091REMSYN070AAXX  25184 83236 32598 50503 10311 20119 39625 40113 85200 333 58009;EQDQ01  00002PRCP99
0198832360999992002082600004-12150-045000FM-12+044099999V0202701N000510120019N0200001N1+02321+01191101351ADDAA199000091GF106991061081008001001001KA1240M+03271MA1999999096441MD1999999+0011REMSYN088AAXX  26004 83236 32598 62701 10232 20119 39644 40135 86800 333 10327 29044 55093 58001;EQDQ01  00002PRCP99
0186832360999992002082612004-12150-045000FM-12+044099999V0200501N001512200019N0200001N1+02411+01461101731ADDAA199000091GF103991011011008001001041KA1240N+01561MA1999999096791MD1999999-0031REMSYN076AAXX  26124 83236 32598 30503 10241 20146 39679 40173 81104 333 20156 59003;EQDQ01  00002PRCP99
0167832360999992002082618004-12150-045000FM-12+044099999V0201401N001010075019N0200001N1+03171+01171101081ADDAA199000091GF105991051021008001001001MA1999999096221MD1999999+0031REMSYN070AAXX  26184 83236 32598 51402 10317 20117 39622 40108 85200 333 58003;EQDQ01  00002PRCP99
0198832360999992002082700004-12150-045000FM-12+044099999V0209999C000010075019N0200001N1+02591+01191101261ADDAA199000091GF106991061021008001001001KA1240M+03311MA1999999096371MD1999999-0071REMSYN088AAXX  27004 83236 32598 60000 10259 20119 39637 40126 86200 333 10331 29042 55084 59007;EQDQ01  00002PRCP99
0186832360999992002082712004-12150-045000FM-12+044099999V0200501N002612200019N0200001N1+02561+01381101601ADDAA199000091GF103991011011008001041001KA1240N+01861MA1999999096721MD1999999-0071REMSYN076AAXX  27124 83236 32598 30505 10256 20138 39672 40160 81140 333 20186 59007;EQDQ01  00002PRCP99
0195832360999992002082718004-12150-045000FM-12+044099999V0200901N003110075019N0100001N1+03111+01191101061ADDAA199000091AY101061AY221061GF106991061021008001001001MA1999999096221MD1999999+0001MW1051REMSYN076AAXX  27184 83236 31597 60906 10311 20119 39622 40106 70502 86200 333 58000;EQDQ01  00002PRCP99
0236832360999992002082800004-12150-045000FM-12+044099999V0201801N002612200019N0100001N1+02461+01151101191ADDAA199000091AY101061AY221061GA1001+999999999GF100991001001999999001001KA1240M+03311MA1999999096311MD1999999-0061MW1051REMSYN088AAXX  28004 83236 31997 01805 10246 20115 39631 40119 70502 333 10331 29042 55087 59006;EQDQ01  00002PRCP99
0214832360999992002082812004-12150-045000FM-12+044099999V0200901N002112200019N0200001N1+02511+01321101481ADDAA199000091AY101061AY221061GF104991001001999999001081KA1240N+01751MA1999999096591MD1999999-0131MW1051REMSYN082AAXX  28124 83236 31998 40904 10251 20132 39659 40148 70502 80008 333 20175 59013;EQDQ01  00002PRCP99
0195832360999992002082818004-12150-045000FM-12+044099999V0201401N002112200019N0100001N1+03281+01181100791ADDAA199000091AY101061AY221061GF105991031021008001001081MA1999999095961MD1999999-0261MW1051REMSYN076AAXX  28184 83236 31597 51404 10328 20118 39596 40079 70502 83208 333 59026;EQDQ01  00002PRCP99
0226832360999992002082900004-12150-045000FM-12+044099999V0209999C000012200019N0100001N1+02501+01261101061ADDAA199000091AY101061AY221061GF104991041021008001001001KA1240M+03411MA1999999096181MD1999999-0131MW1051REMSYN094AAXX  29004 83236 31597 40000 10250 20126 39618 40106 70502 84200 333 10341 29042 55098 59013;EQDQ01  00002PRCP99
0214832360999992002082912004-12150-045000FM-12+044099999V0203601N001019999999N0100001N1+02491+01271101351ADDAA199000091AY101061AY221061GF106991001001999999001071KA1240N+01601MA1999999096461MD1999999-0131MW1051REMSYN082AAXX  29124 83236 31997 63602 10249 20127 39646 40135 70502 80007 333 20160 59013;EQDQ01  00002PRCP99
0195832360999992002082918004-12150-045000FM-12+044099999V0201801N001512200019N0100001N1+03461+01041100631ADDAA106000091AY101061AY221061GF105991021011008001001041MA1999999095841MD1999999-0121MW1051REMSYN076AAXX  29184 83236 31597 51803 10346 20104 39584 40063 70502 82104 333 59012;EQDQ01  00002PRCP06
0198832360999992002083000004-12150-045000FM-12+044099999V0202701N000512200019N0100001N1+02381+01281100901ADDAA106000091GF103991001001999999001041KA1240M+03601MA1999999096011MD1999999-0171REMSYN088AAXX  30004 83236 32997 32701 10238 20128 39601 40090 80004 333 10360 29041 55106 59017;EQDQ01  00002PRCP06
0214832360999992002083012004-12150-045000FM-12+044099999V0200501N003612200019N0100001N1+02581+01401101361ADDAA106000091AY101061AY211061GF101991011011008001001001KA1240N+01761MA1999999096471MD1999999+0011MW1051REMSYN082AAXX  30124 83236 31597 10507 10258 20140 39647 40136 70501 81100 333 20176 58001;EQDQ01  00002PRCP06
0195832360999992002083018004-12150-045000FM-12+044099999V0203201N002112200019N0100001N1+03441+01271100611ADDAA106000091AY101061AY211061GF103991031011008001001001MA1999999095801MD1999999+0041MW1051REMSYN076AAXX  30184 83236 31597 33204 10344 20127 39580 40061 70501 83100 333 58004;EQDQ01  00002PRCP06
0224832360999992002083112004-12150-045000FM-12+044099999V0200501N003112200019N0100001N1+02631+01331101351ADDAA106000091AY101061AY201061GA1001+999999999GF100991001001999999001001KA1240N+01941MA1999999096481MD1999999+0011MW1051REMSYN076AAXX  31124 83236 31997 00506 10263 20133 39648 40135 70500 333 20194 58001;EQDQ01  00002PRCP06
0195832360999992002083118004-12150-045000FM-12+044099999V0200501N001512200019N0100001N1+03521+01161100621ADDAA106000091AY101061AY201061GF103991031011008001001001MA1999999095861MD1999999+0061MW1041REMSYN076AAXX  31184 83236 31597 30503 10352 20116 39586 40062 70400 83100 333 58006;EQDQ01  00002PRCP06
0198832360999992002090100004-12150-045000FM-12+044099999V0202701N001010120019N0100001N1+02661+01261101031ADDAA106000091GF106991061081008001001001KA1240M+03681MA1999999096181MD1999999+0111REMSYN088AAXX  01004 83236 32597 62702 10266 20126 39618 40103 86800 333 10368 29038 55100 58011;EQDQ01  00002PRCP06
0214832360999992002090112004-12150-045000FM-12+044099999V0203601N005112200019N0100001N1+02801+01501101031ADDAA106000091AY101061AY201061GF102991001001999999001011KA1240N+02061MA1999999096201MD1999999-0281MW1041REMSYN082AAXX  01124 83236 31997 23610 10280 20150 39620 40103 70400 80001 333 20206 59028;EQDQ01  00002PRCP06
0195832360999992002090118004-12150-045000FM-12+044099999V0202301N000510075019N0100001N1+03591+01331100421ADDAA106000091AY101061AY221061GF107991071021008001001001MA1999999095671MD1999999-0181MW1041REMSYN076AAXX  01184 83236 31597 72301 10359 20133 39567 40042 70402 87200 333 59018;EQDQ01  00002PRCP06
0198832360999992002090200004-12150-045000FM-12+044099999V0209999C000010075019N0100001N1+02671+01591100731ADDAA106000091GF106991061021008001001001KA1240M+03731MA1999999095921MD1999999-0261REMSYN088AAXX  02004 83236 32597 60000 10267 20159 39592 40073 86200 333 10373 29044 55085 59026;EQDQ01  00002PRCP06
0214832360999992002090212004-12150-045000FM-12+044099999V0201401N000512200019N0100001N1+02801+01501101071ADDAA106000091AY101061AY221061GF104991041001022501061001KA1240N+02011MA1999999096241MD1999999+0041MW1051REMSYN082AAXX  02124 83236 31897 41401 10280 20150 39624 40107 70502 84060 333 20201 58004;EQDQ01  00002PRCP06
0211832360999992002090218004-12150-045000FM-12+044099999V0201801N001019999999N0040001N1+03561+01641100441ADDAA106000091AY101061AY221061GF105991999021008001001001MA1999999095671MD1999999+0001MW1051REMSYN076AAXX  02184 83236 31596 51802 10356 20164 39567 40044 70502 84200 333 58000;EQDQ01+000042SCOTLCQ02  00002PRCP06
0198832360999992002090300004-12150-045000FM-12+044099999V0202701N001510450019N0040001N1+02671+01651100731ADDAA106000091GF108991031021008001021999KA1240M+03731MA1999999095921MD1999999+0001REMSYN088AAXX  03004 83236 32596 82703 10267 20165 39592 40073 8322/ 333 10373 29046 55082 58000;EQDQ01  00002PRCP06
0214832360999992002090312004-12150-045000FM-12+044099999V0202301N002610210019N0040001N1+02731+01321101211ADDAA106000091AY101061AY241061GF106991061001022501051001KA1240N+02131MA1999999096361MD1999999-0121MW1051REMSYN082AAXX  03124 83236 31896 62305 10273 20132 39636 40121 70504 86050 333 20213 59012;EQDQ01  00002PRCP06
0195832360999992002090318004-12150-045000FM-12+044099999V0203201N001510075019N0040001N1+03471+01601100721ADDAA106000091AY101061AY241061GF106991061021008001001001MA1999999095961MD1999999+0291MW1041REMSYN076AAXX  03184 83236 31596 63203 10347 20160 39596 40072 70404 86200 333 58029;EQDQ01  00002PRCP06
0198832360999992002090400004-12150-045000FM-12+044099999V0201401N003610075019N0040001N1+02881+01731101241ADDAA106000091GF108991081071008001999999KA1240M+03591MA1999999096421MD1999999+0501REMSYN088AAXX  04004 83236 32596 81407 10288 20173 39642 40124 887// 333 10359 29047 55055 58050;EQDQ01  00002PRCP06
0190832360999992002090412004-12150-045000FM-12+044099999V0201401N001010075019N0100001N1+02441+01861101481ADDAY151061AY251061GF108991081051008001999999KA1240N+02211MA1999999096611MD1999999+0251MW1021REMSYN088AAXX  04124 83236 21597 81402 10244 20186 39661 40148 70255 885// 333 20221 58025 69924;
0167832360999992002090418004-12150-045000FM-12+044099999V0201401N001512200019N0100001N1+03021+01891100981ADDAA106000091GF106991031001022501061011MA1999999096311MD1999999+0171REMSYN070AAXX  04184 83236 32897 61403 10302 20189 39631 40098 83061 333 58017;EQDQ01  00002PRCP06
0198832360999992002090500004-12150-045000FM-12+044099999V0200901N003112200019N0100001N1+02761+01771101261ADDAA106000091GF103991031021008001001001KA1240M+03131MA1999999096391MD1999999-0031REMSYN088AAXX  05004 83236 32597 30906 10276 20177 39639 40126 83200 333 10313 29058 55044 59003;EQDQ01  00002PRCP06
0214832360999992002090512004-12150-045000FM-12+044099999V0200501N002112200019N0100001N1+02691+01701101501ADDAA106000091AY101061AY201061GF102991001001999999001011KA1240N+01951MA1999999096641MD1999999+0031MW1051REMSYN082AAXX  05124 83236 31997 20504 10269 20170 39664 40150 70500 80001 333 20195 58003;EQDQ01  00002PRCP06
0236832360999992002090600004-12150-045000FM-12+044099999V0201801N000512200019N0040001N1+02681+01811101061ADDAA106000091AY101061AY221061GA1001+999999999GF100991001001999999001001KA1240M+03521MA1999999096221MD1999999-0171MW1041REMSYN088AAXX  06004 83236 31996 01801 10268 20181 39622 40106 70402 333 10352 29051 55084 59017;EQDQ01  00002PRCP06
0214832360999992002090612004-12150-045000FM-12+044099999V0200501N003112200019N0100001N1+02701+01631101501ADDAA106000091AY101061AY221061GF102991001001999999001011KA1240N+01991MA1999999096641MD1999999+0001MW1051REMSYN082AAXX  06124 83236 31997 20506 10270 20163 39664 40150 70502 80001 333 20199 58000;EQDQ01  00002PRCP06
0167832360999992002090618004-12150-045000FM-12+044099999V0200501N002111050019N0200001N1+03511+01431100781ADDAA106000091GF105991041021008001001021MA1999999096011MD1999999-0011REMSYN070AAXX  06184 83236 32598 50504 10351 20143 39601 40078 84202 333 59001;EQDQ01  00002PRCP06
0202832360999992002090700004-12150-045000FM-12+044099999V0209999C000012200019N0200001N1+02481+02231101101ADDAY161061AY221061GF102991021011012501001001KA1240M+03591MA1999999096241MD1999999+0021MW1021REMSYN100AAXX  07004 83236 21698 20000 10248 20223 39624 40110 70262 82100 333 10359 29064 55091 58002 60021;
0162832360999992002090712004-12150-045000FM-12+044099999V0200501N001012200019N0200001N1+02671+01741101411ADDGF104991021001022501071031KA1240N+02011MA1999999096531MD1999999-0111REMSYN082AAXX  07124 83236 22898 40502 10267 20174 39653 40141 82073 333 20201 59011 60024;
0167832360999992002090718004-12150-045000FM-12+044099999V0200501N001510075019N0200001N1+03451+01431100821ADDAA106000091GF107991061041008001071001MA1999999096141MD1999999+0031REMSYN070AAXX  07184 83236 32598 70503 10345 20143 39614 40082 86470 333 58003;EQDQ01  00002PRCP06
0198832360999992002090800004-12150-045000FM-12+044099999V0201801N001010450019N0200001N1+02691+01811101041ADDAA106000091GF106991041021008001071031KA1240M+03661MA1999999096201MD1999999-0041REMSYN088AAXX  08004 83236 32598 61802 10269 20181 39620 40104 84273 333 10366 29051 55084 59004;EQDQ01  00002PRCP06
0190832360999992002090812004-12150-045000FM-12+044099999V0200501N001010450019N0200001N1+02481+01801101441ADDAY161061AY251061GF105991031041008001051021KA1240N+02101MA1999999096561MD1999999+0031MW1021REMSYN088AAXX  08124 83236 21598 50502 10248 20180 39656 40144 70265 83452 333 20210 58003 60024;
0167832360999992002090818004-12150-045000FM-12+044099999V0203601N002110075019N0200001N1+03421+01701100861ADDAA106000091GF106991051041008001031001MA1999999096021MD1999999-0021REMSYN070AAXX  08184 83236 32598 63604 10342 20170 39602 40086 85430 333 59002;EQDQ01  00002PRCP06
0202832360999992002090900004-12150-045000FM-12+044099999V0201801N002110042019N0020001N1+02211+02151101331ADDAY191061AY261061GF108991061061004501999999KA1240M+03531MA1999999096411MD1999999+0211MW1511REMSYN100AAXX  09004 83236 21495 81804 10221 20215 39641 40133 75196 866// 333 10353 29074 55067 58021 60171;
0167832360999992002090918004-12150-045000FM-12+044099999V0201401N003612200019N0200001N1+03271+01331101101ADDAA106000091GF103991021021012501001011MA1999999096261MD1999999+0241REMSYN070AAXX  09184 83236 32698 31407 10327 20133 39626 40110 82201 333 58024;EQDQ01  00002PRCP06
0208832360999992002091000004-12150-045000FM-12+044099999V0201401N002112200019N0200001N1+02481+01541101311ADDAA106000091GA1001+999999999GF100991001001999999001001KA1240M+03361MA1999999096421MD1999999+0011REMSYN082AAXX  10004 83236 32998 01404 10248 20154 39642 40131 333 10336 29052 55102 58001;EQDQ01  00002PRCP06
0186832360999992002091012004-12150-045000FM-12+044099999V0201401N004112200019N0200001N1+02481+01211101751ADDAA106000091GF103991001001999999001011KA1240N+01921MA1999999096841MD1999999+0101REMSYN076AAXX  10124 83236 32998 31408 10248 20121 39684 40175 80001 333 20192 58010;EQDQ01  00002PRCP06
0167832360999992002091018004-12150-045000FM-12+044099999V0200901N003112200019N0200001N1+03191+01161101111ADDAA106000091GF102991011011012501001011MA1999999096261MD1999999+0001REMSYN070AAXX  10184 83236 32698 20906 10319 20116 39626 40111 81101 333 58000;EQDQ01  00002PRCP06
0198832360999992002091100004-12150-045000FM-12+044099999V0201401N002610075019N0200001N1+02501+01351101301ADDAA106000091GF105991051021008001071001KA1240M+03301MA1999999096411MD1999999-0011REMSYN088AAXX  11004 83236 32598 51405 10250 20135 39641 40130 85270 333 10330 29043 55111 59001;EQDQ01  00002PRCP06
0196832360999992002091112004-12150-045000FM-12+044099999V0201401N004112200019N0200001N1+02521+01101101731ADDAA106000091GA1001+999999999GF100991001001999999001001KA1240N+01821MA1999999096821MD1999999-0021REMSYN070AAXX  11124 83236 32998 01408 10252 20110 39682 40173 333 20182 59002;EQDQ01  00002PRCP06
0167832360999992002091118004-12150-045000FM-12+044099999V0200901N004112200019N0200001N1+03191+00871101111ADDAA106000091GF102991001001999999001011MA1999999096261MD1999999+0001REMSYN070AAXX  11184 83236 32998 20908 10319 20087 39626 40111 80001 333 58000;EQDQ01  00002PRCP06
0198832360999992002091200004-12150-045000FM-12+044099999V0201801N001512200019N0200001N1+02381+01121101331ADDAA106000091GF105991031001022501061011KA1240M+03341MA1999999096431MD1999999+0021REMSYN088AAXX  12004 83236 32898 51803 10238 20112 39643 40133 83061 333 10334 29039 55111 58002;EQDQ01  00002PRCP06
0186832360999992002091212004-12150-045000FM-12+044099999V0201401N004112200019N0200001N1+02621+01261101631ADDAA106000091GF103991001001999999001031KA1240N+01921MA1999999096731MD1999999-0091REMSYN076AAXX  12124 83236 32998 31408 10262 20126 39673 40163 80003 333 20192 59009;EQDQ01  00002PRCP06
0167832360999992002091218004-12150-045000FM-12+044099999V0201401N003112200019N0200001N1+03221+01031101021ADDAA106000091GF102991021011012501001001MA1999999096161MD1999999-0101REMSYN070AAXX  12184 83236 32698 21406 10322 20103 39616 40102 82100 333 59010;EQDQ01  00002PRCP06
0198832360999992002091300004-12150-045000FM-12+044099999V0200901N003610120019N0200001N1+02881+01351101091ADDAA106000091GF107991061021012501061001KA1240M+03351MA1999999096261MD1999999-0201REMSYN088AAXX  13004 83236 32698 70907 10288 20135 39626 40109 86260 333 10335 29037 55107 59020;EQDQ01  00002PRCP06
0196832360999992002091312004-12150-045000FM-12+044099999V0200501N002112200019N0200001N1+02651+01511101351ADDAA106000091GA1001+999999999GF100991001001999999001001KA1240N+01881MA1999999096511MD1999999-0221REMSYN070AAXX  13124 83236 32998 00504 10265 20151 39651 40135 333 20188 59022;EQDQ01  00002PRCP06
0167832360999992002091318004-12150-045000FM-12+044099999V0203601N002112200019N0200001N1+03321+01281100741ADDAA106000091GF104991031011008001001021MA1999999095921MD1999999-0241REMSYN070AAXX  13184 83236 32598 43604 10332 20128 39592 40074 83102 333 59024;EQDQ01  00002PRCP06
0198832360999992002091400004-12150-045000FM-12+044099999V0201401N001012200019N0200001N1+02461+01381100981ADDAA106000091GF104991041011012501001001KA1240M+03461MA1999999096121MD1999999-0141REMSYN088AAXX  14004 83236 32698 41402 10246 20138 39612 40098 84100 333 10346 29045 55110 59014;EQDQ01  00002PRCP06
0196832360999992002091412004-12150-045000FM-12+044099999V0200501N002612200019N0200001N1+02781+01371101281ADDAA106000091GA1001+999999999GF100991001001999999001001KA1240N+01831MA1999999096411MD1999999-0101REMSYN070AAXX  14124 83236 32998 00505 10278 20137 39641 40128 333 20183 59010;EQDQ01  00002PRCP06
0226832360999992002091500004-12150-045000FM-12+044099999V0201401N001512200019N0040001N1+02511+01161999999ADDAA106000091AY101061AY241061GF102991001001999999001011KA1240M+03691MA1999999096061MD1999999-0061MW1051REMSYN094AAXX  15004 83236 31996 21403 10251 20116 39606 40909 70504 80001 333 10369 29037 55107 59006;EQDQ01  00002PRCP06
0177832360999992002091512004-12150-045000FM-12+044099999V0200501N001012200019N0040001N1+02551+01261999999ADDAA106000091GF103991999999999999999999KA1240N+01781MA1999999096351REMSYN081AAXX  15124 83236 31996 30502 10255 20126 39635 4012 70504 80001 333 20178 59006;EQDQ01  00002PRCP06
0195832360999992002091518004-12150-045000FM-12+044099999V0203601N002111050019N0100001N1+03741+00991100651ADDAA106000091AY101061AY241061GF105991041021008001001031MA1999999095841MD1999999-0011MW1051REMSYN076AAXX  15184 83236 31597 53604 10374 20099 39584 40065 70504 84203 333 59001;EQDQ01  00002PRCP06
0226832360999992002091600004-12150-045000FM-12+044099999V0209999C000010450019N0100001N1+02761+01721100911ADDAA106000091AY101061AY241061GF106991041021008001071031KA1240M+03841MA1999999096071MD1999999+0011MW1051REMSYN094AAXX  16004 83236 31597 60000 10276 20172 39607 40091 70504 84273 333 10384 29042 55105 58001;EQDQ01  00002PRCP06
0186832360999992002091612004-12150-045000FM-12+044099999V0203601N003612200019N0200001N1+02811+01501101441ADDAA106000091GF103991001001999999001011KA1240N+02091MA1999999096611MD1999999+0261REMSYN076AAXX  16124 83236 32998 33607 10281 20150 39661 40144 80001 333 20209 58026;EQDQ01  00002PRCP06
0167832360999992002091618004-12150-045000FM-12+044099999V0200501N004112200019N0200001N1+03501+01081100811ADDAA106000091GF104991011011012501001031MA1999999096051MD1999999+0211REMSYN070AAXX  16184 83236 32698 40508 10350 20108 39605 40081 81103 333 58021;EQDQ01  00002PRCP06
0236832360999992002091700004-12150-045000FM-12+044099999V0202301N001012200019N0040001N1+02601+01171101161ADDAA106000091AY101061AY241061GA1001+999999999GF100991001001999999001001KA1240M+03621MA1999999096321MD1999999+0251MW1051REMSYN088AAXX  17004 83236 31996 02302 10260 20117 39632 40116 70504 333 10362 29038 55105 58025;EQDQ01  00002PRCP06
0186832360999992002091712004-12150-045000FM-12+044099999V0201401N001512200019N0200001N1+02751+01341101601ADDAA199000091GF102991001001999999001011KA1240N+01791MA1999999096731MD1999999+0121REMSYN076AAXX  17124 83236 32998 21403 10275 20134 39673 40160 80001 333 20179 58012;EQDQ01  00002PRCP99
0195832360999992002091718004-12150-045000FM-12+044099999V0200501N002112200019N0100001N1+03521+00371100951ADDAA106000091AY101061AY241061GF103991001001999999001031MA1999999096141MD1999999+0091MW1051REMSYN076AAXX  17184 83236 31997 30504 10352 20037 39614 40095 70504 80003 333 58009;EQDQ01  00002PRCP06
0226832360999992002091800004-12150-045000FM-12+044099999V0203601N001512200019N0040001N1+02501+00721101281ADDAA106000091AY101061AY241061GF102991001001999999001011KA1240M+03601MA1999999096421MD1999999+0101MW1051REMSYN094AAXX  18004 83236 31996 23603 10250 20072 39642 40128 70504 80001 333 10360 29030 55104 58010;EQDQ01  00002PRCP06
0214832360999992002091812004-12150-045000FM-12+044099999V0200501N002111050019N0100001N1+02631+01261101551ADDAA106000091AY101061AY241061GF105991031001022501051031KA1240N+01671MA1999999096661MD1999999-0071MW1051REMSYN082AAXX  18124 83236 31897 50504 10263 20126 39666 40155 70504 83053 333 20167 59007;EQDQ01  00002PRCP06
0195832360999992002091818004-12150-045000FM-12+044099999V0200901N003112200019N0020001N1+03391+00161100961ADDAA106000091AY101061AY241061GF102991001001999999001011MA1999999096101MD1999999-0041MW1051REMSYN076AAXX  18184 83236 31995 20906 10339 20016 39610 40096 70504 80001 333 59004;EQDQ01  00002PRCP06
0242832360999992002091900004-12150-045000FM-12+044099999V0202701N001512200019N0040001N1+02481+00511101241ADDAA106000091AY101061AY241061GF104991001001999999001031KA1240M+03531MA1999999096371MD1999999-0051MW1051REMSYN094AAXX  19004 83236 31596 42703 10248 20051 39637 40124 70504 80003 333 10353 29028 55105 59005;EQDQ01+008002SCOLCBQ02  00002PRCP06
0224832360999992002091912004-12150-045000FM-12+044099999V0200501N002112200019N0040001N1+02581+01121101591ADDAA106000091AY101061AY241061GA1001+999999999GF100991001001999999001001KA1240N+01521MA1999999096701MD1999999+0041MW1051REMSYN076AAXX  19124 83236 31996 00504 10258 20112 39670 40159 70504 333 20152 58004;EQDQ01  00002PRCP06
0211832360999992002091918004-12150-045000FM-12+044099999V0203601N003112200019N0100001N1+03391+00841100821ADDAA106000091AY101061AY241061GF103991001001999999001011MA1999999095951MD1999999-0151MW1051REMSYN076AAXX  19184 83236 31997 33606 10339 20084 39595 40082 70504 88001 333 59015;EQDQ01+000082SCOTLCQ02  00002PRCP06
0236832360999992002092000004-12150-045000FM-12+044099999V0202701N001512200019N0040001N1+02351+01011101171ADDAA106000091AY101061AY241061GA1001+999999999GF100991001001999999001001KA1240M+03581MA1999999096281MD1999999-0091MW1051REMSYN088AAXX  20004 83236 31996 02703 10235 20101 39628 40117 70504 333 10358 29037 55099 59009;EQDQ01  00002PRCP06
0214832360999992002092012004-12150-045000FM-12+044099999V0200501N001519999999N0100001N1+02631+01671101461ADDAA106000091AY101061AY241061GF105991031001999999051031KA1240N+01741MA1999999096561MD1999999-0141MW1051REMSYN082AAXX  20124 83236 31997 50503 10263 20167 39656 40146 70504 83053 333 20174 59014;EQDQ01  00002PRCP06
0167832360999992002092018004-12150-045000FM-12+044099999V0203201N001511050019N0200001N1+03501+01081100801ADDAA106000091GF105991041021008001001051MA1999999095961MD1999999+0011REMSYN070AAXX  20184 83236 32598 53203 10350 20108 39596 40080 84205 333 58001;EQDQ01  00002PRCP06
0236832360999992002092100004-12150-045000FM-12+044099999V0209999C000012200019N0040001N1+02371+01461101031ADDAA106000091AY101061AY241061GA1001+999999999GF100991001001999999001001KA1240M+03591MA1999999096151MD1999999-0131MW1051REMSYN088AAXX  21004 83236 31996 00000 10237 20146 39615 40103 70504 333 10359 29048 55100 59013;EQDQ01  00002PRCP06
0214832360999992002092112004-12150-045000FM-12+044099999V0200501N005112200019N0040001N1+02791+01581101251ADDAA106000091AY101061AY241061GF103991001001999999001041KA1240N+01921MA1999999096381MD1999999-0181MW1051REMSYN082AAXX  21124 83236 31996 30510 10279 20158 39638 40125 70504 80004 333 20192 59018;EQDQ01  00002PRCP06
0195832360999992002092118004-12150-045000FM-12+044099999V0202701N002110075019N0040001N1+03601+01161100561ADDAA106000091AY101061AY241061GF105991051021008001001001MA1999999095751MD1999999-0211MW1051REMSYN076AAXX  21184 83236 31596 52704 10360 20116 39575 40056 70504 85200 333 59021;EQDQ01  00002PRCP06
0226832360999992002092200004-12150-045000FM-12+044099999V0201801N001012200019N0040001N1+02541+01331100841ADDAA106000091AY101061AY241061GF103991031061008001001001KA1240M+03731MA1999999096001MD1999999-0151MW1051REMSYN094AAXX  22004 83236 31596 31802 10254 20133 39600 40084 70504 83600 333 10373 29041 55101 59015;EQDQ01  00002PRCP06
0214832360999992002092212004-12150-045000FM-12+044099999V0209999C000019999999N0040001N1+02731+01351101101ADDAA106000091AY101061AY241061GF106991001001999999001071KA1240N+02131MA1999999096251MD1999999-0131MW1051REMSYN082AAXX  22124 83236 31996 60000 10273 20135 39625 40110 70504 80007 333 20213 59013;EQDQ01  00002PRCP06
0195832360999992002092218004-12150-045000FM-12+044099999V0209999C000010450019N0040001N1+02851+01761100641ADDAA106000091AY101061AY241061GF108991021061008001011999MA1999999095781MD1999999+0031MW1051REMSYN076AAXX  22184 83236 31596 80000 10285 20176 39578 40064 70504 8261/ 333 58003;EQDQ01  00002PRCP06
0226832360999992002092300004-12150-045000FM-12+044099999V0201401N000510210019N0040001N1+02591+01821100821ADDAA106000091AY101061AY241061GF108991081001022501011001KA1240M+03411MA1999999095981MD1999999-0021MW1051REMSYN094AAXX  23004 83236 31896 81401 10259 20182 39598 40082 70504 88010 333 10341 29055 55003 59002;EQDQ01  00002PRCP06
0214832360999992002092312004-12150-045000FM-12+044099999V0203201N001510450019N0040001N1+02561+01831101161ADDAA106000091AY101061AY241061GF108991031021008001011999KA1240N+02151MA1999999096301MD1999999+0051MW1051REMSYN082AAXX  23124 83236 31596 83203 10256 20183 39630 40116 70504 8321/ 333 20215 58005;EQDQ01  00002PRCP06
0195832360999992002092318004-12150-045000FM-12+044099999V0202701N000510450019N0040001N1+03331+01611100601ADDAA106000091AY101061AY241061GF108991031071008001011999MA1999999095791MD1999999+0011MW1051REMSYN076AAXX  23184 83236 31596 82701 10333 20161 39579 40060 70504 8371/ 333 58001;EQDQ01  00002PRCP06
0226832360999992002092400004-12150-045000FM-12+044099999V0209999C000010450019N0040001N1+02761+01801100961ADDAA106000091AY101061AY241061GF108991041071008001011999KA1240M+03441MA1999999096121MD1999999+0141MW1131REMSYN094AAXX  24004 83236 31596 80000 10276 20180 39612 40096 71304 8471/ 333 10344 29054 55000 58014;EQDQ01  00002PRCP06
0186832360999992002092412004-12150-045000FM-12+044099999V0200501N001510450019N0100001N1+02561+01971101031ADDAA106000091GF108991041071008001021999KA1240N+02301MA1999999096181MD1999999-0121REMSYN076AAXX  24124 83236 32597 80503 10256 20197 39618 40103 8472/ 333 20230 59012;EQDQ01  00002PRCP06
0171832360999992002092418004-12150-045000FM-12+044099999V0202301N003610075019N0040001N1+02381+02131100891ADDAY191061AY261061GF108991051071008001021999MA1999999095981MD1999999-0191MW1531REMSYN082AAXX  24184 83236 21596 82307 10238 20213 39598 40089 75396 8572/ 333 59019 60121;
0202832360999992002092500004-12150-045000FM-12+044099999V0202301N002110075019N0040001N1+02301+02111101081ADDAY161061AY261061GF108991051051008001021999KA1240M+03261MA1999999096191MD1999999+0071MW1021REMSYN100AAXX  25004 83236 21596 82304 10230 20211 39619 40108 70266 8552/ 333 10326 29085 55010 58007 60081;
0162832360999992002092512004-12150-045000FM-12+044099999V0200901N001010075019N0040001N1+02291+02091101291ADDGF108991081051008001999999KA1240N+02141MA1999999096361MD1999999+0181REMSYN082AAXX  25124 83236 22596 80902 10229 20209 39636 40129 885// 333 20214 58018 60204;
0198832360999992002092600004-12150-045000FM-12+044099999V0200901N001510120019N0100001N1+02581+02041101171ADDAA106000091GF107991071081008001001001KA1240M+02911MA1999999096281MD1999999+0091REMSYN088AAXX  26004 83236 32597 70903 10258 20204 39628 40117 87800 333 10291 29074 55016 58009;EQDQ01  00002PRCP06
0186832360999992002092612004-12150-045000FM-12+044099999V0202701N000510450019N0100001N1+02341+01931101361ADDAA106000091GF106991011011008001051001KA1240N+02081MA1999999096461MD1999999+0101REMSYN076AAXX  26124 83236 32597 62701 10234 20193 39646 40136 81150 333 20208 58010;EQDQ01  00002PRCP06
0171832360999992002092618004-12150-045000FM-12+044099999V0200501N004610120019N0100001N1+02891+02001100941ADDAY161061AY261061GF107991071081008001001001MA1999999096071MD1999999+0131MW1021REMSYN082AAXX  26184 83236 21597 70509 10289 20200 39607 40094 70266 87800 333 58013 60031;
0162832360999992002092712004-12150-045000FM-12+044099999V0201801N001510450019N0100001N1+02481+01961101501ADDGF107991031021008001051001KA1240N+02151MA1999999096581MD1999999+0121REMSYN082AAXX  27124 83236 22597 71803 10248 20196 39658 40150 83250 333 20215 58012 60034;
0167832360999992002092718004-12150-045000FM-12+044099999V0203601N001010450019N0100001N1+03091+01881101021ADDAA106000091GF108991041021008001021001MA1999999096101MD1999999+0091REMSYN070AAXX  27184 83236 32597 83602 10309 20188 39610 40102 84220 333 58009;EQDQ01  00002PRCP06
0198832360999992002092800004-12150-045000FM-12+044099999V0201801N001010450019N0100001N1+02681+01811101231ADDAA106000091GF108991031061008001021999KA1240M+03211MA1999999096361MD1999999-0031REMSYN088AAXX  28004 83236 32597 81802 10268 20181 39636 40123 8362/ 333 10321 29060 55005 59003;EQDQ01  00002PRCP06
0186832360999992002092812004-12150-045000FM-12+044099999V0203201N000511050019N0100001N1+02681+01841101441ADDAA106000091GF105991021011008001001051KA1240N+02161MA1999999096581MD1999999+0001REMSYN076AAXX  28124 83236 32597 53201 10268 20184 39658 40144 82105 333 20216 58000;EQDQ01  00002PRCP06
0167832360999992002092818004-12150-045000FM-12+044099999V0201401N003110075019N0100001N1+03361+01651100931ADDAA106000091GF106991061021008001001001MA1999999096131MD1999999-0031REMSYN070AAXX  28184 83236 32597 61406 10336 20165 39613 40093 86200 333 59003;EQDQ01  00002PRCP06
0198832360999992002092900004-12150-045000FM-12+044099999V0202701N001512200019N0100001N1+02681+01641101241ADDAA106000091GF103991031021008001001001KA1240M+03491MA1999999096391MD1999999+0031REMSYN088AAXX  29004 83236 32597 32703 10268 20164 39639 40124 83200 333 10349 29050 55083 58003;EQDQ01  00002PRCP06
0186832360999992002092912004-12150-045000FM-12+044099999V0200901N002610075019N0100001N1+02651+01901101491ADDAA106000091GF105991051021008001001001KA1240N+02311MA1999999096621MD1999999+0041REMSYN076AAXX  29124 83236 32597 50905 10265 20190 39662 40149 85200 333 20231 58004;EQDQ01  00002PRCP06
0167832360999992002092918004-12150-045000FM-12+044099999V0203601N002110075019N0100001N1+02311+01671100791ADDAA106000091GF105991051021008001001001MA1999999096011MD1999999-0121REMSYN070AAXX  29184 83236 32597 53604 10231 20167 39601 40079 85200 333 59012;EQDQ01  00002PRCP06
0198832360999992002093000004-12150-045000FM-12+044099999V0203601N001012200019N0100001N1+02681+01921101021ADDAA106000091GF103991031021008001001001KA1240M+03531MA1999999096211MD1999999-0181REMSYN088AAXX  30004 83236 32597 33602 10268 20192 39621 40102 83200 333 10353 29056 55080 59018;EQDQ01  00002PRCP06
0186832360999992002093012004-12150-045000FM-12+044099999V0200501N003112200019N0100001N1+02761+01721101411ADDAA106000091GF101991011011008001001001KA1240N+02271MA1999999096551MD1999999-0071REMSYN076AAXX  30124 83236 32597 10506 10276 20172 39655 40141 81100 333 20227 59007;EQDQ01  00002PRCP06
0167832360999992002093018004-12150-045000FM-12+044099999V0200901N002112200019N0100001N1+03441+01211100841ADDAA106000091GF104991041021008001001001MA1999999096071MD1999999+0011REMSYN070AAXX  30184 83236 32597 40904 10344 20121 39607 40084 84200 333 58001;EQDQ01  00002PRCP06
0198832360999992002100100004-12150-045000FM-12+044099999V0202301N001012200019N0100001N1+02741+01371101151ADDAA106000091GF102991021011008001001001KA1240M+03591MA1999999096321MD1999999+0111REMSYN088AAXX  01004 83236 32597 22302 10274 20137 39632 40115 82100 333 10359 29041 55099 58011;EQDQ01  00002PRCP06
0186832360999992002100112004-12150-045000FM-12+044099999V0200901N003112200019N0100001N1+02791+01371101461ADDAA106000091GF103991001001999999001041KA1240N+01801MA1999999096611MD1999999+0061REMSYN076AAXX  01124 83236 32997 30906 10279 20137 39661 40146 80004 333 20180 58006;EQDQ01  00002PRCP06
0167832360999992002100118004-12150-045000FM-12+044099999V0201401N003110075019N0100001N1+03491+00781100871ADDAA106000091GF105991051021008001001001MA1999999096041MD1999999-0071REMSYN070AAXX  01184 83236 32597 51406 10349 20078 39604 40087 85200 333 59007;EQDQ01  00002PRCP06
0198832360999992002100200004-12150-045000FM-12+044099999V0200901N001012200019N0100001N1+02811+01201101031ADDAA106000091GF103991031021008001001001KA1240M+03701MA1999999096221MD1999999-0101REMSYN088AAXX  02004 83236 32597 30902 10281 20120 39622 40103 83200 333 10370 29034 55101 59010;EQDQ01  00002PRCP06
0196832360999992002100212004-12150-045000FM-12+044099999V0200501N006212200019N0100001N1+02821+01441101191ADDAA106000091GA1001+999999999GF100991001001999999001001KA1240N+01761MA1999999096371MD1999999-0241REMSYN070AAXX  02124 83236 32997 00512 10282 20144 39637 40119 333 20176 59024;EQDQ01  00002PRCP06
0167832360999992002100218004-12150-045000FM-12+044099999V0203601N002112200019N0100001N1+03681+01091100581ADDAA106000091GF104991041021008001001001MA1999999095781MD1999999-0261REMSYN070AAXX  02184 83236 32597 43604 10368 20109 39578 40058 84200 333 59026;EQDQ01  00002PRCP06
0198832360999992002100300004-12150-045000FM-12+044099999V0209999C000010210019N0100001N1+03051+01281100821ADDAA106000091GF108991081001022501011001KA1240M+03811MA1999999096051MD1999999-0171REMSYN088AAXX  03004 83236 32897 80000 10305 20128 39605 40082 88010 333 10381 29033 55102 59017;EQDQ01  00002PRCP06
0186832360999992002100312004-12150-045000FM-12+044099999V0200501N003612200019N0100001N1+02891+01421101051ADDAA106000091GF104991041001022501081001KA1240N+02031MA1999999096261MD1999999-0111REMSYN076AAXX  03124 83236 32897 40507 10289 20142 39626 40105 84080 333 20203 59011;EQDQ01  00002PRCP06
0195832360999992002100318004-12150-045000FM-12+044099999V0200501N001512200019N0100001N1+03501+00941100511ADDAA106000091AY101061AY221061GF104991021021008001001071MA1999999095741MD1999999-0041MW1051REMSYN076AAXX  03184 83236 31597 40503 10350 20094 39574 40051 70502 82207 333 59004;EQDQ01  00002PRCP06
0198832360999992002100400004-12150-045000FM-12+044099999V0203601N000510450019N0100001N1+02991+01311100821ADDAA106000091GF107991031021008001011001KA1240M+03651MA1999999096051MD1999999+0001REMSYN088AAXX  04004 83236 32597 73601 10299 20131 39605 40082 83210 333 10365 29034 55084 58000;EQDQ01  00002PRCP06
0214832360999992002100412004-12150-045000FM-12+044099999V0200501N003110450019N0040001N1+02781+01611101151ADDAA106000091AY101061AY241061GF105991021021008001061001KA1240N+02231MA1999999096351MD1999999+0091MW1051REMSYN082AAXX  04124 83236 31596 50506 10278 20161 39635 40115 70504 82260 333 20223 58009;EQDQ01  00002PRCP06
0195832360999992002100418004-12150-045000FM-12+044099999V0200901N002110075019N0040001N1+02551+01411100571ADDAA106000091AY101061AY241061GF106991061021008001001001MA1999999095791MD1999999+0051MW1051REMSYN076AAXX  04184 83236 31596 60904 10255 20141 39579 40057 70504 86200 333 58005;EQDQ01  00002PRCP06
0236832360999992002100500004-12150-045000FM-12+044099999V0209999C000012200019N0040001N1+02761+01721100791ADDAA106000091AY101061AY241061GA1001+999999999GF100991001001999999001001KA1240M+03711MA1999999095991MD1999999-0061MW1051REMSYN088AAXX  05004 83236 31996 00000 10276 20172 39599 40079 70504 333 10371 29096 55077 59006;EQDQ01  00002PRCP06
0224832360999992002100512004-12150-045000FM-12+044099999V0203601N001012200019N0040001N1+02911+01781101081ADDAA106000091AY101061AY241061GA1001+999999999GF100991001001999999001001KA1240N+02311MA1999999096271MD1999999-0081MW1051REMSYN076AAXX  05124 83236 31996 03602 10291 20178 39627 40108 70504 333 20231 59008;EQDQ01  00002PRCP06
0195832360999992002100518004-12150-045000FM-12+044099999V0200501N003612200019N0040001N1+03571+01481100501ADDAA106000091AY101061AY241061GF104991041021008001001001MA1999999095761MD1999999-0031MW1051REMSYN076AAXX  05184 83236 31596 40507 10357 20148 39576 40050 70504 84200 333 59003;EQDQ01  00002PRCP06
0202832360999992002100600004-12150-045000FM-12+044099999V0200501N001510450019N0040001N1+02351+02111101071ADDAY191061AY251061GF108991041071008001021999KA1240M+03661MA1999999096221MD1999999+0231MW1051REMSYN100AAXX  06004 83236 21596 80503 10235 20211 39622 40107 70595 8472/ 333 10366 29064 55101 58023 60041;
0190832360999992002100612004-12150-045000FM-12+044099999V0209999C000012200019N0100001N1+02641+02051101191ADDAY101061AY241061GF104991021021008001001051KA1240N+02211MA1999999096311MD1999999+0041MW1051REMSYN088AAXX  06124 83236 21597 40000 10264 20205 39631 40119 70504 82205 333 20221 58004 60074;
0171832360999992002100618004-12150-045000FM-12+044099999V0209999C000010450019N0200001N1+03151+01801100751ADDAY191061AY251061GF106991041021008001051031MA1999999095931MD1999999+0171MW1051REMSYN082AAXX  06184 83236 21598 60000 10315 20180 39593 40075 70595 84253 333 58017 69911;
0198832360999992002100700004-12150-045000FM-12+044099999V0201401N001510075019N0200001N1+02891+01461100841ADDAA106000091GF106991051021008001041001KA1240M+03471MA1999999096021MD1999999-0201REMSYN088AAXX  07004 83236 32598 61403 10289 20146 39602 40084 85240 333 10347 29050 55081 59020;EQDQ01  00002PRCP06
0162832360999992002100712004-12150-045000FM-12+044099999V0200501N002110450019N0200001N1+02781+01411101191ADDGF105991031011012501081031KA1240N+01961MA1999999096381MD1999999+0071REMSYN082AAXX  07124 83236 22698 50504 10278 20141 39638 40119 83183 333 20196 58007 69914;
0167832360999992002100718004-12150-045000FM-12+044099999V0203601N003110450019N0200001N1+03501+01201100681ADDAA106000091GF106991041021008001071051MA1999999095891MD1999999-0041REMSYN070AAXX  07184 83236 32598 63606 10350 20120 39589 40068 84275 333 59004;EQDQ01  00002PRCP06
0198832360999992002100800004-12150-045000FM-12+044099999V0209999C000012200019N0200001N1+02461+01761100951ADDAA106000091GF101991001001999999001011KA1240M+03601MA1999999096101MD1999999+0081REMSYN088AAXX  08004 83236 32998 10000 10246 20176 39610 40095 80001 333 10360 29050 55096 58008;EQDQ01  00002PRCP06
0167832360999992002100818004-12150-045000FM-12+044099999V0200501N004111050019N0200001N1+03581+00751100761ADDAA106000091GF105991021011008001071031MA1999999096961MD1999999+0071REMSYN070AAXX  08184 83236 32598 50508 10358 20075 39696 40076 82173 333 58007;EQDQ01  00002PRCP06
0226832360999992002100900004-12150-045000FM-12+044099999V0200501N001512200019N0100001N1+02771+01031101021ADDAA106000091AY101061AY241061GF102991001001999999001011KA1240M+03691MA1999999096181MD1999999+0081MW1051REMSYN094AAXX  09004 83236 31997 20503 10277 20103 39618 40102 70504 80001 333 10369 29033 55112 58008;EQDQ01  00002PRCP06
0186832360999992002100912004-12150-045000FM-12+044099999V0203601N001012200019N0200001N1+02821+01371101221ADDAA106000091GF105991021001022501051011KA1240N+01931MA1999999096401MD1999999+0111REMSYN076AAXX  09124 83236 32898 53602 10282 20137 39640 40122 82051 333 20193 58011;EQDQ01  00002PRCP06
0167832360999992002100918004-12150-045000FM-12+044099999V0203601N001511050019N0200001N1+03571+00501100751ADDAA106000091GF105991021021008001051011MA1999999095971MD1999999+0011REMSYN070AAXX  09184 83236 32598 53603 10357 20050 39597 40075 82251 333 58001;EQDQ01  00002PRCP06
0236832360999992002101000004-12150-045000FM-12+044099999V0209999C000012200019N0100001N1+02441+01511101051ADDAA106000091AY101061AY241061GA1001+999999999GF100991001001999999001001KA1240M+03721MA1999999096201MD1999999+0021MW1051REMSYN088AAXX  10004 83236 31997 00000 10244 20151 39620 40105 70504 333 10372 29042 55107 58002;EQDQ01  00002PRCP06
0186832360999992002101012004-12150-045000FM-12+044099999V0200501N004112200019N0200001N1+02891+01391101291ADDAA106000091GF102991021011012501001001KA1240N+01981MA1999999096431MD1999999+0031REMSYN076AAXX  10124 83236 32698 20508 10289 20139 39643 40129 82100 333 20198 58003;EQDQ01  00002PRCP06
0167832360999992002101018004-12150-045000FM-12+044099999V0200501N002110450019N0200001N1+03451+00821100621ADDAA106000091GF106991041021008001071051MA1999999095831MD1999999-0141REMSYN070AAXX  10184 83236 32598 60504 10345 20082 39583 40062 84275 333 59014;EQDQ01  00002PRCP06
0226832360999992002101100004-12150-045000FM-12+044099999V0209999C000012200019N0100001N1+02591+01611100911ADDAA106000091AY101061AY241061GF104991041001022501061001KA1240M+03681MA1999999096091MD1999999-0111MW1051REMSYN094AAXX  11004 83236 31897 40000 10259 20161 39609 40091 70504 84060 333 10368 29042 55090 59011;EQDQ01  00002PRCP06
0186832360999992002101112004-12150-045000FM-12+044099999V0200501N003110450019N0200001N1+02851+01351101201ADDAA106000091GF105991031021012501071031KA1240N+01951MA1999999096451MD1999999+0021REMSYN076AAXX  11124 83236 32698 50506 10285 20135 39645 40120 83273 333 20195 58002;EQDQ01  00002PRCP06
0167832360999992002101118004-12150-045000FM-12+044099999V0201401N002110075019N0200001N1+03511+01081100681ADDAA106000091GF107991051041008001071051MA1999999095921MD1999999+0091REMSYN070AAXX  11184 83236 32598 71404 10351 20108 39592 40068 85475 333 58009;EQDQ01  00002PRCP06
0226832360999992002101200004-12150-045000FM-12+044099999V0209999C000010450019N0100001N1+02581+01461100901ADDAA106000091AY101061AY241061GF106991041021012501061031KA1240M+03661MA1999999096071MD1999999-0021MW1051REMSYN094AAXX  12004 83236 31697 60000 10258 20146 39607 40090 70504 84263 333 10366 29041 55084 59002;EQDQ01  00002PRCP06
0214832360999992002101212004-12150-045000FM-12+044099999V0200501N002112200019N0100001N1+02901+01201101261ADDAA106000091AY101061AY241061GF102991001001999999001011KA1240N+02041MA1999999096421MD1999999-0031MW1051REMSYN082AAXX  12124 83236 31997 20504 10290 20120 39642 40126 70504 80001 333 20204 59003;EQDQ01  00002PRCP06
0167832360999992002101218004-12150-045000FM-12+044099999V0201401N002110075019N0200001N1+03671+01141100611ADDAA106000091GF105991051021008001051001MA1999999095861MD1999999-0061REMSYN070AAXX  12184 83236 32598 51404 10367 20114 39586 40061 85250 333 59006;EQDQ01  00002PRCP06
0226832360999992002101300004-12150-045000FM-12+044099999V0209999C000010450019N0002001N1+02991+01311100991ADDAA106000091AY101061AY241061GF105991031021008001061011KA1240M+03811MA1999999096121MD1999999+0051MW1051REMSYN094AAXX  13004 83236 31592 50000 10299 20131 39612 40099 70504 83261 333 10381 29032 55100 58005;EQDQ01  00002PRCP06
0214832360999992002101312004-12150-045000FM-12+044099999V0200501N001512200019N0100001N1+02901+01441101181ADDAA106000091AY101061AY241061GF102991001001999999001011KA1240N+02121MA1999999096391MD1999999-0031MW1051REMSYN082AAXX  13124 83236 31997 20503 10290 20144 39639 40118 70504 80001 333 20212 59003;EQDQ01  00002PRCP06
0167832360999992002101318004-12150-045000FM-12+044099999V0202701N001510075019N0200001N1+03681+01291100521ADDAA106000091GF105991051021008001001001MA1999999095751MD1999999-0111REMSYN070AAXX  13184 83236 32598 52703 10368 20129 39575 40052 85200 333 59011;EQDQ01  00002PRCP06
0226832360999992002101400004-12150-045000FM-12+044099999V0202301N001010450019N0100001N1+02951+01521100771ADDAA106000091AY101061AY241061GF106991031021008001071051KA1240M+03801MA1999999095991MD1999999-0131MW1051REMSYN094AAXX  14004 83236 31597 62302 10295 20152 39599 40077 70504 83275 333 10380 29037 55110 59013;EQDQ01  00002PRCP06
0224832360999992002101412004-12150-045000FM-12+044099999V0200501N002112200019N0100001N1+02881+01501101191ADDAA106000091AY101061AY241061GA1001+999999999GF100991001001999999001001KA1240N+02091MA1999999096391MD1999999+0001MW1051REMSYN076AAXX  14124 83236 31997 00504 10288 20150 39639 40119 70504 333 20209 58000;EQDQ01  00002PRCP06
0167832360999992002101418004-12150-045000FM-12+044099999V0200501N002612200019N0200001N1+03581+01331100511ADDAA106000091GF104991041021008001001001MA1999999095781MD1999999+0031REMSYN070AAXX  14184 83236 32598 40505 10358 20133 39578 40051 84200 333 58003;EQDQ01  00002PRCP06
0226832360999992002101500004-12150-045000FM-12+044099999V0200901N004610450019N0100001N1+03241+01211100761ADDAA106000091AY101061AY241061GF106991041021008001071051KA1240M+03731MA1999999096011MD1999999+0021MW1051REMSYN094AAXX  15004 83236 31597 60909 10324 20121 39601 40076 70504 84275 333 10373 29032 55108 58002;EQDQ01  00002PRCP06
0186832360999992002101512004-12150-045000FM-12+044099999V0200501N003612200019N0200001N1+02891+01501101131ADDAA106000091GF102991001001999999001031KA1240N+02531MA1999999096361MD1999999-0031REMSYN076AAXX  15124 83236 32998 20507 10289 20150 39636 40113 80003 333 20253 59003;EQDQ01  00002PRCP06
0167832360999992002101518004-12150-045000FM-12+044099999V0201801N001510075019N0200001N1+03591+01391100501ADDAA106000091GF105991051021008001001001MA1999999095771MD1999999-0011REMSYN070AAXX  15184 83236 32598 51803 10359 20139 39577 40050 85200 333 59001;EQDQ01  00002PRCP06
0198832360999992002101600004-12150-045000FM-12+044099999V0200901N001510075019N0200001N1+03341+01071100711ADDAA106000091GF108991061041008001071999KA1240M+03781MA1999999095971MD1999999-0041REMSYN088AAXX  16004 83236 32598 80903 10334 20107 39597 40071 8647/ 333 10378 29030 55108 59004;EQDQ01  00002PRCP06
0084832360999992002101612004-12150-045000FM-12+044099999V02099999999999999999N9999999N1+99999+99999999999REMSYN075AAXX  16124 83236 3299 20504 10287 20129 39635 40111 80003 333 20212 59001;
0195832360999992002101618004-12150-045000FM-12+044099999V0200501N001511050019N0100001N1+03661+01211100541ADDAA106000091AY101061AY241061GF105991031021008001001031MA1999999095801MD1999999+0031MW1051REMSYN076AAXX  16184 83236 31597 50503 10366 20121 39580 40054 70504 83203 333 58003;EQDQ01  00002PRCP06
0226832360999992002101700004-12150-045000FM-12+044099999V0209999C000010450019N0100001N1+02641+01601100851ADDAA106000091AY101061AY241061GF106991041021012501061051KA1240M+03761MA1999999096031MD1999999+0061MW1051REMSYN094AAXX  17004 83236 31697 60000 10264 20160 39603 40085 70504 84265 333 10376 29042 55102 58006;EQDQ01  00002PRCP06
0214832360999992002101712004-12150-045000FM-12+044099999V0200501N002612200019N0100001N1+03131+01251101081ADDAA106000091AY101061AY241061GF102991001001999999001031KA1240N+02121MA1999999096281MD1999999-0071MW1051REMSYN082AAXX  17124 83236 31997 20505 10313 20125 39628 40108 70504 80003 333 20212 59007;EQDQ01  00002PRCP06
0167832360999992002101718004-12150-045000FM-12+044099999V0200501N003112200019N0200001N1+03731+01051100451ADDAA106000091GF104991041021008001001001MA1999999095691MD1999999-0111REMSYN070AAXX  17184 83236 32598 40506 10373 20105 39569 40045 84200 333 59011;EQDQ01  00002PRCP06
0226832360999992002101800004-12150-045000FM-12+044099999V0201801N001512200019N0040001N1+02881+01571100761ADDAA106000091AY101061AY241061GF103991001001999999001051KA1240M+03861MA1999999096001MD1999999-0031MW1051REMSYN094AAXX  18004 83236 31996 31803 10288 20157 39600 40076 70504 80005 333 10386 29036 55108 59003;EQDQ01  00002PRCP06
0214832360999992002101812004-12150-045000FM-12+044099999V0200501N003110450019N0100001N1+03011+01711101021ADDAA106000091AY101061AY241061GF106991041021012501061051KA1240N+02311MA1999999096241MD1999999-0041MW1051REMSYN082AAXX  18124 83236 31697 60506 10301 20171 39624 40102 70504 84265 333 20231 59004;EQDQ01  00002PRCP06
0167832360999992002101818004-12150-045000FM-12+044099999V0200501N002610075019N0200001N1+03661+01341100481ADDAA106000091GF106991051031008001071051MA1999999095651MD1999999-0041REMSYN070AAXX  18184 83236 32598 60505 10366 20134 39565 40048 85375 333 59004;EQDQ01  00002PRCP06
0198832360999992002101900004-12150-045000FM-12+044099999V0200501N004110075019N0200001N1+03061+01421100681ADDAA106000091GF106991051021008001061041KA1240M+03781MA1999999095931MD1999999-0071REMSYN088AAXX  19004 83236 32598 60508 10306 20142 39593 40068 85264 333 10378 29036 55079 59007;EQDQ01  00002PRCP06
0213832360999992002101912004-12150-045000FM-12+044099999V0203601N003112200019N0100001N1+02971+01571101101ADDAA106000091AY101061AY241061GF104991031021012501001031KA1240N+02471MA1999999096321MD1999999+0081MW1051REMSYN081AAXX  19124 83236 31697 43606 10297 20157 39632 40110 7050483203 333 20247 58008;EQDQ01  00002PRCP06
0167832360999992002101918004-12150-045000FM-12+044099999V0200501N001510450019N0200001N1+03551+01461100441ADDAA106000091GF106991041041008001071021MA1999999095721MD1999999+0071REMSYN070AAXX  19184 83236 32598 60503 10355 20146 39572 40044 84472 333 58007;EQDQ01  00002PRCP06
0226832360999992002102000004-12150-045000FM-12+044099999V0200901N002110075019N0100001N1+03221+01341100641ADDAA106000091AY101061AY241061GF106991061041008001061001KA1240M+03671MA1999999095901MD1999999-0031MW1051REMSYN094AAXX  20004 83236 31597 60904 10322 20134 39590 40064 70504 86460 333 10367 29034 55089 59003;EQDQ01  00002PRCP06
0214832360999992002102012004-12150-045000FM-12+044099999V0200501N002110450019N0100001N1+02861+01621101041ADDAA106000091AY101061AY241061GF106991041021012501071031KA1240N+02281MA1999999096271MD1999999-0051MW1051REMSYN082AAXX  20124 83236 31697 60504 10286 20162 39627 40104 70504 84273 333 20228 59005;EQDQ01  00002PRCP06
0167832360999992002102018004-12150-045000FM-12+044099999V0200501N002610450019N0200001N1+03451+01431100481ADDAA106000091GF106991041041008001071051MA1999999095711MD1999999-0011REMSYN070AAXX  20184 83236 32598 60505 10345 20143 39571 40048 84475 333 59001;EQDQ01  00002PRCP06
0198832360999992002102100004-12150-045000FM-12+044099999V0202301N001010075019N0200001N1+02641+01581100771ADDAA106000091GF107991051041008001061031KA1240M+03601MA1999999095951MD1999999+0051REMSYN088AAXX  21004 83236 32598 72302 10264 20158 39595 40077 85463 333 10360 29045 55086 58005;EQDQ01  00002PRCP06
0214832360999992002102112004-12150-045000FM-12+044099999V0200501N005112200019N0100001N1+02801+01501101181ADDAA106000091AY101061AY241061GF103991031001008001041001KA1240N+02031MA1999999096341MD1999999+0071MW1051REMSYN082AAXX  21124 83236 31597 30510 10280 20150 39634 40118 70504 83040 333 20203 58007;EQDQ01  00002PRCP06
0195832360999992002102118004-12150-045000FM-12+044099999V0203601N001010075019N0100001N1+03561+01131100581ADDAA106000091AY101061AY221061GF105991051021008001001001MA1999999095831MD1999999+0121MW1051REMSYN076AAXX  21184 83236 31597 53602 10356 20113 39583 40058 70502 85200 333 58012;EQDQ01  00002PRCP06
0226832360999992002102200004-12150-045000FM-12+044099999V0209999C000012200019N0100001N1+02771+01241100741ADDAA106000091AY101061AY241061GF103991031001022501061001KA1240M+03751MA1999999095941MD1999999-0011MW1051REMSYN094AAXX  22004 83236 31897 30000 10277 20124 39594 40074 70504 83060 333 10375 29036 55105 59001;EQDQ01  00002PRCP06
0186832360999992002102212004-12150-045000FM-12+044099999V0200501N003112200019N0100001N1+02001+01241101121ADDAA106000091GF103991031001022501081001KA1240N+02031MA1999999096321MD1999999-0021REMSYN076AAXX  22124 83236 32897 30506 10200 20124 39632 40112 83080 333 20203 59002;EQDQ01  00002PRCP06
0167832360999992002102218004-12150-045000FM-12+044099999V0201801N002112200019N0100001N1+03631+01111100571ADDAA106000091GF105991031021008001001041MA1999999095801MD1999999-0031REMSYN070AAXX  22184 83236 32597 51804 10363 20111 39580 40057 83204 333 59003;EQDQ01  00002PRCP06
0198832360999992002102300004-12150-045000FM-12+044099999V0201801N000512200019N0100001N1+02831+01611100731ADDAA106000091GF104991041021008001001001KA1240M+03831MA1999999095951MD1999999+0011REMSYN088AAXX  23004 83236 32597 41801 10283 20161 39595 40073 84200 333 10383 29038 55106 58001;EQDQ01  00002PRCP06
0224832360999992002102312004-12150-045000FM-12+044099999V0200501N002112200019N0100001N1+02971+01161101021ADDAA106000091AY101061AY241061GA1001+999999999GF100991001001999999001001KA1240N+01981MA1999999096231MD1999999-0091MW1051REMSYN076AAXX  23124 83236 31997 00504 10297 20116 39623 40102 70504 333 20198 59009;EQDQ01  00002PRCP06
0195832360999992002102318004-12150-045000FM-12+044099999V0203601N000512200019N0040001N1+03751+01071100441ADDAA106000091AY101061AY241061GF104991041021008001001001MA1999999095671MD1999999-0131MW1041REMSYN076AAXX  23184 83236 31596 43601 10375 20107 39567 40044 70404 84200 333 59013;EQDQ01  00002PRCP06
0236832360999992002102400004-12150-045000FM-12+044099999V0202701N001012200019N0040001N1+02771+01121100661ADDAA106000091AY101061AY241061GA1001+999999999GF100991001001999999001001KA1240M+03861MA1999999095871MD1999999-0081MW1041REMSYN088AAXX  24004 83236 31996 02702 10277 20112 39587 40066 70404 333 10386 29031 55096 59008;EQDQ01  00002PRCP06
0214832360999992002102412004-12150-045000FM-12+044099999V0203601N002612200019N0100001N1+02881+01531101181ADDAA106000091AY101061AY241061GF103991031001022501081001KA1240N+02001MA1999999096361MD1999999+0131MW1051REMSYN082AAXX  24124 83236 31897 33605 10288 20153 39636 40118 70504 83080 333 20200 58013;EQDQ01  00002PRCP06
0195832360999992002102418004-12150-045000FM-12+044099999V0203601N002112200019N0040001N1+03601+01351100501ADDAA106000091AY101061AY241061GF105991041021008001001011MA1999999095731MD1999999+0061MW1051REMSYN076AAXX  24184 83236 31596 53604 10360 20135 39573 40050 70504 84201 333 58006;EQDQ01  00002PRCP06
0230832360999992002102512004-12150-045000FM-12+044099999V0200501N002112200019N0100001N1+02931+01421100941ADDAA106000091AY101061AY241061GF103991001001999999001081KA1240N+02031MA1999999096171MD1999999-0191MW1051REMSYN082AAXX  25124 83236 31597 30504 10293 20142 39617 40094 70504 80008 333 20203 59019;EQDQ01+008002SCOLCBQ02  00002PRCP06
0195832360999992002102518004-12150-045000FM-12+044099999V0200501N002611050019N0040001N1+03571+01061100371ADDAA106000091AY101061AY241061GF105991031021008001001071MA1999999095631MD1999999-0101MW1051REMSYN076AAXX  25184 83236 31596 50505 10357 20106 39563 40037 70504 83207 333 59010;EQDQ01  00002PRCP06
0195832360999992002102618004-12150-045000FM-12+044099999V0203601N002112200019N0100001N1+03731+00971100351ADDAA106000091AY101061AY241061GF103991021011008001001041MA1999999095641MD1999999+0011MW1051REMSYN076AAXX  26184 83236 31597 33604 10373 20097 39564 40035 70504 82104 333 58001;EQDQ01  00002PRCP06
0226832360999992002102700004-12150-045000FM-12+044099999V0201801N001012200019N0100001N1+02801+01281100561ADDAA106000091AY101061AY241061GF103991031001022501061001KA1240M+03821MA1999999095801MD1999999-0041MW1051REMSYN094AAXX  27004 83236 31897 31802 10280 20128 39580 40056 70504 83060 333 10382 29032 55105 59004;EQDQ01  00002PRCP06
0214832360999992002102712004-12150-045000FM-12+044099999V0200901N003112200019N0100001N1+03221+01141100831ADDAA106000091AY101061AY241061GF103991031001022501061001KA1240N+02111MA1999999096061MD1999999-0111MW1051REMSYN082AAXX  27124 83236 31897 30906 10322 20114 39606 40083 70504 83060 333 20211 59011;EQDQ01  00002PRCP06
0195832360999992002102718004-12150-045000FM-12+044099999V0200901N003112200019N0100001N1+03651+00981100211ADDAA106000091AY101061AY241061GF104991041021008001001001MA1999999095541MD1999999-0101MW1051REMSYN076AAXX  27184 83236 31597 40906 10365 20098 39554 40021 70504 84200 333 59010;EQDQ01  00002PRCP06
0226832360999992002102800004-12150-045000FM-12+044099999V0202701N001512200019N0100001N1+02801+01781100631ADDAA106000091AY101061AY241061GF104991021021008001061001KA1240M+03891MA1999999095871MD1999999+0071MW1051REMSYN094AAXX  28004 83236 31597 42703 10280 20178 39587 40063 70504 82260 333 10389 29039 55102 58007;EQDQ01  00002PRCP06
0214832360999992002102812004-12150-045000FM-12+044099999V0200501N001012200019N0040001N1+03031+01831100851ADDAA106000091AY101061AY241061GF104991011011008001001071KA1240N+02311MA1999999096061MD1999999+0001MW1051REMSYN082AAXX  28124 83236 31596 40502 10303 20183 39606 40085 70504 81107 333 20231 58000;EQDQ01  00002PRCP06
0195832360999992002102818004-12150-045000FM-12+044099999V0203201N004610075019N0040001N1+03631+01641100231ADDAA106000091AY101061AY241061GF106991061021008001001001MA1999999095501MD1999999-0041MW1051REMSYN076AAXX  28184 83236 31596 63209 10363 20164 39550 40023 70504 86200 333 59004;EQDQ01  00002PRCP06
0226832360999992002102900004-12150-045000FM-12+044099999V0202701N001010120019N0040001N1+02741+01841100641ADDAA106000091AY101061AY241061GF106991061081008001001001KA1240M+03871MA1999999095861MD1999999-0011MW1051REMSYN094AAXX  29004 83236 31596 62702 10274 20184 39586 40064 70504 86800 333 10387 29049 55087 59001;EQDQ01  00002PRCP06
0214832360999992002102912004-12150-045000FM-12+044099999V0203201N001010450019N0040001N1+02901+01931100891ADDAA106000091AY101061AY241061GF106991041021008001031001KA1240N+02251MA1999999096081MD1999999+0021MW1051REMSYN082AAXX  29124 83236 31596 63202 10290 20193 39608 40089 70504 84230 333 20225 58002;EQDQ01  00002PRCP06
0195832360999992002102918004-12150-045000FM-12+044099999V0202701N006710075019N0100001N1+03051+01971100451ADDAA106000091AY101061AY241061GF107991051071008001021001MA1999999095621MD1999999+0121MW1151REMSYN076AAXX  29184 83236 31597 72713 10305 20197 39562 40045 71504 85720 333 58012;EQDQ01  00002PRCP06
0202832360999992002103000004-12150-045000FM-12+044099999V0201401N003110075019N0020001N1+02321+02161100951ADDAY191061AY261061GF108991061071008001021999KA1240M+03671MA1999999096101MD1999999+0041MW1971REMSYN100AAXX  30004 83236 21595 81406 10232 20216 39610 40095 79796 8672/ 333 10367 29073 55069 58004 60041;
0190832360999992002103012004-12150-045000FM-12+044099999V0202701N001510075019N0040001N1+02401+02261101091ADDAY161061AY261061GF108991051051008001021999KA1240N+02201MA1999999096181MD1999999+0101MW1511REMSYN088AAXX  30124 83236 21596 82703 10240 20226 39618 40109 75166 8552/ 333 20220 58010 60074;
0171832360999992002103018004-12150-045000FM-12+044099999V0202301N003110075019N0040001N1+02921+02051100601ADDAY101061AY251061GF108991061071008001021999MA1999999095751MD1999999+0131MW1951REMSYN082AAXX  30184 83236 21596 82306 10292 20205 39575 40060 79505 8672/ 333 58013 69941;
0202832360999992002103100004-12150-045000FM-12+044099999V0201801N000510075019N0040001N1+02301+02161100891ADDAY161061AY261061GF108991051051008001021999KA1240M+03321MA1999999095991MD1999999-0111MW1091REMSYN100AAXX  31004 83236 21596 81801 10230 20216 39599 40089 70966 8552/ 333 10332 29084 55015 59011 60101;
0190832360999992002103112004-12150-045000FM-12+044099999V0202301N001010450019N0100001N1+02441+02211101031ADDAY161061AY261061GF108991041051008001021999KA1240N+02111MA1999999096131MD1999999-0051MW1021REMSYN088AAXX  31124 83236 21597 82302 10244 20221 39613 40103 70266 8452/ 333 20211 59005 60214;
0167832360999992002103118004-12150-045000FM-12+044099999V0202701N003110120019N0100001N1+02841+02041100541ADDAA106000091GF107991071081008001001001MA1999999095681MD1999999-0071REMSYN070AAXX  31184 83236 32597 72706 10284 20204 39568 40054 87800 333 59007;EQDQ01  00002PRCP06
0198832360999992002110100004-12150-045000FM-12+044099999V0202701N001010075019N0040001N1+02651+02141100771ADDAA106000091GF108991051051008001021999KA1240M+03121MA1999999095921MD1999999-0071REMSYN088AAXX  01004 83236 32596 82702 10265 20214 39592 40077 8552/ 333 10312 29074 55010 59007;EQDQ01  00002PRCP06
0190832360999992002110112004-12150-045000FM-12+044099999V0201801N001510450019N0040001N1+02271+02211101141ADDAY191061AY261061GF108991041071008001021999KA1240N+02251MA1999999096251MD1999999+0121MW1951REMSYN088AAXX  01124 83236 21596 81803 10227 20221 39625 40114 79596 8472/ 333 20225 58012 60034;
0171832360999992002110118004-12150-045000FM-12+044099999V0200901N001011050019N0100001N1+02641+02291100751ADDAY191061AY261061GF106991031081008001001051MA1999999095891MD1999999+0211MW1021REMSYN082AAXX  01184 83236 21597 60902 10264 20229 39589 40075 70296 83805 333 58021 60031;
0226832360999992002110200004-12150-045000FM-12+044099999V0201801N001510450019N0040001N1+02241+02071101131ADDAA106000091AY101061AY291061GF108991041051008001021999KA1240M+02771MA1999999096201MD1999999+0281MW1021REMSYN094AAXX  02004 83236 31596 81803 10224 20207 39620 40113 70209 8452/ 333 10277 29090 55011 58028;EQDQ01  00002PRCP06
0162832360999992002110212004-12150-045000FM-12+044099999V0200901N001512200019N0100001N1+02591+02101101151ADDGF103991011011008001001081KA1240N+02021MA1999999096251MD1999999+0001REMSYN082AAXX  02124 83236 22597 30903 10259 20210 39625 40115 81108 333 20202 58000 60034;
0167832360999992002110218004-12150-045000FM-12+044099999V0203601N001010450019N0100001N1+03341+01871100461ADDAA106000091GF106991031021008001061001MA1999999095651MD1999999-0241REMSYN070AAXX  02184 83236 32597 63602 10334 20187 39565 40046 83260 333 59024;EQDQ01  00002PRCP06
0198832360999992002110300004-12150-045000FM-12+044099999V0202701N001010450019N0100001N1+02691+02091100731ADDAA106000091GF108991031041008001021999KA1240M+03481MA1999999095901MD1999999-0301REMSYN088AAXX  03004 83236 32597 82702 10269 20209 39590 40073 8342/ 333 10348 29064 55083 59030;EQDQ01  00002PRCP06
0186832360999992002110312004-12150-045000FM-12+044099999V0203201N001010450019N0100001N1+02701+02131100871ADDAA106000091GF108991031041008001071999KA1240N+02291MA1999999096041MD1999999-0211REMSYN076AAXX  03124 83236 32597 83202 10270 20213 39604 40087 8347/ 333 20229 59021;EQDQ01  00002PRCP06
0171832360999992002110318004-12150-045000FM-12+044099999V0200901N002110075019N0020001N1+02521+02331100891ADDAY191061AY261061GF108991051071008001021999MA1999999096001MD1999999+0391MW1971REMSYN082AAXX  03184 83236 21595 80904 10252 20233 39600 40089 79796 8572/ 333 58039 60131;
0202832360999992002110400004-12150-045000FM-12+044099999V0200901N002110450019N0020001N1+02261+02211101151ADDAY191061AY261061GF108991041071008001021999KA1240M+03421MA1999999096271MD1999999+0371MW1511REMSYN100AAXX  04004 83236 21595 80904 10226 20221 39627 40115 75196 8472/ 333 10342 29087 55022 58037 60241;
0190832360999992002110412004-12150-045000FM-12+044099999V0200501N001010450019N0100001N1+02341+02091101201ADDAY151061AY251061GF108991041051008001021999KA1240N+02121MA1999999096281MD1999999+0241MW1021REMSYN088AAXX  04124 83236 21597 80502 10234 20209 39628 40120 70255 8452/ 333 20212 58024 60364;
0167832360999992002110418004-12150-045000FM-12+044099999V0200501N001510450019N0100001N1+02781+02091100761ADDAA106000091GF107991041021008001071001MA1999999095891MD1999999-0111REMSYN070AAXX  04184 83236 32597 70503 10278 20209 39589 40076 84270 333 59011;EQDQ01  00002PRCP06
0198832360999992002110500004-12150-045000FM-12+044099999V0203601N000510075019N0040001N1+02361+02171101161ADDAA106000091GF108991051051008001021999KA1240M+02891MA1999999096251MD1999999-0021REMSYN088AAXX  05004 83236 32596 83601 10236 20217 39625 40116 8552/ 333 10289 29082 55008 59002;EQDQ01  00002PRCP06
0186832360999992002110512004-12150-045000FM-12+044099999V0200501N001510075019N0100001N1+02581+02191101171ADDAA106000091GF107991061021008001051071KA1240N+02221MA1999999096281MD1999999+0001REMSYN076AAXX  05124 83236 32597 70503 10258 20219 39628 40117 86257 333 20222 58000;EQDQ01  00002PRCP06
0167832360999992002110518004-12150-045000FM-12+044099999V0200501N003610075019N0100001N1+03101+02091100671ADDAA106000091GF106991051031008001041071MA1999999095841MD1999999-0051REMSYN070AAXX  05184 83236 32597 60507 10310 20209 39584 40067 85347 333 59005;EQDQ01  00002PRCP06
0202832360999992002110600004-12150-045000FM-12+044099999V0209999C000010075019N0020001N1+02241+02101101181ADDAY161061AY261061GF108991061071008001999999KA1240M+03191MA1999999096281MD1999999+0031MW1621REMSYN100AAXX  06004 83236 21595 80000 10224 20210 39628 40118 76266 867// 333 10319 29080 55074 58003 60171;
0162832360999992002110612004-12150-045000FM-12+044099999V0209999C000010075019N0100001N1+02621+02211101191ADDGF106991051021008001071051KA1240N+02101MA1999999096301MD1999999+0021REMSYN082AAXX  06124 83236 22597 60000 10262 20221 39630 40119 85275 333 20210 58002 60184;
0211832360999992002110618004-12150-045000FM-12+044099999V0200501N002119999999N0100001N1+03131+02081100751ADDAA106000091AY191061AY291061GF106991999041008001081051MA1999999095911MD1999999+0071MW1031REMSYN076AAXX  06184 83236 31597 60504 10313 20208 39591 40075 70399 88485 333 58007;EQDQ01+000082SCOTLCQ02  00002PRCP06
0226832360999992002110700004-12150-045000FM-12+044099999V0201801N001010075019N0040001N1+02391+02031101151ADDAA106000091AY121061AY221061GF108991061051008001071999KA1240M+03221MA1999999096271MD1999999-0011MW1131REMSYN094AAXX  07004 83236 31596 81802 10239 20203 39627 40115 71322 8657/ 333 10322 29074 55065 59001;EQDQ01  00002PRCP06
0186832360999992002110712004-12150-045000FM-12+044099999V0200901N001510450019N0200001N1+02671+02161101331ADDAA106000091GF106991041021008001051071KA1240N+02141MA1999999096451MD1999999+0151REMSYN076AAXX  07124 83236 32598 60903 10267 20216 39645 40133 84257 333 20214 58015;EQDQ01  00002PRCP06
0167832360999992002110718004-12150-045000FM-12+044099999V0201401N003610075019N0200001N1+03221+02051100761ADDAA106000091GF106991051041008001071051MA1999999095941MD1999999+0031REMSYN070AAXX  07184 83236 32598 61407 10322 20205 39594 40076 85475 333 58003;EQDQ01  00002PRCP06
0202832360999992002110800004-12150-045000FM-12+044099999V0203201N004110075019N0040001N1+02181+02031101421ADDAY191061AY251061GF108991061051008001999999KA1240M+03371MA1999999096511MD1999999+0241MW1951REMSYN100AAXX  08004 83236 21596 83208 10218 20203 39651 40142 79595 865// 333 10337 29077 55064 58024 60051;
0162832360999992002110812004-12150-045000FM-12+044099999V0202701N001510450019N0200001N1+02461+02111101371ADDGF106991031021008001071051KA1240N+02101MA1999999096451MD1999999+0001REMSYN082AAXX  08124 83236 22598 62703 10246 20211 39645 40137 83275 333 20210 58000 60074;
0167832360999992002110818004-12150-045000FM-12+044099999V0200501N002111050019N0200001N1+03171+01861100761ADDAA106000091GF105991041041008001001051MA1999999096921MD1999999-0021REMSYN070AAXX  08184 83236 32598 50504 10317 20186 39692 40076 84405 333 59002;EQDQ01  00002PRCP06
0226832360999992002110900004-12150-045000FM-12+044099999V0202701N002110075019N0040001N1+02461+02091101211ADDAA106000091AY121061AY221061GF108991061051008001071999KA1240M+03271MA1999999096321MD1999999-0191MW1131REMSYN094AAXX  09004 83236 31596 82704 10246 20209 39632 40121 71322 8657/ 333 10327 29072 55089 59019;EQDQ01  00002PRCP06
0186832360999992002110912004-12150-045000FM-12+044099999V0201801N001010075019N0200001N1+02701+02151101331ADDAA106000091GF106991051021008001061001KA1240N+02201MA1999999096461MD1999999+0011REMSYN076AAXX  09124 83236 32598 61802 10270 20215 39646 40133 85260 333 20220 58001;EQDQ01  00002PRCP06
0167832360999992002110918004-12150-045000FM-12+044099999V0200501N003610450019N0200001N1+03171+01991100861ADDAA106000091GF105991041031008001061051MA1999999096031MD1999999+0111REMSYN070AAXX  09184 83236 32598 50507 10317 20199 39603 40086 84365 333 58011;EQDQ01  00002PRCP06
0198832360999992002111000004-12150-045000FM-12+044099999V0202701N001512200019N0200001N1+02511+02191101111ADDAA106000091GF104991031021012501061001KA1240M+03271MA1999999096251MD1999999-0071REMSYN088AAXX  10004 83236 32698 42703 10251 20219 39625 40111 83260 333 10327 29072 55077 59007;EQDQ01  00002PRCP06
0186832360999992002111012004-12150-045000FM-12+044099999V0200501N001512200019N0200001N1+02761+02021101271ADDAA106000091GF103991021021012501001011KA1240N+02201MA1999999096411MD1999999-0051REMSYN076AAXX  10124 83236 32698 30503 10276 20202 39641 40127 82201 333 20220 59005;EQDQ01  00002PRCP06
0171832360999992002111018004-12150-045000FM-12+044099999V0201401N002110075019N0100001N1+02441+02031100911ADDAY151061AY251061GF106991051051008001071051MA1999999096011MD1999999-0021MW1151REMSYN082AAXX  10184 83236 21597 61404 10244 20203 39601 40091 71555 85575 333 59002 69911;
0198832360999992002111100004-12150-045000FM-12+044099999V0201401N004610450019N0200001N1+02291+02091101041ADDAA106000091GF105991041021012501061001KA1240M+03381MA1999999096161MD1999999-0091REMSYN088AAXX  11004 83236 32698 51409 10229 20209 39616 40104 84260 333 10338 29080 55079 59009;EQDQ01  00002PRCP06
0162832360999992002111112004-12150-045000FM-12+044099999V0200501N001510450019N0200001N1+02741+02071101281ADDGF105991031021012501071031KA1240N+02121MA1999999096391MD1999999-0021REMSYN082AAXX  11124 83236 22698 50503 10274 20207 39639 40128 83273 333 20212 59002 69914;
0167832360999992002111118004-12150-045000FM-12+044099999V0200501N003610450019N0200001N1+03341+01671100701ADDAA106000091GF106991041041008001071051MA1999999095881MD1999999-0131REMSYN070AAXX  11184 83236 32598 60507 10334 20167 39588 40070 84475 333 59013;EQDQ01  00002PRCP06
0198832360999992002111200004-12150-045000FM-12+044099999V0201801N001512200019N0200001N1+02561+01881100931ADDAA106000091GF105991021001022501071061KA1240M+03471MA1999999096091MD1999999-0071REMSYN088AAXX  12004 83236 32898 51803 10256 20188 39609 40093 82076 333 10347 29059 55101 59007;EQDQ01  00002PRCP06
0186832360999992002111212004-12150-045000FM-12+044099999V0209999C000012200019N0200001N1+02791+01791101101ADDAA106000091GF102991001001999999001011KA1240N+01941MA1999999096351MD1999999-0041REMSYN076AAXX  12124 83236 32998 20000 10279 20179 39635 40110 80001 333 20194 59004;EQDQ01  00002PRCP06
0167832360999992002111218004-12150-045000FM-12+044099999V0209999C000012200019N0200001N1+03421+01471100711ADDAA106000091GF105991041021008001001011MA1999999095891MD1999999+0011REMSYN070AAXX  12184 83236 32598 50000 10342 20147 39589 40071 84201 333 58001;EQDQ01  00002PRCP06
0198832360999992002111300004-12150-045000FM-12+044099999V0202301N001512200019N0200001N1+02601+01571100921ADDAA106000091GF101991011001022501061001KA1240M+03601MA1999999096091MD1999999+0001REMSYN088AAXX  13004 83236 32898 12303 10260 20157 39609 40092 81060 333 10360 29048 55105 58000;EQDQ01  00002PRCP06
0186832360999992002111312004-12150-045000FM-12+044099999V0200501N003112200019N0200001N1+02751+01611101331ADDAA106000091GF102991001001999999001011KA1240N+01841MA1999999096471MD1999999+0121REMSYN076AAXX  13124 83236 32998 20506 10275 20161 39647 40133 80001 333 20184 58012;EQDQ01  00002PRCP06
0167832360999992002111318004-12150-045000FM-12+044099999V0201401N001512200019N0200001N1+03451+01271100791ADDAA106000091GF104991031021008001001011MA1999999095991MD1999999+0101REMSYN070AAXX  13184 83236 32598 41403 10345 20127 39599 40079 83201 333 58010;EQDQ01  00002PRCP06
0198832360999992002111400004-12150-045000FM-12+044099999V0202301N001012200019N0200001N1+02671+01441101041ADDAA106000091GF101991001001999999001011KA1240M+03591MA1999999096201MD1999999+0111REMSYN088AAXX  14004 83236 32998 12302 10267 20144 39620 40104 80001 333 10359 29041 55116 58011;EQDQ01  00002PRCP06
0196832360999992002111412004-12150-045000FM-12+044099999V0200501N003612200019N0200001N1+02741+01641101381ADDAA106000091GA1001+999999999GF100991001001999999001001KA1240N+01781MA1999999096531MD1999999+0061REMSYN070AAXX  14124 83236 32998 00507 10274 20164 39653 40138 333 20178 58006;EQDQ01  00002PRCP06
0167832360999992002111418004-12150-045000FM-12+044099999V0201401N002112200019N0200001N1+03401+01181100881ADDAA106000091GF103991031021008001001001MA1999999096071MD1999999+0081REMSYN070AAXX  14184 83236 32598 31404 10340 20118 39607 40088 83200 333 58008;EQDQ01  00002PRCP06
0208832360999992002111500004-12150-045000FM-12+044099999V0202301N001012200019N0200001N1+02421+01621101131ADDAA106000091GA1001+999999999GF100991001001999999001001KA1240M+03541MA1999999096271MD1999999+0071REMSYN082AAXX  15004 83236 32998 02302 10242 20162 39627 40113 333 10354 29050 55118 58007;EQDQ01  00002PRCP06
0186832360999992002111512004-12150-045000FM-12+044099999V0200501N002112200019N0200001N1+02771+01661101351ADDAA106000091GF102991001001999999001011KA1240N+01821MA1999999096481MD1999999-0051REMSYN076AAXX  15124 83236 32998 20504 10277 20166 39648 40135 80001 333 20182 59005;EQDQ01  00002PRCP06
0167832360999992002111518004-12150-045000FM-12+044099999V0200501N001512200019N0200001N1+03481+01251100811ADDAA106000091GF103991031021012501001001MA1999999095971MD1999999-0101REMSYN070AAXX  15184 83236 32698 30503 10348 20125 39597 40081 83200 333 59010;EQDQ01  00002PRCP06
0198832360999992002111600004-12150-045000FM-12+044099999V0201801N001012200019N0200001N1+02711+01661100981ADDAA106000091GF104991041021012501001001KA1240M+03601MA1999999096151MD1999999-0121REMSYN088AAXX  16004 83236 32698 41802 10271 20166 39615 40098 84200 333 10360 29046 55117 59012;EQDQ01  00002PRCP06
0186832360999992002111612004-12150-045000FM-12+044099999V0200501N003110450019N0200001N1+02841+01761101201ADDAA106000091GF105991031021012501061051KA1240N+02081MA1999999096361MD1999999-0121REMSYN076AAXX  16124 83236 32698 50506 10284 20176 39636 40120 83265 333 20208 59012;EQDQ01  00002PRCP06
0167832360999992002111618004-12150-045000FM-12+044099999V0200501N002112200019N0200001N1+03441+01481100631ADDAA106000091GF104991041021012501001001MA1999999095851MD1999999-0121REMSYN070AAXX  16184 83236 32698 40504 10344 20148 39585 40063 84200 333 59012;EQDQ01  00002PRCP06
0198832360999992002111700004-12150-045000FM-12+044099999V0203201N001512200019N0200001N1+02721+01821100741ADDAA106000091GF103991031001022501051001KA1240M+03671MA1999999095941MD1999999-0211REMSYN088AAXX  17004 83236 32898 33203 10272 20182 39594 40074 83050 333 10367 29050 55114 59021;EQDQ01  00002PRCP06
0196832360999992002111712004-12150-045000FM-12+044099999V0200501N003112200019N0200001N1+02931+01531100991ADDAA106000091GA1001+999999999GF100991001001999999001001KA1240N+01841MA1999999096181MD1999999-0181REMSYN070AAXX  17124 83236 32998 00506 10293 20153 39618 40099 333 20184 59018;EQDQ01  00002PRCP06
0167832360999992002111718004-12150-045000FM-12+044099999V0200501N002112200019N0200001N1+03611+01351100491ADDAA106000091GF103991031021012501001001MA1999999095701MD1999999-0151REMSYN070AAXX  17184 83236 32698 30504 10361 20135 39570 40049 83200 333 59015;EQDQ01  00002PRCP06
0198832360999992002111800004-12150-045000FM-12+044099999V0201801N002112200019N0200001N1+02581+01661100731ADDAA106000091GF102991021011012501001001KA1240M+03751MA1999999095921MD1999999-0021REMSYN088AAXX  18004 83236 32698 21804 10258 20166 39592 40073 82100 333 10375 29046 55118 59002;EQDQ01  00002PRCP06
0186832360999992002111812004-12150-045000FM-12+044099999V0200901N004112200019N0200001N1+02951+01321101101ADDAA106000091GF102991001001999999001011KA1240N+01931MA1999999096271MD1999999+0091REMSYN076AAXX  18124 83236 32998 20908 10295 20132 39627 40110 80001 333 20193 58009;EQDQ01  00002PRCP06
0167832360999992002111818004-12150-045000FM-12+044099999V0200501N001010450019N0200001N1+03741+01071100451ADDAA106000091GF105991031021012501071011MA1999999095671MD1999999-0031REMSYN070AAXX  18184 83236 32698 50502 10374 20107 39567 40045 83271 333 59003;EQDQ01  00002PRCP06
0198832360999992002111900004-12150-045000FM-12+044099999V0201801N001512200019N0200001N1+02521+01551100711ADDAA106000091GF103991001001999999001051KA1240M+03831MA1999999095901MD1999999-0021REMSYN088AAXX  19004 83236 32998 31803 10252 20155 39590 40071 80005 333 10383 29042 55113 59002;EQDQ01  00002PRCP06
0186832360999992002111912004-12150-045000FM-12+044099999V0200501N003612200019N0200001N1+03011+01611101031ADDAA106000091GF103991021021012501001011KA1240N+01881MA1999999096201MD1999999-0071REMSYN076AAXX  19124 83236 32698 30507 10301 20161 39620 40103 82201 333 20188 59007;EQDQ01  00002PRCP06
0167832360999992002111918004-12150-045000FM-12+044099999V0201401N002112200019N0200001N1+03721+01261100401ADDAA106000091GF103991031021012501001001MA1999999095631MD1999999-0041REMSYN070AAXX  19184 83236 32698 31404 10372 20126 39563 40040 83200 333 59004;EQDQ01  00002PRCP06
0198832360999992002112000004-12150-045000FM-12+044099999V0209999C000012200019N0200001N1+02691+01841100811ADDAA106000091GF104991021021012501001071KA1240M+03801MA1999999096021MD1999999+0121REMSYN088AAXX  20004 83236 32698 40000 10269 20184 39602 40081 82207 333 10380 29046 55117 58012;EQDQ01  00002PRCP06
0186832360999992002112012004-12150-045000FM-12+044099999V0200901N001012200019N0100001N1+02861+01921100941ADDAA106000091GF104991001001999999001051KA1240N+02191MA1999999096131MD1999999-0071REMSYN076AAXX  20124 83236 32997 40902 10286 20192 39613 40094 80005 333 20219 59007;EQDQ01  00002PRCP06
0167832360999992002112018004-12150-045000FM-12+044099999V0203601N001512200019N0100001N1+03631+01531100411ADDAA106000091GF105991031021008001001041MA1999999095651MD1999999+0021REMSYN070AAXX  20184 83236 32597 53603 10363 20153 39565 40041 83204 333 58002;EQDQ01  00002PRCP06
0198832360999992002112100004-12150-045000FM-12+044099999V0201801N001012200019N0100001N1+02741+01891100701ADDAA106000091GF102991001001999999001041KA1240M+03751MA1999999095901MD1999999-0121REMSYN088AAXX  21004 83236 32997 21802 10274 20189 39590 40070 80004 333 10375 29052 55112 59012;EQDQ01  00002PRCP06
0202832360999992002112112004-12150-045000FM-12+044099999V0200501N002612200019N0200001N1+03041+01751101011ADDAA106000091GF103991999001022501041001KA1240N+02341MA1999999096231MD1999999+0091REMSYN076AAXX  21124 83236 32898 30505 10304 20175 39623 40101 82040 333 20234 58009;EQDQ01+000022SCOTLCQ02  00002PRCP06
0167832360999992002112118004-12150-045000FM-12+044099999V0200901N003110075019N0100001N1+03571+01781100511ADDAA106000091GF105991051021008001001001MA1999999095761MD1999999+0111REMSYN070AAXX  21184 83236 32597 50906 10357 20178 39576 40051 85200 333 58011;EQDQ01  00002PRCP06
0226832360999992002112200004-12150-045000FM-12+044099999V0201801N002110450019N0100001N1+02791+01911100811ADDAA106000091AY101061AY221061GF108991031071008001021999KA1240M+03671MA1999999096031MD1999999+0131MW1131REMSYN094AAXX  22004 83236 31597 81804 10279 20191 39603 40081 71302 8372/ 333 10367 29050 55073 58013;EQDQ01  00002PRCP06
0190832360999992002112212004-12150-045000FM-12+044099999V0201801N002611050019N0100001N1+02851+02221101091ADDAY161061AY261061GF106991021021008001061041KA1240N+02381MA1999999096271MD1999999+0051MW1021REMSYN088AAXX  22124 83236 21597 61805 10285 20222 39627 40109 70266 82264 333 20238 58005 60014;
0171832360999992002112218004-12150-045000FM-12+044099999V0201801N001010450019N0100001N1+03111+02001100751ADDAY151061AY251061GF108991031071008001011999MA1999999095931MD1999999+0171MW1021REMSYN082AAXX  22184 83236 21597 81802 10311 20200 39593 40075 70255 8371/ 333 58017 69911;
0198832360999992002112300004-12150-045000FM-12+044099999V0209999C000010450019N0100001N1+02711+02111100841ADDAA106000091GF106991021041008001011001KA1240M+03231MA1999999096041MD1999999+0011REMSYN088AAXX  23004 83236 32597 60000 10271 20211 39604 40084 82410 333 10323 29065 55035 58001;EQDQ01  00002PRCP06
0162832360999992002112312004-12150-045000FM-12+044099999V0200501N002612200019N0100001N1+02951+02031101171ADDGF104991021021008001061011KA1240N+02201MA1999999096361MD1999999+0091REMSYN082AAXX  23124 83236 22597 40505 10295 20203 39636 40117 82261 333 20220 58009 69914;
0167832360999992002112318004-12150-045000FM-12+044099999V0200901N005111050019N0100001N1+03491+01521100691ADDAA106000091GF105991031021008001001051MA1999999095901MD1999999-0031REMSYN070AAXX  23184 83236 32597 50910 10349 20152 39590 40069 83205 333 59003;EQDQ01  00002PRCP06
0198832360999992002112400004-12150-045000FM-12+044099999V0209999C000012200019N0100001N1+02611+02081100971ADDAA106000091GF103991031061008001001001KA1240M+03631MA1999999096161MD1999999+0121REMSYN088AAXX  24004 83236 32597 30000 10261 20208 39616 40097 83600 333 10363 29059 55102 58012;EQDQ01  00002PRCP06
0167832360999992002112418004-12150-045000FM-12+044099999V0202701N001010075019N0200001N1+03551+01711100661ADDAA106000091GF105991051021008001001001MA1999999095901MD1999999+0001REMSYN070AAXX  24184 83236 32598 52702 10355 20171 39590 40066 85200 333 58000;EQDQ01  00002PRCP06
0198832360999992002112500004-12150-045000FM-12+044099999V0200901N003610450019N0100001N1+02941+01761101041ADDAA106000091GF108991041071008001021999KA1240M+03671MA1999999096251MD1999999+0091REMSYN088AAXX  25004 83236 32597 80907 10294 20176 39625 40104 8472/ 333 10367 29047 55093 58009;EQDQ01  00002PRCP06
0186832360999992002112512004-12150-045000FM-12+044099999V0200501N003110450019N0100001N1+02951+01971101221ADDAA106000091GF106991011011008001051001KA1240N+02461MA1999999096431MD1999999+0011REMSYN076AAXX  25124 83236 32597 60506 10295 20197 39643 40122 81150 333 20246 58001;EQDQ01  00002PRCP06
0167832360999992002112518004-12150-045000FM-12+044099999V0200501N003612200019N0200001N1+03581+00931100651ADDAA106000091GF104991021011008001001071MA1999999095891MD1999999-0011REMSYN070AAXX  25184 83236 32598 40507 10358 20093 39589 40065 82107 333 59001;EQDQ01  00002PRCP06
0208832360999992002112600004-12150-045000FM-12+044099999V0209999C000012200019N0200001N1+02541+01731100951ADDAA106000091GA1001+999999999GF100991001001999999001001KA1240M+03691MA1999999096131MD1999999-0121REMSYN082AAXX  26004 83236 32998 00000 10254 20173 39613 40095 333 10369 29050 55088 59012;EQDQ01  00002PRCP06
0186832360999992002112612004-12150-045000FM-12+044099999V0200901N003112200019N0200001N1+02871+01581101241ADDAA106000091GF103991001001999999001041KA1240N+01901MA1999999096391MD1999999-0041REMSYN076AAXX  26124 83236 32998 30906 10287 20158 39639 40124 80004 333 20190 59004;EQDQ01  00002PRCP06
0167832360999992002112618004-12150-045000FM-12+044099999V0200501N002112200019N0200001N1+03561+01371100671ADDAA106000091GF105991041021008001001011MA1999999095861MD1999999-0031REMSYN070AAXX  26184 83236 32598 50504 10356 20137 39586 40067 84201 333 59003;EQDQ01  00002PRCP06
0208832360999992002112700004-12150-045000FM-12+044099999V0201801N001012200019N0200001N1+02561+01641100831ADDAA106000091GA1001+999999999GF100991001001999999001001KA1240M+03701MA1999999096001MD1999999-0031REMSYN082AAXX  27004 83236 32998 01802 10256 20164 39600 40083 333 10370 29047 55115 59003;EQDQ01  00002PRCP06
0186832360999992002112712004-12150-045000FM-12+044099999V0200501N002112200019N0200001N1+02921+01421101131ADDAA106000091GF103991001001999999001041KA1240N+01941MA1999999096301MD1999999-0091REMSYN076AAXX  27124 83236 32998 30504 10292 20142 39630 40113 80004 333 20194 59009;EQDQ01  00002PRCP06
0167832360999992002112718004-12150-045000FM-12+044099999V0203601N001010075019N0200001N1+03521+01391100621ADDAA106000091GF106991061021008001001001MA1999999095811MD1999999-0051REMSYN070AAXX  27184 83236 32598 63602 10352 20139 39581 40062 86200 333 59005;EQDQ01  00002PRCP06
0198832360999992002112800004-12150-045000FM-12+044099999V0201801N002112200019N0200001N1+02541+01651100771ADDAA106000091GF102991021061008001001001KA1240M+03721MA1999999095951MD1999999-0051REMSYN088AAXX  28004 83236 32598 21804 10254 20165 39595 40077 82600 333 10372 29046 55096 59005;EQDQ01  00002PRCP06
0186832360999992002112812004-12150-045000FM-12+044099999V0200901N001512200019N0200001N1+02971+01461101071ADDAA106000091GF104991001001999999001051KA1240N+02011MA1999999096241MD1999999-0061REMSYN076AAXX  28124 83236 32998 40903 10297 20146 39624 40107 80005 333 20201 59006;EQDQ01  00002PRCP06
0167832360999992002112818004-12150-045000FM-12+044099999V0200901N002111050019N0200001N1+03661+01141100511ADDAA106000091GF105991031021008001001091MA1999999095731MD1999999-0081REMSYN070AAXX  28184 83236 32598 50904 10366 20114 39573 40051 83209 333 59008;EQDQ01  00002PRCP06
0198832360999992002112900004-12150-045000FM-12+044099999V0203601N000510120019N0200001N1+02831+01741100711ADDAA106000091GF108991081081008001001001KA1240M+03781MA1999999095961MD1999999-0021REMSYN088AAXX  29004 83236 32598 83601 10283 20174 39596 40071 88800 333 10378 29042 55104 59002;EQDQ01  00002PRCP06
0186832360999992002112912004-12150-045000FM-12+044099999V0200501N002112200019N0200001N1+02951+01721101031ADDAA106000091GF103991001001999999001011KA1240N+02011MA1999999096241MD1999999+0001REMSYN076AAXX  29124 83236 32998 30504 10295 20172 39624 40103 80001 333 20201 58000;EQDQ01  00002PRCP06
0167832360999992002112918004-12150-045000FM-12+044099999V0201401N002110075019N0200001N1+03511+01381100581ADDAA106000091GF106991061021008001001001MA1999999095791MD1999999+0061REMSYN070AAXX  29184 83236 32598 61404 10351 20138 39579 40058 86200 333 58006;EQDQ01  00002PRCP06
0208832360999992002113000004-12150-045000FM-12+044099999V0202301N000512200019N0200001N1+02641+01661100761ADDAA106000091GA1001+999999999GF100991001001999999001001KA1240M+03731MA1999999095961MD1999999+0031REMSYN082AAXX  30004 83236 32998 02301 10264 20166 39596 40076 333 10373 29047 55087 58003;EQDQ01  00002PRCP06
0186832360999992002113012004-12150-045000FM-12+044099999V0200501N002112200019N0200001N1+02951+01621101181ADDAA106000091GF103991031001022501041001KA1240N+02061MA1999999096361MD1999999+0121REMSYN076AAXX  30124 83236 32898 30504 10295 20162 39636 40118 83040 333 20206 58012;EQDQ01  00002PRCP06
0167832360999992002113018004-12150-045000FM-12+044099999V0200501N002110075019N0200001N1+03671+01511100571ADDAA106000091GF105991051021008001001001MA1999999095821MD1999999+0031REMSYN070AAXX  30184 83236 32598 50504 10367 20151 39582 40057 85200 333 58003;EQDQ01  00002PRCP06
0198832360999992002120100004-12150-045000FM-12+044099999V0209999C000012200019N0200001N1+02651+01601100821ADDAA106000091GF103991031041008001001001KA1240M+03781MA1999999096021MD1999999+0061REMSYN088AAXX  01004 83236 32598 30000 10265 20160 39602 40082 83400 333 10378 29045 55104 58006;EQDQ01  00002PRCP06
0186832360999992002120112004-12150-045000FM-12+044099999V0203601N002112200019N0200001N1+02931+01531101151ADDAA106000091GF103991011011008001001041KA1240N+02081MA1999999096331MD1999999-0031REMSYN076AAXX  01124 83236 32598 33604 10293 20153 39633 40115 81104 333 20208 59003;EQDQ01  00002PRCP06
0208832360999992002120200004-12150-045000FM-12+044099999V0201801N001512200019N0200001N1+02661+01711100741ADDAA106000091GA1001+999999999GF100991001001999999001001KA1240M+03751MA1999999095941MD1999999-0081REMSYN082AAXX  02004 83236 32998 01803 10266 20171 39594 40074 333 10375 29046 55102 59008;EQDQ01  00002PRCP06
0196832360999992002120212004-12150-045000FM-12+044099999V0200901N005112200019N0200001N1+03111+01621101021ADDAA106000091GA1001+999999999GF100991001001999999001001KA1240N+01961MA1999999096231MD1999999-0101REMSYN070AAXX  02124 83236 32998 00910 10311 20162 39623 40102 333 20196 59010;EQDQ01  00002PRCP06
0167832360999992002120218004-12150-045000FM-12+044099999V0201801N001512200019N0200001N1+03721+01391100391ADDAA106000091GF104991041021008001001001MA1999999095641MD1999999-0081REMSYN070AAXX  02184 83236 32598 41803 10372 20139 39564 40039 84200 333 59008;EQDQ01  00002PRCP06
0198832360999992002120300004-12150-045000FM-12+044099999V0201801N002112200019N0200001N1+02721+01561100581ADDAA106000091GF102991021061008001001001KA1240M+03881MA1999999095811MD1999999-0131REMSYN088AAXX  03004 83236 32598 21804 10272 20156 39581 40058 82600 333 10388 29041 55118 59013;EQDQ01  00002PRCP06
0196832360999992002120312004-12150-045000FM-12+044099999V0200501N001012200019N0200001N1+03031+02021100961ADDAA106000091GA1001+999999999GF100991001001999999001001KA1240N+02211MA1999999096171MD1999999-0061REMSYN070AAXX  03124 83236 32998 00502 10303 20202 39617 40096 333 20221 59006;EQDQ01  00002PRCP06
0167832360999992002120318004-12150-045000FM-12+044099999V0203601N001510075019N0200001N1+03721+01671100371ADDAA106000091GF105991051021008001001001MA1999999095651MD1999999+0011REMSYN070AAXX  03184 83236 32598 53603 10372 20167 39565 40037 85200 333 58001;EQDQ01  00002PRCP06
0208832360999992002120400004-12150-045000FM-12+044099999V0201801N000512200019N0200001N1+02811+01601100551ADDAA106000091GA1001+999999999GF100991001001999999001001KA1240M+03831MA1999999095781MD1999999-0031REMSYN082AAXX  04004 83236 32998 01801 10281 20160 39578 40055 333 10383 29053 55113 59003;EQDQ01  00002PRCP06
0186832360999992002120412004-12150-045000FM-12+044099999V0200501N002119999999N0200001N1+03061+01251101061ADDAA106000091GF106991001001999999001051KA1240N+02221MA1999999096271MD1999999+0101REMSYN076AAXX  04124 83236 32998 60504 10306 20125 39627 40106 80005 333 20222 58010;EQDQ01  00002PRCP06
0167832360999992002120418004-12150-045000FM-12+044099999V0203601N001512200019N0200001N1+03711+01031100411ADDAA106000091GF103991011011008001001041MA1999999095701MD1999999+0051REMSYN070AAXX  04184 83236 32598 33603 10371 20103 39570 40041 81104 333 58005;EQDQ01  00002PRCP06
0198832360999992002120500004-12150-045000FM-12+044099999V0209999C000012200019N0200001N1+02681+01521100711ADDAA106000091GF102991021021008001001001KA1240M+03861MA1999999095921MD1999999+0141REMSYN088AAXX  05004 83236 32598 20000 10268 20152 39592 40071 82200 333 10386 29038 55115 58014;EQDQ01  00002PRCP06
0186832360999992002120512004-12150-045000FM-12+044099999V0200501N002112200019N0200001N1+03061+01471101091ADDAA106000091GF103991001001999999001051KA1240N+01931MA1999999096281MD1999999+0011REMSYN076AAXX  05124 83236 32998 30504 10306 20147 39628 40109 80005 333 20193 58001;EQDQ01  00002PRCP06
0167832360999992002120518004-12150-045000FM-12+044099999V0200901N002612200019N0200001N1+03691+01411100511ADDAA106000091GF104991041021012501001001MA1999999095741MD1999999+0041REMSYN070AAXX  05184 83236 32698 40905 10369 20141 39574 40051 84200 333 58004;EQDQ01  00002PRCP06
0198832360999992002120600004-12150-045000FM-12+044099999V0201801N001512200019N0200001N1+02741+01571100681ADDAA106000091GF102991021021012501001001KA1240M+03841MA1999999095901MD1999999-0021REMSYN088AAXX  06004 83236 32698 21803 10274 20157 39590 40068 82200 333 10384 29040 55108 59002;EQDQ01  00002PRCP06
0186832360999992002120612004-12150-045000FM-12+044099999V0200501N001512200019N0200001N1+03081+01681100971ADDAA106000091GF103991011011012501001051KA1240N+02131MA1999999096091MD1999999-0191REMSYN076AAXX  06124 83236 32698 30503 10308 20168 39609 40097 81105 333 20213 59019;EQDQ01  00002PRCP06
0167832360999992002120618004-12150-045000FM-12+044099999V0202301N001510450019N0200001N1+03821+01341100271ADDAA106000091GF106991041021008001071051MA1999999095531MD1999999-0211REMSYN070AAXX  06184 83236 32598 62303 10382 20134 39553 40027 84275 333 59021;EQDQ01  00002PRCP06
0208832360999992002120700004-12150-045000FM-12+044099999V0202701N002112200019N0200001N1+03051+01821100381ADDAA106000091GA1001+999999999GF100991001001999999001001KA1240M+03931MA1999999095651MD1999999-0251REMSYN082AAXX  07004 83236 32998 02704 10305 20182 39565 40038 333 10393 29040 55102 59025;EQDQ01  00002PRCP06
0190832360999992002120712004-12150-045000FM-12+044099999V0202701N001510075019N0200001N1+02731+01881100741ADDAY151061AY251061GF107991061051008001071051KA1240N+02491MA1999999095961MD1999999-0131MW1171REMSYN088AAXX  07124 83236 21598 72703 10273 20188 39596 40074 71755 86575 333 20249 59013 69944;
0195832360999992002120718004-12150-045000FM-12+044099999V0201401N003110075019N0200001N1+03471+01781100221ADDAA106000091AY121061AY221061GF107991061051008001061041MA1999999095471MD1999999-0061MW1171REMSYN076AAXX  07184 83236 31598 71406 10347 20178 39547 40022 71722 86564 333 59006;EQDQ01  00002PRCP06
0202832360999992002120800004-12150-045000FM-12+044099999V0201801N001010075019N0020001N1+02301+02251100941ADDAY191061AY261061GF108991071061008001999999KA1240M+03701MA1999999096071MD1999999+0421MW1511REMSYN100AAXX  08004 83236 21595 81802 10230 20225 39607 40094 75196 876// 333 10370 29073 55052 58042 60361;
0190832360999992002120812004-12150-045000FM-12+044099999V0202301N001510075019N0020001N1+02331+02241101081ADDAY151061AY251061GF108991071061008001021999KA1240N+02211MA1999999096161MD1999999+0221MW1501REMSYN088AAXX  08124 83236 21595 82303 10233 20224 39616 40108 75055 8762/ 333 20221 58022 60424;
0190832360999992002120818004-12150-045000FM-12+044099999V0202301N002110075019N0200001N1+02581+02101100611ADDAY151061AY251061GF108991999071008001051999MA1999999095741MD1999999+0271MW1031REMSYN082AAXX  08184 83236 21598 82304 10258 20210 39574 40061 70355 8875/ 333 58027 69921;EQDQ01+000082SCOTLC
0198832360999992002120900004-12150-045000FM-12+044099999V0200501N001010120019N0100001N1+02431+02191100901ADDAA106000091GF108991061081008001051999KA1240M+02731MA1999999096011MD1999999-0061REMSYN088AAXX  09004 83236 32597 80502 10243 20219 39601 40090 8685/ 333 10273 29086 55015 59006;EQDQ01  00002PRCP06
0162832360999992002120912004-12150-045000FM-12+044099999V0200501N002610120019N0040001N1+02451+02191101171ADDGF108991061081008001999999KA1240N+02311MA1999999096281MD1999999+0121REMSYN082AAXX  09124 83236 22596 80505 10245 20219 39628 40117 868// 333 20231 58012 69924;
0171832360999992002120918004-12150-045000FM-12+044099999V0201801N001510075019N0040001N1+02501+02231100841ADDAY151061AY251061GF108991071051008001071999MA1999999095951MD1999999+0211MW1171REMSYN082AAXX  09184 83236 21596 81803 10250 20223 39595 40084 71755 8757/ 333 58021 69941;
0190832360999992002121012004-12150-045000FM-12+044099999V0200501N001510075019N0040001N1+02331+02131101421ADDAY121061AY221061GF108991061071008001051999KA1240N+02191MA1999999096511MD1999999+0231MW1151REMSYN088AAXX  10124 83236 21596 80503 10233 20213 39651 40142 71522 8675/ 333 20219 58023 69944;
0171832360999992002121018004-12150-045000FM-12+044099999V0200501N001510120019N0040001N1+02701+02221101011ADDAY151061AY251061GF108991071081008001041999MA1999999096141MD1999999+0171MW1031REMSYN082AAXX  10184 83236 21596 80503 10270 20222 39614 40101 70355 8784/ 333 58017 69951;
0226832360999992002121100004-12150-045000FM-12+044099999V0209999C000010450019N0200001N1+02321+02241101321ADDAA106000091AY121061AY221061GF106991041051008001071031KA1240M+02941MA1999999096391MD1999999-0141MW1131REMSYN094AAXX  11004 83236 31598 60000 10232 20224 39639 40132 71322 84573 333 10294 29088 55017 59014;EQDQ01  00002PRCP06
0162832360999992002121112004-12150-045000FM-12+044099999V0200501N001010120019N0100001N1+02431+02151101501ADDGF108991061081008001051999KA1240N+02191MA1999999096571MD1999999+0061REMSYN082AAXX  11124 83236 22597 80502 10243 20215 39657 40150 8685/ 333 20219 58006 69954;
0167832360999992002121118004-12150-045000FM-12+044099999V0200501N003110450019N0200001N1+03081+02161100861ADDAA106000091GF106991041041008001071051MA1999999096021MD1999999-0101REMSYN070AAXX  11184 83236 32598 60506 10308 20216 39602 40086 84475 333 59010;EQDQ01  00002PRCP06
0226832360999992002121200004-12150-045000FM-12+044099999V0202701N001010075019N0040001N1+02461+02211101371ADDAA106000091AY121061AY221061GF108991061051008001021999KA1240M+03191MA1999999096441MD1999999+0051MW1151REMSYN094AAXX  12004 83236 31596 82702 10246 20221 39644 40137 71522 8652/ 333 10319 29079 55048 58005;EQDQ01  00002PRCP06
0190832360999992002121212004-12150-045000FM-12+044099999V0202701N003010450019N0200001N1+02651+02201101331ADDAY151061AY251061GF105991031021008001051031KA1240N+02311MA1999999096451MD1999999-0121MW1021REMSYN088AAXX  1212  83236 21598 52703 10265 20220 39645 40133 70255 83253 333 20231 59012 69934;
0167832360999992002121218004-12150-045000FM-12+044099999V0203601N003610450019N0200001N1+03301+01981100691ADDAA106000091GF105991031021008001071051MA1999999095901MD1999999-0121REMSYN070AAXX  12184 83236 32598 53607 10330 20198 39590 40069 83275 333 59012;EQDQ01  00002PRCP06
0226832360999992002121300004-12150-045000FM-12+044099999V0201801N001510075019N0100001N1+02631+02101101121ADDAA106000091AY121061AY221061GF108991051051008001071999KA1240M+03381MA1999999096271MD1999999-0171MW1131REMSYN094AAXX  13004 83236 31597 81803 10263 20210 39627 40112 71322 8557/ 333 10338 29067 55095 59017;EQDQ01  00002PRCP06
0186832360999992002121312004-12150-045000FM-12+044099999V0202301N001012200019N0200001N1+02821+02121101141ADDAA106000091GF104991021021012501001051KA1240N+02391MA1999999096301MD1999999-0151REMSYN076AAXX  13124 83236 32698 42302 10282 20212 39630 40114 82205 333 20239 59015;EQDQ01  00002PRCP06
0167832360999992002121318004-12150-045000FM-12+044099999V0200501N003610450019N0200001N1+03301+01841100611ADDAA106000091GF107991041031008001061051MA1999999095841MD1999999-0061REMSYN070AAXX  13184 83236 32598 70507 10330 20184 39584 40061 84365 333 59006;EQDQ01  00002PRCP06
0198832360999992002121400004-12150-045000FM-12+044099999V0202701N001510120019N0200001N1+02741+02021100941ADDAA106000091GF106991051021012501071031KA1240M+03451MA1999999096131MD1999999-0141REMSYN088AAXX  14004 83236 32698 62703 10274 20202 39613 40094 85273 333 10345 29060 55093 59014;EQDQ01  00002PRCP06
0186832360999992002121412004-12150-045000FM-12+044099999V0201801N002110450019N0200001N1+02711+02261101281ADDAA106000091GF106991041021012501061051KA1240N+02431MA1999999096431MD1999999+0131REMSYN076AAXX  14124 83236 32698 61804 10271 20226 39643 40128 84265 333 20243 58013;EQDQ01  00002PRCP06
0167832360999992002121418004-12150-045000FM-12+044099999V0201401N002110450019N0200001N1+03191+02161100741ADDAA106000091GF106991041021008001071051MA1999999095951MD1999999+0111REMSYN070AAXX  14184 83236 32598 61404 10319 20216 39595 40074 84275 333 58011;EQDQ01  00002PRCP06
0226832360999992002121500004-12150-045000FM-12+044099999V0201801N001010450019N0200001N1+02601+02251101161ADDAA106000091AY121061AY221061GF105991031051008001061031KA1240M+03321MA1999999096251MD1999999+0121MW1131REMSYN094AAXX  15004 83236 31598 51802 10260 20225 39625 40116 71322 83563 333 10332 29074 55045 58012;EQDQ01  00002PRCP06
0186832360999992002121512004-12150-045000FM-12+044099999V0201801N001010450019N0200001N1+02501+02131101311ADDAA106000091GF106991041021008001061051KA1240N+02131MA1999999096431MD1999999+0001REMSYN076AAXX  15124 83236 32598 61802 10250 20213 39643 40131 84265 333 20213 58000;EQDQ01  00002PRCP06
0167832360999992002121518004-12150-045000FM-12+044099999V0200501N003110450019N0200001N1+03281+02031100681ADDAA106000091GF106991031021008001071051MA1999999095861MD1999999-0091REMSYN070AAXX  15184 83236 32598 60506 10328 20203 39586 40068 83275 333 59009;EQDQ01  00002PRCP06
0202832360999992002121600004-12150-045000FM-12+044099999V0201401N003610075019N0020001N1+02311+02221101171ADDAY191061AY291061GF108991081051008001999999KA1240M+03421MA1999999096271MD1999999+0021MW1621REMSYN100AAXX  16004 83236 21595 81407 10231 20222 39627 40117 76299 885// 333 10342 29080 55071 58002 60141;
0162832360999992002121612004-12150-045000FM-12+044099999V0202301N001010075019N0100001N1+02411+02171101331ADDGF108991071021008001071999KA1240N+02221MA1999999096411MD1999999-0021REMSYN082AAXX  16124 83236 22597 82302 10241 20217 39641 40133 8727/ 333 20222 59002 60214;
0167832360999992002121618004-12150-045000FM-12+044099999V0202701N001510450019N0200001N1+03151+02181100661ADDAA106000091GF106991041031008001061051MA1999999095841MD1999999-0021REMSYN070AAXX  16184 83236 32598 62703 10315 20218 39584 40066 84365 333 59002;EQDQ01  00002PRCP06
0202832360999992002121700004-12150-045000FM-12+044099999V0200901N001510075019N0020001N1+02101+02021101291ADDAY191061AY291061GF108991071051008001999999KA1240M+03241MA1999999096351MD1999999+0081MW1551REMSYN100AAXX  17004 83236 21595 80903 10210 20202 39635 40129 75599 875// 333 10324 29084 55018 58008 60241;
0190832360999992002121712004-12150-045000FM-12+044099999V0201801N001510075019N0100001N1+02361+02131101301ADDAY151061AY251061GF108991071021008001071999KA1240N+02041MA1999999096361MD1999999-0051MW1021REMSYN088AAXX  17124 83236 21597 81803 10236 20213 39636 40130 70255 8727/ 333 20204 59005 60304;
0167832360999992002121718004-12150-045000FM-12+044099999V0203201N001010450019N0200001N1+02921+02091100801ADDAA106000091GF106991041021012501061071MA1999999095941MD1999999+0101REMSYN070AAXX  17184 83236 32698 63202 10292 20209 39594 40080 84267 333 58010;EQDQ01  00002PRCP06
0226832360999992002121800004-12150-045000FM-12+044099999V0200501N005110075019N0020001N1+02301+02181101251ADDAA106000091AY121061AY221061GF108991051051008001041999KA1240M+03201MA1999999096341MD1999999-0011MW1151REMSYN094AAXX  18004 83236 31595 80510 10230 20218 39634 40125 71522 8554/ 333 10320 29084 55021 59001;EQDQ01  00002PRCP06
0162832360999992002121812004-12150-045000FM-12+044099999V0209999C000010075019N0100001N1+02411+02191101231ADDGF107991051021008001061071KA1240N+02091MA1999999096321MD1999999-0041REMSYN082AAXX  18124 83236 22597 70000 10241 20219 39632 40123 85267 333 20209 59004 60054;
0167832360999992002121818004-12150-045000FM-12+044099999V0200501N003110450019N0200001N1+03151+02241100691ADDAA106000091GF106991041041008001071051MA1999999095851MD1999999-0091REMSYN070AAXX  18184 83236 32598 60506 10315 20224 39585 40069 84475 333 59009;EQDQ01  00002PRCP06
0226832360999992002121900004-12150-045000FM-12+044099999V0201801N001510450019N0200001N1+02521+02211100991ADDAA106000091AY121061AY221061GF106991041051008001041051KA1240M+03211MA1999999096111MD1999999-0231MW1131REMSYN094AAXX  19004 83236 31598 61803 10252 20221 39611 40099 71322 84545 333 10321 29078 55039 59023;EQDQ01  00002PRCP06
0186832360999992002121912004-12150-045000FM-12+044099999V0209999C000010450019N0200001N1+02571+02021101211ADDAA106000091GF106991031021008001061071KA1240N+02151MA1999999096341MD1999999+0021REMSYN076AAXX  19124 83236 32598 60000 10257 20202 39634 40121 83267 333 20215 58002;EQDQ01  00002PRCP06
0167832360999992002121918004-12150-045000FM-12+044099999V0200501N003110450019N0200001N1+03181+01801100821ADDAA106000091GF106991041031008001051071MA1999999095991MD1999999+0141REMSYN070AAXX  19184 83236 32598 60506 10318 20180 39599 40082 84357 333 58014;EQDQ01  00002PRCP06
0198832360999992002122000004-12150-045000FM-12+044099999V0209999C000010450019N0200001N1+02591+02371101131ADDAA106000091GF106991041021008001061031KA1240M+03301MA1999999096271MD1999999+0161REMSYN088AAXX  20004 83236 32598 60000 10259 20237 39627 40113 84263 333 10330 29073 55095 58016;EQDQ01  00002PRCP06
0186832360999992002122012004-12150-045000FM-12+044099999V0202701N000511050019N0100001N1+02751+02101101401ADDAA106000091GF105991021021008001001071KA1240N+02231MA1999999096541MD1999999+0201REMSYN076AAXX  20124 83236 32597 52701 10275 20210 39654 40140 82207 333 20223 58020;EQDQ01  00002PRCP06
0167832360999992002122018004-12150-045000FM-12+044099999V0200501N003110075019N0100001N1+03371+02111100851ADDAA106000091GF106991061021008001001001MA1999999096051MD1999999+0061REMSYN070AAXX  20184 83236 32597 60506 10337 20211 39605 40085 86200 333 58006;EQDQ01  00002PRCP06
0198832360999992002122100004-12150-045000FM-12+044099999V0209999C000010075019N0100001N1+02731+02241101111ADDAA106000091GF106991061021008001001001KA1240M+03571MA1999999096281MD1999999+0011REMSYN088AAXX  21004 83236 32597 60000 10273 20224 39628 40111 86200 333 10357 29066 55112 58001;EQDQ01  00002PRCP06
0186832360999992002122112004-12150-045000FM-12+044099999V0202301N001012200019N0200001N1+02771+02251101331ADDAA106000091GF102991011011008001001011KA1240N+02341MA1999999096491MD1999999-0051REMSYN076AAXX  21124 83236 32598 22302 10277 20225 39649 40133 81101 333 20234 59005;EQDQ01  00002PRCP06
0167832360999992002122118004-12150-045000FM-12+044099999V0203601N000512200019N0200001N1+03391+01911100821ADDAA106000091GF104991041021008001001001MA1999999096031MD1999999-0021REMSYN070AAXX  21184 83236 32598 43601 10339 20191 39603 40082 84200 333 59002;EQDQ01  00002PRCP06
0208832360999992002122200004-12150-045000FM-12+044099999V0201801N001012200019N0200001N1+02651+02121100921ADDAA106000091GA1001+999999999GF100991001001999999001001KA1240M+03541MA1999999096091MD1999999-0191REMSYN082AAXX  22004 83236 32998 01802 10265 20212 39609 40092 333 10354 29066 55116 59019;EQDQ01  00002PRCP06
0208832360999992002122300004-12150-045000FM-12+044099999V0201801N001012200019N0200001N1+02621+01931100781ADDAA106000091GA1001+999999999GF100991001001999999001001KA1240M+03611MA1999999095961MD1999999-0131REMSYN082AAXX  23004 83236 32998 01802 10262 20193 39596 40078 333 10361 29056 55102 59013;EQDQ01  00002PRCP06
0186832360999992002122312004-12150-045000FM-12+044099999V0203601N001010450019N0200001N1+02741+02211101151ADDAA106000091GF106991031051008001061001KA1240N+02361MA1999999096311MD1999999+0061REMSYN076AAXX  23124 83236 32598 63602 10274 20221 39631 40115 83560 333 20236 58006;EQDQ01  00002PRCP06
0167832360999992002122318004-12150-045000FM-12+044099999V0203601N001512200019N0200001N1+03011+02171100741ADDAA106000091GF105991031021008001001041MA1999999095931MD1999999+0121REMSYN070AAXX  23184 83236 32598 53603 10301 20217 39593 40074 83204 333 58012;EQDQ01  00002PRCP06
0208832360999992002122400004-12150-045000FM-12+044099999V0202701N001512200019N0200001N1+02611+02081101041ADDAA106000091GA1001+999999999GF100991001001999999001001KA1240M+03381MA1999999096201MD1999999+0241REMSYN082AAXX  24004 83236 32998 02703 10261 20208 39620 40104 333 10338 29070 55070 58024;EQDQ01  00002PRCP06
0186832360999992002122412004-12150-045000FM-12+044099999V0200501N001510450019N0200001N1+02571+02131101261ADDAA106000091GF107991021041008001071001KA1240N+02301MA1999999096391MD1999999+0081REMSYN076AAXX  24124 83236 32598 70503 10257 20213 39639 40126 82470 333 20230 58008;EQDQ01  00002PRCP06
0183832360999992002122418004-12150-045000FM-12+044099999V0202301N001512200019N0200001N1+03461+01901100611ADDAA106000091GF104991999031008001041001MA1999999095831MD1999999-0101REMSYN070AAXX  24184 83236 32598 42303 10346 20190 39583 40061 88340 333 59010;EQDQ01+000082SCOTLCQ02  00002PRCP06
0198832360999992002122500004-12150-045000FM-12+044099999V0203201N001512200019N0200001N1+02821+01941100831ADDAA106000091GF103991031041008001001001KA1240M+03641MA1999999096001MD1999999-0201REMSYN088AAXX  25004 83236 32598 33203 10282 20194 39600 40083 83400 333 10364 29059 55074 59020;EQDQ01  00002PRCP06
0186832360999992002122512004-12150-045000FM-12+044099999V0200501N001512200019N0200001N1+02801+02221100991ADDAA106000091GF106991041021008001001041KA1240N+02181MA1999999096171MD1999999-0221REMSYN076AAXX  25124 83236 32598 60503 10280 20222 39617 40099 84204 333 20218 59022;EQDQ01  00002PRCP06
0171832360999992002122518004-12150-045000FM-12+044099999V0200501N005110075019N0040001N1+02271+02181101051ADDAY191061AY261061GF108991071051008001999999MA1999999096121MD1999999+0291MW1501REMSYN082AAXX  25184 83236 21596 80510 10227 20218 39612 40105 75096 875// 333 58029 60081;
0202832360999992002122600004-12150-045000FM-12+044099999V0201401N001010120019N0040001N1+02791+02231101031ADDAY151061AY251061GF108991061081008001021999KA1240M+03201MA1999999096161MD1999999+0161MW1031REMSYN100AAXX  26004 83236 21596 81402 10279 20223 39616 40103 70355 8682/ 333 10320 29090 55025 58016 60011;
0162832360999992002122612004-12150-045000FM-12+044099999V0201801N001010075019N0100001N1+02361+02261101311ADDGF108991081051008001999999KA1240N+02161MA1999999096441MD1999999+0271REMSYN082AAXX  26124 83236 22597 81802 10236 20226 39644 40131 885// 333 20216 58027 60094;
0167832360999992002122618004-12150-045000FM-12+044099999V0201801N001510075019N0100001N1+02661+02241100951ADDAA106000091GF107991051021008001011001MA1999999096061MD1999999-0061REMSYN070AAXX  26184 83236 32597 71803 10266 20224 39606 40095 85210 333 59006;EQDQ01  00002PRCP06
0202832360999992002122700004-12150-045000FM-12+044099999V0209999C000010075019N0040001N1+02231+02191101261ADDAY191061AY261061GF108991081051008001999999KA1240M+02831MA1999999096341MD1999999+0181MW1021REMSYN100AAXX  27004 83236 21596 80000 10223 20219 39634 40126 70296 885// 333 10283 29092 55003 58018 60481;
0162832360999992002122712004-12150-045000FM-12+044099999V0200501N002610450019N0100001N1+02461+02071101201ADDGF107991031071008001031001KA1240N+02121MA1999999096291MD1999999-0151REMSYN082AAXX  27124 83236 22597 70505 10246 20207 39629 40120 83730 333 20212 59015 60484;
0171832360999992002122718004-12150-045000FM-12+044099999V0201401N002110450019N0100001N1+02261+02181100841ADDAY191061AY261061GF107991041071008001011001MA1999999095911MD1999999-0151MW1021REMSYN082AAXX  27184 83236 21597 71404 10226 20218 39591 40084 70296 84710 333 59015 60171;
0202832360999992002122800004-12150-045000FM-12+044099999V0200901N001510075019N0040001N1+02361+02261101051ADDAY151061AY251061GF108991081051008001999999KA1240M+02931MA1999999096151MD1999999-0191MW1021REMSYN100AAXX  28004 83236 21596 80903 10236 20226 39615 40105 70255 885// 333 10293 29091 55027 59019 69911;
0190832360999992002122812004-12150-045000FM-12+044099999V0200501N002110075019N0100001N1+02341+02171101171ADDAY161061AY261061GF107991051051008001041001KA1240N+02171MA1999999096261MD1999999-0031MW1021REMSYN088AAXX  28124 83236 21597 70504 10234 20217 39626 40117 70266 85540 333 20217 59003 60464;
0167832360999992002122818004-12150-045000FM-12+044099999V0200501N003610450019N0100001N1+02791+02321100641ADDAA106000091GF107991041021008001011041MA1999999095771MD1999999-0141REMSYN070AAXX  28184 83236 32597 70507 10279 20232 39577 40064 84214 333 59014;EQDQ01  00002PRCP06
0202832360999992002122900004-12150-045000FM-12+044099999V0201401N001010075019N0040001N1+02221+02191101091ADDAY161061AY261061GF108991081051008001999999KA1240M+02941MA1999999096151MD1999999+0001MW1601REMSYN100AAXX  29004 83236 21596 81402 10222 20219 39615 40109 76066 885// 333 10294 29091 55017 58000 60291;
0190832360999992002122912004-12150-045000FM-12+044099999V0200501N002110075019N0040001N1+02301+02221101281ADDAY161061AY261061GF108991081051008001999999KA1240N+02171MA1999999096341MD1999999+0081MW1421REMSYN088AAXX  29124 83236 21596 80504 10230 20222 39634 40128 74266 885// 333 20217 58008 60524;
0171832360999992002122918004-12150-045000FM-12+044099999V0200901N001510450019N0100001N1+02581+02251100871ADDAY161061AY261061GF108991041051008001021999MA1999999095981MD1999999+0211MW1021REMSYN082AAXX  29184 83236 21597 80903 10258 20225 39598 40087 70266 8452/ 333 58021 60091;
0202832360999992002123000004-12150-045000FM-12+044099999V0200501N001010075019N0020001N1+02211+02151101311ADDAY161061AY261061GF108991081051008001999999KA1240M+02701MA1999999096371MD1999999+0221MW1511REMSYN100AAXX  30004 83236 21595 80502 10221 20215 39637 40131 75166 885// 333 10270 29093 55000 58022 60311;
0190832360999992002123012004-12150-045000FM-12+044099999V0201801N001510075019N0040001N1+02321+02201101481ADDAY161061AY261061GF108991051051008001021999KA1240N+02131MA1999999096531MD1999999+0191MW1421REMSYN088AAXX  30124 83236 21596 81803 10232 20220 39653 40148 74266 8552/ 333 20213 58019 60384;
0167832360999992002123018004-12150-045000FM-12+044099999V0200501N003112200019N0100001N1+02861+02261100951ADDAA106000091GF105991031021008001001041MA1999999096071MD1999999+0091REMSYN070AAXX  30184 83236 32597 50506 10286 20226 39607 40095 83204 333 58009;EQDQ01  00002PRCP06
0198832360999992002123100004-12150-045000FM-12+044099999V0209999C000010075019N0040001N1+02571+02401101181ADDAA106000091GF108991081071008001999999KA1240M+02991MA1999999096291MD1999999-0081REMSYN088AAXX  31004 83236 32596 80000 10257 20240 39629 40118 887// 333 10299 29086 55050 59008;EQDQ01  00002PRCP06
0190832360999992002123112004-12150-045000FM-12+044099999V0202301N001010450019N0020001N1+02211+02181101451ADDAY161061AY261061GF108991021011008001021999KA1240N+02171MA1999999096541MD1999999+0011MW1401REMSYN088AAXX  31124 83236 21595 82302 10221 20218 39654 40145 74066 8212/ 333 20217 58001 60464;
0171832360999992002123118004-12150-045000FM-12+044099999V0203601N001511050019N0200001N1+02891+02081100911ADDAY151061AY251061GF105991021021008001041041MA1999999096051MD1999999-0021MW1021REMSYN082AAXX  31184 83236 21598 53603 10289 20208 39605 40091 70255 82244 333 59002 69921;
