0182832420999992002010218004-12570-041380FM-12+042799999V0201801N001510042019N0040001N1+02631+02391100601ADDAA106009991AY161061AY241061GF108991071071004501001071MA1999999095731MD1999999-0061MW1151REMSYN082AAXX  02184 83242 21496 81803 10263 20239 39573 40060 71564 87707 333 59006 60101;
0182832420999992002010318004-12570-041380FM-12+042799999V0201801N006710042019N0040001N1+02631+02051100671ADDAA106001091AY161061AY241061GF108991061071004501051071MA1999999095791MD1999999+0031MW1151REMSYN082AAXX  03184 83242 21496 81813 10263 20205 39579 40067 71564 86757 333 58003 60011;
0213832420999992002010400004-12570-041380FM-12+042799999V0202701N001010042019N0010001N1+02301+02181101051ADDAA106007191AY161061AY241061GF108991081071004501999999KA1240M+02741MA1999999096131MD1999999+0031MW1631REMSYN100AAXX  04004 83242 21494 82702 10230 20218 39613 40105 76364 887// 333 10274 29088 55001 58003 60071;
0201832420999992002010412004-12570-041380FM-12+042799999V0201801N001010042019N0040001N1+02401+02301101081ADDAA124011991AY161061AY221061GF108991081071004501999999KA1240N+02131MA1999999096161MD1999999+0021MW1101REMSYN088AAXX  04124 83242 21496 81802 10240 20230 39616 40108 71062 887// 333 20213 58002 60124;
0182832420999992002010418004-12570-041380FM-12+042799999V0203601N003110042019N0020001N1+02561+02251100741ADDAA106005191AY191061AY261061GF108991081071004501999999MA1999999095841MD1999999-0051MW1161REMSYN082AAXX  04184 83242 21495 83606 10256 20225 39584 40074 71696 887// 333 59005 60051;
0213832420999992002010500004-12570-041380FM-12+042799999V0203601N000510042019N0010001N1+02261+02231101181ADDAA106019191AY191061AY261061GF108991081071004501999999KA1240M+02811MA1999999096261MD1999999+0131MW1101REMSYN100AAXX  05004 83242 21494 83601 10226 20223 39626 40118 71096 887// 333 10281 29093 55006 58013 60191;
0201832420999992002010512004-12570-041380FM-12+042799999V0201401N002610450019N0040001N1+02521+02311101231ADDAA124030091AY161061AY221061GF107991021041004501031001KA1240N+02131MA1999999096321MD1999999+0161MW1031REMSYN088AAXX  05124 83242 21496 71405 10252 20231 39632 40123 70362 82430 333 20213 58016 60304;
0182832420999992002010518004-12570-041380FM-12+042799999V0201801N001510042019N0040001N1+02301+02071100971ADDAA106000891AY191061AY251061GF108991071071004501001021MA1999999096031MD1999999+0191MW1291REMSYN082AAXX  05184 83242 21496 81803 10230 20207 39603 40097 72995 87702 333 58019 69981;
0226832420999992002010600004-12570-041380FM-12+042799999V0200501N001010042019N0010001N1+02251+02121101121ADDAA106002091AY191061AY261061GF108991081071004501999999KA1240M+03201MA1999999096211MD1999999-0051REMSYN100AAXX  06004 83242 21494 80502 10225 20212 39621 40112 75696 887// 333 10320 29090 55037 59005 60021;EQDQ01+000562PRSWM1
0201832420999992002010612004-12570-041380FM-12+042799999V0201801N002110042019N0040001N1+02361+02191101181ADDAA124006191AY161061AY221061GF107991061071004501081001KA1240N+02071MA1999999096251MD1999999-0071MW1101REMSYN088AAXX  06124 83242 21496 71804 10236 20219 39625 40118 71062 86780 333 20207 59007 60064;
0167832420999992002010618004-12570-041380FM-12+042799999V0201401N002112200019N0100001N1+03081+02191100571ADDAA199000091GF104991031031004501081001MA1999999095731MD1999999-0301REMSYN070AAXX  06184 83242 32497 41404 10308 20219 39573 40057 83380 333 59030;EQDQ01  00002PRCP99
0213832420999992002010700004-12570-041380FM-12+042799999V0201801N003110042019N0005001N1+02521+02211100981ADDAA106009991AY191061AY261061GF108991081071004501999999KA1240M+03201MA1999999096091MD1999999-0121MW1211REMSYN100AAXX  07004 83242 21493 81806 10252 20221 39609 40098 72196 887// 333 10320 29079 55073 59012 60101;
0201832420999992002010712004-12570-041380FM-12+042799999V0201801N001010042019N9999999N1+02261+02211101171ADDAA124023991AY161061AY221061GF108991081061004501999999KA1240N+02071MA1999999096261MD1999999+0011MW1101REMSYN088AAXX  07124 83242 21455 81802 10226 20221 39626 40117 71062 886// 333 20207 58001 60244;
0182832420999992002010718004-12570-041380FM-12+042799999V0201401N002110042019N0020001N1+02311+02181100951ADDAA106004191AY161061AY221061GF108991081071004501999999MA1999999096021MD1999999+0291MW1211REMSYN082AAXX  07184 83242 21495 81404 10231 20218 39602 40095 72162 887// 333 58029 60041;
0213832420999992002010800004-12570-041380FM-12+042799999V0200901N000510042019N0010001N1+02181+02131101231ADDAA106020191AY161061AY221061GF108991081071004501999999KA1240M+02841MA1999999096271MD1999999+0181MW1611REMSYN100AAXX  08004 83242 21494 80901 10218 20213 39627 40123 76162 887// 333 10284 29096 55000 58018 60201;
0201832420999992002010812004-12570-041380FM-12+042799999V0201401N000510042019N0020001N1+02261+02051101391ADDAA124034091AY161061AY221061GF108991081071004501999999KA1240N+02051MA1999999096431MD1999999+0171MW1101REMSYN088AAXX  08124 83242 21495 81401 10226 20205 39643 40139 71062 887// 333 20205 58017 60344;
0167832420999992002010818004-12570-041380FM-12+042799999V0201801N001010042019N0100001N1+02781+02041100961ADDAA199000091GF107991061071004501061001MA1999999096071MD1999999+0051REMSYN070AAXX  08184 83242 32497 71802 10278 20204 39607 40096 86760 333 58005;EQDQ01  00002PRCP99
0198832420999992002010900004-12570-041380FM-12+042799999V0203601N000510042019N0020001N1+02561+02111101151ADDAA199000091GF108991081071004501999999KA1240M+02941MA1999999096241MD1999999-0031REMSYN088AAXX  09004 83242 32495 83601 10256 20211 39624 40115 887// 333 10294 29076 55040 59003;EQDQ01  00002PRCP99
0201832420999992002010912004-12570-041380FM-12+042799999V0201801N001510042019N0040001N1+02341+02091101411ADDAA124002091AY161061AY221061GF108991081071004501999999KA1240N+02051MA1999999096501MD1999999+0071MW1031REMSYN088AAXX  09124 83242 21496 81803 10234 20209 39650 40141 70362 887// 333 20205 58007 60024;
0167832420999992002010918004-12570-041380FM-12+042799999V0201801N001510042019N0100001N1+02841+01851101101ADDAA199000091GF107991051071004501001061MA1999999096211MD1999999+0141REMSYN070AAXX  09184 83242 32497 71803 10284 20185 39621 40110 85706 333 58014;EQDQ01  00002PRCP99
0208832420999992002011000004-12570-041380FM-12+042799999V0201401N000512200019N0020001N1+02451+01971101401ADDAA199000091GA1001+999999999GF100991001001999999001001KA1240M+02921MA1999999096481MD1999999+0241REMSYN082AAXX  10004 83242 32995 01401 10245 20197 39648 40140 333 10292 29072 55029 58024;EQDQ01  00002PRCP99
0186832420999992002011012004-12570-041380FM-12+042799999V0201801N001010042019N0100001N1+02261+01881101701ADDAA199000091GF107991071071004501001001KA1240N+02031MA1999999096751MD1999999+0251REMSYN076AAXX  10124 83242 32497 71802 10226 20188 39675 40170 87700 333 20203 58025;EQDQ01  00002PRCP99
0167832420999992002011018004-12570-041380FM-12+042799999V0201401N001010042019N0100001N1+02831+01911101191ADDAA199000091GF107991051071004501001061MA1999999096281MD1999999+0071REMSYN070AAXX  10184 83242 32497 71402 10283 20191 39628 40119 85706 333 58007;EQDQ01  00002PRCP99
0213832420999992002011100004-12570-041380FM-12+042799999V0201801N001510042019N0020001N1+02281+02141101621ADDAA106001091AY161061AY221061GF108991081071004501999999KA1240M+02961MA1999999096661MD1999999+0181MW1031REMSYN100AAXX  11004 83242 21495 81803 10228 20214 39666 40162 70362 887// 333 10296 29080 55061 58018 60011;
0182832420999992002011118004-12570-041380FM-12+042799999V0201801N001510042019N0020001N1+02421+02191101401ADDAA106018091AY161061AY241061GF107991071071004501001001MA1999999096451MD1999999+0171MW1161REMSYN082AAXX  11184 83242 21495 71803 10242 20219 39645 40140 71664 87700 333 58017 60181;
0213832420999992002011200004-12570-041380FM-12+042799999V0201801N001010042019N0010001N1+02251+02121101751ADDAA106010991AY161061AY241061GF108991081071004501999999KA1240M+02661MA1999999096791MD1999999+0131MW1021REMSYN100AAXX  12004 83242 21494 81802 10225 20212 39679 40175 70264 887// 333 10266 29089 55000 58013 60111;
0201832420999992002011212004-12570-041380FM-12+042799999V0200901N000510042019N0005001N1+02281+02181101721ADDAA124038191AY161061AY241061GF108991081071004501999999KA1240N+02111MA1999999096751MD1999999-0011MW1211REMSYN088AAXX  12124 83242 21493 80901 10228 20218 39675 40172 72164 887// 333 20211 59001 60384;
0182832420999992002011218004-12570-041380FM-12+042799999V0202301N000510042019N0100001N1+02381+02211101371ADDAA106019191AY161061AY241061GF107991051071004501051011MA1999999096421MD1999999-0031MW1501REMSYN082AAXX  12184 83242 21497 72301 10238 20221 39642 40137 75064 85751 333 59003 60191;
0213832420999992002011300004-12570-041380FM-12+042799999V0200501N001010042019N0010001N1+02281+02201101471ADDAA106002091AY161061AY241061GF108991081071004501999999KA1240M+02721MA1999999096521MD1999999-0271MW1021REMSYN100AAXX  13004 83242 21494 80502 10228 20220 39652 40147 70264 887// 333 10272 29094 55021 59027 60021;
0201832420999992002011312004-12570-041380FM-12+042799999V0201401N000510042019N0010001N1+02201+02061101571ADDAA124022191AY161061AY221061GF108991081071004501999999KA1240N+02071MA1999999096611MD1999999-0141MW1401REMSYN088AAXX  13124 83242 21494 81401 10220 20206 39661 40157 74062 887// 333 20207 59014 60224;
0167832420999992002011318004-12570-041380FM-12+042799999V0201801N001510450019N0100001N1+02881+02001101081ADDAA199000091GF108991031031004501081071MA1999999096191MD1999999-0231REMSYN070AAXX  13184 83242 32497 81803 10288 20200 39619 40108 83387 333 59023;EQDQ01  00002PRCP99
0198832420999992002011400004-12570-041380FM-12+042799999V0202701N000512200019N0010001N1+02441+02091101351ADDAA199000091GF104991041051004501001001KA1240M+03021MA1999999096411MD1999999-0111REMSYN088AAXX  14004 83242 32494 42701 10244 20209 39641 40135 84500 333 10302 29078 55062 59011;EQDQ01  00002PRCP99
0198832420999992002011412004-12570-041380FM-12+042799999V0201801N001010042019N0020001N1+02441+02091101311ADDAA199000091GF108991081071004501999999KA1240N+02071MA1999999096401MD1999999-0211MW1101REMSYN082AAXX  14124 83242 31495 81802 10244 20209 39640 40131 710// 887// 333 20207 59021;EQDQ01  00002PRCP99
0167832420999992002011418004-12570-041380FM-12+042799999V0201401N001510042019N0040001N1+02811+02151100751ADDAA199000091GF108991081071004501999999MA1999999095891MD1999999-0301REMSYN070AAXX  14184 83242 32496 81403 10281 20215 39589 40075 887// 333 59030;EQDQ01  00002PRCP99
0213832420999992002011500004-12570-041380FM-12+042799999V0203601N001510042019N0005001N1+02231+02171101021ADDAA106004191AY191061AY261061GF108991081071004501999999KA1240M+02941MA1999999096111MD1999999-0301MW1211REMSYN100AAXX  15004 83242 21493 83603 10223 20217 39611 40102 72196 887// 333 10294 29085 55026 59030 60041;
0230832420999992002011512004-12570-041380FM-12+042799999V0200901N001010090019N0010001N1+02181+02131999999ADDAA124002091AY121061AY201061GF108991999081004501001001KA1240N+99999MA1999999096091MD1999999-0381MW1161REMSYN082AAXX  15124 83242 21494 80902 10218 20213 39609 71620 86800 333 20238 59038 60024;EQDQ01+000062SCOTLCQ02 +02382ATMN  
0213832420999992002011600004-12570-041380FM-12+042799999V0203601N003110042019N0010001N1+02421+01951100741ADDAA106000591AY151061AY241061GF108991081071004501999999KA1240M+02711MA1999999095831MD1999999-0281MW1031REMSYN100AAXX  16004 83242 21494 83606 10242 20195 39583 40074 70354 887// 333 10271 29081 55002 59028 69961;
0214832420999992002011612004-12570-041380FM-12+042799999V0203601N002110042019N0040001N1+02321+02051100931ADDAA124006191AY161061AY221061GF108991081071004501999999KA1240N+02091MA1999999096021MD1999999-0071REMSYN088AAXX  16124 83242 21496 83604 10232 20205 39602 40093 75662 887// 333 20209 59007 60064;EQDQ01+000562PRSWM1
0182832420999992002011618004-12570-041380FM-12+042799999V0200501N001510042019N0040001N1+02571+02271100581ADDAA106000591AY151061AY221061GF108991061071004501081999MA1999999095691MD1999999+0011MW1031REMSYN082AAXX  16184 83242 21496 80503 10257 20227 39569 40058 70352 8678/ 333 58001 69941;
0226832420999992002011700004-12570-041380FM-12+042799999V0200901N000510042019N0010001N1+02381+02291100891ADDAA106000791AY151061AY241061GF108991081071004501999999KA1240M+02781MA1999999095981MD1999999+0151REMSYN100AAXX  17004 83242 21494 80901 10238 20229 39598 40089 75654 887// 333 10278 29090 55000 58015 69901;EQDQ01+000562PRSWM1
0201832420999992002011712004-12570-041380FM-12+042799999V0201801N001010042019N0040001N1+02301+02161101121ADDAA124010991AY161061AY221061GF108991071071004501011999KA1240N+02111MA1999999096201MD1999999+0181MW1101REMSYN088AAXX  17124 83242 21496 81802 10230 20216 39620 40112 71062 8771/ 333 20211 58018 60114;
0167832420999992002011718004-12570-041380FM-12+042799999V0203601N003110042019N0100001N1+03041+02001100761ADDAA199000091GF108991051071004501031071MA1999999095801MD1999999+0101REMSYN070AAXX  17184 83242 32497 83606 10304 20200 39580 40076 85737 333 58010;EQDQ01  00002PRCP99
0213832420999992002011800004-12570-041380FM-12+042799999V0203201N001010042019N0005001N1+02241+02161101261ADDAA106025991AY191061AY261061GF108991081071004501999999KA1240M+03141MA1999999096311MD1999999+0331MW1211REMSYN100AAXX  18004 83242 21493 83202 10224 20216 39631 40126 72196 887// 333 10314 29084 55024 58033 60261;
0201832420999992002011812004-12570-041380FM-12+042799999V0201801N001010042019N0020001N1+02241+02191101391ADDAA124052191AY161061AY221061GF108991081071004501999999KA1240N+02111MA1999999096441MD1999999+0241MW1101REMSYN088AAXX  18124 83242 21495 81802 10224 20219 39644 40139 71062 887// 333 20211 58024 60524;
0195832420999992002011818004-12570-041380FM-12+042799999V0201401N001010042019N0040001N1+02651+02241101001ADDAA199000091AY151061AY241061GF107991051071004501031031MA1999999096101MD1999999+0301MW1051REMSYN076AAXX  18184 83242 31496 71402 10265 20224 39610 40100 70554 85733 333 58030;EQDQ01  00002PRCP99
0198832420999992002011900004-12570-041380FM-12+042799999V0203601N001010042019N0010001N1+02361+02221101111ADDAA199000091GF108991051071004501011999KA1240M+02761MA1999999096181MD1999999-0131REMSYN088AAXX  19004 83242 32494 83602 10236 20222 39618 40111 8571/ 333 10276 29090 55005 59013;EQDQ01  00002PRCP99
0201832420999992002011912004-12570-041380FM-12+042799999V0200901N001510042019N0040001N1+02441+02011101341ADDAA124000791AY151061AY221061GF107991061071004501081001KA1240N+02151MA1999999096421MD1999999-0021MW1051REMSYN088AAXX  19124 83242 21496 70903 10244 20201 39642 40134 70552 86780 333 20215 59002 69904;
0167832420999992002011918004-12570-041380FM-12+042799999V0202301N002110450019N0100001N1+02941+01791100941ADDAA199000091GF106991031071004501081021MA1999999096081MD1999999-0021REMSYN070AAXX  19184 83242 32497 62304 10294 20179 39608 40094 83782 333 59002;EQDQ01  00002PRCP99
0198832420999992002012000004-12570-041380FM-12+042799999V0200901N001010042019N0020001N1+02481+02011101201ADDAA199000091GF108991081051004501999999KA1240M+03021MA1999999096301MD1999999+0121REMSYN088AAXX  20004 83242 32495 80902 10248 20201 39630 40120 885// 333 10302 29069 55098 58012;EQDQ01  00002PRCP99
0186832420999992002012012004-12570-041380FM-12+042799999V0201401N001510042019N0040001N1+02361+01951101541ADDAA199000091GF107991061071004501081001KA1240N+02111MA1999999096611MD1999999+0191REMSYN076AAXX  20124 83242 32496 71403 10236 20195 39661 40154 86780 333 20211 58019;EQDQ01  00002PRCP99
0167832420999992002012018004-12570-041380FM-12+042799999V0202301N002612200019N0100001N1+02921+02011101161ADDAA199000091GF104991021031004501081021MA1999999096271MD1999999+0191REMSYN070AAXX  20184 83242 32497 42305 10292 20201 39627 40116 82382 333 58019;EQDQ01  00002PRCP99
0198832420999992002012100004-12570-041380FM-12+042799999V0201401N001010042019N0020001N1+02511+02071101341ADDAA199000091GF108991081071004501999999KA1240M+03021MA1999999096431MD1999999+0131REMSYN088AAXX  21004 83242 32495 81402 10251 20207 39643 40134 887// 333 10302 29072 55057 58013;EQDQ01  00002PRCP99
0201832420999992002012112004-12570-041380FM-12+042799999V0201801N001510042019N0040001N1+02381+02091101661ADDAA124000791AY151061AY221061GF108991081071004501999999KA1240N+02151MA1999999096741MD1999999+0131MW1101REMSYN088AAXX  21124 83242 21496 81803 10238 20209 39674 40166 71052 887// 333 20215 58013 69904;
0182832420999992002012118004-12570-041380FM-12+042799999V0200501N001010450019N0100001N1+02581+02331101311ADDAA106000591AY151061AY241061GF106991041071004501081001MA1999999096391MD1999999+0121MW1031REMSYN082AAXX  21184 83242 21497 60502 10258 20233 39639 40131 70354 84780 333 58012 69951;
0213832420999992002012200004-12570-041380FM-12+042799999V0209999C000010042019N0020001N1+02411+02211101461ADDAA106000791AY191061AY251061GF107991061071004501081001KA1240M+03091MA1999999096541MD1999999+0111MW1031REMSYN100AAXX  22004 83242 21495 70000 10241 20221 39654 40146 70395 86780 333 10309 29086 55073 58011 69901;
0173832420999992002012212004-12570-041380FM-12+042799999V0201401N001510450019N0100001N1+02461+01971101711ADDAA124000591GF106991041071004501061001KA1240N+02111MA1999999096781MD1999999+0041REMSYN082AAXX  22124 83242 22497 61403 10246 20197 39678 40171 84760 333 20211 58004 69954;
0167832420999992002012218004-12570-041380FM-12+042799999V0201401N002610450019N0100001N1+02981+01661101371ADDAA199000091GF106991031031004501061081MA1999999096491MD1999999+0101REMSYN070AAXX  22184 83242 32497 61405 10298 20166 39649 40137 83368 333 58010;EQDQ01  00002PRCP99
0198832420999992002012300004-12570-041380FM-12+042799999V0202701N000510042019N0020001N1+02351+01871101401ADDAA199000091GF105991051021004501001001KA1240M+03061MA1999999096481MD1999999-0061REMSYN088AAXX  23004 83242 32495 52701 10235 20187 39648 40140 85200 333 10306 29067 55109 59006;EQDQ01  00002PRCP99
0186832420999992002012312004-12570-041380FM-12+042799999V0200501N001010042019N0100001N1+02441+01921101691ADDAA199000091GF106991051071004501031001KA1240N+02071MA1999999096751MD1999999-0031REMSYN076AAXX  23124 83242 32497 60502 10244 20192 39675 40169 85730 333 20207 59003;EQDQ01  00002PRCP99
0167832420999992002012318004-12570-041380FM-12+042799999V0201401N001012200019N0100001N1+03081+01681101211ADDAA199000091GF103991021011004501001061MA1999999096341MD1999999-0151REMSYN070AAXX  23184 83242 32497 31402 10308 20168 39634 40121 82106 333 59015;EQDQ01  00002PRCP99
0208832420999992002012400004-12570-041380FM-12+042799999V0202701N000512200019N0020001N1+02421+01931101331ADDAA199000091GA1001+999999999GF100991001001999999001001KA1240M+03121MA1999999096421MD1999999-0061REMSYN082AAXX  24004 83242 32995 02701 10242 20193 39642 40133 333 10312 29066 55099 59006;EQDQ01  00002PRCP99
0186832420999992002012412004-12570-041380FM-12+042799999V0201401N001010042019N0100001N1+02461+01971101511ADDAA199000091GF106991051031004501041001KA1240N+01971MA1999999096591MD1999999-0161REMSYN076AAXX  24124 83242 32497 61402 10246 20197 39659 40151 85340 333 20197 59016;EQDQ01  00002PRCP99
0179832420999992002012418004-12570-041380FM-12+042799999V0201801N000512200019N0040001N1+03121+01681101041ADDAA199000091GF102991021011004501001001MA1999999096171MD1999999-0171MW1041REMSYN076AAXX  24184 83242 31496 21801 10312 20168 39617 40104 704// 82100 333 59017;EQDQ01  00002PRCP99
0198832420999992002012500004-12570-041380FM-12+042799999V0202701N000512200019N0020001N1+02521+01961101211ADDAA199000091GF102991021001017501051001KA1240M+03241MA1999999096321MD1999999-0101REMSYN088AAXX  25004 83242 32795 22701 10252 20196 39632 40121 82050 333 10324 29064 55094 59010;EQDQ01  00002PRCP99
0198832420999992002012512004-12570-041380FM-12+042799999V0203601N001010042019N0040001N1+02541+02091101491ADDAA199000091GF107991051051004501081021KA1240N+02111MA1999999096591MD1999999+0001MW1051REMSYN082AAXX  25124 83242 31496 73602 10254 20209 39659 40149 705// 85582 333 20211 58000;EQDQ01  00002PRCP99
0179832420999992002012518004-12570-041380FM-12+042799999V0201801N001510450019N0040001N1+03061+01991101021ADDAA199000091GF107991011031004501071021MA1999999096151MD1999999-0021MW1051REMSYN076AAXX  25184 83242 31496 71803 10306 20199 39615 40102 705// 81372 333 59002;EQDQ01  00002PRCP99
0198832420999992002012600004-12570-041380FM-12+042799999V0201801N001511050019N0020001N1+02641+02161101161ADDAA199000091GF105991021031004501051021KA1240M+03141MA1999999096291MD1999999-0031REMSYN088AAXX  26004 83242 32495 51803 10264 20216 39629 40116 82352 333 10314 29070 55047 59003;EQDQ01  00002PRCP99
0186832420999992002012612004-12570-041380FM-12+042799999V0201401N000510042019N0040001N1+02521+02001101571ADDAA199000091GF108991081071004501999999KA1240N+02211MA1999999096681MD1999999+0091REMSYN076AAXX  26124 83242 32496 81401 10252 20200 39668 40157 887// 333 20221 58009;EQDQ01  00002PRCP99
0167832420999992002012618004-12570-041380FM-12+042799999V0201401N001510450019N0100001N1+03041+02091101071ADDAA199000091GF106991041031004501081021MA1999999096211MD1999999+0061REMSYN070AAXX  26184 83242 32497 61403 10304 20209 39621 40107 84382 333 58006;EQDQ01  00002PRCP99
0198832420999992002012700004-12570-041380FM-12+042799999V0200901N000510042019N0020001N1+02621+02141101251ADDAA199000091GF107991061071004501081001KA1240M+03161MA1999999096361MD1999999+0071REMSYN088AAXX  27004 83242 32495 70901 10262 20214 39636 40125 86780 333 10316 29070 55066 58007;EQDQ01  00002PRCP99
0201832420999992002012712004-12570-041380FM-12+042799999V0200501N002110042019N0040001N1+02431+01921101521ADDAA124000791AY151061AY241061GF107991061071004501081001KA1240N+02301MA1999999096611MD1999999-0071MW1031REMSYN088AAXX  27124 83242 21496 70504 10243 20192 39661 40152 70354 86780 333 20230 59007 69904;
0179832420999992002012718004-12570-041380FM-12+042799999V0201401N001512200019N0040001N1+02921+01831101081ADDAA199000091GF104991031011004501081001MA1999999096211MD1999999+0001MW1051REMSYN076AAXX  27184 83242 31496 41403 10292 20183 39621 40108 705// 83180 333 58000;EQDQ01  00002PRCP99
0208832420999992002012800004-12570-041380FM-12+042799999V0200501N000512200019N0020001N1+02321+01851101141ADDAA199000091GA1001+999999999GF100991001001999999001001KA1240M+03021MA1999999096231MD1999999-0131REMSYN082AAXX  28004 83242 32995 00501 10232 20185 39623 40114 333 10302 29069 55068 59013;EQDQ01  00002PRCP99
0186832420999992002012812004-12570-041380FM-12+042799999V0203601N000510450019N0040001N1+02441+01741101421ADDAA199000091GF105991041021004501081001KA1240N+01771MA1999999096501MD1999999-0111REMSYN076AAXX  28124 83242 32496 53601 10244 20174 39650 40142 84280 333 20177 59011;EQDQ01  00002PRCP99
0167832420999992002012818004-12570-041380FM-12+042799999V0201801N002110450019N0100001N1+03101+01941100841ADDAA199000091GF108991021011004501081071MA1999999096001MD1999999-0211REMSYN070AAXX  28184 83242 32497 81804 10310 20194 39600 40084 82187 333 59021;EQDQ01  00002PRCP99
0198832420999992002012900004-12570-041380FM-12+042799999V0201801N000510450019N0020001N1+02641+01831100981ADDAA199000091GF105991011011004501051001KA1240M+03221MA1999999096111MD1999999-0121REMSYN088AAXX  29004 83242 32495 51801 10264 20183 39611 40098 81150 333 10322 29059 55098 59012;EQDQ01  00002PRCP99
0198832420999992002012912004-12570-041380FM-12+042799999V0203201N000510042019N0040001N1+02261+01881101391ADDAA199000091GF108991081071004501999999KA1240N+01891MA1999999096481MD1999999-0021MW1051REMSYN082AAXX  29124 83242 31496 83201 10226 20188 39648 40139 705// 887// 333 20189 59002;EQDQ01  00002PRCP99
0179832420999992002012918004-12570-041380FM-12+042799999V0201801N001519999999N0040001N1+02961+01741100951ADDAA199000091GF108991011001004501001071MA1999999096071MD1999999+0071MW1051REMSYN076AAXX  29184 83242 31496 81803 10296 20174 39607 40095 705// 81007 333 58007;EQDQ01  00002PRCP99
0208832420999992002013000004-12570-041380FM-12+042799999V0202701N000512200019N0020001N1+02441+01951101101ADDAA199000091GA1001+999999999GF100991001001999999001001KA1240M+03061MA1999999096181MD1999999+0071REMSYN082AAXX  30004 83242 32995 02701 10244 20195 39618 40110 333 10306 29069 55069 58007;EQDQ01  00002PRCP99
0186832420999992002013012004-12570-041380FM-12+042799999V0201401N001010042019N0040001N1+02341+01871101461ADDAA199000091GF107991061051004501051001KA1240N+01831MA1999999096541MD1999999+0061REMSYN076AAXX  30124 83242 32496 71402 10234 20187 39654 40146 86550 333 20183 58006;EQDQ01  00002PRCP99
0179832420999992002013018004-12570-041380FM-12+042799999V0201801N001519999999N0040001N1+03101+01871100991ADDAA199000091GF108991001001999999001071MA1999999096111MD1999999+0041MW1051REMSYN076AAXX  30184 83242 31996 81803 10310 20187 39611 40099 705// 80007 333 58004;EQDQ01  00002PRCP99
0208832420999992002013100004-12570-041380FM-12+042799999V0202701N001512200019N0020001N1+02401+01771101121ADDAA199000091GA1001+999999999GF100991001001999999001001KA1240M+03181MA1999999096201MD1999999+0021REMSYN082AAXX  31004 83242 32995 02703 10240 20177 39620 40112 333 10318 29065 55078 58002;EQDQ01  00002PRCP99
0198832420999992002013112004-12570-041380FM-12+042799999V0200501N001010042019N0040001N1+02281+01881101521ADDAA199000091GF107991061071004501081001KA1240N+02131MA1999999096581MD1999999+0041MW1051REMSYN082AAXX  31124 83242 31496 70502 10228 20188 39658 40152 705// 86780 333 20213 58004;EQDQ01  00002PRCP99
0179832420999992002013118004-12570-041380FM-12+042799999V0201801N001510450019N0040001N1+03061+01991100961ADDAA199000091GF105991031041004501081011MA1999999096101MD1999999-0011MW1051REMSYN076AAXX  31184 83242 31496 51803 10306 20199 39610 40096 705// 83481 333 59001;EQDQ01  00002PRCP99
0208832420999992002020100004-12570-041380FM-12+042799999V0202301N001012200019N0020001N1+02581+01971101141ADDAA199000091GA1001+999999999GF100991001001999999001001KA1240M+03141MA1999999096241MD1999999+0041REMSYN082AAXX  01004 83242 32995 02302 10258 20197 39624 40114 333 10314 29067 55078 58004;EQDQ01  00002PRCP99
0198832420999992002020112004-12570-041380FM-12+042799999V0203601N001510042019N0040001N1+02481+01981101491ADDAA199000091GF106991051071004501081001KA1240N+02131MA1999999096591MD1999999+0011MW1051REMSYN082AAXX  01124 83242 32496 63603 10248 20198 39659 40149 705// 85780 333 20213 58001;EQDQ01  00002PRCP99
0167832420999992002020118004-12570-041380FM-12+042799999V0202301N001510450019N0100001N1+03241+01931100891ADDAA199000091GF108991031031004501081051MA1999999096061MD1999999-0041REMSYN070AAXX  01184 83242 32497 82303 10324 20193 39606 40089 83385 333 59004;EQDQ01  00002PRCP99
0198832420999992002020200004-12570-041380FM-12+042799999V0202301N000512200019N0020001N1+02661+01951101071ADDAA199000091GF104991041001012501011001KA1240M+03341MA1999999096191MD1999999-0051REMSYN088AAXX  02004 83242 32695 42301 10266 20195 39619 40107 84010 333 10334 29062 55093 59005;EQDQ01  00002PRCP99
0198832420999992002020212004-12570-041380FM-12+042799999V0200901N000510042019N0040001N1+02481+02051101391ADDAA199000091GF107991061051004501051001KA1240N+02151MA1999999096501MD1999999-0091MW1051REMSYN082AAXX  02124 83242 31496 70901 10248 20205 39650 40139 705// 86550 333 20215 59009;EQDQ01  00002PRCP99
0179832420999992002020218004-12570-041380FM-12+042799999V0201401N001011050019N0040001N1+03021+02101100851ADDAA199000091GF107991021031004501001021MA1999999096001MD1999999-0061MW1051REMSYN076AAXX  02184 83242 31496 71402 10302 20210 39600 40085 705// 82302 333 59006;EQDQ01  00002PRCP99
0198832420999992002020300004-12570-041380FM-12+042799999V0201801N001012200019N0020001N1+02621+02161101031ADDAA199000091GF104991041071004501001001KA1240M+03141MA1999999096151MD1999999-0041REMSYN088AAXX  03004 83242 32495 41802 10262 20216 39615 40103 84700 333 10314 29072 55060 59004;EQDQ01  00002PRCP99
0198832420999992002020312004-12570-041380FM-12+042799999V0201401N001510450019N0040001N1+02661+02091101091ADDAA199000091GF107991021031004501031051KA1240N+02141MA1999999096231MD1999999-0271MW1051REMSYN082AAXX  03124 83242 31496 71403 10266 20209 39623 40109 705// 82335 333 20214 59027;EQDQ01  00002PRCP99
0182832420999992002020318004-12570-041380FM-12+042799999V0202701N006210042019N0020001N1+02701+02031100731ADDAA106000591AY141061AY221061GF108991081071004501999999MA1999999095861MD1999999-0141MW1531REMSYN082AAXX  03184 83242 21495 82712 10270 20203 39586 40073 75342 887// 333 59014 69941;
0213832420999992002020400004-12570-041380FM-12+042799999V0201801N003110042019N0005001N1+02121+02091101221ADDAA106019191AY191061AY261061GF108991081071004501999999KA1240M+03261MA1999999096311MD1999999+0161MW1101REMSYN100AAXX  04004 83242 21493 81806 10212 20209 39631 40122 71096 887// 333 10326 29084 55021 58016 60191;
0201832420999992002020412004-12570-041380FM-12+042799999V0201401N000510042019N0040001N1+02221+02171101321ADDAA124029091AY161061AY221061GF108991081071004501999999KA1240N+02011MA1999999096351MD1999999+0121MW1601REMSYN088AAXX  04124 83242 21496 81401 10222 20217 39635 40132 76062 887// 333 20201 58012 60294;
0182832420999992002020418004-12570-041380FM-12+042799999V0203601N001510042019N0020001N1+02401+02311101061ADDAA106010991AY161061AY221061GF108991081071004501999999MA1999999096121MD1999999+0261MW1291REMSYN082AAXX  04184 83242 21495 83603 10240 20231 39612 40106 72962 887// 333 58026 60111;
0213832420999992002020500004-12570-041380FM-12+042799999V0200901N001010042019N0010001N1+02221+02201101231ADDAA106007991AY191061AY261061GF108991081071004501999999KA1240M+02731MA1999999096271MD1999999-0041MW1511REMSYN100AAXX  05004 83242 21494 80902 10222 20220 39627 40123 75196 887// 333 10273 29098 55092 59004 60081;
0201832420999992002020512004-12570-041380FM-12+042799999V0209999C000010042019N0020001N1+02121+02071101591ADDAA124025991AY161061AY251061GF108991081071004501999999KA1240N+02031MA1999999096621MD1999999+0271MW1101REMSYN088AAXX  05124 83242 21495 80000 10212 20207 39662 40159 71065 887// 333 20203 58027 60264;
0182832420999992002020518004-12570-041380FM-12+042799999V0201401N001010042019N0100001N1+02821+02101101091ADDAA106000591AY151061AY221061GF106991051071004501031001MA1999999096181MD1999999+0061MW1031REMSYN082AAXX  05184 83242 21497 61402 10282 20210 39618 40109 70352 85730 333 58006 69941;
0213832420999992002020600004-12570-041380FM-12+042799999V0203601N003610042019N0020001N1+02281+02111101381ADDAA106000791AY141061AY221061GF108991081071004501999999KA1240M+02861MA1999999096421MD1999999+0151MW1051REMSYN100AAXX  06004 83242 21495 83607 10228 20211 39642 40138 70542 887// 333 10286 29086 55025 58015 69901;
0201832420999992002020612004-12570-041380FM-12+042799999V0209999C000010042019N0020001N1+02091+02051101521ADDAA124047091AY161061AY241061GF108991081071004501999999KA1240N+01981MA1999999096551MD1999999-0071MW1501REMSYN088AAXX  06124 83242 21495 80000 10209 20205 39655 40152 75064 887// 333 20198 59007 60474;
0182832420999992002020618004-12570-041380FM-12+042799999V0200901N000510042019N0020001N1+02261+02181101341ADDAA106007191AY141061AY221061GF108991081071004501999999MA1999999096371MD1999999+0191MW1611REMSYN082AAXX  06184 83242 21495 80901 10226 20218 39637 40134 76142 887// 333 58019 60071;
0167832420999992002020718004-12570-041380FM-12+042799999V0201401N001510450019N0100001N1+02801+02151101061ADDAA199000091GF106991041071004501031001MA1999999096151MD1999999-0221REMSYN070AAXX  07184 83242 32497 61403 10280 20215 39615 40106 84730 333 59022;EQDQ01  00002PRCP99
0208832420999992002020800004-12570-041380FM-12+042799999V0209999C000012200019N0020001N1+02321+02031101321ADDAA199000091GA1001+999999999GF100991001001999999001001KA1240M+02921MA1999999096371MD1999999-0131REMSYN082AAXX  08004 83242 32995 00000 10232 20203 39637 40132 333 10292 29082 55044 59013;EQDQ01  00002PRCP99
0186832420999992002020812004-12570-041380FM-12+042799999V0201401N001010450019N0100001N1+02411+01931101521ADDAA199000091GF106991041071004501061001KA1240N+02091MA1999999096581MD1999999-0091REMSYN076AAXX  08124 83242 32497 61402 10241 20193 39658 40152 84760 333 20209 59009;EQDQ01  00002PRCP99
0179832420999992002020818004-12570-041380FM-12+042799999V0201401N003110042019N0040001N1+02881+01941101141ADDAA199000091GF107991051071004501081031MA1999999096261MD1999999+0111MW1051REMSYN076AAXX  08184 83242 31496 71406 10288 20194 39626 40114 705// 85783 333 58011;EQDQ01  00002PRCP99
0198832420999992002020900004-12570-041380FM-12+042799999V0200901N000510042019N0020001N1+02321+02001101301ADDAA199000091GF106991051051004501011001KA1240M+02961MA1999999096371MD1999999+0001REMSYN088AAXX  09004 83242 32495 60901 10232 20200 39637 40130 85510 333 10296 29074 55079 58000;EQDQ01  00002PRCP99
0186832420999992002020912004-12570-041380FM-12+042799999V0201801N001510450019N0100001N1+02461+01881101521ADDAA199000091GF106991041021004501081011KA1240N+01931MA1999999096591MD1999999+0011REMSYN076AAXX  09124 83242 32497 61803 10246 20188 39659 40152 84281 333 20193 58001;EQDQ01  00002PRCP99
0167832420999992002020918004-12570-041380FM-12+042799999V0201801N001510450019N0100001N1+02981+01921101131ADDAA199000091GF105991031031004501081011MA1999999096251MD1999999-0011REMSYN070AAXX  09184 83242 32497 51803 10298 20192 39625 40113 83381 333 59001;EQDQ01  00002PRCP99
0202832420999992002021000004-12570-041380FM-12+042799999V0202301N000512200019N0020001N1+99999+99999101301ADDAA199000091GA1001+999999999GF100991001001999999001001KA1240M+03001MA1999999096391MD1999999+0021REMSYN076AAXX  10004 83242 32995 02301 20191 39639 40130 333 10300 29068 55113 58002;EQDQ01  00002PRCP99
0201832420999992002021012004-12570-041380FM-12+042799999V0201801N001010042019N0040001N1+02341+02051101561ADDAA124002091AY161061AY211061GF107991061071004501081001KA1240N+02071MA1999999096621MD1999999+0031MW1101REMSYN088AAXX  10124 83242 21496 71802 10234 20205 39662 40156 71061 86780 333 20207 58003 60024;
0167832420999992002021018004-12570-041380FM-12+042799999V0201401N002110450019N0100001N1+03001+02001101061ADDAA199000091GF106991041031004501081061MA1999999096191MD1999999-0061REMSYN070AAXX  10184 83242 32497 61404 10300 20200 39619 40106 84386 333 59006;EQDQ01  00002PRCP99
0213832420999992002021100004-12570-041380FM-12+042799999V0200901N001010042019N0020001N1+02541+02091101351ADDAA106000791AY191061AY251061GF108991081071004501999999KA1240M+03101MA1999999096441MD1999999+0031MW1291REMSYN100AAXX  11004 83242 21495 80902 10254 20209 39644 40135 72995 887// 333 10310 29073 55080 58003 69901;
0201832420999992002021112004-12570-041380FM-12+042799999V0201801N001510042019N0040001N1+02341+02071101481ADDAA124004191AY161061AY221061GF108991081071004501999999KA1240N+01971MA1999999096561MD1999999-0061MW1101REMSYN088AAXX  11124 83242 21496 81803 10234 20207 39656 40148 71062 887// 333 20197 59006 60044;
0167832420999992002021118004-12570-041380FM-12+042799999V0201801N003110450019N0100001N1+02961+02021101011ADDAA199000091GF106991031031004501081021MA1999999096141MD1999999-0051REMSYN070AAXX  11184 83242 32497 61806 10296 20202 39614 40101 83382 333 59005;EQDQ01  00002PRCP99
0213832420999992002021200004-12570-041380FM-12+042799999V0202301N001010042019N0020001N1+02211+01821101481ADDAA106001091AY191061AY261061GF107991061071004501011001KA1240M+03041MA1999999096531MD1999999+0091MW1031REMSYN100AAXX  12004 83242 21495 72302 10221 20182 39653 40148 70396 86710 333 10304 29074 55080 58009 60011;
0185832420999992002021212004-12570-041380FM-12+042799999V0201801N003110450019N0040001N1+02321+01941101721ADDAA124001091GF107991041071004501081021KA1240N+01941MA1999999096751MD1999999+0191MW1051REMSYN088AAXX  12124 83242 22496 71806 10232 20194 39675 40172 705// 84782 333 20194 58019 60014;
0179832420999992002021218004-12570-041380FM-12+042799999V0201801N002610450019N0100001N1+02901+01871101261ADDAA199000091GF108991021031004501081071MA1999999096351MD1999999+0211MW1051REMSYN076AAXX  12184 83242 31497 81805 10290 20187 39635 40126 705// 82387 333 58021;EQDQ01  00002PRCP99
0213832420999992002021300004-12570-041380FM-12+042799999V0203601N000510042019N0020001N1+02261+02071101411ADDAA106003091AY191061AY261061GF106991061071004501001001KA1240M+03021MA1999999096461MD1999999+0071MW1031REMSYN100AAXX  13004 83242 21495 63601 10226 20207 39646 40141 70396 86700 333 10302 29078 55079 58007 60031;
0173832420999992002021312004-12570-041380FM-12+042799999V0201801N001510042019N0100001N1+02421+01821101631ADDAA124003091GF106991051071004501081001KA1240N+02011MA1999999096681MD1999999-0071REMSYN082AAXX  13124 83242 22497 61803 10242 20182 39668 40163 85780 333 20201 59007 60034;
0167832420999992002021318004-12570-041380FM-12+042799999V0201401N001510042019N0100001N1+02921+01741101201ADDAA199000091GF106991051011004501081001MA1999999096301MD1999999-0051REMSYN070AAXX  13184 83242 32497 61403 10292 20174 39630 40120 85180 333 59005;EQDQ01  00002PRCP99
0198832420999992002021412004-12570-041380FM-12+042799999V0203601N001510450019N0100001N1+02421+01791101561ADDAA199000091GF108991031011004501081071KA1240N+01991MA1999999096621MD1999999-0061MW1051REMSYN082AAXX  14124 83242 31497 83603 10242 20179 39662 40156 705// 83187 333 20199 59006;EQDQ01  00002PRCP99
0179832420999992002021418004-12570-041380FM-12+042799999V0201401N001510450019N0100001N1+03041+01781101081ADDAA199000091GF108991031031004501081071MA1999999096201MD1999999-0101MW1051REMSYN076AAXX  14184 83242 31497 81403 10304 20178 39620 40108 705// 83387 333 59010;EQDQ01  00002PRCP99
0198832420999992002021500004-12570-041380FM-12+042799999V0201801N001012200019N0020001N1+02621+01981101431ADDAA199000091GF101991011071004501001001KA1240M+03161MA1999999096531MD1999999+0081REMSYN088AAXX  15004 83242 32495 11802 10262 20198 39653 40143 81700 333 10316 29063 55113 58008;EQDQ01  00002PRCP99
0198832420999992002021512004-12570-041380FM-12+042799999V0202301N000510450019N0100001N1+02461+02031101511ADDAA199000091GF106991021041004501031071KA1240N+02171MA1999999096611MD1999999-0011MW1051REMSYN082AAXX  15124 83242 31497 62301 10246 20203 39661 40151 705// 82437 333 20217 59001;EQDQ01  00002PRCP99
0179832420999992002021518004-12570-041380FM-12+042799999V0201801N002110450019N0040001N1+03061+02111101111ADDAA199000091GF105991041041004501031001MA1999999096241MD1999999+0041MW1051REMSYN076AAXX  15184 83242 31496 51804 10306 20211 39624 40111 705// 84430 333 58004;EQDQ01  00002PRCP99
0198832420999992002021600004-12570-041380FM-12+042799999V0201401N001512200019N0020001N1+02521+02001101381ADDAA199000091GF103991031021004501001001KA1240M+03151MA1999999096481MD1999999-0051REMSYN088AAXX  16004 83242 32495 31403 10252 20200 39648 40138 83200 333 10315 29070 55088 59005;EQDQ01  00002PRCP99
0198832420999992002021612004-12570-041380FM-12+042799999V0201401N001010042019N0040001N1+02451+02131101421ADDAA199000091GF108991071061004501001051KA1240N+02211MA1999999096521MD1999999-0091MW1101REMSYN082AAXX  16124 83242 31496 81402 10245 20213 39652 40142 710// 87605 333 20221 59009;EQDQ01  00002PRCP99
0179832420999992002021618004-12570-041380FM-12+042799999V0201801N001010450019N0040001N1+03001+01941101181ADDAA199000091GF106991041051004501031041MA1999999096311MD1999999+0071MW1051REMSYN076AAXX  16184 83242 31496 61802 10300 20194 39631 40118 705// 84534 333 58007;EQDQ01  00002PRCP99
0198832420999992002021700004-12570-041380FM-12+042799999V0202701N001510042019N0020001N1+02481+02051101301ADDAA199000091GF107991061071004501081001KA1240M+03101MA1999999096391MD1999999-0091REMSYN088AAXX  17004 83242 32495 72703 10248 20205 39639 40130 86780 333 10310 29072 55058 59009;EQDQ01  00002PRCP99
0198832420999992002021712004-12570-041380FM-12+042799999V0201801N001010042019N0040001N1+02321+02131101501ADDAA199000091GF108991081071004501999999KA1240N+02211MA1999999096571MD1999999+0051MW1101REMSYN082AAXX  17124 83242 31496 81802 10232 20213 39657 40150 710// 887// 333 20221 58005;EQDQ01  00002PRCP99
0179832420999992002021718004-12570-041380FM-12+042799999V0201401N001010450019N0040001N1+02901+01901101141ADDAA199000091GF106991041051004501031051MA1999999096261MD1999999-0051MW1051REMSYN076AAXX  17184 83242 31496 61402 10290 20190 39626 40114 705// 84535 333 59005;EQDQ01  00002PRCP99
0198832420999992002021800004-12570-041380FM-12+042799999V0200901N000512200019N0020001N1+02511+02171101231ADDAA199000091GF102991021011004501001001KA1240M+03041MA1999999096321MD1999999-0071REMSYN088AAXX  18004 83242 32495 20901 10251 20217 39632 40123 82100 333 10304 29076 55042 59007;EQDQ01  00002PRCP99
0201832420999992002021812004-12570-041380FM-12+042799999V0200501N000510042019N0040001N1+02361+02031101421ADDAA106000791AY151061AY221061GF108991081071004501999999KA1240N+02191MA1999999096511MD1999999-0061MW1101REMSYN088AAXX  18124 83242 21496 80501 10236 20203 39651 40142 71052 887// 333 20219 59006 69901;
0179832420999992002021818004-12570-041380FM-12+042799999V0201801N001510450019N0040001N1+03001+01781101001ADDAA199000091GF105991031041004501031041MA1999999096141MD1999999-0121MW1051REMSYN076AAXX  18184 83242 31496 51803 10300 20178 39614 40100 705// 83434 333 59012;EQDQ01  00002PRCP99
0210832420999992002021900004-12570-041380FM-12+042799999V0203601N000512200019N0010001N1+02481+02031101181ADDAA199000091GF101991011001004501051001KA1240M+03101MA1999999096271MD1999999-0051MW1051REMSYN094AAXX  19004 83242 31494 13601 10248 20203 39627 40118 705// 81050 333 10310 29071 55071 59005;EQDQ01  00002PRCP99
0186832420999992002021912004-12570-041380FM-12+042799999V0201401N001010042019N0100001N1+02471+02071101461ADDAA199000091GF106991061071004501001001KA1240N+02261MA1999999096551MD1999999+0041REMSYN076AAXX  19124 83242 32497 61402 10247 20207 39655 40146 86700 333 20226 58004;EQDQ01  00002PRCP99
0167832420999992002021918004-12570-041380FM-12+042799999V0201401N001510450019N0100001N1+03081+01951100961ADDAA199000091GF106991041021004501061001MA1999999096121MD1999999-0021REMSYN070AAXX  19184 83242 32497 61403 10308 20195 39612 40096 84260 333 59002;EQDQ01  00002PRCP99
0198832420999992002022000004-12570-041380FM-12+042799999V0201801N000512200019N0020001N1+02481+01981101151ADDAA199000091GF102991021001022501051001KA1240M+03181MA1999999096261MD1999999-0011REMSYN088AAXX  20004 83242 32895 21801 10248 20198 39626 40115 82050 333 10318 29069 55086 59001;EQDQ01  00002PRCP99
0186832420999992002022012004-12570-041380FM-12+042799999V0201801N001510450019N0100001N1+02541+02021101551ADDAA199000091GF106991041071004501031001KA1240N+02261MA1999999096641MD1999999+0091REMSYN076AAXX  20124 83242 32497 61803 10254 20202 39664 40155 84730 333 20226 58009;EQDQ01  00002PRCP99
0179832420999992002022018004-12570-041380FM-12+042799999V0201801N002110042019N0040001N1+03021+01861101181ADDAA199000091GF106991051051004501061001MA1999999096321MD1999999+0201MW1051REMSYN076AAXX  20184 83242 31496 61804 10302 20186 39632 40118 705// 85560 333 58020;EQDQ01  00002PRCP99
0198832420999992002022100004-12570-041380FM-12+042799999V0209999C000012200019N0020001N1+02441+01791101221ADDAA199000091GF103991031001017501051001KA1240M+03121MA1999999096331MD1999999+0071REMSYN088AAXX  21004 83242 32795 30000 10244 20179 39633 40122 83050 333 10312 29064 55088 58007;EQDQ01  00002PRCP99
0198832420999992002022112004-12570-041380FM-12+042799999V0201401N001510042019N0040001N1+02531+02001101421ADDAA199000091GF107991051061004501071001KA1240N+01951MA1999999096521MD1999999-0121MW1051REMSYN082AAXX  21124 83242 31496 71403 10253 20200 39652 40142 705// 85670 333 20195 59012;EQDQ01  00002PRCP99
0179832420999992002022118004-12570-041380FM-12+042799999V0201801N002110450019N0040001N1+03101+01731101081ADDAA199000091GF105991031031004501051041MA1999999096201MD1999999-0121MW1051REMSYN076AAXX  21184 83242 31496 51804 10310 20173 39620 40108 705// 83354 333 59012;EQDQ01  00002PRCP99
0208832420999992002022200004-12570-041380FM-12+042799999V0209999C000012200019N0020001N1+02381+01801101121ADDAA199000091GA1001+999999999GF100991001001999999001001KA1240M+03101MA1999999096221MD1999999-0101REMSYN082AAXX  22004 83242 32995 00000 10238 20180 39622 40112 333 10310 29064 55104 59010;EQDQ01  00002PRCP99
0198832420999992002022212004-12570-041380FM-12+042799999V0201401N001010042019N0040001N1+02321+01811101371ADDAA199000091GF106991051071004501061001KA1240N+01911MA1999999096441MD1999999-0081MW1051REMSYN082AAXX  22124 83242 31496 61402 10232 20181 39644 40137 705// 85760 333 20191 59008;EQDQ01  00002PRCP99
0179832420999992002022218004-12570-041380FM-12+042799999V0201401N001511050019N0040001N1+03161+01791100891ADDAA199000091GF108991011021004501001071MA1999999096021MD1999999-0181MW1051REMSYN076AAXX  22184 83242 31496 81403 10316 20179 39602 40089 705// 81207 333 59018;EQDQ01  00002PRCP99
0198832420999992002022300004-12570-041380FM-12+042799999V0209999C000012200019N0020001N1+02561+01971100991ADDAA199000091GF103991031001017501051001KA1240M+03231MA1999999096101MD1999999-0111REMSYN088AAXX  23004 83242 32795 30000 10256 20197 39610 40099 83050 333 10323 29064 55084 59011;EQDQ01  00002PRCP99
0198832420999992002022312004-12570-041380FM-12+042799999V0201801N000510042019N0040001N1+02321+02031101391ADDAA199000091GF107991061061004501051001KA1240N+01871MA1999999096481MD1999999+0041MW1101REMSYN082AAXX  23124 83242 31496 71801 10232 20203 39648 40139 710// 86650 333 20187 58004;EQDQ01  00002PRCP99
0208832420999992002022400004-12570-041380FM-12+042799999V0209999C000012200019N0020001N1+02571+01901101151ADDAA199000091GA1001+999999999GF100991001001999999001001KA1240M+03321MA1999999096251MD1999999+0151REMSYN082AAXX  24004 83242 32995 00000 10257 20190 39625 40115 333 10332 29064 55083 58015;EQDQ01  00002PRCP99
0198832420999992002022412004-12570-041380FM-12+042799999V0201801N001511050019N0040001N1+02541+02041101411ADDAA199000091GF108991031021004501001071KA1240N+01861MA1999999096521MD1999999+0051MW1051REMSYN082AAXX  24124 83242 31496 81803 10254 20204 39652 40141 705// 83207 333 20186 58005;EQDQ01  00002PRCP99
0179832420999992002022418004-12570-041380FM-12+042799999V0200901N002610450019N0040001N1+03511+01651101061ADDAA199000091GF108991021011004501011071MA1999999096241MD1999999+0121MW1051REMSYN076AAXX  24184 83242 31496 80905 10351 20165 39624 40106 705// 82117 333 58012;EQDQ01  00002PRCP99
0179832420999992002022518004-12570-041380FM-12+042799999V0201801N001510450019N0040001N1+03201+01751101171ADDAA199000091GF108991021051004501031071MA1999999096281MD1999999+0041MW1051REMSYN076AAXX  25184 83242 31496 81803 10320 20175 39628 40117 705// 82537 333 58004;EQDQ01  00002PRCP99
0198832420999992002022600004-12570-041380FM-12+042799999V0209999C000010042019N0020001N1+02571+02011101281ADDAA199000091GF106991051041004501011001KA1240M+03141MA1999999096361MD1999999+0111REMSYN088AAXX  26004 83242 32495 60000 10257 20201 39636 40128 85410 333 10314 29066 55073 58011;EQDQ01  00002PRCP99
0186832420999992002022612004-12570-041380FM-12+042799999V0201401N001010042019N0100001N1+02361+01931101571ADDAA199000091GF106991051061004501031001KA1240N+02131MA1999999096651MD1999999+0081REMSYN076AAXX  26124 83242 32497 61402 10236 20193 39665 40157 85630 333 20213 58008;EQDQ01  00002PRCP99
0179832420999992002022618004-12570-041380FM-12+042799999V0201401N001510450019N0040001N1+03101+01871101241ADDAA199000091GF108991031031004501031071MA1999999096341MD1999999+0061MW1051REMSYN076AAXX  26184 83242 31496 81403 10310 20187 39634 40124 705// 83337 333 58006;EQDQ01  00002PRCP99
0198832420999992002022700004-12570-041380FM-12+042799999V0209999C000012200019N0020001N1+02421+01791101371ADDAA199000091GF102991021001017501031001KA1240M+03081MA1999999096451MD1999999+0091REMSYN088AAXX  27004 83242 32795 20000 10242 20179 39645 40137 82030 333 10308 29065 55088 58009;EQDQ01  00002PRCP99
0198832420999992002022712004-12570-041380FM-12+042799999V0201401N001510042019N0040001N1+02421+01931101641ADDAA199000091GF108991051071004501031061KA1240N+02051MA1999999096711MD1999999+0061MW1051REMSYN082AAXX  27124 83242 31496 81403 10242 20193 39671 40164 705// 85736 333 20205 58006;EQDQ01  00002PRCP99
0179832420999992002022718004-12570-041380FM-12+042799999V0201401N001510450019N0040001N1+03001+01711101321ADDAA199000091GF108991031041004501031071MA1999999096421MD1999999+0081MW1051REMSYN076AAXX  27184 83242 31496 81403 10300 20171 39642 40132 705// 83437 333 58008;EQDQ01  00002PRCP99
0198832420999992002022800004-12570-041380FM-12+042799999V0203601N001512200019N0020001N1+02361+01781101251ADDAA199000091GF104991011021004501031001KA1240M+03061MA1999999096341MD1999999-0111REMSYN088AAXX  28004 83242 32495 43603 10236 20178 39634 40125 81230 333 10306 29065 55083 59011;EQDQ01  00002PRCP99
0186832420999992002022812004-12570-041380FM-12+042799999V0201401N001010450019N0100001N1+02461+01811101531ADDAA199000091GF107991041071004501061001KA1240N+02071MA1999999096601MD1999999-0111REMSYN076AAXX  28124 83242 32497 71402 10246 20181 39660 40153 84760 333 20207 59011;EQDQ01  00002PRCP99
0179832420999992002022818004-12570-041380FM-12+042799999V0201801N002110450019N0040001N1+02841+01791101261ADDAA199000091GF106991041051004501091061MA1999999096531MD1999999-0071MW1041REMSYN076AAXX  28184 83242 31496 61804 10284 20179 39653 40126 704// 84596 333 59007;EQDQ01  00002PRCP99
0198832420999992002030100004-12570-041380FM-12+042799999V0209999C000012200019N0020001N1+02341+01741101231ADDAA199000091GF102991021001999999041001KA1240M+03011MA1999999096321MD1999999-0021REMSYN088AAXX  01004 83242 32995 20000 10234 20174 39632 40123 82040 333 10301 29065 55067 59002;EQDQ01  00002PRCP99
0201832420999992002030112004-12570-041380FM-12+042799999V0201801N000510042019N0040001N1+02301+01941101521ADDAA124000591AY151061AY211061GF107991061071004501031001KA1240N+02111MA1999999096571MD1999999-0031MW1031REMSYN088AAXX  01124 83242 21496 71801 10230 20194 39657 40152 70351 86730 333 20211 59003 69964;
0179832420999992002030118004-12570-041380FM-12+042799999V0201801N003110450019N0040001N1+03001+01611101231ADDAA199000091GF108991031051004501081071MA1999999096341MD1999999-0011MW1051REMSYN076AAXX  01184 83242 31496 81806 10300 20161 39634 40123 705// 83587 333 59001;EQDQ01  00002PRCP99
0179832420999992002030218004-12570-041380FM-12+042799999V0201801N002110450019N0040001N1+03001+01811101241ADDAA199000091GF105991041051004501031001MA1999999096351MD1999999+0011MW1051REMSYN076AAXX  02184 83242 31496 51804 10300 20181 39635 40124 705// 84530 333 58001;EQDQ01  00002PRCP99
0201832420999992002030412004-12570-041380FM-12+042799999V0201801N001010042019N0040001N1+02331+02231101431ADDAA124000791AY151061AY211061GF107991061071004501061001KA1240N+02011MA1999999096501MD1999999-0061MW1031REMSYN088AAXX  04124 83242 21496 71802 10233 20223 39650 40143 70351 86760 333 20201 59006 69904;
0198832420999992002030500004-12570-041380FM-12+042799999V0201801N001510042019N0020001N1+02491+02111101361ADDAA199000091GF105991051061004501001001KA1240M+03021MA1999999096441MD1999999+0061REMSYN088AAXX  05004 83242 32495 51803 10249 20211 39644 40136 85600 333 10302 29075 55035 58006;EQDQ01  00002PRCP99
0201832420999992002030512004-12570-041380FM-12+042799999V0203601N001510042019N0040001N1+02181+02031101551ADDAA124002091AY161061AY251061GF108991081071004501999999KA1240N+02111MA1999999096611MD1999999+0111MW1101REMSYN088AAXX  05124 83242 21496 83603 10218 20203 39661 40155 71065 887// 333 20211 58011 60024;
0182832420999992002030518004-12570-041380FM-12+042799999V0200901N001510042019N0040001N1+02581+01871101331ADDAA106000791AY151061AY221061GF108991081071004501999999MA1999999096411MD1999999+0141MW1161REMSYN082AAXX  05184 83242 21496 80903 10258 20187 39641 40133 71652 887// 333 58014 69901;
0213832420999992002030600004-12570-041380FM-12+042799999V0203601N001010042019N0010001N1+02101+02031101491ADDAA106002091AY161061AY221061GF108991081071004501999999KA1240M+02661MA1999999096511MD1999999+0071MW1101REMSYN100AAXX  06004 83242 21494 83602 10210 20203 39651 40149 71062 887// 333 10266 29087 55000 58007 60021;
0201832420999992002030612004-12570-041380FM-12+042799999V0201801N001510042019N0020001N1+02181+02101101551ADDAA124002091AY161061AY221061GF108991081071004501999999KA1240N+01911MA1999999096571MD1999999-0041MW1511REMSYN088AAXX  06124 83242 21495 81803 10218 20210 39657 40155 75162 887// 333 20191 59004 60024;
0182832420999992002030618004-12570-041380FM-12+042799999V0201801N001510450019N0040001N1+03001+01711101261ADDAA106000791AY151061AY221061GF106991041061004501091021MA1999999096351MD1999999-0061MW1051REMSYN082AAXX  06184 83242 21496 61803 10300 20171 39635 40126 70552 84692 333 59006 69901;
0213832420999992002030700004-12570-041380FM-12+042799999V0201801N001510042019N0020001N1+02461+02111101351ADDAA106000791AY151061AY221061GF106991061071004501001001KA1240M+03021MA1999999096411MD1999999-0101MW1031REMSYN100AAXX  07004 83242 21495 61803 10246 20211 39641 40135 70352 86700 333 10302 29076 55046 59010 69901;
0201832420999992002030712004-12570-041380FM-12+042799999V0201401N001010042019N0040001N1+02421+02111101541ADDAA124000391AY151061AY221061GF107991061071004501031001KA1240N+02091MA1999999096621MD1999999+0071MW1031REMSYN088AAXX  07124 83242 21496 71402 10242 20211 39662 40154 70352 86730 333 20209 58007 69934;
0179832420999992002030718004-12570-041380FM-12+042799999V0201401N002110450019N0040001N1+03021+01891101231ADDAA199000091GF106991041061004501081041MA1999999096351MD1999999+0001MW1151REMSYN076AAXX  07184 83242 31496 61404 10302 20189 39635 40123 715// 84684 333 58000;EQDQ01  00002PRCP99
0213832420999992002030800004-12570-041380FM-12+042799999V0209999C000010042019N0020001N1+02421+02191101481ADDAA106001091AY161061AY221061GF108991081071004501999999KA1240M+03081MA1999999096551MD1999999+0141MW1031REMSYN100AAXX  08004 83242 21495 80000 10242 20219 39655 40148 70362 887// 333 10308 29077 55062 58014 60011;
0201832420999992002030812004-12570-041380FM-12+042799999V0201801N001510450019N0100001N1+02391+02091101691ADDAA124002091AY151061AY221061GF106991041071004501031051KA1240N+02171MA1999999096751MD1999999+0131MW1011REMSYN088AAXX  08124 83242 21497 61803 10239 20209 39675 40169 70152 84735 333 20217 58013 60024;
0179832420999992002030818004-12570-041380FM-12+042799999V0201801N003110450019N0040001N1+03121+01791101241ADDAA199000091GF106991041051004501091061MA1999999096371MD1999999+0021MW1051REMSYN076AAXX  08184 83242 31496 61806 10312 20179 39637 40124 705// 84596 333 58002;EQDQ01  00002PRCP99
0198832420999992002030900004-12570-041380FM-12+042799999V0201801N001010042019N0020001N1+02341+02051101441ADDAA199000091GF107991071061004501001001KA1240M+03051MA1999999096521MD1999999+0031REMSYN088AAXX  09004 83242 32495 71802 10234 20205 39652 40144 87600 333 10305 29074 55083 58003;EQDQ01  00002PRCP99
0201832420999992002030912004-12570-041380FM-12+042799999V0201801N001510450019N0100001N1+02401+01971101581ADDAA124000191AY151061AY221061GF106991041071004501031011KA1240N+02171MA1999999096641MD1999999-0111MW1011REMSYN088AAXX  09124 83242 21497 61803 10240 20197 39664 40158 70152 84731 333 20217 59011 69924;
0182832420999992002030918004-12570-041380FM-12+042799999V0201401N002110042019N0040001N1+03101+01801101201ADDAA106000791AY151061AY221061GF106991051061004501031001MA1999999096341MD1999999-0031MW1051REMSYN082AAXX  09184 83242 21496 61404 10310 20180 39634 40120 70552 85630 333 59003 69901;
0198832420999992002031000004-12570-041380FM-12+042799999V0202301N001010042019N0020001N1+02361+02011101411ADDAA199000091GF106991061071004501001001KA1240M+03121MA1999999096491MD1999999-0061REMSYN088AAXX  10004 83242 32495 62302 10236 20201 39649 40141 86700 333 10312 29071 55082 59006;EQDQ01  00002PRCP99
0173832420999992002031012004-12570-041380FM-12+042799999V0201401N001510042019N0100001N1+02521+01931101571ADDAA124000791GF106991061071004501001001KA1240N+02131MA1999999096651MD1999999+0011REMSYN082AAXX  10124 83242 22497 61403 10252 20193 39665 40157 86700 333 20213 58001 69904;
0198832420999992002031100004-12570-041380FM-12+042799999V0201801N003110042019N0020001N1+02431+02071101511ADDAA199000091GF108991081071004501999999KA1240M+02961MA1999999096601MD1999999+0111REMSYN088AAXX  11004 83242 32495 81806 10243 20207 39660 40151 887// 333 10296 29071 55046 58011;EQDQ01  00002PRCP99
0201832420999992002031112004-12570-041380FM-12+042799999V0201401N002110042019N0020001N1+02241+02031101691ADDAA124000591AY161061AY221061GF108991081071004501999999KA1240N+02201MA1999999096741MD1999999+0101MW1511REMSYN088AAXX  11124 83242 21495 81404 10224 20203 39674 40169 75162 887// 333 20220 58010 69944;
0182832420999992002031118004-12570-041380FM-12+042799999V0201801N002110042019N0040001N1+02901+01781101381ADDAA106000791AY151061AY221061GF107991061071004501091001MA1999999096391MD1999999+0061MW1051REMSYN082AAXX  11184 83242 21496 71804 10290 20178 39639 40138 70552 86790 333 58006 69901;
0179832420999992002031200004-12570-041380FM-12+042799999V0201801N001510042019N0020001N1+02481+02011101501ADDAA199000021GF106991061071004501001001KA1240M+02941MA1999999096561MD1999999-0141REMSYN088AAXX  12004 83242 32495 61803 10248 20201 39656 40150 86700 333 10294 29072 55015 59014;
0201832420999992002031212004-12570-041380FM-12+042799999V0201801N002110042019N0040001N1+02391+02091101781ADDAA124000391AY151061AY221061GF106991051071004501051001KA1240N+02091MA1999999096851MD1999999+0111MW1101REMSYN088AAXX  12124 83242 21496 61804 10239 20209 39685 40178 71052 85750 333 20209 58011 69934;
0195832420999992002031218004-12570-041380FM-12+042799999V0202301N001010042019N0040001N1+02801+01951101431ADDAA199000091AY151061AY221061GF107991061071004501091001MA1999999096531MD1999999+0141MW1151REMSYN076AAXX  12184 83242 31496 72302 10280 20195 39653 40143 71552 86790 333 58014;EQDQ01  00002PRCP99
0213832420999992002031300004-12570-041380FM-12+042799999V0201801N002110042019N0020001N1+02421+02131101561ADDAA106000791AY151061AY221061GF108991081071004501999999KA1240M+02881MA1999999096631MD1999999+0071MW1501REMSYN100AAXX  13004 83242 21495 81804 10242 20213 39663 40156 75052 887// 333 10288 29078 55029 58007 69901;
0201832420999992002031312004-12570-041380FM-12+042799999V0201801N002110042019N0040001N1+02341+02071101731ADDAA124003091AY161061AY221061GF106991051071004501031001KA1240N+02151MA1999999096791MD1999999-0061MW1101REMSYN088AAXX  13124 83242 21496 61804 10234 20207 39679 40173 71062 85730 333 20215 59006 60034;
0179832420999992002031318004-12570-041380FM-12+042799999V0201801N002110450019N0040001N1+03101+01801101281ADDAA199000091GF105991031061004501041091MA1999999096411MD1999999-0121MW1051REMSYN076AAXX  13184 83242 31496 51804 10310 20180 39641 40128 705// 83649 333 59012;EQDQ01  00002PRCP99
0208832420999992002031400004-12570-041380FM-12+042799999V0203601N002112200019N0020001N1+02321+01911101341ADDAA199000091GA1001+999999999GF100991001001999999001001KA1240M+03101MA1999999096411MD1999999-0221REMSYN082AAXX  14004 83242 32995 03604 10232 20191 39641 40134 333 10310 29072 55087 59022;EQDQ01  00002PRCP99
0198832420999992002031412004-12570-041380FM-12+042799999V0201801N001510042019N0040001N1+02411+02011101501ADDAA199000091GF107991061071004501041001KA1240N+02191MA1999999096561MD1999999-0231MW1051REMSYN082AAXX  14124 83242 31496 71803 10241 20201 39656 40150 705// 86740 333 20219 59023;EQDQ01  00002PRCP99
0179832420999992002031418004-12570-041380FM-12+042799999V0201401N002112200019N0040001N1+03061+01931101121ADDAA199000091GF104991021031004501031021MA1999999096321MD1999999-0091MW1051REMSYN076AAXX  14184 83242 31496 41404 10306 20193 39632 40112 705// 82332 333 59009;EQDQ01  00002PRCP99
0208832420999992002031500004-12570-041380FM-12+042799999V0203601N000512200019N0020001N1+02501+01961101101ADDAA199000091GA1001+999999999GF100991001001999999001001KA1240M+03121MA1999999096201MD1999999-0211REMSYN082AAXX  15004 83242 32995 03601 10250 20196 39620 40110 333 10312 29068 55060 59021;EQDQ01  00002PRCP99
0198832420999992002031512004-12570-041380FM-12+042799999V0203601N000510042019N0040001N1+02321+01981101441ADDAA199000091GF108991081061004501999999KA1240N+02111MA1999999096521MD1999999-0041MW1101REMSYN082AAXX  15124 83242 31496 83601 10232 20198 39652 40144 710// 886// 333 20211 59004;EQDQ01  00002PRCP99
0179832420999992002031518004-12570-041380FM-12+042799999V0201401N001510450019N0040001N1+03201+01821100951ADDAA199000091GF108991031051004501031071MA1999999096101MD1999999-0021MW1051REMSYN076AAXX  15184 83242 31496 81403 10320 20182 39610 40095 705// 83537 333 59002;EQDQ01  00002PRCP99
0208832420999992002031600004-12570-041380FM-12+042799999V0202701N000512200019N0020001N1+02561+02081101071ADDAA199000091GA1001+999999999GF100991001001999999001001KA1240M+03121MA1999999096171MD1999999-0031REMSYN082AAXX  16004 83242 32995 02701 10256 20208 39617 40107 333 10312 29069 55056 59003;EQDQ01  00002PRCP99
0198832420999992002031612004-12570-041380FM-12+042799999V0201401N001510042019N0040001N1+02361+01991101411ADDAA199000091GF108991081061004501999999KA1240N+02131MA1999999096501MD1999999-0021MW1101REMSYN082AAXX  16124 83242 31496 81403 10236 20199 39650 40141 710// 886// 333 20213 59002;EQDQ01  00002PRCP99
0179832420999992002031618004-12570-041380FM-12+042799999V0201401N002110450019N0040001N1+03201+01661100991ADDAA199000091GF106991031061004501031081MA1999999096141MD1999999+0041MW1051REMSYN076AAXX  16184 83242 31496 61404 10320 20166 39614 40099 705// 83638 333 58004;EQDQ01  00002PRCP99
0210832420999992002031700004-12570-041380FM-12+042799999V0209999C000012200019N0020001N1+02541+02041101101ADDAA199000091GF103991031061004501001001KA1240M+03081MA1999999096201MD1999999+0031MW1131REMSYN094AAXX  17004 83242 31495 30000 10254 20204 39620 40110 713// 83600 333 10308 29068 55045 58003;EQDQ01  00002PRCP99
0186832420999992002031712004-12570-041380FM-12+042799999V0202301N001510042019N0100001N1+02481+02091101351ADDAA199000091GF108991081051004501999999KA1240N+02271MA1999999096451MD1999999-0051REMSYN076AAXX  17124 83242 32497 82303 10248 20209 39645 40135 885// 333 20227 59005;EQDQ01  00002PRCP99
0179832420999992002031718004-12570-041380FM-12+042799999V0200501N001510450019N0040001N1+03061+01901100971ADDAA199000091GF106991041061004501081041MA1999999096131MD1999999-0011MW1051REMSYN076AAXX  17184 83242 31496 60503 10306 20190 39613 40097 705// 84684 333 59001;EQDQ01  00002PRCP99
0198832420999992002031800004-12570-041380FM-12+042799999V0209999C000012200019N0020001N1+02521+02131101101ADDAA199000091GF103991031041004501001001KA1240M+03031MA1999999096211MD1999999+0011REMSYN088AAXX  18004 83242 32495 30000 10252 20213 39621 40110 83400 333 10303 29072 55039 58001;EQDQ01  00002PRCP99
0214832420999992002031812004-12570-041380FM-12+042799999V0200901N000510042019N0040001N1+02361+02011101351ADDAA199000091AY151061AY211061GF108991081071004501999999KA1240N+02261MA1999999096441MD1999999-0011MW1401REMSYN082AAXX  18124 83242 31496 80901 10236 20201 39644 40135 74051 887// 333 20226 59001;EQDQ01  00002PRCP99
0179832420999992002031818004-12570-041380FM-12+042799999V0201801N001512200019N0040001N1+03301+01761100961ADDAA199000091GF104991021041004501031041MA1999999096151MD1999999-0081MW1051REMSYN076AAXX  18184 83242 31496 41803 10330 20176 39615 40096 705// 82434 333 59008;EQDQ01  00002PRCP99
0208832420999992002031900004-12570-041380FM-12+042799999V0209999C000012200019N0020001N1+02501+01941100971ADDAA199000091GA1001+999999999GF100991001001999999001001KA1240M+03181MA1999999096091MD1999999-0121REMSYN082AAXX  19004 83242 32995 00000 10250 20194 39609 40097 333 10318 29066 55070 59012;EQDQ01  00002PRCP99
0201832420999992002031912004-12570-041380FM-12+042799999V0201801N001510042019N0040001N1+02401+02151101291ADDAA124002091AY161061AY201061GF106991051071004501041001KA1240N+02151MA1999999096381MD1999999-0061MW1161REMSYN088AAXX  19124 83242 21496 61803 10240 20215 39638 40129 71660 85740 333 20215 59006 60024;
0179832420999992002031918004-12570-041380FM-12+042799999V0201401N002110450019N0040001N1+03261+01801100891ADDAA199000091GF105991031051004501031081MA1999999096061MD1999999-0091MW1051REMSYN076AAXX  19184 83242 31496 51404 10326 20180 39606 40089 705// 83538 333 59009;EQDQ01  00002PRCP99
0198832420999992002032000004-12570-041380FM-12+042799999V0202301N000510042019N0020001N1+02561+01971100991ADDAA199000091GF106991061071004501001001KA1240M+03181MA1999999096111MD1999999+0021REMSYN088AAXX  20004 83242 32495 62301 10256 20197 39611 40099 86700 333 10318 29067 55076 58002;EQDQ01  00002PRCP99
0201832420999992002032012004-12570-041380FM-12+042799999V0200501N001510042019N0040001N1+02341+02181101431ADDAA124001091AY161061AY221061GF108991081071004501999999KA1240N+02261MA1999999096521MD1999999+0141MW1161REMSYN088AAXX  20124 83242 21496 80503 10234 20218 39652 40143 71662 887// 333 20226 58014 60014;
0179832420999992002032018004-12570-041380FM-12+042799999V0201801N001512200019N0040001N1+03301+01801100851ADDAA199000091GF104991021041004501031021MA1999999096041MD1999999-0021MW1051REMSYN076AAXX  20184 83242 31496 41803 10330 20180 39604 40085 705// 82432 333 59002;EQDQ01  00002PRCP99
0220832420999992002032100004-12570-041380FM-12+042799999V0209999C000012200019N0010001N1+02501+02131101061ADDAA199000091GA1001+999999999GF100991001001999999001001KA1240M+03151MA1999999096151MD1999999+0041MW1041REMSYN088AAXX  21004 83242 31994 00000 10250 20213 39615 40106 704// 333 10315 29073 55039 58004;EQDQ01  00002PRCP99
0198832420999992002032112004-12570-041380FM-12+042799999V0202701N001510042019N0040001N1+02321+02021101361ADDAA199000091GF108991081071004501999999KA1240N+02261MA1999999096441MD1999999-0081MW1101REMSYN082AAXX  21124 83242 31496 82703 10232 20202 39644 40136 710// 887// 333 20226 59008;EQDQ01  00002PRCP99
0179832420999992002032118004-12570-041380FM-12+042799999V0202301N002112200019N0040001N1+03261+01801100811ADDAA199000091GF104991021051004501091091MA1999999096001MD1999999-0041MW1051REMSYN076AAXX  21184 83242 31496 42304 10326 20180 39600 40081 705// 82599 333 59004;EQDQ01  00002PRCP99
0198832420999992002032200004-12570-041380FM-12+042799999V0203601N001512200019N0020001N1+02501+01981100961ADDAA199000091GF103991031011004501001001KA1240M+03201MA1999999096061MD1999999-0091REMSYN088AAXX  22004 83242 32495 33603 10250 20198 39606 40096 83100 333 10320 29068 55065 59009;EQDQ01  00002PRCP99
0198832420999992002032212004-12570-041380FM-12+042799999V0201801N001010042019N0040001N1+02441+02011101321ADDAA199000091GF108991081061004501999999KA1240N+02151MA1999999096411MD1999999-0031MW1051REMSYN082AAXX  22124 83242 31496 81802 10244 20201 39641 40132 705// 886// 333 20215 59003;EQDQ01  00002PRCP99
0179832420999992002032218004-12570-041380FM-12+042799999V0201801N002110450019N0040001N1+03301+01721100911ADDAA199000091GF105991031051004501021091MA1999999096061MD1999999+0081MW1051REMSYN076AAXX  22184 83242 31496 51804 10330 20172 39606 40091 705// 83529 333 58008;EQDQ01  00002PRCP99
0198832420999992002032300004-12570-041380FM-12+042799999V0203601N000512200019N0020001N1+02511+01631101141ADDAA199000091GF102991021011004501001001KA1240M+03181MA1999999096251MD1999999+0191REMSYN088AAXX  23004 83242 32495 23601 10251 20163 39625 40114 82100 333 10318 29064 55062 58019;EQDQ01  00002PRCP99
0186832420999992002032312004-12570-041380FM-12+042799999V0201401N001510042019N0100001N1+02601+02061101521ADDAA199000091GF106991051071004501041001KA1240N+02261MA1999999096621MD1999999+0211REMSYN076AAXX  23124 83242 32497 61403 10260 20206 39662 40152 85740 333 20226 58021;EQDQ01  00002PRCP99
0179832420999992002032318004-12570-041380FM-12+042799999V0201801N002110450019N0040001N1+03301+01801101071ADDAA199000091GF105991031041004501031021MA1999999096251MD1999999+0191MW1051REMSYN076AAXX  23184 83242 31496 51804 10330 20180 39625 40107 705// 83432 333 58019;EQDQ01  00002PRCP99
0213832420999992002032400004-12570-041380FM-12+042799999V0203201N001010042019N0020001N1+02421+02191101261ADDAA106003091AY161061AY221061GF108991081071004501999999KA1240M+03301MA1999999096361MD1999999+0111MW1021REMSYN100AAXX  24004 83242 21495 83202 10242 20219 39636 40126 70262 887// 333 10330 29072 55089 58011 60031;
0201832420999992002032412004-12570-041380FM-12+042799999V0209999C000010450019N0100001N1+02451+02091101521ADDAA124005191AY161061AY221061GF106991041071004501031011KA1240N+02091MA1999999096601MD1999999-0021MW1031REMSYN088AAXX  24124 83242 21497 60000 10245 20209 39660 40152 70362 84731 333 20209 59002 60054;
0167832420999992002032418004-12570-041380FM-12+042799999V0201401N002612200019N0100001N1+03081+01851100911ADDAA199000091GF104991021011004501041011MA1999999096061MD1999999-0191REMSYN070AAXX  24184 83242 32497 41405 10308 20185 39606 40091 82141 333 59019;EQDQ01  00002PRCP99
0198832420999992002032500004-12570-041380FM-12+042799999V0201801N000512200019N0020001N1+02581+01941101171ADDAA199000091GF104991041051004501001001KA1240M+03221MA1999999096281MD1999999-0081REMSYN088AAXX  25004 83242 32495 41801 10258 20194 39628 40117 84500 333 10322 29066 55099 59008;EQDQ01  00002PRCP99
0186832420999992002032512004-12570-041380FM-12+042799999V0201401N001510042019N0100001N1+02511+02001101371ADDAA199000091GF107991061061004501031001KA1240N+02131MA1999999096481MD1999999-0121REMSYN076AAXX  25124 83242 32497 71403 10251 20200 39648 40137 86630 333 20213 59012;EQDQ01  00002PRCP99
0179832420999992002032518004-12570-041380FM-12+042799999V0201401N001510450019N0040001N1+03301+01591100801ADDAA199000091GF108991021041004501031071MA1999999096081MD1999999+0021MW1051REMSYN076AAXX  25184 83242 31496 81403 10330 20159 39608 40080 705// 82437 333 58002;EQDQ01  00002PRCP99
0198832420999992002032600004-12570-041380FM-12+042799999V0209999C000010450019N0020001N1+02541+02041101061ADDAA199000091GF105991041051004501031001KA1240M+03301MA1999999096171MD1999999-0111REMSYN088AAXX  26004 83242 32495 50000 10254 20204 39617 40106 84530 333 10330 29064 55081 59011;EQDQ01  00002PRCP99
0201832420999992002032612004-12570-041380FM-12+042799999V0201801N000510042019N0100001N1+02341+01951101361ADDAA124000391AY151061AY201061GF108991081071004501999999KA1240N+02131MA1999999096451MD1999999-0031MW1031REMSYN088AAXX  26124 83242 21497 81801 10234 20195 39645 40136 70350 887// 333 20213 59003 69934;
0179832420999992002032618004-12570-041380FM-12+042799999V0201801N000510042019N0040001N1+02601+01791101081ADDAA199000091GF107991061071004501091001MA1999999096171MD1999999+0091MW1151REMSYN076AAXX  26184 83242 31496 71801 10260 20179 39617 40108 715// 86790 333 58009;EQDQ01  00002PRCP99
0208832420999992002032700004-12570-041380FM-12+042799999V0203601N000512200019N0020001N1+02281+01941101171ADDAA199000091GA1001+999999999GF100991001001999999001001KA1240M+02761MA1999999096241MD1999999+0071REMSYN082AAXX  27004 83242 32995 03601 10228 20194 39624 40117 333 10276 29076 55009 58007;EQDQ01  00002PRCP99
0198832420999992002032712004-12570-041380FM-12+042799999V0201801N001510450019N0040001N1+02471+01981101531ADDAA199000091GF106991031051004501031061KA1240N+02011MA1999999096601MD1999999+0151MW1051REMSYN082AAXX  27124 83242 31496 61803 10247 20198 39660 40153 705// 83536 333 20201 58015;EQDQ01  00002PRCP99
0179832420999992002032718004-12570-041380FM-12+042799999V0202301N002110450019N0040001N1+02961+01841101111ADDAA199000091GF106991031031004501051021MA1999999096221MD1999999+0051MW1051REMSYN076AAXX  27184 83242 31496 62304 10296 20184 39622 40111 705// 83352 333 58005;EQDQ01  00002PRCP99
0213832420999992002032800004-12570-041380FM-12+042799999V0201801N001510042019N0020001N1+02421+02111101391ADDAA106000391AY151061AY221061GF108991081071004501999999KA1240M+03101MA1999999096481MD1999999+0241MW1031REMSYN100AAXX  28004 83242 21495 81803 10242 20211 39648 40139 70352 887// 333 10310 29073 55079 58024 69931;
0173832420999992002032812004-12570-041380FM-12+042799999V0201801N001510042019N0040001N1+02391+01911101721ADDAA124000391GF106991051021004501051001KA1240N+02091MA1999999096781MD1999999+0181REMSYN082AAXX  28124 83242 22496 61803 10239 20191 39678 40172 85250 333 20209 58018 69934;
0167832420999992002032818004-12570-041380FM-12+042799999V0200901N002610042019N0100001N1+02891+01871101251ADDAA199000091GF107991051071004501051001MA1999999096351MD1999999+0131REMSYN070AAXX  28184 83242 32497 70905 10289 20187 39635 40125 85750 333 58013;EQDQ01  00002PRCP99
0198832420999992002032900004-12570-041380FM-12+042799999V0201401N000510042019N0020001N1+02501+01961101341ADDAA199000091GF108991081071004501999999KA1240M+03021MA1999999096431MD1999999-0051REMSYN088AAXX  29004 83242 32495 81401 10250 20196 39643 40134 887// 333 10302 29068 55082 59005;EQDQ01  00002PRCP99
0186832420999992002032912004-12570-041380FM-12+042799999V0201801N001010042019N0040001N1+02301+01901101561ADDAA199000091GF108991081061004501999999KA1240N+02071MA1999999096631MD1999999-0151REMSYN076AAXX  29124 83242 32496 81802 10230 20190 39663 40156 886// 333 20207 59015;EQDQ01  00002PRCP99
0182832420999992002032918004-12570-041380FM-12+042799999V0201801N002110450019N0100001N1+02781+02061101131ADDAA106000791AY151061AY221061GF106991021031004501091021MA1999999096221MD1999999-0131MW1031REMSYN082AAXX  29184 83242 21497 61804 10278 20206 39622 40113 70352 82392 333 59013 69901;
0198832420999992002033000004-12570-041380FM-12+042799999V0202701N001510042019N0020001N1+02481+01981101331ADDAA199000091GF108991081071004501999999KA1240M+02961MA1999999096411MD1999999-0021REMSYN088AAXX  30004 83242 32495 82703 10248 20198 39641 40133 887// 333 10296 29073 55036 59002;EQDQ01  00002PRCP99
0201832420999992002033012004-12570-041380FM-12+042799999V0201801N001510042019N0020001N1+02261+02111101581ADDAA124002091AY161061AY221061GF108991081071004501999999KA1240N+02031MA1999999096641MD1999999+0011MW1211REMSYN088AAXX  30124 83242 21495 81803 10226 20211 39664 40158 72162 887// 333 20203 58001 60024;
0182832420999992002033018004-12570-041380FM-12+042799999V0201801N001010042019N0040001N1+02351+02201101271ADDAA106014091AY161061AY221061GF107991071071004501001001MA1999999096311MD1999999+0091MW1101REMSYN082AAXX  30184 83242 21496 71802 10235 20220 39631 40127 71062 87700 333 58009 60141;
0213832420999992002033100004-12570-041380FM-12+042799999V0201801N001010042019N0020001N1+02231+02171101491ADDAA106002091AY161061AY241061GF108991081071004501999999KA1240M+02641MA1999999096531MD1999999+0121MW1031REMSYN100AAXX  31004 83242 21495 81802 10223 20217 39653 40149 70364 887// 333 10264 29094 55009 58012 60021;
0201832420999992002033112004-12570-041380FM-12+042799999V0201801N001510042019N0040001N1+02341+02071101671ADDAA124016091AY151061AY221061GF107991061071004501081001KA1240N+02091MA1999999096711MD1999999+0071MW1101REMSYN088AAXX  31124 83242 21496 71803 10234 20207 39671 40167 71052 86780 333 20209 58007 60164;
0182832420999992002033118004-12570-041380FM-12+042799999V0203601N003110042019N0040001N1+02581+02101101251ADDAA106000791AY151061AY221061GF107991051071004501091001MA1999999096311MD1999999+0001MW1051REMSYN082AAXX  31184 83242 21496 73606 10258 20210 39631 40125 70552 85790 333 58000 69901;
0213832420999992002040100004-12570-041380FM-12+042799999V0203601N001512200019N0020001N1+02311+02071101411ADDAA106000791AY151061AY221061GF104991041071004501001001KA1240M+02921MA1999999096461MD1999999-0071MW1031REMSYN100AAXX  01004 83242 21495 43603 10231 20207 39646 40141 70352 84700 333 10292 29083 55055 59007 69901;
0201832420999992002040112004-12570-041380FM-12+042799999V0201801N002610042019N0100001N1+02401+02031101521ADDAA124000591AY151061AY221061GF108991081071004501999999KA1240N+02011MA1999999096581MD1999999-0131MW1031REMSYN088AAXX  01124 83242 21497 81805 10240 20203 39658 40152 70352 887// 333 20201 59013 69954;
0179832420999992002040118004-12570-041380FM-12+042799999V0201401N001510450019N0040001N1+03001+01911101151ADDAA199000091GF106991041061004501031071MA1999999096261MD1999999-0051MW1051REMSYN076AAXX  01184 83242 31496 61403 10300 20191 39626 40115 705// 84637 333 59005;EQDQ01  00002PRCP99
0198832420999992002040200004-12570-041380FM-12+042799999V0202301N000510042019N0020001N1+02441+02151101361ADDAA199000091GF107991071071004501001001KA1240M+03021MA1999999096441MD1999999-0021REMSYN088AAXX  02004 83242 32495 72301 10244 20215 39644 40136 87700 333 10302 29075 55050 59002;EQDQ01  00002PRCP99
0186832420999992002040212004-12570-041380FM-12+042799999V0201401N001510450019N0100001N1+02481+02031101491ADDAA199000091GF107991041071004501031051KA1240N+02171MA1999999096571MD1999999-0011REMSYN076AAXX  02124 83242 32497 71403 10248 20203 39657 40149 84735 333 20217 59001;EQDQ01  00002PRCP99
0179832420999992002040218004-12570-041380FM-12+042799999V0201801N001010042019N0040001N1+02981+01861101171ADDAA199000091GF108991061061004501031071MA1999999096301MD1999999+0041MW1051REMSYN076AAXX  02184 83242 31496 81802 10298 20186 39630 40117 705// 86637 333 58004;EQDQ01  00002PRCP99
0213832420999992002040300004-12570-041380FM-12+042799999V0202701N001010042019N0020001N1+02421+02251101481ADDAA106000591AY151061AY221061GF108991081071004501999999KA1240M+02981MA1999999096561MD1999999+0121MW1021REMSYN100AAXX  03004 83242 21495 82702 10242 20225 39656 40148 70252 887// 333 10298 29077 55029 58012 69941;
0192832420999992002040312004-12570-041380FM-12+042799999V0201801N001519999999N0100001N1+02481+02031101571ADDAA124000591GF107991999061004501071041KA1240N+02181MA1999999096651MD1999999+0081REMSYN082AAXX  03124 83242 22497 71803 10248 20203 39665 40157 88674 333 20218 58008 69944;EQDQ01+000082SCOTLC
0179832420999992002040318004-12570-041380FM-12+042799999V0200901N001010450019N0040001N1+03001+01841101191ADDAA199000091GF105991031041004501031071MA1999999096321MD1999999+0021MW1041REMSYN076AAXX  03184 83242 31496 50902 10300 20184 39632 40119 704// 83437 333 58002;EQDQ01  00002PRCP99
0198832420999992002040400004-12570-041380FM-12+042799999V0200501N000510042019N0020001N1+02581+01921101341ADDAA199000091GF108991081051004501999999KA1240M+03061MA1999999096451MD1999999-0111REMSYN088AAXX  04004 83242 32495 80501 10258 20192 39645 40134 885// 333 10306 29065 55082 59011;EQDQ01  00002PRCP99
0201832420999992002040412004-12570-041380FM-12+042799999V0200901N001510042019N0100001N1+02451+02031101591ADDAA124001091AY161061AY221061GF107991051071004501081031KA1240N+02051MA1999999096681MD1999999+0031MW1031REMSYN088AAXX  04124 83242 21497 70903 10245 20203 39668 40159 70362 85783 333 20205 58003 60014;
0179832420999992002040418004-12570-041380FM-12+042799999V0202301N002110450019N0040001N1+03001+01751101201ADDAA199000091GF105991031041004501061041MA1999999096331MD1999999+0011MW1051REMSYN076AAXX  04184 83242 31496 52304 10300 20175 39633 40120 705// 83464 333 58001;EQDQ01  00002PRCP99
0210832420999992002040500004-12570-041380FM-12+042799999V0203601N000512200019N0010001N1+02351+02051101331ADDAA199000091GF102991021041004501001001KA1240M+03001MA1999999096411MD1999999-0041MW1051REMSYN094AAXX  05004 83242 31494 23601 10235 20205 39641 40133 705// 82400 333 10300 29072 55096 59004;EQDQ01  00002PRCP99
0201832420999992002040512004-12570-041380FM-12+042799999V0201401N001010042019N0040001N1+02381+01951101371ADDAA124001091AY151061AY211061GF107991061071004501041001KA1240N+02071MA1999999096421MD1999999-0261MW1151REMSYN088AAXX  05124 83242 21496 71402 10238 20195 39642 40137 71551 86740 333 20207 59026 69994;
0179832420999992002040518004-12570-041380FM-12+042799999V0201401N001510450019N0040001N1+03001+01811101011ADDAA199000091GF105991041041004501031001MA1999999096141MD1999999-0191MW1051REMSYN076AAXX  05184 83242 31496 51403 10300 20181 39614 40101 705// 84430 333 59019;EQDQ01  00002PRCP99
0198832420999992002040600004-12570-041380FM-12+042799999V0203601N001510042019N0020001N1+02281+00901101121ADDAA199000091GF106991061041004501001001KA1240M+03001MA1999999096201MD1999999-0211REMSYN088AAXX  06004 83242 32495 63603 10228 20090 39620 40112 86400 333 10300 29074 55077 59021;EQDQ01  00002PRCP99
0186832420999992002040612004-12570-041380FM-12+042799999V0201801N001510042019N0100001N1+02471+01901101291ADDAA199000091GF106991051051004501031001KA1240N+02111MA1999999096371MD1999999-0051REMSYN076AAXX  06124 83242 32497 61803 10247 20190 39637 40129 85530 333 20211 59005;EQDQ01  00002PRCP99
0179832420999992002040618004-12570-041380FM-12+042799999V0202301N001012200019N0040001N1+03081+01851100821ADDAA199000091GF103991021011004501011001MA1999999096961MD1999999-0111MW1051REMSYN076AAXX  06184 83242 31496 32302 10308 20185 39696 40082 705// 82110 333 59011;EQDQ01  00002PRCP99
0224832420999992002040700004-12570-041380FM-12+042799999V0203601N000512200019N0020001N1+02401+01861101051ADDAA199000091GA1001+999999999GF100991001001999999001001KA1240M+03091MA1999999096152MD1999999-0051REMSYN082AAXX  07004 83242 32995 03601 10240 20186 39615 40105 333 10309 29066 55106 59005;EQDQ01+096153APOSP Q02  00002PRCP99
0186832420999992002040712004-12570-041380FM-12+042799999V0201401N002110042019N0100001N1+02481+02071101401ADDAA199000091GF107991051061004501081021KA1240N+02191MA1999999096491MD1999999+0121REMSYN076AAXX  07124 83242 32497 71404 10248 20207 39649 40140 85682 333 20219 58012;EQDQ01  00002PRCP99
0179832420999992002040718004-12570-041380FM-12+042799999V0200901N002110450019N0040001N1+03121+01891100891ADDAA199000091GF105991031051004501071091MA1999999096041MD1999999+0081MW1051REMSYN076AAXX  07184 83242 31496 50904 10312 20189 39604 40089 705// 83579 333 58008;EQDQ01  00002PRCP99
0213832420999992002040800004-12570-041380FM-12+042799999V0202301N002610042019N0005001N1+02241+02191101221ADDAA106006191AY141061AY211061GF108991081071004501999999KA1240M+03121MA1999999096301MD1999999+0151MW1611REMSYN100AAXX  08004 83242 31493 82305 10224 20219 39630 40122 76141 887// 333 10312 29080 55081 58015 60061;
0201832420999992002040812004-12570-041380FM-12+042799999V0201801N000510042019N0100001N1+02441+02011101361ADDAA124019191AY161061AY221061GF106991051071004501031001KA1240N+02111MA1999999096431MD1999999-0061MW1021REMSYN088AAXX  08124 83242 21497 61801 10244 20201 39643 40136 70262 85730 333 20211 59006 60194;
0179832420999992002040818004-12570-041380FM-12+042799999V0201401N002112200019N0040001N1+03141+01771100861ADDAA199000091GF104991021021004501051041MA1999999096021MD1999999-0021MW1051REMSYN076AAXX  08184 83242 31496 41404 10314 20177 39602 40086 705// 82254 333 59002;EQDQ01  00002PRCP99
0208832420999992002040900004-12570-041380FM-12+042799999V0203201N000512200019N0020001N1+02461+02031101071ADDAA199000091GA1001+999999999GF100991001001999999001001KA1240M+03141MA1999999096171MD1999999-0131REMSYN082AAXX  09004 83242 32995 03201 10246 20203 39617 40107 333 10314 29069 55067 59013;EQDQ01  00002PRCP99
0201832420999992002040912004-12570-041380FM-12+042799999V0201801N000510042019N0100001N1+02461+02111101321ADDAA124001091AY161061AY251061GF107991061071004501041001KA1240N+02121MA1999999096411MD1999999-0021MW1061REMSYN088AAXX  09124 83242 21497 71801 10246 20211 39641 40132 70665 86740 333 20212 59002 60014;
0167832420999992002040918004-12570-041380FM-12+042799999V0200901N001510450019N0100001N1+03241+01711100791ADDAA199000091GF106991031041004501041061MA1999999095961MD1999999-0061REMSYN070AAXX  09184 83242 32497 60903 10324 20171 39596 40079 83446 333 59006;EQDQ01  00002PRCP99
0198832420999992002041000004-12570-041380FM-12+042799999V0203601N000510042019N0020001N1+02441+02191101021ADDAA199000091GF106991051051004501031001KA1240M+03241MA1999999096131MD1999999-0011REMSYN088AAXX  10004 83242 32495 63601 10244 20219 39613 40102 85530 333 10324 29073 55057 59001;EQDQ01  00002PRCP99
0198832420999992002041012004-12570-041380FM-12+042799999V0201401N000510042019N0040001N1+02451+02091101331ADDAA199000091GF108991061071004501041071KA1240N+02211MA1999999096421MD1999999+0011MW1101REMSYN082AAXX  10124 83242 31496 81401 10245 20209 39642 40133 710// 86747 333 20221 58001;EQDQ01  00002PRCP99
0179832420999992002041018004-12570-041380FM-12+042799999V0201401N001010042019N0040001N1+03241+01751100871ADDAA199000091GF108991061061004501031071MA1999999096041MD1999999+0081MW1051REMSYN076AAXX  10184 83242 31496 81402 10324 20175 39604 40087 705// 86637 333 58008;EQDQ01  00002PRCP99
0198832420999992002041100004-12570-041380FM-12+042799999V0203601N000510042019N0020001N1+02461+02171101091ADDAA199000091GF107991071051004501001001KA1240M+03241MA1999999096191MD1999999+0061REMSYN088AAXX  11004 83242 32495 73601 10246 20217 39619 40109 87500 333 10324 29072 55058 58006;EQDQ01  00002PRCP99
0186832420999992002041112004-12570-041380FM-12+042799999V0209999C000010042019N0100001N1+02441+02011101401ADDAA199000091GF108991061071004501041001KA1240N+02211MA1999999096491MD1999999+0071REMSYN076AAXX  11124 83242 32497 80000 10244 20201 39649 40140 86740 333 20221 58007;EQDQ01  00002PRCP99
0167832420999992002041118004-12570-041380FM-12+042799999V0201801N001010042019N0100001N1+02901+01891100811ADDAA199000091GF106991051061004501031001MA1999999096061MD1999999+0021REMSYN070AAXX  11184 83242 32497 61802 10290 20189 39606 40081 85630 333 58002;EQDQ01  00002PRCP99
0213832420999992002041200004-12570-041380FM-12+042799999V0202301N001512200019N0020001N1+02471+02131101191ADDAA106000791AY151061AY221061GF103991031001022501081001KA1240M+02961MA1999999096291MD1999999+0101MW1031REMSYN100AAXX  12004 83242 21895 32303 10247 20213 39629 40119 70352 83080 333 10296 29072 55036 58010 69901;
0201832420999992002041212004-12570-041380FM-12+042799999V0200901N000510042019N0040001N1+02381+02151101401ADDAA124004191AY191061AY211061GF108991081071004501999999KA1240N+02261MA1999999096481MD1999999-0011MW1151REMSYN088AAXX  12124 83242 21496 80901 10238 20215 39648 40140 71591 887// 333 20226 59001 60044;
0179832420999992002041218004-12570-041380FM-12+042799999V0201801N001010450019N0040001N1+03121+01891100851ADDAA199000091GF105991041071004501031001MA1999999096001MD1999999-0061MW1051REMSYN076AAXX  12184 83242 31496 51802 10312 20189 39600 40085 705// 84730 333 59006;EQDQ01  00002PRCP99
0213832420999992002041300004-12570-041380FM-12+042799999V0200901N000510042019N0005001N1+02261+02141101341ADDAA106000791AY151061AY221061GF106991061071004501001001KA1240M+03121MA1999999096401MD1999999+0111MW1201REMSYN100AAXX  13004 83242 21493 60901 10226 20214 39640 40134 72052 86700 333 10312 29080 55040 58011 69901;
0173832420999992002041312004-12570-041380FM-12+042799999V0201801N000510450019N0100001N1+02421+02111101421ADDAA124000791GF106991041071004501041061KA1240N+01911MA1999999096491MD1999999+0011REMSYN082AAXX  13124 83242 22497 61801 10242 20211 39649 40142 84746 333 20191 58001 69904;
0179832420999992002041318004-12570-041380FM-12+042799999V0201801N000510450019N0040001N1+03121+01801101011ADDAA199000091GF105991031041004501051001MA1999999096141MD1999999+0141MW1051REMSYN076AAXX  13184 83242 31496 51801 10312 20180 39614 40101 705// 83450 333 58014;EQDQ01  00002PRCP99
0198832420999992002041400004-12570-041380FM-12+042799999V0209999C000010042019N0020001N1+02581+02101101301ADDAA199000091GF108991081061004501999999KA1240M+03141MA1999999096401MD1999999+0001REMSYN088AAXX  14004 83242 32495 80000 10258 20210 39640 40130 886// 333 10314 29070 55091 58000;EQDQ01  00002PRCP99
0173832420999992002041412004-12570-041380FM-12+042799999V0201801N001510450019N0100001N1+02511+02001101541ADDAA124000791GF106991041061004501041061KA1240N+02111MA1999999096641MD1999999+0151REMSYN082AAXX  14124 83242 22497 61803 10251 20200 39664 40154 84646 333 20211 58015 69904;
0179832420999992002041418004-12570-041380FM-12+042799999V0201401N000510450019N0040001N1+03021+01861101131ADDAA199000091GF105991041041004501051001MA1999999096261MD1999999+0081MW1051REMSYN076AAXX  14184 83242 31496 51401 10302 20186 39626 40113 705// 84450 333 58008;EQDQ01  00002PRCP99
0198832420999992002041500004-12570-041380FM-12+042799999V0201801N000510042019N0020001N1+02461+02031101261ADDAA199000091GF108991081071004501999999KA1240M+03081MA1999999096361MD1999999-0041REMSYN088AAXX  15004 83242 32495 81801 10246 20203 39636 40126 887// 333 10308 29069 55085 59004;EQDQ01  00002PRCP99
0201832420999992002041512004-12570-041380FM-12+042799999V0201801N000510042019N0040001N1+02381+01971101531ADDAA124002091AY161061AY221061GF108991081071004501999999KA1240N+02081MA1999999096601MD1999999-0041MW1051REMSYN088AAXX  15124 83242 21496 81801 10238 20197 39660 40153 70562 887// 333 20208 59004 60024;
0186832420999992002041612004-12570-041380FM-12+042799999V0201801N002110042019N0100001N1+02491+01981101491ADDAA199000091GF107991061071004501041001KA1240N+02131MA1999999096571MD1999999-0031REMSYN076AAXX  16124 83242 32497 71804 10249 20198 39657 40149 86740 333 20213 59003;EQDQ01  00002PRCP99
0179832420999992002041618004-12570-041380FM-12+042799999V0201801N001512200019N0040001N1+03121+01541101091ADDAA199000091GF104991031041004501031001MA1999999096241MD1999999-0041MW1051REMSYN076AAXX  16184 83242 31496 41803 10312 20154 39624 40109 705// 83430 333 59004;EQDQ01  00002PRCP99
0208832420999992002041700004-12570-041380FM-12+042799999V0203601N001012200019N0020001N1+02401+01931101301ADDAA199000091GA1001+999999999GF100991001001999999001001KA1240M+03121MA1999999096391MD1999999+0041REMSYN082AAXX  17004 83242 32995 03602 10240 20193 39639 40130 333 10312 29066 55092 58004;EQDQ01  00002PRCP99
0198832420999992002041800004-12570-041380FM-12+042799999V0200901N000510042019N0020001N1+02641+01951101251ADDAA199000091GF105991051051004501001001KA1240M+03301MA1999999096361MD1999999-0031REMSYN088AAXX  18004 83242 32495 50901 10264 20195 39636 40125 85500 333 10330 29064 55082 59003;EQDQ01  00002PRCP99
0201832420999992002041812004-12570-041380FM-12+042799999V0201801N001010042019N0100001N1+02431+02051101511ADDAA124000791AY151061AY211061GF107991051071004501041001KA1240N+02211MA1999999096621MD1999999-0061MW1031REMSYN088AAXX  18124 83242 21497 71802 10243 20205 39662 40151 70351 85740 333 20221 59006 69904;
0179832420999992002041818004-12570-041380FM-12+042799999V0201401N001010450019N0040001N1+03101+01801101091ADDAA199000091GF106991041051004501031001MA1999999096241MD1999999+0021MW1051REMSYN076AAXX  18184 83242 31496 61402 10310 20180 39624 40109 705// 84530 333 58002;EQDQ01  00002PRCP99
0198832420999992002041900004-12570-041380FM-12+042799999V0200501N001510042019N0020001N1+02651+01901101301ADDAA199000091GF108991081071004501999999KA1240M+03121MA1999999096411MD1999999+0061REMSYN088AAXX  19004 83242 32495 80503 10265 20190 39641 40130 887// 333 10312 29063 55057 58006;EQDQ01  00002PRCP99
0201832420999992002041912004-12570-041380FM-12+042799999V0201401N001510042019N0040001N1+02361+02131101481ADDAA124000591AY151061AY221061GF108991081071004501999999KA1240N+02121MA1999999096571MD1999999-0051MW1161REMSYN088AAXX  19124 83242 21496 81403 10236 20213 39657 40148 71652 887// 333 20212 59005 69944;
0182832420999992002041918004-12570-041380FM-12+042799999V0201801N002110450019N0100001N1+02661+02071101071ADDAA106001091AY161061AY221061GF106991041071004501041081MA1999999096171MD1999999-0071MW1031REMSYN082AAXX  19184 83242 21497 61804 10266 20207 39617 40107 70362 84748 333 59007 60011;
0213832420999992002042000004-12570-041380FM-12+042799999V0209999C000010042019N0010001N1+02321+02071101351ADDAA106000791AY151061AY241061GF107991071071004501001001KA1240M+02841MA1999999096421MD1999999+0011MW1101REMSYN100AAXX  20004 83242 21494 70000 10232 20207 39642 40135 71054 87700 333 10284 29082 55032 58001 69901;
0201832420999992002042012004-12570-041380FM-12+042799999V0201801N001510042019N0100001N1+02381+01911101581ADDAA124003091AY161061AY221061GF106991051071004501031001KA1240N+01981MA1999999096641MD1999999+0071MW1031REMSYN088AAXX  20124 83242 21497 61803 10238 20191 39664 40158 70362 85730 333 20198 58007 60034;
0179832420999992002042018004-12570-041380FM-12+042799999V0201801N001012200019N0040001N1+03101+01731101121ADDAA199000091GF102991011011004501051001MA1999999096261MD1999999+0091MW1051REMSYN076AAXX  20184 83242 31496 21802 10310 20173 39626 40112 705// 81150 333 58009;EQDQ01  00002PRCP99
0198832420999992002042100004-12570-041380FM-12+042799999V0202701N000512200019N0020001N1+02301+01901101251ADDAA199000091GF104991021051004501041001KA1240M+03121MA1999999096331MD1999999-0091REMSYN088AAXX  21004 83242 32495 42701 10230 20190 39633 40125 82540 333 10312 29069 55078 59009;EQDQ01  00002PRCP99
0186832420999992002042112004-12570-041380FM-12+042799999V0201401N001010042019N0100001N1+02431+01951101491ADDAA199000091GF107991071071004501001001KA1240N+01971MA1999999096551MD1999999-0091REMSYN076AAXX  21124 83242 32497 71402 10243 20195 39655 40149 87700 333 20197 59009;EQDQ01  00002PRCP99
0198832420999992002042200004-12570-041380FM-12+042799999V0209999C000010042019N0020001N1+02421+02131101311ADDAA199000091GF107991071071004501001001KA1240M+02761MA1999999096391MD1999999+0061REMSYN088AAXX  22004 83242 32495 70000 10242 20213 39639 40131 87700 333 10276 29078 55032 58006;EQDQ01  00002PRCP99
0201832420999992002042212004-12570-041380FM-12+042799999V0201801N002610450019N0020001N1+02381+01931101501ADDAA124000191AY151061AY221061GF105991041021004501031001KA1240N+01871MA1999999096571MD1999999+0021MW1021REMSYN088AAXX  22124 83242 21495 51805 10238 20193 39657 40150 70252 84230 333 20187 58002 69924;
0179832420999992002042218004-12570-041380FM-12+042799999V0201801N001510450019N0040001N1+03141+01691101141ADDAA199000091GF105991041041004501031001MA1999999096281MD1999999+0011MW1051REMSYN076AAXX  22184 83242 31496 51803 10314 20169 39628 40114 705// 84430 333 58001;EQDQ01  00002PRCP99
0198832420999992002042300004-12570-041380FM-12+042799999V0201801N001510042019N0020001N1+02461+01901101321ADDAA199000091GF108991051071004501051001KA1240M+03141MA1999999096401MD1999999+0011REMSYN088AAXX  23004 83242 32495 81803 10246 20190 39640 40132 85750 333 10314 29065 55097 58001;EQDQ01  00002PRCP99
0201832420999992002042312004-12570-041380FM-12+042799999V0201801N001510042019N0100001N1+02321+02001101451ADDAA124003091AY161061AY221061GF107991061071004501031001KA1240N+02011MA1999999096531MD1999999-0041MW1031REMSYN088AAXX  23124 83242 21497 71803 10232 20200 39653 40145 70362 86730 333 20201 59004 60034;
0179832420999992002042318004-12570-041380FM-12+042799999V0201801N000510042019N0040001N1+03001+01531101061ADDAA199000091GF107991061071004501031001MA1999999096171MD1999999-0111MW1151REMSYN076AAXX  23184 83242 31496 71801 10300 20153 39617 40106 715// 86730 333 59011;EQDQ01  00002PRCP99
0213832420999992002042400004-12570-041380FM-12+042799999V0200901N001010042019N0010001N1+02421+01931101351ADDAA106000591AY151061AY241061GF107991061071004501081001KA1240M+03081MA1999999096421MD1999999+0021MW1051REMSYN100AAXX  24004 83242 21494 70902 10242 20193 39642 40135 70554 86780 333 10308 29068 55056 58002 69961;
0201832420999992002042412004-12570-041380FM-12+042799999V0201801N004110042019N0100001N1+02381+01951101341ADDAA124000191AY151061AY221061GF107991061071004501061001KA1240N+01961MA1999999096421MD1999999-0111MW1031REMSYN088AAXX  24124 83242 21497 71808 10238 20195 39642 40134 70352 86760 333 20196 59011 69924;
0179832420999992002042418004-12570-041380FM-12+042799999V0201401N001510042019N0040001N1+03061+01771100881ADDAA199000091GF107991061061004501081001MA1999999096011MD1999999-0161MW1041REMSYN076AAXX  24184 83242 31496 71403 10306 20177 39601 40088 704// 86680 333 59016;EQDQ01  00002PRCP99
0232832420999992002042500004-12570-041380FM-12+042799999V0200901N001019999999N0010001N1+02241+02071101311ADDAA106000191AY151061AY241061GF108991999071004501999999KA1240M+03061MA1999999096371MD1999999-0051MW1201REMSYN100AAXX  25004 83242 21494 80902 10224 20207 39637 40131 72054 897// 333 10306 29076 55081 59005 69921;EQDQ01+000092SCOTLC
0201832420999992002042512004-12570-041380FM-12+042799999V0201801N001510042019N0100001N1+02301+02051101501ADDAA124002091AY161061AY251061GF106991051071004501041001KA1240N+02031MA1999999096541MD1999999+0121MW1031REMSYN088AAXX  25124 83242 21497 61803 10230 20205 39654 40150 70365 85740 333 20203 58012 60024;
0167832420999992002042518004-12570-041380FM-12+042799999V0201401N000510450019N0100001N1+03161+01791101001ADDAA199000091GF105991041021004501031001MA1999999096141MD1999999+0131REMSYN070AAXX  25184 83242 32497 51401 10316 20179 39614 40100 84230 333 58013;EQDQ01  00002PRCP99
0198832420999992002042600004-12570-041380FM-12+042799999V0200901N001010450019N0020001N1+02261+01821101251ADDAA199000091GF105991041071004501081001KA1240M+03161MA1999999096311MD1999999-0061REMSYN088AAXX  26004 83242 32495 50902 10226 20182 39631 40125 84780 333 10316 29070 55075 59006;EQDQ01  00002PRCP99
0201832420999992002042612004-12570-041380FM-12+042799999V0201801N001510042019N0100001N1+02321+02001101621ADDAA124000391AY151061AY221061GF107991061071004501061001KA1240N+02051MA1999999096661MD1999999+0131MW1031REMSYN088AAXX  26124 83242 21497 71803 10232 20200 39666 40162 70352 86760 333 20205 58013 69934;
0179832420999992002042618004-12570-041380FM-12+042799999V0201801N001010450019N0040001N1+03101+01801101171ADDAA199000091GF108991041061004501031001MA1999999096311MD1999999+0171MW1051REMSYN076AAXX  26184 83242 31496 81802 10310 20180 39631 40117 705// 84630 333 58017;EQDQ01  00002PRCP99
0198832420999992002042700004-12570-041380FM-12+042799999V0203601N000512200019N0020001N1+02201+01941101321ADDAA199000091GF105991031001022501051061KA1240M+03101MA1999999096371MD1999999+0061REMSYN088AAXX  27004 83242 32895 53601 10220 20194 39637 40132 83056 333 10310 29074 55028 58006;EQDQ01  00002PRCP99
0198832420999992002042712004-12570-041380FM-12+042799999V0201801N000510450019N0040001N1+02421+01881101361ADDAA199000091GF105991041041004501091001KA1240N+01831MA1999999096421MD1999999-0241MW1401REMSYN082AAXX  27124 83242 31496 51801 10242 20188 39642 40136 740// 84490 333 20183 59024;EQDQ01  00002PRCP99
0179832420999992002042718004-12570-041380FM-12+042799999V0201401N002110450019N0040001N1+03121+01891101021ADDAA199000091GF105991041051004501081001MA1999999096391MD1999999-0171MW1051REMSYN076AAXX  27184 83242 31496 51404 10312 20189 39639 40102 705// 84580 333 59017;EQDQ01  00002PRCP99
0210832420999992002042800004-12570-041380FM-12+042799999V0209999C000010042019N0010001N1+02391+02031101081ADDAA199000091GF107991061071004501051001KA1240M+03161MA1999999096171MD1999999-0021MW1151REMSYN094AAXX  28004 83242 31494 70000 10239 20203 39617 40108 715// 86750 333 10316 29069 55077 59002;EQDQ01  00002PRCP99
0201832420999992002042812004-12570-041380FM-12+042799999V0201401N001510042019N0100001N1+02401+01821101441ADDAA124011991AY161061AY221061GF106991051071004501041001KA1240N+01931MA1999999096521MD1999999+0101MW1031REMSYN088AAXX  28124 83242 21497 61403 10240 20182 39652 40144 70362 85740 333 20193 58010 60124;
0167832420999992002042818004-12570-041380FM-12+042799999V0201801N001512200019N0100001N1+03141+01621101041ADDAA199000091GF102991021031004501001001MA1999999096161MD1999999-0231REMSYN070AAXX  28184 83242 32497 21803 10314 20162 39616 40104 82300 333 59023;EQDQ01  00002PRCP99
0198832420999992002042900004-12570-041380FM-12+042799999V0202301N001512200019N0020001N1+02261+01751101361ADDAA199000091GF102991011041004501051001KA1240M+03141MA1999999096431MD1999999+0261REMSYN088AAXX  29004 83242 32495 22303 10226 20175 39643 40136 81450 333 10314 29064 55087 58026;EQDQ01  00002PRCP99
0186832420999992002042912004-12570-041380FM-12+042799999V0201401N000510450019N0100001N1+02341+01831101661ADDAA199000091GF105991031041004501041001KA1240N+01721MA1999999096701MD1999999+0181REMSYN076AAXX  29124 83242 32497 51401 10234 20183 39670 40166 83440 333 20172 58018;EQDQ01  00002PRCP99
0183832420999992002042918004-12570-041380FM-12+042799999V0201801N001512200019N0040001N1+03061+01621101401ADDAA199000091GF103991999051004501999999MA1999999096561MD1999999+0151REMSYN070AAXX  29184 83242 32496 31803 10306 20162 39656 40140 805// 333 58015;EQDQ01+000002SCOTLCQ02  00002PRCP99
0198832420999992002043000004-12570-041380FM-12+042799999V0203601N000512200019N0020001N1+02221+01731101361ADDAA199000091GF104991021071004501081001KA1240M+03061MA1999999096421MD1999999-0011REMSYN088AAXX  30004 83242 32495 43601 10222 20173 39642 40136 82780 333 10306 29066 55097 59001;EQDQ01  00002PRCP99
0186832420999992002043012004-12570-041380FM-12+042799999V0201401N002111050019N0100001N1+02481+01711101711ADDAA199000091GF106991041071004501001051KA1240N+02041MA1999999096761MD1999999+0061REMSYN076AAXX  30124 83242 32497 61404 10248 20171 39676 40171 84705 333 20204 58006;EQDQ01  00002PRCP99
0167832420999992002043018004-12570-041380FM-12+042799999V0201801N002112200019N0100001N1+02931+01791101201ADDAA199000091GF103991021011004501051001MA1999999096321MD1999999+0011REMSYN070AAXX  30184 83242 32497 31804 10293 20179 39632 40120 82150 333 58001;EQDQ01  00002PRCP99
0208832420999992002050100004-12570-041380FM-12+042799999V0203601N001012200019N0020001N1+02261+01861101431ADDAA199000091GA1001+999999999GF100991001001999999001001KA1240M+03021MA1999999096501MD1999999+0081REMSYN082AAXX  01004 83242 32995 03602 10226 20186 39650 40143 333 10302 29069 55093 58008;EQDQ01  00002PRCP99
0198832420999992002050112004-12570-041380FM-12+042799999V0200901N000510042019N0040001N1+02061+01911101711ADDAA199000091GF107991061051004501081001KA1240N+01901MA1999999096721MD1999999-0041MW1101REMSYN082AAXX  01124 83242 31496 70901 10206 20191 39672 40171 710// 86580 333 20190 59004;EQDQ01  00002PRCP99
0179832420999992002050118004-12570-041380FM-12+042799999V0201801N002111050019N0040001N1+02881+02001101121ADDAA199000091GF108991011011004501001071MA1999999096211MD1999999-0111MW1051REMSYN076AAXX  01184 83242 31496 81804 10288 20200 39621 40112 705// 81107 333 59011;EQDQ01  00002PRCP99
0208832420999992002050200004-12570-041380FM-12+042799999V0203601N001012200019N0020001N1+02281+01881101301ADDAA199000091GA1001+999999999GF100991001001999999001001KA1240M+02981MA1999999096331MD1999999-0171REMSYN082AAXX  02004 83242 32995 03602 10228 20188 39633 40130 333 10298 29076 55078 59017;EQDQ01  00002PRCP99
0198832420999992002050212004-12570-041380FM-12+042799999V0200901N001510042019N0040001N1+02341+01951101501ADDAA199000091GF108991081071004501999999KA1240N+02011MA1999999096551MD1999999-0171MW1051REMSYN082AAXX  02124 83242 31496 80903 10234 20195 39655 40150 705// 887// 333 20201 59017;EQDQ01  00002PRCP99
0179832420999992002050218004-12570-041380FM-12+042799999V0202301N001510450019N0040001N1+02881+01861101001ADDAA199000091GF108991011011004501041071MA1999999096121MD1999999-0091MW1041REMSYN076AAXX  02184 83242 31496 82303 10288 20186 39612 40100 704// 81147 333 59009;EQDQ01  00002PRCP99
0220832420999992002050300004-12570-041380FM-12+042799999V0203601N003112200019N0010001N1+02241+01861101181ADDAA199000091GA1001+999999999GF100991001001999999001001KA1240M+03021MA1999999096251MD1999999-0081MW1051REMSYN088AAXX  03004 83242 31994 03606 10224 20186 39625 40118 705// 333 10302 29073 55057 59008;EQDQ01  00002PRCP99
0186832420999992002050312004-12570-041380FM-12+042799999V0200901N001510042019N0040001N1+02481+01851101461ADDAA199000091GF107991061071004501081001KA1240N+02091MA1999999096531MD1999999-0021REMSYN076AAXX  03124 83242 32496 70903 10248 20185 39653 40146 86780 333 20209 59002;EQDQ01  00002PRCP99
0167832420999992002050318004-12570-041380FM-12+042799999V0201801N001512200019N0100001N1+02841+01931100951ADDAA199000091GF102991011011004501081001MA1999999096071MD1999999-0051REMSYN070AAXX  03184 83242 32497 21803 10284 20193 39607 40095 81180 333 59005;EQDQ01  00002PRCP99
0220832420999992002050400004-12570-041380FM-12+042799999V0203601N000512200019N0010001N1+02261+01821101111ADDAA199000091GA1001+999999999GF100991001001999999001001KA1240M+02951MA1999999096191MD1999999-0061MW1051REMSYN088AAXX  04004 83242 31994 03601 10226 20182 39619 40111 705// 333 10295 29070 55079 59006;EQDQ01  00002PRCP99
0198832420999992002050412004-12570-041380FM-12+042799999V0201801N001510042019N0040001N1+02361+02051101551ADDAA199000091GF107991061071004501051001KA1240N+02111MA1999999096601MD1999999+0071MW1101REMSYN082AAXX  04124 83242 31496 71803 10236 20205 39660 40155 710// 86750 333 20211 58007;EQDQ01  00002PRCP99
0179832420999992002050418004-12570-041380FM-12+042799999V0201801N002110450019N0040001N1+03041+01851100951ADDAA199000091GF108991021031004501051071MA1999999096101MD1999999+0031MW1051REMSYN076AAXX  04184 83242 31496 81804 10304 20185 39610 40095 705// 82357 333 58003;EQDQ01  00002PRCP99
0208832420999992002050500004-12570-041380FM-12+042799999V0200901N000512200019N0010001N1+02421+01881101311ADDAA199000091GA1001+999999999GF100991001001999999001001KA1240M+03121MA1999999096391MD1999999+0201REMSYN082AAXX  05004 83242 32994 00901 10242 20188 39639 40131 333 10312 29069 55066 58020;EQDQ01  00002PRCP99
0186832420999992002050512004-12570-041380FM-12+042799999V0200901N001010042019N0040001N1+02361+01931101341ADDAA199000091GF107991061071004501051001KA1240N+02071MA1999999096421MD1999999-0181REMSYN076AAXX  05124 83242 31496 70902 10236 20193 39642 40134 86750 333 20207 59018;EQDQ01  00002PRCP99
0167832420999992002050518004-12570-041380FM-12+042799999V0201801N002612200019N0100001N1+02981+01761101201ADDAA199000091GF102991011011004501051001MA1999999096321MD1999999+0221REMSYN070AAXX  05184 83242 32497 21805 10298 20176 39632 40120 81150 333 58022;EQDQ01  00002PRCP99
0198832420999992002050600004-12570-041380FM-12+042799999V0201801N000510042019N0020001N1+02421+01741101561ADDAA199000091GF106991061051004501001001KA1240M+03061MA1999999096631MD1999999+0241REMSYN088AAXX  06004 83242 32495 61801 10242 20174 39663 40156 86500 333 10306 29064 55073 58024;EQDQ01  00002PRCP99
0186832420999992002050612004-12570-041380FM-12+042799999V0201801N000512200019N0100001N1+02301+01791101821ADDAA199000091GF101991011011004501001001KA1240N+01711MA1999999096861MD1999999+0441REMSYN076AAXX  06124 83242 32497 11801 10230 20179 39686 40182 81100 333 20171 58044;EQDQ01  00002PRCP99
0179832420999992002050618004-12570-041380FM-12+042799999V0201801N001510042019N0100001N1+02981+01861101191ADDAA199000091GF106991051071004501051001MA1999999096301MD1999999-0021MW1051REMSYN076AAXX  06184 83242 31497 61803 10298 20186 39630 40119 705// 85750 333 59002;EQDQ01  00002PRCP99
0213832420999992002050700004-12570-041380FM-12+042799999V0201801N001510042019N0010001N1+02501+01841101591ADDAA106000791AY151061AY241061GF108991081071004501999999KA1240M+03121MA1999999096661MD1999999+0031MW1051REMSYN100AAXX  07004 83242 21494 81803 10250 20184 39666 40159 70554 887// 333 10312 29064 55087 58003 69901;
0201832420999992002050712004-12570-041380FM-12+042799999V0201401N001510042019N0040001N1+02181+01861101671ADDAA124000591AY151061AY241061GF107991051041004501051001KA1240N+01901MA1999999096721MD1999999-0141MW1101REMSYN088AAXX  07124 83242 21496 71403 10218 20186 39672 40167 71054 85450 333 20190 59014 69944;
0179832420999992002050718004-12570-041380FM-12+042799999V0201801N003110042019N0040001N1+02611+02051101261ADDAA199000091GF107991051071004501031001MA1999999096321MD1999999+0021MW1051REMSYN076AAXX  07184 83242 31496 71806 10261 20205 39632 40126 705// 85730 333 58002;EQDQ01  00002PRCP99
0213832420999992002050800004-12570-041380FM-12+042799999V0209999C000010042019N0010001N1+02211+02171101591ADDAA106002091AY161061AY241061GF108991081071004501999999KA1240M+02841MA1999999096621MD1999999-0041MW1101REMSYN100AAXX  08004 83242 21494 80000 10221 20217 39662 40159 71064 887// 333 10284 29087 55037 59004 60021;
0201832420999992002050812004-12570-041380FM-12+042799999V0201801N001510042019N0040001N1+02301+02001101731ADDAA124002091AY151061AY241061GF107991051071004501081051KA1240N+02051MA1999999096761MD1999999+0041MW1101REMSYN088AAXX  08124 83242 21496 71803 10230 20200 39676 40173 71054 85785 333 20205 58004 60024;
0167832420999992002050818004-12570-041380FM-12+042799999V0201801N001510450019N0100001N1+02801+01871101181ADDAA199000091GF106991031071004501051021MA1999999096281MD1999999-0041REMSYN070AAXX  08184 83242 32497 61803 10280 20187 39628 40118 83752 333 59004;EQDQ01  00002PRCP99
0198832420999992002050900004-12570-041380FM-12+042799999V0201801N001012200019N0020001N1+02361+01951101471ADDAA199000091GF104991041051004501001001KA1240M+02921MA1999999096541MD1999999-0081REMSYN088AAXX  09004 83242 32495 41802 10236 20195 39654 40147 84500 333 10292 29074 55071 59008;EQDQ01  00002PRCP99
0202832420999992002050912004-12570-041380FM-12+042799999V0201401N000519999999N0100001N1+02321+01911101771ADDAA199000091GF106991999041004501071041KA1240N+02051MA1999999096821MD1999999+0061REMSYN076AAXX  09124 83242 32497 61401 10232 20191 39682 40177 88474 333 20205 58006;EQDQ01+000082SCOTLCQ02  00002PRCP99
0179832420999992002050918004-12570-041380FM-12+042799999V0201801N000512200019N0040001N1+03021+01801101181ADDAA199000091GF103991021031004501071001MA1999999096301MD1999999+0021MW1051REMSYN076AAXX  09184 83242 31496 31801 10302 20180 39630 40118 705// 82370 333 58002;EQDQ01  00002PRCP99
0208832420999992002051000004-12570-041380FM-12+042799999V0209999C000012200019N0020001N1+02301+01901101501ADDAA199000091GA1001+999999999GF100991001001999999001001KA1240M+03061MA1999999096551MD1999999+0011REMSYN082AAXX  10004 83242 32995 00000 10230 20190 39655 40150 333 10306 29071 55080 58001;EQDQ01  00002PRCP99
0186832420999992002051012004-12570-041380FM-12+042799999V0201401N002110042019N0100001N1+02421+01841101841ADDAA199000091GF106991051071004501051001KA1240N+02031MA1999999096881MD1999999+0061REMSYN076AAXX  10124 83242 32497 61404 10242 20184 39688 40184 85750 333 20203 58006;EQDQ01  00002PRCP99
0179832420999992002051018004-12570-041380FM-12+042799999V0201801N002110450019N0040001N1+02931+01721101361ADDAA199000091GF108991031021004501011061MA1999999096451MD1999999+0151MW1051REMSYN076AAXX  10184 83242 31496 81804 10293 20172 39645 40136 705// 83216 333 58015;EQDQ01  00002PRCP99
0208832420999992002051100004-12570-041380FM-12+042799999V0200501N001012200019N0020001N1+02241+01711101641ADDAA199000091GA1001+999999999GF100991001001999999001001KA1240M+03001MA1999999096691MD1999999+0141REMSYN082AAXX  11004 83242 32995 00502 10224 20171 39669 40164 333 10300 29066 55071 58014;EQDQ01  00002PRCP99
0186832420999992002051112004-12570-041380FM-12+042799999V0201801N001010450019N0100001N1+02281+01811101891ADDAA199000091GF108991031011004501021071KA1240N+01691MA1999999096911MD1999999+0031REMSYN076AAXX  11124 83242 32497 81802 10228 20181 39691 40189 83127 333 20169 58003;EQDQ01  00002PRCP99
0182832420999992002051118004-12570-041380FM-12+042799999V0200501N001010042019N0040001N1+02541+02041101611ADDAA106000791AY151061AY221061GF108991081071004501999999MA1999999096621MD1999999+0171MW1151REMSYN082AAXX  11184 83242 21496 80502 10254 20204 39662 40161 71552 887// 333 58017 69901;
0213832420999992002051200004-12570-041380FM-12+042799999V0203601N000510042019N0010001N1+02181+02101101741ADDAA106000591AY151061AY221061GF108991081071004501999999KA1240M+02661MA1999999096771MD1999999+0081MW1511REMSYN100AAXX  12004 83242 21494 83601 10218 20210 39677 40174 75152 887// 333 10266 29085 55032 58008 69941;
0220832420999992002051212004-12570-041380FM-12+042799999V0201801N002110090019N0040001N1+02121+02021102081ADDAA124008991AY161061AY221061GF108991999081004501071999KA1240N+01911MA1999999096911MD1999999+0001MW1101REMSYN088AAXX  12124 83242 21496 81804 10212 20202 39691 40208 71062 8887/ 333 20191 58000 60094;EQDQ01+000082SCOTLC
0213832420999992002051300004-12570-041380FM-12+042799999V0202701N001510042019N0010001N1+02181+02131101711ADDAA106004191AY161061AY221061GF108991081071004501999999KA1240M+02721MA1999999096721MD1999999-0051MW1031REMSYN100AAXX  13004 83242 21494 82703 10218 20213 39672 40171 70362 887// 333 10272 29091 55021 59005 60041;
0201832420999992002051312004-12570-041380FM-12+042799999V0201801N002110042019N0020001N1+02061+02021101831ADDAA124010991AY161061AY221061GF108991081071004501999999KA1240N+01931MA1999999096831MD1999999-0081MW1201REMSYN088AAXX  13124 83242 21495 81804 10206 20202 39683 40183 72062 887// 333 20193 59008 60114;
0182832420999992002051318004-12570-041380FM-12+042799999V0201801N003110042019N0020001N1+02161+02111101611ADDAA106005191AY161061AY221061GF108991081071004501999999MA1999999096661MD1999999+0111MW1511REMSYN082AAXX  13184 83242 21495 81806 10216 20211 39666 40161 75162 887// 333 58011 60051;
0213832420999992002051400004-12570-041380FM-12+042799999V0201801N000510042019N0020001N1+02121+02041101791ADDAA106004191AY161061AY221061GF108991081071004501999999KA1240M+02641MA1999999096791MD1999999+0071MW1031REMSYN100AAXX  14004 83242 21495 81801 10212 20204 39679 40179 70362 887// 333 10264 29096 55012 58007 60041;
0201832420999992002051412004-12570-041380FM-12+042799999V0201801N002110042019N0100001N1+02261+01991101791ADDAA124007991AY161061AY221061GF106991051071004501031001KA1240N+01951MA1999999096811MD1999999-0021MW1021REMSYN088AAXX  14124 83242 21497 61804 10226 20199 39681 40179 70262 85730 333 20195 59002 60084;
0195832420999992002051418004-12570-041380FM-12+042799999V0201801N001510042019N0100001N1+02701+01831101411ADDAA199000091AY151061AY221061GF106991051071004501031001MA1999999096491MD1999999-0111MW1021REMSYN076AAXX  14184 83242 31497 61803 10270 20183 39649 40141 70252 85730 333 59011;EQDQ01  00002PRCP99
0213832420999992002051500004-12570-041380FM-12+042799999V0201801N001510042019N0020001N1+02011+01971101801ADDAA106000891AY151061AY241061GF108991081071004501999999KA1240M+02801MA1999999096811MD1999999+0021MW1021REMSYN100AAXX  15004 83242 21495 81803 10201 20197 39681 40180 70254 887// 333 10280 29084 55032 58002 69981;
0173832420999992002051512004-12570-041380FM-12+042799999V0201801N002610450019N0100001N1+02311+02021101981ADDAA124000891GF106991041071004501041051KA1240N+01931MA1999999096981MD1999999+0171REMSYN082AAXX  15124 83242 22497 61805 10231 20202 39698 40198 84745 333 20193 58017 69984;
0179832420999992002051518004-12570-041380FM-12+042799999V0201801N001510042019N0040001N1+02861+01811101521ADDAA199000091GF106991051041004501081001MA1999999096591MD1999999+0101MW1051REMSYN076AAXX  15184 83242 31496 61803 10286 20181 39659 40152 705// 85480 333 58010;EQDQ01  00002PRCP99
0198832420999992002051600004-12570-041380FM-12+042799999V0200901N001512200019N0020001N1+02141+01841101571ADDAA199000091GF102991021041004501001001KA1240M+02861MA1999999096601MD1999999-0211REMSYN088AAXX  16004 83242 32495 20903 10214 20184 39660 40157 82400 333 10286 29076 55054 59021;EQDQ01  00002PRCP99
0186832420999992002051612004-12570-041380FM-12+042799999V0201801N001011050019N0100001N1+02271+01881101661ADDAA199000091GF108991021021004501001071KA1240N+01911MA1999999096681MD1999999-0301REMSYN076AAXX  16124 83242 32497 81802 10227 20188 39668 40166 82207 333 20191 59030;EQDQ01  00002PRCP99
0179832420999992002051618004-12570-041380FM-12+042799999V0201801N001011050019N0040001N1+02961+01681101171ADDAA199000091GF108991011011004501001071MA1999999096281MD1999999-0311MW1051REMSYN076AAXX  16184 83242 31496 81802 10296 20168 39628 40117 705// 81107 333 59031;EQDQ01  00002PRCP99
0208832420999992002051700004-12570-041380FM-12+042799999V0201801N000512200019N0020001N1+02121+01781101351ADDAA199000091GA1001+999999999GF100991001001999999001001KA1240M+02961MA1999999096391MD1999999-0211REMSYN082AAXX  17004 83242 32995 01801 10212 20178 39639 40135 333 10296 29072 55099 59021;EQDQ01  00002PRCP99
0186832420999992002051712004-12570-041380FM-12+042799999V0201401N001012200019N0100001N1+02361+01831101491ADDAA199000091GF103991031011004501001001KA1240N+01891MA1999999096531MD1999999-0151REMSYN076AAXX  17124 83242 32497 31402 10236 20183 39653 40149 83100 333 20189 59015;EQDQ01  00002PRCP99
0179832420999992002051718004-12570-041380FM-12+042799999V0201801N001510450019N0040001N1+03021+01471100941ADDAA199000091GF108991021021004501051071MA1999999096061MD1999999-0221MW1051REMSYN076AAXX  17184 83242 31496 81803 10302 20147 39606 40094 705// 82257 333 59022;EQDQ01  00002PRCP99
0208832420999992002051800004-12570-041380FM-12+042799999V0201401N001012200019N0020001N1+02281+01771101141ADDAA199000091GA1001+999999999GF100991001001999999001001KA1240M+03071MA1999999096211MD1999999-0181REMSYN082AAXX  18004 83242 32995 01402 10228 20177 39621 40114 333 10307 29064 55083 59018;EQDQ01  00002PRCP99
0198832420999992002051812004-12570-041380FM-12+042799999V0201801N001510450019N0040001N1+02381+01951101441ADDAA199000091GF106991041041004501031051KA1240N+01871MA1999999096511MD1999999-0021MW1051REMSYN082AAXX  18124 83242 31496 61803 10238 20195 39651 40144 705// 84435 333 20187 59002;EQDQ01  00002PRCP99
0179832420999992002051818004-12570-041380FM-12+042799999V0201801N002110042019N0040001N1+03021+01661101061ADDAA199000091GF108991061021004501031071MA1999999096161MD1999999+0101MW1051REMSYN076AAXX  18184 83242 31496 81804 10302 20166 39616 40106 705// 86237 333 58010;EQDQ01  00002PRCP99
0198832420999992002051900004-12570-041380FM-12+042799999V0209999C000012200019N0020001N1+02341+01871101311ADDAA199000091GF102991021001004501031001KA1240M+03061MA1999999096381MD1999999+0171REMSYN088AAXX  19004 83242 32495 20000 10234 20187 39638 40131 82030 333 10306 29068 55090 58017;EQDQ01  00002PRCP99
0186832420999992002051912004-12570-041380FM-12+042799999V0201801N000510042019N0100001N1+02281+01831101661ADDAA199000091GF107991051061004501051001KA1240N+01921MA1999999096701MD1999999+0191REMSYN076AAXX  19124 83242 32497 71801 10228 20183 39670 40166 85650 333 20192 58019;EQDQ01  00002PRCP99
0179832420999992002051918004-12570-041380FM-12+042799999V0201801N000510450019N0040001N1+03041+01571101151ADDAA199000091GF108991021011004501091071MA1999999096261MD1999999+0101MW1051REMSYN076AAXX  19184 83242 31496 81801 10304 20157 39626 40115 705// 82197 333 58010;EQDQ01  00002PRCP99
0208832420999992002052000004-12570-041380FM-12+042799999V0209999C000012200019N0020001N1+02241+01881101381ADDAA199000091GA1001+999999999GF100991001001999999001001KA1240M+03041MA1999999096431MD1999999+0051REMSYN082AAXX  20004 83242 32995 00000 10224 20188 39643 40138 333 10304 29069 55058 58005;EQDQ01  00002PRCP99
0186832420999992002052012004-12570-041380FM-12+042799999V0201801N001510042019N0100001N1+02281+01941101781ADDAA199000091GF106991051071004501031001KA1240N+01991MA1999999096701MD1999999+0001REMSYN076AAXX  20124 83242 32497 61803 10228 20194 39670 40178 85730 333 20199 58000;EQDQ01  00002PRCP99
0179832420999992002052018004-12570-041380FM-12+042799999V0201801N001510450019N0040001N1+02941+01721101261ADDAA199000091GF108991021021004501091071MA1999999096271MD1999999-0021MW1051REMSYN076AAXX  20184 83242 31496 81803 10294 20172 39627 40126 705// 82297 333 59002;EQDQ01  00002PRCP99
0208832420999992002052100004-12570-041380FM-12+042799999V0203601N001512200019N0020001N1+02181+00901101341ADDAA199000091GA1001+999999999GF100991001001999999001001KA1240M+02941MA1999999096391MD1999999-0041REMSYN082AAXX  21004 83242 32995 03603 10218 29090 39639 40134 333 10294 29074 55052 59004;EQDQ01  00002PRCP99
0186832420999992002052112004-12570-041380FM-12+042799999V0201801N000510450019N0100001N1+02341+02011101551ADDAA199000091GF106991031051004501041051KA1240N+01951MA1999999096591MD1999999-0111REMSYN076AAXX  21124 83242 32497 61801 10234 20201 39659 40155 83545 333 20195 59011;EQDQ01  00002PRCP99
0179832420999992002052118004-12570-041380FM-12+042799999V0202301N001510450019N0040001N1+03141+01771100951ADDAA199000091GF108991011021004501071071MA1999999096081MD1999999-0191MW1051REMSYN076AAXX  21184 83242 31496 82303 10314 20177 39608 40095 705// 81277 333 59019;EQDQ01  00002PRCP99
0208832420999992002052200004-12570-041380FM-12+042799999V0200901N000512200019N0020001N1+02361+01951101241ADDAA199000091GA1001+999999999GF100991001001999999001001KA1240M+03141MA1999999096321MD1999999-0071REMSYN082AAXX  22004 83242 32995 00901 10236 20195 39632 40124 333 10314 29070 55082 59007;EQDQ01  00002PRCP99
0214832420999992002052212004-12570-041380FM-12+042799999V0201801N000519999999N0040001N1+02361+02051101431ADDAA199000091GF106991999051004501071041KA1240N+02111MA1999999096501MD1999999-0091MW1101REMSYN082AAXX  22124 83242 31496 61801 10236 20205 39650 40143 710// 88574 333 20211 59009;EQDQ01+000082SCOTLCQ02  00002PRCP99
0179832420999992002052218004-12570-041380FM-12+042799999V0201401N002110450019N0040001N1+03021+01851100861ADDAA199000091GF106991041061004501031081MA1999999096001MD1999999-0081MW1051REMSYN076AAXX  22184 83242 31496 61404 10302 20185 39600 40086 705// 84638 333 59008;EQDQ01  00002PRCP99
0213832420999992002052300004-12570-041380FM-12+042799999V0203601N001010450019N0020001N1+02441+02071101211ADDAA106000791AY151061AY221061GF106991031041004501051001KA1240M+03081MA1999999096301MD1999999-0021MW1031REMSYN100AAXX  23004 83242 21495 63602 10244 20207 39630 40121 70352 83450 333 10308 29073 55045 59002 69901;
0201832420999992002052312004-12570-041380FM-12+042799999V0201801N001510042019N0020001N1+02111+02091101551ADDAA124024991AY161061AY221061GF108991081071004501999999KA1240N+02011MA1999999096601MD1999999+0101MW1611REMSYN088AAXX  23124 83242 21495 81803 10211 20209 39660 40155 76162 887// 333 20201 58010 60254;
0182832420999992002052318004-12570-041380FM-12+042799999V0201801N000510042019N0040001N1+02541+01911101151ADDAA106000891AY151061AY221061GF107991061071004501051001MA1999999096221MD1999999+0221MW1151REMSYN082AAXX  23184 83242 21496 71801 10254 20191 39622 40115 71552 86750 333 58022 69981;
0213832420999992002052400004-12570-041380FM-12+042799999V0201801N001510042019N0010001N1+02141+01891101551ADDAA106002091AY161061AY251061GF108991081071004501999999KA1240M+02701MA1999999096561MD1999999+0261MW1101REMSYN100AAXX  24004 83242 21494 81803 10214 20189 39656 40155 71065 887// 333 10270 29087 55000 58026 60021;
0201832420999992002052412004-12570-041380FM-12+042799999V0201801N001510042019N0040001N1+02071+01891101741ADDAA124006191AY161061AY221061GF108991081071004501999999KA1240N+01881MA1999999096741MD1999999+0141MW1101REMSYN088AAXX  24124 83242 21496 81803 10207 20189 39674 40174 71062 887// 333 20188 58014 60064;
0182832420999992002052418004-12570-041380FM-12+042799999V0201801N002110042019N0100001N1+02341+01781101341ADDAA106000791AY151061AY221061GF108991081071004501999999MA1999999096361MD1999999+0141MW1031REMSYN082AAXX  24184 83242 21497 81804 10234 20178 39636 40134 70352 887// 333 58014 69901;
0213832420999992002052500004-12570-041380FM-12+042799999V0203601N001510042019N0010001N1+02031+01971101631ADDAA106000191AY151061AY241061GF108991081071004501999999KA1240M+02401MA1999999096631MD1999999+0071MW1101REMSYN100AAXX  25004 83242 21494 83603 10203 20197 39663 40163 71054 887// 333 10240 29088 55001 58007 69921;
0173832420999992002052512004-12570-041380FM-12+042799999V0201801N001510042019N0100001N1+02081+01701101791ADDAA124000191GF107991051071004501031061KA1240N+01881MA1999999096781MD1999999+0041REMSYN082AAXX  25124 83242 22497 71803 10208 20170 39678 40179 85736 333 20188 58004 69924;
0167832420999992002052518004-12570-041380FM-12+042799999V0201801N000510042019N0100001N1+02561+01571101441ADDAA199000091GF106991051071004501051001MA1999999096471MD1999999+0111REMSYN070AAXX  25184 83242 32497 61801 10256 20157 39647 40144 85750 333 58011;EQDQ01  00002PRCP99
0213832420999992002052600004-12570-041380FM-12+042799999V0202701N000510042019N0020001N1+01981+01721101771ADDAA106000191AY151061AY221061GF108991081071004501999999KA1240M+02601MA1999999096761MD1999999+0131MW1031REMSYN100AAXX  26004 83242 21495 82701 10198 20172 39676 40177 70352 887// 333 10260 29075 55035 58013 69921;
0173832420999992002052612004-12570-041380FM-12+042799999V0201801N001512200019N0100001N1+02101+01721101931ADDAA124000191GF103991031011004501001001KA1240N+01591MA1999999096911MD1999999+0131REMSYN082AAXX  26124 83242 22497 31803 10210 20172 39691 40193 83100 333 20159 58013 69924;
0179832420999992002052618004-12570-041380FM-12+042799999V0201401N002112200019N0040001N1+02761+01281101451ADDAA199000091GF103991021011004501081001MA1999999096481MD1999999+0011MW1051REMSYN076AAXX  26184 83242 31496 31404 10276 20128 39648 40145 705// 82180 333 58001;EQDQ01  00002PRCP99
0208832420999992002052700004-12570-041380FM-12+042799999V0203601N001512200019N0020001N1+01881+01451101721ADDAA199000091GA1001+999999999GF100991001001999999001001KA1240M+02741MA1999999096701MD1999999-0061REMSYN082AAXX  27004 83242 32995 03603 10188 20145 39670 40172 333 10274 29068 55101 59006;EQDQ01  00002PRCP99
0186832420999992002052712004-12570-041380FM-12+042799999V0201401N002111050019N0100001N1+02011+01541101901ADDAA199000091GF108991011011004501001071KA1240N+01461MA1999999096861MD1999999-0051REMSYN076AAXX  27124 83242 32497 81404 10201 20154 39686 40190 81107 333 20146 59005;EQDQ01  00002PRCP99
0179832420999992002052718004-12570-041380FM-12+042799999V0201801N001011050019N0040001N1+02741+01301101251ADDAA199000091GF108991011011004501001071MA1999999096351MD1999999-0131MW1051REMSYN076AAXX  27184 83242 31496 81802 10274 20130 39635 40125 705// 81107 333 59013;EQDQ01  00002PRCP99
0198832420999992002052800004-12570-041380FM-12+042799999V0203601N001512200019N0020001N1+01861+01411101501ADDAA199000091GF101991011011004501001001KA1240M+02741MA1999999096481MD1999999-0221REMSYN088AAXX  28004 83242 32495 13603 10186 20141 39648 40150 81100 333 10274 29066 55103 59022;EQDQ01  00002PRCP99
0186832420999992002052812004-12570-041380FM-12+042799999V0201801N000511050019N0100001N1+02061+01521101771ADDAA199000091GF108991021011004501001071KA1240N+01551MA1999999096741MD1999999-0121REMSYN076AAXX  28124 83242 32497 81801 10206 20152 39674 40177 82107 333 20155 59012;EQDQ01  00002PRCP99
0179832420999992002052818004-12570-041380FM-12+042799999V0201801N002111050019N0040001N1+02901+01131101171ADDAA199000091GF108991011011004501001071MA1999999096251MD1999999-0101MW1051REMSYN076AAXX  28184 83242 31496 81804 10290 20113 39625 40117 705// 81107 333 59010;EQDQ01  00002PRCP99
0208832420999992002052900004-12570-041380FM-12+042799999V0203601N001012200019N0020001N1+01961+01241101391ADDAA199000091GA1001+999999999GF100991001001999999001001KA1240M+02921MA1999999096391MD1999999-0091REMSYN082AAXX  29004 83242 32995 03602 10196 20124 39639 40139 333 10292 29058 55102 59009;EQDQ01  00002PRCP99
0179832420999992002052918004-12570-041380FM-12+042799999V0202701N001512200019N0040001N1+02741+01411101301ADDAA199000091GF102991021011004501001001MA1999999096321MD1999999+0071MW1051REMSYN076AAXX  29184 83242 31496 22703 10274 20141 39632 40130 705// 82100 333 58007;EQDQ01  00002PRCP99
0198832420999992002053000004-12570-041380FM-12+042799999V0203601N001512200019N0020001N1+01961+01441101521ADDAA199000091GF101991011011004501001001KA1240M+02861MA1999999096511MD1999999+0121REMSYN088AAXX  30004 83242 32495 13603 10196 20144 39651 40152 81100 333 10286 29067 55101 58012;EQDQ01  00002PRCP99
0186832420999992002053012004-12570-041380FM-12+042799999V0201401N001510450019N0100001N1+02341+01781101801ADDAA199000091GF106991031071004501031011KA1240N+01651MA1999999096811MD1999999+0301REMSYN076AAXX  30124 83242 32497 61403 10234 20178 39681 40180 83731 333 20165 58030;EQDQ01  00002PRCP99
0167832420999992002053018004-12570-041380FM-12+042799999V0201401N002610450019N0100001N1+02781+01641101271ADDAA199000091GF107991031011004501081051MA1999999096331MD1999999+0011REMSYN070AAXX  30184 83242 32497 71405 10278 20164 39633 40127 83185 333 58001;EQDQ01  00002PRCP99
0198832420999992002053100004-12570-041380FM-12+042799999V0201801N000510042019N0020001N1+02161+01661101651ADDAA199000091GF107991071051004501001001KA1240M+02821MA1999999096651MD1999999+0141REMSYN088AAXX  31004 83242 32495 71801 10216 20166 39665 40165 87500 333 10282 29067 55089 58014;EQDQ01  00002PRCP99
0198832420999992002053112004-12570-041380FM-12+042799999V0201801N001010042019N0040001N1+02261+01861101921ADDAA199000091GF107991051071004501031001KA1240N+01951MA1999999096931MD1999999+0121MW1051REMSYN082AAXX  31124 83242 31496 71802 10226 20186 39693 40192 705// 85730 333 20195 58012;EQDQ01  00002PRCP99
0167832420999992002053118004-12570-041380FM-12+042799999V0201401N001011050019N0100001N1+02751+01831101381ADDAA199000091GF107991021031004501001051MA1999999096461MD1999999+0131REMSYN070AAXX  31184 83242 32497 71402 10275 20183 39646 40138 82305 333 58013;EQDQ01  00002PRCP99
0198832420999992002060100004-12570-041380FM-12+042799999V0202701N001010042019N0020001N1+02141+01801101601ADDAA199000091GF108991081051004501999999KA1240M+02861MA1999999096631MD1999999-0021REMSYN088AAXX  01004 83242 32495 82702 10214 20180 39663 40160 885// 333 10286 29074 55057 59002;EQDQ01  00002PRCP99
0201832420999992002060112004-12570-041380FM-12+042799999V0200901N001510042019N0040001N1+02141+01931101941ADDAA124001091AY151061AY241061GF108991081071004501999999KA1240N+02041MA1999999096941MD1999999+0011MW1201REMSYN088AAXX  01124 83242 21496 80903 10214 20193 39694 40194 72054 887// 333 20204 58001 60014;
0182832420999992002060118004-12570-041380FM-12+042799999V0201801N001510450019N0100001N1+02821+01861101371ADDAA106000591AY151061AY241061GF107991021031004501081051MA1999999096471MD1999999+0011MW1031REMSYN082AAXX  01184 83242 21497 71803 10282 20186 39647 40137 70354 82385 333 58001 69941;
0213832420999992002060200004-12570-041380FM-12+042799999V0202301N001510042019N0010001N1+02251+01791101691ADDAA106000791AY151061AY221061GF108991081071004501999999KA1240M+02881MA1999999096711MD1999999+0081MW1051REMSYN100AAXX  02004 83242 21494 82303 10225 20179 39671 40169 70552 887// 333 10288 29074 55063 58008 69901;
0173832420999992002060212004-12570-041380FM-12+042799999V0201801N002110450019N0100001N1+02301+01791101891ADDAA124000591GF107991031071004501081021KA1240N+01911MA1999999096921MD1999999-0021REMSYN082AAXX  02124 83242 22497 71804 10230 20179 39692 40189 83782 333 20191 59002 69944;
0167832420999992002060218004-12570-041380FM-12+042799999V0201801N002110450019N0100001N1+02741+01571101481ADDAA199000091GF107991031071004501081001MA1999999096551MD1999999+0081REMSYN070AAXX  02184 83242 32497 71804 10274 20157 39655 40148 83780 333 58008;EQDQ01  00002PRCP99
0208832420999992002060300004-12570-041380FM-12+042799999V0203601N000512200019N0020001N1+02021+01541101731ADDAA199000091GA1001+999999999GF100991001001999999001001KA1240M+02821MA1999999096741MD1999999+0031REMSYN082AAXX  03004 83242 32995 03601 10202 20154 39674 40173 333 10282 29068 55097 58003;EQDQ01  00002PRCP99
0186832420999992002060312004-12570-041380FM-12+042799999V0201801N001010450019N0100001N1+02101+01701101801ADDAA199000091GF106991041051004501031001KA1240N+01751MA1999999096811MD1999999-0111REMSYN076AAXX  03124 83242 32497 61802 10210 20170 39681 40180 84530 333 20175 59011;EQDQ01  00002PRCP99
0179832420999992002060318004-12570-041380FM-12+042799999V0201801N000510450019N0040001N1+02901+01401101281ADDAA199000091GF105991031051004501081011MA1999999096351MD1999999-0201MW1051REMSYN076AAXX  03184 83242 31496 51801 10290 20140 39635 40128 705// 83581 333 59020;EQDQ01  00002PRCP99
0198832420999992002060400004-12570-041380FM-12+042799999V0202701N000510042019N0020001N1+02341+01721101601ADDAA199000091GF107991071061004501001001KA1240M+02901MA1999999096631MD1999999-0111REMSYN088AAXX  04004 83242 32495 72701 10234 20172 39663 40160 87600 333 10290 29064 55074 59011;EQDQ01  00002PRCP99
0201832420999992002060412004-12570-041380FM-12+042799999V0201801N001510042019N0100001N1+02181+01951101761ADDAA124002091AY161061AY221061GF106991051071004501041001KA1240N+01931MA1999999096791MD1999999-0021MW1031REMSYN088AAXX  04124 83242 21497 61803 10218 20195 39679 40176 70362 85740 333 20193 59002 60024;
0167832420999992002060418004-12570-041380FM-12+042799999V0201801N001510042019N0100001N1+02761+01621101241ADDAA199000091GF108991081071004501999999MA1999999096331MD1999999-0021REMSYN070AAXX  04184 83242 32497 81803 10276 20162 39633 40124 887// 333 59002;EQDQ01  00002PRCP99
0198832420999992002060500004-12570-041380FM-12+042799999V0201801N001010042019N0020001N1+02261+01981101571ADDAA199000091GF106991061071004501001001KA1240M+02841MA1999999096601MD1999999-0031REMSYN088AAXX  05004 83242 32495 61802 10226 20198 39660 40157 86700 333 10284 29076 55034 59003;EQDQ01  00002PRCP99
0201832420999992002060512004-12570-041380FM-12+042799999V0201801N001010042019N0040001N1+02051+01891101741ADDAA124018091AY161061AY221061GF108991081071004501999999KA1240N+01911MA1999999096751MD1999999-0041MW1101REMSYN088AAXX  05124 83242 21496 81802 10205 20189 39675 40174 71062 887// 333 20191 59004 60184;
0167832420999992002060518004-12570-041380FM-12+042799999V0201801N001510450019N0100001N1+02661+01791101291ADDAA199000091GF105991041031004501041001MA1999999096361MD1999999+0031REMSYN070AAXX  05184 83242 32497 51803 10266 20179 39636 40129 84340 333 58003;EQDQ01  00002PRCP99
0208832420999992002060600004-12570-041380FM-12+042799999V0203601N001012200019N0020001N1+02101+01861101531ADDAA199000091GA1001+999999999GF100991001001999999001001KA1240M+02771MA1999999096521MD1999999-0081REMSYN082AAXX  06004 83242 32995 03602 10210 20186 39652 40153 333 10277 29080 55057 59008;EQDQ01  00002PRCP99
0179832420999992002060618004-12570-041380FM-12+042799999V0201801N002110450019N0040001N1+02801+01751101261ADDAA199000091GF105991041041004501081001MA1999999096341MD1999999-0021MW1051REMSYN076AAXX  06184 83242 31496 51804 10280 20175 39634 40126 705// 84480 333 59002;EQDQ01  00002PRCP99
0198832420999992002060700004-12570-041380FM-12+042799999V0201801N000510042019N0020001N1+02281+01771101561ADDAA199000091GF106991061071004501001001KA1240M+02821MA1999999096601MD1999999+0081REMSYN088AAXX  07004 83242 32495 61801 10228 20177 39660 40156 86700 333 10282 29071 55066 58008;EQDQ01  00002PRCP99
0190832420999992002060712004-12570-041380FM-12+042799999V0201401N001010042019N0040001N1+02131+01901101831ADDAY161061AY221061GF107991061071004501041001KA1240N+01861MA1999999096851MD1999999+0001MW1101REMSYN088AAXX  07124 83242 21496 71402 10213 20190 39685 40183 71062 86740 333 20186 58000 60044;
0167832420999992002060718004-12570-041380FM-12+042799999V0201801N000510450019N0100001N1+02621+01701101421ADDAA199000091GF105991041041004501081001MA1999999096471MD1999999+0131REMSYN070AAXX  07184 83242 32497 51801 10262 20170 39647 40142 84480 333 58013;EQDQ01  00002PRCP99
0210832420999992002060800004-12570-041380FM-12+042799999V0201801N002112200019N0010001N1+02101+01931101671ADDAA199000091GF102991021041004501001001KA1240M+02711MA1999999096671MD1999999+0071MW1101REMSYN094AAXX  08004 83242 31494 21804 10210 20193 39667 40167 710// 82400 333 10271 29081 55065 58007;EQDQ01  00002PRCP99
0186832420999992002060812004-12570-041380FM-12+042799999V0201801N000510042019N0100001N1+02131+01841102031ADDAA199000091GF106991051071004501051001KA1240N+01871MA1999999097021MD1999999-0171REMSYN076AAXX  08124 83242 32497 61801 10213 20184 39702 40203 85750 333 20187 59017;EQDQ01  00002PRCP99
0167832420999992002060818004-12570-041380FM-12+042799999V0201801N001010042019N0100001N1+02661+01711101511ADDAA199000091GF107991051071004501091061MA1999999096561MD1999999+0091REMSYN070AAXX  08184 83242 32497 71802 10266 20171 39656 40151 85796 333 58009;EQDQ01  00002PRCP99
0202832420999992002060900004-12570-041380FM-12+042799999V0201801N000510042019N0020001N1+02181+02041101801ADDAY151061AY221061GF108991081071004501999999KA1240M+02741MA1999999096811MD1999999+0141MW1501REMSYN100AAXX  09004 83242 21495 81801 10218 20204 39681 40180 75052 887// 333 10274 29081 55044 58014 69961;
0209832420999992002060912004-12570-041380FM-12+042799999V0201801N001510042019N0040001N1+02101+02021101921ADDAY151061AY221061GF108991081071004501999999KA1240N+01941MA1999999999999MD1999999-0101MW1101REMSYN088AAXX  09124 83242 21496 81803 10210 20202 39892 40192 71052 887// 333 20194 59010 60014;EQDQ01 098923APOSP 
0183832420999992002060918004-12570-041380FM-12+042799999V0201801N004610450019N0100001N1+02641+01801101451ADDAA199000091GF105991031051004501071051MA1999999096502MD1999999-0061REMSYN070AAXX  09184 83242 32497 51809 10264 20180 39650 40145 83575 333 59006;EQDQ01+096503APOSP Q02  00002PRCP99
0198832420999992002061000004-12570-041380FM-12+042799999V0200901N000510042019N0020001N1+02261+01821101701ADDAA199000091GF105991051071004501001001KA1240M+02721MA1999999096721MD1999999-0091REMSYN088AAXX  10004 83242 32495 50901 10226 20182 39672 40170 85700 333 10272 29077 55042 59009;EQDQ01  00002PRCP99
0186832420999992002061012004-12570-041380FM-12+042799999V0201401N001510450019N0100001N1+02031+01811101861ADDAA199000091GF105991031021004501031001KA1240N+01701MA1999999096861MD1999999-0061REMSYN076AAXX  10124 83242 32497 51403 10203 20181 39686 40186 83230 333 20170 59006;EQDQ01  00002PRCP99
0167832420999992002061018004-12570-041380FM-12+042799999V0201801N001010450019N0100001N1+02761+01591101441ADDAA199000091GF105991041061004501081001MA1999999096511MD1999999-0011REMSYN070AAXX  10184 83242 32497 51802 10276 20159 39651 40144 84680 333 59001;EQDQ01  00002PRCP99
0198832420999992002061100004-12570-041380FM-12+042799999V0201801N000510042019N0020001N1+02201+01781101641ADDAA199000091GF108991081051004501999999KA1240M+02761MA1999999096651MD1999999-0071REMSYN088AAXX  11004 83242 32495 81801 10220 20178 39665 40164 885// 333 10276 29073 55073 59007;EQDQ01  00002PRCP99
0190832420999992002061112004-12570-041380FM-12+042799999V0201401N000510042019N0040001N1+02051+01851101811ADDAY161061AY221061GF108991081071004501999999KA1240N+01851MA1999999096821MD1999999-0041MW1101REMSYN088AAXX  11124 83242 21496 81401 10205 20185 39682 40181 71062 887// 333 20185 59004 60024;
0167832420999992002061118004-12570-041380FM-12+042799999V0202301N001510450019N0100001N1+02501+01721101471ADDAA199000091GF105991041061004501081001MA1999999096501MD1999999-0011REMSYN070AAXX  11184 83242 32497 52303 10250 20172 39650 40147 84680 333 59001;EQDQ01  00002PRCP99
0198832420999992002061200004-12570-041380FM-12+042799999V0202701N000512200019N0020001N1+02181+01841101641ADDAA199000091GF102991021051004501001001KA1240M+02641MA1999999096651MD1999999+0001REMSYN088AAXX  12004 83242 32495 22701 10218 20184 39665 40164 82500 333 10264 29078 55020 58000;EQDQ01  00002PRCP99
0186832420999992002061212004-12570-041380FM-12+042799999V0201801N002110450019N0100001N1+02261+01921101781ADDAA199000091GF105991031021004501031001KA1240N+01951MA1999999096801MD1999999-0021REMSYN076AAXX  12124 83242 32497 51804 10226 20192 39680 40178 83230 333 20195 59002;EQDQ01  00002PRCP99
0167832420999992002061218004-12570-041380FM-12+042799999V0201801N001010042019N0100001N1+02721+01791101381ADDAA199000091GF106991051071004501031001MA1999999096461MD1999999-0041REMSYN070AAXX  12184 83242 32497 61802 10272 20179 39646 40138 85730 333 59004;EQDQ01  00002PRCP99
0174832420999992002061412004-12570-041380FM-12+042799999V0201801N002610042019N0040001N1+02161+01841101951ADDGF108991081071004501999999KA1240N+01931MA1999999096971MD1999999+0061MW1101REMSYN088AAXX  14124 83242 22496 81805 10216 20184 39697 40195 710// 887// 333 20193 58006 69924;
0171832420999992002061418004-12570-041380FM-12+042799999V0201401N001010042019N0040001N1+02601+01741101621ADDAY151061AY221061GF107991061071004501061001MA1999999096661MD1999999+0121MW1151REMSYN082AAXX  14184 83242 21496 71402 10260 20174 39666 40162 71552 86760 333 58012 69901;
0198832420999992002061500004-12570-041380FM-12+042799999V0201801N003010042019N0020001N1+02261+01991101851ADDAA199000091GF107991061071004501081001KA1240M+02721MA1999999096871MD1999999+0151REMSYN088AAXX  15000 83242 32495 71803 10226 20199 39687 40185 86780 333 10272 29078 55020 58015;EQDQ01  00002PRCP99
0190832420999992002061512004-12570-041380FM-12+042799999V0201401N003110042019N0100001N1+02251+01821102071ADDAY151061AY221061GF106991051071004501031001KA1240N+01871MA1999999097081MD1999999+0111MW1021REMSYN088AAXX  15124 83242 21497 61406 10225 20182 39708 40207 70252 85730 333 20187 58011 69914;
0198832420999992002061600004-12570-041380FM-12+042799999V0201801N001010042019N0020001N1+02261+01861101881ADDAA199000091GF108991081071004501999999KA1240M+02771MA1999999096901MD1999999+0031REMSYN088AAXX  16004 83242 32495 81802 10226 20186 39690 40188 887// 333 10277 29072 55068 58003;EQDQ01  00002PRCP99
0186832420999992002061612004-12570-041380FM-12+042799999V0201401N002610042019N0100001N1+02041+01741102031ADDAA199000091GF108991081071004501999999KA1240N+01711MA1999999097031MD1999999-0031REMSYN076AAXX  16124 83242 32497 81405 10204 20174 39703 40203 887// 333 20171 59003;EQDQ01  00002PRCP99
0171832420999992002061618004-12570-041380FM-12+042799999V0201801N002110042019N0100001N1+02521+01741101601ADDAY151061AY221061GF106991051051004501091001MA1999999096631MD1999999-0071MW1011REMSYN082AAXX  16184 83242 21497 61804 10252 20174 39663 40160 70152 85590 333 59007 69901;
0198832420999992002061700004-12570-041380FM-12+042799999V0201801N001510042019N0020001N1+02221+01731101821ADDAA199000091GF107991071071004501001001KA1240M+02641MA1999999096831MD1999999-0071REMSYN088AAXX  17004 83242 32495 71803 10222 20173 39683 40182 87700 333 10264 29073 55041 59007;EQDQ01  00002PRCP99
0190832420999992002061712004-12570-041380FM-12+042799999V0201401N001510042019N0040001N1+02081+01911101941ADDAY151061AY221061GF108991081071004501999999KA1240N+01851MA1999999096941MD1999999-0091MW1501REMSYN088AAXX  17124 83242 21496 81403 10208 20191 39694 40194 75052 887// 333 20185 59009 69974;
0171832420999992002061718004-12570-041380FM-12+042799999V0202301N001010042019N0040001N1+02501+01841101581ADDAY161061AY221061GF106991051071004501031001MA1999999096611MD1999999-0021MW1151REMSYN082AAXX  17184 83242 21496 62302 10250 20184 39661 40158 71562 85730 333 59002 60031;
0162832420999992002061812004-12570-041380FM-12+042799999V0200901N000510042019N0040001N1+02941+01661102041ADDGF107991071071004501001001KA1240N+01651MA1999999097021MD1999999+0081REMSYN082AAXX  18124 83242 22496 70901 10294 20166 39702 40204 87700 333 20165 58008 60044;
0202832420999992002061900004-12570-041380FM-12+042799999V0201801N002610042019N0020001N1+02261+01751101891ADDAY151061AY221061GF108991081071004501999999KA1240M+02711MA1999999096881MD1999999+0081MW1021REMSYN100AAXX  19004 83242 21495 81805 10226 20175 39688 40189 70252 887// 333 10271 29070 55060 58008 69901;
0190832420999992002061912004-12570-041380FM-12+042799999V0201801N002110042019N0040001N1+02101+01861102061ADDAY151061AY241061GF108991081071004501999999KA1240N+01831MA1999999097061MD1999999+0041MW1201REMSYN088AAXX  19124 83242 21496 81804 10210 20186 39706 40206 72054 887// 333 20183 58004 69914;
0202832420999992002062000004-12570-041380FM-12+042799999V0201801N001510042019N0020001N1+02161+01821101931ADDAY151061AY221061GF107991071071004501001001KA1240M+02751MA1999999096931MD1999999+0051MW1031REMSYN100AAXX  20004 83242 21495 71803 10216 20182 39693 40193 70352 87700 333 10275 29074 55048 58005 69991;
0162832420999992002062012004-12570-041380FM-12+042799999V0201401N003110450019N0100001N1+02101+01701101701ADDGF105991031021004501041081KA1240N+01711MA1999999097061MD1999999+0001REMSYN082AAXX  20124 83242 22497 51406 10210 20170 39706 40170 83248 333 20171 58000 69994;
0167832420999992002062018004-12570-041380FM-12+042799999V0201801N002110042019N0100001N1+02641+01511101741ADDAA199000091GF106991051061004501031001MA1999999096761MD1999999+0091REMSYN070AAXX  20184 83242 32497 61804 10264 20151 39676 40174 85630 333 58009;EQDQ01  00002PRCP99
0179832420999992002062118004-12570-041380FM-12+042799999V0201801N003110450019N0040001N1+02481+01801101631ADDAA199000091GF107991021051004501081001MA1999999096661MD1999999-0141MW1041REMSYN076AAXX  21184 83242 31496 71806 10248 20180 39666 40163 704// 82580 333 59014;EQDQ01  00002PRCP99
0198832420999992002062200004-12570-041380FM-12+042799999V0202301N001012200019N0020001N1+02041+01721101891ADDAA199000091GF104991011041004501081021KA1240M+02671MA1999999096871MD1999999-0011REMSYN088AAXX  22004 83242 32495 42302 10204 20172 39687 40189 81482 333 10267 29080 55024 59001;EQDQ01  00002PRCP99
0190832420999992002062212004-12570-041380FM-12+042799999V0201801N001510042019N0020001N1+01921+01841102141ADDAY161061AY241061GF108991081071004501999999KA1240N+01811MA1999999097101MD1999999+0021MW1101REMSYN088AAXX  22124 83242 21495 81803 10192 20184 39710 40214 71064 887// 333 20181 58002 60034;
0171832420999992002062218004-12570-041380FM-12+042799999V0201401N001510042019N0040001N1+02461+01731101711ADDAY151061AY221061GF107991051071004501071021MA1999999096731MD1999999+0071MW1031REMSYN082AAXX  22184 83242 21496 71403 10246 20173 39673 40171 70352 85772 333 58007 69901;
0221832420999992002062300004-12570-041380FM-12+042799999V0202301N001010042019N0010001N1+02001+01881102081ADDAY161061AY221061GF108991081071004501999999KA1240M+99999MA1999999097031MD1999999+0161MW1101REMSYN100AAXX  23004 83242 21494 82302 10200 20188 39703 40208 71062 887// 333 10154 29086 55014 58016 60011;EQDQ01 +01542ATMX  
0209832420999992002062312004-12570-041380FM-12+042799999V0200501N001010042019N0040001N1+02021+01831102161ADDAY161061AY221061GF108991081071004501999999KA1240N+01781MA1999999999999MD1999999+0021MW1101REMSYN088AAXX  23124 83242 21496 80502 10202 20183 30192 40216 71062 887// 333 20178 58002 60034;EQDQ01 101923APOSP 
0183832420999992002062318004-12570-041380FM-12+042799999V0201801N002610042019N0040001N1+02361+01661101731ADDAA199000091GF107991061071004501011001MA1999999096732MD1999999+0001REMSYN070AAXX  23184 83242 32496 71805 10236 20166 39673 40173 86710 333 58000;EQDQ01+096733APOSP Q02  00002PRCP99
0210832420999992002062400004-12570-041380FM-12+042799999V0201801N001010042019N0010001N1+02081+01641102031ADDAA199000091GF107991061071004501081001KA1240M+02461MA1999999097011MD1999999-0021MW1051REMSYN094AAXX  24004 83242 31494 71802 10208 20164 39701 40203 705// 86780 333 10246 29076 55003 59002;EQDQ01  00002PRCP99
0186832420999992002062412004-12570-041380FM-12+042799999V0201801N001010042019N0040001N1+02981+01641102221ADDAA199000091GF108991081051004501999999KA1240N+01621MA1999999097191MD1999999+0071REMSYN076AAXX  24124 83242 32496 81802 10298 20164 39719 40222 885// 333 20162 58007;EQDQ01  00002PRCP99
0167832420999992002062418004-12570-041380FM-12+042799999V0201801N001010450019N0100001N1+02421+01791101821ADDAA199000091GF107991021051004501031001MA1999999096811MD1999999+0081REMSYN070AAXX  24184 83242 32497 71802 10242 20179 39681 40182 82530 333 58008;EQDQ01  00002PRCP99
0202832420999992002062500004-12570-041380FM-12+042799999V0201801N001010042019N0010001N1+02061+01891102071ADDAY151061AY221061GF107991051071004501051001KA1240M+02521MA1999999097041MD1999999+0031MW1101REMSYN100AAXX  25004 83242 21494 71802 10206 20189 39704 40207 71052 85750 333 10252 29082 55008 58003 69911;
0190832420999992002062512004-12570-041380FM-12+042799999V0201401N001510042019N0040001N1+02161+01841102241ADDAY151061AY221061GF108991081071004501999999KA1240N+01881MA1999999097221MD1999999+0031MW1101REMSYN088AAXX  25124 83242 21496 81403 10216 20184 39722 40224 71052 887// 333 20188 58003 69914;
0167832420999992002062518004-12570-041380FM-12+042799999V0201401N000510042019N0100001N1+02431+01811102431ADDAA199000091GF107991071071004501001001MA1999999096921MD1999999+0111REMSYN070AAXX  25184 83242 32497 71401 10243 20181 39692 40243 87700 333 58011;EQDQ01  00002PRCP99
0198832420999992002062600004-12570-041380FM-12+042799999V0201801N000510042019N0020001N1+02151+01801102161ADDAA199000091GF107991051071004501081001KA1240M+02541MA1999999097091MD1999999+0051REMSYN088AAXX  26004 83242 32495 71801 10215 20180 39709 40216 85780 333 10254 29078 55013 58005;EQDQ01  00002PRCP99
0190832420999992002062612004-12570-041380FM-12+042799999V0201401N000510042019N0020001N1+01941+01861102211ADDAY151061AY221061GF108991081071004501999999KA1240N+01791MA1999999097181MD1999999-0041MW1511REMSYN088AAXX  26124 83242 21495 81401 10194 20186 39718 40221 75152 887// 333 20179 59004 69944;
0190832420999992002062712004-12570-041380FM-12+042799999V0201801N000510042019N0040001N1+02001+01931102191ADDAY161061AY221061GF108991081071004501999999KA1240N+01771MA1999999097161MD1999999-0061MW1101REMSYN088AAXX  27124 83242 21496 81801 10200 20193 39716 40219 71062 887// 333 20177 59006 60154;
0167832420999992002062718004-12570-041380FM-12+042799999V0201401N002110450019N0100001N1+02541+01681101771ADDAA199000091GF106991041071004501031021MA1999999096791MD1999999-0131REMSYN070AAXX  27184 83242 32497 61404 10254 20168 39679 40177 84732 333 59013;EQDQ01  00002PRCP99
0198832420999992002062800004-12570-041380FM-12+042799999V0209999C000010450019N0020001N1+02001+01661101931ADDAA199000091GF106991041071004501061001KA1240M+02651MA1999999096901MD1999999-0281REMSYN088AAXX  28004 83242 32495 60000 10200 20166 39690 40193 84760 333 10265 29079 55045 59028;EQDQ01  00002PRCP99
0186832420999992002062812004-12570-041380FM-12+042799999V0201801N000510042019N0040001N1+02041+01701102101ADDAA199000091GF108991081071004501999999KA1240N+01681MA1999999097061MD1999999-0201REMSYN076AAXX  28124 83242 32496 81801 10204 20170 39706 40210 887// 333 20168 59020;EQDQ01  00002PRCP99
0202832420999992002062900004-12570-041380FM-12+042799999V0202301N000510042019N0002001N1+01961+01891101961ADDAY161061AY221061GF108991081071004501999999KA1240M+02621MA1999999096931MD1999999+0031MW1101REMSYN100AAXX  29004 83242 21492 82301 10196 20189 39693 40196 71062 887// 333 10262 29086 55012 58003 60021;
0190832420999992002062912004-12570-041380FM-12+042799999V0201801N001510042019N0040001N1+02111+01891102141ADDAY161061AY221061GF107991071071004501021001KA1240N+01791MA1999999097111MD1999999+0051MW1101REMSYN088AAXX  29124 83242 21496 71803 10211 20189 39711 40214 71062 87720 333 20179 58005 60084;
0171832420999992002062918004-12570-041380FM-12+042799999V0201401N001510042019N0040001N1+02401+01861101731ADDAY151061AY221061GF107991061071004501051001MA1999999096741MD1999999+0011MW1511REMSYN082AAXX  29184 83242 21496 71403 10240 20186 39674 40173 75152 86750 333 58001 69921;
0202832420999992002063000004-12570-041380FM-12+042799999V0201801N001010042019N0010001N1+02021+01871102131ADDAY161061AY221061GF108991081071004501999999KA1240M+02461MA1999999097101MD1999999+0171MW1101REMSYN100AAXX  30004 83242 21494 81802 10202 20187 39710 40213 71062 887// 333 10246 29085 55010 58017 60041;
0190832420999992002063012004-12570-041380FM-12+042799999V0201801N001510450019N0100001N1+01981+01681102321ADDAY151061AY221061GF108991011011004501061071KA1240N+01511MA1999999097271MD1999999+0161MW1031REMSYN088AAXX  30124 83242 21497 81803 10198 20168 39727 40232 70352 81167 333 20151 58016 60044;
0167832420999992002063018004-12570-041380FM-12+042799999V0201801N002112200019N0100001N1+02621+01761101801ADDAA199000091GF102991011011004501031001MA1999999096811MD1999999+0071REMSYN070AAXX  30184 83242 32497 21804 10262 20176 39681 40180 81130 333 58007;EQDQ01  00002PRCP99
0198832420999992002070100004-12570-041380FM-12+042799999V0202701N001010042019N0020001N1+02041+01661102111ADDAA199000091GF107991071071004501001001KA1240M+02701MA1999999097071MD1999999-0031REMSYN088AAXX  01004 83242 32495 72702 10204 20166 39707 40211 87700 333 10270 29075 55072 59003;EQDQ01  00002PRCP99
0190832420999992002070112004-12570-041380FM-12+042799999V0201801N002112200019N0100001N1+02221+01731102301ADDAY151061AY211061GF102991011011004501081001KA1240N+01791MA1999999097281MD1999999+0011MW1031REMSYN088AAXX  01124 83242 21497 21804 10222 20173 39728 40230 70351 81180 333 20179 58001 69914;
0167832420999992002070118004-12570-041380FM-12+042799999V0201801N002112200019N0100001N1+02741+01701101771ADDAA199000091GF102991021031004501001001MA1999999096821MD1999999+0011REMSYN070AAXX  01184 83242 32497 21804 10274 20170 39682 40177 82300 333 58001;EQDQ01  00002PRCP99
0202832420999992002070200004-12570-041380FM-12+042799999V0201801N000510042019N0010001N1+02261+01821101971ADDAY151061AY211061GF108991081071004501999999KA1240M+02821MA1999999096991MD1999999-0081MW1511REMSYN100AAXX  02004 83242 21494 81801 10226 20182 39699 40197 75151 887// 333 10282 29070 55096 59008 69901;
0162832420999992002070212004-12570-041380FM-12+042799999V0201801N003110450019N0100001N1+02221+01711102101ADDGF106991031031004501031001KA1240N+01951MA1999999097111MD1999999-0171REMSYN082AAXX  02124 83242 22497 61806 10222 20171 39711 40210 83330 333 20195 59017 69904;
0167832420999992002070218004-12570-041380FM-12+042799999V0201801N003112200019N0100001N1+02701+01631101571ADDAA199000091GF102991011031004501031001MA1999999096641MD1999999-0181REMSYN070AAXX  02184 83242 32497 21806 10270 20163 39664 40157 81330 333 59018;EQDQ01  00002PRCP99
0202832420999992002070300004-12570-041380FM-12+042799999V0200901N001010042019N0020001N1+02221+01711101901ADDAY151061AY211061GF108991081071004501999999KA1240M+02801MA1999999096911MD1999999-0081MW1031REMSYN100AAXX  03004 83242 21495 80902 10222 20171 39691 40190 70351 887// 333 10280 29067 55083 59008 69901;
0190832420999992002070312004-12570-041380FM-12+042799999V0201801N001510042019N0040001N1+02051+01721101971ADDAY151061AY221061GF107991061071004501061001KA1240N+01791MA1999999096971MD1999999-0141MW1101REMSYN088AAXX  03124 83242 21496 71803 10205 20172 39697 40197 71052 86760 333 20179 59014 69904;
0171832420999992002070318004-12570-041380FM-12+042799999V0201801N001510042019N0040001N1+02161+02131101731ADDAY151061AY221061GF108991081071004501999999MA1999999096721MD1999999+0081MW1101REMSYN082AAXX  03184 83242 21496 81803 10216 20213 39672 40173 71052 887// 333 58008 69941;
0202832420999992002070400004-12570-041380FM-12+042799999V0201801N001010042019N0010001N1+01921+01841101981ADDAY161061AY221061GF108991081071004501999999KA1240M+02471MA1999999096951MD1999999+0041MW1501REMSYN100AAXX  04004 83242 21494 81802 10192 20184 39695 40198 75062 887// 333 10247 29092 55013 58004 60181;
0190832420999992002070412004-12570-041380FM-12+042799999V0201801N001010042019N0100001N1+01961+01831102141ADDAY161061AY221061GF107991071071004501001001KA1240N+01751MA1999999097091MD1999999+0121MW1031REMSYN088AAXX  04124 83242 21497 71802 10196 20183 39709 40214 70362 87700 333 20175 58012 60204;
0171832420999992002070418004-12570-041380FM-12+042799999V0201801N002110042019N0100001N1+02501+01721101761ADDAY151061AY221061GF106991051061004501081001MA1999999096361MD1999999+0041MW1021REMSYN082AAXX  04184 83242 21497 61804 10250 20172 39636 40176 70252 85680 333 58004 69901;
0198832420999992002070500004-12570-041380FM-12+042799999V0201801N001510042019N0020001N1+02131+01781101951ADDAA199000091GF108991081071004501999999KA1240M+02621MA1999999096931MD1999999-0021REMSYN088AAXX  05004 83242 32495 81803 10213 20178 39693 40195 887// 333 10262 29078 55053 59002;EQDQ01  00002PRCP99
0162832420999992002070512004-12570-041380FM-12+042799999V0201801N002110042019N0100001N1+02111+01571102081ADDGF107991051071004501061001KA1240N+01711MA1999999097061MD1999999-0031REMSYN082AAXX  05124 83242 22497 71804 10211 20157 39706 40208 85760 333 20171 59003 69904;
0167832420999992002070518004-12570-041380FM-12+042799999V0201801N001012200019N0100001N1+02681+01641101501ADDAA199000091GF104991031051004501081001MA1999999096541MD1999999-0221REMSYN070AAXX  05184 83242 32497 41802 10268 20164 39654 40150 83580 333 59022;EQDQ01  00002PRCP99
0198832420999992002070600004-12570-041380FM-12+042799999V0201801N001010042019N0020001N1+02211+01671101721ADDAA199000091GF108991081071004501999999KA1240M+02751MA1999999096731MD1999999-0201REMSYN088AAXX  06004 83242 32495 81802 10221 20167 39673 40172 887// 333 10275 29067 55070 59020;EQDQ01  00002PRCP99
0190832420999992002070612004-12570-041380FM-12+042799999V0201801N001010042019N0100001N1+02021+01831102091ADDAY151061AY221061GF107991061071004501041001KA1240N+01881MA1999999097071MD1999999+0011MW1031REMSYN088AAXX  06124 83242 21497 71802 10202 20183 39707 40209 70352 86740 333 20188 58001 60024;
0179832420999992002070618004-12570-041380FM-12+042799999V0201801N001012200019N0040001N1+02661+01681101481ADDAA199000091GF104991031051004501031001MA1999999096521MD1999999-0021MW1051REMSYN076AAXX  06184 83242 31496 41802 10266 20168 39652 40148 705// 83530 333 59002;EQDQ01  00002PRCP99
0198832420999992002070700004-12570-041380FM-12+042799999V0200901N000510042019N0020001N1+02101+01621101771ADDAA199000091GF108991081071004501999999KA1240M+02721MA1999999096761MD1999999+0031REMSYN088AAXX  07004 83242 32495 80901 10210 20162 39676 40177 887// 333 10272 29073 55057 58003;EQDQ01  00002PRCP99
0190832420999992002070712004-12570-041380FM-12+042799999V0209999C000010042019N0100001N1+02041+01801102031ADDAY151061AY221061GF106991051071004501051001KA1240N+01731MA1999999097011MD1999999+0001MW1031REMSYN088AAXX  07124 83242 21497 60000 10204 20180 39701 40203 70352 85750 333 20173 59000 69904;
0179832420999992002070718004-12570-041380FM-12+042799999V0200501N000512200019N0100001N1+02761+01561101461ADDAA199000091GF103991031031004501001001MA1999999096501MD1999999-0021MW1051REMSYN076AAXX  07184 83242 31497 30501 10276 20156 39650 40146 705// 83300 333 59002;EQDQ01  00002PRCP99
0208832420999992002070800004-12570-041380FM-12+042799999V0200901N000512200019N0020001N1+02021+01601101701ADDAA199000091GA1001+999999999GF100991001001999999001001KA1240M+02801MA1999999096691MD1999999-0071REMSYN082AAXX  08004 83242 32995 00901 10202 20160 39669 40170 333 10280 29072 55074 59007;EQDQ01  00002PRCP99
0155832420999992002070812004-12570-041380FM-12+042799999V0201401N000519999999N0040001N1+01961+01721101961ADDGF107991999999004501999999KA1240N+01431MA1999999096931MW1101REMSYN083AAXX  08124 83242 21496 71401 10196 20172 39693 40196 710/// 86760 333 20143 59008;
0179832420999992002070818004-12570-041380FM-12+042799999V0202701N000510042019N0040001N1+02621+01561101461ADDAA199000091GF108991051061004501001061MA1999999096471MD1999999-0031MW1051REMSYN076AAXX  08184 83242 31496 82701 10262 20156 39647 40146 705// 85606 333 59003;EQDQ01  00002PRCP99
0208832420999992002070900004-12570-041380FM-12+042799999V0203601N000512200019N0020001N1+02021+01621101651ADDAA199000091GA1001+999999999GF100991001001999999001001KA1240M+02721MA1999999096641MD1999999-0051REMSYN082AAXX  09004 83242 32995 03601 10202 20162 39664 40165 333 10272 29074 55051 59005;EQDQ01  00002PRCP99
0186832420999992002070912004-12570-041380FM-12+042799999V0201401N001019999999N0100001N1+02001+01661102071ADDAA199000091GF108991021001008001011071KA1240N+01491MA1999999097041MD1999999+0111REMSYN076AAXX  09124 83242 32597 81402 10200 20166 39704 40207 82017 333 20149 58011;EQDQ01  00002PRCP99
0179832420999992002070918004-12570-041380FM-12+042799999V0201801N000510450019N0040001N1+03021+01261101561ADDAA199000091GF108991021011004501011071MA1999999096621MD1999999+0151MW1051REMSYN076AAXX  09184 83242 31496 81801 10302 20126 39662 40156 705// 82117 333 58015;EQDQ01  00002PRCP99
0208832420999992002071000004-12570-041380FM-12+042799999V0201801N001012200019N0020001N1+02061+01681101921ADDAA199000091GA1001+999999999GF100991001001999999001001KA1240M+02891MA1999999096901MD1999999+0261REMSYN082AAXX  10004 83242 32995 01802 10206 20168 39690 40192 333 10289 29068 55097 58026;EQDQ01  00002PRCP99
0186832420999992002071012004-12570-041380FM-12+042799999V0202701N000510450019N0100001N1+02001+01621102151ADDAA199000091GF106991031051004501061061KA1240N+01591MA1999999097121MD1999999+0081REMSYN076AAXX  10124 83242 32497 62701 10200 20162 39712 40215 83566 333 20159 58008;EQDQ01  00002PRCP99
0167832420999992002071018004-12570-041380FM-12+042799999V0201801N000510042019N0100001N1+02721+01281101551ADDAA199000091GF107991071071004501001001MA1999999096601MD1999999-0021REMSYN070AAXX  10184 83242 32497 71801 10272 20128 39660 40155 87700 333 59002;EQDQ01  00002PRCP99
0202832420999992002071100004-12570-041380FM-12+042799999V0200501N001510042019N0020001N1+02301+01901101901ADDAY151061AY211061GF106991061071004501001001KA1240M+02861MA1999999096901MD1999999+0001MW1031REMSYN100AAXX  11004 83242 21495 60503 10230 20190 39690 40190 70351 86700 333 10286 29069 55029 58000 69901;
0156832420999992002071112004-12570-041380FM-12+042799999V0201801N000510042019N0100001N1+02041+01781999999ADDGF108991071071004501999999KA1240N+01891MA1999999097041MD1999999-0081REMSYN076AAXX  11124 83242 22497 81801 10204 20178 39704 877// 333 20189 59008 69904;
0171832420999992002071118004-12570-041380FM-12+042799999V0201801N002110042019N0100001N1+02701+01511101371ADDAY151061AY221061GF107991071071004501001001MA1999999096641MD1999999+0041MW1031REMSYN082AAXX  11184 83242 21497 71804 10270 20151 39664 40137 70352 87700 333 58004 69901;
0210832420999992002071200004-12570-041380FM-12+042799999V0202301N001510042019N0010001N1+02061+01721101771ADDAA199000091GF107991071051004501001001KA1240M+02701MA1999999096761MD1999999-0141MW1101REMSYN094AAXX  12004 83242 31494 72303 10206 20172 39676 40177 710// 87500 333 10270 29074 55025 59014;EQDQ01  00002PRCP99
0162832420999992002071212004-12570-041380FM-12+042799999V0201801N001510042019N0100001N1+02141+01701101921ADDGF105991051051004501001001KA1240N+01891MA1999999096911MD1999999-0131REMSYN082AAXX  12124 83242 22497 51803 10214 20170 39691 40192 85500 333 20189 59013 69904;
0179832420999992002071218004-12570-041380FM-12+042799999V0201801N000511050019N0040001N1+02961+01361101361ADDAA199000091GF108991011011004501001071MA1999999096451MD1999999-0191MW1051REMSYN076AAXX  12184 83242 31496 81801 10296 20136 39645 40136 705// 81107 333 59019;EQDQ01  00002PRCP99
0208832420999992002071300004-12570-041380FM-12+042799999V0209999C000012200019N0020001N1+02081+01581101561ADDAA199000091GA1001+999999999GF100991001001999999001001KA1240M+02921MA1999999096571MD1999999-0191REMSYN082AAXX  13004 83242 32995 00000 10208 20158 39657 40156 333 10292 29065 55098 59019;EQDQ01  00002PRCP99
0186832420999992002071312004-12570-041380FM-12+042799999V0200501N000510042019N0100001N1+02241+01821101771ADDAA199000091GF106991051071004501041001KA1240N+01851MA1999999096791MD1999999-0121REMSYN076AAXX  13124 83242 32497 60501 10224 20182 39679 40177 85740 333 20185 59012;EQDQ01  00002PRCP99
0211832420999992002071318004-12570-041380FM-12+042799999V0200501N001510450019N0040001N1+03001+01451101171ADDAA199000091GF108991021011004501091071MA1999999999999MD1999999-0171MW1051REMSYN076AAXX  13184 83242 31496 80503 10300 20145 39328 40117 705// 82197 333 59017;EQDQ01+093283APOSP Q02  00002PRCP99Q03 093283APOSP 
0208832420999992002071400004-12570-041380FM-12+042799999V0209999C000012200019N0020001N1+02161+01681101481ADDAA199000091GA1001+999999999GF100991001001999999001001KA1240M+03001MA1999999096511MD1999999-0061REMSYN082AAXX  14004 83242 32995 00000 10216 20168 39651 40148 333 10300 29066 55058 59006;EQDQ01  00002PRCP99
0186832420999992002071412004-12570-041380FM-12+042799999V0209999C000010042019N0100001N1+02061+01821101791ADDAA199000091GF107991061061004501081001KA1240N+01721MA1999999096791MD1999999+0001REMSYN076AAXX  14124 83242 32497 70000 10206 20182 39679 40179 86680 333 20172 58000;EQDQ01  00002PRCP99
0179832420999992002071418004-12570-041380FM-12+042799999V0202301N002610450019N0040001N1+03121+01391101141ADDAA199000091GF108991031011004501071071MA1999999096251MD1999999-0031MW1051REMSYN076AAXX  14184 83242 31496 82305 10312 20139 39625 40114 705// 83177 333 59003;EQDQ01  00002PRCP99
0195832420999992002071512004-12570-041380FM-12+042799999V0201401N001510450019N0100001N1+02321+01811101841ADDAA199000091AJ100139199999999GF106991041051004501031001IA1249KA1240N+01901MA1999999096921REMSYN076AAXX  15124 83242 32497 61403 10232 20181 39692 40184 84530 333 20190 48013;EQDQ01  00002PRCP99
0195832420999992002071618004-12570-041380FM-12+042799999V0202301N000510042019N0040001N1+02561+01931101591ADDAA199000091AY151061AY221061GF106991051071004501031001MA1999999096641MD1999999+0211MW1151REMSYN076AAXX  16184 83242 31496 62301 10256 20193 39664 40159 71552 85730 333 58021;EQDQ01  00002PRCP99
0198832420999992002071700004-12570-041380FM-12+042799999V0209999C000010042019N0020001N1+02081+01961101871ADDAA199000091GF107991071071004501001001KA1240M+02661MA1999999096871MD1999999+0131REMSYN088AAXX  17004 83242 32495 70000 10208 20196 39687 40187 87700 333 10266 29086 55009 58013;EQDQ01  00002PRCP99
0190832420999992002071712004-12570-041380FM-12+042799999V0209999C000010042019N0040001N1+02121+01951102011ADDAY151061AY221061GF108991081071004501999999KA1240N+01971MA1999999097001MD1999999+0051MW1101REMSYN088AAXX  17124 83242 21496 80000 10212 20195 39700 40201 71052 887// 333 20197 58005 69904;
0179832420999992002071718004-12570-041380FM-12+042799999V0201801N001010450019N0040001N1+02901+01481101401ADDAA199000091GF108991031041004501031071MA1999999096501MD1999999-0141MW1051REMSYN076AAXX  17184 83242 31496 81802 10290 20148 39650 40140 705// 83437 333 59014;EQDQ01  00002PRCP99
0198832420999992002071800004-12570-041380FM-12+042799999V0209999C000010042019N0020001N1+02361+01891101721ADDAA199000091GF107991061071004501041001KA1240M+02901MA1999999096751MD1999999-0121REMSYN088AAXX  18004 83242 32495 70000 10236 20189 39675 40172 86740 333 10290 29071 55068 59012;EQDQ01  00002PRCP99
0190832420999992002071812004-12570-041380FM-12+042799999V0201801N000510042019N0100001N1+02201+01781101941ADDAY151061AY221061GF108991081071004501999999KA1240N+01891MA1999999096921MD1999999-0031MW1031REMSYN088AAXX  18124 83242 21497 81801 10220 20178 39692 40194 70352 887// 333 20189 59003 69944;
0179832420999992002071818004-12570-041380FM-12+042799999V0201401N001010450019N0040001N1+02841+01391101501ADDAA199000091GF106991031051004501081091MA1999999096591MD1999999+0091MW1051REMSYN076AAXX  18184 83242 31496 61402 10284 20139 39659 40150 705// 83589 333 58009;EQDQ01  00002PRCP99
0202832420999992002071900004-12570-041380FM-12+042799999V0200901N001510042019N0010001N1+02341+01831101781ADDAY151061AY241061GF108991081071004501999999KA1240M+02841MA1999999096831MD1999999+0081MW1051REMSYN100AAXX  19004 83242 21494 80903 10234 20183 39683 40178 70554 887// 333 10284 29066 55058 58008 69921;
0190832420999992002071912004-12570-041380FM-12+042799999V0201801N001010042019N0020001N1+01961+01721102101ADDAY161061AY221061GF107991061071004501081001KA1240N+01851MA1999999097091MD1999999+0121MW1101REMSYN088AAXX  19124 83242 21495 71802 10196 20172 39709 40210 71062 86780 333 20185 58012 60024;
0179832420999992002071918004-12570-041380FM-12+042799999V0201801N003110450019N0100001N1+02601+01631101591ADDAA199000091GF107991021031004501051031MA1999999096631MD1999999+0041MW1051REMSYN076AAXX  19184 83242 31497 71806 10260 20163 39663 40159 705// 82353 333 58004;EQDQ01  00002PRCP99
0214832420999992002072000004-12570-041380FM-12+042799999V0203601N001010042019N0020001N1+02131+01681101851ADDAA199000091GF108991999071004501071999KA1240M+02661MA1999999096841MD1999999+0011REMSYN088AAXX  20004 83242 32495 83602 10213 20168 39684 40185 8877/ 333 10266 29073 55071 58001;EQDQ01+000082SCOTLCQ02  00002PRCP99
0198832420999992002072012004-12570-041380FM-12+042799999V0201801N000510042019N0040001N1+01891+01621102131ADDAA199000091GF108991081071004501999999KA1240N+01691MA1999999097091MD1999999+0001MW1101REMSYN082AAXX  20124 83242 31496 81801 10189 20162 39709 40213 710// 887// 333 20169 58000;EQDQ01  00002PRCP99
0167832420999992002072018004-12570-041380FM-12+042799999V0201801N001510450019N0100001N1+02581+01641101541ADDAA199000091GF108991021031004501051071MA1999999096581MD1999999-0051REMSYN070AAXX  20184 83242 32497 81803 10258 20164 39658 40154 82357 333 59005;EQDQ01  00002PRCP99
0198832420999992002072100004-12570-041380FM-12+042799999V0201801N002110042019N0020001N1+01981+01611101771ADDAA199000091GF108991081071004501999999KA1240M+02661MA1999999096741MD1999999-0101REMSYN088AAXX  21004 83242 32495 81804 10198 20161 39674 40177 887// 333 10266 29074 55049 59010;EQDQ01  00002PRCP99
0186832420999992002072112004-12570-041380FM-12+042799999V0201801N000510450019N0100001N1+02001+01581101951ADDAA199000091GF107991011011004501051021KA1240N+01731MA1999999096921MD1999999-0171REMSYN076AAXX  21124 83242 32497 71801 10200 20158 39692 40195 81152 333 20173 59017;EQDQ01  00002PRCP99
0167832420999992002072118004-12570-041380FM-12+042799999V0201801N001010042019N0100001N1+02631+01621101431ADDAA199000091GF106991051051004501041001MA1999999096461MD1999999-0121REMSYN070AAXX  21184 83242 32497 61802 10263 20162 39646 40143 85540 333 59012;EQDQ01  00002PRCP99
0198832420999992002072200004-12570-041380FM-12+042799999V0201801N000512200019N0020001N1+02301+01721101711ADDAA199000091GF104991041041004501001001KA1240M+02741MA1999999096721MD1999999-0021REMSYN088AAXX  22004 83242 32495 41801 10230 20172 39672 40171 84400 333 10274 29067 55060 59002;EQDQ01  00002PRCP99
0190832420999992002072312004-12570-041380FM-12+042799999V0201801N000510042019N0040001N1+02181+01921101941ADDAY151061AY211061GF108991081071004501999999KA1240N+01951MA1999999096941MD1999999+0051MW1101REMSYN088AAXX  23124 83242 21496 81801 10218 20192 39694 40194 71051 887// 333 20195 58005 69904;
0179832420999992002072318004-12570-041380FM-12+042799999V0201801N001512200019N0040001N1+03001+01491101261ADDAA199000091GF104991031041004501031001MA1999999096371MD1999999-0121MW1051REMSYN076AAXX  23184 83242 31496 41803 10300 20149 39637 40126 705// 83430 333 59012;EQDQ01  00002PRCP99
0198832420999992002072400004-12570-041380FM-12+042799999V0202701N000510450019N0020001N1+02281+01771101631ADDAA199000091GF105991031031004501051001KA1240M+03001MA1999999096661MD1999999-0031REMSYN088AAXX  24004 83242 32495 52701 10228 20177 39666 40163 83350 333 10300 29068 55069 59003;EQDQ01  00002PRCP99
0190832420999992002072412004-12570-041380FM-12+042799999V0201801N001010042019N0100001N1+02201+01821101871ADDAY151061AY211061GF107991061071004501031001KA1240N+01981MA1999999096891MD1999999-0051MW1031REMSYN088AAXX  24124 83242 21497 71802 10220 20182 39689 40187 70351 86730 333 20198 59005 69934;
0195832420999992002072418004-12570-041380FM-12+042799999V0202301N001012200019N0040001N1+03061+01421101291ADDAA199000091GF104991999031004501031001MA1999999096411MD1999999+0031MW1051REMSYN076AAXX  24184 83242 31496 42302 10306 20142 39641 40129 705// 85330 333 58003;EQDQ01+000052SCOTLCQ02  00002PRCP99
0210832420999992002072500004-12570-041380FM-12+042799999V0201401N000510042019N0020001N1+02411+01671101771ADDAA199000091GF107991071071004501001001KA1240M+03071MA1999999096811MD1999999+0151MW1131REMSYN094AAXX  25004 83242 31495 71401 10241 20167 39681 40177 713// 87700 333 10307 29061 55061 58015;EQDQ01  00002PRCP99
0190832420999992002072512004-12570-041380FM-12+042799999V0201801N001510042019N0040001N1+02121+01781101951ADDAY151061AY221061GF107991071071004501001001KA1240N+01951MA1999999096971MD1999999+0081MW1101REMSYN088AAXX  25124 83242 21496 71803 10212 20178 39697 40195 71052 87700 333 20195 58008 69944;
0167832420999992002072518004-12570-041380FM-12+042799999V0201801N002110042019N0100001N1+03171+01461101371ADDAA199000091GF106991051051004501081001MA1999999096491MD1999999+0081REMSYN070AAXX  25184 83242 32497 61804 10317 20146 39649 40137 85580 333 58008;EQDQ01  00002PRCP99
0198832420999992002072600004-12570-041380FM-12+042799999V0201801N001010042019N0020001N1+02431+01711101881ADDAA199000091GF107991071071004501001001KA1240M+03101MA1999999096911MD1999999+0101REMSYN088AAXX  26004 83242 32495 71802 10243 20171 39691 40188 87700 333 10310 29061 55069 58010;EQDQ01  00002PRCP99
0186832420999992002072612004-12570-041380FM-12+042799999V0201801N002110042019N0100001N1+02121+01741102051ADDAA199000091GF107991061071004501061001KA1240N+01911MA1999999097051MD1999999+0081REMSYN076AAXX  26124 83242 32497 71804 10212 20174 39705 40205 86760 333 20191 58008;EQDQ01  00002PRCP99
0167832420999992002072618004-12570-041380FM-12+042799999V0202301N001510042019N0100001N1+02701+01341101481ADDAA199000091GF106991051071004501051001MA1999999096551MD1999999+0061REMSYN070AAXX  26184 83242 32497 62303 10270 20134 39655 40148 85750 333 58006;EQDQ01  00002PRCP99
0198832420999992002072700004-12570-041380FM-12+042799999V0200901N000512200019N0020001N1+02061+01661101821ADDAA199000091GF102991021001012501031001KA1240M+02701MA1999999096821MD1999999-0091REMSYN088AAXX  27004 83242 32695 20901 10206 20166 39682 40182 82030 333 10270 29070 55016 59009;EQDQ01  00002PRCP99
0190832420999992002072712004-12570-041380FM-12+042799999V0201401N001510042019N0010001N1+01841+01761102141ADDAY151061AY211061GF108991081071004501999999KA1240N+01751MA1999999097091MD1999999+0041MW1101REMSYN088AAXX  27124 83242 21494 81403 10184 20176 39709 40214 71051 887// 333 20175 58004 69934;
0167832420999992002072718004-12570-041380FM-12+042799999V0203601N001010042019N0100001N1+02641+01691101691ADDAA199000091GF107991061061004501051001MA1999999096711MD1999999+0161REMSYN070AAXX  27184 83242 32497 73602 10264 20169 39671 40169 86650 333 58016;EQDQ01  00002PRCP99
0198832420999992002072800004-12570-041380FM-12+042799999V0200501N000512200019N0020001N1+02081+01681101821ADDAA199000091GF102991021001004501051001KA1240M+02771MA1999999096791MD1999999-0031REMSYN088AAXX  28004 83242 32495 20501 10208 20168 39679 40182 82050 333 10277 29077 55044 59003;EQDQ01  00002PRCP99
0186832420999992002072812004-12570-041380FM-12+042799999V0201801N000510042019N0100001N1+02181+01821102031ADDAA199000091GF108991081071004501999999KA1240N+01721MA1999999097031MD1999999-0061REMSYN076AAXX  28124 83242 32497 81801 10218 20182 39703 40203 887// 333 20172 59006;EQDQ01  00002PRCP99
0167832420999992002072818004-12570-041380FM-12+042799999V0201801N000511050019N0100001N1+02861+01901101531ADDAA199000091GF108991011011004501001071MA1999999096611MD1999999-0101REMSYN070AAXX  28184 83242 32497 81801 10286 20190 39661 40153 81107 333 59010;EQDQ01  00002PRCP99
0208832420999992002072900004-12570-041380FM-12+042799999V0201801N000512200019N0020001N1+02361+01851101721ADDAA199000091GA1001+999999999GF100991001001999999001001KA1240M+03041MA1999999096751MD1999999-0041REMSYN082AAXX  29004 83242 32995 01801 10236 20185 39675 40172 333 10304 29071 55048 59004;EQDQ01  00002PRCP99
0202832420999992002072912004-12570-041380FM-12+042799999V0201401N001510042019N0040001N1+02241+01921102061ADDAA199000091GF107991061071004501061001KA1240N+01751MA1999999999999MD1999999+0051REMSYN076AAXX  29124 83242 32496 71403 10224 20192 39908 40206 86760 333 20175 58005;EQDQ01  00002PRCP99Q02 099083APOSP 
0183832420999992002072918004-12570-041380FM-12+042799999V0201801N002110042019N0100001N1+02861+01751101611ADDAA199000091GF106991051051004501031001MA1999999096682MD1999999+0071REMSYN070AAXX  29184 83242 32497 61804 10286 20175 39668 40161 85530 333 58007;EQDQ01+096683APOSP Q02  00002PRCP99
0186832420999992002073012004-12570-041380FM-12+042799999V0201801N001010042019N0100001N1+02161+01781102181ADDAA199000091GF107991051061004501031061KA1240N+01941MA1999999097191MD1999999+0111REMSYN076AAXX  30124 83242 32497 71802 10216 20178 39719 40218 85636 333 20194 58011;EQDQ01  00002PRCP99
0195832420999992002073018004-12570-041380FM-12+042799999V0201801N001519999999N0040001N1+02441+01831101791ADDAA199000091GF107991999061004501081001MA1999999096821MD1999999+0141MW1151REMSYN076AAXX  30184 83242 31496 71803 10244 20183 39682 40179 715// 88680 333 58014;EQDQ01+000082SCOTLCQ02  00002PRCP99
0198832420999992002073100004-12570-041380FM-12+042799999V0201401N003110042019N0020001N1+02161+01741101981ADDAA199000091GF108991081071004501999999KA1240M+02621MA1999999096981MD1999999-0051REMSYN088AAXX  31004 83242 32495 81406 10216 20174 39698 40198 887// 333 10262 29076 55032 59005;EQDQ01  00002PRCP99
0186832420999992002073112004-12570-041380FM-12+042799999V0201801N002110042019N0020001N1+02141+01741102021ADDAA199000091GF108991081061004501999999KA1240N+01871MA1999999097021MD1999999-0171REMSYN076AAXX  31124 83242 32495 81804 10214 20174 39702 40202 886// 333 20187 59017;EQDQ01  00002PRCP99
0171832420999992002073118004-12570-041380FM-12+042799999V0201801N001010042019N0040001N1+02441+01811101551ADDAY151061AY221061GF108991081071004501999999MA1999999096581MD1999999-0241MW1151REMSYN082AAXX  31184 83242 21496 81802 10244 20181 39658 40155 71552 887// 333 59024 69901;
0202832420999992002080100004-12570-041380FM-12+042799999V0201401N000510042019N0010001N1+02081+01961101751ADDAY151061AY221061GF108991081071004501999999KA1240M+02531MA1999999096751MD1999999-0231MW1501REMSYN100AAXX  01004 83242 21494 81401 10208 20196 39675 40175 75052 887// 333 10253 29083 55002 59023 69911;
0190832420999992002080112004-12570-041380FM-12+042799999V0201801N001510042019N0040001N1+02081+01871101891ADDAY161061AY221061GF107991071071004501001001KA1240N+01891MA1999999096881MD1999999-0141MW1101REMSYN088AAXX  01124 83242 21496 71803 10208 20187 39688 40189 71062 87700 333 20189 59014 60034;
0167832420999992002080118004-12570-041380FM-12+042799999V0201801N001012200019N0100001N1+02761+01721101361ADDAA199000091GF104991041011004501001001MA1999999096431MD1999999-0151REMSYN070AAXX  01184 83242 32497 41802 10276 20172 39643 40136 84100 333 59015;EQDQ01  00002PRCP99
0208832420999992002080200004-12570-041380FM-12+042799999V0203601N001012200019N0020001N1+02081+01781101681ADDAA199000091GA1001+999999999GF100991001001999999001001KA1240M+02841MA1999999096681MD1999999-0071REMSYN082AAXX  02004 83242 32995 03602 10208 20178 39668 40168 333 10284 29077 55057 59007;EQDQ01  00002PRCP99
0186832420999992002080212004-12570-041380FM-12+042799999V0200901N000510042019N0100001N1+02111+01861102031ADDAA199000091GF108991081071004501999999KA1240N+01771MA1999999097021MD1999999+0141REMSYN076AAXX  02124 83242 32497 80901 10211 20186 39702 40203 887// 333 20177 58014;EQDQ01  00002PRCP99
0179832420999992002080218004-12570-041380FM-12+042799999V0202301N001011050019N0100001N1+02761+01721101581ADDAA199000091GF108991011011004501001071MA1999999096641MD1999999+0211MW1051REMSYN076AAXX  02184 83242 31497 82302 10276 20172 39664 40158 705// 81107 333 58021;EQDQ01  00002PRCP99
0208832420999992002080300004-12570-041380FM-12+042799999V0201801N000512200019N0020001N1+02061+01721101991ADDAA199000091GA1001+999999999GF100991001001999999001001KA1240M+02821MA1999999096981MD1999999+0001REMSYN082AAXX  03004 83242 32995 01801 10206 20172 39698 40199 333 10282 29075 55044 58000;EQDQ01  00002PRCP99
0198832420999992002080312004-12570-041380FM-12+042799999V0201801N001510042019N0040001N1+02171+01781102111ADDAA199000091GF107991061021004501081001KA1240N+01701MA1999999097091MD1999999+0071MW1051REMSYN082AAXX  03124 83242 31496 71803 10217 20178 39709 40211 705// 86280 333 20170 58007;EQDQ01  00002PRCP99
0179832420999992002080318004-12570-041380FM-12+042799999V0201801N002110450019N0100001N1+02901+01721101451ADDAA199000091GF106991031011004501051001MA1999999096521MD1999999-0121MW1051REMSYN076AAXX  03184 83242 31497 61804 10290 20172 39652 40145 705// 83150 333 59012;EQDQ01  00002PRCP99
0220832420999992002080400004-12570-041380FM-12+042799999V0202301N001012200019N0010001N1+02201+01541101741ADDAA199000091GA1001+999999999GF100991001001999999001001KA1240M+03021MA1999999096761MD1999999-0221MW1051REMSYN088AAXX  04004 83242 31994 02302 10220 20154 39676 40174 705// 333 10302 29065 55082 59022;EQDQ01  00002PRCP99
0198832420999992002080412004-12570-041380FM-12+042799999V0200501N000510042019N0040001N1+02121+01741101971ADDAA199000091GF107991061021004501081001KA1240N+01871MA1999999096971MD1999999-0121MW1051REMSYN082AAXX  04124 83242 31496 70501 10212 20174 39697 40197 705// 86280 333 20187 59012;EQDQ01  00002PRCP99
0179832420999992002080418004-12570-041380FM-12+042799999V0202301N002619999999N0100001N1+02881+01641101361ADDAA199000091GF108991001001999999001071MA1999999096701MD1999999-0071MW1041REMSYN076AAXX  04184 83242 31997 82305 10288 20164 39670 40136 704// 80007 333 59007;EQDQ01  00002PRCP99
0208832420999992002080500004-12570-041380FM-12+042799999V0200901N000512200019N0020001N1+02061+01561101671ADDAA199000091GA1001+999999999GF100991001001999999001001KA1240M+02981MA1999999096671MD1999999-0091REMSYN082AAXX  05004 83242 32995 00901 10206 20156 39667 40167 333 10298 29068 55080 59009;EQDQ01  00002PRCP99
0198832420999992002080512004-12570-041380FM-12+042799999V0201801N001010450019N0040001N1+02101+01701101911ADDAA199000091GF107991021061004501051001KA1240N+01531MA1999999096901MD1999999-0071MW1051REMSYN082AAXX  05124 83242 31496 71802 10210 20170 39690 40191 705// 82650 333 20153 59007;EQDQ01  00002PRCP99
0179832420999992002080518004-12570-041380FM-12+042799999V0201801N003110450019N0100001N1+02891+01651101341ADDAA199000091GF108991011011004501081071MA1999999096381MD1999999-0071MW1051REMSYN076AAXX  05184 83242 31497 81806 10289 20165 39638 40134 705// 81187 333 59007;EQDQ01  00002PRCP99
0208832420999992002080600004-12570-041380FM-12+042799999V0209999C000012200019N0020001N1+02511+01611101601ADDAA199000091GA1001+999999999GF100991001001999999001001KA1240M+02991MA1999999096611MD1999999-0061REMSYN082AAXX  06004 83242 32995 00000 10251 20161 39661 40160 333 10299 29067 55073 59006;EQDQ01  00002PRCP99
0186832420999992002080612004-12570-041380FM-12+042799999V0201401N002610042019N0100001N1+02221+01551101921ADDAA199000091GF106991061041004501001001KA1240N+01771MA1999999096931MD1999999+0031REMSYN076AAXX  06124 83242 32497 61405 10222 20155 39693 40192 86400 333 20177 58003;EQDQ01  00002PRCP99
0179832420999992002080618004-12570-041380FM-12+042799999V0201401N003111050019N0040001N1+02821+01371101381ADDAA199000091GF108991011011004501001071MA1999999096451MD1999999+0071MW1051REMSYN076AAXX  06184 83242 31496 81406 10282 20137 39645 40138 705// 81107 333 58007;EQDQ01  00002PRCP99
0208832420999992002080700004-12570-041380FM-12+042799999V0201801N000512200019N0020001N1+02091+02001101661ADDAA199000091GA1001+999999999GF100991001001999999001001KA1240M+02921MA1999999096771MD1999999+0161REMSYN082AAXX  07004 83242 32995 01801 10209 20200 39677 40166 333 10292 29074 55089 58016;EQDQ01  00002PRCP99
0186832420999992002080712004-12570-041380FM-12+042799999V0200901N000510450019N0020001N1+02231+01551102021ADDAA199000091GF105991021011004501051001KA1240N+01611MA1999999097021MD1999999+0091REMSYN076AAXX  07124 83242 32495 50901 10223 20155 39702 40202 82150 333 20161 58009;EQDQ01  00002PRCP99
0179832420999992002080718004-12570-041380FM-12+042799999V0201801N000512200019N0040001N1+02801+01631101631ADDAA199000091GF104991021051004501061081MA1999999096671MD1999999+0141MW1051REMSYN076AAXX  07184 83242 31496 41801 10280 20163 39667 40163 705// 82568 333 58014;EQDQ01  00002PRCP99
0198832420999992002080800004-12570-041380FM-12+042799999V0201801N001510042019N0020001N1+02261+01691101851ADDAA199000091GF106991061051004501001001KA1240M+02841MA1999999096871MD1999999+0101REMSYN088AAXX  08004 83242 32495 61803 10226 20169 39687 40185 86500 333 10284 29064 55060 58010;EQDQ01  00002PRCP99
0186832420999992002080812004-12570-041380FM-12+042799999V0201401N003112200019N0100001N1+02181+01631102021ADDAA199000091GF104991041041004501001001KA1240N+01871MA1999999097091MD1999999+0071REMSYN076AAXX  08124 83242 32497 41406 10218 20163 39709 40202 84400 333 20187 58007;EQDQ01  00002PRCP99
0179832420999992002080818004-12570-041380FM-12+042799999V0201401N002612200019N0040001N1+02961+01291101581ADDAA199000091GF104991031041004501051001MA1999999096671MD1999999+0001MW1051REMSYN076AAXX  08184 83242 31496 41405 10296 20129 39667 40158 705// 83450 333 58000;EQDQ01  00002PRCP99
0208832420999992002080900004-12570-041380FM-12+042799999V0201801N001512200019N0020001N1+02181+01391101881ADDAA199000091GA1001+999999999GF100991001001999999001001KA1240M+03021MA1999999096891MD1999999+0021REMSYN082AAXX  09004 83242 32995 01803 10218 20139 39689 40188 333 10302 29057 55096 58002;EQDQ01  00002PRCP99
0190832420999992002080912004-12570-041380FM-12+042799999V0201401N003110450019N0100001N1+02121+01781102081ADDAY161061AY201061GF106991041061004501041021KA1240N+01611MA1999999097071MD1999999-0021MW1031REMSYN088AAXX  09124 83242 21497 61406 10212 20178 39707 40208 70360 84642 333 20161 59002 60014;
0181832420999992002080918004-12570-041380FM-12+042799999V0201801N002119999999N0040001N1+02881+01421101581ADDAA199000091GA1041+051009049GF108991999999004501999999MA1999999096621MW1051REMSYN076AAXX  09184 83242 31496 81804 10288 20142 39662 40158 705// 333 84467 59005;EQDQ01  00002PRCP99
0208832420999992002081000004-12570-041380FM-12+042799999V0201801N000512200019N0020001N1+02241+01551101791ADDAA199000091GA1001+999999999GF100991001001999999001001KA1240M+02961MA1999999096811MD1999999-0041REMSYN082AAXX  10004 83242 32995 01801 10224 20155 39681 40179 333 10296 29063 55073 59004;EQDQ01  00002PRCP99
0186832420999992002081012004-12570-041380FM-12+042799999V0201801N001510450019N0100001N1+02021+01641102081ADDAA199000091GF105991041071004501041001KA1240N+01721MA1999999097071MD1999999+0001REMSYN076AAXX  10124 83242 32497 51803 10202 20164 39707 40208 84740 333 20172 58000;EQDQ01  00002PRCP99
0179832420999992002081018004-12570-041380FM-12+042799999V0201801N001510450019N0040001N1+02901+01361101601ADDAA199000091GF108991031041004501031071MA1999999096651MD1999999+0031MW1051REMSYN076AAXX  10184 83242 31496 81803 10290 20136 39665 40160 705// 83437 333 58003;EQDQ01  00002PRCP99
0210832420999992002081100004-12570-041380FM-12+042799999V0201801N001510042019N0010001N1+02261+01621101801ADDAA199000091GF107991061051004501081001KA1240M+03001MA1999999096811MD1999999+0001MW1041REMSYN094AAXX  11004 83242 31494 71803 10226 20162 39681 40180 704// 86580 333 10300 29063 55078 58000;EQDQ01  00002PRCP99
0214832420999992002081112004-12570-041380FM-12+042799999V0203201N000510042019N0040001N1+01721+01541102201ADDAA199000091AY151061AY221061GF108991081071004501999999KA1240N+01571MA1999999097171MD1999999+0081MW1151REMSYN082AAXX  11124 83242 31496 83201 10172 20154 39717 40220 71552 887// 333 20157 58008;EQDQ01  00002PRCP99
0167832420999992002081118004-12570-041380FM-12+042799999V0200501N001010450019N0100001N1+02761+01281101731ADDAA199000091GF105991041041004501081001MA1999999096761MD1999999+0111REMSYN070AAXX  11184 83242 32497 50502 10276 20128 39676 40173 84480 333 58011;EQDQ01  00002PRCP99
0208832420999992002081200004-12570-041380FM-12+042799999V0201801N001012200019N0020001N1+02041+01261101941ADDAA199000091GA1001+999999999GF100991001001999999001001KA1240M+02921MA1999999096891MD1999999+0081REMSYN082AAXX  12004 83242 32995 01802 10204 20126 39689 40194 333 10292 29063 55073 58008;EQDQ01  00002PRCP99
0186832420999992002081212004-12570-041380FM-12+042799999V0200901N000510042019N0100001N1+02021+01461102171ADDAA199000091GF106991051051004501031001KA1240N+01541MA1999999097141MD1999999-0031REMSYN076AAXX  12124 83242 32497 60901 10202 20146 39714 40217 85530 333 20154 59003;EQDQ01  00002PRCP99
0179832420999992002081218004-12570-041380FM-12+042799999V0201801N002110042019N0040001N1+02651+01561101701ADDAA199000091GF106991051051004501041001MA1999999096701MD1999999-0061MW1051REMSYN076AAXX  12184 83242 31496 61804 10265 20156 39670 40170 705// 85540 333 59006;EQDQ01  00002PRCP99
0210832420999992002081300004-12570-041380FM-12+042799999V0201401N001010042019N0010001N1+02281+01831101971ADDAA199000091GF108991081071004501999999KA1240M+02801MA1999999096971MD1999999+0081MW1051REMSYN094AAXX  13004 83242 31494 81402 10228 20183 39697 40197 705// 887// 333 10280 29068 55064 58008;EQDQ01  00002PRCP99
0190832420999992002081312004-12570-041380FM-12+042799999V0202301N001010042019N0100001N1+02021+01831102121ADDAY151061AY221061GF107991061071004501051001KA1240N+01871MA1999999097111MD1999999-0031MW1031REMSYN088AAXX  13124 83242 21497 72302 10202 20183 39711 40212 70352 86750 333 20187 59003 69954;
0179832420999992002081318004-12570-041380FM-12+042799999V0202301N001010450019N0040001N1+03101+01461101441ADDAA199000091GF105991031041004501091041MA1999999096551MD1999999-0111MW1051REMSYN076AAXX  13184 83242 31496 52302 10310 20146 39655 40144 705// 83494 333 59011;EQDQ01  00002PRCP99
0220832420999992002081400004-12570-041380FM-12+042799999V0201401N001012200019N0010001N1+02101+01661101801ADDAA199000091GA1001+999999999GF100991001001999999001001KA1240M+03101MA1999999096791MD1999999-0181MW1041REMSYN088AAXX  14004 83242 31994 01402 10210 20166 39679 40180 704// 333 10310 29070 55057 59018;EQDQ01  00002PRCP99
0214832420999992002081412004-12570-041380FM-12+042799999V0202301N001010042019N0040001N1+02161+01821102091ADDAA199000091AY151061AY201061GF108991081071004501999999KA1240N+01891MA1999999097081MD1999999-0031MW1151REMSYN082AAXX  14124 83242 31496 82302 10216 20182 39708 40209 71550 887// 333 20189 59003;EQDQ01  00002PRCP99
0179832420999992002081418004-12570-041380FM-12+042799999V0201801N001510450019N0040001N1+03081+01401101521ADDAA199000091GF106991041041004501021041MA1999999096631MD1999999+0081MW1051REMSYN076AAXX  14184 83242 31496 61803 10308 20140 39663 40152 705// 84424 333 58008;EQDQ01  00002PRCP99
0214832420999992002081500004-12570-041380FM-12+042799999V0201401N001519999999N0010001N1+02461+01881101891ADDAA199000091GF108991999051000751999999KA1240M+03081MA1999999096921MD1999999+0131REMSYN088AAXX  15004 83242 32194 81403 10246 20188 39692 40189 805// 333 10308 29065 55058 58013;EQDQ01+000002SCOTLCQ02  00002PRCP99
0190832420999992002081512004-12570-041380FM-12+042799999V0201801N001510042019N0040001N1+02201+01881102111ADDAY151061AY221061GF107991061071004501021001KA1240N+01931MA1999999097141MD1999999+0061MW1101REMSYN088AAXX  15124 83242 21496 71803 10220 20188 39714 40211 71052 86720 333 20193 58006 69914;
0167832420999992002081518004-12570-041380FM-12+042799999V0201801N004110042019N0100001N1+02931+01591101571ADDAA199000091GF107991061031004501031001MA1999999096661MD1999999+0031REMSYN070AAXX  15184 83242 32497 71808 10293 20159 39666 40157 86330 333 58003;EQDQ01  00002PRCP99
0198832420999992002081600004-12570-041380FM-12+042799999V0200501N001510042019N0020001N1+02541+01571101951ADDAA199000091GF108991081071004501999999KA1240M+03061MA1999999096991MD1999999+0071REMSYN088AAXX  16004 83242 32495 80503 10254 20157 39699 40195 887// 333 10306 29059 55078 58007;EQDQ01  00002PRCP99
0190832420999992002081612004-12570-041380FM-12+042799999V0201801N002610042019N0020001N1+02141+01611102201ADDAY141061AY221061GF108991081061004501999999KA1240N+01951MA1999999097231MD1999999+0091MW1501REMSYN088AAXX  16124 83242 21495 81805 10214 20161 39723 40220 75042 886// 333 20195 58009 69904;
0171832420999992002081618004-12570-041380FM-12+042799999V0201801N003110042019N0040001N1+02621+01781101691ADDAY141061AY221061GF107991061071004501081001MA1999999096741MD1999999+0081MW1501REMSYN082AAXX  16184 83242 21496 71806 10262 20178 39674 40169 75042 86780 333 58008 69901;
0202832420999992002081700004-12570-041380FM-12+042799999V0201801N001010042019N0005001N1+02051+01961102091ADDAY151061AY221061GF108991081071004501999999KA1240M+02721MA1999999097071MD1999999+0081MW1101REMSYN100AAXX  17004 83242 21493 81802 10205 20196 39707 40209 71052 887// 333 10272 29080 55013 58008 69921;
0190832420999992002081712004-12570-041380FM-12+042799999V0201801N006210042019N0040001N1+02121+01761102221ADDAY151061AY221061GF107991061071004501081001KA1240N+01791MA1999999097201MD1999999-0031MW1051REMSYN088AAXX  17124 83242 21496 71812 10212 20176 39720 40222 70552 86780 333 20179 59003 60014;
0179832420999992002081718004-12570-041380FM-12+042799999V0201801N004610450019N0100001N1+02901+01401101581ADDAA199000091GF105991041011004501081001MA1999999096651MD1999999-0091MW1051REMSYN076AAXX  17184 83242 31497 51809 10290 20140 39665 40158 705// 84180 333 59009;EQDQ01  00002PRCP99
0202832420999992002081800004-12570-041380FM-12+042799999V0201801N003110042019N0010001N1+02401+01731101891ADDAY151061AY241061GF108991081071004501999999KA1240M+02971MA1999999096911MD1999999-0161MW1051REMSYN100AAXX  18004 83242 21494 81806 10240 20173 39691 40189 70554 887// 333 10297 29063 55084 59016 69901;
0190832420999992002081812004-12570-041380FM-12+042799999V0201801N005110042019N0040001N1+02071+01741102151ADDAY151061AY221061GF107991061071004501051001KA1240N+01791MA1999999097161MD1999999-0041MW1101REMSYN088AAXX  18124 83242 21496 71810 10207 20174 39716 40215 71052 86750 333 20179 59004 60014;
0167832420999992002081818004-12570-041380FM-12+042799999V0201401N003110450019N0100001N1+02831+01311101521ADDAA199000091GF105991041031004501081001MA1999999096591MD1999999-0061REMSYN070AAXX  18184 83242 32497 51406 10283 20131 39659 40152 84380 333 59006;EQDQ01  00002PRCP99
0183832420999992002081900004-12570-041380FM-12+042799999V0201801N005110042019N0020001N1+02141+01741101891ADDAA199000091GF108991081071004501999999KA1240M+02921MA1999999096881REMSYN087AAXX  19004 83242 32495 81810 10214 20174 39688 40189 887// 333 10292 29069 5066 59003;EQDQ01  00002PRCP99
0190832420999992002081912004-12570-041380FM-12+042799999V0201801N003110042019N0040001N1+02031+01781102141ADDAY161061AY221061GF108991081071004501999999KA1240N+01751MA1999999097121MD1999999-0041MW1101REMSYN088AAXX  19124 83242 21496 81806 10203 20178 39712 40214 71062 887// 333 20175 59004 60024;
0167832420999992002081918004-12570-041380FM-12+042799999V0201401N004110450019N0100001N1+02701+01661101701ADDAA199000091GF106991041071004501051001MA1999999096741MD1999999+0151REMSYN070AAXX  19184 83242 32497 61408 10270 20166 39674 40170 84750 333 58015;EQDQ01  00002PRCP99
0202832420999992002082000004-12570-041380FM-12+042799999V0201401N001510042019N0010001N1+01981+01861102071ADDAY151061AY221061GF108991081071004501999999KA1240M+02871MA1999999097041MD1999999+0161MW1501REMSYN100AAXX  20004 83242 21494 81403 10198 20186 39704 40207 75052 887// 333 10287 29081 55040 58016 69941;
0190832420999992002082012004-12570-041380FM-12+042799999V0201401N002610042019N0100001N1+02061+01681102141ADDAY161061AY221061GF107991061071004501061001KA1240N+01691MA1999999097101MD1999999-0021MW1031REMSYN088AAXX  20124 83242 21497 71405 10206 20168 39710 40214 70362 86760 333 20169 59002 60154;
0190832420999992002082018004-12570-041380FM-12+042799999V0201401N001010090019N0040001N1+02261+01881101891ADDAY151061AY221061GF108991999081004501071999MA1999999096861MD1999999+0121MW1101REMSYN082AAXX  20184 83242 21496 81402 10226 20188 39686 40189 71052 8887/ 333 58012 69921;EQDQ01+000082SCOTLC
0202832420999992002082100004-12570-041380FM-12+042799999V0201801N000510042019N0020001N1+01981+01861102091ADDAY151061AY221061GF108991081071004501999999KA1240M+02551MA1999999097051MD1999999+0011MW1031REMSYN100AAXX  21004 83242 21495 81801 10198 20186 39705 40209 70352 887// 333 10255 29086 55013 58001 60011;
0179832420999992002082118004-12570-041380FM-12+042799999V0201401N002111050019N0040001N1+03001+01201101721ADDAA199000091GF108991011011004501001071MA1999999096781MD1999999-0081MW1051REMSYN076AAXX  21184 83242 31496 81404 10300 20120 39678 40172 705// 81107 333 59008;EQDQ01  00002PRCP99
0198832420999992002082200004-12570-041380FM-12+042799999V0201801N000510042019N0020001N1+02281+01641101991ADDAA199000091GF107991061071004501061001KA1240M+02981MA1999999097001MD1999999-0051REMSYN088AAXX  22004 83242 32495 71801 10228 20164 39700 40199 86760 333 10298 29060 55103 59005;EQDQ01  00002PRCP99
0190832420999992002082212004-12570-041380FM-12+042799999V0201801N003110042019N0100001N1+02061+01821102181ADDAY161061AY221061GF107991061071004501051001KA1240N+01851MA1999999097171MD1999999-0111MW1031REMSYN088AAXX  22124 83242 21497 71806 10206 20182 39717 40218 70362 86750 333 20185 59011 60044;
0179832420999992002082218004-12570-041380FM-12+042799999V0201801N001512200019N0040001N1+03001+01401101621ADDAA199000091GF104991031031004501081001MA1999999096751MD1999999+0071MW1051REMSYN076AAXX  22184 83242 31496 41803 10300 20140 39675 40162 705// 83380 333 58007;EQDQ01  00002PRCP99
0198832420999992002082300004-12570-041380FM-12+042799999V0201801N003110042019N0020001N1+02321+01701101901ADDAA199000091GF108991081071004501999999KA1240M+03021MA1999999096911MD1999999-0091REMSYN088AAXX  23004 83242 32495 81806 10232 20170 39691 40190 887// 333 10302 29066 55078 59009;EQDQ01  00002PRCP99
0190832420999992002082312004-12570-041380FM-12+042799999V0201801N003110042019N0100001N1+02021+01641102121ADDAY161061AY221061GF107991061071004501051001KA1240N+01731MA1999999097111MD1999999-0061MW1031REMSYN088AAXX  23124 83242 21497 71806 10202 20164 39711 40212 70362 86750 333 20173 59006 60014;
0167832420999992002082318004-12570-041380FM-12+042799999V0201401N002110042019N0100001N1+02701+01321101481ADDAA199000091GF106991051051004501051001MA1999999096531MD1999999-0181REMSYN070AAXX  23184 83242 32497 61404 10270 20132 39653 40148 85550 333 59018;EQDQ01  00002PRCP99
0198832420999992002082400004-12570-041380FM-12+042799999V0202301N001010450019N0020001N1+02101+01271101821ADDAA199000091GF105991031071004501031001KA1240M+02861MA1999999096811MD1999999-0101REMSYN088AAXX  24004 83242 32495 52302 10210 20127 39681 40182 83730 333 10286 29060 55061 59010;EQDQ01  00002PRCP99
0186832420999992002082412004-12570-041380FM-12+042799999V0201801N001510042019N0100001N1+02031+01681102041ADDAA199000091GF107991051071004501041001KA1240N+01691MA1999999097021MD1999999-0091REMSYN076AAXX  24124 83242 32497 71803 10203 20168 39702 40204 85740 333 20169 59009;EQDQ01  00002PRCP99
0167832420999992002082418004-12570-041380FM-12+042799999V0201401N001510450019N0100001N1+02821+01441101521ADDAA199000091GF106991041051004501051061MA1999999096561MD1999999+0031REMSYN070AAXX  24184 83242 32497 61403 10282 20144 39656 40152 84556 333 58003;EQDQ01  00002PRCP99
0198832420999992002082500004-12570-041380FM-12+042799999V0201401N002610042019N0020001N1+02241+01641101941ADDAA199000091GF107991061071004501061001KA1240M+02901MA1999999096941MD1999999+0131REMSYN088AAXX  25004 83242 32495 71405 10224 20164 39694 40194 86760 333 10290 29065 55075 58013;EQDQ01  00002PRCP99
0186832420999992002082512004-12570-041380FM-12+042799999V0201801N002110042019N0100001N1+02151+01661101981ADDAA199000091GF107991061071004501001051KA1240N+01831MA1999999096991MD1999999-0031REMSYN076AAXX  25124 83242 32497 71804 10215 20166 39699 40198 86705 333 20183 59003;EQDQ01  00002PRCP99
0171832420999992002082518004-12570-041380FM-12+042799999V0201801N001510042019N0040001N1+02381+01681101731ADDAY151061AY221061GF108991081071004501999999MA1999999096741MD1999999+0181MW1151REMSYN082AAXX  25184 83242 21496 81803 10238 20168 39674 40173 71552 887// 333 58018 69901;
0202832420999992002082600004-12570-041380FM-12+042799999V0209999C000010042019N0020001N1+02021+01921101911ADDAY161061AY221061GF108991081071004501999999KA1240M+02481MA1999999096901MD1999999-0041MW1031REMSYN100AAXX  26004 83242 21495 80000 10202 20192 39690 40191 70362 887// 333 10248 29080 55019 59004 60021;
0209832420999992002082612004-12570-041380FM-12+042799999V0201401N002610090019N0040001N1+02021+01641102161ADDAY161061AY221061GF108991999081004501071999KA1240N+01621MA1999999097121MD1999999+0131MW1501REMSYN088AAXX  26124 83242 21496 81405 10202 20164 39712 40216 75062 8887/ 333 20162 58013 60024;EQDQ01+000082SCOTLC
0160832420999992002082618004-12570-041380FM-12+042799999V0201801N002110450019N0040001N1+02901+01361101531ADDAA199000021GF105991041051004501081001MA1999999096581MD1999999-0161MW1051REMSYN076AAXX  26184 83242 31496 51804 10290 20136 39658 40153 705// 84580 333 59016;
0179832420999992002082700004-12570-041380FM-12+042799999V0201801N002110042019N0020001N1+02281+01591101831ADDAA199000021GF108991081071004501999999KA1240M+02851MA1999999096841MD1999999+0061REMSYN088AAXX  27004 83242 32495 81804 10228 20159 39684 40183 887// 333 10285 29063 55057 58006;
0190832420999992002082712004-12570-041380FM-12+042799999V0201401N002610450019N0100001N1+02161+01611102021ADDAY151061AY221061GF106991041071004501041001KA1240N+01771MA1999999097021MD1999999-0101MW1031REMSYN088AAXX  27124 83242 21497 61405 10216 20161 39702 40202 70352 84740 333 20177 59010 69914;
0179832420999992002082718004-12570-041380FM-12+042799999V0201801N002110450019N0040001N1+02861+01291101411ADDAA199000091GF108991031051004501051071MA1999999096491MD1999999-0091MW1051REMSYN076AAXX  27184 83242 31496 81804 10286 20129 39649 40141 705// 83557 333 59009;EQDQ01  00002PRCP99
0202832420999992002082800004-12570-041380FM-12+042799999V0201801N002610042019N0010001N1+02281+01591101801ADDAY151061AY221061GF108991081071004501999999KA1240M+02931MA1999999096821MD1999999-0021MW1501REMSYN100AAXX  28004 83242 21494 81805 10228 20159 39682 40180 75052 887// 333 10293 29060 55099 59002 69901;
0190832420999992002082812004-12570-041380FM-12+042799999V0201801N002110042019N0040001N1+02091+01701101971ADDAY151061AY221061GF108991081071004501999999KA1240N+01811MA1999999096981MD1999999-0041MW1151REMSYN088AAXX  28124 83242 21496 81804 10209 20170 39698 40197 71552 887// 333 20181 59004 69974;
0179832420999992002082818004-12570-041380FM-12+042799999V0201801N001510450019N0040001N1+02821+01331101331ADDAA199000091GF108991021031004501051071MA1999999096411MD1999999+0081MW1051REMSYN076AAXX  28184 83242 31496 81803 10282 20133 39641 40133 705// 82357 333 58008;EQDQ01  00002PRCP99
0202832420999992002082900004-12570-041380FM-12+042799999V0200901N002110042019N0010001N1+02391+01681101601ADDAY151061AY241061GF108991081071004501999999KA1240M+02821MA1999999096641MD1999999-0181MW1031REMSYN100AAXX  29004 83242 21494 80904 10239 20168 39664 40160 70354 887// 333 10282 29062 55049 59018 69901;
0190832420999992002082912004-12570-041380FM-12+042799999V0201801N003110042019N0100001N1+02121+01641101771ADDAY151061AY221061GF107991061071004501061001KA1240N+01771MA1999999096801MD1999999-0181MW1031REMSYN088AAXX  29124 83242 21497 71806 10212 20164 39680 40177 70352 86760 333 20177 59018 69904;
0179832420999992002082918004-12570-041380FM-12+042799999V0201801N002110450019N0040001N1+02961+01341101141ADDAA106000091GF108991031031004501071071MA1999999096251MD1999999-0161MW1051REMSYN076AAXX  29184 83242 31496 81804 10296 20134 39625 40114 705// 83377 333 59016;EQDQ01  00002PRCP06
0198832420999992002083000004-12570-041380FM-12+042799999V0200901N001010042019N0020001N1+02301+01661101471ADDAA106000091GF108991081061004501999999KA1240M+02961MA1999999096301MD1999999-0141REMSYN088AAXX  30004 83242 32495 80902 10230 20166 39630 40147 886// 333 10296 29061 55059 59014;EQDQ01  00002PRCP06
0190832420999992002083012004-12570-041380FM-12+042799999V0201401N001510042019N0040001N1+02221+01691101711ADDAY151061AY221061GF107991061071004501031001KA1240N+01831MA1999999096741MD1999999-0061MW1051REMSYN088AAXX  30124 83242 21496 71403 10222 20169 39674 40171 70552 86730 333 20183 59006 69924;
0179832420999992002083018004-12570-041380FM-12+042799999V0201401N002110450019N0100001N1+02921+01531101111ADDAA106000091GF108991011011004501051071MA1999999096211MD1999999-0041MW1051REMSYN076AAXX  30184 83242 31497 81404 10292 20153 39621 40111 705// 81157 333 59004;EQDQ01  00002PRCP06
0190832420999992002083112004-12570-041380FM-12+042799999V0201801N001510042019N0040001N1+02091+01961101801ADDAY151061AY221061GF108991081071004501999999KA1240N+01871MA1999999096811MD1999999+0071MW1501REMSYN088AAXX  31124 83242 21496 81803 10209 20196 39681 40180 75052 887// 333 20187 58007 69944;
0171832420999992002083118004-12570-041380FM-12+042799999V0201401N001510042019N0100001N1+02931+01551101161ADDAY151061AY221061GF106991051021004501081001MA1999999096261MD1999999+0051MW1031REMSYN082AAXX  31184 83242 21497 61403 10293 20155 39626 40116 70352 85280 333 58005 69921;
0208832420999992002090100004-12570-041380FM-12+042799999V0201401N000512200019N0020001N1+02301+01681101481ADDAA106000091GA1001+999999999GF100991001001999999001001KA1240M+03021MA1999999096511MD1999999+0031REMSYN082AAXX  01004 83242 32995 01401 10230 20168 39651 40148 333 10302 29068 55067 58003;EQDQ01  00002PRCP06
0122832420999992002090112004-12570-041380FM-12+042799999V0201801N001019999999N0020001N1+02031+01871999999ADDGF108991999999004501999999REMSYN084AAXX  01124 83242 21495 81802 10203 20187 20191 39662 40160 59019 69924 75054 887//;
0179832420999992002090118004-12570-041380FM-12+042799999V0202301N003119999999N0040001N1+02881+01861100881ADDAA106000091GF108991001001999999001071MA1999999095991MD1999999-0271MW1051REMSYN076AAXX  01184 83242 31996 82306 10288 20186 39599 40088 705// 80007 333 59027;EQDQ01  00002PRCP06
0208832420999992002090200004-12570-041380FM-12+042799999V0201801N000512200019N0020001N1+02261+01791101251ADDAA106000091GA1001+999999999GF100991001001999999001001KA1240M+02981MA1999999096281MD1999999-0231REMSYN082AAXX  02004 83242 32995 01801 10226 20179 39628 40125 333 10298 29074 55042 59023;EQDQ01  00002PRCP06
0198832420999992002090212004-12570-041380FM-12+042799999V0200501N003110042019N0040001N1+02401+01911101341ADDAA106000091GF107991051041004501051001KA1240N+01851MA1999999096411MD1999999-0171MW1051REMSYN082AAXX  02124 83242 31496 70506 10240 20191 39641 40134 705// 85450 333 20185 59017;EQDQ01  00002PRCP06
0195832420999992002090218004-12570-041380FM-12+042799999V0201801N003110450019N0100001N1+03631+01891100462ADDAA106000091GF108991031071004501081071MA1999999095661MD1999999-0331MW1051REMSYN076AAXX  02184 83242 31497 81806 10363 20189 39566 40046 705// 83787 333 59033;EQDQ01+100463APOSLPQ02  00002PRCP06
0208832420999992002090300004-12570-041380FM-12+042799999V0201401N000512200019N0020001N1+02801+02081100091ADDAA106000091GA1001+999999999GF100991001001999999001001KA1240M+03701MA1999999096111MD1999999-0171REMSYN082AAXX  03004 83242 32995 01401 10280 20208 39611 40009 333 10370 29060 55071 59017;EQDQ01  00002PRCP06
0190832420999992002090312004-12570-041380FM-12+042799999V0209999C000010042019N0020001N1+02281+02161101721ADDAY161061AY241061GF108991081071004501999999KA1240N+02211MA1999999096811MD1999999+0401MW1501REMSYN088AAXX  03124 83242 21495 80000 10228 20216 39681 40172 75064 887// 333 20221 58040 60024;
0171832420999992002090318004-12570-041380FM-12+042799999V0201801N001010450019N0040001N1+03001+01941101171ADDAY151061AY221061GF108991041061004501031071MA1999999096311MD1999999+0651MW1051REMSYN082AAXX  03184 83242 21496 81802 10300 20194 39631 40117 70552 84637 333 58065 69961;
0198832420999992002090400004-12570-041380FM-12+042799999V0201801N000510042019N0020001N1+02581+02041101631ADDAA106000091GF108991081071004501999999KA1240M+03021MA1999999096681MD1999999+0571REMSYN088AAXX  04004 83242 32495 81801 10258 20204 39668 40163 887// 333 10302 29072 55033 58057;EQDQ01  00002PRCP06
0209832420999992002090412004-12570-041380FM-12+042799999V0201801N001010090019N0040001N1+02281+01961101821ADDAY161061AY221061GF108991999081004501071999KA1240N+02071MA1999999096891MD1999999+0081MW1501REMSYN088AAXX  04124 83242 21496 81802 10228 20196 39689 40182 75062 8887/ 333 20207 58008 60014;EQDQ01+000082SCOTLC
0176832420999992002090418004-12570-041380FM-12+042799999V0201801N001010042019N0040001N1+02801+01781101391ADDAA106000021AY151061AY221061GF108991081071004501999999MA1999999096501MD1999999+0211MW1151REMSYN076AAXX  04184 83242 31496 81802 10280 20178 39650 40139 71552 887// 333 58021;
0210832420999992002090500004-12570-041380FM-12+042799999V0201401N000510042019N0010001N1+02381+02031101681ADDAA106000091GF108991081071004501999999KA1240M+02821MA1999999096731MD1999999+0051MW1101REMSYN094AAXX  05004 83242 31494 81401 10238 20203 39673 40168 710// 887// 333 10282 29074 55000 58005;EQDQ01  00002PRCP06
0174832420999992002090512004-12570-041380FM-12+042799999V0201401N001510042019N0040001N1+02321+01811101881ADDGF108991081071004501999999KA1240N+02071MA1999999096921MD1999999+0031MW1401REMSYN088AAXX  05124 83242 21496 81403 10232 20181 39692 40188 740// 887// 333 20207 58003 69904;
0210832420999992002090600004-12570-041380FM-12+042799999V0202701N000510042019N0010001N1+02381+01891101651ADDAA106000091GF108991081071004501999999KA1240M+02871MA1999999096701MD1999999-0031MW1051REMSYN094AAXX  06004 83242 31494 82701 10238 20189 39670 40165 705// 887// 333 10287 29068 55023 59003;EQDQ01  00002PRCP06
0190832420999992002090612004-12570-041380FM-12+042799999V0202301N001010042019N0040001N1+02101+01911101981ADDAY151061AY221061GF108991081071004501999999KA1240N+01971MA1999999097001MD1999999+0081MW1151REMSYN088AAXX  06124 83242 21496 82302 10210 20191 39700 40198 71552 887// 333 20197 58008 69904;
0179832420999992002090618004-12570-041380FM-12+042799999V0201401N001010450019N0040001N1+03001+01681101341ADDAA106000091GF106991041051004501031001MA1999999096451MD1999999-0021MW1051REMSYN076AAXX  06184 83242 31496 61402 10300 20168 39645 40134 705// 84530 333 59002;EQDQ01  00002PRCP06
0210832420999992002090700004-12570-041380FM-12+042799999V0201801N001010042019N0010001N1+02401+01891101651ADDAA106000091GF108991081071004501999999KA1240M+03021MA1999999096681MD1999999-0021MW1051REMSYN094AAXX  07004 83242 31494 81802 10240 20189 39668 40165 705// 887// 333 10302 29070 55051 59002;EQDQ01  00002PRCP06
0190832420999992002090712004-12570-041380FM-12+042799999V0201801N001510042019N0020001N1+02181+01881101841ADDAY151061AY241061GF108991081071004501999999KA1240N+02051MA1999999096871MD1999999-0031MW1101REMSYN088AAXX  07124 83242 21495 81803 10218 20188 39687 40184 71054 887// 333 20205 59003 69944;
0179832420999992002090718004-12570-041380FM-12+042799999V0201801N003112200019N0040001N1+02861+01901101341ADDAA106000091GF102991011011004501081001MA1999999096431MD1999999-0021MW1051REMSYN076AAXX  07184 83242 31496 21806 10286 20190 39643 40134 705// 81180 333 59002;EQDQ01  00002PRCP06
0208832420999992002090800004-12570-041380FM-12+042799999V0200501N001512200019N0020001N1+02321+01811101581ADDAA106000091GA1001+999999999GF100991001001999999001001KA1240M+03001MA1999999096621MD1999999-0061REMSYN082AAXX  08004 83242 32995 00503 10232 20181 39662 40158 333 10300 29071 55047 59006;EQDQ01  00002PRCP06
0190832420999992002090812004-12570-041380FM-12+042799999V0201801N000510042019N0040001N1+02301+01851101811ADDAY151061AY241061GF107991061071004501081001KA1240N+02011MA1999999096851MD1999999-0021MW1051REMSYN088AAXX  08124 83242 21496 71801 10230 20185 39685 40181 70554 86780 333 20201 59002 69904;
0171832420999992002090818004-12570-041380FM-12+042799999V0201401N002110042019N0010001N1+02791+01781101411ADDAY151061AY241061GF107991061071004501081001MA1999999096511MD1999999+0081MW1031REMSYN082AAXX  08184 83242 21494 71404 10279 20178 39651 40141 70354 86780 333 58008 69901;
0202832420999992002090900004-12570-041380FM-12+042799999V0201801N002110042019N0020001N1+02301+01921101791ADDAY151061AY221061GF108991081071004501999999KA1240M+02941MA1999999096831MD1999999+0211MW1021REMSYN100AAXX  09004 83242 21495 81804 10230 20192 39683 40179 70252 887// 333 10294 29072 55042 58021 69961;
0179832420999992002090918004-12570-041380FM-12+042799999V0201401N001511050019N0040001N1+03261+01281101351ADDAA106000091GF108991011011004501001071MA1999999096511MD1999999+0001MW1051REMSYN076AAXX  09184 83242 31496 81403 10326 20128 39651 40135 705// 81107 333 58000;EQDQ01  00002PRCP06
0208832420999992002091000004-12570-041380FM-12+042799999V0201801N001512200019N0020001N1+02321+01161101801ADDAA106000091GA1001+999999999GF100991001001999999001001KA1240M+03201MA1999999096841MD1999999+0011REMSYN082AAXX  10004 83242 32995 01803 10232 20116 39684 40180 333 10320 29049 55107 58001;EQDQ01  00002PRCP06
0186832420999992002091012004-12570-041380FM-12+042799999V0201801N004110042019N0100001N1+02181+01671102071ADDAA106000091GF107991061071004501041001KA1240N+01871MA1999999097081MD1999999+0011REMSYN076AAXX  10124 83242 32497 71808 10218 20167 39708 40207 86740 333 20187 58001;EQDQ01  00002PRCP06
0167832420999992002091018004-12570-041380FM-12+042799999V0201401N001510450019N0100001N1+03001+01331101491ADDAA106000091GF106991041051004501081001MA1999999096571MD1999999+0061REMSYN070AAXX  10184 83242 32497 61403 10300 20133 39657 40149 84580 333 58006;EQDQ01  00002PRCP06
0198832420999992002091100004-12570-041380FM-12+042799999V0200901N001012200019N0100001N1+02271+01611101861ADDAA106000091GF104991021041004501081001KA1240M+03041MA1999999096871MD1999999+0031REMSYN088AAXX  11004 83242 32497 40902 10227 20161 39687 40186 82480 333 10304 29060 55053 58003;EQDQ01  00002PRCP06
0186832420999992002091112004-12570-041380FM-12+042799999V0201401N002610042019N0100001N1+02251+01521102061ADDAA106000091GF106991051071004501031001KA1240N+01631MA1999999097071MD1999999-0011REMSYN076AAXX  11124 83242 32497 61405 10225 20152 39707 40206 85730 333 20163 59001;EQDQ01  00002PRCP06
0158832420999992002091118004-12570-041380FM-12+042799999V0201801N002119999999N0040001N1+03001+01151101481ADDAA106000091GF106991999999004501999999MA1999999096551REMSYN075AAXX  11184 83242 31496 61804 10300 20115 39655 40148 05// 85680 333 59002;EQDQ01  00002PRCP06
0198832420999992002091200004-12570-041380FM-12+042799999V0201801N001512200019N0020001N1+02301+01661101791ADDAA106000091GF102991021021004501001001KA1240M+03041MA1999999096831MD1999999-0041REMSYN088AAXX  12004 83242 32495 21803 10230 20166 39683 40179 82200 333 10304 29057 55092 59004;EQDQ01  00002PRCP06
0198832420999992002091212004-12570-041380FM-12+042799999V0201801N002610042019N0040001N1+02111+01721101881ADDAA106000091GF108991081071004501999999KA1240N+01771MA1999999096891MD1999999-0181MW1151REMSYN082AAXX  12124 83242 31496 81805 10211 20172 39689 40188 715// 887// 333 20177 59018;EQDQ01  00002PRCP06
0171832420999992002091218004-12570-041380FM-12+042799999V0201801N001010042019N0040001N1+02381+01841101551ADDAY151061AY221061GF108991081071004501999999MA1999999096561MD1999999+0011MW1151REMSYN082AAXX  12184 83242 21496 81802 10238 20184 39656 40155 71552 887// 333 58001 69961;
0202832420999992002091300004-12570-041380FM-12+042799999V0201401N001510042019N0005001N1+02001+01921101781ADDAY161061AY241061GF108991081071004501999999KA1240M+02541MA1999999096771MD1999999-0061MW1501REMSYN100AAXX  13004 83242 21493 81403 10200 20192 39677 40178 75064 887// 333 10254 29085 55010 59006 60051;
0190832420999992002091312004-12570-041380FM-12+042799999V0201401N000510042019N0100001N1+02141+01781101791ADDAY161061AY251061GF108991081071004501999999KA1240N+01831MA1999999096771MD1999999-0121MW1031REMSYN088AAXX  13124 83242 21497 81401 10214 20178 39677 40179 70365 887// 333 20183 59012 60074;
0167832420999992002091318004-12570-041380FM-12+042799999V0201401N001012200019N0100001N1+02741+01571101191ADDAA106000091GF104991041021004501001001MA1999999096271MD1999999-0291REMSYN070AAXX  13184 83242 32497 41402 10274 20157 39627 40119 84200 333 59029;EQDQ01  00002PRCP06
0208832420999992002091400004-12570-041380FM-12+042799999V0203601N001512200019N0020001N1+02061+01681101421ADDAA106000091GA1001+999999999GF100991001001999999001001KA1240M+02921MA1999999096441MD1999999-0331REMSYN082AAXX  14004 83242 32995 03603 10206 20168 39644 40142 333 10292 29072 55057 59033;EQDQ01  00002PRCP06
0198832420999992002091412004-12570-041380FM-12+042799999V0201801N001010042019N0040001N1+02221+01801101711ADDAA106000091GF108991071071004501061001KA1240N+01771MA1999999096721MD1999999-0051MW1051REMSYN082AAXX  14124 83242 31496 81802 10222 20180 39672 40171 705// 87760 333 20177 59005;EQDQ01  00002PRCP06
0208832420999992002091500004-12570-041380FM-12+042799999V0209999C000012200019N0020001N1+02401+01701101311ADDAA106000091GA1001+999999999GF100991001001999999001001KA1240M+03401MA1999999096371MD1999999-0071REMSYN082AAXX  15004 83242 32995 00000 10240 20170 39637 40131 333 10340 29058 55070 59007;EQDQ01  00002PRCP06
0198832420999992002091512004-12570-041380FM-12+042799999V0200501N000510042019N0040001N1+02301+01791101621ADDAA106000091GF108991081071004501999999KA1240N+01931MA1999999096671MD1999999-0051MW1051REMSYN082AAXX  15124 83242 31496 80501 10230 20179 39667 40162 705// 887// 333 20193 59005;EQDQ01  00002PRCP06
0179832420999992002091518004-12570-041380FM-12+042799999V0201801N001011050019N0040001N1+03371+01331101011ADDAA106000091GF108991011011004501001071MA1999999096161MD1999999+0091MW1051REMSYN076AAXX  15184 83242 31496 81802 10337 20133 39616 40101 705// 81107 333 58009;EQDQ01  00002PRCP06
0198832420999992002091600004-12570-041380FM-12+042799999V0201801N001512200019N0020001N1+02591+01631101561ADDAA106000091GF104991021041004501031001KA1240M+03401MA1999999096641MD1999999+0271REMSYN088AAXX  16004 83242 32495 41803 10259 20163 39664 40156 82430 333 10340 29053 55064 58027;EQDQ01  00002PRCP06
0186832420999992002091612004-12570-041380FM-12+042799999V0201401N002110450019N0100001N1+02401+01551102001ADDAA106000091GF106991031051004501031051KA1240N+01631MA1999999097071MD1999999+0401REMSYN076AAXX  16124 83242 32497 61404 10240 20155 39707 40200 83535 333 20163 58040;EQDQ01  00002PRCP06
0167832420999992002091618004-12570-041380FM-12+042799999V0201401N001510450019N0100001N1+02801+01751101491ADDAA106000091GF106991041051004501031041MA1999999096551MD1999999+0391REMSYN070AAXX  16184 83242 32497 61403 10280 20175 39655 40149 84534 333 58039;EQDQ01  00002PRCP06
0198832420999992002091700004-12570-041380FM-12+042799999V0201801N001010042019N0020001N1+02461+01581101791ADDAA106000091GF105991051051004501001001KA1240M+03021MA1999999096861MD1999999+0221REMSYN088AAXX  17004 83242 32495 51802 10246 20158 39686 40179 85500 333 10302 29057 55083 58022;EQDQ01  00002PRCP06
0186832420999992002091712004-12570-041380FM-12+042799999V0201401N002610042019N0100001N1+02281+01381102161ADDAA199000091GF105991051041004501001001KA1240N+01491MA1999999097191MD1999999+0121REMSYN076AAXX  17124 83242 32497 51405 10228 20138 39719 40216 85400 333 20149 58012;EQDQ01  00002PRCP99
0179832420999992002091718004-12570-041380FM-12+042799999V0201801N002111050019N0040001N1+03061+01151101491ADDAA106000091GF108991011011004501001071MA1999999096561MD1999999+0011MW1051REMSYN076AAXX  17184 83242 31496 81804 10306 20115 39656 40149 705// 81107 333 58001;EQDQ01  00002PRCP06
0198832420999992002091800004-12570-041380FM-12+042799999V0201801N001012200019N0020001N1+02321+01471101891ADDAA106000091GF103991011031004501051001KA1240M+03101MA1999999096921MD1999999+0061REMSYN088AAXX  18004 83242 32495 31802 10232 20147 39692 40189 81350 333 10310 29052 55103 58006;EQDQ01  00002PRCP06
0186832420999992002091812004-12570-041380FM-12+042799999V0201401N002112200019N0100001N1+02271+01441102011ADDAA106000091GF103991031021004501001001KA1240N+01611MA1999999097041MD1999999-0151REMSYN076AAXX  18124 83242 32497 31404 10227 20144 39704 40201 83200 333 20161 59015;EQDQ01  00002PRCP06
0179832420999992002091818004-12570-041380FM-12+042799999V0201401N002110042019N0040001N1+03061+01111101311ADDAA106000091GF106991051041004501031001MA1999999096401MD1999999-0161MW1051REMSYN076AAXX  18184 83242 31496 61404 10306 20111 39640 40131 705// 85430 333 59016;EQDQ01  00002PRCP06
0208832420999992002091900004-12570-041380FM-12+042799999V0201801N001512200019N0020001N1+02301+01381101681ADDAA106000091GA1001+999999999GF100991001001999999001001KA1240M+03081MA1999999096721MD1999999-0201REMSYN082AAXX  19004 83242 32995 01803 10230 20138 39672 40168 333 10308 29050 55108 59020;EQDQ01  00002PRCP06
0186832420999992002091912004-12570-041380FM-12+042799999V0201801N001010042019N0100001N1+02221+01671101881ADDAA106000091GF107991061071004501051001KA1240N+01791MA1999999096901MD1999999-0141REMSYN076AAXX  19124 83242 32497 71802 10222 20167 39690 40188 86750 333 20179 59014;EQDQ01  00002PRCP06
0171832420999992002091918004-12570-041380FM-12+042799999V0201801N004610042019N0040001N1+02841+01631101221ADDAY141061AY221061GF108991081071004501999999MA1999999096281MD1999999-0121MW1501REMSYN082AAXX  19184 83242 21496 81809 10284 20163 39628 40122 75042 887// 333 59012 69901;
0202832420999992002092000004-12570-041380FM-12+042799999V0201801N002110042019N0005001N1+02021+01971101761ADDAY161061AY221061GF108991081071004501999999KA1240M+02961MA1999999096761MD1999999+0041MW1601REMSYN100AAXX  20004 83242 21493 81804 10202 20197 39676 40176 76062 887// 333 10296 29079 55028 58004 60141;
0190832420999992002092012004-12570-041380FM-12+042799999V0201801N001510042019N0040001N1+02241+01731101921ADDAY161061AY221061GF107991061071004501061001KA1240N+01831MA1999999096921MD1999999+0021MW1051REMSYN088AAXX  20124 83242 21496 71803 10224 20173 39692 40192 70562 86760 333 20183 58002 60164;
0179832420999992002092018004-12570-041380FM-12+042799999V0200501N001510042019N0040001N1+02721+01931101341ADDAA106000091GF107991061071004501051001MA1999999096401MD1999999+0121MW1051REMSYN076AAXX  20184 83242 31496 70503 10272 20193 39640 40134 705// 86750 333 58012;EQDQ01  00002PRCP06
0198832420999992002092100004-12570-041380FM-12+042799999V0200501N001510450019N0020001N1+02261+01881101591ADDAA106000091GF106991031071004501051011KA1240M+02801MA1999999096631MD1999999-0131REMSYN088AAXX  21004 83242 32495 60503 10226 20188 39663 40159 83751 333 10280 29073 55038 59013;EQDQ01  00002PRCP06
0198832420999992002092112004-12570-041380FM-12+042799999V0200901N001510042019N0040001N1+02121+01761101701ADDAA106000091GF108991081071004501999999KA1240N+01911MA1999999096721MD1999999-0201MW1051REMSYN082AAXX  21124 83242 31496 80903 10212 20176 39672 40170 705// 887// 333 20191 59020;EQDQ01  00002PRCP06
0179832420999992002092118004-12570-041380FM-12+042799999V0201801N002110450019N0040001N1+02841+01821101021ADDAA106000091GF108991011011004501051071MA1999999096111MD1999999-0291MW1051REMSYN076AAXX  21184 83242 31496 81804 10284 20182 39611 40102 705// 81157 333 59029;EQDQ01  00002PRCP06
0198832420999992002092200004-12570-041380FM-12+042799999V0200501N001012200019N0020001N1+02281+01831101281ADDAA106000091GF102991001001999999001011KA1240M+03001MA1999999096321MD1999999-0311REMSYN088AAXX  22004 83242 32995 20502 10228 20183 39632 40128 80001 333 10300 29072 55047 59031;EQDQ01  00002PRCP06
0198832420999992002092212004-12570-041380FM-12+042799999V0202301N001010042019N0040001N1+02301+01901101521ADDAA106000091GF108991071071004501081999KA1240N+01981MA1999999096571MD1999999-0151MW1051REMSYN082AAXX  22124 83242 31496 82302 10230 20190 39657 40152 705// 8778/ 333 20198 59015;EQDQ01  00002PRCP06
0167832420999992002092218004-12570-041380FM-12+042799999V0201801N003110450019N0100001N1+03141+01731100901ADDAA106000091GF108991021031004501031071MA1999999096021MD1999999-0091REMSYN070AAXX  22184 83242 32497 81806 10314 20173 39602 40090 82337 333 59009;EQDQ01  00002PRCP06
0198832420999992002092300004-12570-041380FM-12+042799999V0200501N001510450019N0020001N1+02541+01951101201ADDAA106000091GF106991021031004501031001KA1240M+03221MA1999999096291MD1999999-0031REMSYN088AAXX  23004 83242 32495 60503 10254 20195 39629 40120 82330 333 10322 29065 55064 59003;EQDQ01  00002PRCP06
0198832420999992002092312004-12570-041380FM-12+042799999V0201401N001010042019N0040001N1+02341+01951101491ADDAA106000091GF108991081071004501999999KA1240N+02031MA1999999096571MD1999999+0001MW1051REMSYN082AAXX  23124 83242 31496 81402 10234 20195 39657 40149 705// 887// 333 20203 58000;EQDQ01  00002PRCP06
0179832420999992002092318004-12570-041380FM-12+042799999V0201401N001510042019N0040001N1+02731+01871101121ADDAA106000091GF107991061061004501031001MA1999999096211MD1999999+0191MW1051REMSYN076AAXX  23184 83242 31496 71403 10273 20187 39621 40112 705// 86630 333 58019;EQDQ01  00002PRCP06
0198832420999992002092400004-12570-041380FM-12+042799999V0209999C000010042019N0020001N1+02451+01971101241ADDAA106000091GF107991071041004501001001KA1240M+02901MA1999999096331MD1999999+0041REMSYN088AAXX  24004 83242 32495 70000 10245 20197 39633 40124 87400 333 10290 29071 55023 58004;EQDQ01  00002PRCP06
0198832420999992002092412004-12570-041380FM-12+042799999V0200501N001010042019N0040001N1+02441+01761101311ADDAA106000091GF108991071071004501061999KA1240N+02161MA1999999096401MD1999999-0171MW1051REMSYN082AAXX  24124 83242 31496 80502 10244 20176 39640 40131 705// 8776/ 333 20216 59017;EQDQ01  00002PRCP06
0179832420999992002092418004-12570-041380FM-12+042799999V0201401N001010450019N0040001N1+03101+01801100671ADDAA106000091GF108991021031004501051071MA1999999095841MD1999999-0371MW1051REMSYN076AAXX  24184 83242 31496 81402 10310 20180 39584 40067 705// 82357 333 59037;EQDQ01  00002PRCP06
0202832420999992002092500004-12570-041380FM-12+042799999V0201801N000510042019N0005001N1+02561+01931101061ADDAY151061AY241061GF108991081071004501999999KA1240M+03121MA1999999096171MD1999999-0161MW1211REMSYN100AAXX  25004 83242 21493 81801 10256 20193 39617 40106 72154 887// 333 10312 29062 55055 59016 69941;
0190832420999992002092512004-12570-041380FM-12+042799999V0201801N000510042019N0020001N1+02151+02091101451ADDAY161061AY221061GF108991081071004501999999KA1240N+02051MA1999999096521MD1999999+0121MW1101REMSYN088AAXX  25124 83242 21495 81801 10215 20209 39652 40145 71062 887// 333 20205 58012 60054;
0210832420999992002092600004-12570-041380FM-12+042799999V0202701N001010042019N0020001N1+02441+02091101281ADDAA106000091GF108991081071004501999999KA1240M+03001MA1999999096341MD1999999+0171MW1131REMSYN094AAXX  26004 83242 31495 82702 10244 20209 39634 40128 713// 887// 333 10300 29076 55015 58017;EQDQ01  00002PRCP06
0190832420999992002092612004-12570-041380FM-12+042799999V0201801N001510042019N0005001N1+02071+02031101641ADDAY141061AY221061GF108991081071004501999999KA1240N+02021MA1999999096671MD1999999+0151MW1211REMSYN088AAXX  26124 83242 21493 81803 10207 20203 39667 40164 72142 887// 333 20202 58015 60184;
0171832420999992002092618004-12570-041380FM-12+042799999V0201801N001510042019N0040001N1+02241+01941101421ADDAY161061AY221061GF108991081071004501999999MA1999999096451MD1999999+0421MW1401REMSYN082AAXX  26184 83242 21496 81803 10224 20194 39645 40142 74062 887// 333 58042 60011;
0190832420999992002092712004-12570-041380FM-12+042799999V0201801N003110042019N0040001N1+02341+01871101781ADDAY161061AY221061GF107991051071004501051081KA1240N+01931MA1999999096811MD1999999+0141MW1051REMSYN088AAXX  27124 83242 21496 71806 10234 20187 39681 40178 70562 85758 333 20193 58014 60144;
0167832420999992002092718004-12570-041380FM-12+042799999V0201801N001510042019N0100001N1+02601+01871101241ADDAA106000091GF108991081071004501999999MA1999999096501MD1999999+0051REMSYN070AAXX  27184 83242 32497 81803 10260 20187 39650 40124 887// 333 58005;EQDQ01  00002PRCP06
0198832420999992002092800004-12570-041380FM-12+042799999V0202301N001510042019N0020001N1+02361+01891101671ADDAA106000091GF108991081071004501999999KA1240M+02721MA1999999096321MD1999999+0021REMSYN088AAXX  28004 83242 32495 82303 10236 20189 39632 40167 887// 333 10272 29072 55020 58002;EQDQ01  00002PRCP06
0190832420999992002092812004-12570-041380FM-12+042799999V0201801N002610042019N0020001N1+02181+01881101871ADDAY151061AY241061GF108991081071004501999999KA1240N+02041MA1999999096891MD1999999+0081MW1101REMSYN088AAXX  28124 83242 21495 81805 10218 20188 39689 40187 71054 887// 333 20204 58008 69904;
0171832420999992002092818004-12570-041380FM-12+042799999V0201801N001510042019N0040001N1+02581+02101101431ADDAY151061AY241061GF108991061071004501031031MA1999999096511MD1999999+0011MW1151REMSYN082AAXX  28184 83242 21496 81803 10258 20210 39651 40143 71554 86733 333 58001 69901;
0202832420999992002092900004-12570-041380FM-12+042799999V0201801N001510042019N0020001N1+02221+02101101721ADDAY161061AY221061GF108991081071004501999999KA1240M+02771MA1999999096741MD1999999+0021MW1031REMSYN100AAXX  29004 83242 21495 81803 10222 20210 39674 40172 70362 887// 333 10277 29086 55017 58002 66001;
0190832420999992002092912004-12570-041380FM-12+042799999V0201801N003110042019N0020001N1+02101+02031101921ADDAY161061AY241061GF108991081071004501999999KA1240N+01931MA1999999096921MD1999999+0031MW1101REMSYN088AAXX  29124 83242 21495 81806 10210 20203 39692 40192 71064 887// 333 20193 58003 60134;
0190832420999992002092918004-12570-041380FM-12+042799999V0202301N000510090019N0020001N1+02421+02191101421ADDAY161061AY221061GF108991999081004501071999MA1999999096451MD1999999-0061MW1501REMSYN082AAXX  29184 83242 21495 82301 10242 20219 39645 40142 75062 8887/ 333 59006 60071;EQDQ01+000082SCOTLC
0202832420999992002093000004-12570-041380FM-12+042799999V0201401N001010042019N0020001N1+02141+01971101731ADDAY191061AY261061GF108991081071004501999999KA1240M+02581MA1999999096731MD1999999-0011MW1021REMSYN100AAXX  30004 83242 21495 81402 10214 20197 39673 40173 70296 887// 333 10258 29091 55007 59001 60081;
0162832420999992002093012004-12570-041380FM-12+042799999V0201801N001510042019N0100001N1+02261+01751101941ADDGF106991051071004501031001KA1240N+01851MA1999999096951MD1999999+0031REMSYN082AAXX  30124 83242 22497 61803 10226 20175 39695 40194 85730 333 20185 58003 60154;
0179832420999992002093018004-12570-041380FM-12+042799999V0201801N002110042019N0040001N1+03101+01541101341ADDAA106000091GF106991051051004501031001MA1999999096441MD1999999-0011MW1051REMSYN076AAXX  30184 83242 31496 61804 10310 20154 39644 40134 705// 85530 333 59001;EQDQ01  00002PRCP06
0208832420999992002100100004-12570-041380FM-12+042799999V0202301N000512200019N0020001N1+02281+01731101691ADDAA106000091GA1001+999999999GF100991001001999999001001KA1240M+03121MA1999999096721MD1999999-0011REMSYN082AAXX  01004 83242 32995 02301 10228 20173 39672 40169 333 10312 29064 55094 59001;EQDQ01  00002PRCP06
0190832420999992002100112004-12570-041380FM-12+042799999V0201401N001010042019N0100001N1+02361+01831101911ADDAY151061AY201061GF107991051071004501031001KA1240N+01911MA1999999096941MD1999999-0011MW1031REMSYN088AAXX  01124 83242 21497 71402 10236 20183 39694 40191 70350 85730 333 20191 59001 69924;
0179832420999992002100118004-12570-041380FM-12+042799999V0201401N001019999999N0040001N1+03061+01621101271ADDAA106000091GF108991031011004501999071MA1999999096381MD1999999-0061MW1051REMSYN076AAXX  01184 83242 31496 81402 10306 20162 39638 40127 705// 831/7 333 59006;EQDQ01  00002PRCP06
0208832420999992002100200004-12570-041380FM-12+042799999V0209999C000012200019N0020001N1+02281+01731101521ADDAA106000091GA1001+999999999GF100991001001999999001001KA1240M+03181MA1999999096571MD1999999-0151REMSYN082AAXX  02004 83242 32995 00000 10228 20173 39657 40152 333 10318 29064 55090 59015;EQDQ01  00002PRCP06
0198832420999992002100212004-12570-041380FM-12+042799999V0201801N001010042019N0040001N1+02141+01781101671ADDAA106000091GF108991081071004501999999KA1240N+01911MA1999999096691MD1999999-0251MW1101REMSYN082AAXX  02124 83242 31496 81802 10214 20178 39669 40167 710// 887// 333 20191 59025;EQDQ01  00002PRCP06
0179832420999992002100218004-12570-041380FM-12+042799999V0201801N001511050019N0040001N1+02841+01531101191ADDAA106000091GF108991021011004501001071MA1999999096271MD1999999-0111MW1051REMSYN076AAXX  02184 83242 31496 81803 10284 20153 39627 40119 705// 82107 333 59011;EQDQ01  00002PRCP06
0208832420999992002100300004-12570-041380FM-12+042799999V0209999C000012200019N0020001N1+02191+01801101461ADDAA106000091GA1001+999999999GF100991001001999999001001KA1240M+02871MA1999999096481MD1999999-0091REMSYN082AAXX  03004 83242 32995 00000 10219 20180 39648 40146 333 10287 29070 55055 59009;EQDQ01  00002PRCP06
0186832420999992002100312004-12570-041380FM-12+042799999V0202301N001510042019N0100001N1+02261+01771101591ADDAA106000091GF107991051071004501041001KA1240N+01891MA1999999096631MD1999999-0061REMSYN076AAXX  03124 83242 32497 72303 10226 20177 39663 40159 85740 333 20189 59006;EQDQ01  00002PRCP06
0179832420999992002100318004-12570-041380FM-12+042799999V0201401N001010450019N0040001N1+03101+01421100951ADDAA106000091GF108991021011004501031071MA1999999096071MD1999999-0271MW1051REMSYN076AAXX  03184 83242 31496 81402 10310 20142 39607 40095 705// 82137 333 59027;EQDQ01  00002PRCP06
0208832420999992002100400004-12570-041380FM-12+042799999V0200901N000512200019N0020001N1+02461+01501101301ADDAA106000091GA1001+999999999GF100991001001999999001001KA1240M+03121MA1999999096371MD1999999-0111REMSYN082AAXX  04004 83242 32995 00901 10246 20150 39637 40130 333 10312 29055 55073 59011;EQDQ01  00002PRCP06
0186832420999992002100412004-12570-041380FM-12+042799999V0202301N001510450019N0100001N1+02281+01611101631ADDAA106000091GF106991041041004501021001KA1240N+01751MA1999999096681MD1999999+0051REMSYN076AAXX  04124 83242 32497 62303 10228 20161 39668 40163 84420 333 20175 58005;EQDQ01  00002PRCP06
0179832420999992002100418004-12570-041380FM-12+042799999V0201801N000510450019N0040001N1+03101+01421100931ADDAA106000091GF108991021011004501051071MA1999999096061MD1999999-0011MW1051REMSYN076AAXX  04184 83242 31496 81801 10310 20142 39606 40093 705// 82157 333 59001;EQDQ01  00002PRCP06
0214832420999992002100500004-12570-041380FM-12+042799999V0200501N001510042019N0020001N1+02441+01811101301ADDAA106000091GF108991081071004501999999KA1240M+03121MA1999999999999MD1999999+0001REMSYN088AAXX  05004 83242 32495 80503 10244 20181 39337 40130 887// 333 10312 29060 55096 58000;EQDQ01  00002PRCP06Q02 093373APOSP 
0198832420999992002100512004-12570-041380FM-12+042799999V0201801N001510042019N0020001N1+02221+01901101611ADDAA106000091GF108991081071004501999999KA1240N+02031MA1999999096691MD1999999+0011MW1101REMSYN082AAXX  05124 83242 31495 81803 10222 20190 39669 40161 710// 887// 333 20203 58001;EQDQ01  00002PRCP06
0179832420999992002100518004-12570-041380FM-12+042799999V0201801N002110450019N0040001N1+02981+01551101081ADDAA106000091GF108991021021004501031071MA1999999096211MD1999999+0151MW1051REMSYN076AAXX  05184 83242 31496 81804 10298 20155 39621 40108 705// 82237 333 58015;EQDQ01  00002PRCP06
0198832420999992002100600004-12570-041380FM-12+042799999V0201401N001510042019N0020001N1+02461+01521101391ADDAA106000091GF105991051051004501001001KA1240M+03001MA1999999096461MD1999999+0091REMSYN088AAXX  06004 83242 32495 51403 10246 20152 39646 40139 85500 333 10300 29059 55057 58009;EQDQ01  00002PRCP06
0186832420999992002100612004-12570-041380FM-12+042799999V0201401N001510042019N0100001N1+02361+01691101581ADDAA106000091GF105991051041004501001001KA1240N+01691MA1999999096651MD1999999-0041REMSYN076AAXX  06124 83242 32497 51403 10236 20169 39665 40158 85400 333 20169 59004;EQDQ01  00002PRCP06
0167832420999992002100618004-12570-041380FM-12+042799999V0201401N002112200019N0100001N1+03131+01271101171ADDAA106000091GF102991021011004501001001MA1999999096271MD1999999+0061REMSYN070AAXX  06184 83242 32497 21404 10313 20127 39627 40117 82100 333 58006;EQDQ01  00002PRCP06
0198832420999992002100700004-12570-041380FM-12+042799999V0201801N001510042019N0020001N1+02481+01701101441ADDAA106000091GF108991081071004501999999KA1240M+03221MA1999999096521MD1999999+0061REMSYN088AAXX  07004 83242 32495 81803 10248 20170 39652 40144 887// 333 10322 29056 55105 58006;EQDQ01  00002PRCP06
0190832420999992002100712004-12570-041380FM-12+042799999V0201401N001510042019N0040001N1+02481+01751101741ADDAY151061AY221061GF106991051061004501041021KA1240N+02051MA1999999096821MD1999999+0171MW1051REMSYN088AAXX  07124 83242 21496 61403 10248 20175 39682 40174 70552 85642 333 20205 58017 69934;
0179832420999992002100718004-12570-041380FM-12+042799999V0201801N001510450019N0040001N1+03411+01471101061ADDAA106000091GF108991031041004501031071MA1999999096241MD1999999-0031MW1051REMSYN076AAXX  07184 83242 31496 81803 10341 20147 39624 40106 705// 83437 333 59003;EQDQ01  00002PRCP06
0198832420999992002100800004-12570-041380FM-12+042799999V0201801N002112200019N0020001N1+02441+01531101611ADDAA106000091GF104991041061004501001001KA1240M+03441MA1999999096691MD1999999+0171REMSYN088AAXX  08004 83242 32495 41804 10244 20153 39669 40161 84600 333 10344 29054 55102 58017;EQDQ01  00002PRCP06
0186832420999992002100812004-12570-041380FM-12+042799999V0201801N003610042019N0100001N1+02381+01631101861ADDAA106000091GF106991051041004501031001KA1240N+01931MA1999999096921MD1999999+0101REMSYN076AAXX  08124 83242 32497 61807 10238 20163 39692 40186 85430 333 20193 58010;EQDQ01  00002PRCP06
0179832420999992002100818004-12570-041380FM-12+042799999V0201401N002610450019N0040001N1+03301+01151101201ADDAA106000091GF108991041051004501051071MA1999999096331MD1999999+0091MW1051REMSYN076AAXX  08184 83242 31496 81405 10330 20115 39633 40120 705// 84557 333 58009;EQDQ01  00002PRCP06
0208832420999992002100900004-12570-041380FM-12+042799999V0201801N001512200019N0020001N1+02401+01631101531ADDAA106000091GA1001+999999999GF100991001001999999001001KA1240M+03301MA1999999096601MD1999999-0091REMSYN082AAXX  09004 83242 32995 01803 10240 20163 39660 40153 333 10330 29054 55101 59009;EQDQ01  00002PRCP06
0186832420999992002100912004-12570-041380FM-12+042799999V0201801N003110042019N0100001N1+02461+01611101731ADDAA106000091GF106991051041004501031001KA1240N+01911MA1999999096801MD1999999-0121REMSYN076AAXX  09124 83242 32497 61806 10246 20161 39680 40173 85430 333 20191 59012;EQDQ01  00002PRCP06
0179832420999992002100918004-12570-041380FM-12+042799999V0201401N001010450019N0040001N1+03301+01261101191ADDAA106000091GF108991021011004501021071MA1999999096301MD1999999-0031MW1051REMSYN076AAXX  09184 83242 31496 81402 10330 20126 39630 40119 705// 82127 333 59003;EQDQ01  00002PRCP06
0208832420999992002101000004-12570-041380FM-12+042799999V0202301N001012200019N0020001N1+02461+01581101501ADDAA106000091GA1001+999999999GF100991001001999999001001KA1240M+03301MA1999999096581MD1999999-0021REMSYN082AAXX  10004 83242 32995 02302 10246 20158 39658 40150 333 10330 29051 55093 59002;EQDQ01  00002PRCP06
0198832420999992002101012004-12570-041380FM-12+042799999V0201801N002110042019N0040001N1+02281+01701101891ADDAA106000091GF106991051061004501031001KA1240N+01791MA1999999096841MD1999999+0041MW1051REMSYN082AAXX  10124 83242 31496 61804 10228 20170 39684 40189 705// 85630 333 20179 58004;EQDQ01  00002PRCP06
0179832420999992002101018004-12570-041380FM-12+042799999V0201801N002111050019N0040001N1+03091+01531101171ADDAA106000091GF108991021011004501001071MA1999999096181MD1999999-0121MW1051REMSYN076AAXX  10184 83242 31496 81804 10309 20153 39618 40117 705// 82107 333 59012;EQDQ01  00002PRCP06
0208832420999992002101100004-12570-041380FM-12+042799999V0203201N000512200019N0020001N1+02581+01581101411ADDAA106000091GA1001+999999999GF100991001001999999001001KA1240M+03201MA1999999096501MD1999999-0081REMSYN082AAXX  11004 83242 32995 03201 10258 20158 39650 40141 333 10320 29053 55085 59008;EQDQ01  00002PRCP06
0197832420999992002101112004-12570-041380FM-12+042799999V0201801N001510042019N0040001N1+02301+01791101821ADDAA106000091GF108991081071004501999999KA1240N+02091MA1999999096891MD1999999+0051MW1051REMSYN081AAXX  11124 83242 31496 8180310230 20179 39689 40182 705// 887// 333 20209 58005;EQDQ01  00002PRCP06
0179832420999992002101118004-12570-041380FM-12+042799999V0202301N001010450019N0040001N1+03201+01371101111ADDAA106000091GF108991031011004501071071MA1999999096261MD1999999+0081MW1051REMSYN076AAXX  11184 83242 31496 82302 10320 20137 39626 40111 705// 83177 333 58008;EQDQ01  00002PRCP06
0198832420999992002101200004-12570-041380FM-12+042799999V0201801N001012200019N0020001N1+02441+01641101531ADDAA106000091GF104991031031004501001031KA1240M+03221MA1999999096591MD1999999+0091REMSYN088AAXX  12004 83242 32495 41802 10244 20164 39659 40153 83303 333 10322 29057 55063 58009;EQDQ01  00002PRCP06
0198832420999992002101212004-12570-041380FM-12+042799999V0201801N001510042019N0040001N1+02321+01601101771ADDAA106000091GF106991051071004501041001KA1240N+02011MA1999999096841MD1999999-0051MW1051REMSYN082AAXX  12124 83242 31496 61803 10232 20160 39684 40177 705// 85740 333 20201 59005;EQDQ01  00002PRCP06
0179832420999992002101218004-12570-041380FM-12+042799999V0201801N001010450019N0020001N1+03101+01331101111ADDAA106000091GF108991021021004501031071MA1999999096241MD1999999-0021MW1051REMSYN076AAXX  12184 83242 31495 81802 10310 20133 39624 40111 705// 82237 333 59002;EQDQ01  00002PRCP06
0198832420999992002101300004-12570-041380FM-12+042799999V0200501N001510042019N0020001N1+02501+01501101571ADDAA106000091GF106991061061004501001001KA1240M+03101MA1999999096641MD1999999+0051REMSYN088AAXX  13004 83242 32495 60503 10250 20150 39664 40157 86600 333 10310 29052 55064 58005;EQDQ01  00002PRCP06
0198832420999992002101312004-12570-041380FM-12+042799999V0201801N001019999999N0040001N1+02191+01691101721ADDAA106000091GF107991999999004501999999KA1240N+01881MA1999999096771MD1999999-0071MW1051REMSYN082AAXX  13124 83242 31496 71802 10219 20169 39677 40172 705// 8//// 333 20188 59007;EQDQ01  00002PRCP06
0198832420999992002101400004-12570-041380FM-12+042799999V0201801N001010042019N0020001N1+02421+01651101481ADDAA106000091GF106991061061004501001001KA1240M+03041MA1999999096531MD1999999-0111REMSYN088AAXX  14004 83242 32495 61802 10242 20165 39653 40148 86600 333 10304 29059 55050 59011;EQDQ01  00002PRCP06
0198832420999992002101412004-12570-041380FM-12+042799999V0202301N002110042019N0040001N1+02321+01741101721ADDAA106000091GF106991051071004501031001KA1240N+01941MA1999999096771MD1999999+0001MW1051REMSYN082AAXX  14124 83242 31496 62304 10232 20174 39677 40172 705// 85730 333 20194 58000;EQDQ01  00002PRCP06
0167832420999992002101418004-12570-041380FM-12+042799999V0201401N001512200019N0100001N1+03121+01561101031ADDAA106000091GF102991021011004501001001MA1999999096161MD1999999-0061REMSYN070AAXX  14184 83242 32497 21403 10312 20156 39616 40103 82100 333 59006;EQDQ01  00002PRCP06
0198832420999992002101500004-12570-041380FM-12+042799999V0201401N001012200019N0020001N1+02541+01601101451ADDAA106000091GF103991011031004501031031KA1240M+03241MA1999999096541MD1999999+0011REMSYN088AAXX  15004 83242 32495 31402 10254 20160 39654 40145 81333 333 10324 29055 55087 58001;EQDQ01  00002PRCP06
0186832420999992002101512004-12570-041380FM-12+042799999V0201801N002110450019N0100001N1+02321+01601101701ADDAA106000091GF106991041051004501041001KA1240N+01991MA1999999096771MD1999999+0001REMSYN076AAXX  15124 83242 32497 61804 10232 20160 39677 40170 84540 333 20199 58000;EQDQ01  00002PRCP06
0179832420999992002101518004-12570-041380FM-12+042799999V0201401N002111050019N0040001N1+03301+01211100991ADDAA106000091GF108991011011004501001071MA1999999096151MD1999999+0011MW1051REMSYN076AAXX  15184 83242 31496 81404 10330 20121 39615 40099 705// 81107 333 58001;EQDQ01  00002PRCP06
0208832420999992002101600004-12570-041380FM-12+042799999V0201801N001012200019N0020001N1+02401+01501101431ADDAA106000091GA1001+999999999GF100991001001999999001001KA1240M+03321MA1999999096501MD1999999-0041REMSYN082AAXX  16004 83242 32995 01802 10240 20150 39650 40143 333 10332 29052 55095 59004;EQDQ01  00002PRCP06
0214832420999992002101612004-12570-041380FM-12+042799999V0201401N002110042019N0040001N1+02151+01931101751ADDAA106000091AY151061AY211061GF108991081071004501999999KA1240N+01791MA1999999096791MD1999999+0021MW1151REMSYN082AAXX  16124 83242 31496 81404 10215 20193 39679 40175 71551 887// 333 20179 58002;EQDQ01  00002PRCP06
0179832420999992002101618004-12570-041380FM-12+042799999V0201801N002110450019N0040001N1+03101+01331101111ADDAA106000091GF108991021011004501041071MA1999999096201MD1999999+0151MW1051REMSYN076AAXX  16184 83242 31496 81804 10310 20133 39620 40111 705// 82147 333 58015;EQDQ01  00002PRCP06
0198832420999992002101700004-12570-041380FM-12+042799999V0203601N003112200019N0020001N1+02331+01601101851ADDAA106000091GF102991011011004501051001KA1240M+03161MA1999999096491MD1999999-0011REMSYN088AAXX  17004 83242 32495 23606 10233 20160 39649 40185 81150 333 10316 29063 55075 59001;EQDQ01  00002PRCP06
0186832420999992002101712004-12570-041380FM-12+042799999V0200501N001010042019N0100001N1+02311+01811101631ADDAA106000091GF107991061071004501041001KA1240N+02021MA1999999096671MD1999999-0121REMSYN076AAXX  17124 83242 32497 70502 10231 20181 39667 40163 86740 333 20202 59012;EQDQ01  00002PRCP06
0167832420999992002101718004-12570-041380FM-12+042799999V0201401N001012200019N0100001N1+02861+01721101051ADDAA106000091GF102991021011004501001001MA1999999096171MD1999999-0031REMSYN070AAXX  17184 83242 32497 21402 10286 20172 39617 40105 82100 333 59003;EQDQ01  00002PRCP06
0208832420999992002101800004-12570-041380FM-12+042799999V0200501N000512200019N0020001N1+02341+01761101331ADDAA106000091GA1001+999999999GF100991001001999999001001KA1240M+02961MA1999999096391MD1999999-0101REMSYN082AAXX  18004 83242 32995 00501 10234 20176 39639 40133 333 10296 29065 55048 59010;EQDQ01  00002PRCP06
0198832420999992002101812004-12570-041380FM-12+042799999V0201401N001010042019N0040001N1+02291+01771101541ADDAA106000091GF108991081061004501999999KA1240N+02031MA1999999096591MD1999999-0081MW1051REMSYN082AAXX  18124 83242 31496 81402 10229 20177 39659 40154 705// 886// 333 20203 59008;EQDQ01  00002PRCP06
0179832420999992002101818004-12570-041380FM-12+042799999V0201801N004110042019N0040001N1+02801+01721101111ADDAA106000091GF108991051011004501041071MA1999999096211MD1999999+0041MW1051REMSYN076AAXX  18184 83242 31496 81808 10280 20172 39621 40111 705// 85147 333 58004;EQDQ01  00002PRCP06
0198832420999992002101900004-12570-041380FM-12+042799999V0202301N001012200019N0020001N1+02341+01691101381ADDAA106000091GF102991021001012501051001KA1240M+02921MA1999999096441MD1999999+0051REMSYN088AAXX  19004 83242 32695 22302 10234 20169 39644 40138 82050 333 10292 29064 55051 58005;EQDQ01  00002PRCP06
0198832420999992002101912004-12570-041380FM-12+042799999V0201401N002610450019N0040001N1+02421+01821101661ADDAA106000091GF106991041051004501041001KA1240N+02051MA1999999096731MD1999999+0141MW1051REMSYN082AAXX  19124 83242 31496 61405 10242 20182 39673 40166 705// 84540 333 20205 58014;EQDQ01  00002PRCP06
0179832420999992002101918004-12570-041380FM-12+042799999V0201401N001510042019N0040001N1+02951+01741101091ADDAA106000091GF108991061071004501061071MA1999999096201MD1999999-0011MW1051REMSYN076AAXX  19184 83242 31496 81403 10295 20174 39620 40109 705// 86767 333 59001;EQDQ01  00002PRCP06
0198832420999992002102000004-12570-041380FM-12+042799999V0200901N002610042019N0020001N1+02591+01681101371ADDAA106000091GF108991081071004501999999KA1240M+03111MA1999999096471MD1999999+0031REMSYN088AAXX  20004 83242 32495 80905 10259 20168 39647 40137 887// 333 10311 29058 55071 58003;EQDQ01  00002PRCP06
0190832420999992002102012004-12570-041380FM-12+042799999V0201801N001010450019N0040001N1+02341+01691101641ADDAY151061AY221061GF105991031071004501031001KA1240N+01921MA1999999096721MD1999999-0011MW1051REMSYN088AAXX  20124 83242 21496 51802 10234 20169 39672 40164 70552 83730 333 20192 59001 69934;
0197832420999992002102018004-12570-041380FM-12+042799999V0201401N002610450019N0040001N1+03241+01041100961ADDAA106000091AY141061GF108991011011004501051071MA1999999096091MD1999999-0111REMSYN076AAXX  20184 83242 31496 81405 10324 20104 39609 40096 7704/ 81157 333 59011;EQDQ01+000702PRSWM1Q02  00002PRCP06
0198832420999992002102100004-12570-041380FM-12+042799999V0201401N001510042019N0020001N1+02481+01801101431ADDAA106000091GF108991061071004501051011KA1240M+03341MA1999999096511MD1999999+0041REMSYN088AAXX  21004 83242 32495 81403 10248 20180 39651 40143 86751 333 10334 29056 55095 58004;EQDQ01  00002PRCP06
0190832420999992002102112004-12570-041380FM-12+042799999V0201401N002110042019N0100001N1+02321+01761101711ADDAY161061AY221061GF106991051071004501041001KA1240N+01891MA1999999096771MD1999999+0051MW1031REMSYN088AAXX  21124 83242 21497 61404 10232 20176 39677 40171 70362 85740 333 20189 58005 60014;
0179832420999992002102118004-12570-041380FM-12+042799999V0201801N000510450019N0040001N1+03341+01291100981ADDAA106000091GF108991021021004501051071MA1999999096141MD1999999+0051MW1051REMSYN076AAXX  21184 83242 31496 81801 10334 20129 39614 40098 705// 82257 333 58005;EQDQ01  00002PRCP06
0208832420999992002102200004-12570-041380FM-12+042799999V0200501N000512200019N0020001N1+02361+01231101361ADDAA106000091GA1001+999999999GF100991001001999999001001KA1240M+03341MA1999999096311MD1999999-0201REMSYN082AAXX  22004 83242 32995 00501 10236 20123 39631 40136 333 10334 29052 55095 59020;EQDQ01  00002PRCP06
0160832420999992002102212004-12570-041380FM-12+042799999V0202301N001010042019N0100001N1+02321+01551101681ADDGF106991051071004501031001KA1240N+01771MD1999999-0041REMSYN076AAXX  22124 83242 22497 62302 10232 20155 33967 40168 85730 333 20177 59004;EQDQ01+039671APOSP 
0179832420999992002102218004-12570-041380FM-12+042799999V0201801N002110450019N0040001N1+03361+01091100941ADDAA106000091GF108991021011004501031071MA1999999096111MD1999999-0031MW1051REMSYN076AAXX  22184 83242 31496 81804 10336 20109 39611 40094 705// 82137 333 59003;EQDQ01  00002PRCP06
0208832420999992002102300004-12570-041380FM-12+042799999V0201801N001512200019N0020001N1+02421+01461101311ADDAA106000091GA1001+999999999GF100991001001999999001001KA1240M+03361MA1999999096381MD1999999+0071REMSYN082AAXX  23004 83242 32995 01803 10242 20146 39638 40131 333 10336 29049 55090 58007;EQDQ01  00002PRCP06
0198832420999992002102312004-12570-041380FM-12+042799999V0201801N001510042019N0040001N1+02401+01861101591ADDAA106000091GF108991061061004501051071KA1240N+02131MA1999999096661MD1999999-0071MW1051REMSYN082AAXX  23124 83242 31496 81803 10240 20186 39666 40159 705// 86657 333 20213 59007;EQDQ01  00002PRCP06
0179832420999992002102318004-12570-041380FM-12+042799999V0201401N002111050019N0040001N1+03441+01381100861ADDAA106000091GF108991021031004501001071MA1999999096031MD1999999-0081MW1051REMSYN076AAXX  23184 83242 31496 81404 10344 20138 39603 40086 705// 82307 333 59008;EQDQ01  00002PRCP06
0198832420999992002102400004-12570-041380FM-12+042799999V0200901N002610042019N0020001N1+02661+01681101371ADDAA106000091GF107991061071004501051001KA1240M+03461MA1999999096481MD1999999+0101REMSYN088AAXX  24004 83242 32495 70905 10266 20168 39648 40137 86750 333 10346 29053 55083 58010;EQDQ01  00002PRCP06
0198832420999992002102412004-12570-041380FM-12+042799999V0201401N001510042019N0040001N1+02311+01791101621ADDAA106000091GF107991061071004501061001KA1240N+02091MA1999999096711MD1999999+0051MW1051REMSYN082AAXX  24124 83242 31496 71403 10231 20179 39671 40162 705// 86760 333 20209 58005;EQDQ01  00002PRCP06
0179832420999992002102418004-12570-041380FM-12+042799999V0201401N001510450019N0040001N1+03301+01311100931ADDAA106000091GF108991031041004501031071MA1999999096101MD1999999+0071MW1051REMSYN076AAXX  24184 83242 31496 81403 10330 20131 39610 40093 705// 83437 333 58007;EQDQ01  00002PRCP06
0198832420999992002102512004-12570-041380FM-12+042799999V0201401N001010042019N0040001N1+02361+01761101521ADDAA106000091GF108991081071004501999999KA1240N+02031MA1999999096591MD1999999-0121MW1051REMSYN082AAXX  25124 83242 31496 81402 10236 20176 39659 40152 705// 887// 333 20203 59012;EQDQ01  00002PRCP06
0179832420999992002102518004-12570-041380FM-12+042799999V0201401N002110450019N0040001N1+02981+01441100871ADDAA106000091GF108991031041004501031071MA1999999096001MD1999999-0101MW1051REMSYN076AAXX  25184 83242 31496 81404 10298 20144 39600 40087 705// 83437 333 59010;EQDQ01  00002PRCP06
0179832420999992002102618004-12570-041380FM-12+042799999V0201801N001010450019N0040001N1+03141+01541100881ADDAA106000091GF108991021011004501021071MA1999999096021MD1999999+0021MW1051REMSYN076AAXX  26184 83242 31496 81802 10314 20154 39602 40088 705// 82127 333 58002;EQDQ01  00002PRCP06
0208832420999992002102700004-12570-041380FM-12+042799999V0209999C000012200019N0020001N1+02421+01651101031ADDAA106000091GA1001+999999999GF100991001001999999001001KA1240M+03221MA1999999096121MD1999999-0081REMSYN082AAXX  27004 83242 32995 00000 10242 20165 39612 40103 333 10322 29057 55066 59008;EQDQ01  00002PRCP06
0198832420999992002102712004-12570-041380FM-12+042799999V0201401N002110450019N0040001N1+02411+01671101381ADDAA106000091GF108991021011004501051071KA1240N+01931MA1999999096461MD1999999-0191MW1051REMSYN082AAXX  27124 83242 31496 81404 10241 20167 39646 40138 705// 82157 333 20193 59019;EQDQ01  00002PRCP06
0179832420999992002102718004-12570-041380FM-12+042799999V0201401N002111050019N0040001N1+03381+01531100641ADDAA106000091GF108991011031004501001071MA1999999095821MD1999999-0201MW1041REMSYN076AAXX  27184 83242 31496 81404 10338 20153 39582 40064 704// 81307 333 59020;EQDQ01  00002PRCP06
0208832420999992002102800004-12570-041380FM-12+042799999V0200501N001512200019N0020001N1+02611+01591101001ADDAA106000091GA1001+999999999GF100991001001999999001001KA1240M+03461MA1999999096121MD1999999+0001REMSYN082AAXX  28004 83242 32995 00503 10261 20159 39612 40100 333 10346 29050 55107 58000;EQDQ01  00002PRCP06
0198832420999992002102812004-12570-041380FM-12+042799999V0201801N001510042019N0040001N1+02391+01911101471ADDAA106000091GF108991081071004501999999KA1240N+02191MA1999999096561MD1999999+0101MW1051REMSYN082AAXX  28124 83242 31496 81803 10239 20191 39656 40147 705// 887// 333 20219 58010;EQDQ01  00002PRCP06
0179832420999992002102818004-12570-041380FM-12+042799999V0201801N001510450019N0040001N1+03141+01621100791ADDAA106000091GF108991031041004501031071MA1999999095961MD1999999+0141MW1051REMSYN076AAXX  28184 83242 31496 81803 10314 20162 39596 40079 705// 83437 333 58014;EQDQ01  00002PRCP06
0208832420999992002102900004-12570-041380FM-12+042799999V0201801N001012200019N0020001N1+02601+01871100971ADDAA106000091GA1001+999999999GF100991001001999999001001KA1240M+03201MA1999999096091MD1999999-0031REMSYN082AAXX  29004 83242 32995 01802 10260 20187 39609 40097 333 10320 29060 55048 59003;EQDQ01  00002PRCP06
0190832420999992002102912004-12570-041380FM-12+042799999V0201801N001510042019N0040001N1+02301+01901101381ADDAY151061AY201061GF108991081071004501999999KA1240N+02071MA1999999096471MD1999999+0011MW1401REMSYN088AAXX  29124 83242 21496 81803 10230 20190 39647 40138 74050 887// 333 20207 58001 69904;
0179832420999992002102918004-12570-041380FM-12+042799999V0201801N002110450019N0040001N1+03081+01711100741ADDAA106000091GF108991021011004501051071MA1999999095881MD1999999-0081MW1051REMSYN076AAXX  29184 83242 31496 81804 10308 20171 39588 40074 705// 82157 333 59008;EQDQ01  00002PRCP06
0220832420999992002103000004-12570-041380FM-12+042799999V0202301N001012200019N0010001N1+02521+01691101021ADDAA106000091GA1001+999999999GF100991001001999999001001KA1240M+03201MA1999999096121MD1999999+0031MW1041REMSYN088AAXX  30004 83242 31994 02302 10252 20169 39612 40102 704// 333 10320 29060 55052 58003;EQDQ01  00002PRCP06
0198832420999992002103012004-12570-041380FM-12+042799999V0202301N001510042019N0040001N1+02521+01891101271ADDAA106000091GF107991061071004501041001KA1240N+02211MA1999999096371MD1999999-0101MW1051REMSYN082AAXX  30124 83242 31496 72303 10252 20189 39637 40127 705// 86740 333 20221 59010;EQDQ01  00002PRCP06
0179832420999992002103018004-12570-041380FM-12+042799999V0200501N001510450019N0040001N1+03271+01621100571ADDAA106000091GF106991031031004501011011MA1999999095771MD1999999-0111MW1051REMSYN076AAXX  30184 83242 31496 60503 10327 20162 39577 40057 705// 83311 333 59011;EQDQ01  00002PRCP06
0208832420999992002103100004-12570-041380FM-12+042799999V0209999C000012200019N0020001N1+02681+01701100901ADDAA106000091GA1001+999999999GF100991001001999999001001KA1240M+03391MA1999999096041MD1999999-0081REMSYN082AAXX  31004 83242 32995 00000 10268 20170 39604 40090 333 10339 29054 55077 59008;EQDQ01  00002PRCP06
0190832420999992002103112004-12570-041380FM-12+042799999V0209999C000010042019N0020001N1+02321+01961101271ADDAY141061AY201061GF108991081071004501999999KA1240N+02191MA1999999096371MD1999999+0001MW1501REMSYN088AAXX  31124 83242 21495 80000 10232 20196 39637 40127 75040 887// 333 20219 58000 69904;
0160832420999992002103118004-12570-041380FM-12+042799999V0202301N001010450019N0040001N1+03181+01801100601ADDAA106000021GF106991031041004501031051MA1999999095801MD1999999+0031MW1051REMSYN076AAXX  31184 83242 31496 62302 10318 20180 39580 40060 705// 83435 333 58003;
0198832420999992002110100004-12570-041380FM-12+042799999V0209999C000010042019N0020001N1+02721+01851100861ADDAA106000091GF105991051061004501001001KA1240M+03331MA1999999095981MD1999999-0061REMSYN088AAXX  01004 83242 32495 50000 10272 20185 39598 40086 85600 333 10333 29061 55044 59006;EQDQ01  00002PRCP06
0198832420999992002110112004-12570-041380FM-12+042799999V0202701N000510042019N0040001N1+02441+01921101211ADDAA106000091GF108991071071004501061001KA1240N+02281MA1999999096341MD1999999-0031MW1051REMSYN082AAXX  01124 83242 31496 82701 10244 20192 39634 40121 705// 87760 333 20228 59003;EQDQ01  00002PRCP06
0171832420999992002110118004-12570-041380FM-12+042799999V0200501N001010042019N0040001N1+03241+01821100591ADDAY151061AY221061GF107991051071004501061001MA1999999095811MD1999999+0011MW1051REMSYN082AAXX  01184 83242 21496 70502 10324 20182 39581 40059 70552 85760 333 58001 69901;
0202832420999992002110200004-12570-041380FM-12+042799999V0201801N000510042019N0010001N1+02241+02171101211ADDAY191061AY221061GF108991081071004501999999KA1240M+03321MA1999999096301MD1999999+0321MW1611REMSYN100AAXX  02004 83242 21494 81801 10224 20217 39630 40121 76192 887// 333 10332 29077 55041 58032 60061;
0190832420999992002110212004-12570-041380FM-12+042799999V0201801N001010042019N0020001N1+02441+02131101371ADDAY161061AY251061GF108991081071004501999999KA1240N+02031MA1999999096441MD1999999+0101MW1101REMSYN088AAXX  02124 83242 21495 81802 10244 20213 39644 40137 71065 887// 333 20203 58010 60064;
0179832420999992002110218004-12570-041380FM-12+042799999V0200501N001510450019N0040001N1+03051+02171100721ADDAA106000091GF108991031071004501031071MA1999999095861MD1999999+0051MW1051REMSYN076AAXX  02184 83242 31496 80503 10305 20217 39586 40072 705// 83737 333 58005;EQDQ01  00002PRCP06
0198832420999992002110300004-12570-041380FM-12+042799999V0202301N000510042019N0020001N1+02681+02181100881ADDAA106000091GF108991081071004501999999KA1240M+03161MA1999999096011MD1999999-0291REMSYN088AAXX  03004 83242 32495 82301 10268 20218 39601 40088 887// 333 10316 29072 55031 59029;EQDQ01  00002PRCP06
0190832420999992002110312004-12570-041380FM-12+042799999V0200901N001010042019N0020001N1+02481+02031101191ADDAY151061AY241061GF108991081071004501999999KA1240N+02291MA1999999096321MD1999999-0121MW1501REMSYN088AAXX  03124 83242 21495 80902 10248 20203 39632 40119 75054 887// 333 20229 59012 69934;
0176832420999992002110318004-12570-041380FM-12+042799999V0201801N002110042019N0040001N1+02821+02051100811ADDAA106000021AY151061AY221061GF108991081071004501999999MA1999999095951MD1999999+0091MW1051REMSYN076AAXX  03184 83242 31496 81804 10282 20205 39595 40081 70552 887// 333 58009;
0210832420999992002110400004-12570-041380FM-12+042799999V0203601N002110042019N0010001N1+02481+02091101101ADDAA106000091GF108991081071004501999999KA1240M+02981MA1999999096211MD1999999+0201MW1051REMSYN094AAXX  04004 83242 31494 83604 10248 20209 39621 40110 705// 887// 333 10298 29074 55009 58020;EQDQ01  00002PRCP06
0190832420999992002110412004-12570-041380FM-12+042799999V0201801N001010042019N0010001N1+02231+02191101331ADDAY161061AY221061GF108991081071004501999999KA1240N+02111MA1999999096401MD1999999+0081MW1101REMSYN088AAXX  04124 83242 21494 81802 10223 20219 39640 40133 71062 887// 333 20211 58008 60064;
0179832420999992002110418004-12570-041380FM-12+042799999V0201401N001010042019N0040001N1+03001+02051100691ADDAA106000091GF106991051071004501031001MA1999999095921MD1999999-0031MW1051REMSYN076AAXX  04184 83242 31496 61402 10300 20205 39592 40069 705// 85730 333 59003;EQDQ01  00002PRCP06
0202832420999992002110500004-12570-041380FM-12+042799999V0201801N001010042019N0010001N1+02251+02211101211ADDAY161061AY221061GF108991081071004501999999KA1240M+03101MA1999999096261MD1999999+0051MW1101REMSYN100AAXX  05004 83242 21494 81802 10225 20221 39626 40121 71062 887// 333 10310 29087 55020 58005 60321;
0190832420999992002110512004-12570-041380FM-12+042799999V0203201N000510042019N0040001N1+02301+02161101441ADDAY191061AY261061GF107991061071004501061001KA1240N+02011MA1999999096491MD1999999+0091MW1031REMSYN088AAXX  05124 83242 21496 73201 10230 20216 39649 40144 70396 86760 333 20201 58009 60494;
0084832420999992002110518004-12570-041380FM-12+042799999V02099999999999999999N9999999N1+99999+99999999999REMSYN075AAXX  05184 83242 3496 81801 10341 20194 39592 40079 717// 85737 333 58000;
0210832420999992002110600004-12570-041380FM-12+042799999V0200901N001012200019N0020001N1+02471+02151101061ADDAA106000091GF104991041071004501001001KA1240M+03401MA1999999096151MD1999999-0111MW1131REMSYN094AAXX  06004 83242 31495 40902 10247 20215 39615 40106 713// 84700 333 10340 29074 55054 59011;EQDQ01  00002PRCP06
0190832420999992002110612004-12570-041380FM-12+042799999V0201801N002110042019N0040001N1+02361+01991101441ADDAY191061AY261061GF108991081071004501999999KA1240N+02131MA1999999096521MD1999999+0031MW1101REMSYN088AAXX  06124 83242 21496 81804 10236 20199 39652 40144 71096 887// 333 20213 58003 60024;
0179832420999992002110618004-12570-041380FM-12+042799999V0201801N002110042019N0040001N1+02791+02001101061ADDAA106000091GF108991061051004501001061MA1999999096181MD1999999+0261MW1051REMSYN076AAXX  06184 83242 31496 81804 10279 20200 39618 40106 705// 86506 333 58026;EQDQ01  00002PRCP06
0210832420999992002110700004-12570-041380FM-12+042799999V0203601N001012200019N0020001N1+02381+02091101281ADDAA106000091GF102991021071004501001001KA1240M+02921MA1999999096351MD1999999+0201MW1131REMSYN094AAXX  07004 83242 31495 23602 10238 20209 39635 40128 713// 82700 333 10292 29078 55015 58020;EQDQ01  00002PRCP06
0198832420999992002110712004-12570-041380FM-12+042799999V0201801N001010042019N0040001N1+02351+02051101631ADDAA106000091GF108991081071004501999999KA1240N+02111MA1999999096681MD1999999+0151MW1101REMSYN082AAXX  07124 83242 31496 81802 10235 20205 39668 40163 710// 887// 333 20211 58015;EQDQ01  00002PRCP06
0179832420999992002110718004-12570-041380FM-12+042799999V0201401N000510042019N0040001N1+02881+01911101161ADDAA106000091GF108991081071004501999999MA1999999096281MD1999999+0101MW1051REMSYN076AAXX  07184 83242 31496 81401 10288 20191 39628 40116 705// 887// 333 58010;EQDQ01  00002PRCP06
0202832420999992002110800004-12570-041380FM-12+042799999V0200501N001510042019N0010001N1+02521+02131101431ADDAY141061AY221061GF108991081071004501999999KA1240M+02941MA1999999096521MD1999999+0171MW1501REMSYN100AAXX  08004 83242 21494 80503 10252 20213 39652 40143 75042 887// 333 10294 29074 55011 58017 69901;
0190832420999992002110812004-12570-041380FM-12+042799999V0201801N000510042019N0040001N1+02061+01981101701ADDAY161061AY221061GF108991081071004501999999KA1240N+01911MA1999999096741MD1999999+0061MW1401REMSYN088AAXX  08124 83242 21496 81801 10206 20198 39674 40170 74062 887// 333 20191 58006 61154;
0167832420999992002110818004-12570-041380FM-12+042799999V0201801N001510450019N0100001N1+02801+01751101191ADDAA106000091GF106991041041004501051081MA1999999096291MD1999999+0011REMSYN070AAXX  08184 83242 32497 61803 10280 20175 39629 40119 84458 333 58001;EQDQ01  00002PRCP06
0198832420999992002110900004-12570-041380FM-12+042799999V0201401N001010042019N0020001N1+02401+01971101491ADDAA106000091GF108991081071004501999999KA1240M+02861MA1999999096531MD1999999+0011REMSYN088AAXX  09004 83242 32495 81402 10240 20197 39653 40149 887// 333 10286 29076 55032 58001;EQDQ01  00002PRCP06
0186832420999992002110912004-12570-041380FM-12+042799999V0209999C000010042019N0100001N1+02371+01821101671ADDAA106000091GF108991081071004501999999KA1240N+01951MA1999999096741MD1999999+0001REMSYN076AAXX  09124 83242 32497 80000 10237 20182 39674 40167 887// 333 20195 58000;EQDQ01  00002PRCP06
0179832420999992002110918004-12570-041380FM-12+042799999V0202301N001011050019N0040001N1+03101+01541101161ADDAA106000091GF105991021041004501031011MA1999999096291MD1999999+0001MW1051REMSYN076AAXX  09184 83242 31496 52302 10310 20154 39629 40116 705// 82431 333 58000;EQDQ01  00002PRCP06
0198832420999992002111000004-12570-041380FM-12+042799999V0200501N003110042019N0020001N1+02581+01941101461ADDAA106000091GF107991071071004501001001KA1240M+03141MA1999999096551MD1999999+0021REMSYN088AAXX  10004 83242 32495 70506 10258 20194 39655 40146 87700 333 10314 29062 55054 58002;EQDQ01  00002PRCP06
0190832420999992002111012004-12570-041380FM-12+042799999V0201401N000510042019N0040001N1+02341+02001101621ADDAY151061AY221061GF108991081071004501999999KA1240N+02011MA1999999096701MD1999999-0041MW1101REMSYN088AAXX  10124 83242 21496 81401 10234 20200 39670 40162 71052 887// 333 20201 59004 69944;
0179832420999992002111018004-12570-041380FM-12+042799999V0201401N001012200019N0040001N1+03301+01641101021ADDAA106000091GF104991021041004501031091MA1999999096181MD1999999-0111MW1051REMSYN076AAXX  10184 83242 31496 41402 10330 20164 39618 40102 705// 82439 333 59011;EQDQ01  00002PRCP06
0215832420999992002111100004-12570-041380FM-12+042799999V0209999C000012200019N0020001N1+02361+02171101311ADDAY161061AY241061GF102991999031004501001001KA1240M+03301MA1999999096381MD1999999-0171MW1031REMSYN094AAXX  11004 83242 21495 20000 10236 20217 39638 40131 70364 87300 333 10330 29074 55079 59017;EQDQ01+000072SCOTLC
0162832420999992002111112004-12570-041380FM-12+042799999V0201401N001510450019N0100001N1+02501+01771101621ADDGF106991041041004501031061KA1240N+02071MA1999999096701MD1999999+0001REMSYN082AAXX  11124 83242 22497 61403 10250 20177 39670 40162 84436 333 20207 58000 60044;
0179832420999992002111118004-12570-041380FM-12+042799999V0200501N001510450019N0040001N1+03301+01311100941ADDAA106000091GF108991011011004501041071MA1999999096161MD1999999-0021MW1051REMSYN076AAXX  11184 83242 31496 80503 10330 20131 39616 40094 705// 81147 333 59002;EQDQ01  00002PRCP06
0208832420999992002111200004-12570-041380FM-12+042799999V0200501N001512200019N0020001N1+02481+01731101201ADDAA106000091GA1001+999999999GF100991001001999999001001KA1240M+03361MA1999999096311MD1999999-0071REMSYN082AAXX  12004 83242 32995 00503 10248 20173 39631 40120 333 10336 29056 55114 59007;EQDQ01  00002PRCP06
0198832420999992002111212004-12570-041380FM-12+042799999V0201401N001510042019N0040001N1+02501+01821101671ADDAA106000091GF106991061051004501031001KA1240N+02031MA1999999096751MD1999999+0051MW1051REMSYN082AAXX  12124 83242 31496 61403 10250 20182 39675 40167 705// 86530 333 20203 58005;EQDQ01  00002PRCP06
0179832420999992002111218004-12570-041380FM-12+042799999V0201801N001510450019N0040001N1+03261+01561101091ADDAA106000091GF108991021031004501031071MA1999999096241MD1999999+0081MW1051REMSYN076AAXX  12184 83242 31496 81803 10326 20156 39624 40109 705// 82337 333 58008;EQDQ01  00002PRCP06
0198832420999992002111300004-12570-041380FM-12+042799999V0201801N001512200019N0020001N1+02521+01581101471ADDAA106000091GF104991031071004501051001KA1240M+03281MA1999999096561MD1999999+0251REMSYN088AAXX  13004 83242 32495 41803 10252 20158 39656 40147 83750 333 10328 29054 55110 58025;EQDQ01  00002PRCP06
0186832420999992002111312004-12570-041380FM-12+042799999V0201401N002610450019N0100001N1+02481+01751101801ADDAA106000091GF105991031041004501031001KA1240N+02041MA1999999096881MD1999999+0131REMSYN076AAXX  13124 83242 32497 51405 10248 20175 39688 40180 83430 333 20204 58013;EQDQ01  00002PRCP06
0167832420999992002111318004-12570-041380FM-12+042799999V0201401N001510450019N0100001N1+02961+01611101231ADDAA106000091GF105991021041004501031051MA1999999096341MD1999999+0101REMSYN070AAXX  13184 83242 32497 51403 10296 20161 39634 40123 82435 333 58010;EQDQ01  00002PRCP06
0198832420999992002111400004-12570-041380FM-12+042799999V0201801N001512200019N0020001N1+02481+01731101591ADDAA106000091GF102991011031004501051001KA1240M+03221MA1999999096681MD1999999+0121REMSYN088AAXX  14004 83242 32495 21803 10248 20173 39668 40159 81350 333 10322 29058 55094 58012;EQDQ01  00002PRCP06
0186832420999992002111412004-12570-041380FM-12+042799999V0201801N002110042019N0100001N1+02201+01721101881ADDAA106000091GF107991051061004501041001KA1240N+01871MA1999999096921MD1999999+0041REMSYN076AAXX  14124 83242 32497 71804 10220 20172 39692 40188 85640 333 20187 58004;EQDQ01  00002PRCP06
0179832420999992002111418004-12570-041380FM-12+042799999V0202301N002111050019N0040001N1+02801+01501101251ADDAA106000091GF105991021031004501031041MA1999999096341MD1999999+0001MW1051REMSYN076AAXX  14184 83242 31496 52304 10280 20150 39634 40125 705// 82334 333 58000;EQDQ01  00002PRCP06
0198832420999992002111500004-12570-041380FM-12+042799999V0201801N002110042019N0020001N1+02541+01781101521ADDAA106000091GF107991061071004501081001KA1240M+03201MA1999999096581MD1999999-0101REMSYN088AAXX  15004 83242 32495 71804 10254 20178 39658 40152 86780 333 10320 29061 55078 59010;EQDQ01  00002PRCP06
0190832420999992002111512004-12570-041380FM-12+042799999V0200901N001510042019N0020001N1+02161+01991101751ADDAY151061AY241061GF108991081071004501999999KA1240N+01931MA1999999096801MD1999999-0121MW1501REMSYN088AAXX  15124 83242 21495 80903 10216 20199 39680 40175 75054 887// 333 20193 59012 69934;
0148832420999992002111518004-12570-041380FM-12+042799999V0201801N001512200019N0100001N1+03051+01701101121ADDAA106000021GF104991021031004501081001MA1999999096251MD1999999-0091REMSYN070AAXX  15184 83242 32497 41803 10305 20170 39625 40112 82380 333 59009;
0198832420999992002111600004-12570-041380FM-12+042799999V0202701N001512200019N0020001N1+02441+01661101411ADDAA106000091GF102991011001022501061011KA1240M+03221MA1999999096461MD1999999-0121REMSYN088AAXX  16004 83242 32895 22703 10244 20166 39646 40141 81061 333 10322 29064 55053 59012;EQDQ01  00002PRCP06
0186832420999992002111612004-12570-041380FM-12+042799999V0201801N001510042019N0040001N1+02381+01631101661ADDAA106000091GF107991061071004501081001KA1240N+01771MA1999999096731MD1999999-0071REMSYN076AAXX  16124 83242 32496 71803 10238 20163 39673 40166 86780 333 20177 59007;EQDQ01  00002PRCP06
0167832420999992002111618004-12570-041380FM-12+042799999V0201801N002110450019N0100001N1+03161+01471100981ADDAA106000091GF107991011011004501021021MA1999999096101MD1999999-0151REMSYN070AAXX  16184 83242 32497 71804 10316 20147 39610 40098 81122 333 59015;EQDQ01  00002PRCP06
0208832420999992002111700004-12570-041380FM-12+042799999V0201401N001512200019N0020001N1+02301+01561101161ADDAA106000091GA1001+999999999GF100991001001999999001001KA1240M+03301MA1999999096241MD1999999-0221REMSYN082AAXX  17004 83242 32995 01403 10230 20156 39624 40116 333 10330 29056 55101 59022;EQDQ01  00002PRCP06
0186832420999992002111712004-12570-041380FM-12+042799999V0203601N001510450019N0040001N1+02381+01611101571ADDAA106000091GF105991031011004501081021KA1240N+02051MA1999999096631MD1999999-0101REMSYN076AAXX  17124 83242 32496 53603 10238 20161 39663 40157 83182 333 20205 59010;EQDQ01  00002PRCP06
0167832420999992002111718004-12570-041380FM-12+042799999V0201401N001512200019N0100001N1+03301+01311100811ADDAA106000091GF102991001001999999001081MA1999999095961MD1999999-0141REMSYN070AAXX  17184 83242 32997 21403 10330 20131 39596 40081 80008 333 59014;EQDQ01  00002PRCP06
0208832420999992002111800004-12570-041380FM-12+042799999V0200501N001012200019N0020001N1+02481+01491101131ADDAA106000091GA1001+999999999GF100991001001999999001001KA1240M+03431MA1999999096231MD1999999-0011REMSYN082AAXX  18004 83242 32995 00502 10248 20149 39623 40113 333 10343 29050 55106 59001;EQDQ01  00002PRCP06
0186832420999992002111812004-12570-041380FM-12+042799999V0201401N001510042019N0040001N1+02361+01761101541ADDAA106000091GF107991051041004501081021KA1240N+01931MA1999999096611MD1999999-0021REMSYN076AAXX  18124 83242 32496 71403 10236 20176 39661 40154 85482 333 20193 59002;EQDQ01  00002PRCP06
0167832420999992002111818004-12570-041380FM-12+042799999V0201801N002112200019N0100001N1+03241+01581100781ADDAA106000091GF103991011031004501001021MA1999999095921MD1999999-0041REMSYN070AAXX  18184 83242 32497 31804 10324 20158 39592 40078 81302 333 59004;EQDQ01  00002PRCP06
0208832420999992002111900004-12570-041380FM-12+042799999V0200501N001012200019N0020001N1+02601+01651101141ADDAA106000091GA1001+999999999GF100991001001999999001001KA1240M+03411MA1999999096251MD1999999+0021REMSYN082AAXX  19004 83242 32995 00502 10260 20165 39625 40114 333 10341 29054 55110 58002;EQDQ01  00002PRCP06
0198832420999992002111912004-12570-041380FM-12+042799999V0201401N000510042019N0040001N1+02341+01891101501ADDAA106000091GF108991081071004501999999KA1240N+02151MA1999999096581MD1999999-0031MW1051REMSYN082AAXX  19124 83242 31496 81401 10234 20189 39658 40150 705// 887// 333 20215 59003;EQDQ01  00002PRCP06
0167832420999992002111918004-12570-041380FM-12+042799999V0202301N001011050019N0100001N1+03141+01771100811ADDAA106000091GF106991011021004501041061MA1999999095971MD1999999+0051REMSYN070AAXX  19184 83242 32497 62302 10314 20177 39597 40081 81246 333 58005;EQDQ01  00002PRCP06
0198832420999992002112000004-12570-041380FM-12+042799999V0200501N000512200019N0020001N1+02561+01851101111ADDAA106000091GF101991001001999999001091KA1240M+03321MA1999999096211MD1999999-0041REMSYN088AAXX  20004 83242 32995 10501 10256 20185 39621 40111 80009 333 10332 29062 55064 59004;EQDQ01  00002PRCP06
0198832420999992002112112004-12570-041380FM-12+042799999V0201801N001010042019N0040001N1+02321+01851101541ADDAA106000091GF108991081071004501999999KA1240N+02111MA1999999096631MD1999999+0101MW1051REMSYN082AAXX  21124 83242 31496 81802 10232 20185 39663 40154 705// 887// 333 20211 58010;EQDQ01  00002PRCP06
0179832420999992002112118004-12570-041380FM-12+042799999V0202301N002110450019N0040001N1+03001+01681100981ADDAA106000091GF108991031031004501031071MA1999999096161MD1999999+0171MW1051REMSYN076AAXX  21184 83242 31496 82304 10300 20168 39616 40098 705// 83337 333 58017;EQDQ01  00002PRCP06
0190832420999992002112212004-12570-041380FM-12+042799999V0200501N001010042019N0020001N1+02241+02051101541ADDAY151061AY241061GF108991081071004501999999KA1240N+02071MA1999999096611MD1999999-0021MW1501REMSYN088AAXX  22124 83242 21495 80502 10224 20205 39661 40154 75054 887// 333 20207 59002 69934;
0160832420999992002112218004-12570-041380FM-12+042799999V0202301N001010450019N0040001N1+03001+01681101131ADDAA106000021GF108991031041004501031071MA1999999096261MD1999999+0101MW1051REMSYN076AAXX  22184 83242 31496 82302 10300 20168 39626 40113 705// 83437 333 58010;
0186832420999992002112312004-12570-041380FM-12+042799999V0201401N001510042019N0100001N1+02521+01961101591ADDAA106000091GF108991081071004501999999KA1240N+02071MA1999999096681MD1999999+0071REMSYN076AAXX  23124 83242 32497 81403 10252 20196 39668 40159 887// 333 20207 58007;EQDQ01  00002PRCP06
0198832420999992002112400004-12570-041380FM-12+042799999V0200901N000512200019N0020001N1+02561+02041101491ADDAA106000091GF102991011001004501031031KA1240M+03381MA1999999096591MD1999999+0311REMSYN088AAXX  24004 83242 32495 20901 10256 20204 39659 40149 81033 333 10338 29064 55066 58031;EQDQ01  00002PRCP06
0217832420999992002112500004-12570-041380FM-12+042799999V0201401N000512200019N0020001N1+02481+01981999999ADDAA106000091GA1001+999999999GF100991001001999999001001KA1240M+03241MA1999999101451MD1999999-0021ME1100329REMSYN082AAXX  25004 83242 32995 01401 10248 20198 30145 41032 333 10324 29095 55064 59002;EQDQ01  00002PRCP06
0162832420999992002112512004-12570-041380FM-12+042799999V0200901N003110042019N0100001N1+02641+01661101701ADDGF106991061041004501001001KA1240N+02041MA1999999096791MD1999999+0121REMSYN082AAXX  25124 83242 22497 60906 10264 20166 39679 40170 86400 333 20204 58012 69904;
0179832420999992002112518004-12570-041380FM-12+042799999V0201401N002110450019N0040001N1+03361+01361101041ADDAA106000091GF108991021011004501041071MA1999999096221MD1999999-0051MW1051REMSYN076AAXX  25184 83242 31496 81404 10336 20136 39622 40104 705// 82147 333 59005;EQDQ01  00002PRCP06
0208832420999992002112600004-12570-041380FM-12+042799999V0202301N001512200019N0020001N1+02621+01561101381ADDAA106000091GA1001+999999999GF100991001001999999001001KA1240M+03371MA1999999096511MD1999999-0031REMSYN082AAXX  26004 83242 32995 02303 10262 20156 39651 40138 333 10337 29047 55116 59003;EQDQ01  00002PRCP06
0198832420999992002112612004-12570-041380FM-12+042799999V0201801N001510042019N0040001N1+02361+01851101711ADDAA106000091GF106991051051004501011001KA1240N+02111MA1999999096791MD1999999+0001MW1051REMSYN082AAXX  26124 83242 31496 61803 10236 20185 39679 40171 705// 85510 333 20211 58000;EQDQ01  00002PRCP06
0179832420999992002112618004-12570-041380FM-12+042799999V0201801N001510450019N0040001N1+03371+01531100961ADDAA106000091GF108991021041004501021071MA1999999096141MD1999999-0081MW1051REMSYN076AAXX  26184 83242 31496 81803 10337 20153 39614 40096 705// 82427 333 59008;EQDQ01  00002PRCP06
0224832420999992002112700004-12570-041380FM-12+042799999V0201801N001012200019N0020001N1+02601+01481103402ADDAA106000091GA1001+999999999GF100991001001999999001001KA1240M+03401MA1999999096391MD1999999-0121REMSYN082AAXX  27004 83242 32995 01802 10260 20148 39639 40340 333 10340 29052 55094 59012;EQDQ01+103403APOSLPQ02  00002PRCP06
0186832420999992002112712004-12570-041380FM-12+042799999V0201401N001010042019N0100001N1+02411+01701101581ADDAA106000091GF106991051051004501031001KA1240N+02041MA1999999096671MD1999999-0121REMSYN076AAXX  27124 83242 32497 61402 10241 20170 39667 40158 85530 333 20204 59012;EQDQ01  00002PRCP06
0179832420999992002112718004-12570-041380FM-12+042799999V0201801N002110450019N0040001N1+03331+01351100941ADDAA106000091GF108991021011004501011071MA1999999096101MD1999999-0091MW1051REMSYN076AAXX  27184 83242 31496 81804 10333 20135 39610 40094 705// 82117 333 59009;EQDQ01  00002PRCP06
0208832420999992002112800004-12570-041380FM-12+042799999V0202301N001512200019N0020001N1+02681+01521101201ADDAA106000091GA1001+999999999GF100991001001999999001001KA1240M+03421MA1999999096321MD1999999-0071REMSYN082AAXX  28004 83242 32995 02303 10268 20152 39632 40120 333 10342 29048 55084 59007;EQDQ01  00002PRCP06
0202832420999992002112812004-12570-041380FM-12+042799999V0201801N001019999999N0100001N1+02441+01811101481ADDAA106000091GF106991999051004501001001KA1240N+02071MA1999999096581MD1999999-0091REMSYN076AAXX  28124 83242 32497 61802 10244 20181 39658 40148 88500 333 20207 59009;EQDQ01+000082SCOTLCQ02  00002PRCP06
0179832420999992002112818004-12570-041380FM-12+042799999V0201801N002112200019N0040001N1+03411+01361100801ADDAA106000091GF103991011041004501061051MA1999999095971MD1999999-0131MW1071REMSYN076AAXX  28184 83242 31496 31804 10341 20136 39597 40080 707// 81465 333 59013;EQDQ01  00002PRCP06
0210832420999992002112900004-12570-041380FM-12+042799999V0200901N001512200019N0020001N1+02791+01811101231ADDAA106000091GF101991011071004501001001KA1240M+03501MA1999999096351MD1999999+0031MW1131REMSYN094AAXX  29004 83242 31495 10903 10279 20181 39635 40123 713// 81700 333 10350 29052 55098 58003;EQDQ01  00002PRCP06
0186832420999992002112912004-12570-041380FM-12+042799999V0201401N001010042019N0100001N1+02541+01861101531ADDAA106000091GF106991051071004501031001KA1240N+02171MA1999999096651MD1999999+0081REMSYN076AAXX  29124 83242 32497 61402 10254 20186 39665 40153 85730 333 20217 58008;EQDQ01  00002PRCP06
0179832420999992002112918004-12570-041380FM-12+042799999V0201401N002110042019N0040001N1+03371+01621100861ADDAA106000091GF106991061041004501001001MA1999999096031MD1999999+0061MW1051REMSYN076AAXX  29184 83242 31496 61404 10337 20162 39603 40086 705// 86400 333 58006;EQDQ01  00002PRCP06
0208832420999992002113000004-12570-041380FM-12+042799999V0201401N001012200019N0020001N1+02801+01631101251ADDAA106000091GA1001+999999999GF100991001001999999001001KA1240M+03441MA1999999096381MD1999999+0031REMSYN082AAXX  30004 83242 32995 01402 10280 20163 39638 40125 333 10344 29050 55089 58003;EQDQ01  00002PRCP06
0186832420999992002113012004-12570-041380FM-12+042799999V0201401N001510042019N0040001N1+02641+01771101541ADDAA106000091GF106991051041004501081001KA1240N+02261MA1999999096671MD1999999+0031REMSYN076AAXX  30124 83242 32496 61403 10264 20177 39667 40154 85480 333 20226 58003;EQDQ01  00002PRCP06
0167832420999992002113018004-12570-041380FM-12+042799999V0201401N003112200019N0100001N1+03371+01531100991ADDAA106000091GF103991021011004501081001MA1999999096171MD1999999+0141REMSYN070AAXX  30184 83242 32497 31406 10337 20153 39617 40099 82180 333 58014;EQDQ01  00002PRCP06
0208832420999992002120100004-12570-041380FM-12+042799999V0201801N001512200019N0020001N1+02681+01701101341ADDAA106000091GA1001+999999999GF100991001001999999001001KA1240M+03431MA1999999096471MD1999999+0091REMSYN082AAXX  01004 83242 32995 01803 10268 20170 39647 40134 333 10343 29050 55097 58009;EQDQ01  00002PRCP06
0186832420999992002120112004-12570-041380FM-12+042799999V0200901N002610042019N0100001N1+02681+01731101461ADDAA106000091GF106991061041004501001001KA1240N+02051MA1999999096591MD1999999-0081REMSYN076AAXX  01124 83242 32497 60905 10268 20173 39659 40146 86400 333 20205 59008;EQDQ01  00002PRCP06
0208832420999992002120200004-12570-041380FM-12+042799999V0203201N000512200019N0020001N1+02541+01651101121ADDAA106000091GA1001+999999999GF100991001001999999001001KA1240M+03301MA1999999096251MD1999999-0221REMSYN082AAXX  02004 83242 32995 03201 10254 20165 39625 40112 333 10330 29053 55112 59022;EQDQ01  00002PRCP06
0186832420999992002120212004-12570-041380FM-12+042799999V0201401N001010042019N0100001N1+02381+01911101321ADDAA106000091GF108991081071004501999999KA1240N+02111MA1999999096411MD1999999-0181REMSYN076AAXX  02124 83242 32497 81402 10238 20191 39641 40132 887// 333 20211 59018;EQDQ01  00002PRCP06
0179832420999992002120218004-12570-041380FM-12+042799999V0202301N001010450019N0040001N1+03471+01521100671ADDAA106000091GF108991031011004501021071MA1999999095861MD1999999-0081MW1051REMSYN076AAXX  02184 83242 31496 82302 10347 20152 39586 40067 705// 83127 333 59008;EQDQ01  00002PRCP06
0208832420999992002120300004-12570-041380FM-12+042799999V0202301N000512200019N0020001N1+02621+01621100961ADDAA106000091GA1001+999999999GF100991001001999999001001KA1240M+03481MA1999999096081MD1999999-0171REMSYN082AAXX  03004 83242 32995 02301 10262 20162 39608 40096 333 10348 29054 55075 59017;EQDQ01  00002PRCP06
0198832420999992002120312004-12570-041380FM-12+042799999V0201801N001010042019N0040001N1+02341+01831101421ADDAA106000091GF108991081071004501999999KA1240N+01971MA1999999096521MD1999999+0111MW1021REMSYN082AAXX  03124 83242 31496 81802 10234 20183 39652 40142 702// 887// 333 20197 58011;EQDQ01  00002PRCP06
0179832420999992002120318004-12570-041380FM-12+042799999V0201401N001011050019N0040001N1+03371+01481100801ADDAA106000091GF108991011011004501001071MA1999999095961MD1999999+0101MW1051REMSYN076AAXX  03184 83242 31496 81402 10337 20148 39596 40080 705// 81107 333 58010;EQDQ01  00002PRCP06
0208832420999992002120400004-12570-041380FM-12+042799999V0201801N000512200019N0020001N1+02581+01401101111ADDAA106000091GA1001+999999999GF100991001001999999001001KA1240M+03381MA1999999096211MD1999999+0131REMSYN082AAXX  04004 83242 32995 01801 10258 20140 39621 40111 333 10338 29050 55069 58013;EQDQ01  00002PRCP06
0186832420999992002120412004-12570-041380FM-12+042799999V0201401N001512200019N0100001N1+02551+01671101501ADDAA106000091GF104991031041004501011001KA1240N+01951MA1999999096601MD1999999+0081REMSYN076AAXX  04124 83242 32497 41403 10255 20167 39660 40150 83410 333 20195 58008;EQDQ01  00002PRCP06
0179832420999992002120418004-12570-041380FM-12+042799999V0201401N002111050019N0040001N1+03471+01471100861ADDAA106000091GF108991011011004501001071MA1999999096051MD1999999+0091MW1051REMSYN076AAXX  04184 83242 31496 81404 10347 20147 39605 40086 705// 81107 333 58009;EQDQ01  00002PRCP06
0208832420999992002120500004-12570-041380FM-12+042799999V0200501N000512200019N0020001N1+02561+01621101041ADDAA106000091GA1001+999999999GF100991001001999999001001KA1240M+03461MA1999999096161MD1999999-0051REMSYN082AAXX  05004 83242 32995 00501 10256 20162 39616 40104 333 10346 29050 55107 59005;EQDQ01  00002PRCP06
0190832420999992002120512004-12570-041380FM-12+042799999V0202301N001010042019N0020001N1+02171+02031101631ADDAY151061AY241061GF108991081071004501999999KA1240N+02151MA1999999096681MD1999999+0081MW1151REMSYN088AAXX  05124 83242 21495 82302 10217 20203 39668 40163 71554 887// 333 20215 58008 69934;
0178832420999992002120518004-12570-041380FM-12+042799999V0201801N000510450019N0040001N1+03161+01631100961ADDAA106000091GF108991031041004501031071MA1999999096121MD1999999+0071MW1051REMSYN075AAXX  05184 83242 31496 81801 10316 20163 39612 40096 705// 83437333 58007;EQDQ01  00002PRCP06
0208832420999992002120600004-12570-041380FM-12+042799999V0209999C000012200019N0020001N1+02561+01881101091ADDAA106000091GA1001+999999999GF100991001001999999001001KA1240M+03301MA1999999096171MD1999999+0011REMSYN082AAXX  06004 83242 32995 00000 10256 20188 39617 40109 333 10330 29066 55054 58001;EQDQ01  00002PRCP06
0214832420999992002120612004-12570-041380FM-12+042799999V0200501N001019999999N0100001N1+02681+01701101201ADDAA106000091GF108991001001999999001071KA1240N+02051MA1999999096331MD1999999-0351MW1051REMSYN082AAXX  06124 83242 31497 80502 10268 20170 39633 40120 705// 80007 333 20205 59035;EQDQ01+004502SCOLCBQ02  00002PRCP06
0179832420999992002120618004-12570-041380FM-12+042799999V0201401N001510450019N0100001N1+03581+01501100441ADDAA106000091GF108991011031004501051071MA1999999095661MD1999999-0461MW1051REMSYN076AAXX  06184 83242 31497 81403 10358 20150 39566 40044 705// 81357 333 59046;EQDQ01  00002PRCP06
0208832420999992002120700004-12570-041380FM-12+042799999V0201801N000512200019N0020001N1+03001+01571100641ADDAA106000091GA1001+999999999GF100991001001999999001001KA1240M+03701MA1999999095851MD1999999-0321REMSYN082AAXX  07004 83242 32995 01801 10300 20157 39585 40064 333 10370 29042 55109 59032;EQDQ01  00002PRCP06
0190832420999992002120712004-12570-041380FM-12+042799999V0201401N001010042019N0040001N1+02361+02051101061ADDAY161061AY241061GF108991061051004501091071KA1240N+02141MA1999999096211MD1999999-0121MW1101REMSYN088AAXX  07124 83242 21496 81402 10236 20205 39621 40106 71064 86597 333 20214 59012 60014;
0179832420999992002120718004-12570-041380FM-12+042799999V0201801N002610042019N0040001N1+03261+01841100361ADDAA106000091GF108991051051004501031071MA1999999095571MD1999999-0091MW1051REMSYN076AAXX  07184 83242 31496 81805 10326 20184 39557 40036 705// 85537 333 59009;EQDQ01  00002PRCP06
0202832420999992002120800004-12570-041380FM-12+042799999V0203201N002610042019N0010001N1+02681+01991100711ADDAY151061AY241061GF108991081071004501999999KA1240M+03401MA1999999095841MD1999999-0011MW1501REMSYN100AAXX  08004 83242 21494 83205 10268 20199 39584 40071 75054 887// 333 10340 29064 55052 59001 69911;
0190832420999992002120812004-12570-041380FM-12+042799999V0203201N000510042019N0040001N1+02341+02031101051ADDAY151061AY221061GF108991071051004501091999KA1240N+02181MA1999999096161MD1999999-0051MW1101REMSYN088AAXX  08124 83242 21496 83201 10234 20203 39616 40105 71052 8759/ 333 20218 59005 69984;
0179832420999992002120818004-12570-041380FM-12+042799999V0203601N004610042019N0040001N1+03241+01861100381ADDAA106000091GF108991061071004501051071MA1999999095601MD1999999+0031MW1151REMSYN076AAXX  08184 83242 31496 83609 10324 20186 39560 40038 715// 86757 333 58003;EQDQ01  00002PRCP06
0202832420999992002120900004-12570-041380FM-12+042799999V0203601N005710042019N0020001N1+02361+01931100931ADDAY191061AY261061GF108991081071004501999999KA1240M+03321MA1999999096021MD1999999+0181MW1031REMSYN100AAXX  09004 83242 21495 83611 10236 20193 39602 40093 70396 887// 333 10332 29070 55045 58018 60041;
0190832420999992002120912004-12570-041380FM-12+042799999V0202701N006710042019N0020001N1+02321+01941101151ADDAY161061AY221061GF108991081071004501999999KA1240N+02031MA1999999096231MD1999999+0071MW1611REMSYN088AAXX  09124 83242 21495 82713 10232 20194 39623 40115 76162 887// 333 20203 58007 60304;
0171832420999992002120918004-12570-041380FM-12+042799999V0200901N001510042019N0040001N1+02621+02161100971ADDAY191061AY261061GF107991051071004501061001MA1999999096051MD1999999+0451MW1051REMSYN082AAXX  09184 83242 21496 70903 10262 20216 39605 40097 70596 85760 333 58045 60021;
0202832420999992002121000004-12570-041380FM-12+042799999V0202701N005110042019N0010001N1+02261+01991101271ADDAY161061AY221061GF108991081071004501999999KA1240M+02821MA1999999096331MD1999999+0311MW1501REMSYN100AAXX  10004 83242 21494 82710 10226 20199 39633 40127 75062 887// 333 10282 29081 55000 58031 60051;
0209832420999992002121012004-12570-041380FM-12+042799999V0201401N001010042019N0040001N1+02581+02101101511ADDAY161061AY241061GF107991051071004501061001KA1240N+02051MA1999999999999MD1999999+0341MW1051REMSYN088AAXX  10124 83242 21496 71402 10258 20210 30151 40151 70564 85760 333 20205 58034 60094;EQDQ01 101513APOSP 
0175832420999992002121018004-12570-041380FM-12+042799999V0203601N001510042019N0020001N1+02441+02131101321ADDAY191061AY221061GF108991081071004501999999MA1999999096362MW1501REMSYN081AAXX  10184 83242 21495 83603 10244 20213 39636 40132 75092 887// 333 5031 69991;EQDQ01+096363APOSP 
0202832420999992002121100004-12570-041380FM-12+042799999V0202701N001510042019N0020001N1+02281+02231101451ADDAY161061AY241061GF108991081071004501999999KA1240M+03121MA1999999096541MD1999999+0211MW1021REMSYN100AAXX  11004 83242 21495 82703 10228 20223 39654 40145 70264 887// 333 10312 29088 55021 58021 60021;
0176832420999992002121112004-12570-041380FM-12+042799999V0201801N001010042019N0040001N1+02381+02171101691ADDAY161061AY231061GF108991081071004501999999MA1999999096741MD1999999+0171MW1031REMSYN087AAXX  11124 83242 21496 81802 10238 20217 39674 40169 70363 887// 333 2017 58017 60044;
0179832420999992002121118004-12570-041380FM-12+042799999V0201801N001510450019N0040001N1+03181+01841101401ADDAA106000091GF106991041061004501031051MA1999999096341MD1999999-0021MW1051REMSYN076AAXX  11184 83242 31496 61803 10318 20184 39634 40140 705// 84635 333 59002;EQDQ01  00002PRCP06
0214832420999992002121200004-12570-041380FM-12+042799999V0200901N000512200019N0020001N1+02521+02021101331ADDAA106000091GF101991001001999999001051KA1240M+03301MA1999999999999MD1999999-0121REMSYN088AAXX  12004 83242 32995 10901 10252 20202 39342 40133 80005 333 10330 29070 55059 59012;EQDQ01  00002PRCP06Q02 093423APOSP 
0186832420999992002121212004-12570-041380FM-12+042799999V0200901N001510042019N0100001N1+02451+01881101601ADDAA106000091GF107991071071004501001001KA1240N+02211MA1999999096691MD1999999-0051REMSYN076AAXX  12124 83242 32497 70903 10245 20188 39669 40160 87700 333 20221 59005;EQDQ01  00002PRCP06
0179832420999992002121218004-12570-041380FM-12+042799999V0201801N002110450019N0040001N1+03261+01471100951ADDAA106000091GF108991021031004501091071MA1999999096121MD1999999-0221MW1051REMSYN076AAXX  12184 83242 31496 81804 10326 20147 39612 40095 705// 82397 333 59022;EQDQ01  00002PRCP06
0198832420999992002121300004-12570-041380FM-12+042799999V0200901N001012200019N0020001N1+02481+01901101331ADDAA106000091GF102991011001022501061021KA1240M+03341MA1999999096421MD1999999+0001REMSYN088AAXX  13004 83242 32895 20902 10248 20190 39642 40133 81062 333 10334 29061 55083 58000;EQDQ01  00002PRCP06
0190832420999992002121312004-12570-041380FM-12+042799999V0203201N000510042019N0040001N1+02161+01991101701ADDAY151061AY211061GF108991081071004501999999KA1240N+02111MA1999999096741MD1999999+0051MW1401REMSYN088AAXX  13124 83242 21496 83201 10216 20199 39674 40170 74051 887// 333 20211 58005 69904;
0179832420999992002121318004-12570-041380FM-12+042799999V0201801N002110450019N0040001N1+02861+01751101141ADDAA106000091GF105991031051004501031041MA1999999096261MD1999999+0141MW1051REMSYN076AAXX  13184 83242 31496 51804 10286 20175 39626 40114 705// 83534 333 58014;EQDQ01  00002PRCP06
0208832420999992002121400004-12570-041380FM-12+042799999V0203601N000512200019N0020001N1+02421+01931101271ADDAA106000091GA1001+999999999GF100991001001999999001001KA1240M+03021MA1999999096331MD1999999-0091REMSYN082AAXX  14004 83242 32995 03601 10242 20193 39633 40127 333 10302 29074 55046 59009;EQDQ01  00002PRCP06
0190832420999992002121412004-12570-041380FM-12+042799999V0200901N001510042019N0040001N1+02421+01951101611ADDAY151061AY241061GF108991081071004501999999KA1240N+02091MA1999999096681MD1999999-0061MW1051REMSYN088AAXX  14124 83242 21496 80903 10242 20195 39668 40161 70554 887// 333 20209 59006 69914;
0167832420999992002121418004-12570-041380FM-12+042799999V0201401N001512200019N0100001N1+03081+01951101101ADDAA106000091GF103991021021004501051001MA1999999096241MD1999999-0021REMSYN070AAXX  14184 83242 32497 31403 10308 20195 39624 40110 82250 333 59002;EQDQ01  00002PRCP06
0208832420999992002121500004-12570-041380FM-12+042799999V0201401N001012200019N0020001N1+02541+01981101311ADDAA106000091GA1001+999999999GF100991001001999999001001KA1240M+03261MA1999999096411MD1999999+0071REMSYN082AAXX  15004 83242 32995 01402 10254 20198 39641 40131 333 10326 29067 55064 58007;EQDQ01  00002PRCP06
0190832420999992002121512004-12570-041380FM-12+042799999V0201801N001510042019N0040001N1+02281+02141101621ADDAY151061AY241061GF108991081071004501999999KA1240N+02161MA1999999096691MD1999999+0011MW1101REMSYN088AAXX  15124 83242 21496 81803 10228 20214 39669 40162 71054 887// 333 20216 58001 69924;
0179832420999992002121518004-12570-041380FM-12+042799999V0202301N003110450019N0100001N1+02951+02071101121ADDAA106000091GF107991031051004501081021MA1999999096251MD1999999+0011MW1051REMSYN076AAXX  15184 83242 31497 72306 10295 20207 39625 40112 705// 83582 333 58001;EQDQ01  00002PRCP06
0198832420999992002121600004-12570-041380FM-12+042799999V0201401N001012200019N0020001N1+02501+02031101271ADDAA106000091GF103991031051004501001001KA1240M+03041MA1999999096351MD1999999-0061REMSYN088AAXX  16004 83242 32495 31402 10250 20203 39635 40127 83500 333 10304 29075 55043 59006;EQDQ01  00002PRCP06
0198832420999992002121612004-12570-041380FM-12+042799999V0201801N001510042019N0040001N1+02491+02001101471ADDAA106000091GF108991081061004501999999KA1240N+02051MA1999999096561MD1999999-0131MW1051REMSYN082AAXX  16124 83242 31496 81803 10249 20200 39656 40147 705// 886// 333 20205 59013;EQDQ01  00002PRCP06
0179832420999992002121618004-12570-041380FM-12+042799999V0202301N001510450019N0040001N1+03201+01751100821ADDAA106000091GF106991041051004501031051MA1999999096021MD1999999-0231MW1041REMSYN076AAXX  16184 83242 31496 62303 10320 20175 39602 40082 704// 84535 333 59023;EQDQ01  00002PRCP06
0198832420999992002121700004-12570-041380FM-12+042799999V0203601N002119999999N0020001N1+02581+01901101141ADDAA106000091GF106991001001999999001021KA1240M+03271MA1999999096261MD1999999-0091REMSYN088AAXX  17004 83242 32995 63604 10258 20190 39626 40114 80002 333 10327 29062 55068 59009;EQDQ01  00002PRCP06
0198832420999992002121712004-12570-041380FM-12+042799999V0203201N001010042019N0040001N1+02421+01931101341ADDAA106000091GF108991081071004501999999KA1240N+02061MA1999999096441MD1999999-0121MW1051REMSYN082AAXX  17124 83242 31496 83202 10242 20193 39644 40134 705// 887// 333 20206 59012;EQDQ01  00002PRCP06
0179832420999992002121718004-12570-041380FM-12+042799999V0201801N002110450019N0040001N1+03371+01711100771ADDAA106000091GF108991041011004501031071MA1999999095961MD1999999-0061MW1051REMSYN076AAXX  17184 83242 31496 81804 10337 20171 39596 40077 705// 84137 333 59006;EQDQ01  00002PRCP06
0198832420999992002121800004-12570-041380FM-12+042799999V0202701N001011050019N0020001N1+02781+01981101131ADDAA106000091GF107991021001022501051031KA1240M+03381MA1999999096261MD1999999+0001REMSYN088AAXX  18004 83242 32895 72702 10278 20198 39626 40113 82053 333 10338 29059 55056 58000;EQDQ01  00002PRCP06
0224832420999992002121812004-12570-041380FM-12+042799999V0201401N001012200019N0040001N1+02461+01971101381ADDAA106000091AY161061AY201061GF107991021001004501021011KA1240N+02151MA1999999096501MD1999999+0061REMSYN082AAXX  18124 83242 31496 71402 10246 20197 39650 40138 76760 82021 333 20215 58006;EQDQ01+000672PRSWM1Q02  00002PRCP06
0179832420999992002121818004-12570-041380FM-12+042799999V0200501N000510450019N0040001N1+03101+01801100891ADDAA106000091GF108991031041004501091071MA1999999096041MD1999999-0081MW1051REMSYN076AAXX  18184 83242 31496 80501 10310 20180 39604 40089 705// 83497 333 59008;EQDQ01  00002PRCP06
0198832420999992002121900004-12570-041380FM-12+042799999V0200901N001011050019N0020001N1+02441+01971101171ADDAA106000091GF107991021001022501031021KA1240M+03171MA1999999096271MD1999999+0011REMSYN088AAXX  19004 83242 32895 70902 10244 20197 39627 40117 82032 333 10317 29068 55026 58001;EQDQ01  00002PRCP06
0198832420999992002121912004-12570-041380FM-12+042799999V0201801N001010042019N0040001N1+02381+01911101491ADDAA106000091GF107991061071004501061001KA1240N+02031MA1999999096561MD1999999+0061MW1051REMSYN082AAXX  19124 83242 31496 71802 10238 20191 39656 40149 705// 86760 333 20203 58006;EQDQ01  00002PRCP06
0179832420999992002121918004-12570-041380FM-12+042799999V0200501N001510450019N0040001N1+03261+01511101081ADDAA106000091GF106991031041004501091061MA1999999096221MD1999999+0181MW1051REMSYN076AAXX  19184 83242 31496 60503 10326 20151 39622 40108 705// 83496 333 58018;EQDQ01  00002PRCP06
0198832420999992002122000004-12570-041380FM-12+042799999V0209999C000012200019N0020001N1+02501+01531101321ADDAA106000091GF101991001001999999001011KA1240M+03361MA1999999096411MD1999999+0141REMSYN088AAXX  20004 83242 32995 10000 10250 20153 39641 40132 80001 333 10336 29055 55080 58014;EQDQ01  00002PRCP06
0186832420999992002122012004-12570-041380FM-12+042799999V0201401N001510450019N0100001N1+02581+01851101731ADDAA106000091GF106991041071004501061001KA1240N+02021MA1999999096821MD1999999+0241REMSYN076AAXX  20124 83242 32497 61403 10258 20185 39682 40173 84760 333 20202 58024;EQDQ01  00002PRCP06
0179832420999992002122018004-12570-041380FM-12+042799999V0201801N001512200019N0040001N1+03281+01701101091ADDAA106000091GF102991021011004501001001MA1999999096241MD1999999+0021MW1051REMSYN076AAXX  20184 83242 31496 21803 10328 20170 39624 40109 705// 82100 333 58002;EQDQ01  00002PRCP06
0224832420999992002122100004-12570-041380FM-12+042799999V0203601N000512200019N0020001N1+02561+01701101301ADDAA106000091GA1001+999999999GF100991001001999999001001KA1240M+03421MA1999999999999MD1999999+0001REMSYN082AAXX  21004 83242 32995 03601 10256 20170 30130 40130 333 10342 29055 55095 58000;EQDQ01  00002PRCP06Q02 101303APOSP 
0198832420999992002122112004-12570-041380FM-12+042799999V0200901N001010042019N0040001N1+02401+01861101691ADDAA106000091GF107991061071004501041001KA1240N+01911MA1999999096771MD1999999-0051MW1051REMSYN082AAXX  21124 83242 31496 70902 10240 20186 39677 40169 705// 86740 333 20191 59005;EQDQ01  00002PRCP06
0179832420999992002122118004-12570-041380FM-12+042799999V0201801N001511050019N0040001N1+03511+01791100941ADDAA106000091GF108991011011004501001071MA1999999096121MD1999999-0121MW1051REMSYN076AAXX  21184 83242 31496 81803 10351 20179 39612 40094 705// 81107 333 59012;EQDQ01  00002PRCP06
0208832420999992002122200004-12570-041380FM-12+042799999V0209999C000012200019N0020001N1+02601+01381101081ADDAA106000091GA1001+999999999GF100991001001999999001001KA1240M+03581MA1999999096191MD1999999-0221REMSYN082AAXX  22004 83242 32995 00000 10260 20138 39619 40108 333 10358 29051 55080 59022;EQDQ01  00002PRCP06
0208832420999992002122300004-12570-041380FM-12+042799999V0202301N000512200019N0020001N1+02741+01871100951ADDAA106000091GA1001+999999999GF100991001001999999001001KA1240M+03701MA1999999096101MD1999999-0091REMSYN082AAXX  23004 83242 32995 02301 10274 20187 39610 40095 333 10370 29046 55114 59009;EQDQ01  00002PRCP06
0198832420999992002122312004-12570-041380FM-12+042799999V0200901N002110450019N0040001N1+02511+01911101371ADDAA106000091GF106991041071004501041001KA1240N+01911MA1999999096491MD1999999+0061MW1051REMSYN082AAXX  23124 83242 31496 60904 10251 20191 39649 40137 705// 84740 333 20191 58006;EQDQ01  00002PRCP06
0179832420999992002122318004-12570-041380FM-12+042799999V0201401N001510450019N0040001N1+03731+01281100631ADDAA106000091GF108991021041004501091071MA1999999095861MD1999999-0141MW1051REMSYN076AAXX  23184 83242 31496 81403 10373 20128 39586 40063 705// 82497 333 59014;EQDQ01  00002PRCP06
0208832420999992002122400004-12570-041380FM-12+042799999V0202301N000512200019N0020001N1+02771+01701100991ADDAA106000091GA1001+999999999GF100991001001999999001001KA1240M+03741MA1999999096141MD1999999+0041REMSYN082AAXX  24004 83242 32995 02301 10277 20170 39614 40099 333 10374 29049 55096 58004;EQDQ01  00002PRCP06
0198832420999992002122412004-12570-041380FM-12+042799999V0200501N001512200019N0040001N1+02721+02031101251ADDAA106000091GF102991021011004501001001KA1240N+02131MA1999999096401MD1999999-0091MW1051REMSYN082AAXX  24124 83242 31496 20503 10272 20203 39640 40125 705// 82100 333 20213 59009;EQDQ01  00002PRCP06
0179832420999992002122418004-12570-041380FM-12+042799999V0200501N001510450019N0020001N1+03911+01491100511ADDAA106000091GF108991031051004501091071MA1999999095761MD1999999-0101MW1041REMSYN076AAXX  24184 83242 31495 80503 10391 20149 39576 40051 704// 83597 333 59010;EQDQ01  00002PRCP06
0198832420999992002122500004-12570-041380FM-12+042799999V0200501N001012200019N0020001N1+02881+02001100851ADDAA106000091GF101991011071004501001001KA1240M+03921MA1999999096041MD1999999-0101REMSYN088AAXX  25004 83242 32495 10502 10288 20200 39604 40085 81700 333 10392 29052 55092 59010;EQDQ01  00002PRCP06
0198832420999992002122512004-12570-041380FM-12+042799999V0200901N001010450019N0040001N1+02801+02201101091ADDAA106000091GF108991041051004501021071KA1240N+02281MA1999999096271MD1999999-0131MW1051REMSYN082AAXX  25124 83242 31496 80902 10280 20220 39627 40109 705// 84527 333 20228 59013;EQDQ01  00002PRCP06
0179832420999992002122518004-12570-041380FM-12+042799999V0202701N003610042019N0040001N1+03221+01981100561ADDAA106000091GF108991061071004501061001MA1999999095761MD1999999+0001MW1171REMSYN076AAXX  25184 83242 31496 82707 10322 20198 39576 40056 717// 86760 333 58000;EQDQ01  00002PRCP06
0202832420999992002122600004-12570-041380FM-12+042799999V0203601N002610042019N0020001N1+02651+01971101081ADDAY191061AY251061GF108991081071004501999999KA1240M+03521MA1999999096231MD1999999+0191MW1131REMSYN100AAXX  26004 83242 21495 83605 10265 20197 39623 40108 71395 887// 333 10352 29062 55059 58019 69901;
0186832420999992002122612004-12570-041380FM-12+042799999V0201801N002110042019N0040001N1+02511+02171101241ADDAA106000091GF108991081041004501999999KA1240N+02131MA1999999096361MD1999999+0091REMSYN076AAXX  26124 83242 32496 81804 10251 20217 39636 40124 884// 333 20213 58009;EQDQ01  00002PRCP06
0171832420999992002122618004-12570-041380FM-12+042799999V0202301N002610042019N0040001N1+02621+02101100901ADDAY191061AY261061GF108991081071004501999999MA1999999096001MD1999999+0241MW1021REMSYN082AAXX  26184 83242 21496 82305 10262 20210 39600 40090 70296 887// 333 58024 60031;
0198832420999992002122700004-12570-041380FM-12+042799999V0203201N001010042019N0010001N1+02321+02201101191ADDAA106000091GF108991081071004501999999KA1240M+02961MA1999999096281MD1999999+0051REMSYN088AAXX  27004 83242 32494 83202 10232 20220 39628 40119 887// 333 10296 29085 55000 58005;EQDQ01  00002PRCP06
0190832420999992002122712004-12570-041380FM-12+042799999V0201801N001510042019N0040001N1+02361+02111101321ADDAY151061AY221061GF108991071051004501011999KA1240N+02171MA1999999096391MD1999999+0031MW1101REMSYN088AAXX  27124 83242 21496 81803 10236 20211 39639 40132 71052 8751/ 333 20217 58003 60044;
0171832420999992002122718004-12570-041380FM-12+042799999V0203601N001510042019N0040001N1+02521+02211100931ADDAY161061AY221061GF108991081071004501999999MA1999999096021MD1999999+0021MW1501REMSYN082AAXX  27184 83242 21496 83603 10252 20221 39602 40093 75062 887// 333 58002 60051;
0202832420999992002122800004-12570-041380FM-12+042799999V0202701N000510042019N0020001N1+02261+02141101221ADDAY151061AY221061GF108991081071004501999999KA1240M+02941MA1999999096281MD1999999+0001MW1021REMSYN100AAXX  28004 83242 21495 82701 10226 20214 39628 40122 70252 887// 333 10294 29089 55007 58000 69921;
0125832420999992002122812004-12570-041380FM-12+042799999V0200501N000519999999N0020001N1+02241+02171999999ADDGF108991999999004501999999REMSYN087AAXX  28124 83242 21495 80501 10224 20217 9638 40133 75064 886// 333 20211 59001 60114;
0171832420999992002122818004-12570-041380FM-12+042799999V0201401N000510042019N0040001N1+02801+02181100861ADDAY151061AY221061GF108991071071004501001031MA1999999095971MD1999999-0051MW1031REMSYN082AAXX  28184 83242 21496 81401 10280 20218 39597 40086 70352 87703 333 59005 69911;
0202832420999992002122900004-12570-041380FM-12+042799999V0201801N001010042019N0010001N1+02201+02151101311ADDAY141061AY221061GF108991081071004501999999KA1240M+02901MA1999999096351MD1999999+0071MW1211REMSYN100AAXX  29004 83242 21494 81802 10220 20215 39635 40131 72142 887// 333 10290 29090 55011 58007 60201;
0190832420999992002122912004-12570-041380FM-12+042799999V0202301N001010042019N0020001N1+02181+02151101481ADDAY161061AY241061GF108991081071004501999999KA1240N+02011MA1999999096511MD1999999+0131MW1501REMSYN088AAXX  29124 83242 21495 82302 10218 20215 39651 40148 75064 887// 333 20201 58013 60684;
0171832420999992002122918004-12570-041380FM-12+042799999V0201801N001510042019N0040001N1+02441+02211101141ADDAY151061AY241061GF108991081071004501999999MA1999999096191MD1999999+0221MW1101REMSYN082AAXX  29184 83242 21496 81803 10244 20221 39619 40114 71054 887// 333 58022 69981;
0202832420999992002123000004-12570-041380FM-12+042799999V0201801N000510042019N0010001N1+02261+02211101461ADDAY161061AY241061GF108991081071004501999999KA1240M+02521MA1999999096491MD1999999+0141MW1501REMSYN100AAXX  30004 83242 21494 81801 10226 20221 39649 40146 75064 887// 333 10252 29095 55000 58014 60031;
0190832420999992002123012004-12570-041380FM-12+042799999V0201801N001510042019N0020001N1+02141+02091101661ADDAY161061AY241061GF108991081071004501999999KA1240N+02011MA1999999096681MD1999999+0171MW1101REMSYN088AAXX  30124 83242 21495 81803 10214 20209 39668 40166 71064 887// 333 20201 58017 60224;
0167832420999992002123018004-12570-041380FM-12+042799999V0202301N001510450019N0040001N1+02761+02021101221ADDAA106000091GF107991041071004501031031MA1999999096311MD1999999+0121REMSYN070AAXX  30184 83242 32496 72303 10276 20202 39631 40122 84733 333 58012;EQDQ01  00002PRCP06
0208832420999992002123100004-12570-041380FM-12+042799999V0203601N001512200019N0020001N1+02301+02111101401ADDAA106000091GA1001+999999999GF100991001001999999001001KA1240M+02901MA1999999096441MD1999999-0051REMSYN082AAXX  31004 83242 32995 03603 10230 20211 39644 40140 333 10290 29085 55027 59005;EQDQ01  00002PRCP06
0198832420999992002123112004-12570-041380FM-12+042799999V0201801N001510042019N0020001N1+02331+02001101631ADDAA106000091GF108991061071004501051071KA1240N+02051MA1999999096671MD1999999-0011MW1101REMSYN082AAXX  31124 83242 31495 81803 10233 20200 39667 40163 710// 86757 333 20205 59001;EQDQ01  00002PRCP06
0179832420999992002123118004-12570-041380FM-12+042799999V0201401N001510450019N0040001N1+03021+02021101061ADDAA106000091GF106991041041004501081031MA1999999096201MD1999999-0111MW1051REMSYN076AAXX  31184 83242 31496 61403 10302 20202 39620 40106 705// 84483 333 59011;EQDQ01  00002PRCP06
