0182833440999992002010218004-14950-040880FM-12+0905SBQV V0203601N003110042019N0200001N1+02311+02091100571ADDAA106002091AY151061AY221061GF106991051051004501071001MA1999999091051MD1999999-0041MW1021REMSYN082AAXX  02184 83344 21498 63606 10231 20209 39105 40057 70252 85570 333 59004 60021;
0182833440999992002010318004-14950-040880FM-12+0905SBQV V0203201N004110042019N0200001N1+02241+02051100641ADDAA106000891AY151061AY221061GF108991081071004501999999MA1999999091111MD1999999+0061MW1021REMSYN082AAXX  03184 83344 21498 83208 10224 20205 39111 40064 70252 887// 333 58006 69981;
0213833440999992002010400004-14950-040880FM-12+0905SBQV V0203201N004110021019N0040001N1+02111+02021100881ADDAA106010991AY161061AY251061GF108991081071002501999999KA1240M+02331MA1999999091301MD1999999+0061MW1021REMSYN100AAXX  04004 83344 21396 83208 10211 20202 39130 40088 70265 887// 333 10233 29094 55000 58006 60111;
0201833440999992002010412004-14950-040880FM-12+0905SBQV V0203201N003110450019N0100001N1+02191+02061101021ADDAA124015091AY161061AY251061GF108991041071002501021999KA1240N+01911MA1999999091471MD1999999+0111MW1201REMSYN088AAXX  04124 83344 21397 83206 10219 20206 39147 40102 72065 8472/ 333 20191 58011 60154;
0152833440999992002010418004-14950-040880FM-12+0905SBQV V0202701N002110450019N0200001N1+02571+02061100631ADDAA199000021GF107991041071004501051001MD1999999+0061REMSYN070AAXX  04184 83344 32498 72704 10257 20206 30117 40063 84750 333 58006;EQDQ01+101173APOSP 
0179833440999992002010500004-14950-040880FM-12+0905SBQV V0200901N002110042019N0010001N1+02071+01891101061ADDAA199000021GF108991081071004501999999KA1240M+02651MA1999999091511MD1999999+0211REMSYN088AAXX  05004 83344 32494 80904 10207 20189 39151 40106 887// 333 10265 29086 55005 58021;
0201833440999992002010512004-14950-040880FM-12+0905SBQV V0202701N004110450019N0200001N1+02331+02091101231ADDAA124016091AY161061AY221061GF106991031041004501031041KA1240N+01851MA1999999091681MD1999999+0211MW1021REMSYN088AAXX  05124 83344 21498 62708 10233 20209 39168 40123 70262 83434 333 20185 58021 60164;
0182833440999992002010518004-14950-040880FM-12+0905SBQV V0200901N003111050019N0200001N1+02451+02111101221ADDAA106008991AY161061AY221061GF106991021011004501031041MA1999999091381MD1999999+0211MW1021REMSYN082AAXX  05184 83344 21498 60906 10245 20211 39138 40122 70262 82134 333 58021 60091;
0213833440999992002010600004-14950-040880FM-12+0905SBQV V0200901N003110120019N0040001N1+02071+01901101151ADDAA106004191AY161061AY221061GF106991061001012501021001KA1240M+02731MA1999999091611MD1999999+0101MW1011REMSYN100AAXX  06004 83344 21696 60906 10207 20190 39161 40115 70162 86020 333 10273 29090 55063 58010 60041;
0201833440999992002010612004-14950-040880FM-12+0905SBQV V0201401N005110450019N0200001N1+02191+01951101101ADDAA124013091AY161061AY251061GF108991041071004501021999KA1240N+01931MA1999999091551MD1999999-0131MW1021REMSYN088AAXX  06124 83344 21498 81410 10219 20195 39155 40110 70265 8472/ 333 20193 59013 60134;
0182833440999992002010618004-14950-040880FM-12+0905SBQV V0201401N001510450019N0040001N1+02151+02061100881ADDAA106003091AY161061AY251061GF108991041091004501021999MA1999999091301MD1999999-0081MW1201REMSYN082AAXX  06184 83344 21496 81403 10215 20206 39130 40088 72065 8492/ 333 59008 60031;
0213833440999992002010700004-14950-040880FM-12+0905SBQV V0200901N004610042019N0020001N1+01951+01861101131ADDAA106006191AY161061AY251061GF108991081071004501999999KA1240M+02631MA1999999091531MD1999999-0081MW1021REMSYN100AAXX  07004 83344 21495 80909 10195 20186 39153 40113 70265 887// 333 10263 29093 55034 59008 60061;
0182833440999992002010712004-14950-040880FM-15+0905SBQV V0200701N004110030019N0112651N1+02101+02001999999ADDGA1071+003009999GA2071+024009999GF107991999999999999999999MA1101691999999MW1511REMMET056SBQV 071200Z 07008KT 9999 -DZ BKN010 BKN080 21/20 Q1017;EQDQ01+000003PRSWM1Q02    003PRSWM1
0182833440999992002010718004-14950-040880FM-12+0905SBQV V0200901N004110450019N0200001N1+02351+01931100941ADDAA106006191AY161061AY221061GF107991041041004501081001MA1999999091381MD1999999+0081MW1021REMSYN082AAXX  07184 83344 21498 70908 10235 20193 39138 40094 70262 84480 333 58008 60061;
0198833440999992002010800004-14950-040880FM-12+0905SBQV V0200901N002119999999N0040001N1+01931+01751101301ADDAA199000021GF106991999001012501021001KA1240M+02451MA1999999091661MD1999999+0131REMSYN088AAXX  08004 83344 32696 60904 10193 20175 39166 40130 82020 333 10245 29088 55002 58013;EQDQ01+000022SCOTLC
0139833440999992002010811154-14950-040880FM-15+0905SBQV V0201001N004610030019N0015001N1+02001+01901999999ADDGA1081+003009999GF108991999999999999999999MA1100811999999MW1001REMMET045SBQV 081115Z 10009KT 1500 OVC010 20/19 Q1008;EQDQ01+000000PRSWM2
0201833440999992002010812004-14950-040880FM-12+0905SBQV V0200501N002610042019N0040001N1+02051+01961101431ADDAA124007191AY161061AY251061GF108991081071004501999999KA1240N+01711MA1999999091791MD1999999+0161MW1201REMSYN088AAXX  08124 83344 21496 80505 10205 20196 39179 40143 72065 887// 333 20171 58016 60074;
0148833440999992002010818004-14950-040880FM-12+0905SBQV V0200901N005110042019N0040001N1+02581+01881101071ADDAA199000021GF107991071091004501001001MA1999999091541MD1999999+0161REMSYN070AAXX  08184 83344 32496 70910 10258 20188 39154 40107 87900 333 58016;
0179833440999992002010900004-14950-040880FM-12+0905SBQV V0200901N003612200019N0100001N1+02031+01871101281ADDAA199000021GF103991031041008001001001KA1240M+02671MA1999999091661MD1999999+0131REMSYN088AAXX  09004 83344 32597 30907 10203 20187 39166 40128 83400 333 10267 29086 55070 58013;
0201833440999992002010912004-14950-040880FM-12+0905SBQV V0200901N004110450019N0100001N1+02111+01781101531ADDAA124001091AY161061AY221061GF108991041051004501021999KA1240N+01771MA1999999091891MD1999999+0101MW1151REMSYN088AAXX  09124 83344 21497 80908 10211 20178 39189 40153 71562 8452/ 333 20177 58010 60014;
0182833440999992002010918004-14950-040880FM-12+0905SBQV V0200901N005110450019N0200001N1+02411+01601101301ADDAA106002091AY161061AY221061GF106991021011004501071021MA1999999091731MD1999999+0191MW1021REMSYN082AAXX  09184 83344 21498 60910 10241 20160 39173 40130 70262 82172 333 58019 60021;
0198833440999992002011000004-14950-040880FM-12+0905SBQV V0200901N003612200019N0040001N1+01891+01831101601ADDAA199000091GF102991021011004501001001KA1240M+02511MA1999999091941MD1999999+0281REMSYN088AAXX  10004 83344 32496 20907 10189 20183 39194 40160 82100 333 10251 29084 55057 58028;EQDQ01  00002PRCP99
0161833440999992002011012004-14950-040880FM-12+0905SBQV V0200901N002119999999N0200001N1+02051+01851999999ADDGF108991999999004501999999KA1240N+01671MA1999999092091MD1999999+0201REMSYN081AAXX  10124 83344 22498 80904 10205 20185 39209 0179 887// 333 20167 58020 60024;
0167833440999992002011018004-14950-040880FM-12+0905SBQV V0200901N004110450019N0200001N1+02251+01901101431ADDAA199000091GF107991031071004501021001MA1999999091781MD1999999+0051REMSYN070AAXX  10184 83344 32498 70908 10225 20190 39178 40143 83720 333 58005;EQDQ01  00002PRCP99
0232833440999992002011100004-14950-040880FM-12+0905SBQV V0200901N003112200019N0100001N1+01951+01861101691ADDAA106002091AY161061AY251061GF104991999071004501999999KA1240M+02571MA1999999092021MD1999999+0081MW1021REMSYN100AAXX  11004 83344 21497 40906 10195 20186 39202 40169 70265 887// 333 10257 29090 55047 58008 60021;EQDQ01+000082SCOTLC
0182833440999992002011118004-14950-040880FM-12+0905SBQV V0200901N005110042019N0010001N1+02051+01911101611ADDAA106005191AY161061AY251061GF108991081071004501999999MA1999999091931MD1999999+0151MW1511REMSYN082AAXX  11184 83344 21494 80910 10205 20191 39193 40161 75165 887// 333 58015 60051;
0229833440999992002011200004-14950-040880FM-12+0905SBQV V0200901N003110024019N0040001N1+01891+01801101791ADDAA106014091AY161061AY251061GA1091+999999999GF109991091999999999999999KA1240M+02441MA1999999092111MD1999999+0091MW1021REMSYN100AAXX  12004 83344 21496 90906 10189 20180 39211 40179 70265 887// 333 10244 29092 55035 58009 60141;
0201833440999992002011212004-14950-040880FM-12+0905SBQV V0200901N004610042019N0200001N1+02111+01891101771ADDAA124019191AY161061AY251061GF107991071071004501001001KA1240N+01831MA1999999092091MD1999999-0021MW1031REMSYN088AAXX  12124 83344 21498 70909 10211 20189 39209 40177 70365 87700 333 20183 59002 60194;
0195833440999992002011218004-14950-040880FM-12+0905SBQV V0201401N004110042019N0040001N1+02371+01971101381ADDAA199000091AY131061AY221061GF106991061071004501001001MA1999999091801MD1999999-0131MW1151REMSYN076AAXX  12184 83344 31496 61408 10237 20197 39180 40138 71532 86700 333 59013;EQDQ01  00002PRCP99
0213833440999992002011300004-14950-040880FM-12+0905SBQV V0200901N002610042019N0010001N1+02011+01951101541ADDAA106000591AY151061AY221061GF108991081071004501999999KA1240M+02491MA1999999091901MD1999999-0211MW1021REMSYN100AAXX  13004 83344 21494 80905 10201 20195 39190 40154 70252 887// 333 10249 29090 55051 59021 69941;
0201833440999992002011312004-14950-040880FM-12+0905SBQV V0201401N003110450019N0200001N1+02071+01851101531ADDAA124000891AY151061AY221061GF108991041071004501011999KA1240N+01731MA1999999091891MD1999999-0201MW1021REMSYN088AAXX  13124 83344 21498 81406 10207 20185 39189 40153 70252 8471/ 333 20173 59020 69984;
0182833440999992002011318004-14950-040880FM-12+0905SBQV V0201401N000510042019N0040001N1+02171+02021101261ADDAA106011991AY161061AY251061GF108991081071004501999999MA1999999091651MD1999999-0151MW1511REMSYN082AAXX  13184 83344 21496 81401 10217 20202 39165 40126 75165 887// 333 59015 60121;
0223833440999992002011400004-14950-040880FM-12+0905SBQV V0200501N001512200019N0100001N1+01931+01851101391ADDAA106001091AY161061AY251061GA1001+999999999GF100991001001999999001001KA1240M+02591MA1999999091781MD1999999-0121MW1021REMSYN094AAXX  14004 83344 21997 00503 10193 20185 39178 40139 70265 333 10259 29093 55025 59012 60011;
0201833440999992002011412004-14950-040880FM-12+0905SBQV V0200501N004110120019N0200001N1+02191+01841101311ADDAA124013091AY161061AY251061GF107991071051012501001001KA1240N+01731MA1999999091691MD1999999-0201MW1031REMSYN088AAXX  14124 83344 21698 70508 10219 20184 39169 40131 70365 87500 333 20173 59020 60134;
0195833440999992002011418004-14950-040880FM-12+0905SBQV V0203201N001510042019N0010001N1+02401+02071100791ADDAA199000091AY121061AY221061GF108991081091004501999999MA1999999091261MD1999999-0391MW1151REMSYN076AAXX  14184 83344 31494 83203 10240 20207 39126 40079 71522 889// 333 59039;EQDQ01  00002PRCP99
0213833440999992002011500004-14950-040880FM-12+0905SBQV V0203201N002610021019N0010001N1+01951+01921101021ADDAA106006191AY181061AY261061GF108991081091002501999999KA1240M+02741MA1999999091431MD1999999-0351MW1501REMSYN100AAXX  15004 83344 21394 83205 10195 20192 39143 40102 75086 889// 333 10274 29090 55028 59035 60061;
0124833440999992002011512004-14950-040880FM-12+0905SBQV V0203201N002619999999N0100001N1+02061+01941999999ADDAA124043991GF108991999999004501999999MA1999999093331REMSYN060AAXX  15124 83344 21497 83205 10206 20194 39333 59038 60444;
0201833440999992002011612004-14950-040880FM-12+0905SBQV V0203201N005110042019N0200001N1+02041+01871100791ADDAA124032091AY181061AY261061GF108991081071004501999999KA1240N+01891MA1999999091201MD1999999-0031MW1021REMSYN088AAXX  16124 83344 21498 83210 10204 20187 39120 40079 70286 887// 333 20189 59003 60324;
0182833440999992002011618004-14950-040880FM-12+0905SBQV V0203601N005110042019N0200001N1+02371+01991100511ADDAA106000591AY161061AY251061GF108991051071004501051999MA1999999091011MD1999999+0121MW1021REMSYN082AAXX  16184 83344 21498 83610 10237 20199 39101 40051 70265 8575/ 333 58012 69961;
0198833440999992002011700004-14950-040880FM-12+0905SBQV V0203601N001510042019N0040001N1+02111+01981100871ADDAA199000091GF106991061071004501001001KA1240M+02441MA1999999091291MD1999999+0181REMSYN088AAXX  17004 83344 32496 63603 10211 20198 39129 40087 86700 333 10244 29089 55013 58018;EQDQ01  00002PRCP99
0201833440999992002011712004-14950-040880FM-12+0905SBQV V0203601N006210042019N0200001N1+02001+01881101101ADDAA124007191AY161061AY251061GF108991081071004501999999KA1240N+01911MA1999999091501MD1999999+0301MW1021REMSYN088AAXX  17124 83344 21498 83612 10200 20188 39150 40110 70265 887// 333 20191 58030 60074;
0167833440999992002011718004-14950-040880FM-12+0905SBQV V0203601N003110450019N0200001N1+02571+02021100821ADDAA199000091GF106991041061002501071001MA1999999091331MD1999999+0321REMSYN070AAXX  17184 83344 32398 63606 10257 20202 39133 40082 84670 333 58032;EQDQ01  00002PRCP99
0213833440999992002011800004-14950-040880FM-12+0905SBQV V0203601N002110042019N0010001N1+01991+01931101261ADDAA106024991AY181061AY261061GF108991081071004501999999KA1240M+02631MA1999999091631MD1999999+0341MW1511REMSYN100AAXX  18004 83344 21494 83604 10199 20193 39163 40126 75186 887// 333 10263 29090 55013 58034 60251;
0201833440999992002011812004-14950-040880FM-12+0905SBQV V0200501N003610042019N0200001N1+02231+01991101321ADDAA124025991AY161061AY251061GF108991081071004501999999KA1240N+01911MA1999999091721MD1999999+0221MW1021REMSYN088AAXX  18124 83344 31498 80507 10223 20199 39172 40132 70265 887// 333 20191 58022 60264;
0167833440999992002011818004-14950-040880FM-12+0905SBQV V0201401N003110450019N0200001N1+02621+02101100901ADDAA199000091GF106991041091004501071001MA1999999091401MD1999999+0071REMSYN070AAXX  18184 83344 32498 61406 10262 20210 39140 40090 84970 333 58007;EQDQ01  00002PRCP99
0198833440999992002011900004-14950-040880FM-12+0905SBQV V0200901N003110450019N0100001N1+02061+01981101131ADDAA199000091GF106991021021008001041011KA1240M+02771MA1999999091571MD1999999-0061REMSYN088AAXX  19004 83344 32597 60906 10206 20198 39157 40113 82241 333 10277 29087 55021 59006;EQDQ01  00002PRCP99
0186833440999992002011912004-14950-040880FM-12+0905SBQV V0200901N002110075019N0200001N1+02221+01781101341ADDAA199000091GF107991051041008001001081KA1240N+01731MA1999999091761MD1999999+0041REMSYN076AAXX  19124 83344 32598 70904 10222 20178 39176 40134 85408 333 20173 58004;EQDQ01  00002PRCP99
0167833440999992002011918004-14950-040880FM-12+0905SBQV V0201401N003110450019N0200001N1+02491+01941101091ADDAA199000091GF106991031021008001021061MA1999999091541MD1999999+0141REMSYN070AAXX  19184 83344 32598 61406 10249 20194 39154 40109 83226 333 58014;EQDQ01  00002PRCP99
0208833440999992002012000004-14950-040880FM-12+0905SBQV V0200901N001512200019N0100001N1+01931+01841101331ADDAA199000091GA1001+999999999GF100991001001999999001001KA1240M+02611MA1999999091711MD1999999+0141REMSYN082AAXX  20004 83344 32497 00903 10193 20184 39171 40133 333 10261 29084 55082 58014;EQDQ01  00002PRCP99
0201833440999992002012012004-14950-040880FM-12+0905SBQV V0200901N003110042019N0100001N1+02051+01871101531ADDAA124000191AY151061AY221061GF107991071071004501001001KA1240N+01631MA1999999091871MD1999999+0111MW1031REMSYN088AAXX  20124 83344 21497 70906 10205 20187 39187 40153 70352 87700 333 20163 58011 69924;
0167833440999992002012018004-14950-040880FM-12+0905SBQV V0201801N005110450019N0200001N1+02511+02071101231ADDAA199000091GF105991021021004501041001MA1999999091661MD1999999+0121REMSYN070AAXX  20184 83344 32498 51810 10251 20207 39166 40123 82240 333 58012;EQDQ01  00002PRCP99
0213833440999992002012100004-14950-040880FM-12+0905SBQV V0200901N002112200019N0040001N1+02031+01941101511ADDAA106001091AY161061AY221061GF104991041061012501001001KA1240M+02541MA1999999091871MD1999999+0161MW1011REMSYN100AAXX  21004 83344 21696 40904 10203 20194 39187 40151 70162 84600 333 10254 29089 55041 58016 60011;
0201833440999992002012112004-14950-040880FM-12+0905SBQV V0200901N002612200019N0200001N1+02271+01821101891ADDAA124002091AY151061AY221061GF104991041041004501001001KA1240N+01851MA1999999092071MD1999999+0201MW1021REMSYN088AAXX  21124 83344 21498 40905 10227 20182 39207 40189 70252 84400 333 20185 58020 60024;
0167833440999992002012118004-14950-040880FM-12+0905SBQV V0201401N003110450019N0200001N1+02571+01971101331ADDAA199000091GF107991031031008001031001MA1999999091791MD1999999+0131REMSYN070AAXX  21184 83344 32598 71406 10257 20197 39179 40133 83330 333 58013;EQDQ01  00002PRCP99
0198833440999992002012200004-14950-040880FM-12+0905SBQV V0201801N001010120019N0040001N1+02051+02011101621ADDAA199000091GF108991081001012501021999KA1240M+02651MA1999999092011MD1999999+0141REMSYN088AAXX  22004 83344 32696 81802 10205 20201 39201 40162 8802/ 333 10265 29085 55078 58014;EQDQ01  00002PRCP99
0201833440999992002012212004-14950-040880FM-12+0905SBQV V0200901N003612200019N0200001N1+02091+01741101781ADDAA124002091AY161061AY221061GF104991021011004501081001KA1240N+01811MA1999999092121MD1999999+0051MW1021REMSYN088AAXX  22124 83344 21498 40907 10209 20174 39212 40178 70262 82180 333 20181 58005 60024;
0167833440999992002012218004-14950-040880FM-12+0905SBQV V0201401N002610075019N0200001N1+02521+01691101451ADDAA199000091GF106991061011008001001001MA1999999091881MD1999999+0091REMSYN070AAXX  22184 83344 32598 61405 10252 20169 39188 40145 86100 333 58009;EQDQ01  00002PRCP99
0198833440999992002012300004-14950-040880FM-12+0905SBQV V0200901N001512200019N0100001N1+01951+01751101521ADDAA199000091GF103991031011008001001001KA1240M+02721MA1999999091861MD1999999-0151REMSYN088AAXX  23004 83344 32597 30903 10195 20175 39186 40152 83100 333 10272 29080 55102 59015;EQDQ01  00002PRCP99
0186833440999992002012312004-14950-040880FM-12+0905SBQV V0200901N001512200019N0200001N1+02171+01681101681ADDAA199000091GF102991021011004501001001KA1240N+01631MA1999999092031MD1999999-0091REMSYN076AAXX  23124 83344 32498 20903 10217 20168 39203 40168 82100 333 20163 59009;EQDQ01  00002PRCP99
0167833440999992002012318004-14950-040880FM-12+0905SBQV V0201801N002112200019N0200001N1+02611+01761101321ADDAA199000091GF102991021011004501001001MA1999999091751MD1999999-0131REMSYN070AAXX  23184 83344 32498 21804 10261 20176 39175 40132 82100 333 59013;EQDQ01  00002PRCP99
0208833440999992002012400004-14950-040880FM-12+0905SBQV V0200901N000512200019N0100001N1+01871+01711101431ADDAA199000091GA1001+999999999GF100991001001999999001001KA1240M+02691MA1999999091781MD1999999-0081REMSYN082AAXX  24004 83344 32997 00901 10187 20171 39178 40143 333 10269 29079 55110 59008;EQDQ01  00002PRCP99
0186833440999992002012412004-14950-040880FM-12+0905SBQV V0203601N002610075019N0200001N1+02301+01901101491ADDAA199000091GF106991061051008001001001KA1240N+01631MA1999999091871MD1999999-0161REMSYN076AAXX  24124 83344 32598 63605 10230 20190 39187 40149 86500 333 20163 59016;EQDQ01  00002PRCP99
0167833440999992002012418004-14950-040880FM-12+0905SBQV V0203601N001512200019N0200001N1+02751+01731101061ADDAA199000091GF105991031011008001001061MA1999999091551MD1999999-0201REMSYN070AAXX  24184 83344 32598 53603 10275 20173 39155 40106 83106 333 59020;EQDQ01  00002PRCP99
0208833440999992002012500004-14950-040880FM-12+0905SBQV V0200501N001512200019N0100001N1+02011+01781101281ADDAA199000091GA1001+999999999GF100991001001999999001001KA1240M+02881MA1999999091711MD1999999-0071REMSYN082AAXX  25004 83344 32997 00503 10201 20178 39171 40128 333 10288 29076 55087 59007;EQDQ01  00002PRCP99
0186833440999992002012512004-14950-040880FM-12+0905SBQV V0200501N004110450019N0200001N1+02291+01961101471ADDAA199000091GF108991021041004501071999KA1240N+01731MA1999999091881MD1999999+0011REMSYN076AAXX  25124 83344 32498 80508 10229 20196 39188 40147 8247/ 333 20173 58001;EQDQ01  00002PRCP99
0167833440999992002012518004-14950-040880FM-12+0905SBQV V0200901N001510450019N0200001N1+02771+01691101071ADDAA199000091GF107991021011004501081021MA1999999091571MD1999999+0021REMSYN070AAXX  25184 83344 32498 70903 10277 20169 39157 40107 82182 333 58002;EQDQ01  00002PRCP99
0198833440999992002012600004-14950-040880FM-12+0905SBQV V0200901N001512200019N0100001N1+02091+01871101291ADDAA199000091GF104991001001999999001051KA1240M+02861MA1999999091741MD1999999+0031REMSYN088AAXX  26004 83344 32997 40903 10209 20187 39174 40129 80005 333 10286 29067 55077 58003;EQDQ01  00002PRCP99
0186833440999992002012612004-14950-040880FM-12+0905SBQV V0200501N004111050019N0200001N1+02381+01951101531ADDAA199000091GF106991041021008001001051KA1240N+01691MA1999999091971MD1999999+0091REMSYN076AAXX  26124 83344 32598 60508 10238 20195 39197 40153 84205 333 20169 58009;EQDQ01  00002PRCP99
0167833440999992002012618004-14950-040880FM-12+0905SBQV V0201401N002612200019N0200001N1+02781+01911101111ADDAA199000091GF106991041021008001001061MA1999999091591MD1999999+0021REMSYN070AAXX  26184 83344 32598 61405 10278 20191 39159 40111 84206 333 58002;EQDQ01  00002PRCP99
0198833440999992002012700004-14950-040880FM-12+0905SBQV V0203601N003112200019N0100001N1+02131+01881101271ADDAA199000091GF104991041001012501041001KA1240M+02911MA1999999091741MD1999999+0001REMSYN088AAXX  27004 83344 32697 43606 10213 20188 39174 40127 84040 333 10291 29077 55086 58000;EQDQ01  00002PRCP99
0186833440999992002012712004-14950-040880FM-12+0905SBQV V0200501N003110450019N0200001N1+02311+01941101381ADDAA199000091GF107991041041004501081001KA1240N+01821MA1999999091821MD1999999-0151REMSYN076AAXX  27124 83344 32498 70506 10231 20194 39182 40138 84480 333 20182 59015;EQDQ01  00002PRCP99
0167833440999992002012718004-14950-040880FM-12+0905SBQV V0200501N001010042019N0200001N1+02771+01861100961ADDAA199000091GF105991051041004501001001MA1999999091471MD1999999-0121REMSYN070AAXX  27184 83344 32498 50502 10277 20186 39147 40096 85400 333 59012;EQDQ01  00002PRCP99
0198833440999992002012800004-14950-040880FM-12+0905SBQV V0203601N001511050019N0100001N1+02051+01781101131ADDAA199000091GF108991041001012501071061KA1240M+02551MA1999999091591MD1999999-0151REMSYN088AAXX  28004 83344 32697 83603 10205 20178 39159 40113 84076 333 10255 29076 55078 59015;EQDQ01  00002PRCP99
0186833440999992002012812004-14950-040880FM-12+0905SBQV V0203601N003612200019N0200001N1+02451+01711101261ADDAA199000091GF104991041011008001001001KA1240N+01691MA1999999091731MD1999999-0091REMSYN076AAXX  28124 83344 32598 43607 10245 20171 39173 40126 84100 333 20169 59009;EQDQ01  00002PRCP99
0167833440999992002012818004-14950-040880FM-12+0905SBQV V0200501N001510075019N0200001N1+02901+01721100831ADDAA199000091GF106991061011008001001001MA1999999091371MD1999999-0101REMSYN070AAXX  28184 83344 32598 60503 10290 20172 39137 40083 86100 333 59010;EQDQ01  00002PRCP99
0208833440999992002012900004-14950-040880FM-12+0905SBQV V0200901N000512200019N0100001N1+02041+01831100941ADDAA199000091GA1001+999999999GF100991001001999999001001KA1240M+03011MA1999999091441MD1999999-0151REMSYN082AAXX  29004 83344 32997 00901 10204 20183 39144 40094 333 10301 29072 55095 59015;EQDQ01  00002PRCP99
0186833440999992002012912004-14950-040880FM-12+0905SBQV V0200501N003112200019N0200001N1+02331+01761101251ADDAA199000091GF101991011011004501001001KA1240N+01651MA1999999091701MD1999999-0031REMSYN076AAXX  29124 83344 32498 10506 10233 20176 39170 40125 81100 333 20165 59003;EQDQ01  00002PRCP99
0167833440999992002012918004-14950-040880FM-12+0905SBQV V0201401N003112200019N0200001N1+02911+01871100791ADDAA199000091GF102991021001012501031001MA1999999091381MD1999999+0011REMSYN070AAXX  29184 83344 32698 21406 10291 20187 39138 40079 82030 333 58001;EQDQ01  00002PRCP99
0208833440999992002013000004-14950-040880FM-12+0905SBQV V0203601N004112200019N0100001N1+02051+01681101051ADDAA199000091GA1001+999999999GF100991001001999999001001KA1240M+02991MA1999999091521MD1999999+0081REMSYN082AAXX  30004 83344 32997 03608 10205 20168 39152 40105 333 10299 29071 55107 58008;EQDQ01  00002PRCP99
0186833440999992002013012004-14950-040880FM-12+0905SBQV V0203601N004611050019N0200001N1+02391+01711101351ADDAA199000091GF106991021011008001001071KA1240N+01611MA1999999091791MD1999999+0091REMSYN076AAXX  30124 83344 32598 63609 10239 20171 39179 40135 82107 333 20161 58009;EQDQ01  00002PRCP99
0167833440999992002013018004-14950-040880FM-12+0905SBQV V0201401N003619999999N0200001N1+02891+01461100921ADDAA199000091GF105991001001999999001061MA1999999091481MD1999999+0101REMSYN070AAXX  30184 83344 32998 51407 10289 20146 39148 40092 80006 333 58010;EQDQ01  00002PRCP99
0208833440999992002013100004-14950-040880FM-12+0905SBQV V0200901N001512200019N0100001N1+01921+01661101161ADDAA199000091GA1001+999999999GF100991001001999999001001KA1240M+02971MA1999999091601MD1999999+0081REMSYN082AAXX  31004 83344 32997 00903 10192 20166 39160 40116 333 10297 29069 55116 58008;EQDQ01  00002PRCP99
0186833440999992002013112004-14950-040880FM-12+0905SBQV V0200501N001510042019N0200001N1+02281+01141101441ADDAA199000091GF106991061021004501001001KA1240N+01581MA1999999091831MD1999999+0041REMSYN076AAXX  31124 83344 32498 60503 10228 20114 39183 40144 86200 333 20158 58004;EQDQ01  00002PRCP99
0167833440999992002013118004-14950-040880FM-12+0905SBQV V0201801N001511050019N0200001N1+02791+01761100901ADDAA199000091GF107991041021004501001091MA1999999091521MD1999999+0041REMSYN070AAXX  31184 83344 32498 71803 10279 20176 39152 40090 84209 333 58004;EQDQ01  00002PRCP99
0208833440999992002020100004-14950-040880FM-12+0905SBQV V0200501N001512200019N0100001N1+02001+01701101131ADDAA199000091GA1001+999999999GF100991001001999999001001KA1240M+02911MA1999999091571MD1999999-0031REMSYN082AAXX  01004 83344 32997 00503 10200 20170 39157 40113 333 10291 29067 55096 59003;EQDQ01  00002PRCP99
0186833440999992002020112004-14950-040880FM-12+0905SBQV V0203601N002612200019N0200001N1+02271+01861101381ADDAA199000091GF102991021021004501001001KA1240N+01711MA1999999091801MD1999999-0031REMSYN076AAXX  01124 83344 32498 23605 10227 20186 39180 40138 82200 333 20171 59003;EQDQ01  00002PRCP99
0167833440999992002020118004-14950-040880FM-12+0905SBQV V0203601N002612200019N0200001N1+02831+01711100951ADDAA199000091GF106991021001012501081011MA1999999091481MD1999999-0041REMSYN070AAXX  01184 83344 32698 63605 10283 20171 39148 40095 82081 333 59004;EQDQ01  00002PRCP99
0208833440999992002020200004-14950-040880FM-12+0905SBQV V0203601N003112200019N0100001N1+02041+01581101061ADDAA199000091GA1001+999999999GF100991001001999999001001KA1240M+02901MA1999999091511MD1999999-0061REMSYN082AAXX  02004 83344 32997 03606 10204 20158 39151 40106 333 10290 29070 55114 59006;EQDQ01  00002PRCP99
0186833440999992002020212004-14950-040880FM-12+0905SBQV V0203601N005110450019N0200001N1+02331+01941101241ADDAA199000091GF108991031041012501011999KA1240N+01891MA1999999091691MD1999999-0111REMSYN076AAXX  02124 83344 32698 83610 10233 20194 39169 40124 8341/ 333 20189 59011;EQDQ01  00002PRCP99
0167833440999992002020218004-14950-040880FM-12+0905SBQV V0203201N002110450019N0200001N1+02941+01911100701ADDAA199000091GF108991031031008001021999MA1999999091321MD1999999-0161REMSYN070AAXX  02184 83344 32598 83204 10294 20191 39132 40070 8332/ 333 59016;EQDQ01  00002PRCP99
0186833440999992002020312004-14950-040880FM-12+0905SBQV V0203601N005110042019N0200001N1+02331+01981101041ADDAA199000091GF108991051071004501031999KA1240N+02031MA1999999091531MD1999999-0161REMSYN076AAXX  03124 83344 32498 83610 10233 20198 39153 40104 8573/ 333 20203 59016;EQDQ01  00002PRCP99
0186833440999992002020318004-14950-040880FM-12+0905SBQV V0200501N004610042019N0100001N1+02231+01961100801ADDAA106002091AY121061AY211061GF108991061071004501051999MD1999999-0031MW1021REMSYN082AAXX  03184 83344 21497 80509 10223 20196 30129 40080 70221 8675/ 333 59003 60021;EQDQ01+101293APOSP 
0213833440999992002020400004-14950-040880FM-12+0905SBQV V0203201N003610021019N0010001N1+01851+01791101091ADDAA106010991AY191061AY281061GF108991081091002501999999KA1240M+02851MA1999999091521MD1999999+0051MW1631REMSYN100AAXX  04004 83344 21394 83207 10185 20179 39152 40109 76398 889// 333 10285 29090 55000 58005 60111;
0201833440999992002020412004-14950-040880FM-12+0905SBQV V0203201N004110042019N0200001N1+02111+01911101281ADDAA124024991AY181061AY261061GF108991081071004501999999KA1240N+02001MA1999999091651MD1999999+0121MW1021REMSYN088AAXX  04124 83344 21498 83208 10211 20191 39165 40128 70286 887// 333 20200 58012 60254;
0167833440999992002020418004-14950-040880FM-12+0905SBQV V0202701N003110042019N0200001N1+02391+02031100941ADDAA199000091GF108991081071004501999999MA1999999091401MD1999999+0111REMSYN070AAXX  04184 83344 32498 82706 10239 20203 39140 40094 887// 333 58011;EQDQ01  00002PRCP99
0201833440999992002020512004-14950-040880FM-12+0905SBQV V0203601N002110042019N0010001N1+02061+01911101531ADDAA124063091AY161061AY251061GF108991081071004501999999KA1240N+01771MA1999999091871MD1999999+0221MW1501REMSYN088AAXX  05124 83344 21494 83604 10206 20191 39187 40153 75065 887// 333 20177 58022 60634;
0148833440999992002020518004-14950-040880FM-12+0905SBQV V0203201N002610075019N0200001N1+02671+02001101051ADDAA199000021GF106991051091008001031001MA1999999091541MD1999999+0061REMSYN070AAXX  05184 83344 32598 63205 10267 20200 39154 40105 85930 333 58006;
0213833440999992002020600004-14950-040880FM-12+0905SBQV V0200901N003110042019N0020001N1+01991+01931101431ADDAA106006191AY161061AY221061GF108991081051004501999999KA1240M+02701MA1999999091781MD1999999+0121MW1521REMSYN100AAXX  06004 83344 21495 80906 10199 20193 39178 40143 75262 885// 333 10270 29088 55027 58012 60061;
0201833440999992002020612004-14950-040880FM-12+0905SBQV V0203601N002610042019N0100001N1+01971+01861101481ADDAA124011991AY121061AY211061GF108991081071004501999999KA1240N+01771MA1999999091831MD1999999-0041MW1511REMSYN088AAXX  06124 83344 21497 83605 10197 20186 39183 40148 75121 887// 333 20177 59004 60124;
0182833440999992002020618004-14950-040880FM-12+0905SBQV V0203601N003110450019N0200001N1+02301+01901101171ADDAA106000591AY151061AY221061GF108991041071004501051999MA1999999091581MD1999999+0041MW1021REMSYN082AAXX  06184 83344 21498 83606 10230 20190 39158 40117 70252 8475/ 333 58004 69941;
0091833440999992002020709004-14950-040880FM-15+0905SBQV V0200601N00261220001CN0099001N1+01901+01701999999ADDMA1101901999999MW1001REMMET039SBQV 070900Z 06005KT CAVOK 19/17 Q1019;EQDQ01+000000PRSWM2
0091833440999992002020710004-14950-040880FM-15+0905SBQV V0200701N00211220001CN0099001N1+01901+01601999999ADDMA1101901999999MW1001REMMET039SBQV 071000Z 07004KT CAVOK 19/16 Q1019;EQDQ01+000000PRSWM2
0091833440999992002020711004-14950-040880FM-15+0905SBQV V0200701N00671220001CN0099001N1+02001+01601999999ADDMA1101901999999MW1001REMMET039SBQV 071100Z 07013KT CAVOK 20/16 Q1019;EQDQ01+000000PRSWM2
0167833440999992002020718004-14950-040880FM-12+0905SBQV V0203601N002110450019N0200001N1+02601+01791101121ADDAA199000091GF106991021041004501091001MA1999999091601MD1999999+0021REMSYN070AAXX  07184 83344 32498 63604 10260 20179 39160 40112 82490 333 58002;EQDQ01  00002PRCP99
0208833440999992002020800004-14950-040880FM-12+0905SBQV V0200901N003112200019N0040001N1+01951+01821101151ADDAA199000091GA1001+999999999GF100991001001999999001001KA1240M+02691MA1999999091791MD1999999+0031REMSYN082AAXX  08004 83344 32996 00906 10195 20182 39179 40115 333 10269 29081 55032 58003;EQDQ01  00002PRCP99
0186833440999992002020812004-14950-040880FM-12+0905SBQV V0200501N003110450019N0200001N1+02201+01671101461ADDAA199000091GF107991031021004501031061KA1240N+01581MA1999999091871MD1999999+0011REMSYN076AAXX  08124 83344 32498 70506 10220 20167 39187 40146 83236 333 20158 58001;EQDQ01  00002PRCP99
0182833440999992002020818004-14950-040880FM-12+0905SBQV V0200501N004110021019N0010001N1+02171+01951101321ADDAA106000191AY151061AY221061GF108991081071002501999999MA1999999091681MD1999999+0081MW1611REMSYN082AAXX  08184 83344 21394 80508 10217 20195 39168 40132 76152 887// 333 58008 69921;
0223833440999992002020900004-14950-040880FM-12+0905SBQV V0200501N002112200019N0040001N1+01891+01801101421ADDAA106002091AY161061AY251061GA1001+999999999GF100991001001999999001001KA1240M+02571MA1999999091791MD1999999+0001MW1021REMSYN094AAXX  09004 83344 21996 00504 10189 20180 39179 40142 70265 333 10257 29088 55039 58000 60021;
0201833440999992002020912004-14950-040880FM-12+0905SBQV V0200901N003612200019N0200001N1+02191+01781101531ADDAA124003091AY151061AY221061GF104991041041004501001001KA1240N+01501MA1999999091891MD1999999+0021MW1011REMSYN088AAXX  09124 83344 21498 40907 10219 20178 39189 40153 70152 84400 333 20150 58002 60034;
0167833440999992002020918004-14950-040880FM-12+0905SBQV V0200901N003110450019N0200001N1+02571+01261101731ADDAA199000091GF105991031041004501051001MA1999999091661MD1999999-0021REMSYN070AAXX  09184 83344 32498 50906 10257 20126 39166 40173 83450 333 59002;EQDQ01  00002PRCP99
0198833440999992002021000004-14950-040880FM-12+0905SBQV V0200901N000512200019N0100001N1+01871+01681101411ADDAA199000091GF102991021011004501001001KA1240M+02651MA1999999091781MD1999999-0011REMSYN088AAXX  10004 83344 32497 20901 10187 20168 39178 40141 82100 333 10265 29079 55086 59001;EQDQ01  00002PRCP99
0186833440999992002021012004-14950-040880FM-12+0905SBQV V0200901N001510450019N0200001N1+02191+01901101511ADDAA199000091GF107991021011004501051001KA1240N+01661MA1999999091871MD1999999-0021REMSYN076AAXX  10124 83344 32498 70903 10219 20190 39187 40151 82150 333 20166 59002;EQDQ01  00002PRCP99
0167833440999992002021018004-14950-040880FM-12+0905SBQV V0201801N002110042019N0200001N1+02871+01981101051ADDAA199000091GF107991071071004501001001MA1999999091571MD1999999-0091REMSYN070AAXX  10184 83344 32498 71804 10287 20198 39157 40105 87700 333 59009;EQDQ01  00002PRCP99
0213833440999992002021100004-14950-040880FM-12+0905SBQV V0200501N001510042019N0040001N1+02011+01951101431ADDAA106007991AY161061AY251061GF107991071071004501001001KA1240M+02631MA1999999091821MD1999999+0041MW1031REMSYN100AAXX  11004 83344 21496 70503 10201 20195 39182 40143 70365 87700 333 10263 29084 55032 58004 60081;
0173833440999992002021112004-14950-040880FM-12+0905SBQV V0200901N002610042019N0200001N1+02161+01901101511ADDAA124007991GF108991081001004501021999KA1240N+01791MA1999999091901MD1999999+0031REMSYN082AAXX  11124 83344 22498 80905 10216 20190 39190 40151 8802/ 333 20179 58003 60084;
0162833440999992002021118004-14950-040880FM-12+0905SBQV V0201801N001510450019N0100001N1+02311+02071101171ADDAA106001091AY161061AY221061GF106991041071004501021001MA1999999091581MW1021REMSYN076AAXX  11184 83344 21497 61803 10231 20207 39158 40117 70262 84720 333 60011;
0223833440999992002021200004-14950-040880FM-12+0905SBQV V0200901N002612200019N0040001N1+01891+01801101421ADDAA106007191AY161061AY221061GA1001+999999999GF100991001001999999001001KA1240M+02651MA1999999091771MD1999999-0051MW1021REMSYN094AAXX  12004 83344 21996 00905 10189 20180 39177 40142 70262 333 10265 29090 55064 59005 60071;
0173833440999992002021212004-14950-040880FM-12+0905SBQV V0200501N004110042019N0200001N1+02151+01661101681ADDAA124007991GF105991051021004501001001KA1240N+01441MA1999999092011MD1999999+0111REMSYN082AAXX  12124 83344 22498 50508 10215 20166 39201 40168 85200 333 20144 58011 60084;
0167833440999992002021218004-14950-040880FM-12+0905SBQV V0201401N003110042019N0200001N1+02561+01531101321ADDAA199000091GF105991051021004501001001MA1999999091751MD1999999+0171REMSYN070AAXX  12184 83344 32498 51406 10256 20153 39175 40132 85200 333 58017;EQDQ01  00002PRCP99
0208833440999992002021300004-14950-040880FM-12+0905SBQV V0200501N001512200019N0040001N1+01931+01771101461ADDAA199000091GA1001+999999999GF100991001001999999001001KA1240M+02711MA1999999091831MD1999999+0061REMSYN082AAXX  13004 83344 32996 00503 10193 20177 39183 40146 333 10271 29077 55109 58006;EQDQ01  00002PRCP99
0186833440999992002021312004-14950-040880FM-12+0905SBQV V0200501N003612200019N0200001N1+02171+01681101571ADDAA199000091GF102991011011004501031001KA1240N+01531MA1999999091931MD1999999-0081REMSYN076AAXX  13124 83344 32498 20507 10217 20168 39193 40157 81130 333 20153 59008;EQDQ01  00002PRCP99
0167833440999992002021318004-14950-040880FM-12+0905SBQV V0201401N003112200019N0200001N1+02411+01701101281ADDAA199000091GF102991021011004501001001MA1999999091661MD1999999-0091REMSYN070AAXX  13184 83344 32498 21406 10241 20170 39166 40128 82100 333 59009;EQDQ01  00002PRCP99
0186833440999992002021412004-14950-040880FM-12+0905SBQV V0200501N001512200019N0200001N1+02191+01631101531ADDAA199000091GF104991041011004501001001KA1240N+01531MA1999999091891MD1999999-0041REMSYN076AAXX  14124 83344 32498 40503 10219 20163 39189 40153 84100 333 20153 59004;EQDQ01  00002PRCP99
0195833440999992002021418004-14950-040880FM-12+0905SBQV V0202301N001510042019N0200001N1+02581+02081101171ADDAA199000091AY121061AY201061GF105991051071004501001001MA1999999091611MD1999999-0051MW1161REMSYN076AAXX  14184 83344 31498 52303 10258 20208 39161 40117 71620 85700 333 59005;EQDQ01  00002PRCP99
0223833440999992002021500004-14950-040880FM-12+0905SBQV V0209999C000012200019N0040001N1+01931+01731101471ADDAA106000591AY161061AY251061GA1001+999999999GF100991001001999999001001KA1240M+02711MA1999999091841MD1999999+0061MW1021REMSYN094AAXX  15004 83344 21996 00000 10193 20173 39184 40147 70265 333 10271 29081 55069 58006 69941;
0173833440999992002021512004-14950-040880FM-12+0905SBQV V0200501N001512200019N0200001N1+02331+01871101521ADDAA124000591GF103991011011004501081001KA1240N+01651MA1999999091931MD1999999+0091REMSYN082AAXX  15124 83344 22498 30503 10233 20187 39193 40152 81180 333 20165 58009 69944;
0182833440999992002021518004-14950-040880FM-12+0905SBQV V0201401N001010450019N0100001N1+02531+02151101121ADDAA106000191AY151061AY221061GF106991041041004501071001MA1999999091581MD1999999-0031MW1021REMSYN082AAXX  15184 83344 21497 61402 10253 20215 39158 40112 70252 84470 333 59003 69921;
0213833440999992002021600004-14950-040880FM-12+0905SBQV V0200901N002112200019N0100001N1+02051+01891101391ADDAA106008991AY181061AY261061GF104991041071004501001001KA1240M+02871MA1999999091831MD1999999-0011MW1031REMSYN100AAXX  16004 83344 21497 40904 10205 20189 39183 40139 70386 84700 333 10287 29084 55077 59001 60091;
0201833440999992002021612004-14950-040880FM-12+0905SBQV V0200501N003110120019N0200001N1+02211+01841101601ADDAA124008991AY151061AY221061GF106991061041012501001001KA1240N+01671MA1999999091991MD1999999+0061MW1031REMSYN088AAXX  16124 83344 21698 60506 10221 20184 39199 40160 70352 86400 333 20167 58006 60094;
0167833440999992002021618004-14950-040880FM-12+0905SBQV V0201401N001012200019N0200001N1+02631+02051101171ADDAA199000091GF104991041011008001001001MA1999999091651MD1999999+0071REMSYN070AAXX  16184 83344 32598 41402 10263 20205 39165 40117 84100 333 58007;EQDQ01  00002PRCP99
0208833440999992002021700004-14950-040880FM-12+0905SBQV V0200901N002112200019N0040001N1+02091+01951101321ADDAA199000091GA1001+999999999GF100991001001999999001001KA1240M+02791MA1999999091751MD1999999-0081REMSYN082AAXX  17004 83344 32996 00904 10209 20195 39175 40132 333 10279 29084 55068 59008;EQDQ01  00002PRCP99
0186833440999992002021712004-14950-040880FM-12+0905SBQV V0200501N001010120019N0200001N1+02151+01931101481ADDAA199000091GF107991071001012501051001KA1240N+01851MA1999999091861MD1999999-0131REMSYN076AAXX  17124 83344 32698 70502 10215 20193 39186 40148 87050 333 20185 59013;EQDQ01  00002PRCP99
0167833440999992002021718004-14950-040880FM-12+0905SBQV V0201401N000510042019N0200001N1+02651+02051101101ADDAA199000091GF107991051061004501051001MA1999999091601MD1999999-0051REMSYN070AAXX  17184 83344 32498 71401 10265 20205 39160 40110 85650 333 59005;EQDQ01  00002PRCP99
0208833440999992002021800004-14950-040880FM-12+0905SBQV V0200501N002112200019N0020001N1+02071+01891101231ADDAA199000091GA1001+999999999GF100991001001999999001001KA1240M+02711MA1999999091641MD1999999-0111REMSYN082AAXX  18004 83344 32995 00504 10207 20189 39164 40123 333 10271 29084 55026 59011;EQDQ01  00002PRCP99
0186833440999992002021812004-14950-040880FM-12+0905SBQV V0200901N001512200019N0200001N1+02331+01961101361ADDAA199000091GF104991021011004501041001KA1240N+01711MA1999999091801MD1999999-0061REMSYN076AAXX  18124 83344 32498 40903 10233 20196 39180 40136 82140 333 20171 59006;EQDQ01  00002PRCP99
0167833440999992002021818004-14950-040880FM-12+0905SBQV V0201401N003112200019N0200001N1+02711+01991101551ADDAA199000091GF104991021021004501041011MA1999999091481MD1999999-0121REMSYN070AAXX  18184 83344 32498 41406 10271 20199 39148 40155 82241 333 59012;EQDQ01  00002PRCP99
0186833440999992002021912004-14950-040880FM-12+0905SBQV V0200901N001511050019N0200001N1+02371+01851101401ADDAA199000091GF106991021011004501081061KA1240N+01691MA1999999091851MD1999999+0051REMSYN076AAXX  19124 83344 32498 60903 10237 20185 39185 40140 82186 333 20169 58005;EQDQ01  00002PRCP99
0167833440999992002021918004-14950-040880FM-12+0905SBQV V0201401N002610450019N0200001N1+02671+01921101071ADDAA199000091GF106991041021008001021001MA1999999091571MD1999999+0091REMSYN070AAXX  19184 83344 32598 61405 10267 20192 39157 40107 84220 333 58009;EQDQ01  00002PRCP99
0198833440999992002022000004-14950-040880FM-12+0905SBQV V0200901N002112200019N0100001N1+02071+01941101291ADDAA199000091GF104991041041012501001001KA1240M+02771MA1999999091741MD1999999+0071REMSYN088AAXX  20004 83344 32697 40904 10207 20194 39174 40129 84400 333 10277 29081 55100 58007;EQDQ01  00002PRCP99
0186833440999992002022012004-14950-040880FM-12+0905SBQV V0200901N002111050019N0200001N1+02291+01901101501ADDAA199000091GF106991041021004501001091KA1240N+02331MA1999999091931MD1999999-0081REMSYN076AAXX  20124 83344 32498 60904 10229 20190 39193 40150 84209 333 20233 59008;EQDQ01  00002PRCP99
0167833440999992002022018004-14950-040880FM-12+0905SBQV V0201401N003111050019N0200001N1+02631+01811101151ADDAA199000091GF105991041021004501001091MA1999999091631MD1999999-0061REMSYN070AAXX  20184 83344 32498 51406 10263 20181 39163 40115 84209 333 59006;EQDQ01  00002PRCP99
0208833440999992002022100004-14950-040880FM-12+0905SBQV V0203601N001012200019N0100001N1+01971+01831101321ADDAA199000091GA1001+999999999GF100991001001999999001001KA1240M+02791MA1999999091751MD1999999+0011REMSYN082AAXX  21004 83344 32997 03602 10197 20183 39175 40132 333 10279 29081 55100 58001;EQDQ01  00002PRCP99
0186833440999992002022112004-14950-040880FM-12+0905SBQV V0200501N001512200019N0200001N1+02211+01611101451ADDAA199000091GF104991021001012501081021KA1240N+01611MA1999999091841MD1999999-0091REMSYN076AAXX  21124 83344 32698 40503 10221 20161 39184 40145 82082 333 20161 59009;EQDQ01  00002PRCP99
0167833440999992002022118004-14950-040880FM-12+0905SBQV V0201401N002112200019N0200001N1+02771+01831100941ADDAA199000091GF102991021001004501081001MA1999999091441MD1999999-0191REMSYN070AAXX  21184 83344 32498 21404 10277 20183 39144 40094 82080 333 59019;EQDQ01  00002PRCP99
0208833440999992002022200004-14950-040880FM-12+0905SBQV V0203601N002612200019N0100001N1+01931+01661101181ADDAA199000091GA1001+999999999GF100991001001999999001001KA1240M+02851MA1999999091571MD1999999-0181REMSYN082AAXX  22004 83344 32997 03605 10193 20166 39157 40118 333 10285 29074 55107 59018;EQDQ01  00002PRCP99
0186833440999992002022212004-14950-040880FM-12+0905SBQV V0203601N003112200019N0200001N1+02351+01891101191ADDAA199000091GF106991031011008001001041KA1240N+01611MA1999999091631MD1999999-0211REMSYN076AAXX  22124 83344 32598 63606 10235 20189 39163 40119 83104 333 20161 59021;EQDQ01  00002PRCP99
0167833440999992002022218004-14950-040880FM-12+0905SBQV V0203201N002612200019N0200001N1+02911+01551100771ADDAA199000091GF104991011011008001001071MA1999999091301MD1999999-0141REMSYN070AAXX  22184 83344 32598 43205 10291 20155 39130 40077 81107 333 59014;EQDQ01  00002PRCP99
0208833440999992002022300004-14950-040880FM-12+0905SBQV V0203601N002612200019N0100001N1+01911+01471101011ADDAA199000091GA1001+999999999GF100991001001999999001001KA1240M+02931MA1999999091461MD1999999-0111REMSYN082AAXX  23004 83344 32997 03605 10191 20147 39146 40101 333 10293 29067 55114 59011;EQDQ01  00002PRCP99
0202833440999992002022312004-14950-040880FM-12+0905SBQV V0203601N004612200019N0200001N1+02491+01871101261ADDAA199000091GF104991001001999999001091KA1240N+01811MA1999999091731MD1999999+0101REMSYN076AAXX  23124 83344 32998 43609 10249 20187 39173 40126 84009 333 20181 58010;EQDQ01+000042SCOTLCQ02  00002PRCP99
0167833440999992002022318004-14950-040880FM-12+0905SBQV V0202301N002111050019N0200001N1+03081+01711100811ADDAA199000091GF105991041011004501001091MA1999999091421MD1999999+0121REMSYN070AAXX  23184 83344 32498 52304 10308 20171 39142 40081 84109 333 58012;EQDQ01  00002PRCP99
0208833440999992002022400004-14950-040880FM-12+0905SBQV V0200501N002112200019N0100001N1+02211+01841101161ADDAA199000091GA1001+999999999GF100991001001999999001001KA1240M+03131MA1999999091671MD1999999+0211REMSYN082AAXX  24004 83344 32997 00504 10221 20184 39167 40116 333 10313 29068 55116 58021;EQDQ01  00002PRCP99
0186833440999992002022412004-14950-040880FM-12+0905SBQV V0203601N002611050019N0200001N1+02611+01871101281ADDAA199000091GF108991031001012501071051KA1240N+01831MA1999999091801MD1999999+0071REMSYN076AAXX  24124 83344 32698 83605 10261 20187 39180 40128 83075 333 20183 58007;EQDQ01  00002PRCP99
0195833440999992002022418004-14950-040880FM-12+0905SBQV V0200501N003119999999N0200001N1+02651+01901101051ADDAA199000091AY191061AY221061GF108991041091008001001999MA1999999091521MD1999999+0101MW1171REMSYN076AAXX  24184 83344 31598 80506 10265 20190 39152 40105 71792 8490/ 333 58010;EQDQ01  00002PRCP99
0167833440999992002022518004-14950-040880FM-12+0905SBQV V0201401N004110450019N0200001N1+02691+01811101081ADDAA199000091GF106991031031008001071061MA1999999091561MD1999999+0041REMSYN070AAXX  25184 83344 32598 61408 10269 20181 39156 40108 83376 333 58004;EQDQ01  00002PRCP99
0198833440999992002022600004-14950-040880FM-12+0905SBQV V0200901N001519999999N0100001N1+02001+01801101451ADDAA199000091GF106991001001999999001061KA1240M+02811MA1999999091841MD1999999+0151REMSYN088AAXX  26004 83344 32997 60903 10200 20180 39184 40145 80006 333 10281 29080 55064 58015;EQDQ01  00002PRCP99
0186833440999992002022612004-14950-040880FM-12+0905SBQV V0200901N003612200019N0200001N1+02211+01671101511ADDAA199000091GF104991021011004501081001KA1240N+01651MA1999999091891MD1999999+0011REMSYN076AAXX  26124 83344 32498 40907 10221 20167 39189 40151 82180 333 20165 58001;EQDQ01  00002PRCP99
0167833440999992002022618004-14950-040880FM-12+0905SBQV V0201801N004110042019N0200001N1+02651+01661101171ADDAA199000091GF105991051021004501001001MA1999999091651MD1999999+0091REMSYN070AAXX  26184 83344 32498 51808 10265 20166 39165 40117 85200 333 58009;EQDQ01  00002PRCP99
0208833440999992002022700004-14950-040880FM-12+0905SBQV V0200501N002612200019N0100001N1+01931+01611101461ADDAA199000091GA1001+999999999GF100991001001999999001001KA1240M+02741MA1999999091831MD1999999-0011REMSYN082AAXX  27004 83344 32997 00505 10193 20161 39183 40146 333 10274 29073 55107 59001;EQDQ01  00002PRCP99
0186833440999992002022712004-14950-040880FM-12+0905SBQV V0200901N003112200019N0200001N1+02051+01681101691ADDAA199000091GF104991041021004501001001KA1240N+01851MA1999999092021MD1999999+0131REMSYN076AAXX  27124 83344 32498 40906 10205 20168 39202 40169 84200 333 20185 58013;EQDQ01  00002PRCP99
0167833440999992002022718004-14950-040880FM-12+0905SBQV V0201401N003110450019N0200001N1+02571+01591101321ADDAA199000091GF107991021011004501081021MA1999999091721MD1999999+0071REMSYN070AAXX  27184 83344 32498 71406 10257 20159 39172 40132 82182 333 58007;EQDQ01  00002PRCP99
0198833440999992002022800004-14950-040880FM-12+0905SBQV V0200901N002112200019N0100001N1+01911+01641101481ADDAA199000091GF105991021001022501061061KA1240M+02671MA1999999091831MD1999999+0001REMSYN088AAXX  28004 83344 32897 50904 10191 20164 39183 40148 82066 333 10267 29076 55083 58000;EQDQ01  00002PRCP99
0186833440999992002022812004-14950-040880FM-12+0905SBQV V0201401N001510450019N0200001N1+02011+01701101611ADDAA199000091GF108991041031008001021999KA1240N+01671MA1999999091931MD1999999-0091REMSYN076AAXX  28124 83344 32598 81403 10201 20170 39193 40161 8432/ 333 20167 59009;EQDQ01  00002PRCP99
0167833440999992002022818004-14950-040880FM-12+0905SBQV V0200501N002110450019N0200001N1+02381+01751101231ADDAA199000091GF108991041091004501021999MA1999999091661MD1999999-0061REMSYN070AAXX  28184 83344 32498 80504 10238 20175 39166 40123 8492/ 333 59006;EQDQ01  00002PRCP99
0198833440999992002030100004-14950-040880FM-12+0905SBQV V0200901N001510120019N0100001N1+01831+01701101501ADDAA199000091GF106991061051012501001001KA1240M+02471MA1999999091811MD1999999-0021REMSYN088AAXX  01004 83344 32697 60903 10183 20170 39181 40150 86500 333 10247 29084 55008 59002;EQDQ01  00002PRCP99
0186833440999992002030112004-14950-040880FM-12+0905SBQV V0200901N003110042019N0100001N1+02001+01761101571ADDAA199000091GF107991071071004501001001KA1240N+02051MA1999999091871MD1999999-0061REMSYN076AAXX  01124 83344 32497 70906 10200 20176 39187 40157 87700 333 20205 59006;EQDQ01  00002PRCP99
0167833440999992002030118004-14950-040880FM-12+0905SBQV V0201401N003111050019N0200001N1+02531+01741101241ADDAA199000091GF106991041021004501001091MA1999999091691MD1999999-0031REMSYN070AAXX  01184 83344 32498 61406 10253 20174 39169 40124 84209 333 59003;EQDQ01  00002PRCP99
0167833440999992002030218004-14950-040880FM-12+0905SBQV V0201601N003619999999N0200001N1+02631+01781101241ADDAA199000091GF106991031001004501091021MA1999999091671MD1999999-0021REMSYN070AAXX  02184 83344 32498 61607 10263 20178 39167 40124 83092 333 59002;EQDQ01  00002PRCP99
0201833440999992002030412004-14950-040880FM-12+0905SBQV V0201401N003610042019N0100001N1+02181+02061101551ADDAA124010991AY161061AY251061GF108991081071004501999999KA1240N+01731MA1999999091911MD1999999-0011MW1501REMSYN088AAXX  04124 83344 21497 81407 10218 20206 39191 40155 75065 887// 333 20173 59001 60114;
0179833440999992002030500004-14950-040880FM-12+0905SBQV V0201401N002112200019N0040001N1+01971+01891101541ADDAA199000021GF103991031041004501001001KA1240M+02431MA1999999091901MD1999999+0051REMSYN088AAXX  05004 83344 32496 31404 10197 20189 39190 40154 83400 333 10243 29094 55013 58005;
0201833440999992002030512004-14950-040880FM-12+0905SBQV V0201401N002110042019N0100001N1+01951+01841101671ADDAA124005191AY151061AY221061GF108991081071004501999999KA1240N+01751MA1999999091981MD1999999+0071MW1501REMSYN088AAXX  05124 83344 21497 81404 10195 20184 39198 40167 75052 887// 333 20175 58007 60054;
0182833440999992002030518004-14950-040880FM-12+0905SBQV V0201401N004610042019N0100001N1+02171+01991101461ADDAA106001091AY161061AY221061GF108991081051004501999999MA1999999091831MD1999999+0041MW1021REMSYN082AAXX  05184 83344 21497 81409 10217 20199 39183 40146 70262 885// 333 58004 60011;
0179833440999992002030600004-14950-040880FM-12+0905SBQV V0200901N001510120019N0040001N1+01911+01851101541ADDAA199000021GF108991081001012501021999KA1240M+02481MA1999999091861MD1999999-0041REMSYN088AAXX  06004 83344 32696 80903 10191 20185 39186 40154 8802/ 333 10248 29094 55028 59004;
0201833440999992002030612004-14950-040880FM-12+0905SBQV V0201401N003610450019N0200001N1+02151+01741101591ADDAA124001091AY151061AY221061GF108991041091004501021999KA1240N+01731MA1999999091951MD1999999-0031MW1021REMSYN088AAXX  06124 83344 21498 81407 10215 20174 39195 40159 70252 8492/ 333 20173 59003 60014;
0167833440999992002030618004-14950-040880FM-12+0905SBQV V0201401N003611050019N0200001N1+02611+01761101171ADDAA199000091GF106991041021008001001021MA1999999091651MD1999999-0181REMSYN070AAXX  06184 83344 32598 61407 10261 20176 39165 40117 84202 333 59018;EQDQ01  00002PRCP99
0208833440999992002030700004-14950-040880FM-12+0905SBQV V0201401N002612200019N0100001N1+02011+01871101441ADDAA199000091GA1001+999999999GF100991001001999999001001KA1240M+02651MA1999999091831MD1999999-0031REMSYN082AAXX  07004 83344 32997 01405 10201 20187 39183 40144 333 10265 29081 55088 59003;EQDQ01  00002PRCP99
0186833440999992002030712004-14950-040880FM-12+0905SBQV V0200901N002610042019N0200001N1+02231+01521101881ADDAA199000091GF106991061041004501001001KA1240N+01631MA1999999091951MD1999999+0001REMSYN076AAXX  07124 83344 32498 60905 10223 20152 39195 40188 86400 333 20163 58000;EQDQ01  00002PRCP99
0167833440999992002030718004-14950-040880FM-12+0905SBQV V0200501N003611050019N0200001N1+02661+01851101311ADDAA199000091GF106991041021004501001091MA1999999091771MD1999999+0121REMSYN070AAXX  07184 83344 32498 60507 10266 20185 39177 40131 84209 333 58012;EQDQ01  00002PRCP99
0198833440999992002030800004-14950-040880FM-12+0905SBQV V0201401N003110042019N0100001N1+02051+01891101531ADDAA199000091GF105991051021004501001001KA1240M+02711MA1999999091941MD1999999+0111REMSYN088AAXX  08004 83344 32497 51406 10205 20189 39194 40153 85200 333 10271 29081 55073 58011;EQDQ01  00002PRCP99
0186833440999992002030812004-14950-040880FM-12+0905SBQV V0200901N003612200019N0200001N1+02211+01761101681ADDAA199000091GF104991041021004501001001KA1240N+01651MA1999999092061MD1999999+0111REMSYN076AAXX  08124 83344 32498 40907 10221 20176 39206 40168 84200 333 20165 58011;EQDQ01  00002PRCP99
0167833440999992002030818004-14950-040880FM-12+0905SBQV V0201401N004612200019N0200001N1+02611+01541101351ADDAA199000091GF102991021021004501001001MA1999999091791MD1999999+0021REMSYN070AAXX  08184 83344 32498 21409 10261 20154 39179 40135 82200 333 58002;EQDQ01  00002PRCP99
0208833440999992002030900004-14950-040880FM-12+0905SBQV V0200901N001512200019N0100001N1+02031+01851101531ADDAA199000091GA1001+999999999GF100991001001999999001001KA1240M+02671MA1999999091911MD1999999-0031REMSYN082AAXX  09004 83344 32997 00903 10203 20185 39191 40153 333 10267 29077 55099 59003;EQDQ01  00002PRCP99
0186833440999992002030912004-14950-040880FM-12+0905SBQV V0200901N005110075019N0200001N1+02261+01751101591ADDAA199000091GF106991061021008001001001KA1240N+01651MA1999999091981MD1999999-0081REMSYN076AAXX  09124 83344 32598 60910 10226 20175 39198 40159 86200 333 20165 59008;EQDQ01  00002PRCP99
0167833440999992002030918004-14950-040880FM-12+0905SBQV V0200901N003110042019N0200001N1+02451+01951101291ADDAA199000091GF106991061071004501001001MA1999999091721MD1999999-0071REMSYN070AAXX  09184 83344 32498 60906 10245 20195 39172 40129 86700 333 59007;EQDQ01  00002PRCP99
0164833440999992002030921304-14950-040880FM-15+0905SBQV V0201301N004610018019N0090001N1+02101+02001999999ADDGA1071+001809999GF107991999999999999999999MA1102001999999MW1511REMMET054SBQV 092130Z 13009KT 9000 -DZ BKN006 21/20 Q1020 RETS;EQDQ01+000003PRSWM1Q02    003PRSWM1
0139833440999992002030922274-14950-040880FM-16+0905SBQV V0201101N003612200019N0112651N1+02101+02001999999ADDGA1021+003309999GF102991999999999999999999MA1102001999999MW1001REMMET045SBQV 092227Z 11007KT 9999 FEW011 21/20 Q1020;EQDQ01+000000PRSWM2
0213833440999992002031000004-14950-040880FM-12+0905SBQV V0200501N003610042019N0100001N1+01971+01911101561ADDAA106004191AY161061AY251061GF108991081071004501999999KA1240M+02551MA1999999091941MD1999999+0031MW1021REMSYN100AAXX  10004 83344 21497 80507 10197 20191 39194 40156 70265 887// 333 10255 29085 55056 58003 60041;
0201833440999992002031012004-14950-040880FM-12+0905SBQV V0200501N003110042019N0100001N1+02091+01821101651ADDAA124004191AY151061AY221061GF108991081071004501999999KA1240N+01681MA1999999092001MD1999999+0021MW1031REMSYN088AAXX  10124 83344 21497 80506 10209 20182 39200 40165 70352 887// 333 20168 58002 60044;
0213833440999992002031100004-14950-040880FM-12+0905SBQV V0200901N002610042019N0010001N1+02011+01871101531ADDAA106000191AY151061AY221061GF108991081071004501999999KA1240M+02621MA1999999091891MD1999999-0051MW1501REMSYN100AAXX  11004 83344 21494 80905 10201 20187 39189 40153 75052 887// 333 10262 29084 50666 59005 69921;
0201833440999992002031112004-14950-040880FM-12+0905SBQV V0200901N003110042019N0100001N1+02111+01861101711ADDAA124000891AY151061AY221061GF108991081071004501999999KA1240N+01711MA1999999092051MD1999999+0051MW1521REMSYN088AAXX  11124 83344 21497 80906 10211 20186 39205 40171 75252 887// 333 20171 58005 69984;
0159833440999992002031117144-14950-040880FM-15+0905SBQV V0201201N005710039019N0112651N1+02201+02101999999ADDGA1071+003909999GF107991999999999999999999MA1102001999999MW1611REMMET049SBQV 111714Z 12011KT 9999 -RA BKN013 22/21 Q1020;EQDQ01+000003PRSWM1Q02    003PRSWM1
0182833440999992002031118004-14950-040880FM-12+0905SBQV V0200901N003110042019N0100001N1+02191+01951101681ADDAA106001091AY161061AY211061GF107991071071004501001001MA1999999091821MD1999999+0161MW1011REMSYN082AAXX  11184 83344 21497 70906 10219 20195 39182 40168 70161 87700 333 58016 60011;
0213833440999992002031200004-14950-040880FM-12+0905SBQV V0200901N001512200019N0100001N1+01911+01881101551ADDAA106000591AY151061AY221061GF104991041061004501001001KA1240M+02511MA1999999091941MD1999999+0051MW1011REMSYN100AAXX  12004 83344 21497 40903 10191 20188 39194 40155 70152 84600 333 10251 29093 55040 58005 69961;
0201833440999992002031212004-14950-040880FM-12+0905SBQV V0201401N003610450019N0200001N1+02011+01981101841ADDAA124004191AY151061AY221061GF107991031071004501021001KA1240N+01791MA1999999092141MD1999999+0091MW1021REMSYN088AAXX  12124 83344 21498 71407 10201 20198 39214 40184 70252 83720 333 20179 58009 60044;
0182833440999992002031218004-14950-040880FM-12+0905SBQV V0201401N005710450019N0200001N1+02501+02001101471ADDAA106000191AY151061AY221061GF107991031091004501021001MA1999999091881MD1999999+0061MW1161REMSYN082AAXX  12184 83344 21498 71411 10250 20200 39188 40147 71652 83920 333 58006 69921;
0213833440999992002031300004-14950-040880FM-12+0905SBQV V0201401N001010450019N0100001N1+01991+01931101711ADDAA106001091AY151061AY221061GF107991041071002501021001KA1240M+02571MA1999999092041MD1999999+0101MW1021REMSYN100AAXX  13004 83344 21397 71402 10199 20193 39204 40171 70252 84720 333 10257 29092 55053 58010 60011;
0201833440999992002031312004-14950-040880FM-12+0905SBQV V0200901N002610021019N0040001N1+02051+01921101791ADDAA124001091AY151061AY221061GF108991081071002501999999KA1240N+01611MA1999999092111MD1999999-0031MW1501REMSYN088AAXX  13124 83344 21396 80905 10205 20192 39211 40179 75052 887// 333 20161 59003 60014;
0182833440999992002031318004-14950-040880FM-12+0905SBQV V0201401N003111050019N0200001N1+02371+02111101341ADDAA106000591AY151061AY221061GF106991041041004501001091MA1999999091721MD1999999+0161MW1251REMSYN082AAXX  13184 83344 21498 61406 10237 20211 39172 40134 72552 84409 333 58016 69941;
0213833440999992002031400004-14950-040880FM-12+0905SBQV V0200501N003110042019N0040001N1+01971+01891101571ADDAA106005191AY161061AY251061GF105991051071004501001001KA1240M+02191MA1999999091911MD1999999-0131MW1031REMSYN100AAXX  14004 83344 21496 50506 10197 20189 39191 40157 70365 85700 333 10219 29093 55068 59013 60051;
0201833440999992002031412004-14950-040880FM-12+0905SBQV V0200901N002610450019N0200001N1+02171+01841101541ADDAA124005191AY151061AY221061GF105991021021004501061001KA1240N+01811MA1999999091901MD1999999-0211MW1021REMSYN088AAXX  14124 83344 21498 50905 10217 20184 39190 40154 70252 82260 333 20181 59021 60054;
0167833440999992002031418004-14950-040880FM-12+0905SBQV V0200901N002612200019N0200001N1+02731+01851101091ADDAA199000091GF102991021011004501001001MA1999999091571MD1999999-0151REMSYN070AAXX  14184 83344 32498 20905 10273 20185 39157 40109 82100 333 59015;EQDQ01  00002PRCP99
0208833440999992002031500004-14950-040880FM-12+0905SBQV V0200901N001512200019N0100001N1+02051+01781101261ADDAA199000091GA1001+999999999GF100991001001999999001001KA1240M+02781MA1999999091661MD1999999-0251REMSYN082AAXX  15004 83344 32997 00903 10205 20178 39166 40126 333 10278 29078 55089 59025;EQDQ01  00002PRCP99
0186833440999992002031512004-14950-040880FM-12+0905SBQV V0200501N002612200019N0200001N1+02371+01911101291ADDAA199000091GF103991011011008001001091KA1240N+01581MA1999999091741MD1999999-0161REMSYN076AAXX  15124 83344 32598 30505 10237 20191 39174 40129 81109 333 20158 59016;EQDQ01  00002PRCP99
0167833440999992002031518004-14950-040880FM-12+0905SBQV V0201401N001512200019N0200001N1+02751+01871100891ADDAA199000091GF104991021011008001081091MA1999999091391MD1999999-0181REMSYN070AAXX  15184 83344 32598 41403 10275 20187 39139 40089 82189 333 59018;EQDQ01  00002PRCP99
0208833440999992002031600004-14950-040880FM-12+0905SBQV V0200901N001512200019N0100001N1+02111+01891101081ADDAA199000091GA1001+999999999GF100991001001999999001001KA1240M+02891MA1999999091561MD1999999-0101REMSYN082AAXX  16004 83344 32997 00903 10211 20189 39156 40108 333 10289 29078 55096 59010;EQDQ01  00002PRCP99
0186833440999992002031612004-14950-040880FM-12+0905SBQV V0200501N002612200019N0200001N1+02391+01911101271ADDAA199000091GF106991041041004501001011KA1240N+01741MA1999999091741MD1999999+0001REMSYN076AAXX  16124 83344 32498 60505 10239 20191 39174 40127 84401 333 20174 58000;EQDQ01  00002PRCP99
0167833440999992002031618004-14950-040880FM-12+0905SBQV V0200501N003110042019N0200001N1+02601+01961101021ADDAA199000091GF106991061041004501001001MA1999999091491MD1999999+0101REMSYN070AAXX  16184 83344 32498 60506 10260 20196 39149 40102 86400 333 58010;EQDQ01  00002PRCP99
0202833440999992002031700004-14950-040880FM-12+0905SBQV V0200501N003612200019N0100001N1+02091+01961101171ADDAA199000091GA1001+999999999GF100991001001999999001001KA1240M+02711MA1999999091651MD1999999+0091REMSYN076AAXX  17004 83344 32997 00507 10209 20196 39165 40117 333 10271 29082 58009;EQDQ01  00002PRCP99
0186833440999992002031712004-14950-040880FM-12+0905SBQV V0200501N002612200019N0200001N1+02271+01821101311ADDAA199000091GF104991041001012501081001KA1240N+01611MA1999999091771MD1999999+0031REMSYN076AAXX  17124 83344 32698 40505 10227 20182 39177 40131 84080 333 20161 58003;EQDQ01  00002PRCP99
0167833440999992002031718004-14950-040880FM-12+0905SBQV V0200901N003112200019N0200001N1+02571+01881101051ADDAA199000091GF102991021001012501081001MA1999999091501MD1999999+0011REMSYN070AAXX  17184 83344 32698 20906 10257 20188 39150 40105 82080 333 58001;EQDQ01  00002PRCP99
0208833440999992002031800004-14950-040880FM-12+0905SBQV V0200901N001512200019N0100001N1+02031+01871101201ADDAA199000091GA1001+999999999GF100991001001999999001001KA1240M+02731MA1999999091641MD1999999-0011REMSYN082AAXX  18004 83344 32997 00903 10203 20187 39164 40120 333 10273 29081 55100 59001;EQDQ01  00002PRCP99
0186833440999992002031812004-14950-040880FM-12+0905SBQV V0200501N002611050019N0200001N1+02231+01671101321ADDAA199000091GF106991021011008001081041KA1240N+01671MA1999999091751MD1999999-0021REMSYN076AAXX  18124 83344 32598 60505 10223 20167 39175 40132 82184 333 20167 59002;EQDQ01  00002PRCP99
0167833440999992002031818004-14950-040880FM-12+0905SBQV V0200901N003110450019N0200001N1+02611+01841100931ADDAA199000091GF107991031021008001061041MA1999999091431MD1999999-0071REMSYN070AAXX  18184 83344 32598 70906 10261 20184 39143 40093 83264 333 59007;EQDQ01  00002PRCP99
0208833440999992002031900004-14950-040880FM-12+0905SBQV V0200901N002112200019N0100001N1+01971+01831101191ADDAA199000091GA1001+999999999GF100991001001999999001001KA1240M+02791MA1999999091601MD1999999-0041REMSYN082AAXX  19004 83344 32997 00904 10197 20183 39160 40119 333 10279 29079 55090 59004;EQDQ01  00002PRCP99
0162833440999992002031910004-14950-040880FM-15+0905SBQV V0201001N007210900019N0112651N1+02001+01901999999ADDGA1021+003009999GA2071+090009999GF107991999999999999999999MA1101691999999MW1001REMMET052SBQV 191000Z 10014KT 9999 SCT010 BKN300 20/19 Q1017;EQDQ01+000000PRSWM2
0162833440999992002031911004-14950-040880FM-15+0905SBQV V0201001N006210900019N0112651N1+02101+01801999999ADDGA1021+003909999GA2071+090009999GF107991999999999999999999MA1101691999999MW1001REMMET052SBQV 191100Z 10012KT 9999 FEW013 BKN300 21/18 Q1017;EQDQ01+000000PRSWM2
0298833440999992002031912004-14950-040880SY-MT+0905SBQV V0200501N002610045019N0200001N1+02251+01901101311ADDAA199000091GA1071+004509999GA2071+090009999GF107991071071004501001001KA1240N+01671MA1101801091711MD1999999-0041MW1001REMSYN076AAXX  19124 83344 32498 70505 10225 20190 39171 40131 87700 333 20167 59004;MET052SBQV 191200Z 04008KT 9999 BKN015 BKN300 23/19 Q1018;EQDQ01+000000PRSWM2Q02  00002PRCP99
0162833440999992002031913004-14950-040880FM-15+0905SBQV V0200901N002110048019N0112651N1+02301+01801999999ADDGA1071+004809999GA2071+090009999GF107991999999999999999999MA1101801999999MW1001REMMET052SBQV 191300Z 09004KT 9999 BKN016 BKN300 23/18 Q1018;EQDQ01+000000PRSWM2
0162833440999992002031914004-14950-040880FM-15+0905SBQV V0200101N004110048019N0112651N1+02501+01801999999ADDGA1071+004809999GA2071+090009999GF107991999999999999999999MA1101801999999MW1001REMMET052SBQV 191400Z 01008KT 9999 BKN016 BKN300 25/18 Q1018;EQDQ01+000000PRSWM2
0162833440999992002031915004-14950-040880FM-15+0905SBQV V0200601N002610060019N0112651N1+02601+01801999999ADDGA1071+006009999GA2071+090009999GF107991999999999999999999MA1101691999999MW1001REMMET052SBQV 191500Z 06005KT 9999 BKN020 BKN300 26/18 Q1017;EQDQ01+000000PRSWM2
0162833440999992002031916004-14950-040880FM-15+0905SBQV V0201001N001510900019N0112651N1+02501+01801999999ADDGA1021+006009999GA2071+090009999GF107991999999999999999999MA1101591999999MW1001REMMET052SBQV 191600Z 10003KT 9999 SCT020 BKN300 25/18 Q1016;EQDQ01+000000PRSWM2
0185833440999992002031917004-14950-040880FM-15+0905SBQV V0201501N001010900019N0112651N1+02601+01701999999ADDGA1021+006009999GA2021+024009999GA3071+090009999GF107991999999999999999999MA1101491999999MW1001REMMET059SBQV 191700Z 15002KT 9999 SCT020 SCT080 BKN300 26/17 Q1015;EQDQ01+000000PRSWM2
0167833440999992002031918004-14950-040880FM-12+0905SBQV V0200501N005110042019N0200001N1+02391+01931100991ADDAA199000091GF107991051071004501051001MA1999999091401MD1999999-0031REMSYN070AAXX  19184 83344 32498 70510 10239 20193 39140 40099 85750 333 59003;EQDQ01  00002PRCP99
0198833440999992002032000004-14950-040880FM-12+0905SBQV V0201401N001512200019N0040001N1+02041+01941101151ADDAA199000091GF102991021031004501001001KA1240M+02611MA1999999091591MD1999999-0011REMSYN088AAXX  20004 83344 32496 21403 10204 20194 39159 40115 82300 333 10261 29086 55029 59001;EQDQ01  00002PRCP99
0167833440999992002032018004-14950-040880FM-12+0905SBQV V0201801N003112200019N0200001N1+02651+01801100941ADDAA199000091GF104991041021004501001001MA1999999091421MD1999999+0021REMSYN070AAXX  20184 83344 32498 41806 10265 20180 39142 40094 84200 333 58002;EQDQ01  00002PRCP99
0208833440999992002032100004-14950-040880FM-12+0905SBQV V0201401N001512200019N0100001N1+02051+01851101141ADDAA199000091GA1001+999999999GF100991001001999999001001KA1240M+02851MA1999999091601MD1999999-0011REMSYN082AAXX  21004 83344 32997 01403 10205 20185 39160 40114 333 10285 29079 55089 59001;EQDQ01  00002PRCP99
0186833440999992002032112004-14950-040880FM-12+0905SBQV V0200501N003110075019N0200001N1+02231+01941101281ADDAA199000091GF106991061021008001001001KA1240N+01671MA1999999091711MD1999999-0061REMSYN076AAXX  21124 83344 32598 60506 10223 20194 39171 40128 86200 333 20167 59006;EQDQ01  00002PRCP99
0167833440999992002032118004-14950-040880FM-12+0905SBQV V0201401N002112200019N0200001N1+02851+01571100821ADDAA199000091GF104991021011008001081001MA1999999091331MD1999999-0091REMSYN070AAXX  21184 83344 32598 41404 10285 20157 39133 40082 82180 333 59009;EQDQ01  00002PRCP99
0208833440999992002032200004-14950-040880FM-12+0905SBQV V0200901N001512200019N0100001N1+02081+01871101021ADDAA199000091GA1001+999999999GF100991001001999999001001KA1240M+02951MA1999999091471MD1999999-0131REMSYN082AAXX  22004 83344 32997 00903 10208 20187 39147 40102 333 10295 29076 55083 59013;EQDQ01  00002PRCP99
0186833440999992002032212004-14950-040880FM-12+0905SBQV V0200901N003610450019N0200001N1+02431+01881101271ADDAA199000091GF106991031041004501051011KA1240N+01791MA1999999091741MD1999999+0031REMSYN076AAXX  22124 83344 32498 60907 10243 20188 39174 40127 83451 333 20179 58003;EQDQ01  00002PRCP99
0167833440999992002032218004-14950-040880FM-12+0905SBQV V0201401N003110450019N0200001N1+02641+01831101021ADDAA199000091GF106991021021004501031081MA1999999091491MD1999999+0161REMSYN070AAXX  22184 83344 32498 61406 10264 20183 39149 40102 82238 333 58016;EQDQ01  00002PRCP99
0198833440999992002032300004-14950-040880FM-12+0905SBQV V0201801N003610042019N0040001N1+02161+02041101311ADDAA199000091GF106991061071004501001001KA1240M+02811MA1999999091791MD1999999+0321REMSYN088AAXX  23004 83344 32496 61807 10216 20204 39179 40131 86700 333 10281 29080 55093 58032;EQDQ01  00002PRCP99
0201833440999992002032312004-14950-040880FM-12+0905SBQV V0201401N002110042019N0010001N1+02091+01931101631ADDAA124007991AY161061AY251061GF108991081071004501999999KA1240N+01891MA1999999092021MD1999999+0281MW1511REMSYN088AAXX  23124 83344 21494 81404 10209 20193 39202 40163 75165 887// 333 20189 58028 60084;
0148833440999992002032318004-14950-040880FM-12+0905SBQV V0201401N002110075019N0200001N1+02641+02421101131ADDAA199000021GF105991051011008001001001MA1999999091611MD1999999+0121REMSYN070AAXX  23184 83344 32598 51404 10264 20242 39161 40113 85100 333 58012;
0186833440999992002032412004-14950-040880FM-12+0905SBQV V0200501N002610450019N0200001N1+02361+01691101481ADDAA199000091GF106991031011008001081011KA1240N+01581MA1999999091911MD1999999-0111REMSYN076AAXX  24124 83344 32598 60505 10236 20169 39191 40148 83181 333 20158 59011;EQDQ01  00002PRCP99
0167833440999992002032418004-14950-040880FM-12+0905SBQV V0200901N003612200019N0200001N1+02711+01651100971ADDAA199000091GF104991011011004501031011MA1999999091511MD1999999-0101REMSYN070AAXX  24184 83344 32498 40907 10271 20165 39151 40097 81131 333 59010;EQDQ01  00002PRCP99
0186833440999992002032512004-14950-040880FM-12+0905SBQV V0201801N002110042019N0100001N1+02191+02031101441ADDAA199000091GF108991081071004501999999KA1240N+02131MA1999999091811MD1999999-0101REMSYN076AAXX  25124 83344 32497 81804 10219 20203 39181 40144 887// 333 20213 59010;EQDQ01  00002PRCP99
0167833440999992002032518004-14950-040880FM-12+0905SBQV V0201401N002612200019N0200001N1+02811+01811100931ADDAA199000091GF106991041021004501001011MA1999999091411MD1999999-0101REMSYN070AAXX  25184 83344 32498 61405 10281 20181 39141 40093 84201 333 59010;EQDQ01  00002PRCP99
0186833440999992002032612004-14950-040880FM-12+0905SBQV V0200901N003112200019N0200001N1+02351+01891101281ADDAA199000091GF104991041041004501001001KA1240N+01751MA1999999091731MD1999999-0081REMSYN076AAXX  26124 83344 32498 40906 10235 20189 39173 40128 84400 333 20175 59008;EQDQ01  00002PRCP99
0167833440999992002032618004-14950-040880FM-12+0905SBQV V0200901N003612200019N0200001N1+02751+01971100941ADDAA199000091GF104991021021004501041001MA1999999091441MD1999999+0031REMSYN070AAXX  26184 83344 32498 40907 10275 20197 39144 40094 82240 333 58003;EQDQ01  00002PRCP99
0208833440999992002032700004-14950-040880FM-12+0905SBQV V0200901N003112200019N0100001N1+02011+01871101271ADDAA199000091GA1001+999999999GF100991001001999999001001KA1240M+02851MA1999999091721MD1999999+0061REMSYN082AAXX  27004 83344 32997 00906 10201 20187 39172 40127 333 10285 29081 55098 58006;EQDQ01  00002PRCP99
0214833440999992002032712004-14950-040880FM-12+0905SBQV V0200901N003610450019N0040001N1+02171+01901101051ADDAA199000091AY121061AY211061GF108991041071004501021999KA1240N+01461MA1999999091481MD1999999-0251MW1151REMSYN082AAXX  27124 83344 31496 80907 10217 20190 39148 40105 71521 8472/ 333 20146 59025;EQDQ01  00002PRCP99
0182833440999992002032718004-14950-040880FM-12+0905SBQV V0201401N005110450019N0200001N1+02531+01821101311ADDAA106001091AY161061AY251061GF106991041071004501061001MA1999999091671MD1999999+0231MW1021REMSYN082AAXX  27184 83344 21498 61410 10253 20182 39167 40131 70265 84760 333 58023 60011;
0223833440999992002032800004-14950-040880FM-12+0905SBQV V0200901N001512200019N0100001N1+01951+01891101501ADDAA106000591AY161061AY221061GA1001+999999999GF100991001001999999001001KA1240M+02651MA1999999091861MD1999999+0141MW1021REMSYN094AAXX  28004 83344 21997 00903 10195 20189 39186 40150 70262 333 10265 29086 55037 58014 69941;
0201833440999992002032812004-14950-040880FM-12+0905SBQV V0201401N003611050019N0200001N1+02181+01821101781ADDAA124002091AY121061AY201061GF106991041021004501001031KA1240N+01441MA1999999092121MD1999999+0641MW1021REMSYN088AAXX  28124 83344 21498 61407 10218 20182 39212 40178 70220 84203 333 20144 58064 60024;
0167833440999992002032818004-14950-040880FM-12+0905SBQV V0201401N006211050019N0200001N1+02571+01641101391ADDAA199000091GF106991031021004501001031MA1999999091761MD1999999+0091REMSYN070AAXX  28184 83344 32498 61412 10257 20164 39176 40139 83203 333 58009;EQDQ01  00002PRCP99
0198833440999992002032900004-14950-040880FM-12+0905SBQV V0200901N002112200019N0100001N1+01931+01751101511ADDAA199000091GF102991021001012501031001KA1240M+02691MA1999999091871MD1999999+0011REMSYN088AAXX  29004 83344 32697 20904 10193 20175 39187 40151 82030 333 10269 29080 55086 58001;EQDQ01  00002PRCP99
0201833440999992002032912004-14950-040880FM-12+0905SBQV V0200901N002610042019N0200001N1+02091+01951101611ADDAA124000191AY151061AY221061GF107991071071004501001001KA1240N+01671MA1999999091951MD1999999-0171MW1031REMSYN088AAXX  29124 83344 21498 70905 10209 20195 39195 40161 70352 87700 333 20167 59017 69924;
0182833440999992002032918004-14950-040880FM-12+0905SBQV V0200901N004110042019N0200001N1+02451+02011101301ADDAA106003091AY161061AY221061GF106991061051004501001001MA1999999091661MD1999999-0101MW1011REMSYN082AAXX  29184 83344 21498 60908 10245 20201 39166 40130 70162 86500 333 59010 60031;
0198833440999992002033000004-14950-040880FM-12+0905SBQV V0200901N001512200019N0100001N1+01901+01831101571ADDAA199000091GF104991021001012501091011KA1240M+02591MA1999999091911MD1999999+0041REMSYN088AAXX  30004 83344 32697 40903 10190 20183 39191 40157 82091 333 10259 29089 55053 58004;EQDQ01  00002PRCP99
0173833440999992002033012004-14950-040880FM-12+0905SBQV V0200901N004610120019N0200001N1+02251+01781101611ADDAA124004191GF106991061051012501001001KA1240N+01911MA1999999091961MD1999999+0011REMSYN082AAXX  30124 83344 22698 60909 10225 20178 39196 40161 86500 333 20191 58001 60044;
0167833440999992002033018004-14950-040880FM-12+0905SBQV V0201401N005710450019N0200001N1+02491+01901101231ADDAA199000091GF106991021051012501031051MA1999999091661MD1999999+0001REMSYN070AAXX  30184 83344 32698 61411 10249 20190 39166 40123 82535 333 58000;EQDQ01  00002PRCP99
0198833440999992002033100004-14950-040880FM-12+0905SBQV V0200901N003112200019N0100001N1+02051+01871101421ADDAA199000091GF103991031021008001001001KA1240M+02671MA1999999091841MD1999999-0071REMSYN088AAXX  31004 83344 32597 30906 10205 20187 39184 40142 83200 333 10267 29081 55083 59007;EQDQ01  00002PRCP99
0201833440999992002033112004-14950-040880FM-12+0905SBQV V0200901N003110042019N0040001N1+02041+01851101671ADDAA124000191AY151061AY221061GF108991081071004501999999KA1240N+01711MA1999999092021MD1999999+0061MW1201REMSYN088AAXX  31124 83344 21496 80906 10204 20185 39202 40167 72052 887// 333 20171 58006 69924;
0182833440999992002033118004-14950-040880FM-12+0905SBQV V0201401N004610450019N0200001N1+02561+01731101291ADDAA106000591AY151061AY211061GF106991041021004501031001MA1999999091721MD1999999+0061MW1021REMSYN082AAXX  31184 83344 21498 61409 10256 20173 39172 40129 70251 84230 333 58006 69951;
0223833440999992002040100004-14950-040880FM-12+0905SBQV V0200901N003112200019N0100001N1+01941+01821101531ADDAA106000191AY151061AY211061GA1001+999999999GF100991001001999999001001KA1240M+02631MA1999999091871MD1999999+0031MW1021REMSYN094AAXX  01004 83344 21997 00906 10194 20182 39187 40153 70251 333 10263 29084 55034 58003 69911;
0173833440999992002040112004-14950-040880FM-12+0905SBQV V0200901N001510042019N0200001N1+02171+01861101571ADDAA124000591GF107991071051004501001001KA1240N+01731MA1999999091931MD1999999-0091REMSYN082AAXX  01124 83344 22498 70903 10217 20186 39193 40157 87500 333 20173 59009 69964;
0167833440999992002040118004-14950-040880FM-12+0905SBQV V0201401N004610450019N0200001N1+02631+01981101131ADDAA199000091GF106991021041004501081021MA1999999091581MD1999999-0141REMSYN070AAXX  01184 83344 32498 61409 10263 20198 39158 40113 82482 333 59014;EQDQ01  00002PRCP99
0192833440999992002040200004-14950-040880FM-12+0905SBQV V0200901N002112200019N0100001N1+02031+99999101401ADDAA199000091GF102991021001012501091001KA1240M+02751MA1999999091791MD1999999-0081REMSYN082AAXX  02004 83344 32697 20904 10203 39179 40140 82090 333 10275 29084 55062 59008;EQDQ01  00002PRCP99
0186833440999992002040212004-14950-040880FM-12+0905SBQV V0200901N002610450019N0200001N1+02401+01861101461ADDAA199000091GF106991031021004501031091KA1240N+01811MA1999999091891MD1999999-0041REMSYN076AAXX  02124 83344 32498 60905 10240 20186 39189 40146 83239 333 20181 59004;EQDQ01  00002PRCP99
0167833440999992002040218004-14950-040880FM-12+0905SBQV V0201401N003112200019N0200001N1+02601+01961101171ADDAA199000091GF106991031021008001001061MA1999999091661MD1999999-0081REMSYN070AAXX  02184 83344 32598 61406 10260 20196 39166 40117 83206 333 59008;EQDQ01  00002PRCP99
0208833440999992002040300004-14950-040880FM-12+0905SBQV V0200901N002112200019N0100001N1+01871+01711101481ADDAA199000091GA1001+999999999GF100991001001999999001001KA1240M+02711MA1999999091891MD1999999+0101REMSYN082AAXX  03004 83344 32997 00904 10187 20171 39189 40148 333 10271 29081 55073 58010;EQDQ01  00002PRCP99
0186833440999992002040312004-14950-040880FM-12+0905SBQV V0200901N003110042019N0200001N1+02131+01801101671ADDAA199000091GF106991061041004501001001KA1240N+01541MA1999999092001MD1999999+0111REMSYN076AAXX  03124 83344 32498 60906 10213 20180 39200 40167 86400 333 20154 58011;EQDQ01  00002PRCP99
0182833440999992002040318004-14950-040880FM-12+0905SBQV V0200501N004110042019N0200001N1+02231+01881101461ADDAA106000191AY151061AY221061GF108991081071004501999999MA1999999091791MD1999999+0131MW1201REMSYN082AAXX  03184 83344 21498 80508 10223 20188 39179 40146 72052 887// 333 58013 69921;
0223833440999992002040400004-14950-040880FM-12+0905SBQV V0201401N000512200019N0100001N1+01681+01601101561ADDAA106000191AY151061AY221061GA1001+999999999GF100991001001999999001001KA1240M+02451MA1999999091861MD1999999-0031MW1001REMSYN094AAXX  04004 83344 21997 01401 10168 20160 39186 40156 70052 333 10245 29088 55036 59003 69911;
0201833440999992002040412004-14950-040880FM-12+0905SBQV V0201401N002110450019N0200001N1+01951+01741101741ADDAA124000891AY151061AY221061GF106991041041004501081001KA1240N+01271MA1999999091981MD1999999-0021MW1021REMSYN088AAXX  04124 83344 21498 61404 10195 20174 39198 40174 70252 84480 333 20127 59002 69984;
0167833440999992002040418004-14950-040880FM-12+0905SBQV V0200901N003110450019N0200001N1+02491+01831101311ADDAA199000091GF107991041071004501091001MA1999999091691MD1999999-0101REMSYN070AAXX  04184 83344 32498 70906 10249 20183 39169 40131 84790 333 59010;EQDQ01  00002PRCP99
0198833440999992002040500004-14950-040880FM-12+0905SBQV V0200901N001512200019N0100001N1+01951+01841101551ADDAA199000091GF104991041001012501071001KA1240M+02651MA1999999091871MD1999999+0011REMSYN088AAXX  05004 83344 32697 40903 10195 20184 39187 40155 84070 333 10265 29086 55057 58001;EQDQ01  00002PRCP99
0201833440999992002040512004-14950-040880FM-12+0905SBQV V0201401N001510120019N0200001N1+02451+01661101391ADDAA124004191AY161061AY251061GF106991061051012501001001KA1240N+01541MA1999999091831MD1999999+0151MW1021REMSYN088AAXX  05124 83344 21698 61403 10245 20166 39183 40139 70265 86500 333 20154 58015 60044;
0167833440999992002040518004-14950-040880FM-12+0905SBQV V0201401N004610075019N0200001N1+02591+01821101021ADDAA199000091GF106991061021008001001001MA1999999091491MD1999999-0201REMSYN070AAXX  05184 83344 32598 61409 10259 20182 39149 40102 86200 333 59020;EQDQ01  00002PRCP99
0110833440999992002040600004-14950-040880FM-12+0905SBQV V0201401N003119999999N0040001N1+01911+99999999999ADDAA199000091GF108991999999004501999999REMSYN042AAXX  06004 83344 32496 81406 10191 201//;EQDQ01  00002PRCP99
0186833440999992002040612004-14950-040880FM-12+0905SBQV V0200901N003112200019N0200001N1+02211+01821101321ADDAA199000091GF104991041021004501001001KA1240N+01631MA1999999091971MD1999999-0131REMSYN076AAXX  06124 83344 32498 40906 10221 20182 39197 40132 84200 333 20163 59013;EQDQ01  00002PRCP99
0167833440999992002040618004-14950-040880FM-12+0905SBQV V0201401N003612200019N0200001N1+02511+01871100921ADDAA199000091GF103991031011008001001001MA1999999091381MD1999999-0111REMSYN070AAXX  06184 83344 32598 31407 10251 20187 39138 40092 83100 333 59011;EQDQ01  00002PRCP99
0208833440999992002040700004-14950-040880FM-12+0905SBQV V0201401N002112200019N0100001N1+01951+01861101241ADDAA199000091GA1001+999999999GF100991001001999999001001KA1240M+02701MA1999999091651MD1999999-0071REMSYN082AAXX  07004 83344 32997 01404 10195 20186 39165 40124 333 10270 29084 55097 59007;EQDQ01  00002PRCP99
0186833440999992002040712004-14950-040880FM-12+0905SBQV V0201401N004610075019N0200001N1+02371+01891101381ADDAA199000091GF106991061021008001001001KA1240N+01781MA1999999091801MD1999999+0101REMSYN076AAXX  07124 83344 32598 61409 10237 20189 39180 40138 86200 333 20178 58010;EQDQ01  00002PRCP99
0182833440999992002040718004-14950-040880FM-12+0905SBQV V0200501N004110042019N0100001N1+02031+01921101151ADDAA106007991AY161061AY221061GF107991071071004501001001MA1999999091531MD1999999+0151MW1611REMSYN082AAXX  07184 83344 21497 70508 10203 20192 39153 40115 76162 87700 333 58015 60081;
0101833440999992002040800004-14950-040880FM-12+0905SBQV V0200901N002112200019N0100001N1+99999+99999999999ADDAA199000021GA1001+999999999GF100991001001999999001001REMSYN036AAXX  08004 83344 32197 00904 24161;
0173833440999992002040812004-14950-040880FM-12+0905SBQV V0200501N002610021019N0100001N1+02111+01891101401ADDAA124007991GF108991081071002501999999KA1240N+01771MA1999999091771MD1999999-0031REMSYN082AAXX  08124 83344 22397 80505 10211 20189 39177 40140 887// 333 20177 59003 60084;
0167833440999992002040818004-14950-040880FM-12+0905SBQV V0200901N003110450019N0200001N1+02701+01961100811ADDAA199000091GF105991031021004501031021MA1999999091341MD1999999-0191REMSYN070AAXX  08184 83344 32498 50906 10270 20196 39134 40081 83232 333 59019;EQDQ01  00002PRCP99
0208833440999992002040900004-14950-040880FM-12+0905SBQV V0201401N001012200019N0100001N1+02001+01851101151ADDAA199000091GA1001+999999999GF100991001001999999001001KA1240M+02751MA1999999091551MD1999999-0091REMSYN082AAXX  09004 83344 32997 01402 10200 20185 39155 40115 333 10275 29084 55067 59009;EQDQ01  00002PRCP99
0186833440999992002040912004-14950-040880FM-12+0905SBQV V0200901N003112200019N0200001N1+02371+01871101281ADDAA199000091GF102991001001999999001021KA1240N+01701MA1999999091731MD1999999-0041REMSYN076AAXX  09124 83344 32998 20906 10237 20187 39173 40128 80002 333 20170 59004;EQDQ01  00002PRCP99
0167833440999992002040918004-14950-040880FM-12+0905SBQV V0200901N003112200019N0200001N1+02631+01981100771ADDAA199000091GF103991011021004501081001MA1999999091281MD1999999-0061REMSYN070AAXX  09184 83344 32498 30906 10263 20198 39128 40077 81280 333 59006;EQDQ01  00002PRCP99
0198833440999992002041000004-14950-040880FM-12+0905SBQV V0200901N002112200019N0100001N1+02091+01821101081ADDAA199000091GF101991011011004501001001KA1240M+02891MA1999999091561MD1999999+0011REMSYN088AAXX  10004 83344 32497 10904 10209 20182 39156 40108 81100 333 10289 29078 55078 58001;EQDQ01  00002PRCP99
0186833440999992002041012004-14950-040880FM-12+0905SBQV V0201401N002110042019N0100001N1+02051+01891101361ADDAA199000091GF108991081071004501999999KA1240N+01771MA1999999091741MD1999999+0011REMSYN076AAXX  10124 83344 32497 81404 10205 20189 39174 40136 887// 333 20177 58001;EQDQ01  00002PRCP99
0167833440999992002041018004-14950-040880FM-12+0905SBQV V0201401N003110450019N0200001N1+02671+02021100831ADDAA199000091GF106991041021004501031001MA1999999091351MD1999999+0071REMSYN070AAXX  10184 83344 32498 61406 10267 20202 39135 40083 84230 333 58007;EQDQ01  00002PRCP99
0208833440999992002041100004-14950-040880FM-12+0905SBQV V0201401N001012200019N0100001N1+01951+01891101281ADDAA199000091GA1001+999999999GF100991001001999999001001KA1240M+02711MA1999999091651MD1999999+0091REMSYN082AAXX  11004 83344 32997 01402 10195 20189 39165 40128 333 10271 29088 55039 58009;EQDQ01  00002PRCP99
0186833440999992002041112004-14950-040880FM-12+0905SBQV V0200901N002610042019N0200001N1+02171+01901101441ADDAA199000091GF106991061051004501001001KA1240N+01831MA1999999091811MD1999999+0071REMSYN076AAXX  11124 83344 32498 60905 10217 20190 39181 40144 86500 333 20183 58007;EQDQ01  00002PRCP99
0167833440999992002041118004-14950-040880FM-12+0905SBQV V0201801N002112200019N0200001N1+02531+01931100951ADDAA199000091GF103991031011004501001001MA1999999091431MD1999999+0081REMSYN070AAXX  11184 83344 32498 31804 10253 20193 39143 40095 83100 333 58008;EQDQ01  00002PRCP99
0208833440999992002041200004-14950-040880FM-12+0905SBQV V0200901N002112200019N0100001N1+02051+01911101281ADDAA199000091GA1001+999999999GF100991001001999999001001KA1240M+02671MA1999999091681MD1999999+0031REMSYN082AAXX  12004 83344 32997 00904 10205 20191 39168 40128 333 10267 29085 55057 58003;EQDQ01  00002PRCP99
0186833440999992002041212004-14950-040880FM-12+0905SBQV V0201401N002610042019N0200001N1+02221+01881101381ADDAA199000091GF106991061041004501001001KA1240N+01891MA1999999091801MD1999999-0011REMSYN076AAXX  12124 83344 32498 61405 10222 20188 39180 40138 86400 333 20189 59001;EQDQ01  00002PRCP99
0167833440999992002041218004-14950-040880FM-12+0905SBQV V0201801N003110450019N0200001N1+02731+01981101081ADDAA199000091GF105991031011004501031001MA1999999091441MD1999999+0011REMSYN070AAXX  12184 83344 32498 51806 10273 20198 39144 40108 83130 333 58001;EQDQ01  00002PRCP99
0208833440999992002041300004-14950-040880FM-12+0905SBQV V0200501N002612200019N0100001N1+02011+01871101301ADDAA199000091GA1001+999999999GF100991001001999999001001KA1240M+02751MA1999999091701MD1999999+0021REMSYN082AAXX  13004 83344 32997 00505 10201 20187 39170 40130 333 10275 29082 55075 58002;EQDQ01  00002PRCP99
0196833440999992002041312004-14950-040880FM-12+0905SBQV V0200901N002112200019N0200001N1+02471+02011101371ADDAA199000091GA1001+999999999GF100991001001999999001001KA1240N+01441MA1999999091831MD1999999+0031REMSYN070AAXX  13124 83344 32998 00904 10247 20201 39183 40137 333 20144 58003;EQDQ01  00002PRCP99
0167833440999992002041318004-14950-040880FM-12+0905SBQV V0201401N005110450019N0200001N1+02751+01891101121ADDAA199000091GF106991011011004501081021MA1999999091581MD1999999+0141REMSYN070AAXX  13184 83344 32498 61410 10275 20189 39158 40112 81182 333 58014;EQDQ01  00002PRCP99
0208833440999992002041400004-14950-040880FM-12+0905SBQV V0200901N002112200019N0100001N1+02031+01741101351ADDAA199000091GA1001+999999999GF100991001001999999001001KA1240M+02851MA1999999091791MD1999999+0091REMSYN082AAXX  14004 83344 32997 00904 10203 20174 39179 40135 333 10285 29076 55088 58009;EQDQ01  00002PRCP99
0186833440999992002041412004-14950-040880FM-12+0905SBQV V0201401N002610042019N0200001N1+02251+01801101611ADDAA199000091GF105991051021004501001001KA1240N+01611MA1999999092001MD1999999+0171REMSYN076AAXX  14124 83344 32498 51405 10225 20180 39200 40161 85200 333 20161 58017;EQDQ01  00002PRCP99
0167833440999992002041418004-14950-040880FM-12+0905SBQV V0201401N005112200019N0200001N1+02591+01661101161ADDAA199000091GF102991021011004501001001MA1999999091631MD1999999+0041REMSYN070AAXX  14184 83344 32498 21410 10259 20166 39163 40116 82100 333 58004;EQDQ01  00002PRCP99
0208833440999992002041500004-14950-040880FM-12+0905SBQV V0201401N002612200019N0100001N1+01881+01621101421ADDAA199000091GA1001+999999999GF100991001001999999001001KA1240M+02691MA1999999091791MD1999999+0001REMSYN082AAXX  15004 83344 32997 01405 10188 20162 39179 40142 333 10269 29075 55111 58000;EQDQ01  00002PRCP99
0186833440999992002041512004-14950-040880FM-12+0905SBQV V0201401N004612200019N0200001N1+02171+01721101631ADDAA199000091GF102991021011004501001001KA1240N+01651MA1999999091961MD1999999-0041REMSYN076AAXX  15124 83344 32498 21409 10217 20172 39196 40163 82100 333 20165 59004;EQDQ01  00002PRCP99
0186833440999992002041612004-14950-040880FM-12+0905SBQV V0201801N004612200019N0200001N1+02221+01881101481ADDAA199000091GF104991041021004501001001KA1240N+02251MA1999999092181MD1999999-0041REMSYN076AAXX  16124 83344 32498 41809 10222 20188 39218 40148 84200 333 20225 59004;EQDQ01  00002PRCP99
0167833440999992002041618004-14950-040880FM-12+0905SBQV V0201801N005110042019N0200001N1+02371+02011101271ADDAA199000091GF107991071071004501001001MA1999999091641MD1999999+0001REMSYN070AAXX  16184 83344 32498 71810 10237 20201 39164 40127 87700 333 58000;EQDQ01  00002PRCP99
0213833440999992002041700004-14950-040880FM-12+0905SBQV V0201401N000510042019N0010001N1+02011+01931101461ADDAA106002091AY161061AY251061GF108991081071004501999999KA1240M+02771MA1999999091851MD1999999+0071MW1031REMSYN100AAXX  17004 83344 21494 81401 10201 20193 39185 40146 70365 887// 333 10277 29088 55055 58007 60021;
0162833440999992002041719004-14950-040880FM-15+0905SBQV V0201601N007210240019N0112651N1+02601+01701999999ADDGA1021+006009999GA2071+024009999GF107991999999999999999999MA1101801999999MW1001REMMET052SBQV 171900Z 16014KT 9999 FEW020 BKN080 26/17 Q1018;EQDQ01+000000PRSWM2
0213833440999992002041800004-14950-040880FM-12+0905SBQV V0201401N003110042019N0100001N1+01971+01771101531ADDAA106000191AY121061AY221061GF108991081051004501999999KA1240M+02651MA1999999091891MD1999999+0041MW1521REMSYN100AAXX  18004 83344 21497 81406 10197 20177 39189 40153 75222 885// 333 10265 29084 55045 58004 69921;
0201833440999992002041812004-14950-040880FM-12+0905SBQV V0201401N002610042019N0100001N1+02151+01951101601ADDAA124001091AY121061AY221061GF108991081071004501999999KA1240N+01771MA1999999091971MD1999999-0091MW1021REMSYN088AAXX  18124 83344 21497 81405 10215 20195 39197 40160 70222 887// 333 20177 59009 60014;
0167833440999992002041818004-14950-040880FM-12+0905SBQV V0201401N003610042019N0200001N1+02471+02051101311ADDAA199000091GF106991061071004501001001MA1999999091711MD1999999+0011REMSYN070AAXX  18184 83344 32498 61407 10247 20205 39171 40131 86700 333 58001;EQDQ01  00002PRCP99
0213833440999992002041900004-14950-040880FM-12+0905SBQV V0200901N001010021019N0010001N1+02051+01971101321ADDAA106000791AY151061AY211061GF108991081071002501999999KA1240M+02531MA1999999091821MD1999999-0061MW1501REMSYN100AAXX  19004 83344 21394 80902 10205 20197 39182 40132 75051 887// 333 10253 29090 55053 59006 69901;
0167833440999992002041912004-14950-040880FM-12+0905SBQV V0200901N004110042019N0200001N1+02131+01781101461ADDAA199000021GF106991061071004501001001KA1240N+01731MA1999999091901MD1999999-0071REMSYN076AAXX  19124 83344 31498 60908 10213 20178 39190 40146 86700 333 20173 59007;
0182833440999992002041918004-14950-040880FM-12+0905SBQV V0200901N005710042019N0200001N1+02151+01911101341ADDAA106000191AY151061AY221061GF107991071071004501001001MA1999999091661MD1999999-0051MW1161REMSYN082AAXX  19184 83344 21498 70911 10215 20191 39166 40134 71652 87700 333 59005 69921;
0208833440999992002042000004-14950-040880FM-12+0905SBQV V0200901N001512200019N0040001N1+01871+01811101521ADDAA199000091GA1001+999999999GF100991001001999999001001KA1240M+02651MA1999999091861MD1999999+0041REMSYN082AAXX  20004 83344 32996 00903 10187 20181 39186 40152 333 10265 29090 55036 58004;EQDQ01  00002PRCP99
0201833440999992002042012004-14950-040880FM-12+0905SBQV V0200901N004112200019N0200001N1+02161+01741101581ADDAA124003091AY161061AY251061GF102991021011004501001001KA1240N+01711MA1999999091921MD1999999+0021MW1021REMSYN088AAXX  20124 83344 21498 20908 10216 20174 39192 40158 70265 82100 333 20171 58002 60034;
0167833440999992002042018004-14950-040880FM-12+0905SBQV V0201401N004610042019N0200001N1+02501+01771101121ADDAA199000091GF105991051021004501001001MA1999999091551MD1999999-0111REMSYN070AAXX  20184 83344 32498 51409 10250 20177 39155 40112 85200 333 59011;EQDQ01  00002PRCP99
0198833440999992002042100004-14950-040880FM-12+0905SBQV V0201401N002612200019N0040001N1+02001+01931101401ADDAA199000091GF102991021021004501001001KA1240M+02671MA1999999091791MD1999999-0071REMSYN088AAXX  21004 83344 32496 21405 10200 20193 39179 40140 82200 333 10267 29083 55112 59007;EQDQ01  00002PRCP99
0201833440999992002042112004-14950-040880FM-12+0905SBQV V0201401N003110042019N0100001N1+02061+01981101531ADDAA124000591AY151061AY221061GF108991081051004501999999KA1240N+01891MA1999999091891MD1999999-0031MW1521REMSYN088AAXX  21124 83344 21497 81406 10206 20198 39189 40153 75252 885// 333 20189 59003 69964;
0179833440999992002042200004-14950-040880FM-12+0905SBQV V0200901N002110042019N0100001N1+01931+01821101461ADDAA199000021GF108991081051004501999999KA1240M+02531MA1999999091811MD1999999+0021REMSYN088AAXX  22004 83344 32497 80904 10193 20182 39181 40146 885// 333 10253 29092 55044 58002;
0201833440999992002042212004-14950-040880FM-12+0905SBQV V0200901N003110042019N0100001N1+01931+01871101661ADDAA124000591AY151061AY221061GF108991081071004501999999KA1240N+01951MA1999999091971MD1999999-0081MW1031REMSYN088AAXX  22124 83344 21497 80906 10193 20187 39197 40166 70352 887// 333 20195 59008 69964;
0167833440999992002042218004-14950-040880FM-12+0905SBQV V0201401N005710042019N0200001N1+02531+01911101251ADDAA199000091GF105991051021004501001001MA1999999091641MD1999999-0011REMSYN070AAXX  22184 83344 32498 51411 10253 20191 39164 40125 85200 333 59001;EQDQ01  00002PRCP99
0213833440999992002042300004-14950-040880FM-12+0905SBQV V0200901N003110042019N0040001N1+01971+01891101461ADDAA106004191AY161061AY251061GF107991071071004501001001KA1240M+02571MA1999999091791MD1999999-0021MW1201REMSYN100AAXX  23004 83344 21496 70906 10197 20189 39179 40146 72065 87700 333 10257 29089 55060 59002 60041;
0201833440999992002042312004-14950-040880FM-12+0905SBQV V0200901N006210042019N0200001N1+02051+01801101521ADDAA124006191AY151061AY221061GF107991071051004501001001KA1240N+01791MA1999999091861MD1999999-0111MW1021REMSYN088AAXX  23124 83344 21498 70912 10205 20180 39186 40152 70252 87500 333 20179 59011 60064;
0167833440999992002042318004-14950-040880FM-12+0905SBQV V0200901N003612200019N0200001N1+02391+01821101201ADDAA199000091GF102991021001004501081001MA1999999091591MD1999999-0051REMSYN070AAXX  23184 83344 32498 20907 10239 20182 39159 40120 82080 333 59005;EQDQ01  00002PRCP99
0213833440999992002042400004-14950-040880FM-12+0905SBQV V0200901N003110042019N0040001N1+01851+01791101551ADDAA106002091AY161061AY221061GF107991071071004501001001KA1240M+02491MA1999999091871MD1999999+0081MW1011REMSYN100AAXX  24004 83344 21496 70906 10185 20179 39187 40155 70162 87700 333 10249 29088 55078 58008 60021;
0201833440999992002042412004-14950-040880FM-12+0905SBQV V0201401N003610042019N0200001N1+02151+01841101431ADDAA124004191AY161061AY221061GF106991061061004501001001KA1240N+01691MA1999999091781MD1999999-0081MW1021REMSYN088AAXX  24124 83344 21498 61407 10215 20184 39178 40143 70262 86600 333 20169 59008 60044;
0167833440999992002042418004-14950-040880FM-12+0905SBQV V0201401N004110042019N0200001N1+02301+02011101041ADDAA199000091GF105991051041004501001001MA1999999091411MD1999999-0181REMSYN070AAXX  24184 83344 32498 51408 10230 20201 39141 40104 85400 333 59018;EQDQ01  00002PRCP99
0213833440999992002042500004-14950-040880FM-12+0905SBQV V0201401N002110042019N0040001N1+02011+01901101291ADDAA106000791AY151061AY221061GF108991081071004501999999KA1240M+02741MA1999999091691MD1999999-0181MW1201REMSYN100AAXX  25004 83344 21496 81404 10201 20190 39169 40129 72052 887// 333 10274 29089 55082 59018 69901;
0201833440999992002042512004-14950-040880FM-12+0905SBQV V0200901N002110042019N0100001N1+02051+01941101541ADDAA124003091AY161061AY221061GF108991081051004501999999KA1240N+01771MA1999999091901MD1999999+0121MW1521REMSYN088AAXX  25124 83344 21497 80904 10205 20194 39190 40154 75262 885// 333 20177 58012 60034;
0148833440999992002042518004-14950-040880FM-12+0905SBQV V0201801N003610042019N0200001N1+02501+02091101121ADDAA199000021GF105991051021004501001001MA1999999091551MD1999999+0141REMSYN070AAXX  25184 83344 32498 51807 10250 20209 39155 40112 85200 333 58014;
0226833440999992002042600004-14950-040880FM-12+0905SBQV V0200901N001510042019N0020001N1+01951+01921101461ADDAA106003091AY121061AY261061GF108991081051004501999999KA1240M+02571MA1999999091811MD1999999+0311REMSYN100AAXX  26004 83344 21495 80903 10195 20192 39181 40146 77626 885// 333 10257 29092 55066 58031 60031;EQDQ01+000762PRSWM1
0201833440999992002042612004-14950-040880FM-12+0905SBQV V0200901N003110042019N0200001N1+02031+01801101631ADDAA124003091AY151061AY221061GF106991061061004501001001KA1240N+01671MA1999999091961MD1999999+0051MW1021REMSYN088AAXX  26124 83344 21498 60906 10203 20180 39196 40163 70252 86600 333 20167 58005 60034;
0167833440999992002042618004-14950-040880FM-12+0905SBQV V0200901N002111050019N0200001N1+02571+01781101261ADDAA199000091GF106991041021004501001091MA1999999091661MD1999999+0111REMSYN070AAXX  26184 83344 32498 60904 10257 20178 39166 40126 84209 333 58011;EQDQ01  00002PRCP99
0214833440999992002042700004-14950-040880FM-12+0905SBQV V0201401N003119999999N0040001N1+01971+01911101421ADDAA199000091GF108991001001999999001091KA1240M+02631MA1999999091771MD1999999-0041REMSYN088AAXX  27004 83344 32996 81406 10197 20191 39177 40142 88009 333 10263 29086 55074 59004;EQDQ01+000082SCOTLCQ02  00002PRCP99
0186833440999992002042712004-14950-040880FM-12+0905SBQV V0201401N003110042019N0200001N1+02101+01881101531ADDAA199000091GF108991081051004501999999KA1240N+01721MA1999999091891MD1999999-0071REMSYN076AAXX  27124 83344 32498 81406 10210 20188 39189 40153 885// 333 20172 59007;EQDQ01  00002PRCP99
0167833440999992002042718004-14950-040880FM-12+0905SBQV V0201401N002610042019N0200001N1+02471+01921101061ADDAA199000091GF107991071061004501001001MA1999999091551MD1999999-0111REMSYN070AAXX  27184 83344 32498 71405 10247 20192 39155 40106 87600 333 59011;EQDQ01  00002PRCP99
0198833440999992002042800004-14950-040880FM-12+0905SBQV V0200901N001510120019N0100001N1+01991+01881101301ADDAA199000091GF106991061001012501011001KA1240M+02511MA1999999091681MD1999999-0091REMSYN088AAXX  28004 83344 32697 60903 10199 20188 39168 40130 86010 333 10251 29087 55017 59009;EQDQ01  00002PRCP99
0186833440999992002042812004-14950-040880FM-12+0905SBQV V0200901N001012200019N0200001N1+02291+01681101381ADDAA199000091GF103991031001022501061001KA1240N+01691MA1999999091801MD1999999-0091REMSYN076AAXX  28124 83344 32898 30902 10229 20168 39180 40138 83060 333 20169 59009;EQDQ01  00002PRCP99
0167833440999992002042818004-14950-040880FM-12+0905SBQV V0200901N004612200019N0200001N1+02491+01851101211ADDAA199000091GF102991021011004501001001MA1999999091621MD1999999+0071REMSYN070AAXX  28184 83344 32498 20909 10249 20185 39162 40121 82100 333 58007;EQDQ01  00002PRCP99
0208833440999992002042900004-14950-040880FM-12+0905SBQV V0200901N001512200019N0100001N1+01851+01621101421ADDAA199000091GA1001+999999999GF100991001001999999001001KA1240M+02571MA1999999091791MD1999999+0111REMSYN082AAXX  29004 83344 32997 00903 10185 20162 39179 40142 333 10257 29078 55100 58011;EQDQ01  00002PRCP99
0186833440999992002042912004-14950-040880FM-12+0905SBQV V0201401N002612200019N0200001N1+02141+01741101641ADDAA199000091GF102991021011004501001001KA1240N+01221MA1999999091971MD1999999-0031REMSYN076AAXX  29124 83344 32498 21405 10214 20174 39197 40164 82100 333 20122 59003;EQDQ01  00002PRCP99
0167833440999992002042918004-14950-040880FM-12+0905SBQV V0200901N003112200019N0200001N1+02531+01741101541ADDAA199000091GF102991021011004501001001MA1999999091681MD1999999+0061REMSYN070AAXX  29184 83344 32498 20906 10253 20174 39168 40154 82100 333 58006;EQDQ01  00002PRCP99
0208833440999992002043000004-14950-040880FM-12+0905SBQV V0200901N002112200019N0100001N1+01731+01611101541ADDAA199000091GA1001+999999999GF100991001001999999001001KA1240M+02611MA1999999091861MD1999999+0071REMSYN082AAXX  30004 83344 32997 00904 10173 20161 39186 40154 333 10261 29081 55098 58007;EQDQ01  00002PRCP99
0186833440999992002043012004-14950-040880FM-12+0905SBQV V0200901N001510042019N0200001N1+02111+01881101781ADDAA199000091GF107991071051004501001001KA1240N+01581MA1999999092061MD1999999+0091REMSYN076AAXX  30124 83344 32498 70903 10211 20188 39206 40178 87500 333 20158 58009;EQDQ01  00002PRCP99
0167833440999992002043018004-14950-040880FM-12+0905SBQV V0200901N003612200019N0200001N1+02491+02091101261ADDAA199000091GF104991041041004501001001MA1999999091721MD1999999+0041REMSYN070AAXX  30184 83344 32498 40907 10249 20209 39172 40126 84400 333 58004;EQDQ01  00002PRCP99
0208833440999992002050100004-14950-040880FM-12+0905SBQV V0200901N000512200019N0100001N1+01711+01621101591ADDAA199000091GA1001+999999999GF100991001001999999001001KA1240M+02611MA1999999091891MD1999999+0031REMSYN082AAXX  01004 83344 32997 00901 10171 20162 39189 40159 333 10261 29087 55061 58003;EQDQ01  00002PRCP99
0186833440999992002050112004-14950-040880FM-12+0905SBQV V0200501N001512200019N0200001N1+02301+01921101641ADDAA199000091GF103991031011008001001001KA1240N+01341MA1999999091971MD1999999-0091REMSYN076AAXX  01124 83344 32598 30503 10230 20192 39197 40164 83100 333 20134 59009;EQDQ01  00002PRCP99
0167833440999992002050118004-14950-040880FM-12+0905SBQV V0201801N004112200019N0200001N1+02511+01801101281ADDAA199000091GF102991021011004501001001MA1999999091661MD1999999-0061REMSYN070AAXX  01184 83344 32498 21808 10251 20180 39166 40128 82100 333 59006;EQDQ01  00002PRCP99
0208833440999992002050200004-14950-040880FM-12+0905SBQV V0200901N001012200019N0100001N1+01711+01591101561ADDAA199000091GA1001+999999999GF100991001001999999001001KA1240M+02711MA1999999091781MD1999999-0111REMSYN082AAXX  02004 83344 32997 00902 10171 20159 39178 40156 333 10271 29083 55099 59011;EQDQ01  00002PRCP99
0186833440999992002050212004-14950-040880FM-12+0905SBQV V0201401N002612200019N0200001N1+02171+01741101561ADDAA199000091GF103991031011004501001001KA1240N+01541MA1999999091881MD1999999-0091REMSYN076AAXX  02124 83344 32498 31405 10217 20174 39188 40156 83100 333 20154 59009;EQDQ01  00002PRCP99
0167833440999992002050218004-14950-040880FM-12+0905SBQV V0201801N004612200019N0200001N1+02531+01861101061ADDAA199000091GF104991041011004501001001MA1999999091511MD1999999-0151REMSYN070AAXX  02184 83344 32498 41809 10253 20186 39151 40106 84100 333 59015;EQDQ01  00002PRCP99
0186833440999992002050312004-14950-040880FM-12+0905SBQV V0200901N002112200019N0200001N1+02091+01861101511ADDAA199000091GF104991041011004501001001KA1240N+01481MA1999999091841MD1999999-0041REMSYN076AAXX  03124 83344 32498 40904 10209 20186 39184 40151 84100 333 20148 59004;EQDQ01  00002PRCP99
0167833440999992002050318004-14950-040880FM-12+0905SBQV V0201401N002112200019N0200001N1+02631+01931100931ADDAA199000091GF104991011041004501091001MA1999999091391MD1999999-0121REMSYN070AAXX  03184 83344 32498 41404 10263 20193 39139 40093 81490 333 59012;EQDQ01  00002PRCP99
0208833440999992002050400004-14950-040880FM-12+0905SBQV V0203601N001012200019N0100001N1+01891+01751101221ADDAA199000091GA1001+999999999GF100991001001999999001001KA1240M+02891MA1999999091591MD1999999-0081REMSYN082AAXX  04004 83344 32997 03602 10189 20175 39159 40122 333 10289 29084 55069 59008;EQDQ01  00002PRCP99
0186833440999992002050412004-14950-040880FM-12+0905SBQV V0200501N003110075019N0200001N1+02291+01901101431ADDAA199000091GF106991061011008001001001KA1240N+01501MA1999999091821MD1999999-0021REMSYN076AAXX  04124 83344 32598 60506 10229 20190 39182 40143 86100 333 20150 59002;EQDQ01  00002PRCP99
0167833440999992002050418004-14950-040880FM-12+0905SBQV V0201401N005110075019N0200001N1+02771+02301101021ADDAA199000091GF105991051011008001001001MA1999999091531MD1999999+0141REMSYN070AAXX  04184 83344 32598 51410 10277 20230 39153 40102 85100 333 58014;EQDQ01  00002PRCP99
0208833440999992002050500004-14950-040880FM-12+0905SBQV V0200501N002112200019N0100001N1+02021+01811101301ADDAA199000091GA1001+999999999GF100991001001999999001001KA1240M+02911MA1999999091731MD1999999+0141REMSYN082AAXX  05004 83344 32997 00504 10202 20181 39173 40130 333 10291 29083 55094 58014;EQDQ01  00002PRCP99
0186833440999992002050512004-14950-040880FM-12+0905SBQV V0201401N002110042019N0200001N1+02191+01741101761ADDAA199000091GF105991051021004501001001KA1240N+01881MA1999999092121MD1999999+0301REMSYN076AAXX  05124 83344 32498 51404 10219 20174 39212 40176 85200 333 20188 58030;EQDQ01  00002PRCP99
0167833440999992002050518004-14950-040880FM-12+0905SBQV V0201401N004112200019N0200001N1+02531+01791101331ADDAA199000091GF103991031011004501001001MA1999999091771MD1999999+0241REMSYN070AAXX  05184 83344 32498 31408 10253 20179 39177 40133 83100 333 58024;EQDQ01  00002PRCP99
0224833440999992002050600004-14950-040880FM-12+0905SBQV V0200901N002612200019N0100001N1+01901+01751101691ADDAA199000091GA1001+999999999GF100991001001999999001001KA1240M+99999MA1999999092041MD1999999+0311REMSYN082AAXX  06004 83344 32997 00905 10190 20175 39204 40169 333 10183 29080 55091 58031;EQDQ01  00002PRCP99Q02 +01832ATMX  
0186833440999992002050612004-14950-040880FM-12+0905SBQV V0201401N004612200019N0200001N1+02131+01721101881ADDAA199000091GF102991021011004501001001KA1240N+01521MA1999999092191MD1999999+0071REMSYN076AAXX  06124 83344 32498 21409 10213 20172 39219 40188 82100 333 20152 58007;EQDQ01  00002PRCP99
0167833440999992002050618004-14950-040880FM-12+0905SBQV V0200901N005712200019N0200001N1+02491+01831101421ADDAA199000091GF102991021011004501001001MA1999999091811MD1999999+0041REMSYN070AAXX  06184 83344 32498 20911 10249 20183 39181 40142 82100 333 58004;EQDQ01  00002PRCP99
0208833440999992002050700004-14950-040880FM-12+0905SBQV V0200901N003112200019N0100001N1+01811+01691101661ADDAA199000091GA1001+999999999GF100991001001999999001001KA1240M+02611MA1999999091971MD1999999-0071REMSYN082AAXX  07004 83344 32997 00906 10181 20169 39197 40166 333 10261 29083 55096 59007;EQDQ01  00002PRCP99
0186833440999992002050712004-14950-040880FM-12+0905SBQV V0200901N003110120019N0200001N1+02071+01801101721ADDAA199000091GF106991061051012501001001KA1240N+01481MA1999999092031MD1999999-0161REMSYN076AAXX  07124 83344 32698 60906 10207 20180 39203 40172 86500 333 20148 59016;EQDQ01  00002PRCP99
0167833440999992002050718004-14950-040880FM-12+0905SBQV V0200901N005110075019N0200001N1+02571+01931101251ADDAA199000091GF107991071021008001001001MA1999999091681MD1999999-0131REMSYN070AAXX  07184 83344 32598 70910 10257 20193 39168 40125 87200 333 59013;EQDQ01  00002PRCP99
0198833440999992002050800004-14950-040880FM-12+0905SBQV V0200501N001512200019N0100001N1+01891+01781101601ADDAA199000091GF103991031021008001001001KA1240M+02611MA1999999091941MD1999999-0031REMSYN088AAXX  08004 83344 32597 30503 10189 20178 39194 40160 83200 333 10261 29085 55071 59003;EQDQ01  00002PRCP99
0186833440999992002050812004-14950-040880FM-12+0905SBQV V0201401N003110042019N0200001N1+02131+01891101691ADDAA199000091GF106991061061004501001001KA1240N+01561MA1999999092021MD1999999-0011REMSYN076AAXX  08124 83344 32498 61406 10213 20189 39202 40169 86600 333 20156 59001;EQDQ01  00002PRCP99
0167833440999992002050818004-14950-040880FM-12+0905SBQV V0201401N002610450019N0200001N1+02491+01781101241ADDAA199000091GF106991041041004501021001MA1999999091651MD1999999-0031REMSYN070AAXX  08184 83344 32498 61405 10249 20178 39165 40124 84420 333 59003;EQDQ01  00002PRCP99
0198833440999992002050900004-14950-040880FM-12+0905SBQV V0200901N002610042019N0040001N1+01911+01821101551ADDAA199000091GF106991061041004501001001KA1240M+02571MA1999999091891MD1999999-0051REMSYN088AAXX  09004 83344 32496 60905 10191 20182 39189 40155 86400 333 10257 29085 55044 59005;EQDQ01  00002PRCP99
0186833440999992002050912004-14950-040880FM-12+0905SBQV V0200501N003112200019N0200001N1+02231+01731101691ADDAA199000091GF104991021001012501081091KA1240N+01561MA1999999092041MD1999999+0021REMSYN076AAXX  09124 83344 32698 40506 10223 20173 39204 40169 82089 333 20156 58002;EQDQ01  00002PRCP99
0167833440999992002050918004-14950-040880FM-12+0905SBQV V0201401N003112200019N0200001N1+02601+01841101271ADDAA199000091GF102991021021004501001001MA1999999091701MD1999999+0051REMSYN070AAXX  09184 83344 32498 21406 10260 20184 39170 40127 82200 333 58005;EQDQ01  00002PRCP99
0208833440999992002051000004-14950-040880FM-12+0905SBQV V0200901N001512200019N0100001N1+01911+01701101621ADDAA199000091GA1001+999999999GF100991001001999999001001KA1240M+02811MA1999999091971MD1999999+0081REMSYN082AAXX  10004 83344 32997 00903 10191 20170 39197 40162 333 10281 29078 55094 58008;EQDQ01  00002PRCP99
0186833440999992002051012004-14950-040880FM-12+0905SBQV V0200501N004110450019N0200001N1+02151+01781101831ADDAA199000091GF108991031041012501021999KA1240N+01521MA1999999092161MD1999999+0121REMSYN076AAXX  10124 83344 32698 80508 10215 20178 39216 40183 8342/ 333 20152 58012;EQDQ01  00002PRCP99
0167833440999992002051018004-14950-040880FM-12+0905SBQV V0200901N003110450019N0200001N1+02441+01811101501ADDAA199000091GF107991021011008001021041MA1999999091911MD1999999+0211REMSYN070AAXX  10184 83344 32598 70906 10244 20181 39191 40150 82124 333 58021;EQDQ01  00002PRCP99
0198833440999992002051100004-14950-040880FM-12+0905SBQV V0200901N001512200019N0100001N1+02441+01711101871ADDAA199000091GF103991031001022501021001KA1240M+02661MA1999999092181MD1999999+0211REMSYN088AAXX  11004 83344 32897 30903 10244 20171 39218 40187 83020 333 10266 29083 55043 58021;EQDQ01  00002PRCP99
0186833440999992002051112004-14950-040880FM-12+0905SBQV V0201801N003110042019N0100001N1+02091+01861101821ADDAA199000091GF107991071071004501001001KA1240N+01461MA1999999092261MD1999999+0101REMSYN076AAXX  11124 83344 32497 71806 10209 20186 39226 40182 87700 333 20146 58010;EQDQ01  00002PRCP99
0182833440999992002051118004-14950-040880FM-12+0905SBQV V0201401N002610450019N0100001N1+02201+02061101661ADDAA106000791AY151061AY221061GF108991041071004501021999MA1999999091971MD1999999+0061MW1021REMSYN082AAXX  11184 83344 21497 81405 10220 20206 39197 40166 70252 8472/ 333 58006 69901;
0213833440999992002051200004-14950-040880FM-12+0905SBQV V0201401N002610021019N0010001N1+01871+01841101871ADDAA106000891AY151061AY221061GF108991081071002501999999KA1240M+02351MA1999999092161MD1999999-0021MW1201REMSYN100AAXX  12004 83344 21394 81405 10187 20184 39216 40187 72052 887// 333 10235 29094 55022 59002 69981;
0201833440999992002051212004-14950-040880FM-12+0905SBQV V0200901N003110042019N0100001N1+02051+01941101951ADDAA124001091AY161061AY221061GF108991081051004501999999KA1240N+01701MA1999999092241MD1999999-0021MW1511REMSYN088AAXX  12124 83344 21497 80906 10205 20194 39224 40195 75162 885// 333 20170 59002 60014;
0213833440999992002051300004-14950-040880FM-12+0905SBQV V0200501N002610042019N0040001N1+01891+01861101801ADDAA106002091AY161061AY221061GF108991081051004501999999KA1240M+02371MA1999999092101MD1999999-0061MW1521REMSYN100AAXX  13004 83344 21496 80505 10189 20186 39210 40180 75262 885// 333 10237 29095 55032 59006 60021;
0201833440999992002051312004-14950-040880FM-12+0905SBQV V0201401N003610042019N0040001N1+02041+01921101861ADDAA124004191AY161061AY251061GF108991081071004501999999KA1240N+01691MA1999999092151MD1999999-0091MW1501REMSYN088AAXX  13124 83344 21496 81407 10204 20192 39215 40186 75065 887// 333 20169 59009 60044;
0182833440999992002051318004-14950-040880FM-12+0905SBQV V0201401N003110042019N0200001N1+02091+02001101561ADDAA106003091AY161061AY251061GF108991051071004501021001MA1999999091901MD1999999-0021MW1201REMSYN082AAXX  13184 83344 21498 81406 10209 20200 39190 40156 72065 85720 333 59002 60031;
0213833440999992002051400004-14950-040880FM-12+0905SBQV V0201401N003610042019N0100001N1+01841+01761101801ADDAA106000191AY151061AY221061GF105991051071004501001001KA1240M+02381MA1999999092101MD1999999+0001MW1021REMSYN100AAXX  14004 83344 21497 51407 10184 20176 39210 40180 70252 85700 333 10238 29095 55045 58000 69921;
0201833440999992002051412004-14950-040880FM-12+0905SBQV V0201401N004610042019N0200001N1+01971+01791101851ADDAA124004191AY161061AY251061GF106991061041004501001001KA1240N+01641MA1999999092121MD1999999-0031MW1021REMSYN088AAXX  14124 83344 21498 61409 10197 20179 39212 40185 70265 86400 333 20164 59003 60044;
0167833440999992002051418004-14950-040880FM-12+0905SBQV V0201401N003110450019N0200001N1+02231+01901101531ADDAA199000091GF106991041041004501081001MA1999999091851MD1999999-0051REMSYN070AAXX  14184 83344 32498 61406 10223 20190 39185 40153 84480 333 59005;EQDQ01  00002PRCP99
0137833440999992002051500004-14950-040880FM-12+0905SBQV V0201401N001519999999N0040001N1+01791+01731999999ADDGF105991999999002501999999REMSYN099AAXX  15004 83344 21396 51403 10179 20173 3927 40180 70265 85500 333 10241 29091 55076 58003 60011;
0201833440999992002051512004-14950-040880FM-12+0905SBQV V0200901N004110450019N0200001N1+02071+01841101891ADDAA124002091AY151061AY221061GF105991021041004501081001KA1240N+01651MA1999999092181MD1999999+0061MW1011REMSYN088AAXX  15124 83344 21498 50908 10207 20184 39218 40189 70152 82480 333 20165 58006 60024;
0182833440999992002051518004-14950-040880FM-12+0905SBQV V0201801N001510042019N0100001N1+02111+02031101571ADDAA106002091AY161061AY221061GF107991071071004501001001MA1999999091871MD1999999+0021MW1011REMSYN082AAXX  15184 83344 21497 71803 10211 20203 39187 40157 70162 87700 333 58002 60021;
0198833440999992002051600004-14950-040880FM-12+0905SBQV V0200901N001012200019N0100001N1+01831+01771101681ADDAA199000091GF104991041001012501031001KA1240M+02311MA1999999091991MD1999999-0081REMSYN088AAXX  16004 83344 32697 40902 10183 20177 39199 40168 84030 333 10231 29094 55034 59008;EQDQ01  00002PRCP99
0173833440999992002051612004-14950-040880FM-12+0905SBQV V0200501N002110075019N0200001N1+02171+01881101581ADDAA124002091GF106991061011008001001001KA1240N+01361MA1999999091921MD1999999-0201REMSYN082AAXX  16124 83344 22598 60504 10217 20188 39192 40158 86100 333 20136 59020 60024;
0167833440999992002051618004-14950-040880FM-12+0905SBQV V0200901N002610075019N0200001N1+02571+02041101221ADDAA199000091GF106991061021008001001001MA1999999091591MD1999999-0281REMSYN070AAXX  16184 83344 32598 60905 10257 20204 39159 40122 86200 333 59028;EQDQ01  00002PRCP99
0208833440999992002051700004-14950-040880FM-12+0905SBQV V0200901N000512200019N0010001N1+01821+01761101321ADDAA199000091GA1001+999999999GF100991001001999999001001KA1240M+02651MA1999999091721MD1999999+0271REMSYN082AAXX  17004 83344 32994 00901 10182 20176 39172 40132 333 10265 29087 55080 58027;EQDQ01  00002PRCP99
0186833440999992002051712004-14950-040880FM-12+0905SBQV V0203601N001012200019N0200001N1+02231+01901101411ADDAA199000091GF103991021011004501031001KA1240N+01481MA1999999091761MD1999999-0161REMSYN076AAXX  17124 83344 32498 33602 10223 20190 39176 40141 82130 333 20148 59016;EQDQ01  00002PRCP99
0167833440999992002051718004-14950-040880FM-12+0905SBQV V0201801N002612200019N0200001N1+02771+01801100921ADDAA199000091GF103991031011004501001001MA1999999091381MD1999999-0211REMSYN070AAXX  17184 83344 32498 31805 10277 20180 39138 40092 83100 333 59021;EQDQ01  00002PRCP99
0208833440999992002051800004-14950-040880FM-12+0905SBQV V0200501N001512200019N0100001N1+01911+01731101201ADDAA199000091GA1001+999999999GF100991001001999999001001KA1240M+02811MA1999999091591MD1999999-0131REMSYN082AAXX  18004 83344 32497 00503 10191 20173 39159 40120 333 10281 29080 55100 59013;EQDQ01  00002PRCP99
0186833440999992002051812004-14950-040880FM-12+0905SBQV V0200501N003110075019N0200001N1+02161+01881101391ADDAA199000091GF106991061011008001001001KA1240N+01521MA1999999091761MD1999999+0001REMSYN076AAXX  18124 83344 32598 60506 10216 20188 39176 40139 86100 333 20152 58000;EQDQ01  00002PRCP99
0167833440999992002051818004-14950-040880FM-12+0905SBQV V0201401N003112200019N0200001N1+02391+01821101121ADDAA199000091GF102991021021004501001001MA1999999091501MD1999999+0121REMSYN070AAXX  18184 83344 32498 21406 10239 20182 39150 40112 82200 333 58012;EQDQ01  00002PRCP99
0186833440999992002051912004-14950-040880FM-12+0905SBQV V0200501N003110075019N0200001N1+02041+01811101631ADDAA199000091GF107991071051008001001001KA1240N+01501MA1999999091951MD1999999+0191REMSYN076AAXX  19124 83344 32598 70506 10204 20181 39195 40163 87500 333 20150 58019;EQDQ01  00002PRCP99
0167833440999992002051918004-14950-040880FM-12+0905SBQV V0200901N001512200019N0200001N1+02651+01901101171ADDAA199000091GF105991031011008001001011MA1999999091581MD1999999+0081REMSYN070AAXX  19184 83344 32598 50903 10265 20190 39158 40117 83101 333 58008;EQDQ01  00002PRCP99
0186833440999992002052012004-14950-040880FM-12+0905SBQV V0200501N003111050019N0200001N1+02191+01921101561ADDAA199000091GF106991021011004501001091KA1240N+01691MA1999999091901MD1999999-0051REMSYN076AAXX  20124 83344 32498 60506 10219 20192 39190 40156 82109 333 20169 59005;EQDQ01  00002PRCP99
0167833440999992002052018004-14950-040880FM-12+0905SBQV V0201401N004110450019N0200001N1+02581+02041101181ADDAA199000091GF106991021011004501031091MA1999999091621MD1999999+0041REMSYN070AAXX  20184 83344 32498 61408 10258 20204 39162 40118 82139 333 58004;EQDQ01  00002PRCP99
0208833440999992002052100004-14950-040880FM-12+0905SBQV V0201401N000512200019N0100001N1+01751+01691101381ADDAA199000091GA1001+999999999GF100991001001999999001001KA1240M+02551MA1999999091721MD1999999-0081REMSYN082AAXX  21004 83344 32997 01401 10175 20169 39172 40138 333 10255 29087 55091 59008;EQDQ01  00002PRCP99
0186833440999992002052112004-14950-040880FM-12+0905SBQV V0203601N002111050019N0200001N1+02151+01841101531ADDAA199000091GF105991011011004501081061KA1240N+01541MA1999999091851MD1999999-0051REMSYN076AAXX  21124 83344 32498 53604 10215 20184 39185 40153 81186 333 20154 59005;EQDQ01  00002PRCP99
0167833440999992002052118004-14950-040880FM-12+0905SBQV V0200901N001012200019N0200001N1+02651+01851101051ADDAA199000091GF104991021011004501091001MA1999999091501MD1999999-0221REMSYN070AAXX  21184 83344 32498 40902 10265 20185 39150 40105 82190 333 59022;EQDQ01  00002PRCP99
0208833440999992002052200004-14950-040880FM-12+0905SBQV V0200501N001012200019N0100001N1+01871+01781101351ADDAA199000091GA1001+999999999GF100991001001999999001001KA1240M+02791MA1999999091711MD1999999-0011REMSYN082AAXX  22004 83344 32997 00502 10187 20178 39171 40135 333 10279 29084 55096 59001;EQDQ01  00002PRCP99
0186833440999992002052212004-14950-040880FM-12+0905SBQV V0203601N003110450019N0200001N1+02281+01981101411ADDAA199000091GF106991041011008001081001KA1240N+01691MA1999999091781MD1999999-0071REMSYN076AAXX  22124 83344 32598 63606 10228 20198 39178 40141 84180 333 20169 59007;EQDQ01  00002PRCP99
0167833440999992002052218004-14950-040880FM-12+0905SBQV V0201401N003110450019N0200001N1+02541+02061101041ADDAA199000091GF108991031021008001021999MA1999999091471MD1999999-0031REMSYN070AAXX  22184 83344 32598 81406 10254 20206 39147 40104 8322/ 333 59003;EQDQ01  00002PRCP99
0198833440999992002052300004-14950-040880FM-12+0905SBQV V0200901N001510210019N0100001N1+01961+01811101281ADDAA199000091GF107991071001022501031001KA1240M+02751MA1999999091681MD1999999-0031REMSYN088AAXX  23004 83344 32897 70903 10196 20181 39168 40128 87030 333 10275 29085 55066 59003;EQDQ01  00002PRCP99
0186833440999992002052312004-14950-040880FM-12+0905SBQV V0201801N004110021019N0010001N1+01781+01721101701ADDAA199000091GF108991081071002501001001KA1240N+01661MA1999999091961MD1999999+0181REMSYN076AAXX  23124 83344 32394 81808 10178 20172 39196 40170 88700 333 20166 58018;EQDQ01  00002PRCP99
0182833440999992002052318004-14950-040880FM-12+0905SBQV V0201801N004110021019N0040001N1+01841+01781101451ADDAA106000591AY151061AY221061GF108991081071002501999999MA1999999091701MD1999999+0231MW1501REMSYN082AAXX  23184 83344 21396 81808 10184 20178 39170 40145 75052 887// 333 58023 69941;
0213833440999992002052400004-14950-040880FM-12+0905SBQV V0200901N001510042019N0020001N1+01691+01661101701ADDAA106000591AY151061AY221061GF108991081051004501999999KA1240M+02051MA1999999091931MD1999999+0251MW1031REMSYN100AAXX  24004 83344 21495 80903 10169 20166 39193 40170 70352 885// 333 10205 29097 55001 58025 69961;
0220833440999992002052412004-14950-040880FM-12+0905SBQV V0201801N003119999999N0100001N1+01731+01521101871ADDAA124002091AY151061AY221061GF107991999051004501001001KA1240N+01341MA1999999092061MD1999999+0101MW1011REMSYN088AAXX  24124 83344 21497 71806 10173 20152 39206 40187 70152 88500 333 20134 58010 60024;EQDQ01+000082SCOTLC
0167833440999992002052418004-14950-040880FM-12+0905SBQV V0201801N004110042019N0200001N1+01971+01591101351ADDAA199000091GF108991081051004501999999MA1999999091691MD1999999-0011REMSYN070AAXX  24184 83344 32498 81808 10197 20159 39169 40135 885// 333 59001;EQDQ01  00002PRCP99
0198833440999992002052500004-14950-040880FM-12+0905SBQV V0200901N001512200019N0100001N1+01431+01371101771ADDAA199000091GF102991021001012501081001KA1240M+02151MA1999999091911MD1999999-0021REMSYN088AAXX  25004 83344 32697 20903 10143 20137 39191 40177 82080 333 10215 29090 55025 59002;EQDQ01  00002PRCP99
0186833440999992002052512004-14950-040880FM-12+0905SBQV V0201801N005111050019N0200001N1+01771+01411101911ADDAA199000091GF105991021011008001031041KA1240N+00921MA1999999092051MD1999999-0011REMSYN076AAXX  25124 83344 32598 51810 10177 20141 39205 40191 82134 333 20092 59001;EQDQ01  00002PRCP99
0167833440999992002052518004-14950-040880FM-12+0905SBQV V0201401N005110450019N0200001N1+01991+01541101671ADDAA199000091GF106991031031008001021001MA1999999091801MD1999999+0111REMSYN070AAXX  25184 83344 32598 61410 10199 20154 39180 40167 83320 333 58011;EQDQ01  00002PRCP99
0208833440999992002052600004-14950-040880FM-12+0905SBQV V0200901N001512200019N0100001N1+01451+01301101871ADDAA199000091GA1001+999999999GF100991001001999999001001KA1240M+02171MA1999999092021MD1999999+0111REMSYN082AAXX  26004 83344 32997 00903 10145 20130 39202 40187 333 10217 29085 55083 58011;EQDQ01  00002PRCP99
0186833440999992002052612004-14950-040880FM-12+0905SBQV V0201801N003110021019N0100001N1+01551+01391102091ADDAA199000091GF108991081071002501999999KA1240N+00941MA1999999092201MD1999999+0151REMSYN076AAXX  26124 83344 32397 81806 10155 20139 39220 40209 887// 333 20094 58015;EQDQ01  00002PRCP99
0167833440999992002052618004-14950-040880FM-12+0905SBQV V0201801N004612200019N0200001N1+02151+01501101681ADDAA199000091GF104991021011004501081001MA1999999091831MD1999999-0031REMSYN070AAXX  26184 83344 32498 41809 10215 20150 39183 40168 82180 333 59003;EQDQ01  00002PRCP99
0198833440999992002052700004-14950-040880FM-12+0905SBQV V0200901N001012200019N0100001N1+01371+01271101951ADDAA199000091GF102991021011004501001001KA1240M+02231MA1999999092041MD1999999+0021REMSYN088AAXX  27004 83344 32497 20902 10137 20127 39204 40195 82100 333 10223 29086 55084 58002;EQDQ01  00002PRCP99
0186833440999992002052712004-14950-040880FM-12+0905SBQV V0201401N004112200019N0200001N1+01691+01481102031ADDAA199000091GF102991021011004501001001KA1240N+00861MA1999999092151MD1999999-0051REMSYN076AAXX  27124 83344 32498 21408 10169 20148 39215 40203 82100 333 20086 59005;EQDQ01  00002PRCP99
0177833440999992002052718004-14950-040880FM-12+0905SBQV V0201401N003112200019N0200001N1+02231+01671101481ADDAA199000091GA1001+999999999GF100991001001999999001001MA1999999091711MD1999999-0121REMSYN064AAXX  27184 83344 32498 01406 10223 20167 39171 40148 333 59012;EQDQ01  00002PRCP99
0208833440999992002052800004-14950-040880FM-12+0905SBQV V0200901N000512200019N0100001N1+01111+01051101851ADDAA199000091GA1001+999999999GF100991001001999999001001KA1240M+02271MA1999999091931MD1999999-0111REMSYN082AAXX  28004 83344 32997 00901 10111 20105 39193 40185 333 10227 29088 55097 59011;EQDQ01  00002PRCP99
0186833440999992002052812004-14950-040880FM-12+0905SBQV V0201801N004110120019N0200001N1+01761+01541101931ADDAA199000091GF107991071051012501001001KA1240N+00901MA1999999092021MD1999999-0131REMSYN076AAXX  28124 83344 32698 71808 10176 20154 39202 40193 87500 333 20090 59013;EQDQ01  00002PRCP99
0167833440999992002052818004-14950-040880FM-12+0905SBQV V0201401N003110120019N0200001N1+02231+01801101461ADDAA199000091GF105991051051012501001001MA1999999091671MD1999999-0041REMSYN070AAXX  28184 83344 32698 51406 10223 20180 39167 40146 85500 333 59004;EQDQ01  00002PRCP99
0208833440999992002052900004-14950-040880FM-12+0905SBQV V0200901N001512200019N0100001N1+01511+01421101591ADDAA199000091GA1001+999999999GF100991001001999999001001KA1240M+02291MA1999999091791MD1999999-0141REMSYN082AAXX  29004 83344 32997 00903 10151 20142 39179 40159 333 10229 29088 55088 59014;EQDQ01  00002PRCP99
0167833440999992002052918004-14950-040880FM-12+0905SBQV V0201401N003110042019N0200001N1+02181+01781101441ADDAA199000091GF107991071071004501001001MA1999999091711MD1999999+0041REMSYN070AAXX  29184 83344 32498 71406 10218 20178 39171 40144 87700 333 58004;EQDQ01  00002PRCP99
0198833440999992002053000004-14950-040880FM-12+0905SBQV V0200901N001519999999N0100001N1+01891+01751101631ADDAA199000091GF108991081001999999021999KA1240M+02351MA1999999091901MD1999999+0111REMSYN088AAXX  30004 83344 32997 80903 10189 20175 39190 40163 8802/ 333 10235 29088 55025 58011;EQDQ01  00002PRCP99
0186833440999992002053012004-14950-040880FM-12+0905SBQV V0201401N003110450019N0040001N1+01881+01731101821ADDAA199000091GF108991041071004501021999KA1240N+01651MA1999999092091MD1999999+0121REMSYN076AAXX  30124 83344 32496 81406 10188 20173 39209 40182 8472/ 333 20165 58012;EQDQ01  00002PRCP99
0167833440999992002053018004-14950-040880FM-12+0905SBQV V0201401N010010450019N0200001N1+02211+01921101461ADDAA199000091GF108991041071004501021999MA1999999091811MD1999999+0101REMSYN070AAXX  30180 83344 32498 81410 10221 20192 39181 40146 8472/ 333 58010;EQDQ01  00002PRCP99
0185833440999992002053100004-14950-040880FM-12+0905SBQV V0200901N001012200019N0040001N1+01711+01651101721ADDAA199000091GF102991001001999999001021KA1240M+02431KA2999N+00921MA1999999091991REMSYN076AAXX  31004 83344 32996 20902 10171 20165 39199 40172 80002 333 10243 29092;EQDQ01  00002PRCP99
0186833440999992002053112004-14950-040880FM-12+0905SBQV V0200501N002119999999N0200001N1+02031+01291101951ADDAA199000091GF107991001001999999001061KA1240N+01261MA1999999092191MD1999999-0101REMSYN076AAXX  31124 83344 32998 70504 10203 20129 39219 40195 80006 333 20126 59010;EQDQ01  00002PRCP99
0167833440999992002053118004-14950-040880FM-12+0905SBQV V0201401N005110075019N0200001N1+02451+01691101501ADDAA199000091GF105991051011008001001001MA1999999091831MD1999999+0021REMSYN070AAXX  31184 83344 32598 51410 10245 20169 39183 40150 85100 333 58002;EQDQ01  00002PRCP99
0186833440999992002060112004-14950-040880FM-12+0905SBQV V0200901N001511050019N0200001N1+02131+01601101901ADDAA199000091GF106991041001012501031091KA1240N+01221MA1999999092161MD1999999-0031REMSYN076AAXX  01124 83344 32698 60903 10213 20160 39216 40190 84039 333 20122 59003;EQDQ01  00002PRCP99
0183833440999992002060118004-14950-040880FM-12+0905SBQV V0201401N003110042019N0200001N1+02481+01401101481ADDAA199000091GF107991999051004501001001MA1999999091911MD1999999+0081REMSYN070AAXX  01184 83344 32498 71406 10248 20140 39191 40148 86500 333 58008;EQDQ01+000062SCOTLCQ02  00002PRCP99
0198833440999992002060200004-14950-040880FM-12+0905SBQV V0201401N002612200019N0100001N1+01811+01631101761ADDAA199000091GF103991031051004501001001KA1240M+02551MA1999999092081MD1999999+0081REMSYN088AAXX  02004 83344 32497 31405 10181 20163 39208 40176 83500 333 10255 29076 55056 58008;EQDQ01  00002PRCP99
0186833440999992002060212004-14950-040880FM-12+0905SBQV V0201401N005712200019N0200001N1+01781+01411102041ADDAA199000091GF104991041011004501001001KA1240N+01311MA1999999092251MD1999999+0091REMSYN076AAXX  02124 83344 32498 41411 10178 20141 39225 40204 84100 333 20131 58009;EQDQ01  00002PRCP99
0167833440999992002060218004-14950-040880FM-12+0905SBQV V0201401N004610450019N0200001N1+02311+01581101601ADDAA199000091GF106991011011004501031011MA1999999091941MD1999999+0031REMSYN070AAXX  02184 83344 32498 61409 10231 20158 39194 40160 81131 333 58003;EQDQ01  00002PRCP99
0198833440999992002060300004-14950-040880FM-12+0905SBQV V0201401N002612200019N0100001N1+01801+01651101871ADDAA199000091GF102991021021004501001001KA1240M+02431MA1999999092101MD1999999+0021REMSYN088AAXX  03004 83344 32497 21405 10180 20165 39210 40187 82200 333 10243 29081 55086 58002;EQDQ01  00002PRCP99
0201833440999992002060312004-14950-040880FM-12+0905SBQV V0201401N003110450019N0040001N1+01941+01751101841ADDAA124000591AY151061AY221061GF108991041071004501021999KA1240N+01611MA1999999092091MD1999999-0161MW1021REMSYN088AAXX  03124 83344 21496 81406 10194 20175 39209 40184 70252 8472/ 333 20161 59016 69964;
0167833440999992002060318004-14950-040880FM-12+0905SBQV V0200901N003610450019N0200001N1+02311+01871101481ADDAA199000091GF107991031031008001021001MA1999999091831MD1999999-0111REMSYN070AAXX  03184 83344 32598 70907 10231 20187 39183 40148 83320 333 59011;EQDQ01  00002PRCP99
0213833440999992002060400004-14950-040880FM-12+0905SBQV V0200901N002110042019N0100001N1+01801+01741101741ADDAA106000191AY151061AY221061GF108991081071004501999999KA1240M+02361MA1999999092001MD1999999-0101MW1021REMSYN100AAXX  04004 83344 21497 80904 10180 20174 39200 40174 70252 887// 333 10236 29089 55042 59010 69921;
0173833440999992002060412004-14950-040880FM-12+0905SBQV V0201401N002110021019N0100001N1+01911+01641101781ADDAA124000191GF108991081071002501999999KA1240N+01631MA1999999092041MD1999999-0051REMSYN082AAXX  04124 83344 22397 81404 10191 20164 39204 40178 887// 333 20163 59005 69924;
0167833440999992002060418004-14950-040880FM-12+0905SBQV V0201401N002110042019N0200001N1+02191+01941101451ADDAA199000091GF106991061071004501001001MA1999999091781MD1999999-0051REMSYN070AAXX  04184 83344 32498 61404 10219 20194 39178 40145 86700 333 59005;EQDQ01  00002PRCP99
0198833440999992002060500004-14950-040880FM-12+0905SBQV V0201401N004110021019N0040001N1+01871+01781101731ADDAA199000091GF108991081071002501999999KA1240M+02291MA1999999092021MD1999999+0021REMSYN088AAXX  05004 83344 32396 81408 10187 20178 39202 40173 887// 333 10229 29090 55002 58002;EQDQ01  00002PRCP99
0186833440999992002060512004-14950-040880FM-12+0905SBQV V0200901N003110450019N0200001N1+01951+01721101781ADDAA199000091GF108991041071004501021999KA1240N+01631MA1999999092051MD1999999+0011REMSYN076AAXX  05124 83344 32498 80906 10195 20172 39205 40178 8472/ 333 20163 58001;EQDQ01  00002PRCP99
0167833440999992002060518004-14950-040880FM-12+0905SBQV V0200901N003610450019N0200001N1+02411+01801101351ADDAA199000091GF106991041011008001081001MA1999999091751MD1999999-0031REMSYN070AAXX  05184 83344 32598 60907 10241 20180 39175 40135 84180 333 59003;EQDQ01  00002PRCP99
0208833440999992002060600004-14950-040880FM-12+0905SBQV V0201401N000512200019N0100001N1+01531+01471101681ADDAA199000091GA1001+999999999GF100991001001999999001001KA1240M+02571MA1999999091911MD1999999-0111REMSYN082AAXX  06004 83344 32997 01401 10153 20147 39191 40168 333 10257 29087 55062 59011;EQDQ01  00002PRCP99
0167833440999992002060618004-14950-040880FM-12+0905SBQV V0200901N003110075019N0200001N1+02451+01971101411ADDAA199000091GF105991051011008001001001MA1999999091761MD1999999+0011REMSYN070AAXX  06184 83344 32598 50906 10245 20197 39176 40141 85100 333 58001;EQDQ01  00002PRCP99
0208833440999992002060700004-14950-040880FM-12+0905SBQV V0200901N002612200019N0100001N1+01751+01661101701ADDAA199000091GA1001+999999999GF100991001001999999001001KA1240M+02531MA1999999091991MD1999999+0081REMSYN082AAXX  07004 83344 32997 00905 10175 20166 39199 40170 333 10253 29088 55094 58008;EQDQ01  00002PRCP99
0190833440999992002060712004-14950-040880FM-12+0905SBQV V0200901N004110021019N0100001N1+01971+01771101861ADDAY151061AY221061GF108991081071002501999999KA1240N+01561MA1999999092091MD1999999-0011MW1021REMSYN088AAXX  07124 83344 21397 80908 10197 20177 39209 40186 70252 887// 333 20156 59001 69984;
0167833440999992002060718004-14950-040880FM-12+0905SBQV V0201401N003610450019N0200001N1+02351+02001101481ADDAA199000091GF106991041021004501031001MA1999999091791MD1999999+0031REMSYN070AAXX  07184 83344 32498 61407 10235 20200 39179 40148 84230 333 58003;EQDQ01  00002PRCP99
0198833440999992002060800004-14950-040880FM-12+0905SBQV V0201401N000510042019N0040001N1+01731+01671101831ADDAA199000091GF105991051071004501001001KA1240M+02491MA1999999092061MD1999999+0071REMSYN088AAXX  08004 83344 32496 51401 10173 20167 39206 40183 85700 333 10249 29091 55059 58007;EQDQ01  00002PRCP99
0190833440999992002060812004-14950-040880FM-12+0905SBQV V0200901N004612200019N0200001N1+01981+01831101991ADDAY151061AY221061GF104991041041004501001001KA1240N+01441MA1999999092291MD1999999+0201MW1011REMSYN088AAXX  08124 83344 21498 40909 10198 20183 39229 40199 70152 84400 333 20144 58020 69964;
0167833440999992002060818004-14950-040880FM-12+0905SBQV V0201401N003112200019N0200001N1+02311+02011101661ADDAA199000091GF104991021011004501091001MA1999999091991MD1999999+0201REMSYN070AAXX  08184 83344 32498 41406 10231 20201 39199 40166 82190 333 58020;EQDQ01  00002PRCP99
0212833440999992002060900004-14950-040880FM-12+0905SBQV V0200901N003112200019N0040001N1+01711+01591101921ADDAY151061AY221061GA1001+999999999GF100991001001999999001001KA1240M+02391MA1999999092161MD1999999+0101MW1021REMSYN094AAXX  09004 83344 21996 00906 10171 20159 39216 40192 70252 333 10239 29090 55044 58010 69921;
0190833440999992002060912004-14950-040880FM-12+0905SBQV V0200901N002612200019N0200001N1+01831+01701102001ADDAY151061AY221061GF104991041041004501001001KA1240N+01211MA1999999092201MD1999999-0091MW1011REMSYN088AAXX  09124 83344 21498 40905 10183 20170 39220 40200 70152 84400 333 20121 59009 69964;
0167833440999992002060918004-14950-040880FM-12+0905SBQV V0200901N003110042019N0200001N1+02231+01941101601ADDAA199000091GF108991081071004501999999MA1999999091901MD1999999-0091REMSYN070AAXX  09184 83344 32498 80906 10223 20194 39190 40160 887// 333 59009;EQDQ01  00002PRCP99
0162833440999992002061012004-14950-040880FM-12+0905SBQV V0201401N003611050019N0200001N1+01871+01641101971ADDGF106991021011004501001021KA1240N+01181MA1999999092191MD1999999-0011REMSYN082AAXX  10124 83344 22498 61407 10187 20164 39219 40197 82102 333 20118 59001 69964;
0167833440999992002061018004-14950-040880FM-12+0905SBQV V0201801N005112200019N0200001N1+02251+01671101661ADDAA199000091GF102991021011004501001001MA1999999091931MD1999999+0031REMSYN070AAXX  10184 83344 32498 21810 10225 20167 39193 40166 82100 333 58003;EQDQ01  00002PRCP99
0194833440999992002061100004-14950-040880FM-12+0905SBQV V0200901N002112200019N0100001N1+01431+01341101861ADDAA199000091GA1001+999999999GF100991001001999999001001KA1240M+02311MA1999999092041REMSYN082AAXX  11004 83344 32997 00904 10143 20134 39204 40186 333 10231 29087 55097 50724;EQDQ01  00002PRCP99
0091833440999992002061110004-14950-040880FM-15+0905SBQV V0201201N00411220001CN0099001N1+01601+01501999999ADDMA1102101999999MW1001REMMET039SBQV 111000Z 12008KT CAVOK 16/15 Q1021;EQDQ01+000000PRSWM2
0091833440999992002061111004-14950-040880FM-15+0905SBQV V0201201N00361220001CN0099001N1+01801+01601999999ADDMA1102201999999MW1001REMMET039SBQV 111100Z 12007KT CAVOK 18/16 Q1022;EQDQ01+000000PRSWM2
0270833440999992002061112004-14950-040880SY-MT+0905SBQV V0200901N00261220001CN0200001N1+01951+01721101931ADDAY151061AY221061GF102991021011004501001001KA1240N+00981MA1102301092121MD1999999-0071MW1011REMSYN088AAXX  11124 83344 21498 20905 10195 20172 39212 40193 70152 82100 333 20098 59007 69944;MET039SBQV 111200Z 13009KT CAVOK 20/15 Q1023;EQDQ01+000000PRSWM2Q02    003PRSWM1
0140833440999992002061113004-14950-040880FM-15+0905SBQV V0201131N004612200019N0112651N1+02201+01501999999ADDGA1021+004509999GF102991999999999999999999MA1102301999999MW1001REMMET046SBQV 111300Z 113009KT 9999 FEW015 22/15 Q1023;EQDQ01+000000PRSWM2
0167833440999992002061118004-14950-040880FM-12+0905SBQV V0200901N002612200019N0200001N1+02291+01941101371ADDAA199000091GF101991011011004501001001MA1999999091831MD1999999-0101REMSYN070AAXX  11184 83344 32498 10905 10229 20194 39183 40137 81100 333 59010;EQDQ01  00002PRCP99
0208833440999992002061200004-14950-040880FM-12+0905SBQV V0200901N003612200019N0040001N1+01811+01721101721ADDAA199000091GA1001+999999999GF100991001001999999001001KA1240M+02391MA1999999092011MD1999999-0031REMSYN082AAXX  12004 83344 32996 00907 10181 20172 39201 40172 333 10239 29089 55095 59003;EQDQ01  00002PRCP99
0186833440999992002061212004-14950-040880FM-12+0905SBQV V0201401N003110450019N0200001N1+02071+01841101831ADDAA199000091GF105991021041004501091001KA1240N+01631MA1999999092131MD1999999+0011REMSYN076AAXX  12124 83344 32498 51406 10207 20184 39213 40183 82490 333 20163 58001;EQDQ01  00002PRCP99
0186833440999992002061312004-14950-040880FM-12+0905SBQV V0201401N003110042019N0100001N1+02051+01821101871ADDAA199000091GF107991071071004501001001KA1240N+01651MA1999999092181MD1999999+0051REMSYN076AAXX  13124 83344 32497 71406 10205 20182 39218 40187 87700 333 20165 58005;EQDQ01  00002PRCP99
0190833440999992002061412004-14950-040880FM-12+0905SBQV V0200901N003112200019N0200001N1+01951+01841102031ADDAY151061AY221061GF104991041041004501001001KA1240N+01651MA1999999092331MD1999999+0151MW1011REMSYN088AAXX  14124 83344 21498 40906 10195 20184 39233 40203 70152 84400 333 20165 58015 69964;
0167833440999992002061418004-14950-040880FM-12+0905SBQV V0200901N004610042019N0200001N1+02391+01751101731ADDAA199000091GF105991051041004501001001MA1999999092091MD1999999+0151REMSYN070AAXX  14184 83344 32498 50909 10239 20175 39209 40173 85400 333 58015;EQDQ01  00002PRCP99
0198833440999992002061500004-14950-040880FM-12+0905SBQV V0200901N003112200019N0100001N1+01871+01781101961ADDAA199000091GF103991031001012501081001KA1240M+02491MA1999999092221MD1999999+0081REMSYN088AAXX  15004 83344 32697 30906 10187 20178 39222 40196 83080 333 10249 29088 55049 58008;EQDQ01  00002PRCP99
0186833440999992002061512004-14950-040880FM-12+0905SBQV V0201401N003110075019N0200001N1+02061+01721102101ADDAA199000091GF106991061031008001001001KA1240N+01501MA1999999092361MD1999999+0031REMSYN076AAXX  15124 83344 32598 61406 10206 20172 39236 40210 86300 333 20150 58003;EQDQ01  00002PRCP99
0208833440999992002061600004-14950-040880FM-12+0905SBQV V0200901N002612200019N0100001N1+01631+01441102051ADDAA199000091GA1001+999999999GF100991001001999999001001KA1240M+02391MA1999999092281MD1999999+0061REMSYN082AAXX  16004 83344 32997 00905 10163 20144 39228 40205 333 10239 29081 55062 58006;EQDQ01  00002PRCP99
0190833440999992002061612004-14950-040880FM-12+0905SBQV V0201401N003110450019N0040001N1+02781+01701102141ADDAY161061AY251061GF108991041071004501021999KA1240N+01141MA1999999092311MD1999999-0051MW1211REMSYN088AAXX  16124 83344 21496 81406 10278 20170 39231 40214 72165 8472/ 333 20114 59005 60014;
0148833440999992002061618004-14950-040880FM-12+0905SBQV V0200901N005112200019N0200001N1+02211+01761101751ADDAA199000021GF104991041021004501001001MA1999999092041MD1999999-0101REMSYN070AAXX  16184 83344 32498 40910 10221 20176 39204 40175 84200 333 59010;
0179833440999992002061700004-14950-040880FM-12+0905SBQV V0200901N004112200019N0040001N1+01751+01631102021ADDAA199000021GF104991011011004501061001KA1240M+02351MA1999999092221MD1999999-0061REMSYN088AAXX  17004 83344 32496 40908 10175 20163 39222 40202 81160 333 10235 29089 55057 59006;
0171833440999992002061718004-14950-040880FM-12+0905SBQV V0201801N003610021019N0100001N1+01971+01911101771ADDAY151061AY221061GF108991081071002501999999MA1999999092011MD1999999-0031MW1501REMSYN082AAXX  17184 83344 21397 81807 10197 20191 39201 40177 75052 887// 333 59003 69901;
0202833440999992002061800004-14950-040880FM-12+0905SBQV V0201401N000512200019N0040001N1+01681+01661102011ADDAY161061AY251061GF104991041051004501001001KA1240M+02351MA1999999092191MD1999999-0031MW1021REMSYN100AAXX  18004 83344 21496 41401 10168 20166 39219 40201 70265 84500 333 10235 29098 55005 59003 60021;
0190833440999992002061812004-14950-040880FM-12+0905SBQV V0201401N003110042019N0020001N1+01731+01671102081ADDAY151061AY221061GF108991081071004501999999KA1240N+01021MA1999999092251MD1999999+0071MW1511REMSYN088AAXX  18124 83344 21495 81406 10173 20167 39225 40208 75152 887// 333 20102 58007 60034;
0202833440999992002061900004-14950-040880FM-12+0905SBQV V0200901N002610042019N0040001N1+01771+01741102041ADDAY151061AY251061GF108991081071004501999999KA1240M+02211MA1999999092241MD1999999+0051MW1511REMSYN100AAXX  19004 83344 21496 80905 10177 20174 39224 40204 75155 887// 333 10221 29096 55023 58005 60011;
0202833440999992002061912004-14950-040880FM-12+0905SBQV V0200901N002610042019N0040001N1+01771+01741102041ADDAY151061AY251061GF108991081071004501999999KA1240M+02211MA1999999092241MD1999999+0051MW1511REMSYN100AAXX  19124 83344 21496 80905 10177 20174 39224 40204 75155 887// 333 10221 29096 55023 58005 60011;
0202833440999992002062000004-14950-040880FM-12+0905SBQV V0200901N002610042019N0040001N1+01611+01551102171ADDAY151061AY221061GF105991051071004501001001KA1240M+02151MA1999999092341MD1999999+0101MW1031REMSYN100AAXX  20004 83344 21496 50905 10161 20155 39234 40217 70352 85700 333 10215 29096 55027 58010 69961;
0190833440999992002062012004-14950-040880FM-12+0905SBQV V0201401N002110042019N0100001N1+01611+01381102231ADDAY121061AY221061GF108991081051004501999999KA1240N+01081MA1999999092351MD1999999-0031MW1521REMSYN088AAXX  20124 83344 21497 81404 10161 20138 39235 40223 75222 885// 333 20108 59003 69924;
0171833440999992002062018004-14950-040880FM-12+0905SBQV V0200901N004110042019N0100001N1+01971+01791101881ADDAY151061AY221061GF108991081071004501999999MA1999999092091MD1999999-0021MW1521REMSYN082AAXX  20184 83344 21497 80908 10197 20179 39209 40188 75252 887// 333 59002 69961;
0167833440999992002062118004-14950-040880FM-12+0905SBQV V0201401N003110042019N0200001N1+02191+01801101781ADDAA199000091GF107991071071004501001001MA1999999092051MD1999999-0041REMSYN070AAXX  21184 83344 32498 71406 10219 20180 39205 40178 87700 333 59004;EQDQ01  00002PRCP99
0120833440999992002062122244-14950-040880FM-16+0905SBQV V0201501N004110015019N0112651N1+01801+01801999999ADDGA1071+001509999GF107991999999999999999999MA1102301999999MW1001REMMET045SBQV 212224Z 15008KT 9999 BKN005 18/18 Q1023;
0198833440999992002062200004-14950-040880FM-12+0905SBQV V0201401N001510042019N0100001N1+01791+01731101971ADDAA199000091GF108991081071004501999999KA1240M+02211MA1999999092211MD1999999-0031REMSYN088AAXX  22004 83344 32497 81403 10179 20173 39221 40197 887// 333 10221 29091 55030 59003;EQDQ01  00002PRCP99
0190833440999992002062212004-14950-040880FM-12+0905SBQV V0201401N003111050019N0200001N1+01821+01581102161ADDAY161061AY251061GF108991041041004501001091KA1240N+01471MA1999999092361MD1999999+0031MW1021REMSYN088AAXX  22124 83344 21498 81406 10182 20158 39236 40216 70265 84409 333 20147 58003 60024;
0167833440999992002062218004-14950-040880FM-12+0905SBQV V0201401N003110042019N0100001N1+02051+01701101881ADDAA199000091GF108991081071004501999999MA1999999092111MD1999999+0061REMSYN070AAXX  22184 83344 32497 81406 10205 20170 39211 40188 887// 333 58006;EQDQ01  00002PRCP99
0198833440999992002062300004-14950-040880FM-12+0905SBQV V0201401N002110042019N0040001N1+01691+01631102101ADDAA199000091GF108991081071004501999999KA1240M+02251MA1999999092291MD1999999+0081REMSYN088AAXX  23004 83344 32496 81404 10169 20163 39229 40210 887// 333 10225 29090 55050 58008;EQDQ01  00002PRCP99
0186833440999992002062312004-14950-040880FM-12+0905SBQV V0200901N006710042019N0100001N1+01831+01621102181ADDAA199000091GF106991061051004501001001KA1240N+01481MA1999999092361MD1999999+0001REMSYN076AAXX  23124 83344 32497 60913 10183 20162 39236 40218 86500 333 20148 58000;EQDQ01  00002PRCP99
0167833440999992002062318004-14950-040880FM-12+0905SBQV V0200901N004111050019N0200001N1+02271+01591101781ADDAA199000091GF106991011011004501091061MA1999999092081MD1999999-0031REMSYN070AAXX  23184 83344 32498 60908 10227 20159 39208 40178 81196 333 59003;EQDQ01  00002PRCP99
0198833440999992002062400004-14950-040880FM-12+0905SBQV V0200901N002111050019N0040001N1+01591+01531102221ADDAA199000091GF106991021001012501081021KA1240M+02391MA1999999092371MD1999999+0081REMSYN088AAXX  24004 83344 32696 60904 10159 20153 39237 40222 82082 333 10239 29087 55072 58008;EQDQ01  00002PRCP99
0186833440999992002062412004-14950-040880FM-12+0905SBQV V0201401N003110042019N0100001N1+01791+01581102311ADDAA199000091GF108991081071004501999999KA1240N+01201MA1999999092451MD1999999+0091REMSYN076AAXX  24124 83344 32497 81406 10179 20158 39245 40231 887// 333 20120 58009;EQDQ01  00002PRCP99
0171833440999992002062418004-14950-040880FM-12+0905SBQV V0201401N003110042019N0040001N1+01811+01721102111ADDAY151061AY251061GF108991081071004501999999MA1999999092221MD1999999+0141MW1201REMSYN082AAXX  24184 83344 21496 81406 10181 20172 39222 40211 72055 887// 333 58014 60011;
0202833440999992002062500004-14950-040880FM-12+0905SBQV V0200901N002110042019N0040001N1+01621+01561102251ADDAY151061AY221061GF108991081051004501999999KA1240M+01871MA1999999092401MD1999999+0031MW1521REMSYN100AAXX  25004 83344 21496 80904 10162 20156 39240 40225 75252 885// 333 10187 29094 55005 58003 69921;
0162833440999992002062512004-14950-040880FM-12+0905SBQV V0201401N003111050019N0200001N1+01741+01161102301ADDGF107991041041004501001091KA1240N+01611MA1999999092451MD1999999+0001REMSYN082AAXX  25124 83344 22498 71406 10174 20116 39245 40230 84409 333 20161 58000 60014;
0171833440999992002062518004-14950-040880FM-12+0905SBQV V0201401N002610042019N0200001N1+01891+01751102161ADDAY151061AY221061GF108991081071004501999999MA1999999092301MD1999999+0081MW1201REMSYN082AAXX  25184 83344 21498 81405 10189 20175 39230 40216 72052 887// 333 58008 69961;
0202833440999992002062600004-14950-040880FM-12+0905SBQV V0201401N001510042019N0020001N1+01711+01681102291ADDAY151061AY221061GF108991081071004501999999KA1240M+02071MA1999999092461MD1999999+0061MW1511REMSYN100AAXX  26004 83344 21495 81403 10171 20168 39246 40229 75152 887// 333 10207 29095 55008 58006 69921;
0190833440999992002062612004-14950-040880FM-12+0905SBQV V0200901N015410042019N0100001N1+01791+01761102311ADDAY161061AY221061GF108991081071004501999999KA1240N+01551MA1999999092481MD1999999+0031MW1521REMSYN088AAXX  26124 83344 21497 80930 10179 20176 39248 40231 75262 887// 333 20155 58003 60044;
0162833440999992002062710004-14950-040880FM-15+0905SBQV V0201301N006210900019N0112651N1+01601+01501999999ADDGA1041+001509999GA2081+090009999GF108991999999999999999999MA1102401999999MW1001REMMET052SBQV 271000Z 13012KT 9999 SCT005 OVC300 16/15 Q1024;EQDQ01+000000PRSWM2
0190833440999992002062712004-14950-040880FM-12+0905SBQV V0200901N003110042019N0100001N1+01691+01621102281ADDAY161061AY251061GF108991081071004501999999KA1240N+01481MA1999999092431MD1999999-0051MW1201REMSYN088AAXX  27124 83344 21497 80906 10169 20162 39243 40228 72065 887// 333 20148 59005 60074;
0162833440999992002062713004-14950-040880FM-15+0905SBQV V0201401N008212200019N0112651N1+01801+01601999999ADDGA1041+003909999GA2041+021009999GF104991999999999999999999MA1102611999999MW1001REMMET052SBQV 271300Z 14016KT 9999 SCT013 SCT070 18/16 Q1026;EQDQ01+000000PRSWM2
0139833440999992002062714004-14950-040880FM-15+0905SBQV V0201401N006210045019N0112651N1+01901+01601999999ADDGA1071+004509999GF107991999999999999999999MA1102611999999MW1001REMMET045SBQV 271400Z 14012KT 9999 BKN015 19/16 Q1026;EQDQ01+000000PRSWM2
0148833440999992002062718004-14950-040880FM-12+0905SBQV V0200901N003112200019N0200001N1+02161+01541101941ADDAA199000021GF106991041071004501001011MA1999999092181MD1999999-0091REMSYN070AAXX  27184 83344 32498 60906 10216 20154 39218 40194 84701 333 59009;
0221833440999992002062800004-14950-040880FM-12+0905SBQV V0200901N003612200019N0100001N1+01611+01491102131ADDAY151061AY221061GF103991999031008001041001KA1240M+02251MA1999999092271MD1999999-0141MW1021REMSYN100AAXX  28004 83344 21597 30907 10161 20149 39227 40213 70252 88340 333 10225 29087 55064 59014 69911;EQDQ01+000082SCOTLC
0162833440999992002062812004-14950-040880FM-12+0905SBQV V0201401N003110042019N0200001N1+01791+01541102221ADDGF106991061071004501001001KA1240N+01251MA1999999092351MD1999999-0081REMSYN082AAXX  28124 83344 22498 61406 10179 20154 39235 40222 86700 333 20125 59008 69914;
0167833440999992002062818004-14950-040880FM-12+0905SBQV V0201401N004110450019N0200001N1+01971+01661101901ADDAA199000091GF106991041041004501081001MA1999999092091MD1999999-0091REMSYN070AAXX  28184 83344 32498 61408 10197 20166 39209 40190 84480 333 59009;EQDQ01  00002PRCP99
0198833440999992002062900004-14950-040880FM-12+0905SBQV V0200901N003110021019N0040001N1+01691+01601102071ADDAA199000091GF106991061071002501001001KA1240M+02311MA1999999092261MD1999999-0011REMSYN088AAXX  29004 83344 32396 60906 10169 20160 39226 40207 86700 333 10231 29090 55048 59001;EQDQ01  00002PRCP99
0186833440999992002062912004-14950-040880FM-12+0905SBQV V0201801N004112200019N0200001N1+01971+01501102181ADDAA199000091GF102991021021004501001001KA1240N+01521MA1999999092401MD1999999+0051REMSYN076AAXX  29124 83344 32498 21808 10197 20150 39240 40218 82200 333 20152 58005;EQDQ01  00002PRCP99
0167833440999992002062918004-14950-040880FM-12+0905SBQV V0200901N003612200019N0200001N1+02191+01391101851ADDAA199000091GF102991021021004501001001MA1999999092121MD1999999+0031REMSYN070AAXX  29184 83344 32498 20907 10219 20139 39212 40185 82200 333 58003;EQDQ01  00002PRCP99
0198833440999992002063000004-14950-040880FM-12+0905SBQV V0200901N004110120019N0040001N1+01711+01211102151ADDAA199000091GF106991061001012501081001KA1240M+02331MA1999999092371MD1999999+0111REMSYN088AAXX  30004 83344 32696 60908 10171 20121 39237 40215 86080 333 10233 29070 55092 58011;EQDQ01  00002PRCP99
0167833440999992002063018004-14950-040880FM-12+0905SBQV V0201401N003612200019N0200001N1+02241+01501101891ADDAA199000091GF104991021021004501081001MA1999999092181MD1999999+0061REMSYN070AAXX  30184 83344 32498 41407 10224 20150 39218 40189 82280 333 58006;EQDQ01  00002PRCP99
0208833440999992002070100004-14950-040880FM-12+0905SBQV V0200901N002112200019N0040001N1+01531+01411102241ADDAA199000091GA1001+999999999GF100991001001999999001001KA1240M+02291MA1999999092391MD1999999+0021REMSYN082AAXX  01004 83344 32996 00904 10153 20141 39239 40224 333 10229 29081 55099 58002;EQDQ01  00002PRCP99
0186833440999992002070112004-14950-040880FM-12+0905SBQV V0201801N004112200019N0200001N1+01871+01491102401ADDAA199000091GF103991021011004501081001KA1240N+01391MA1999999092541MD1999999+0031REMSYN076AAXX  01124 83344 32498 31808 10187 20149 39254 40240 82180 333 20139 58003;EQDQ01  00002PRCP99
0167833440999992002070118004-14950-040880FM-12+0905SBQV V0201801N003110450019N0200001N1+02281+01511101951ADDAA199000091GF106991041021004501081001MA1999999092211MD1999999+0031REMSYN070AAXX  01184 83344 32498 61806 10228 20151 39221 40195 84280 333 58003;EQDQ01  00002PRCP99
0208833440999992002070200004-14950-040880FM-12+0905SBQV V0200901N001012200019N0040001N1+01611+01451102141ADDAA199000091GA1001+999999999GF100991001001999999001001KA1240M+02371MA1999999092331MD1999999-0061REMSYN082AAXX  02004 83344 32996 00902 10161 20145 39233 40214 333 10237 29081 55086 59006;EQDQ01  00002PRCP99
0213833440999992002070212004-14950-040880FM-12+0905SBQV V0200901N002119999999N0200001N1+01771+01581999999ADDAA199000091GF108991999999004501999999MA1999999999999MD1999999-0091REMSYN100AAXX  02124 83344 32498 80904 10177 20158 30230 39238 40223 40235 8472/ 85832 333 2//// 59009 60014;EQDQ01  00002PRCP99Q02 102303APOSP 
0190833440999992002070218004-14950-040880FM-12+0905SBQV V0201401N002110042019N0100001N1+01751+01691101951ADDAY151061AY221061GF108991081071004501999999MA1999999092142MD1999999-0071MW1521REMSYN082AAXX  02184 83344 21497 81404 10175 20169 39214 40195 75252 887// 333 59007 69941;EQDQ01+092143APOSP 
0202833440999992002070300004-14950-040880FM-12+0905SBQV V0200901N002112200019N0040001N1+01591+01501102081ADDAY161061AY221061GF104991041001012501061001KA1240M+02191MA1999999092251MD1999999-0081MW1011REMSYN100AAXX  03004 83344 21696 40904 10159 20150 39225 40208 70162 84060 333 10219 29094 55021 59008 60021;
0190833440999992002070312004-14950-040880FM-12+0905SBQV V0201401N003110042019N0040001N1+01711+01671102131ADDAY161061AY251061GF108991081071004501999999KA1240N+01401MA1999999092271MD1999999-0111MW1511REMSYN088AAXX  03124 83344 21496 81406 10171 20167 39227 40213 75165 887// 333 20140 59011 60074;
0171833440999992002070318004-14950-040880FM-12+0905SBQV V0201401N004110042019N0040001N1+01971+01721101821ADDAY161061AY251061GF108991081071004501999999MA1999999092051MD1999999-0091MW1531REMSYN082AAXX  03184 83344 21496 81408 10197 20172 39205 40182 75365 887// 333 59009 60011;
0154833440999992002070411004-14950-040880FM-15+0905SBQV V0201301N004112200019N0112651N1+01601+01601999999ADDGA1021+002109999GA2041+003009999GF104991999999999999999999MA1102401999999MW1001REMMET044SBQV 13008KT 9999 FEW007 SCT010 16/16 Q1024;EQDQ01+000000PRSWM2
0190833440999992002070412004-14950-040880FM-12+0905SBQV V0200901N003110042019N0200001N1+01781+01561102161ADDAY161061AY251061GF106991061071004501001001KA1240N+01461MA1999999092331MD1999999+0061MW1021REMSYN088AAXX  04124 83344 21498 60906 10178 20156 39233 40216 70265 86700 333 20146 58006 60074;
0131833440999992002070414004-14950-040880FM-15+0905SBQV V0201601N006210045019N0112651N1+01901+01701999999ADDGA1071+004509999GF107991999999999999999999MA1102511999999MW1001REMMET037SBQV 16012KT 9999 BKN015 19/17 Q1025;EQDQ01+000000PRSWM2
0190833440999992002070512004-14950-040880FM-12+0905SBQV V0200901N003110042019N0040001N1+01911+01591999999ADDAY161061AY251061GF108991081071004501999999KA1240N+01401MA1999999092351MD1999999+0021MW1501REMSYN088AAXX  05124 83344 21496 80906 10191 20159 39235 4//// 75065 887// 333 20140 58002 60034;
0171833440999992002070518004-14950-040880FM-12+0905SBQV V0200901N001510450019N0200001N1+02091+01621101721ADDAY151061AY221061GF106991041041004501091001MA1999999091961MD1999999-0181MW1011REMSYN082AAXX  05184 83344 21498 60903 10209 20162 39196 40172 70152 84490 333 59018 69921;
0202833440999992002070600004-14950-040880FM-12+0905SBQV V0201401N001510042019N0040001N1+01731+01701101901ADDAY151061AY221061GF108991081071004501999999KA1240M+02231MA1999999092131MD1999999-0121MW1521REMSYN100AAXX  06004 83344 21496 81403 10173 20170 39213 40190 75252 887// 333 10223 29089 55037 59012 69941;
0190833440999992002070612004-14950-040880FM-12+0905SBQV V0201401N003110120019N0200001N1+01761+01611102061ADDAY161061AY251061GF106991061051012501001001KA1240N+01401MA1999999092251MD1999999-0101MW1021REMSYN088AAXX  06124 83344 21698 61406 10176 20161 39225 40206 70265 86500 333 20140 59010 60024;
0167833440999992002070618004-14950-040880FM-12+0905SBQV V0201401N002610042019N0200001N1+02071+01701101631ADDAA199000091GF107991071071004501001001MA1999999091881MD1999999-0081REMSYN070AAXX  06184 83344 32498 71405 10207 20170 39188 40163 87700 333 59008;EQDQ01  00002PRCP99
0198833440999992002070700004-14950-040880FM-12+0905SBQV V0209999C000012200019N0040001N1+01711+01521101881ADDAA199000091GF102991001001999999001051KA1240M+02151MA1999999092091MD1999999-0041REMSYN088AAXX  07004 83344 32996 20000 10171 20152 39209 40188 80005 333 10215 29087 55034 59004;EQDQ01  00002PRCP99
0186833440999992002070712004-14950-040880FM-12+0905SBQV V0201401N003112200019N0200001N1+01881+01551101941ADDAA199000091GF104991021021004501021001KA1240N+01211MA1999999092161MD1999999-0091REMSYN076AAXX  07124 83344 32498 41406 10188 20155 39216 40194 82220 333 20121 59009;EQDQ01  00002PRCP99
0167833440999992002070718004-14950-040880FM-12+0905SBQV V0201801N003110120019N0200001N1+02231+01481101561ADDAA199000091GF106991061051012501001001MA1999999091861MD1999999-0021REMSYN070AAXX  07184 83344 32698 61806 10223 20148 39186 40156 86500 333 59002;EQDQ01  00002PRCP99
0208833440999992002070800004-14950-040880FM-12+0905SBQV V0200501N001512200019N0040001N1+01531+01411101841ADDAA199000091GA1001+999999999GF100991001001999999001001KA1240M+02331MA1999999092021MD1999999-0071REMSYN082AAXX  08004 83344 32996 00503 10153 20141 39202 40184 333 10233 29082 55077 59007;EQDQ01  00002PRCP99
0186833440999992002070812004-14950-040880FM-12+0905SBQV V0203601N004619999999N0200001N1+02031+01501101771ADDAA199000091GF106991001001999999001011KA1240N+01241MA1999999092011MD1999999-0151REMSYN076AAXX  08124 83344 32998 63609 10203 20150 39201 40177 80001 333 20124 59015;EQDQ01  00002PRCP99
0167833440999992002070818004-14950-040880FM-12+0905SBQV V0201801N000512200019N0200001N1+02671+01591101381ADDAA199000091GF106991041011008001001011MA1999999091751MD1999999-0011REMSYN070AAXX  08184 83344 32598 61801 10267 20159 39175 40138 84101 333 59001;EQDQ01  00002PRCP99
0208833440999992002070900004-14950-040880FM-12+0905SBQV V0200901N001012200019N0100001N1+01731+01501101671ADDAA199000091GA1001+999999999GF100991001001999999001001KA1240M+02711MA1999999091961MD1999999-0061REMSYN082AAXX  09004 83344 32997 00902 10173 20150 39196 40167 333 10271 29075 55086 59006;EQDQ01  00002PRCP99
0186833440999992002070912004-14950-040880FM-12+0905SBQV V0200901N001512200019N0200001N1+02211+01411101991ADDAA199000091GF102991021001012501081001KA1240N+01161MA1999999092271MD1999999+0261REMSYN076AAXX  09124 83344 32698 20903 10221 20141 39227 40199 82080 333 20116 58026;EQDQ01  00002PRCP99
0167833440999992002070918004-14950-040880FM-12+0905SBQV V0200901N004112200019N0200001N1+02341+01641101811ADDAA199000091GF102991021001012501081001MA1999999092011MD1999999+0261REMSYN070AAXX  09184 83344 32698 20908 10234 20164 39201 40181 82080 333 58026;EQDQ01  00002PRCP99
0208833440999992002071000004-14950-040880FM-12+0905SBQV V0201401N001512200019N0100001N1+01761+01521101961ADDAA199000091GA1001+999999999GF100991001001999999001001KA1240M+02471MA1999999092261MD1999999+0301REMSYN082AAXX  10004 83344 32997 01403 10176 20152 39226 40196 333 10247 29075 55103 58030;EQDQ01  00002PRCP99
0186833440999992002071012004-14950-040880FM-12+0905SBQV V0201401N004110120019N0200001N1+01891+01641102181ADDAA199000091GF106991061051012501001001KA1240N+01381MA1999999092381MD1999999+0111REMSYN076AAXX  10124 83344 32698 61408 10189 20164 39238 40218 86500 333 20138 58011;EQDQ01  00002PRCP99
0167833440999992002071018004-14950-040880FM-12+0905SBQV V0200901N004112200019N0200001N1+02231+01271101841ADDAA199000091GF106991031011008001001041MA1999999092091MD1999999+0081REMSYN070AAXX  10184 83344 32598 60908 10223 20127 39209 40184 83104 333 58008;EQDQ01  00002PRCP99
0208833440999992002071100004-14950-040880FM-12+0905SBQV V0200901N002612200019N0100001N1+01711+01551102041ADDAA199000091GA1001+999999999GF100991001001999999001001KA1240M+02341MA1999999092251MD1999999-0011REMSYN082AAXX  11004 83344 32597 00905 10171 20155 39225 40204 333 10234 29081 55080 59001;EQDQ01  00002PRCP99
0186833440999992002071112004-14950-040880FM-12+0905SBQV V0200901N003110042019N0100001N1+01831+01511102141ADDAA199000091GF108991081071004501999999KA1240N+01441MA1999999092331MD1999999-0051REMSYN076AAXX  11124 83344 32497 80906 10183 20151 39233 40214 887// 333 20144 59005;EQDQ01  00002PRCP99
0256833440999992002071118004-14950-040880SY-MT+0905SBQV V0200901N003610042019N0200001N1+02271+01471101711ADDAA199000091GA1021+006009999GF105991051021004501001001MA1102201092001MD1999999-0091MW1001REMSYN070AAXX  11184 83344 32498 50907 10227 20147 39200 40171 85200 333 59009;MET045SBQV 111800Z 12008KT 9999 FEW020 23/15 Q1022;EQDQ01+000000PRSWM2Q02  00002PRCP99
0208833440999992002071200004-14950-040880FM-12+0905SBQV V0200501N002112200019N0100001N1+01601+01541101921ADDAA199000091GA1001+999999999GF100991001001999999001001KA1240M+02331MA1999999092111MD1999999-0141REMSYN082AAXX  12004 83344 32997 00504 10160 20154 39211 40192 333 10233 29084 55066 59014;EQDQ01  00002PRCP99
0186833440999992002071212004-14950-040880FM-12+0905SBQV V0200901N003110042019N0200001N1+01831+01601102011ADDAA199000091GF107991071061004501001001KA1240N+01221MA1999999092191MD1999999-0141REMSYN076AAXX  12124 83344 32498 70906 10183 20160 39219 40201 87600 333 20122 59014;EQDQ01  00002PRCP99
0167833440999992002071218004-14950-040880FM-12+0905SBQV V0200901N002112200019N0200001N1+02421+01651101481ADDAA199000091GF103991031011008001001001MA1999999091791MD1999999-0211REMSYN070AAXX  12184 83344 32598 30904 10242 20165 39179 40148 83100 333 59021;EQDQ01  00002PRCP99
0269833440999992002071312004-14950-040880SY-MT+0905SBQV V0201801N003112200019N0200001N1+02151+01721101711ADDAA199000091GF104991001001999999001051KA1240N+01291MA1102101091971MD1999999-0221MW1001REMSYN076AAXX  13124 83344 32998 41806 10215 20172 39197 40171 84005 333 20129 59022;MET039SBQV 131200Z 36009KT CAVOK 21/16 Q1021;EQDQ01+000042SCOTLCQ02+000000PRSWM2Q03  00002PRCP99
0167833440999992002071318004-14950-040880FM-12+0905SBQV V0201401N002611050019N0200001N1+02751+01481101231ADDAA199000091GF106991021021004501001051MA1999999091621MD1999999-0171REMSYN070AAXX  13184 83344 32498 61405 10275 20148 39162 40123 82205 333 59017;EQDQ01  00002PRCP99
0208833440999992002071400004-14950-040880FM-12+0905SBQV V0200501N002612200019N0100001N1+01831+01561101521ADDAA199000091GA1001+999999999GF100991001001999999001001KA1240M+02791MA1999999091861MD1999999-0111REMSYN082AAXX  14004 83344 32997 00505 10183 20156 39186 40152 333 10279 29073 55102 59011;EQDQ01  00002PRCP99
0202833440999992002071412004-14950-040880FM-12+0905SBQV V0201801N001512200019N0200001N1+02161+01861101661ADDAA199000091GA1001+999999999GF100991001001999999001001KA1240N+01541MA1999999091991MD1999999+0021REMSYN076AAXX  14124 83344 32998 01803 10216 20186 39199 40166 80006 333 20154 58002;EQDQ01  00002PRCP99
0167833440999992002071418004-14950-040880FM-12+0905SBQV V0200901N004612200019N0200001N1+02451+01761101371ADDAA199000091GF106991021021008001001061MA1999999091751MD1999999+0131REMSYN070AAXX  14184 83344 32598 60909 10245 20176 39175 40137 82206 333 58013;EQDQ01  00002PRCP99
0198833440999992002071500004-14950-040880FM-12+0905SBQV V0201401N001510075019N0020001N1+01961+01831101721ADDAA199000091GF106991061051008001001001KA1240M+02611MA1999999092061MD1999999+0201REMSYN088AAXX  15004 83344 32595 61403 10196 20183 39206 40172 86500 333 10261 29083 55093 58020;EQDQ01  00002PRCP99
0186833440999992002071512004-14950-040880FM-12+0905SBQV V0200901N003110042019N0200001N1+02031+01721101871ADDAA199000091GF106991061071004501001001KA1240N+01771MA1999999092181MD1999999+0191REMSYN076AAXX  15124 83344 32498 60906 10203 20172 39218 40187 86700 333 20177 58019;EQDQ01  00002PRCP99
0167833440999992002071618004-14950-040880FM-12+0905SBQV V0201401N003611050019N0200001N1+02351+01621101681ADDAA199000091GF106991021041012501081061MA1999999091991MD1999999+0081REMSYN070AAXX  16184 83344 32698 61407 10235 20162 39199 40168 82486 333 58008;EQDQ01  00002PRCP99
0208833440999992002071700004-14950-040880FM-12+0905SBQV V0200901N001512200019N0100001N1+01751+01661101951ADDAA199000091GA1001+999999999GF100991001001999999001001KA1240M+02441MA1999999092191MD1999999+0061REMSYN082AAXX  17004 83344 32997 00903 10175 20166 39219 40195 333 10244 29085 55032 58006;EQDQ01  00002PRCP99
0186833440999992002071712004-14950-040880FM-12+0905SBQV V0200501N002610042019N0100001N1+01951+01611102011ADDAA199000091GF108991081071004501999999KA1240N+01491MA1999999092251MD1999999+0031REMSYN076AAXX  17124 83344 32497 80505 10195 20161 39225 40201 887// 333 20149 58003;EQDQ01  00002PRCP99
0167833440999992002071718004-14950-040880FM-12+0905SBQV V0201401N004110450019N0200001N1+02261+01821101601ADDAA199000091GF106991031031004501081011MA1999999091941MD1999999-0051REMSYN070AAXX  17184 83344 32498 61408 10226 20182 39194 40160 83381 333 59005;EQDQ01  00002PRCP99
0208833440999992002071800004-14950-040880FM-12+0905SBQV V0209999C000512200019N0100001N1+01651+01611101891ADDAA199000091GA1001+999999999GF100991001001999999001001KA1240M+02461MA1999999092121MD1999999-0071REMSYN082AAXX  18004 83344 32997 00001 10165 20161 39212 40189 333 10246 29088 55043 59007;EQDQ01  00002PRCP99
0186833440999992002071812004-14950-040880FM-12+0905SBQV V0201401N002110120019N0200001N1+01871+01531102101ADDAA199000091GF106991061051012501001001KA1240N+01441MA1999999092291MD1999999+0041REMSYN076AAXX  18124 83344 32698 61404 10187 20153 39229 40210 86500 333 20144 58004;EQDQ01  00002PRCP99
0167833440999992002071818004-14950-040880FM-12+0905SBQV V0201401N003612200019N0200001N1+02361+01641101661ADDAA199000091GF106991021011008001001041MA1999999091991MD1999999+0051REMSYN070AAXX  18184 83344 32598 61407 10236 20164 39199 40166 82104 333 58005;EQDQ01  00002PRCP99
0198833440999992002071900004-14950-040880FM-12+0905SBQV V0200901N003110042019N0100001N1+01731+01471102021ADDAA199000091GF108991081071004501999999KA1240M+02491MA1999999092241MD1999999+0121REMSYN088AAXX  19004 83344 32497 80906 10173 20147 39224 40202 887// 333 10249 29079 55099 58012;EQDQ01  00002PRCP99
0186833440999992002071912004-14950-040880FM-12+0905SBQV V0201401N003610042019N0100001N1+01681+01431102141ADDAA199000091GF108991081071004501999999KA1240N+01461MA1999999092311MD1999999+0021REMSYN076AAXX  19124 83344 32497 81407 10168 20143 39231 40214 887// 333 20146 58002;EQDQ01  00002PRCP99
0167833440999992002071918004-14950-040880FM-12+0905SBQV V0201401N003110450019N0200001N1+01991+01591101831ADDAA199000091GF106991041041004501021001MA1999999092051MD1999999+0061REMSYN070AAXX  19184 83344 32498 61406 10199 20159 39205 40183 84420 333 58006;EQDQ01  00002PRCP99
0186833440999992002072012004-14950-040880FM-12+0905SBQV V0200901N004610042019N0200001N1+01621+01371102241ADDAA199000091GF107991071071004501001001KA1240N+01361MA1999999092341MD1999999+0031REMSYN076AAXX  20124 83344 32498 70909 10162 20137 39234 40224 87700 333 20136 58003;EQDQ01  00002PRCP99
0167833440999992002072018004-14950-040880FM-12+0905SBQV V0201401N005110450019N0200001N1+02071+01471101791ADDAA199000091GF106991041041012501061001MA1999999092011MD1999999-0041REMSYN070AAXX  20184 83344 32698 61410 10207 20147 39201 40179 84460 333 59004;EQDQ01  00002PRCP99
0208833440999992002072100004-14950-040880FM-12+0905SBQV V0200901N001512200019N0100001N1+01541+01381101981ADDAA199000091GA1001+999999999GF100991001001999999001001KA1240M+02151MA1999999092121MD1999999-0041REMSYN082AAXX  21004 83344 32997 00903 10154 20138 39212 40198 333 10215 29085 55066 59004;EQDQ01  00002PRCP99
0186833440999992002072112004-14950-040880FM-12+0905SBQV V0201401N004610042019N0200001N1+01721+01451101981ADDAA199000091GF108991051071004501051999KA1240N+01351MA1999999092141MD1999999-0201REMSYN076AAXX  21124 83344 32498 81409 10172 20145 39214 40198 8575/ 333 20135 59020;EQDQ01  00002PRCP99
0167833440999992002072118004-14950-040880FM-12+0905SBQV V0201401N003110042019N0200001N1+01951+01571101681ADDAA199000091GF108991081051004501999999MA1999999091891MD1999999-0121REMSYN070AAXX  21184 83344 32498 81406 10195 20157 39189 40168 885// 333 59012;EQDQ01  00002PRCP99
0183833440999992002072200004-14950-040880FM-12+0905SBQV V0201401N003110021019N0010001N1+01651+01591101961ADDAY151061AY221061GF108991081071002501999999KA1240M+02011KA2999N+00891MA1999999092151MW1501REMSYN082AAXX  22004 83344 21394 81406 10165 20159 39215 40196 75052 887// 333 10201 29089;
0186833440999992002072312004-14950-040880FM-12+0905SBQV V0200501N002112200019N0200001N1+02051+01641101911ADDAA199000091GF104991021011004501081001KA1240N+01571MA1999999092171MD1999999-0031REMSYN076AAXX  23124 83344 32498 40504 10205 20164 39217 40191 82180 333 20157 59003;EQDQ01  00002PRCP99
0167833440999992002072318004-14950-040880FM-12+0905SBQV V0201401N004112200019N0200001N1+02481+01731101391ADDAA199000091GF104991021021004501081001MA1999999091811MD1999999-0071REMSYN070AAXX  23184 83344 32498 41408 10248 20173 39181 40139 82280 333 59007;EQDQ01  00002PRCP99
0198833440999992002072400004-14950-040880FM-12+0905SBQV V0200501N002610042019N0100001N1+01871+01691101771ADDAA199000091GF106991061051004501001001KA1240M+02571MA1999999092071MD1999999-0011REMSYN088AAXX  24004 83344 32497 60505 10187 20169 39207 40177 86500 333 10257 29080 55077 59001;EQDQ01  00002PRCP99
0214833440999992002072412004-14950-040880FM-12+0905SBQV V0201801N002112200019N0100001N1+01951+01661101931ADDAA199000091AY141061AY201061GF103991011011008001081001KA1240N+01201MA1999999092191MD1999999+0021MW1281REMSYN082AAXX  24124 83344 31597 31804 10195 20166 39219 40193 72840 81180 333 20120 58002;EQDQ01  00002PRCP99
0167833440999992002072418004-14950-040880FM-12+0905SBQV V0201401N005110120019N0200001N1+02251+01501101751ADDAA199000091GF106991061041012501001001MA1999999091991MD1999999+0181REMSYN070AAXX  24184 83344 32698 61410 10225 20150 39199 40175 86400 333 58018;EQDQ01  00002PRCP99
0198833440999992002072500004-14950-040880FM-12+0905SBQV V0200901N003110042019N0010001N1+01731+01611101981ADDAA199000091GF108991081071004501999999KA1240M+02391MA1999999092221MD1999999+0151REMSYN088AAXX  25004 83344 32494 80906 10173 20161 39222 40198 887// 333 10239 29083 55092 58015;EQDQ01  00002PRCP99
0186833440999992002072512004-14950-040880FM-12+0905SBQV V0201401N004110042019N0100001N1+01831+01511102131ADDAA199000091GF108991081071004501999999KA1240N+01341MA1999999092341MD1999999+0151REMSYN076AAXX  25124 83344 32497 81408 10183 20151 39234 40213 887// 333 20134 58015;EQDQ01  00002PRCP99
0167833440999992002072518004-14950-040880FM-12+0905SBQV V0200901N004610450019N0200001N1+02231+01481101851ADDAA199000091GF106991041041004501081001MA1999999092101MD1999999+0111REMSYN070AAXX  25184 83344 32498 60909 10223 20148 39210 40185 84480 333 58011;EQDQ01  00002PRCP99
0198833440999992002072600004-14950-040880FM-12+0905SBQV V0201401N003110042019N0100001N1+01751+01631102081ADDAA199000091GF105991051031004501001001KA1240M+02391MA1999999092291MD1999999+0071REMSYN088AAXX  26004 83344 32497 51406 10175 20163 39229 40208 85300 333 10239 29083 55026 58007;EQDQ01  00002PRCP99
0190833440999992002072612004-14950-040880FM-12+0905SBQV V0200901N005110120019N0200001N1+01791+01511102131ADDAY151061AY221061GF106991061051012501001001KA1240N+01361MA1999999092321MD1999999-0021MW1021REMSYN088AAXX  26124 83344 21698 60910 10179 20151 39232 40213 70252 86500 333 20136 59002 69964;
0152833440999992002072618004-14950-040880FM-12+0905SBQV V0201401N005119999999N0200001N1+02211+01251101741ADDAA199000091GF105991999999008001999999MA1999999092001REMSYN069AAXX  26184 83344 32598 51410 10221 20125 39200 40174 8320 333 59010;EQDQ01  00002PRCP99
0198833440999992002072700004-14950-040880FM-12+0905SBQV V0200901N003110075019N0100001N1+01771+01591101991ADDAA199000091GF108991081051008001999999KA1240M+02391MA1999999092211MD1999999-0081REMSYN088AAXX  27004 83344 32597 80906 10177 20159 39221 40199 885// 333 10239 29080 55079 59008;EQDQ01  00002PRCP99
0186833440999992002072712004-14950-040880FM-12+0905SBQV V0200901N002612200019N0200001N1+01931+01471102071ADDAA199000091GF102991021011004501001001KA1240N+01321MA1999999092301MD1999999-0021REMSYN076AAXX  27124 83344 32498 20905 10193 20147 39230 40207 82100 333 20132 59002;EQDQ01  00002PRCP99
0167833440999992002072718004-14950-040880FM-12+0905SBQV V0200501N002610042019N0200001N1+02491+01621101521ADDAA199000091GF105991051021004501001001MA1999999091951MD1999999-0051REMSYN070AAXX  27184 83344 32498 50505 10249 20162 39195 40152 85200 333 59005;EQDQ01  00002PRCP99
0208833440999992002072800004-14950-040880FM-12+0905SBQV V0209999C000012200019N0100001N1+01511+01421101991ADDAA199000091GA1001+999999999GF100991001001999999001001KA1240M+02531MA1999999092171MD1999999-0041REMSYN082AAXX  28004 83344 32997 00000 10151 20142 39217 40199 333 10253 29080 55077 59004;EQDQ01  00002PRCP99
0186833440999992002072812004-14950-040880FM-12+0905SBQV V0203601N005112200019N0200001N1+01961+01661102011ADDAA199000091GF103991031001022501081001KA1240N+01321MA1999999092211MD1999999-0091REMSYN076AAXX  28124 83344 32898 33610 10196 20166 39221 40201 83080 333 20132 59009;EQDQ01  00002PRCP99
0208833440999992002072900004-14950-040880FM-12+0905SBQV V0203601N001012200019N0100001N1+01841+01741101801ADDAA199000091GA1001+999999999GF100991001001999999001001KA1240M+02971MA1999999092071MD1999999-0101REMSYN082AAXX  29004 83344 32997 03602 10184 20174 39207 40180 333 10297 29078 55097 59010;EQDQ01  00002PRCP99
0186833440999992002072912004-14950-040880FM-12+0905SBQV V0201401N003110042019N0200001N1+02231+01651102061ADDAA199000091GF105991051021004501001001KA1240N+01521MA1999999092371MD1999999+0161REMSYN076AAXX  29124 83344 32498 51406 10223 20165 39237 40206 85200 333 20152 58016;EQDQ01  00002PRCP99
0167833440999992002072918004-14950-040880FM-12+0905SBQV V0201401N004112200019N0200001N1+02271+01691101881ADDAA199000091GF104991021011004501081001MA1999999092171MD1999999+0281REMSYN070AAXX  29184 83344 32498 41408 10227 20169 39217 40188 82180 333 58028;EQDQ01  00002PRCP99
0190833440999992002073012004-14950-040880FM-12+0905SBQV V0201401N005110021019N0040001N1+01691+01571102401ADDAY151061AY221061GF108991081071002501999999KA1240N+01561MA1999999092541MD1999999+0171MW1511REMSYN088AAXX  30124 83344 21396 81410 10169 20157 39254 40240 75152 887// 333 20156 58017 69944;
0171833440999992002073018004-14950-040880FM-12+0905SBQV V0200901N005110021019N0200001N1+02111+01511101921ADDAY151061AY221061GF107991071071002501001001MA1999999092211MD1999999+0041MW1021REMSYN082AAXX  30184 83344 21398 70910 10211 20151 39221 40192 70252 87700 333 58004 69911;
0179833440999992002073100004-14950-040880FM-12+0905SBQV V0200901N003110021019N0100001N1+01661+01501102111ADDAA199000021GF108991081071002501999999KA1240M+02121MA1999999092281MD1999999-0121REMSYN088AAXX  31004 83344 32397 80906 10166 20150 39228 40211 887// 333 10212 29086 55018 59012;
0190833440999992002073112004-14950-040880FM-12+0905SBQV V0201401N003110021019N0010001N1+01551+01491102221ADDAY151061AY221061GF108991081071002501999999KA1240N+01251MA1999999092341MD1999999-0201MW1041REMSYN088AAXX  31124 83344 21394 81406 10155 20149 39234 40222 70452 887// 333 20125 59020 69934;
0171833440999992002073118004-14950-040880FM-12+0905SBQV V0201801N004610021019N0040001N1+01881+01731101791ADDAY151061AY221061GF108991081071002501999999MA1999999091971MD1999999-0241MW1041REMSYN082AAXX  31184 83344 21396 81809 10188 20173 39197 40179 70452 887// 333 59024 69901;
0317833440999992002080100004-14950-040880FM-12+0905SBQV V0201401N001010021019N0002001N1+01751+01721101781ADDAA106000291AY151061AY221061GA1031+022509039GF108991081071002501999999KA1240M+01911MA1999999091961MD1999999-0321MW1041REMSYN188AAXX  01004 83344 21392 81402 10175 20172 39196 40178 70452 887// 333 10191 29096 55002 59032 69921 83398 21494 80000 10218 20203 30195 40201 76072 8572/ 333 10246 29091 55001 59021 60061;
0190833440999992002080112004-14950-040880FM-12+0905SBQV V0200501N002610075019N0200001N1+01961+01611101881ADDAY151061AY221061GF107991071051008001001001KA1240N+01481MA1999999092131MD1999999-0211MW1021REMSYN088AAXX  01124 83344 21598 70505 10196 20161 39213 40188 70252 87500 333 20148 59021 69944;
0167833440999992002080118004-14950-040880FM-12+0905SBQV V0200501N001510120019N0200001N1+02391+01561101431ADDAA199000091GF106991061021012501001001MA1999999091801MD1999999-0161REMSYN070AAXX  01184 83344 32698 60503 10239 20156 39180 40143 86200 333 59016;EQDQ01  00002PRCP99
0208833440999992002080200004-14950-040880FM-12+0905SBQV V0209999C000012200019N0100001N1+01571+01481101821ADDAA199000091GA1001+999999999GF100991001001999999001001KA1240M+02391MA1999999092041MD1999999+0081REMSYN082AAXX  02004 83344 32997 00000 10157 20148 39204 40182 333 10239 29083 55032 58008;EQDQ01  00002PRCP99
0186833440999992002080212004-14950-040880FM-12+0905SBQV V0203601N002112200019N0200001N1+02091+01621101961ADDAA199000091GF102991021011008001001001KA1240N+01241MA1999999092201MD1999999+0071REMSYN076AAXX  02124 83344 32598 23604 10209 20162 39220 40196 82100 333 20124 58007;EQDQ01  00002PRCP99
0167833440999992002080218004-14950-040880FM-12+0905SBQV V0201401N004112200019N0200001N1+02591+01521101601ADDAA199000091GF102991021011008001001001MA1999999091971MD1999999+0171REMSYN070AAXX  02184 83344 32598 21408 10259 20152 39197 40160 82100 333 58017;EQDQ01  00002PRCP99
0208833440999992002080300004-14950-040880FM-12+0905SBQV V0200501N001012200019N0100001N1+01691+01501101921ADDAA199000091GA1001+999999999GF100991001001999999001001KA1240M+02691MA1999999092101MD1999999+0141REMSYN082AAXX  03004 83344 32997 00502 10169 20150 39210 40192 333 10269 29076 55097 58014;EQDQ01  00002PRCP99
0186833440999992002080312004-14950-040880FM-12+0905SBQV V0200901N003112200019N0200001N1+01851+01431102111ADDAA199000091GF104991021011008001081001KA1240N+01101MA1999999092301MD1999999+0101REMSYN076AAXX  03124 83344 32598 40906 10185 20143 39230 40211 82180 333 20110 58010;EQDQ01  00002PRCP99
0167833440999992002080318004-14950-040880FM-12+0905SBQV V0200901N004112200019N0200001N1+02441+01481101621ADDAA199000091GF102991021011008001001001MA1999999091941MD1999999-0031REMSYN070AAXX  03184 83344 32598 20908 10244 20148 39194 40162 82100 333 59003;EQDQ01  00002PRCP99
0208833440999992002080400004-14950-040880FM-12+0905SBQV V0203601N002112200019N0100001N1+01561+01411101911ADDAA199000091GA1001+999999999GF100991001001999999001001KA1240M+02641MA1999999092101MD1999999-0081REMSYN082AAXX  04004 83344 32997 03604 10156 20141 39210 40191 333 10264 29078 55094 59008;EQDQ01  00002PRCP99
0196833440999992002080412004-14950-040880FM-12+0905SBQV V0200501N003112200019N0200001N1+02011+01351101991ADDAA199000091GA1001+999999999GF100991001001999999001001KA1240N+01201MA1999999092211MD1999999-0091REMSYN070AAXX  04124 83344 32998 00506 10201 20135 39221 40199 333 20120 59009;EQDQ01  00002PRCP99
0208833440999992002080500004-14950-040880FM-12+0905SBQV V0200501N000512200019N0100001N1+01511+01351101801ADDAA199000091GA1001+999999999GF100991001001999999001001KA1240M+02801MA1999999092021MD1999999-0081REMSYN082AAXX  05004 83344 32997 00501 10151 20135 39202 40180 333 10280 29075 55103 59008;EQDQ01  00002PRCP99
0196833440999992002080512004-14950-040880FM-12+0905SBQV V0200901N002112200019N0200001N1+02111+01511101851ADDAA199000091GA1001+999999999GF100991001001999999001001KA1240N+01101MA1999999092081MD1999999-0131REMSYN070AAXX  05124 83344 32998 00904 10211 20151 39208 40185 333 20110 59013;EQDQ01  00002PRCP99
0167833440999992002080518004-14950-040880FM-12+0905SBQV V0200901N004612200019N0200001N1+02611+01631101411ADDAA199000091GF102991021011004501001001MA1999999091761MD1999999-0011REMSYN070AAXX  05184 83344 32498 20909 10261 20163 39176 40141 82100 333 59001;EQDQ01  00002PRCP99
0208833440999992002080600004-14950-040880FM-12+0905SBQV V0200501N001012200019N0100001N1+01581+01451101721ADDAA199000091GA1001+999999999GF100991001001999999001001KA1240M+02731MA1999999091981MD1999999-0041REMSYN082AAXX  06004 83344 32997 00502 10158 20145 39198 40172 333 10273 29077 55098 59004;EQDQ01  00002PRCP99
0186833440999992002080612004-14950-040880FM-12+0905SBQV V0200901N004110042019N0200001N1+01921+01381101991ADDAA199000091GF106991061021004501001001KA1240N+01111MA1999999092191MD1999999+0111REMSYN076AAXX  06124 83344 32498 60908 10192 20138 39219 40199 86200 333 20111 58011;EQDQ01  00002PRCP99
0177833440999992002080618004-14950-040880FM-12+0905SBQV V0200901N004612200019N0200001N1+02471+01441101441ADDAA199000091GA1001+999999999GF100991001001999999001001MA1999999091791MD1999999+0031REMSYN064AAXX  06184 83344 32498 00909 10247 20144 39179 40144 333 58003;EQDQ01  00002PRCP99
0208833440999992002080700004-14950-040880FM-12+0905SBQV V0200501N001512200019N0100001N1+01471+01401101601ADDAA199000091GA1001+999999999GF100991001001999999001001KA1240M+02491MA1999999092331MD1999999+0351REMSYN082AAXX  07004 83344 32997 00503 10147 20140 39233 40160 333 10249 29079 55102 58035;EQDQ01  00002PRCP99
0186833440999992002080712004-14950-040880FM-12+0905SBQV V0200501N003112200019N0200001N1+02071+01541102071ADDAA199000091GF104991041021004501001001KA1240N+01181MA1999999092261MD1999999+0071REMSYN076AAXX  07124 83344 32498 40506 10207 20154 39226 40207 84200 333 20118 58007;EQDQ01  00002PRCP99
0167833440999992002080718004-14950-040880FM-12+0905SBQV V0200901N006212200019N0200001N1+02411+01581101541ADDAA199000091GF103991031021004501001001MA1999999092041MD1999999+0251REMSYN070AAXX  07184 83344 32498 30912 10241 20158 39204 40154 83200 333 58025;EQDQ01  00002PRCP99
0198833440999992002080800004-14950-040880FM-12+0905SBQV V0200901N001512200019N0100001N1+01771+01591102021ADDAA199000091GF102991021011999999001001KA1240M+02581MA1999999092271MD1999999-0061REMSYN088AAXX  08004 83344 32997 20903 10177 20159 39227 40202 82100 333 10258 29079 55099 59006;EQDQ01  00002PRCP99
0186833440999992002080812004-14950-040880FM-12+0905SBQV V0201401N003110042019N0200001N1+01891+01361102131ADDAA199000091GF106991061071004501001001KA1240N+01941MA1999999092341MD1999999+0081REMSYN076AAXX  08124 83344 32498 61406 10189 20136 39234 40213 86700 333 20194 58008;EQDQ01  00002PRCP99
0167833440999992002080818004-14950-040880FM-12+0905SBQV V0201401N005110075019N0200001N1+02301+01581101721ADDAA199000091GF106991061021008001001001MA1999999092031MD1999999-0011REMSYN070AAXX  08184 83344 32598 61410 10230 20158 39203 40172 86200 333 59001;EQDQ01  00002PRCP99
0208833440999992002080900004-14950-040880FM-12+0905SBQV V0209999C000012200019N0100001N1+01591+01401102031ADDAA199000091GA1001+999999999GF100991001001999999001001KA1240M+02391MA1999999092231MD1999999-0041REMSYN082AAXX  09004 83344 32997 00000 10159 20140 39223 40203 333 10239 29078 55088 59004;EQDQ01  00002PRCP99
0190833440999992002080912004-14950-040880FM-12+0905SBQV V0201401N001510042019N0100001N1+01711+01651102191ADDAY151061AY221061GF108991081071004501999999KA1240N+01101MA1999999092331MD1999999-0011MW1521REMSYN088AAXX  09124 83344 21497 81403 10171 20165 39233 40219 75252 887// 333 20110 59001 69964;
0148833440999992002080918004-14950-040880FM-12+0905SBQV V0200901N002610042019N0200001N1+02211+01581101741ADDAA199000021GF107991071051004501001001MA1999999092001MD1999999-0031REMSYN070AAXX  09184 83344 32498 70905 10221 20158 39200 40174 87500 333 59003;
0179833440999992002081000004-14950-040880FM-12+0905SBQV V0200901N001512200019N0040001N1+01671+01551102031ADDAA199000021GF104991041001012501061001KA1240M+02311MA1999999092211MD1999999+0021REMSYN088AAXX  10004 83344 32696 40903 10167 20155 39221 40203 84060 333 10231 29087 55016 58002;
0186833440999992002081012004-14950-040880FM-12+0905SBQV V0200901N003110021019N0200001N1+01931+01451102091ADDAA199000091GF106991061061002501001001KA1240N+01341MA1999999092301MD1999999-0031REMSYN076AAXX  10124 83344 32398 60906 10193 20145 39230 40209 86600 333 20134 59003;EQDQ01  00002PRCP99
0167833440999992002081018004-14950-040880FM-12+0905SBQV V0200901N004110120019N0200001N1+02411+01471101631ADDAA199000091GF105991051041012501001001MA1999999091981MD1999999-0021REMSYN070AAXX  10184 83344 32698 50908 10241 20147 39198 40163 85400 333 59002;EQDQ01  00002PRCP99
0198833440999992002081100004-14950-040880FM-12+0905SBQV V0201401N000512200019N0100001N1+01651+01561101961ADDAA199000091GF103991031041012501001001KA1240M+02491MA1999999092181MD1999999-0031REMSYN088AAXX  11004 83344 32697 31401 10165 20156 39218 40196 83400 333 10249 29080 55088 59003;EQDQ01  00002PRCP99
0186833440999992002081112004-14950-040880FM-12+0905SBQV V0200901N003110042019N0200001N1+02771+01501102181ADDAA199000091GF107991071051004501001001KA1240N+01261MA1999999092351MD1999999+0051REMSYN076AAXX  11124 83344 32498 70906 10277 20150 39235 40218 87500 333 20126 58005;EQDQ01  00002PRCP99
0167833440999992002081118004-14950-040880FM-12+0905SBQV V0200901N003112200019N0200001N1+02291+01461101831ADDAA199000091GF104991021011004501081001MA1999999092061MD1999999+0081REMSYN070AAXX  11184 83344 32498 40906 10229 20146 39206 40183 82180 333 58008;EQDQ01  00002PRCP99
0208833440999992002081200004-14950-040880FM-12+0905SBQV V0200901N001012200019N0040001N1+01551+01491102151ADDAA199000091GA1001+999999999GF100991001001999999001001KA1240M+02511MA1999999092281MD1999999+0101REMSYN082AAXX  12004 83344 32996 00902 10155 20149 39228 40215 333 10251 29085 55083 58010;EQDQ01  00002PRCP99
0214833440999992002081212004-14950-040880FM-12+0905SBQV V0201401N002610021019N0040001N1+01711+01521102251ADDAA199000091AY141061AY221061GF108991081071002501999999KA1240N+01181MA1999999092381MD1999999+0031MW1281REMSYN082AAXX  12124 83344 31396 81405 10171 20152 39238 40225 72842 887// 333 20118 58003;EQDQ01  00002PRCP99
0167833440999992002081218004-14950-040880FM-12+0905SBQV V0200901N003110021019N0200001N1+02221+01431101871ADDAA199000091GF108991081061002501999999MA1999999092101MD1999999+0041REMSYN070AAXX  12184 83344 32398 80906 10222 20143 39210 40187 886// 333 58004;EQDQ01  00002PRCP99
0198833440999992002081300004-14950-040880FM-12+0905SBQV V0200901N002112200019N0100001N1+01831+01581102021ADDAA199000091GF103991031041012501001001KA1240M+02311MA1999999092221MD1999999-0061REMSYN088AAXX  13004 83344 32697 30904 10183 20158 39222 40202 83400 333 10231 29081 55017 59006;EQDQ01  00002PRCP99
0186833440999992002081312004-14950-040880FM-12+0905SBQV V0200901N003110450019N0200001N1+02011+01481102071ADDAA199000091GF105991021011008001061001KA1240N+01261MA1999999092321MD1999999-0061REMSYN076AAXX  13124 83344 32598 50906 10201 20148 39232 40207 82160 333 20126 59006;EQDQ01  00002PRCP99
0167833440999992002081318004-14950-040880FM-12+0905SBQV V0200901N004610120019N0200001N1+02431+01591101611ADDAA199000091GF106991061041012501001001MA1999999091951MD1999999-0151REMSYN070AAXX  13184 83344 32698 60909 10243 20159 39195 40161 86400 333 59015;EQDQ01  00002PRCP99
0198833440999992002081400004-14950-040880FM-12+0905SBQV V0200901N002610042019N0100001N1+01851+01711101931ADDAA199000091GF108991081071004501999999KA1240M+02631MA1999999092181MD1999999-0041REMSYN088AAXX  14004 83344 32497 80905 10185 20171 39218 40193 887// 333 10263 29079 55084 59004;EQDQ01  00002PRCP99
0186833440999992002081412004-14950-040880FM-12+0905SBQV V0200901N003110120019N0200001N1+01971+01661102081ADDAA199000091GF108991081051012501999999KA1240N+01381MA1999999092331MD1999999+0011REMSYN076AAXX  14124 83344 32698 80906 10197 20166 39233 40208 885// 333 20138 58001;EQDQ01  00002PRCP99
0167833440999992002081418004-14950-040880FM-12+0905SBQV V0200901N001510042019N0200001N1+02331+01651101701ADDAA199000091GF106991061071004501001001MA1999999092031MD1999999+0081REMSYN070AAXX  14184 83344 32498 60903 10233 20165 39203 40170 86700 333 58008;EQDQ01  00002PRCP99
0214833440999992002081500004-14950-040880FM-12+0905SBQV V0200901N002119999999N0100001N1+01771+01681102021ADDAA199000091GF108991999081022501011999KA1240M+02421MA1999999092251MD1999999+0071REMSYN088AAXX  15004 83344 32897 80904 10177 20168 39225 40202 8081/ 333 10242 29085 55034 58007;EQDQ01+000002SCOTLCQ02  00002PRCP99
0186833440999992002081512004-14950-040880FM-12+0905SBQV V0200901N003112200019N0200001N1+02131+01391102101ADDAA199000091GF102991021001022501081001KA1240N+01001MA1999999092361MD1999999+0031REMSYN076AAXX  15124 83344 32898 20906 10213 20139 39236 40210 82080 333 20100 58003;EQDQ01  00002PRCP99
0167833440999992002081518004-14950-040880FM-12+0905SBQV V0201401N004112200019N0200001N1+02461+01551101761ADDAA199000091GF103991031011008001001001MA1999999092101MD1999999+0071REMSYN070AAXX  15184 83344 32598 31408 10246 20155 39210 40176 83100 333 58007;EQDQ01  00002PRCP99
0198833440999992002081600004-14950-040880FM-12+0905SBQV V0200901N002112200019N0100001N1+01771+01561102101ADDAA199000091GF102991021021004501001001KA1240M+02631MA1999999092361MD1999999+0111REMSYN088AAXX  16004 83344 32497 20904 10177 20156 39236 40210 82200 333 10263 29074 55096 58011;EQDQ01  00002PRCP99
0186833440999992002081612004-14950-040880FM-12+0905SBQV V0200901N005110450019N0200001N1+01911+01471102261ADDAA199000091GF108991041061002501021999KA1240N+01381MA1999999092471MD1999999+0111REMSYN076AAXX  16124 83344 32398 80910 10191 20147 39247 40226 8462/ 333 20138 58011;EQDQ01  00002PRCP99
0167833440999992002081618004-14950-040880FM-12+0905SBQV V0200901N005110450019N0200001N1+02401+01581101831ADDAA199000091GF106991041021008001081001MA1999999092161MD1999999+0061REMSYN070AAXX  16184 83344 32598 60910 10240 20158 39216 40183 84280 333 58006;EQDQ01  00002PRCP99
0202833440999992002081700004-14950-040880FM-12+0905SBQV V0200901N005110042019N0040001N1+01681+01621102221ADDAY151061AY221061GF108991081071004501999999KA1240M+02511MA1999999092421MD1999999+0061MW1021REMSYN100AAXX  17004 83344 21496 80910 10168 20162 39242 40222 70252 887// 333 10251 29082 55056 58006 69941;
0190833440999992002081712004-14950-040880FM-12+0905SBQV V0200901N005110042019N0200001N1+01771+01411102291ADDAY161061AY251061GF107991071071004501001001KA1240N+01281MA1999999092461MD1999999-0011MW1031REMSYN088AAXX  17124 83344 21498 70910 10177 20141 39246 40229 70365 87700 333 20128 59001 60014;
0171833440999992002081718004-14950-040880FM-12+0905SBQV V0201401N004610042019N0040001N1+01911+01731101991ADDAY151061AY221061GF108991081071004501999999MA1999999092191MD1999999+0031MW1201REMSYN082AAXX  17184 83344 21496 81409 10191 20173 39219 40199 72052 887// 333 58003 69911;
0202833440999992002081800004-14950-040880FM-12+0905SBQV V0200901N004110042019N0200001N1+01531+01441102181ADDAY151061AY221061GF108991081071004501999999KA1240M+02191MA1999999092321MD1999999-0101MW1021REMSYN100AAXX  18004 83344 21498 80908 10153 20144 39232 40218 70252 887// 333 10219 29090 55051 59010 60021;
0190833440999992002081812004-14950-040880FM-12+0905SBQV V0200901N005110042019N0010001N1+01681+01571102291ADDAY151061AY221061GF108991081071004501999999KA1240N+01221MA1999999092401MD1999999-0061MW1501REMSYN088AAXX  18124 83344 21494 80910 10168 20157 39240 40229 75052 887// 333 20122 59006 60024;
0148833440999992002081818004-14950-040880FM-12+0905SBQV V0201401N003610450019N0200001N1+02111+01551101861ADDAA199000021GF106991021021004501061001MA1999999092111MD1999999-0081REMSYN070AAXX  18184 83344 32498 61407 10211 20155 39211 40186 82260 333 59008;
0190833440999992002081912004-14950-040880FM-12+0905SBQV V0200901N004110042019N0100001N1+01711+01571102271ADDAY161061AY221061GF108991081071004501999999KA1240N+01201MA1999999092421MD1999999+0021MW1521REMSYN088AAXX  19124 83344 21497 80908 10171 20157 39242 40227 75262 887// 333 20120 58002 60024;
0171833440999992002081918004-14950-040880FM-12+0905SBQV V0200901N004112200019N0200001N1+02231+01381101881ADDAY151061AY211061GF104991041021004501001001MA1999999092151MD1999999+0041MW1021REMSYN082AAXX  19184 83344 21498 40908 10223 20138 39215 40188 70251 84200 333 58004 69921;
0179833440999992002082000004-14950-040880FM-12+0905SBQV V0200901N003612200019N0040001N1+01571+01451102251ADDAA199000021GF104991041081004501001001KA1240M+02291MA1999999092381MD1999999+0171REMSYN088AAXX  20004 83344 32496 40907 10157 20145 39238 40225 84800 333 10229 29083 55065 58017;
0190833440999992002082012004-14950-040880FM-12+0905SBQV V0200901N005710042019N0010001N1+01771+01651102241ADDAY151061AY221061GF108991081071004501999999KA1240N+01081MA1999999092371MD1999999-0051MW1511REMSYN088AAXX  20124 83344 21494 80911 10177 20165 39237 40224 75152 887// 333 20108 59005 60014;
0171833440999992002082018004-14950-040880FM-12+0905SBQV V0200901N005110042019N0200001N1+01891+01751101981ADDAY151061AY221061GF107991071071004501001001MA1999999092141MD1999999-0011MW1201REMSYN082AAXX  20184 83344 21498 70910 10189 20175 39214 40198 72052 87700 333 59001 60011;
0202833440999992002082100004-14950-040880FM-12+0905SBQV V0200901N004610042019N0010001N1+01591+01501102231ADDAY161061AY251061GF108991081071004501999999KA1240M+02171MA1999999092381MD1999999+0001MW1511REMSYN100AAXX  21004 83344 21494 80909 10159 20150 39238 40223 75165 887// 333 10217 29094 55023 58000 60011;
0171833440999992002082118004-14950-040880FM-12+0905SBQV V0200901N002110042019N0100001N1+01991+01851102001ADDAY151061AY221061GF107991071051004501001001MA1999999092181MD1999999+0041MW1011REMSYN082AAXX  21184 83344 21497 70904 10199 20185 39218 40200 70152 87500 333 58004 60021;
0202833440999992002082200004-14950-040880FM-12+0905SBQV V0200901N003610042019N0020001N1+01731+01641102221ADDAY161061AY221061GF108991081051004501999999KA1240M+02251MA1999999092401MD1999999+0021MW1521REMSYN100AAXX  22004 83344 21495 80907 10173 20164 39240 40222 75262 885// 333 10225 29093 55013 58002 60021;
0190833440999992002082212004-14950-040880FM-12+0905SBQV V0200901N005110021019N0200001N1+01891+01551102291ADDAY161061AY251061GF106991061061002501001001KA1240N+01141MA1999999092481MD1999999-0041MW1021REMSYN088AAXX  22124 83344 21398 60910 10189 20155 39248 40229 70265 86600 333 20114 59004 60054;
0171833440999992002082218004-14950-040880FM-12+0905SBQV V0201401N003110042019N0040001N1+02181+01741101861ADDAY151061AY221061GF108991081071004501999999MA1999999092111MD1999999-0071MW1501REMSYN082AAXX  22184 83344 21496 81406 10218 20174 39211 40186 75052 887// 333 59007 69921;
0202833440999992002082300004-14950-040880FM-12+0905SBQV V0200901N002610042019N0010001N1+01671+01611102141ADDAY151061AY221061GF108991081071004501999999KA1240M+02271MA1999999092281MD1999999-0121MW1501REMSYN100AAXX  23004 83344 21494 80905 10167 20161 39228 40214 75052 887// 333 10227 29088 55/// 59012 60021;
0190833440999992002082312004-14950-040880FM-12+0905SBQV V0200901N003610042019N0010001N1+01641+01541102201ADDAY161061AY221061GF108991081071004501999999KA1240N+01001MA1999999092341MD1999999-0141MW1501REMSYN088AAXX  23124 83344 21494 80907 10164 20154 39234 40220 75062 887// 333 20100 59014 60034;
0148833440999992002082318004-14950-040880FM-12+0905SBQV V0200901N004110450019N0200001N1+02231+01301101721ADDAA199000021GF106991041041012501081001MA1999999091981MD1999999-0131REMSYN070AAXX  23184 83344 32698 60908 10223 20130 39198 40172 84480 333 59013;
0179833440999992002082400004-14950-040880FM-12+0905SBQV V0200901N003112200019N0100001N1+01661+01501102011ADDAA199000021GF104991041041012501001001KA1240M+02271MA1999999092161MD1999999-0121REMSYN088AAXX  24004 83344 32697 40906 10166 20150 39216 40201 84400 333 10227 29083 55050 59012;
0190833440999992002082412004-14950-040880FM-12+0905SBQV V0201401N004610021019N0100001N1+01771+01581102101ADDAY151061AY221061GF108991071071002501999999KA1240N+01251MA1999999092271MD1999999-0071MW1021REMSYN088AAXX  24124 83344 21397 81409 10177 20158 39227 40210 70252 877// 333 20125 59007 69954;
0167833440999992002082418004-14950-040880FM-12+0905SBQV V0201401N003110021019N0200001N1+02151+01611101721ADDAA199000091GF106991061071002501001001MA1999999091981MD1999999+0001REMSYN070AAXX  24184 83344 32398 61406 10215 20161 39198 40172 86700 333 58000;EQDQ01  00002PRCP99
0202833440999992002082500004-14950-040880FM-12+0905SBQV V0200901N003612200019N0040001N1+01551+01491102051ADDAY151061AY221061GF103991031001012501081001KA1240M+02271MA1999999092201MD1999999+0041MW1021REMSYN100AAXX  25004 83344 21696 30907 10155 20149 39220 40205 70252 83080 333 10227 29089 55034 58004 69921;
0190833440999992002082512004-14950-040880FM-12+0905SBQV V0200901N004110042019N0100001N1+01741+01521102161ADDAY161061AY251061GF108991081071004501999999KA1240N+01141MA1999999092301MD1999999+0031MW1031REMSYN088AAXX  25124 83344 21497 80908 10174 20152 39230 40216 70365 887// 333 20114 58003 60024;
0167833440999992002082518004-14950-040880FM-12+0905SBQV V0200901N004612200019N0200001N1+02251+01431101811ADDAA199000091GF102991021011004501001001MA1999999092061MD1999999+0081REMSYN070AAXX  25184 83344 32498 20909 10225 20143 39206 40181 82100 333 58008;EQDQ01  00002PRCP99
0198833440999992002082600004-14950-040880FM-12+0905SBQV V0200901N003112200019N0040001N1+01671+01511102041ADDAA199000091GF103991031021004501001001KA1240M+02331MA1999999092221MD1999999+0021REMSYN088AAXX  26004 83344 32496 30906 10167 20151 39222 40204 83200 333 10233 29082 55078 58002;EQDQ01  00002PRCP99
0186833440999992002082612004-14950-040880FM-12+0905SBQV V0200901N005110450019N0200001N1+01731+01431102181ADDAA199000091GF106991021041004501081001KA1240N+01281MA1999999092351MD1999999+0051REMSYN076AAXX  26124 83344 32498 60910 10173 20143 39235 40218 82480 333 20128 58005;EQDQ01  00002PRCP99
0167833440999992002082618004-14950-040880FM-12+0905SBQV V0200901N005110042019N0200001N1+02071+01451101791ADDAA199000091GF107991051051004501061001MA1999999092031MD1999999-0031REMSYN070AAXX  26184 83344 32498 70910 10207 20145 39203 40179 85560 333 59003;EQDQ01  00002PRCP99
0198833440999992002082700004-14950-040880FM-12+0905SBQV V0200901N003110042019N0040001N1+01651+01561102021ADDAA199000091GF108991081051004501999999KA1240M+02321MA1999999092201MD1999999-0021REMSYN088AAXX  27004 83344 32496 80906 10165 20156 39220 40202 885// 333 10232 29085 55038 59002;EQDQ01  00002PRCP99
0156833440999992002082712004-14950-040880FM-12+0905SBQV V0201401N005110450019N0200001N1+01931+01381102061ADDGF106991041021004501031001KA1240N+01171MA1999999092271MD1999999-0081REMSYN076AAXX  27124 83344 22498 61410 10193 20138 39227 40206 84230 333 20117 59008;
0167833440999992002082718004-14950-040880FM-12+0905SBQV V0201401N004110450019N0200001N1+02081+01601101781ADDAA199000091GF107991041071004501051001MA1999999092001MD1999999-0031REMSYN070AAXX  27184 83344 32498 71408 10208 20160 39200 40178 84750 333 59003;EQDQ01  00002PRCP99
0198833440999992002082800004-14950-040880FM-12+0905SBQV V0200901N001510021019N0040001N1+01571+01541102001ADDAA199000091GF106991061071002501001001KA1240M+02211MA1999999092201MD1999999+0001REMSYN088AAXX  28004 83344 32396 60903 10157 20154 39220 40200 86700 333 10221 29086 55063 58000;EQDQ01  00002PRCP99
0162833440999992002082812004-14950-040880FM-12+0905SBQV V0200901N005110042019N0200001N1+01831+01491102051ADDGF107991071071004501001001KA1240N+01261MA1999999092231MD1999999-0041REMSYN082AAXX  28124 83344 22498 70910 10183 20149 39223 40205 87700 333 20126 59004 69954;
0167833440999992002082818004-14950-040880FM-12+0905SBQV V0200901N004610075019N0200001N1+02291+01561101501ADDAA199000091GF106991061021008001001001MA1999999091811MD1999999-0191REMSYN070AAXX  28184 83344 32598 60909 10229 20156 39181 40150 86200 333 59019;EQDQ01  00002PRCP99
0198833440999992002082900004-14950-040880FM-12+0905SBQV V0200901N003110210019N0100001N1+01711+01551101741ADDAA199000091GF108991081001022501021999KA1240M+02391MA1999999091961MD1999999-0241REMSYN088AAXX  29004 83344 32897 80906 10171 20155 39196 40174 8802/ 333 10239 29082 55076 59024;EQDQ01  00002PRCP99
0186833440999992002082912004-14950-040880FM-12+0905SBQV V0200901N003110042019N0200001N1+01851+01411101881ADDAA199000091GF106991061051004501001001KA1240N+01261MA1999999092111MD1999999-0121REMSYN076AAXX  29124 83344 32498 60906 10185 20141 39211 40188 86500 333 20126 59012;EQDQ01  00002PRCP99
0167833440999992002082918004-14950-040880FM-12+0905SBQV V0200901N003610450019N0200001N1+02311+01481101371ADDAA106000091GF105991021011004501031001MA1999999091711MD1999999-0101REMSYN070AAXX  29184 83344 32498 50907 10231 20148 39171 40137 82130 333 59010;EQDQ01  00002PRCP06
0208833440999992002083000004-14950-040880FM-12+0905SBQV V0200901N000512200019N0040001N1+01631+01511101671ADDAA106000091GA1001+999999999GF100991001001999999001001KA1240M+02451MA1999999091861MD1999999-0101REMSYN082AAXX  30004 83344 32996 00901 10163 20151 39186 40167 333 10245 29081 55066 59010;EQDQ01  00002PRCP06
0186833440999992002083012004-14950-040880FM-12+0905SBQV V0200501N002611050019N0200001N1+01971+01401101751ADDAA106000091GF106991041021004501001091KA1240N+01101MA1999999091991MD1999999-0121REMSYN076AAXX  30124 83344 32498 60505 10197 20140 39199 40175 84209 333 20110 59012;EQDQ01  00002PRCP06
0167833440999992002083018004-14950-040880FM-12+0905SBQV V0201401N004612200019N0200001N1+02551+01481101231ADDAA106000091GF102991021011004501001001MA1999999091601MD1999999-0111REMSYN070AAXX  30184 83344 32498 21409 10255 20148 39160 40123 82100 333 59011;EQDQ01  00002PRCP06
0186833440999992002083112004-14950-040880FM-12+0905SBQV V0200501N003110021019N0200001N1+02051+01641101761ADDAA106000091GF107991071061002501001001KA1240N+01161MA1999999092021MD1999999+0031REMSYN076AAXX  31124 83344 32398 70506 10205 20164 39202 40176 87600 333 20116 58003;EQDQ01  00002PRCP06
0167833440999992002083118004-14950-040880FM-12+0905SBQV V0200901N003112200019N0200001N1+02641+01541101191ADDAA106000091GF104991041011008001001001MA1999999091631MD1999999+0031REMSYN070AAXX  31184 83344 32598 40906 10264 20154 39163 40119 84100 333 58003;EQDQ01  00002PRCP06
0186833440999992002090112004-14950-040880FM-12+0905SBQV V0203601N005112200019N0200001N1+02231+01271101311ADDAA106000091GF101991011011004501001001KA1240N+01301MA1999999091741MD1999999-0281REMSYN076AAXX  01124 83344 32498 13610 10223 20127 39174 40131 81100 333 20130 59028;EQDQ01  00002PRCP06
0167833440999992002090118004-14950-040880FM-12+0905SBQV V0200501N002112200019N0200001N1+02891+01421100781ADDAA106000091GF102991021021004501001001MA1999999091291MD1999999-0341REMSYN070AAXX  01184 83344 32498 20504 10289 20142 39129 40078 82200 333 59034;EQDQ01  00002PRCP06
0198833440999992002090200004-14950-040880FM-12+0905SBQV V0200501N001512200019N0040001N1+02011+01661101101ADDAA106000091GF102991021001012501031001KA1240M+03051MA1999999091531MD1999999-0241REMSYN088AAXX  02004 83344 32696 20503 10201 20166 39153 40110 82030 333 10305 29065 55104 59024;EQDQ01  00002PRCP06
0196833440999992002090212004-14950-040880FM-12+0905SBQV V0203601N004612200019N0200001N1+02391+01711101101ADDAA106000091GA1001+999999999GF100991001001999999001001KA1240N+01101MA1999999091561MD1999999-0181REMSYN070AAXX  02124 83344 32998 03609 10239 20171 39156 40110 333 20110 59018;EQDQ01  00002PRCP06
0167833440999992002090218004-14950-040880FM-12+0905SBQV V0201801N004610450019N0200001N1+03151+01621100571ADDAA106000091GF105991031011004501011001MA1999999091201MD1999999-0091REMSYN070AAXX  02184 83344 32498 51809 10315 20162 39120 40057 83110 333 59009;EQDQ01  00002PRCP06
0202833440999992002090300004-14950-040880FM-12+0905SBQV V0201401N002112200019N0100001N1+02111+02001101141ADDAY161061AY221061GF102991021021002501001001KA1240M+03271MA1999999091621MD1999999+0091MW1021REMSYN100AAXX  03004 83344 21397 21404 10211 20200 39162 40114 70262 82200 333 10327 29073 55098 58009 60021;
0162833440999992002090312004-14950-040880FM-12+0905SBQV V0200901N004610042019N0100001N1+01911+01771101741ADDGF108991081051004501999999KA1240N+01651MA1999999092061MD1999999+0501REMSYN082AAXX  03124 83344 22497 80909 10191 20177 39206 40174 885// 333 20165 58050 60024;
0167833440999992002090318004-14950-040880FM-12+0905SBQV V0200901N004110042019N0200001N1+01931+01701101531ADDAA106000091GF108991081051004501999999MA1999999091871MD1999999+0671REMSYN070AAXX  03184 83344 32498 80908 10193 20170 39187 40153 885// 333 58067;EQDQ01  00002PRCP06
0202833440999992002090400004-14950-040880FM-12+0905SBQV V0200901N003110042019N0040001N1+01771+01711101841ADDAY151061AY221061GF108991081051004501999999KA1240M+02141MA1999999092091MD1999999+0471MW1021REMSYN100AAXX  04004 83344 21496 80906 10177 20171 39209 40184 70252 885// 333 10214 29093 55000 58047 69921;
0190833440999992002090412004-14950-040880FM-12+0905SBQV V0201801N002110042019N0100001N1+01831+01691102001ADDAY151061AY221061GF108991081051004501999999KA1240N+01441MA1999999092221MD1999999+0161MW1021REMSYN088AAXX  04124 83344 21497 81804 10183 20169 39222 40200 70252 885// 333 20144 58016 69964;
0167833440999992002090418004-14950-040880FM-12+0905SBQV V0200901N003110042019N0200001N1+02411+01771101441ADDAA106000091GF108991081071004501999999MA1999999091831MD1999999-0041REMSYN070AAXX  04184 83344 32498 80906 10241 20177 39183 40144 887// 333 59004;EQDQ01  00002PRCP06
0198833440999992002090500004-14950-040880FM-12+0905SBQV V0200901N003110042019N0040001N1+01931+01821101851ADDAA106000091GF108991081051004501999999KA1240M+02551MA1999999092121MD1999999+0031REMSYN088AAXX  05004 83344 32496 80906 10193 20182 39212 40185 885// 333 10255 29087 55018 58003;EQDQ01  00002PRCP06
0190833440999992002090512004-14950-040880FM-12+0905SBQV V0201401N002110042019N0200001N1+02151+01921101871ADDAY161061AY251061GF106991061041004501001001KA1240N+01561MA1999999092201MD1999999-0021MW1021REMSYN088AAXX  05124 83344 21498 61404 10215 20192 39220 40187 70265 86400 333 20156 59002 60014;
0139833440999992002090520004-14950-040880FM-15+0905SBQV V0201401N004612200019N0112651N1+02501+01701999999ADDGA1021+006009999GF102991999999999999999999MA1102001999999MW1001REMMET045SBQV 052000Z 14009KT 9999 FEW020 25/17 Q1020;EQDQ01+000000PRSWM2
0198833440999992002090600004-14950-040880FM-12+0905SBQV V0201401N003112200019N0040001N1+01971+01831101641ADDAA106000091GF103991031041004501001001KA1240M+02731MA1999999091991MD1999999-0131REMSYN088AAXX  06004 83344 32496 31406 10197 20183 39199 40164 83400 333 10273 29082 55075 59013;EQDQ01  00002PRCP06
0186833440999992002090612004-14950-040880FM-12+0905SBQV V0200901N001510042019N0200001N1+02091+01681101881ADDAA106000091GF106991061051004501001001KA1240N+01561MA1999999092211MD1999999+0011REMSYN076AAXX  06124 83344 32498 60903 10209 20168 39221 40188 86500 333 20156 58001;EQDQ01  00002PRCP06
0167833440999992002090618004-14950-040880FM-12+0905SBQV V0201401N003112200019N0200001N1+02611+01821102151ADDAA106000091GF104991011011004501031001MA1999999091801MD1999999-0021REMSYN070AAXX  06184 83344 32498 41406 10261 20182 39180 40215 81130 333 59002;EQDQ01  00002PRCP06
0186833440999992002090712004-14950-040880FM-12+0905SBQV V0203601N002612200019N0200001N1+02291+01751101751ADDAA106000091GF104991041021004501001001KA1240N+01481MA1999999092111MD1999999-0101REMSYN076AAXX  07124 83344 32498 43605 10229 20175 39211 40175 84200 333 20148 59010;EQDQ01  00002PRCP06
0167833440999992002090718004-14950-040880FM-12+0905SBQV V0200901N004112200019N0200001N1+02791+01761101261ADDAA106000091GF102991021011004501001001MA1999999091761MD1999999-0041REMSYN070AAXX  07184 83344 32498 20908 10279 20176 39176 40126 82100 333 59004;EQDQ01  00002PRCP06
0208833440999992002090800004-14950-040880FM-12+0905SBQV V0200901N003112200019N0040001N1+01931+01821101611ADDAA106000091GA1001+999999999GF100991001001999999001001KA1240M+02911MA1999999091981MD1999999-0021REMSYN082AAXX  08004 83344 32996 00906 10193 20182 39198 40161 333 10291 29078 55101 59002;EQDQ01  00002PRCP06
0186833440999992002090812004-14950-040880FM-12+0905SBQV V0200901N003112200019N0200001N1+02151+01681101781ADDAA106000091GF104991021011004501081001KA1240N+01481MA1999999092121MD1999999+0011REMSYN076AAXX  08124 83344 32498 40906 10215 20168 39212 40178 82180 333 20148 58001;EQDQ01  00002PRCP06
0167833440999992002090818004-14950-040880FM-12+0905SBQV V0200901N004610450019N0200001N1+02371+01561101541ADDAA106000091GF105991021021004501051001MA1999999091951MD1999999+0191REMSYN070AAXX  08184 83344 32498 50909 10237 20156 39195 40154 82250 333 58019;EQDQ01  00002PRCP06
0202833440999992002090900004-14950-040880FM-12+0905SBQV V0200901N004610021019N0010001N1+01771+01711101921ADDAY161061AY251061GF108991081071002501999999KA1240M+02631MA1999999092211MD1999999+0231MW1031REMSYN100AAXX  09004 83344 21394 80909 10177 20171 39221 40192 70365 887// 333 10263 29069 55063 58023 60011;
0167833440999992002090918004-14950-040880FM-12+0905SBQV V0201401N005112200019N0200001N1+02351+01361101761ADDAA106000091GF102991021011004501001001MA1999999092101MD1999999+0151REMSYN070AAXX  09184 83344 32498 21410 10235 20136 39210 40176 82100 333 58015;EQDQ01  00002PRCP06
0208833440999992002091000004-14950-040880FM-12+0905SBQV V0200901N003112200019N0200001N1+01591+01311102111ADDAA106000091GA1001+999999999GF100991001001999999001001KA1240M+02451MA1999999092301MD1999999+0091REMSYN082AAXX  10004 83344 32998 00906 10159 20131 39230 40211 333 10245 29078 55072 58009;EQDQ01  00002PRCP06
0186833440999992002091012004-14950-040880FM-12+0905SBQV V0200901N003610042019N0100001N1+01731+01521102231ADDAA106000091GF108991081051004501999999KA1240N+01221MA1999999092361MD1999999+0001REMSYN076AAXX  10124 83344 32497 80907 10173 20152 39236 40223 885// 333 20122 58000;EQDQ01  00002PRCP06
0167833440999992002091018004-14950-040880FM-12+0905SBQV V0200901N005112200019N0200001N1+02271+01371101791ADDAA106000091GF104991041041004501001001MA1999999092061MD1999999-0041REMSYN070AAXX  10184 83344 32498 40910 10227 20137 39206 40179 84400 333 59004;EQDQ01  00002PRCP06
0208833440999992002091100004-14950-040880FM-12+0905SBQV V0200901N001512200019N0040001N1+01651+01291102091ADDAA106000091GA1001+999999999GF100991001001999999001001KA1240M+02451MA1999999092261MD1999999-0041REMSYN082AAXX  11004 83344 32996 00903 10165 20129 39226 40209 333 10245 29078 55059 59004;EQDQ01  00002PRCP06
0186833440999992002091112004-14950-040880FM-12+0905SBQV V0200901N005110042019N0200001N1+01971+01281102111ADDAA106000091GF106991061041004501001001KA1240N+01241MA1999999092321MD1999999-0041REMSYN076AAXX  11124 83344 32498 60910 10197 20128 39232 40211 86400 333 20124 59004;EQDQ01  00002PRCP06
0167833440999992002091118004-14950-040880FM-12+0905SBQV V0200901N004610042019N0100001N1+01841+01691101951ADDAA106000091GF108991081071004501999999MA1999999092141MD1999999+0081REMSYN070AAXX  11184 83344 32497 80909 10184 20169 39214 40195 887// 333 58008;EQDQ01  00002PRCP06
0215833440999992002091200004-14950-040880FM-12+0905SBQV V0200901N003612200019N0040001N1+01611+01491101981ADDAY121061AY251061GF103991031041002501001001KA1240M+02431MA1999999092201MD1999999-0061REMSYN100AAXX  12004 83344 21396 30907 10161 20149 39220 40198 77025 83400 333 10243 29086 55033 59006 69921;EQDQ01+000702PRSWM1
0190833440999992002091212004-14950-040880FM-12+0905SBQV V0201401N005110021019N0040001N1+01641+01411102081ADDAY161061AY251061GF108991081071002501999999KA1240N+01201MA1999999092211MD1999999-0111MW1211REMSYN088AAXX  12124 83344 21396 81410 10164 20141 39221 40208 72165 887// 333 20120 59011 60044;
0198833440999992002091300004-14950-040880FM-12+0905SBQV V0200901N003112200019N0100001N1+01651+01351101821ADDAA106000091GF103991031001022501061001KA1240M+02211MA1999999092001MD1999999-0201REMSYN088AAXX  13004 83344 32897 30906 10165 20135 39200 40182 83060 333 10221 29078 55033 59020;EQDQ01  00002PRCP06
0186833440999992002091312004-14950-040880FM-12+0905SBQV V0200901N002610450019N0200001N1+01911+01491101771ADDAA106000091GF106991041041004501061001KA1240N+00901MA1999999092011MD1999999-0201REMSYN076AAXX  13124 83344 32498 60905 10191 20149 39201 40177 84460 333 20090 59020;EQDQ01  00002PRCP06
0167833440999992002091318004-14950-040880FM-12+0905SBQV V0200901N002612200019N0200001N1+02531+01661101311ADDAA106000091GF104991041001012501061001MA1999999091621MD1999999-0321REMSYN070AAXX  13184 83344 32698 40905 10253 20166 39162 40131 84060 333 59032;EQDQ01  00002PRCP06
0208833440999992002091400004-14950-040880FM-12+0905SBQV V0200901N001512200019N0040001N1+01691+01601999999ADDAA106000091GA1001+999999999GF100991001001999999001001KA1240M+02551MA1999999091801MD1999999-0201REMSYN082AAXX  14004 83344 32996 00903 10169 20160 39180 44015 333 10255 29081 55050 59020;EQDQ01  00002PRCP06
0186833440999992002091412004-14950-040880FM-12+0905SBQV V0203601N006212200019N0200001N1+02101+01491101641ADDAA106000091GF102991021011004501001001KA1240N+01261MA1999999091941MD1999999-0071REMSYN076AAXX  14124 83344 32498 23612 10210 20149 39194 40164 82100 333 20126 59007;EQDQ01  00002PRCP06
0208833440999992002091500004-14950-040880FM-12+0905SBQV V0200501N004112200019N0100001N1+01911+01551101371ADDAA106000091GA1001+999999999GF100991001001999999001001KA1240M+03051MA1999999091731MD1999999-0071REMSYN082AAXX  15004 83344 32997 00508 10191 20155 39173 40137 333 10305 29068 55109 59007;EQDQ01  00002PRCP06
0186833440999992002091512004-14950-040880FM-12+0905SBQV V0203601N005712200019N0200001N1+02231+01581102071ADDAA106000091GF105991021011008001001061KA1240N+01361MA1999999091941MD1999999+0001REMSYN076AAXX  15124 83344 32598 53611 10223 20158 39194 40207 82106 333 20136 58000;EQDQ01  00002PRCP06
0167833440999992002091518004-14950-040880FM-12+0905SBQV V0201401N005111050019N0200001N1+02661+01681101291ADDAA106000091GF106991021011008001031061MA1999999091741MD1999999+0261REMSYN070AAXX  15184 83344 32598 61410 10266 20168 39174 40129 82136 333 58026;EQDQ01  00002PRCP06
0198833440999992002091600004-14950-040880FM-12+0905SBQV V0200901N001012200019N0040001N1+02031+01851101681ADDAA106000091GF102991021001012501061001KA1240M+02801MA1999999092061MD1999999+0331REMSYN088AAXX  16004 83344 32696 20902 10203 20185 39206 40168 82060 333 10280 29075 55089 58033;EQDQ01  00002PRCP06
0186833440999992002091612004-14950-040880FM-12+0905SBQV V0200901N005110450019N0200001N1+02241+01481101981ADDAA106000091GF106991041011008001081001KA1240N+01631MA1999999092341MD1999999+0401REMSYN076AAXX  16124 83344 32598 60910 10224 20148 39234 40198 84180 333 20163 58040;EQDQ01  00002PRCP06
0167833440999992002091618004-14950-040880FM-12+0905SBQV V0200901N005111050019N0200001N1+02591+01521101541ADDAA106000091GF106991021011008001091061MA1999999091961MD1999999+0221REMSYN070AAXX  16184 83344 32598 60910 10259 20152 39196 40154 82196 333 58022;EQDQ01  00002PRCP06
0198833440999992002091700004-14950-040880FM-12+0905SBQV V0200901N003112200019N0100001N1+01811+01671101981ADDAA106000091GF103991031001022501061001KA1240M+02651MA1999999092281MD1999999+0221REMSYN088AAXX  17004 83344 32897 30906 10181 20167 39228 40198 83060 333 10265 29075 55100 58022;EQDQ01  00002PRCP06
0186833440999992002091712004-14950-040880FM-12+0905SBQV V0200901N006210042019N0200001N1+02141+01381102141ADDAA199000091GF106991061021004501001001KA1240N+01001MA1999999092401MD1999999+0061REMSYN076AAXX  17124 83344 32498 60912 10214 20138 39240 40214 86200 333 20100 58006;EQDQ01  00002PRCP99
0167833440999992002091718004-14950-040880FM-12+0905SBQV V0200901N004612200019N0200001N1+02551+01051101791ADDAA106000091GF102991021011004501001001MA1999999092051MD1999999+0091REMSYN070AAXX  17184 83344 32498 20909 10255 20105 39205 40179 82100 333 58009;EQDQ01  00002PRCP06
0208833440999992002091800004-14950-040880FM-12+0905SBQV V0200901N003112200019N0100001N1+01751+01431101981ADDAA106000091GA1001+999999999GF100991001001999999001001KA1240M+02631MA1999999092261MD1999999-0021REMSYN082AAXX  18004 83344 32997 00906 10175 20143 39226 40198 333 10263 29066 55110 59002;EQDQ01  00002PRCP06
0186833440999992002091812004-14950-040880FM-12+0905SBQV V0200901N005110042019N0200001N1+01971+01501102031ADDAA106000091GF108991081071004501999999KA1240N+00881MA1999999092261MD1999999-0141REMSYN076AAXX  18124 83344 32498 80910 10197 20150 39226 40203 887// 333 20088 59014;EQDQ01  00002PRCP06
0167833440999992002091818004-14950-040880FM-12+0905SBQV V0200901N003110021019N0200001N1+02351+01511101631ADDAA106000091GF106991061061002501001001MA1999999091861MD1999999-0191REMSYN070AAXX  18184 83344 32398 60906 10235 20151 39186 40163 86600 333 59019;EQDQ01  00002PRCP06
0198833440999992002091900004-14950-040880FM-12+0905SBQV V0200901N001510042019N0040001N1+01841+01741101821ADDAA106000091GF108991081071004501999999KA1240M+02471MA1999999092091MD1999999-0171REMSYN088AAXX  19004 83344 32496 80903 10184 20174 39209 40182 887// 333 10247 29081 55045 59017;EQDQ01  00002PRCP06
0190833440999992002091912004-14950-040880FM-12+0905SBQV V0200901N004110042019N0100001N1+01791+01651102001ADDAY151061AY221061GF108991081051004501999999KA1240N+01671MA1999999092221MD1999999-0041MW1161REMSYN088AAXX  19124 83344 21497 80908 10179 20165 39222 40200 71652 885// 333 20167 59004 60024;
0171833440999992002091918004-14950-040880FM-12+0905SBQV V0200901N003612200019N0200001N1+02191+01731101551ADDAY161061AY221061GF103991011011004501021001MA1999999091871MD1999999+0011MW1011REMSYN082AAXX  19184 83344 21498 30907 10219 20173 39187 40155 70162 81120 333 58001 60011;
0208833440999992002092000004-14950-040880FM-12+0905SBQV V0200901N001512200019N0040001N1+01631+01471101821ADDAA106000091GA1001+999999999GF100991001001999999001001KA1240M+02231MA1999999092021MD1999999-0071REMSYN082AAXX  20004 83344 32996 00903 10163 20147 39202 40182 333 10223 29084 55034 59007;EQDQ01  00002PRCP06
0186833440999992002092012004-14950-040880FM-12+0905SBQV V0200501N003611050019N0200001N1+02111+01551101901ADDAA106000091GF106991021021004501001091KA1240N+01531MA1999999092151MD1999999-0071REMSYN076AAXX  20124 83344 32498 60507 10211 20155 39215 40190 82209 333 20153 59007;EQDQ01  00002PRCP06
0167833440999992002092018004-14950-040880FM-12+0905SBQV V0200901N004111050019N0200001N1+02631+01641101241ADDAA106000091GF106991041021004501001091MA1999999091651MD1999999-0221REMSYN070AAXX  20184 83344 32498 60908 10263 20164 39165 40124 84209 333 59022;EQDQ01  00002PRCP06
0198833440999992002092100004-14950-040880FM-12+0905SBQV V0200501N003112200019N0100001N1+01831+01581101541ADDAA106000091GF102991001001999999001051KA1240M+02711MA1999999091861MD1999999-0161REMSYN088AAXX  21004 83344 32997 20506 10183 20158 39186 40154 80005 333 10271 29075 55081 59016;EQDQ01  00002PRCP06
0186833440999992002092112004-14950-040880FM-12+0905SBQV V0203601N004111050019N0200001N1+02111+01641101581ADDAA106000091GF106991031011008001001081KA1240N+01471MA1999999091901MD1999999-0251REMSYN076AAXX  21124 83344 32598 63608 10211 20164 39190 40158 83108 333 20147 59025;EQDQ01  00002PRCP06
0167833440999992002092118004-14950-040880FM-12+0905SBQV V0201401N004610450019N0200001N1+02751+01871100941ADDAA106000091GF107991041051012501011001MA1999999091401MD1999999-0011REMSYN070AAXX  21184 83344 32698 71409 10275 20187 39140 40094 84510 333 59001;EQDQ01  00002PRCP06
0198833440999992002092200004-14950-040880FM-12+0905SBQV V0201401N000519999999N0100001N1+02111+01741101211ADDAA106000091GF105991001001999999001051KA1240M+03011MA1999999091621MD1999999-0241REMSYN088AAXX  22004 83344 32997 51401 10211 20174 39162 40121 80005 333 10301 29073 55079 59024;EQDQ01  00002PRCP06
0186833440999992002092212004-14950-040880FM-12+0905SBQV V0200501N003119999999N0200001N1+02371+01561101321ADDAA106000091GF107991021011999999001091KA1240N+01691MA1999999091781MD1999999-0121REMSYN076AAXX  22124 83344 32998 70506 10237 20156 39178 40132 82109 333 20169 59012;EQDQ01  00002PRCP06
0167833440999992002092218004-14950-040880FM-12+0905SBQV V0200901N003610450019N0200001N1+02531+01741101051ADDAA106000091GF106991041021004501081001MA1999999091501MD1999999+0101REMSYN070AAXX  22184 83344 32498 60907 10253 20174 39150 40105 84280 333 58010;EQDQ01  00002PRCP06
0198833440999992002092300004-14950-040880FM-12+0905SBQV V0200901N002110042019N0100001N1+02011+01781101261ADDAA106000091GF106991061051004501001001KA1240M+02811MA1999999091711MD1999999+0091REMSYN088AAXX  23004 83344 32497 60904 10201 20178 39171 40126 86500 333 10281 29074 55066 58009;EQDQ01  00002PRCP06
0186833440999992002092312004-14950-040880FM-12+0905SBQV V0200501N002110042019N0100001N1+02231+01651101521ADDAA106000091GF108991081071004501999999KA1240N+01801MA1999999091901MD1999999+0121REMSYN076AAXX  23124 83344 32497 80504 10223 20165 39190 40152 887// 333 20180 58012;EQDQ01  00002PRCP06
0167833440999992002092318004-14950-040880FM-12+0905SBQV V0200901N003110042019N0100001N1+02511+01771101121ADDAA106000091GF108991081071004501999999MA1999999091581MD1999999+0081REMSYN070AAXX  23184 83344 32497 80906 10251 20177 39158 40112 887// 333 58008;EQDQ01  00002PRCP06
0214833440999992002092400004-14950-040880FM-12+0905SBQV V0200501N002119999999N0040001N1+01971+01791101271ADDAA106000091GF106991999001012501061001KA1240M+02591MA1999999091671MD1999999-0041REMSYN088AAXX  24004 83344 32696 60504 10197 20179 39167 40127 84060 333 10259 29079 55008 59004;EQDQ01+000042SCOTLCQ02  00002PRCP06
0186833440999992002092412004-14950-040880FM-12+0905SBQV V0203601N003610450019N0200001N1+02221+01621101281ADDAA106000091GF107991041061002501021001KA1240N+01701MA1999999091681MD1999999-0221REMSYN076AAXX  24124 83344 32398 73607 10222 20162 39168 40128 84620 333 20170 59022;EQDQ01  00002PRCP06
0167833440999992002092418004-14950-040880FM-12+0905SBQV V0203601N003110450019N0200001N1+02831+01651100761ADDAA106000091GF107991041031002501021001MA1999999091271MD1999999-0311REMSYN070AAXX  24184 83344 32398 73606 10283 20165 39127 40076 84320 333 59031;EQDQ01  00002PRCP06
0190833440999992002092512004-14950-040880FM-12+0905SBQV V0200501N001510042019N0200001N1+01991+01811101421ADDAY101061AY221061GF108991081051004501999999KA1240N+01691MA1999999091771MD1999999+0091MW1621REMSYN088AAXX  25124 83344 21498 80503 10199 20181 39177 40142 76202 885// 333 20169 58009 60434;
0202833440999992002092600004-14950-040880FM-12+0905SBQV V0201801N000510042019N0020001N1+01911+01851101541ADDAY161061AY221061GF108991081071004501999999KA1240M+02411MA1999999091861MD1999999+0261MW1621REMSYN100AAXX  26004 83344 21495 81801 10191 20185 39186 40154 76262 887// 333 10241 29095 55002 58026 60021;
0190833440999992002092612004-14950-040880FM-12+0905SBQV V0201401N004110042019N0100001N1+01871+01621101731ADDAY161061AY251061GF108991081071004501999999KA1240N+01601MA1999999092021MD1999999+0251MW1031REMSYN088AAXX  26124 83344 21497 81408 10187 20162 39202 40173 70365 887// 333 20160 58025 60104;
0167833440999992002092618004-14950-040880FM-12+0905SBQV V0201401N004610042019N0100001N1+02051+01661101591ADDAA106000091GF108991081071004501999999MA1999999091851MD1999999+0261REMSYN070AAXX  26184 83344 32497 81409 10205 20166 39185 40159 887// 333 58026;EQDQ01  00002PRCP06
0190833440999992002092712004-14950-040880FM-12+0905SBQV V0201401N004610042019N0200001N1+01831+01641101961ADDAY151061AY221061GF108991081071004501999999KA1240N+01561MA1999999091691MD1999999+0161MW1201REMSYN088AAXX  27124 83344 21498 81409 10183 20164 39169 40196 72052 887// 333 20156 58016 60014;
0148833440999992002092718004-14950-040880FM-12+0905SBQV V0201401N004610042019N0200001N1+02071+01701101651ADDAA106000021GF106991061071004501001001MA1999999091921MD1999999+0071REMSYN070AAXX  27184 83344 32498 61409 10207 20170 39192 40165 86700 333 58007;
0198833440999992002092800004-14950-040880FM-12+0905SBQV V0201401N003110042019N0100001N1+01841+01641101951ADDAA106000091GF108991081071004501999999KA1240M+02151MA1999999092171MD1999999+0131REMSYN088AAXX  28004 83344 32497 81406 10184 20164 39217 40195 887// 333 10215 29086 55013 58013;EQDQ01  00002PRCP06
0190833440999992002092812004-14950-040880FM-12+0905SBQV V0201401N003110042019N0100001N1+01771+01681101981ADDAY151061AY221061GF108991081071004501999999KA1240N+01581MA1999999092201MD1999999+0021MW1521REMSYN088AAXX  28124 83344 21497 81406 10177 20168 39220 40198 75252 887// 333 20158 58002 69944;
0171833440999992002092818004-14950-040880FM-12+0905SBQV V0201401N005110042019N0100001N1+01991+01881101721ADDAY151061AY221061GF108991081051004501999999MA1999999091961MD1999999+0041MW1011REMSYN082AAXX  28184 83344 21497 81410 10199 20188 39196 40172 70152 885// 333 58004 69921;
0202833440999992002092900004-14950-040880FM-12+0905SBQV V0201401N005110042019N0020001N1+01771+01741101941ADDAY151061AY221061GF108991081071004501999999KA1240M+02311MA1999999092151MD1999999-0021MW1521REMSYN100AAXX  29004 83344 21495 81410 10177 20174 39215 40194 75252 887// 333 10231 29097 55013 59002 60011;
0190833440999992002092912004-14950-040880FM-12+0905SBQV V0201401N002610021019N0010001N1+01911+01711101981ADDAY151061AY221061GF108991081071002501999999KA1240N+01601MA1999999092221MD1999999+0021MW1521REMSYN088AAXX  29124 83344 21394 81405 10191 20171 39222 40198 75252 887// 333 20160 58002 60024;
0171833440999992002092918004-14950-040880FM-12+0905SBQV V0201401N004610450019N0200001N1+02291+01751101721ADDAY151061AY221061GF106991041071002501051001MA1999999091861MD1999999-0101MW1021REMSYN082AAXX  29184 83344 21398 61409 10229 20175 39186 40172 70252 84750 333 59010 69911;
0208833440999992002093000004-14950-040880FM-12+0905SBQV V0200901N003112200019N0040001N1+01781+01521101771ADDAA106000091GA1001+999999999GF100991001001999999001001KA1240M+02411MA1999999092031MD1999999-0121REMSYN082AAXX  30004 83344 32996 00906 10178 20152 39203 40177 333 10241 29083 55056 59012;EQDQ01  00002PRCP06
0162833440999992002093012004-14950-040880FM-12+0905SBQV V0200501N003110450019N0200001N1+02211+01541101851ADDGF106991031011008001081011KA1240N+01501MA1999999092161MD1999999-0061REMSYN082AAXX  30124 83344 22598 60506 10221 20154 39216 40185 83181 333 20150 59006 69914;
0167833440999992002093018004-14950-040880FM-12+0905SBQV V0200901N003610075019N0200001N1+02481+01371101511ADDAA106000091GF105991051011008001001001MA1999999091891MD1999999+0031REMSYN070AAXX  30184 83344 32598 50907 10248 20137 39189 40151 85100 333 58003;EQDQ01  00002PRCP06
0208833440999992002100100004-14950-040880FM-12+0905SBQV V0200501N004112200019N0100001N1+01891+01681101751ADDAA106000091GA1001+999999999GF100991001001999999001001KA1240M+02691MA1999999092091MD1999999+0061REMSYN082AAXX  01004 83344 32997 00508 10189 20168 39209 40175 333 10269 29073 55098 58006;EQDQ01  00002PRCP06
0186833440999992002100112004-14950-040880FM-12+0905SBQV V0200901N001512200019N0200001N1+02071+01471101911ADDAA106000091GF102991021011004501001001KA1240N+01381MA1999999092221MD1999999+0061REMSYN076AAXX  01124 83344 32498 20903 10207 20147 39222 40191 82100 333 20138 58006;EQDQ01  00002PRCP06
0167833440999992002100118004-14950-040880FM-12+0905SBQV V0201401N004112200019N0200001N1+02731+01171101391ADDAA106000091GF102991021011004501001001MA1999999091781MD1999999-0111REMSYN070AAXX  01184 83344 32498 21408 10273 20117 39178 40139 82100 333 59011;EQDQ01  00002PRCP06
0208833440999992002100200004-14950-040880FM-12+0905SBQV V0203601N002112200019N0040001N1+01811+01451101641ADDAA106000091GA1001+999999999GF100991001001999999001001KA1240M+02811MA1999999091911MD1999999-0181REMSYN082AAXX  02004 83344 32996 03604 10181 20145 39191 40164 333 10281 29066 55084 59018;EQDQ01  00002PRCP06
0186833440999992002100212004-14950-040880FM-12+0905SBQV V0200501N003110042019N0200001N1+02131+01621101681ADDAA106000091GF106991061041004501001001KA1240N+01411MA1999999091991MD1999999-0231REMSYN076AAXX  02124 83344 32498 60506 10213 20162 39199 40168 86400 333 20141 59023;EQDQ01  00002PRCP06
0167833440999992002100218004-14950-040880FM-12+0905SBQV V0201401N004110450019N0200001N1+02661+01261101231ADDAA106000091GF105991021011004501031001MA1999999091621MD1999999-0161REMSYN070AAXX  02184 83344 32498 51408 10266 20126 39162 40123 82130 333 59016;EQDQ01  00002PRCP06
0208833440999992002100300004-14950-040880FM-12+0905SBQV V0200501N001512200019N0100001N1+01841+01471101551ADDAA106000091GA1001+999999999GF100991001001999999001001KA1240M+02741MA1999999091891MD1999999-0021REMSYN082AAXX  03004 83344 32997 00503 10184 20147 39189 40155 333 10274 29068 55098 59002;EQDQ01  00002PRCP06
0186833440999992002100312004-14950-040880FM-12+0905SBQV V0200901N005110075019N0200001N1+02391+01341101501ADDAA106000091GF106991061011008001001001KA1240N+01461MA1999999091881MD1999999-0111REMSYN076AAXX  03124 83344 32598 60910 10239 20134 39188 40150 86100 333 20146 59011;EQDQ01  00002PRCP06
0167833440999992002100318004-14950-040880FM-12+0905SBQV V0201401N004112200019N0200001N1+02531+01741101061ADDAA106000091GF103991031011008001001001MA1999999091461MD1999999-0161REMSYN070AAXX  03184 83344 32598 31408 10253 20174 39146 40106 83100 333 59016;EQDQ01  00002PRCP06
0198833440999992002100400004-14950-040880FM-12+0905SBQV V0200901N002610075019N0100001N1+01951+01701101351ADDAA106000091GF108991081031008001999999KA1240M+02691MA1999999091771MD1999999-0121REMSYN088AAXX  04004 83344 32597 80905 10195 20170 39177 40135 883// 333 10269 29072 55100 59012;EQDQ01  00002PRCP06
0186833440999992002100412004-14950-040880FM-12+0905SBQV V0200501N001512200019N0200001N1+02331+01551101481ADDAA106000091GF101991011011004501001001KA1240N+01501MA1999999091891MD1999999+0011REMSYN076AAXX  04124 83344 32498 10503 10233 20155 39189 40148 81100 333 20150 58001;EQDQ01  00002PRCP06
0167833440999992002100418004-14950-040880FM-12+0905SBQV V0200901N003610450019N0200001N1+02691+01641101061ADDAA106000091GF106991021021004501061001MA1999999091511MD1999999+0051REMSYN070AAXX  04184 83344 32498 60907 10269 20164 39151 40106 82260 333 58005;EQDQ01  00002PRCP06
0208833440999992002100500004-14950-040880FM-12+0905SBQV V0200501N003112200019N0100001N1+01951+01741101311ADDAA106000091GA1001+999999999GF100991001001999999001001KA1240M+03831MA1999999091741MD1999999-0031REMSYN082AAXX  05004 83344 32997 00506 10195 20174 39174 40131 333 10383 29073 55097 59003;EQDQ01  00002PRCP06
0186833440999992002100512004-14950-040880FM-12+0905SBQV V0200901N002610075019N0200001N1+02231+01551101571ADDAA106000091GF107991071021008001001001KA1240N+01581MA1999999091951MD1999999+0061REMSYN076AAXX  05124 83344 32598 70905 10223 20155 39195 40157 87200 333 20158 58006;EQDQ01  00002PRCP06
0167833440999992002100518004-14950-040880FM-12+0905SBQV V0201401N004610075019N0200001N1+02611+01571101171ADDAA106000091GF105991051011008001001001MA1999999091611MD1999999+0101REMSYN070AAXX  05184 83344 32598 51409 10261 20157 39161 40117 85100 333 58010;EQDQ01  00002PRCP06
0208833440999992002100600004-14950-040880FM-12+0905SBQV V0200901N004112200019N0100001N1+01851+01551101471ADDAA106000091GA1001+999999999GF100991001001999999001001KA1240M+02651MA1999999091841MD1999999+0101REMSYN082AAXX  06004 83344 32997 00908 10185 20155 39184 40147 333 10265 29072 55095 58010;EQDQ01  00002PRCP06
0186833440999992002100612004-14950-040880FM-12+0905SBQV V0200901N004110042019N0200001N1+02191+01441101581ADDAA106000091GF106991061021004501001001KA1240N+01321MA1999999091921MD1999999-0031REMSYN076AAXX  06124 83344 32498 60908 10219 20144 39192 40158 86200 333 20132 59003;EQDQ01  00002PRCP06
0167833440999992002100618004-14950-040880FM-12+0905SBQV V0200901N005110042019N0100001N1+02211+01821101451ADDAA106000091GF108991081071004501999999MA1999999091741MD1999999+0131REMSYN070AAXX  06184 83344 32497 80910 10221 20182 39174 40145 887// 333 58013;EQDQ01  00002PRCP06
0198833440999992002100700004-14950-040880FM-12+0905SBQV V0200501N004610021019N0040001N1+01911+01731101471ADDAA106000091GF108991081071002501999999KA1240M+02601MA1999999091841MD1999999+0001REMSYN088AAXX  07004 83344 32396 80509 10191 20173 39184 40147 887// 333 10260 29080 55061 58000;EQDQ01  00002PRCP06
0186833440999992002100712004-14950-040880FM-12+0905SBQV V0200901N005112200019N0200001N1+02311+01531101741ADDAA106000091GF104991041021004501001001KA1240N+01601MA1999999092101MD1999999+0181REMSYN076AAXX  07124 83344 32498 40910 10231 20153 39210 40174 84200 333 20160 58018;EQDQ01  00002PRCP06
0167833440999992002100718004-14950-040880FM-12+0905SBQV V0200901N005112200019N0200001N1+02571+01381101411ADDAA106000091GF102991021011004501001001MA1999999091831MD1999999+0091REMSYN070AAXX  07184 83344 32498 20910 10257 20138 39183 40141 82100 333 58009;EQDQ01  00002PRCP06
0208833440999992002100800004-14950-040880FM-12+0905SBQV V0200901N003612200019N0040001N1+01781+01581101761ADDAA106000091GA1001+999999999GF100991001001999999001001KA1240M+02751MA1999999092101MD1999999+0261REMSYN082AAXX  08004 83344 32996 00907 10178 20158 39210 40176 333 10275 29071 55108 58026;EQDQ01  00002PRCP06
0167833440999992002100818004-14950-040880FM-12+0905SBQV V0200901N005111050019N0200001N1+02571+01531101491ADDAA106000091GF107991021011008001001061MA1999999091841MD1999999+0011REMSYN070AAXX  08184 83344 32598 70910 10257 20153 39184 40149 82106 333 58001;EQDQ01  00002PRCP06
0208833440999992002100900004-14950-040880FM-12+0905SBQV V0200901N003112200019N0100001N1+01651+01461101671ADDAA106000091GA1001+999999999GF100991001001999999001001KA1240M+02651MA1999999091981MD1999999-0121REMSYN082AAXX  09004 83344 32997 00906 10165 20146 39198 40167 333 10265 29075 55091 59012;EQDQ01  00002PRCP06
0186833440999992002100912004-14950-040880FM-12+0905SBQV V0200901N003110450019N0200001N1+02151+01501101831ADDAA106000091GF106991041021004501031001KA1240N+01401MA1999999092101MD1999999-0081REMSYN076AAXX  09124 83344 32498 60906 10215 20150 39210 40183 84230 333 20140 59008;EQDQ01  00002PRCP06
0167833440999992002100918004-14950-040880FM-12+0905SBQV V0201401N003610450019N0200001N1+02571+01591101391ADDAA106000091GF106991021021004501091001MA1999999091751MD1999999-0091REMSYN070AAXX  09184 83344 32498 61407 10257 20159 39175 40139 82290 333 59009;EQDQ01  00002PRCP06
0208833440999992002101000004-14950-040880FM-12+0905SBQV V0200901N001512200019N0040001N1+01721+01541101781ADDAA106000091GA1001+999999999GF100991001001999999001001KA1240M+02691MA1999999091891MD1999999+0001REMSYN082AAXX  10004 83344 32996 00903 10172 20154 39189 40178 333 10269 29075 55065 58000;EQDQ01  00002PRCP06
0186833440999992002101012004-14950-040880FM-12+0905SBQV V0200501N003112200019N0200001N1+02111+01371101831ADDAA106000091GF104991021011004501081001KA1240N+01451MA1999999092101MD1999999+0001REMSYN076AAXX  10124 83344 32498 40506 10211 20137 39210 40183 82180 333 20145 58000;EQDQ01  00002PRCP06
0167833440999992002101018004-14950-040880FM-12+0905SBQV V0200901N004112200019N0200001N1+02651+01421101231ADDAA106000091GF102991021001012501031001MA1999999091621MD1999999-0131REMSYN070AAXX  10184 83344 32698 20908 10265 20142 39162 40123 82030 333 59013;EQDQ01  00002PRCP06
0208833440999992002101100004-14950-040880FM-12+0905SBQV V0200901N003112200019N0100001N1+01911+01661101521ADDAA106000091GA1001+999999999GF100991001001999999001001KA1240M+02731MA1999999091861MD1999999-0121REMSYN082AAXX  11004 83344 32997 00906 10191 20166 39186 40152 333 10273 29071 55097 59012;EQDQ01  00002PRCP06
0186833440999992002101112004-14950-040880FM-12+0905SBQV V0203601N003110042019N0200001N1+02291+01611101771ADDAA106000091GF106991061041004501001001KA1240N+01551MA1999999092131MD1999999+0031REMSYN076AAXX  11124 83344 32498 63606 10229 20161 39213 40177 86400 333 20155 58003;EQDQ01  00002PRCP06
0167833440999992002101118004-14950-040880FM-12+0905SBQV V0200501N003611050019N0200001N1+02651+01351101301ADDAA106000091GF106991041021004501001091MA1999999091701MD1999999+0081REMSYN070AAXX  11184 83344 32498 60507 10265 20135 39170 40130 84209 333 58008;EQDQ01  00002PRCP06
0208833440999992002101200004-14950-040880FM-12+0905SBQV V0200501N002112200019N0100001N1+01851+01691101541ADDAA106000091GA1001+999999999GF100991001001999999001001KA1240M+02731MA1999999091901MD1999999+0041REMSYN082AAXX  12004 83344 32997 00504 10185 20169 39190 40154 333 10273 29073 55096 58004;EQDQ01  00002PRCP06
0186833440999992002101212004-14950-040880FM-12+0905SBQV V0200901N003110450019N0200001N1+02151+01431101781ADDAA106000091GF106991021011004501081011KA1240N+01601MA1999999092101MD1999999-0031REMSYN076AAXX  12124 83344 32498 60906 10215 20143 39210 40178 82181 333 20160 59003;EQDQ01  00002PRCP06
0167833440999992002101218004-14950-040880FM-12+0905SBQV V0200901N003110075019N0200001N1+02571+01411101501ADDAA106000091GF106991061031008001001001MA1999999091751MD1999999+0051REMSYN070AAXX  12184 83344 32598 60906 10257 20141 39175 40150 86300 333 58005;EQDQ01  00002PRCP06
0198833440999992002101300004-14950-040880FM-12+0905SBQV V0200501N002612200019N0100001N1+01771+01471101641ADDAA106000091GF104991041001999999011011KA1240M+02711MA1999999091971MD1999999+0071REMSYN088AAXX  13004 83344 32997 40505 10177 20147 39197 40164 84011 333 10271 29069 55088 58007;EQDQ01  00002PRCP06
0186833440999992002101312004-14950-040880FM-12+0905SBQV V0200901N003111050019N0200001N1+02171+01451101691ADDAA106000091GF105991011011004501031011KA1240N+01401MA1999999092001MD1999999-0101REMSYN076AAXX  13124 83344 32498 50906 10217 20145 39200 40169 81131 333 20140 59010;EQDQ01  00002PRCP06
0167833440999992002101318004-14950-040880FM-12+0905SBQV V0200901N004610450019N0200001N1+02451+01391101291ADDAA106000091GF106991021041004501081021MA1999999091641MD1999999-0111REMSYN070AAXX  13184 83344 32498 60909 10245 20139 39164 40129 82482 333 59011;EQDQ01  00002PRCP06
0214833440999992002101400004-14950-040880FM-12+0905SBQV V0200501N004119999999N0100001N1+01801+01561101571ADDAA106000091GF106991001001999999001011KA1240M+02671MA1999999091921MD1999999+0001REMSYN088AAXX  14004 83344 32997 60508 10180 20156 39192 40157 86001 333 10267 29072 55087 58000;EQDQ01+000062SCOTLCQ02  00002PRCP06
0186833440999992002101412004-14950-040880FM-12+0905SBQV V0200501N004110042019N0200001N1+02151+01431101741ADDAA106000091GF105991051021004501001001KA1240N+01501MA1999999092051MD1999999+0051REMSYN076AAXX  14124 83344 32498 50508 10215 20143 39205 40174 85200 333 20150 58005;EQDQ01  00002PRCP06
0167833440999992002101418004-14950-040880FM-12+0905SBQV V0200901N005110450019N0200001N1+02611+01281101251ADDAA106000091GF106991021011004501041091MA1999999091641MD1999999+0001REMSYN070AAXX  14184 83344 32498 60910 10261 20128 39164 40125 82149 333 58000;EQDQ01  00002PRCP06
0198833440999992002101500004-14950-040880FM-12+0905SBQV V0200901N003610042019N0100001N1+01791+01521101601ADDAA106000091GF106991061051004501001001KA1240M+02751MA1999999091921MD1999999-0011REMSYN088AAXX  15004 83344 32497 60907 10179 20152 39192 40160 86500 333 10275 29065 55106 59001;EQDQ01  00002PRCP06
0186833440999992002101512004-14950-040880FM-12+0905SBQV V0200501N003112200019N0200001N1+02171+01221101741ADDAA106000091GF104991041011008001001001KA1240N+01361MA1999999092061MD1999999+0011REMSYN076AAXX  15124 83344 32598 40506 10217 20122 39206 40174 84100 333 20136 58001;EQDQ01  00002PRCP06
0167833440999992002101518004-14950-040880FM-12+0905SBQV V0201401N003611050019N0200001N1+02531+01371101331ADDAA106000091GF106991021011008001001051MA1999999091691MD1999999+0051REMSYN070AAXX  15184 83344 32598 61407 10253 20137 39169 40133 82105 333 58005;EQDQ01  00002PRCP06
0208833440999992002101600004-14950-040880FM-12+0905SBQV V0200901N003112200019N0100001N1+01741+01451101741ADDAA106000091GA1001+999999999GF100991001001999999001001KA1240M+02671MA1999999091901MD1999999-0021REMSYN082AAXX  16004 83344 32997 00906 10174 20145 39190 40174 333 10267 29067 55112 59002;EQDQ01  00002PRCP06
0186833440999992002101612004-14950-040880FM-12+0905SBQV V0200501N004112200019N0200001N1+02231+01481101671ADDAA106000091GF102991021011004501001001KA1240N+01201MA1999999092001MD1999999-0061REMSYN076AAXX  16124 83344 32498 20508 10223 20148 39200 40167 82100 333 20120 59006;EQDQ01  00002PRCP06
0167833440999992002101618004-14950-040880FM-12+0905SBQV V0200901N004112200019N0200001N1+02711+01511101181ADDAA106000091GF103991011011004501031011MA1999999091571MD1999999-0121REMSYN070AAXX  16184 83344 32498 30908 10271 20151 39157 40118 81131 333 59012;EQDQ01  00002PRCP06
0198833440999992002101700004-14950-040880FM-12+0905SBQV V0200901N003112200019N0040001N1+01871+01641101501ADDAA106000091GF104991041001012501041001KA1240M+02971MA1999999091861MD1999999-0041REMSYN088AAXX  17004 83344 32696 40906 10187 20164 39186 40150 84040 333 10297 29071 55103 59004;EQDQ01  00002PRCP06
0186833440999992002101712004-14950-040880FM-12+0905SBQV V0202301N030810042019N0200001N1+02151+01531101561ADDAA106000091GF106991061021004501001001KA1240N+01641MA1999999091901MD1999999+0101REMSYN076AAXX  17124 83344 32498 62360 10215 20153 39190 40156 86200 333 20164 58010;EQDQ01  00002PRCP06
0167833440999992002101718004-14950-040880FM-12+0905SBQV V0201401N004110042019N0200001N1+02731+01521100971ADDAA106000091GF107991051021004501001091MA1999999091451MD1999999-0121REMSYN070AAXX  17184 83344 32498 71408 10273 20152 39145 40097 85209 333 59012;EQDQ01  00002PRCP06
0208833440999992002101800004-14950-040880FM-12+0905SBQV V0200901N003112200019N0100001N1+02011+01761101321ADDAA106000091GA1001+999999999GF100991001001999999001001KA1240M+02991MA1999999091721MD1999999-0141REMSYN082AAXX  18004 83344 32997 00906 10201 20176 39172 40132 333 10299 29073 55070 59014;EQDQ01  00002PRCP06
0186833440999992002101812004-14950-040880FM-12+0905SBQV V0200901N003110042019N0200001N1+02341+01621101481ADDAA106000091GF106991061011004501001001KA1240N+01611MA1999999091891MD1999999-0011REMSYN076AAXX  18124 83344 32498 60906 10234 20162 39189 40148 86100 333 20161 59001;EQDQ01  00002PRCP06
0167833440999992002101818004-14950-040880FM-12+0905SBQV V0201401N004110075019N0200001N1+02591+01261101181ADDAA106000091GF106991061021008001001001MA1999999091621MD1999999+0171REMSYN070AAXX  18184 83344 32598 61408 10259 20126 39162 40118 86200 333 58017;EQDQ01  00002PRCP06
0208833440999992002101900004-14950-040880FM-12+0905SBQV V0200901N003612200019N0100001N1+01891+01551101511ADDAA106000091GA1001+999999999GF100991001001999999001001KA1240M+02741MA1999999091891MD1999999+0171REMSYN082AAXX  19004 83344 32997 00907 10189 20155 39189 40151 333 10274 29067 55102 58017;EQDQ01  00002PRCP06
0186833440999992002101912004-14950-040880FM-12+0905SBQV V0200901N003612200019N0200001N1+02151+01531101741ADDAA106000091GF104991021021004501031001KA1240N+01501MA1999999092061MD1999999+0171REMSYN076AAXX  19124 83344 32498 40907 10215 20153 39206 40174 82230 333 20150 58017;EQDQ01  00002PRCP06
0167833440999992002101918004-14950-040880FM-12+0905SBQV V0201401N004112200019N0200001N1+02191+01741101441ADDAA106000091GF104991021041004501081001MA1999999091731MD1999999+0111REMSYN070AAXX  19184 83344 32498 41408 10219 20174 39173 40144 82480 333 58011;EQDQ01  00002PRCP06
0198833440999992002102000004-14950-040880FM-12+0905SBQV V0200901N003111050019N0040001N1+01851+01661101511ADDAA106000091GF106991021001012501021091KA1240M+02491MA1999999091851MD1999999-0041REMSYN088AAXX  20004 83344 32696 60906 10185 20166 39185 40151 82029 333 10249 29081 55070 59004;EQDQ01  00002PRCP06
0190833440999992002102012004-14950-040880FM-12+0905SBQV V0200501N004610450019N0200001N1+02111+01681101601ADDAY151061AY221061GF106991041041004501051001KA1240N+01601MA1999999091941MD1999999-0121MW1031REMSYN088AAXX  20124 83344 21498 60509 10211 20168 39194 40160 70352 84450 333 20160 59012 69924;
0167833440999992002102018004-14950-040880FM-12+0905SBQV V0201401N004110042019N0200001N1+02591+01261101131ADDAA106000091GF105991051021004501001001MA1999999091571MD1999999-0161REMSYN070AAXX  20184 83344 32498 51408 10259 20126 39157 40113 85200 333 59016;EQDQ01  00002PRCP06
0214833440999992002102100004-14950-040880FM-12+0905SBQV V0200901N002112200019N0100001N1+01831+01701101491ADDAA106000091GF104991001001999999001091KA1240M+02711MA1999999091821MD1999999-0031REMSYN088AAXX  21004 83344 32997 40904 10183 20170 39182 40149 84009 333 10271 29077 55075 59003;EQDQ01+000042SCOTLCQ02  00002PRCP06
0186833440999992002102112004-14950-040880FM-12+0905SBQV V0200501N004610450019N0200001N1+02251+01371101651ADDAA106000091GF107991021011008001061041KA1240N+01481MA1999999092001MD1999999+0061REMSYN076AAXX  21124 83344 32598 70509 10225 20137 39200 40165 82164 333 20148 58006;EQDQ01  00002PRCP06
0208833440999992002102200004-14950-040880FM-12+0905SBQV V0200501N003112200019N0100001N1+01831+01291101361ADDAA106000091GA1001+999999999GF100991001001999999001001KA1240M+02951MA1999999091741MD1999999-0081REMSYN082AAXX  22004 83344 32997 00506 10183 20129 39174 40136 333 10295 29061 55114 59008;EQDQ01  00002PRCP06
0186833440999992002102212004-14950-040880FM-12+0905SBQV V0200501N004119999999N0200001N1+02371+01231101521ADDAA106000091GF107991021001004501081091KA1240N+01351MA1999999091901MD1999999-0101REMSYN076AAXX  22124 83344 32498 70508 10237 20123 39190 40152 82089 333 20135 59010;EQDQ01  00002PRCP06
0167833440999992002102218004-14950-040880FM-12+0905SBQV V0201401N003119999999N0200001N1+02891+00951101151ADDAA106000091GF106991001001999999001051MA1999999091591MD1999999-0031REMSYN070AAXX  22184 83344 32998 61406 10289 20095 39159 40115 80005 333 59003;EQDQ01  00002PRCP06
0208833440999992002102300004-14950-040880FM-12+0905SBQV V0200901N002112200019N0040001N1+01931+01571101391ADDAA106000091GA1001+999999999GF100991001001999999001001KA1240M+03071MA1999999091811MD1999999+0071REMSYN082AAXX  23004 83344 32996 00904 10193 20157 39181 40139 333 10307 29060 55106 58007;EQDQ01  00002PRCP06
0186833440999992002102312004-14950-040880FM-12+0905SBQV V0200901N002610042019N0200001N1+02211+01581101641ADDAA106000091GF105991051021004501001001KA1240N+01381MA1999999091991MD1999999+0091REMSYN076AAXX  23124 83344 32498 50905 10221 20158 39199 40164 85200 333 20138 58009;EQDQ01  00002PRCP06
0167833440999992002102318004-14950-040880FM-12+0905SBQV V0200901N003110042019N0200001N1+02711+01721101201ADDAA106000091GF105991051021004501001001MA1999999091591MD1999999+0001REMSYN070AAXX  23184 83344 32498 50906 10271 20172 39159 40120 85200 333 58000;EQDQ01  00002PRCP06
0208833440999992002102400004-14950-040880FM-12+0905SBQV V0200901N001512200019N0010001N1+02101+01851101511ADDAA106000091GA1001+999999999GF100991001001999999001001KA1240M+02931MA1999999091891MD1999999+0081REMSYN082AAXX  24004 83344 32594 00903 10210 20185 39189 40151 333 10293 29076 55102 58008;EQDQ01  00002PRCP06
0186833440999992002102412004-14950-040880FM-12+0905SBQV V0200901N005110450019N0200001N1+02221+01601101631ADDAA106000091GF106991041021008001061001KA1240N+01581MA1999999092001MD1999999+0011REMSYN076AAXX  24124 83344 32598 60910 10222 20160 39200 40163 84260 333 20158 58001;EQDQ01  00002PRCP06
0167833440999992002102418004-14950-040880FM-12+0905SBQV V0201401N003110075019N0200001N1+02711+01571101101ADDAA106000091GF107991051021008001001061MA1999999091561MD1999999-0031REMSYN070AAXX  24184 83344 32598 71406 10271 20157 39156 40110 85206 333 59003;EQDQ01  00002PRCP06
0190833440999992002102512004-14950-040880FM-12+0905SBQV V0200901N002610042019N0200001N1+01991+01781101491ADDAY161061AY221061GF107991071051004501001001KA1240N+01701MA1999999091841MD1999999-0161MW1011REMSYN088AAXX  25124 83344 21498 70905 10199 20178 39184 40149 70162 87500 333 20170 59016 60014;
0167833440999992002102518004-14950-040880FM-12+0905SBQV V0200901N003112200019N0200001N1+02671+01501100941ADDAA106000091GF102991021011004501001001MA1999999091421MD1999999-0141REMSYN070AAXX  25184 83344 32498 20906 10267 20150 39142 40094 82100 333 59014;EQDQ01  00002PRCP06
0198833440999992002102700004-14950-040880FM-12+0905SBQV V0200501N003112200019N0100001N1+02051+01601101111ADDAA106000091GF104991041051004501001001KA1240M+02971MA1999999091571MD1999999-0101REMSYN088AAXX  27004 83344 32497 40506 10205 20160 39157 40111 84500 333 10297 29068 55104 59010;EQDQ01  00002PRCP06
0186833440999992002102712004-14950-040880FM-12+0905SBQV V0203601N003112200019N0200001N1+02351+01761101191ADDAA106000091GF102991021001012501031001KA1240N+01501MA1999999091651MD1999999-0151REMSYN076AAXX  27124 83344 32698 23606 10235 20176 39165 40119 82030 333 20150 59015;EQDQ01  00002PRCP06
0167833440999992002102718004-14950-040880FM-12+0905SBQV V0201401N005110450019N0200001N1+02851+01881100821ADDAA106000091GF106991041021004501031001MA1999999091311MD1999999-0071REMSYN070AAXX  27184 83344 32498 61410 10285 20188 39131 40082 84230 333 59007;EQDQ01  00002PRCP06
0208833440999992002102800004-14950-040880FM-12+0905SBQV V0200501N002112200019N0100001N1+02071+01741101061ADDAA106000091GA1001+999999999GF100991001001999999001001KA1240M+03071MA1999999091531MD1999999-0041REMSYN082AAXX  28004 83344 32997 00504 10207 20174 39153 40106 333 10307 29072 55087 59004;EQDQ01  00002PRCP06
0186833440999992002102812004-14950-040880FM-12+0905SBQV V0200501N003112200019N0200001N1+02471+01681101261ADDAA106000091GF104991021041004501031001KA1240N+01541MA1999999091731MD1999999+0081REMSYN076AAXX  28124 83344 32498 40506 10247 20168 39173 40126 82430 333 20154 58008;EQDQ01  00002PRCP06
0167833440999992002102818004-14950-040880FM-12+0905SBQV V0200501N004110450019N0200001N1+02821+01711100911ADDAA106000091GF106991021041004501091001MA1999999091391MD1999999+0081REMSYN070AAXX  28184 83344 32498 60508 10282 20171 39139 40091 82490 333 58008;EQDQ01  00002PRCP06
0208833440999992002102900004-14950-040880FM-12+0905SBQV V0200901N002112200019N0040001N1+01991+01741101081ADDAA106000091GA1001+999999999GF100991001001999999001001KA1240M+02931MA1999999091561MD1999999+0031REMSYN082AAXX  29004 83344 32996 00904 10199 20174 39156 40108 333 10293 29071 55092 58003;EQDQ01  00002PRCP06
0186833440999992002102912004-14950-040880FM-12+0905SBQV V0201401N003112200019N0200001N1+02381+01261101261ADDAA106000091GF103991031011004501001001KA1240N+01501MA1999999091711MD1999999-0021REMSYN076AAXX  29124 83344 32498 31406 10238 20126 39171 40126 83100 333 20150 59002;EQDQ01  00002PRCP06
0167833440999992002102918004-14950-040880FM-12+0905SBQV V0201401N003611050019N0200001N1+02761+01721100811ADDAA106000091GF106991031021004501001021MA1999999091301MD1999999-0091REMSYN070AAXX  29184 83344 32498 61407 10276 20172 39130 40081 83202 333 59009;EQDQ01  00002PRCP06
0208833440999992002103000004-14950-040880FM-12+0905SBQV V0201401N003112200019N0100001N1+01991+01811101031ADDAA106000091GA1001+999999999GF100991001001999999001001KA1240M+03011MA1999999091501MD1999999-0061REMSYN082AAXX  30004 83344 32997 01406 10199 20181 39150 40103 333 10301 29074 55093 59006;EQDQ01  00002PRCP06
0186833440999992002103012004-14950-040880FM-12+0905SBQV V0203601N004111050019N0200001N1+02411+01651101151ADDAA106000091GF106991041021008001001051KA1240N+01481MA1999999091611MD1999999-0101REMSYN076AAXX  30124 83344 32598 63608 10241 20165 39161 40115 84205 333 20148 59010;EQDQ01  00002PRCP06
0167833440999992002103018004-14950-040880FM-12+0905SBQV V0201401N004110450019N0200001N1+02871+01621100671ADDAA106000091GF107991041031008001021061MA1999999091171MD1999999-0131REMSYN070AAXX  30184 83344 32598 71408 10287 20162 39117 40067 84326 333 59013;EQDQ01  00002PRCP06
0198833440999992002103100004-14950-040880FM-12+0905SBQV V0200501N004110075019N0100001N1+02211+01821100951ADDAA106000091GF108991081031008001999999KA1240M+02991MA1999999091461MD1999999-0041REMSYN088AAXX  31004 83344 32597 80508 10221 20182 39146 40095 883// 333 10299 29067 55064 59004;EQDQ01  00002PRCP06
0186833440999992002103112004-14950-040880FM-12+0905SBQV V0203601N004110021019N0100001N1+02431+01791101081ADDAA106000091GF108991051061002501071999KA1240N+01831MA1999999091581MD1999999-0031REMSYN076AAXX  31124 83344 32397 83608 10243 20179 39158 40108 8567/ 333 20183 59003;EQDQ01  00002PRCP06
0167833440999992002103118004-14950-040880FM-12+0905SBQV V0203601N002610450019N0200001N1+02731+01711100651ADDAA106000091GF107991041031008001071001MA1999999091191MD1999999+0021REMSYN070AAXX  31184 83344 32598 73605 10273 20171 39119 40065 84370 333 58002;EQDQ01  00002PRCP06
0202833440999992002110100004-14950-040880FM-12+0905SBQV V0201401N001010075019N0040001N1+02151+02021100981ADDAY191061AY261061GF108991081091008001999999KA1240M+02811MA1999999091491MD1999999+0031MW1291REMSYN100AAXX  01004 83344 21596 81402 10215 20202 39149 40098 72996 889// 333 10281 29077 55005 58003 69981;
0190833440999992002110112004-14950-040880FM-12+0905SBQV V0203601N002110042019N0100001N1+02151+02021101161ADDAY161061AY251061GF108991081071004501999999KA1240N+01381MA1999999091601MD1999999+0021MW1021REMSYN088AAXX  01124 83344 21497 83604 10215 20202 39160 40116 70265 887// 333 20138 58002 60074;
0171833440999992002110118004-14950-040880FM-12+0905SBQV V0209999C000010021019N0040001N1+02111+02031101051ADDAY161061AY251061GF108991081071002501999999MA1999999091501MD1999999+0311MW1611REMSYN082AAXX  01184 83344 21396 80000 10211 20203 39150 40105 76165 887// 333 58031 60041;
0202833440999992002110200004-14950-040880FM-12+0905SBQV V0203601N002110042019N0040001N1+02001+01931101201ADDAY161061AY251061GF108991081071004501999999KA1240M+02211MA1999999091591MD1999999+0101MW1031REMSYN100AAXX  02004 83344 21496 83604 10200 20193 39159 40120 70365 887// 333 10221 29095 55000 58010 60061;
0162833440999992002110212004-14950-040880FM-12+0905SBQV V0202701N000510450019N0200001N1+02371+01991101221ADDGF106991021021004501061001KA1240N+01741MA1999999091671MD1999999+0071REMSYN082AAXX  02124 83344 22498 62701 10237 20199 39167 40122 82260 333 20174 58007 60104;
0167833440999992002110218004-14950-040880FM-12+0905SBQV V0200701N002110450019N0200001N1+02851+01961100691ADDAA106000091GF106991021061004501031081MA1999999091231MD1999999-0271REMSYN070AAXX  02184 83344 32498 60704 10285 20196 39123 40069 82638 333 59027;EQDQ01  00002PRCP06
0198833440999992002110300004-14950-040880FM-12+0905SBQV V0200901N002112200019N0040001N1+02121+01981101041ADDAA106000091GF104991041001012501071001KA1240M+03011MA1999999091531MD1999999-0061REMSYN088AAXX  03004 83344 32696 40904 10212 20198 39153 40104 84070 333 10301 29081 55067 59006;EQDQ01  00002PRCP06
0186833440999992002110312004-14950-040880FM-12+0905SBQV V0201401N003610120019N0200001N1+02121+01881101271ADDAA106000091GF108991081001012501021999KA1240N+01741MA1999999091671MD1999999+0001REMSYN076AAXX  03124 83344 32698 81407 10212 20188 39167 40127 8802/ 333 20174 58000;EQDQ01  00002PRCP06
0167833440999992002110318004-14950-040880FM-12+0905SBQV V0201401N003111050019N0200001N1+02371+01931100951ADDAA106000091GF107991041001012501071091MA1999999091391MD1999999+0161REMSYN070AAXX  03184 83344 32698 71406 10237 20193 39139 40095 84079 333 58016;EQDQ01  00002PRCP06
0198833440999992002110400004-14950-040880FM-12+0905SBQV V0200901N002110120019N0040001N1+01991+01901101321ADDAA106000091GF106991061001012501031001KA1240M+02571MA1999999091681MD1999999+0151REMSYN088AAXX  04004 83344 32696 60904 10199 20190 39168 40132 86030 333 10257 29088 55014 58015;EQDQ01  00002PRCP06
0186833440999992002110412004-14950-040880FM-12+0905SBQV V0203601N003110042019N0100001N1+02251+01881101301ADDAA106000091GF108991081071004501999999KA1240N+01751MA1999999091701MD1999999+0031REMSYN076AAXX  04124 83344 32497 83606 10225 20188 39170 40130 887// 333 20175 58003;EQDQ01  00002PRCP06
0167833440999992002110418004-14950-040880FM-12+0905SBQV V0201801N003110042019N0200001N1+02571+02061100881ADDAA106000091GF106991061071004501001001MA1999999091351MD1999999-0041REMSYN070AAXX  04184 83344 32498 61806 10257 20206 39135 40088 86700 333 59004;EQDQ01  00002PRCP06
0202833440999992002110500004-14950-040880FM-12+0905SBQV V0200501N002610021019N0040001N1+02051+01961101201ADDAY121061AY211061GF106991061071002501001001KA1240M+02951MA1999999091641MD1999999-0041MW1031REMSYN100AAXX  05004 83344 21396 60505 10205 20196 39164 40120 70321 86700 333 10295 29086 55029 59004 69961;
0190833440999992002110512004-14950-040880FM-12+0905SBQV V0203601N003110450019N0200001N1+02411+02031101311ADDAY151061AY221061GF108991041031008001011999KA1240N+01851MA1999999091771MD1999999+0071MW1021REMSYN088AAXX  05124 83344 21598 83606 10241 20203 39177 40131 70252 8431/ 333 20185 58007 69964;
0167833440999992002110518004-14950-040880FM-12+0905SBQV V0203601N001510450019N0200001N1+02911+01931100811ADDAA106000091GF107991041031008001011001MA1999999091381MD1999999-0031REMSYN070AAXX  05184 83344 32598 73603 10291 20193 39138 40081 84310 333 59003;EQDQ01  00002PRCP06
0198833440999992002110600004-14950-040880FM-12+0905SBQV V0200501N002110075019N0100001N1+02151+01931101131ADDAA106000091GF108991081031008001999999KA1240M+02971MA1999999091631MD1999999-0011REMSYN088AAXX  06004 83344 32597 80504 10215 20193 39163 40113 883// 333 10297 29078 55010 59001;EQDQ01  00002PRCP06
0186833440999992002110612004-14950-040880FM-12+0905SBQV V0203601N003110042019N0200001N1+02231+01941101351ADDAA106000091GF108991081071004501999999KA1240N+01901MA1999999091791MD1999999+0021REMSYN076AAXX  06124 83344 32498 83606 10223 20194 39179 40135 887// 333 20190 58002;EQDQ01  00002PRCP06
0165833440999992002110618004-14950-040880FM-12+0905SBQV V0200901N003610042019N0200001N1+02491+02071101121ADDAY121061AY221061GF108991081071004501999999MA1999999091581MD1999999+0201MW1161REMSYN076AAXX  06184 83344 21498 80907 10249 20207 39158 40112 71622 887// 333 58020;
0202833440999992002110700004-14950-040880FM-12+0905SBQV V0200901N001510042019N0040001N1+02031+01961101401ADDAY121061AY221061GF108991081051004501999999KA1240M+02731MA1999999091821MD1999999+0211MW1621REMSYN100AAXX  07004 83344 21496 80903 10203 20196 39182 40140 76222 885// 333 10273 29088 55001 58021 60241;
0209833440999992002110712004-14950-040880FM-12+0905SBQV V0201801N001510042019N0200001N1+01871+01761101711ADDAY121061AY291061GF108991999071004501051999KA1240N+01611MA1999999092021MD1999999+0231MW1031REMSYN088AAXX  07124 83344 21498 81803 10187 20176 39202 40171 70329 8875/ 333 20161 58023 60524;EQDQ01+000082SCOTLC
0167833440999992002110718004-14950-040880FM-12+0905SBQV V0201801N003110450019N0200001N1+02151+01841101441ADDAA106000091GF108991041071004501051999MA1999999091771MD1999999+0191REMSYN070AAXX  07184 83344 32498 81806 10215 20184 39177 40144 8475/ 333 58019;EQDQ01  00002PRCP06
0198833440999992002110800004-14950-040880FM-12+0905SBQV V0201401N002610042019N0040001N1+01691+01661101741ADDAA106000091GF108991081071004501999999KA1240M+02211MA1999999091981MD1999999+0161REMSYN088AAXX  08004 83344 32496 81405 10169 20166 39198 40174 887// 333 10221 29094 55000 58016;EQDQ01  00002PRCP06
0190833440999992002110812004-14950-040880FM-12+0905SBQV V0201401N004610042019N0200001N1+01811+01561101841ADDAY151061AY221061GF108991081071004501999999KA1240N+01421MA1999999092051MD1999999+0031MW1021REMSYN088AAXX  08124 83344 21498 81409 10181 20156 39205 40184 70252 887// 333 20142 58003 69924;
0167833440999992002110818004-14950-040880FM-12+0905SBQV V0201401N003110042019N0200001N1+01851+01561101611ADDAA106000091GF108991081071004501999999MA1999999091811MD1999999+0041REMSYN070AAXX  08184 83344 32498 81406 10185 20156 39181 40161 887// 333 58004;EQDQ01  00002PRCP06
0198833440999992002110900004-14950-040880FM-12+0905SBQV V0201401N003110042019N0100001N1+01691+01571101791ADDAA106000091GF108991081071004501999999KA1240M+01911MA1999999092011MD1999999+0031REMSYN088AAXX  09004 83344 32497 81406 10169 20157 39201 40179 887// 333 10191 29089 55006 58003;EQDQ01  00002PRCP06
0186833440999992002110912004-14950-040880FM-12+0905SBQV V0200901N003610042019N0200001N1+02151+01661101791ADDAA106000091GF107991071051004501001001KA1240N+01501MA1999999092061MD1999999+0011REMSYN076AAXX  09124 83344 32498 70907 10215 20166 39206 40179 87500 333 20150 58001;EQDQ01  00002PRCP06
0167833440999992002110918004-14950-040880FM-12+0905SBQV V0201401N004610450019N0200001N1+02231+01821101531ADDAA106000091GF106991041041004501031001MA1999999091811MD1999999+0001REMSYN070AAXX  09184 83344 32498 61409 10223 20182 39181 40153 84430 333 58000;EQDQ01  00002PRCP06
0198833440999992002111000004-14950-040880FM-12+0905SBQV V0201401N002112200019N0040001N1+01871+01741101601ADDAA106000091GF102991021001012501081001KA1240M+02411MA1999999091941MD1999999-0071REMSYN088AAXX  10004 83344 32696 21404 10187 20174 39194 40160 82080 333 10241 29085 55044 59007;EQDQ01  00002PRCP06
0186833440999992002111012004-14950-040880FM-12+0905SBQV V0200501N003110042019N0200001N1+02351+01781101611ADDAA106000091GF106991061041004501001001KA1240N+01781MA1999999091981MD1999999-0081REMSYN076AAXX  10124 83344 32498 60506 10235 20178 39198 40161 86400 333 20178 59008;EQDQ01  00002PRCP06
0167833440999992002111018004-14950-040880FM-12+0905SBQV V0200901N004110042019N0200001N1+02591+01851101151ADDAA106000091GF105991051021004501001001MA1999999091611MD1999999-0201REMSYN070AAXX  10184 83344 32498 50908 10259 20185 39161 40115 85200 333 59020;EQDQ01  00002PRCP06
0208833440999992002111100004-14950-040880FM-12+0905SBQV V0201401N001012200019N0100001N1+02011+01881101331ADDAA106000091GA1001+999999999GF100991001001999999001001KA1240M+02731MA1999999091771MD1999999-0171REMSYN082AAXX  11004 83344 32497 01402 10201 20188 39177 40133 333 10273 29068 55068 59017;EQDQ01  00002PRCP06
0186833440999992002111112004-14950-040880FM-12+0905SBQV V0200501N004110450019N0200001N1+02371+01851101491ADDAA106000091GF106991031031004501071001KA1240N+01741MA1999999091921MD1999999+0061REMSYN076AAXX  11124 83344 32498 60508 10237 20185 39192 40149 83370 333 20174 58006;EQDQ01  00002PRCP06
0167833440999992002111118004-14950-040880FM-12+0905SBQV V0201801N005110450019N0200001N1+02711+01941101121ADDAA106000091GF106991041041004501051001MA1999999091621MD1999999+0011REMSYN070AAXX  11184 83344 32498 61810 10271 20194 39162 40112 84450 333 58001;EQDQ01  00002PRCP06
0208833440999992002111200004-14950-040880FM-12+0905SBQV V0200901N001012200019N0100001N1+02071+01851101291ADDAA106000091GA1001+999999999GF100991001001999999001001KA1240M+03011MA1999999091741MD1999999-0031REMSYN082AAXX  12004 83344 32997 00902 10207 20185 39174 40129 333 10301 29078 55063 59003;EQDQ01  00002PRCP06
0186833440999992002111212004-14950-040880FM-12+0905SBQV V0200901N002610042019N0200001N1+02111+01641101741ADDAA106000091GF108991081051004501999999KA1240N+01501MA1999999092101MD1999999+0181REMSYN076AAXX  12124 83344 32498 80905 10211 20164 39210 40174 885// 333 20150 58018;EQDQ01  00002PRCP06
0167833440999992002111218004-14950-040880FM-12+0905SBQV V0201401N003612200019N0200001N1+02631+01461101291ADDAA106000091GF102991011011004501031001MA1999999091721MD1999999+0101REMSYN070AAXX  12184 83344 32498 21407 10263 20146 39172 40129 81130 333 58010;EQDQ01  00002PRCP06
0208833440999992002111300004-14950-040880FM-12+0905SBQV V0200901N003112200019N0040001N1+01951+01641101591ADDAA106000091GA1001+999999999GF100991001001999999001001KA1240M+02791MA1999999091951MD1999999+0211REMSYN082AAXX  13004 83344 32996 00906 10195 20164 39195 40159 333 10279 29073 55076 58021;EQDQ01  00002PRCP06
0186833440999992002111312004-14950-040880FM-12+0905SBQV V0200901N003110450019N0200001N1+02151+01481101801ADDAA106000091GF106991041021004501081001KA1240N+01481MA1999999092171MD1999999+0071REMSYN076AAXX  13124 83344 32498 60906 10215 20148 39217 40180 84280 333 20148 58007;EQDQ01  00002PRCP06
0167833440999992002111318004-14950-040880FM-12+0905SBQV V0200901N003612200019N0200001N1+02531+01211101481ADDAA106000091GF103991031021004501001001MA1999999091831MD1999999+0111REMSYN070AAXX  13184 83344 32498 30907 10253 20121 39183 40148 83200 333 58011;EQDQ01  00002PRCP06
0208833440999992002111400004-14950-040880FM-12+0905SBQV V0200901N003612200019N0100001N1+01931+01491101631ADDAA106000091GA1001+999999999GF100991001001999999001001KA1240M+02711MA1999999091981MD1999999+0031REMSYN082AAXX  14004 83344 32997 00907 10193 20149 39198 40163 333 10271 29071 55104 58003;EQDQ01  00002PRCP06
0186833440999992002111412004-14950-040880FM-12+0905SBQV V0200901N003110075019N0200001N1+02261+01661101801ADDAA106000091GF106991061011008001001001KA1240N+01871MA1999999092151MD1999999-0021REMSYN076AAXX  14124 83344 32598 60906 10226 20166 39215 40180 86100 333 20187 59002;EQDQ01  00002PRCP06
0167833440999992002111418004-14950-040880FM-12+0905SBQV V0201401N005110450019N0200001N1+02251+01861101611ADDAA106000091GF105991031071004501071001MA1999999091931MD1999999+0101REMSYN070AAXX  14184 83344 32498 51410 10225 20186 39193 40161 83770 333 58010;EQDQ01  00002PRCP06
0202833440999992002111500004-14950-040880FM-12+0905SBQV V0200901N004112200019N0040001N1+01771+01701101641ADDAY151061AY221061GF104991041071004501001001KA1240M+02431MA1999999091971MD1999999-0011MW1021REMSYN100AAXX  15004 83344 21496 40908 10177 20170 39197 40164 70252 84700 333 10243 29/// 55/// 59001 69921;
0190833440999992002111512004-14950-040880FM-12+0905SBQV V0200901N004110042019N0200001N1+02151+01701101701ADDAY151061AY221061GF107991071071004501001001KA1240N+01661MA1999999092051MD1999999-0101MW1021REMSYN088AAXX  15124 83344 21498 70908 10215 20170 39205 40170 70252 87700 333 20166 59010 69934;
0167833440999992002111518004-14950-040880FM-12+0905SBQV V0201401N004610075019N0200001N1+02511+01591101291ADDAA106000091GF105991051021008001001001MA1999999091691MD1999999-0241REMSYN070AAXX  15184 83344 32598 51409 10251 20159 39169 40129 85200 333 59024;EQDQ01  00002PRCP06
0208833440999992002111600004-14950-040880FM-12+0905SBQV V0200901N002612200019N0040001N1+01891+01731101541ADDAA106000091GA1001+999999999GF100991001001999999001001KA1240M+02711MA1999999091881MD1999999-0091REMSYN082AAXX  16004 83344 32996 00905 10189 20173 39188 40154 333 10271 29079 55083 59009;EQDQ01  00002PRCP06
0186833440999992002111612004-14950-040880FM-12+0905SBQV V0200501N002111050019N0200001N1+02241+01671101551ADDAA106000091GF106991041011008001001081KA1240N+01541MA1999999091911MD1999999-0141REMSYN076AAXX  16124 83344 32598 60504 10224 20167 39191 40155 84108 333 20154 59014;EQDQ01  00002PRCP06
0167833440999992002111618004-14950-040880FM-12+0905SBQV V0201401N004112200019N0200001N1+02691+01811101111ADDAA106000091GF105991031011008001001041MA1999999091551MD1999999-0141REMSYN070AAXX  16184 83344 32598 51408 10269 20181 39155 40111 83104 333 59014;EQDQ01  00002PRCP06
0208833440999992002111700004-14950-040880FM-12+0905SBQV V0200501N003112200019N0040001N1+01951+01611101251ADDAA106000091GA1001+999999999GF100991001001999999001001KA1240M+02831MA1999999091651MD1999999-0231REMSYN082AAXX  17004 83344 32996 00506 10195 20161 39165 40125 333 10283 29073 55097 59023;EQDQ01  00002PRCP06
0186833440999992002111712004-14950-040880FM-12+0905SBQV V0200501N003110450019N0200001N1+02271+01661101391ADDAA106000091GF106991031011008001081001KA1240N+01571MA1999999091781MD1999999-0131REMSYN076AAXX  17124 83344 32598 60506 10227 20166 39178 40139 83180 333 20157 59013;EQDQ01  00002PRCP06
0167833440999992002111718004-14950-040880FM-12+0905SBQV V0200901N003110075019N0200001N1+02711+01631100941ADDAA106000091GF105991051011008001001001MA1999999091401MD1999999-0151REMSYN070AAXX  17184 83344 32598 50906 10271 20163 39140 40094 85100 333 59015;EQDQ01  00002PRCP06
0198833440999992002111800004-14950-040880FM-12+0905SBQV V0200501N000512200019N0040001N1+01991+01641101301ADDAA106000091GF101991001001999999001021KA1240M+02951MA1999999091731MD1999999+0081REMSYN088AAXX  18004 83344 32996 10501 10199 20164 39173 40130 80002 333 10295 29071 55111 58008;EQDQ01  00002PRCP06
0186833440999992002111812004-14950-040880FM-12+0905SBQV V0200501N003119999999N0200001N1+02331+01531101421ADDAA106000091GF106991031001004501081011KA1240N+01561MA1999999091841MD1999999+0061REMSYN076AAXX  18124 83344 32498 60506 10233 20153 39184 40142 83081 333 20156 58006;EQDQ01  00002PRCP06
0167833440999992002111818004-14950-040880FM-12+0905SBQV V0201401N006210450019N0200001N1+02691+01731101051ADDAA106000091GF106991021011004501041011MA1999999091481MD1999999+0081REMSYN070AAXX  18184 83344 32498 61412 10269 20173 39148 40105 82141 333 58008;EQDQ01  00002PRCP06
0208833440999992002111900004-14950-040880FM-12+0905SBQV V0200901N002612200019N0040001N1+02011+01761101171ADDAA106000091GA1001+999999999GF100991001001999999001001KA1240M+02991MA1999999091611MD1999999-0121REMSYN082AAXX  19004 83344 32996 00905 10201 20176 39161 40117 333 10299 29072 55111 59012;EQDQ01  00002PRCP06
0202833440999992002111912004-14950-040880FM-12+0905SBQV V0203601N004110042019N0200001N1+02481+01681101281ADDAA106000091GF106991999021004501001001KA1240N+01641MA1999999091751MD1999999-0091REMSYN076AAXX  19124 83344 32498 63608 10248 20168 39175 40128 85200 333 20164 59009;EQDQ01+000052SCOTLCQ02  00002PRCP06
0183833440999992002111918004-14950-040880FM-12+0905SBQV V0201401N003111050019N0200001N1+02891+01891100891ADDAA106000091GF106991041021004501001091MA1999999999999MD1999999-0091REMSYN070AAXX  19184 83344 32498 61406 10289 20189 39439 40089 84209 333 59009;EQDQ01  00002PRCP06Q02 094393APOSP 
0214833440999992002112000004-14950-040880FM-12+0905SBQV V0200901N002619999999N0100001N1+02051+01761101221ADDAA106000091GF107991001001999999001061KA1240M+03011MA1999999091692MD1999999+0081REMSYN088AAXX  20004 83344 32997 70905 10205 20176 39169 40122 80006 333 10301 29071 55094 58008;EQDQ01+091693APOSP Q02  00002PRCP06
0186833440999992002112112004-14950-040880FM-12+0905SBQV V0200501N003110042019N0200001N1+02311+01721101461ADDAA106000091GF108991081071004501999999KA1240N+01631MA1999999091871MD1999999-0141REMSYN076AAXX  21124 83344 32498 80506 10231 20172 39187 40146 887// 333 20163 59014;EQDQ01  00002PRCP06
0167833440999992002112118004-14950-040880FM-12+0905SBQV V0200901N003110042019N0200001N1+02691+01781101111ADDAA106000091GF106991061071004501001001MA1999999091571MD1999999+0131REMSYN070AAXX  21184 83344 32498 60906 10269 20178 39157 40111 86700 333 58013;EQDQ01  00002PRCP06
0208833440999992002112200004-14950-040880FM-12+0905SBQV V0200901N002112200019N0100001N1+02051+01831101231ADDAA106000091GA1001+999999999GF100991001001999999001001KA1240M+02871MA1999999091681MD1999999-0091REMSYN082AAXX  22004 83344 32997 00904 10205 20183 39168 40123 333 10287 29076 55070 59009;EQDQ01  00002PRCP06
0186833440999992002112212004-14950-040880FM-12+0905SBQV V0200501N002610042019N0100001N1+02171+01781101541ADDAA106000091GF108991081071004501999999KA1240N+01691MA1999999091921MD1999999+0051REMSYN076AAXX  22124 83344 32497 80505 10217 20178 39192 40154 887// 333 20169 58005;EQDQ01  00002PRCP06
0167833440999992002112218004-14950-040880FM-12+0905SBQV V0200901N003110042019N0200001N1+02611+01791101161ADDAA106000091GF106991061071004501001001MA1999999091621MD1999999+0051REMSYN070AAXX  22184 83344 32498 60906 10261 20179 39162 40116 86700 333 58005;EQDQ01  00002PRCP06
0208833440999992002112300004-14950-040880FM-12+0905SBQV V0200901N004112200019N0100001N1+02191+01861101291ADDAA106000091GA1001+999999999GF100991001001999999001001KA1240M+02791MA1999999091741MD1999999+0061REMSYN082AAXX  23004 83344 32997 00908 10219 20186 39174 40129 333 10279 29076 55009 58006;EQDQ01  00002PRCP06
0186833440999992002112312004-14950-040880FM-12+0905SBQV V0200901N003110042019N0100001N1+02391+01751101541ADDAA106000091GF107991071071004501001001KA1240N+01691MA1999999092001MD1999999+0081REMSYN076AAXX  23124 83344 32497 70906 10239 20175 39200 40154 87700 333 20169 58008;EQDQ01  00002PRCP06
0167833440999992002112318004-14950-040880FM-12+0905SBQV V0200901N005110075019N0200001N1+02771+01621101221ADDAA106000091GF105991051011008001001001MA1999999091691MD1999999+0071REMSYN070AAXX  23184 83344 32598 50910 10277 20162 39169 40122 85100 333 58007;EQDQ01  00002PRCP06
0208833440999992002112400004-14950-040880FM-12+0905SBQV V0201401N002612200019N0100001N1+02081+01841101471ADDAA106000091GA1001+999999999GF100991001001999999001001KA1240M+02971MA1999999091921MD1999999+0181REMSYN082AAXX  24004 83344 32997 01405 10208 20184 39192 40147 333 10297 29072 55096 58018;EQDQ01  00002PRCP06
0165833440999992002112418004-14950-040880FM-12+0905SBQV V0202301N002110042019N0200001N1+02451+01811101411ADDAY121061AY221061GF106991061071004501001001MA1999999091801MD1999999+0111MW1171REMSYN076AAXX  24184 83344 21498 62304 10245 20181 39180 40141 71722 86700 333 58011;
0202833440999992002112500004-14950-040880FM-12+0905SBQV V0200501N003112200019N0040001N1+02091+01801101451ADDAY151061AY221061GF101991011011999999001001KA1240M+02931MA1999999091881MD1999999-0041MW1011REMSYN100AAXX  25004 83344 21996 10506 10209 20180 39188 40145 70152 81100 333 10293 29078 55027 59004 69981;
0162833440999992002112512004-14950-040880FM-12+0905SBQV V0200501N005110042019N0200001N1+02331+01551101591ADDGF105991051021004501001001KA1240N+01501MA1999999092641MD1999999-0101REMSYN082AAXX  25124 83344 22498 50510 10233 20155 39264 40159 85200 333 20150 59010 69984;
0183833440999992002112518004-14950-040880FM-12+0905SBQV V0200501N005110450019N0200001N1+02851+01391101241ADDAA106000091GF105991021011004501051001MA1999999091692MD1999999-0111REMSYN070AAXX  25184 83344 32498 50510 10285 20139 39169 40124 82150 333 59011;EQDQ01+091693APOSP Q02  00002PRCP06
0208833440999992002112600004-14950-040880FM-12+0905SBQV V0200501N002112200019N0100001N1+02011+01461101531ADDAA106000091GA1001+999999999GF100991001001999999001001KA1240M+02971MA1999999091941MD1999999+0061REMSYN082AAXX  26004 83344 32997 00504 10201 20146 39194 40153 333 10297 29061 55104 58006;EQDQ01  00002PRCP06
0186833440999992002112612004-14950-040880FM-12+0905SBQV V0200501N004611050019N0200001N1+02291+01511101691ADDAA106000091GF107991031041008001001061KA1240N+01291MA1999999092071MD1999999+0061REMSYN076AAXX  26124 83344 32598 70509 10229 20151 39207 40169 83406 333 20129 58006;EQDQ01  00002PRCP06
0167833440999992002112618004-14950-040880FM-12+0905SBQV V0200901N003111050019N0200001N1+02731+01421101321ADDAA106000091GF106991031011008001001051MA1999999091701MD1999999+0011REMSYN070AAXX  26184 83344 32598 60906 10273 20142 39170 40132 83105 333 58001;EQDQ01  00002PRCP06
0208833440999992002112700004-14950-040880FM-12+0905SBQV V0200501N004612200019N0100001N1+01931+01571101421ADDAA106000091GA1001+999999999GF100991001001999999001001KA1240M+02871MA1999999091811MD1999999-0131REMSYN082AAXX  27004 83344 32997 00509 10193 20157 39181 40142 333 10287 29067 55113 59013;EQDQ01  00002PRCP06
0187833440999992002112712004-14950-040880FM-12+0905SBQV V0200901N004110450019N0200001N1+02351+01471101601ADDAA106000091GF105991011011004501081051KA1240N+01401MD1999999-0081REMSYN076AAXX  27124 83344 32498 50908 10235 20147 33919 40160 81185 333 20140 59008;EQDQ01+039191APOSP Q02  00002PRCP06
0167833440999992002112718004-14950-040880FM-12+0905SBQV V0201401N003610450019N0200001N1+02831+01331101171ADDAA106000091GF106991021011004501081051MA1999999091611MD1999999-0091REMSYN070AAXX  27184 83344 32498 61407 10283 20133 39161 40117 82185 333 59009;EQDQ01  00002PRCP06
0208833440999992002112800004-14950-040880FM-12+0905SBQV V0200901N002612200019N0040001N1+01991+01521101311ADDAA106000091GA1001+999999999GF100991001001999999001001KA1240M+02921MA1999999091741MD1999999-0071REMSYN082AAXX  28004 83344 32996 00905 10199 20152 39174 40131 333 10292 29062 55094 59007;EQDQ01  00002PRCP06
0202833440999992002112812004-14950-040880FM-12+0905SBQV V0203601N049922200019N0200001N1+02361+01561101461ADDAA106000091GF104991021011004501051001KA1240N+01401MA1999999091871MD1999999-0121REMSYN076AAXX  28124 83344 32498 43697 10236 20156 39187 40146 82150 333 20140 59012;EQDQ01+004993WOSPD Q02  00002PRCP06
0183833440999992002112818004-14950-040880FM-12+0905SBQV V0200501N050422200019N0200001N1+02851+01391101061ADDAA106000091GF104991041021004501001001MA1999999091531MD1999999-0081REMSYN070AAXX  28184 83344 32498 40598 10285 20139 39153 40106 84200 333 59008;EQDQ01+005043WOSPD Q02  00002PRCP06
0208833440999992002112900004-14950-040880FM-12+0905SBQV V0200901N001012200019N0100001N1+02111+01721101271ADDAA106000091GA1001+999999999GF100991001001999999001001KA1240M+02971MA1999999091741MD1999999+0001REMSYN082AAXX  29004 83344 32997 00902 10211 20172 39174 40127 333 10297 29065 55102 58000;EQDQ01  00002PRCP06
0186833440999992002112912004-14950-040880FM-12+0905SBQV V0200901N003610450019N0200001N1+02351+01621101521ADDAA106000091GF106991041021004501051001KA1240N+01741MA1999999091961MD1999999+0091REMSYN076AAXX  29124 83344 32498 60907 10235 20162 39196 40152 84250 333 20174 58009;EQDQ01  00002PRCP06
0167833440999992002112918004-14950-040880FM-12+0905SBQV V0200901N004110450019N0200001N1+02751+01511101131ADDAA106000091GF106991041021004501051001MA1999999091611MD1999999+0081REMSYN070AAXX  29184 83344 32498 60908 10275 20151 39161 40113 84250 333 58008;EQDQ01  00002PRCP06
0208833440999992002113000004-14950-040880FM-12+0905SBQV V0200501N002612200019N0100001N1+02191+01781101261ADDAA106000091GA1001+999999999GF100991001001999999001001KA1240M+03011MA1999999091731MD1999999-0011REMSYN082AAXX  30004 83344 32997 00505 10219 20178 39173 40126 333 10301 29067 55098 59001;EQDQ01  00002PRCP06
0186833440999992002113012004-14950-040880FM-12+0905SBQV V0200901N005110450019N0200001N1+02451+01531101571ADDAA106000091GF106991021021004501081001KA1240N+01501MA1999999092031MD1999999+0071REMSYN076AAXX  30124 83344 32498 60910 10245 20153 39203 40157 82280 333 20150 58007;EQDQ01  00002PRCP06
0167833440999992002113018004-14950-040880FM-12+0905SBQV V0201401N005112200019N0200001N1+02831+01331101221ADDAA106000091GF102991021011004501001001MA1999999091691MD1999999+0081REMSYN070AAXX  30184 83344 32498 21410 10283 20133 39169 40122 82100 333 58008;EQDQ01  00002PRCP06
0208833440999992002120100004-14950-040880FM-12+0905SBQV V0200901N002612200019N0100001N1+02031+01501101251ADDAA106000091GA1001+999999999GF100991001001999999001001KA1240M+02781MA1999999091801MD1999999-0071REMSYN082AAXX  01004 83344 32997 00905 10203 20150 39180 40125 333 10278 29060 55118 59007;EQDQ01  00002PRCP06
0196833440999992002120112004-14950-040880FM-12+0905SBQV V0200901N002612200019N0100001N1+02341+01721101461ADDAA106000091GA1001+999999999GF100991001001999999001001KA1240N+01441MA1999999091891MD1999999-0141REMSYN070AAXX  01124 83344 32497 00905 10234 20172 39189 40146 333 20144 59014;EQDQ01  00002PRCP06
0208833440999992002120200004-14950-040880FM-12+0905SBQV V0200501N003112200019N0100001N1+02091+01871101231ADDAA106000091GA1001+999999999GF100991001001999999001001KA1240M+02971MA1999999091681MD1999999-0121REMSYN082AAXX  02004 83344 32997 00506 10209 20187 39168 40123 333 10297 29074 55091 59012;EQDQ01  00002PRCP06
0186833440999992002120212004-14950-040880FM-12+0905SBQV V0201401N002110450019N0200001N1+02511+01671101251ADDAA106000091GF106991021011004501081021KA1240N+01821MA1999999091741MD1999999-0151REMSYN076AAXX  02124 83344 32498 61404 10251 20167 39174 40125 82182 333 20182 59015;EQDQ01  00002PRCP06
0167833440999992002120218004-14950-040880FM-12+0905SBQV V0201401N003112200019N0200001N1+03051+01531100771ADDAA106000091GF104991041001012501081001MA1999999091361MD1999999-0141REMSYN070AAXX  02184 83344 32698 41406 10305 20153 39136 40077 84080 333 59014;EQDQ01  00002PRCP06
0208833440999992002120300004-14950-040880FM-12+0905SBQV V0200501N003112200019N0040001N1+02071+01581101061ADDAA106000091GA1001+999999999GF100991001001999999001001KA1240M+03171MA1999999091561MD1999999-0021REMSYN082AAXX  03004 83344 32996 00506 10207 20158 39156 40106 333 10317 29062 55116 59002;EQDQ01  00002PRCP06
0186833440999992002120312004-14950-040880FM-12+0905SBQV V0200501N001510450019N0200001N1+02491+01701101291ADDAA106000091GF106991021061004501071001KA1240N+01401MA1999999091771MD1999999+0031REMSYN076AAXX  03124 83344 32498 60503 10249 20170 39177 40129 82670 333 20140 58003;EQDQ01  00002PRCP06
0167833440999992002120318004-14950-040880FM-12+0905SBQV V0201401N003610120019N0200001N1+02941+01161101041ADDAA106000091GF106991061001012501021001MA1999999091511MD1999999+0151REMSYN070AAXX  03184 83344 32698 61407 10294 20116 39151 40104 86020 333 58015;EQDQ01  00002PRCP06
0156833440999992002120412004-14950-040880FM-12+0905SBQV V0200501N004612200019N0200001N1+02271+01441999999ADDAA106000091GF104991999999004501999999KA1240N+01331REMSYN075AAXX  04124 83344 32498 40509 10227 20144 3919 40152 84200 333 20133 58016;EQDQ01  00002PRCP06
0183833440999992002120418004-14950-040880FM-12+0905SBQV V0201401N003112200019N0200001N1+02851+01351101131ADDAA106000091GF103991001001999999001091MA1999999091591MD1999999-0081REMSYN070AAXX  04184 83344 32998 31406 10285 20135 39159 40113 83009 333 59008;EQDQ01+000032SCOTLCQ02  00002PRCP06
0208833440999992002120500004-14950-040880FM-12+0905SBQV V0200901N002612200019N0100001N1+02111+01371101211ADDAA106000091GA1001+999999999GF100991001001999999001001KA1240M+02971MA1999999091661MD1999999-0101REMSYN082AAXX  05004 83344 32997 00905 10211 20137 39166 40121 333 10297 29056 55111 59010;EQDQ01  00002PRCP06
0186833440999992002120512004-14950-040880FM-12+0905SBQV V0200501N002110075019N0200001N1+02331+01671101471ADDAA106000091GF106991061051008001001001KA1240N+01801MA1999999091901MD1999999-0031REMSYN076AAXX  05124 83344 32598 60504 10233 20167 39190 40147 86500 333 20180 59003;EQDQ01  00002PRCP06
0167833440999992002120518004-14950-040880FM-12+0905SBQV V0201801N000510075019N0200001N1+03071+01581100821ADDAA106000091GF105991051011008001001001MA1999999091431MD1999999-0161REMSYN070AAXX  05184 83344 32598 51801 10307 20158 39143 40082 85100 333 59016;EQDQ01  00002PRCP06
0208833440999992002120600004-14950-040880FM-12+0905SBQV V0200501N003112200019N0100001N1+02231+01821101061ADDAA106000091GA1001+999999999GF100991001001999999001001KA1240M+03241MA1999999091561MD1999999-0101REMSYN082AAXX  06004 83344 32997 00506 10223 20182 39156 40106 333 10324 29066 55095 59010;EQDQ01  00002PRCP06
0186833440999992002120612004-14950-040880FM-12+0905SBQV V0200501N002110450019N0200001N1+02251+01821101181ADDAA106000091GF106991021041004501071001KA1240N+01801MA1999999091651MD1999999-0251REMSYN076AAXX  06124 83344 32498 60504 10225 20182 39165 40118 82470 333 20180 59025;EQDQ01  00002PRCP06
0167833440999992002120618004-14950-040880FM-12+0905SBQV V0201401N003110450019N0200001N1+03171+01791100501ADDAA106000091GF106991031041004501091001MA1999999091141MD1999999-0221REMSYN070AAXX  06184 83344 32498 61406 10317 20179 39114 40050 83490 333 59022;EQDQ01  00002PRCP06
0208833440999992002120700004-14950-040880FM-12+0905SBQV V0200501N003112200019N0040001N1+02271+01861100751ADDAA106000091GA1001+999999999GF100991001001999999001001KA1240M+03271MA1999999091261MD1999999-0301REMSYN082AAXX  07004 83344 32996 00506 10227 20186 39126 40075 333 10327 29069 55074 59030;EQDQ01  00002PRCP06
0214833440999992002120712004-14950-040880FM-12+0905SBQV V0203601N003110450019N0100001N1+02241+01921100971ADDAA106000091AY121061AY231061GF108991041031008001021999KA1240N+01981MA1999999091461MD1999999-0191MW1151REMSYN082AAXX  07124 83344 31597 83606 10224 20192 39146 40097 71523 8432/ 333 20198 59019;EQDQ01  00002PRCP06
0167833440999992002120718004-14950-040880FM-12+0905SBQV V0203601N002110450019N0200001N1+02821+01801100401ADDAA106000091GF107991041031008001021001MA1999999091031MD1999999-0111REMSYN070AAXX  07184 83344 32598 73604 10282 20180 39103 40040 84320 333 59011;EQDQ01  00002PRCP06
0208833440999992002120800004-14950-040880FM-12+0905SBQV V0200501N001512200019N0100001N1+02431+01881100601ADDAA106000091GA1001+999999999GF100991001001999999001001KA1240M+02931MA1999999091161MD1999999-0101REMSYN082AAXX  08004 83344 32997 00503 10243 20188 39116 40060 333 10293 29070 55005 59010;EQDQ01  00002PRCP06
0190833440999992002120812004-14950-040880FM-12+0905SBQV V0203201N002610042019N0100001N1+02241+02211100821ADDAY121061AY221061GF108991081071004501999999KA1240N+01931MA1999999091361MD1999999+0101MW1021REMSYN088AAXX  08124 83344 21497 83205 10224 20221 39136 40082 70222 887// 333 20193 58010 60044;
0167833440999992002120818004-14950-040880FM-12+0905SBQV V0203601N003110042019N0200001N1+02701+01831100611ADDAA106000091GF108991051061004501031001MA1999999091081MD1999999+0051REMSYN070AAXX  08184 83344 32498 83606 10270 20183 39108 40061 85630 333 58005;EQDQ01  00002PRCP06
0198833440999992002120900004-14950-040880FM-12+0905SBQV V0209999C000010042019N0040001N1+02431+02091100651ADDAA106000091GF106991061071004501001001KA1240M+02811MA1999999091211MD1999999+0051REMSYN088AAXX  09004 83344 32496 60000 10243 20209 39121 40065 86700 333 10281 29077 55008 58005;EQDQ01  00002PRCP06
0203833440999992002120912004-14950-040880FM-12+0905SBQV V0203601N003110042019N0100001N1+02031+01941101131ADDAY131061AY261061GF108991081071004501999999KA1240N+01901MA1999999091611MD1999999+0251REMSYN088AAXX  09124 83344 21497 83606 10203 20194 39161 40113 77036 887// 333 20190 58025 60164;EQDQ01+000702PRSWM1
0171833440999992002120918004-14950-040880FM-12+0905SBQV V0203201N003610042019N0100001N1+02071+01991101081ADDAY161061AY221061GF108991081071004501999999MA1999999091461MD1999999+0381MW1611REMSYN082AAXX  09184 83344 21497 83207 10207 20199 39146 40108 76162 887// 333 58038 60031;
0202833440999992002121000004-14950-040880FM-12+0905SBQV V0203601N001512200019N0040001N1+02061+01911101321ADDAY151061AY221061GF104991041001012501071001KA1240M+02551MA1999999091701MD1999999+0491MW1021REMSYN100AAXX  10004 83344 21696 43603 10206 20191 39170 40132 70252 84070 333 10255 29093 55003 58049 69961;
0162833440999992002121012004-14950-040880FM-12+0905SBQV V0203601N003610450019N0200001N1+02391+01841101491ADDGF108991041041004501051999KA1240N+01881MA1999999091921MD1999999+0311REMSYN082AAXX  10124 83344 22498 83607 10239 20184 39192 40149 8445/ 333 20188 58031 60044;
0167833440999992002121018004-14950-040880FM-12+0905SBQV V0200501N002610450019N0200001N1+02701+01881101131ADDAA106000091GF106991041041004501051001MA1999999091611MD1999999+0151REMSYN070AAXX  10184 83344 32498 60505 10270 20188 39161 40113 84450 333 58015;EQDQ01  00002PRCP06
0198833440999992002121100004-14950-040880FM-12+0905SBQV V0200901N001010042019N0040001N1+02241+02091101361ADDAA106000091GF105991051041004501001001KA1240M+02691MA1999999091841MD1999999+0141REMSYN088AAXX  11004 83344 32496 50902 10224 20209 39184 40136 85400 333 10269 29079 55011 58014;EQDQ01  00002PRCP06
0190833440999992002121112004-14950-040880FM-12+0905SBQV V0200501N003610450019N0200001N1+02311+01921101541ADDAY151061AY221061GF107991031021004501021001KA1240N+01771MA1999999091981MD1999999+0061MW1021REMSYN088AAXX  11124 83344 21498 70507 10231 20192 39198 40154 70252 83220 333 20177 58006 69944;
0167833440999992002121118004-14950-040880FM-12+0905SBQV V0200501N003111050019N0200001N1+02851+01631101151ADDAA106000091GF106991021011008001041061MA1999999091651MD1999999+0041REMSYN070AAXX  11184 83344 32598 60506 10285 20163 39165 40115 82146 333 58004;EQDQ01  00002PRCP06
0208833440999992002121200004-14950-040880FM-12+0905SBQV V0200501N001512200019N0100001N1+02151+01881101421ADDAA106000091GA1001+999999999GF100991001001999999001001KA1240M+02971MA1999999091871MD1999999+0031REMSYN082AAXX  12004 83344 32997 00503 10215 20188 39187 40142 333 10297 29074 55086 58003;EQDQ01  00002PRCP06
0186833440999992002121212004-14950-040880FM-12+0905SBQV V0203601N003110450019N0200001N1+02211+01671101541ADDAA106000091GF106991031061004501081001KA1240N+01701MA1999999091961MD1999999-0201REMSYN076AAXX  12124 83344 32498 63606 10221 20167 39196 40154 83680 333 20170 59020;EQDQ01  00002PRCP06
0167833440999992002121218004-14950-040880FM-12+0905SBQV V0200501N003110450019N0200001N1+02711+01631101111ADDAA106000091GF106991021021004501091021MA1999999091611MD1999999-0041REMSYN070AAXX  12184 83344 32498 60506 10271 20163 39161 40111 82292 333 59004;EQDQ01  00002PRCP06
0198833440999992002121300004-14950-040880FM-12+0905SBQV V0200901N003112200019N0100001N1+02111+01781101361ADDAA106000091GF103991001001999999001061KA1240M+02871MA1999999091781MD1999999-0091REMSYN088AAXX  13004 83344 32997 30906 10211 20178 39178 40136 80006 333 10287 29072 55058 59009;EQDQ01  00002PRCP06
0186833440999992002121312004-14950-040880FM-12+0905SBQV V0200501N004110450019N0200001N1+02211+01711101511ADDAA106000091GF107991041041004501051001KA1240N+01631MA1999999091921MD1999999-0041REMSYN076AAXX  13124 83344 32498 70508 10221 20171 39192 40151 84450 333 20163 59004;EQDQ01  00002PRCP06
0167833440999992002121318004-14950-040880FM-12+0905SBQV V0203601N003612200019N0200001N1+02801+01751101131ADDAA106000091GF103991031021004501001001MA1999999091591MD1999999-0191REMSYN070AAXX  13184 83344 32498 33607 10280 20175 39159 40113 83200 333 59019;EQDQ01  00002PRCP06
0208833440999992002121400004-14950-040880FM-12+0905SBQV V0200501N004112200019N0100001N1+02061+01851101351ADDAA106000091GA1001+999999999GF100991001001999999001001KA1240M+02891MA1999999091741MD1999999-0041REMSYN082AAXX  14004 83344 32997 00508 10206 20185 39174 40135 333 10289 29076 55/// 59004;EQDQ01  00002PRCP06
0186833440999992002121412004-14950-040880FM-12+0905SBQV V0203601N004611050019N0200001N1+02331+01631101521ADDAA106000091GF106991031011008001001021KA1240N+01691MA1999999091951MD1999999+0031REMSYN076AAXX  14124 83344 32598 63609 10233 20163 39195 40152 83102 333 20169 58003;EQDQ01  00002PRCP06
0167833440999992002121418004-14950-040880FM-12+0905SBQV V0200501N003112200019N0200001N1+02851+01571101091ADDAA106000091GF106991021011008001001041MA1999999091571MD1999999-0021REMSYN070AAXX  14184 83344 32598 60506 10285 20157 39157 40109 82104 333 59002;EQDQ01  00002PRCP06
0208833440999992002121500004-14950-040880FM-12+0905SBQV V0200501N003112200019N0100001N1+02261+01821101331ADDAA106000091GA1001+999999999GF100991001001999999001001KA1240M+02951MA1999999091811MD1999999+0071REMSYN082AAXX  15004 83344 32997 00506 10226 20182 39181 40133 333 10295 29066 55116 58007;EQDQ01  00002PRCP06
0186833440999992002121512004-14950-040880FM-12+0905SBQV V0200501N003110042019N0200001N1+02241+01781101531ADDAA106000091GF108991081051004501999999KA1240N+01801MA1999999091971MD1999999+0021REMSYN076AAXX  15124 83344 32498 80506 10224 20178 39197 40153 885// 333 20180 58002;EQDQ01  00002PRCP06
0167833440999992002121518004-14950-040880FM-12+0905SBQV V0200501N002110450019N0200001N1+02851+01851101101ADDAA106000091GF107991021011004501071021MA1999999091621MD1999999+0051REMSYN070AAXX  15184 83344 32498 70504 10285 20185 39162 40110 82172 333 58005;EQDQ01  00002PRCP06
0183833440999992002121600004-14950-040880FM-12+0905SBQV V0203601N003119999999N0040001N1+02081+01891999999ADDAA106000091GF107991999999004501999999KA1240M+02931MA1999999091781REMSYN087AAXX  16004 83344 32496 73606 10208 20189 39178 4136 84022 333 10293 29077 55047 59003;EQDQ01  00002PRCP06
0186833440999992002121612004-14950-040880FM-12+0905SBQV V0200501N003612200019N0200001N1+02461+01741101361ADDAA106000091GF106991021011004501001061KA1240N+01601MA1999999091821MD1999999-0151REMSYN076AAXX  16124 83344 32498 60507 10246 20174 39182 40136 82106 333 20160 59015;EQDQ01  00002PRCP06
0167833440999992002121618004-14950-040880FM-12+0905SBQV V0200901N002110450019N0200001N1+03051+01531100861ADDAA106000091GF106991021011004501031051MA1999999091431MD1999999-0191REMSYN070AAXX  16184 83344 32498 60904 10305 20153 39143 40086 82135 333 59019;EQDQ01  00002PRCP06
0208833440999992002121700004-14950-040880FM-12+0905SBQV V0200501N002112200019N0100001N1+02221+01691101181ADDAA106000091GA1001+999999999GF100991001001999999001001KA1240M+03181MA1999999091691MD1999999-0091REMSYN082AAXX  17004 83344 32497 00504 10222 20169 39169 40118 333 10318 29062 55096 59009;EQDQ01  00002PRCP06
0186833440999992002121712004-14950-040880FM-12+0905SBQV V0202301N002110450019N0200001N1+02411+01861101231ADDAA106000091GF107991021041012501011061KA1240N+01691MA1999999091721MD1999999-0101REMSYN076AAXX  17124 83344 32698 72304 10241 20186 39172 40123 82416 333 20169 59010;EQDQ01  00002PRCP06
0195833440999992002121718004-14950-040880FM-12+0905SBQV V0200901N002610450019N0200001N1+02901+01371100831ADDAA106000091AY121061AY291061GF108991041091008001021999MA1999999091341MD1999999-0091MW1171REMSYN076AAXX  17184 83344 31598 80905 10290 20137 39134 40083 71729 8492/ 333 59009;EQDQ01  00002PRCP06
0226833440999992002121800004-14950-040880FM-12+0905SBQV V0209999C000010042019N0100001N1+02211+01971101141ADDAA106000091AY191061AY221061GF108991081071004501999999KA1240M+03271MA1999999091641MD1999999-0051MW1021REMSYN094AAXX  18004 83344 31497 80000 10221 20197 39164 40114 70292 887// 333 10327 29063 55061 59005;EQDQ01  00002PRCP06
0186833440999992002121812004-14950-040880FM-12+0905SBQV V0203601N003119999999N0200001N1+02641+01721101121ADDAA106000091GF107991041001004501081091KA1240N+01981MA1999999091741MD1999999+0021REMSYN076AAXX  18124 83344 32498 73606 10264 20172 39174 40112 84089 333 20198 58002;EQDQ01  00002PRCP06
0167833440999992002121818004-14950-040880FM-12+0905SBQV V0200501N004611050019N0200001N1+02991+01471100761ADDAA106000091GF107991041001012501081091MA1999999091371MD1999999+0031REMSYN070AAXX  18184 83344 32698 70509 10299 20147 39137 40076 84089 333 58003;EQDQ01  00002PRCP06
0198833440999992002121900004-14950-040880FM-12+0905SBQV V0200901N003110120019N0040001N1+02311+01701101141ADDAA106000091GF106991061001012501091001KA1240M+03231MA1999999091721MD1999999+0081REMSYN088AAXX  19004 83344 32696 60906 10231 20170 39172 40114 86090 333 10323 29059 55068 58008;EQDQ01  00002PRCP06
0186833440999992002121912004-14950-040880FM-12+0905SBQV V0200901N004110042019N0200001N1+02371+01691101391ADDAA106000091GF106991061021004501001001KA1240N+01731MA1999999091881MD1999999+0141REMSYN076AAXX  19124 83344 32498 60908 10237 20169 39188 40139 86200 333 20173 58014;EQDQ01  00002PRCP06
0167833440999992002121918004-14950-040880FM-12+0905SBQV V0201401N003112200019N0200001N1+02921+01531101091ADDAA106000091GF104991021011004501081001MA1999999091641MD1999999+0271REMSYN070AAXX  19184 83344 32498 41406 10292 20153 39164 40109 82180 333 58027;EQDQ01  00002PRCP06
0208833440999992002122000004-14950-040880FM-12+0905SBQV V0200901N003112200019N0100001N1+02151+01761101421ADDAA106000091GA1001+999999999GF100991001001999999001001KA1240M+03011MA1999999091871MD1999999+0151REMSYN082AAXX  20004 83344 32997 00906 10215 20176 39187 40142 333 10301 29067 55109 58015;EQDQ01  00002PRCP06
0186833440999992002122012004-14950-040880FM-12+0905SBQV V0200501N003112200019N0200001N1+02431+01671101601ADDAA106000091GF103991031011008001001001KA1240N+01651MA1999999092051MD1999999+0171REMSYN076AAXX  20124 83344 32598 30506 10243 20167 39205 40160 83100 333 20165 58017;EQDQ01  00002PRCP06
0167833440999992002122018004-14950-040880FM-12+0905SBQV V0203601N002612200019N0200001N1+03141+01581101011ADDAA106000091GF103991031011008001001001MA1999999091581MD1999999-0061REMSYN070AAXX  20184 83344 32598 33605 10314 20158 39158 40101 83100 333 59006;EQDQ01  00002PRCP06
0208833440999992002122100004-14950-040880FM-12+0905SBQV V0200501N003112200019N0100001N1+02301+01721101261ADDAA106000091GA1001+999999999GF100991001001999999001001KA1240M+03291MA1999999091761MD1999999-0111REMSYN082AAXX  21004 83344 32997 00506 10230 20172 39176 40126 333 10329 29061 55102 59011;EQDQ01  00002PRCP06
0186833440999992002122112004-14950-040880FM-12+0905SBQV V0200501N001512200019N0200001N1+02651+01511101441ADDAA106000091GF102991001001999999001051KA1240N+01481MA1999999091971MD1999999-0081REMSYN076AAXX  21124 83344 32998 20503 10265 20151 39197 40144 80005 333 20148 59008;EQDQ01  00002PRCP06
0167833440999992002122118004-14950-040880FM-12+0905SBQV V0200501N002111050019N0200001N1+03071+01471101021ADDAA106000091GF105991021021004501041011MA1999999091591MD1999999+0011REMSYN070AAXX  21184 83344 32498 50504 10307 20147 39159 40102 82241 333 58001;EQDQ01  00002PRCP06
0208833440999992002122200004-14950-040880FM-12+0905SBQV V0203601N001512200019N0040001N1+02291+01641101091ADDAA106000091GA1001+999999999GF100991001001999999001001KA1240M+03211MA1999999091651MD1999999-0111REMSYN082AAXX  22004 83344 32996 03603 10229 20164 39165 40109 333 10321 29055 55078 59011;EQDQ01  00002PRCP06
0208833440999992002122300004-14950-040880FM-12+0905SBQV V0200501N003112200019N0100001N1+02311+01871101081ADDAA106000091GA1001+999999999GF100991001001999999001001KA1240M+03191MA1999999091661MD1999999+0011REMSYN082AAXX  23004 83344 32997 00506 10231 20187 39166 40108 333 10319 29063 55094 58001;EQDQ01  00002PRCP06
0186833440999992002122312004-14950-040880FM-12+0905SBQV V0201401N002112200019N0200001N1+02611+01631101171ADDAA106000091GF102991001001999999001011KA1240N+01591MA1999999091731MD1999999-0021REMSYN076AAXX  23124 83344 32998 21404 10261 20163 39173 40117 80001 333 20159 59002;EQDQ01  00002PRCP06
0171833440999992002122318004-14950-040880FM-12+0905SBQV V0201401N003110042019N0020001N1+02141+02021101201ADDAY161061AY221061GF108991081071004501999999MA1999999091551MD1999999+0131MW1251REMSYN082AAXX  23184 83344 21495 81406 10214 20202 39155 40120 72562 887// 333 58013 60051;
0212833440999992002122400004-14950-040880FM-12+0905SBQV V0200501N000512200019N0100001N1+02171+01951101001ADDAY161061AY221061GA1001+999999999GF100991001001999999001001KA1240M+03211MA1999999091551MD1999999-0111MW1021REMSYN094AAXX  24004 83344 21997 00501 10217 20195 39155 40100 70262 333 10321 29081 55068 59011 60021;
0162833440999992002122412004-14950-040880FM-12+0905SBQV V0203201N002610450019N0200001N1+02671+01821101171ADDGF106991041041004501081001KA1240N+01701MA1999999091701MD1999999-0301REMSYN082AAXX  24124 83344 22498 63205 10267 20182 39170 40117 84480 333 20170 59030 60074;
0167833440999992002122418004-14950-040880FM-12+0905SBQV V0203201N002112200019N0200001N1+03211+01781100641ADDAA106000091GF102991021041004501001001MA1999999091281MD1999999-0271REMSYN070AAXX  24184 83344 32498 23204 10321 20178 39128 40064 82400 333 59027;EQDQ01  00002PRCP06
0198833440999992002122500004-14950-040880FM-12+0905SBQV V0203601N001510120019N0200001N1+02591+02061100811ADDAA106000091GF106991061001012501071001KA1240M+03391MA1999999091471MD1999999-0081REMSYN088AAXX  25004 83344 32698 63603 10259 20206 39147 40081 86070 333 10339 29062 55081 59008;EQDQ01  00002PRCP06
0186833440999992002122512004-14950-040880FM-12+0905SBQV V0203601N004611050019N0200001N1+02731+01951100931ADDAA106000091GF106991021001012501051091KA1240N+01491MA1999999091581MD1999999-0121REMSYN076AAXX  25124 83344 32698 63609 10273 20195 39158 40093 82059 333 20149 59012;EQDQ01  00002PRCP06
0171833440999992002122518004-14950-040880FM-12+0905SBQV V0202301N001010042019N0100001N1+02371+02221100941ADDAY161061AY251061GF108991061071004501051999MA1999999091341MD1999999+0061MW1021REMSYN082AAXX  25184 83344 21497 82302 10237 20222 39134 40094 70265 8675/ 333 58006 60011;
0208833440999992002122600004-14950-040880FM-12+0905SBQV V0203601N002112200019N0100001N1+02191+01991100951ADDAA106000091GA1001+999999999GF100991001001999999001001KA1240M+03311MA1999999091531MD1999999+0061REMSYN082AAXX  26004 83344 32997 03604 10219 20199 39153 40095 333 10331 29086 55060 58006;EQDQ01  00002PRCP06
0190833440999992002122612004-14950-040880FM-12+0905SBQV V0202701N002610042019N0040001N1+02141+02041101321ADDAY191061AY281061GF108991081071004501999999KA1240N+01871MA1999999091751MD1999999+0171MW1611REMSYN088AAXX  26124 83344 21496 82705 10214 20204 39175 40132 76198 887// 333 20187 58017 60084;
0171833440999992002122618004-14950-040880FM-12+0905SBQV V0202301N003110450019N0200001N1+02431+01971100901ADDAY161061AY251061GF107991041071004501071001MA1999999091381MD1999999+0041MW1021REMSYN082AAXX  26184 83344 21498 72306 10243 20197 39138 40090 70265 84770 333 58004 60011;
0190833440999992002122712004-14950-040880FM-12+0905SBQV V0202701N002110042019N0100001N1+02111+01981101311ADDAY161061AY221061GF108991081071004501999999KA1240N+01901MA1999999091711MD1999999-0041MW1021REMSYN088AAXX  27124 83344 21497 82704 10211 20198 39171 40131 70262 887// 333 20190 59004 60104;
0183833440999992002122718004-14950-040880FM-12+0905SBQV V0203201N003119999999N0200001N1+02661+01971100781ADDAA106000091GF107991999071004501001001MA1999999091311MD1999999-0021REMSYN070AAXX  27184 83344 32498 73206 10266 20197 39131 40078 88700 333 59002;EQDQ01+000082SCOTLCQ02  00002PRCP06
0202833440999992002122800004-14950-040880FM-12+0905SBQV V0209999C000010042019N0020001N1+02011+01981101181ADDAY161061AY221061GF108991081051004501999999KA1240M+02781MA1999999091571MD1999999-0091MW1601REMSYN100AAXX  28004 83344 21495 80000 10201 20198 39157 40118 76062 885// 333 10278 29089 55007 59009 60181;
0190833440999992002122812004-14950-040880FM-12+0905SBQV V0203601N004110042019N0100001N1+01961+01911101231ADDAY161061AY251061GF108991081071004501999999KA1240N+01661MA1999999091601MD1999999-0111MW1501REMSYN088AAXX  28124 83344 21497 83608 10196 20191 39160 40123 75065 887// 333 20166 59011 60504;
0171833440999992002122818004-14950-040880FM-12+0905SBQV V0203601N003110021019N0040001N1+02101+01951101031ADDAY151061AY221061GF108991081071002501999999MA1999999091381MD1999999+0071MW1631REMSYN082AAXX  28184 83344 21396 83606 10210 20195 39138 40103 76352 887// 333 58007 60011;
0202833440999992002122900004-14950-040880FM-12+0905SBQV V0203601N004110021019N0020001N1+02011+01931101221ADDAY161061AY251061GF108991081071002501999999KA1240M+02771MA1999999091591MD1999999+0031MW1031REMSYN100AAXX  29004 83344 21395 83608 10201 20193 39159 40122 70365 887// 333 10277 29095 55000 58003 60031;
0190833440999992002122912004-14950-040880FM-12+0905SBQV V0203601N003110021019N0040001N1+01991+01881101451ADDAY161061AY251061GF108991081071002501999999KA1240N+01681MA1999999091801MD1999999+0201MW1211REMSYN088AAXX  29124 83344 21396 83606 10199 20188 39180 40145 72165 887// 333 20168 58020 60294;
0171833440999992002122918004-14950-040880FM-12+0905SBQV V0203601N003610450019N0200001N1+02321+01811101181ADDAY151061AY221061GF108991031071004501011999MA1999999091571MD1999999+0191MW1021REMSYN082AAXX  29184 83344 21498 83607 10232 20181 39157 40118 70252 8371/ 333 58019 69971;
0198833440999992002123000004-14950-040880FM-12+0905SBQV V0200501N002110042019N0020001N1+02001+01851101461ADDAA106000091GF108991081071004501999999KA1240M+02371MA1999999091811MD1999999+0221REMSYN088AAXX  30004 83344 32495 80504 10200 20185 39181 40146 887// 333 10237 29087 55002 58022;EQDQ01  00002PRCP06
0162833440999992002123012004-14950-040880FM-12+0905SBQV V0200501N003610450019N0100001N1+02211+01781101591ADDGF108991041071004501021999KA1240N+01791MA1999999091961MD1999999-0161REMSYN082AAXX  30124 83344 22497 80507 10221 20178 39196 40159 8472/ 333 20179 59016 69974;
0167833440999992002123018004-14950-040880FM-12+0905SBQV V0203601N002610042019N0200001N1+02531+01841101221ADDAA106000091GF106991061051004501001001MA1999999091651MD1999999+0081REMSYN070AAXX  30184 83344 32498 63605 10253 20184 39165 40122 86500 333 58008;EQDQ01  00002PRCP06
0208833440999992002123100004-14950-040880FM-12+0905SBQV V0200901N001512200019N0040001N1+02071+01931101441ADDAA106000091GA1001+999999999GF100991001001999999001001KA1240M+02711MA1999999091851MD1999999+0041REMSYN082AAXX  31004 83344 32996 00903 10207 20193 39185 40144 333 10271 29081 55011 58004;EQDQ01  00002PRCP06
0186833440999992002123112004-14950-040880FM-12+0905SBQV V0200501N001510042019N0200001N1+02291+01861101501ADDAA106000091GF107991071061004501001001KA1240N+01641MA1999999091931MD1999999-0031REMSYN076AAXX  31124 83344 32498 70503 10229 20186 39193 40150 87600 333 20164 59003;EQDQ01  00002PRCP06
0195833440999992002123118004-14950-040880FM-12+0905SBQV V0201401N003110042019N0200001N1+02601+01921101171ADDAA106000091AY121061AY221061GF107991051071004501051001MA1999999091611MD1999999-0041MW1161REMSYN076AAXX  31184 83344 31498 71406 10260 20192 39161 40117 71622 85750 333 59004;EQDQ01  00002PRCP06
