0213833980999992002010100004-15660-038920FM-12+000599999V0203601N002110042019N0010001N1+02511+02321101211ADDAA106000391AY151061AY221061GF108991051051004501021999KA1240M+02621MA1999999101161MD1999999-0061MW1501REMSYN100AAXX  01004 83398 21494 83604 10251 20232 30116 40121 75052 8552/ 333 10262 29090 55000 59006 69931;
0201833980999992002010112004-15660-038920FM-12+000599999V0203601N001010075019N0040001N1+02621+02311101181ADDAA124007991AY161061AY221061GF108991051051008001021999KA1240N+02101MA1999999101131MD1999999-0271MW1021REMSYN088AAXX  01124 83398 21596 83602 10262 20231 30113 40118 70262 8552/ 333 20210 59027 60084;
0167833980999992002010118004-15660-038920FM-12+000599999V0200501N002110450019N0040001N1+02811+02391100831ADDAA199000091GF106991031021008001041041MA1999999100781MD1999999-0151REMSYN070AAXX  01184 83398 32596 60504 10281 20239 30078 40083 83244 333 59015;EQDQ01  00002PRCP99
0213833980999992002010200004-15660-038920FM-12+000599999V0203601N001010450019N0010001N1+02601+02441101031ADDAA106000191AY151061AY221061GF107991041051008001021001KA1240M+02891MA1999999100981MD1999999-0181MW1021REMSYN100AAXX  02004 83398 21594 73602 10260 20244 30098 40103 70252 84520 333 10289 29086 55029 59018 69921;
0201833980999992002010212004-15660-038920FM-12+000599999V0203601N002110075019N0040001N1+02641+02441101071ADDAA124036191AY161061AY221061GF108991051051008001021999KA1240N+02291MA1999999101021MD1999999-0111MW1021REMSYN088AAXX  02124 83398 21596 83604 10264 20244 30102 40107 70262 8552/ 333 20229 59011 60364;
0182833980999992002010218004-15660-038920FM-12+000599999V0203601N001010075019N0040001N1+02701+02371100791ADDAA106000191AY151061AY221061GF108991051051008001021999MA1999999100741MD1999999-0041MW1021REMSYN082AAXX  02184 83398 21596 83602 10270 20237 30074 40079 70252 8552/ 333 59004 69921;
0213833980999992002010300004-15660-038920FM-12+000599999V0203601N002110075019N0010001N1+02621+02411101021ADDAA106000191AY151061AY221061GF108991051051008001021999KA1240M+02821MA1999999100971MD1999999-0011MW1501REMSYN100AAXX  03004 83398 21594 83604 10262 20241 30097 40102 75052 8552/ 333 10282 29087 55000 59001 69911;
0182833980999992002010318004-15660-038920FM-12+000599999V0203601N002110042019N0040001N1+02661+02371100691ADDAA106000191AY151061AY221061GF108991051051004501021999MA1999999100641MD1999999-0101MW1021REMSYN082AAXX  03184 83398 21496 83604 10266 20237 30064 40069 70252 8552/ 333 59010 69911;
0198833980999992002010400004-15660-038920FM-12+000599999V0200501N002110075019N0010001N1+02611+02401100961ADDAA199000091GF108991051051008001021999KA1240M+02771MA1999999100911MD1999999-0091REMSYN088AAXX  04004 83398 32594 80504 10261 20240 30091 40096 8552/ 333 10277 29087 55000 59009;EQDQ01  00002PRCP99
0173833980999992002010412004-15660-038920FM-12+000599999V0203601N002110075019N0040001N1+02601+02371101151ADDAA124000191GF108991051051008001021999KA1240N+02381MA1999999101101MD1999999+0101REMSYN082AAXX  04124 83398 22596 83604 10260 20237 30110 40115 8552/ 333 20238 58010 69914;
0167833980999992002010418004-15660-038920FM-12+000599999V0203601N003110075019N0040001N1+02821+02441100731ADDAA199000091GF107991051051008001021001MA1999999100681MD1999999+0041REMSYN070AAXX  04184 83398 32596 73606 10282 20244 30068 40073 85520 333 58004;EQDQ01  00002PRCP99
0213833980999992002010500004-15660-038920FM-12+000599999V0203601N002110075019N0010001N1+02251+02141101141ADDAA101013091AY191061AY261061GF108991081071008001999999KA1240M+02961MA1999999101091MD1999999+0181MW1621REMSYN100AAXX  05004 83398 21594 83604 10225 20214 30109 40114 76296 887// 333 10296 29088 55055 58018 60135;
0201833980999992002010512004-15660-038920FM-12+000599999V0202301N001010075019N0040001N1+02551+02421101271ADDAA124037191AY161061AY221061GF108991051071008001021999KA1240N+02251MA1999999101221MD1999999+0121MW1511REMSYN088AAXX  05124 83398 21596 82302 10255 20242 30122 40127 75162 8572/ 333 20225 58012 60374;
0182833980999992002010518004-15660-038920FM-12+000599999V0201801N002110450019N0040001N1+02821+02401100991ADDAA106000391AY151061AY221061GF107991041051008001021001MA1999999100941MD1999999+0261MW1021REMSYN082AAXX  05184 83398 21596 71804 10282 20240 30094 40099 70252 84520 333 58026 69931;
0179833980999992002010600004-15660-038920FM-12+000599999V0201801N001010075019N0010001N1+02511+02331101291ADDAA199000021GF108991051051008001021999KA1240M+02931MA1999999101241MD1999999+0151REMSYN088AAXX  06004 83398 32594 81802 10251 20233 30124 40129 8552/ 333 10293 29088 55025 58015;
0201833980999992002010612004-15660-038920FM-12+000599999V0200901N002110042019N0040001N1+02531+02391101291ADDAA124007191AY161061AY221061GF108991061071004501021999KA1240N+02331MA1999999101241MD1999999+0021MW1601REMSYN088AAXX  06124 83398 21496 80904 10253 20239 30124 40129 76062 8672/ 333 20233 58002 60074;
0182833980999992002010618004-15660-038920FM-12+000599999V0200501N003110450019N0040001N1+02571+02401101261ADDAA106003091AY161061AY221061GF106991041051008001021001MA1999999101211MD1999999+0271MW1021REMSYN082AAXX  06184 83398 21596 60506 10257 20240 30121 40126 70262 84520 333 58027 60031;
0213833980999992002010700004-15660-038920FM-12+000599999V0200501N002110042019N0010001N1+02461+02281101301ADDAA106002091AY151061AY221061GF108991051051004501021999KA1240M+02721MA1999999101251MD1999999+0011MW1021REMSYN100AAXX  07004 83398 21494 80504 10246 20228 30125 40130 70252 8552/ 333 10272 29091 55017 58001 60021;
0167833980999992002010718004-15660-038920FM-12+000599999V0200501N002110450019N0040001N1+02711+02291101291ADDAA199000091GF105991031021008001041041MA1999999101241MD1999999+0031REMSYN070AAXX  07184 83398 32596 50504 10271 20229 30124 40129 83244 333 58003;EQDQ01  00002PRCP99
0213833980999992002010800004-15660-038920FM-12+000599999V0209999C000010042019N0010001N1+02421+02231101451ADDAA106000891AY151061AY221061GF107991051051004501021001KA1240M+02831MA1999999101401MD1999999+0151MW1501REMSYN100AAXX  08004 83398 21494 70000 10242 20223 30140 40145 75052 85520 333 10283 29085 55047 58015 69971;
0201833980999992002010812004-15660-038920FM-12+000599999V0200901N002110450019N0040001N1+02771+02411101491ADDAA124002091AY151061AY221061GF105991031021004501041011KA1240N+02321MA1999999101441MD1999999+0091MW1011REMSYN088AAXX  08124 83398 21496 50904 10277 20241 30144 40149 70152 83241 333 20232 58009 60024;
0167833980999992002010818004-15660-038920FM-12+000599999V0201401N002110450019N0040001N1+02821+02331101301ADDAA199000091GF105991031021008001041011MA1999999101351MD1999999+0111REMSYN070AAXX  08184 83398 32596 51404 10282 20233 30135 40130 83241 333 58011;EQDQ01  00002PRCP99
0213833980999992002010900004-15660-038920FM-12+000599999V0200901N002110450019N0010001N1+02541+02291101451ADDAA106000191AY151061AY221061GF107991041051004501021001KA1240M+02941MA1999999101401MD1999999+0001MW1021REMSYN100AAXX  09004 83398 21494 70904 10254 20229 30140 40145 70252 84520 333 10294 29082 55107 58000 69911;
0173833980999992002010912004-15660-038920FM-12+000599999V0201401N002112200019N0040001N1+02791+02261101691ADDAA124000191GF104991021021008001041011KA1240N+02361MA1999999101631MD1999999+0191REMSYN082AAXX  09124 83398 22596 41404 10279 20226 30163 40169 82241 333 20236 58019 69914;
0167833980999992002010918004-15660-038920FM-12+000599999V0200901N002112200019N0040001N1+02851+02301101621ADDAA199000091GF104991021021008001041041MA1999999101561MD1999999+0211REMSYN070AAXX  09184 83398 32596 40904 10285 20230 30156 40162 82244 333 58021;EQDQ01  00002PRCP99
0198833980999992002011000004-15660-038920FM-12+000599999V0201801N001012200019N0010001N1+02431+02261101751ADDAA199000091GF103991031011008001001001KA1240M+02931MA1999999101651MD1999999+0291REMSYN088AAXX  10004 83398 32594 31802 10243 20226 30165 40175 83100 333 10293 29081 55115 58029;EQDQ01  00002PRCP99
0201833980999992002011012004-15660-038920FM-12+000599999V0200501N001010042019N0040001N1+02341+02181101871ADDAA124015091AY161061AY221061GF108991061071004501021999KA1240N+02281MA1999999101811MD1999999+0181MW1601REMSYN088AAXX  10124 83398 21496 80502 10234 20218 30181 40187 76062 8672/ 333 20228 58018 60154;
0182833980999992002011018004-15660-038920FM-12+000599999V0200901N002112200019N0040001N1+02741+02401101581ADDAA106007991AY161061AY221061GF104991021021004501041011MA1999999101531MD1999999-0031MW1011REMSYN082AAXX  10184 83398 21496 40904 10274 20240 30153 40158 70162 82241 333 59003 60081;
0232833980999992002011100004-15660-038920FM-12+000599999V0202301N001012200019N0010001N1+02381+02241101871ADDAA106007991AY161061AY221061GF104991999041004501001001KA1240M+02381MA1999999101811MD1999999+0121MW1011REMSYN100AAXX  11004 83398 21494 42302 10238 20224 30181 40187 70162 81400 333 10238 29089 55061 58012 60081;EQDQ01+000012SCOTLC
0167833980999992002011118004-15660-038920FM-12+000599999V0201401N003110450019N0040001N1+02841+02381101731ADDAA199000091GF106991041051008001021011MA1999999101671MD1999999+0001REMSYN070AAXX  11184 83398 32596 61406 10284 20238 30167 40173 84521 333 58000;EQDQ01  00002PRCP99
0198833980999992002011200004-15660-038920FM-12+000599999V0201401N002110450019N0010001N1+02551+02141101941ADDAA199000091GF106991041051008001021001KA1240M+02931MA1999999101881MD1999999+0071REMSYN088AAXX  12004 83398 32594 61404 10255 20214 30188 40194 84520 333 10293 29078 55108 58007;EQDQ01  00002PRCP99
0201833980999992002011212004-15660-038920FM-12+000599999V0200901N002112200019N0040001N1+02731+02291101851ADDAA124001091AY151061AY221061GF104991031021004501041001KA1240N+02281MA1999999101791MD1999999-0041MW1011REMSYN088AAXX  12124 83398 21496 40904 10273 20229 30179 40185 70152 83240 333 20228 59004 60014;
0167833980999992002011218004-15660-038920FM-12+000599999V0201401N003110450019N0040001N1+02781+02251101711ADDAA199000091GF106991031051008001041001MA1999999101651MD1999999-0021REMSYN070AAXX  12184 83398 32596 61406 10278 20225 30165 40171 83540 333 59002;EQDQ01  00002PRCP99
0198833980999992002011300004-15660-038920FM-12+000599999V0200901N002112200019N0010001N1+02561+02291101731ADDAA199000091GF104991041011008001001001KA1240M+02941MA1999999101671MD1999999-0211REMSYN088AAXX  13004 83398 32594 40904 10256 20229 30167 40173 84100 333 10294 29080 55104 59021;EQDQ01  00002PRCP99
0201833980999992002011312004-15660-038920FM-12+000599999V0201801N001010450019N0040001N1+02481+02291101681ADDAA124007191AY161061AY221061GF107991041051008001021001KA1240N+02281MA1999999101621MD1999999-0171MW1021REMSYN088AAXX  13124 83398 21596 71802 10248 20229 30162 40168 70262 84520 333 20228 59017 60074;
0167833980999992002011318004-15660-038920FM-12+000599999V0201401N001010075019N0040001N1+02781+02161101451ADDAA199000091GF108991051051008001021999MA1999999101401MD1999999-0151REMSYN070AAXX  13184 83398 32596 81402 10278 20216 30140 40145 8552/ 333 59015;EQDQ01  00002PRCP99
0213833980999992002011400004-15660-038920FM-12+000599999V0209999C000010450019N0010001N1+02501+02311101581ADDAA106000191AY151061AY221061GF108991041071008001021999KA1240M+02931MA1999999101521MD1999999-0141MW1501REMSYN100AAXX  14004 83398 21594 80000 10250 20231 30152 40158 75052 8472/ 333 10293 29084 55019 59014 69921;
0173833980999992002011412004-15660-038920FM-12+000599999V0203201N002110450019N0040001N1+02261+01291101391ADDAA124000191GF106991031021004501051001KA1240N+02291MA1999999101341MD1999999-0331REMSYN082AAXX  14124 83398 22496 63204 10226 20129 30134 40139 83250 333 20229 59033 69924;
0182833980999992002011418004-15660-038920FM-12+000599999V0203601N002110042019N0040001N1+02631+02321100941ADDAA106000891AY151061AY221061GF108991051051004501021999MA1999999100891MD1999999-0511MW1501REMSYN082AAXX  14184 83398 21496 83604 10263 20232 30089 40094 75052 8552/ 333 59051 69981;
0213833980999992002011500004-15660-038920FM-12+000599999V0203601N002110042019N0010001N1+02361+02221101151ADDAA106022191AY161061AY221061GF108991061071004501021999KA1240M+02871MA1999999101101MD1999999-0431MW1601REMSYN100AAXX  15004 83398 21494 83604 10236 20222 30110 40115 76062 8672/ 333 10287 29087 55030 59043 60221;
0201833980999992002011612004-15660-038920FM-12+000599999V0203601N002110042019N0040001N1+02551+02301100861ADDAA124017091AY161061AY221061GF108991051051004501021999KA1240N+02301MA1999999100811MD1999999+0061MW1021REMSYN088AAXX  16124 83398 21496 83604 10255 20230 30081 40086 70262 8552/ 333 20230 58006 60174;
0167833980999992002011618004-15660-038920FM-12+000599999V0203601N002110450019N0040001N1+02691+02441100741ADDAA199000091GF106991041051008001021001MA1999999100691MD1999999+0141REMSYN070AAXX  16184 83398 32596 63604 10269 20244 30069 40074 84520 333 58014;EQDQ01  00002PRCP99
0198833980999992002011700004-15660-038920FM-12+000599999V0203601N001010075019N0010001N1+02541+02441100961ADDAA199000091GF108991051051008001021999KA1240M+02861MA1999999100911MD1999999+0201REMSYN088AAXX  17004 83398 32594 83602 10254 20244 30091 40096 8552/ 333 10286 29090 55019 58020;EQDQ01  00002PRCP99
0201833980999992002011712004-15660-038920FM-12+000599999V0203601N002110450019N0040001N1+02701+02221101191ADDAA124000391AY151061AY221061GF107991041051004501021001KA1240N+02301MA1999999101141MD1999999+0331MW1021REMSYN088AAXX  17124 83398 21496 73604 10270 20222 30114 40119 70252 84520 333 20230 58033 69934;
0167833980999992002011718004-15660-038920FM-12+000599999V0200501N003110075019N0040001N1+02681+02281101051ADDAA199000091GF108991051051008001021999MA1999999101001MD1999999+0311REMSYN070AAXX  17184 83398 32596 80506 10268 20228 30100 40105 8552/ 333 58031;EQDQ01  00002PRCP99
0198833980999992002011800004-15660-038920FM-12+000599999V0200501N002110450019N0010001N1+02601+02461101261ADDAA199000091GF107991041051008001021001KA1240M+02861MA1999999101211MD1999999+0301REMSYN088AAXX  18004 83398 32594 70504 10260 20246 30121 40126 84520 333 10286 29085 55000 58030;EQDQ01  00002PRCP99
0201833980999992002011812004-15660-038920FM-12+000599999V0203601N002110450019N0040001N1+02741+02451101451ADDAA124002091AY151061AY221061GF106991031051004501021001KA1240N+02251MA1999999101401MD1999999+0261MW1011REMSYN088AAXX  18124 83398 21496 63604 10274 20245 30140 40145 70152 83520 333 20225 58026 60024;
0167833980999992002011818004-15660-038920FM-12+000599999V0200901N003110450019N0040001N1+02741+02401101231ADDAA199000091GF107991041051008001021001MA1999999101181MD1999999+0181REMSYN070AAXX  18184 83398 32596 70906 10274 20240 30118 40123 84520 333 58018;EQDQ01  00002PRCP99
0198833980999992002011900004-15660-038920FM-12+000599999V0200901N001012200019N0010001N1+02521+02361101341ADDAA199000091GF104991021011008001041001KA1240M+02901MA1999999101291MD1999999+0081REMSYN088AAXX  19004 83398 32594 40902 10252 20236 30129 40134 82140 333 10290 29087 55028 58008;EQDQ01  00002PRCP99
0201833980999992002011912004-15660-038920FM-12+000599999V0200901N003110450019N0040001N1+02741+02321101471ADDAA124000891AY151061AY221061GF106991041051008001041001KA1240N+02231MA1999999101421MD1999999+0021MW1021REMSYN088AAXX  19124 83398 21596 60906 10274 20232 30142 40147 70252 84540 333 20223 58002 69984;
0167833980999992002011918004-15660-038920FM-12+000599999V0201401N003110450019N0040001N1+02781+02321101331ADDAA199000091GF106991031051008001041011MA1999999101281MD1999999+0101REMSYN070AAXX  19184 83398 32596 61406 10278 20232 30128 40133 83541 333 58010;EQDQ01  00002PRCP99
0198833980999992002012000004-15660-038920FM-12+000599999V0201801N001010450019N0010001N1+02501+02341101521ADDAA199000091GF105991031051008001041001KA1240M+02941MA1999999101471MD1999999+0181REMSYN088AAXX  20004 83398 32594 51802 10250 20234 30147 40152 83540 333 10294 29084 55083 58018;EQDQ01  00002PRCP99
0201833980999992002012012004-15660-038920FM-12+000599999V0203201N001010450019N0040001N1+02501+02341101621ADDAA124005191AY161061AY221061GF107991041051008001021001KA1240N+02271MA1999999101561MD1999999+0141MW1621REMSYN088AAXX  20124 83398 21596 73202 10250 20234 30156 40162 76262 84520 333 20227 58014 60054;
0182833980999992002012018004-15660-038920FM-12+000599999V0201401N002110450019N0040001N1+02701+02301101481ADDAA106007191AY161061AY221061GF106991041051008001021001MA1999999101431MD1999999+0151MW1021REMSYN082AAXX  20184 83398 21596 61404 10270 20230 30143 40148 70262 84520 333 58015 60071;
0179833980999992002012100004-15660-038920FM-12+000599999V0209999C000010450019N0010001N1+02481+02321101641ADDAA199000021GF106991031051008001041001KA1240M+02871MA1999999101581MD1999999+0111REMSYN088AAXX  21004 83398 32594 60000 10248 20232 30158 40164 83540 333 10287 29088 55040 58011;
0201833980999992002012112004-15660-038920FM-12+000599999V0209999C000010450019N0040001N1+02481+02321101771ADDAA124013091AY161061AY221061GF107991041051008001021001KA1240N+02301MA1999999101711MD1999999+0151MW1601REMSYN088AAXX  21124 83398 21596 70000 10248 20232 30171 40177 76062 84520 333 20230 58015 60134;
0148833980999992002012118004-15660-038920FM-12+000599999V0200901N003110450019N0040001N1+02741+02241101581ADDAA199000021GF106991041051008001021001MA1999999101531MD1999999+0101REMSYN070AAXX  21184 83398 32596 60906 10274 20224 30153 40158 84520 333 58010;
0179833980999992002012200004-15660-038920FM-12+000599999V0201401N002110450019N0010001N1+02641+02271101771ADDAA199000021GF106991041051008001021001KA1240M+02891MA1999999101701MD1999999+0121REMSYN088AAXX  22004 83398 32594 61404 10264 20227 30170 40177 84520 333 10289 29081 55055 58012;
0201833980999992002012212004-15660-038920FM-12+000599999V0200901N002110450019N0040001N1+02781+02231101861ADDAA124000191AY151061AY221061GF106991041051008001041001KA1240N+02281MA1999999101801MD1999999+0091MW1021REMSYN088AAXX  22124 83398 21596 60904 10278 20223 30180 40186 70252 84540 333 20228 58009 69924;
0167833980999992002012218004-15660-038920FM-12+000599999V0200901N003110450019N0040001N1+02841+02311101641ADDAA199000091GF106991031051008001041001MA1999999101581MD1999999+0051REMSYN070AAXX  22184 83398 32596 60906 10284 20231 30158 40164 83540 333 58005;EQDQ01  00002PRCP99
0198833980999992002012300004-15660-038920FM-12+000599999V0200901N003110075019N0010001N1+02641+02271101711ADDAA199000091GF107991051051008001021001KA1240M+02921MA1999999101651MD1999999-0051REMSYN088AAXX  23004 83398 32594 70906 10264 20227 30165 40171 85520 333 10292 29076 55093 59005;EQDQ01  00002PRCP99
0186833980999992002012312004-15660-038920FM-12+000599999V0200901N002112200019N0040001N1+02861+02351101821ADDAA199000091GF104991031011008001041001KA1240N+02301MA1999999101761MD1999999-0041REMSYN076AAXX  23124 83398 32596 40904 10286 20235 30176 40182 83140 333 20230 59004;EQDQ01  00002PRCP99
0167833980999992002012318004-15660-038920FM-12+000599999V0200501N003110450019N0040001N1+02801+02271101491ADDAA199000091GF105991021051008001041001MA1999999101441MD1999999-0141REMSYN070AAXX  23184 83398 32596 50506 10280 20227 30144 40149 82540 333 59014;EQDQ01  00002PRCP99
0198833980999992002012400004-15660-038920FM-12+000599999V0200501N001012200019N0010001N1+02561+02251101391ADDAA199000091GF102991021021008001001001KA1240M+02981MA1999999101341MD1999999-0311REMSYN088AAXX  24004 83398 32594 20502 10256 20225 30134 40139 82200 333 10298 29078 55102 59031;EQDQ01  00002PRCP99
0186833980999992002012412004-15660-038920FM-12+000599999V0203601N002112200019N0040001N1+02841+02221101531ADDAA199000091GF104991031021008001041001KA1240N+02241MA1999999101481MD1999999-0281REMSYN076AAXX  24124 83398 32596 43604 10284 20222 30148 40153 83240 333 20224 59028;EQDQ01  00002PRCP99
0167833980999992002012418004-15660-038920FM-12+000599999V0203601N003112200019N0040001N1+02851+02301101251ADDAA199000091GF102991021021008001001001MA1999999101201MD1999999-0241REMSYN070AAXX  24184 83398 32596 23606 10285 20230 30120 40125 82200 333 59024;EQDQ01  00002PRCP99
0198833980999992002012500004-15660-038920FM-12+000599999V0200501N002112200019N0010001N1+02621+02311101471ADDAA199000091GF104991011011008001041001KA1240M+02981MA1999999101421MD1999999-0121REMSYN088AAXX  25004 83398 32594 40504 10262 20231 30142 40147 81140 333 10298 29077 55115 59012;EQDQ01  00002PRCP99
0186833980999992002012512004-15660-038920FM-12+000599999V0203601N002112200019N0040001N1+02851+02361101541ADDAA199000091GF104991021021008001041041KA1240N+02381MA1999999101491MD1999999+0011REMSYN076AAXX  25124 83398 32596 43604 10285 20236 30149 40154 82244 333 20238 58001;EQDQ01  00002PRCP99
0167833980999992002012518004-15660-038920FM-12+000599999V0203601N001011050019N0040001N1+02791+02351101361ADDAA199000091GF106991021021008001021041MA1999999101311MD1999999+0111REMSYN070AAXX  25184 83398 32596 63602 10279 20235 30131 40136 82224 333 58011;EQDQ01  00002PRCP99
0198833980999992002012600004-15660-038920FM-12+000599999V0200501N002111050019N0010001N1+02641+02391101431ADDAA199000091GF105991021021008001051041KA1240M+02991MA1999999101381MD1999999-0041REMSYN088AAXX  26004 83398 32594 50504 10264 20239 30138 40143 82254 333 10299 29081 55050 59004;EQDQ01  00002PRCP99
0186833980999992002012612004-15660-038920FM-12+000599999V0203601N002110075019N0040001N1+02681+02411101681ADDAA199000091GF107991051051008001021001KA1240N+02391MA1999999101621MD1999999+0131REMSYN076AAXX  26124 83398 32596 73604 10268 20241 30162 40168 85520 333 20239 58013;EQDQ01  00002PRCP99
0167833980999992002012618004-15660-038920FM-12+000599999V0200501N003110450019N0040001N1+02901+02411101361ADDAA199000091GF105991031051008001041001MA1999999101311MD1999999+0001REMSYN070AAXX  26184 83398 32596 50506 10290 20241 30131 40136 83540 333 58000;EQDQ01  00002PRCP99
0198833980999992002012700004-15660-038920FM-12+000599999V0200501N003112200019N0010001N1+02581+02371101431ADDAA199000091GF104991021011008001041001KA1240M+02981MA1999999101381MD1999999+0001REMSYN088AAXX  27004 83398 32594 40506 10258 20237 30138 40143 82140 333 10298 29084 55099 58000;EQDQ01  00002PRCP99
0201833980999992002012712004-15660-038920FM-12+000599999V0200501N003110450019N0040001N1+02821+02401101581ADDAA124000191AY151061AY221061GF106991041051008001041001KA1240N+02351MA1999999101531MD1999999-0091MW1051REMSYN088AAXX  27124 83398 21596 60506 10282 20240 30153 40158 70552 84540 333 20235 59009 69914;
0167833980999992002012718004-15660-038920FM-12+000599999V0200501N004110450019N0040001N1+02881+02321101211ADDAA199000091GF105991031011008001041001MA1999999101161MD1999999-0151REMSYN070AAXX  27184 83398 32596 50508 10288 20232 30116 40121 83140 333 59015;EQDQ01  00002PRCP99
0201833980999992002012800004-15660-038920FM-12+000599999V0209999C000019999999N0010001N1+02541+02231999999ADDAA199000091GF106991999999008001999999KA1240M+03001MA1999999101271MD1999999-0211ME1310009REMSYN082AAXX  28004 83398 32594 60000 10254 20223 30127 48000 333 10300 29078 55/// 59021;EQDQ01  00002PRCP99
0186833980999992002012812004-15660-038920FM-12+000599999V0200501N002110075019N0040001N1+02801+02181101491ADDAA199000091GF105991051021008001001001KA1240N+02311MA1999999101441MD1999999-0091REMSYN076AAXX  28124 83398 32596 50504 10280 20218 30144 40149 85200 333 20231 59009;EQDQ01  00002PRCP99
0167833980999992002012818004-15660-038920FM-12+000599999V0200501N003112200019N0040001N1+02881+02161101121ADDAA199000091GF104991021021008001041001MA1999999101071MD1999999-0091REMSYN070AAXX  28184 83398 32596 40506 10288 20216 30107 40112 82240 333 59009;EQDQ01  00002PRCP99
0198833980999992002012900004-15660-038920FM-12+000599999V0200501N002112200019N0010001N1+02501+02171101211ADDAA199000091GF103991031011008001001001KA1240M+03011MA1999999101161MD1999999-0111REMSYN088AAXX  29004 83398 32594 30504 10250 20217 30116 40121 83100 333 10301 29075 55117 59011;EQDQ01  00002PRCP99
0186833980999992002012912004-15660-038920FM-12+000599999V0203601N002110075019N0040001N1+02841+02171101451ADDAA199000091GF106991051021008001041001KA1240N+02111MA1999999101401MD1999999-0041REMSYN076AAXX  29124 83398 32596 63604 10284 20217 30140 40145 85240 333 20211 59004;EQDQ01  00002PRCP99
0167833980999992002012918004-15660-038920FM-12+000599999V0200501N003110450019N0040001N1+02851+02211101101ADDAA199000091GF105991031021008001041001MA1999999101051MD1999999-0021REMSYN070AAXX  29184 83398 32596 50506 10285 20221 30105 40110 83240 333 59002;EQDQ01  00002PRCP99
0198833980999992002013000004-15660-038920FM-12+000599999V0200501N001012200019N0010001N1+02521+02271101201ADDAA199000091GF102991021011008001001001KA1240M+03011MA1999999101151MD1999999-0011REMSYN088AAXX  30004 83398 32594 20502 10252 20227 30115 40120 82100 333 10301 29077 55113 59001;EQDQ01  00002PRCP99
0186833980999992002013012004-15660-038920FM-12+000599999V0200501N002112200019N0040001N1+02841+02191101491ADDAA199000091GF103991031011008001001001KA1240N+02151MA1999999101441MD1999999+0041REMSYN076AAXX  30124 83398 32596 30504 10284 20219 30144 40149 83100 333 20215 58004;EQDQ01  00002PRCP99
0167833980999992002013018004-15660-038920FM-12+000599999V0200501N002112200019N0040001N1+02921+02171101191ADDAA199000091GF103991011021008001041011MA1999999101141MD1999999+0091REMSYN070AAXX  30184 83398 32596 30504 10292 20217 30114 40119 81241 333 58009;EQDQ01  00002PRCP99
0198833980999992002013100004-15660-038920FM-12+000599999V0200501N001012200019N0010001N1+02551+02221101381ADDAA199000091GF102991021021008001001001KA1240M+03021MA1999999101331MD1999999+0081REMSYN088AAXX  31004 83398 32594 20502 10255 20222 30133 40138 82200 333 10302 29074 55115 58008;EQDQ01  00002PRCP99
0186833980999992002013112004-15660-038920FM-12+000599999V0200501N001010450019N0040001N1+02901+02321101531ADDAA199000091GF105991031051008001041001KA1240N+02211MA1999999101481MD1999999+0041REMSYN076AAXX  31124 83398 32596 50502 10290 20232 30148 40153 83540 333 20221 58004;EQDQ01  00002PRCP99
0167833980999992002013118004-15660-038920FM-12+000599999V0200501N003112200019N0040001N1+02871+02291101271ADDAA199000091GF104991021021008001041011MA1999999101221MD1999999+0081REMSYN070AAXX  31184 83398 32596 40506 10287 20229 30122 40127 82241 333 58008;EQDQ01  00002PRCP99
0198833980999992002020100004-15660-038920FM-12+000599999V0200501N002112200019N0040001N1+02561+02291101391ADDAA199000091GF102991021021008001001001KA1240M+03001MA1999999101341MD1999999+0011REMSYN088AAXX  01004 83398 32596 20504 10256 20229 30134 40139 82200 333 10300 29078 55103 58001;EQDQ01  00002PRCP99
0201833980999992002020112004-15660-038920FM-12+000599999V0209999C000010450019N0040001N1+02641+02351101611ADDAA124000391AY151061AY221061GF107991041051004501021001KA1240N+02331MA1999999101551MD1999999+0071MW1021REMSYN088AAXX  01124 83398 21496 70000 10264 20235 30155 40161 70252 84520 333 20233 58007 69934;
0182833980999992002020118004-15660-038920FM-12+000599999V0203601N002112200019N0040001N1+02931+02351101151ADDAA106000191AY151061AY221061GF103991011021008001041011MA1999999101101MD1999999-0121MW1011REMSYN082AAXX  01184 83398 21596 33604 10293 20235 30110 40115 70152 81241 333 59012 69911;
0198833980999992002020200004-15660-038920FM-12+000599999V0203601N001012200019N0010001N1+02601+02291101231ADDAA199000091GF102991021011008001001001KA1240M+03051MA1999999101181MD1999999-0161REMSYN088AAXX  02004 83398 32594 23602 10260 20229 30118 40123 82100 333 10305 29080 55080 59016;EQDQ01  00002PRCP99
0173833980999992002020212004-15660-038920FM-12+000599999V0203601N002110075019N0040001N1+02771+02411101371ADDAA124000191GF108991051051008001021999KA1240N+02371MA1999999101321MD1999999-0231REMSYN082AAXX  02124 83398 22596 83604 10277 20241 30132 40137 8552/ 333 20237 59023 69914;
0167833980999992002020218004-15660-038920FM-12+000599999V0200501N004110450019N0040001N1+02881+02461101091ADDAA199000091GF107991041051008001021011MA1999999101041MD1999999-0061REMSYN070AAXX  02184 83398 32596 70508 10288 20246 30104 40109 84521 333 59006;EQDQ01  00002PRCP99
0132833980999992002020300004-15660-038920FM-12+000599999V0200501N002112200019N0010001N1+02601+02371999999ADDAA199000091GF102991999041008001001081REMSYN048AAXX  03004 83398 32594 20504 10260 20237 83408;EQDQ01+000032SCOTLCQ02  00002PRCP99
0186833980999992002020312004-15660-038920FM-12+000599999V0203601N002110450019N0040001N1+02761+02341101171ADDAA199000091GF108991041051008001021999KA1240N+02411MA1999999101121MD1999999-0201REMSYN076AAXX  03124 83398 32596 83604 10276 20234 30112 40117 8452/ 333 20241 59020;EQDQ01  00002PRCP99
0167833980999992002020318004-15660-038920FM-12+000599999V0203601N002110450019N0040001N1+02741+02341100941ADDAA199000091GF107991041051008001021001MA1999999100891MD1999999-0151REMSYN070AAXX  03184 83398 32596 73604 10274 20234 30089 40094 84520 333 59015;EQDQ01  00002PRCP99
0213833980999992002020400004-15660-038920FM-12+000599999V0209999C000010450019N0010001N1+02381+02291101081ADDAA106007991AY191061AY261061GF107991041051008001021001KA1240M+03031MA1999999101031MD1999999-0051MW1021REMSYN100AAXX  04004 83398 21594 70000 10238 20229 30103 40108 70296 84520 333 10303 29087 55036 59005 60081;
0182833980999992002020418004-15660-038920FM-12+000599999V0203601N001010075019N0040001N1+02581+02371101141ADDAA106004191AY161061AY221061GF108991051051008001021999MA1999999101091MD1999999+0101MW1021REMSYN082AAXX  04184 83398 21596 83602 10258 20237 30109 40114 70262 8552/ 333 58010 60041;
0213833980999992002020500004-15660-038920FM-12+000599999V0209999C000010042019N0010001N1+02261+02141101551ADDAA106017091AY161061AY221061GF108991051071004501021999KA1240M+02641MA1999999101501MD1999999+0471MW1601REMSYN100AAXX  05004 83398 21494 80000 10226 20214 30150 40155 76062 8572/ 333 10264 29091 55000 58047 60171;
0201833980999992002020512004-15660-038920FM-12+000599999V0202701N001010075019N0040001N1+02561+02251101481ADDAA124031091AY161061AY221061GF107991051051008001021001KA1240N+02201MA1999999101431MD1999999+0041MW1021REMSYN088AAXX  05124 83398 21596 72702 10256 20225 30143 40148 70262 85520 333 20220 58004 60314;
0182833980999992002020518004-15660-038920FM-12+000599999V0200501N002110075019N0040001N1+02701+02301101351ADDAA106000591AY151061AY221061GF107991051051008001021001MA1999999101301MD1999999+0211MW1021REMSYN082AAXX  05184 83398 21596 70504 10270 20230 30130 40135 70252 85520 333 58021 69941;
0198833980999992002020600004-15660-038920FM-12+000599999V0209999C000010075019N0010001N1+02501+02341101621ADDAA199000091GF108991051051008001021999KA1240M+02931MA1999999101561MD1999999+0061REMSYN088AAXX  06004 83398 32594 80000 10250 20234 30156 40162 8552/ 333 10293 29086 55017 58006;EQDQ01  00002PRCP99
0201833980999992002020612004-15660-038920FM-12+000599999V0209999C000010042019N0040001N1+02341+02171101591ADDAA124005191AY161061AY221061GF108991061071004501021999KA1240N+02261MA1999999101541MD1999999+0101MW1601REMSYN088AAXX  06124 83398 21496 80000 10234 20217 30154 40159 76062 8672/ 333 20226 58010 60054;
0182833980999992002020618004-15660-038920FM-12+000599999V0209999C000010042019N0040001N1+02421+02211101451ADDAA106007191AY161061AY221061GF108991051051004501021999MA1999999101401MD1999999+0101MW1601REMSYN082AAXX  06184 83398 21496 80000 10242 20221 30140 40145 76062 8552/ 333 58010 60071;
0167833980999992002020718004-15660-038920FM-12+000599999V0200901N002110450019N0040001N1+02821+02501101361ADDAA199000091GF105991021021008001051001MA1999999101311MD1999999-0091REMSYN070AAXX  07184 83398 32596 50904 10282 20250 30131 40136 82250 333 59009;EQDQ01  00002PRCP99
0198833980999992002020800004-15660-038920FM-12+000599999V0200901N001010450019N0010001N1+02411+02241101631ADDAA199000091GF106991041051008001021001KA1240M+02851MA1999999101571MD1999999-0011REMSYN088AAXX  08004 83398 32594 60902 10241 20224 30157 40163 84520 333 10285 29087 55036 59001;EQDQ01  00002PRCP99
0186833980999992002020812004-15660-038920FM-12+000599999V0203601N002110450019N0040001N1+02801+02311101711ADDAA199000091GF105991031021008001041041KA1240N+02211MA1999999101651MD1999999-0051REMSYN076AAXX  08124 83398 32596 53604 10280 20231 30165 40171 83244 333 20221 59005;EQDQ01  00002PRCP99
0167833980999992002020818004-15660-038920FM-12+000599999V0200501N002111050019N0040001N1+02841+02331101481ADDAA199000091GF105991021021008001041041MA1999999101431MD1999999+0121REMSYN070AAXX  08184 83398 32596 50504 10284 20233 30143 40148 82244 333 58012;EQDQ01  00002PRCP99
0198833980999992002020900004-15660-038920FM-12+000599999V0200501N001012200019N0010001N1+02601+02271101541ADDAA199000091GF103991031011008001001001KA1240M+02951MA1999999101491MD1999999-0081REMSYN088AAXX  09004 83398 32594 30502 10260 20227 30149 40154 83100 333 10295 29078 55112 59008;EQDQ01  00002PRCP99
0186833980999992002020912004-15660-038920FM-12+000599999V0200901N002110450019N0040001N1+02771+02261101501ADDAA199000091GF105991031021008001041001KA1240N+02291MA1999999101451MD1999999-0201REMSYN076AAXX  09124 83398 32596 50904 10277 20226 30145 40150 83240 333 20229 59020;EQDQ01  00002PRCP99
0167833980999992002020918004-15660-038920FM-12+000599999V0200901N003111050019N0040001N1+02841+02311101431ADDAA199000091GF105991021021008001041011MA1999999101381MD1999999-0051REMSYN070AAXX  09184 83398 32596 50906 10284 20231 30138 40143 82241 333 59005;EQDQ01  00002PRCP99
0198833980999992002021000004-15660-038920FM-12+000599999V0200501N001012200019N0010001N1+02611+02201101561ADDAA199000091GF103991031011008001001001KA1240M+02971MA1999999101511MD1999999+0021REMSYN088AAXX  10004 83398 32594 30502 10261 20220 30151 40156 83100 333 10297 29078 55106 58002;EQDQ01  00002PRCP99
0201833980999992002021012004-15660-038920FM-12+000599999V0203201N001010450019N0040001N1+02621+02331101721ADDAA124007991AY161061AY221061GF107991041051004501021001KA1240N+02251MA1999999101661MD1999999+0211MW1021REMSYN088AAXX  10124 83398 21496 73202 10262 20233 30166 40172 70262 84520 333 20225 58021 60084;
0167833980999992002021018004-15660-038920FM-12+000599999V0200501N002110450019N0040001N1+02791+02261101501ADDAA199000091GF105991031021008001041001MA1999999101451MD1999999+0071REMSYN070AAXX  10184 83398 32596 50504 10279 20226 30145 40150 83240 333 58007;EQDQ01  00002PRCP99
0198833980999992002021100004-15660-038920FM-12+000599999V0200901N002110450019N0010001N1+02621+02271101641ADDAA199000091GF105991041021008001041001KA1240M+03001MA1999999101581MD1999999+0071REMSYN088AAXX  11004 83398 32594 50904 10262 20227 30158 40164 84240 333 10300 29079 55074 58007;EQDQ01  00002PRCP99
0175833980999992002021112004-15660-038920FM-12+000599999V0202701N002111050019N0040001N1+02671+02341101301ADDGF105991021021008001041011KA1240N+02141MA1999999999999MD1999999-0011REMSYN076AAXX  11124 83398 21596 52704 10267 20234 39682 40130 82241 333 20214 59001;EQDQ01 096823APOSP 
0183833980999992002021118004-15660-038920FM-12+000599999V0200901N003111050019N0040001N1+02861+02371101391ADDAA199000091GF105991021021008001041011MA1999999101342MD1999999-0111REMSYN070AAXX  11184 83398 32596 50906 10286 20237 30134 40139 82241 333 59011;EQDQ01+101343APOSP Q02  00002PRCP99
0198833980999992002021200004-15660-038920FM-12+000599999V0200501N001012200019N0010001N1+02611+02201101541ADDAA199000091GF102991021021008001001001KA1240M+02981MA1999999101491MD1999999-0091REMSYN088AAXX  12004 83398 32594 20502 10261 20220 30149 40154 82200 333 10298 29078 55106 59009;EQDQ01  00002PRCP99
0186833980999992002021212004-15660-038920FM-12+000599999V0201401N002110450019N0040001N1+02901+02221101751ADDAA199000091GF105991031021008001041001KA1240N+02811MA1999999101691MD1999999+0101REMSYN076AAXX  12124 83398 32596 51404 10290 20222 30169 40175 83240 333 20281 58010;EQDQ01  00002PRCP99
0167833980999992002021218004-15660-038920FM-12+000599999V0200901N003111050019N0040001N1+02861+02261101491ADDAA199000091GF105991021021008001041011MA1999999101441MD1999999+0101REMSYN070AAXX  12184 83398 32596 50906 10286 20226 30144 40149 82241 333 58010;EQDQ01  00002PRCP99
0198833980999992002021300004-15660-038920FM-12+000599999V0209999C000012200019N0010001N1+02681+02201101621ADDAA199000091GF103991031011008001001001KA1240M+03011MA1999999101561MD1999999+0071REMSYN088AAXX  13004 83398 32594 30000 10268 20220 30156 40162 83100 333 10301 29072 55110 58007;EQDQ01  00002PRCP99
0201833980999992002021312004-15660-038920FM-12+000599999V0201401N002112200019N0040001N1+02681+02371101691ADDAA124008991AY161061AY221061GF103991031021004501041001KA1240N+02201MA1999999101631MD1999999-0031MW1011REMSYN088AAXX  13124 83398 21496 31404 10268 20237 30163 40169 70162 83240 333 20220 59003 60094;
0167833980999992002021318004-15660-038920FM-12+000599999V0200901N003110450019N0040001N1+02861+02231101411ADDAA199000091GF105991031021008001041001MA1999999101361MD1999999-0081REMSYN070AAXX  13184 83398 32596 50906 10286 20223 30136 40141 83240 333 59008;EQDQ01  00002PRCP99
0186833980999992002021412004-15660-038920FM-12+000599999V0203201N001012200019N0040001N1+02701+02281101711ADDAA199000091GF104991031021008001041001KA1240N+02181MA1999999101651MD1999999+0021REMSYN076AAXX  14124 83398 32596 43202 10270 20228 30165 40171 83240 333 20218 58002;EQDQ01  00002PRCP99
0167833980999992002021418004-15660-038920FM-12+000599999V0203601N002112200019N0040001N1+02881+02231101311ADDAA199000091GF103991021021008001041001MA1999999101261MD1999999-0101REMSYN070AAXX  14184 83398 32596 33604 10288 20223 30126 40131 82240 333 59010;EQDQ01  00002PRCP99
0198833980999992002021500004-15660-038920FM-12+000599999V0200501N003112200019N0010001N1+02681+02261101571ADDAA199000091GF103991031011008001001001KA1240M+02981MA1999999101521MD1999999+0021REMSYN088AAXX  15004 83398 32594 30506 10268 20226 30152 40157 83100 333 10298 29076 55110 58002;EQDQ01  00002PRCP99
0186833980999992002021512004-15660-038920FM-12+000599999V0209999C000010450019N0040001N1+02741+02321101641ADDAA199000091GF105991041051008001041001KA1240N+02251MA1999999101581MD1999999-0071REMSYN076AAXX  15124 83398 32596 50000 10274 20232 30158 40164 84540 333 20225 59007;EQDQ01  00002PRCP99
0167833980999992002021518004-15660-038920FM-12+000599999V0200501N004110450019N0040001N1+02921+02341101371ADDAA199000091GF105991031021008001041001MA1999999101321MD1999999+0061REMSYN070AAXX  15184 83398 32596 50508 10292 20234 30132 40137 83240 333 58006;EQDQ01  00002PRCP99
0198833980999992002021600004-15660-038920FM-12+000599999V0200501N002112200019N0010001N1+02741+02321101561ADDAA199000091GF102991021011008001001001KA1240M+03021MA1999999101511MD1999999-0011REMSYN088AAXX  16004 83398 32594 20504 10274 20232 30151 40156 82100 333 10302 29076 55109 59001;EQDQ01  00002PRCP99
0201833980999992002021612004-15660-038920FM-12+000599999V0209999C000010450019N0040001N1+02621+02351101701ADDAA124006191AY161061AY221061GF107991041051004501021001KA1240N+02301MA1999999101641MD1999999+0061MW1021REMSYN088AAXX  16124 83398 21496 70000 10262 20235 30164 40170 70262 84520 333 20230 58006 60064;
0167833980999992002021618004-15660-038920FM-12+000599999V0200501N002110450019N0040001N1+02861+02311101471ADDAA199000091GF106991031021008001051011MA1999999101421MD1999999+0101REMSYN070AAXX  16184 83398 32596 60504 10286 20231 30142 40147 83251 333 58010;EQDQ01  00002PRCP99
0198833980999992002021700004-15660-038920FM-12+000599999V0200501N001012200019N0010001N1+02661+02371101451ADDAA199000091GF104991031021008001041001KA1240M+03021MA1999999101401MD1999999-0011REMSYN088AAXX  17004 83398 32594 40502 10266 20237 30140 40145 83240 333 10302 29081 55057 59001;EQDQ01  00002PRCP99
0201833980999992002021712004-15660-038920FM-12+000599999V0203201N001010450019N0040001N1+02831+02341101551ADDAA124000191AY151061AY221061GF106991031051004501041041KA1240N+02321MA1999999101501MD1999999-0141MW1011REMSYN088AAXX  17124 83398 21496 63202 10283 20234 30150 40155 70152 83544 333 20232 59014 69924;
0167833980999992002021718004-15660-038920FM-12+000599999V0200501N002110450019N0040001N1+02861+02391101341ADDAA199000091GF106991031021008001041041MA1999999101291MD1999999-0131REMSYN070AAXX  17184 83398 32596 60504 10286 20239 30129 40134 83244 333 59013;EQDQ01  00002PRCP99
0198833980999992002021800004-15660-038920FM-12+000599999V0200501N002110450019N0010001N1+02641+02371101351ADDAA199000091GF105991031021008001041001KA1240M+03041MA1999999101301MD1999999-0101REMSYN088AAXX  18004 83398 32594 50504 10264 20237 30130 40135 83240 333 10304 29080 55082 59010;EQDQ01  00002PRCP99
0186833980999992002021812004-15660-038920FM-12+000599999V0203601N001010450019N0040001N1+02911+02351101451ADDAA199000091GF106991041051008001021001KA1240N+02321MA1999999101401MD1999999-0101REMSYN076AAXX  18124 83398 32596 63602 10291 20235 30140 40145 84520 333 20232 59010;EQDQ01  00002PRCP99
0167833980999992002021818004-15660-038920FM-12+000599999V0200901N002111050019N0040001N1+02931+02371101201ADDAA199000091GF105991021021008001041041MA1999999101151MD1999999-0141REMSYN070AAXX  18184 83398 32596 50904 10293 20237 30115 40120 82244 333 59014;EQDQ01  00002PRCP99
0201833980999992002021912004-15660-038920FM-12+000599999V0200501N002110450019N0040001N1+02881+02351101531ADDAA124005191AY161061AY221061GF105991031021008001041001KA1240N+02381MA1999999101481MD1999999+0081MW1011REMSYN088AAXX  19124 83398 21596 50504 10288 20235 30148 40153 70162 83240 333 20238 58008 60054;
0167833980999992002021918004-15660-038920FM-12+000599999V0200501N002111050019N0040001N1+02881+02351101281ADDAA199000091GF105991021021008001041041MA1999999101231MD1999999+0081REMSYN070AAXX  19184 83398 32596 50504 10288 20235 30123 40128 82244 333 58008;EQDQ01  00002PRCP99
0198833980999992002022000004-15660-038920FM-12+000599999V0200501N002112200019N0010001N1+02701+02301101491ADDAA199000091GF103991031011008001001001KA1240M+03031MA1999999101441MD1999999+0061REMSYN088AAXX  20004 83398 32594 30504 10270 20230 30144 40149 83100 333 10303 29076 55082 58006;EQDQ01  00002PRCP99
0201833980999992002022012004-15660-038920FM-12+000599999V0200501N002110450019N0040001N1+02871+02321101611ADDAA124000891AY151061AY221061GF106991031021004501041041KA1240N+02281MA1999999101551MD1999999+0071MW1011REMSYN088AAXX  20124 83398 21496 60504 10287 20232 30155 40161 70152 83244 333 20228 58007 69984;
0167833980999992002022018004-15660-038920FM-12+000599999V0200501N002111050019N0040001N1+02951+02201101471ADDAA199000091GF105991021021008001041041MA1999999101421MD1999999+0191REMSYN070AAXX  20184 83398 32596 50504 10295 20220 30142 40147 82244 333 58019;EQDQ01  00002PRCP99
0198833980999992002022100004-15660-038920FM-12+000599999V0200501N002112200019N0010001N1+02651+02261101511ADDAA199000091GF102991021011008001001001KA1240M+03031MA1999999101461MD1999999+0021REMSYN088AAXX  21004 83398 32594 20504 10265 20226 30146 40151 82100 333 10303 29074 55088 58002;EQDQ01  00002PRCP99
0186833980999992002022112004-15660-038920FM-12+000599999V0203601N002110450019N0040001N1+02841+02291101491ADDAA199000091GF105991031021008001041011KA1240N+02181MA1999999101441MD1999999-0111REMSYN076AAXX  21124 83398 32596 53604 10284 20229 30144 40149 83241 333 20218 59011;EQDQ01  00002PRCP99
0167833980999992002022118004-15660-038920FM-12+000599999V0200501N002112200019N0040001N1+02871+02291101151ADDAA199000091GF104991021021008001041041MA1999999101101MD1999999-0321REMSYN070AAXX  21184 83398 32596 40504 10287 20229 30110 40115 82244 333 59032;EQDQ01  00002PRCP99
0198833980999992002022200004-15660-038920FM-12+000599999V0200501N002112200019N0010001N1+02561+02251101261ADDAA199000091GF103991021021008001041001KA1240M+03001MA1999999101211MD1999999-0251REMSYN088AAXX  22004 83398 32594 30504 10256 20225 30121 40126 82240 333 10300 29077 55103 59025;EQDQ01  00002PRCP99
0186833980999992002022212004-15660-038920FM-12+000599999V0203601N002110450019N0040001N1+02941+02291101281ADDAA199000091GF105991031021008001041011KA1240N+02131MA1999999101231MD1999999-0211REMSYN076AAXX  22124 83398 32596 53604 10294 20229 30123 40128 83241 333 20213 59021;EQDQ01  00002PRCP99
0167833980999992002022218004-15660-038920FM-12+000599999V0200501N002112200019N0040001N1+02901+02341100911ADDAA199000091GF103991021021008001041001MA1999999100861MD1999999-0241REMSYN070AAXX  22184 83398 32596 30504 10290 20234 30086 40091 82240 333 59024;EQDQ01  00002PRCP99
0198833980999992002022300004-15660-038920FM-12+000599999V0200501N002112200019N0010001N1+02561+02351101321ADDAA199000091GF102991021011008001001001KA1240M+03041MA1999999101271MD1999999+0061REMSYN088AAXX  23004 83398 32594 20504 10256 20235 30127 40132 82100 333 10304 29079 55111 58006;EQDQ01  00002PRCP99
0186833980999992002022312004-15660-038920FM-12+000599999V0203601N002110450019N0040001N1+02941+02361101401ADDAA199000091GF105991031021008001041001KA1240N+02341MA1999999101351MD1999999+0121REMSYN076AAXX  23124 83398 32596 53604 10294 20236 30135 40140 83240 333 20234 58012;EQDQ01  00002PRCP99
0167833980999992002022318004-15660-038920FM-12+000599999V0200501N003112200019N0040001N1+02971+02501101011ADDAA199000091GF102991021021008001001001MA1999999100961MD1999999+0101REMSYN070AAXX  23184 83398 32596 20506 10297 20250 30096 40101 82200 333 58010;EQDQ01  00002PRCP99
0186833980999992002022412004-15660-038920FM-12+000599999V0203601N002110450019N0040001N1+02951+02371101461ADDAA199000091GF105991031021008001041011KA1240N+02381MA1999999101411MD1999999+0061REMSYN076AAXX  24124 83398 32596 53604 10295 20237 30141 40146 83241 333 20238 58006;EQDQ01  00002PRCP99
0167833980999992002022418004-15660-038920FM-12+000599999V0200501N004110450019N0040001N1+02951+02491101411ADDAA199000091GF106991021021008001011001MA1999999101361MD1999999+0401REMSYN070AAXX  24184 83398 32596 60508 10295 20249 30136 40141 82210 333 58040;EQDQ01  00002PRCP99
0167833980999992002022518004-15660-038920FM-12+000599999V0200901N002110450019N0040001N1+02891+02191101321ADDAA199000091GF105991031021008001041041MA1999999101271MD1999999+0111REMSYN070AAXX  25184 83398 32596 50904 10289 20219 30127 40132 83244 333 58011;EQDQ01  00002PRCP99
0198833980999992002022600004-15660-038920FM-12+000599999V0209999C000010450019N0010001N1+02571+02321101691ADDAA199000091GF105991031021008001051041KA1240M+03031MA1999999101631MD1999999+0301REMSYN088AAXX  26004 83398 32594 50000 10257 20232 30163 40169 83254 333 10303 29078 55083 58030;EQDQ01  00002PRCP99
0186833980999992002022612004-15660-038920FM-12+000599999V0202301N001010450019N0040001N1+02691+02381101641ADDAA199000091GF106991031051008001041011KA1240N+02201MA1999999101581MD1999999+0061REMSYN076AAXX  26124 83398 32596 62302 10269 20238 30158 40164 83541 333 20220 58006;EQDQ01  00002PRCP99
0167833980999992002022618004-15660-038920FM-12+000599999V0200901N002112200019N0040001N1+02881+02251101491ADDAA199000091GF103991021021008001041001MA1999999101441MD1999999+0171REMSYN070AAXX  26184 83398 32596 30904 10288 20225 30144 40149 82240 333 58017;EQDQ01  00002PRCP99
0198833980999992002022700004-15660-038920FM-12+000599999V0200901N002112200019N0010001N1+02481+02071101701ADDAA199000091GF102991021021008001001001KA1240M+03001MA1999999101641MD1999999+0011REMSYN088AAXX  27004 83398 32594 20904 10248 20207 30164 40170 82200 333 10300 29077 55102 58001;EQDQ01  00002PRCP99
0186833980999992002022712004-15660-038920FM-12+000599999V0201801N002112200019N0040001N1+02801+02271101751ADDAA199000091GF104991031021008001041001KA1240N+02051MA1999999101691MD1999999+0111REMSYN076AAXX  27124 83398 32596 41804 10280 20227 30169 40175 83240 333 20205 58011;EQDQ01  00002PRCP99
0167833980999992002022718004-15660-038920FM-12+000599999V0201401N002110450019N0040001N1+02851+02231101521ADDAA199000091GF106991031021008001051001MA1999999101471MD1999999+0031REMSYN070AAXX  27184 83398 32596 61404 10285 20223 30147 40152 83250 333 58003;EQDQ01  00002PRCP99
0198833980999992002022800004-15660-038920FM-12+000599999V0209999C000010450019N0010001N1+02561+02211101681ADDAA199000091GF106991031051008001021001KA1240M+03001MA1999999101621MD1999999-0021REMSYN088AAXX  28004 83398 32594 60000 10256 20221 30162 40168 83520 333 10300 29076 55089 59002;EQDQ01  00002PRCP99
0186833980999992002022812004-15660-038920FM-12+000599999V0201801N002110450019N0040001N1+02701+02201101591ADDAA199000091GF106991031051008001041041KA1240N+02031MA1999999101541MD1999999-0151REMSYN076AAXX  28124 83398 32596 61804 10270 20220 30154 40159 83544 333 20203 59015;EQDQ01  00002PRCP99
0182833980999992002022818004-15660-038920FM-12+000599999V0200901N002110450019N0040001N1+02891+02171101481ADDAA106000391AY151061AY221061GF105991031021008001041041MA1999999101431MD1999999-0041MW1011REMSYN082AAXX  28184 83398 21596 50904 10289 20217 30143 40148 70152 83244 333 59004 69931;
0198833980999992002030100004-15660-038920FM-12+000599999V0202301N001012200019N0010001N1+02411+02241101571ADDAA199000091GF104991021021008001041041KA1240M+03041MA1999999101521MD1999999-0101REMSYN088AAXX  01004 83398 32594 42302 10241 20224 30152 40157 82244 333 10304 29080 55057 59010;EQDQ01  00002PRCP99
0201833980999992002030112004-15660-038920FM-12+000599999V0202301N002110450019N0040001N1+02681+02351101571ADDAA124000891AY151061AY221061GF106991041051004501041001KA1240N+02261MA1999999101521MD1999999-0021MW1011REMSYN088AAXX  01124 83398 21496 62304 10268 20235 30152 40157 70152 84540 333 20226 59002 69984;
0167833980999992002030118004-15660-038920FM-12+000599999V0201401N002112200019N0040001N1+02911+02311101411ADDAA199000091GF104991021021008001041041MA1999999101361MD1999999-0071REMSYN070AAXX  01184 83398 32596 41404 10291 20231 30136 40141 82244 333 59007;EQDQ01  00002PRCP99
0167833980999992002030218004-15660-038920FM-12+000599999V0202301N001012200019N0040001N1+02961+02351101371ADDAA199000091GF104991031021008001041001MA1999999101321MD1999999-0041REMSYN070AAXX  02184 83398 32596 42302 10296 20235 30132 40137 83240 333 59004;EQDQ01  00002PRCP99
0201833980999992002030412004-15660-038920FM-12+000599999V0201401N001010450019N0040001N1+02651+02471101621ADDAA124038191AY191061AY261061GF107991041051004501021001KA1240N+02181MA1999999101561MD1999999-0051MW1021REMSYN088AAXX  04124 83398 21496 71402 10265 20247 30156 40162 70296 84520 333 20218 59005 60384;
0182833980999992002030418004-15660-038920FM-12+000599999V0201401N002110450019N0040001N1+02881+02391101471ADDAA106000191AY151061AY221061GF106991041051004501041001MA1999999101421MD1999999-0021MW1011REMSYN082AAXX  04184 83398 21496 61404 10288 20239 30142 40147 70152 84540 333 59002 69911;
0201833980999992002030512004-15660-038920FM-12+000599999V0209999C000010042019N0040001N1+02421+02301101661ADDAA124007991AY191061AY261061GF108991051071004501021999KA1240N+02341MA1999999101601MD1999999+0041MW1601REMSYN088AAXX  05124 83398 21496 80000 10242 20230 30160 40166 76096 8572/ 333 20234 58004 60084;
0182833980999992002030518004-15660-038920FM-12+000599999V0209999C000010042019N0040001N1+02391+02271101651ADDAA106029091AY191061AY261061GF108991061071004501021999MA1999999101591MD1999999+0171MW1601REMSYN082AAXX  05184 83398 21496 80000 10239 20227 30159 40165 76096 8672/ 333 58017 60291;
0213833980999992002030600004-15660-038920FM-12+000599999V0209999C000012200019N0010001N1+02311+02191101571ADDAA106010991AY161061AY221061GF104991041011004501001001KA1240M+02651MA1999999101521MD1999999-0101MW1011REMSYN100AAXX  06004 83398 21494 40000 10231 20219 30152 40157 70162 84100 333 10265 29093 55000 59010 60111;
0201833980999992002030612004-15660-038920FM-12+000599999V0201801N002110450019N0040001N1+02811+02431101561ADDAA124039991AY151061AY221061GF105991031021004501041001KA1240N+02241MA1999999101511MD1999999-0091MW1021REMSYN088AAXX  06124 83398 21496 51804 10281 20243 30151 40156 70252 83240 333 20224 59009 60404;
0167833980999992002030618004-15660-038920FM-12+000599999V0200901N003112200019N0040001N1+02871+02321101511ADDAA199000091GF104991021021008001041001MA1999999101461MD1999999-0131REMSYN070AAXX  06184 83398 32596 40906 10287 20232 30146 40151 82240 333 59013;EQDQ01  00002PRCP99
0198833980999992002030700004-15660-038920FM-12+000599999V0200901N002112200019N0010001N1+02671+02371101581ADDAA199000091GF103991021021008001041001KA1240M+03041MA1999999101531MD1999999+0011REMSYN088AAXX  07004 83398 32594 30904 10267 20237 30153 40158 82240 333 10304 29078 55091 58001;EQDQ01  00002PRCP99
0201833980999992002030712004-15660-038920FM-12+000599999V0201801N001010450019N0040001N1+02641+02391101721ADDAA124000591AY151061AY221061GF106991041051004501041001KA1240N+02171MA1999999101661MD1999999+0151MW1021REMSYN088AAXX  07124 83398 21496 61802 10264 20239 30166 40172 70252 84540 333 20217 58015 69964;
0182833980999992002030718004-15660-038920FM-12+000599999V0200901N002110450019N0040001N1+02901+02391101581ADDAA106001091AY151061AY221061GF105991031021004501041011MA1999999101531MD1999999+0071MW1011REMSYN082AAXX  07184 83398 21496 50904 10290 20239 30153 40158 70152 83241 333 58007 60011;
0198833980999992002030800004-15660-038920FM-12+000599999V0209999C000012200019N0010001N1+02441+02321101701ADDAA199000091GF104991041011008001001001KA1240M+03001MA1999999101641MD1999999+0111REMSYN088AAXX  08004 83398 32594 40000 10244 20232 30164 40170 84100 333 10300 29087 55089 58011;EQDQ01  00002PRCP99
0201833980999992002030812004-15660-038920FM-12+000599999V0200901N002110450019N0040001N1+02841+02421101791ADDAA124003091AY151061AY221061GF105991031021004501041001KA1240N+02231MA1999999101731MD1999999+0071MW1011REMSYN088AAXX  08124 83398 21496 50904 10284 20242 30173 40179 70152 83240 333 20223 58007 60034;
0167833980999992002030818004-15660-038920FM-12+000599999V0200901N002112200019N0040001N1+02881+02251101521ADDAA199000091GF104991031021008001041001MA1999999101471MD1999999-0061REMSYN070AAXX  08184 83398 32596 40904 10288 20225 30147 40152 83240 333 59006;EQDQ01  00002PRCP99
0198833980999992002030900004-15660-038920FM-12+000599999V0200501N001012200019N0010001N1+02641+99999101671ADDAA199000091GF102991021011008001001001KA1240M+03031MA1999999101611MD1999999-0031REMSYN088AAXX  09004 83398 32594 20502 10264 20278 30161 40167 82100 333 10303 29077 55090 59003;EQDQ01  00002PRCP99
0186833980999992002030912004-15660-038920FM-12+000599999V0200901N002112200019N0040001N1+02781+02381101811ADDAA199000091GF104991031021008001041001KA1240N+02241MA1999999101751MD1999999+0021REMSYN076AAXX  09124 83398 32596 40904 10278 20238 30175 40181 83240 333 20224 58002;EQDQ01  00002PRCP99
0182833980999992002030918004-15660-038920FM-12+000599999V0200901N002112200019N0040001N1+02881+02321101471ADDAA106000191AY151061AY221061GF104991031021004501041001MA1999999101421MD1999999-0051MW1011REMSYN082AAXX  09184 83398 21496 40904 10288 20232 30142 40147 70152 83240 333 59005 69921;
0198833980999992002031000004-15660-038920FM-12+000599999V0200501N001012200019N0010001N1+02601+02331101721ADDAA199000091GF103991031021008001001001KA1240M+02971MA1999999101661MD1999999+0051REMSYN088AAXX  10004 83398 32594 30502 10260 20233 30166 40172 83200 333 10297 29080 55075 58005;EQDQ01  00002PRCP99
0201833980999992002031012004-15660-038920FM-12+000599999V0201401N002110450019N0040001N1+02801+02361101771ADDAA124024991AY161061AY221061GF106991031051008001041001KA1240N+02271MA1999999101711MD1999999-0041MW1021REMSYN088AAXX  10124 83398 21596 61404 10280 20236 30171 40177 70262 83540 333 20227 59004 60254;
0213833980999992002031100004-15660-038920FM-12+000599999V0200901N002110450019N0010001N1+02541+02251101711ADDAA106003091AY161061AY221061GF106991041051008001021001KA1240M+02981MA1999999101651MD1999999-0011MW1021REMSYN100AAXX  11004 83398 21594 60904 10254 20225 30165 40171 70262 84520 333 10298 29079 55106 59001 60031;
0182833980999992002031118004-15660-038920FM-12+000599999V0200901N002111050019N0040001N1+02841+02381101611ADDAA106007991AY161061AY221061GF105991021021004501041011MA1999999101551MD1999999+0171MW1011REMSYN082AAXX  11184 83398 21496 50904 10284 20238 30155 40161 70162 82241 333 58017 60081;
0201833980999992002031212004-15660-038920FM-12+000599999V0201401N002110042019N0006001N1+02551+02361101891ADDAA124018091AY161061AY221061GF108991051051004501021999KA1240N+02301MA1999999101831MD1999999+0111MW1601REMSYN088AAXX  12124 83398 21406 81404 10255 20236 30183 40189 76062 8552/ 333 20230 58011 60184;
0148833980999992002031218004-15660-038920FM-12+000599999V0200901N002110450019N0040001N1+02911+02451101621ADDAA199000021GF106991041051008001041001MA1999999101561MD1999999+0011REMSYN070AAXX  12184 83398 32596 60904 10291 20245 30156 40162 84540 333 58001;
0201833980999992002031312004-15660-038920FM-12+000599999V0202701N001010075019N0040001N1+02681+02461101821ADDAA124007991AY161061AY221061GF107991051051008001021001KA1240N+02241MA1999999101761MD1999999-0071MW1021REMSYN088AAXX  13124 83398 21596 72702 10268 20246 30176 40182 70262 85520 333 20224 59007 60084;
0167833980999992002031318004-15660-038920FM-12+000599999V0200901N003110450019N0040001N1+02901+02341101521ADDAA199000091GF106991041051008001041001MA1999999101471MD1999999-0091REMSYN070AAXX  13184 83398 32596 60906 10290 20234 30147 40152 84540 333 59009;EQDQ01  00002PRCP99
0213833980999992002031400004-15660-038920FM-12+000599999V0200901N002110450019N0010001N1+02641+02371101671ADDAA106003091AY161061AY221061GF106991041051008001021001KA1240M+02981MA1999999101611MD1999999-0091MW1021REMSYN100AAXX  14004 83398 21594 60904 10264 20237 30161 40167 70262 84520 333 10298 29073 55083 59009 60031;
0173833980999992002031412004-15660-038920FM-12+000599999V0202701N001010450019N0040001N1+02781+02361101621ADDAA124003091GF106991041051008001021001KA1240N+02141MA1999999101561MD1999999-0201REMSYN082AAXX  14124 83398 22596 62702 10278 20236 30156 40162 84520 333 20214 59020 60034;
0167833980999992002031418004-15660-038920FM-12+000599999V0200901N003110450019N0040001N1+02901+02341101521ADDAA199000091GF106991041051008001041001MA1999999101471MD1999999-0091REMSYN070AAXX  14184 83398 32596 60906 10290 20234 30147 40152 84540 333 59009;EQDQ01  00002PRCP99
0198833980999992002031500004-15660-038920FM-12+000599999V0200501N002112200019N0010001N1+02681+02181101401ADDAA199000091GF103991031011008001001001KA1240M+03041MA1999999101351MD1999999-0261REMSYN088AAXX  15004 83398 32594 30504 10268 20218 30135 40140 83100 333 10304 29073 55104 59026;EQDQ01  00002PRCP99
0186833980999992002031512004-15660-038920FM-12+000599999V0203601N001010450019N0040001N1+02831+02341101371ADDAA199000091GF105991031021008001041011KA1240N+02281MA1999999101321MD1999999-0241REMSYN076AAXX  15124 83398 32596 53602 10283 20234 30132 40137 83241 333 20228 59024;EQDQ01  00002PRCP99
0167833980999992002031518004-15660-038920FM-12+000599999V0200501N003110450019N0040001N1+02941+02311101161ADDAA199000091GF106991031021008001041011MA1999999101111MD1999999-0191REMSYN070AAXX  15184 83398 32596 60506 10294 20231 30111 40116 83241 333 59019;EQDQ01  00002PRCP99
0198833980999992002031600004-15660-038920FM-12+000599999V0200501N003112200019N0010001N1+02701+02261101271ADDAA199000091GF104991031011008001041001KA1240M+03021MA1999999101221MD1999999-0131REMSYN088AAXX  16004 83398 32594 40506 10270 20226 30122 40127 83140 333 10302 29075 55105 59013;EQDQ01  00002PRCP99
0186833980999992002031612004-15660-038920FM-12+000599999V0203601N002110450019N0040001N1+02871+02291101471ADDAA199000091GF105991031021008001041041KA1240N+02301MA1999999101421MD1999999+0101REMSYN076AAXX  16124 83398 32596 53604 10287 20229 30142 40147 83244 333 20230 58010;EQDQ01  00002PRCP99
0167833980999992002031618004-15660-038920FM-12+000599999V0200501N003110450019N0040001N1+02921+02221101201ADDAA199000091GF105991031021008001041001MA1999999101151MD1999999+0041REMSYN070AAXX  16184 83398 32596 50506 10292 20222 30115 40120 83240 333 58004;EQDQ01  00002PRCP99
0198833980999992002031700004-15660-038920FM-12+000599999V0200901N002112200019N0010001N1+02681+02201101371ADDAA199000091GF102991021011008001001001KA1240M+02991MA1999999101321MD1999999+0101REMSYN088AAXX  17004 83398 32594 20904 10268 20220 30132 40137 82100 333 10299 29072 55097 58010;EQDQ01  00002PRCP99
0186833980999992002031712004-15660-038920FM-12+000599999V0200501N001010450019N0040001N1+02801+02361101471ADDAA199000091GF106991041051008001041001KA1240N+02241MA1999999101421MD1999999+0001REMSYN076AAXX  17124 83398 32596 60502 10280 20236 30142 40147 84540 333 20224 58000;EQDQ01  00002PRCP99
0167833980999992002031718004-15660-038920FM-12+000599999V0200501N002110450019N0040001N1+02871+02341101231ADDAA199000091GF105991031021008001041001MA1999999101181MD1999999+0031REMSYN070AAXX  17184 83398 32596 50504 10287 20234 30118 40123 83240 333 58003;EQDQ01  00002PRCP99
0198833980999992002031800004-15660-038920FM-12+000599999V0200901N001010450019N0010001N1+02541+02201101381ADDAA199000091GF106991041051008001021001KA1240M+02991MA1999999101331MD1999999+0011REMSYN088AAXX  18004 83398 32594 60902 10254 20220 30133 40138 84520 333 10299 29082 55078 58001;EQDQ01  00002PRCP99
0186833980999992002031812004-15660-038920FM-12+000599999V0200501N001010450019N0040001N1+02821+02401101511ADDAA199000091GF105991031021008001041041KA1240N+02161MA1999999101461MD1999999+0041REMSYN076AAXX  18124 83398 32596 50502 10282 20240 30146 40151 83244 333 20216 58004;EQDQ01  00002PRCP99
0167833980999992002031818004-15660-038920FM-12+000599999V0200901N002110450019N0040001N1+02881+02351101151ADDAA199000091GF105991031021008001041041MA1999999101101MD1999999-0081REMSYN070AAXX  18184 83398 32596 50904 10288 20235 30110 40115 83244 333 59008;EQDQ01  00002PRCP99
0198833980999992002031900004-15660-038920FM-12+000599999V0200501N002112200019N0010001N1+02701+02371101381ADDAA199000091GF103991021021008001041001KA1240M+03301MA1999999101331MD1999999+0001REMSYN088AAXX  19004 83398 32594 30504 10270 20237 30133 40138 82240 333 10330 29079 55095 58000;EQDQ01  00002PRCP99
0201833980999992002031912004-15660-038920FM-12+000599999V0209999C000010450019N0040001N1+02581+02371101501ADDAA124001091AY151061AY221061GF107991041051004501021001KA1240N+02291MA1999999101451MD1999999-0011MW1501REMSYN088AAXX  19124 83398 21496 70000 10258 20237 30145 40150 75052 84520 333 20229 59001 60014;
0182833980999992002031918004-15660-038920FM-12+000599999V0200901N002110450019N0040001N1+02921+02451101111ADDAA106001091AY151061AY221061GF106991041051008001021001MA1999999101061MD1999999-0041MW1021REMSYN082AAXX  19184 83398 21596 60904 10292 20245 30106 40111 70252 84520 333 59004 60011;
0179833980999992002032000004-15660-038920FM-12+000599999V0200501N001010450019N0010001N1+02661+02391101311ADDAA199000021GF105991031051008001021001KA1240M+03041MA1999999101261MD1999999-0071REMSYN088AAXX  20004 83398 32594 50502 10266 20239 30126 40131 83520 333 10304 29084 55052 59007;
0201833980999992002032012004-15660-038920FM-12+000599999V0200501N002110450019N0040001N1+02821+02401101441ADDAA124010991AY161061AY221061GF105991031021004501051001KA1240N+02311MA1999999101391MD1999999-0061MW1011REMSYN088AAXX  20124 83398 21496 50504 10282 20240 30139 40144 70162 83250 333 20231 59006 60114;
0167833980999992002032018004-15660-038920FM-12+000599999V0200501N002110450019N0040001N1+02881+02371101121ADDAA199000091GF105991031021008001051001MA1999999101071MD1999999+0011REMSYN070AAXX  20184 83398 32596 50504 10288 20237 30107 40112 83250 333 58001;EQDQ01  00002PRCP99
0198833980999992002032100004-15660-038920FM-12+000599999V0209999C000012200019N0010001N1+02621+02251101261ADDAA199000091GF104991021021008001051001KA1240M+03051MA1999999101211MD1999999-0051REMSYN088AAXX  21004 83398 32594 40000 10262 20225 30121 40126 82250 333 10305 29078 55106 59005;EQDQ01  00002PRCP99
0186833980999992002032112004-15660-038920FM-12+000599999V0203201N002110450019N0040001N1+02831+02411101321ADDAA199000091GF105991031051008001041001KA1240N+02181MA1999999101271MD1999999-0121REMSYN076AAXX  21124 83398 32596 53204 10283 20241 30127 40132 83540 333 20218 59012;EQDQ01  00002PRCP99
0167833980999992002032118004-15660-038920FM-12+000599999V0200501N003110450019N0040001N1+02921+02411101001ADDAA199000091GF105991031021008001041001MA1999999100951MD1999999-0121REMSYN070AAXX  21184 83398 32596 50506 10292 20241 30095 40100 83240 333 59012;EQDQ01  00002PRCP99
0198833980999992002032200004-15660-038920FM-12+000599999V0200501N001012200019N0010001N1+02641+02331101171ADDAA199000091GF102991021021008001001001KA1240M+03051MA1999999101121MD1999999-0091REMSYN088AAXX  22004 83398 32594 20502 10264 20233 30112 40117 82200 333 10305 29080 55099 59009;EQDQ01  00002PRCP99
0186833980999992002032212004-15660-038920FM-12+000599999V0209999C000010450019N0040001N1+02801+02401101501ADDAA199000091GF106991031051008001041011KA1240N+02301MA1999999101451MD1999999+0181REMSYN076AAXX  22124 83398 32596 60000 10280 20240 30145 40150 83541 333 20230 58018;EQDQ01  00002PRCP99
0167833980999992002032218004-15660-038920FM-12+000599999V0200901N002110450019N0040001N1+02921+02411101181ADDAA199000091GF106991041051008001021001MA1999999101331MD1999999+0181REMSYN070AAXX  22184 83398 32596 60904 10292 20241 30133 40118 84520 333 58018;EQDQ01  00002PRCP99
0198833980999992002032300004-15660-038920FM-12+000599999V0202301N001012200019N0010001N1+02491+02341101351ADDAA199000091GF104991041021008001001001KA1240M+03051MA1999999101301MD1999999+0181REMSYN088AAXX  23004 83398 32594 42302 10249 20234 30130 40135 84200 333 10305 29084 55088 58018;EQDQ01  00002PRCP99
0186833980999992002032312004-15660-038920FM-12+000599999V0202301N001010450019N0040001N1+02701+02431101621ADDAA199000091GF106991041051008001021001KA1240N+02221MA1999999101561MD1999999+0111REMSYN076AAXX  23124 83398 32596 62302 10270 20243 30156 40162 84520 333 20222 58011;EQDQ01  00002PRCP99
0167833980999992002032318004-15660-038920FM-12+000599999V0200901N003110450019N0040001N1+02921+02341101271ADDAA199000091GF106991031021008001041011MA1999999101221MD1999999+0091REMSYN070AAXX  23184 83398 32596 60906 10292 20234 30122 40127 83241 333 58009;EQDQ01  00002PRCP99
0198833980999992002032400004-15660-038920FM-12+000599999V0201401N002112200019N0040001N1+02661+02441101441ADDAA199000091GF104991041021008001001001KA1240M+03021MA1999999101391MD1999999+0091REMSYN088AAXX  24004 83398 32596 41404 10266 20244 30139 40144 84200 333 10302 29083 55083 58009;EQDQ01  00002PRCP99
0167833980999992002032412004-15660-038920FM-12+000599999V0202301N001019999999N0040001N1+02701+02411101551ADDGF106991999999008001999999KA1240N+02251MA1999999101501MD1999999-0061REMSYN087AAXX  24124 83398 21596 62302 10270 20241 30150 40155 0296 84540 333 20225 59006 60174;
0167833980999992002032418004-15660-038920FM-12+000599999V0200901N002110450019N0040001N1+02901+02391101241ADDAA199000091GF105991031021008001041041MA1999999101191MD1999999-0031REMSYN070AAXX  24184 83398 32596 50904 10290 20239 30119 40124 83244 333 59003;EQDQ01  00002PRCP99
0167833980999992002032518004-15660-038920FM-12+000599999V0200501N003110450019N0040001N1+02861+02391101191ADDAA199000091GF106991031051008001041011MA1999999101141MD1999999-0051REMSYN070AAXX  25184 83398 32596 60506 10286 20239 30114 40119 83541 333 59005;EQDQ01  00002PRCP99
0186833980999992002032612004-15660-038920FM-12+000599999V0200501N002112200019N0040001N1+02941+02331101431ADDAA199000091GF104991031021008001041001KA1240N+02291MA1999999101381MD1999999-0051REMSYN076AAXX  26124 83398 32596 40504 10294 20233 30138 40143 83240 333 20229 59005;EQDQ01  00002PRCP99
0167833980999992002032618004-15660-038920FM-12+000599999V0200501N003110450019N0040001N1+02901+02391101151ADDAA199000091GF105991031021008001041011MA1999999101101MD1999999-0041REMSYN070AAXX  26184 83398 32596 50506 10290 20239 30110 40115 83241 333 59004;EQDQ01  00002PRCP99
0198833980999992002032700004-15660-038920FM-12+000599999V0200501N000510450019N0010001N1+02731+02271101391ADDAA199000091GF105991031021008001041001KA1240M+03001MA1999999101341MD1999999+0031REMSYN088AAXX  27004 83398 32594 50501 10273 20227 30134 40139 83240 333 10300 29075 55104 58003;EQDQ01  00002PRCP99
0201833980999992002032712004-15660-038920FM-12+000599999V0200501N002110450019N0040001N1+02701+02281101701ADDAA124000191AY151061AY221061GF107991041051004501021001KA1240N+02301MA1999999101641MD1999999+0261MW1021REMSYN088AAXX  27124 83398 21496 70504 10270 20228 30164 40170 70252 84520 333 20230 58026 69924;
0167833980999992002032718004-15660-038920FM-12+000599999V0200501N002112200019N0040001N1+02901+02221101441ADDAA199000091GF104991031011008001041001MA1999999101391MD1999999+0291REMSYN070AAXX  27184 83398 32596 40504 10290 20222 30139 40144 83140 333 58029;EQDQ01  00002PRCP99
0201833980999992002032812004-15660-038920FM-12+000599999V0202701N001010450019N0040001N1+02601+02351101831ADDAA124002091AY191061AY261061GF106991041051008001021001KA1240N+02301MA1999999101771MD1999999+0131MW1021REMSYN088AAXX  28124 83398 21596 62702 10260 20235 30177 40183 70296 84520 333 20230 58013 60024;
0167833980999992002032818004-15660-038920FM-12+000599999V0200901N003110450019N0040001N1+02921+02411101491ADDAA199000091GF106991031051008001041011MA1999999101441MD1999999+0051REMSYN070AAXX  28184 83398 32596 60906 10292 20241 30144 40149 83541 333 58005;EQDQ01  00002PRCP99
0198833980999992002032900004-15660-038920FM-12+000599999V0201801N002110075019N0010001N1+02541+02351101611ADDAA199000091GF107991051051008001021001KA1240M+03021MA1999999101551MD1999999+0401REMSYN088AAXX  29004 83398 32594 71804 10254 20235 30155 40161 85520 333 10302 29085 55087 58040;EQDQ01  00002PRCP99
0201833980999992002032912004-15660-038920FM-12+000599999V0201801N002110450019N0040001N1+02701+02451101691ADDAA124007991AY161061AY221061GF106991041051008001021001KA1240N+02311MA1999999101631MD1999999-0141MW1021REMSYN088AAXX  29124 83398 21596 61804 10270 20245 30163 40169 70262 84520 333 20231 59014 60084;
0182833980999992002032918004-15660-038920FM-12+000599999V0201401N003110450019N0040001N1+02901+02391101401ADDAA106000191AY151061AY221061GF106991041051008001041001MA1999999101351MD1999999-0091MW1021REMSYN082AAXX  29184 83398 21596 61406 10290 20239 30135 40140 70252 84540 333 59009 69911;
0198833980999992002033000004-15660-038920FM-12+000599999V0200901N002110450019N0040001N1+02721+02371101611ADDAA199000091GF106991041051008001041001KA1240M+03011MA1999999101551MD1999999+0001REMSYN088AAXX  30004 83398 32596 60904 10272 20237 30155 40161 84540 333 10301 29081 55080 58000;EQDQ01  00002PRCP99
0201833980999992002033012004-15660-038920FM-12+000599999V0201401N003110075019N0040001N1+02901+02301101671ADDAA124000591AY151061AY221061GF105991051051008001001001KA1240N+02301MA1999999101611MD1999999-0021MW1021REMSYN088AAXX  30124 83398 21596 51406 10290 20230 30161 40167 70252 85500 333 20230 59002 69964;
0167833980999992002033018004-15660-038920FM-12+000599999V0200901N003112200019N0040001N1+02941+02361101401ADDAA199000091GF104991041021008001001001MA1999999101351MD1999999+0001REMSYN070AAXX  30184 83398 32596 40906 10294 20236 30135 40140 84200 333 58000;EQDQ01  00002PRCP99
0213833980999992002033100004-15660-038920FM-12+000599999V0201801N002110075019N0010001N1+02461+02321101641ADDAA106015091AY161061AY221061GF107991051051008001021001KA1240M+03031MA1999999101581MD1999999+0031MW1601REMSYN100AAXX  31004 83398 21594 71804 10246 20232 30158 40164 76062 85520 333 10303 29081 55087 58003 60151;
0201833980999992002033112004-15660-038920FM-12+000599999V0201801N001010075019N0040001N1+02681+02331101721ADDAA124031091AY161061AY221061GF107991051051008001021001KA1240N+02311MA1999999101661MD1999999+0051MW1021REMSYN088AAXX  31124 83398 21596 71802 10268 20233 30166 40172 70262 85520 333 20231 58005 60314;
0167833980999992002033118004-15660-038920FM-12+000599999V0200901N002112200019N0040001N1+02881+02251101431ADDAA199000091GF104991031021008001041001MA1999999101381MD1999999+0031REMSYN070AAXX  31184 83398 32596 40904 10288 20225 30138 40143 83240 333 58003;EQDQ01  00002PRCP99
0198833980999992002040100004-15660-038920FM-12+000599999V0209999C000012200019N0010001N1+02511+02371101591ADDAA199000091GF104991031021008001041001KA1240M+02971MA1999999101541MD1999999-0041REMSYN088AAXX  01004 83398 32594 40000 10251 20237 30154 40159 83240 333 10297 29074 55064 59004;EQDQ01  00002PRCP99
0201833980999992002040112004-15660-038920FM-12+000599999V0200901N001010450019N0040001N1+02801+02401101681ADDAA124003091AY151061AY221061GF105991031021008001041001KA1240N+02281MA1999999101621MD1999999-0041MW1011REMSYN088AAXX  01124 83398 21596 50902 10280 20240 30162 40168 70152 83240 333 20228 59004 60034;
0182833980999992002040118004-15660-038920FM-12+000599999V0200901N002110450019N0040001N1+02801+02401101371ADDAA106000191AY151061AY221061GF105991031051004501041001MA1999999101521MD1999999-0061MW1011REMSYN082AAXX  01184 83398 21496 50904 10280 20240 30152 40137 70152 83540 333 59006 69911;
0213833980999992002040200004-15660-038920FM-12+000599999V0202301N001010042019N0010001N1+02511+02351101611ADDAA106000191AY151061AY221061GF108991051051004501021999KA1240M+03021MA1999999101551MD1999999+0011MW1021REMSYN100AAXX  02004 83398 21494 82302 10251 20235 30155 40161 70252 8552/ 333 10302 29086 55095 58001 69911;
0201833980999992002040212004-15660-038920FM-12+000599999V0202701N001010450019N0040001N1+02791+02411101631ADDAA124003091AY151061AY221061GF105991031021004501041001KA1240N+02291MA1999999101571MD1999999-0051MW1011REMSYN088AAXX  02124 83398 21496 52702 10279 20241 30157 40163 70152 83240 333 20229 59005 60034;
0167833980999992002040218004-15660-038920FM-12+000599999V0200901N002110450019N0040001N1+02831+02251101401ADDAA199000091GF106991031051008001021001MA1999999101351MD1999999+0031REMSYN070AAXX  02184 83398 32596 60904 10283 20225 30135 40140 83520 333 58003;EQDQ01  00002PRCP99
0214833980999992002040300004-15660-038920FM-12+000599999V0200501N001019999999N0010001N1+02501+02361101631ADDAA199000091GF106991999051008001001001KA1240M+03021MA1999999101571MD1999999+0021REMSYN088AAXX  03004 83398 32594 60502 10250 20236 30157 40163 84500 333 10302 29084 55063 58002;EQDQ01+000042SCOTLCQ02  00002PRCP99
0201833980999992002040312004-15660-038920FM-12+000599999V0202701N001010450019N0040001N1+02601+02391101781ADDAA124002091AY151061AY221061GF106991031051004501071001KA1240N+02321MA1999999101721MD1999999+0151MW1011REMSYN088AAXX  03124 83398 21496 62702 10260 20239 30172 40178 70152 83570 333 20232 58015 60024;
0167833980999992002040318004-15660-038920FM-12+000599999V0200901N003110450019N0040001N1+02901+02201101471ADDAA199000091GF106991031021008001041001MA1999999101421MD1999999+0071REMSYN070AAXX  03184 83398 32596 60906 10290 20220 30142 40147 83240 333 58007;EQDQ01  00002PRCP99
0198833980999992002040400004-15660-038920FM-12+000599999V0209999C000012200019N0010001N1+02621+02211101651ADDAA199000091GF102991021021008001001001KA1240M+02961MA1999999101591MD1999999+0021REMSYN088AAXX  04004 83398 32594 20000 10262 20221 30159 40165 82200 333 10296 29078 55076 58002;EQDQ01  00002PRCP99
0186833980999992002040412004-15660-038920FM-12+000599999V0201801N001010450019N0040001N1+02761+02421101391ADDAA199000091GF105991041021008001041001KA1240N+02101MA1999999101631MD1999999-0091REMSYN076AAXX  04124 83398 32596 51802 10276 20242 30163 40139 84240 333 20210 59009;EQDQ01  00002PRCP99
0167833980999992002040418004-15660-038920FM-12+000599999V0200901N002111050019N0040001N1+02801+02181101481ADDAA199000091GF105991021021008001041041MA1999999101431MD1999999+0011REMSYN070AAXX  04184 83398 32596 50904 10280 20218 30143 40148 82244 333 58001;EQDQ01  00002PRCP99
0198833980999992002040500004-15660-038920FM-12+000599999V0209999C000012200019N0010001N1+02371+02251101561ADDAA199000091GF104991031021008001041001KA1240M+03001MA1999999101511MD1999999-0081REMSYN088AAXX  05004 83398 32594 40000 10237 20225 30151 40156 83240 333 10300 29084 55080 59008;EQDQ01  00002PRCP99
0201833980999992002040512004-15660-038920FM-12+000599999V0202301N001010042019N0040001N1+02581+02371101631ADDAA124002091AY151061AY221061GF107991051051004501021001KA1240N+02161MA1999999101571MD1999999-0061MW1021REMSYN088AAXX  05124 83398 21496 72302 10258 20237 30157 40163 70252 85520 333 20216 59006 60024;
0182833980999992002040518004-15660-038920FM-12+000599999V0200901N002110075019N0040001N1+02881+02301101261ADDAA106003091AY161061AY221061GF106991051051008001041001MA1999999101211MD1999999-0221MW1021REMSYN082AAXX  05184 83398 21596 60904 10288 20230 30121 40126 70262 85540 333 59022 60031;
0214833980999992002040600004-15660-038920FM-12+000599999V0201801N002119999999N0010001N1+02461+02321101411ADDAA199000091GF106991999051008001001001KA1240M+02971MA1999999101361MD1999999-0151REMSYN088AAXX  06004 83398 32594 61804 10246 20232 30136 40141 84500 333 10297 29086 55052 59015;EQDQ01+000042SCOTLCQ02  00002PRCP99
0173833980999992002040612004-15660-038920FM-12+000599999V0201401N002110450019N0040001N1+02781+02461101381ADDAA124003091GF106991041051008001021001KA1240N+02131MA1999999101331MD1999999-0241REMSYN082AAXX  06124 83398 22596 61404 10278 20246 30133 40138 84520 333 20213 59024 60034;
0167833980999992002040618004-15660-038920FM-12+000599999V0200901N002110450019N0040001N1+02781+02401101121ADDAA199000091GF106991041051008001021001MA1999999101071MD1999999-0141REMSYN070AAXX  06184 83398 32596 60904 10278 20240 30107 40112 84520 333 59014;EQDQ01  00002PRCP99
0198833980999992002040700004-15660-038920FM-12+000599999V0201801N001010075019N0010001N1+02541+02331101301ADDAA199000091GF106991051051008001021001KA1240M+03031MA1999999101251MD1999999-0111REMSYN088AAXX  07004 83398 32594 61802 10254 20233 30125 40130 85520 333 10303 29085 55085 59011;EQDQ01  00002PRCP99
0201833980999992002040712004-15660-038920FM-12+000599999V0202301N001010450019N0040001N1+02681+02351101431ADDAA124030091AY161061AY221061GF106991041051008001041001KA1240N+02281MA1999999101381MD1999999+0051MW1021REMSYN088AAXX  07124 83398 21596 62302 10268 20235 30138 40143 70262 84540 333 20228 58005 60304;
0167833980999992002040718004-15660-038920FM-12+000599999V0201401N001010450019N0040001N1+02801+02311101181ADDAA199000091GF106991041051008001021001MA1999999101131MD1999999+0061REMSYN070AAXX  07184 83398 32596 61402 10280 20231 30113 40118 84520 333 58006;EQDQ01  00002PRCP99
0198833980999992002040800004-15660-038920FM-12+000599999V0209999C000012200019N0010001N1+02481+02341101321ADDAA199000091GF104991041011008001001001KA1240M+02981MA1999999101271MD1999999+0021REMSYN088AAXX  08004 83398 32594 40000 10248 20234 30127 40132 84100 333 10298 29085 55048 58002;EQDQ01  00002PRCP99
0201833980999992002040812004-15660-038920FM-12+000599999V0203601N001010450019N0040001N1+02711+02361101531ADDAA124002091AY151061AY221061GF106991041051008001041001KA1240N+02281MA1999999101481MD1999999+0101MW1021REMSYN088AAXX  08124 83398 21596 63602 10271 20236 30148 40153 70252 84540 333 20228 58010 60024;
0167833980999992002040818004-15660-038920FM-12+000599999V0200901N002110450019N0040001N1+02891+02331101071ADDAA199000091GF105991031021008001041001MA1999999101021MD1999999-0111REMSYN070AAXX  08184 83398 32596 50904 10289 20233 30102 40107 83240 333 59011;EQDQ01  00002PRCP99
0198833980999992002040900004-15660-038920FM-12+000599999V0201801N001012200019N0010001N1+02521+02361101221ADDAA199000091GF104991041011008001001001KA1240M+03001MA1999999101171MD1999999-0111REMSYN088AAXX  09004 83398 32594 41802 10252 20236 30117 40122 84100 333 10300 29084 55084 59011;EQDQ01  00002PRCP99
0186833980999992002040912004-15660-038920FM-12+000599999V0201801N001012200019N0040001N1+02801+02311101371ADDAA199000091GF104991031021008001041001KA1240N+02161MA1999999101321MD1999999-0161REMSYN076AAXX  09124 83398 32596 41802 10280 20231 30132 40137 83240 333 20216 59016;EQDQ01  00002PRCP99
0167833980999992002040918004-15660-038920FM-12+000599999V0200901N002112200019N0040001N1+02891+02401101061ADDAA199000091GF104991021021008001041041MA1999999101011MD1999999-0011REMSYN070AAXX  09184 83398 32596 40904 10289 20240 30101 40106 82244 333 59001;EQDQ01  00002PRCP99
0198833980999992002041000004-15660-038920FM-12+000599999V0200501N001012200019N0010001N1+02651+02351101221ADDAA199000091GF103991031011008001001001KA1240M+02991MA1999999101171MD1999999+0001REMSYN088AAXX  10004 83398 32594 30502 10265 20235 30117 40122 83100 333 10299 29079 55092 58000;EQDQ01  00002PRCP99
0201833980999992002041012004-15660-038920FM-12+000599999V0201801N002110075019N0020001N1+02461+02321101411ADDAA124016091AY161061AY221061GF108991051071008001021999KA1240N+02261MA1999999101361MD1999999+0041MW1611REMSYN088AAXX  10124 83398 21595 81804 10246 20232 30136 40141 76162 8572/ 333 20226 58004 60164;
0182833980999992002041018004-15660-038920FM-12+000599999V0200901N001510075019N0040001N1+02761+02461101101ADDAA106000191AY151061AY221061GF106991051051008001021001MA1999999101051MD1999999+0041MW1021REMSYN082AAXX  10184 83398 21596 60903 10276 20246 30105 40110 70252 85520 333 58004 69921;
0179833980999992002041100004-15660-038920FM-12+000599999V0209999C000012200019N0010001N1+02461+02301101331ADDAA199000021GF103991031011008001001001KA1240M+02971MA1999999101281MD1999999+0111REMSYN088AAXX  11004 83398 32594 30000 10246 20230 30128 40133 83100 333 10297 29090 55032 58011;
0173833980999992002041112004-15660-038920FM-12+000599999V0201801N002112200019N0040001N1+02761+02381101461ADDAA124000191GF104991021021008001041001KA1240N+02221MA1999999101411MD1999999+0051REMSYN082AAXX  11124 83398 22596 41804 10276 20238 30141 40146 82240 333 20222 58005 69924;
0182833980999992002041118004-15660-038920FM-12+000599999V0201401N001010450019N0040001N1+02761+02321101101ADDAA106015091AY161061AY221061GF106991041051008001021001MA1999999101051MD1999999+0001MW1021REMSYN082AAXX  11184 83398 21596 61402 10276 20232 30105 40110 70262 84520 333 58000 60151;
0198833980999992002041200004-15660-038920FM-12+000599999V0201801N001012200019N0010001N1+02481+02321101361ADDAA199000091GF104991041011008001001001KA1240M+02951MA1999999101311MD1999999+0031REMSYN088AAXX  12004 83398 32594 41802 10248 20232 30131 40136 84100 333 10295 29085 55065 58003;EQDQ01  00002PRCP99
0201833980999992002041212004-15660-038920FM-12+000599999V0201801N002110450019N0040001N1+02741+02381101521ADDAA124015091AY151061AY221061GF105991031021004501041001KA1240N+02211MA1999999101471MD1999999+0061MW1011REMSYN088AAXX  12124 83398 21496 51804 10274 20238 30147 40152 70152 83240 333 20221 58006 60154;
0182833980999992002041218004-15660-038920FM-12+000599999V0200901N003110450019N0040001N1+02881+02461101111ADDAA106000191AY151061AY221061GF106991041051008001041001MA1999999101061MD1999999+0011MW1021REMSYN082AAXX  12184 83398 21596 60906 10288 20246 30106 40111 70252 84540 333 58001 69911;
0198833980999992002041300004-15660-038920FM-12+000599999V0200501N001012200019N0010001N1+02541+02381101361ADDAA199000091GF103991031011008001001001KA1240M+02981MA1999999101311MD1999999+0001REMSYN088AAXX  13004 83398 32594 30502 10254 20238 30131 40136 83100 333 10298 29085 55055 58000;EQDQ01  00002PRCP99
0173833980999992002041312004-15660-038920FM-12+000599999V0202701N001010450019N0040001N1+02701+02371101491ADDAA124000191GF105991021011008001041001KA1240N+02141MA1999999101441MD1999999-0031REMSYN082AAXX  13124 83398 22596 52702 10270 20237 30144 40149 82140 333 20214 59003 69914;
0167833980999992002041318004-15660-038920FM-12+000599999V0200901N003110450019N0040001N1+02941+02451101261ADDAA199000091GF106991031021008001041011MA1999999101211MD1999999+0151REMSYN070AAXX  13184 83398 32596 60906 10294 20245 30121 40126 83241 333 58015;EQDQ01  00002PRCP99
0198833980999992002041400004-15660-038920FM-12+000599999V0201401N001010450019N0010001N1+02641+02441101461ADDAA199000091GF105991031021008001041001KA1240M+03021MA1999999101411MD1999999+0101REMSYN088AAXX  14004 83398 32594 51402 10264 20244 30141 40146 83240 333 10302 29084 55089 58010;EQDQ01  00002PRCP99
0186833980999992002041412004-15660-038920FM-12+000599999V0201801N002110450019N0040001N1+02761+02401101681ADDAA199000091GF105991031021008001041001KA1240N+02151MA1999999101621MD1999999+0181REMSYN076AAXX  14124 83398 32596 51804 10276 20240 30162 40168 83240 333 20215 58018;EQDQ01  00002PRCP99
0167833980999992002041418004-15660-038920FM-12+000599999V0200901N002112200019N0040001N1+02911+02311101371ADDAA199000091GF103991021021008001041001MA1999999101381MD1999999+0111REMSYN070AAXX  14184 83398 32596 30904 10291 20231 30138 40137 82240 333 58011;EQDQ01  00002PRCP99
0198833980999992002041500004-15660-038920FM-12+000599999V0201801N002112200019N0010001N1+02441+02271101521ADDAA199000091GF103991031021008001001001KA1240M+03031MA1999999101471MD1999999-0061REMSYN088AAXX  15004 83398 32594 31804 10244 20227 30147 40152 83200 333 10303 29083 55086 59006;EQDQ01  00002PRCP99
0186833980999992002041512004-15660-038920FM-12+000599999V0202301N002112200019N0040001N1+02711+02271101631ADDAA199000091GF103991021021008001041001KA1240N+02161MA1999999101571MD1999999-0051REMSYN076AAXX  15124 83398 32596 32304 10271 20227 30157 40163 82240 333 20216 59005;EQDQ01  00002PRCP99
0186833980999992002041612004-15660-038920FM-12+000599999V0201801N002110450019N0200001N1+02611+02341101611ADDAA199000091GF107991041051008001021001KA1240N+02241MA1999999101551MD1999999-0021REMSYN076AAXX  16124 83398 32598 71804 10261 20234 30155 40161 84520 333 20224 59002;EQDQ01  00002PRCP99
0167833980999992002041618004-15660-038920FM-12+000599999V0201401N002110450019N0040001N1+02891+02221101381ADDAA199000091GF105991021021008001041001MA1999999101331MD1999999+0071REMSYN070AAXX  16184 83398 32596 51404 10289 20222 30133 40138 82240 333 58007;EQDQ01  00002PRCP99
0198833980999992002041700004-15660-038920FM-12+000599999V0201801N002112200019N0010001N1+02461+02301101561ADDAA199000091GF103991031011008001001001KA1240M+03021MA1999999101511MD1999999+0081REMSYN088AAXX  17004 83398 32594 31804 10246 20230 30151 40156 83100 333 10302 29084 55051 58008;EQDQ01  00002PRCP99
0198833980999992002041800004-15660-038920FM-12+000599999V0209999C000010450019N0010001N1+02411+02251101541ADDAA199000091GF105991031021008001041001KA1240M+02951MA1999999101491MD1999999-0021REMSYN088AAXX  18004 83398 32594 50000 10241 20225 30149 40154 83240 333 10295 29085 55046 59002;EQDQ01  00002PRCP99
0201833980999992002041812004-15660-038920FM-12+000599999V0202301N002110450019N0040001N1+02501+02341101711ADDAA124002091AY151061AY221061GF106991041051004501041001KA1240N+02271MA1999999101651MD1999999-0111MW1501REMSYN088AAXX  18124 83398 21496 62304 10250 20234 30165 40171 75052 84540 333 20227 59011 60024;
0148833980999992002041818004-15660-038920FM-12+000599999V0201401N002112200019N0040001N1+02871+02431101381ADDAA199000021GF104991021021008001041001MA1999999101331MD1999999+0001REMSYN070AAXX  18184 83398 32596 41404 10287 20243 30133 40138 82240 333 58000;
0179833980999992002041900004-15660-038920FM-12+000599999V0209999C000012200019N0010001N1+02471+02311101581ADDAA199000021GF104991041011008001001001KA1240M+02961MA1999999101531MD1999999+0041REMSYN088AAXX  19004 83398 32594 40000 10247 20231 30153 40158 84100 333 10296 29087 55054 58004;
0186833980999992002041912004-15660-038920FM-12+000599999V0201801N002110450019N0040001N1+02431+01591101711ADDAA199000091GF106991041051008001021001KA1240N+02201MA1999999101651MD1999999-0061REMSYN076AAXX  19124 83398 32596 61804 10243 20159 30165 40171 84520 333 20220 59006;EQDQ01  00002PRCP99
0167833980999992002041918004-15660-038920FM-12+000599999V0200901N003110450019N0040001N1+02961+02351101381ADDAA199000091GF106991031021008001041001MA1999999101331MD1999999+0001REMSYN070AAXX  19184 83398 32596 60906 10296 20235 30133 40138 83240 333 58000;EQDQ01  00002PRCP99
0198833980999992002042000004-15660-038920FM-12+000599999V0201801N001010450019N0010001N1+02651+02371101551ADDAA199000091GF105991031051008001021001KA1240M+03001MA1999999101501MD1999999-0031REMSYN088AAXX  20004 83398 32594 51802 10265 20237 30150 40155 83520 333 10300 29081 55081 59003;EQDQ01  00002PRCP99
0201833980999992002042012004-15660-038920FM-12+000599999V0202701N001010450019N0040001N1+02581+02371101691ADDAA124004191AY161061AY221061GF107991041051008001021001KA1240N+02151MA1999999101641MD1999999+0051MW1021REMSYN088AAXX  20124 83398 21596 72702 10258 20237 30164 40169 70262 84520 333 20215 58005 60044;
0182833980999992002042018004-15660-038920FM-12+000599999V0201401N003110450019N0040001N1+02881+02371101221ADDAA106000591AY151061AY221061GF106991041051008001041001MA1999999101171MD1999999-0161MW1021REMSYN082AAXX  20184 83398 21596 61406 10288 20237 30117 40122 70252 84540 333 59016 69951;
0198833980999992002042100004-15660-038920FM-12+000599999V0202301N001010450019N0010001N1+02461+02321101461ADDAA199000091GF106991041051008001021001KA1240M+03011MA1999999101411MD1999999+0091REMSYN088AAXX  21004 83398 32594 62302 10246 20232 30141 40146 84520 333 10301 29087 55029 58009;EQDQ01  00002PRCP99
0201833980999992002042112004-15660-038920FM-12+000599999V0200901N003110450019N0040001N1+02861+02351101641ADDAA124010991AY161061AY221061GF107991041051008001021001KA1240N+02291MA1999999101581MD1999999-0061MW1021REMSYN088AAXX  21124 83398 21596 70906 10286 20235 30158 40164 70262 84520 333 20229 59006 60114;
0198833980999992002042200004-15660-038920FM-12+000599999V0201801N001010450019N0010001N1+02461+02301101511ADDAA199000091GF106991031051008001021001KA1240M+03011MA1999999101461MD1999999+0051REMSYN088AAXX  22004 83398 32594 61802 10246 20230 30146 40151 83520 333 10301 29083 55068 58005;EQDQ01  00002PRCP99
0201833980999992002042212004-15660-038920FM-12+000599999V0202301N002110450019N0040001N1+02651+02341101791ADDAA124005191AY151061AY221061GF106991041051004501021001KA1240N+02181MA1999999101731MD1999999+0151MW1021REMSYN088AAXX  22124 83398 21496 62304 10265 20234 30173 40179 70252 84520 333 20218 58015 60054;
0167833980999992002042218004-15660-038920FM-12+000599999V0200901N003110450019N0040001N1+02821+02361101391ADDAA199000091GF106991041051008001021001MA1999999101341MD1999999+0021REMSYN070AAXX  22184 83398 32596 60906 10282 20236 30134 40139 84520 333 58002;EQDQ01  00002PRCP99
0213833980999992002042300004-15660-038920FM-12+000599999V0201801N001010450019N0010001N1+02481+02271101611ADDAA106004191AY151061AY221061GF105991031051004501051001KA1240M+03021MA1999999101551MD1999999+0091MW1501REMSYN100AAXX  23004 83398 21494 51802 10248 20227 30155 40161 75052 83550 333 10302 29084 55064 58009 60041;
0201833980999992002042312004-15660-038920FM-12+000599999V0202301N001010450019N0040001N1+02541+02381101551ADDAA124010991AY161061AY221061GF107991041051008001021001KA1240N+02201MA1999999101501MD1999999-0131MW1021REMSYN088AAXX  23124 83398 21596 72302 10254 20238 30150 40155 70262 84520 333 20220 59013 60114;
0182833980999992002042318004-15660-038920FM-12+000599999V0201801N001010450019N0040001N1+02641+02311101301ADDAA106003091AY161061AY221061GF106991041051008001021001MA1999999101251MD1999999-0091MW1021REMSYN082AAXX  23184 83398 21596 61802 10264 20231 30125 40130 70262 84520 333 59009 60031;
0213833980999992002042400004-15660-038920FM-12+000599999V0201801N001010075019N0010001N1+02361+02191101541ADDAA106007991AY161061AY221061GF107991051051008001021001KA1240M+02981MA1999999101491MD1999999-0061MW1021REMSYN100AAXX  24004 83398 21594 71802 10236 20219 30149 40154 70262 85520 333 10298 29088 55062 59006 60081;
0201833980999992002042412004-15660-038920FM-12+000599999V0201801N001010075019N0040001N1+02561+02351101481ADDAA124019191AY161061AY221061GF107991051051008001021001KA1240N+02201MA1999999101431MD1999999-0071MW1021REMSYN088AAXX  24124 83398 21596 71802 10256 20235 30143 40148 70262 85520 333 20220 59007 60194;
0167833980999992002042418004-15660-038920FM-12+000599999V0201401N002110450019N0040001N1+02881+02281101151ADDAA199000091GF106991041051008001021001MA1999999101101MD1999999-0151REMSYN070AAXX  24184 83398 32596 61404 10288 20228 30110 40115 84520 333 59015;EQDQ01  00002PRCP99
0213833980999992002042500004-15660-038920FM-12+000599999V0201801N001010075019N0010001N1+02441+02271101391ADDAA106003091AY161061AY221061GF108991061051008001021999KA1240M+02981MA1999999101341MD1999999-0151MW1601REMSYN100AAXX  25004 83398 21594 81802 10244 20227 30134 40139 76062 8652/ 333 10298 29085 55082 59015 60031;
0201833980999992002042512004-15660-038920FM-12+000599999V0203601N002110075019N0040001N1+02561+01501101601ADDAA124004191AY161061AY221061GF106991051051008001021001KA1240N+02241MA1999999101551MD1999999+0071MW1021REMSYN088AAXX  25124 83398 21596 63604 10256 20150 30155 40160 70262 85520 333 20224 58007 60044;
0167833980999992002042518004-15660-038920FM-12+000599999V0201801N001010075019N0040001N1+02781+02341101291ADDAA199000091GF106991051051008001021001MA1999999101241MD1999999+0141REMSYN070AAXX  25184 83398 32596 61802 10278 20234 30124 40129 85520 333 58014;EQDQ01  00002PRCP99
0198833980999992002042600004-15660-038920FM-12+000599999V0209999C000012200019N0010001N1+02471+02291101491ADDAA199000091GF104991031021008001041001KA1240M+02951MA1999999101441MD1999999+0101REMSYN088AAXX  26004 83398 32594 40000 10247 20229 30144 40149 83240 333 10295 29087 55047 58010;EQDQ01  00002PRCP99
0186833980999992002042612004-15660-038920FM-12+000599999V0202301N001012200019N0040001N1+02681+02391101661ADDAA199000091GF104991031021008001041001KA1240N+02141MA1999999101601MD1999999+0101REMSYN076AAXX  26124 83398 32596 42302 10268 20239 30160 40166 83240 333 20214 58010;EQDQ01  00002PRCP99
0167833980999992002042618004-15660-038920FM-12+000599999V0200901N003110450019N0040001N1+02881+02301101371ADDAA199000091GF105991031051008001021001MA1999999101321MD1999999+0081REMSYN070AAXX  26184 83398 32596 50906 10288 20230 30132 40137 83520 333 58008;EQDQ01  00002PRCP99
0198833980999992002042700004-15660-038920FM-12+000599999V0209999C000012200019N0010001N1+02471+02291101511ADDAA199000091GF104991021021008001041001KA1240M+02951MA1999999101461MD1999999+0021REMSYN088AAXX  27004 83398 32594 40000 10247 20229 30146 40151 82240 333 10295 29084 55064 58002;EQDQ01  00002PRCP99
0201833980999992002042712004-15660-038920FM-12+000599999V0209999C000010450019N0040001N1+02501+02321101591ADDAA124006191AY161061AY221061GF106991041051004501021001KA1240N+02211MA1999999101541MD1999999-0061MW1021REMSYN088AAXX  27124 83398 21496 60000 10250 20232 30154 40159 70262 84520 333 20221 59006 60064;
0195833980999992002042718004-15660-038920FM-12+000599999V0200901N002110450019N0040001N1+02801+02131101261ADDAA199000091AY151061AY221061GF105991031051008001041001MA1999999101211MD1999999-0111MW1021REMSYN076AAXX  27184 83398 31596 50904 10280 20213 30121 40126 70252 83540 333 59011;EQDQ01  00002PRCP99
0198833980999992002042800004-15660-038920FM-12+000599999V0209999C000012200019N0010001N1+02301+02131101041ADDAA199000091GF103991031011008001001001KA1240M+02951MA1999999101351MD1999999-0111REMSYN088AAXX  28004 83398 32594 30000 10230 20213 30135 40104 83100 333 10295 29084 55066 59011;EQDQ01  00002PRCP99
0173833980999992002042812004-15660-038920FM-12+000599999V0202701N001012200019N0040001N1+02561+02191101541ADDAA124000191GF104991041021008001001001KA1240N+02001MA1999999101491MD1999999-0051REMSYN082AAXX  28124 83398 22596 42702 10256 20219 30149 40154 84200 333 20200 59005 69924;
0167833980999992002042818004-15660-038920FM-12+000599999V0200901N002112200019N0040001N1+02871+01911101351ADDAA199000091GF102991021021008001001001MA1999999101301MD1999999+0091REMSYN070AAXX  28184 83398 32596 20904 10287 20191 30130 40135 82200 333 58009;EQDQ01  00002PRCP99
0198833980999992002042900004-15660-038920FM-12+000599999V0202701N001012200019N0010001N1+02301+01971101531ADDAA199000091GF102991021011008001001001KA1240M+03001MA1999999101481MD1999999+0131REMSYN088AAXX  29004 83398 32594 22702 10230 20197 30148 40153 82100 333 10300 29078 55087 58013;EQDQ01  00002PRCP99
0186833980999992002042912004-15660-038920FM-12+000599999V0202301N002112200019N0040001N1+02541+02211101761ADDAA199000091GF103991021021008001041001KA1240N+01931MA1999999101701MD1999999+0211REMSYN076AAXX  29124 83398 32596 32304 10254 20221 30170 40176 82240 333 20193 58021;EQDQ01  00002PRCP99
0167833980999992002042918004-15660-038920FM-12+000599999V0200901N003110450019N0040001N1+02801+02081101441ADDAA199000091GF105991031021008001041001MA1999999101391MD1999999+0091REMSYN070AAXX  29184 83398 32596 50906 10280 20208 30139 40144 83240 333 58009;EQDQ01  00002PRCP99
0198833980999992002043000004-15660-038920FM-12+000599999V0209999C000012200019N0040001N1+02311+02141101701ADDAA199000091GF102991021021008001001001KA1240M+02951MA1999999101641MD1999999+0161REMSYN088AAXX  30004 83398 32596 20000 10231 20214 30164 40170 82200 333 10295 29082 55086 58016;EQDQ01  00002PRCP99
0186833980999992002043012004-15660-038920FM-12+000599999V0202301N001012200019N0040001N1+02541+02171101821ADDAA199000091GF102991021021008001001001KA1240N+01861MA1999999101761MD1999999+0061REMSYN076AAXX  30124 83398 32596 22302 10254 20217 30176 40182 82200 333 20186 58006;EQDQ01  00002PRCP99
0167833980999992002043018004-15660-038920FM-12+000599999V0200901N002112200019N0020001N1+02791+02051101471ADDAA199000091GF103991021021008001041001MA1999999101421MD1999999+0031REMSYN070AAXX  30184 83398 32595 30904 10279 20205 30142 40147 82240 333 58003;EQDQ01  00002PRCP99
0143833980999992002050100004-15660-038920FM-12+000599999V0209999C000012200019N0010001N1+02291+02081101721ADDAA199000091GF103991031021008001001001MA1999999101661REMSYN060AAXX  01004 83398 32594 30000 10229 20208 30166 40172 83200;EQDQ01  00002PRCP99
0186833980999992002050112004-15660-038920FM-12+000599999V0209999C000010450019N0040001N1+02621+02291101651ADDAA199000091GF105991031021008001041001KA1240N+01901MA1999999101591MD1999999-0171REMSYN076AAXX  01124 83398 32596 50000 10262 20229 30159 40165 83240 333 20190 59017;EQDQ01  00002PRCP99
0167833980999992002050118004-15660-038920FM-12+000599999V0200501N004012200019N0040001N1+02821+01981101391ADDAA199000091GF104991031021008001041001MA1999999101341MD1999999-0081REMSYN070AAXX  01180 83398 32596 40504 10282 20198 30134 40139 83240 333 59008;EQDQ01  00002PRCP99
0198833980999992002050200004-15660-038920FM-12+000599999V0209999C000012200019N0010001N1+02241+02071101591ADDAA199000091GF103991031011008001001001KA1240M+02911MA1999999101541MD1999999-0121REMSYN088AAXX  02004 83398 32594 30000 10224 20207 30154 40159 83100 333 10291 29081 55084 59012;EQDQ01  00002PRCP99
0186833980999992002050212004-15660-038920FM-12+000599999V0202301N001010450019N0040001N1+02501+02211101591ADDAA199000091GF106991041051008001021001KA1240N+01861MA1999999101541MD1999999-0051REMSYN076AAXX  02124 83398 32596 62302 10250 20221 30154 40159 84520 333 20186 59005;EQDQ01  00002PRCP99
0182833980999992002050218004-15660-038920FM-12+000599999V0202701N001010450019N0040001N1+02511+02301101301ADDAA106002091AY161061AY221061GF107991041051004501021001MA1999999101251MD1999999-0091MW1501REMSYN082AAXX  02184 83398 21496 72702 10251 20230 30125 40130 75062 84520 333 59009 60021;
0201833980999992002050312004-15660-038920FM-12+000599999V0202701N001010450019N0040001N1+02461+02281101491ADDAA124009991AY161061AY221061GF106991031051004501021001KA1240N+02151MA1999999101441MD1999999-0101MW1021REMSYN088AAXX  03124 83398 21496 62702 10246 20228 30144 40149 70262 83520 333 20215 59010 60104;
0167833980999992002050318004-15660-038920FM-12+000599999V0200501N002112200019N0040001N1+02811+02261101231ADDAA199000091GF104991021021008001041011MA1999999101181MD1999999-0071REMSYN070AAXX  03184 83398 32596 40504 10281 20226 30118 40123 82241 333 59007;EQDQ01  00002PRCP99
0198833980999992002050400004-15660-038920FM-12+000599999V0203601N001012200019N0010001N1+02641+02311101291ADDAA199000091GF103991031011008001001001KA1240M+02901MA1999999101241MD1999999-0121REMSYN088AAXX  04004 83398 32594 33602 10264 20231 30124 40129 83100 333 10290 29082 55049 59012;EQDQ01  00002PRCP99
0186833980999992002050412004-15660-038920FM-12+000599999V0209999C000010450019N0040001N1+02821+02421101511ADDAA199000091GF105991031051008001041001KA1240N+02061MA1999999101461MD1999999+0021REMSYN076AAXX  04124 83398 32596 50000 10282 20242 30146 40151 83540 333 20206 58002;EQDQ01  00002PRCP99
0167833980999992002050418004-15660-038920FM-12+000599999V0200501N003110450019N0040001N1+02881+02251101251ADDAA199000091GF105991031021008001041001MA1999999101201MD1999999+0021REMSYN070AAXX  04184 83398 32596 50506 10288 20225 30120 40125 83240 333 58002;EQDQ01  00002PRCP99
0198833980999992002050500004-15660-038920FM-12+000599999V0203601N001012200019N0010001N1+02541+02231101441ADDAA199000091GF103991031011008001001001KA1240M+02961MA1999999101391MD1999999+0051REMSYN088AAXX  05004 83398 32594 33602 10254 20223 30139 40144 83100 333 10296 29079 55080 58005;EQDQ01  00002PRCP99
0186833980999992002050512004-15660-038920FM-12+000599999V0202701N001010450019N0040001N1+02641+02331101771ADDAA199000091GF106991041051008001041001KA1240N+02091MA1999999101711MD1999999+0251REMSYN076AAXX  05124 83398 32596 62702 10264 20233 30171 40177 84540 333 20209 58025;EQDQ01  00002PRCP99
0183833980999992002050518004-15660-038920FM-12+000599999V0200501N002119999999N0040001N1+02841+02091101571ADDAA199000091GF106991999021008001001001MA1999999101521MD1999999+0321REMSYN070AAXX  05184 83398 32596 60504 10284 20209 30152 40157 82200 333 58032;EQDQ01+000022SCOTLCQ02  00002PRCP99
0198833980999992002050600004-15660-038920FM-12+000599999V0202301N001012200019N0010001N1+02301+02161101811ADDAA199000091GF103991031011008001001001KA1240M+02961MA1999999101751MD1999999+0361REMSYN088AAXX  06004 83398 32594 32302 10230 20216 30175 40181 83100 333 10296 29083 55086 58036;EQDQ01  00002PRCP99
0186833980999992002050612004-15660-038920FM-12+000599999V0201801N002112200019N0040001N1+02721+02281101871ADDAA199000091GF103991021021008001041001KA1240N+01921MA1999999101811MD1999999+0101REMSYN076AAXX  06124 83398 32596 31804 10272 20228 30181 40187 82240 333 20192 58010;EQDQ01  00002PRCP99
0167833980999992002050618004-15660-038920FM-12+000599999V0200501N003110450019N0040001N1+02841+02291101651ADDAA199000091GF106991041051008001041001MA1999999101591MD1999999+0071REMSYN070AAXX  06184 83398 32596 60506 10284 20229 30159 40165 84540 333 58007;EQDQ01  00002PRCP99
0198833980999992002050700004-15660-038920FM-12+000599999V0209999C000012200019N0010001N1+02281+02111101751ADDAA199000091GF103991031011008001001001KA1240M+02981MA1999999101691MD1999999-0061REMSYN088AAXX  07004 83398 32594 30000 10228 20211 30169 40175 83100 333 10298 29082 55081 59006;EQDQ01  00002PRCP99
0201833980999992002050712004-15660-038920FM-12+000599999V0202301N002112200019N0040001N1+02601+02331101751ADDAA124001091AY151061AY221061GF104991031021004501041001KA1240N+02021MA1999999101691MD1999999-0121MW1011REMSYN088AAXX  07124 83398 21496 42304 10260 20233 30169 40175 70152 83240 333 20202 59012 69994;
0182833980999992002050718004-15660-038920FM-12+000599999V0200901N002110450019N0040001N1+02621+02251101461ADDAA106001091AY151061AY221061GF105991031021004501041001MA1999999101411MD1999999-0181MW1501REMSYN082AAXX  07184 83398 21496 50904 10262 20225 30141 40146 75052 83240 333 59018 60011;
0179833980999992002050800004-15660-038920FM-12+000599999V0209999C000012200019N0010001N1+02421+02251101711ADDAA199000021GF102991021011008001001001KA1240M+02961MA1999999101651MD1999999-0041REMSYN088AAXX  08004 83398 32594 20000 10242 20225 30165 40171 82100 333 10296 29086 55074 59004;
0201833980999992002050812004-15660-038920FM-12+000599999V0202701N001010450019N0040001N1+02351+02181101781ADDAA124014091AY161061AY221061GF107991041051004501021001KA1240N+02081MA1999999101721MD1999999+0011MW1021REMSYN088AAXX  08124 83398 21496 72702 10235 20218 30172 40178 70262 84520 333 20208 58001 60144;
0167833980999992002050818004-15660-038920FM-12+000599999V0200901N002110450019N0040001N1+02781+02111101441ADDAA199000091GF106991041051008001041001MA1999999101391MD1999999-0021REMSYN070AAXX  08184 83398 32596 60904 10278 20211 30139 40144 84540 333 59002;EQDQ01  00002PRCP99
0198833980999992002050900004-15660-038920FM-12+000599999V0202701N001012200019N0010001N1+02301+02161101681ADDAA199000091GF103991031011008001001001KA1240M+02881MA1999999101621MD1999999-0031REMSYN088AAXX  09004 83398 32594 32702 10230 20216 30162 40168 83100 333 10288 29086 55063 59003;EQDQ01  00002PRCP99
0186833980999992002050912004-15660-038920FM-12+000599999V0209999C000012200019N0040001N1+02681+02201101801ADDAA199000091GF103991021021008001041001KA1240N+02021MA1999999101741MD1999999+0021REMSYN076AAXX  09124 83398 32596 30000 10268 20220 30174 40180 82240 333 20202 58002;EQDQ01  00002PRCP99
0167833980999992002050918004-15660-038920FM-12+000599999V0200901N003110450019N0040001N1+02781+02251101451ADDAA199000091GF105991031021008001041001MA1999999101401MD1999999+0011REMSYN070AAXX  09184 83398 32596 50906 10278 20225 30140 40145 83240 333 58001;EQDQ01  00002PRCP99
0198833980999992002051000004-15660-038920FM-12+000599999V0209999C000012200019N0010001N1+02431+02241101641ADDAA199000091GF103991031011008001001001KA1240M+02941MA1999999101581MD1999999-0041REMSYN088AAXX  10004 83398 32594 30000 10243 20224 30158 40164 83100 333 10294 29082 55087 59004;EQDQ01  00002PRCP99
0186833980999992002051012004-15660-038920FM-12+000599999V0209999C000011050019N0040001N1+02601+02291101901ADDAA199000091GF105991021021008001041041KA1240N+02001MA1999999101841MD1999999+0101REMSYN076AAXX  10124 83398 32596 50000 10260 20229 30184 40190 82244 333 20200 58010;EQDQ01  00002PRCP99
0167833980999992002051018004-15660-038920FM-12+000599999V0200901N003110450019N0040001N1+02801+02271101621ADDAA199000091GF106991031051008001041001MA1999999101561MD1999999+0161REMSYN070AAXX  10184 83398 32596 60906 10280 20227 30156 40162 83540 333 58016;EQDQ01  00002PRCP99
0198833980999992002051100004-15660-038920FM-12+000599999V0202301N001012200019N0010001N1+02321+02151101851ADDAA199000091GF104991021051008001041001KA1240M+02951MA1999999101791MD1999999+0211REMSYN088AAXX  11004 83398 32594 42302 10232 20215 30179 40185 82540 333 10295 29084 55076 58021;EQDQ01  00002PRCP99
0201833980999992002051112004-15660-038920FM-12+000599999V0209999C000010042019N0040001N1+02321+02151102081ADDAA124009991AY161061AY221061GF108991051071004501021999KA1240N+02171MA1999999102021MD1999999-0181MW1601REMSYN088AAXX  11124 83398 21496 80000 10232 20215 30202 40208 76062 8572/ 333 20217 59018 60104;
0182833980999992002051118004-15660-038920FM-12+000599999V0201401N002110075019N0040001N1+02621+02311101741ADDAA106009991AY161061AY221061GF107991051051008001021001MA1999999101681MD1999999+0121MW1021REMSYN082AAXX  11184 83398 21596 71404 10262 20231 30168 40174 70262 85520 333 58012 60101;
0213833980999992002051200004-15660-038920FM-12+000599999V0200501N002110042019N0010001N1+02401+02261102001ADDAA106011991AY161061AY221061GF108991051071004501021999KA1240M+02681MA1999999101941MD1999999+0151MW1601REMSYN100AAXX  12004 83398 21494 80504 10240 20226 30194 40200 76062 8572/ 333 10268 29089 55000 58015 60121;
0201833980999992002051212004-15660-038920FM-12+000599999V0201801N002110075019N0040001N1+02381+02191101991ADDAA124024991AY161061AY221061GF108991051051008001021999KA1240N+02141MA1999999101931MD1999999-0091MW1501REMSYN088AAXX  12124 83398 21596 81804 10238 20219 30193 40199 75062 8552/ 333 20214 59009 60254;
0213833980999992002051300004-15660-038920FM-12+000599999V0201801N002110075019N0010001N1+02381+02211101911ADDAA106020191AY161061AY221061GF108991051051008001021999KA1240M+02841MA1999999101851MD1999999-0091MW1501REMSYN100AAXX  13004 83398 21594 81804 10238 20221 30185 40191 75062 8552/ 333 10284 29091 55031 59009 60201;
0201833980999992002051312004-15660-038920FM-12+000599999V0202301N001010450019N0040001N1+02521+02331101921ADDAA124030091AY161061AY221061GF105991031051004501041001KA1240N+02181MA1999999101861MD1999999-0071MW1011REMSYN088AAXX  13124 83398 21496 52302 10252 20233 30186 40192 70162 83540 333 20218 59007 60304;
0182833980999992002051318004-15660-038920FM-12+000599999V0201401N002110450019N0040001N1+02781+02321101671ADDAA106000191AY151061AY221061GF106991031051008001041011MA1999999101611MD1999999+0001MW1021REMSYN082AAXX  13184 83398 21596 61404 10278 20232 30161 40167 70252 83541 333 58000 69921;
0198833980999992002051400004-15660-038920FM-12+000599999V0202301N001012200019N0010001N1+02331+02141101881ADDAA199000091GF103991031011008001001001KA1240M+02951MA1999999101821MD1999999-0031REMSYN088AAXX  14004 83398 32594 32302 10233 20214 30182 40188 83100 333 10295 29086 55061 59003;EQDQ01  00002PRCP99
0201833980999992002051412004-15660-038920FM-12+000599999V0201801N002110450019N0040001N1+02541+02291101931ADDAA124004191AY151061AY221061GF106991041051004501041001KA1240N+02141MA1999999101871MD1999999+0011MW1011REMSYN088AAXX  14124 83398 21496 61804 10254 20229 30187 40193 70152 84540 333 20214 58001 60044;
0182833980999992002051418004-15660-038920FM-12+000599999V0200901N002110450019N0040001N1+02801+02311101711ADDAA106000591AY151061AY221061GF105991031051004501041001MA1999999101651MD1999999+0041MW1011REMSYN082AAXX  14184 83398 21496 50904 10280 20231 30165 40171 70152 83540 333 58004 69951;
0198833980999992002051500004-15660-038920FM-12+000599999V0200901N001012200019N0010001N1+02621+02211101811ADDAA199000091GF103991031011008001001001KA1240M+02941MA1999999101751MD1999999-0071REMSYN088AAXX  15004 83398 32594 30902 10262 20221 30175 40181 83100 333 10294 29079 55061 59007;EQDQ01  00002PRCP99
0201833980999992002051512004-15660-038920FM-12+000599999V0202701N001010450019N0040001N1+02501+02311102021ADDAA124002091AY151061AY221061GF106991031051004501041001KA1240N+02141MA1999999101961MD1999999+0091MW1011REMSYN088AAXX  15124 83398 21496 62702 10250 20231 30196 40202 70152 83540 333 20214 58009 60024;
0182833980999992002051518004-15660-038920FM-12+000599999V0201401N003110450019N0040001N1+02701+02261101361ADDAA106000191AY151061AY221061GF106991041051008001041011MA1999999101311MD1999999-0041MW1021REMSYN082AAXX  15184 83398 21596 61406 10270 20226 30131 40136 70252 84541 333 59004 69921;
0198833980999992002051600004-15660-038920FM-12+000599999V0209999C000012200019N0010001N1+02321+02131101761ADDAA199000091GF102991021021008001001001KA1240M+02851MA1999999101701MD1999999-0051REMSYN088AAXX  16004 83398 32594 20000 10232 20213 30170 40176 82200 333 10285 29086 55052 59005;EQDQ01  00002PRCP99
0173833980999992002051612004-15660-038920FM-12+000599999V0202301N001011050019N0040001N1+02451+02241101761ADDAA124000191GF105991021021008001041041KA1240N+02041MA1999999101701MD1999999-0261REMSYN082AAXX  16124 83398 22596 52302 10245 20224 30170 40176 82244 333 20204 59026 69924;
0167833980999992002051618004-15660-038920FM-12+000599999V0200501N001012200019N0040001N1+02691+02171101351ADDAA199000091GF104991031021008001041001MA1999999101301MD1999999-0011REMSYN070AAXX  16184 83398 32596 40502 10269 20217 30130 40135 83240 333 59001;EQDQ01  00002PRCP99
0198833980999992002051700004-15660-038920FM-12+000599999V0209999C000012200019N0010001N1+02321+02131101551ADDAA199000091GF102991021021008001001001KA1240M+02841MA1999999101501MD1999999-0201REMSYN088AAXX  17004 83398 32594 20000 10232 20213 30150 40155 82200 333 10284 29085 55050 59020;EQDQ01  00002PRCP99
0186833980999992002051712004-15660-038920FM-12+000599999V0202701N001012200019N0040001N1+02621+02351101501ADDAA199000091GF104991031021008001041001KA1240N+01941MA1999999101351MD1999999-0351REMSYN076AAXX  17124 83398 32596 42702 10262 20235 30135 40150 83240 333 20194 59035;EQDQ01  00002PRCP99
0167833980999992002051718004-15660-038920FM-12+000599999V0200501N003110450019N0040001N1+02821+02241101131ADDAA199000091GF105991031021008001041001MA1999999101081MD1999999-0221REMSYN070AAXX  17184 83398 32596 50506 10282 20224 30108 40113 83240 333 59022;EQDQ01  00002PRCP99
0198833980999992002051800004-15660-038920FM-12+000599999V0200901N001012200019N0010001N1+02531+02341101271ADDAA199000091GF103991031011008001001001KA1240M+02931MA1999999101221MD1999999-0281REMSYN088AAXX  18004 83398 32594 30902 10253 20234 30122 40127 83100 333 10293 29081 5085/ 59028;EQDQ01  00002PRCP99
0186833980999992002051812004-15660-038920FM-12+000599999V0203201N001010075019N0040001N1+02701+02281101481ADDAA199000091GF105991051051008001001001KA1240N+02101MA1999999101431MD1999999-0021REMSYN076AAXX  18124 83398 32596 53202 10270 20228 30143 40148 85500 333 20210 59002;EQDQ01  00002PRCP99
0167833980999992002051818004-15660-038920FM-12+000599999V0200501N003110450019N0040001N1+02801+02251101191ADDAA199000091GF105991031051008001041001MA1999999101141MD1999999+0061REMSYN070AAXX  18184 83398 32596 50506 10280 20225 30114 40119 83540 333 58006;EQDQ01  00002PRCP99
0201833980999992002051912004-15660-038920FM-12+000599999V0209999C000010075019N0040001N1+02501+02251101661ADDAA124006191AY161061AY221061GF107991051051008001021001KA1240N+02091MA1999999101601MD1999999+0171MW1021REMSYN088AAXX  19124 83398 21596 70000 10250 20225 30160 40166 70262 85520 333 20209 58017 60064;
0167833980999992002051918004-15660-038920FM-12+000599999V0200501N003110450019N0040001N1+02781+02161101331ADDAA199000091GF105991021051008001041001MA1999999101281MD1999999+0141REMSYN070AAXX  19184 83398 32596 50506 10278 20216 30128 40133 82540 333 58014;EQDQ01  00002PRCP99
0186833980999992002052012004-15660-038920FM-12+000599999V0209999C000011050019N0040001N1+02541+02291101731ADDAA199000091GF105991021021008001041041KA1240N+01971MA1999999101671MD1999999+0071REMSYN076AAXX  20124 83398 32596 50000 10254 20229 30167 40173 82244 333 20197 58007;EQDQ01  00002PRCP99
0167833980999992002052018004-15660-038920FM-12+000599999V0200501N003111050019N0040001N1+02741+02171101381ADDAA199000091GF105991021021008001041011MA1999999101331MD1999999+0051REMSYN070AAXX  20184 83398 32596 50506 10274 20217 30133 40138 82241 333 58005;EQDQ01  00002PRCP99
0198833980999992002052100004-15660-038920FM-12+000599999V0209999C000010450019N0010001N1+02321+02151101491ADDAA199000091GF105991031011008001041001KA1240M+02921MA1999999101441MD1999999-0081REMSYN088AAXX  21004 83398 32594 50000 10232 20215 30144 40149 83140 333 10292 29084 55077 59008;EQDQ01  00002PRCP99
0186833980999992002052112004-15660-038920FM-12+000599999V0203201N001012200019N0040001N1+02691+02381101611ADDAA199000091GF104991021011008001041011KA1240N+01981MA1999999101551MD1999999-0121REMSYN076AAXX  21124 83398 32596 43202 10269 20238 30155 40161 82141 333 20198 59012;EQDQ01  00002PRCP99
0167833980999992002052118004-15660-038920FM-12+000599999V0200501N002112200019N0040001N1+02821+02331101241ADDAA199000091GF103991021021008001041001MA1999999101191MD1999999-0141REMSYN070AAXX  21184 83398 32596 30504 10282 20233 30119 40124 82240 333 59014;EQDQ01  00002PRCP99
0198833980999992002052200004-15660-038920FM-12+000599999V0209999C000012200019N0010001N1+02521+02271101491ADDAA199000091GF103991031011008001001001KA1240M+02941MA1999999101441MD1999999+0001REMSYN088AAXX  22004 83398 32594 30000 10252 20227 30144 40149 83100 333 10294 29083 55081 58000;EQDQ01  00002PRCP99
0186833980999992002052212004-15660-038920FM-12+000599999V0203201N001012200019N0040001N1+02701+02391101481ADDAA199000091GF104991031011008001041001KA1240N+01981MA1999999101431MD1999999-0121REMSYN076AAXX  22124 83398 32596 43202 10270 20239 30143 40148 83140 333 20198 59012;EQDQ01  00002PRCP99
0167833980999992002052218004-15660-038920FM-12+000599999V0200501N003110450019N0040001N1+02841+02401101151ADDAA199000091GF106991031021008001041011MA1999999101101MD1999999-0091REMSYN070AAXX  22184 83398 32596 60506 10284 20240 30110 40115 83241 333 59009;EQDQ01  00002PRCP99
0198833980999992002052300004-15660-038920FM-12+000599999V0209999C000010075019N0010001N1+02511+02321101481ADDAA199000091GF108991051051008001021999KA1240M+02981MA1999999101431MD1999999-0011REMSYN088AAXX  23004 83398 32594 80000 10251 20232 30143 40148 8552/ 333 10298 29085 55078 59001;EQDQ01  00002PRCP99
0201833980999992002052312004-15660-038920FM-12+000599999V0201801N003110075019N0040001N1+02361+02131101661ADDAA124015091AY191061AY261061GF107991051051008001021001KA1240N+02071MA1999999101611MD1999999+0181MW1021REMSYN088AAXX  23124 83398 21596 71806 10236 20213 30161 40166 70296 85520 333 20207 58018 60154;
0167833980999992002052318004-15660-038920FM-12+000599999V0201801N003110075019N0040001N1+02521+02151101361ADDAA199000091GF107991051051008001021001MA1999999101311MD1999999+0211REMSYN070AAXX  23184 83398 32596 71806 10252 20215 30131 40136 85520 333 58021;EQDQ01  00002PRCP99
0173833980999992002052412004-15660-038920FM-12+000599999V0201801N003110075019N0040001N1+02321+01911101771ADDAA124004191GF107991051051008001021001KA1240N+02011MA1999999101711MD1999999+0101REMSYN082AAXX  24124 83398 22596 71806 10232 20191 30171 40177 85520 333 20201 58010 60044;
0182833980999992002052418004-15660-038920FM-12+000599999V0201801N003110075019N0040001N1+02481+01981101471ADDAA106002091AY161061AY221061GF107991051051008001021001MA1999999101421MD1999999+0111MW1021REMSYN082AAXX  24184 83398 21596 71806 10248 20198 30142 40147 70262 85520 333 58011 60021;
0213833980999992002052500004-15660-038920FM-12+000599999V0201801N003110075019N0010001N1+02101+01951101731ADDAA106000191AY151061AY221061GF107991051051008001021001KA1240M+02761MA1999999101671MD1999999+0071MW1021REMSYN100AAXX  25004 83398 21594 71806 10210 20195 30167 40173 70252 85520 333 10276 29084 55034 58007 69911;
0173833980999992002052512004-15660-038920FM-12+000599999V0201801N003110450019N0040001N1+02261+01821101841ADDAA124002091GF105991031051008001041001KA1240N+01821MA1999999101781MD1999999+0071REMSYN082AAXX  25124 83398 22596 51806 10226 20182 30178 40184 83540 333 20182 58007 60024;
0167833980999992002052518004-15660-038920FM-12+000599999V0201801N004110450019N0040001N1+02541+01781101531ADDAA199000091GF106991041051008001021001MA1999999101481MD1999999+0061REMSYN070AAXX  25184 83398 32596 61808 10254 20178 30148 40153 84520 333 58006;EQDQ01  00002PRCP99
0198833980999992002052600004-15660-038920FM-12+000599999V0203201N001010450019N0010001N1+02061+01891101851ADDAA199000091GF105991021051008001041001KA1240M+02761MA1999999101791MD1999999+0121REMSYN088AAXX  26004 83398 32594 53202 10206 20189 30179 40185 82540 333 10276 29080 55076 58012;EQDQ01  00002PRCP99
0186833980999992002052612004-15660-038920FM-12+000599999V0201801N003110450019N0040001N1+02281+01901101951ADDAA199000091GF105991031021008001041001KA1240N+01741MA1999999101891MD1999999+0111REMSYN076AAXX  26124 83398 32596 51806 10228 20190 30189 40195 83240 333 20174 58011;EQDQ01  00002PRCP99
0198833980999992002052700004-15660-038920FM-12+000599999V0202301N002112200019N0010001N1+02101+01911101851ADDAA199000091GF103991011011008001041001KA1240M+02761MA1999999101791MD1999999+0001REMSYN088AAXX  27004 83398 32594 32304 10210 20191 30179 40185 81140 333 10276 29080 55084 58000;EQDQ01  00002PRCP99
0186833980999992002052712004-15660-038920FM-12+000599999V0202301N003112200019N0040001N1+02241+01691101911ADDAA199000091GF104991031021008001041001KA1240N+01761MA1999999101851MD1999999-0041REMSYN076AAXX  27124 83398 32596 42306 10224 20169 30185 40191 83240 333 20176 59004;EQDQ01  00002PRCP99
0167833980999992002052718004-15660-038920FM-12+000599999V0201401N002110450019N0040001N1+02741+01841101481ADDAA199000091GF105991031051008001041001MA1999999101431MD1999999-0101REMSYN070AAXX  27184 83398 32596 51404 10274 20184 30143 40148 83540 333 59010;EQDQ01  00002PRCP99
0186833980999992002052812004-15660-038920FM-12+000599999V0201801N002112200019N0040001N1+02331+01821101791ADDAA199000091GF104991031021008001041001KA1240N+01771MA1999999101731MD1999999-0121REMSYN076AAXX  28124 83398 32596 41804 10233 20182 30173 40179 83240 333 20177 59012;EQDQ01  00002PRCP99
0167833980999992002052818004-15660-038920FM-12+000599999V0202301N002110450019N0040001N1+02631+02061101451ADDAA199000091GF105991031021008001051001MA1999999101401MD1999999-0031REMSYN070AAXX  28184 83398 32596 52304 10263 20206 30140 40145 83250 333 59003;EQDQ01  00002PRCP99
0198833980999992002052900004-15660-038920FM-12+000599999V0209999C000012200019N0010001N1+02141+01971101661ADDAA199000091GF104991031021008001041001KA1240M+02791MA1999999101601MD1999999+0111REMSYN088AAXX  29004 83398 32594 40000 10214 20197 30160 40166 83240 333 10279 29081 55065 58011;EQDQ01  00002PRCP99
0182833980999992002052918004-15660-038920FM-12+000599999V0201801N001012200019N0040001N1+02681+02221101471ADDAA106000591AY151061AY221061GF103991021021004501041001MA1999999101421MD1999999+0021MW1011REMSYN082AAXX  29184 83398 21496 31802 10268 20222 30142 40147 70152 82240 333 58002 69951;
0198833980999992002053000004-15660-038920FM-12+000599999V0201801N001012200019N0010001N1+02181+02011101701ADDAA199000091GF104991031021008001041001KA1240M+02791MA1999999101641MD1999999+0041REMSYN088AAXX  30004 83398 32594 41802 10218 20201 30164 40170 83240 333 10279 29086 55055 58004;EQDQ01  00002PRCP99
0201833980999992002053012004-15660-038920FM-12+000599999V0201801N002110450019N0040001N1+02481+02191101861ADDAA124001091AY161061AY221061GF105991031051008001041001KA1240N+01891MA1999999101801MD1999999+0111MW1021REMSYN088AAXX  30124 83398 21596 51804 10248 20219 30180 40186 70262 83540 333 20189 58011 60014;
0167833980999992002053018004-15660-038920FM-12+000599999V0201801N001012200019N0040001N1+02641+02141101621ADDAA199000091GF103991021011008001041001MA1999999101561MD1999999+0141REMSYN070AAXX  30184 83398 32596 31802 10264 20214 30156 40162 82140 333 58014;EQDQ01  00002PRCP99
0198833980999992002053100004-15660-038920FM-12+000599999V0202701N001010450019N0040001N1+02281+02111101761ADDAA199000091GF106991041051008001021001KA1240M+02791MA1999999101071MD1999999+0061REMSYN088AAXX  31004 83398 32596 62702 10228 20211 30107 40176 84520 333 10279 29083 55084 58006;EQDQ01  00002PRCP99
0186833980999992002053112004-15660-038920FM-12+000599999V0202301N001012200019N0040001N1+02361+02131101961ADDAA199000091GF104991021011008001041041KA1240N+01841MA1999999101901MD1999999+0101REMSYN076AAXX  31124 83398 32596 42302 10236 20213 30190 40196 82144 333 20184 58010;EQDQ01  00002PRCP99
0167833980999992002053118004-15660-038920FM-12+000599999V0200901N001012200019N0040001N1+02681+02131101751ADDAA199000091GF104991021021008001041011MA1999999101691MD1999999+0131REMSYN070AAXX  31184 83398 32596 40902 10268 20213 30169 40175 82241 333 58013;EQDQ01  00002PRCP99
0186833980999992002060112004-15660-038920FM-12+000599999V0209999C000010450019N0040001N1+02541+02231102001ADDAA199000091GF106991021051008001041011KA1240N+01971MA1999999101941MD1999999+0041REMSYN076AAXX  01124 83398 32596 60000 10254 20223 30194 40200 82541 333 20197 58004;EQDQ01  00002PRCP99
0167833980999992002060118004-15660-038920FM-12+000599999V0201401N002110075019N0040001N1+02601+02121101751ADDAA199000091GF107991051051008001021001MA1999999101691MD1999999+0001REMSYN070AAXX  01184 83398 32596 71404 10260 20212 30169 40175 85520 333 58000;EQDQ01  00002PRCP99
0198833980999992002060200004-15660-038920FM-12+000599999V0209999C000012200019N0010001N1+02201+02201999999ADDAA199000091GF104991031011008001041001KA1240M+02831MA1999999101861MD1999999+0111REMSYN088AAXX  02004 83398 32594 40000 10220 20220 30186 44019 83140 333 10283 29080 55072 58011;EQDQ01  00002PRCP99
0186833980999992002060212004-15660-038920FM-12+000599999V0201801N002110075019N0040001N1+02201+02091102081ADDAA199000091GF107991051051008001021001KA1240N+01801MA1999999102021MD1999999+0081REMSYN076AAXX  02124 83398 32596 71804 10220 20209 30202 40208 85520 333 20180 58008;EQDQ01  00002PRCP99
0182833980999992002060218004-15660-038920FM-12+000599999V0203201N001010075019N0040001N1+02241+02071101891ADDAA106007191AY161061AY221061GF107991051051008001021001MA1999999101741MD1999999+0051MW1021REMSYN082AAXX  02184 83398 21596 73202 10224 20207 30174 40189 70262 85520 333 58005 60071;
0213833980999992002060300004-15660-038920FM-12+000599999V0202301N001010075019N0010001N1+02141+02081101951ADDAA106004191AY161061AY221061GF107991051051008001021001KA1240M+02521MA1999999101891MD1999999+0031MW1021REMSYN100AAXX  03004 83398 21594 72302 10214 20208 30189 40195 70262 85520 333 10252 29092 55014 58003 60041;
0201833980999992002060312004-15660-038920FM-12+000599999V0201801N003110450019N0040001N1+02401+02231101911ADDAA124014091AY161061AY221061GF106991041051008001021001KA1240N+01991MA1999999101851MD1999999-0171MW1021REMSYN088AAXX  03124 83398 21596 61806 10240 20223 30185 40191 70262 84520 333 20199 59017 60144;
0182833980999992002060318004-15660-038920FM-12+000599999V0201801N003110042019N0040001N1+02301+02141101781ADDAA106000191AY151061AY221061GF108991051051004501021999MA1999999101721MD1999999-0021MW1501REMSYN082AAXX  03184 83398 21496 81806 10230 20214 30172 40178 75052 8552/ 333 59002 69911;
0179833980999992002060400004-15670-038930FM-12+000599999V0201801N001012200019N0010001N1+02281+02131101901ADDAA199000021GF104991041011008001001001KA1240M+02761MA1999999101841MD1999999-0051REMSYN088AAXX  04004 83398 32594 41802 10228 20213 30184 40190 84100 333 10276 29091 55035 59005;
0201833980999992002060412004-15670-038930FM-12+000599999V0201801N002110450019N0040001N1+02411+02241101851ADDAA124004191AY151061AY221061GF107991041051004501021001KA1240N+02101MA1999999101791MD1999999-0061MW1021REMSYN088AAXX  04124 83398 21496 71804 10241 20224 30179 40185 70252 84520 333 20210 59006 60044;
0167833980999992002060418004-15670-038930FM-12+000599999V0201801N002110450019N0040001N1+02611+02171101661ADDAA199000091GF105991031021008001041011MA1999999101601MD1999999-0121REMSYN070AAXX  04184 83398 32596 51804 10261 20217 30160 40166 83241 333 59012;EQDQ01  00002PRCP99
0198833980999992002060500004-15670-038930FM-12+000599999V0201801N001010450019N0010001N1+02221+02051101791ADDAA199000091GF105991031051008001021001KA1240M+02711MA1999999101731MD1999999-0011REMSYN088AAXX  05004 83398 32594 51802 10222 20205 30173 40179 83520 333 10271 29087 55027 59001;EQDQ01  00002PRCP99
0186833980999992002060512004-15670-038930FM-12+000599999V0202301N001010450019N0040001N1+02481+02291101821ADDAA199000091GF106991041051008001021001KA1240N+01941MA1999999101761MD1999999-0031REMSYN076AAXX  05124 83398 32596 62302 10248 20229 30176 40182 84520 333 20194 59003;EQDQ01  00002PRCP99
0167833980999992002060518004-15670-038930FM-12+000599999V0200901N002110450019N0040001N1+02701+02221101661ADDAA199000091GF105991021051008001041001MA1999999101601MD1999999+0001REMSYN070AAXX  05184 83398 32596 50904 10270 20222 30160 40166 82540 333 58000;EQDQ01  00002PRCP99
0198833980999992002060600004-15670-038930FM-12+000599999V0209999C000010450019N0010001N1+02281+02141101721ADDAA199000091GF105991031051008001021001KA1240M+02801MA1999999101661MD1999999-0071REMSYN088AAXX  06004 83398 32594 50000 10228 20214 30166 40172 83520 333 10280 29086 55074 59007;EQDQ01  00002PRCP99
0165833980999992002060618004-15670-038930FM-12+000599999V0201801N001012200019N0040001N1+02611+02281101571ADDAY151061AY221061GF104991031011004501041001MA1999999101521MD1999999-0081MW1011REMSYN076AAXX  06184 83398 21496 41802 10261 20228 30152 40157 70152 83140 333 59008;
0202833980999992002060700004-15670-038930FM-12+000599999V0209999C000010450019N0010001N1+02301+02141101861ADDAY151061AY221061GF106991041051004501021001KA1240M+02831MA1999999101741MD1999999+0081MW1501REMSYN100AAXX  07004 83398 21494 60000 10230 20214 30174 40186 75052 84520 333 10283 29088 55078 58008 60031;
0190833980999992002060712004-15670-038930FM-12+000599999V0202301N001010042019N0040001N1+02271+02131101931ADDAY151061AY221061GF108991051051004501021999KA1240N+02041MA1999999101871MD1999999+0131MW1501REMSYN088AAXX  07124 83398 21496 82302 10227 20213 30187 40193 75052 8552/ 333 20204 58013 60094;
0202833980999992002060800004-15670-038930FM-12+000599999V0200901N001010450019N0010001N1+02481+02271101831ADDAY151061AY221061GF105991031011004501041001KA1240M+02781MA1999999101771MD1999999+0031MW1011REMSYN100AAXX  08004 83398 21494 50902 10248 20227 30177 40183 70152 83140 333 10278 29086 55059 58003 69911;
0190833980999992002060812004-15670-038930FM-12+000599999V0202301N001010075019N0040001N1+02381+02241102121ADDAY161061AY221061GF107991051051008001021001KA1240N+02121MA1999999102061MD1999999+0191MW1021REMSYN088AAXX  08124 83398 21596 72302 10238 20224 30206 40212 70262 85520 333 20212 58019 60064;
0171833980999992002060818004-15670-038930FM-12+000599999V0201401N003110450019N0040001N1+02721+02051101761ADDAY151061AY221061GF106991041051008001041001MA1999999101701MD1999999+0141MW1021REMSYN082AAXX  08184 83398 21596 61406 10272 20205 30170 40176 70252 84540 333 58014 69911;
0198833980999992002060900004-15670-038930FM-12+000599999V0209999C000012200019N0010001N1+02171+01961102061ADDAA199000091GF104991031011008001041001KA1240M+02831MA1999999102001MD1999999+0231REMSYN088AAXX  09004 83398 32594 40000 10217 20196 30200 40206 83140 333 10283 29084 55060 58023;EQDQ01  00002PRCP99
0190833980999992002060912004-15670-038930FM-12+000599999V0202301N002110075019N0040001N1+02461+02251101981ADDAY161061AY221061GF107991051051008001021001KA1240N+01991MA1999999101921MD1999999-0141MW1021REMSYN088AAXX  09124 83398 21596 72304 10246 20225 30192 40198 70262 85520 333 20199 59014 60054;
0171833980999992002060918004-15670-038930FM-12+000599999V0209999C000010075019N0040001N1+02441+02271101721ADDAY161061AY221061GF107991051051008001021001MA1999999101661MD1999999-0041MW1021REMSYN082AAXX  09184 83398 21596 70000 10244 20227 30166 40172 70262 85520 333 59004 60101;
0198833980999992002061000004-15670-038930FM-12+000599999V0209999C000010450019N0010001N1+02101+01931101951ADDAA199000091GF105991031011008001041001KA1240M+02771MA1999999101891MD1999999-0111REMSYN088AAXX  10004 83398 32594 50000 10210 20193 30189 40195 83140 333 10277 29090 55038 59011;EQDQ01  00002PRCP99
0190833980999992002061012004-15670-038930FM-12+000599999V0202301N001012200019N0040001N1+02341+02001101981ADDAY151061AY221061GF102991021021004501001001KA1240N+01801MA1999999101921MD1999999+0001MW1011REMSYN088AAXX  10124 83398 21496 22302 10234 20200 30192 40198 70152 82200 333 20180 58000 60104;
0167833980999992002061018004-15670-038930FM-12+000599999V0201401N003110450019N0040001N1+02721+01521101701ADDAA199000091GF105991031051008001041001MA1999999101641MD1999999-0061REMSYN070AAXX  10184 83398 32596 51406 10272 20152 30164 40170 83540 333 59006;EQDQ01  00002PRCP99
0198833980999992002061100004-15670-038930FM-12+000599999V0209999C000012200019N0010001N1+02181+01951101831ADDAA199000091GF103991031011008001001001KA1240M+02771MA1999999101771MD1999999-0121REMSYN088AAXX  11004 83398 32594 30000 10218 20195 30177 40183 83100 333 10277 29076 55080 59012;EQDQ01  00002PRCP99
0190833980999992002061112004-15670-038930FM-12+000599999V0202301N002110450019N0040001N1+02221+02051101931ADDAY151061AY221061GF106991031051004501051011KA1240N+01891MA1999999101871MD1999999-0051MW1011REMSYN088AAXX  11124 83398 21496 62304 10222 20205 30187 40193 70152 83551 333 20189 59005 60034;
0171833980999992002061118004-15670-038930FM-12+000599999V0201401N002112200019N0040001N1+02681+02091101641ADDAY151061AY221061GF103991021021004501041001MA1999999101581MD1999999-0061MW1011REMSYN082AAXX  11184 83398 21496 31404 10268 20209 30158 40164 70152 82240 333 59006 69911;
0202833980999992002061200004-15670-038930FM-12+000599999V0202301N002110042019N0010001N1+02291+02151101881ADDAY151061AY221061GF108991051051004501021999KA1240M+02781MA1999999101821MD1999999+0051MW1021REMSYN100AAXX  12004 83398 21494 82304 10229 20215 30182 40188 70252 8552/ 333 10278 29086 55061 58005 69941;
0190833980999992002061212004-15670-038930FM-12+000599999V0202301N002112200019N0040001N1+02461+02171101921ADDAY151061AY221061GF104991021011004501041001KA1240N+01981MA1999999101861MD1999999-0011MW1011REMSYN088AAXX  12124 83398 21496 42304 10246 20217 30186 40192 70152 82140 333 20198 59001 69964;
0198833980999992002061300004-15670-038930FM-12+000599999V0209999C000010450019N0010001N1+02291+02141101891ADDAA199000091GF106991041051008001021001KA1240M+02861MA1999999101831MD1999999+0011REMSYN088AAXX  13004 83398 32594 60000 10229 20214 30183 40189 84520 333 10286 29087 55065 58001;EQDQ01  00002PRCP99
0190833980999992002061312004-15670-038930FM-12+000599999V0202301N001010075019N0040001N1+02441+02251101991ADDAY161061AY221061GF107991051051008001021001KA1240N+01961MA1999999101931MD1999999+0071MW1021REMSYN088AAXX  13124 83398 21596 72302 10244 20225 30193 40199 70262 85520 333 20196 58007 60014;
0179833980999992002061400004-15670-038930FM-12+000599999V0209999C000010450019N0010001N1+02281+99999101871ADDAA199000091GF106991041051008001041001MA1999999101811MD1999999-0021REMSYN082AAXX  14004 83398 32594 60000 10228 20231 30181 40187 84540 333 29087 55067 59002;EQDQ01  00002PRCP99
0198833980999992002061600004-15670-038930FM-12+000599999V0209999C000010450019N0010001N1+02201+01971102141ADDAA199000091GF106991041051008001021001KA1240M+02841MA1999999102081MD1999999+0081REMSYN088AAXX  16004 83398 32594 60000 10220 20197 30208 40214 84520 333 10284 29082 55064 58008;EQDQ01  00002PRCP99
0190833980999992002061612004-15670-038930FM-12+000599999V0201801N002110450019N0040001N1+02501+02191102191ADDAY161061AY221061GF105991031051008001021001KA1240N+01991MA1999999102131MD1999999+0001MW1021REMSYN088AAXX  16124 83398 21596 51804 10250 20219 30213 40219 70262 83520 333 20199 58000 60124;
0167833980999992002061618004-15670-038930FM-12+000599999V0201401N002110450019N0040001N1+02611+02111101951ADDAA199000091GF105991031051008001041001MA1999999101891MD1999999-0081REMSYN070AAXX  16184 83398 32596 51404 10261 20211 30189 40195 83540 333 59008;EQDQ01  00002PRCP99
0202833980999992002061700004-15670-038930FM-12+000599999V0209999C000010450019N0010001N1+02221+02081102051ADDAY161061AY221061GF106991041051008001021001KA1240M+02831MA1999999101991MD1999999-0091MW1021REMSYN100AAXX  17004 83398 21594 60000 10222 20208 30199 40205 70262 84520 333 10283 29085 55071 59009 60041;
0190833980999992002061712004-15670-038930FM-12+000599999V0209999C000010075019N0040001N1+02301+02161101181ADDAY161061AY221061GF108991051071008001021999KA1240N+02101MA1999999101221MD1999999-0011MW1521REMSYN088AAXX  17124 83398 21596 80000 10230 20216 30122 40118 75262 8572/ 333 20210 59001 60144;
0171833980999992002061718004-15670-038930FM-12+000599999V0200901N002110450019N0040001N1+02701+02011101881ADDAY151061AY221061GF106991041051008001021001MA1999999101821MD1999999-0071MW1021REMSYN082AAXX  17184 83398 21596 60904 10270 20201 30182 40188 70252 84520 333 59007 69921;
0179833980999992002061800004-15670-038930FM-12+000599999V0200901N001012200019N0010001N1+02351+02121102011ADDAA199000021GF104991031021008001041001KA1240M+02781MA1999999101951MD1999999-0041REMSYN088AAXX  18004 83398 32594 40902 10235 20212 30195 40201 83240 333 10278 29083 55023 59004;
0190833980999992002061812004-15660-038920FM-12+000599999V0209999C000010075019N0040001N1+02301+02161102131ADDAY161061AY221061GF107991051051008001021001KA1240N+01901MA1999999102071MD1999999-0051MW1021REMSYN088AAXX  18124 83398 21596 70000 10230 20216 30207 40213 70262 85520 333 20190 59005 60064;
0202833980999992002061900004-15660-038920FM-12+000599999V0201801N001010075019N0010001N1+02161+02041102081ADDAY161061AY221061GF108991071071008001021999KA1240M+02821MA1999999102021MD1999999+0071MW1601REMSYN100AAXX  19004 83398 21594 81802 10216 20204 30202 40208 76062 8772/ 333 10282 29090 55047 58007 60041;
0184833980999992002061912004-15660-038920FM-12+000599999V0209999C000010450019N0010001N1+02281+99999101871ADDAA199000021GF106991041051008001041001KA1240N+99999MA1999999101811REMSYN088AAXX  19124 83398 32594 60000 10228 20231 30181 40187 84540 333 20282 29087 55067 59002;EQDQ01 +02822ATMN  
0198833980999992002062000004-15660-038920FM-12+000599999V0209999C000010450019N0010001N1+02151+02001102151ADDAA199000091GF105991031031008001021001KA1240M+02741MA1999999102091MD1999999+0071REMSYN088AAXX  20004 83398 32594 50000 10215 20200 30209 40215 83320 333 10274 29086 55055 58007;EQDQ01  00002PRCP99
0190833980999992002062012004-15660-038920FM-12+000599999V0202301N001012200019N0040001N1+02271+02061102301ADDAY151061AY221061GF104991031021004501041001KA1240N+01911MA1999999102241MD1999999+0091MW1011REMSYN088AAXX  20124 83398 21496 42302 10227 20206 30224 40230 70152 83240 333 20191 58009 69984;
0171833980999992002062018004-15660-038920FM-12+000599999V0201401N003110450019N0040001N1+02561+02191101921ADDAY151061AY221061GF106991031051008001041001MA1999999101861MD1999999-0101MW1021REMSYN082AAXX  20184 83398 21596 61406 10256 20219 30186 40192 70252 83540 333 59010 69951;
0167833980999992002062118004-15670-038930FM-12+000599999V0201401N003110450019N0040001N1+02641+02091101921ADDAA199000091GF106991031051008001041001MA1999999101861MD1999999+0001REMSYN070AAXX  21184 83398 32596 61406 10264 20209 30186 40192 83540 333 58000;EQDQ01  00002PRCP99
0198833980999992002062200004-15670-038930FM-12+000599999V0202301N001010450019N0010001N1+02171+02031102151ADDAA199000091GF105991041051008001041001KA1240M+02781MA1999999102091MD1999999+0041REMSYN088AAXX  22004 83398 32594 52302 10217 20203 30209 40215 84540 333 10278 29087 55057 58004;EQDQ01  00002PRCP99
0190833980999992002062212004-15670-038930FM-12+000599999V0201801N002110450019N0040001N1+02301+02161102181ADDAY151061AY221061GF106991031051008001041011KA1240N+01901MA1999999102121MD1999999-0011MW1021REMSYN088AAXX  22124 83398 21596 61804 10230 20216 30212 40218 70252 83541 333 20190 59001 69914;
0167833980999992002062218004-15670-038930FM-12+000599999V0201801N002110450019N0040001N1+02661+02041101921ADDAA199000091GF107991041051008001041011MA1999999101861MD1999999+0001REMSYN070AAXX  22184 83398 32596 71804 10266 20204 30186 40192 84541 333 58000;EQDQ01  00002PRCP99
0198833980999992002062300004-15670-038930FM-12+000599999V0202301N001010450019N0010001N1+02161+02041102131ADDAA199000091GF107991041051008001041001KA1240M+02851MA1999999102071MD1999999-0021REMSYN088AAXX  23004 83398 32594 72302 10216 20204 30207 40213 84540 333 10285 29087 55070 59002;EQDQ01  00002PRCP99
0186833980999992002062312004-15670-038930FM-12+000599999V0202301N001010450019N0040001N1+02341+02111102221ADDAA199000091GF106991031051008001041011KA1240N+01901MA1999999102161MD1999999+0041REMSYN076AAXX  23124 83398 32596 62302 10234 20211 30216 40222 83541 333 20190 58004;EQDQ01  00002PRCP99
0183833980999992002062318004-15670-038930FM-12+000599999V0200901N004111050019N0200001N1+02271+01591101781ADDAA199000091GF106991011011004501091061MA1999999092082MD1999999-0031REMSYN070AAXX  23184 83398 32498 60908 10227 20159 39208 40178 81196 333 59003;EQDQ01+092083APOSP Q02  00002PRCP99
0190833980999992002062412004-15670-038930FM-12+000599999V0209999C000010075019N0040001N1+02121+02071102331ADDAY161061AY221061GF108991081071008001999999KA1240N+01831MA1999999102271MD1999999+0111MW1611REMSYN088AAXX  24124 83398 21596 80000 10212 20207 30227 40233 76162 887// 333 20183 58011 60114;
0171833980999992002062418004-15670-038930FM-12+000599999V0201401N002110075019N0040001N1+02571+02061102041ADDAY151061AY221061GF107991051051008001021001MA1999999101981MD1999999+0071MW1021REMSYN082AAXX  24184 83398 21596 71404 10257 20206 30198 40204 70252 85520 333 58007 69951;
0202833980999992002062500004-15670-038930FM-12+000599999V0209999C000010075019N0010001N1+02161+01991102231ADDAY151061AY221061GF107991051051008001021001KA1240M+02671MA1999999102171MD1999999+0021MW1021REMSYN100AAXX  25004 83398 21594 70000 10216 20199 30217 40223 70252 85520 333 10267 29088 55001 58002 69931;
0190833980999992002062512004-15670-038930FM-12+000599999V0202301N001010450019N0040001N1+02351+02121102331ADDAY151061AY221061GF106991031051004501041041KA1240N+01991MA1999999102271MD1999999+0001MW1011REMSYN088AAXX  25124 83398 21496 62302 10235 20212 30227 40233 70152 83544 333 20199 58000 60034;
0171833980999992002062518004-15670-038930FM-12+000599999V0201401N003110075019N0040001N1+02341+02131102131ADDAY151061AY221061GF108991051071008001021999MA1999999102071MD1999999+0091MW1501REMSYN082AAXX  25184 83398 21596 81406 10234 20213 30207 40213 75052 8572/ 333 58009 69911;
0202833980999992002062600004-15670-038930FM-12+000599999V0200901N002110042019N0010001N1+02281+02161102301ADDAY151061AY221061GF108991051071004501021999KA1240M+02751MA1999999102241MD1999999+0071MW1501REMSYN100AAXX  26004 83398 21494 80904 10228 20216 30224 40230 75052 8572/ 333 10275 29090 55036 58007 60041;
0190833980999992002062612004-15670-038930FM-12+000599999V0201801N002110075019N0040001N1+02181+02101102431ADDAY161061AY221061GF108991051071008001021999KA1240N+02001MA1999999102361MD1999999+0091MW1601REMSYN088AAXX  26124 83398 21596 81804 10218 20210 30236 40243 76062 8572/ 333 20200 58009 60114;
0190833980999992002062712004-15670-038930FM-12+000599999V0202301N002110450019N0040001N1+02381+02191102291ADDAY161061AY221061GF106991041051008001021001KA1240N+01931MA1999999102231MD1999999-0131MW1021REMSYN088AAXX  27124 83398 21596 62304 10238 20219 30223 40229 70262 84520 333 20193 59013 60034;
0171833980999992002062718004-15670-038930FM-12+000599999V0201401N002110450019N0040001N1+02641+02071102011ADDAY161061AY221061GF106991031051008001021011MA1999999101951MD1999999-0171MW1021REMSYN082AAXX  27184 83398 21596 61404 10264 20207 30195 40201 70262 83521 333 59017 60021;
0198833980999992002062800004-15670-038930FM-12+000599999V0209999C000010450019N0010001N1+02161+02081102161ADDAA199000091GF105991041051008001021001KA1240M+02751MA1999999102101MD1999999-0151REMSYN088AAXX  28004 83398 32594 50000 10216 20208 30210 40216 84520 333 10275 29088 55078 59015;EQDQ01  00002PRCP99
0190833980999992002062812004-15670-038930FM-12+000599999V0202301N001010075019N0040001N1+02121+01911102231ADDAY161061AY221061GF108991051051008001021999KA1240N+01941MA1999999102171MD1999999-0061MW1021REMSYN088AAXX  28124 83398 21596 82302 10212 20191 30217 40223 70262 8552/ 333 20194 59006 60064;
0202833980999992002062900004-15670-038930FM-12+000599999V0209999C000010450019N0010001N1+02161+02021102091ADDAY121061AY201061GF105991031071008001041001KA1240M+02741MA1999999102031MD1999999-0071MW1511REMSYN100AAXX  29004 83398 21594 50000 10216 20202 30203 40209 75120 83740 333 10274 29087 55025 59007 69941;
0198833980999992002063000004-15670-038930FM-12+000599999V0209999C000012200019N0010001N1+02121+01951102161ADDAA199000091GF104991021021008001041001KA1240M+02761MA1999999102101MD1999999+0071REMSYN088AAXX  30004 83398 32594 40000 10212 20195 30210 40216 82240 333 10276 29082 55079 58007;EQDQ01  00002PRCP99
0190833980999992002063012004-15670-038930FM-12+000599999V0201801N001010450019N0040001N1+02281+02051102341ADDAY161061AY221061GF106991021051008001041011KA1240N+01741MA1999999102281MD1999999+0121MW1021REMSYN088AAXX  30124 83398 21596 61802 10228 20205 30228 40234 70262 82541 333 20174 58012 60024;
0167833980999992002063018004-15670-038930FM-12+000599999V0201801N001010450019N0040001N1+02691+01961102081ADDAA199000091GF105991031021008001041001MA1999999102021MD1999999+0081REMSYN070AAXX  30184 83398 32596 51802 10269 20196 30202 40208 83240 333 58008;EQDQ01  00002PRCP99
0198833980999992002070100004-15670-038930FM-12+000599999V0209999C000012200019N0010001N1+02041+01921102241ADDAA199000091GF104991031011008001041001KA1240M+02731MA1999999102181MD1999999+0031REMSYN088AAXX  01004 83398 32594 40000 10204 20192 30218 40224 83140 333 10273 29084 55/// 58003;EQDQ01  00002PRCP99
0186833980999992002070112004-15670-038930FM-12+000599999V0202301N001010450019N0040001N1+02261+02031102411ADDAA199000091GF105991021051008001041001KA1240N+01801MA1999999102351MD1999999+0071REMSYN076AAXX  01124 83398 32596 52302 10226 20203 30235 40241 82540 333 20180 58007;EQDQ01  00002PRCP99
0167833980999992002070118004-15670-038930FM-12+000599999V0201401N002110450019N0040001N1+02621+02121102081ADDAA199000091GF105991031021008001041001MA1999999102021MD1999999+0001REMSYN070AAXX  01184 83398 32596 51404 10262 20212 30202 40208 83240 333 58000;EQDQ01  00002PRCP99
0198833980999992002070200004-15670-038930FM-12+000599999V0209999C000012200019N0010001N1+02141+02021102021ADDAA199000091GF104991041051008001001001KA1240M+02761MA1999999102141MD1999999-0061REMSYN088AAXX  02004 83398 32594 40000 10214 20202 30214 40202 84500 333 10276 29087 55074 59006;EQDQ01  00002PRCP99
0190833980999992002070212004-15670-038930FM-12+000599999V0201801N002110450019N0040001N1+02281+02111102301ADDAY161061AY221061GF107991041051008001021001KA1240N+01961MA1999999102241MD1999999-0111MW1021REMSYN088AAXX  02124 83398 21596 71804 10228 20211 30224 40230 70262 84520 333 20196 59011 60024;
0167833980999992002070218004-15670-038930FM-12+000599999V0201801N002110450019N0040001N1+02581+01851101961ADDAA199000091GF106991041051008001021001MA1999999101901MD1999999-0121REMSYN070AAXX  02184 83398 32596 61804 10258 20185 30190 40196 84520 333 59012;EQDQ01  00002PRCP99
0202833980999992002070300004-15670-038930FM-12+000599999V0209999C000010450019N0010001N1+02181+01951102101ADDAY151061AY221061GF107991041051004501021001KA1240M+02741MA1999999102041MD1999999-0081MW1021REMSYN100AAXX  03004 83398 21494 70000 10218 20195 30204 40210 70252 84520 333 10274 29082 55/// 59008 60011;
0190833980999992002070312004-15670-038930FM-12+000599999V0200901N002110075019N0040001N1+02421+02171102181ADDAY161061AY221061GF107991051051008001021001KA1240N+02001MA1999999102121MD1999999-0121MW1021REMSYN088AAXX  03124 83398 21596 70904 10242 20217 30212 40218 70262 85520 333 20200 59012 60124;
0171833980999992002070318004-15670-038930FM-12+000599999V0201401N002110450019N0040001N1+02541+02191101881ADDAY161061AY221061GF106991041051008001021001MA1999999101821MD1999999-0081MW1021REMSYN082AAXX  03184 83398 21596 61404 10254 20219 30182 40188 70262 84520 333 59008 60021;
0202833980999992002070400004-15670-038930FM-12+000599999V0202301N001010450019N0010001N1+02181+02041102101ADDAY151061AY221061GF106991041051008001021001KA1240M+02721MA1999999102041MD1999999+0001MW1021REMSYN100AAXX  04004 83398 21594 62302 10218 20204 30204 40210 70252 84520 333 10272 29088 55053 58000 69971;
0175833980999992002070412004-15670-038930FM-12+000599999V0201801N001010450019N0040001N1+02321+02131102181ADDAY161061AY221061GF106991041051008001021001KA1240N+01961MA1999999102121MW1021REMSYN087AAXX  04124 83398 21596 61802 10232 20213 30212 40218 70262 84520 333 20196 5800 60044;
0167833980999992002070418004-15670-038930FM-12+000599999V0201801N001010450019N0040001N1+02581+01991101991ADDAA199000091GF106991041051008001021001MA1999999101931MD1999999+0111REMSYN070AAXX  04184 83398 32596 61802 10258 20199 30193 40199 84520 333 58011;EQDQ01  00002PRCP99
0202833980999992002070500004-15670-038930FM-12+000599999V0209999C000010450019N0010001N1+02181+02041102161ADDAY161061AY221061GF106991041051008001021001KA1240M+02731MA1999999102101MD1999999+0061MW1021REMSYN100AAXX  05004 83398 21594 60000 10218 20204 30210 40216 70262 84520 333 10273 29086 55062 58006 60031;
0190833980999992002070512004-15670-038930FM-12+000599999V0202701N001010075019N0040001N1+02161+02041102201ADDAY161061AY221061GF107991051051008001021001KA1240N+01941MA1999999102141MD1999999+0021MW1021REMSYN088AAXX  05124 83398 21596 72702 10216 20204 30214 40220 70262 85520 333 20194 58002 60104;
0171833980999992002070518004-15670-038930FM-12+000599999V0200901N002110450019N0040001N1+02341+02031101921ADDAY151061AY221061GF106991041051008001021001MA1999999101861MD1999999-0091MW1021REMSYN082AAXX  05184 83398 21596 60904 10234 20203 30186 40192 70252 84520 333 59009 69971;
0202833980999992002070600004-15670-038930FM-12+000599999V0201801N001010450019N0010001N1+02171+02021102071ADDAY151061AY221061GF106991041051004501021001KA1240M+02681MA1999999102011MD1999999-0091MW1021REMSYN100AAXX  06004 83398 21494 61802 10217 20202 30201 40207 70252 84520 333 10268 29090 55026 59009 60011;
0190833980999992002070612004-15670-038930FM-12+000599999V0202301N001010450019N0040001N1+02221+02051102111ADDAY161061AY221061GF106991041051008001021001KA1240N+01941MA1999999102051MD1999999-0091MW1021REMSYN088AAXX  06124 83398 21596 62302 10222 20205 30205 40211 70262 84520 333 20194 59009 60094;
0167833980999992002070618004-15670-038930FM-12+000599999V0201401N002110450019N0040001N1+02581+01941101801ADDAA199000091GF106991041051008001021001MA1999999101741MD1999999-0101REMSYN070AAXX  06184 83398 32596 61404 10258 20194 30174 40180 84520 333 59010;EQDQ01  00002PRCP99
0198833980999992002070700004-15670-038930FM-12+000599999V0209999C000010450019N0010001N1+02031+01881101901ADDAA199000091GF105991031051008001041001KA1240M+02701MA1999999101841MD1999999-0171REMSYN088AAXX  07004 83398 32594 50000 10203 20188 30184 40190 83540 333 10270 29085 55072 59017;EQDQ01  00002PRCP99
0190833980999992002070712004-15670-038930FM-12+000599999V0202701N001010450019N0040001N1+02161+02021102111ADDAY151061AY221061GF106991041051008001021001KA1240N+01821MA1999999102051MD1999999+0001MW1021REMSYN088AAXX  07124 83398 21596 62702 10216 20202 30205 40211 70252 84520 333 20182 58000 69924;
0167833980999992002070718004-15670-038930FM-12+000599999V0200501N002110450019N0040001N1+02561+01931101781ADDAA199000091GF105991031051008001041001MA1999999101721MD1999999-0021REMSYN070AAXX  07184 83398 32596 50504 10256 20193 30172 40178 83540 333 59002;EQDQ01  00002PRCP99
0198833980999992002070800004-15670-038930FM-12+000599999V0209999C000012200019N0010001N1+02101+01931101831ADDAA199000091GF104991031021008001041001KA1240M+02681MA1999999101771MD1999999-0071REMSYN088AAXX  08004 83398 32594 40000 10210 20193 30177 40183 83240 333 10268 29085 55046 59007;EQDQ01  00002PRCP99
0186833980999992002070812004-15670-038930FM-12+000599999V0202701N001010450019N0040001N1+02361+02111101901ADDAA199000091GF106991031021008001041001KA1240N+01741MA1999999101841MD1999999-0211REMSYN076AAXX  08124 83398 32596 62702 10236 20211 30184 40190 83240 333 20174 59021;EQDQ01  00002PRCP99
0167833980999992002070818004-15670-038930FM-12+000599999V0203601N003110450019N0040001N1+02641+02071101591ADDAA199000091GF106991031021008001041011MA1999999101541MD1999999-0181REMSYN070AAXX  08184 83398 32596 63606 10264 20207 30154 40159 83241 333 59018;EQDQ01  00002PRCP99
0198833980999992002070900004-15670-038930FM-12+000599999V0209999C000012200019N0010001N1+02111+01971101881ADDAA199000091GF103991031021008001001001KA1240M+02741MA1999999101821MD1999999-0051REMSYN088AAXX  09004 83398 32594 30000 10211 20197 30182 40188 83200 333 10274 29085 55084 59005;EQDQ01  00002PRCP99
0186833980999992002070912004-15670-038930FM-12+000599999V0209999C000010450019N0040001N1+02341+02151102151ADDAA199000091GF105991031021008001041001KA1240N+01751MA1999999102091MD1999999+0151REMSYN076AAXX  09124 83398 32596 50000 10234 20215 30209 40215 83240 333 20175 58015;EQDQ01  00002PRCP99
0167833980999992002070918004-15670-038930FM-12+000599999V0200901N002111050019N0040001N1+02621+01961101801ADDAA199000091GF105991021021008001041011MA1999999101741MD1999999+0201REMSYN070AAXX  09184 83398 32596 50904 10262 20196 30174 40180 82241 333 58020;EQDQ01  00002PRCP99
0198833980999992002071000004-15670-038930FM-12+000599999V0209999C000012200019N0010001N1+02301+02051102131ADDAA199000091GF102991021021008001001001KA1240M+02741MA1999999102071MD1999999+0251REMSYN088AAXX  10004 83398 32594 20000 10230 20205 30207 40213 82200 333 10274 29082 55083 58025;EQDQ01  00002PRCP99
0186833980999992002071012004-15670-038930FM-12+000599999V0202301N001010450019N0040001N1+02241+02031102281ADDAA199000091GF106991041051008001041001KA1240N+01731MA1999999102221MD1999999+0131REMSYN076AAXX  10124 83398 32596 62302 10224 20203 30222 40228 84540 333 20173 58013;EQDQ01  00002PRCP99
0167833980999992002071018004-15670-038930FM-12+000599999V0201401N003110450019N0040001N1+02641+01981101921ADDAA199000091GF106991021051008001041011MA1999999101871MD1999999+0131REMSYN070AAXX  10184 83398 32596 61406 10264 20198 30187 40192 82541 333 58013;EQDQ01  00002PRCP99
0198833980999992002071100004-15670-038930FM-12+000599999V0209999C000010075019N0010001N1+02211+02071102141ADDAA199000091GF107991051051008001021001KA1240M+02741MA1999999102081MD1999999+0011REMSYN088AAXX  11004 83398 32594 70000 10221 20207 30208 40214 85520 333 10274 29085 55082 58001;EQDQ01  00002PRCP99
0190833980999992002071112004-15670-038930FM-12+000599999V0202301N001010075019N0040001N1+02361+02131102201ADDAY161061AY221061GF107991051051008001021001KA1240N+01941MA1999999102141MD1999999-0081MW1021REMSYN088AAXX  11124 83398 21596 72302 10236 20213 30214 40220 70262 85520 333 20194 59008 60024;
0167833980999992002071118004-15670-038930FM-12+000599999V0201401N002110450019N0040001N1+02621+02031101871ADDAA199000091GF106991031051008001041011MA1999999101811MD1999999-0061REMSYN070AAXX  11184 83398 32596 61404 10262 20203 30181 40187 83541 333 59006;EQDQ01  00002PRCP99
0198833980999992002071200004-15670-038930FM-12+000599999V0209999C000012200019N0010001N1+02301+02031101961ADDAA199000091GF102991021021008001001001KA1240M+02741MA1999999101901MD1999999-0181REMSYN088AAXX  12004 83398 32594 20000 10230 20203 30190 40196 82200 333 10274 29084 55060 59018;EQDQ01  00002PRCP99
0190833980999992002071212004-15670-038930FM-12+000599999V0202301N001010450019N0040001N1+02221+02051102011ADDAY161061AY221061GF106991041051008001041001KA1240N+01781MA1999999101951MD1999999-0191MW1021REMSYN088AAXX  12124 83398 21596 62302 10222 20205 30195 40201 70262 84540 333 20178 59019 60014;
0167833980999992002071218004-15670-038930FM-12+000599999V0200901N002110450019N0040001N1+02621+01961101681ADDAA199000091GF105991031021008001041001MA1999999101621MD1999999-0191REMSYN070AAXX  12184 83398 32596 50904 10262 20196 30162 40168 83240 333 59019;EQDQ01  00002PRCP99
0198833980999992002071300004-15670-038930FM-12+000599999V0209999C000012200019N0010001N1+02191+02041101761ADDAA199000091GF103991031011008001001001KA1240M+02741MA1999999101701MD1999999-0201REMSYN088AAXX  13004 83398 32594 30000 10219 20204 30170 40176 83100 333 10274 29085 55074 59020;EQDQ01  00002PRCP99
0186833980999992002071312004-15670-038930FM-12+000599999V0202301N001010450019N0040001N1+02381+02131101811ADDAA199000091GF106991041051008001041001KA1240N+01821MA1999999101751MD1999999-0201REMSYN076AAXX  13124 83398 32596 62302 10238 20213 30175 40181 84540 333 20182 59020;EQDQ01  00002PRCP99
0167833980999992002071318004-15670-038930FM-12+000599999V0200501N002110450019N0040001N1+02641+02181101431ADDAA199000091GF106991021051008001041011MA1999999101381MD1999999-0241REMSYN070AAXX  13184 83398 32596 60504 10264 20218 30138 40143 82541 333 59024;EQDQ01  00002PRCP99
0198833980999992002071400004-15670-038930FM-12+000599999V0203601N001012200019N0010001N1+02481+02251101661ADDAA199000091GF102991021021008001001001KA1240M+02821MA1999999101601MD1999999-0101REMSYN088AAXX  14004 83398 32594 23602 10248 20225 30160 40166 82200 333 10282 29084 55082 59010;EQDQ01  00002PRCP99
0186833980999992002071412004-15670-038930FM-12+000599999V0202301N002110450019N0040001N1+02421+02191101811ADDAA199000091GF106991031021008001041011KA1240N+01961MA1999999101751MD1999999+0001REMSYN076AAXX  14124 83398 32596 62304 10242 20219 30175 40181 83241 333 20196 58000;EQDQ01  00002PRCP99
0167833980999992002071418004-15670-038930FM-12+000599999V0201401N003110450019N0040001N1+02601+02271101541ADDAA199000091GF106991041051008001041001MA1999999101491MD1999999+0111REMSYN070AAXX  14184 83398 32596 61406 10260 20227 30149 40154 84540 333 58011;EQDQ01  00002PRCP99
0198833980999992002071500004-15670-038930FM-12+000599999V0201401N001010450019N0010001N1+02321+02131101941ADDAA199000091GF105991031051008001021001KA1240M+02871MA1999999101881MD1999999+0281REMSYN088AAXX  15004 83398 32594 51402 10232 20213 30188 40194 83520 333 10287 29087 55069 58028;EQDQ01  00002PRCP99
0190833980999992002071512004-15670-038930FM-12+000599999V0203201N001010042019N0040001N1+02261+02051102061ADDAY151061AY221061GF108991051051004501021999KA1240N+02151MA1999999102001MD1999999+0251MW1501REMSYN088AAXX  15124 83398 21496 83202 10226 20205 30200 40206 75052 8552/ 333 20215 58025 60064;
0171833980999992002071618004-15670-038930FM-12+000599999V0200901N002110042019N0040001N1+02501+02311101951ADDAY151061AY221061GF108991051051004501021999MA1999999101891MD1999999+0131MW1021REMSYN082AAXX  16184 83398 21496 80904 10250 20231 30189 40195 70252 8552/ 333 58013 60021;
0198833980999992002071700004-15670-038930FM-12+000599999V0209999C000010450019N0010001N1+02261+02091102061ADDAA199000091GF107991041051008001021001KA1240M+02601MA1999999102001MD1999999+0131REMSYN088AAXX  17004 83398 32594 70000 10226 20209 30200 40206 84520 333 10260 29088 55000 58013;EQDQ01  00002PRCP99
0162833980999992002071712004-15670-038930FM-12+000599999V0201801N001010450019N0040001N1+02361+02221102101ADDGF105991031021008001041011KA1240N+02031MA1999999102041MD1999999-0081REMSYN082AAXX  17124 83398 22596 51802 10236 20222 30204 40210 83241 333 20203 59008 60024;
0167833980999992002071718004-15670-038930FM-12+000599999V0200501N003110450019N0040001N1+02521+02151101851ADDAA199000091GF106991041051008001021001MA1999999101791MD1999999-0101REMSYN070AAXX  17184 83398 32596 60506 10252 20215 30179 40185 84520 333 59010;EQDQ01  00002PRCP99
0198833980999992002071800004-15670-038930FM-12+000599999V0209999C000012200019N0010001N1+02181+02031101941ADDAA199000091GF104991021021008001051011KA1240M+02671MA1999999101881MD1999999-0121REMSYN088AAXX  18004 83398 32594 40000 10218 20203 30188 40194 82251 333 10267 29088 55025 59012;EQDQ01  00002PRCP99
0186833980999992002071812004-15670-038930FM-12+000599999V0202301N001012200019N0040001N1+02361+02111102121ADDAA199000091GF104991021021008001041011KA1240N+01851MA1999999102061MD1999999+0021REMSYN076AAXX  18124 83398 32596 42302 10236 20211 30206 40212 82241 333 20185 58002;EQDQ01  00002PRCP99
0171833980999992002071818004-15670-038930FM-12+000599999V0202301N002110450019N0040001N1+02291+02151101931ADDAY151061AY221061GF107991041051004501021001MA1999999101821MD1999999+0081MW1501REMSYN082AAXX  18184 83398 21496 72304 10229 20215 30182 40193 75052 84520 333 58008 60011;
0198833980999992002071900004-15670-038930FM-12+000599999V0202301N001010075019N0010001N1+02121+01981102131ADDAA199000021GF108991999051008001051021KA1240M+02751MA1999999102071MD1999999+0091REMSYN088AAXX  19004 83398 32594 82302 10212 20198 30207 40213 88552 333 10275 29091 55063 58009;EQDQ01+000082SCOTLC
0190833980999992002071912004-15670-038930FM-12+000599999V0202301N002110450019N0040001N1+02181+01971102161ADDAY151061AY221061GF105991031021004501051011KA1240N+01831MA1999999102101MD1999999+0041MW1011REMSYN088AAXX  19124 83398 21496 52304 10218 20197 30210 40216 70152 83251 333 20183 58004 60024;
0171833980999992002071918004-15670-038930FM-12+000599999V0202301N002110450019N0040001N1+02381+01821101921ADDAY151061AY221061GF105991031051004501041001MA1999999101861MD1999999-0011MW1011REMSYN082AAXX  19184 83398 21496 52304 10238 20182 30186 40192 70152 83540 333 59001 69911;
0202833980999992002072000004-15670-038930FM-12+000599999V0202301N002110450019N0010001N1+02081+01951102081ADDAY151061AY221061GF105991031051004501041001KA1240M+02551MA1999999102031MD1999999-0041MW1011REMSYN100AAXX  20004 83398 21494 52304 10208 20195 30203 40208 70152 83540 333 10255 29087 55014 59004 69931;
0190833980999992002072012004-15670-038930FM-12+000599999V0201801N002110450019N0040001N1+02281+01941102161ADDAY151061AY221061GF106991031051008001041001KA1240N+01871MA1999999102131MD1999999+0031MW1021REMSYN088AAXX  20124 83398 21596 61804 10228 20194 30213 40216 70252 83540 333 20187 58003 69994;
0167833980999992002072018004-15670-038930FM-12+000599999V0201801N002111050019N0040001N1+02561+01801101881ADDAA199000091GF105991021051008001041011MA1999999101821MD1999999-0041REMSYN070AAXX  20184 83398 32596 51804 10256 20180 30182 40188 82541 333 59004;EQDQ01  00002PRCP99
0198833980999992002072100004-15670-038930FM-12+000599999V0209999C000012200019N0010001N1+02001+01851102051ADDAA199000091GF104991021011008001041001KA1240M+02681MA1999999101991MD1999999-0041REMSYN088AAXX  21004 83398 32594 40000 10200 20185 30199 40205 82140 333 10268 29082 55078 59004;EQDQ01  00002PRCP99
0190833980999992002072112004-15670-038930FM-12+000599999V0201801N003110075019N0040001N1+02101+01951102091ADDAY161061AY221061GF108991051071008001021999KA1240N+01881MA1999999102031MD1999999-0101MW1611REMSYN088AAXX  21124 83398 21596 81806 10210 20195 30203 40209 76162 8572/ 333 20188 59010 60114;
0171833980999992002072118004-15670-038930FM-12+000599999V0201401N002110042019N0040001N1+02241+02101101741ADDAY161061AY221061GF108991061071004501021999MA1999999101681MD1999999-0141MW1601REMSYN082AAXX  21184 83398 21496 81404 10224 20210 30168 40174 76062 8672/ 333 59014 60111;
0190833980999992002072312004-15670-038930FM-12+000599999V0202301N001012200019N0040001N1+02311+02151101971ADDAY151061AY221061GF102991021011004501001001KA1240N+01991MA1999999101911MD1999999-0081MW1011REMSYN088AAXX  23124 83398 21496 22302 10231 20215 30191 40197 70152 82100 333 20199 59008 60044;
0167833980999992002072318004-15670-038930FM-12+000599999V0200901N002112200019N0040001N1+02591+02201101761ADDAA199000091GF103991021021008001041001MA1999999101701MD1999999+0061REMSYN070AAXX  23184 83398 32596 30904 10259 20220 30170 40176 82240 333 58006;EQDQ01  00002PRCP99
0198833980999992002072400004-15670-038930FM-12+000599999V0209999C000012200019N0010001N1+02211+02021101921ADDAA199000091GF103991021011008001041001KA1240M+02711MA1999999101861MD1999999-0061REMSYN088AAXX  24004 83398 32594 30000 10221 20202 30186 40192 82140 333 10271 29087 55077 59006;EQDQ01  00002PRCP99
0190833980999992002072412004-15670-038930FM-12+000599999V0209999C000010042019N0040001N1+02191+02051101991ADDAY151061AY221061GF108991051071004501021999KA1240N+01911MA1999999101931MD1999999-0011MW1501REMSYN088AAXX  24124 83398 21496 80000 10219 20205 30193 40199 75052 8572/ 333 20191 59001 60034;
0171833980999992002072418004-15670-038930FM-12+000599999V0200501N001010075019N0040001N1+02441+02091101901ADDAY151061AY221061GF107991051051008001021001MA1999999101841MD1999999+0141MW1021REMSYN082AAXX  24184 83398 21596 70502 10244 20209 30184 40190 70252 85520 333 58014 69941;
0179833980999992002072500004-15670-038930FM-12+000599999V0209999C000012200019N0010001N1+02151+02011102061ADDAA199000021GF102991021021008001001001KA1240M+02551MA1999999102001MD1999999+0141REMSYN088AAXX  25004 83398 32594 20000 10215 20201 30200 40206 82200 333 10255 29089 55025 58014;
0190833980999992002072512004-15670-038930FM-12+000599999V0202301N002110042019N0040001N1+02171+02031102661ADDAY151061AY221061GF108991051071004501021999KA1240N+01971MA1999999102201MD1999999+0271MW1501REMSYN088AAXX  25124 83398 21496 82304 10217 20203 30220 40266 75052 8572/ 333 20197 58027 69994;
0171833980999992002072518004-15670-038930FM-12+000599999V0201801N002112200019N0040001N1+02601+02031101951ADDAY151061AY221061GF104991031021004501041001MA1999999101891MD1999999+0051MW1011REMSYN082AAXX  25184 83398 21496 41804 10260 20203 30189 40195 70152 83240 333 58005 69911;
0179833980999992002072600004-15670-038930FM-12+000599999V0209999C000012200019N0010001N1+02171+02001102211ADDAA199000021GF104991041011008001001001KA1240M+02741MA1999999102151MD1999999+0151REMSYN088AAXX  26004 83398 32594 40000 10217 20200 30215 40221 84100 333 10274 29086 55056 58015;
0190833980999992002072612004-15670-038930FM-12+000599999V0200501N001010042019N0040001N1+02181+02041102201ADDAY151061AY221061GF107991051071004501021001KA1240N+01791MA1999999102141MD1999999-0061MW1501REMSYN088AAXX  26124 83398 21496 70502 10218 20204 30214 40220 75052 85720 333 20179 59006 60034;
0148833980999992002072618004-15670-038930FM-12+000599999V0200901N002110450019N0040001N1+02601+02011101921ADDAA199000021GF105991031021008001041001MA1999999101861MD1999999-0031REMSYN070AAXX  26184 83398 32596 50904 10260 20201 30186 40192 83240 333 59003;
0179833980999992002072700004-15670-038930FM-12+000599999V0209999C000010450019N0010001N1+02181+01971102081ADDAA199000021GF105991021021008001051001KA1240M+02681MA1999999102021MD1999999-0131REMSYN088AAXX  27004 83398 32594 50000 10218 20197 30202 40208 82250 333 10268 29085 55031 59013;
0190833980999992002072712004-15670-038930FM-12+000599999V0209999C000010075019N0040001N1+02161+02081102131ADDAY161061AY221061GF107991051051008001021001KA1240N+01821MA1999999102071MD1999999-0071MW1501REMSYN088AAXX  27124 83398 21596 70000 10216 20208 30207 40213 75062 85520 333 20182 59007 60014;
0171833980999992002072718004-15670-038930FM-12+000599999V0200501N002110450019N0040001N1+02561+02061101931ADDAY151061AY221061GF106991041051008001021001MA1999999101871MD1999999+0011MW1021REMSYN082AAXX  27184 83398 21596 60504 10256 20206 30187 40193 70252 84520 333 58001 69911;
0179833980999992002072800004-15670-038930FM-12+000599999V0200501N001010450019N0010001N1+02101+01951102011ADDAA199000021GF105991031011008001041001KA1240M+02661MA1999999101951MD1999999-0071REMSYN088AAXX  28004 83398 32594 50502 10210 20195 30195 40201 83140 333 10266 29088 55018 59007;
0162833980999992002072812004-15670-038930FM-12+000599999V0209999C000010450019N0040001N1+02381+02151102041ADDGF105991031021008001041001KA1240N+01801MA1999999101981MD1999999-0091REMSYN082AAXX  28124 83398 22596 50000 10238 20215 30198 40204 83240 333 20180 59009 69914;
0167833980999992002072818004-15670-038930FM-12+000599999V0200501N003110450019N0040001N1+02641+02231101781ADDAA199000091GF105991041021008001041001MA1999999101721MD1999999-0151REMSYN070AAXX  28184 83398 32596 50506 10264 20223 30172 40178 84240 333 59015;EQDQ01  00002PRCP99
0198833980999992002072900004-15670-038930FM-12+000599999V0209999C000012200019N0010001N1+02481+02191101931ADDAA199000091GF104991041011008001001001KA1240M+02781MA1999999101871MD1999999-0081REMSYN088AAXX  29004 83398 32594 40000 10248 20219 30187 40193 84100 333 10278 29083 55078 59008;EQDQ01  00002PRCP99
0190833980999992002072912004-15670-038930FM-12+000599999V0201401N002110450019N0040001N1+02601+02291102231ADDAY151061AY221061GF105991031021004501041001KA1240N+02021MA1999999102171MD1999999+0191MW1011REMSYN088AAXX  29124 83398 21496 51404 10260 20229 30217 40223 70152 83240 333 20202 58019 60014;
0171833980999992002072918004-15670-038930FM-12+000599999V0200501N002110042019N0040001N1+02361+02071102101ADDAY151061AY221061GF108991051071004501021999MA1999999102041MD1999999+0321MW1501REMSYN082AAXX  29184 83398 21496 80504 10236 20207 30204 40210 75052 8572/ 333 58032 60021;
0190833980999992002073012004-15670-038930FM-12+000599999V0201801N002110450019N0040001N1+02561+01901102411ADDAY161061AY221061GF105991031021004501041001KA1240N+02161MA1999999102351MD1999999+0181MW1011REMSYN088AAXX  30124 83398 21496 51804 10256 20190 30235 40241 70162 83240 333 20216 58018 60234;
0167833980999992002073018004-15670-038930FM-12+000599999V0201401N002110450019N0040001N1+02551+01431102261ADDAA199000091GF105991031021008001041011MA1999999102201MD1999999+0161REMSYN070AAXX  30184 83398 32596 51404 10255 20143 30220 40226 83241 333 58016;EQDQ01  00002PRCP99
0198833980999992002073100004-15670-038930FM-12+000599999V0202301N002112200019N0010001N1+02231+01891102221ADDAA199000091GF104991041011008001001001KA1240M+02701MA1999999102161MD1999999-0111REMSYN088AAXX  31004 83398 32594 42304 10223 20189 30216 40222 84100 333 10270 29072 55077 59011;EQDQ01  00002PRCP99
0190833980999992002073112004-15670-038930FM-12+000599999V0201801N002110450019N0040001N1+02211+02041102201ADDAY151061AY221061GF107991041051004501021001KA1240N+01911MA1999999102141MD1999999-0211MW1011REMSYN088AAXX  31124 83398 21496 71804 10221 20204 30214 40220 70152 84520 333 20191 59021 69974;
0171833980999992002073118004-15670-038930FM-12+000599999V0201401N002110042019N0040001N1+02331+02171101851ADDAY161061AY221061GF108991061071004501021999MA1999999101791MD1999999-0411MW1601REMSYN082AAXX  31184 83398 21496 81404 10233 20217 30179 40185 76062 8672/ 333 59041 60191;
0190833980999992002080112004-15670-038930FM-12+000599999V0202301N001012200019N0040001N1+02381+02211101901ADDAY151061AY221061GF104991031021004501041001KA1240N+01941MA1999999101841MD1999999-0301MW1011REMSYN088AAXX  01124 83398 21496 42302 10238 20221 30184 40190 70152 83240 333 20194 59030 60254;
0167833980999992002080118004-15670-038930FM-12+000599999V0200501N002112200019N0040001N1+02681+02071101611ADDAA199000091GF103991021021008001041001MA1999999101551MD1999999-0241REMSYN070AAXX  01184 83398 32596 30504 10268 20207 30155 40161 82240 333 59024;EQDQ01  00002PRCP99
0198833980999992002080200004-15670-038930FM-12+000599999V0209999C000012200019N0010001N1+02191+01961101881ADDAA199000091GF103991021021008001041001KA1240M+02671MA1999999101821MD1999999-0131REMSYN088AAXX  02004 83398 32594 30000 10219 20196 30182 40188 82240 333 10267 29084 55084 59013;EQDQ01  00002PRCP99
0137833980999992002080218004-15670-038930FM-12+000599999V0200501N002112200019N0040001N1+02691+99999999999ADDAA199000091GF103991999999008001999999REMSYN069AAXX  02184 83398 32596 30504 10269 2020 30179 40185 82140 333 58024;EQDQ01  00002PRCP99
0198833980999992002080300004-15670-038930FM-12+000599999V0209999C000012200019N0010001N1+02381+02011102101ADDAA199000091GF102991021011008001001001KA1240M+02721MA1999999102041MD1999999+0221REMSYN088AAXX  03004 83398 32594 20000 10238 20201 30204 40210 82100 333 10272 29078 55086 58022;EQDQ01  00002PRCP99
0186833980999992002080312004-15670-038930FM-12+000599999V0202301N001010450019N0040001N1+02321+02091102191ADDAA199000091GF106991031051008001041001KA1240N+01701MA1999999102131MD1999999+0131REMSYN076AAXX  03124 83398 32596 62302 10232 20209 30213 40219 83540 333 20170 58013;EQDQ01  00002PRCP99
0167833980999992002080318004-15670-038930FM-12+000599999V0200501N003110450019N0040001N1+02581+01871101881ADDAA199000091GF105991021051008001041001MA1999999101821MD1999999+0031REMSYN070AAXX  03184 83398 32596 50506 10258 20187 30182 40188 82540 333 58003;EQDQ01  00002PRCP99
0198833980999992002080400004-15670-038930FM-12+000599999V0209999C000012200019N0010001N1+02201+01901102051ADDAA199000091GF103991031011008001001001KA1240M+02721MA1999999101991MD1999999-0051REMSYN088AAXX  04004 83398 32594 30000 10220 20190 30199 40205 83100 333 10272 29080 55086 59005;EQDQ01  00002PRCP99
0186833980999992002080412004-15670-038930FM-12+000599999V0209999C000012200019N0040001N1+02341+02071102061ADDAA199000091GF104991021021008001041001KA1240N+01661MA1999999102001MD1999999-0131REMSYN076AAXX  04124 83398 32596 40000 10234 20207 30200 40206 82240 333 20166 59013;EQDQ01  00002PRCP99
0167833980999992002080418004-15670-038930FM-12+000599999V0200501N003112200019N0040001N1+02581+02061101741ADDAA199000091GF104991021021008001041001MA1999999101681MD1999999-0141REMSYN070AAXX  04184 83398 32596 40506 10258 20206 30168 40174 82240 333 59014;EQDQ01  00002PRCP99
0198833980999992002080500004-15670-038930FM-12+000599999V0200901N002112200019N0040001N1+02401+02111101891ADDAA199000091GF103991031011008001001001KA1240M+02681MA1999999101831MD1999999-0161REMSYN088AAXX  05004 83398 32596 30904 10240 20211 30183 40189 83100 333 10268 29082 55086 59016;EQDQ01  00002PRCP99
0186833980999992002080512004-15670-038930FM-12+000599999V0209999C000012200019N0040001N1+02471+02201101941ADDAA199000091GF104991021021008001041001KA1240N+01841MA1999999101881MD1999999-0121REMSYN076AAXX  05124 83398 32596 40000 10247 20220 30188 40194 82240 333 20184 59012;EQDQ01  00002PRCP99
0167833980999992002080518004-15670-038930FM-12+000599999V0203601N002112200019N0040001N1+02681+02131101591ADDAA199000091GF104991031011008001041001MA1999999101541MD1999999-0141REMSYN070AAXX  05184 83398 32596 43604 10268 20213 30154 40159 83140 333 59014;EQDQ01  00002PRCP99
0198833980999992002080600004-15670-038930FM-12+000599999V0200501N002112200019N0010001N1+02461+02091101831ADDAA199000091GF103991031011008001001001KA1240M+02761MA1999999101771MD1999999-0061REMSYN088AAXX  06004 83398 32594 30504 10246 20209 30177 40183 83100 333 10276 29079 55081 59006;EQDQ01  00002PRCP99
0186833980999992002080612004-15670-038930FM-12+000599999V0209999C000012200019N0040001N1+02451+02041102011ADDAA199000091GF102991021021008001001001KA1240N+01821MA1999999101951MD1999999+0071REMSYN076AAXX  06124 83398 32596 20000 10245 20204 30195 40201 82200 333 20182 58007;EQDQ01  00002PRCP99
0167833980999992002080618004-15670-038930FM-12+000599999V0200501N003112200019N0040001N1+02661+01921101691ADDAA199000091GF104991031021008001041001MA1999999101631MD1999999+0111REMSYN070AAXX  06184 83398 32596 40506 10266 20192 30163 40169 83240 333 58011;EQDQ01  00002PRCP99
0198833980999992002080700004-15670-038930FM-12+000599999V0209999C000012200019N0010001N1+02361+02091101991ADDAA199000091GF102991021011008001001001KA1240M+02741MA1999999101931MD1999999+0161REMSYN088AAXX  07004 83398 32594 20000 10236 20209 30193 40199 82100 333 10274 29078 55084 58016;EQDQ01  00002PRCP99
0190833980999992002080712004-15670-038930FM-12+000599999V0209999C000010450019N0040001N1+02421+02251102131ADDAY151061AY221061GF105991031051004501041001KA1240N+01851MA1999999102071MD1999999+0121MW1011REMSYN088AAXX  07124 83398 21496 50000 10242 20225 30207 40213 70152 83540 333 20185 58012 69954;
0167833980999992002080718004-15670-038930FM-12+000599999V0200901N001012200019N0040001N1+02661+02111101941ADDAA199000091GF104991031021008001041001MA1999999101881MD1999999+0251REMSYN070AAXX  07184 83398 32596 40902 10266 20211 30188 40194 83240 333 58025;EQDQ01  00002PRCP99
0198833980999992002080800004-15670-038930FM-12+000599999V0202301N001012200019N0010001N1+02211+01981102081ADDAA199000091GF103991031011008001001001KA1240M+02741MA1999999102021MD1999999+0091REMSYN088AAXX  08004 83398 32594 32302 10221 20198 30202 40208 83100 333 10274 29084 55070 58009;EQDQ01  00002PRCP99
0162833980999992002080812004-15670-038930FM-12+000599999V0200901N001010450019N0040001N1+02421+02051102231ADDGF105991021021008001051001KA1240N+01821MA1999999102171MD1999999+0101REMSYN082AAXX  08124 83398 22596 50902 10242 20205 30217 40223 82250 333 20182 58010 69944;
0167833980999992002080818004-15670-038930FM-12+000599999V0201801N002110450019N0040001N1+02531+02081101941ADDAA199000091GF105991021021008001051001MA1999999101881MD1999999+0001REMSYN070AAXX  08184 83398 32596 51804 10253 20208 30188 40194 82250 333 58000;EQDQ01  00002PRCP99
0198833980999992002080900004-15670-038930FM-12+000599999V0201801N001012200019N0010001N1+02171+02021102161ADDAA199000091GF104991041021008001001001KA1240M+02741MA1999999102101MD1999999+0081REMSYN088AAXX  09004 83398 32594 41802 10217 20202 30210 40216 84200 333 10274 29085 55054 58008;EQDQ01  00002PRCP99
0190833980999992002080912004-15670-038930FM-12+000599999V0201801N001010042019N0040001N1+02251+02081102171ADDAY161061AY221061GF108991051051004501021999KA1240N+02021MA1999999102111MD1999999-0061MW1601REMSYN088AAXX  09124 83398 21496 81802 10225 20208 30211 40217 76062 8552/ 333 20202 59006 60104;
0148833980999992002080918004-15670-038930FM-12+000599999V0200901N003110075019N0040001N1+02621+02231101941ADDAA199000021GF107991051051008001021001MA1999999101881MD1999999+0001REMSYN070AAXX  09184 83398 32596 70906 10262 20223 30188 40194 85520 333 58000;
0179833980999992002081000004-15670-038930FM-12+000599999V0209999C000012200019N0010001N1+02361+02071102151ADDAA199000021GF104991041051008001001001KA1240M+02681MA1999999102091MD1999999-0011REMSYN088AAXX  10004 83398 32594 40000 10236 20207 30209 40215 84500 333 10268 29087 55029 59001;
0190833980999992002081012004-15670-038930FM-12+000599999V0209999C000010450019N0040001N1+02261+02091102171ADDAY161061AY221061GF107991041051008001021001KA1240N+01971MA1999999102111MD1999999+0001MW1021REMSYN088AAXX  10124 83398 21596 70000 10226 20209 30211 40217 70262 84520 333 20197 58000 60034;
0167833980999992002081018004-15670-038930FM-12+000599999V0200501N003110450019N0040001N1+02641+02001101921ADDAA199000091GF106991031051008001021001MA1999999101861MD1999999-0021REMSYN070AAXX  10184 83398 32596 60506 10264 20200 30186 40192 83520 333 59002;EQDQ01  00002PRCP99
0198833980999992002081100004-15670-038930FM-12+000599999V0209999C000012200019N0010001N1+02231+02001102051ADDAA199000091GF102991021011008001001001KA1240M+02731MA1999999101991MD1999999-0101REMSYN088AAXX  11004 83398 32594 20000 10223 20200 30199 40205 82100 333 10273 29083 55056 59010;EQDQ01  00002PRCP99
0190833980999992002081112004-15670-038930FM-12+000599999V0202301N001010450019N0040001N1+02201+02061102201ADDAY151061AY221061GF107991041051008001021001KA1240N+01741MA1999999102141MD1999999+0031MW1021REMSYN088AAXX  11124 83398 21596 72302 10220 20206 30214 40220 70252 84520 333 20174 58003 69914;
0167833980999992002081118004-15670-038930FM-12+000599999V0200901N001011050019N0040001N1+02611+02001101961ADDAA199000091GF105991021021008001041041MA1999999101901MD1999999+0041REMSYN070AAXX  11184 83398 32596 50902 10261 20200 30190 40196 82244 333 58004;EQDQ01  00002PRCP99
0198833980999992002081200004-15670-038930FM-12+000599999V0209999C000012200019N0010001N1+02331+02101102131ADDAA199000091GF102991021021008001001001KA1240M+02671MA1999999102071MD1999999+0081REMSYN088AAXX  12004 83398 32594 20000 10233 20210 30207 40213 82200 333 10267 29084 55044 58008;EQDQ01  00002PRCP99
0186833980999992002081212004-15670-038930FM-12+000599999V0201801N001012200019N0040001N1+02461+02131102231ADDAA199000091GF103991021021008001041001KA1240N+01831MA1999999102171MD1999999+0031REMSYN076AAXX  12124 83398 32596 31802 10246 20213 30217 40223 82240 333 20183 58003;EQDQ01  00002PRCP99
0167833980999992002081218004-15670-038930FM-12+000599999V0200901N003112200019N0040001N1+02601+01891101951ADDAA199000091GF104991031021008001041001MA1999999101891MD1999999-0011REMSYN070AAXX  12184 83398 32596 40906 10260 20189 30189 40195 83240 333 59001;EQDQ01  00002PRCP99
0198833980999992002081300004-15670-038930FM-12+000599999V0209999C000012200019N0010001N1+02201+01971102151ADDAA199000091GF103991031011008001001001KA1240M+02731MA1999999102091MD1999999+0021REMSYN088AAXX  13004 83398 32594 30000 10220 20197 30209 40215 83100 333 10273 29080 55084 58002;EQDQ01  00002PRCP99
0184833980999992002081312004-15670-038930FM-12+000599999V0202301N002110042019N0040001N1+02191+02001102301ADDAY151061AY221061GF107991051051004501021001KA1240N+01821MA1999999102241MD1999999+0071MW1021REMSYN082AAXX  13124 83398 21496 72304 10219 20200 30224 40230 70252 85520 333 20182 58007;
0171833980999992002081318004-15670-038930FM-12+000599999V0200901N001010042019N0040001N1+02371+02161101921ADDAY151061AY221061GF108991051051004501021999MA1999999101861MD1999999-0031MW1501REMSYN082AAXX  13184 83398 21496 80902 10237 20216 30186 40192 75052 8552/ 333 59003 69911;
0202833980999992002081400004-15670-038930FM-12+000599999V0200201N037020042019N0010001N1+02221+02051102061ADDAY151061AY221061GF107991051051004501021001KA1240M+02561MA1999999102001MD1999999-0091MW1021REMSYN100AAXX  14004 83398 21494 70272 10222 20205 30200 40206 70252 85520 333 10256 29089 55066 59009 69921;
0162833980999992002081412004-15670-038930FM-12+000599999V0200901N003110450019N0040001N1+02581+02081102201ADDGF106991041051008001041001KA1240N+01981MA1999999102141MD1999999-0101REMSYN082AAXX  14124 83398 22596 60906 10258 20208 30214 40220 84540 333 20198 59010 69934;
0167833980999992002081418004-15670-038930FM-12+000599999V0200501N002111050019N0040001N1+02631+01921101951ADDAA199000091GF105991021021008001041041MA1999999101891MD1999999+0031REMSYN070AAXX  14184 83398 32596 50504 10263 20192 30189 40195 82244 333 58003;EQDQ01  00002PRCP99
0198833980999992002081500004-15670-038930FM-12+000599999V0200501N001010450019N0010001N1+02441+01991102121ADDAA199000091GF105991031021008001041001KA1240M+02751MA1999999102061MD1999999+0061REMSYN088AAXX  15004 83398 32594 50502 10244 20199 30206 40212 83240 333 10275 29073 55068 58006;EQDQ01  00002PRCP99
0186833980999992002081512004-15670-038930FM-12+000599999V0202701N002112200019N0040001N1+02461+02131102281ADDAA199000091GF104991031021008001041001KA1240N+01841MA1999999102221MD1999999+0081REMSYN076AAXX  15124 83398 32596 42704 10246 20213 30222 40228 83240 333 20184 58008;EQDQ01  00002PRCP99
0167833980999992002081518004-15670-038930FM-12+000599999V0201401N002112200019N0040001N1+02681+01941102061ADDAA199000091GF103991021021008001041001MA1999999102001MD1999999+0111REMSYN070AAXX  15184 83398 32596 31404 10268 20194 30200 40206 82240 333 58011;EQDQ01  00002PRCP99
0202833980999992002081600004-15670-038930FM-12+000599999V0200501N002110450019N0010001N1+02271+02201102321ADDAY151061AY221061GF107991041051004501021001KA1240M+02741MA1999999102261MD1999999+0201MW1501REMSYN100AAXX  16004 83398 21494 70504 10227 20220 30226 40232 75052 84520 333 10274 29079 55087 58020 69921;
0190833980999992002081612004-15670-038930FM-12+000599999V0202301N001010042019N0040001N1+02251+02041102491ADDAY151061AY221061GF108991051051004501021999KA1240N+01951MA1999999102431MD1999999+0211MW1501REMSYN088AAXX  16124 83398 21496 82302 10225 20204 30243 40249 75052 8552/ 333 20195 58021 60034;
0156833980999992002081618004-15670-038930FM-12+000599999V0200501N002110450019N0040001N1+02511+02041102101ADDAY151061AY221061GF106991041051004501021001MA1999999102041MW1011REMSYN081AAXX  16184 83398 21496 60504 10251 20204 30204 40210 70152 84520 333 8004 69961;
0202833980999992002081700004-15670-038930FM-12+000599999V0201401N002110450019N0010001N1+02431+02021102321ADDAY151061AY221061GF107991041051004501021001KA1240M+02671MA1999999102261MD1999999+0001MW1021REMSYN100AAXX  17004 83398 21494 71404 10243 20202 30226 40232 70252 84520 333 10267 29079 55037 58000 69931;
0190833980999992002081712004-15670-038930FM-12+000599999V0201401N002110075019N0040001N1+02461+02321102381ADDAY161061AY221061GF107991051051008001021001KA1240N+01901MA1999999102321MD1999999-0111MW1021REMSYN088AAXX  17124 83398 21596 71404 10246 20232 30232 40238 70262 85520 333 20190 59011 60034;
0171833980999992002081718004-15670-038930FM-12+000599999V0201401N002110075019N0040001N1+02461+02071102101ADDAY161061AY221061GF107991051051008001021001MA1999999102041MD1999999+0001MW1021REMSYN082AAXX  17184 83398 21596 71404 10246 20207 30204 40210 70262 85520 333 58000 60041;
0198833980999992002081800004-15670-038930FM-12+000599999V0209999C000010450019N0010001N1+02281+01901102231ADDAA199000091GF105991031051008001041001KA1240M+02591MA1999999102171MD1999999-0091REMSYN088AAXX  18004 83398 32594 50000 10228 20190 30217 40223 83540 333 10259 29079 55026 59009;EQDQ01  00002PRCP99
0190833980999992002081812004-15670-038930FM-12+000599999V0201401N002110450019N0040001N1+02481+01961102271ADDAY161061AY221061GF106991041051008001021001KA1240N+01901MA1999999102211MD1999999-0111MW1021REMSYN088AAXX  18124 83398 21596 61404 10248 20196 30221 40227 70262 84520 333 20190 59011 60064;
0171833980999992002081818004-15670-038930FM-12+000599999V0201401N002110075019N0040001N1+02301+02051101991ADDAY151061AY221061GF107991051051008001021001MA1999999101931MD1999999-0111MW1501REMSYN082AAXX  18184 83398 21596 71404 10230 20205 30193 40199 75052 85520 333 59011 69971;
0202833980999992002081900004-15670-038930FM-12+000599999V0201801N002110042019N0010001N1+02281+02001102131ADDAY161061AY221061GF107991051051004501021001KA1240M+02691MA1999999102071MD1999999-0101MW1501REMSYN100AAXX  19004 83398 21494 71804 10228 20200 30207 40213 75062 85520 333 10269 29082 55068 59010 60021;
0190833980999992002081912004-15670-038930FM-12+000599999V0200901N002110450019N0040001N1+02541+02031102301ADDAY151061AY221061GF106991041051004501041001KA1240N+01981MA1999999102241MD1999999+0031MW1011REMSYN088AAXX  19124 83398 21496 60904 10254 20203 30224 40230 70152 84540 333 20198 58003 60034;
0167833980999992002081918004-15670-038930FM-12+000599999V0201401N003110450019N0040001N1+02641+01981102081ADDAA199000091GF106991041051008001021001MA1999999102021MD1999999+0091REMSYN070AAXX  19184 83398 32596 61406 10264 20198 30202 40208 84520 333 58009;EQDQ01  00002PRCP99
0198833980999992002082000004-15670-038930FM-12+000599999V0209999C000010450019N0010001N1+02201+01941102381ADDAA199000091GF105991031051008001041001KA1240M+02691MA1999999102321MD1999999+0251REMSYN088AAXX  20004 83398 32594 50000 10220 20194 30232 40238 83540 333 10269 29077 55086 58025;EQDQ01  00002PRCP99
0186833980999992002082012004-15670-038930FM-12+000599999V0200901N003110075019N0040001N1+02521+02001102331ADDAA199000091GF108991051051008001021999KA1240N+02061MA1999999102271MD1999999+0031REMSYN076AAXX  20124 83398 32596 80906 10252 20200 30227 40233 8552/ 333 20206 58003;EQDQ01  00002PRCP99
0171833980999992002082018004-15670-038930FM-12+000599999V0200901N003110042019N0040001N1+02421+01821102091ADDAY151061AY221061GF107991051051004501021001MA1999999102031MD1999999+0011MW1021REMSYN082AAXX  20184 83398 21496 70906 10242 20182 30203 40209 70252 85520 333 58001 60011;
0198833980999992002082100004-15670-038930FM-12+000599999V0200901N002110450019N0010001N1+02381+01841102321ADDAA199000091GF105991031021008001041001KA1240M+02671MA1999999102261MD1999999-0061REMSYN088AAXX  21004 83398 32594 50904 10238 20184 30226 40232 83240 333 10267 29072 55026 59006;EQDQ01  00002PRCP99
0171833980999992002082118004-15670-038930FM-12+000599999V0200901N003110042019N0040001N1+02481+02051102111ADDAY151061AY221061GF108991051051004501021999MA1999999102051MD1999999+0021MW1021REMSYN082AAXX  21184 83398 21496 80906 10248 20205 30205 40211 70252 8552/ 333 58002 60011;
0198833980999992002082200004-15670-038930FM-12+000599999V0200901N002110450019N0010001N1+02361+01831102361ADDAA199000091GF105991031051008001041001KA1240M+02611MA1999999102301MD1999999+0041REMSYN088AAXX  22004 83398 32594 50904 10236 20183 30230 40236 83540 333 10261 29079 55001 58004;EQDQ01  00002PRCP99
0190833980999992002082212004-15670-038930FM-12+000599999V0200901N002110450019N0040001N1+02411+02041102511ADDAY161061AY221061GF107991041051004501021001KA1240N+01821MA1999999102451MD1999999+0011MW1021REMSYN088AAXX  22124 83398 21496 70904 10241 20204 30245 40251 70262 84520 333 20182 58001 60074;
0171833980999992002082218004-15670-038930FM-12+000599999V0200901N003110450019N0040001N1+02601+01891102101ADDAY151061AY221061GF106991041051008001021001MA1999999102041MD1999999-0011MW1021REMSYN082AAXX  22184 83398 21596 60906 10260 20189 30204 40210 70252 84520 333 59001 69911;
0198833980999992002082300004-15670-038930FM-12+000599999V0200901N002110450019N0010001N1+02351+01881102241ADDAA199000091GF105991031021008001041001KA1240M+02731MA1999999102181MD1999999-0121REMSYN088AAXX  23004 83398 32594 50904 10235 20188 30218 40224 83240 333 10273 29074 55061 59012;EQDQ01  00002PRCP99
0190833980999992002082312004-15670-038930FM-12+000599999V0200901N002110450019N0040001N1+02381+01891102241ADDAY151061AY221061GF106991041051004501041001KA1240N+01911MA1999999102181MD1999999-0271MW1011REMSYN088AAXX  23124 83398 21496 60904 10238 20189 30218 40224 70152 84540 333 20191 59027 69964;
0167833980999992002082318004-15670-038930FM-12+000599999V0201401N002110450019N0040001N1+02481+01981101921ADDAA199000091GF105991031051008001041001MA1999999101861MD1999999-0181REMSYN070AAXX  23184 83398 32596 51404 10248 20198 30186 40192 83540 333 59018;EQDQ01  00002PRCP99
0202833980999992002082400004-15670-038930FM-12+000599999V0209999C000011050019N0010001N1+02081+01981102181ADDAY151061AY221061GF105991021021004501041041KA1240M+02691MA1999999102121MD1999999-0061MW1011REMSYN100AAXX  24004 83398 21494 50000 10208 20198 30212 40218 70152 82244 333 10269 29084 55069 59006 60011;
0190833980999992002082412004-15670-038930FM-12+000599999V0202701N001010450019N0040001N1+02241+02071102171ADDAY151061AY221061GF105991031051004501041001KA1240N+01931MA1999999102111MD1999999-0071MW1011REMSYN088AAXX  24124 83398 21496 52702 10224 20207 30211 40217 70152 83540 333 20193 59007 60064;
0167833980999992002082418004-15670-038930FM-12+000599999V0200901N003110450019N0040001N1+02641+01881101921ADDAA199000091GF106991041051008001041001MA1999999101861MD1999999+0001REMSYN070AAXX  24184 83398 32596 60906 10264 20188 30186 40192 84540 333 58000;EQDQ01  00002PRCP99
0198833980999992002082500004-15670-038930FM-12+000599999V0209999C000010450019N0010001N1+02281+01941102101ADDAA199000091GF106991041051008001021001KA1240M+02681MA1999999102041MD1999999-0081REMSYN088AAXX  25004 83398 32594 60000 10228 20194 30204 40210 84520 333 10268 29079 55076 59008;EQDQ01  00002PRCP99
0186833980999992002082512004-15670-038930FM-12+000599999V0200901N002110450019N0040001N1+02601+01791102081ADDAA199000091GF106991031051008001041011KA1240N+01841MA1999999102021MD1999999+0011REMSYN076AAXX  25124 83398 32596 60904 10260 20179 30202 40208 83541 333 20184 58001;EQDQ01  00002PRCP99
0167833980999992002082518004-15670-038930FM-12+000599999V0201401N002110450019N0040001N1+02561+01991101951ADDAA199000091GF106991041051008001041001MA1999999101891MD1999999+0031REMSYN070AAXX  25184 83398 32596 61404 10256 20199 30189 40195 84540 333 58003;EQDQ01  00002PRCP99
0198833980999992002082600004-15670-038930FM-12+000599999V0209999C000010450019N0010001N1+02081+01931102111ADDAA199000091GF105991031051008001041001KA1240M+02741MA1999999102051MD1999999+0011REMSYN088AAXX  26004 83398 32594 50000 10208 20193 30205 40211 83540 333 10274 29079 55072 58001;EQDQ01  00002PRCP99
0190833980999992002082612004-15670-038930FM-12+000599999V0202301N002112200019N0040001N1+02351+02101102201ADDAY161061AY221061GF104991021021004501041001KA1240N+01881MA1999999102141MD1999999+0021MW1011REMSYN088AAXX  26124 83398 21496 42304 10235 20210 30214 40220 70162 82240 333 20188 58002 60114;
0167833980999992002082618004-15670-038930FM-12+000599999V0201401N003110450019N0040001N1+02601+01941101961ADDAA199000091GF106991041051008001041001MA1999999101901MD1999999+0011REMSYN070AAXX  26184 83398 32596 61406 10260 20194 30190 40196 84540 333 58001;EQDQ01  00002PRCP99
0202833980999992002082700004-15670-038930FM-12+000599999V0202301N001010450019N0010001N1+02141+01971102091ADDAY151061AY221061GF105991031051004501041001KA1240M+02701MA1999999102031MD1999999-0021MW1011REMSYN100AAXX  27004 83398 21494 52302 10214 20197 30203 40209 70152 83540 333 10270 29083 55087 59002 69941;
0190833980999992002082712004-15670-038930FM-12+000599999V0200901N002110042019N0040001N1+02161+02021102181ADDAY161061AY221061GF108991051071004501021999KA1240N+01811MA1999999102121MD1999999-0021MW1601REMSYN088AAXX  27124 83398 21496 80904 10216 20202 30212 40218 76062 8572/ 333 20181 59002 60094;
0171833980999992002082718004-15670-038930FM-12+000599999V0201401N002110450019N0040001N1+02541+01981101901ADDAY151061AY221061GF106991041051004501041001MA1999999101841MD1999999-0061MW1011REMSYN082AAXX  27184 83398 21496 61404 10254 20198 30184 40190 70152 84540 333 59006 60011;
0179833980999992002082800004-15670-038930FM-12+000599999V0201801N001010450019N0010001N1+02141+01971102061ADDAA199000021GF106991041051008001021001KA1240M+02651MA1999999102001MD1999999-0031REMSYN088AAXX  28004 83398 32594 61802 10214 20197 30200 40206 84520 333 10265 29086 55069 59003;
0190833980999992002082812004-15670-038930FM-12+000599999V0200901N002110450019N0040001N1+02441+01971102191ADDAY151061AY221061GF107991041051004501021001KA1240N+01881MA1999999102131MD1999999+0011MW1021REMSYN088AAXX  28124 83398 21496 70904 10244 20197 30213 40219 70252 84520 333 20188 58001 60054;
0167833980999992002082818004-15670-038930FM-12+000599999V0200901N003112200019N0040001N1+02531+01871102051ADDAA199000091GF104991021021008001041001MA1999999101891MD1999999+0051REMSYN070AAXX  28184 83398 32596 40906 10253 20187 30189 40205 82240 333 58005;EQDQ01  00002PRCP99
0198833980999992002082900004-15670-038930FM-12+000599999V0200501N001010450019N0010001N1+02361+01951101841ADDAA199000091GF105991031021008001041001KA1240M+02691MA1999999101781MD1999999-0221REMSYN088AAXX  29004 83398 32594 50502 10236 20195 30178 40184 83240 333 10269 29075 55071 59022;EQDQ01  00002PRCP99
0190833980999992002082912004-15670-038930FM-12+000599999V0200501N002110450019N0040001N1+02581+01821102011ADDAY161061AY221061GF106991031051008001041001KA1240N+01901MA1999999101951MD1999999-0181MW1021REMSYN088AAXX  29124 83398 21596 60504 10258 20182 30195 40201 70262 83540 333 20190 59018 60084;
0167833980999992002082918004-15670-038930FM-12+000599999V0200901N002110450019N0040001N1+02581+01741101671ADDAA106000091GF106991031021008001041001MA1999999101611MD1999999-0081REMSYN070AAXX  29184 83398 32596 60904 10258 20174 30161 40167 83240 333 59008;EQDQ01  00002PRCP06
0198833980999992002083000004-15670-038930FM-12+000599999V0200901N001012200019N0010001N1+02341+02001101721ADDAA106000091GF104991041011008001001001KA1240M+02691MA1999999101661MD1999999-0121REMSYN088AAXX  30004 83398 32594 40902 10234 20200 30166 40172 84100 333 10269 29071 55091 59012;EQDQ01  00002PRCP06
0190833980999992002083012004-15670-038930FM-12+000599999V0209999C000010450019N0040001N1+02461+01941101871ADDAY151061AY221061GF106991031051008001041011KA1240N+01821MA1999999101811MD1999999-0141MW1021REMSYN088AAXX  30124 83398 21596 60000 10246 20194 30181 40187 70252 83541 333 20182 59014 69934;
0167833980999992002083018004-15670-038930FM-12+000599999V0200501N003110450019N0040001N1+02581+02011101561ADDAA106000091GF106991031051008001041011MA1999999101511MD1999999-0101REMSYN070AAXX  30184 83398 32596 60506 10258 20201 30151 40156 83541 333 59010;EQDQ01  00002PRCP06
0198833980999992002083100004-15670-038930FM-12+000599999V0200901N002110450019N0010001N1+02441+02051101741ADDAA106000091GF105991031051008001041001KA1240M+02721MA1999999101681MD1999999+0021REMSYN088AAXX  31004 83398 32594 50904 10244 20205 30168 40174 83540 333 10272 29075 55088 58002;EQDQ01  00002PRCP06
0186833980999992002083112004-15670-038930FM-12+000599999V0209999C000010450019N0040001N1+02461+02151101861ADDAA106000091GF107991041051012501021001KA1240N+01981MA1999999101801MD1999999-0011REMSYN076AAXX  31124 83398 32696 70000 10246 20215 30180 40186 84520 333 20198 59001;EQDQ01  00002PRCP06
0167833980999992002083118004-15670-038930FM-12+000599999V0200501N002110450019N0040001N1+02541+02041101541ADDAA106000091GF107991041051008001021001MA1999999101491MD1999999-0021REMSYN070AAXX  31184 83398 32596 70504 10254 20204 30149 40154 84520 333 59002;EQDQ01  00002PRCP06
0198833980999992002090100004-15670-038930FM-12+000599999V0200501N002110450019N0010001N1+02381+02091101661ADDAA106000091GF106991041051008001021001KA1240M+02681MA1999999101601MD1999999-0081REMSYN088AAXX  01004 83398 32594 60504 10238 20209 30160 40166 84520 333 10268 29081 55021 59008;EQDQ01  00002PRCP06
0186833980999992002090112004-15670-038930FM-12+000599999V0200501N002110450019N0040001N1+02621+02231101651ADDAA106000091GF106991041051008001041001KA1240N+01901MA1999999101591MD1999999-0211REMSYN076AAXX  01124 83398 32596 60504 10262 20223 30159 40165 84540 333 20190 59021;EQDQ01  00002PRCP06
0167833980999992002090118004-15670-038930FM-12+000599999V0200501N003110450019N0040001N1+02661+02161101251ADDAA106000091GF105991031021008001041001MA1999999101201MD1999999-0291REMSYN070AAXX  01184 83398 32596 50506 10266 20216 30120 40125 83240 333 59029;EQDQ01  00002PRCP06
0198833980999992002090200004-15670-038930FM-12+000599999V0200501N002112200019N0010001N1+02461+02251101281ADDAA106000091GF104991031021008001041001KA1240M+02781MA1999999101231MD1999999-0371REMSYN088AAXX  02004 83398 32594 40504 10246 20225 30123 40128 83240 333 10278 29082 55089 59037;EQDQ01  00002PRCP06
0186833980999992002090212004-15670-038930FM-12+000599999V0203601N003110450019N0040001N1+02711+02231101311ADDAA106000091GF105991031021008001041001KA1240N+01961MA1999999101261MD1999999-0331REMSYN076AAXX  02124 83398 32596 53606 10271 20223 30126 40131 83240 333 20196 59033;EQDQ01  00002PRCP06
0167833980999992002090218004-15670-038930FM-12+000599999V0200501N004110450019N0040001N1+02721+02241101041ADDAA106000091GF105991031021008001041001MA1999999100991MD1999999-0211REMSYN070AAXX  02184 83398 32596 50508 10272 20224 30099 40104 83240 333 59021;EQDQ01  00002PRCP06
0198833980999992002090300004-15670-038930FM-12+000599999V0200501N004612200019N0010001N1+02491+02281101401ADDAA106000091GF104991021021008001041001KA1240M+02921MA1999999101351MD1999999+0121REMSYN088AAXX  03004 83398 32594 40509 10249 20228 30135 40140 82240 333 10292 29082 55074 58012;EQDQ01  00002PRCP06
0190833980999992002090312004-15670-038930FM-12+000599999V0201801N004110042019N0040001N1+02271+02121101951ADDAY151061AY221061GF108991051071004501021999KA1240N+02141MA1999999101891MD1999999+0631MW1501REMSYN088AAXX  03124 83398 21496 81808 10227 20212 30189 40195 75052 8572/ 333 20214 58063 60044;
0171833980999992002090318004-15670-038930FM-12+000599999V0201801N002110042019N0040001N1+02291+02141101771ADDAY151061AY221061GF108991051071004501021999MA1999999101711MD1999999+0721MW1501REMSYN082AAXX  03184 83398 21496 81804 10229 20214 30171 40177 75052 8572/ 333 58072 60021;
0202833980999992002090400004-15670-038930FM-12+000599999V0201801N002110042019N0010001N1+02251+02111101951ADDAY161061AY221061GF108991051071004501021999KA1240M+02621MA1999999101891MD1999999+0541MW1601REMSYN100AAXX  04004 83398 21494 81804 10225 20211 30189 40195 76062 8572/ 333 10262 29092 55000 58054 60061;
0190833980999992002090412004-15670-038930FM-12+000599999V0202701N002110042019N0040001N1+02201+02061102071ADDAY161061AY221061GF108991051071004501021999KA1240N+02061MA1999999102011MD1999999+0121MW1601REMSYN088AAXX  04124 83398 21496 82704 10220 20206 30201 40207 76062 8572/ 333 20206 58012 60174;
0171833980999992002090418004-15670-038930FM-12+000599999V0201801N002110042019N0040001N1+02421+02191101681ADDAY151061AY221061GF108991051051004501021999MA1999999101621MD1999999-0091MW1021REMSYN082AAXX  04184 83398 21496 81804 10242 20219 30162 40168 70252 8552/ 333 59009 69921;
0198833980999992002090500004-15670-038930FM-12+000599999V0202301N001010450019N0010001N1+02251+02061101951ADDAA106000091GF105991031051008001041001KA1240M+02541MA1999999101891MD1999999+0001REMSYN088AAXX  05004 83398 32594 52302 10225 20206 30189 40195 83540 333 10254 29089 55000 58000;EQDQ01  00002PRCP06
0190833980999992002090512004-15670-038930FM-12+000599999V0201801N002110450019N0040001N1+02461+02231102051ADDAY151061AY221061GF107991041051004501021001KA1240N+02051MA1999999101961MD1999999-0051MW1011REMSYN088AAXX  05124 83398 21496 71804 10246 20223 30196 40205 70152 84520 333 20205 59005 69964;
0198833980999992002090600004-15670-038930FM-12+000599999V0201801N002110450019N0010001N1+02361+02151101931ADDAA106000091GF106991041051008001021001KA1240M+02741MA1999999101871MD1999999-0021REMSYN088AAXX  06004 83398 32594 61804 10236 20215 30187 40193 84520 333 10274 29085 55045 59002;EQDQ01  00002PRCP06
0190833980999992002090612004-15670-038930FM-12+000599999V0202701N001010042019N0040001N1+02341+02221102041ADDAY161061AY221061GF108991051071004501021999KA1240N+02171MA1999999101981MD1999999+0021MW1601REMSYN088AAXX  06124 83398 21496 82702 10234 20222 30198 40204 76062 8572/ 333 20217 58002 60064;
0171833980999992002090618004-15670-038930FM-12+000599999V0200501N002110450019N0040001N1+02601+02271101681ADDAY161061AY221061GF106991041051008001021001MA1999999101621MD1999999-0031MW1021REMSYN082AAXX  06184 83398 21596 60504 10260 20227 30162 40168 70262 84520 333 59003 60371;
0202833980999992002090700004-15670-038930FM-12+000599999V0201801N001010450019N0010001N1+02351+02141101851ADDAY151061AY221061GF105991031051004501041001KA1240M+02671MA1999999101791MD1999999-0081MW1501REMSYN100AAXX  07004 83398 21494 51802 10235 20214 30179 40185 75052 83540 333 10267 29088 55029 59008 60021;
0190833980999992002090712004-15670-038930FM-12+000599999V0200901N002110075019N0040001N1+02321+02181102001ADDAY161061AY221061GF107991051051008001021001KA1240N+02101MA1999999101941MD1999999-0041MW1021REMSYN088AAXX  07124 83398 21596 70904 10232 20218 30194 40200 70262 85520 333 20210 59004 60434;
0167833980999992002090718004-15670-038930FM-12+000599999V0203601N002110075019N0040001N1+02521+02151101681ADDAA106000091GF107991051051008001021001MA1999999101621MD1999999+0001REMSYN070AAXX  07184 83398 32596 73604 10252 20215 30162 40168 85520 333 58000;EQDQ01  00002PRCP06
0198833980999992002090800004-15670-038930FM-12+000599999V0203601N002110450019N0010001N1+02401+02071101841ADDAA106000091GF106991041051008001021001KA1240M+02741MA1999999101781MD1999999-0011REMSYN088AAXX  08004 83398 32594 63604 10240 20207 30178 40184 84520 333 10274 29086 55020 59001;EQDQ01  00002PRCP06
0190833980999992002090812004-15670-038930FM-12+000599999V0202301N001010075019N0040001N1+02441+02251102001ADDAY151061AY221061GF107991051051008001021001KA1240N+02081MA1999999101941MD1999999+0001MW1021REMSYN088AAXX  08124 83398 21596 72302 10244 20225 30194 40200 70252 85520 333 20208 58000 69924;
0167833980999992002090818004-15670-038930FM-12+000599999V0200901N002110450019N0040001N1+02611+02061101911ADDAA106000091GF105991031051008001041001MA1999999101851MD1999999+0231REMSYN070AAXX  08184 83398 32596 50904 10261 20206 30185 40191 83540 333 58023;EQDQ01  00002PRCP06
0198833980999992002090900004-15670-038930FM-12+000599999V0209999C000012200019N0010001N1+02321+02151102061ADDAA106000091GF103991031011008001001001KA1240M+02701MA1999999102001MD1999999+0221REMSYN088AAXX  09004 83398 32594 30000 10232 20215 30200 40206 83100 333 10270 29085 55036 58022;EQDQ01  00002PRCP06
0186833980999992002090912004-15670-038930FM-12+000599999V0200901N002110450019N0040001N1+02601+01821102261ADDAA106000091GF105991031021008001041041KA1240N+02021MA1999999102201MD1999999+0261REMSYN076AAXX  09124 83398 32596 50904 10260 20182 30220 40226 83244 333 20202 58026;EQDQ01  00002PRCP06
0167833980999992002090918004-15670-038930FM-12+000599999V0201401N002110450019N0040001N1+02641+01981102041ADDAA106000091GF106991041051008001041001MA1999999101981MD1999999+0131REMSYN070AAXX  09184 83398 32596 61404 10264 20198 30198 40204 84540 333 58013;EQDQ01  00002PRCP06
0198833980999992002091000004-15670-038930FM-12+000599999V0201801N001012200019N0010001N1+02181+02031102191ADDAA106000091GF104991041011008001001001KA1240M+02761MA1999999102131MD1999999+0131REMSYN088AAXX  10004 83398 32594 41802 10218 20203 30213 40219 84100 333 10276 29077 55090 58013;EQDQ01  00002PRCP06
0190833980999992002091012004-15670-038930FM-12+000599999V0200901N002112200019N0040001N1+02601+01871102281ADDAY151061AY221061GF104991031021004501041001KA1240N+02001MA1999999102221MD1999999+0021MW1011REMSYN088AAXX  10124 83398 21496 40904 10260 20187 30222 40228 70152 83240 333 20200 58002 60054;
0167833980999992002091018004-15670-038930FM-12+000599999V0201801N002112200019N0040001N1+02641+01881102011ADDAA106000091GF104991031021008001041001MA1999999101951MD1999999-0031REMSYN070AAXX  10184 83398 32596 41804 10264 20188 30195 40201 83240 333 59003;EQDQ01  00002PRCP06
0198833980999992002091100004-15670-038930FM-12+000599999V0200901N002110450019N0010001N1+02371+01981102171ADDAA106000091GF105991031051008001041001KA1240M+02751MA1999999101211MD1999999-0021REMSYN088AAXX  11004 83398 32594 50904 10237 20198 30121 40217 83540 333 10275 29071 55093 59002;EQDQ01  00002PRCP06
0190833980999992002091112004-15670-038930FM-12+000599999V0201801N002110450019N0040001N1+02401+02191102201ADDAY151061AY221061GF106991031051004501041001KA1240N+01991MA1999999102141MD1999999-0081MW1501REMSYN088AAXX  11124 83398 21496 61804 10240 20219 30214 40220 75052 83540 333 20199 59008 60044;
0171833980999992002091118004-15670-038930FM-12+000599999V0201401N002110450019N0040001N1+02601+02101101981ADDAY151061AY221061GF105991031051004501041001MA1999999101921MD1999999-0031MW1011REMSYN082AAXX  11184 83398 21496 51404 10260 20210 30192 40198 70152 83540 333 59003 60041;
0202833980999992002091200004-15670-038930FM-12+000599999V0201401N002110450019N0010001N1+02271+01991102091ADDAY151061AY221061GF107991041051004501021001KA1240M+02701MA1999999102031MD1999999-0081MW1021REMSYN100AAXX  12004 83398 21494 71404 10227 20199 30203 40209 70252 84520 333 10270 29083 55032 59008 69941;
0190833980999992002091212004-15670-038930FM-12+000599999V0201401N002110450019N0040001N1+02461+01681102101ADDAY151061AY221061GF106991041051008001021001KA1240N+01821MA1999999102041MD1999999-0101MW1021REMSYN088AAXX  12124 83398 21596 61404 10246 20168 30204 40210 70252 84520 333 20182 59010 60044;
0167833980999992002091218004-15670-038930FM-12+000599999V0201401N003110075019N0040001N1+02601+01891101811ADDAA106000091GF107991051051008001021001MA1999999101751MD1999999-0171REMSYN070AAXX  12184 83398 32596 71406 10260 20189 30175 40181 85520 333 59017;EQDQ01  00002PRCP06
0190833980999992002091312004-15670-038930FM-12+000599999V0201401N001010450019N0040001N1+02401+02171101901ADDAY161061AY221061GF106991041051008001041001KA1240N+01921MA1999999101841MD1999999-0201MW1021REMSYN088AAXX  13124 83398 21596 61402 10240 20217 30184 40190 70262 84540 333 20192 59020 60014;
0171833980999992002091318004-15670-038930FM-12+000599999V0200901N003110450019N0040001N1+02541+02231101531ADDAY161061AY221061GF106991041051008001021001MA1999999101481MD1999999-0271MW1021REMSYN082AAXX  13184 83398 21596 60906 10254 20223 30148 40153 70262 84520 333 59027 60021;
0198833980999992002091400004-15670-038930FM-12+000599999V0200501N002110075019N0010001N1+02371+02201101641ADDAA106000091GF108991051051008001021999KA1240M+02571MA1999999101581MD1999999-0261REMSYN088AAXX  14004 83398 32594 80504 10237 20220 30158 40164 8552/ 333 10257 29088 55043 59026;EQDQ01  00002PRCP06
0190833980999992002091412004-15670-038930FM-12+000599999V0209999C000010075019N0040001N1+02481+02231101721ADDAY161061AY221061GF107991051051008001021001KA1240N+02161MA1999999101661MD1999999-0181MW1021REMSYN088AAXX  14124 83398 21596 70000 10248 20223 30166 40172 70262 85520 333 20216 59018 60074;
0167833980999992002091418004-15670-038930FM-12+000599999V0203601N004110450019N0040001N1+02641+02181101361ADDAA106000091GF105991031021008001041001MA1999999101311MD1999999-0171REMSYN070AAXX  14184 83398 32596 53608 10264 20218 30131 40136 83240 333 59017;EQDQ01  00002PRCP06
0198833980999992002091500004-15670-038930FM-12+000599999V0200501N002110450019N0010001N1+02441+02251101571ADDAA106000091GF106991041051008001021001KA1240M+02781MA1999999101521MD1999999-0061REMSYN088AAXX  15004 83398 32594 60504 10244 20225 30152 40157 84520 333 10278 29085 55089 59006;EQDQ01  00002PRCP06
0186833980999992002091512004-15670-038930FM-12+000599999V0202701N001010075019N0040001N1+02601+02231101761ADDAA106000091GF107991051051008001021001KA1240N+02161MA1999999101701MD1999999+0041REMSYN076AAXX  15124 83398 32596 72702 10260 20223 30170 40176 85520 333 20216 58004;EQDQ01  00002PRCP06
0167833980999992002091518004-15670-038930FM-12+000599999V0200501N003110450019N0040001N1+02681+02261101541ADDAA106000091GF106991041051008001041001MA1999999101491MD1999999+0181REMSYN070AAXX  15184 83398 32596 60506 10268 20226 30149 40154 84540 333 58018;EQDQ01  00002PRCP06
0198833980999992002091600004-15670-038930FM-12+000599999V0209999C000010450019N0010001N1+02461+02211101881ADDAA106000091GF106991041051008001041001KA1240M+02801MA1999999101821MD1999999-0301REMSYN088AAXX  16004 83398 32594 60000 10246 20221 30182 40188 84540 333 10280 29083 55086 59030;EQDQ01  00002PRCP06
0186833980999992002091612004-15670-038930FM-12+000599999V0200501N002110450019N0040001N1+02581+02171102181ADDAA106000091GF106991041051008001021001KA1240N+02101MA1999999102121MD1999999+0421REMSYN076AAXX  16124 83398 32596 60504 10258 20217 30212 40218 84520 333 20210 58042;EQDQ01  00002PRCP06
0167833980999992002091618004-15670-038930FM-12+000599999V0200901N003111050019N0040001N1+02641+02071101911ADDAA106000091GF105991021021008001041041MA1999999101851MD1999999+0361REMSYN070AAXX  16184 83398 32596 50906 10264 20207 30185 40191 82244 333 58036;EQDQ01  00002PRCP06
0198833980999992002091700004-15670-038930FM-12+000599999V0202301N001010450019N0010001N1+02451+02261102161ADDAA106000091GF106991041051008001021001KA1240M+02781MA1999999102101MD1999999+0281REMSYN088AAXX  17004 83398 32594 62302 10245 20226 30210 40216 84520 333 10278 29082 55063 58028;EQDQ01  00002PRCP06
0186833980999992002091712004-15670-038930FM-12+000599999V0200501N002110450019N0040001N1+02551+02121102271ADDAA199000091GF105991031011008001041001KA1240N+02061MA1999999102211MD1999999+0091REMSYN076AAXX  17124 83398 32596 50504 10255 20212 30221 40227 83140 333 20206 58009;EQDQ01  00002PRCP99
0167833980999992002091718004-15670-038930FM-12+000599999V0200501N002112200019N0040001N1+02601+01891101951ADDAA106000091GF104991021011008001041001MA1999999101891MD1999999+0041REMSYN070AAXX  17184 83398 32596 40504 10260 20189 30189 40195 82140 333 58004;EQDQ01  00002PRCP06
0198833980999992002091800004-15670-038930FM-12+000599999V0201401N002110450019N0010001N1+02521+02051102101ADDAA106000091GF106991031051008001021001KA1240M+02781MA1999999102041MD1999999-0061REMSYN088AAXX  18004 83398 32594 61404 10252 20205 30204 40210 83520 333 10278 29073 55099 59006;EQDQ01  00002PRCP06
0186833980999992002091812004-15670-038930FM-12+000599999V0201401N002110450019N0040001N1+02571+02121102101ADDAA106000091GF106991031051008001041011KA1240N+02171MA1999999102041MD1999999-0171REMSYN076AAXX  18124 83398 32596 61404 10257 20212 30204 40210 83541 333 20217 59017;EQDQ01  00002PRCP06
0167833980999992002091818004-15670-038930FM-12+000599999V0201401N002110075019N0040001N1+02361+02071101891ADDAA106000091GF108991051051008001021999MA1999999101741MD1999999-0151REMSYN070AAXX  18184 83398 32596 81404 10236 20207 30174 40189 8552/ 333 59015;EQDQ01  00002PRCP06
0174833980999992002091900004-15670-038930FM-12+000599999V0200901N002110042019N0010001N1+02161+02011102021ADDAY161061AY221061GF108991061071004501021999MA1999999101961MW1601REMSYN099AAXX  19004 83398 21494 80904 10216 20201 30196 40202 76062 8672/ 33 10263 29086 55018 59008 60141;
0190833980999992002091912004-15670-038930FM-12+000599999V0200901N002110075019N0040001N1+02601+01991102081ADDAY161061AY221061GF107991051051008001021001KA1240N+02101MA1999999102021MD1999999-0021MW1021REMSYN088AAXX  19124 83398 21596 70904 10260 20199 30202 40208 70262 85520 333 20210 59002 60194;
0167833980999992002091918004-15670-038930FM-12+000599999V0200901N002110450019N0040001N1+02601+01961101751ADDAA106000091GF106991041051008001041001MA1999999101691MD1999999-0051REMSYN070AAXX  19184 83398 32596 60904 10260 20196 30169 40175 84540 333 59005;EQDQ01  00002PRCP06
0190833980999992002092012004-15670-038930FM-12+000599999V0200901N003110450019N0040001N1+02581+02011101991ADDAY151061AY221061GF106991041051008001021001KA1240N+02101MA1999999101931MD1999999-0091MW1021REMSYN088AAXX  20124 83398 21596 60906 10258 20201 30193 40199 70252 84520 333 20210 59009 69954;
0167833980999992002092018004-15670-038930FM-12+000599999V0200901N002110450019N0040001N1+02621+01911101651ADDAA106000091GF106991031051008001041011MA1999999101591MD1999999-0101REMSYN070AAXX  20184 83398 32596 60904 10262 20191 30159 40165 83541 333 59010;EQDQ01  00002PRCP06
0198833980999992002092100004-15670-038930FM-12+000599999V0200501N002110075019N0040001N1+02381+01971101771ADDAA106000091GF105991051011008001001001KA1240M+02731MA1999999101711MD1999999-0191REMSYN088AAXX  21004 83398 32596 50504 10238 20197 30171 40177 85100 333 10273 29073 55104 59019;EQDQ01  00002PRCP06
0186833980999992002092112004-15670-038930FM-12+000599999V0200501N002110075019N0040001N1+02521+02151101801ADDAA106000091GF107991051051008001021001KA1240N+01901MA1999999101741MD1999999-0191REMSYN076AAXX  21124 83398 32596 70504 10252 20215 30174 40180 85520 333 20190 59019;EQDQ01  00002PRCP06
0167833980999992002092118004-15670-038930FM-12+000599999V0200501N003110450019N0040001N1+02621+02141101371ADDAA106000091GF106991021051008001041011MA1999999101321MD1999999-0271REMSYN070AAXX  21184 83398 32596 60506 10262 20214 30132 40137 82541 333 59027;EQDQ01  00002PRCP06
0198833980999992002092200004-15670-038930FM-12+000599999V0200501N002110450019N0010001N1+02461+02211101561ADDAA106000091GF106991041051008001021001KA1240M+02771MA1999999101511MD1999999-0201REMSYN088AAXX  22004 83398 32594 60504 10246 20221 30151 40156 84520 333 10277 29082 55048 59020;EQDQ01  00002PRCP06
0186833980999992002092212004-15670-038930FM-12+000599999V0203601N004110450019N0040001N1+02681+02281101651ADDAA106000091GF107991041051008001041001KA1240N+02171MA1999999101591MD1999999-0151REMSYN076AAXX  22124 83398 32596 73608 10268 20228 30159 40165 84540 333 20217 59015;EQDQ01  00002PRCP06
0167833980999992002092218004-15670-038930FM-12+000599999V0203601N003110450019N0040001N1+02701+02301101301ADDAA106000091GF106991031051008001041011MA1999999101251MD1999999-0071REMSYN070AAXX  22184 83398 32596 63606 10270 20230 30125 40130 83541 333 59007;EQDQ01  00002PRCP06
0198833980999992002092300004-15670-038930FM-12+000599999V0203601N003110450019N0010001N1+02521+02331101491ADDAA106000091GF106991041051008001021001KA1240M+02841MA1999999101441MD1999999-0071REMSYN088AAXX  23004 83398 32594 63606 10252 20233 30144 40149 84520 333 10284 29084 55086 59007;EQDQ01  00002PRCP06
0190833980999992002092312004-15670-038930FM-12+000599999V0202701N001010075019N0040001N1+02541+02381101621ADDAY151061AY221061GF108991051051008001021999KA1240N+02301MA1999999101561MD1999999-0031MW1021REMSYN088AAXX  23124 83398 21596 82702 10254 20238 30156 40162 70252 8552/ 333 20230 59003 60024;
0171833980999992002092318004-15670-038930FM-12+000599999V0202701N002110042019N0040001N1+02661+02461101411ADDAY151061AY221061GF107991051051004501021001MA1999999101361MD1999999+0111MW1021REMSYN082AAXX  23184 83398 21496 72704 10266 20246 30136 40141 70252 85520 333 58011 69911;
0198833980999992002092400004-15670-038930FM-12+000599999V0202301N002110450019N0010001N1+02511+02281101531ADDAA106000091GF107991041051008001021001KA1240M+02681MA1999999101481MD1999999+0041REMSYN088AAXX  24004 83398 32594 72304 10251 20228 30148 40153 84520 333 10268 29087 55012 58004;EQDQ01  00002PRCP06
0162833980999992002092412004-15670-038930FM-12+000599999V0200501N002110450019N0040001N1+02681+02261101411ADDGF105991031021008001041001KA1240N+02241MA1999999101361MD1999999-0201REMSYN082AAXX  24124 83398 22596 50504 10268 20226 30136 40141 83240 333 20224 59020 69914;
0167833980999992002092418004-15670-038930FM-12+000599999V0200501N003110450019N0040001N1+02681+02281101141ADDAA106000091GF106991041051008001041001MA1999999101091MD1999999-0271REMSYN070AAXX  24184 83398 32596 60506 10268 20228 30109 40114 84540 333 59027;EQDQ01  00002PRCP06
0198833980999992002092500004-15670-038930FM-12+000599999V0209999C000012200019N0010001N1+02441+02211101291ADDAA106000091GF103991021011008001041001KA1240M+02821MA1999999101241MD1999999-0241REMSYN088AAXX  25004 83398 32594 30000 10244 20221 30124 40129 82140 333 10282 29083 55078 59024;EQDQ01  00002PRCP06
0186833980999992002092512004-15670-038930FM-12+000599999V0202301N001010450019N0040001N1+02411+02221101581ADDAA106000091GF107991041051008001021001KA1240N+02261MA1999999101521MD1999999+0161REMSYN076AAXX  25124 83398 32596 72302 10241 20222 30152 40158 84520 333 20226 58016;EQDQ01  00002PRCP06
0202833980999992002092600004-15670-038930FM-12+000599999V0201801N002110042019N0010001N1+02181+02061101621ADDAY161061AY221061GF108991051071004501021999KA1240M+02621MA1999999101561MD1999999+0321MW1601REMSYN100AAXX  26004 83398 21494 81804 10218 20206 30156 40162 76062 8572/ 333 10262 29092 55000 58032 60111;
0190833980999992002092612004-15670-038930FM-12+000599999V0202301N002110042019N0040001N1+02191+02021101781ADDAY151061AY221061GF108991051051004501021999KA1240N+02031MA1999999101721MD1999999+0201MW1021REMSYN088AAXX  26124 83398 21496 82304 10219 20202 30172 40178 70252 8552/ 333 20203 58020 60184;
0171833980999992002092618004-15670-038930FM-12+000599999V0201401N003110075019N0040001N1+02541+02091101581ADDAY151061AY221061GF107991051051008001021001MA1999999101531MD1999999+0291MW1021REMSYN082AAXX  26184 83398 21596 71406 10254 20209 30153 40158 70252 85520 333 58029 69921;
0190833980999992002092712004-15670-038930FM-12+000599999V0201801N002110042019N0040001N1+02261+02121102071ADDAY151061AY221061GF108991051071004501021999KA1240N+02041MA1999999102011MD1999999+0291MW1501REMSYN088AAXX  27124 83398 21496 81804 10226 20212 30201 40207 75052 8572/ 333 20204 58029 60054;
0171833980999992002092718004-15670-038930FM-12+000599999V0201801N002110042019N0040001N1+02451+02101101721ADDAY151061AY221061GF108991051051004501021999MA1999999101661MD1999999+0031MW1021REMSYN082AAXX  27184 83398 21496 81804 10245 20210 30166 40172 70252 8552/ 333 58003 69921;
0202833980999992002092800004-15670-038930FM-12+000599999V0201801N002110042019N0010001N1+02191+02051101971ADDAY151061AY221061GF108991051071004501021999KA1240M+02661MA1999999101911MD1999999+0111MW1501REMSYN100AAXX  28004 83398 21494 81804 10219 20205 30191 40197 75052 8572/ 333 10266 29089 55004 58011 69941;
0190833980999992002092812004-15670-038930FM-12+000599999V0200901N002110075019N0040001N1+02301+02161102071ADDAY161061AY221061GF106991051071008001021999KA1240N+02101MA1999999102011MD1999999+0001MW1611REMSYN088AAXX  28124 83398 21596 60904 10230 20216 30201 40207 76162 8572/ 333 20210 58000 60334;
0171833980999992002092818004-15670-038930FM-12+000599999V0201801N002110075019N0040001N1+02201+02061101821ADDAY161061AY221061GF108991051071008001021999MA1999999101761MD1999999+0101MW1601REMSYN082AAXX  28184 83398 21596 81804 10220 20206 30176 40182 76062 8572/ 333 58010 60051;
0179833980999992002092900004-15670-038930FM-12+000599999V0201801N001010075019N0010001N1+02181+02061102021ADDAA106000021GF107991051051008001021001KA1240M+02581MA1999999101961MD1999999+0051REMSYN088AAXX  29004 83398 32594 71802 10218 20206 30196 40202 85520 333 10258 29093 55000 58005;
0190833980999992002092912004-15670-038930FM-12+000599999V0200901N002110450019N0040001N1+02581+02211102061ADDAY161061AY221061GF106991041051008001021001KA1240N+01981MA1999999102001MD1999999-0011MW1021REMSYN088AAXX  29124 83398 21596 60904 10258 20221 30200 40206 70262 84520 333 20198 59001 60244;
0167833980999992002092918004-15670-038930FM-12+000599999V0200901N001010450019N0040001N1+02421+02131101771ADDAA106000091GF106991041051008001021001MA1999999101711MD1999999-0051REMSYN070AAXX  29184 83398 32596 60902 10242 20213 30171 40177 84520 333 59005;EQDQ01  00002PRCP06
0198833980999992002093000004-15670-038930FM-12+000599999V0209999C000010075019N0010001N1+02381+02241101941ADDAA106000091GF107991051051008001021001KA1240M+02621MA1999999101881MD1999999-0081REMSYN088AAXX  30004 83398 32594 70000 10238 20224 30188 40194 85520 333 10262 29087 55066 59008;EQDQ01  00002PRCP06
0186833980999992002093012004-15670-038930FM-12+000599999V0200901N002110450019N0040001N1+02611+02111102031ADDAA106000091GF105991031021008001041001KA1240N+02001MA1999999101971MD1999999-0031REMSYN076AAXX  30124 83398 32596 50904 10261 20211 30197 40203 83240 333 20200 59003;EQDQ01  00002PRCP06
0167833980999992002093018004-15670-038930FM-12+000599999V0200501N002110450019N0040001N1+02681+02181101761ADDAA106000091GF106991031051008001041011MA1999999101701MD1999999-0011REMSYN070AAXX  30184 83398 32596 60504 10268 20218 30170 40176 83541 333 59001;EQDQ01  00002PRCP06
0186833980999992002100112004-15670-038930FM-12+000599999V0200901N002110450019N0040001N1+02681+02161102031ADDAA106000091GF105991031021008001041001KA1240N+01961MA1999999101971MD1999999+0001REMSYN076AAXX  01124 83398 32596 50904 10268 20216 30197 40203 83240 333 20196 58000;EQDQ01  00002PRCP06
0167833980999992002100118004-15670-038930FM-12+000599999V0200901N002112200019N0040001N1+02661+02071101731ADDAA106000091GF103991021021008001041001MA1999999101671MD1999999-0031REMSYN070AAXX  01184 83398 32596 30904 10266 20207 30167 40173 82240 333 59003;EQDQ01  00002PRCP06
0198833980999992002100200004-15670-038930FM-12+000599999V0200501N002110450019N0010001N1+02421+02071101691ADDAA106000091GF105991031011008001041001KA1240M+02781MA1999999101631MD1999999-0321REMSYN088AAXX  02004 83398 32594 50504 10242 20207 30163 40169 83140 333 10278 29076 55103 59032;EQDQ01  00002PRCP06
0186833980999992002100212004-15670-038930FM-12+000599999V0203201N001010450019N0040001N1+02561+02191101851ADDAA106000091GF105991031011008001041001KA1240N+01901MA1999999101791MD1999999-0181REMSYN076AAXX  02124 83398 32596 53202 10256 20219 30179 40185 83140 333 20190 59018;EQDQ01  00002PRCP06
0167833980999992002100218004-15670-038930FM-12+000599999V0200901N002112200019N0040001N1+02701+02131101451ADDAA106000091GF104991031021008001041001MA1999999101401MD1999999-0241REMSYN070AAXX  02184 83398 32596 40904 10270 20213 30140 40145 83240 333 59024;EQDQ01  00002PRCP06
0198833980999992002100300004-15670-038930FM-12+000599999V0203601N001010450019N0010001N1+02441+02131101731ADDAA106000091GF105991031021008001041001KA1240M+02801MA1999999101671MD1999999+0141REMSYN088AAXX  03004 83398 32594 53602 10244 20213 30167 40173 83240 333 10280 29079 55101 58014;EQDQ01  00002PRCP06
0186833980999992002100312004-15670-038930FM-12+000599999V0200901N002110450019N0040001N1+02621+02181101711ADDAA106000091GF105991031021008001041001KA1240N+02001MA1999999101651MD1999999-0141REMSYN076AAXX  03124 83398 32596 50904 10262 20218 30165 40171 83240 333 20200 59014;EQDQ01  00002PRCP06
0167833980999992002100318004-15670-038930FM-12+000599999V0200901N002110450019N0040001N1+02661+02271101331ADDAA106000091GF106991041051008001041001MA1999999101281MD1999999-0121REMSYN070AAXX  03184 83398 32596 60904 10266 20227 30128 40133 84540 333 59012;EQDQ01  00002PRCP06
0198833980999992002100400004-15670-038930FM-12+000599999V0200501N002110450019N0010001N1+02501+02191101621ADDAA106000091GF105991031051008001041001KA1240M+02811MA1999999101561MD1999999-0111REMSYN088AAXX  04004 83398 32594 50504 10250 20219 30156 40162 83540 333 10281 29081 55082 59011;EQDQ01  00002PRCP06
0186833980999992002100412004-15670-038930FM-12+000599999V0200501N002110450019N0040001N1+02701+02221101711ADDAA106000091GF106991031051008001041001KA1240N+01971MA1999999101651MD1999999+0001REMSYN076AAXX  04124 83398 32596 60504 10270 20222 30165 40171 83540 333 20197 58000;EQDQ01  00002PRCP06
0167833980999992002100418004-15670-038930FM-12+000599999V0200501N003110450019N0040001N1+02701+02221101381ADDAA106000091GF105991031051008001041001MA1999999101331MD1999999+0051REMSYN070AAXX  04184 83398 32596 50506 10270 20222 30133 40138 83540 333 58005;EQDQ01  00002PRCP06
0198833980999992002100500004-15670-038930FM-12+000599999V0200901N002110450019N0010001N1+02491+02081101661ADDAA106000091GF105991031021008001041001KA1240M+02821MA1999999101601MD1999999+0041REMSYN088AAXX  05004 83398 32594 50904 10249 20208 30160 40166 83240 333 10282 29077 55102 58004;EQDQ01  00002PRCP06
0186833980999992002100512004-15670-038930FM-12+000599999V0200501N002110450019N0040001N1+02721+02081101831ADDAA106000091GF105991031021008001041001KA1240N+02201MA1999999101771MD1999999+0121REMSYN076AAXX  05124 83398 32596 50504 10272 20208 30177 40183 83240 333 20220 58012;EQDQ01  00002PRCP06
0167833980999992002100518004-15670-038930FM-12+000599999V0200501N003110450019N0040001N1+02721+02121101481ADDAA106000091GF105991021051008001041001MA1999999101431MD1999999+0101REMSYN070AAXX  05184 83398 32596 50506 10272 20212 30143 40148 82540 333 58010;EQDQ01  00002PRCP06
0198833980999992002100600004-15670-038930FM-12+000599999V0200501N002112200019N0010001N1+02501+02071101751ADDAA106000091GF104991021011008001041001KA1240M+02821MA1999999101691MD1999999+0091REMSYN088AAXX  06004 83398 32594 40504 10250 20207 30169 40175 82140 333 10282 29073 55108 58009;EQDQ01  00002PRCP06
0186833980999992002100612004-15670-038930FM-12+000599999V0200501N002110450019N0040001N1+02701+02131101881ADDAA106000091GF106991041051008001021001KA1240N+02001MA1999999101821MD1999999+0051REMSYN076AAXX  06124 83398 32596 60504 10270 20213 30182 40188 84520 333 20200 58005;EQDQ01  00002PRCP06
0167833980999992002100618004-15670-038930FM-12+000599999V0200501N002110450019N0040001N1+02601+02271101541ADDAA106000091GF106991041051008001041001MA1999999101491MD1999999+0061REMSYN070AAXX  06184 83398 32596 60504 10260 20227 30149 40154 84540 333 58006;EQDQ01  00002PRCP06
0198833980999992002100700004-15670-038930FM-12+000599999V0200501N001010450019N0010001N1+02501+02211101871ADDAA106000091GF105991031051008001041001KA1240M+02801MA1999999101811MD1999999+0121REMSYN088AAXX  07004 83398 32594 50502 10250 20221 30181 40187 83540 333 10280 29080 55/// 58012;EQDQ01  00002PRCP06
0186833980999992002100712004-15670-038930FM-12+000599999V0200501N003110450019N0040001N1+02701+02171101951ADDAA106000091GF105991031051008001041001KA1240N+02241MA1999999101891MD1999999+0071REMSYN076AAXX  07124 83398 32596 50506 10270 20217 30189 40195 83540 333 20224 58007;EQDQ01  00002PRCP06
0167833980999992002100718004-15670-038930FM-12+000599999V0200501N003112200019N0040001N1+02721+02101101751ADDAA106000091GF103991021021008001041001MA1999999101691MD1999999+0201REMSYN070AAXX  07184 83398 32596 30506 10272 20210 30169 40175 82240 333 58020;EQDQ01  00002PRCP06
0198833980999992002100800004-15670-038930FM-12+000599999V0200901N003112200019N0010001N1+02541+02111101941ADDAA106000091GF103991031011008001001001KA1240M+02841MA1999999101881MD1999999+0071REMSYN088AAXX  08004 83398 32594 30906 10254 20211 30188 40194 83100 333 10284 29074 55104 58007;EQDQ01  00002PRCP06
0167833980999992002100818004-15670-038930FM-12+000599999V0200501N003111050019N0040001N1+02711+01921101691ADDAA106000091GF105991021021008001041011MA1999999101631MD1999999-0061REMSYN070AAXX  08184 83398 32596 50506 10271 20192 30163 40169 82241 333 59006;EQDQ01  00002PRCP06
0198833980999992002100900004-15670-038930FM-12+000599999V0200501N002112200019N0010001N1+02461+01941101871ADDAA106000091GF104991031021008001041001KA1240M+02861MA1999999101811MD1999999-0071REMSYN088AAXX  09004 83398 32594 40504 10246 20194 30181 40187 83240 333 10286 29068 55101 59007;EQDQ01  00002PRCP06
0186833980999992002100912004-15670-038930FM-12+000599999V0200901N002110450019N0040001N1+02701+01991101921ADDAA106000091GF105991031021008001041001KA1240N+01961MA1999999101861MD1999999+0161REMSYN076AAXX  09124 83398 32596 50904 10270 20199 30186 40192 83240 333 20196 58016;EQDQ01  00002PRCP06
0167833980999992002100918004-15670-038930FM-12+000599999V0200501N002112200019N0040001N1+02721+01951101581ADDAA106000091GF103991011021008001041011MA1999999101531MD1999999-0101REMSYN070AAXX  09184 83398 32596 30504 10272 20195 30153 40158 81241 333 59010;EQDQ01  00002PRCP06
0198833980999992002101000004-15670-038930FM-12+000599999V0200501N001012200019N0010001N1+02451+01981101931ADDAA106000091GF103991031011008001001001KA1240M+02861MA1999999101871MD1999999+0061REMSYN088AAXX  10004 83398 32594 30502 10245 20198 30187 40193 83100 333 10286 29070 55100 58006;EQDQ01  00002PRCP06
0186833980999992002101012004-15670-038930FM-12+000599999V0203601N002112200019N0040001N1+02711+02091101921ADDAA106000091GF104991031021008001041001KA1240N+01881MA1999999101861MD1999999+0001REMSYN076AAXX  10124 83398 32596 43604 10271 20209 30186 40192 83240 333 20188 58000;EQDQ01  00002PRCP06
0167833980999992002101018004-15670-038930FM-12+000599999V0200501N002112200019N0040001N1+02721+02101101581ADDAA106000091GF103991031021008001001001MA1999999101531MD1999999+0001REMSYN070AAXX  10184 83398 32596 30504 10272 20210 30153 40158 83200 333 58000;EQDQ01  00002PRCP06
0198833980999992002101100004-15670-038930FM-12+000599999V0200501N002112200019N0010001N1+02491+02141101761ADDAA106000091GF103991021011008001041001KA1240M+02851MA1999999101701MD1999999-0171REMSYN088AAXX  11004 83398 32594 30504 10249 20214 30170 40176 82140 333 10285 29075 55101 59017;EQDQ01  00002PRCP06
0190833980999992002101112004-15670-038930FM-12+000599999V0200501N003110450019N0040001N1+02711+02161101971ADDAY151061AY221061GF105991041051004501041001KA1240N+02061MA1999999101911MD1999999+0061MW1011REMSYN088AAXX  11124 83398 21496 50506 10271 20216 30191 40197 70152 84540 333 20206 58006 69924;
0167833980999992002101118004-15670-038930FM-12+000599999V0200501N003112200019N0040001N1+02741+02071101671ADDAA106000091GF104991031021008001041001MA1999999101611MD1999999+0081REMSYN070AAXX  11184 83398 32596 40506 10274 20207 30161 40167 83240 333 58008;EQDQ01  00002PRCP06
0198833980999992002101200004-15670-038930FM-12+000599999V0200501N002112200019N0010001N1+02471+02001101801ADDAA106000091GF103991021021008001041001KA1240M+02871MA1999999101741MD1999999+0041REMSYN088AAXX  12004 83398 32594 30504 10247 20200 30174 40180 82240 333 10287 29072 55099 58004;EQDQ01  00002PRCP06
0186833980999992002101212004-15670-038930FM-12+000599999V0200901N003110450019N0040001N1+02721+01961101971ADDAA106000091GF106991041051008001041001KA1240N+01901MA1999999101911MD1999999+0001REMSYN076AAXX  12124 83398 32596 60906 10272 20196 30191 40197 84540 333 20190 58000;EQDQ01  00002PRCP06
0167833980999992002101218004-15670-038930FM-12+000599999V0203601N003110450019N0040001N1+02781+01791101661ADDAA106000091GF105991031021008001041001MA1999999101601MD1999999-0011REMSYN070AAXX  12184 83398 32596 53606 10278 20179 30160 40166 83240 333 59001;EQDQ01  00002PRCP06
0198833980999992002101300004-15670-038930FM-12+000599999V0200501N003112200019N0010001N1+02441+02071999999ADDAA106000091GF104991021011008001041001KA1240M+02861MA1999999101781MD1999999+0041REMSYN088AAXX  13004 83398 32594 40506 10244 20207 30178 44018 82140 333 10286 29068 55101 58004;EQDQ01  00002PRCP06
0186833980999992002101312004-15670-038930FM-12+000599999V0200501N003110450019N0040001N1+02681+01841101881ADDAA106000091GF107991041051008001041001KA1240N+01881MA1999999101821MD1999999-0091REMSYN076AAXX  13124 83398 32596 70506 10268 20184 30182 40188 84540 333 20188 59009;EQDQ01  00002PRCP06
0167833980999992002101318004-15670-038930FM-12+000599999V0200501N003110450019N0040001N1+02761+01871101631ADDAA106000091GF106991031021008001041011MA1999999101571MD1999999-0031REMSYN070AAXX  13184 83398 32596 60506 10276 20187 30157 40163 83241 333 59003;EQDQ01  00002PRCP06
0207833980999992002101400004-15670-038930FM-12+000599999V0200501N003110450019N0010001N1+02441+01951999999ADDAA106000091GF105991031011008001041001KA1240M+02861MA1999999101761MD1999999-0021ME1100829REMSYN088AAXX  14004 83398 32594 50506 10244 20195 30176 41082 83140 333 10286 29067 55091 59002;EQDQ01  00002PRCP06
0186833980999992002101412004-15670-038930FM-12+000599999V0200501N003110450019N0040001N1+02721+02051101921ADDAA106000091GF106991031021008001041001KA1240N+01931MA1999999101861MD1999999+0041REMSYN076AAXX  14124 83398 32596 60506 10272 20205 30186 40192 83240 333 20193 58004;EQDQ01  00002PRCP06
0167833980999992002101418004-15670-038930FM-12+000599999V0200901N003111050019N0040001N1+02781+02111101591ADDAA106000091GF105991021021008001041011MA1999999101541MD1999999-0031REMSYN070AAXX  14184 83398 32596 50906 10278 20211 30154 40159 82241 333 59003;EQDQ01  00002PRCP06
0198833980999992002101500004-15670-038930FM-12+000599999V0200501N001010450019N0010001N1+02511+02061101891ADDAA106000091GF105991031021008001041001KA1240M+02901MA1999999101831MD1999999+0071REMSYN088AAXX  15004 83398 32594 50502 10251 20206 30183 40189 83240 333 10290 29072 55105 58007;EQDQ01  00002PRCP06
0190833980999992002101512004-15670-038930FM-12+000599999V0200501N002110450019N0040001N1+02711+01641101951ADDAY151061AY221061GF105991031021004501051001KA1240N+01991MA1999999101891MD1999999+0001MW1011REMSYN088AAXX  15124 83398 21496 50504 10271 20164 30189 40195 70152 83250 333 20199 58000 69954;
0167833980999992002101518004-15670-038930FM-12+000599999V0200501N003110450019N0040001N1+02681+01921101611ADDAA106000091GF106991031021008001041011MA1999999101551MD1999999+0011REMSYN070AAXX  15184 83398 32596 60506 10268 20192 30155 40161 83241 333 58001;EQDQ01  00002PRCP06
0198833980999992002101600004-15670-038930FM-12+000599999V0200501N001010450019N0010001N1+02441+01971101791ADDAA106000091GF105991031051008001041001KA1240M+02801MA1999999101731MD1999999-0101REMSYN088AAXX  16004 83398 32594 50502 10244 20197 30173 40179 83540 333 10280 29069 55048 59010;EQDQ01  00002PRCP06
0190833980999992002101612004-15670-038930FM-12+000599999V0200501N003110450019N0040001N1+02721+02171101941ADDAY151061AY221061GF105991031051008001041001KA1240N+01991MA1999999101881MD1999999+0021MW1011REMSYN088AAXX  16124 83398 21596 50506 10272 20217 30188 40194 70152 83540 333 20199 58002 69944;
0171833980999992002101618004-15670-038930FM-12+000599999V0203601N002110075019N0040001N1+02471+02201101641ADDAY151061AY221061GF108991051051008001021999MA1999999101581MD1999999+0031MW1021REMSYN082AAXX  16184 83398 21596 83604 10247 20220 30158 40164 70252 8552/ 333 58003 60021;
0198833980999992002101700004-15670-038930FM-12+000599999V0209999C000010450019N0010001N1+02211+02071101741ADDAA106000091GF105991031021008001051001KA1240M+02761MA1999999101681MD1999999-0051REMSYN088AAXX  17004 83398 32594 50000 10221 20207 30168 40174 83250 333 10276 29085 55026 59005;EQDQ01  00002PRCP06
0162833980999992002101712004-15670-038930FM-12+000599999V0200501N002110450019N0040001N1+02701+02201101771ADDGF106991041051008001041001KA1240N+02011MA1999999101711MD1999999-0171REMSYN082AAXX  17124 83398 22596 60504 10270 20220 30171 40177 84540 333 20201 59017 60024;
0167833980999992002101718004-15670-038930FM-12+000599999V0203601N004110450019N0040001N1+02721+02121101431ADDAA106000091GF106991031051008001041011MA1999999101381MD1999999-0281REMSYN070AAXX  17184 83398 32596 63608 10272 20212 30138 40143 83541 333 59028;EQDQ01  00002PRCP06
0198833980999992002101800004-15670-038930FM-12+000599999V0200501N004112200019N0010001N1+02421+02051101571ADDAA106000091GF102991011011008001041001KA1240M+02861MA1999999101521MD1999999-0161REMSYN088AAXX  18004 83398 32594 20508 10242 20205 30152 40157 81140 333 10286 29076 55097 59016;EQDQ01  00002PRCP06
0186833980999992002101812004-15670-038930FM-12+000599999V0200501N002110450019N0040001N1+02721+02171101771ADDAA106000091GF106991041051008001021001KA1240N+01921MA1999999101711MD1999999+0001REMSYN076AAXX  18124 83398 32596 60504 10272 20217 30171 40177 84520 333 20192 58000;EQDQ01  00002PRCP06
0167833980999992002101818004-15670-038930FM-12+000599999V0200501N003110450019N0040001N1+02761+02121101481ADDAA106000091GF106991041021008001041001MA1999999101431MD1999999+0051REMSYN070AAXX  18184 83398 32596 60506 10276 20212 30143 40148 84240 333 58005;EQDQ01  00002PRCP06
0198833980999992002101900004-15670-038930FM-12+000599999V0200901N002112200019N0010001N1+02481+02191101711ADDAA106000091GF103991031011008001001001KA1240M+02861MA1999999101651MD1999999+0131REMSYN088AAXX  19004 83398 32594 30904 10248 20219 30165 40171 83100 333 10286 29077 55097 58013;EQDQ01  00002PRCP06
0190833980999992002101912004-15670-038930FM-12+000599999V0202301N001010075019N0040001N1+02361+02171101881ADDAY151061AY221061GF108991051051008001021999KA1240N+02001MA1999999101821MD1999999+0111MW1021REMSYN088AAXX  19124 83398 21596 82302 10236 20217 30182 40188 70252 8552/ 333 20200 58011 69954;
0171833980999992002101918004-15670-038930FM-12+000599999V0200501N003110075019N0040001N1+02381+02191101571ADDAY161061AY221061GF108991071051008001021999MA1999999101521MD1999999+0091MW1601REMSYN082AAXX  19184 83398 21596 80506 10238 20219 30152 40157 76062 8752/ 333 58009 60081;
0202833980999992002102000004-15670-038930FM-12+000599999V0200501N004110450019N0010001N1+02361+02111101781ADDAY161061AY221061GF106991041051008001021001KA1240M+02751MA1999999101721MD1999999+0071MW1021REMSYN100AAXX  20004 83398 21594 60508 10236 20211 30172 40178 70262 84520 333 10275 29088 55009 58007 60051;
0190833980999992002102012004-15670-038930FM-12+000599999V0200901N004110450019N0040001N1+02681+02161101861ADDAY161061AY221061GF106991041051008001021001KA1240N+02221MA1999999101801MD1999999-0021MW1021REMSYN088AAXX  20124 83398 21596 60908 10268 20216 30180 40186 70262 84520 333 20222 59002 60134;
0167833980999992002102018004-15670-038930FM-12+000599999V0200901N004110450019N0040001N1+02701+01991101511ADDAA106000091GF106991031051008001041001MA1999999101461MD1999999-0061REMSYN070AAXX  20184 83398 32596 60908 10270 20199 30146 40151 83540 333 59006;EQDQ01  00002PRCP06
0198833980999992002102100004-15670-038930FM-12+000599999V0200501N003110075019N0010001N1+02481+02031101681ADDAA106000091GF105991051011008001001001KA1240M+02841MA1999999101621MD1999999-0101REMSYN088AAXX  21004 83398 32594 50506 10248 20203 30162 40168 85100 333 10284 29073 55108 59010;EQDQ01  00002PRCP06
0186833980999992002102112004-15670-038930FM-12+000599999V0203601N002112200019N0040001N1+02701+02111101861ADDAA106000091GF104991031021008001041001KA1240N+01951MA1999999101801MD1999999+0001REMSYN076AAXX  21124 83398 32596 43604 10270 20211 30180 40186 83240 333 20195 58000;EQDQ01  00002PRCP06
0167833980999992002102118004-15670-038930FM-12+000599999V0200501N002112200019N0040001N1+02731+02111101511ADDAA106000091GF104991021021008001041011MA1999999101461MD1999999+0001REMSYN070AAXX  21184 83398 32596 40504 10273 20211 30146 40151 82241 333 58000;EQDQ01  00002PRCP06
0198833980999992002102200004-15670-038930FM-12+000599999V0203601N002112200019N0010001N1+02441+02131101591ADDAA106000091GF103991031011008001001001KA1240M+02841MA1999999101541MD1999999-0081REMSYN088AAXX  22004 83398 32594 33604 10244 20213 30154 40159 83100 333 10284 29076 55109 59008;EQDQ01  00002PRCP06
0186833980999992002102212004-15670-038930FM-12+000599999V0203601N003110450019N0040001N1+02761+02211101741ADDAA106000091GF106991041051008001041001KA1240N+01841MA1999999101681MD1999999-0121REMSYN076AAXX  22124 83398 32596 63606 10276 20221 30168 40174 84540 333 20184 59012;EQDQ01  00002PRCP06
0167833980999992002102218004-15670-038930FM-12+000599999V0200501N005112200019N0040001N1+02771+02251101451ADDAA106000091GF102991011011008001041011MA1999999101401MD1999999-0061REMSYN070AAXX  22184 83398 32596 20510 10277 20225 30140 40145 81141 333 59006;EQDQ01  00002PRCP06
0198833980999992002102300004-15670-038930FM-12+000599999V0200501N002112200019N0010001N1+02521+02231101691ADDAA106000091GF104991031011008001041001KA1240M+02921MA1999999101631MD1999999+0091REMSYN088AAXX  23004 83398 32594 40504 10252 20223 30163 40169 83140 333 10292 29078 55107 58009;EQDQ01  00002PRCP06
0186833980999992002102312004-15670-038930FM-12+000599999V0200901N002110450019N0040001N1+02781+02251101761ADDAA106000091GF105991031021008001041001KA1240N+01981MA1999999101701MD1999999+0021REMSYN076AAXX  23124 83398 32596 50904 10278 20225 30170 40176 83240 333 20198 58002;EQDQ01  00002PRCP06
0167833980999992002102318004-15670-038930FM-12+000599999V0200501N003110450019N0040001N1+02791+02371101521ADDAA106000091GF105991031051008001041001MA1999999101471MD1999999+0071REMSYN070AAXX  23184 83398 32596 50506 10279 20237 30147 40152 83540 333 58007;EQDQ01  00002PRCP06
0198833980999992002102400004-15670-038930FM-12+000599999V0200501N001010450019N0010001N1+02561+02251101751ADDAA106000091GF106991041051008001021001KA1240M+02901MA1999999101691MD1999999+0061REMSYN088AAXX  24004 83398 32594 60502 10256 20225 30169 40175 84520 333 10290 29079 55091 58006;EQDQ01  00002PRCP06
0190833980999992002102412004-15670-038930FM-12+000599999V0201801N001010450019N0040001N1+02641+02311101781ADDAY151061AY221061GF106991041051008001041001KA1240N+02201MA1999999101721MD1999999+0021MW1021REMSYN088AAXX  24124 83398 21596 61802 10264 20231 30172 40178 70252 84540 333 20220 58002 69934;
0171833980999992002102418004-15670-038930FM-12+000599999V0201401N003110450019N0040001N1+02701+02301101501ADDAY151061AY221061GF106991041051008001041001MA1999999101441MD1999999-0031MW1021REMSYN082AAXX  24184 83398 21596 61406 10270 20230 30144 40150 70252 84540 333 59003 69921;
0181833980999992002102512004-15670-038930FM-12+000599999V0201401N001012200019N0040001N1+02621+02181101651ADDGF101991999051008001041001KA1240N+01971MA1999999101591MD1999999-0131REMSYN082AAXX  25124 83398 22596 11402 10262 20218 30159 40165 84540 333 20197 59013 69924;EQDQ01+000042SCOTLC
0167833980999992002102518004-15670-038930FM-12+000599999V0200501N001010450019N0040001N1+02761+02231101291ADDAA106000091GF105991031021008001041001MA1999999101241MD1999999-0201REMSYN070AAXX  25184 83398 32596 50502 10276 20223 30124 40129 83240 333 59020;EQDQ01  00002PRCP06
0167833980999992002102618004-15670-038930FM-12+000599999V0203601N004110450019N0040001N1+02801+02201101221ADDAA106000091GF106991031021008001041011MA1999999101171MD1999999-0071REMSYN070AAXX  26184 83398 32596 63608 10280 20220 30117 40122 83241 333 59007;EQDQ01  00002PRCP06
0198833980999992002102700004-15670-038930FM-12+000599999V0200501N003112200019N0010001N1+02541+02111101381ADDAA106000091GF103991031011008001001001KA1240M+02921MA1999999101331MD1999999-0031REMSYN088AAXX  27004 83398 32594 30506 10254 20211 30133 40138 83100 333 10292 29075 55110 59003;EQDQ01  00002PRCP06
0186833980999992002102712004-15670-038930FM-12+000599999V0203601N002110450019N0040001N1+02791+02261101521ADDAA106000091GF105991031021008001041011KA1240N+02251MA1999999101431MD1999999-0031REMSYN076AAXX  27124 83398 32596 53604 10279 20226 30143 40152 83241 333 20225 59003;EQDQ01  00002PRCP06
0167833980999992002102718004-15670-038930FM-12+000599999V0203601N004110450019N0040001N1+02761+02251101201ADDAA106000091GF106991031021008001041011MA1999999101151MD1999999-0021REMSYN070AAXX  27184 83398 32596 63608 10276 20225 30115 40120 83241 333 59002;EQDQ01  00002PRCP06
0198833980999992002102800004-15670-038930FM-12+000599999V0200501N002112200019N0010001N1+02541+02251101331ADDAA106000091GF102991021011008001001001KA1240M+02981MA1999999101281MD1999999-0051REMSYN088AAXX  28004 83398 32594 20504 10254 20225 30128 40133 82100 333 10298 29079 55092 59005;EQDQ01  00002PRCP06
0186833980999992002102812004-15670-038930FM-12+000599999V0200501N003110450019N0040001N1+02781+02381101501ADDAA106000091GF106991041051008001021001KA1240N+02121MA1999999101451MD1999999-0021REMSYN076AAXX  28124 83398 32596 60506 10278 20238 30145 40150 84520 333 20212 59002;EQDQ01  00002PRCP06
0167833980999992002102818004-15670-038930FM-12+000599999V0200501N002112200019N0040001N1+02801+02311101171ADDAA106000091GF104991031021008001041001MA1999999101121MD1999999-0031REMSYN070AAXX  28184 83398 32596 40504 10280 20231 30112 40117 83240 333 59003;EQDQ01  00002PRCP06
0198833980999992002102900004-15670-038930FM-12+000599999V0200501N002112200019N0010001N1+02571+02301101351ADDAA106000091GF103991031011008001001001KA1240M+02961MA1999999101301MD1999999+0021REMSYN088AAXX  29004 83398 32594 30504 10257 20230 30130 40135 83100 333 10296 29081 55095 58002;EQDQ01  00002PRCP06
0186833980999992002102912004-15670-038930FM-12+000599999V0200501N004110075019N0040001N1+02551+02221101501ADDAA106000091GF107991051051008001021001KA1240N+02241MA1999999101451MD1999999+0001REMSYN076AAXX  29124 83398 32596 70508 10255 20222 30145 40150 85520 333 20224 58000;EQDQ01  00002PRCP06
0167833980999992002102918004-15670-038930FM-12+000599999V0200501N002112200019N0040001N1+02771+02261101171ADDAA106000091GF104991031021008001041001MA1999999101121MD1999999+0001REMSYN070AAXX  29184 83398 32596 40504 10277 20226 30112 40117 83240 333 58000;EQDQ01  00002PRCP06
0198833980999992002103000004-15670-038930FM-12+000599999V0200501N002110450019N0010001N1+02541+02361101301ADDAA106000091GF105991041051008001041001KA1240M+02981MA1999999101251MD1999999-0051REMSYN088AAXX  30004 83398 32594 50504 10254 20236 30125 40130 84540 333 10298 29084 55051 59005;EQDQ01  00002PRCP06
0190833980999992002103012004-15670-038930FM-12+000599999V0203601N003110450019N0040001N1+02781+02421101361ADDAY151061AY221061GF106991041051004501041001KA1240N+02401MA1999999101311MD1999999-0141MW1021REMSYN088AAXX  30124 83398 21496 63606 10278 20242 30131 40136 70252 84540 333 20240 59014 69924;
0167833980999992002103018004-15670-038930FM-12+000599999V0200501N003110450019N0040001N1+02831+02391101031ADDAA106000091GF105991031021008001041041MA1999999100981MD1999999-0141REMSYN070AAXX  30184 83398 32596 50506 10283 20239 30098 40103 83244 333 59014;EQDQ01  00002PRCP06
0198833980999992002103100004-15670-038930FM-12+000599999V0203601N002112200019N0010001N1+02561+02351101251ADDAA106000091GF104991031021008001041001KA1240M+02961MA1999999101201MD1999999-0051REMSYN088AAXX  31004 83398 32594 43604 10256 20235 30120 40125 83240 333 10296 29084 55073 59005;EQDQ01  00002PRCP06
0186833980999992002103112004-15670-038930FM-12+000599999V0200501N003110450019N0040001N1+02791+02451101471ADDAA106000091GF106991041051008001041001KA1240N+02311MA1999999101421MD1999999+0111REMSYN076AAXX  31124 83398 32596 60506 10279 20245 30142 40147 84540 333 20231 58011;EQDQ01  00002PRCP06
0167833980999992002103118004-15670-038930FM-12+000599999V0203601N003110450019N0040001N1+02801+02421100911ADDAA106000091GF105991031021008001041001MA1999999100861MD1999999-0121REMSYN070AAXX  31184 83398 32596 53606 10280 20242 30086 40091 83240 333 59012;EQDQ01  00002PRCP06
0198833980999992002110100004-15670-038930FM-12+000599999V0200501N002110450019N0010001N1+02601+02391101141ADDAA106000091GF105991031051008001041001KA1240M+02941MA1999999101091MD1999999-0111REMSYN088AAXX  01004 83398 32594 50504 10260 20239 30109 40114 83540 333 10294 29085 55030 59011;EQDQ01  00002PRCP06
0186833980999992002110112004-15670-038930FM-12+000599999V0203601N003110075019N0040001N1+02721+02451101261ADDAA106000091GF108991051051008001021999KA1240N+02401MA1999999101211MD1999999-0211REMSYN076AAXX  01124 83398 32596 83606 10272 20245 30121 40126 8552/ 333 20240 59021;EQDQ01  00002PRCP06
0171833980999992002110118004-15670-038930FM-12+000599999V0202701N001010090019N0040001N1+02521+02341101111ADDAY161061AY221061GF108991061081004501021999MA1999999101061MD1999999+0201MW1601REMSYN082AAXX  01184 83398 21496 82702 10252 20234 30106 40111 76062 8682/ 333 58020 60041;
0202833980999992002110200004-15670-038930FM-12+000599999V0209999C000010042019N0010001N1+02461+02281101271ADDAY161061AY221061GF108991051051004501021999KA1240M+02701MA1999999101221MD1999999+0131MW1601REMSYN100AAXX  02004 83398 21494 80000 10246 20228 30122 40127 76062 8552/ 333 10270 29089 55000 58013 60261;
0190833980999992002110212004-15670-038930FM-12+000599999V0203601N003110075019N0040001N1+02641+02461101291ADDAY161061AY221061GF107991051051008001021001KA1240N+02271MA1999999101241MD1999999+0031MW1021REMSYN088AAXX  02124 83398 21596 73606 10264 20246 30124 40129 70262 85520 333 20227 58003 60314;
0167833980999992002110218004-15670-038930FM-12+000599999V0203601N004110075019N0040001N1+02751+02401100951ADDAA106000091GF107991051051008001021001MA1999999100901MD1999999-0161REMSYN070AAXX  02184 83398 32596 73608 10275 20240 30090 40095 85520 333 59016;EQDQ01  00002PRCP06
0202833980999992002110300004-15670-038930FM-12+000599999V0209999C000010042019N0010001N1+02321+02161101311ADDAY191061AY261061GF108991061071004501021999KA1240M+02961MA1999999101261MD1999999+0041MW1601REMSYN100AAXX  03004 83398 21494 80000 10232 20216 30126 40131 76096 8672/ 333 10296 29088 55024 58004 60371;
0190833980999992002110312004-15670-038930FM-12+000599999V0201801N002110042019N0040001N1+02511+02331101381ADDAY191061AY261061GF108991051051004501021999KA1240N+02221MA1999999101331MD1999999+0091MW1021REMSYN088AAXX  03124 83398 21496 81804 10251 20233 30133 40138 70296 8552/ 333 20222 58009 60384;
0167833980999992002110318004-15670-038930FM-12+000599999V0201401N003111050019N0040001N1+02661+02331101101ADDAA106000091GF105991021021008001041041MA1999999101051MD1999999+0151REMSYN070AAXX  03184 83398 32596 51406 10266 20233 30105 40110 82244 333 58015;EQDQ01  00002PRCP06
0198833980999992002110400004-15670-038930FM-12+000599999V0209999C000010450019N0010001N1+02451+02241101351ADDAA106000091GF105991031051008001041001KA1240M+02861MA1999999101301MD1999999+0041REMSYN088AAXX  04004 83398 32594 50000 10245 20224 30130 40135 83540 333 10286 29087 55021 58004;EQDQ01  00002PRCP06
0186833980999992002110412004-15670-038930FM-12+000599999V0200501N002110450019N0040001N1+02651+02421101381ADDAA106000091GF107991041051008001021001KA1240N+02301MA1999999101331MD1999999+0001REMSYN076AAXX  04124 83398 32596 70504 10265 20242 30133 40138 84520 333 20230 58000;EQDQ01  00002PRCP06
0195833980999992002110418004-15670-038930FM-12+000599999V0200501N003110450019N0040001N1+02801+02461101071ADDAA106000091AY151061AY221061GF105991031051008001041001MA1999999101021MD1999999-0031MW1011REMSYN076AAXX  04184 83398 31596 50506 10280 20246 30102 40107 70152 83540 333 59003;EQDQ01  00002PRCP06
0198833980999992002110500004-15670-038930FM-12+000599999V0203601N001010450019N0040001N1+02561+02351101341ADDAA106000091GF106991041051008001021001KA1240M+02831MA1999999101291MD1999999-0011REMSYN088AAXX  05004 83398 32596 63602 10256 20235 30129 40134 84520 333 10283 29086 55032 59001;EQDQ01  00002PRCP06
0162833980999992002110512004-15670-038930FM-12+000599999V0203601N003110450019N0040001N1+02841+02441101421ADDGF107991041051008001021001KA1240N+02401MA1999999101371MD1999999+0041REMSYN082AAXX  05124 83398 22596 73606 10284 20244 30137 40142 84520 333 20240 58004 69924;
0167833980999992002110518004-15670-038930FM-12+000599999V0203601N004110075019N0040001N1+02771+02471101161ADDAA106000091GF107991051051008001021001MA1999999101111MD1999999+0091REMSYN070AAXX  05184 83398 32596 73608 10277 20247 30111 40116 85520 333 58009;EQDQ01  00002PRCP06
0198833980999992002110600004-15670-038930FM-12+000599999V0203601N002112200019N0010001N1+02591+02391101381ADDAA106000091GF104991041051008001021001KA1240M+02941MA1999999101331MD1999999+0041REMSYN088AAXX  06004 83398 32594 43604 10259 20239 30133 40138 84520 333 10294 29085 55008 58004;EQDQ01  00002PRCP06
0186833980999992002110612004-15670-038930FM-12+000599999V0203601N003110450019N0040001N1+02781+02361101611ADDAA106000091GF106991041051008001041001KA1240N+02371MA1999999101551MD1999999+0181REMSYN076AAXX  06124 83398 32596 63606 10278 20236 30155 40161 84540 333 20237 58018;EQDQ01  00002PRCP06
0167833980999992002110618004-15670-038930FM-12+000599999V0203601N002110075019N0040001N1+02691+02401101341ADDAA106000091GF107991051051008001021001MA1999999101291MD1999999+0181REMSYN070AAXX  06184 83398 32596 73604 10269 20240 30129 40134 85520 333 58018;EQDQ01  00002PRCP06
0198833980999992002110700004-15670-038930FM-12+000599999V0201801N002110075019N0010001N1+02311+02151101681ADDAA106000091GF108991051051008001021999KA1240M+02921MA1999999101621MD1999999+0291REMSYN088AAXX  07004 83398 32594 81804 10231 20215 30162 40168 8552/ 333 10292 29086 55029 58029;EQDQ01  00002PRCP06
0190833980999992002110712004-15670-038930FM-12+000599999V0201801N002110042019N0040001N1+02541+02211101771ADDAY151061AY221061GF108991051051004501021999KA1240N+02171MA1999999101711MD1999999+0161MW1021REMSYN088AAXX  07124 83398 21496 81804 10254 20221 30171 40177 70252 8552/ 333 20217 58016 69934;
0167833980999992002110718004-15670-038930FM-12+000599999V0201801N003110075019N0040001N1+02371+02061101581ADDAA106000091GF107991051051008001021001MA1999999101531MD1999999+0241REMSYN070AAXX  07184 83398 32596 71806 10237 20206 30153 40158 85520 333 58024;EQDQ01  00002PRCP06
0198833980999992002110800004-15670-038930FM-12+000599999V0202301N002110075019N0010001N1+02101+01931101851ADDAA106000091GF108991051071008001021999KA1240M+02691MA1999999101791MD1999999+0171REMSYN088AAXX  08004 83398 32594 82304 10210 20193 30179 40185 8572/ 333 10269 29086 55016 58017;EQDQ01  00002PRCP06
0190833980999992002110812004-15670-038930FM-12+000599999V0201801N002110450019N0040001N1+02281+01981101911ADDAY151061AY221061GF106991041051004501041001KA1240N+01931MA1999999101851MD1999999+0141MW1011REMSYN088AAXX  08124 83398 21496 61804 10228 20198 30185 40191 70152 84540 333 20193 58014 69964;
0167833980999992002110818004-15670-038930FM-12+000599999V0201801N003110075019N0040001N1+02511+01851101631ADDAA106000091GF107991051051008001021001MA1999999101571MD1999999+0041REMSYN070AAXX  08184 83398 32596 71806 10251 20185 30157 40163 85520 333 58004;EQDQ01  00002PRCP06
0198833980999992002110900004-15670-038930FM-12+000599999V0202301N002110075019N0010001N1+02191+01951101841ADDAA106000091GF107991051051008001021001KA1240M+02661MA1999999101781MD1999999-0011REMSYN088AAXX  09004 83398 32594 72304 10219 20195 30178 40184 85520 333 10266 29081 55016 59001;EQDQ01  00002PRCP06
0186833980999992002110912004-15670-038930FM-12+000599999V0202301N002110075019N0040001N1+02471+02221101991ADDAA106000091GF107991051051008001021001KA1240N+02081MA1999999101931MD1999999+0081REMSYN076AAXX  09124 83398 32596 72304 10247 20222 30193 40199 85520 333 20208 58008;EQDQ01  00002PRCP06
0171833980999992002110918004-15670-038930FM-12+000599999V0201401N002110450019N0040001N1+02721+02281101641ADDAY151061AY221061GF105991031021004501051001MA1999999101581MD1999999+0011MW1011REMSYN082AAXX  09184 83398 21496 51404 10272 20228 30158 40164 70152 83250 333 58001 69921;
0202833980999992002111000004-15670-038930FM-12+000599999V0201801N001010042019N0040001N1+02381+02211101841ADDAY151061AY221061GF108991051051004501021999KA1240M+02781MA1999999101781MD1999999+0001MW1501REMSYN100AAXX  10004 83398 21496 81802 10238 20221 30178 40184 75052 8552/ 333 10278 29086 55042 58000 69931;
0162833980999992002111012004-15670-038930FM-12+000599999V0200901N004010450019N0040001N1+02721+02371101751ADDGF106991041051008001041001KA1240N+02141MA1999999101691MD1999999-0241REMSYN082AAXX  10121 83398 22596 60904 10272 20237 30169 40175 84540 333 20214 59024 69954;
0167833980999992002111018004-15670-038930FM-12+000599999V0200901N003110450019N0040001N1+02721+02371101481ADDAA106000091GF105991031021008001041001MA1999999101431MD1999999-0151REMSYN070AAXX  10184 83398 32596 50906 10272 20237 30143 40148 83240 333 59015;EQDQ01  00002PRCP06
0198833980999992002111100004-15670-038930FM-12+000599999V0200501N001010450019N0010001N1+02521+02341101611ADDAA106000091GF105991031021008001041001KA1240M+02851MA1999999101551MD1999999-0231REMSYN088AAXX  11004 83398 32594 50502 10252 20234 30155 40161 83240 333 10285 29086 55058 59023;EQDQ01  00002PRCP06
0190833980999992002111112004-15670-038930FM-12+000599999V0203601N002110450019N0040001N1+02841+02261101701ADDAY151061AY221061GF105991031021004501041011KA1240N+02201MA1999999101641MD1999999-0051MW1011REMSYN088AAXX  11124 83398 21496 53604 10284 20226 30164 40170 70152 83241 333 20220 59005 69934;
0167833980999992002111118004-15670-038930FM-12+000599999V0200501N002112200019N0040001N1+02791+02351101461ADDAA106000091GF104991031021008001041001MA1999999101411MD1999999-0021REMSYN070AAXX  11184 83398 32596 40504 10279 20235 30141 40146 83240 333 59002;EQDQ01  00002PRCP06
0198833980999992002111200004-15670-038930FM-12+000599999V0200501N001010450019N0010001N1+02551+02301101591ADDAA106000091GF105991031021008001041001KA1240M+02901MA1999999101541MD1999999-0011REMSYN088AAXX  12004 83398 32594 50502 10255 20230 30154 40159 83240 333 10290 29080 55116 59001;EQDQ01  00002PRCP06
0186833980999992002111212004-15670-038930FM-12+000599999V0203601N002110450019N0040001N1+02811+02301101851ADDAA106000091GF105991031021008001041001KA1240N+02161MA1999999101791MD1999999+0151REMSYN076AAXX  12124 83398 32596 53604 10281 20230 30179 40185 83240 333 20216 58015;EQDQ01  00002PRCP06
0167833980999992002111218004-15670-038930FM-12+000599999V0203601N002110450019N0040001N1+02811+02211101611ADDAA106000091GF105991021021008001051001MA1999999101551MD1999999+0141REMSYN070AAXX  12184 83398 32596 53604 10281 20221 30155 40161 82250 333 58014;EQDQ01  00002PRCP06
0198833980999992002111300004-15670-038930FM-12+000599999V0200501N002112200019N0010001N1+02551+02231101791ADDAA106000091GF102991011011008001041001KA1240M+02921MA1999999101731MD1999999+0191REMSYN088AAXX  13004 83398 32594 20504 10255 20223 30173 40179 81140 333 10292 29077 55083 58019;EQDQ01  00002PRCP06
0186833980999992002111312004-15670-038930FM-12+000599999V0203601N002110450019N0040001N1+02791+02281102011ADDAA106000091GF105991031021008001041001KA1240N+02051MA1999999101951MD1999999+0161REMSYN076AAXX  13124 83398 32596 53604 10279 20228 30195 40201 83240 333 20205 58016;EQDQ01  00002PRCP06
0167833980999992002111318004-15670-038930FM-12+000599999V0200901N002110450019N0040001N1+02781+02211101751ADDAA106000091GF105991031021008001041001MA1999999101691MD1999999+0141REMSYN070AAXX  13184 83398 32596 50904 10278 20221 30169 40175 83240 333 58014;EQDQ01  00002PRCP06
0198833980999992002111400004-15670-038930FM-12+000599999V0200901N002110075019N0010001N1+02551+02061101971ADDAA106000091GF107991051051008001041001KA1240M+02901MA1999999101911MD1999999+0181REMSYN088AAXX  14004 83398 32594 70904 10255 20206 30191 40197 85540 333 10290 29073 55112 58018;EQDQ01  00002PRCP06
0190833980999992002111412004-15670-038930FM-12+000599999V0201401N002110075019N0040001N1+02321+02111102011ADDAY161061AY221061GF108991051051008001021999KA1240N+02151MA1999999101951MD1999999+0001MW1611REMSYN088AAXX  14124 83398 21596 81404 10232 20211 30195 40201 76162 8552/ 333 20215 58000 60084;
0171833980999992002111418004-15670-038930FM-12+000599999V0200501N004110075019N0040001N1+02731+02071101811ADDAY151061AY221061GF107991051051008001021001MA1999999101751MD1999999+0061MW1021REMSYN082AAXX  14184 83398 21596 70508 10273 20207 30175 40181 70252 85520 333 58006 60031;
0198833980999992002111500004-15670-038930FM-12+000599999V0200501N002112200019N0010001N1+02511+02091101921ADDAA106000091GF104991031021008001041001KA1240M+02811MA1999999101861MD1999999-0051REMSYN088AAXX  15004 83398 32594 40504 10251 20209 30186 40192 83240 333 10281 29077 55003 59005;EQDQ01  00002PRCP06
0190833980999992002111512004-15670-038930FM-12+000599999V0200501N004110450019N0010001N1+02681+02061101871ADDAY151061AY221061GF106991041021008001041001KA1240N+02141MA1999999101811MD1999999-0141MW1021REMSYN088AAXX  15124 83398 21594 60508 10268 20206 30181 40187 70252 84240 333 20214 59014 60044;
0167833980999992002111518004-15670-038930FM-12+000599999V0200501N003112200019N0040001N1+02711+02211101531ADDAA106000091GF104991031021008001041001MA1999999101481MD1999999-0271REMSYN070AAXX  15184 83398 32596 40506 10271 20221 30148 40153 83240 333 59027;EQDQ01  00002PRCP06
0198833980999992002111600004-15670-038930FM-12+000599999V0200501N002112200019N0010001N1+02521+02131101711ADDAA106000091GF103991031011008001001001KA1240M+02851MA1999999101651MD1999999-0211REMSYN088AAXX  16004 83398 32594 30504 10252 20213 30165 40171 83100 333 10285 29075 55086 59021;EQDQ01  00002PRCP06
0186833980999992002111612004-15670-038930FM-12+000599999V0203601N002111050019N0040001N1+02761+02141101721ADDAA106000091GF105991021021008001041041KA1240N+02161MA1999999101661MD1999999-0151REMSYN076AAXX  16124 83398 32596 53604 10276 20214 30166 40172 82244 333 20216 59015;EQDQ01  00002PRCP06
0167833980999992002111618004-15670-038930FM-12+000599999V0203601N002112200019N0040001N1+02801+02201101361ADDAA106000091GF103991021021008001041001MA1999999101311MD1999999-0171REMSYN070AAXX  16184 83398 32596 33604 10280 20220 30131 40136 82240 333 59017;EQDQ01  00002PRCP06
0198833980999992002111700004-15670-038930FM-12+000599999V0203601N001012200019N0010001N1+02521+02091101491ADDAA106000091GF104991041011008001001001KA1240M+02901MA1999999101441MD1999999-0211REMSYN088AAXX  17004 83398 32594 43602 10252 20209 30144 40149 84100 333 10290 29073 55114 59021;EQDQ01  00002PRCP06
0186833980999992002111712004-15670-038930FM-12+000599999V0200501N003111050019N0040001N1+02811+02091101631ADDAA106000091GF105991021021008001041041KA1240N+02331MA1999999101571MD1999999-0091REMSYN076AAXX  17124 83398 32596 50506 10281 20209 30157 40163 82244 333 20233 59009;EQDQ01  00002PRCP06
0167833980999992002111718004-15670-038930FM-12+000599999V0200501N003112200019N0040001N1+02771+02091101291ADDAA106000091GF103991021011008001041001MA1999999101241MD1999999-0071REMSYN070AAXX  17184 83398 32596 30506 10277 20209 30124 40129 82140 333 59007;EQDQ01  00002PRCP06
0198833980999992002111800004-15670-038930FM-12+000599999V0203601N002112200019N0010001N1+02511+02161101611ADDAA106000091GF102991021011008001001001KA1240M+02921MA1999999101551MD1999999+0111REMSYN088AAXX  18004 83398 32594 23604 10251 20216 30155 40161 82100 333 10292 29073 55103 58011;EQDQ01  00002PRCP06
0186833980999992002111812004-15670-038930FM-12+000599999V0203601N003110450019N0040001N1+02811+02321101651ADDAA106000091GF105991031021008001041041KA1240N+02041MA1999999101591MD1999999+0021REMSYN076AAXX  18124 83398 32596 53606 10281 20232 30159 40165 83244 333 20204 58002;EQDQ01  00002PRCP06
0167833980999992002111818004-15670-038930FM-12+000599999V0203601N002111050019N0040001N1+02821+02361101251ADDAA106000091GF105991021021008001041041MA1999999101201MD1999999-0041REMSYN070AAXX  18184 83398 32596 53604 10282 20236 30120 40125 82244 333 59004;EQDQ01  00002PRCP06
0198833980999992002111900004-15670-038930FM-12+000599999V0203601N002112200019N0010001N1+02561+02311101491ADDAA106000091GF104991031021008001041001KA1240M+02941MA1999999101441MD1999999-0111REMSYN088AAXX  19004 83398 32594 43604 10256 20231 30144 40149 83240 333 10294 29080 55084 59011;EQDQ01  00002PRCP06
0186833980999992002111912004-15670-038930FM-12+000599999V0200501N003112200019N0040001N1+02851+02361101571ADDAA106000091GF104991021021008001041001KA1240N+02451MA1999999101521MD1999999-0071REMSYN076AAXX  19124 83398 32596 40506 10285 20236 30152 40157 82240 333 20245 59007;EQDQ01  00002PRCP06
0167833980999992002111918004-15670-038930FM-12+000599999V0200501N003111050019N0040001N1+02841+02311101281ADDAA106000091GF105991021021008001041041MA1999999101231MD1999999+0031REMSYN070AAXX  19184 83398 32596 50506 10284 20231 30123 40128 82244 333 58003;EQDQ01  00002PRCP06
0198833980999992002112100004-15670-038930FM-12+000599999V0203601N001012200019N0010001N1+02561+02351101481ADDAA106000091GF104991021021008001041001KA1240M+02971MA1999999101431MD1999999+0001REMSYN088AAXX  21004 83398 32594 43602 10256 20235 30143 40148 82240 333 10297 29084 55093 58000;EQDQ01  00002PRCP06
0186833980999992002112112004-15670-038930FM-12+000599999V0203601N003110450019N0040001N1+02701+02351101631ADDAA106000091GF106991041051008001041001KA1240N+02421MA1999999101571MD1999999+0001REMSYN076AAXX  21124 83398 32596 63606 10270 20235 30157 40163 84540 333 20242 58000;EQDQ01  00002PRCP06
0186833980999992002112212004-15670-038930FM-12+000599999V0203601N002112200019N0040001N1+02801+02311101681ADDAA106000091GF103991021021008001041001KA1240N+02481MA1999999101621MD1999999+0051REMSYN076AAXX  22124 83398 32596 33604 10280 20231 30162 40168 82240 333 20248 58005;EQDQ01  00002PRCP06
0167833980999992002112218004-15670-038930FM-12+000599999V0200501N004110450019N0040001N1+02841+02381101421ADDAA106000091GF105991031021008001041001MA1999999101371MD1999999+0031REMSYN070AAXX  22184 83398 32596 50508 10284 20238 30137 40142 83240 333 58003;EQDQ01  00002PRCP06
0198833980999992002112300004-15670-038930FM-12+000599999V0200501N002112200019N0010001N1+02581+02401101631ADDAA106000091GF103991031011008001001001KA1240M+02931MA1999999101571MD1999999+0161REMSYN088AAXX  23004 83398 32594 30504 10258 20240 30157 40163 83100 333 10293 29083 55101 58016;EQDQ01  00002PRCP06
0190833980999992002112312004-15670-038930FM-12+000599999V0200901N003110450019N0040001N1+02741+02451101741ADDAY161061AY221061GF106991041051008001021001KA1240N+02401MA1999999101681MD1999999+0061MW1021REMSYN088AAXX  23124 83398 21596 60906 10274 20245 30168 40174 70262 84520 333 20240 58006 60024;
0167833980999992002112318004-15670-038930FM-12+000599999V0200901N003111050019N0040001N1+02821+02381101551ADDAA106000091GF105991021021008001041011MA1999999101501MD1999999+0131REMSYN070AAXX  23184 83398 32596 50906 10282 20238 30150 40155 82241 333 58013;EQDQ01  00002PRCP06
0214833980999992002112400004-15670-038930FM-12+000599999V0200501N001012200019N0010001N1+02621+02391101721ADDAA106000091GF103991021021008001041001KA1240M+02941MA1999999091662MD1999999+0111REMSYN088AAXX  24004 83398 32594 30502 10262 20239 39166 40172 82240 333 10294 29084 55094 58011;EQDQ01+091663APOSP Q02  00002PRCP06
0167833980999992002112418004-15670-038930FM-12+000599999V0200501N003110450019N0040001N1+02841+02401101611ADDAA106000091GF106991031021008001041011MA1999999101551MD1999999+0051REMSYN070AAXX  24184 83398 32596 60506 10284 20240 30155 40161 83241 333 58005;EQDQ01  00002PRCP06
0198833980999992002112500004-15670-038930FM-12+000599999V0200501N002112200019N0010001N1+02621+02371101721ADDAA106000091GF104991031021008001041001KA1240M+03011MA1999999101661MD1999999+0001REMSYN088AAXX  25004 83398 32594 40504 10262 20237 30166 40172 83240 333 10301 29082 55084 58000;EQDQ01  00002PRCP06
0186833980999992002112512004-15670-038930FM-12+000599999V0203601N002112200019N0040001N1+02841+02351101881ADDAA106000091GF104991031021008001041001KA1240N+02511MA1999999101821MD1999999+0071REMSYN076AAXX  25124 83398 32596 43604 10284 20235 30182 40188 83240 333 20251 58007;EQDQ01  00002PRCP06
0167833980999992002112518004-15670-038930FM-12+000599999V0200501N003110450019N0040001N1+02881+02301101591ADDAA106000091GF105991031021008001041001MA1999999101541MD1999999-0011REMSYN070AAXX  25184 83398 32596 50506 10288 20230 30154 40159 83240 333 59001;EQDQ01  00002PRCP06
0198833980999992002112600004-15670-038930FM-12+000599999V0200501N002112200019N0010001N1+02591+02281101881ADDAA106000091GF103991031011008001001001KA1240M+02991MA1999999101821MD1999999+0161REMSYN088AAXX  26004 83398 32594 30504 10259 20228 30182 40188 83100 333 10299 29078 55119 58016;EQDQ01  00002PRCP06
0186833980999992002112612004-15670-038930FM-12+000599999V0203601N003112200019N0040001N1+02841+02311101901ADDAA106000091GF104991031021008001041001KA1240N+02171MA1999999101841MD1999999+0021REMSYN076AAXX  26124 83398 32596 43606 10284 20231 30184 40190 83240 333 20217 58002;EQDQ01  00002PRCP06
0167833980999992002112618004-15670-038930FM-12+000599999V0200501N003112200019N0040001N1+02851+02271101531ADDAA106000091GF104991021021008001041041MA1999999101481MD1999999-0061REMSYN070AAXX  26184 83398 32596 40506 10285 20227 30148 40153 82244 333 59006;EQDQ01  00002PRCP06
0186833980999992002112712004-15670-038930FM-12+000599999V0200501N002110450019N0040001N1+02771+02331101761ADDAA106000091GF105991031021008001041001KA1240N+02071MA1999999101701MD1999999-0141REMSYN076AAXX  27124 83398 32596 50504 10277 20233 30170 40176 83240 333 20207 59014;EQDQ01  00002PRCP06
0167833980999992002112718004-15670-038930FM-12+000599999V0200501N003111050019N0040001N1+02821+02221101421ADDAA106000091GF105991021021008001041041MA1999999101371MD1999999-0111REMSYN070AAXX  27184 83398 32596 50506 10282 20222 30137 40142 82244 333 59011;EQDQ01  00002PRCP06
0198833980999992002112800004-15670-038930FM-12+000599999V0200501N002112200019N0010001N1+02541+02191101561ADDAA106000091GF103991021021008001041001KA1240M+02961MA1999999101511MD1999999-0271REMSYN088AAXX  28004 83398 32594 30504 10254 20219 30151 40156 82240 333 10296 29077 55093 59027;EQDQ01  00002PRCP06
0186833980999992002112812004-15670-038930FM-12+000599999V0200901N003110450019N0040001N1+02841+02441101751ADDAA106000091GF106991041051008001041001KA1240N+02111MA1999999101691MD1999999-0111REMSYN076AAXX  28124 83398 32596 60906 10284 20244 30169 40175 84540 333 20211 59011;EQDQ01  00002PRCP06
0167833980999992002112818004-15670-038930FM-12+000599999V0200501N003110450019N0040001N1+02861+02481101411ADDAA106000091GF105991041051008001041001MA1999999101361MD1999999-0011REMSYN070AAXX  28184 83398 32596 50506 10286 20248 30136 40141 84540 333 59001;EQDQ01  00002PRCP06
0198833980999992002112900004-15670-038930FM-12+000599999V0200501N002112200019N0010001N1+02621+02371101731ADDAA106000091GF102991011011008001041001KA1240M+02971MA1999999101671MD1999999+0161REMSYN088AAXX  29004 83398 32594 20504 10262 20237 30167 40173 81140 333 10297 29080 55109 58016;EQDQ01  00002PRCP06
0186833980999992002112912004-15670-038930FM-12+000599999V0200901N002110450019N0040001N1+02751+02401101731ADDAA106000091GF106991041051008001021001KA1240N+02171MA1999999101671MD1999999+0081REMSYN076AAXX  29124 83398 32596 60904 10275 20240 30167 40173 84520 333 20217 58008;EQDQ01  00002PRCP06
0167833980999992002112918004-15670-038930FM-12+000599999V0200501N003110450019N0040001N1+02821+02401101451ADDAA106000091GF106991041051008001021001MA1999999101401MD1999999+0041REMSYN070AAXX  29184 83398 32596 60506 10282 20240 30140 40145 84520 333 58004;EQDQ01  00002PRCP06
0198833980999992002113000004-15670-038930FM-12+000599999V0200501N003112200019N0010001N1+02591+02291101711ADDAA106000091GF103991021011008001041001KA1240M+02991MA1999999101651MD1999999-0021REMSYN088AAXX  30004 83398 32594 30506 10259 20229 30165 40171 82140 333 10299 29077 55073 59002;EQDQ01  00002PRCP06
0186833980999992002113012004-15670-038930FM-12+000599999V0200901N002110450019N0040001N1+02851+02411101771ADDAA106000091GF105991031021008001041001KA1240N+02121MA1999999101711MD1999999+0041REMSYN076AAXX  30124 83398 32596 50904 10285 20241 30171 40177 83240 333 20212 58004;EQDQ01  00002PRCP06
0167833980999992002113018004-15670-038930FM-12+000599999V0200901N003110450019N0040001N1+02881+02281101511ADDAA106000091GF106991031021008001041011MA1999999101461MD1999999+0061REMSYN070AAXX  30184 83398 32596 60906 10288 20228 30146 40151 83241 333 58006;EQDQ01  00002PRCP06
0202833980999992002120100004-15670-038930FM-12+000599999V0200901N003110450019N0010001N1+02541+02381101711ADDAY151061AY221061GF105991031051008001031001KA1240M+03011MA1999999101651MD1999999+0001MW1021REMSYN100AAXX  01004 83398 21594 50906 10254 20238 30165 40171 70252 83530 333 10301 29081 55102 58000 69931;
0190833980999992002120112004-15670-038930FM-12+000599999V0200501N002110450019N0040001N1+02681+02261101731ADDAY151061AY221061GF106991041051008001021001KA1240N+02391MA1999999101671MD1999999-0051MW1021REMSYN088AAXX  01124 83398 21596 60504 10268 20226 30167 40173 70252 84520 333 20239 59005 60014;
0198833980999992002120200004-15670-038930FM-12+000599999V0200501N002110450019N0010001N1+02581+02231101571ADDAA106000091GF105991031051008001041001KA1240M+02971MA1999999101521MD1999999-0131REMSYN088AAXX  02004 83398 32594 50504 10258 20223 30152 40157 83540 333 10297 29079 55060 59013;EQDQ01  00002PRCP06
0162833980999992002120212004-15670-038930FM-12+000599999V0200501N003110450019N0040001N1+02841+02261101501ADDGF105991031021008001041011KA1240N+02061MA1999999101451MD1999999-0221REMSYN082AAXX  02124 83398 22596 50506 10284 20226 30145 40150 83241 333 20206 59022 69964;
0167833980999992002120218004-15670-038930FM-12+000599999V0200501N003112200019N0040001N1+02891+02221101171ADDAA106000091GF103991021021008001041001MA1999999101121MD1999999-0221REMSYN070AAXX  02184 83398 32596 30506 10289 20222 30112 40117 82240 333 59022;EQDQ01  00002PRCP06
0198833980999992002120300004-15670-038930FM-12+000599999V0203601N001012200019N0010001N1+02561+01801101301ADDAA106000091GF103991031011008001001001KA1240M+03001MA1999999101251MD1999999-0271REMSYN088AAXX  03004 83398 32594 33602 10256 20180 30125 40130 83100 333 10300 29076 55110 59027;EQDQ01  00002PRCP06
0186833980999992002120312004-15670-038930FM-12+000599999V0203601N003112200019N0040001N1+02841+02171101631ADDAA106000091GF104991031021008001041001KA1240N+01971MA1999999101571MD1999999+0121REMSYN076AAXX  03124 83398 32596 43606 10284 20217 30157 40163 83240 333 20197 58012;EQDQ01  00002PRCP06
0167833980999992002120318004-15670-038930FM-12+000599999V0200501N003112200019N0040001N1+02881+02161101361ADDAA106000091GF102991021021008001001001MA1999999101311MD1999999+0191REMSYN070AAXX  03184 83398 32596 20506 10288 20216 30131 40136 82200 333 58019;EQDQ01  00002PRCP06
0198833980999992002120400004-15670-038930FM-12+000599999V0200501N002112200019N0010001N1+02621+02271101561ADDAA106000091GF103991031011008001001001KA1240M+03001MA1999999101511MD1999999+0261REMSYN088AAXX  04004 83398 32594 30504 10262 20227 30151 40156 83100 333 10300 29074 55117 58026;EQDQ01  00002PRCP06
0186833980999992002120412004-15670-038930FM-12+000599999V0200901N002110450019N0010001N1+02801+02131101691ADDAA106000091GF105991031021008001041011KA1240N+02201MA1999999101631MD1999999-0061REMSYN076AAXX  04124 83398 32594 50904 10280 20213 30163 40169 83241 333 20220 59006;EQDQ01  00002PRCP06
0167833980999992002120418004-15670-038930FM-12+000599999V0200501N002112200019N0040001N1+02871+02221101351ADDAA106000091GF103991021021008001041001MA1999999101301MD1999999-0011REMSYN070AAXX  04184 83398 32596 30504 10287 20222 30130 40135 82240 333 59001;EQDQ01  00002PRCP06
0198833980999992002120500004-15670-038930FM-12+000599999V0200501N002112200019N0040001N1+02531+02281101591ADDAA106000091GF102991021021008001001001KA1240M+02981MA1999999101541MD1999999+0031REMSYN088AAXX  05004 83398 32596 20504 10253 20228 30154 40159 82200 333 10298 29077 55116 58003;EQDQ01  00002PRCP06
0186833980999992002120512004-15670-038930FM-12+000599999V0200501N004110450019N0040001N1+02901+02391101621ADDAA106000091GF105991041021008001041001KA1240N+02221MA1999999101561MD1999999+0051REMSYN076AAXX  05124 83398 32596 50508 10290 20239 30156 40162 84240 333 20222 58005;EQDQ01  00002PRCP06
0167833980999992002120518004-15670-038930FM-12+000599999V0200501N003110450019N0040001N1+02921+02471101311ADDAA106000091GF105991031021008001041001MA1999999101261MD1999999-0041REMSYN070AAXX  05184 83398 32596 50506 10292 20247 30126 40131 83240 333 59004;EQDQ01  00002PRCP06
0198833980999992002120600004-15670-038930FM-12+000599999V0200501N003112200019N0010001N1+02611+02371101411ADDAA106000091GF102991011011008001041001KA1240M+03041MA1999999101361MD1999999-0181REMSYN088AAXX  06004 83398 32594 20506 10261 20237 30136 40141 81140 333 10304 29080 55103 59018;EQDQ01  00002PRCP06
0186833980999992002120612004-15670-038930FM-12+000599999V0203601N002110450019N0040001N1+02941+02381101371ADDAA106000091GF105991031021008001041001KA1240N+02301MA1999999101321MD1999999-0241REMSYN076AAXX  06124 83398 32596 53604 10294 20238 30132 40137 83240 333 20230 59024;EQDQ01  00002PRCP06
0167833980999992002120618004-15670-038930FM-12+000599999V0203601N004110450019N0040001N1+02861+02501101021ADDAA106000091GF106991031021008001041011MA1999999100971MD1999999-0291REMSYN070AAXX  06184 83398 32596 63608 10286 20250 30097 40102 83241 333 59029;EQDQ01  00002PRCP06
0198833980999992002120700004-15670-038930FM-12+000599999V0200501N003110450019N0010001N1+02621+02311100981ADDAA106000091GF105991031051008001041001KA1240M+03071MA1999999100931MD1999999-0431REMSYN088AAXX  07004 83398 32594 50506 10262 20231 30093 40098 83540 333 10307 29080 55089 59043;EQDQ01  00002PRCP06
0190833980999992002120712004-15670-038930FM-12+000599999V0203601N002110075019N0040001N1+02581+02421101191ADDAY161061AY221061GF108991051051008001021999KA1240N+02311MA1999999101141MD1999999-0181MW1021REMSYN088AAXX  07124 83398 21596 83604 10258 20242 30114 40119 70262 8552/ 333 20231 59018 60024;
0167833980999992002120718004-15670-038930FM-12+000599999V0203601N002110075019N0040001N1+02681+02461100691ADDAA106000091GF107991051051008001021001MA1999999100641MD1999999-0331REMSYN070AAXX  07184 83398 32596 73604 10268 20246 30064 40069 85520 333 59033;EQDQ01  00002PRCP06
0198833980999992002120800004-15670-038930FM-12+000599999V0200501N002112200019N0010001N1+02601+02421100901ADDAA106000091GF103991021021008001041001KA1240M+02831MA1999999100851MD1999999-0081REMSYN088AAXX  08004 83398 32594 30504 10260 20242 30085 40090 82240 333 10283 29090 55002 59008;EQDQ01  00002PRCP06
0190833980999992002120812004-15670-038930FM-12+000599999V0203601N002110075019N0040001N1+02521+02341101061ADDAY161061AY221061GF108991051051008001021999KA1240N+02311MA1999999101011MD1999999-0131MW1021REMSYN088AAXX  08124 83398 21596 83604 10252 20234 30101 40106 70262 8552/ 333 20231 59013 60024;
0167833980999992002120818004-15670-038930FM-12+000599999V0203601N004110450019N0040001N1+02801+02361100691ADDAA106000091GF107991041051008001021001MA1999999100641MD1999999+0001REMSYN070AAXX  08184 83398 32596 73608 10280 20236 30064 40069 84520 333 58000;EQDQ01  00002PRCP06
0198833980999992002120900004-15670-038930FM-12+000599999V0209999C000010450019N0010001N1+02621+02421100971ADDAA106000091GF106991041051008001021001KA1240M+02991MA1999999100921MD1999999+0071REMSYN088AAXX  09004 83398 32594 60000 10262 20242 30092 40097 84520 333 10299 29086 55009 58007;EQDQ01  00002PRCP06
0190833980999992002120912004-15670-038930FM-12+000599999V0203601N001010450019N0040001N1+02761+02441101191ADDAY151061AY221061GF105991021021008001051001KA1240N+02301MA1999999101141MD1999999+0131MW1011REMSYN088AAXX  09124 83398 21596 53602 10276 20244 30114 40119 70152 82250 333 20230 58013 69934;
0167833980999992002120918004-15670-038930FM-12+000599999V0200501N004110450019N0040001N1+02841+02481100811ADDAA106000091GF106991041051008001021001MA1999999100761MD1999999+0121REMSYN070AAXX  09184 83398 32596 60508 10284 20248 30076 40081 84520 333 58012;EQDQ01  00002PRCP06
0198833980999992002121000004-15670-038930FM-12+000599999V0203601N001010450019N0010001N1+02601+02401101201ADDAA106000091GF106991041051008001021001KA1240M+03041MA1999999101151MD1999999+0231REMSYN088AAXX  10004 83398 32594 63602 10260 20240 30115 40120 84520 333 10304 29086 55042 58023;EQDQ01  00002PRCP06
0186833980999992002121012004-15670-038930FM-12+000599999V0203601N003110450019N0040001N1+02981+02491101581ADDAA106000091GF105991021021008001041001KA1240N+02321MA1999999101531MD1999999+0391REMSYN076AAXX  10124 83398 32596 53606 10298 20249 30153 40158 82240 333 20232 58039;EQDQ01  00002PRCP06
0167833980999992002121018004-15670-038930FM-12+000599999V0200501N003110450019N0040001N1+02921+02601101331ADDAA106000091GF105991031021008001041001MA1999999101281MD1999999+0521REMSYN070AAXX  10184 83398 32596 50506 10292 20260 30128 40133 83240 333 58052;EQDQ01  00002PRCP06
0198833980999992002121100004-15670-038930FM-12+000599999V0203601N001010450019N0010001N1+02601+02421101671ADDAA106000091GF105991031051008001041001KA1240M+03111MA1999999101611MD1999999+0461REMSYN088AAXX  11004 83398 32594 53602 10260 20242 30161 40167 83540 333 10311 29085 55086 58046;EQDQ01  00002PRCP06
0190833980999992002121112004-15670-038930FM-12+000599999V0203601N002110450019N0040001N1+02801+02561101751ADDAY151061AY221061GF106991031051004501051001KA1240N+02401MA1999999101691MD1999999+0161MW1021REMSYN088AAXX  11124 83398 21496 63604 10280 20256 30169 40175 70252 83550 333 20240 58016 60054;
0171833980999992002121118004-15670-038930FM-12+000599999V0200501N003110450019N0040001N1+02901+02391101401ADDAY161061AY221061GF106991031051008001041011MA1999999101351MD1999999+0071MW1021REMSYN082AAXX  11184 83398 21596 60506 10290 20239 30135 40140 70262 83541 333 58007 60011;
0198833980999992002121200004-15670-038930FM-12+000599999V0200501N002110450019N0010001N1+02581+02401101671ADDAA106000091GF106991041051008001041001KA1240M+02991MA1999999101611MD1999999+0001REMSYN088AAXX  12004 83398 32594 60504 10258 20240 30161 40167 84540 333 10299 29085 55061 58000;EQDQ01  00002PRCP06
0162833980999992002121212004-15670-038930FM-12+000599999V0203601N002110450019N0040001N1+02871+02451101711ADDGF106991031051008001051001KA1240N+02151MA1999999101651MD1999999-0041REMSYN082AAXX  12124 83398 22596 63604 10287 20245 30165 40171 83550 333 20215 59004 60014;
0167833980999992002121218004-15670-038930FM-12+000599999V0200501N003110450019N0040001N1+02881+02461101411ADDAA106000091GF106991031051008001041001MA1999999101361MD1999999+0011REMSYN070AAXX  12184 83398 32596 60506 10288 20246 30136 40141 83540 333 58001;EQDQ01  00002PRCP06
0198833980999992002121300004-15670-038930FM-12+000599999V0200501N002112200019N0010001N1+02581+02351101571ADDAA106000091GF104991021021008001011001KA1240M+03011MA1999999101521MD1999999+0091REMSYN088AAXX  13004 83398 32594 40504 10258 20235 30152 40157 82210 333 10301 29083 55061 58009;EQDQ01  00002PRCP06
0186833980999992002121312004-15670-038930FM-12+000599999V0203601N002110450019N0040001N1+02761+02361101701ADDAA106000091GF106991041051008001021001KA1240N+02261MA1999999101651MD1999999+0001REMSYN076AAXX  13124 83398 32596 63604 10276 20236 30165 40170 84520 333 20226 58000;EQDQ01  00002PRCP06
0167833980999992002121318004-15670-038930FM-12+000599999V0203601N004110450019N0040001N1+02881+02441101411ADDAA106000091GF106991041051008001041001MA1999999101361MD1999999+0001REMSYN070AAXX  13184 83398 32596 63608 10288 20244 30136 40141 84540 333 58000;EQDQ01  00002PRCP06
0198833980999992002121400004-15670-038930FM-12+000599999V0203601N001010450019N0010001N1+02541+02351101611ADDAA106000091GF105991031011008001041001KA1240M+02971MA1999999101551MD1999999+0031REMSYN088AAXX  14004 83398 32594 53602 10254 20235 30155 40161 83140 333 10297 29084 55028 58003;EQDQ01  00002PRCP06
0186833980999992002121412004-15670-038930FM-12+000599999V0200501N003110450019N0040001N1+02881+02441101641ADDAA106000091GF106991041021008001041001KA1240N+02271MA1999999101581MD1999999-0071REMSYN076AAXX  14124 83398 32596 60506 10288 20244 30158 40164 84240 333 20227 59007;EQDQ01  00002PRCP06
0167833980999992002121418004-15670-038930FM-12+000599999V0200501N003112200019N0040001N1+02901+02371101411ADDAA106000091GF104991021021008001041011MA1999999101361MD1999999+0001REMSYN070AAXX  14184 83398 32596 40506 10290 20237 30136 40141 82241 333 58000;EQDQ01  00002PRCP06
0198833980999992002121500004-15670-038930FM-12+000599999V0203601N001011050019N0010001N1+02601+02371101581ADDAA106000091GF105991021021008001041011KA1240M+03061MA1999999101531MD1999999-0021REMSYN088AAXX  15004 83398 32594 53602 10260 20237 30153 40158 82241 333 10306 29081 55110 59002;EQDQ01  00002PRCP06
0186833980999992002121512004-15670-038930FM-12+000599999V0200501N003110450019N0040001N1+02881+02441101641ADDAA106000091GF106991021051008001041011KA1240N+02201MA1999999101581MD1999999+0001REMSYN076AAXX  15124 83398 32596 60506 10288 20244 30158 40164 82541 333 20220 58000;EQDQ01  00002PRCP06
0167833980999992002121518004-15670-038930FM-12+000599999V0200501N004110450019N0040001N1+02881+02391101401ADDAA106000091GF106991021021008001041011MA1999999101351MD1999999-0011REMSYN070AAXX  15184 83398 32596 60508 10288 20239 30135 40140 82241 333 59001;EQDQ01  00002PRCP06
0198833980999992002121600004-15670-038930FM-12+000599999V0209999C000010450019N0010001N1+02561+02361101531ADDAA106000091GF106991021021008001041011KA1240M+03041MA1999999101481MD1999999-0051REMSYN088AAXX  16004 83398 32594 60000 10256 20236 30148 40153 82241 333 10304 29083 55104 59005;EQDQ01  00002PRCP06
0186833980999992002121612004-15670-038930FM-12+000599999V0200501N002112200019N0040001N1+02871+02381101581ADDAA106000091GF104991031021008001041001KA1240N+02081MA1999999101531MD1999999-0051REMSYN076AAXX  16124 83398 32596 40504 10287 20238 30153 40158 83240 333 20208 59005;EQDQ01  00002PRCP06
0167833980999992002121618004-15670-038930FM-12+000599999V0200501N004110450019N0040001N1+02861+02391101321ADDAA106000091GF106991031021008001041011MA1999999101271MD1999999-0181REMSYN070AAXX  16184 83398 32596 60508 10286 20239 30127 40132 83241 333 59018;EQDQ01  00002PRCP06
0198833980999992002121700004-15670-038930FM-12+000599999V0203601N001011050019N0010001N1+02561+02311101501ADDAA106000091GF105991021021008001041041KA1240M+03061MA1999999101451MD1999999-0031REMSYN088AAXX  17004 83398 32594 53602 10256 20231 30145 40150 82244 333 10306 29083 55088 59003;EQDQ01  00002PRCP06
0186833980999992002121712004-15670-038930FM-12+000599999V0203601N002110450019N0040001N1+02891+02241101521ADDAA106000091GF106991031051008001041041KA1240N+02111MA1999999101471MD1999999-0061REMSYN076AAXX  17124 83398 32596 63604 10289 20224 30147 40152 83544 333 20211 59006;EQDQ01  00002PRCP06
0167833980999992002121718004-15670-038930FM-12+000599999V0200501N003110450019N0040001N1+02841+02351101221ADDAA106000091GF106991031021008001041011MA1999999101171MD1999999-0101REMSYN070AAXX  17184 83398 32596 60506 10284 20235 30117 40122 83241 333 59010;EQDQ01  00002PRCP06
0198833980999992002121800004-15670-038930FM-12+000599999V0203601N002110450019N0010001N1+02581+02351101401ADDAA106000091GF106991031051008001021001KA1240M+03031MA1999999101351MD1999999-0101REMSYN088AAXX  18004 83398 32594 63604 10258 20235 30135 40140 83520 333 10303 29079 55084 59010;EQDQ01  00002PRCP06
0186833980999992002121812004-15670-038930FM-12+000599999V0203601N002110450019N0040001N1+02991+01441101541ADDAA106000091GF105991031021008001041011KA1240N+02351MA1999999101491MD1999999-0031REMSYN076AAXX  18124 83398 32596 53604 10299 20144 30149 40154 83241 333 20235 59003;EQDQ01  00002PRCP06
0167833980999992002121818004-15670-038930FM-12+000599999V0203601N004110450019N0040001N1+02901+02541101161ADDAA106000091GF106991021021008001041011MA1999999101111MD1999999-0061REMSYN070AAXX  18184 83398 32596 63608 10290 20254 30111 40116 82241 333 59006;EQDQ01  00002PRCP06
0198833980999992002121900004-15670-038930FM-12+000599999V0200501N001010075019N0010001N1+02641+02421101421ADDAA106000091GF108991051051008001021001KA1240M+03061MA1999999101371MD1999999+0021REMSYN088AAXX  19004 83398 32594 80502 10264 20242 30137 40142 85520 333 10306 29082 55099 58002;EQDQ01  00002PRCP06
0186833980999992002121912004-15670-038930FM-12+000599999V0203601N001012200019N0040001N1+02771+02351101591ADDAA106000091GF104991021021008001041001KA1240N+02171MA1999999101541MD1999999+0101REMSYN076AAXX  19124 83398 32596 43602 10277 20235 30154 40159 82240 333 20217 58010;EQDQ01  00002PRCP06
0167833980999992002121918004-15670-038930FM-12+000599999V0200901N002112200019N0040001N1+02921+02391101441ADDAA106000091GF103991011021008001041011MA1999999101391MD1999999+0281REMSYN070AAXX  19184 83398 32596 30904 10292 20239 30139 40144 81241 333 58028;EQDQ01  00002PRCP06
0198833980999992002122000004-15670-038930FM-12+000599999V0200501N001010450019N0010001N1+02681+02431101621ADDAA106000091GF105991021051008001041001KA1240M+03051MA1999999101561MD1999999+0191REMSYN088AAXX  20004 83398 32594 50502 10268 20243 30156 40162 82540 333 10305 29081 55095 58019;EQDQ01  00002PRCP06
0190833980999992002122012004-15670-038930FM-12+000599999V0200501N002110450019N0040001N1+02871+02471101781ADDAY151061AY221061GF105991031021004501041001KA1240N+02381MA1999999101721MD1999999+0181MW1011REMSYN088AAXX  20124 83398 21496 50504 10287 20247 30172 40178 70152 83240 333 20238 58018 60034;
0167833980999992002122018004-15670-038930FM-12+000599999V0200501N002111050019N0040001N1+02881+02371101431ADDAA106000091GF105991021021008001041011MA1999999101381MD1999999-0011REMSYN070AAXX  20184 83398 32596 50504 10288 20237 30138 40143 82241 333 59001;EQDQ01  00002PRCP06
0198833980999992002122100004-15670-038930FM-12+000599999V0203601N001012200019N0010001N1+02571+02341101541ADDAA106000091GF102991021021008001001001KA1240M+03001MA1999999101491MD1999999+0071REMSYN088AAXX  21004 83398 32594 23602 10257 20234 30149 40154 82200 333 10300 29082 55116 58007;EQDQ01  00002PRCP06
0186833980999992002122112004-15670-038930FM-12+000599999V0203601N002110450019N0040001N1+02901+02391101691ADDAA106000091GF105991031021008001041001KA1240N+02071MA1999999101631MD1999999-0091REMSYN076AAXX  21124 83398 32596 53604 10290 20239 30163 40169 83240 333 20207 59009;EQDQ01  00002PRCP06
0167833980999992002122118004-15670-038930FM-12+000599999V0200501N002112200019N0040001N1+02881+02441101351ADDAA106000091GF103991021021008001041001MA1999999101301MD1999999-0081REMSYN070AAXX  21184 83398 32596 30504 10288 20244 30130 40135 82240 333 59008;EQDQ01  00002PRCP06
0198833980999992002122300004-15670-038930FM-12+000599999V0209999C000012200019N0010001N1+02571+02341101331ADDAA106000091GF104991021021008001041001KA1240M+03041MA1999999101281MD1999999-0041REMSYN088AAXX  23004 83398 32594 40000 10257 20234 30128 40133 82240 333 10304 29080 55098 59004;EQDQ01  00002PRCP06
0186833980999992002122312004-15670-038930FM-12+000599999V0202701N002110450019N0040001N1+02921+02191101441ADDAA106000091GF105991031051008001041001KA1240N+02061MA1999999101391MD1999999-0051REMSYN076AAXX  23124 83398 32596 52704 10292 20219 30139 40144 83540 333 20206 59005;EQDQ01  00002PRCP06
0167833980999992002122318004-15670-038930FM-12+000599999V0200501N003110450019N0040001N1+02901+02271101201ADDAA106000091GF106991031021008001041011MA1999999101151MD1999999-0041REMSYN070AAXX  23184 83398 32596 60506 10290 20227 30115 40120 83241 333 59004;EQDQ01  00002PRCP06
0198833980999992002122400004-15670-038930FM-12+000599999V0209999C000012200019N0010001N1+02621+02291101321ADDAA106000091GF104991021021008001041001KA1240M+03011MA1999999101271MD1999999-0011REMSYN088AAXX  24004 83398 32594 40000 10262 20229 30127 40132 82240 333 10301 29075 55107 59001;EQDQ01  00002PRCP06
0186833980999992002122412004-15670-038930FM-12+000599999V0200501N003110450019N0040001N1+02981+02251101361ADDAA106000091GF106991031051008001041001KA1240N+02161MA1999999101311MD1999999-0081REMSYN076AAXX  24124 83398 32596 60506 10298 20225 30131 40136 83540 333 20216 59008;EQDQ01  00002PRCP06
0167833980999992002122418004-15670-038930FM-12+000599999V0200501N004110450019N0040001N1+02941+02431101011ADDAA106000091GF106991031021008001041011MA1999999100961MD1999999-0191REMSYN070AAXX  24184 83398 32596 60508 10294 20243 30096 40101 83241 333 59019;EQDQ01  00002PRCP06
0198833980999992002122500004-15670-038930FM-12+000599999V0200501N003110450019N0010001N1+02701+02431101211ADDAA106000091GF105991031011008001041001KA1240M+03111MA1999999101161MD1999999-0111REMSYN088AAXX  25004 83398 32594 50506 10270 20243 30116 40121 83140 333 10311 29077 55104 59011;EQDQ01  00002PRCP06
0186833980999992002122512004-15670-038930FM-12+000599999V0203601N003110075019N0040001N1+02901+02391101231ADDAA106000091GF107991051051008001021001KA1240N+02391MA1999999101181MD1999999-0131REMSYN076AAXX  25124 83398 32596 73606 10290 20239 30118 40123 85520 333 20239 59013;EQDQ01  00002PRCP06
0167833980999992002122518004-15670-038930FM-12+000599999V0203601N004110450019N0040001N1+03001+02371101901ADDAA106000091GF106991031021008001041011MA1999999100851MD1999999-0111REMSYN070AAXX  25184 83398 32596 63608 10300 20237 30085 40190 83241 333 59011;EQDQ01  00002PRCP06
0198833980999992002122600004-15670-038930FM-12+000599999V0203601N002110450019N0010001N1+02701+02451101051ADDAA106000091GF105991031021008001041001KA1240M+03181MA1999999101001MD1999999-0161REMSYN088AAXX  26004 83398 32594 53604 10270 20245 30100 40105 83240 333 10318 29079 55091 59016;EQDQ01  00002PRCP06
0190833980999992002122612004-15670-038930FM-12+000599999V0209999C000010075019N0020001N1+02361+02151101351ADDAY191061AY261061GF108991081071008001999999KA1240N+02161MA1999999101301MD1999999+0121MW1621REMSYN088AAXX  26124 83398 21595 80000 10236 20215 30130 40135 76296 887// 333 20216 58012 61444;
0171833980999992002122618004-15670-038930FM-12+000599999V0203201N002110075019N0040001N1+02761+02421100961ADDAY151061AY221061GF107991051051008001021001MA1999999100911MD1999999+0061MW1021REMSYN082AAXX  26184 83398 21596 73204 10276 20242 30091 40096 70252 85520 333 58006 69951;
0198833980999992002122700004-15670-038930FM-12+000599999V0209999C000010075019N0010001N1+02501+02151101241ADDAA106000091GF108991051051008001021999KA1240M+02791MA1999999101191MD1999999+0191REMSYN088AAXX  27004 83398 32594 80000 10250 20215 30119 40124 8552/ 333 10279 29083 55000 58019;EQDQ01  00002PRCP06
0190833980999992002122712004-15670-038930FM-12+000599999V0202701N001010075019N0020001N1+02441+02211101571ADDAY191061AY251061GF108991051071008001021999KA1240N+02271MA1999999101421MD1999999+0121MW1601REMSYN088AAXX  27124 83398 21595 82702 10244 20221 30142 40157 76095 8572/ 333 20227 58012 60024;
0171833980999992002122718004-15670-038930FM-12+000599999V0200501N001010075019N0020001N1+02441+02231101101ADDAY161061AY221061GF108991051071008001021999MA1999999101051MD1999999+0141MW1601REMSYN082AAXX  27184 83398 21595 80502 10244 20223 30105 40110 76062 8572/ 333 58014 60011;
0202833980999992002122800004-15670-038930FM-12+000599999V0203201N001010042019N0020001N1+02421+02211101271ADDAY161061AY221061GF108991051071004501021999KA1240M+02621MA1999999101221MD1999999+0031MW1511REMSYN100AAXX  28004 83398 21495 83202 10242 20221 30122 40127 75162 8572/ 333 10262 29088 55000 58003 60041;
0190833980999992002122812004-15670-038930FM-12+000599999V0203601N001010075019N0040001N1+02531+02251101301ADDAY191061AY261061GF108991051051008001021999KA1240N+02201MA1999999101251MD1999999-0171MW1021REMSYN088AAXX  28124 83398 21596 83602 10253 20225 30125 40130 70296 8552/ 333 20220 59017 60134;
0171833980999992002122818004-15670-038930FM-12+000599999V0203601N002110450019N0020001N1+02501+02271101171ADDAY151061AY221061GF108991041071008001021999MA1999999101121MD1999999+0071MW1511REMSYN082AAXX  28184 83398 21595 83604 10250 20227 30112 40117 75152 8472/ 333 58007 60011;
0202833980999992002122900004-15670-038930FM-12+000599999V0203201N001010042019N0010001N1+02401+02191101341ADDAY161061AY221061GF108991051071004501021999KA1240M+02861MA1999999102291MD1999999+0071MW1601REMSYN100AAXX  29004 83398 21494 83202 10240 20219 30229 40134 76062 8572/ 333 10286 29086 55000 58007 60101;
0162833980999992002122912004-15670-038930FM-12+000599999V0200501N002110075019N0040001N1+02701+02451101531ADDGF108991051051008001021001KA1240N+02261MA1999999101481MD1999999+0231REMSYN082AAXX  29124 83398 22596 80504 10270 20245 30148 40153 85520 333 20226 58023 60114;
0171833980999992002122918004-15670-038930FM-12+000599999V0202701N001010075019N0040001N1+02641+02391101251ADDAY161061AY221061GF108991051051008001021999MA1999999101201MD1999999+0081MW1021REMSYN082AAXX  29184 83398 21596 82702 10264 20239 30120 40125 70262 8552/ 333 58008 60041;
0198833980999992002123000004-15670-038930FM-12+000599999V0209999C000010075019N0010001N1+02501+02271101481ADDAA106000091GF108991051051008001021999KA1240M+02771MA1999999101431MD1999999+0141REMSYN088AAXX  30004 83398 32594 80000 10250 20227 30143 40148 8552/ 333 10277 29087 55000 58014;EQDQ01  00002PRCP06
0162833980999992002123012004-15670-038930FM-12+000599999V0203601N001010450019N0040001N1+02731+02491101711ADDGF107991041051004501021001KA1240N+02291MA1999999101651MD1999999+0171REMSYN082AAXX  30124 83398 22496 73602 10273 20249 30165 40171 84520 333 20229 58017 60044;
0167833980999992002123018004-15670-038930FM-12+000599999V0200501N003110450019N0040001N1+02841+02461101411ADDAA106000091GF106991041051008001041001MA1999999101361MD1999999+0161REMSYN070AAXX  30184 83398 32596 60506 10284 20246 30136 40141 84540 333 58016;EQDQ01  00002PRCP06
0198833980999992002123100004-15670-038930FM-12+000599999V0209999C000012200019N0010001N1+02581+02371101571ADDAA106000091GF103991021021008001041001KA1240M+02981MA1999999101521MD1999999+0091REMSYN088AAXX  31004 83398 32594 30000 10258 20237 30152 40157 82240 333 10298 29086 55069 58009;EQDQ01  00002PRCP06
0186833980999992002123112004-15670-038930FM-12+000599999V0201401N001010450019N0040001N1+02641+02371101691ADDAA106000091GF107991041051008001021001KA1240N+02231MA1999999101641MD1999999-0011REMSYN076AAXX  31124 83398 32596 71402 10264 20237 30164 40169 84520 333 20223 59001;EQDQ01  00002PRCP06
0167833980999992002123118004-15670-038930FM-12+000599999V0200501N004110450019N0040001N1+02841+02401101321ADDAA106000091GF106991031021008001041001MA1999999101271MD1999999-0091REMSYN070AAXX  31184 83398 32596 60508 10284 20240 30127 40132 83240 333 59009;EQDQ01  00002PRCP06
