0213834980999992002010100004-17730-039250FM-12+000399999V0203601N002610075019N0020001N1+02441+02321101101ADDAA106001091AY161061AY261061GF108991071061008001011999KA1240M+02521MA1999999101051MD1999999-0151MW1611REMSYN100AAXX  01004 83498 21595 83605 10244 20232 30105 40110 76166 8761/ 333 10252 29091 55/// 59015 60011;
0201834980999992002010112004-17730-039250FM-12+000399999V0203601N005710450019N0020001N1+02701+02261101051ADDAA124027991AY161061AY221061GF108991011011008001031021KA1240N+02251MA1999999101001MD1999999-0121MW1211REMSYN088AAXX  01124 83498 21595 83611 10270 20226 30100 40105 72162 81132 333 20225 59012 60284;
0142834980999992002010118004-17730-039250FM-12+000399999V0200501N005719999999N0020001N1+02821+02331100741ADDAA199000021GF107991999999008001999999MA1999999100651MD1999999-0261REMSYN064AAXX  01184 83498 32595 70511 10282 20233 30065 40074 333 59026;
0179834980999992002010200004-17730-039250FM-12+000399999V0203601N004110450019N0020001N1+02541+02331100991ADDAA199000021GF108991041041008001031021KA1240M+03001MA1999999100941MD1999999-0111REMSYN088AAXX  02004 83498 32595 83608 10254 20233 30094 40099 84432 333 10300 29082 55/// 59011;
0201834980999992002010212004-17730-039250FM-12+000399999V0203601N004110450019N0020001N1+02861+02351100901ADDAA124058991AY161061AY221061GF107991031021008001031011KA1240N+02221MA1999999100851MD1999999-0151MW1211REMSYN088AAXX  02124 83498 21595 73608 10286 20235 30085 40090 72162 83231 333 20222 59015 60594;
0148834980999992002010218004-17730-039250FM-12+000399999V0203501N005710450019N0020001N1+02721+02341100631ADDAA199000021GF108991041051008001011999MA1999999100581MD1999999-0071REMSYN070AAXX  02184 83498 32595 83511 10272 20234 30058 40063 8451/ 333 59007;
0213834980999992002010300004-17730-039250FM-12+000399999V0203601N006210450019N0020001N1+02521+02421100881ADDAA106000591AY161061AY261061GF108991041071008001021999KA1240M+03061MA1999999100831MD1999999-0111MW1611REMSYN100AAXX  03004 83498 21595 83612 10252 20242 30083 40088 76166 8472/ 333 10306 29086 55/// 59011 69951;
0184834980999992002010312004-17730-039250FM-12+000399999V0203601N005110450019N0020001N1+02441+02351100691ADDAY161061AY261061GF108991031061008001021999KA1240N+02371MA1999999100641MD1999999-0211MW1611REMSYN082AAXX  03124 83498 21595 83610 10244 20235 30064 40069 76166 8362/ 333 20237 59021;
0176834980999992002010318004-17730-039250FM-12+000399999V0200501N005110450019N0020001N1+02701+02371100401ADDAA199000021AY191061AY221061GF108991041081008001071031MA1999999100351MD1999999-0231MW1961REMSYN076AAXX  03184 83498 31595 80510 10270 20237 30035 40040 79692 84873 333 59023;
0213834980999992002010400004-17730-039250FM-12+000399999V0200501N003110450019N0020001N1+02501+02401100801ADDAA106003091AY161061AY261061GF107991041091008001071031KA1240M+02801MA1999999100751MD1999999-0081MW1131REMSYN100AAXX  04004 83498 21595 70506 10250 20240 30075 40080 71366 84973 333 10280 29091 55/// 59008 60031;
0173834980999992002010412004-17730-039250FM-12+000399999V0203601N001510450019N0020001N1+02691+02281100891ADDAA124003091GF107991031051008001021001KA1240N+02401MA1999999100841MD1999999+0201REMSYN082AAXX  04124 83498 22595 73603 10269 20228 30084 40089 83520 333 20240 58020 60034;
0167834980999992002010418004-17730-039250FM-12+000399999V0201401N004610075019N0020001N1+02711+02391100831ADDAA199000091GF108991051051008001021999MA1999999100791MD1999999+0431REMSYN070AAXX  04184 83498 32595 81409 10271 20239 30079 40083 8552/ 333 58043;EQDQ01  00002PRCP99
0198834980999992002010500004-17730-039250FM-12+000399999V0200901N001012200019N0020001N1+02471+02391101191ADDAA199000091GF102991021051008001001001KA1240M+02981MA1999999101141MD1999999+0391REMSYN088AAXX  05004 83498 32595 20902 10247 20239 30114 40119 82500 333 10298 29088 55/// 58039;EQDQ01  00002PRCP99
0186834980999992002010512004-17730-039250FM-12+000399999V0201801N004110450019N0020001N1+02681+02391101291ADDAA199000091GF107991031051008001011001KA1240N+02391MA1999999101241MD1999999+0401REMSYN076AAXX  05124 83498 32595 71808 10268 20239 30124 40129 83510 333 20239 58040;EQDQ01  00002PRCP99
0167834980999992002010518004-17730-039250FM-12+000399999V0201801N005110450019N0020001N1+02801+02421101141ADDAA199000091GF106991021011008001041011MA1999999101091MD1999999+0211REMSYN070AAXX  05184 83498 32595 61810 10280 20242 30109 40114 82141 333 58021;EQDQ01  00002PRCP99
0198834980999992002010600004-17730-039250FM-12+000399999V0201401N001510450019N0020001N1+02581+02421101371ADDAA199000091GF105991021011008001041001KA1240M+02891MA1999999101331MD1999999+0181REMSYN088AAXX  06004 83498 32595 51403 10258 20242 30133 40137 82140 333 10289 29086 55/// 58018;EQDQ01  00002PRCP99
0201834980999992002010612004-17730-039250FM-12+000399999V0200501N003110075019N0020001N1+02721+02371101351ADDAA124000891AY161061AY261061GF107991071021008001001001KA1240N+02411MA1999999101301MD1999999+0061MW1621REMSYN088AAXX  06124 83498 21595 70506 10272 20237 30130 40135 76266 87200 333 20241 58006 69984;
0182834980999992002010618004-17730-039250FM-12+000399999V0200501N004110075019N0020001N1+02781+02271101171ADDAA106000891AY161061AY221061GF107991051021008001051001MA1999999101121MD1999999+0031MW1651REMSYN082AAXX  06184 83498 21595 70508 10278 20227 30112 40117 76562 85250 333 58003 69971;
0213834980999992002010700004-17730-039250FM-12+000399999V0200501N001010075019N0020001N1+02341+02221101381ADDAA106000591AY161061AY261061GF107991051061008001011001KA1240M+02871MA1999999101331MD1999999+0011MW1611REMSYN100AAXX  07004 83498 21595 70502 10234 20222 30133 40138 76166 85610 333 10287 29085 55/// 58001 69951;
0183834980999992002010718004-17730-039250FM-12+000399999V0200501N005119999999N0020001N1+02781+02341101261ADDAA199000091GF106991999041008001001001MA1999999101211MD1999999+0091REMSYN070AAXX  07184 83498 32595 60510 10278 20234 30121 40126 84400 333 58009;EQDQ01+000042SCOTLCQ02  00002PRCP99
0213834980999992002010800004-17730-039250FM-12+000399999V0200501N001510450019N0020001N1+02561+02251101491ADDAA106000191AY161061AY221061GF108991041051008001021999KA1240M+02921MA1999999101441MD1999999+0111MW1211REMSYN100AAXX  08004 83498 21595 80503 10256 20225 30144 40149 72162 8452/ 333 10292 29079 55/// 58011 69921;
0173834980999992002010812004-17730-039250FM-12+000399999V0200501N002610450019N0020001N1+02721+02191101581ADDAA124000191GF106991041051008001011001KA1240N+02231MA1999999101531MD1999999+0131REMSYN082AAXX  08124 83498 22595 60505 10272 20219 30153 40158 84510 333 20223 58013 69924;
0182834980999992002010818004-17730-039250FM-12+000399999V0200901N002610450019N0020001N1+02761+02341101411ADDAA106000191AY161061AY221061GF108991031051008001031011MA1999999101361MD1999999+0151MW1211REMSYN082AAXX  08184 83498 21595 80905 10276 20234 30136 40141 72162 83531 333 58015 69921;
0213834980999992002010900004-17730-039250FM-12+000399999V0200501N003110450019N0020001N1+02421+02331101591ADDAA106004191AY161061AY261061GF107991031061008001011001KA1240M+02911MA1999999101541MD1999999+0101MW1621REMSYN100AAXX  09004 83498 21595 70506 10242 20233 30154 40159 76266 83610 333 10291 29085 55/// 58010 60041;
0173834980999992002010912004-17730-039250FM-12+000399999V0200901N003610075019N0020001N1+02801+02221101751ADDAA124005191GF107991051021008001001011KA1240N+02381MA1999999101701MD1999999+0171REMSYN082AAXX  09124 83498 22595 70907 10280 20222 30170 40175 85201 333 20238 58017 60054;
0167834980999992002010918004-17730-039250FM-12+000399999V0201401N002610075019N0020001N1+02741+02211101651ADDAA199000091GF107991071021008001001001MA1999999101601MD1999999+0241REMSYN070AAXX  09184 83498 32595 71405 10274 20221 30160 40165 87200 333 58024;EQDQ01  00002PRCP99
0198834980999992002011000004-17730-039250FM-12+000399999V0200901N002110450019N0020001N1+02581+02211101801ADDAA199000091GF107991041081008001031051KA1240M+02941MA1999999101751MD1999999+0211REMSYN088AAXX  10004 83498 32595 70904 10258 20221 30175 40180 84835 333 10294 29076 55/// 58021;EQDQ01  00002PRCP99
0186834980999992002011012004-17730-039250FM-12+000399999V0200901N003110075019N0020001N1+02751+02301101941ADDAA199000091GF107991051051008001001081KA1240N+02451MA1999999101891MD1999999+0191REMSYN076AAXX  10124 83498 32595 70906 10275 20230 30189 40194 85508 333 20245 58019;EQDQ01  00002PRCP99
0182834980999992002011018004-17730-039250FM-12+000399999V0200901N003110450019N0020001N1+02701+02261101721ADDAA106004191AY161061AY221061GF107991041051008001021001MA1999999101671MD1999999+0071MW1211REMSYN082AAXX  10184 83498 21595 70906 10270 20226 30167 40172 72162 84520 333 58007 60041;
0179834980999992002011100004-17730-039250FM-12+000399999V0200901N002610450019N0020001N1+02501+02211101951ADDAA199000021GF108991031051008001021999KA1240M+02881MA1999999101901MD1999999+0151REMSYN088AAXX  11004 83498 32595 80905 10250 20221 30190 40195 8352/ 333 10288 29080 55/// 58015;
0167834980999992002011118004-17730-039250FM-12+000399999V0200901N003612200019N0020001N1+02841+02221101791ADDAA199000091GF106991021051008001001011MA1999999101741MD1999999+0071REMSYN070AAXX  11184 83498 32595 60907 10284 20222 30174 40179 82501 333 58007;EQDQ01  00002PRCP99
0198834980999992002011200004-17730-039250FM-12+000399999V0201401N001510450019N0020001N1+02541+02401102041ADDAA199000091GF105991041051008001011001KA1240M+02881MA1999999101991MD1999999+0091REMSYN088AAXX  12004 83498 32595 51403 10254 20240 30199 40204 84510 333 10288 29084 55/// 58009;EQDQ01  00002PRCP99
0201834980999992002011212004-17730-039250FM-12+000399999V0201401N002610075019N0020001N1+02781+02181101901ADDAA124002091AY161061AY221061GF107991071021008001001001KA1240N+02301MA1999999101851MD1999999-0131MW1211REMSYN088AAXX  12124 83498 21595 71405 10278 20218 30185 40190 72162 87200 333 20230 59013 60024;
0148834980999992002011218004-17730-039250FM-12+000399999V0201401N003111050019N0020001N1+02781+02181101721ADDAA199000021GF107991041021008001001051MA1999999101671MD1999999-0071REMSYN070AAXX  12184 83498 32595 71406 10278 20218 30167 40172 84205 333 59007;
0179834980999992002011300004-17730-039250FM-12+000399999V0200901N002112200019N0020001N1+02501+02151101701ADDAA199000021GF102991011021008001001051KA1240M+02921MA1999999101651MD1999999-0341REMSYN088AAXX  13004 83498 32595 20904 10250 20215 30165 40170 81205 333 10292 29075 55/// 59034;
0186834980999992002011312004-17730-039250FM-12+000399999V0200901N002610450019N0020001N1+02841+02171101631ADDAA199000091GF108991041081008001051091KA1240N+02241MA1999999101581MD1999999-0271REMSYN076AAXX  13124 83498 32595 80905 10284 20217 30158 40163 84859 333 20224 59027;EQDQ01  00002PRCP99
0182834980999992002011318004-17730-039250FM-12+000399999V0202301N002110075019N0020001N1+02441+02301101471ADDAA106014091AY161061AY261061GF108991051061008001021071MA1999999101421MD1999999-0251MW1611REMSYN082AAXX  13184 83498 21595 82304 10244 20230 30142 40147 76166 85627 333 59025 60141;
0213834980999992002011400004-17730-039250FM-12+000399999V0209999C000010450019N0020001N1+02441+02251101531ADDAA106000591AY161061AY221061GF107991021081008001021081KA1240M+02901MA1999999101481MD1999999-0171MW1211REMSYN100AAXX  14004 83498 21595 70000 10244 20225 30148 40153 72162 82828 333 10290 29084 55/// 59017 69951;
0201834980999992002011412004-17730-039250FM-12+000399999V0203201N001010075019N0020001N1+02501+02341101391ADDAA124017091AY161061AY221061GF108991061061008001021999KA1240N+01821MA1999999101341MD1999999-0241MW1211REMSYN088AAXX  14124 83498 21595 83202 10250 20234 30134 40139 72162 8662/ 333 20182 59024 60174;
0182834980999992002011418004-17730-039250FM-12+000399999V0200501N001010075019N0020001N1+02441+02341100971ADDAA106005191AY161061AY261061GF108991051071008001021999MA1999999100921MD1999999-0501MW1211REMSYN082AAXX  14184 83498 21595 80502 10244 20234 30092 40097 72166 8572/ 333 59050 60051;
0213834980999992002011500004-17730-039250FM-12+000399999V0200501N004110450019N0020001N1+02371+02241101011ADDAA106002091AY161061AY261061GF108991021071008001021999KA1240M+02601MA1999999100961MD1999999-0521MW1601REMSYN100AAXX  15004 83498 21595 80508 10237 20224 30096 40101 76066 8272/ 333 10260 29092 55/// 59052 60021;
0201834980999992002011512004-17730-039250FM-12+000399999V0203601N003610450019N0020001N1+02461+02251100581ADDAA124011991AY161061AY261061GF108991011081008001021999KA1240N+02281MA1999999100531MD1999999-0811MW1601REMSYN088AAXX  15124 83498 21595 83607 10246 20225 30053 40058 76066 8182/ 333 20228 59081 60124;
0201834980999992002011612004-17730-039250FM-12+000399999V0203601N004110450019N0020001N1+02691+02351100581ADDAA124042991AY161061AY261061GF106991041051008001031051KA1240N+02351MA1999999100531MD1999999+0001MW1961REMSYN088AAXX  16124 83498 21595 63608 10269 20235 30053 40058 79666 84535 333 20235 58000 60434;
0201834980999992002011618004-17730-039250FM-12+000399999V0200501N003610450019N0020001N1+02481+02381100471ADDAA106022191AY191061AY201061GF106991041061008001071001MA1999999100421MD1999999+0101MW1961REMSYN082AAXX  16184 83498 21595 60507 10248 20238 30042 40047 79697 84670 333 58010 60221;EQDQ01+000072PSTWM2
0213834980999992002011700004-17730-039250FM-12+000399999V0203601N005110075019N0020001N1+02511+02321100901ADDAA106006191AY161061AY221061GF108991051061008001021999KA1240M+03021MA1999999100851MD1999999+0351MW1211REMSYN100AAXX  17004 83498 21595 83610 10251 20232 30085 40090 72162 8562/ 333 10302 29089 55/// 58035 60061;
0201834980999992002011712004-17730-039250FM-12+000399999V0203601N003110450019N0020001N1+02531+02171101161ADDAA124039191AY161061AY221061GF108991041061008001021999KA1240N+01841MA1999999101111MD1999999+0261MW1211REMSYN088AAXX  17124 83498 21595 83606 10253 20217 30111 40116 72162 8462/ 333 20184 58026 60394;
0148834980999992002011718004-17730-039250FM-12+000399999V0200501N004110075019N0020001N1+02711+02301101101ADDAA199000021GF108991051051008001021999MA1999999101051MD1999999+0631REMSYN070AAXX  17184 83498 32595 80508 10271 20230 30105 40110 8552/ 333 58063;
0179834980999992002011800004-17730-039250FM-12+000399999V0200501N002610450019N0020001N1+02531+02401101321ADDAA199000021GF106991031061008001071001KA1240M+02881MA1999999101271MD1999999+0421REMSYN088AAXX  18004 83498 32595 60505 10253 20240 30127 40132 83670 333 10288 29086 55/// 58042;
0201834980999992002011812004-17730-039250FM-12+000399999V0200501N002110450019N0020001N1+02531+02401101501ADDAA124027991AY161061AY261061GF108991041071008001021999KA1240N+02201MA1999999101451MD1999999+0341MW1211REMSYN088AAXX  18124 83498 21595 80504 10253 20240 30145 40150 72166 8472/ 333 20220 58034 60284;
0148834980999992002011818004-17730-039250FM-12+000399999V0200501N004610450019N0020001N1+02851+02261101231ADDAA199000021GF106991031051008001021001MA1999999101181MD1999999+0131REMSYN070AAXX  18184 83498 32595 60509 10285 20226 30118 40123 83520 333 58013;
0179834980999992002011900004-17730-039250FM-12+000399999V0200501N001512200019N0020001N1+02481+02271101401ADDAA199000021GF101991001001999999001051KA1240M+02901MA1999999101351MD1999999+0081REMSYN088AAXX  19004 83498 32995 10503 10248 20227 30135 40140 80005 333 10290 29085 55/// 58008;
0201834980999992002011912004-17730-039250FM-12+000399999V0203601N002610450019N0020001N1+02501+02381101571ADDAA124000891AY161061AY221061GF107991041071008001021001KA1240N+02311MA1999999101521MD1999999+0071MW1211REMSYN088AAXX  19124 83498 21595 73605 10250 20238 30152 40157 72162 84720 333 20231 58007 69984;
0182834980999992002011918004-17730-039250FM-12+000399999V0200901N002610450019N0020001N1+02751+02321101371ADDAA106000191AY161061AY261061GF106991041051008001021001MA1999999101321MD1999999+0141MW1211REMSYN082AAXX  19184 83498 21595 60905 10275 20232 30132 40137 72166 84520 333 58014 69921;
0179834980999992002012000004-17730-039250FM-12+000399999V0200901N002112200019N0020001N1+02491+02251101551ADDAA199000021GF103991021021008001001081KA1240M+02821MA1999999101501MD1999999+0151REMSYN088AAXX  20004 83498 32595 30904 10249 20225 30150 40155 82208 333 10282 29086 55/// 58015;
0173834980999992002012012004-17730-039250FM-12+000399999V0201401N001510450019N0020001N1+02631+02311101711ADDAA124000191GF107991041051008001041001KA1240N+01761MA1999999101661MD1999999+0141REMSYN082AAXX  20124 83498 22595 71403 10263 20231 30166 40171 84540 333 20176 58014 69924;
0167834980999992002012018004-17730-039250FM-12+000399999V0201401N003112200019N0020001N1+02881+02281101521ADDAA199000091GF104991021021008001001081MA1999999101471MD1999999+0151REMSYN070AAXX  20184 83498 32595 41406 10288 20228 30147 40152 82208 333 58015;EQDQ01  00002PRCP99
0198834980999992002012100004-17730-039250FM-12+000399999V0200901N001512200019N0020001N1+02501+02291101771ADDAA199000091GF104991011011008001001081KA1240M+02931MA1999999101721MD1999999+0221REMSYN088AAXX  21004 83498 32595 40903 10250 20229 30172 40177 81108 333 10293 29082 55/// 58022;EQDQ01  00002PRCP99
0201834980999992002012112004-17730-039250FM-12+000399999V0202701N001010120019N0020001N1+02621+02391101821ADDAA124000391AY161061AY261061GF107991071081008001001001KA1240N+02311MA1999999101771MD1999999+0111MW1601REMSYN088AAXX  21124 83498 21595 72702 10262 20239 30177 40182 76066 87800 333 20231 58011 69934;
0148834980999992002012118004-17730-039250FM-12+000399999V0200901N003110450019N0020001N1+02781+02251101651ADDAA199000021GF105991041021008001031001MA1999999101601MD1999999+0131REMSYN070AAXX  21184 83498 32595 50906 10278 20225 30160 40165 84230 333 58013;
0189834980999992002012200004-17730-039250FM-12+000399999V0200501N001012200019N0020001N1+02481+02321101801ADDAA199000021GA1001+999999999GF100991001001999999001001KA1240M+02971MA1999999101751MD1999999+0031REMSYN082AAXX  22004 83498 32995 00502 10248 20232 30175 40180 333 10297 29086 55/// 58003;
0186834980999992002012212004-17730-039250FM-12+000399999V0203601N002610075019N0020001N1+02761+02121101891ADDAA199000091GF105991051021008001001001KA1240N+02211MA1999999101841MD1999999+0071REMSYN076AAXX  22124 83498 32595 53605 10276 20212 30184 40189 85200 333 20221 58007;EQDQ01  00002PRCP99
0167834980999992002012218004-17730-039250FM-12+000399999V0200901N003112200019N0020001N1+02911+02071101641ADDAA199000091GF102991021021008001001001MA1999999101591MD1999999-0011REMSYN070AAXX  22184 83498 32595 20906 10291 20207 30159 40164 82200 333 59001;EQDQ01  00002PRCP99
0198834980999992002012300004-17730-039250FM-12+000399999V0200901N002112200019N0020001N1+02501+02291101631ADDAA199000091GF101991011011008001001001KA1240M+03031MA1999999101581MD1999999-0171REMSYN088AAXX  23004 83498 32595 10904 10250 20229 30158 40163 81100 333 10303 29076 55/// 59017;EQDQ01  00002PRCP99
0186834980999992002012312004-17730-039250FM-12+000399999V0203601N002612200019N0020001N1+02801+02181101791ADDAA199000091GF104991041021008001001001KA1240N+01701MA1999999101741MD1999999-0101REMSYN076AAXX  23124 83498 32595 43605 10280 20218 30174 40179 84200 333 20170 59010;EQDQ01  00002PRCP99
0167834980999992002012318004-17730-039250FM-12+000399999V0200501N004612200019N0020001N1+02941+02211101481ADDAA199000091GF102991011011008001001011MA1999999101431MD1999999-0161REMSYN070AAXX  23184 83498 32595 20509 10294 20221 30143 40148 81101 333 59016;EQDQ01  00002PRCP99
0208834980999992002012400004-17730-039250FM-12+000399999V0200501N001512200019N0020001N1+02511+02211101511ADDAA199000091GA1001+999999999GF100991001001999999001001KA1240M+03031MA1999999101461MD1999999-0121REMSYN082AAXX  24004 83498 32595 00503 10251 20221 30146 40151 333 10303 29075 55/// 59012;EQDQ01  00002PRCP99
0186834980999992002012412004-17730-039250FM-12+000399999V0203601N002611050019N0020001N1+02841+02291101481ADDAA199000091GF107991041021008001001021KA1240N+02211MA1999999101431MD1999999-0311REMSYN076AAXX  24124 83498 32595 73605 10284 20229 30143 40148 84202 333 20221 59031;EQDQ01  00002PRCP99
0167834980999992002012418004-17730-039250FM-12+000399999V0200501N005111050019N0020001N1+03001+02141101171ADDAA199000091GF107991011011008001001021MA1999999101121MD1999999-0311REMSYN070AAXX  24184 83498 32595 70510 10300 20214 30112 40117 81102 333 59031;EQDQ01  00002PRCP99
0198834980999992002012500004-17730-039250FM-12+000399999V0200501N002619999999N0020001N1+02541+02351101351ADDAA199000091GF107991001001999999001081KA1240M+03111MA1999999101301MD1999999-0161REMSYN088AAXX  25004 83498 32995 70505 10254 20235 30130 40135 80008 333 10311 29078 55/// 59016;EQDQ01  00002PRCP99
0186834980999992002012512004-17730-039250FM-12+000399999V0203601N004610075019N0020001N1+02831+02311101531ADDAA199000091GF107991051021008001001081KA1240N+02371MA1999999101481MD1999999+0051REMSYN076AAXX  25124 83498 32595 73609 10283 20231 30148 40153 85208 333 20237 58005;EQDQ01  00002PRCP99
0167834980999992002012518004-17730-039250FM-12+000399999V0200501N005111050019N0020001N1+02931+02361101221ADDAA199000091GF106991011011008001001021MA1999999101171MD1999999+0051REMSYN070AAXX  25184 83498 32595 60510 10293 20236 30117 40122 81102 333 58005;EQDQ01  00002PRCP99
0198834980999992002012600004-17730-039250FM-12+000399999V0200501N003112200019N0020001N1+02551+02401101381ADDAA199000091GF105991031021008001001011KA1240M+02991MA1999999101331MD1999999+0031REMSYN088AAXX  26004 83498 32595 50506 10255 20240 30133 40138 83201 333 10299 29082 55/// 58003;EQDQ01  00002PRCP99
0186834980999992002012612004-17730-039250FM-12+000399999V0203601N005110450019N0020001N1+02891+02351101661ADDAA199000091GF105991031051008001041001KA1240N+02401MA1999999101611MD1999999+0131REMSYN076AAXX  26124 83498 32595 53610 10289 20235 30161 40166 83540 333 20240 58013;EQDQ01  00002PRCP99
0167834980999992002012618004-17730-039250FM-12+000399999V0200501N006212200019N0020001N1+02931+02341101301ADDAA199000091GF105991021011008001001081MA1999999101251MD1999999+0081REMSYN070AAXX  26184 83498 32595 50512 10293 20234 30125 40130 82108 333 58008;EQDQ01  00002PRCP99
0214834980999992002012700004-17730-039250FM-12+000399999V0200501N003112200019N0020001N1+02571+02331101461ADDAA199000091GF102991001001999999001081KA1240M+03031MA1999999101411MD1999999+0081REMSYN088AAXX  27004 83498 32595 20506 10257 20233 30141 40146 80008 333 10303 29079 55/// 58008;EQDQ01+008002SCOLCBQ02  00002PRCP99
0186834980999992002012712004-17730-039250FM-12+000399999V0203601N004110075019N0020001N1+02841+02261101451ADDAA199000091GF107991051021008001001061KA1240N+02341MA1999999101401MD1999999-0211REMSYN076AAXX  27124 83498 32595 73608 10284 20226 30140 40145 85206 333 20234 59021;EQDQ01  00002PRCP99
0167834980999992002012718004-17730-039250FM-12+000399999V0200501N006211050019N0020001N1+02921+02291101091ADDAA199000091GF107991011011008001001021MA1999999101041MD1999999-0211REMSYN070AAXX  27184 83498 32595 70512 10292 20229 30104 40109 81102 333 59021;EQDQ01  00002PRCP99
0198834980999992002012800004-17730-039250FM-12+000399999V0200501N002612200019N0020001N1+02541+02291101251ADDAA199000091GF102991001001999999001051KA1240M+03001MA1999999101201MD1999999-0211REMSYN088AAXX  28004 83498 32995 20505 10254 20229 30120 40125 80005 333 10300 29078 55/// 59021;EQDQ01  00002PRCP99
0186834980999992002012812004-17730-039250FM-12+000399999V0200501N006712200019N0020001N1+02791+02091101321ADDAA199000091GF103991021021008001001011KA1240N+02331MA1999999101271MD1999999-0131REMSYN076AAXX  28124 83498 32595 30513 10279 20209 30127 40132 82201 333 20233 59013;EQDQ01  00002PRCP99
0177834980999992002012818004-17730-039250FM-12+000399999V0200501N006212200019N0020001N1+02901+02101101061ADDAA199000091GA1001+999999999GF100991001001999999001001MA1999999101011MD1999999-0031REMSYN064AAXX  28184 83498 32995 00512 10290 20210 30101 40106 333 59003;EQDQ01  00002PRCP99
0208834980999992002012900004-17730-039250FM-12+000399999V0200501N003112200019N0020001N1+02501+02231101111ADDAA199000091GA1001+999999999GF100991001001999999001001KA1240M+02991MA1999999101061MD1999999-0141REMSYN082AAXX  29004 83498 32995 00506 10250 20223 30106 40111 333 10299 29075 55/// 59014;EQDQ01  00002PRCP99
0186834980999992002012912004-17730-039250FM-12+000399999V0203601N006212200019N0020001N1+02791+01931101371ADDAA199000091GF101991011011008001001001KA1240N+02181MA1999999101321MD1999999+0071REMSYN076AAXX  29124 83498 32595 13612 10279 20193 30132 40137 81100 333 20218 58007;EQDQ01  00002PRCP99
0177834980999992002012918004-17730-039250FM-12+000399999V0200501N006712200019N0020001N1+03031+01921101011ADDAA199000091GA1001+999999999GF100991001001999999001001MA1999999100961MD1999999-0051REMSYN064AAXX  29184 83498 32995 00513 10303 20192 30096 40101 333 59005;EQDQ01  00002PRCP99
0208834980999992002013000004-17730-039250FM-12+000399999V0200501N004112200019N0020001N1+02531+02271101211ADDAA199000091GA1001+999999999GF100991001001999999001001KA1240M+03081MA1999999101161MD1999999+0101REMSYN082AAXX  30004 83498 32995 00508 10253 20227 30116 40121 333 10308 29071 55/// 58010;EQDQ01  00002PRCP99
0186834980999992002013012004-17730-039250FM-12+000399999V0203601N004110075019N0020001N1+02781+02211101481ADDAA199000091GF106991061021008001001001KA1240N+02281MA1999999101431MD1999999+0111REMSYN076AAXX  30124 83498 32595 63608 10278 20221 30143 40148 86200 333 20228 58011;EQDQ01  00002PRCP99
0167834980999992002013018004-17730-039250FM-12+000399999V0200501N005712200019N0020001N1+02921+02121101201ADDAA199000091GF101991001001999999001051MA1999999101151MD1999999+0191REMSYN070AAXX  30184 83498 32995 10511 10292 20212 30115 40120 80005 333 58019;EQDQ01  00002PRCP99
0198834980999992002013100004-17730-039250FM-12+000399999V0200501N002112200019N0020001N1+02521+02231101371ADDAA199000091GF103991001001999999001081KA1240M+03031MA1999999101321MD1999999+0161REMSYN088AAXX  31004 83498 32995 30504 10252 20223 30132 40137 80008 333 10303 29075 55/// 58016;EQDQ01  00002PRCP99
0186834980999992002013112004-17730-039250FM-12+000399999V0203601N005112200019N0020001N1+02821+02021101531ADDAA199000091GF104991021021008001001011KA1240N+02271MA1999999101481MD1999999+0051REMSYN076AAXX  31124 83498 32595 43610 10282 20202 30148 40153 82201 333 20227 58005;EQDQ01  00002PRCP99
0167834980999992002013118004-17730-039250FM-12+000399999V0200501N005712200019N0020001N1+02921+02091101231ADDAA199000091GF106991021011008001001041MA1999999101181MD1999999+0031REMSYN070AAXX  31184 83498 32595 60511 10292 20209 30118 40123 82104 333 58003;EQDQ01  00002PRCP99
0208834980999992002020100004-17730-039250FM-12+000399999V0200501N003112200019N0020001N1+02531+02231101321ADDAA199000091GA1001+999999999GF100991001001999999001001KA1240M+03031MA1999999101271MD1999999-0091REMSYN082AAXX  01004 83498 32995 00506 10253 20223 30127 40132 333 10303 29073 55/// 59009;EQDQ01  00002PRCP99
0186834980999992002020112004-17730-039250FM-12+000399999V0203601N005712200019N0020001N1+02811+02181101481ADDAA199000091GF103991031021008001001001KA1240N+02381MA1999999101431MD1999999-0051REMSYN076AAXX  01124 83498 32595 33611 10281 20218 30143 40148 83200 333 20238 59005;EQDQ01  00002PRCP99
0183834980999992002020118004-17730-039250FM-12+000399999V0200501N006712200019N0020001N1+03021+02211101121ADDAA199000091GF102991001001999999001081MA1999999101071MD1999999-0111REMSYN070AAXX  01184 83498 32595 20513 10302 20221 30107 40112 80008 333 59011;EQDQ01+008002SCOLCBQ02  00002PRCP99
0208834980999992002020200004-17730-039250FM-12+000399999V0200501N004612200019N0020001N1+02591+02371101251ADDAA199000091GA1001+999999999GF100991001001999999001001KA1240M+03031MA1999999101201MD1999999-0071REMSYN082AAXX  02004 83498 32995 00509 10259 20237 30120 40125 333 10303 29076 55/// 59007;EQDQ01  00002PRCP99
0186834980999992002020212004-17730-039250FM-12+000399999V0203601N007211050019N0020001N1+02841+02291101231ADDAA199000091GF108991041041008001001061KA1240N+02401MA1999999101181MD1999999-0251REMSYN076AAXX  02124 83498 32595 83614 10284 20229 30118 40123 84406 333 20240 59025;EQDQ01  00002PRCP99
0167834980999992002020218004-17730-039250FM-12+000399999V0200501N007219999999N0020001N1+02901+02341100901ADDAA199000091GF107991001001999999001061MA1999999100861MD1999999-0221REMSYN070AAXX  02184 83498 32995 70514 10290 20234 30086 40090 80006 333 59022;EQDQ01  00002PRCP99
0210834980999992002020300004-17730-039250FM-12+000399999V0202301N003110450019N0020001N1+02501+02291101191ADDAA199000091GF108991031091008001021031KA1240M+03041MA1999999101141MD1999999-0061MW1131REMSYN094AAXX  03004 83498 31595 82306 10250 20229 30114 40119 713// 83923 333 10304 29080 55/// 59006;EQDQ01  00002PRCP99
0201834980999992002020312004-17730-039250FM-12+000399999V0203201N002110450019N0020001N1+02541+02251101181ADDAA124000891AY161061AY221061GF108991031081008001011999KA1240N+02301MA1999999101131MD1999999-0051MW1211REMSYN088AAXX  03124 83498 21595 83204 10254 20225 30113 40118 72162 8381/ 333 20230 59005 69984;
0145834980999992002020318004-17730-039250FM-12+000399999V0203601N003610450019N0020001N1+02571+02311100921ADDAY161061AY261061GF108991031081008001011999MA1999999100871MW1211REMSYN070AAXX  03184 83498 21595 83607 10257 20231 30087 40092 72166 8381/ 333;
0179834980999992002020400004-17730-039250FM-12+000399999V0202701N001510450019N0020001N1+02421+02321101101ADDAA199000021GF108991031081008001011999KA1240M+02701MA1999999101051MD1999999-0091REMSYN088AAXX  04004 83498 32595 82703 10242 20232 30105 40110 8381/ 333 10270 29090 55/// 59009;
0182834980999992002020418004-17730-039250FM-12+000399999V0200501N003110450019N0020001N1+02381+02281101231ADDAA106004191AY161061AY261061GF108991041071008001021999MA1999999101181MD1999999+0311MW1611REMSYN082AAXX  04184 83498 21595 80506 10238 20228 30118 40123 76166 8472/ 333 58031 60041;
0213834980999992002020500004-17730-039250FM-12+000399999V0202301N001010450019N0020001N1+02381+02331101391ADDAA106010991AY161061AY221061GF108991031071008001021999KA1240M+02571MA1999999101341MD1999999+0291MW1211REMSYN100AAXX  05004 83498 21595 82302 10238 20233 30134 40139 72162 8372/ 333 10257 29097 55/// 58029 60111;
0173834980999992002020512004-17730-039250FM-12+000399999V0202701N001510450019N0020001N1+02491+02321101551ADDAA124015091GF108991041071008001021999KA1240N+02311MA1999999101501MD1999999+0161REMSYN082AAXX  05124 83498 22595 82703 10249 20232 30150 40155 8472/ 333 20231 58016 60154;
0167834980999992002020518004-17730-039250FM-12+000399999V0200901N001510120019N0020001N1+02681+02281101351ADDAA199000091GF107991051081008001031051MA1999999101301MD1999999+0121REMSYN070AAXX  05184 83498 32595 70903 10268 20228 30130 40135 85835 333 58012;EQDQ01  00002PRCP99
0208834980999992002020600004-17730-039250FM-12+000399999V0209999C000012200019N0020001N1+02481+02291101551ADDAA199000091GA1001+999999999GF100991001001999999001001KA1240M+02841MA1999999101501MD1999999+0161REMSYN082AAXX  06004 83498 32995 00000 10248 20229 30150 40155 333 10284 29087 55/// 58016;EQDQ01  00002PRCP99
0186834980999992002020612004-17730-039250FM-12+000399999V0203601N002610450019N0020001N1+02671+02271101581ADDAA199000091GF106991041051008001011001KA1240N+02331MA1999999101531MD1999999+0031REMSYN076AAXX  06124 83498 32595 63605 10267 20227 30153 40158 84510 333 20233 58003;EQDQ01  00002PRCP99
0182834980999992002020618004-17730-039250FM-12+000399999V0203601N004110450019N0020001N1+02491+02271101351ADDAA106000591AY161061AY221061GF108991031051008001021999MA1999999101301MD1999999+0001MW1211REMSYN082AAXX  06184 83498 21595 83608 10249 20227 30130 40135 72162 8352/ 333 58000 69941;
0167834980999992002020718004-17730-039250FM-12+000399999V0200501N004610450019N0020001N1+02751+02171101431ADDAA199000091GF106991041051008001041001MA1999999101381MD1999999+0081REMSYN070AAXX  07184 83498 32595 60509 10275 20217 30138 40143 84540 333 58008;EQDQ01  00002PRCP99
0208834980999992002020800004-17730-039250FM-12+000399999V0200501N002610012019N0020001N1+02551+02361101521ADDAA199000091GA1091+999999999GF109991091999999999999999KA1240M+02941MA1999999101471MD1999999-0011REMSYN082AAXX  08004 83498 32/95 90505 10255 20236 30147 40152 333 10294 29081 55/// 59001;EQDQ01  00002PRCP99
0186834980999992002020812004-17730-039250FM-12+000399999V0203601N003110450019N0020001N1+02701+02221101651ADDAA199000091GF107991011041008001031021KA1240N+02251MA1999999101601MD1999999-0041REMSYN076AAXX  08124 83498 32595 73606 10270 20222 30160 40165 81432 333 20225 59004;EQDQ01  00002PRCP99
0167834980999992002020818004-17730-039250FM-12+000399999V0200501N004111050019N0020001N1+02941+02241101401ADDAA199000091GF107991011011008001001021MA1999999101351MD1999999-0021REMSYN070AAXX  08184 83498 32595 70508 10294 20224 30135 40140 81102 333 59002;EQDQ01  00002PRCP99
0214834980999992002020900004-17730-039250FM-12+000399999V0201501N000512200019N0020001N1+02481+02301101471ADDAA199000091GA1001+999999999GF100991001001999999001001KA1240M+03021MA1999999101421MD1999999-0051REMSYN088AAXX  09004 83498 32995 01501 10248 20230 30142 40147 80005 333 10302 29080 55/// 59005;EQDQ01  00002PRCP99
0186834980999992002020912004-17730-039250FM-12+000399999V0200501N003110075019N0020001N1+02751+02241101631ADDAA199000091GF106991051021008001001011KA1240N+02221MA1999999101581MD1999999-0021REMSYN076AAXX  09124 83498 32595 60506 10275 20224 30158 40163 85201 333 20222 59002;EQDQ01  00002PRCP99
0167834980999992002020918004-17730-039250FM-12+000399999V0200901N003111050019N0020001N1+02891+02391101401ADDAA199000091GF106991031021008001001021MA1999999101351MD1999999+0001REMSYN070AAXX  09184 83498 32595 60906 10289 20239 30135 40140 83202 333 58000;EQDQ01  00002PRCP99
0198834980999992002021000004-17730-039250FM-12+000399999V0200901N002112200019N0020001N1+02501+02321101591ADDAA199000091GF102991021021008001001001KA1240M+03001MA1999999101541MD1999999+0121REMSYN088AAXX  10004 83498 32595 20904 10250 20232 30154 40159 82200 333 10300 29082 55/// 58012;EQDQ01  00002PRCP99
0186834980999992002021012004-17730-039250FM-12+000399999V0203601N002610075019N0020001N1+02861+02261101701ADDAA199000091GF105991051021008001001001KA1240N+02201MA1999999101651MD1999999+0071REMSYN076AAXX  10124 83498 32595 53605 10286 20226 30165 40170 85200 333 20220 58007;EQDQ01  00002PRCP99
0167834980999992002021018004-17730-039250FM-12+000399999V0200501N005112200019N0020001N1+02931+02121101471ADDAA199000091GF102991011011008001001011MA1999999101421MD1999999+0071REMSYN070AAXX  10184 83498 32595 20510 10293 20212 30142 40147 81101 333 58007;EQDQ01  00002PRCP99
0173834980999992002021100004-17730-039250FM-12+000399999V0200501N000512200019N0020001N1+02511+02341101731ADDAA199000091GA1001+999999999GF100991001001999999001001MA1999999101681MD1519999+9999REMSYN060AAXX  11004 83498 32995 00501 10251 20234 30168 40173 55///;EQDQ01  00002PRCP99
0167834980999992002021118004-17730-039250FM-12+000399999V0200901N003612200019N0020001N1+02941+02241101401ADDAA199000091GF102991011011008001001051MA1999999101351MD1999999-0071REMSYN070AAXX  11184 83498 32595 20907 10294 20224 30135 40140 81105 333 59007;EQDQ01  00002PRCP99
0198834980999992002021200004-17730-039250FM-12+000399999V0200501N001510075019N0020001N1+02501+02291101451ADDAA199000091GF105991051021008001001001KA1240M+03051MA1999999101401MD1999999-0281REMSYN088AAXX  12004 83498 32595 50503 10250 20229 30140 40145 85200 333 10305 29079 55/// 59028;EQDQ01  00002PRCP99
0201834980999992002021212004-17730-039250FM-12+000399999V0203201N001012200019N0020001N1+02691+02181101821ADDAA124003091AY161061AY261061GF104991031041008001001051KA1240N+02201MA1999999101771MD1999999+0101MW1211REMSYN088AAXX  12124 83498 21595 43202 10269 20218 30177 40182 72166 83405 333 20220 58010 60034;
0148834980999992002021218004-17730-039250FM-12+000399999V0201401N003612200019N0020001N1+02841+02311101551ADDAA199000021GF104991031021008001001011MA1999999101501MD1999999+0151REMSYN070AAXX  12184 83498 32595 41407 10284 20231 30150 40155 83201 333 58015;
0179834980999992002021300004-17730-039250FM-12+000399999V0200901N001512200019N0020001N1+02481+02231101651ADDAA199000021GF101991011001012501031001KA1240M+02931MA1999999101601MD1999999+0201REMSYN088AAXX  13004 83498 32695 10903 10248 20223 30160 40165 81030 333 10293 29080 55/// 58020;
0186834980999992002021312004-17730-039250FM-12+000399999V0202301N001512200019N0020001N1+02711+02171101761ADDAA199000091GF103991031021008001001001KA1240N+02181MA1999999101711MD1999999-0061REMSYN076AAXX  13124 83498 32595 32303 10271 20217 30171 40176 83200 333 20218 59006;EQDQ01  00002PRCP99
0167834980999992002021318004-17730-039250FM-12+000399999V0200901N003112200019N0020001N1+02931+02171101451ADDAA199000091GF101991011011008001001001MA1999999101401MD1999999-0101REMSYN070AAXX  13184 83498 32595 10906 10293 20217 30140 40145 81100 333 59010;EQDQ01  00002PRCP99
0186834980999992002021412004-17730-039250FM-12+000399999V0203601N001012200019N0020001N1+02741+02121101631ADDAA199000091GF103991031021008001001001KA1240N+02001MA1999999101581MD1999999-0111REMSYN076AAXX  14124 83498 32595 33602 10274 20212 30158 40163 83200 333 20200 59011;EQDQ01  00002PRCP99
0167834980999992002021418004-17730-039250FM-12+000399999V0203601N002112200019N0020001N1+02961+02181101351ADDAA199000091GF102991021011008001001001MA1999999101301MD1999999-0101REMSYN070AAXX  14184 83498 32595 23604 10296 20218 30130 40135 82100 333 59010;EQDQ01  00002PRCP99
0198834980999992002021500004-17730-039250FM-12+000399999V0200501N001012200019N0020001N1+02601+02331101581ADDAA199000091GF101991011011008001001001KA1240M+02991MA1999999101531MD1999999+0021REMSYN088AAXX  15004 83498 32595 10502 10260 20233 30153 40158 81100 333 10299 29076 55/// 58002;EQDQ01  00002PRCP99
0186834980999992002021512004-17730-039250FM-12+000399999V0203601N002610075019N0020001N1+02951+02311101621ADDAA199000091GF106991051041008001001051KA1240N+02281MA1999999101571MD1999999+0011REMSYN076AAXX  15124 83498 32595 63605 10295 20231 30157 40162 85405 333 20228 58001;EQDQ01  00002PRCP99
0167834980999992002021518004-17730-039250FM-12+000399999V0200501N004112200019N0020001N1+02971+02281101331ADDAA199000091GF105991021021008001001011MA1999999101281MD1999999+0021REMSYN070AAXX  15184 83498 32595 50508 10297 20228 30128 40133 82201 333 58002;EQDQ01  00002PRCP99
0208834980999992002021600004-17730-039250FM-12+000399999V0200501N002112200019N0020001N1+02571+02381101541ADDAA199000091GA1001+999999999GF100991001001999999001001KA1240M+03111MA1999999101491MD1999999-0041REMSYN082AAXX  16004 83498 32995 00504 10257 20238 30149 40154 333 10311 29079 55/// 59004;EQDQ01  00002PRCP99
0186834980999992002021612004-17730-039250FM-12+000399999V0203601N003112200019N0020001N1+02891+02211101741ADDAA199000091GF103991021011008001031001KA1240N+02361MA1999999101691MD1999999+0121REMSYN076AAXX  16124 83498 32595 33606 10289 20221 30169 40174 82130 333 20236 58012;EQDQ01  00002PRCP99
0167834980999992002021618004-17730-039250FM-12+000399999V0200501N004612200019N0020001N1+02931+02221101411ADDAA199000091GF101991011011008001001001MA1999999101361MD1999999+0081REMSYN070AAXX  16184 83498 32595 10509 10293 20222 30136 40141 81100 333 58008;EQDQ01  00002PRCP99
0224834980999992002021700004-17730-039250FM-12+000399999V0200501N002112200019N0020001N1+00532+99999101521ADDAA199000091GA1001+999999999GF100991001001999999001001KA1240M+03191MA1999999101471MD1999999-0021REMSYN082AAXX  17004 83498 32995 00504 10053 20234 30147 40152 333 10319 29078 55/// 59002;EQDQ01+000533ATOT  Q02  00002PRCP99
0186834980999992002021712004-17730-039250FM-12+000399999V0203201N002610075019N0020001N1+02841+02261101501ADDAA199000091GF105991051021008001001001KA1240N+02271MA1999999101451MD1999999-0241REMSYN076AAXX  17124 83498 32595 53205 10284 20226 30145 40150 85200 333 20227 59024;EQDQ01  00002PRCP99
0167834980999992002021718004-17730-039250FM-12+000399999V0200501N002110450019N0020001N1+02941+02211101311ADDAA199000091GF107991031011008001011001MA1999999101261MD1999999-0101REMSYN070AAXX  17184 83498 32595 70504 10294 20221 30126 40131 83110 333 59010;EQDQ01  00002PRCP99
0198834980999992002021800004-17730-039250FM-12+000399999V0200501N001012200019N0020001N1+02541+02351101401ADDAA199000091GF103991021011008001001011KA1240M+03151MA1999999101351MD1999999-0121REMSYN088AAXX  18004 83498 32595 30502 10254 20235 30135 40140 82101 333 10315 29078 55/// 59012;EQDQ01  00002PRCP99
0186834980999992002021812004-17730-039250FM-12+000399999V0203601N001010450019N0020001N1+02731+02281101491ADDAA199000091GF107991041051008001021041KA1240N+02301MA1999999101441MD1999999-0011REMSYN076AAXX  18124 83498 32595 73602 10273 20228 30144 40149 84524 333 20230 59001;EQDQ01  00002PRCP99
0167834980999992002021818004-17730-039250FM-12+000399999V0200901N003110450019N0020001N1+02901+02391101241ADDAA199000091GF106991031051008001021081MA1999999101191MD1999999-0071REMSYN070AAXX  18184 83498 32595 60906 10290 20239 30119 40124 83528 333 59007;EQDQ01  00002PRCP99
0186834980999992002021912004-17730-039250FM-12+000399999V0201801N001010075019N0020001N1+02791+02271101661ADDAA199000091GF106991051051008001021999KA1240N+02341MA1999999101611MD1999999+0171REMSYN076AAXX  19124 83498 32595 61802 10279 20227 30161 40166 8552/ 333 20234 58017;EQDQ01  00002PRCP99
0182834980999992002021918004-17730-039250FM-12+000399999V0201401N004110075019N0020001N1+02671+02411101461ADDAA106007191AY161061AY221061GF108991051061008001021999MA1999999101411MD1999999+0221MW1211REMSYN082AAXX  19184 83498 21595 81408 10267 20241 30141 40146 72162 8562/ 333 58022 60071;
0179834980999992002022000004-17730-039250FM-12+000399999V0201401N001510450019N0020001N1+02581+02351101551ADDAA199000021GF105991041061008001011001KA1240M+02841MA1999999101501MD1999999+0121REMSYN088AAXX  20004 83498 32595 51403 10258 20235 30150 40155 84610 333 10284 29083 55/// 58012;
0173834980999992002022012004-17730-039250FM-12+000399999V0201401N001010450019N0020001N1+02821+02331101651ADDAA124007191GF107991041051008001011001KA1240N+02291MA1999999101601MD1999999-0011REMSYN082AAXX  20124 83498 22595 71402 10282 20233 30160 40165 84510 333 20229 59001 60074;
0167834980999992002022018004-17730-039250FM-12+000399999V0200501N002611050019N0020001N1+02861+02281101351ADDAA199000091GF105991021011008001041011MA1999999101301MD1999999-0111REMSYN070AAXX  20184 83498 32595 50505 10286 20228 30130 40135 82141 333 59011;EQDQ01  00002PRCP99
0198834980999992002022100004-17730-039250FM-12+000399999V0200501N001012200019N0020001N1+02541+02401101561ADDAA199000091GF101991011011008001001001KA1240M+03081MA1999999101511MD1999999+0011REMSYN088AAXX  21004 83498 32595 10502 10254 20240 30151 40156 81100 333 10308 29082 55/// 58001;EQDQ01  00002PRCP99
0186834980999992002022112004-17730-039250FM-12+000399999V0203601N002612200019N0020001N1+02791+02361101451ADDAA199000091GF106991041041008001001011KA1240N+02301MA1999999101401MD1999999-0201REMSYN076AAXX  21124 83498 32595 63605 10279 20236 30140 40145 84401 333 20230 59020;EQDQ01  00002PRCP99
0167834980999992002022118004-17730-039250FM-12+000399999V0200501N005112200019N0020001N1+03031+02131101041ADDAA199000091GF104991001001999999001041MA1999999100991MD1999999-0311REMSYN070AAXX  21184 83498 32995 40510 10303 20213 30099 40104 80004 333 59031;EQDQ01  00002PRCP99
0198834980999992002022200004-17730-039250FM-12+000399999V0200501N003119999999N0020001N1+02561+02311101231ADDAA199000091GF106991001001999999001041KA1240M+03131MA1999999101181MD1999999-0331REMSYN088AAXX  22004 83498 32995 60506 10256 20231 30118 40123 80004 333 10313 29077 55/// 59033;EQDQ01  00002PRCP99
0186834980999992002022212004-17730-039250FM-12+000399999V0203601N008212200019N0020001N1+02831+02201101271ADDAA199000091GF103991031021008001001001KA1240N+02281MA1999999101221MD1999999-0181REMSYN076AAXX  22124 83498 32595 33616 10283 20220 30122 40127 83200 333 20228 59018;EQDQ01  00002PRCP99
0177834980999992002022218004-17730-039250FM-12+000399999V0200501N005712200019N0020001N1+03001+02291100851ADDAA199000091GA1001+999999999GF100991001001999999001001MA1999999100801MD1999999-0191REMSYN064AAXX  22184 83498 32995 00511 10300 20229 30080 40085 333 59019;EQDQ01  00002PRCP99
0198834980999992002022300004-17730-039250FM-12+000399999V0203601N003112200019N0020001N1+02541+02361101061ADDAA199000091GF102991001001999999001041KA1240M+03151MA1999999101011MD1999999-0171REMSYN088AAXX  23004 83498 32995 23606 10254 20236 30101 40106 80004 333 10315 29079 55/// 59017;EQDQ01  00002PRCP99
0186834980999992002022312004-17730-039250FM-12+000399999V0203601N005112200019N0020001N1+02921+02291101151ADDAA199000091GF104991021011008001001021KA1240N+02351MA1999999101101MD1999999-0121REMSYN076AAXX  23124 83498 32595 43610 10292 20229 30110 40115 82102 333 20235 59012;EQDQ01  00002PRCP99
0167834980999992002022318004-17730-039250FM-12+000399999V0203601N005112200019N0020001N1+02981+02301100871ADDAA199000091GF103991031001008001001021MA1999999100821MD1999999+0021REMSYN070AAXX  23184 83498 32595 33610 10298 20230 30082 40087 83002 333 58002;EQDQ01  00002PRCP99
0198834980999992002022400004-17730-039250FM-12+000399999V0203601N004611050019N0020001N1+02661+02441101231ADDAA199000091GF105991021011008001001021KA1240M+03141MA1999999101181MD1999999+0171REMSYN088AAXX  24004 83498 32595 53609 10266 20244 30118 40123 82102 333 10314 29078 55/// 58017;EQDQ01  00002PRCP99
0186834980999992002022412004-17730-039250FM-12+000399999V0203601N003610075019N0020001N1+02831+02381101431ADDAA199000091GF107991051051008001021001KA1240N+02361MA1999999101381MD1999999+0281REMSYN076AAXX  24124 83498 32595 73607 10283 20238 30138 40143 85520 333 20236 58028;EQDQ01  00002PRCP99
0167834980999992002022418004-17730-039250FM-12+000399999V0200501N004111050019N0020001N1+03021+02411101131ADDAA199000091GF107991011021008001001081MA1999999101081MD1999999+0261REMSYN070AAXX  24184 83498 32595 70508 10302 20241 30108 40113 81208 333 58026;EQDQ01  00002PRCP99
0167834980999992002022518004-17730-039250FM-12+000399999V0201801N003110450019N0020001N1+02601+02461101401ADDAA199000091GF108991041051008001021999MA1999999101351MD1999999+0271REMSYN070AAXX  25184 83498 32595 81806 10260 20246 30135 40140 8452/ 333 58027;EQDQ01  00002PRCP99
0213834980999992002022600004-17730-039250FM-12+000399999V0200901N000510450019N0020001N1+02551+02291101731ADDAA106000391AY161061AY221061GF105991031051008001011001KA1240M+02941MA1999999101681MD1999999+0411MW1211REMSYN100AAXX  26004 83498 21595 50901 10255 20229 30168 40173 72162 83510 333 10294 29085 55/// 58041 69931;
0201834980999992002022612004-17730-039250FM-12+000399999V0200901N002610450019N0020001N1+02641+02371101671ADDAA124008991AY161061AY261061GF108991041051008001011999KA1240N+02341MA1999999101621MD1999999+0101MW1621REMSYN088AAXX  26124 83498 21595 80905 10264 20237 30162 40167 76266 8451/ 333 20234 58010 60094;
0148834980999992002022618004-17730-039250FM-12+000399999V0201401N003110450019N0020001N1+02781+02361101481ADDAA199000021GF107991031051008001011001MA1999999101431MD1999999+0081REMSYN070AAXX  26184 83498 32595 71406 10278 20236 30143 40148 83510 333 58008;
0179834980999992002022700004-17730-039250FM-12+000399999V0201401N001510450019N0020001N1+02581+02421101721ADDAA199000021GF108991021011008001041021KA1240M+02921MA1999999101671MD1999999-0011REMSYN088AAXX  27004 83498 32595 81403 10258 20242 30167 40172 82142 333 10292 29087 55/// 59001;
0186834980999992002022712004-17730-039250FM-12+000399999V0201801N001010075019N0020001N1+02731+02321101671ADDAA199000091GF107991051051008001021001KA1240N+02461MA1999999101621MD1999999+0001REMSYN076AAXX  27124 83498 32595 71802 10273 20232 30162 40167 85520 333 20246 58000;EQDQ01  00002PRCP99
0167834980999992002022718004-17730-039250FM-12+000399999V0200501N002610450019N0020001N1+02851+02311101641ADDAA199000091GF106991021031008001041001MA1999999101591MD1999999+0161REMSYN070AAXX  27184 83498 32595 60505 10285 20231 30159 40164 82340 333 58016;EQDQ01  00002PRCP99
0198834980999992002022800004-17730-039250FM-12+000399999V0200901N001011050019N0020001N1+02431+02131101601ADDAA199000091GF107991021001012501021081KA1240M+02951MA1999999101551MD1999999-0121REMSYN088AAXX  28004 83498 32695 70902 10243 20213 30155 40160 82028 333 10295 29080 55/// 59012;EQDQ01  00002PRCP99
0201834980999992002022812004-17730-039250FM-12+000399999V0202301N000510450019N0020001N1+02621+02391101701ADDAA124001091AY161061AY221061GF106991031051008001041001KA1240N+02271MA1999999101651MD1999999+0031MW1211REMSYN088AAXX  28124 83498 21595 62301 10262 20239 30165 40170 72162 83540 333 20227 58003 60014;
0148834980999992002022818004-17730-039250FM-12+000399999V0200501N003110450019N0020001N1+02881+02391101531ADDAA199000021GF105991031031008001041001MA1999999101481MD1999999-0111REMSYN070AAXX  28184 83498 32595 50506 10288 20239 30148 40153 83340 333 59011;
0179834980999992002030100004-17730-039250FM-12+000399999V0200501N001519999999N0020001N1+02571+02271101691ADDAA199000021GF105991021001012501011081KA1240M+02961MA1999999101641MD1999999+0091REMSYN088AAXX  01004 83498 32695 50503 10257 20227 30164 40169 82018 333 10296 29082 55/// 58009;
0186834980999992002030112004-17730-039250FM-12+000399999V0201401N002110450019N0020001N1+02841+02461101601ADDAA199000091GF105991031021008001041001KA1240N+02321MA1999999101551MD1999999-0101REMSYN076AAXX  01124 83498 32595 51404 10284 20246 30155 40160 83240 333 20232 59010;EQDQ01  00002PRCP99
0167834980999992002030118004-17730-039250FM-12+000399999V0201401N003612200019N0020001N1+02981+02371101411ADDAA199000091GF103991021011008001001011MA1999999101361MD1999999-0121REMSYN070AAXX  01184 83498 32595 31407 10298 20237 30136 40141 82101 333 59012;EQDQ01  00002PRCP99
0167834980999992002030218004-17730-039250FM-12+000399999V0200901N003112200019N0020001N1+02951+02331101381ADDAA199000091GF105991011041008001001041MA1999999101331MD1999999-0031REMSYN070AAXX  02184 83498 32595 50906 10295 20233 30133 40138 81404 333 59003;EQDQ01  00002PRCP99
0201834980999992002030412004-17730-039250FM-12+000399999V0201401N003610450019N0020001N1+02681+02481101661ADDAA124002091AY161061AY261061GF108991041071008001021999KA1240N+02371MA1999999101611MD1999999-0091MW1611REMSYN088AAXX  04124 83498 21595 81407 10268 20248 30161 40166 76166 8472/ 333 20237 59009 60024;
0213834980999992002030500004-17730-039250FM-12+000399999V0200901N001512200019N0020001N1+02661+02441101751ADDAA106000191AY161061AY211061GF104991041011008001001001KA1240M+02901MA1999999101701MD1999999+0001MW1211REMSYN100AAXX  05004 83498 21595 40903 10266 20244 30170 40175 72161 84100 333 10290 29086 55/// 58000 69921;
0173834980999992002030512004-17730-039250FM-12+000399999V0201801N005110075019N0020001N1+02861+02441101671ADDAA124000191GF106991051041008001001011KA1240N+02551MA1999999101621MD1999999+0011REMSYN082AAXX  05124 83498 22595 61810 10286 20244 30162 40167 85401 333 20255 58001 69924;
0167834980999992002030518004-17730-039250FM-12+000399999V0200901N002610450019N0020001N1+02731+02321101511ADDAA199000091GF107991031051008001021001MA1999999101461MD1999999-0141REMSYN070AAXX  05184 83498 32595 70905 10273 20232 30146 40151 83520 333 59014;EQDQ01  00002PRCP99
0198834980999992002030600004-17730-039250FM-12+000399999V0200901N000512200019N0020001N1+02461+02361101601ADDAA199000091GF102991021051008001001001KA1240M+02961MA1999999101551MD1999999-0151REMSYN088AAXX  06004 83498 32595 20901 10246 20236 30155 40160 82500 333 10296 29086 55042 59015;EQDQ01  00002PRCP99
0186834980999992002030612004-17730-039250FM-12+000399999V0200501N001511050019N0020001N1+02871+02281101711ADDAA199000091GF106991041021008001001021KA1240N+02391MA1999999101661MD1999999-0041REMSYN076AAXX  06124 83498 32595 60503 10287 20228 30166 40171 84202 333 20239 59004;EQDQ01  00002PRCP99
0167834980999992002030618004-17730-039250FM-12+000399999V0201401N003611050019N0020001N1+02951+02311101491ADDAA199000091GF105991021011008001001021MA1999999101441MD1999999-0021REMSYN070AAXX  06184 83498 32595 51407 10295 20231 30144 40149 82102 333 59002;EQDQ01  00002PRCP99
0208834980999992002030700004-17730-039250FM-12+000399999V0200501N001512200019N0020001N1+02531+02271101581ADDAA199000091GA1001+999999999GF100991001001999999001001KA1240M+03031MA1999999101531MD1999999-0021REMSYN082AAXX  07004 83498 32995 00503 10253 20227 30153 40158 333 10303 29078 55096 59002;EQDQ01  00002PRCP99
0201834980999992002030712004-17730-039250FM-12+000399999V0203601N001010075019N0020001N1+02801+02361101781ADDAA124000891AY161061AY261061GF105991051021008001001001KA1240N+02251MA1999999101731MD1999999+0071MW1211REMSYN088AAXX  07124 83498 21595 53602 10280 20236 30173 40178 72166 85200 333 20225 58007 69984;
0148834980999992002030718004-17730-039250FM-12+000399999V0200501N002112200019N0020001N1+03001+02391101551ADDAA199000021GF104991041011008001001001MA1999999101501MD1999999+0061REMSYN070AAXX  07184 83498 32595 40504 10300 20239 30150 40155 84100 333 58006;
0189834980999992002030800004-17730-039250FM-12+000399999V0200501N001012200019N0020001N1+02501+02361101751ADDAA199000021GA1001+999999999GF100991001001999999001001KA1240M+03061MA1999999101701MD1999999+0171REMSYN082AAXX  08004 83498 32995 00502 10250 20236 30170 40175 333 10306 29083 55/// 58017;
0186834980999992002030812004-17730-039250FM-12+000399999V0200901N002110075019N0020001N1+02961+02281101811ADDAA199000091GF106991051041008001021001KA1240N+02281MA1999999101761MD1999999+0031REMSYN076AAXX  08124 83498 32595 60904 10296 20228 30176 40181 85420 333 20228 58003;EQDQ01  00002PRCP99
0167834980999992002030818004-17730-039250FM-12+000399999V0201401N003112200019N0020001N1+02931+02341101611ADDAA199000091GF103991031021008001001001MA1999999101561MD1999999+0061REMSYN070AAXX  08184 83498 32595 31406 10293 20234 30156 40161 83200 333 58006;EQDQ01  00002PRCP99
0183834980999992002030900004-17730-039250FM-12+000399999V0200901N002112200019N0020001N1+02611+02231101711ADDAY161061AY221061GF104991031021008001001081KA1240M+03061KA2999N+99999MA1999999101661MW1211REMSYN082AAXX  09004 83498 21595 40904 10261 20223 30166 40171 72162 83208 333 10306 20724;
0201834980999992002030912004-17730-039250FM-12+000399999V0200901N002612200019N0020001N1+02811+02311101801ADDAA124002091AY161061AY211061GF104991041021008001001001KA1240N+02301MA1999999101751MD1999999-0011MW1211REMSYN088AAXX  09124 83498 21595 40905 10281 20231 30175 40180 72161 84200 333 20230 59001 60024;
0182834980999992002030918004-17730-039250FM-12+000399999V0201401N003112200019N0020001N1+02871+02261101601ADDAA106000891AY161061AY211061GF104991021031008001041001MA1999999101551MD1999999-0011MW1211REMSYN082AAXX  09184 83498 21595 41406 10287 20226 30155 40160 72161 82340 333 59001 69981;
0112834980999992002031000004-17730-039250FM-12+000399999V0200901N001512200019N0020001N1+02561+02291999999ADDAA199000021GF102991999999008001999999MA1999999101811REMSYN048AAXX  10004 83498 32595 20903 10256 20229 30181;
0201834980999992002031012004-17730-039250FM-12+000399999V0203201N001010450019N0020001N1+02721+02321101791ADDAA124003091AY161061AY261061GF105991041021008001011001KA1240N+02441MA1999999101741MD1999999-0011MW1211REMSYN088AAXX  10124 83498 21595 53202 10272 20232 30174 40179 72166 84210 333 20244 59001 60034;
0179834980999992002031100004-17730-039250FM-12+000399999V0200501N001012200019N0020001N1+02601+02331101781ADDAA199000021GF101991011011008001001001KA1240M+03061MA1999999101731MD1999999-0081REMSYN088AAXX  11004 83498 32595 10502 10260 20233 30173 40178 81100 333 10306 29079 55/// 59008;
0173834980999992002031112004-17730-039250FM-12+000399999V0200901N001510075019N0020001N1+02891+02371101821ADDAA124004191GF106991051041008001021041KA1240N+02241MA1999999101771MD1999999+0031REMSYN082AAXX  11124 83498 22595 60903 10289 20237 30177 40182 85424 333 20224 58003 60044;
0167834980999992002031118004-17730-039250FM-12+000399999V0201401N002112200019N0020001N1+02951+02261101581ADDAA199000091GF105991041021008001001041MA1999999101531MD1999999+0051REMSYN070AAXX  11184 83498 32595 51404 10295 20226 30153 40158 84204 333 58005;EQDQ01  00002PRCP99
0208834980999992002031200004-17730-039250FM-12+000399999V0200901N001512200019N0020001N1+02571+02291101761ADDAA199000091GA1001+999999999GF100991001001999999001001KA1240M+03041MA1999999101711MD1999999-0021REMSYN082AAXX  12004 83498 32995 00903 10257 20229 30171 40176 333 10304 29078 55097 59002;EQDQ01  00002PRCP99
0201834980999992002031212004-17730-039250FM-12+000399999V0201401N001511050019N0020001N1+02871+02351101961ADDAA124005191AY161061AY221061GF106991041041008001001021KA1240N+02441MA1999999101911MD1999999+0141MW1211REMSYN088AAXX  12124 83498 21595 61403 10287 20235 30191 40196 72162 84402 333 20244 58014 60054;
0148834980999992002031218004-17730-039250FM-12+000399999V0201401N003111050019N0020001N1+02931+02291101731ADDAA199000021GF105991021021008001001021MA1999999101681MD1999999+0151REMSYN070AAXX  12184 83498 32595 51406 10293 20229 30168 40173 82202 333 58015;
0189834980999992002031300004-17730-039250FM-12+000399999V0200901N001012200019N0020001N1+02531+02341101851ADDAA199000021GA1001+999999999GF100991001001999999001001KA1240M+03041MA1999999101801MD1999999+0091REMSYN082AAXX  13004 83498 32995 00902 10253 20234 30180 40185 333 10304 29081 55084 58009;
0201834980999992002031312004-17730-039250FM-12+000399999V0201401N001010450019N0020001N1+02781+02361101821ADDAA124000591AY161061AY221061GF107991041061008001011001KA1240N+02381MA1999999101771MD1999999-0141MW1211REMSYN088AAXX  13124 83498 21595 71402 10278 20236 30177 40182 72162 84610 333 20238 59014 69944;
0182834980999992002031318004-17730-039250FM-12+000399999V0200501N003111050019N0020001N1+02941+02451101491ADDAA106000591AY161061AY221061GF105991021011008001001021MA1999999101441MD1999999-0241MW1211REMSYN082AAXX  13184 83498 21595 50506 10294 20245 30144 40149 72162 82102 333 59024 69961;
0189834980999992002031400004-17730-039250FM-12+000399999V0200501N001512200019N0020001N1+02501+02401101661ADDAA199000021GA1001+999999999GF100991001001999999001001KA1240M+03061MA1999999101611MD1999999-0191REMSYN082AAXX  14004 83498 32995 00503 10250 20240 30161 40166 333 10306 29085 55/// 59019;
0173834980999992002031412004-17730-039250FM-12+000399999V0203201N001510075019N0020001N1+02751+02261101551ADDAA124000591GF106991061021008001001001KA1240N+02251MA1999999101501MD1999999-0271REMSYN082AAXX  14124 83498 22595 63203 10275 20226 30150 40155 86200 333 20225 59027 69964;
0167834980999992002031418004-17730-039250FM-12+000399999V0200901N003112200019N0020001N1+02991+02091101201ADDAA199000091GF104991021021008001001011MA1999999101151MD1999999-0291REMSYN070AAXX  14184 83498 32595 40906 10299 20209 30115 40120 82201 333 59029;EQDQ01  00002PRCP99
0208834980999992002031500004-17730-039250FM-12+000399999V0200501N001012200019N0020001N1+02491+02191101371ADDAA199000091GA1001+999999999GF100991001001999999001001KA1240M+03121MA1999999101321MD1999999-0291REMSYN082AAXX  15004 83498 32995 00502 10249 20219 30132 40137 333 10312 29076 55101 59029;EQDQ01  00002PRCP99
0186834980999992002031512004-17730-039250FM-12+000399999V0203601N003112200019N0020001N1+02911+02251101411ADDAA199000091GF104991041021008001001001KA1240N+02241MA1999999101361MD1999999-0141REMSYN076AAXX  15124 83498 32595 43606 10291 20225 30136 40141 84200 333 20224 59014;EQDQ01  00002PRCP99
0167834980999992002031518004-17730-039250FM-12+000399999V0200501N005112200019N0020001N1+03031+02131101141ADDAA199000091GF103991011011008001001041MA1999999101091MD1999999-0231REMSYN070AAXX  15184 83498 32595 30510 10303 20213 30109 40114 81104 333 59023;EQDQ01  00002PRCP99
0214834980999992002031600004-17730-039250FM-12+000399999V0200501N002612200019N0020001N1+02611+02291101371ADDAA199000091GF102991001001999999001041KA1240M+03181MA1999999101321MD1999999+0001REMSYN088AAXX  16004 83498 32795 20505 10261 20229 30132 40137 80004 333 10318 29071 55104 58000;EQDQ01+017502SCOLCBQ02  00002PRCP99
0186834980999992002031612004-17730-039250FM-12+000399999V0200501N003110450019N0020001N1+02941+02111101451ADDAA199000091GF105991031021008001031091KA1240N+02281MA1999999101401MD1999999+0041REMSYN076AAXX  16124 83498 32595 50506 10294 20211 30140 40145 83239 333 20228 58004;EQDQ01  00002PRCP99
0167834980999992002031618004-17730-039250FM-12+000399999V0200501N004612200019N0020001N1+02991+02011101231ADDAA199000091GF103991011021008001001091MA1999999101181MD1999999+0091REMSYN070AAXX  16184 83498 32595 30509 10299 20201 30118 40123 81209 333 58009;EQDQ01  00002PRCP99
0208834980999992002031700004-17730-039250FM-12+000399999V0200501N001012200019N0020001N1+02471+02151101421ADDAA199000091GA1001+999999999GF100991001001999999001001KA1240M+03121MA1999999101371MD1999999+0051REMSYN082AAXX  17004 83498 32995 00502 10247 20215 30137 40142 333 10312 29071 55103 58005;EQDQ01  00002PRCP99
0201834980999992002031712004-17730-039250FM-12+000399999V0201801N000510075019N0020001N1+02741+02341101481ADDAA124002091AY161061AY221061GF105991051021008001001001KA1240N+02241MA1999999101431MD1999999+0031MW1211REMSYN088AAXX  17124 83498 21595 51801 10274 20234 30143 40148 72162 85200 333 20224 58003 60024;
0182834980999992002031718004-17730-039250FM-12+000399999V0200901N002610450019N0020001N1+02841+02461101281ADDAA106002091AY161061AY221061GF108991031051008001011091MA1999999101231MD1999999+0051MW1211REMSYN082AAXX  17184 83498 21595 80905 10284 20246 30123 40128 72162 83519 333 58005 60021;
0173834980999992002031812004-17730-039250FM-12+000399999V0203601N001011050019N0020001N1+02781+02361101451ADDAA124002091GF107991031041008001001021KA1240N+02301MA1999999101401MD1999999-0031REMSYN082AAXX  18124 83498 22595 73602 10278 20236 30140 40145 83402 333 20230 59003 60024;
0167834980999992002031818004-17730-039250FM-12+000399999V0200501N002610450019N0020001N1+02941+02331101201ADDAA199000091GF107991011011008001031021MA1999999101151MD1999999-0081REMSYN070AAXX  18184 83498 32595 70505 10294 20233 30115 40120 81132 333 59008;EQDQ01  00002PRCP99
0198834980999992002031900004-17730-039250FM-12+000399999V0200501N001010450019N0020001N1+02531+02341101291ADDAA199000091GF106991011011008001031021KA1240M+03041MA1999999101241MD1999999-0111REMSYN088AAXX  19004 83498 32595 60502 10253 20234 30124 40129 81132 333 10304 29082 55031 59011;EQDQ01  00002PRCP99
0201834980999992002031912004-17730-039250FM-12+000399999V0203601N002110450019N0020001N1+02751+02431101441ADDAA124000591AY161061AY261061GF106991021061008001041021KA1240N+02451MA1999999101391MD1999999-0011MW1601REMSYN088AAXX  19124 83498 21595 63604 10275 20243 30139 40144 76066 82642 333 20245 59001 69964;
0182834980999992002031918004-17730-039250FM-12+000399999V0200501N004110450019N0020001N1+02991+02231101161ADDAA106000191AY161061AY221061GF105991011011008001031001MA1999999101111MD1999999-0041MW1211REMSYN082AAXX  19184 83498 21595 50508 10299 20223 30111 40116 72162 81130 333 59004 69921;
0179834980999992002032000004-17730-039250FM-12+000399999V0200501N001012200019N0020001N1+02531+02341101361ADDAA199000021GF102991021001012501031001KA1240M+03161MA1999999101311MD1999999+0071REMSYN088AAXX  20004 83498 32695 20502 10253 20234 30131 40136 82030 333 10316 29082 55066 58007;
0173834980999992002032012004-17730-039250FM-12+000399999V0200501N004110075019N0020001N1+02981+02301101421ADDAA124000191GF106991061021008001001001KA1240N+02301MA1999999101371MD1999999-0021REMSYN082AAXX  20124 83498 22595 60508 10298 20230 30137 40142 86200 333 20230 59002 69924;
0167834980999992002032018004-17730-039250FM-12+000399999V0200501N004112200019N0020001N1+03041+02201101131ADDAA199000091GF102991011011008001001091MA1999999101081MD1999999-0031REMSYN070AAXX  20184 83498 32595 20508 10304 20220 30108 40113 81109 333 59003;EQDQ01  00002PRCP99
0208834980999992002032100004-17730-039250FM-12+000399999V0200501N001012200019N0020001N1+02521+02271101251ADDAA199000091GA1001+999999999GF100991001001999999001001KA1240M+03281MA1999999101201MD1999999-0111REMSYN082AAXX  21004 83498 32995 00502 10252 20227 30120 40125 333 10328 29075 55108 59011;EQDQ01  00002PRCP99
0186834980999992002032112004-17730-039250FM-12+000399999V0203601N003110450019N0020001N1+02881+02371101281ADDAA199000091GF105991041021008001041001KA1240N+02281MA1999999101231MD1999999-0141REMSYN076AAXX  21124 83498 32595 53606 10288 20237 30123 40128 84240 333 20228 59014;EQDQ01  00002PRCP99
0167834980999992002032118004-17730-039250FM-12+000399999V0203601N004112200019N0020001N1+03101+02341100901ADDAA199000091GF104991021011008001001091MA1999999100851MD1999999-0231REMSYN070AAXX  21184 83498 32595 43608 10310 20234 30085 40090 82109 333 59023;EQDQ01  00002PRCP99
0198834980999992002032200004-17730-039250FM-12+000399999V0200501N001510450019N0020001N1+02581+02421101191ADDAA199000091GF106991021011008001051001KA1240M+03301MA1999999101141MD1999999-0061REMSYN088AAXX  22004 83498 32595 60503 10258 20242 30114 40119 82150 333 10330 29080 55105 59006;EQDQ01  00002PRCP99
0201834980999992002032212004-17730-039250FM-12+000399999V0202301N002110075019N0020001N1+02481+02381101461ADDAA124001091AY161061AY221061GF108991051071008001021999KA1240N+02341MA1999999101411MD1999999+0181MW1211REMSYN088AAXX  22124 83498 21595 82304 10248 20238 30141 40146 72162 8572/ 333 20234 58018 60014;
0182834980999992002032218004-17730-039250FM-12+000399999V0201801N006210450019N0020001N1+02711+02411101301ADDAA106000591AY161061AY261061GF108991031071008001021999MA1999999101251MD1999999+0401MW1211REMSYN082AAXX  22184 83498 21595 81812 10271 20241 30125 40130 72166 8372/ 333 58040 69951;
0179834980999992002032300004-17730-039250FM-12+000399999V0201801N002610450019N0020001N1+02591+02351101541ADDAA199000021GF108991021071008001021999KA1240M+02761MA1999999101491MD1999999+0351REMSYN088AAXX  23004 83498 32595 81805 10259 20235 30149 40154 8272/ 333 10276 29088 55000 58035;
0201834980999992002032312004-17730-039250FM-12+000399999V0209999C000010450019N0020001N1+02591+02401101731ADDAA124021191AY161061AY261061GF108991031071008001021999KA1240N+02461MA1999999101681MD1999999+0271MW1211REMSYN088AAXX  23124 83498 21595 80000 10259 20240 30168 40173 72166 8372/ 333 20246 58027 60214;
0148834980999992002032318004-17730-039250FM-12+000399999V0201401N002610450019N0020001N1+02731+02391101451ADDAA199000021GF106991031051008001041001MA1999999101401MD1999999+0151REMSYN070AAXX  23184 83498 32595 61405 10273 20239 30140 40145 83540 333 58015;
0179834980999992002032400004-17730-039250FM-12+000399999V0201401N001512200019N0020001N1+02531+02401101551ADDAA199000021GF101991011011008001001001KA1240M+02901MA1999999101501MD1999999+0081REMSYN088AAXX  24004 83498 32595 11403 10253 20240 30150 40155 81100 333 10290 29089 55008 58008;
0186834980999992002032412004-17730-039250FM-12+000399999V0202301N001511050019N0020001N1+02681+02411101591ADDAA199000091GF107991031041008001001061KA1240N+02291MA1999999101541MD1999999-0141REMSYN076AAXX  24124 83498 32595 72303 10268 20241 30154 40159 83406 333 20229 59014;EQDQ01  00002PRCP99
0167834980999992002032418004-17730-039250FM-12+000399999V0200901N003111050019N0020001N1+03041+02361101201ADDAA199000091GF107991011021008001001021MA1999999101151MD1999999-0251REMSYN070AAXX  24184 83498 32595 70906 10304 20236 30115 40120 81202 333 59025;EQDQ01  00002PRCP99
0201834980999992002032512004-17730-039250FM-12+000399999V0203601N003110450019N0020001N1+02841+02291101411ADDAA124000591AY161061AY221061GF106991021011008001031021KA1240N+02281MA1999999101361MD1999999-0181MW1211REMSYN088AAXX  25124 83498 21595 63606 10284 20229 30136 40141 72162 82132 333 20228 59018 69964;
0148834980999992002032518004-17730-039250FM-12+000399999V0203601N004612200019N0020001N1+03041+02361101101ADDAA199000021GF104991031011008001001011MA1999999101051MD1999999-0101REMSYN070AAXX  25184 83498 32595 43609 10304 20236 30105 40110 83101 333 59010;
0186834980999992002032612004-17730-039250FM-12+000399999V0203601N004110450019N0020001N1+02821+02331101431ADDAA199000091GF105991041021008001031001KA1240N+02391MA1999999101381MD1999999+0021REMSYN076AAXX  26124 83498 32595 53608 10282 20233 30138 40143 84230 333 20239 58002;EQDQ01  00002PRCP99
0167834980999992002032618004-17730-039250FM-12+000399999V0200501N004112200019N0020001N1+02941+02141101181ADDAA199000091GF102991011011008001001011MA1999999101131MD1999999+0081REMSYN070AAXX  26184 83498 32595 20508 10294 20214 30113 40118 81101 333 58008;EQDQ01  00002PRCP99
0208834980999992002032700004-17730-039250FM-12+000399999V0200501N001512200019N0020001N1+02551+02271101421ADDAA199000091GA1001+999999999GF100991001001999999001001KA1240M+03171MA1999999101371MD1999999+0111REMSYN082AAXX  27004 83498 32995 00503 10255 20227 30137 40142 333 10317 29079 55104 58011;EQDQ01  00002PRCP99
0201834980999992002032712004-17730-039250FM-12+000399999V0203601N003110450019N0020001N1+02571+02211101781ADDAA124010991AY161061AY221061GF107991041061008001011001KA1240N+02351MA1999999101731MD1999999+0351MW1211REMSYN088AAXX  27124 83498 21595 73606 10257 20221 30173 40178 72162 84610 333 20235 58035 60114;
0148834980999992002032718004-17730-039250FM-12+000399999V0200501N003612200019N0020001N1+02951+02211101551ADDAA199000021GF103991011011008001031001MA1999999101501MD1999999+0371REMSYN070AAXX  27184 83498 32595 30507 10295 20221 30150 40155 81130 333 58037;
0189834980999992002032800004-17730-039250FM-12+000399999V0200501N001012200019N0020001N1+02461+02301101771ADDAA199000021GA1001+999999999GF100991001001999999001001KA1240M+03041MA1999999101721MD1999999+0351REMSYN082AAXX  28004 83498 32995 00502 10246 20230 30172 40177 333 10304 29082 55024 58035;
0201834980999992002032812004-17730-039250FM-12+000399999V0200901N000510075019N0020001N1+02841+02351101901ADDAA124000891AY161061AY211061GF105991051021008001001001KA1240N+02301MA1999999101851MD1999999+0121MW1211REMSYN088AAXX  28124 83498 21595 50901 10284 20235 30185 40190 72161 85200 333 20230 58012 69974;
0148834980999992002032818004-17730-039250FM-12+000399999V0200901N002112200019N0020001N1+02941+02261101551ADDAA199000021GF102991011021008001031001MA1999999101501MD1999999+0001REMSYN070AAXX  28184 83498 32595 20904 10294 20226 30150 40155 81230 333 58000;
0179834980999992002032900004-17730-039250FM-12+000399999V0200901N002112200019N0020001N1+02581+02331101711ADDAA199000021GF102991011011008001001051KA1240M+03041MA1999999101661MD1999999-0061REMSYN088AAXX  29004 83498 32595 20904 10258 20233 30166 40171 81105 333 10304 29079 55068 59006;
0201834980999992002032912004-17730-039250FM-12+000399999V0200901N003110075019N0020001N1+02721+02431101741ADDAA124000891AY161061AY221061GF106991061021008001001001KA1240N+02301MA1999999101691MD1999999-0161MW1211REMSYN088AAXX  29124 83498 21595 60906 10272 20243 30169 40174 72162 86200 333 20230 59016 69984;
0182834980999992002032918004-17730-039250FM-12+000399999V0200901N003612200019N0020001N1+02841+02381101501ADDAA106000191AY161061AY261061GF104991021011008001041001MA1999999101451MD1999999-0051MW1211REMSYN082AAXX  29184 83498 21595 40907 10284 20238 30145 40150 72166 82140 333 59005 69921;
0179834980999992002033000004-17730-039250FM-12+000399999V0200901N001012200019N0020001N1+02561+02421101721ADDAA199000021GF103991031011008001001001KA1240M+03041MA1999999101671MD1999999+0011REMSYN088AAXX  30004 83498 32595 30902 10256 20242 30167 40172 83100 333 10304 29086 55071 58001;
0201834980999992002033012004-17730-039250FM-12+000399999V0200901N003110075019N0020001N1+02921+02321101721ADDAA124005191AY161061AY261061GF106991061041008001001001KA1240N+02381MA1999999101671MD1999999-0021MW1211REMSYN088AAXX  30124 83498 21595 60906 10292 20232 30167 40172 72166 86400 333 20238 59002 60054;
0148834980999992002033018004-17730-039250FM-12+000399999V0200901N003110450019N0020001N1+02971+02101101471ADDAA199000021GF105991031021008001031001MA1999999101421MD1999999-0031REMSYN070AAXX  30184 83498 32595 50906 10297 20210 30142 40147 83230 333 59003;
0189834980999992002033100004-17730-039250FM-12+000399999V0200901N001512200019N0020001N1+02521+02271101721ADDAA199000021GA1001+999999999GF100991001001999999001001KA1240M+03091MA1999999101671MD1999999+0001REMSYN082AAXX  31004 83498 32995 00903 10252 20227 30167 40172 333 10309 29076 55093 58000;
0186834980999992002033112004-17730-039250FM-12+000399999V0200501N003112200019N0020001N1+02871+02281101771ADDAA199000091GF102991021011008001001001KA1240N+02201MA1999999101721MD1999999+0051REMSYN076AAXX  31124 83498 32595 20506 10287 20228 30172 40177 82100 333 20220 58005;EQDQ01  00002PRCP99
0167834980999992002033118004-17730-039250FM-12+000399999V0200501N003112200019N0020001N1+03001+02191101551ADDAA199000091GF101991011011008001001001MA1999999101501MD1999999+0081REMSYN070AAXX  31184 83498 32595 10506 10300 20219 30150 40155 81100 333 58008;EQDQ01  00002PRCP99
0198834980999992002040100004-17730-039250FM-12+000399999V0200901N001512200019N0020001N1+02531+02231101711ADDAA199000091GF101991011041008001001001KA1240M+03081MA1999999101661MD1999999-0011REMSYN088AAXX  01004 83498 32595 10903 10253 20223 30166 40171 81400 333 10308 29075 55098 59001;EQDQ01  00002PRCP99
0201834980999992002040112004-17730-039250FM-12+000399999V0202301N000510450019N0020001N1+02621+02391101671ADDAA124000391AY161061AY211061GF105991041021008001051001KA1240N+02351MA1999999101621MD1999999-0101MW1211REMSYN088AAXX  01124 83498 21595 52301 10262 20239 30162 40167 72161 84250 333 20235 59010 69934;
0148834980999992002040118004-17730-039250FM-12+000399999V0200901N002110450019N0020001N1+03001+02321101371ADDAA199000021GF107991041021008001051001MA1999999101321MD1999999-0181REMSYN070AAXX  01184 83498 32595 70904 10300 20232 30132 40137 84250 333 59018;
0179834980999992002040200004-17730-039250FM-12+000399999V0200501N001012200019N0020001N1+02421+02211101551ADDAA199000021GF101991011001017501051001KA1240M+03041MA1999999101501MD1999999-0161REMSYN088AAXX  02004 83498 32795 10502 10242 20221 30150 40155 81050 333 10304 29083 55064 59016;
0186834980999992002040212004-17730-039250FM-12+000399999V0202701N001010450019N0020001N1+02521+02361101671ADDAA199000091GF106991031051008001011001KA1240N+02121MA1999999101621MD1999999+0001REMSYN076AAXX  02124 83498 32595 62702 10252 20236 30162 40167 83510 333 20212 58000;EQDQ01  00002PRCP99
0167834980999992002040218004-17730-039250FM-12+000399999V0200901N003110450019N0020001N1+02901+02341101431ADDAA199000091GF107991021011008001041011MA1999999101381MD1999999+0061REMSYN070AAXX  02184 83498 32595 70906 10290 20234 30138 40143 82141 333 58006;EQDQ01  00002PRCP99
0208834980999992002040300004-17730-039250FM-12+000399999V0200501N001012200019N0020001N1+02481+02381101661ADDAA199000091GA1001+999999999GF100991001001999999001001KA1240M+03041MA1999999101611MD1999999+0111REMSYN082AAXX  03004 83498 32995 00502 10248 20238 30161 40166 333 10304 29088 55045 58011;EQDQ01  00002PRCP99
0186834980999992002040312004-17730-039250FM-12+000399999V0201401N001510075019N0020001N1+02731+02391101741ADDAA199000091GF107991051051008001001081KA1240N+02341MA1999999101691MD1999999+0071REMSYN076AAXX  03124 83498 32595 71403 10273 20239 30169 40174 85508 333 20234 58007;EQDQ01  00002PRCP99
0182834980999992002040318004-17730-039250FM-12+000399999V0200901N003112200019N0020001N1+02971+02101101521ADDAA106000591AY161061AY221061GF102991011011008001031001MA1999999101471MD1999999+0091MW1211REMSYN082AAXX  03184 83498 21595 20906 10297 20210 30147 40152 72162 81130 333 58009 69951;
0189834980999992002040400004-17730-039250FM-12+000399999V0200901N001512200019N0020001N1+02481+02171101701ADDAA199000021GA1001+999999999GF100991001001999999001001KA1240M+03061MA1999999101651MD1999999+0041REMSYN082AAXX  04004 83498 32995 00903 10248 20217 30165 40170 333 10306 29077 55084 58004;
0173834980999992002040412004-17730-039250FM-12+000399999V0201401N001510450019N0020001N1+02481+02271101771ADDAA124000591GF108991041051008001021999KA1240N+02351MA1999999101721MD1999999+0031REMSYN082AAXX  04124 83498 22595 81403 10248 20227 30172 40177 8452/ 333 20235 58003 69954;
0182834980999992002040418004-17730-039250FM-12+000399999V0200901N001510450019N0020001N1+02831+02241101471ADDAA106000591AY161061AY221061GF107991041051008001081011MA1999999101421MD1999999-0051MW1211REMSYN082AAXX  04184 83498 21595 70903 10283 20224 30142 40147 72162 84581 333 59005 69941;
0179834980999992002040500004-17730-039250FM-12+000399999V0201401N001012200019N0020001N1+02591+02291101721ADDAA199000021GF102991021061008001001001KA1240M+02941MA1999999101671MD1999999+0021REMSYN088AAXX  05004 83498 32595 21402 10259 20229 30167 40172 82600 333 10294 29081 55065 58002;
0201834980999992002040512004-17730-039250FM-12+000399999V0201801N002610075019N0200001N1+02581+02381101601ADDAA124000591AY161061AY261061GF108991051061008001021999KA1240N+02181MA1999999101551MD1999999-0171MW1611REMSYN088AAXX  05124 83498 21598 81805 10258 20238 30155 40160 76166 8562/ 333 20218 59017 69954;
0182834980999992002040518004-17730-039250FM-12+000399999V0201401N004610075019N0020001N1+02841+02381101271ADDAA106008991AY161061AY221061GF106991051021008001001051MA1999999101221MD1999999-0201MW1211REMSYN082AAXX  05184 83498 21595 61409 10284 20238 30122 40127 72162 85205 333 59020 60091;
0179834980999992002040600004-17730-039250FM-12+000399999V0200901N001012200019N0020001N1+02541+02271101451ADDAA199000021GF101991011021008001001001KA1240M+02951MA1999999101401MD1999999-0271REMSYN088AAXX  06004 83498 32595 10902 10254 20227 30140 40145 81200 333 10295 29084 55083 59027;
0201834980999992002040612004-17730-039250FM-12+000399999V0202301N000510450019N0020001N1+02481+02291101441ADDAA124008991AY161061AY221061GF108991041051008001011999KA1240N+02231MA1999999101391MD1999999-0161MW1211REMSYN088AAXX  06124 83498 21595 82301 10248 20229 30139 40144 72162 8451/ 333 20223 59016 60094;
0148834980999992002040618004-17730-039250FM-12+000399999V0201401N004110450019N0020001N1+02821+02441101141ADDAA199000021GF107991021011008001051021MA1999999101091MD1999999-0131REMSYN070AAXX  06184 83498 32595 71408 10282 20244 30109 40114 82152 333 59013;
0186834980999992002040712004-17730-039250FM-12+000399999V0201801N001010075019N0020001N1+02711+02281101521ADDAA199000091GF106991051041008001031001KA1240N+02281MA1999999101471MD1999999+0081REMSYN076AAXX  07124 83498 32595 61802 10271 20228 30147 40152 85430 333 20228 58008;EQDQ01  00002PRCP99
0167834980999992002040718004-17730-039250FM-12+000399999V0201401N003112200019N0020001N1+02921+02221101201ADDAA199000091GF104991021011008001031091MA1999999101151MD1999999+0061REMSYN070AAXX  07184 83498 32595 41406 10292 20222 30115 40120 82139 333 58006;EQDQ01  00002PRCP99
0198834980999992002040800004-17730-039250FM-12+000399999V0200901N001512200019N0020001N1+02551+02231101401ADDAA199000091GF102991021011008001001001KA1240M+03021MA1999999101351MD1999999-0011REMSYN088AAXX  08004 83498 32595 20903 10255 20223 30135 40140 82100 333 10302 29078 55094 59001;EQDQ01  00002PRCP99
0186834980999992002040812004-17730-039250FM-12+000399999V0202301N001512200019N0020001N1+02771+02321101501ADDAA199000091GF103991031021008001001001KA1240N+02241MA1999999101451MD1999999-0021REMSYN076AAXX  08124 83498 32595 32303 10277 20232 30145 40150 83200 333 20224 59002;EQDQ01  00002PRCP99
0182834980999992002040818004-17730-039250FM-12+000399999V0201401N002612200019N0020001N1+02831+02271101171ADDAA106002091AY161061AY201061GF102991021011008001001001MA1999999101121MD1999999-0031MW1211REMSYN082AAXX  08184 83498 21595 21405 10283 20227 30112 40117 72160 82100 333 59003 60021;
0189834980999992002040900004-17730-039250FM-12+000399999V0200901N001012200019N0020001N1+02421+02231101331ADDAA199000021GA1001+999999999GF100991001001999999001001KA1240M+02961MA1999999101281MD1999999-0071REMSYN082AAXX  09004 83498 32995 00902 10242 20223 30128 40133 333 10296 29082 55084 59007;
0173834980999992002040912004-17730-039250FM-12+000399999V0202301N000510075019N0020001N1+02801+02361101381ADDAA124002091GF106991051021008001001091KA1240N+02231MA1999999101331MD1999999-0121REMSYN082AAXX  09124 83498 22595 62301 10280 20236 30133 40138 85209 333 20223 59012 60024;
0182834980999992002040918004-17730-039250FM-12+000399999V0201401N002110450019N0020001N1+02881+02181101061ADDAA106000891AY161061AY221061GF107991011011008001071021MA1999999101011MD1999999-0111MW1211REMSYN082AAXX  09184 83498 21595 71404 10288 20218 30101 40106 72162 81172 333 59011 69981;
0179834980999992002041000004-17730-039250FM-12+000399999V0201401N001512200019N0020001N1+02641+02271101291ADDAA199000021GF104991021021008001071001KA1240M+02921MA1999999101241MD1999999-0041REMSYN088AAXX  10004 83498 32595 41403 10264 20227 30124 40129 82270 333 10292 29076 55062 59004;
0173834980999992002041012004-17730-039250FM-12+000399999V0202301N001510450019N0020001N1+02641+02371101431ADDAA124000891GF108991041051008001011999KA1240N+02321MA1999999101381MD1999999-0051REMSYN082AAXX  10124 83498 22595 82303 10264 20237 30138 40143 8451/ 333 20232 59005 69984;
0182834980999992002041018004-17730-039250FM-12+000399999V0201401N002110450019N0020001N1+02841+02351101111ADDAA106004191AY161061AY221061GF105991021011008001041001MA1999999101061MD1999999+0051MW1211REMSYN082AAXX  10184 83498 21595 51404 10284 20235 30106 40111 72162 82140 333 58005 60041;
0179834980999992002041100004-17730-039250FM-12+000399999V0201401N001512200019N0020001N1+02661+02431101371ADDAA199000021GF101991011011008001001001KA1240M+02901MA1999999101321MD1999999+0081REMSYN088AAXX  11004 83498 32595 11403 10266 20243 30132 40137 81100 333 10290 29084 55075 58008;
0201834980999992002041112004-17730-039250FM-12+000399999V0202301N000510450019N0020001N1+02631+02371101551ADDAA124045091AY161061AY291061GF106991031051008001021001KA1240N+02341MA1999999101501MD1999999+0121MW1211REMSYN088AAXX  11124 83498 21595 62301 10263 20237 30150 40155 72169 83520 333 20234 58012 60454;
0148834980999992002041118004-17730-039250FM-12+000399999V0201401N003112200019N0020001N1+02831+02151101171ADDAA199000021GF104991021021008001021001MA1999999101121MD1999999+0061REMSYN070AAXX  11184 83498 32595 41406 10283 20215 30112 40117 82220 333 58006;
0189834980999992002041200004-17730-039250FM-12+000399999V0200901N001512200019N0020001N1+02501+02131101351ADDAA199000021GA1001+999999999GF100991001001999999001001KA1240M+02941MA1999999101301MD1999999-0021REMSYN082AAXX  12004 83498 32995 00903 10250 20213 30130 40135 333 10294 29078 55082 59002;
0186834980999992002041212004-17730-039250FM-12+000399999V0202301N001012200019N0020001N1+02771+02281101571ADDAA199000091GF104991041021008001001001KA1240N+02161MA1999999101521MD1999999+0021REMSYN076AAXX  12124 83498 32595 42302 10277 20228 30152 40157 84200 333 20216 58002;EQDQ01  00002PRCP99
0184834980999992002041218004-17730-039250FM-12+000399999V0201801N000512200019N0200001N1+03061+01961100951ADDAA199000091GF104991999011017501041001MD1999999-0061REMSYN070AAXX  12184 83498 32798 41801 10306 20196 39876 40095 85140 333 59006;EQDQ01+000052SCOTLCQ02+098763APOSP Q03  00002PRCP99
0208834980999992002041300004-17730-039250FM-12+000399999V0200901N001512200019N0020001N1+02401+02111101391ADDAA199000091GA1001+999999999GF100991001001999999001001KA1240M+02981MA1999999101341MD1999999+0041REMSYN082AAXX  13004 83498 32995 00903 10240 20211 30134 40139 333 10298 29077 55090 58004;EQDQ01  00002PRCP99
0186834980999992002041312004-17730-039250FM-12+000399999V0202701N001512200019N0020001N1+02801+02381101531ADDAA199000091GF105991021011008001001011KA1240N+02171MA1999999101481MD1999999-0041REMSYN076AAXX  13124 83498 32595 52703 10280 20238 30148 40153 82101 333 20217 59004;EQDQ01  00002PRCP99
0167834980999992002041318004-17730-039250FM-12+000399999V0200901N003612200019N0020001N1+03021+02101101281ADDAA199000091GF107991011021008001001041MA1999999101231MD1999999+0091REMSYN070AAXX  13184 83498 32595 70907 10302 20210 30123 40128 81204 333 58009;EQDQ01  00002PRCP99
0198834980999992002041400004-17730-039250FM-12+000399999V0200901N001012200019N0020001N1+02441+02301101531ADDAA199000091GF101991011011008001001001KA1240M+03131MA1999999101481MD1999999+0141REMSYN088AAXX  14004 83498 32595 10902 10244 20230 30148 40153 81100 333 10313 29080 55091 58014;EQDQ01  00002PRCP99
0186834980999992002041412004-17730-039250FM-12+000399999V0202301N001010450019N0020001N1+02721+02561101731ADDAA199000091GF107991041051008001011001KA1240N+02301MA1999999101681MD1999999+0201REMSYN076AAXX  14124 83498 32595 72302 10272 20256 30168 40173 84510 333 20230 58020;EQDQ01  00002PRCP99
0167834980999992002041418004-17730-039250FM-12+000399999V0201401N002110450019N0020001N1+02941+02241101411ADDAA199000091GF106991031011008001011001MA1999999101361MD1999999+0131REMSYN070AAXX  14184 83498 32595 61404 10294 20224 30136 40141 83110 333 58013;EQDQ01  00002PRCP99
0198834980999992002041500004-17730-039250FM-12+000399999V0201401N001512200019N0020001N1+02661+02311101601ADDAA199000091GF103991031011008001001001KA1240M+02941MA1999999101551MD1999999+0071REMSYN088AAXX  15004 83498 32595 31403 10266 20231 30155 40160 83100 333 10294 29080 55050 58007;EQDQ01  00002PRCP99
0186834980999992002041512004-17730-039250FM-12+000399999V0202301N002110075019N0020001N1+02781+02301101681ADDAA199000091GF106991051041008001031001KA1240N+02201MA1999999101631MD1999999-0051REMSYN076AAXX  15124 83498 32595 62304 10278 20230 30163 40168 85430 333 20220 59005;EQDQ01  00002PRCP99
0201834980999992002041612004-17730-039250FM-12+000399999V0202301N001010450019N0020001N1+02811+02441101721ADDAA124002091AY161061AY221061GF106991041051008001041001KA1240N+02381MA1999999101671MD1999999+0041MW1211REMSYN088AAXX  16124 83498 21595 62302 10281 20244 30167 40172 72162 84540 333 20238 58004 60024;
0148834980999992002041618004-17730-039250FM-12+000399999V0200901N002610450019N0020001N1+02551+02331101471ADDAA199000021GF106991031071008001021999MA1999999101421MD1999999+0081REMSYN070AAXX  16184 83498 32595 60905 10255 20233 30142 40147 8372/ 333 58008;
0208834980999992002041800004-17730-039250FM-12+000399999V0201801N003612200019N0020001N1+02581+02171101601ADDAA199000091GA1001+999999999GF100991001001999999001001KA1240M+02881MA1999999101551MD1999999-0151REMSYN082AAXX  18004 83498 32995 01807 10258 20217 30155 40160 333 10288 29076 55019 59015;EQDQ01  00002PRCP99
0201834980999992002041812004-17730-039250FM-12+000399999V0202301N002110450019N0020001N1+02301+02251101701ADDAA124001091AY161061AY261061GF108991041061008001011999KA1240N+02131MA1999999101651MD1999999-0091MW1611REMSYN088AAXX  18124 83498 21595 82304 10230 20225 30165 40170 76166 8461/ 333 20213 59009 60014;
0182834980999992002041818004-17730-039250FM-12+000399999V0201801N001512200019N0020001N1+02781+02421101481ADDAA106002091AY161061AY211061GF103991031021008001001001MA1999999101431MD1999999-0051MW1211REMSYN082AAXX  18184 83498 21595 31803 10278 20242 30143 40148 72161 83200 333 59005 60021;
0201834980999992002041912004-17730-039250FM-12+000399999V0203601N001510075019N0020001N1+02501+02311101701ADDAA124002091AY161061AY221061GF107991051051008001021001KA1240N+02321MA1999999101651MD1999999+0001MW1211REMSYN088AAXX  19124 83498 21595 73603 10250 20231 30165 40170 72162 85520 333 20232 58000 60024;
0148834980999992002041918004-17730-039250FM-12+000399999V0200901N003112200019N0020001N1+02841+02381101411ADDAA199000021GF104991021041008001021091MA1999999101361MD1999999-0071REMSYN070AAXX  19184 83498 32595 40906 10284 20238 30136 40141 82429 333 59007;
0182834980999992002042018004-17730-039250FM-12+000399999V0200501N002610450019N0020001N1+02751+02321101351ADDAA106001091AY161061AY221061GF105991031041008001041001MA1999999101301MD1999999-0061MW1211REMSYN082AAXX  20184 83498 21595 50505 10275 20232 30130 40135 72162 83440 333 59006 60011;
0179834980999992002042100004-17730-039250FM-12+000399999V0200901N003110450019N0020001N1+02461+02381101591ADDAA199000021GF108991041071008001021999KA1240M+02941MA1999999101541MD1999999-0031REMSYN088AAXX  21004 83498 32595 80906 10246 20238 30154 40159 8472/ 333 10294 29087 55054 59003;
0201834980999992002042112004-17730-039250FM-12+000399999V0201801N000510120019N0020001N1+02741+02381101701ADDAA124010991AY161061AY261061GF107991051081008001001091KA1240N+02331MA1999999101651MD1999999+0011MW1601REMSYN088AAXX  21124 83498 21595 71801 10274 20238 30165 40170 76066 85809 333 20233 58001 60114;
0179834980999992002042200004-17730-039250FM-12+000399999V0200501N001512200019N0020001N1+02441+02211101651ADDAA199000021GF102991021021008001001001KA1240M+03051MA1999999101601MD1999999+0061REMSYN088AAXX  22004 83498 32595 20503 10244 20221 30160 40165 82200 333 10305 29079 5090/ 58006;
0186834980999992002042212004-17730-039250FM-12+000399999V0201401N003110075019N0020001N1+02861+02311101761ADDAA199000091GF105991051021008001001001KA1240N+02361MA1999999101711MD1999999+0061REMSYN076AAXX  22124 83498 32595 51406 10286 20231 30171 40176 85200 333 20236 58006;EQDQ01  00002PRCP99
0167834980999992002042218004-17730-039250FM-12+000399999V0201401N004610450019N0020001N1+02961+02181101531ADDAA199000091GF107991031021008001041021MA1999999101481MD1999999+0141REMSYN070AAXX  22184 83498 32595 71409 10296 20218 30148 40153 83242 333 58014;EQDQ01  00002PRCP99
0213834980999992002042300004-17730-039250FM-12+000399999V0201401N004110450019N0020001N1+02641+02391101651ADDAA106000591AY161061AY221061GF106991031061008001011001KA1240M+02941MA1999999101601MD1999999+0001MW1211REMSYN100AAXX  23004 83498 21595 61408 10264 20239 30160 40165 72162 83610 333 10294 29077 55076 58000 69961;
0080834980999992002042312004-17730-039250FM-12+000399999V0201401N003619999999N0020001N1+02841+99999999999ADDGF106991999999008001999999REMSYN042AAXX  23124 83498 22595 61407 10284 23124;
0167834980999992002042318004-17730-039250FM-12+000399999V0201401N004110450019N0020001N1+02601+02191101491ADDAA199000091GF108991031071008001021999MA1999999101441MD1999999-0041REMSYN070AAXX  23184 83498 32595 81408 10260 20219 30144 40149 8372/ 333 59004;EQDQ01  00002PRCP99
0223834980999992002042400004-17730-039250FM-12+000399999V0209999C000012200019N0020001N1+02401+02301101771ADDAA106002091AY161061AY201061GA1001+999999999GF100991001001999999001001KA1240M+02941MA1999999101721MD1999999+0121MW1211REMSYN094AAXX  24004 83498 21995 00000 10240 20230 30172 40177 72160 333 10294 29084 55053 58012 60021;
0201834980999992002042412004-17730-039250FM-12+000399999V0201401N002612200019N0020001N1+02791+02211101611ADDAA124007991AY161061AY211061GF103991031021008001001001KA1240N+02381MA1999999101561MD1999999-0051MW1211REMSYN088AAXX  24124 83498 21595 31405 10279 20221 30156 40161 72161 83200 333 20238 59005 60084;
0148834980999992002042418004-17730-039250FM-12+000399999V0201401N003110450019N0020001N1+02831+02311101251ADDAA199000021GF105991031051008001041001MA1999999101201MD1999999-0241REMSYN070AAXX  24184 83498 32595 51406 10283 20231 30120 40125 83540 333 59024;
0179834980999992002042500004-17730-039250FM-12+000399999V0200901N001512200019N0020001N1+02611+02231101471ADDAA199000021GF104991041001012501031001KA1240M+02961MA1999999101421MD1999999-0301REMSYN088AAXX  25004 83498 32695 40903 10261 20223 30142 40147 84030 333 10296 29076 55080 59030;
0201834980999992002042512004-17730-039250FM-12+000399999V0201401N001510450019N0020001N1+02581+02331101681ADDAA124005191AY161061AY261061GF107991031061008001051081KA1240N+02341MA1999999101631MD1999999+0071MW1601REMSYN088AAXX  25124 83498 21595 71403 10258 20233 30163 40168 76066 83658 333 20234 58007 60054;
0148834980999992002042518004-17730-039250FM-12+000399999V0200901N002612200019N0020001N1+02941+02241101321ADDAA199000021GF102991011031008001001091MA1999999101271MD1999999+0071REMSYN070AAXX  25184 83498 32595 20905 10294 20224 30127 40132 81309 333 58007;
0179834980999992002042600004-17730-039250FM-12+000399999V0200901N001012200019N0020001N1+02481+02291101531ADDAA199000021GF101991011041008001001001KA1240M+03041MA1999999101481MD1999999+0061REMSYN088AAXX  26004 83498 32595 10902 10248 20229 30148 40153 81400 333 10304 29083 55062 58006;
0186834980999992002042612004-17730-039250FM-12+000399999V0202301N001011050019N0020001N1+02741+02471101651ADDAA199000091GF105991021011008001001091KA1240N+02281MA1999999101601MD1999999-0031REMSYN076AAXX  26124 83498 32595 52302 10274 20247 30160 40165 82109 333 20228 59003;EQDQ01  00002PRCP99
0167834980999992002042618004-17730-039250FM-12+000399999V0201401N002110450019N0020001N1+02841+02221101391ADDAA199000091GF105991031011008001041001MA1999999101341MD1999999-0071REMSYN070AAXX  26184 83498 32595 51404 10284 20222 30134 40139 83140 333 59007;EQDQ01  00002PRCP99
0198834980999992002042700004-17730-039250FM-12+000399999V0200901N001012200019N0020001N1+02441+02371101551ADDAA199000091GF101991011011008001001001KA1240M+03001MA1999999101501MD1999999+0021REMSYN088AAXX  27004 83498 32595 10902 10244 20237 30150 40155 81100 333 10300 29086 55081 58002;EQDQ01  00002PRCP99
0201834980999992002042712004-17730-039250FM-12+000399999V0202701N001510075019N0020001N1+02611+02421101571ADDAA124001091AY161061AY261061GF107991051051008001021001KA1240N+02311MA1999999101521MD1999999-0081MW1211REMSYN088AAXX  27124 83498 21595 72703 10261 20242 30152 40157 72166 85520 333 20231 59008 60014;
0182834980999992002042718004-17730-039250FM-12+000399999V0203601N002610450019N0020001N1+02711+02371101221ADDAA106007191AY161061AY261061GF106991021021008001021001MA1999999101171MD1999999-0171MW1211REMSYN082AAXX  27184 83498 21595 63605 10271 20237 30117 40122 72166 82220 333 59017 60071;
0189834980999992002042800004-17730-039250FM-12+000399999V0209999C000012200019N0020001N1+02301+02181101361ADDAA199000021GA1001+999999999GF100991001001999999001001KA1240M+02821MA1999999101311MD1999999-0191REMSYN082AAXX  28004 83498 32995 00000 10230 20218 30131 40136 333 10282 29090 55023 59019;
0173834980999992002042812004-17730-039250FM-12+000399999V0202701N001512200019N0020001N1+02731+02341101601ADDAA124007191GF103991031011008001001001KA1240N+02041MA1999999101551MD1999999+0031REMSYN082AAXX  28124 83498 22595 32703 10273 20234 30155 40160 83100 333 20204 58003 60074;
0167834980999992002042818004-17730-039250FM-12+000399999V0201401N003112200019N0020001N1+02851+02141101351ADDAA199000091GF101991011011008001001001MA1999999101301MD1999999+0131REMSYN070AAXX  28184 83498 32595 11406 10285 20214 30130 40135 81100 333 58013;EQDQ01  00002PRCP99
0208834980999992002042900004-17730-039250FM-12+000399999V0200901N001512200019N0020001N1+02481+02191101631ADDAA199000091GA1001+999999999GF100991001001999999001001KA1240M+02941MA1999999101581MD1999999+0271REMSYN082AAXX  29004 83498 32995 00903 10248 20219 30158 40163 333 10294 29078 55087 58027;EQDQ01  00002PRCP99
0186834980999992002042912004-17730-039250FM-12+000399999V0202701N002110075019N0020001N1+02701+02221101751ADDAA199000091GF105991051021008001001001KA1240N+02241MA1999999101701MD1999999+0151REMSYN076AAXX  29124 83498 32595 52704 10270 20222 30170 40175 85200 333 20224 58015;EQDQ01  00002PRCP99
0167834980999992002042918004-17730-039250FM-12+000399999V0201401N002612200019N0020001N1+02881+02031101451ADDAA199000091GF101991011021008001001001MA1999999101401MD1999999+0101REMSYN070AAXX  29184 83498 32595 11405 10288 20203 30140 40145 81200 333 58010;EQDQ01  00002PRCP99
0208834980999992002043000004-17730-039250FM-12+000399999V0200501N001012200019N0020001N1+02141+02021101591ADDAA199000091GA1001+999999999GF100991001001999999001001KA1240M+02981MA1999999101541MD1999999-0041REMSYN082AAXX  30004 83498 32995 00502 10214 20202 30154 40159 333 10298 29080 55096 59004;EQDQ01  00002PRCP99
0186834980999992002043012004-17730-039250FM-12+000399999V0202701N001012200019N0020001N1+02541+02111101831ADDAA199000091GF104991021011008001001091KA1240N+01981MA1999999101781MD1999999+0081REMSYN076AAXX  30124 83498 32595 42702 10254 20211 30178 40183 82109 333 20198 58008;EQDQ01  00002PRCP99
0167834980999992002043018004-17730-039250FM-12+000399999V0200501N002612200019N0020001N1+02881+02051101451ADDAA199000091GF102991021011008001001001MA1999999101401MD1999999+0001REMSYN070AAXX  30184 83498 32595 20505 10288 20205 30140 40145 82100 333 58000;EQDQ01  00002PRCP99
0186834980999992002050112004-17730-039250FM-12+000399999V0203601N002112200019N0020001N1+02741+02261101671ADDAA199000091GF104991041011008001001001KA1240N+02021MA1999999101621MD1999999-0161REMSYN076AAXX  01124 83498 32595 43604 10274 20226 30162 40167 84100 333 20202 59016;EQDQ01  00002PRCP99
0167834980999992002050118004-17730-039250FM-12+000399999V0200501N004112200019N0020001N1+02831+02021101421ADDAA199000091GF103991031011008001001001MA1999999101371MD1999999-0031REMSYN070AAXX  01184 83498 32595 30508 10283 20202 30137 40142 83100 333 59003;EQDQ01  00002PRCP99
0208834980999992002050200004-17730-039250FM-12+000399999V0200501N001012200019N0020001N1+02171+01951101571ADDAA199000091GA1001+999999999GF100991001001999999001001KA1240M+02991MA1999999101521MD1999999-0101REMSYN082AAXX  02004 83498 32995 00502 10217 20195 30152 40157 333 10299 29078 55097 59010;EQDQ01  00002PRCP99
0186834980999992002050212004-17730-039250FM-12+000399999V0202301N000512200019N0020001N1+02531+02211101631ADDAA199000091GF103991031041008001001001KA1240N+01991MA1999999101581MD1999999-0041REMSYN076AAXX  02124 83498 32595 32301 10253 20221 30158 40163 83400 333 20199 59004;EQDQ01  00002PRCP99
0167834980999992002050218004-17730-039250FM-12+000399999V0201401N001512200019N0020001N1+02821+02271101311ADDAA199000091GF102991021021008001001001MA1999999101261MD1999999-0111REMSYN070AAXX  02184 83498 32595 21403 10282 20227 30126 40131 82200 333 59011;EQDQ01  00002PRCP99
0182834980999992002050312004-17730-039250FM-12+000399999V0203601N002610450019N0020001N1+02681+02331101501ADDAA124000391AY161061AY221061GF107991031081008001071051MA1999999101451MD1999999-0131MW1631REMSYN082AAXX  03124 83498 21595 73605 10268 20233 30145 40150 76362 83875 333 59013 69934;
0148834980999992002050318004-17730-039250FM-12+000399999V0200501N005712200019N0020001N1+02921+02061101071ADDAA199000021GF101991011011008001001001MA1999999101021MD1999999-0241REMSYN070AAXX  03184 83498 32595 10511 10292 20206 30102 40107 81100 333 59024;
0189834980999992002050400004-17730-039250FM-12+000399999V0200501N001012200019N0020001N1+02381+02171101251ADDAA199000021GA1001+999999999GF100991001001999999001001KA1240M+03001MA1999999101201MD1999999-0211REMSYN082AAXX  04004 83498 32995 00502 10238 20217 30120 40125 333 10300 29079 55077 59021;
0167834980999992002050412004-17730-039250FM-12+000399999V0203601N004110075019N0020001N1+02761+02341101441ADDAA199000091GF105991051021008001001001MA1999999101391MD1999999-0061REMSYN070AAXX  04124 83498 32595 53608 10276 20234 30139 40144 85200 333 59006;EQDQ01  00002PRCP99
0167834980999992002050418004-17730-039250FM-12+000399999V0203601N004612200019N0020001N1+02901+02041101191ADDAA199000091GF102991021011008001001001MA1999999101141MD1999999+0121REMSYN070AAXX  04184 83498 32595 23609 10290 20204 30114 40119 82100 333 58012;EQDQ01  00002PRCP99
0208834980999992002050500004-17730-039250FM-12+000399999V0200501N003112200019N0020001N1+02481+02381101501ADDAA199000091GA1001+999999999GF100991001001999999001001KA1240M+03041MA1999999101451MD1999999+0251REMSYN082AAXX  05004 83498 32995 00506 10248 20238 30145 40150 333 10304 29082 55089 58025;EQDQ01  00002PRCP99
0167834980999992002050512004-17730-039250FM-12+000399999V0203601N001510075019N0020001N1+02831+02241101831ADDAA199000091GF105991051021008001001001MA1999999101781MD1999999+0391REMSYN070AAXX  05124 83498 32595 53603 10283 20224 30178 40183 85200 333 58039;EQDQ01  00002PRCP99
0167834980999992002050518004-17730-039250FM-12+000399999V0200501N003112200019N0020001N1+02921+02121101571ADDAA199000091GF102991021011008001001001MA1999999101521MD1999999+0381REMSYN070AAXX  05184 83498 32595 20506 10292 20212 30152 40157 82100 333 58038;EQDQ01  00002PRCP99
0208834980999992002050600004-17730-039250FM-12+000399999V0200501N001012200019N0020001N1+02421+02191101861ADDAA199000091GA1001+999999999GF100991001001999999001001KA1240M+03051MA1999999101811MD1999999+0361REMSYN082AAXX  06004 83498 32995 00502 10242 20219 30181 40186 333 10305 29077 55097 58036;EQDQ01  00002PRCP99
0167834980999992002050612004-17730-039250FM-12+000399999V0202301N000512200019N0020001N1+02731+02321101901ADDAA199000091GF104991041021008001001001MA1999999101851MD1999999+0071REMSYN070AAXX  06124 83498 32595 42301 10273 20232 30185 40190 84200 333 58007;EQDQ01  00002PRCP99
0167834980999992002050618004-17730-039250FM-12+000399999V0201401N002612200019N0020001N1+02871+02231101701ADDAA199000091GF102991021021008001001001MA1999999101651MD1999999+0131REMSYN070AAXX  06184 83498 32595 21405 10287 20223 30165 40170 82200 333 58013;EQDQ01  00002PRCP99
0198834980999992002050700004-17730-039250FM-12+000399999V0201801N002610075019N0020001N1+02481+02271101881ADDAA199000091GF108991051061008001021999KA1240M+02961MA1999999101831MD1999999+0021REMSYN088AAXX  07004 83498 32595 81805 10248 20227 30183 40188 8562/ 333 10296 29081 55094 58002;EQDQ01  00002PRCP99
0182834980999992002050712004-17730-039250FM-12+000399999V0203601N001010075019N0020001N1+02701+02281101801ADDAA124000891AY161061AY261061GF107991071021008001001001MA1999999101751MD1999999-0101MW1621REMSYN082AAXX  07124 83498 21595 73602 10270 20228 30175 40180 76266 87200 333 59010 69984;
0148834980999992002050718004-17730-039250FM-12+000399999V0200901N002110075019N0020001N1+02781+02231101521ADDAA199000021GF107991051021008001031051MA1999999101471MD1999999-0181REMSYN070AAXX  07184 83498 32595 70904 10278 20223 30147 40152 85235 333 59018;
0179834980999992002050800004-17730-039250FM-12+000399999V0200901N001012200019N0020001N1+02481+02191101751ADDAA199000021GF101991001001999999001051KA1240M+02981MA1999999101701MD1999999-0131REMSYN088AAXX  08004 83498 32995 10902 10248 20219 30170 40175 80005 333 10298 29080 55065 59013;
0182834980999992002050812004-17730-039250FM-12+000399999V0202301N001510450019N0020001N1+02561+02361101801ADDAA124001091AY161061AY261061GF106991031061008001011001MA1999999101751MD1999999+0001MW1211REMSYN082AAXX  08124 83498 21595 62303 10256 20236 30175 40180 72166 83610 333 58000 60014;
0148834980999992002050818004-17730-039250FM-12+000399999V0200501N002112200019N0020001N1+02801+02151101501ADDAA199000021GF104991021011008001031001MA1999999101451MD1999999-0021REMSYN070AAXX  08184 83498 32595 40504 10280 20215 30145 40150 82130 333 59002;
0189834980999992002050900004-17730-039250FM-12+000399999V0209999C000012200019N0020001N1+02301+02181101711ADDAA199000021GA1001+999999999GF100991001001999999001001KA1240M+02981MA1999999101661MD1999999-0041REMSYN082AAXX  09004 83498 32995 00000 10230 20218 30166 40171 333 10298 29086 55064 59004;
0167834980999992002050912004-17730-039250FM-12+000399999V0202701N001012200019N0020001N1+02691+02311101801ADDAA199000091GF103991021011008001031001MA1999999101751MD1999999+0001REMSYN070AAXX  09124 83498 32595 32702 10269 20231 30175 40180 82130 333 58000;EQDQ01  00002PRCP99
0167834980999992002050918004-17730-039250FM-12+000399999V0200501N002612200019N0020001N1+02941+02161101491ADDAA199000091GF103991021021008001031001MA1999999101441MD1999999-0011REMSYN070AAXX  09184 83498 32595 30505 10294 20216 30144 40149 82230 333 59001;EQDQ01  00002PRCP99
0208834980999992002051000004-17730-039250FM-12+000399999V0200501N001012200019N0020001N1+02381+02171101731ADDAA199000091GA1001+999999999GF100991001001999999001001KA1240M+03061MA1999999101681MD1999999+0021REMSYN082AAXX  10004 83498 32995 00502 10238 20217 30168 40173 333 10306 29080 55092 58002;EQDQ01  00002PRCP99
0167834980999992002051012004-17730-039250FM-12+000399999V0202701N001511050019N0020001N1+02671+02351101961ADDAA199000091GF106991021011008001001021MA1999999101911MD1999999+0161REMSYN070AAXX  10124 83498 32595 62703 10267 20235 30191 40196 82102 333 58016;EQDQ01  00002PRCP99
0176834980999992002051018004-17730-039250FM-12+000399999V0202301N001510450019N0200001N1+02611+02371101791ADDAA199000021AY161061AY221061GF106991041051008001041001MA1999999101741MD1999999+0301MW1211REMSYN076AAXX  10184 83498 31598 62303 10261 20237 30174 40179 72162 84540 333 58030;
0189834980999992002051100004-17730-039250FM-12+000399999V0200901N001012200019N0020001N1+02531+02251102031ADDAA199000021GA1001+999999999GF100991001001999999001001KA1240M+02881MA1999999101981MD1999999+0301REMSYN082AAXX  11004 83498 32995 00902 10253 20225 30198 40203 333 10288 29085 55022 58030;
0154834980999992002051112004-17730-039250FM-12+000399999V0201401N000510120019N0020001N1+02641+02311102101ADDAA124014091GF107991051081008001031091MA1999999102051MD1999999+0141REMSYN076AAXX  11124 83498 22595 71401 10264 20231 30205 40210 85839 333 58014 60144;
0167834980999992002051118004-17730-039250FM-12+000399999V0201401N002610450019N0020001N1+02781+02251101831ADDAA199000091GF107991021081008001031051MA1999999101781MD1999999+0041REMSYN070AAXX  11184 83498 32595 71405 10278 20225 30178 40183 82835 333 58004;EQDQ01  00002PRCP99
0198834980999992002051200004-17730-039250FM-12+000399999V0200501N000512200019N0020001N1+02441+02271101981ADDAA199000091GF102991011021008001031001KA1240M+02981MA1999999101931MD1999999-0051REMSYN088AAXX  12004 83498 32595 20501 10244 20227 30193 40198 81230 333 10298 29084 55055 59005;EQDQ01  00002PRCP99
0167834980999992002051212004-17730-039250FM-12+000399999V0201401N003112200019N0020001N1+02781+02251102031ADDAA199000091GF105991041021008001001011MA1999999101981MD1999999-0071REMSYN070AAXX  12124 83498 32595 51406 10278 20225 30198 40203 84201 333 59007;EQDQ01  00002PRCP99
0213834980999992002051300004-17730-039250FM-12+000399999V0202301N001012200019N0020001N1+02421+02331101921ADDAA106000591AY161061AY261061GF102991021011008001001001KA1240M+02901MA1999999101871MD1999999-0061MW1211REMSYN100AAXX  13004 83498 21595 22302 10242 20233 30187 40192 72166 82100 333 10290 29083 55078 59006 69961;
0182834980999992002051312004-17730-039250FM-12+000399999V0201401N002612200019N0020001N1+02801+02221102011ADDAA124009991AY161061AY261061GF104991031021008001021001MA1999999101961MD1999999-0021MW1211REMSYN082AAXX  13124 83498 21595 41405 10280 20222 30196 40201 72166 83220 333 59002 60104;
0148834980999992002051318004-17730-039250FM-12+000399999V0201401N003110075019N0020001N1+02811+02201101741ADDAA199000021GF105991051021008001001001MA1999999101691MD1999999+0021REMSYN070AAXX  13184 83498 32595 51406 10281 20220 30169 40174 85200 333 58002;
0179834980999992002051400004-17730-039250FM-12+000399999V0201401N002112200019N0020001N1+02581+02211101941ADDAA199000021GF102991021021008001001001KA1240M+02901MA1999999101891MD1999999+0021REMSYN088AAXX  14004 83498 32595 21404 10258 20221 30189 40194 82200 333 10290 29075 55080 58002;
0182834980999992002051412004-17730-039250FM-12+000399999V0202301N001512200019N0020001N1+02441+02271102051ADDAA124001091AY161061AY211061GF103991031021008001001001MA1999999102001MD1999999+0041MW1211REMSYN082AAXX  14124 83498 21595 32303 10244 20227 30200 40205 72161 83200 333 58004 60014;
0148834980999992002051418004-17730-039250FM-12+000399999V0200901N002612200019N0020001N1+02791+02341101751ADDAA199000021GF104991041021008001001001MA1999999101701MD1999999+0011REMSYN070AAXX  14184 83498 32595 40905 10279 20234 30170 40175 84200 333 58001;
0223834980999992002051500004-17730-039250FM-12+000399999V0202701N001012200019N0020001N1+02261+02181101951ADDAA106006191AY161061AY201061GA1001+999999999GF100991001001999999001001KA1240M+02901MA1999999101901MD1999999+0011MW1211REMSYN094AAXX  15004 83498 21595 02702 10226 20218 30190 40195 72160 333 10290 29089 55079 58001 60061;
0182834980999992002051512004-17730-039250FM-12+000399999V0202701N000510450019N0020001N1+02641+02271101991ADDAA124019191AY161061AY261061GF105991031021008001031001MA1999999101941MD1999999-0061MW1631REMSYN082AAXX  15124 83498 21595 52701 10264 20227 30194 40199 76366 83230 333 59006 60194;
0148834980999992002051518004-17730-039250FM-12+000399999V0200901N002112200019N0020001N1+02801+02081101701ADDAA199000021GF101991011021008001001001MA1999999101651MD1999999-0051REMSYN070AAXX  15184 83498 32595 10904 10280 20208 30165 40170 81200 333 59005;
0179834980999992002051600004-17730-039250FM-12+000399999V0200901N001512200019N0020001N1+02381+02131101751ADDAA199000021GF103991021021008001001051KA1240M+03001MA1999999101701MD1999999-0201REMSYN088AAXX  16004 83498 32595 30903 10238 20213 30170 40175 82205 333 10300 29079 55074 59020;
0167834980999992002051612004-17730-039250FM-12+000399999V0202301N001012200019N0020001N1+02501+02211101681ADDAA199000091GF105991021011008001001011MA1999999101631MD1999999-0311REMSYN070AAXX  16124 83498 32595 52302 10250 20221 30163 40168 82101 333 59031;EQDQ01  00002PRCP99
0167834980999992002051618004-17730-039250FM-12+000399999V0200501N002112200019N0020001N1+02801+02081101321ADDAA199000091GF103991031011008001001001MA1999999101271MD1999999-0381REMSYN070AAXX  16184 83498 32595 30504 10280 20208 30127 40132 83100 333 59038;EQDQ01  00002PRCP99
0208834980999992002051700004-17730-039250FM-12+000399999V0203601N001012200019N0020001N1+02331+02301101471ADDAA199000091GA1001+999999999GF100991001001999999001001KA1240M+02861MA1999999101421MD1999999-0281REMSYN082AAXX  17004 83498 32995 03602 10233 20230 30142 40147 333 10286 29084 55068 59028;EQDQ01  00002PRCP99
0167834980999992002051712004-17730-039250FM-12+000399999V0203601N004112200019N0020001N1+02691+02181101411ADDAA199000091GF102991021001012501031011MA1999999101361MD1999999-0271REMSYN070AAXX  17124 83498 32695 23608 10269 20218 30136 40141 82031 333 59027;EQDQ01  00002PRCP99
0167834980999992002051718004-17730-039250FM-12+000399999V0200501N004112200019N0020001N1+02851+02171101021ADDAA199000091GF102991021011008001001001MA1999999100971MD1999999-0301REMSYN070AAXX  17184 83498 32595 20508 10285 20217 30097 40102 82100 333 59030;EQDQ01  00002PRCP99
0208834980999992002051800004-17730-039250FM-12+000399999V0200501N001012200019N0020001N1+02361+02261101271ADDAA199000091GA1001+999999999GF100991001001999999001001KA1240M+03081MA1999999101221MD1999999-0201REMSYN082AAXX  18004 83498 32995 00502 10236 20226 30122 40127 333 10308 29082 55089 59020;EQDQ01  00002PRCP99
0167834980999992002051812004-17730-039250FM-12+000399999V0203601N002110450019N0020001N1+02771+02361101521ADDAA199000091GF106991031051008001041001MA1999999101471MD1999999+0111REMSYN070AAXX  18124 83498 32595 63604 10277 20236 30147 40152 83540 333 58011;EQDQ01  00002PRCP99
0167834980999992002051818004-17730-039250FM-12+000399999V0200501N003112200019N0020001N1+02871+02191101241ADDAA199000091GF102991021001008001041001MA1999999101191MD1999999+0221REMSYN070AAXX  18184 83498 32595 20506 10287 20219 30119 40124 82040 333 58022;EQDQ01  00002PRCP99
0182834980999992002051912004-17730-039250FM-12+000399999V0200901N000510450019N0020001N1+02441+02271101701ADDAA124000591AY161061AY221061GF108991041081008001021091MA1999999101651MD1999999+0191MW1211REMSYN082AAXX  19124 83498 21595 80901 10244 20227 30165 40170 72162 84829 333 58019 69944;
0182834980999992002051918004-17730-039250FM-12+000399999V0200501N004112200019N0020001N1+02841+02011101351ADDAA106000191AY161061AY211061GF104991011021008001001021MA1999999101301MD1999999+0111MW1211REMSYN082AAXX  19184 83498 21595 40508 10284 20201 30130 40135 72161 81202 333 58011 69921;
0154834980999992002052012004-17730-039250FM-12+000399999V0203601N001512200019N0020001N1+02721+02241101641ADDAA124000191GF104991041021008001001001MA1999999101591MD1999999-0061REMSYN076AAXX  20124 83498 22595 43603 10272 20224 30159 40164 84200 333 59006 69924;
0167834980999992002052018004-17730-039250FM-12+000399999V0200501N002612200019N0020001N1+02861+02031101351ADDAA199000091GF102991021011008001001001MA1999999101301MD1999999+0001REMSYN070AAXX  20184 83498 32595 20505 10286 20203 30130 40135 82100 333 58000;EQDQ01  00002PRCP99
0208834980999992002052100004-17730-039250FM-12+000399999V0200501N001012200019N0020001N1+02321+02241101471ADDAA199000091GA1001+999999999GF100991001001999999001001KA1240M+02961MA1999999101421MD1999999-0081REMSYN082AAXX  21004 83498 32995 00502 10232 20224 30142 40147 333 10296 29082 55094 59008;EQDQ01  00002PRCP99
0167834980999992002052112004-17730-039250FM-12+000399999V0203601N003610075019N0020001N1+02721+02301101541ADDAA199000091GF106991051021008001001011MA1999999101491MD1999999-0101REMSYN070AAXX  21124 83498 32595 63607 10272 20230 30149 40154 85201 333 59010;EQDQ01  00002PRCP99
0167834980999992002052118004-17730-039250FM-12+000399999V0200501N004612200019N0020001N1+02851+02291101181ADDAA199000091GF102991021021008001001001MA1999999101131MD1999999-0171REMSYN070AAXX  21184 83498 32595 20509 10285 20229 30113 40118 82200 333 59017;EQDQ01  00002PRCP99
0208834980999992002052200004-17730-039250FM-12+000399999V0200501N001512200019N0020001N1+02441+02251101341ADDAA199000091GA1001+999999999GF100991001001999999001001KA1240M+02991MA1999999101291MD1999999-0131REMSYN082AAXX  22004 83498 32995 00503 10244 20225 30129 40134 333 10299 29082 55081 59013;EQDQ01  00002PRCP99
0167834980999992002052212004-17730-039250FM-12+000399999V0203601N004112200019N0020001N1+02731+02321101501ADDAA199000091GF104991021011008001001011MA1999999101451MD1999999-0041REMSYN070AAXX  22124 83498 32595 43608 10273 20232 30145 40150 82101 333 59004;EQDQ01  00002PRCP99
0167834980999992002052218004-17730-039250FM-12+000399999V0201801N005110075019N0020001N1+02541+02291101311ADDAA199000091GF108991051051008001021999MA1999999101261MD1999999+0131REMSYN070AAXX  22184 83498 32595 81810 10254 20229 30126 40131 8552/ 333 58013;EQDQ01  00002PRCP99
0213834980999992002052300004-17730-039250FM-12+000399999V0201801N006210450019N0020001N1+02421+02251101611ADDAA106000591AY161061AY261061GF108991031071008001021999KA1240M+03061MA1999999101561MD1999999+0271MW1211REMSYN100AAXX  23004 83498 21595 81812 10242 20225 30156 40161 72166 8372/ 333 10306 29086 55037 58027 69941;
0182834980999992002052312004-17730-039250FM-12+000399999V0202301N004110075019N0020001N1+02441+02151101801ADDAA124016091AY161061AY261061GF107991051061008001031051MA1999999101751MD1999999+0201MW1621REMSYN082AAXX  23124 83498 21595 72308 10244 20215 30175 40180 76266 85635 333 58020 60164;
0148834980999992002052318004-17730-039250FM-12+000399999V0201801N005110450019N0020001N1+02481+02011101551ADDAA199000021GF107991031081008001071051MA1999999101501MD1999999+0241REMSYN070AAXX  23184 83498 32595 71810 10248 20201 30150 40155 83875 333 58024;
0213834980999992002052400004-17730-039250FM-12+000399999V0201801N004610450019N0020001N1+02301+01961101751ADDAA106000191AY161061AY221061GF107991011081008001051051KA1240M+02591MA1999999101701MD1999999+0141MW1211REMSYN100AAXX  24004 83498 21595 71809 10230 20196 30170 40175 72162 81855 333 10259 29081 55015 58014 69911;
0182834980999992002052412004-17730-039250FM-12+000399999V0201801N003610450019N0020001N1+02321+02071101831ADDAA124007191AY161061AY261061GF106991031061008001011001MA1999999101781MD1999999+0031MW1211REMSYN082AAXX  24124 83498 21595 61807 10232 20207 30178 40183 72166 83610 333 58003 60074;
0182834980999992002052418004-17730-039250FM-12+000399999V0201801N006710450019N0020001N1+02401+02031101621ADDAA106002091AY161061AY261061GF106991041061008001011001MA1999999101571MD1999999+0071MW1211REMSYN082AAXX  24184 83498 21595 61813 10240 20203 30157 40162 72166 84610 333 58007 60021;
0179834980999992002052500004-17730-039250FM-12+000399999V0201801N005112200019N0020001N1+02261+01981101721ADDAA199000021GF104991041021008001001001KA1240M+02561MA1999999101671MD1999999-0031REMSYN088AAXX  25004 83498 32595 41810 10226 20198 30167 40172 84200 333 10256 29084 55012 59003;
0154834980999992002052512004-17730-039250FM-12+000399999V0202301N005112200019N0020001N1+02271+01861101851ADDAA124002091GF102991021011008001001001MA1999999101801MD1999999+0021REMSYN076AAXX  25124 83498 22595 22310 10227 20186 30180 40185 82100 333 58002 60024;
0167834980999992002052518004-17730-039250FM-12+000399999V0201801N005112200019N0020001N1+02461+01901101631ADDAA199000091GF104991031021008001001091MA1999999101581MD1999999+0011REMSYN070AAXX  25184 83498 32595 41810 10246 20190 30158 40163 83209 333 58001;EQDQ01  00002PRCP99
0198834980999992002052600004-17730-039250FM-12+000399999V0201801N002112200019N0020001N1+02211+01861101881ADDAA199000091GF103991001001999999001041KA1240M+02571MA1999999101831MD1999999+0161REMSYN088AAXX  26004 83498 32995 31804 10221 20186 30183 40188 80004 333 10257 29078 55075 58016;EQDQ01  00002PRCP99
0182834980999992002052612004-17730-039250FM-12+000399999V0201801N005110450019N0020001N1+02211+01951102071ADDAA124001091AY161061AY221061GF106991041051008001041001MA1999999102021MD1999999+0221MW1211REMSYN082AAXX  26124 83498 21595 61810 10221 20195 30202 40207 72162 84540 333 58022 69994;
0182834980999992002052618004-17730-039250FM-12+000399999V0201801N006712200019N0020001N1+02441+01881101821ADDAA106000591AY161061AY211061GF103991031021008001001001MA1999999101771MD1999999+0191MW1211REMSYN082AAXX  26184 83498 21595 31813 10244 20188 30177 40182 72161 83200 333 58019 69941;
0179834980999992002052700004-17730-039250FM-12+000399999V0201801N004112200019N0020001N1+02241+01821101951ADDAA199000021GF102991021011008001001001KA1240M+02531MA1999999101901MD1999999+0071REMSYN088AAXX  27004 83498 32595 21808 10224 20182 30190 40195 82100 333 10253 29078 55051 58007;
0154834980999992002052712004-17730-039250FM-12+000399999V0202301N002612200019N0020001N1+02201+01721101951ADDAA124000591GF104991011011008001071091MA1999999101901MD1999999-0121REMSYN076AAXX  27124 83498 22595 42305 10220 20172 30190 40195 81179 333 59012 69944;
0167834980999992002052718004-17730-039250FM-12+000399999V0201801N003110450019N0020001N1+02541+02041101581ADDAA199000091GF107991031081008001021081MA1999999101531MD1999999-0241REMSYN070AAXX  27184 83498 32595 71806 10254 20204 30153 40158 83828 333 59024;EQDQ01  00002PRCP99
0198834980999992002052800004-17730-039250FM-12+000399999V0201801N003612200019N0020001N1+02341+02011101651ADDAA199000091GF102991021081008001001001KA1240M+02591MA1999999101601MD1999999-0301REMSYN088AAXX  28004 83498 32595 21807 10234 20201 30160 40165 82800 333 10259 29078 55048 59030;EQDQ01  00002PRCP99
0201834980999992002052812004-17730-039250FM-12+000399999V0202301N002119999999N0020001N1+02241+02161101671ADDAA124004191AY161061AY261061GF106991999041008001061011MA1999999101621MD1999999-0321MW1621REMSYN082AAXX  28124 83498 21595 62304 10224 20216 30162 40167 76266 88461 333 59032 60044;EQDQ01+000082SCOTLC
0148834980999992002052818004-17730-039250FM-12+000399999V0200901N003112200019N0020001N1+02601+02391101481ADDAA199000021GF104991021011008001001011MA1999999101431MD1999999-0101REMSYN070AAXX  28184 83498 32595 40906 10260 20239 30143 40148 82101 333 59010;
0179834980999992002052900004-17730-039250FM-12+000399999V0200501N001012200019N0020001N1+02361+02281101671ADDAA199000021GF103991031011008001001001KA1240M+02721MA1999999101621MD1999999+0021REMSYN088AAXX  29004 83498 32595 30502 10236 20228 30162 40167 83100 333 10272 29094 55045 58002;
0167834980999992002052918004-17730-039250FM-12+000399999V0201401N001512200019N0020001N1+02651+02031101511ADDAA199000091GF104991031021008001021001MA1999999101461MD1999999+0031REMSYN070AAXX  29184 83498 32595 41403 10265 20203 30146 40151 83220 333 58003;EQDQ01  00002PRCP99
0208834980999992002053000004-17730-039250FM-12+000399999V0201801N000512200019N0020001N1+02101+02031101731ADDAA199000091GA1001+999999999GF100991001001999999001001KA1240M+02721MA1999999101681MD1999999+0061REMSYN082AAXX  30004 83498 32995 01801 10210 20203 30168 40173 333 10272 29087 55073 58006;EQDQ01  00002PRCP99
0182834980999992002053012004-17730-039250FM-12+000399999V0202701N001510450019N0020001N1+02101+02071101961ADDAA124000191AY161061AY221061GF106991041061008001011001MA1999999101911MD1999999+0181MW1211REMSYN082AAXX  30124 83498 21595 62703 10210 20207 30191 40196 72162 84610 333 58018 69914;
0148834980999992002053018004-17730-039250FM-12+000399999V0201401N001512200019N0020001N1+02611+02011101621ADDAA199000021GF102991021011008001001001MA1999999101571MD1999999+0111REMSYN070AAXX  30184 83498 32595 21403 10261 20201 30157 40162 82100 333 58011;
0189834980999992002053100004-17730-039250FM-12+000399999V0200901N000512200019N0020001N1+02101+02051101851ADDAA199000021GA1001+999999999GF100991001001999999001001KA1240M+02721MA1999999101801MD1999999+0121REMSYN082AAXX  31004 83498 32995 00901 10210 20205 30180 40185 333 10272 29090 55062 58012;
0211834980999992002053112004-17730-039250FM-12+000399999V0202701N000512200019N0020001N1+02281+02161102031ADDAA199000091AY141061AY211061GF104991999011008001021031MA1999999101981MD1999999+0071MW1281REMSYN076AAXX  31124 83498 31595 42701 10228 20216 30198 40203 72841 88123 333 58007;EQDQ01+000082SCOTLCQ02  00002PRCP99
0167834980999992002053118004-17730-039250FM-12+000399999V0200901N002112200019N0020001N1+02701+02111101671ADDAA199000091GF102991011041008001001051MA1999999101621MD1999999+0051REMSYN070AAXX  31184 83498 32595 20904 10270 20211 30162 40167 81405 333 58005;EQDQ01  00002PRCP99
0224834980999992002060100004-17730-039250FM-12+000399999V0201401N001512200019N0010001N1+02181+01951101751ADDAA199000091GA1001+999999999GF100991001001999999001001KA1240M+02831MA1999999999999MD1999999+0051REMSYN082AAXX  01004 83498 32994 01403 10218 20195 39951 40175 333 10283 29078 55071 58005;EQDQ01  00002PRCP99Q02 099513APOSP 
0186834980999992002060112004-17730-039250FM-12+000399999V0202301N001012200019N0020001N1+02601+02191101991ADDAA199000091GF103991021011008001001011KA1240N+02061MA1999999101941MD1999999-0041REMSYN076AAXX  01124 83498 32595 32302 10260 20219 30194 40199 82101 333 20206 59004;EQDQ01  00002PRCP99
0167834980999992002060118004-17730-039250FM-12+000399999V0200901N002610450019N0020001N1+02721+02151101771ADDAA199000091GF105991021011008001041001MA1999999101721MD1999999+0101REMSYN070AAXX  01184 83498 32595 50905 10272 20215 30172 40177 82140 333 58010;EQDQ01  00002PRCP99
0198834980999992002060200004-17730-039250FM-12+000399999V0201401N002112200019N0020001N1+02421+02191102001ADDAA199000091GF102991021011008001001001KA1240M+02831MA1999999101951MD1999999+0171REMSYN088AAXX  02004 83498 32595 21404 10242 20219 30195 40200 82100 333 10283 29081 55078 58017;EQDQ01  00002PRCP99
0201834980999992002060212004-17730-039250FM-12+000399999V0202301N003110450019N0020001N1+02341+02171102101ADDAA124003091AY161061AY221061GF107991041061008001031051KA1240N+01981MA1999999102051MD1999999+0111MW1621REMSYN088AAXX  02124 83498 21595 72306 10234 20217 30205 40210 76262 84635 333 20198 58011 60034;
0148834980999992002060218004-17730-039250FM-12+000399999V0201801N004611050019N0020001N1+02581+01991101851ADDAA199000021GF107991011021008001001081MA1999999101801MD1999999+0081REMSYN070AAXX  02184 83498 32595 71809 10258 20199 30180 40185 81208 333 58008;
0186834980999992002060312004-17730-039250FM-12+000399999V0202701N001512200019N0020001N1+02441+02191101951ADDAA199000091GF102991021011008001001001KA1240N+01981MA1999999101901MD1999999-0151REMSYN076AAXX  03124 83498 32595 22703 10244 20219 30190 40195 82100 333 20198 59015;EQDQ01  00002PRCP99
0167834980999992002060318004-17730-039250FM-12+000399999V0201801N002112200019N0020001N1+02611+02061101661ADDAA199000091GF103991021021008001001081MA1999999101611MD1999999-0191REMSYN070AAXX  03184 83498 32595 31804 10261 20206 30161 40166 82208 333 59019;EQDQ01  00002PRCP99
0198834980999992002060400004-17730-039250FM-12+000399999V0201401N002110450019N0020001N1+02431+02111101811ADDAA199000091GF106991031021008001021081KA1240M+02761MA1999999101761MD1999999-0141REMSYN088AAXX  04004 83498 32595 61404 10243 20211 30176 40181 83228 333 10276 29081 55089 59014;EQDQ01  00002PRCP99
0186834980999992002060412004-17730-039250FM-12+000399999V0202301N002110075019N0020001N1+02341+02221101921ADDAA199000091GF108991051061008001001081KA1240N+02151MA1999999101871MD1999999-0031REMSYN076AAXX  04124 83498 32595 82304 10234 20222 30187 40192 85608 333 20215 59003;EQDQ01  00002PRCP99
0182834980999992002060418004-17730-039250FM-12+000399999V0200901N001510450019N0020001N1+02501+01911101631ADDAA106000391AY161061AY221061GF108991031061008001021999MA1999999101581MD1999999-0031MW1211REMSYN082AAXX  04184 83498 21595 80903 10250 20191 30158 40163 72162 8362/ 333 59003 69931;
0179834980999992002060500004-17730-039250FM-12+000399999V0200901N000510450019N0020001N1+02351+02001101801ADDAA199000021GF108991031061008001021999KA1240M+02661MA1999999101751MD1999999-0011REMSYN088AAXX  05004 83498 32595 80901 10235 20200 30175 40180 8362/ 333 10266 29081 55000 59001;
0173834980999992002060512004-17730-039250FM-12+000399999V0202301N001510450019N0020001N1+02421+02171101811ADDAA124000391GF107991041061008001011001KA1240N+02101MA1999999101761MD1999999-0111REMSYN082AAXX  05124 83498 22595 72303 10242 20217 30176 40181 84610 333 20210 59011 69934;
0182834980999992002060518004-17730-039250FM-12+000399999V0200901N003112200019N0020001N1+02621+02141101561ADDAA106007191AY161061AY221061GF104991021011008001001011MA1999999101511MD1999999-0071MW1211REMSYN082AAXX  05184 83498 21595 40906 10262 20214 30151 40156 72162 82101 333 59007 60071;
0179834980999992002060600004-17730-039250FM-12+000399999V0200501N001012200019N0020001N1+02281+02161101781ADDAA199000021GF102991021011008001001001KA1240M+02701MA1999999101731MD1999999-0021REMSYN088AAXX  06004 83498 32595 20502 10228 20216 30173 40178 82100 333 10270 29090 55026 59002;
0167834980999992002060618004-17730-039250FM-12+000399999V0200901N003110075019N0020001N1+02691+02221101581ADDAA199000091GF105991051021008001001001MA1999999101531MD1999999+0021REMSYN070AAXX  06184 83498 32595 50906 10269 20222 30153 40158 85200 333 58002;EQDQ01  00002PRCP99
0208834980999992002060700004-17730-039250FM-12+000399999V0200501N001012200019N0020001N1+02241+02101101821ADDAA199000091GA1001+999999999GF100991001001999999001001KA1240M+02821MA1999999101771MD1999999+0041REMSYN082AAXX  07004 83498 32995 00502 10224 20210 30177 40182 333 10282 29087 55062 58004;EQDQ01  00002PRCP99
0190834980999992002060712004-17730-039250FM-12+000399999V0201401N001010450019N0020001N1+02341+02261101951ADDAY161061AY261061GF107991031071008001011001KA1240N+02021MA1999999101901MD1999999-0021MW1611REMSYN088AAXX  07124 83498 21595 71402 10234 20226 30190 40195 76166 83710 333 20202 59002 60024;
0148834980999992002060718004-17730-039250FM-12+000399999V0200901N002610450019N0020001N1+02791+02251101691ADDAA199000021GF106991041051008001041001MA1999999101641MD1999999+0111REMSYN070AAXX  07184 83498 32595 60905 10279 20225 30164 40169 84540 333 58011;
0202834980999992002060800004-17730-039250FM-12+000399999V0203601N000512200019N0020001N1+02211+02131101961ADDAY161061AY261061GF102991021061008001001001KA1240M+02861MA1999999101911MD1999999+0141MW1601REMSYN100AAXX  08004 83498 21595 23601 10221 20213 30191 40196 76066 82600 333 10286 29090 55059 58014 60081;
0190834980999992002060812004-17730-039250FM-12+000399999V0209999C000010120019N0020001N1+02521+02291102151ADDAY161061AY221061GF107991051081008001031051KA1240N+02131MA1999999102101MD1999999+0201MW1211REMSYN088AAXX  08124 83498 21595 70000 10252 20229 30210 40215 72162 85835 333 20213 58020 60104;
0148834980999992002060818004-17730-039250FM-12+000399999V0200901N003111050019N0020001N1+02741+02121101801ADDAA199000021GF106991041021008001001051MA1999999101751MD1999999+0111REMSYN070AAXX  08184 83498 32595 60906 10274 20212 30175 40180 84205 333 58011;
0179834980999992002060900004-17730-039250FM-12+000399999V0200901N000512200019N0020001N1+02141+02021101971ADDAA199000021GF101991011021008001001001KA1240M+02901MA1999999101921MD1999999+0011REMSYN088AAXX  09004 83498 32595 10901 10214 20202 30192 40197 81200 333 10290 29086 55077 58001;
0190834980999992002060912004-17730-039250FM-12+000399999V0202301N001010450019N0020001N1+02421+02211101991ADDAY161061AY221061GF108991041051008001011999KA1240N+02011MA1999999101941MD1999999-0161MW1211REMSYN088AAXX  09124 83498 21595 82302 10242 20221 30194 40199 72162 8451/ 333 20201 59016 69914;
0171834980999992002060918004-17730-039250FM-12+000399999V0200501N002110450019N0020001N1+02281+02231101811ADDAY161061AY261061GF108991031061008001021999MA1999999101761MD1999999+0011MW1601REMSYN082AAXX  09184 83498 21595 80504 10228 20223 30176 40181 76066 8362/ 333 58001 60151;
0202834980999992002061000004-17730-039250FM-12+000399999V0200501N001012200019N0020001N1+02181+02061101981ADDAY161061AY261061GF102991021051008001001001KA1240M+02461MA1999999101931MD1999999+0011MW1211REMSYN100AAXX  10004 83498 21595 20502 10218 20206 30193 40198 72166 82500 333 10246 29093 55001 58001 69941;
0162834980999992002061012004-17730-039250FM-12+000399999V0202301N001012200019N0020001N1+02231+02071102091ADDGF102991011011008001001011KA1240N+02081MA1999999102041MD1999999+0101REMSYN082AAXX  10124 83498 22595 22302 10223 20207 30204 40209 81101 333 20208 58010 60154;
0167834980999992002061018004-17730-039250FM-12+000399999V0201401N002612200019N0020001N1+02621+02051101841ADDAA199000091GF103991031011008001001001MA1999999101791MD1999999+0031REMSYN070AAXX  10184 83498 32595 31405 10262 20205 30179 40184 83100 333 58003;EQDQ01  00002PRCP99
0208834980999992002061100004-17730-039250FM-12+000399999V0200901N001012200019N0020001N1+02131+01911101881ADDAA199000091GA1001+999999999GF100991001001999999001001KA1240M+02721MA1999999101831MD1999999-0101REMSYN082AAXX  11004 83498 32995 00902 10213 20191 30183 40188 333 10272 29084 55077 59010;EQDQ01  00002PRCP99
0190834980999992002061112004-17730-039250FM-12+000399999V0202701N001510450019N0020001N1+02221+02071101971ADDAY161061AY261061GF107991021081008001051021KA1240N+01641MA1999999101921MD1999999-0121MW1611REMSYN088AAXX  11124 83498 21595 72703 10222 20207 30192 40197 76166 82852 333 20164 59012 69914;
0171834980999992002061118004-17730-039250FM-12+000399999V0201401N001510450019N0020001N1+02541+02041101751ADDAY161061AY221061GF106991011021008001031091MA1999999101701MD1999999-0091MW1211REMSYN082AAXX  11184 83498 21595 61403 10254 20204 30170 40175 72162 81239 333 59009 69971;
0189834980999992002061200004-17730-039250FM-12+000399999V0209999C000012200019N0020001N1+02121+02071101881ADDAA199000021GA1001+999999999GF100991001001999999001001KA1240M+02701MA1999999101831MD1999999+0001REMSYN082AAXX  12004 83498 32995 00000 10212 20207 30183 40188 333 10270 29090 55024 58000;
0162834980999992002061212004-17730-039250FM-12+000399999V0202301N001510450019N0020001N1+02421+02231101971ADDGF105991031041008001031001KA1240N+01741MA1999999101921MD1999999+0001REMSYN082AAXX  12124 83498 22595 52303 10242 20223 30192 40197 83430 333 20174 58000 69974;
0208834980999992002061300004-17730-039250FM-12+000399999V0200901N001012200019N0020001N1+02181+02111101851ADDAA199000091GA1001+999999999GF100991001001999999001001KA1240M+02741MA1999999101801MD1999999-0031REMSYN082AAXX  13004 83498 32995 00902 10218 20211 30180 40185 333 10274 29089 55069 59003;EQDQ01  00002PRCP99
0167834980999992002061412004-17730-039250FM-12+000399999V0201401N001010450019N0020001N1+02571+02251102201ADDAA199000091GF106991041051008001041001MA1999999102151MD1999999+0121REMSYN070AAXX  14124 83498 32595 61402 10257 20225 30215 40220 84540 333 58012;EQDQ01  00002PRCP99
0167834980999992002061418004-17730-039250FM-12+000399999V0200901N003112200019N0020001N1+02731+02001101991ADDAA199000091GF102991021011008001001001MA1999999101941MD1999999+0141REMSYN070AAXX  14184 83498 32595 20906 10273 20200 30194 40199 82100 333 58014;EQDQ01  00002PRCP99
0208834980999992002061500004-17730-039250FM-12+000399999V0200901N001512200019N0020001N1+02161+02021102131ADDAA199000091GA1001+999999999GF100991001001999999001001KA1240M+02841MA1999999102081MD1999999+0111REMSYN082AAXX  15004 83498 32995 00903 10216 20202 30208 40213 333 10284 29083 55057 58011;EQDQ01  00002PRCP99
0167834980999992002061512004-17730-039250FM-12+000399999V0202301N001510450019N0020001N1+02421+02171102251ADDAA199000091GF105991031011008001041001MA1999999102201MD1999999+0051REMSYN070AAXX  15124 83498 32595 52303 10242 20217 30220 40225 83140 333 58005;EQDQ01  00002PRCP99
0202834980999992002061600004-17730-039250FM-12+000399999V0200901N001512200019N0020001N1+02341+02201102231ADDAY161061AY211061GF104991031061008001041001KA1240M+02791MA1999999102181MD1999999+0101MW1601REMSYN100AAXX  16004 83498 21595 40903 10234 20220 30218 40223 76061 83640 333 10279 29084 55051 58010 69911;
0171834980999992002061612004-17730-039250FM-12+000399999V0202301N001012200019N0020001N1+02401+02191102221ADDAY161061AY211061GF103991031051008001001001MA1999999102171MD1999999-0031MW1211REMSYN082AAXX  16124 83498 21595 32302 10240 20219 30217 40222 72161 83500 333 59003 60084;
0148834980999992002061618004-17730-039250FM-12+000399999V0201401N002612200019N0020001N1+02611+02081102031ADDAA199000021GF104991041021008001001001MA1999999101981MD1999999-0021REMSYN070AAXX  16184 83498 32595 41405 10261 20208 30198 40203 84200 333 59002;
0202834980999992002061800004-17730-039250FM-12+000399999V0202301N000512200019N0020001N1+02221+02141102081ADDAY161061AY261061GF103991031061008001001001KA1240M+02581MA1999999102031MD1999999-0151MW1211REMSYN100AAXX  18004 83498 21595 32301 10222 20214 30203 40208 72166 83600 333 10258 29094 55000 59015 69911;
0177834980999992002061812004-17730-039250FM-12+000399999V0200901N002112200019N0020001N1+02701+01991102211ADDAY161061AY261061GF104991041021008001001001MA1999999102161MD1999999+0011MW1211REMSYN088AAXX  18124 83498 21595 40904 10270 20199 30216 40221 72166 84200 333 2//// 58001 60104;
0179834980999992002061900004-17730-039250FM-12+000399999V0200901N001010450019N0020001N1+02241+02141102191ADDAA199000021GF107991041051008001031001KA1240M+02781MA1999999102141MD1999999+0111REMSYN088AAXX  19004 83498 32595 70902 10224 20214 30214 40219 84530 333 10278 29082 55079 58011;
0140834980999992002061912004-17730-039250FM-12+000399999V0201401N002612200019N0020001N1+02631+02121999999ADDAA199000091GF102991999999008001999999REMSYN072AAXX  19124 83498 32595 21405 10263 20212 10/// 30226 40231 58010 82100;EQDQ01  00002PRCP99
0198834980999992002062000004-17730-039250FM-12+000399999V0200901N001012200019N0020001N1+02241+01981102251ADDAA199000091GF104991041021008001001001KA1240M+02741MA1999999102201MD1999999+0061REMSYN088AAXX  20004 83498 32595 40902 10224 20198 30220 40225 84200 333 10274 29079 55063 58006;EQDQ01  00002PRCP99
0140834980999992002062012004-17730-039250FM-12+000399999V0201401N002119999999N0020001N1+02581+02041999999ADDAA199000091GF105991999999008001999999REMSYN072AAXX  20124 83498 32595 51404 10258 20204 2//// 30220 40225 59006 84230;EQDQ01  00002PRCP99
0171834980999992002062018004-17730-039250FM-12+000399999V0201401N000510450019N0020001N1+02381+02091102071ADDAY161061AY261061GF107991031081008001071051MA1999999102021MD1999999+0011MW1611REMSYN082AAXX  20184 83498 21595 71401 10238 20209 30202 40207 76166 83875 333 58001 69951;
0171834980999992002062118004-17730-039250FM-12+000399999V0200901N001010450019N0020001N1+02261+02121101951ADDAY161061AY261061GF108991031061008001021999MA1999999101901MD1999999-0121MW1611REMSYN082AAXX  21184 83498 21595 80902 10226 20212 30190 40195 76166 8362/ 333 59012 60071;
0179834980999992002062200004-17730-039250FM-12+000399999V0202701N001510450019N0020001N1+02181+02061102121ADDAA199000021GF108991041061008001021999KA1240M+02461MA1999999102071MD1999999-0081REMSYN088AAXX  22004 83498 32595 82703 10218 20206 30207 40212 8462/ 333 10246 29093 55001 59008;
0134834980999992002062300004-17730-039250FM-12+000399999V0200501N001019999999N0020001N1+02201+02081999999ADDGF108991999999999999999999REMSYN096AAXX  23004 83498 21995 80502 10220 20208 10270 29090 30220 40225 55042 58013 60061 76266 80007;
0122834980999992002062312004-17730-039250FM-12+000399999V0202301N001519999999N0020001N1+02261+02181999999ADDGF108991999999008001999999REMSYN084AAXX  23124 83498 21595 82303 10226 20218 2//// 30224 40229 58007 60114 76366 85671;
0178834980999992002062318004-17730-039250FM-12+000399999V0200901N003110075019N0020001N1+02441+02131102051ADDAA106005191AY161061AY261061GF108991051061008001021021MA1999999102001MD1810051+9999MW1601REMSYN078AAXX  23184 83498 21595 80906 10244 20213 30200 40205 58005 60051 76066 85622;
0134834980999992002062400004-17730-039250FM-12+000399999V0201401N002119999999N0020001N1+02341+02091999999ADDGF108991999999999999999999REMSYN096AAXX  24004 83498 21995 81404 10234 20209 10270 29088 30220 40225 55007 58000 69911 72162 80007;
0149834980999992002062412004-17730-039250FM-12+000399999V0202301N001010450019N0020001N1+02341+02071102341ADDGF106991021011008001041011MA1999999102291MD1999999+0051REMSYN082AAXX  24124 83498 22595 62302 10234 20207 30229 40234 82141 333 2//// 58005 60054;
0140834980999992002062512004-17730-039250FM-12+000399999V0201401N002112200019N0020001N1+02551+02021999999ADDAA199000091GF103991999999008001999999REMSYN072AAXX  25124 83498 32595 31404 10255 20202 20/// 30236 40241 58007 82201;EQDQ01  00002PRCP99
0178834980999992002062518004-17730-039250FM-12+000399999V0200901N000510450019N0020001N1+02261+02071102301ADDAA106000191AY161061AY261061GF107991021071008001011001MA1999999102251MD1810201+9999MW1601REMSYN078AAXX  25184 83498 21595 70901 10226 20207 30225 40230 58020 69911 76066 82710;
0133834980999992002062600004-17730-039250FM-12+000399999V0200901N001019999999N0020001N1+02311+01961999999ADDAA199000021GF106991999999008001999999REMSYN084AAXX  26004 83498 32595 60902 10231 20196 10272 29081 30235 40240 55037 58012 81105;
0116834980999992002062612004-17730-039250FM-12+000399999V0202301N001019999999N0020001N1+02281+02141999999ADDGF108991999999008001999999REMSYN078AAXX  26124 83498 21595 82302 10228 20214 2//// 30240 40245 58004 76266 83829;
0177834980999992002062712004-17730-039250FM-12+000399999V0202301N002110450019N0020001N1+02401+02111102321ADDAY161061AY221061GF105991031011008001041001MA1999999102271MD1999999-0131MW1211REMSYN088AAXX  27124 83498 21595 52304 10240 20211 30227 40232 72162 83140 333 2//// 59013 60024;
0148834980999992002062718004-17730-039250FM-12+000399999V0201801N002610450019N0100001N1+02381+01971102111ADDAA199000021GF108991041051008001011999MA1999999102061MD1999999-0091REMSYN070AAXX  27184 83498 32597 81805 10238 20197 30206 40211 8451/ 333 59009;
0202834980999992002062800004-17730-039250FM-12+000399999V0201801N001010450019N0020001N1+02201+02061102211ADDAY161061AY221061GF105991011011008001041001KA1240M+02641MA1999999102161MD1999999-0171MW1211REMSYN100AAXX  28004 83498 21595 51802 10220 20206 30216 40221 72162 81140 333 10264 29086 55012 59017 69921;
0122834980999992002062812004-17730-039250FM-12+000399999V0202301N001519999999N0020001N1+02221+02101999999ADDGF108991999999008001999999REMSYN084AAXX  28124 83498 21595 82303 10222 20210 20/// 30220 40225 59007 69944 72162 8372/;
0164834980999992002062818004-17730-039250FM-12+000399999V0201801N001510450019N0020001N1+02481+02111102041ADDAA106001091AY161061AY221061GF106991041051008001041001MA1999999101991MW1211REMSYN078AAXX  28184 83498 21595 61803 10248 20211 30199 40204 59007 69991 72162 84540;
0134834980999992002062900004-17730-039250FM-12+000399999V0209999C000019999999N0020001N1+02181+02041999999ADDGF106991999999008001999999REMSYN096AAXX  29004 83498 21595 60000 10218 20204 10254 29089 30217 40222 55007 58001 69911 76066 84610;
0177834980999992002062912004-17730-039250FM-12+000399999V0209999C000010075019N0020001N1+02261+02201102361ADDAY161061AY261061GF108991051061008001021051MA1999999102321MD1999999+0131MW1631REMSYN088AAXX  29124 83498 21595 80000 10226 20220 30232 40236 76366 85625 333 2//// 58013 60034;
0134834980999992002063000004-17730-039250FM-12+000399999V0202301N001019999999N0020001N1+02101+02031999999ADDGF107991999999008001999999REMSYN096AAXX  30004 83498 21595 72302 10210 20203 10270 29087 30230 40235 55048 58013 60061 76262 85820;
0177834980999992002063012004-17730-039250FM-12+000399999V0202301N001012200019N0020001N1+02381+02191102401ADDAY161061AY261061GF104991031011008001001011MA1999999102351MD1999999+0031MW1211REMSYN088AAXX  30124 83498 21595 42302 10238 20219 30235 40240 72166 83101 333 2//// 58003 60074;
0148834980999992002063018004-17730-039250FM-12+000399999V0200901N002112200019N0020001N1+02661+01921102131ADDAA199000021GF102991021011008001001001MA1999999102081MD1999999+0061REMSYN070AAXX  30184 83498 32595 20904 10266 20192 30208 40213 82100 333 58006;
0189834980999992002070100004-17730-039250FM-12+000399999V0209999C000012200019N0020001N1+02101+02051102321ADDAA199000021GA1001+999999999GF100991001001999999001001KA1240M+02691MA1999999102271MD1999999-0031REMSYN082AAXX  01004 83498 32995 00000 10210 20205 30227 40232 333 10269 29087 55081 59003;
0177834980999992002070112004-17730-039250FM-12+000399999V0202701N001512200019N0020001N1+02201+02101102441ADDAY161061AY211061GF102991011011008001041001MA1999999102391MD1999999+0031MW1211REMSYN088AAXX  01124 83498 21595 22703 10220 20210 30239 40244 72161 81140 333 2//// 58003 69934;
0128834980999992002070200004-17730-039250FM-12+000399999V0202301N000512200019N0020001N1+02201+01991999999ADDGF104991999999008001999999REMSYN090AAXX  02004 83498 21595 42301 10220 20199 10258 29088 30230 40235 55030 58003 69921 72161;
0149834980999992002070212004-17730-039250FM-12+000399999V0202301N001010120019N0020001N1+02321+02151102351ADDGF107991051081008001031021MA1999999102301MD1999999-0091REMSYN082AAXX  02124 83498 22595 72302 10232 20215 30230 40235 85832 333 2//// 59009 60014;
0149834980999992002070218004-17730-039250FM-12+000399999V0200901N001010450019N0020001N1+02481+01981102071ADDAA199000091GF107991011011008001031021MA1999999102021REMSYN066AAXX  02184 83498 32595 70902 10248 20198 30202 40207 59015 81132;EQDQ01  00002PRCP99
0152834980999992002070300004-17730-039250FM-12+000399999V0201401N002112200019N0020001N1+02441+01951999999ADDAA199000091GF102991999999008001999999REMSYN084AAXX  03004 83498 32595 21404 10244 20195 10265 29078 30215 40220 55034 59015 81105;EQDQ01  00002PRCP99
0177834980999992002070312004-17730-039250FM-12+000399999V0201401N001510450019N0020001N1+02161+02011102271ADDAY161061AY261061GF108991041051008001011999MA1999999102221MD1999999-0081MW1611REMSYN088AAXX  03124 83498 21595 81403 10216 20201 30222 40227 76166 8451/ 333 2//// 59008 60024;
0171834980999992002070318004-17730-039250FM-12+000399999V0201401N003112200019N0020001N1+02481+02031102051ADDAY161061AY261061GF102991021011008001001001MA1999999102001MD1999999-0021MW1611REMSYN082AAXX  03184 83498 21595 21406 10248 20203 30200 40205 76166 82100 333 59002 60021;
0202834980999992002070400004-17730-039250FM-12+000399999V0200901N002612200019N0020001N1+02341+02151102221ADDAY161061AY261061GF103991031051008001001001KA1240M+02661MA1999999102171MD1999999+0021MW1211REMSYN100AAXX  04004 83498 21595 30905 10234 20215 30217 40222 72166 83500 333 10266 29086 55041 58002 69971;
0122834980999992002070412004-17730-039250FM-12+000399999V0201401N004619999999N0020001N1+02521+02091999999ADDGF106991999999008001999999REMSYN084AAXX  04124 83498 21595 61409 10252 20209 20/// 30223 40228 58001 60044 72162 83710;
0178834980999992002070418004-17730-039250FM-12+000399999V0201401N002610450019N0020001N1+02591+02081102101ADDAA106003091AY161061AY221061GF105991031051008001041001MA1999999102051MD1810051+9999MW1211REMSYN078AAXX  04184 83498 21595 51405 10259 20208 30205 40210 58005 60031 72162 83540;
0122834980999992002070512004-17730-039250FM-12+000399999V0201801N004119999999N0020001N1+02401+01861999999ADDGF108991999999008001999999REMSYN084AAXX  05124 83498 21595 81808 10240 20186 2//// 30220 40225 59003 60234 76166 85629;
0134834980999992002070600004-17730-039250FM-12+000399999V0209999C000019999999N0020001N1+02221+02081999999ADDGF107991999999008001999999REMSYN096AAXX  06004 83498 21595 70000 10222 20208 10264 29081 30205 40210 55030 59016 69941 72162 85620;
0149834980999992002070612004-17730-039250FM-12+000399999V0202301N000512200019N0020001N1+02441+02011102081ADDGF103991031011008001001001MA1999999102031MD1999999-0171REMSYN082AAXX  06124 83498 22595 32301 10244 20201 30203 40208 83100 333 2//// 59017 60024;
0208834980999992002070700004-17730-039250FM-12+000399999V0200901N000512200019N0020001N1+02021+01941101951ADDAA199000091GA1001+999999999GF100991001001999999001001KA1240M+02681MA1999999101901MD1999999-0151REMSYN082AAXX  07004 83498 32995 00901 10202 20194 30190 40195 333 10268 29086 55085 59015;EQDQ01  00002PRCP99
0140834980999992002070712004-17730-039250FM-12+000399999V0203601N001512200019N0020001N1+02321+02051999999ADDAA199000091GF102991999999008001999999REMSYN072AAXX  07124 83498 32595 23603 10232 20205 20/// 30195 40200 58008 81101;EQDQ01  00002PRCP99
0149834980999992002070718004-17730-039250FM-12+000399999V0200501N003112200019N0020001N1+02661+01771101641ADDAA199000091GF103991011011008001001011MA1999999101591REMSYN066AAXX  07184 83498 32595 30506 10266 20177 30159 40164 59011 81101;EQDQ01  00002PRCP99
0162834980999992002070800004-17730-039250FM-12+000399999V0200501N001512200019N0020001N1+02141+01971999999ADDAA199000091GA1001+999999999GF100991001001999999001001REMSYN078AAXX  08004 83498 32995 00503 10214 20197 10280 29080 30172 40177 55088 59018;EQDQ01  00002PRCP99
0140834980999992002070812004-17730-039250FM-12+000399999V0203601N005119999999N0020001N1+02501+02051999999ADDAA199000091GF107991999999999999999999REMSYN072AAXX  08124 83498 32995 73610 10250 20205 2//// 30167 40172 59028 80002;EQDQ01  00002PRCP99
0149834980999992002070818004-17730-039250FM-12+000399999V0200501N003612200019N0020001N1+02741+02121101481ADDAA199000091GF102991001001999999001091MA1999999101431REMSYN066AAXX  08184 83498 32995 20507 10274 20212 30143 40148 59016 80009;EQDQ01  00002PRCP99
0160834980999992002070912004-17730-039250FM-12+000399999V0202301N001012200019N0020001N1+02441+02011999999ADDAA199000091GF103991999999008001999999MA1999999100211REMSYN077AAXX  09124 83498 32595 32302 10244 20201 300211 40216 83100 333 2//// 58044;EQDQ01  00002PRCP99
0167834980999992002070918004-17730-039250FM-12+000399999V0201401N002112200019N0020001N1+02561+01991101911ADDAA199000091GF104991021011008001041001MA1999999101861MD1999999+0431REMSYN070AAXX  09184 83498 32595 41404 10256 20199 30186 40191 82140 333 58043;EQDQ01  00002PRCP99
0198834980999992002071000004-17730-039250FM-12+000399999V0201401N001512200019N0020001N1+02301+02051102211ADDAA199000091GF101991011011008001001001KA1240M+02721MA1999999102161MD1999999+0461REMSYN088AAXX  10004 83498 32595 11403 10230 20205 30216 40221 81100 333 10272 29080 55037 58046;EQDQ01  00002PRCP99
0201834980999992002071012004-17730-039250FM-12+000399999V0202701N001510075019N0020001N1+02221+02171102291ADDAA199000091AY141061AY231061GF108991061011008001999999MA1999999102241MD1999999+0131MW1281REMSYN082AAXX  10124 83498 31595 82703 10222 20217 30224 40229 72843 861// 333 2//// 58013;EQDQ01  00002PRCP99
0163834980999992002071018004-17730-039250FM-12+000399999V0201401N002111050019N0020001N1+02601+02061102021ADDAA199000091GF106991021041008001031041MA1999999101971MD1810111+9999REMSYN066AAXX  10184 83498 32595 61404 10260 20206 30197 40202 58011 82434;EQDQ01  00002PRCP99
0202834980999992002071100004-17730-039250FM-12+000399999V0200501N001512200019N0020001N1+02101+01951102151ADDAY161061AY221061GF102991021041008001001001KA1240M+02741MA1999999102101MD1999999-0061MW1211REMSYN100AAXX  11004 83498 21595 20503 10210 20195 30210 40215 72162 82400 333 10274 29088 55044 59006 69911;
0196834980999992002071112004-17730-039250FM-12+000399999V0209999C000019999999N0020001N1+02301+02111102211ADDAY161061AY221061GF106991999021008001001001MA1999999102161MD1999999+0081MW1211REMSYN088AAXX  11124 83498 21595 60000 10230 20211 30216 40221 72162 82200 333 2//// 58008 69924;EQDQ01+000022SCOTLC
0130834980999992002071118004-17730-039250FM-12+000399999V0200901N002112200019N0020001N1+02711+01861101901ADDAA199000021GF102991021011008001001001MA1999999101851REMSYN066AAXX  11184 83498 32595 20904 10271 20186 30185 40190 59012 82100;
0143834980999992002071200004-17730-039250FM-12+000399999V0200901N001012200019N0020001N1+02201+01971999999ADDAA199000021GA1001+999999999GF100991001001999999001001REMSYN078AAXX  12004 83498 32995 00902 10220 20197 10286 29080 30195 40200 55070 59015;
0173834980999992002071212004-17730-039250FM-12+000399999V0202301N001012200019N0020001N1+02341+02071101991ADDAA199000091GF104991021011008001001081MA1999999101941MD1999999-0221REMSYN076AAXX  12124 83498 32595 42302 10234 20207 30194 40199 82108 333 2//// 59022;EQDQ01  00002PRCP99
0167834980999992002071218004-17730-039250FM-12+000399999V0200501N002612200019N0020001N1+02701+01991101591ADDAA199000091GF104991031011008001001011MA1999999101541MD1999999-0311REMSYN070AAXX  12184 83498 32595 40505 10270 20199 30154 40159 83101 333 59031;EQDQ01  00002PRCP99
0140834980999992002071312004-17730-039250FM-12+000399999V0203601N004119999999N0020001N1+02421+02071999999ADDAA199000091GF106991999999008001999999REMSYN072AAXX  13124 83498 32595 63608 10242 20207 20/// 30169 40174 59025 83058;EQDQ01  00002PRCP99
0149834980999992002071318004-17730-039250FM-12+000399999V0200501N003612200019N0020001N1+02791+02161101361ADDAA199000091GF105991011011008001001081MA1999999101311REMSYN066AAXX  13184 83498 32595 50507 10279 20216 30131 40136 59023 81108;EQDQ01  00002PRCP99
0152834980999992002071400004-17730-039250FM-12+000399999V0200501N001519999999N0020001N1+02301+02221999999ADDAA199000091GF106991999999008001999999REMSYN084AAXX  14004 83498 32595 60503 10230 20222 10296 29085 30150 40155 55025 59015 83510;EQDQ01  00002PRCP99
0177834980999992002071412004-17730-039250FM-12+000399999V0201801N006210450019N0020001N1+02521+02091101851ADDAY161061AY221061GF106991031051008001021001MA1999999101801MD1999999+0111MW1211REMSYN088AAXX  14124 83498 21595 61812 10252 20209 30180 40185 72162 83520 333 2//// 58011 60084;
0148834980999992002071418004-17730-039250FM-12+000399999V0201801N005110450019N0020001N1+02481+02071101701ADDAA199000021GF107991041051008001031001MA1999999101651MD1999999+0341REMSYN070AAXX  14184 83498 32595 71810 10248 20207 30165 40170 84530 333 58034;
0179834980999992002071500004-17730-039250FM-12+000399999V0201401N002112200019N0020001N1+02391+01931101891ADDAA199000021GF101991011051008001001001KA1240M+02601MA1999999101841MD1999999+0341REMSYN088AAXX  15004 83498 32595 11404 10239 20193 30184 40189 81500 333 10260 29077 55001 58034;
0177834980999992002071512004-17730-039250FM-12+000399999V0203201N000510450019N0020001N1+02381+02091102101ADDAY161061AY221061GF107991041081008001031091MA1999999102051MD1999999+0251MW1631REMSYN088AAXX  15124 83498 21595 73201 10238 20209 30205 40210 76362 84839 333 20/// 58025 60054;
0167834980999992002071618004-17730-039250FM-12+000399999V0200501N002610450019N0020001N1+02501+02051101881ADDAA199000091GF108991011041008001051061MA1999999101831MD1999999+0061REMSYN070AAXX  16184 83498 32595 80505 10250 20205 30183 40188 81456 333 58006;EQDQ01  00002PRCP99
0198834980999992002071700004-17730-039250FM-12+000399999V0200501N001019999999N0020001N1+02201+01951102051ADDAA199000091GF107991001001999999001081KA1240M+02741MA1999999102001MD1999999+0101REMSYN088AAXX  17004 83498 32995 70502 10220 20195 30200 40205 80008 333 10274 29082 55002 58010;EQDQ01  00002PRCP99
0173834980999992002071712004-17730-039250FM-12+000399999V0203601N002610450019N0020001N1+02441+02091102071ADDAA199000091GF106991031011008001041001MA1999999102021MD1999999-0051REMSYN076AAXX  17124 83498 32595 63605 10244 20209 30202 40207 83140 333 2//// 59005;EQDQ01  00002PRCP99
0167834980999992002071718004-17730-039250FM-12+000399999V0200501N002112200019N0020001N1+02521+02071101791ADDAA199000091GF104991021011008001001011MA1999999101741MD1999999-0091REMSYN070AAXX  17184 83498 32595 40504 10252 20207 30174 40179 82101 333 59009;EQDQ01  00002PRCP99
0208834980999992002071800004-17730-039250FM-12+000399999V0200501N001012200019N0020001N1+02121+02001101931ADDAA199000091GA1001+999999999GF100991001001999999001001KA1240M+02741MA1999999101881MD1999999-0121REMSYN082AAXX  18004 83498 32995 00502 10212 20200 30188 40193 333 10274 29086 55021 59012;EQDQ01  00002PRCP99
0177834980999992002071812004-17730-039250FM-12+000399999V0201801N004110450019N0020001N1+02241+02071102181ADDAY161061AY221061GF108991041071008001021999MA1999999102131MD1999999+0111MW1211REMSYN088AAXX  18124 83498 21595 81808 10224 20207 30213 40218 72162 8472/ 333 2//// 58011 60184;
0178834980999992002071818004-17730-039250FM-12+000399999V0201801N004610075019N0020001N1+02271+01991102021ADDAA106011991AY161061AY261061GF108991061071008001021999MA1999999101971MD1810231+9999MW1211REMSYN078AAXX  18184 83498 21595 81809 10227 20199 30197 40202 58023 60121 72166 8672/;
0134834980999992002071900004-17730-039250FM-12+000399999V0201801N004619999999N0020001N1+02241+01861999999ADDGF108991999999008001999999REMSYN096AAXX  19004 83498 21595 81809 10224 20186 10248 29083 30212 40217 55000 58024 60041 72166 8572/;
0122834980999992002071912004-17730-039250FM-12+000399999V0201801N001519999999N0020001N1+02191+01941999999ADDGF106991999999008001999999REMSYN084AAXX  19124 83498 21595 61803 10219 20194 20/// 30218 40223 58005 60194 76166 84540;
0171834980999992002071918004-17730-039250FM-12+000399999V0201801N003110450019N0020001N1+02181+01951102051ADDAY161061AY261061GF108991031071008001021999MA1999999102001MD1999999+0031MW1611REMSYN082AAXX  19184 83498 21595 81806 10218 20195 30200 40205 76166 8372/ 333 58003 60051;
0202834980999992002072000004-17730-039250FM-12+000399999V0201401N003110450019N0020001N1+02261+01691102201ADDAY161061AY221061GF106991041051008001011001KA1240M+02581MA1999999102151MD1999999+0031MW1201REMSYN100AAXX  20004 83498 21595 61406 10226 20169 30215 40220 72062 84510 333 10258 29078 55011 58003 69931;
0122834980999992002072012004-17730-039250FM-12+000399999V0202301N002119999999N0020001N1+02281+01881999999ADDGF107991999999008001999999REMSYN084AAXX  20124 83498 21595 72304 10228 20188 2//// 30219 40224 58001 60094 76262 81839;
0149834980999992002072018004-17730-039250FM-12+000399999V0201801N004110450019N0020001N1+02401+01931101971ADDAA199000091GF107991031081008001051091MA1999999101921REMSYN066AAXX  20184 83498 32595 71808 10240 20193 30192 40197 59008 83859;EQDQ01  00002PRCP99
0170834980999992002072100004-17730-039250FM-12+000399999V0201401N001012200019N0020001N1+02231+01801102051ADDAA199000091GF103991021081008001001091MA1999999102001REMSYN087AAXX  21004 83498 32595 31402 10223 20180 30200 40205 82809 33 10253 29078 55048 59015;EQDQ01  00002PRCP99
0177834980999992002072112004-17730-039250FM-12+000399999V0200901N003110450019N0020001N1+02341+01811102061ADDAY161061AY221061GF108991031061008001011999MA1999999102011MD1999999-0181MW1211REMSYN088AAXX  21124 83498 21595 80906 10234 20181 30201 40206 72162 8361/ 333 2//// 59018 60024;
0171834980999992002072118004-17730-039250FM-12+000399999V0209999C000010450019N0020001N1+02161+02041101831ADDAY161061AY261061GF108991041071008001021999MA1999999101781MD1999999-0141MW1621REMSYN082AAXX  21184 83498 21595 80000 10216 20204 30178 40183 76266 8472/ 333 59014 60011;
0177834980999992002072312004-17730-039250FM-12+000399999V0202301N001512200019N0020001N1+02361+02151102011ADDAY161061AY211061GF102991021011008001001001MA1999999101961MD1999999-0091MW1211REMSYN088AAXX  23124 83498 21595 22303 10236 20215 30196 40201 72161 82100 333 2//// 59009 60014;
0130834980999992002072318004-17730-039250FM-12+000399999V0200901N001512200019N0020001N1+02661+02141101651ADDAA199000021GF102991021021008001001001MA1999999101601REMSYN066AAXX  23184 83498 32595 20903 10266 20214 30160 40165 59012 82200;
0179834980999992002072400004-17730-039250FM-12+000399999V0200501N001510450019N0020001N1+02281+02161101921ADDAA199000021GF105991031051008001031001KA1240M+02741MA1999999101871MD1999999-0011REMSYN088AAXX  24004 83498 32595 50503 10228 20216 30187 40192 83530 333 10274 29087 55057 59001;
0173834980999992002072412004-17730-039250FM-12+000399999V0200501N001510120019N0020001N1+02481+02191102051ADDAA199000091GF107991051081008001051051MA1999999102001MD1999999+0041REMSYN076AAXX  24124 83498 32595 70503 10248 20219 30200 40205 85855 333 2//// 58004;EQDQ01  00002PRCP99
0171834980999992002072418004-17730-039250FM-12+000399999V0201401N001510450019N0020001N1+02381+02191101901ADDAY161061AY261061GF107991031081008001091051MA1999999101851MD1999999+0251MW1631REMSYN082AAXX  24184 83498 21595 71403 10238 20219 30185 40190 76366 83895 333 58025 60021;
0202834980999992002072500004-17730-039250FM-12+000399999V0202701N000510450019N0020001N1+02181+02101102101ADDAY161061AY221061GF108991011011008001051051KA1240M+02731MA1999999102051MD1999999+0181MW1211REMSYN100AAXX  25004 83498 21595 82701 10218 20210 30205 40210 72162 81155 333 10273 29091 55047 58018 69951;
0177834980999992002072512004-17730-039250FM-12+000399999V0202301N001510450019N0020001N1+02371+02171102291ADDAY161061AY221061GF105991031051008001041001MA1999999102241MD1999999+0241MW1211REMSYN088AAXX  25124 83498 21595 52303 10237 20217 30224 40229 72162 83540 333 2//// 58024 60034;
0148834980999992002072518004-17730-039250FM-12+000399999V0201401N002610450019N0020001N1+02551+02041102061ADDAA199000021GF106991041081008001051001MA1999999102011MD1999999+0161REMSYN070AAXX  25184 83498 32595 61405 10255 20204 30201 40206 84850 333 58016;
0179834980999992002072600004-17730-039250FM-12+000399999V0200501N001010450019N0020001N1+02181+02041102301ADDAA199000021GF106991031081008001051001KA1240M+02681MA1999999102251MD1999999+0201REMSYN088AAXX  26004 83498 32595 60502 10218 20204 30225 40230 83850 333 10268 29087 55046 58020;
0177834980999992002072612004-17730-039250FM-12+000399999V0202301N001010450019N0020001N1+02361+02071102211ADDAY161061AY221061GF106991041021008001031001MA1999999102161MD1999999+0081MW1211REMSYN088AAXX  26124 83498 21595 62302 10236 20207 30216 40221 72162 84230 333 2//// 58008 69964;
0130834980999992002072618004-17730-039250FM-12+000399999V0200901N003110075019N0020001N1+02531+02001101921ADDAA199000021GF105991051021008001001001MA1999999101871REMSYN066AAXX  26184 83498 32595 50906 10253 20200 30187 40192 59014 85200;
0179834980999992002072700004-17730-039250FM-12+000399999V0200901N001012200019N0020001N1+02041+01911102121ADDAA199000021GF103991031001012501031001KA1240M+02721MA1999999102071MD1999999-0181REMSYN088AAXX  27004 83498 32695 30902 10204 20191 30207 40212 83030 333 10272 29085 55054 59018;
0173834980999992002072712004-17730-039250FM-12+000399999V0209999C000010450019N0020001N1+02181+02061102171ADDAA199000091GF108991041051008001021999MA1999999102121MD1999999-0041REMSYN076AAXX  27124 83498 32595 80000 10218 20206 30212 40217 8452/ 333 2//// 59004;EQDQ01  00002PRCP99
0184834980999992002072718004-17730-039250FM-12+000399999V0200501N001510450019N0020001N1+02501+02001101881ADDAY161061AY221061GF108991041051008001021999MA1999999101831MD1999999-0041REMSYN082AAXX  27184 83498 21595 80503 10250 20200 30183 40188 77262 8452/ 333 59004 60031;EQDQ01+000722PRSWM1
0198834980999992002072800004-17730-039250FM-12+000399999V0200501N001012200019N0020001N1+02141+01881102021ADDAA199000091GF101991011001012501031001KA1240M+02521MA1999999101971MD1999999-0101REMSYN088AAXX  28004 83498 32695 10502 10214 20188 30197 40202 81030 333 10252 29084 55000 59010;EQDQ01  00002PRCP99
0149834980999992002072812004-17730-039250FM-12+000399999V0203601N001512200019N0020001N1+02481+02051102021ADDGF102991011011008001001081MA1999999101971MD1999999-0151REMSYN082AAXX  28124 83498 22595 23603 10248 20205 30197 40202 81108 333 2//// 59015 60034;
0183834980999992002072818004-17730-039250FM-12+000399999V0200501N004119999999N0200001N1+02741+02171101651ADDAA199000091GF107991001001999999001011MA1999999101601MD1999999-0231REMSYN070AAXX  28184 83498 32598 70508 10274 20217 30160 40165 80001 333 59023;EQDQ01+008002SCOLCBQ02  00002PRCP99
0208834980999992002072900004-17730-039250FM-12+000399999V0200501N001012200019N0020001N1+02241+02161102001ADDAA199000091GA1001+999999999GF100991001001999999001001KA1240M+02801MA1999999101951MD1999999-0021REMSYN082AAXX  29004 83498 32995 00502 10224 20216 30195 40200 333 10280 29084 55084 59002;EQDQ01  00002PRCP99
0122834980999992002072912004-17730-039250FM-12+000399999V0201801N005719999999N0020001N1+02431+02051999999ADDGF108991999999008001999999REMSYN084AAXX  29124 83498 21595 81811 10243 20205 20/// 30231 40236 58034 60014 72162 8552/;
0134834980999992002072918004-17730-039250FM-12+000399999V0201401N006219999999N0020001N1+02481+02051999999ADDAA199000091GF108991999999008001999999REMSYN066AAXX  29184 83498 32595 81412 10248 20205 20224 30219 58059 8452/;EQDQ01  00002PRCP99
0173834980999992002073012004-17730-039250FM-12+000399999V0201401N004612200019N0020001N1+02501+01721102561ADDAA199000091GF105991031041008001001011MA1999999102511MD1999999+0201REMSYN076AAXX  30124 83498 32595 51409 10250 20172 30251 40256 83401 333 2//// 58020;EQDQ01  00002PRCP99
0167834980999992002073018004-17730-039250FM-12+000399999V0201401N003112200019N0020001N1+02511+01721102261ADDAA199000091GF106991021011008001001011MA1999999102211MD1999999+0021REMSYN070AAXX  30184 83498 32595 61406 10251 20172 30221 40226 82101 333 58002;EQDQ01  00002PRCP99
0208834980999992002073100004-17730-039250FM-12+000399999V0200901N001512200019N0020001N1+02191+01841102261ADDAA199000091GA1001+999999999GF100991001001999999001001KA1240M+02641MA1999999102211MD1999999-0141REMSYN082AAXX  31004 83498 32995 00903 10219 20184 30221 40226 333 10264 29072 55083 59014;EQDQ01  00002PRCP99
0122834980999992002073112004-17730-039250FM-12+000399999V0202701N001019999999N0020001N1+02161+01951999999ADDGF108991999999008001999999REMSYN084AAXX  31124 83498 21595 82702 10216 20195 20/// 30224 40229 59027 69924 72162 8452/;
0167834980999992002073118004-17730-039250FM-12+000399999V0200901N003110450019N0020001N1+02501+01961101921ADDAA199000091GF108991041051008001021999MA1999999101871MD1999999-0341REMSYN070AAXX  31184 83498 32595 80906 10250 20196 30187 40192 8452/ 333 59034;EQDQ01  00002PRCP99
0198834980999992002080100004-17730-039250FM-12+000399999V0200501N001510450019N0020001N1+02181+02011101961ADDAA199000091GF108991031061008001071999KA1240M+02641MA1999999101911MD1999999-0301REMSYN088AAXX  01004 83498 32595 80503 10218 20201 30191 40196 8367/ 333 10264 29085 55007 59030;EQDQ01  00002PRCP99
0177834980999992002080112004-17730-039250FM-12+000399999V0203201N001012200019N0020001N1+02501+02191101921ADDAY161061AY261061GF102991011011008001001051MA1999999101871MD1999999-0371MW1601REMSYN088AAXX  01124 83498 21595 23202 10250 20219 30187 40192 76066 81105 333 2//// 59037 60024;
0148834980999992002080118004-17730-039250FM-12+000399999V0200501N004110450019N0020001N1+02581+02041101591ADDAA199000021GF105991011031008001051051MA1999999101541MD1999999-0331REMSYN070AAXX  01184 83498 32595 50508 10258 20204 30154 40159 81355 333 59033;
0189834980999992002080200004-17730-039250FM-12+000399999V0200501N001012200019N0020001N1+02241+02031101751ADDAA199000021GA1001+999999999GF100991001001999999001001KA1240M+02801MA1999999101701MD1999999-0211REMSYN082AAXX  02004 83498 32995 00502 10224 20203 30170 40175 333 10280 29083 55046 59021;
0173834980999992002080212004-17730-039250FM-12+000399999V0203601N003612200019N0020001N1+02501+02071102061ADDAA199000091GF102991021011008001001001MA1999999102011MD1999999+0141REMSYN076AAXX  02124 83498 32595 23607 10250 20207 30201 40206 82100 333 2//// 58014;EQDQ01  00002PRCP99
0177834980999992002080218004-17730-039250FM-12+000399999V0200501N004112200019N0020001N1+02671+02001101881ADDAA199000091GA1001+999999999GF100991001001999999001001MA1999999101831MD1999999+0291REMSYN064AAXX  02184 83498 32995 00508 10267 20200 30183 40188 333 58029;EQDQ01  00002PRCP99
0208834980999992002080300004-17730-039250FM-12+000399999V0200501N001512200019N0020001N1+02111+01961102101ADDAA199000091GA1001+999999999GF100991001001999999001001KA1240M+02801MA1999999102051MD1999999+0351REMSYN082AAXX  03004 83498 32995 00503 10211 20196 30205 40210 333 10280 29082 55093 58035;EQDQ01  00002PRCP99
0173834980999992002080312004-17730-039250FM-12+000399999V0200901N001510450019N0020001N1+02511+02111102181ADDAA199000091GF105991031021008001031011MA1999999102131MD1999999+0121REMSYN076AAXX  03124 83498 32595 50903 10251 20211 30213 40218 83231 333 2//// 58012;EQDQ01  00002PRCP99
0167834980999992002080318004-17730-039250FM-12+000399999V0200901N003612200019N0020001N1+02671+01651101841ADDAA199000091GF104991021011008001001041MA1999999101791MD1999999-0041REMSYN070AAXX  03184 83498 32595 40907 10267 20165 30179 40184 82104 333 59004;EQDQ01  00002PRCP99
0208834980999992002080400004-17730-039250FM-12+000399999V0200901N001012200019N0020001N1+02081+01821101981ADDAA199000091GA1001+999999999GF100991001001999999001001KA1240M+02781MA1999999101931MD1999999-0121REMSYN082AAXX  04004 83498 32995 00902 10208 20182 30193 40198 333 10278 29076 55064 59012;EQDQ01  00002PRCP99
0173834980999992002080412004-17730-039250FM-12+000399999V0202301N001012200019N0020001N1+02451+02051102041ADDAA199000091GF101991001001999999001011MA1999999101991MD1999999-0141REMSYN076AAXX  04124 83498 32995 12302 10245 20205 30199 40204 80001 333 2//// 59014;EQDQ01  00002PRCP99
0208834980999992002080500004-17730-039250FM-12+000399999V0200501N001512200019N0020001N1+02201+02031101831ADDAA199000091GA1001+999999999GF100991001001999999001001KA1240M+02801MA1999999101781MD1999999-0151REMSYN082AAXX  05004 83498 32995 00503 10220 20203 30178 40183 333 10280 29079 55092 59015;EQDQ01  00002PRCP99
0173834980999992002080512004-17730-039250FM-12+000399999V0203601N003111050019N0020001N1+02541+02251101901ADDAA199000091GF105991041021008001001051MA1999999101851MD1999999-0141REMSYN076AAXX  05124 83498 32595 53606 10254 20225 30185 40190 84205 333 2//// 59014;EQDQ01  00002PRCP99
0167834980999992002080518004-17730-039250FM-12+000399999V0200501N003112200019N0020001N1+02781+02061101601ADDAA199000091GF101991011011008001001001MA1999999101551MD1999999-0041REMSYN070AAXX  05184 83498 32595 10506 10278 20206 30155 40160 81100 333 59004;EQDQ01  00002PRCP99
0208834980999992002080600004-17730-039250FM-12+000399999V0200501N001012200019N0020001N1+02141+02091101751ADDAA199000091GA1001+999999999GF100991001001999999001001KA1240M+02901MA1999999101701MD1999999-0081REMSYN082AAXX  06004 83498 32995 00502 10214 20209 30170 40175 333 10290 29086 55056 59008;EQDQ01  00002PRCP99
0167834980999992002080618004-17730-039250FM-12+000399999V0200501N003112200019N0020001N1+02631+02011101701ADDAA199000091GF102991021011008001001001MA1999999101651MD1999999+0101REMSYN070AAXX  06184 83498 32595 20506 10263 20201 30165 40170 82100 333 58010;EQDQ01  00002PRCP99
0208834980999992002080700004-17730-039250FM-12+000399999V0200501N001012200019N0020001N1+02161+01991102011ADDAA199000091GA1001+999999999GF100991001001999999001001KA1240M+02901MA1999999101961MD1999999+0261REMSYN082AAXX  07004 83498 32995 00502 10216 20199 30196 40201 333 10290 29083 55075 58026;EQDQ01  00002PRCP99
0159834980999992002080712004-17730-039250FM-12+000399999V0202301N001510450019N0020001N1+02421+02171102201ADDAA199000091GF106991031041008001021011MA1999999102151REMSYN076AAXX  07124 83498 32595 62303 10242 20217 30215 40220 83421 333 2//// 5////;EQDQ01  00002PRCP99
0167834980999992002080718004-17730-039250FM-12+000399999V0200901N003110075019N0020001N1+02591+02081101931ADDAA199000091GF106991061041008001001001MA1999999101881MD1999999+0231REMSYN070AAXX  07184 83498 32595 60906 10259 20208 30188 40193 86400 333 58023;EQDQ01  00002PRCP99
0198834980999992002080800004-17730-039250FM-12+000399999V0200501N001012200019N0020001N1+02041+01851102091ADDAA199000091GF102991021041008001001001KA1240M+02831MA1999999102041MD1999999+0131REMSYN088AAXX  08004 83498 32595 20502 10204 20185 30204 40209 82400 333 10283 29084 55019 58013;EQDQ01  00002PRCP99
0173834980999992002080812004-17730-039250FM-12+000399999V0200901N000512200019N0020001N1+02361+02071102271ADDAA199000091GF103991031021008001001001MA1999999102221MD1999999+0071REMSYN076AAXX  08124 83498 32595 30901 10236 20207 30222 40227 83200 333 2//// 58007;EQDQ01  00002PRCP99
0167834980999992002080818004-17730-039250FM-12+000399999V0201401N002612200019N0020001N1+02651+01981102011ADDAA199000091GF103991031021008001001001MA1999999101961MD1999999+0081REMSYN070AAXX  08184 83498 32595 31405 10265 20198 30196 40201 83200 333 58008;EQDQ01  00002PRCP99
0198834980999992002080900004-17730-039250FM-12+000399999V0200901N001512200019N0020001N1+02331+02051102231ADDAA199000091GF102991021011008001001001KA1240M+02721MA1999999102181MD1999999+0091REMSYN088AAXX  09004 83498 32595 20903 10233 20205 30218 40223 82100 333 10272 29080 55085 58009;EQDQ01  00002PRCP99
0173834980999992002080912004-17730-039250FM-12+000399999V0202701N000510075019N0020001N1+02421+02111102231ADDAA199000091GF107991051021008001001011MA1999999102181MD1999999-0041REMSYN076AAXX  09124 83498 32595 72701 10242 20211 30218 40223 85201 333 2//// 59004;EQDQ01  00002PRCP99
0167834980999992002080918004-17730-039250FM-12+000399999V0200901N004610075019N0020001N1+02701+02201101981ADDAA199000091GF107991051021008001001011MA1999999101931MD1999999-0031REMSYN070AAXX  09184 83498 32595 70909 10270 20220 30193 40198 85201 333 59003;EQDQ01  00002PRCP99
0198834980999992002081000004-17730-039250FM-12+000399999V0200501N001012200019N0020001N1+02051+01871102121ADDAA199000091GF102991021021008001001001KA1240M+02761MA1999999102071MD1999999+0111REMSYN088AAXX  10004 83498 32595 20502 10205 20187 30207 40212 82200 333 10276 29084 55084 58011;EQDQ01  00002PRCP99
0173834980999992002081012004-17730-039250FM-12+000399999V0200501N003112200019N0020001N1+02501+02111102151ADDAA199000091GF103991031021008001001001MA1999999102101MD1999999-0081REMSYN076AAXX  10124 83498 32595 30506 10250 20211 30210 40215 83200 333 2//// 59008;EQDQ01  00002PRCP99
0167834980999992002081018004-17730-039250FM-12+000399999V0200501N003112200019N0020001N1+02751+01891101941ADDAA199000091GF102991021011008001001001MA1999999101891MD1999999-0041REMSYN070AAXX  10184 83498 32595 20506 10275 20189 30189 40194 82100 333 59004;EQDQ01  00002PRCP99
0208834980999992002081100004-17730-039250FM-12+000399999V0200501N001012200019N0020001N1+02121+01931102101ADDAA199000091GA1001+999999999GF100991001001999999001001KA1240M+02831MA1999999102051MD1999999-0021REMSYN082AAXX  11004 83498 32595 00502 10212 20193 30205 40210 333 10283 29078 55091 59002;EQDQ01  00002PRCP99
0173834980999992002081112004-17730-039250FM-12+000399999V0201801N001010450019N0020001N1+02271+02071102231ADDAA199000091GF107991041051008001021021MA1999999102181MD1999999+0081REMSYN076AAXX  11124 83498 32595 71802 10227 20207 30218 40223 84522 333 2//// 58008;EQDQ01  00002PRCP99
0167834980999992002081118004-17730-039250FM-12+000399999V0200901N002612200019N0020001N1+02591+01991101981ADDAA199000091GF104991031041008001021021MA1999999101931MD1999999+0041REMSYN070AAXX  11184 83498 32595 40905 10259 20199 30193 40198 83422 333 58004;EQDQ01  00002PRCP99
0198834980999992002081200004-17730-039250FM-12+000399999V0200501N001510450019N0020001N1+02301+02071102191ADDAA199000091GF108991041081008001021999KA1240M+02701MA1999999102141MD1999999+0091REMSYN088AAXX  12004 83498 32595 80503 10230 20207 30214 40219 8482/ 333 10270 29083 55022 58009;EQDQ01  00002PRCP99
0177834980999992002081212004-17730-039250FM-12+000399999V0202701N001510450019N0020001N1+02391+02051102291ADDAY161061AY221061GF106991041051008001041001MA1999999102241MD1999999+0061MW1211REMSYN088AAXX  12124 83498 21595 62703 10239 20205 30224 40229 72162 84540 333 2//// 58006 69964;
0148834980999992002081218004-17730-039250FM-12+000399999V0200501N003112200019N0020001N1+02761+01971101981ADDAA199000021GF102991021011008001001001MA1999999101931MD1999999+0001REMSYN070AAXX  12184 83498 32595 20506 10276 20197 30193 40198 82100 333 58000;
0179834980999992002081300004-17730-039250FM-12+000399999V0209999C000012200019N0020001N1+02121+02001102161ADDAA199000021GF102991021001012501031001KA1240M+02861MA1999999102111MD1999999-0031REMSYN088AAXX  13004 83498 32695 20000 10212 20200 30211 40216 82030 333 10286 29082 55059 59003;
0189834980999992002081312004-17730-039250FM-12+000399999V0202301N000519999999N0020001N1+02521+02131102221ADDAA199000091GF107991999061008001021001MA1999999102171MD1999999-0071REMSYN076AAXX  13124 83498 32595 72301 10252 20213 30217 40222 88620 333 2//// 59007;EQDQ01+000082SCOTLCQ02  00002PRCP99
0167834980999992002081318004-17730-039250FM-12+000399999V0200901N004110450019N0020001N1+02641+02001101901ADDAA199000091GF107991031081008001051051MA1999999101851MD1999999-0081REMSYN070AAXX  13184 83498 32595 70908 10264 20200 30185 40190 83855 333 59008;EQDQ01  00002PRCP99
0198834980999992002081400004-17730-039250FM-12+000399999V0200501N000510150019N0020001N1+02241+01901102081ADDAA199000091GF107991071001017501031001KA1240M+02871MA1999999102031MD1999999-0081REMSYN088AAXX  14004 83498 32795 70501 10224 20190 30203 40208 87030 333 10287 29077 55051 59008;EQDQ01  00002PRCP99
0186834980999992002081412004-17730-039250FM-12+000399999V0200501N001512200019N0020001N1+02501+02051102201ADDAA199000091GF104991021021008001001011KA1240N+01881MA1999999102151MD1999999-0021REMSYN076AAXX  14124 83498 32595 40503 10250 20205 30215 40220 82201 333 20188 59002;EQDQ01  00002PRCP99
0167834980999992002081418004-17730-039250FM-12+000399999V0200501N003612200019N0020001N1+02731+01931101991ADDAA199000091GF102991021011008001001001MA1999999101941MD1999999+0091REMSYN070AAXX  14184 83498 32595 20507 10273 20193 30194 40199 82100 333 58009;EQDQ01  00002PRCP99
0208834980999992002081500004-17730-039250FM-12+000399999V0200501N001012200019N0020001N1+02121+01911102151ADDAA199000091GA1001+999999999GF100991001001999999001001KA1240M+02881MA1999999102101MD1999999+0071REMSYN082AAXX  15004 83498 32995 00502 10212 20191 30210 40215 333 10288 29078 55078 58007;EQDQ01  00002PRCP99
0186834980999992002081512004-17730-039250FM-12+000399999V0202701N001512200019N0020001N1+02521+02071102291ADDAA199000091GF103991021021008001031001KA1240N+01791MA1999999102241MD1999999+0091REMSYN076AAXX  15124 83498 32595 32703 10252 20207 30224 40229 82230 333 20179 58009;EQDQ01  00002PRCP99
0167834980999992002081518004-17730-039250FM-12+000399999V0201401N003112200019N0020001N1+02711+01941102141ADDAA199000091GF104991031021008001031001MA1999999102091MD1999999+0151REMSYN070AAXX  15184 83498 32595 41406 10271 20194 30209 40214 83230 333 58015;EQDQ01  00002PRCP99
0198834980999992002081600004-17730-039250FM-12+000399999V0200901N002610450019N0020001N1+02371+01991102321ADDAA199000091GF106991021011008001031011KA1240M+02781MA1999999102271MD1999999+0311REMSYN088AAXX  16004 83498 32595 60905 10237 20199 30227 40232 82131 333 10278 29091 55081 58031;EQDQ01  00002PRCP99
0190834980999992002081612004-17730-039250FM-12+000399999V0202301N001010450019N0020001N1+02201+02121102471ADDAY161061AY261061GF106991041051008001011001KA1240N+02021MA1999999102421MD1999999+0181MW1601REMSYN088AAXX  16124 83498 21595 62302 10220 20212 30242 40247 76066 84510 333 20202 58018 60044;
0148834980999992002081618004-17730-039250FM-12+000399999V0200501N002610450019N0020001N1+02581+01921102221ADDAA199000021GF106991031051008001041001MA1999999102171MD1999999+0081REMSYN070AAXX  16184 83498 32595 60505 10258 20192 30217 40222 83540 333 58008;
0179834980999992002081700004-17730-039250FM-12+000399999V0200901N002612200019N0020001N1+02361+01891102451ADDAA199000021GF102991021001012501041001KA1240M+02701MA1999999102401MD1999999+0131REMSYN088AAXX  17004 83498 32695 20905 10236 20189 30240 40245 82040 333 10270 29078 55018 58013;
0190834980999992002081712004-17730-039250FM-12+000399999V0201401N003610120019N0020001N1+02481+02051102451ADDAY161061AY261061GF107991051081008001031051KA1240N+02141MA1999999102401MD1999999-0021MW1611REMSYN088AAXX  17124 83498 21595 71407 10248 20205 30240 40245 76166 85835 333 20214 59002 69914;
0148834980999992002081718004-17730-039250FM-12+000399999V0201401N003610450019N0020001N1+02581+01871102191ADDAA199000021GF107991041081008001021051MA1999999102141MD1999999-0031REMSYN070AAXX  17184 83498 32595 71407 10258 20187 30214 40219 84825 333 59003;
0179834980999992002081800004-17730-039250FM-12+000399999V0200901N002610120019N0020001N1+02401+01861102321ADDAA199000021GF105991051081008001001001KA1240M+02741MA1999999102271MD1999999-0131REMSYN088AAXX  18004 83498 32595 50905 10240 20186 30227 40232 85800 333 10274 29072 55070 59013;
0190834980999992002081812004-17730-039250FM-12+000399999V0200901N001510450019N0020001N1+02261+02051102391ADDAY161061AY261061GF105991031051008001041001KA1240N+02201MA1999999102341MD1999999-0061MW1601REMSYN088AAXX  18124 83498 21595 50903 10226 20205 30234 40239 76066 83540 333 20220 59006 69954;
0148834980999992002081818004-17730-039250FM-12+000399999V0201401N001512200019N0020001N1+02531+01961102081ADDAA199000021GF103991031021008001001001MA1999999102031MD1999999-0111REMSYN070AAXX  18184 83498 32595 31403 10253 20196 30203 40208 83200 333 59011;
0179834980999992002081900004-17730-039250FM-12+000399999V0200901N002612200019N0040001N1+02321+01871102241ADDAA199000021GF102991021011008001001001KA1240M+02681MA1999999102191MD1999999-0081REMSYN088AAXX  19004 83498 32596 20905 10232 20187 30219 40224 82100 333 10268 29078 55071 59008;
0190834980999992002081912004-17730-039250FM-12+000399999V0200901N004112200019N0020001N1+02641+01751102401ADDAY161061AY201061GF102991021021008001001001KA1240N+02041MA1999999102351MD1999999+0011MW1211REMSYN088AAXX  19124 83498 21595 20908 10264 20175 30235 40240 72160 82200 333 20204 58001 69914;
0148834980999992002081918004-17730-039250FM-12+000399999V0200901N002610450019N0020001N1+02511+01961102281ADDAA199000021GF107991041081008001051001MA1999999102231MD1999999+0201REMSYN070AAXX  19184 83498 32595 70905 10251 20196 30223 40228 84850 333 58020;
0179834980999992002082000004-17730-039250FM-12+000399999V0201401N003110450019N0020001N1+02341+02001102411ADDAA199000021GF106991031081008001021001KA1240M+02781MA1999999102361MD1999999+0171REMSYN088AAXX  20004 83498 32595 61406 10234 20200 30236 40241 83820 333 10278 29073 55075 58017;
0190834980999992002082012004-17730-039250FM-12+000399999V0201401N003112200019N0020001N1+02571+01851102431ADDAY161061AY201061GF104991041021008001001001KA1240N+02101MA1999999102381MD1999999+0031MW1211REMSYN088AAXX  20124 83498 21595 41406 10257 20185 30238 40243 72160 84200 333 20210 58003 69974;
0148834980999992002082018004-17730-039250FM-12+000399999V0200901N004112200019N0020001N1+02691+01731102231ADDAA199000021GF103991031021008001001001MA1999999102181MD1999999-0051REMSYN070AAXX  20184 83498 32595 30908 10269 20173 30218 40223 83200 333 59005;
0202834980999992002082100004-17730-039250FM-12+000399999V0200901N003610450019N0020001N1+02141+02021102401ADDAY161061AY221061GF108991011051008001021999KA1240M+02801MA1999999102351MD1999999-0011MW1211REMSYN100AAXX  21004 83498 21595 80907 10214 20202 30235 40240 72162 8152/ 333 10280 29077 55082 59001 60041;
0167834980999992002082118004-17730-039250FM-12+000399999V0200901N003112200019N0020001N1+02631+01781102251ADDAA199000091GF104991041021008001001001MA1999999102201MD1999999+0021REMSYN070AAXX  21184 83498 32595 40906 10263 20178 30220 40225 84200 333 58002;EQDQ01  00002PRCP99
0198834980999992002082200004-17730-039250FM-12+000399999V0200501N001012200019N0020001N1+02121+01761102451ADDAA199000091GF102991021021008001001001KA1240M+02751MA1999999102401MD1999999+0051REMSYN088AAXX  22004 83498 32595 20502 10212 20176 30240 40245 82200 333 10275 29073 55072 58005;EQDQ01  00002PRCP99
0190834980999992002082212004-17730-039250FM-12+000399999V0200901N001510450019N0020001N1+02501+01841102501ADDAY161061AY221061GF107991041051008001051001KA1240N+02061MA1999999102451MD1999999+0021MW1211REMSYN088AAXX  22124 83498 21595 70903 10250 20184 30245 40250 72162 84550 333 20206 58002 60094;
0148834980999992002082218004-17730-039250FM-12+000399999V0200901N003112200019N0020001N1+02571+01931102171ADDAA199000021GF103991031021008001001001MA1999999102121MD1999999-0081REMSYN070AAXX  22184 83498 32595 30906 10257 20193 30212 40217 83200 333 59008;
0179834980999992002082300004-17730-039250FM-12+000399999V0200901N001012200019N0020001N1+02201+01881102341ADDAA199000021GF103991031061008001001001KA1240M+02721MA1999999102291MD1999999-0111REMSYN088AAXX  23004 83498 32595 30902 10220 20188 30229 40234 83600 333 10272 29075 55074 59011;
0190834980999992002082312004-17730-039250FM-12+000399999V0200901N002110450019N0020001N1+02501+02071102301ADDAY161061AY221061GF107991041051008001021081KA1240N+01981MA1999999102251MD1999999-0201MW1211REMSYN088AAXX  23124 83498 21595 70904 10250 20207 30225 40230 72162 84528 333 20198 59020 60124;
0148834980999992002082318004-17730-039250FM-12+000399999V0201401N002111050019N0020001N1+02551+01951101991ADDAA199000021GF106991021021008001021041MA1999999101941MD1999999-0181REMSYN070AAXX  23184 83498 32595 61404 10255 20195 30194 40199 82224 333 59018;
0179834980999992002082400004-17730-039250FM-12+000399999V0200901N001511050019N0020001N1+02221+01901102121ADDAA199000021GF107991031051008001001091KA1240M+02681MA1999999102071MD1999999-0221REMSYN088AAXX  24004 83498 32595 70903 10222 20190 30207 40212 83509 333 10268 29078 55027 59022;
0190834980999992002082412004-17730-039250FM-12+000399999V0200901N001011050019N0020001N1+02381+02071102271ADDAY161061AY221061GF106991041051008001001081KA1240N+01951MA1999999102221MD1999999-0031MW1211REMSYN088AAXX  24124 83498 21595 60902 10238 20207 30222 40227 72162 84508 333 20195 59003 60024;
0148834980999992002082418004-17730-039250FM-12+000399999V0200901N003112200019N0020001N1+02631+01961102031ADDAA199000021GF105991031021008001001081MA1999999101981MD1999999+0041REMSYN070AAXX  24184 83498 32595 50906 10263 20196 30198 40203 83208 333 58004;
0179834980999992002082500004-17730-039250FM-12+000399999V0200901N002610450019N0020001N1+02381+01951102191ADDAA199000021GF107991031051008001011081KA1240M+02741MA1999999102141MD1999999+0071REMSYN088AAXX  25004 83498 32595 70905 10238 20195 30214 40219 83518 333 10274 29076 55075 58007;
0186834980999992002082512004-17730-039250FM-12+000399999V0200901N003110450019N0020001N1+02501+01821102281ADDAA199000091GF107991041021008001071091KA1240N+02051MA1999999102231MD1999999+0011REMSYN076AAXX  25124 83498 32595 70906 10250 20182 30223 40228 84279 333 20205 58001;EQDQ01  00002PRCP99
0167834980999992002082518004-17730-039250FM-12+000399999V0201401N003612200019N0020001N1+02621+01961102051ADDAA199000091GF103991031021008001001001MA1999999102001MD1999999+0021REMSYN070AAXX  25184 83498 32595 31407 10262 20196 30200 40205 83200 333 58002;EQDQ01  00002PRCP99
0198834980999992002082600004-17730-039250FM-12+000399999V0201401N002112200019N0020001N1+02381+01891102151ADDAA199000091GF103991021021008001031001KA1240M+02741MA1999999102101MD1999999-0041REMSYN088AAXX  26004 83498 32595 31404 10238 20189 30210 40215 82230 333 10274 29070 55085 59004;EQDQ01  00002PRCP99
0190834980999992002082612004-17730-039250FM-12+000399999V0200901N002110450019N0020001N1+02551+01931102271ADDAY161061AY221061GF106991041051008001051001KA1240N+02071MA1999999102221MD1999999-0011MW1211REMSYN088AAXX  26124 83498 21595 60904 10255 20193 30222 40227 72162 84550 333 20207 59001 69944;
0148834980999992002082618004-17730-039250FM-12+000399999V0200901N004110450019N0020001N1+02571+01901102061ADDAA199000021GF105991031021008001041001MA1999999102011MD1999999+0011REMSYN070AAXX  26184 83498 32595 50908 10257 20190 30201 40206 83240 333 58001;
0179834980999992002082700004-17730-039250FM-12+000399999V0201401N002612200019N0020001N1+02361+01831102211ADDAA199000021GF103991031061008001001001KA1240M+02701MA1999999102161MD1999999+0061REMSYN088AAXX  27004 83498 32595 31405 10236 20183 30216 40221 83600 333 10270 29070 55082 58006;
0190834980999992002082712004-17730-039250FM-12+000399999V0200501N001510450019N0020001N1+02241+02031102211ADDAY161061AY221061GF106991041051008001031041KA1240N+02081MA1999999102161MD1999999-0061MW1211REMSYN088AAXX  27124 83498 21595 60503 10224 20203 30216 40221 72162 84534 333 20208 59006 60084;
0171834980999992002082718004-17730-039250FM-12+000399999V0201401N003110450019N0020001N1+02511+02001101991ADDAY161061AY261061GF106991041021008001021001MA1999999101941MD1999999-0071MW1211REMSYN082AAXX  27184 83498 21595 61406 10251 20200 30194 40199 72166 84220 333 59007 60021;
0179834980999992002082800004-17730-039250FM-12+000399999V0200901N001012200019N0020001N1+02281+01901102141ADDAA199000021GF103991031021008001001001KA1240M+02661MA1999999102091MD1999999-0071REMSYN088AAXX  28004 83498 32595 30902 10228 20190 30209 40214 83200 333 10266 29080 55057 59007;
0190834980999992002082812004-17730-039250FM-12+000399999V0200901N003112200019N0020001N1+02501+01981102151ADDAY161061AY211061GF104991031021008001031001KA1240N+02081MA1999999102101MD1999999-0061MW1211REMSYN088AAXX  28124 83498 21595 40906 10250 20198 30210 40215 72161 83230 333 20208 59006 60094;
0171834980999992002082818004-17730-039250FM-12+000399999V0200901N001510450019N0020001N1+02441+01861101851ADDAY161061AY221061GF107991031051008001021091MA1999999101801MD1999999-0141MW1211REMSYN082AAXX  28184 83498 21595 70903 10244 20186 30180 40185 72162 83529 333 59014 60021;
0202834980999992002082900004-17730-039250FM-12+000399999V0203201N000512200019N0020001N1+02141+01991101931ADDAY161061AY211061GF103991031061008001001001KA1240M+02651MA1999999101881MD1999999-0211MW1211REMSYN100AAXX  29004 83498 21595 33201 10214 20199 30188 40193 72161 83600 333 10265 29081 55040 59021 69921;
0190834980999992002082912004-17730-039250FM-12+000399999V0200501N004110075019N0020001N1+02501+01821102001ADDAY161061AY261061GF106991051021008001031001KA1240N+02051MA1999999101951MD1999999-0151MW1621REMSYN088AAXX  29124 83498 21595 60508 10250 20182 30195 40200 76266 85230 333 20205 59015 60034;
0148834980999992002082918004-17730-039250FM-12+000399999V0200501N004111050019N0020001N1+02581+01801101651ADDAA106000021GF105991041021008001001051MA1999999101601MD1999999-0201REMSYN070AAXX  29184 83498 32595 50508 10258 20180 30160 40165 84205 333 59020;
0208834980999992002083000004-17730-039250FM-12+000399999V0200501N000512200019N0020001N1+02081+01861101681ADDAA106000091GA1001+999999999GF100991001001999999001001KA1240M+02751MA1999999101631MD1999999-0251REMSYN082AAXX  30004 83498 32995 00501 10208 20186 30163 40168 333 10275 29076 55078 59025;EQDQ01  00002PRCP06
0190834980999992002083012004-17730-039250FM-12+000399999V0200501N001510450019N0020001N1+02181+02041101861ADDAY161061AY261061GF108991041071008001021999KA1240N+01941MA1999999101811MD1999999-0141MW1611REMSYN088AAXX  30124 83498 21595 80503 10218 20204 30181 40186 76166 8472/ 333 20194 59014 60034;
0171834980999992002083018004-17730-039250FM-12+000399999V0200501N003612200019N0020001N1+02661+01921101531ADDAY161061AY211061GF104991021011008001001081MA1999999101481MD1999999-0121MW1211REMSYN082AAXX  30184 83498 21595 40507 10266 20192 30148 40153 72161 82108 333 59012 60011;
0189834980999992002083100004-17730-039250FM-12+000399999V0200501N001012200019N0020001N1+02111+01881101751ADDAA106000021GA1001+999999999GF100991001001999999001001KA1240M+02741MA1999999101701MD1999999+0071REMSYN082AAXX  31004 83498 32995 00502 10211 20188 30170 40175 333 10274 29082 55023 58007;
0174834980999992002083112004-17730-039250FM-12+000399999V0203601N002610120019N0020001N1+02491+02031101831ADDGF106991061081008001001001KA1240N+02201MA1999999101781MD1999999-0031REMSYN094AAXX  31124 83498 22595 63605 10249 20203 30178 40183 86800 333 20220 29082 55023 59003 60014;
0167834980999992002083118004-17730-039250FM-12+000399999V0200501N005712200019N0020001N1+02691+01991101501ADDAA106000091GF103991031011008001001001MA1999999101451MD1999999-0031REMSYN070AAXX  31184 83498 32595 30511 10269 20199 30145 40150 83100 333 59003;EQDQ01  00002PRCP06
0198834980999992002090100004-17730-039250FM-12+000399999V0200501N002612200019N0020001N1+02301+02071101571ADDAA106000091GF101991011011008001001001KA1240M+02801MA1999999101521MD1999999-0181REMSYN088AAXX  01004 83498 32595 10505 10230 20207 30152 40157 81100 333 10280 29079 55041 59018;EQDQ01  00002PRCP06
0186834980999992002090112004-17730-039250FM-12+000399999V0203601N004112200019N0020001N1+02571+02041101541ADDAA106000091GF104991041021008001001001KA1240N+02021MA1999999101491MD1999999-0291REMSYN076AAXX  01124 83498 32595 43608 10257 20204 30149 40154 84200 333 20202 59029;EQDQ01  00002PRCP06
0167834980999992002090118004-17730-039250FM-12+000399999V0200501N005112200019N0020001N1+02711+02061101101ADDAA106000091GF103991031001012501031001MA1999999101051MD1999999-0401REMSYN070AAXX  01184 83498 32695 30510 10271 20206 30105 40110 83030 333 59040;EQDQ01  00002PRCP06
0198834980999992002090200004-17730-039250FM-12+000399999V0200501N003610450019N0020001N1+02481+02191101191ADDAA106000091GF106991041061008001011001KA1240M+02851MA1999999101141MD1999999-0381REMSYN088AAXX  02004 83498 32595 60507 10248 20219 30114 40119 84610 333 10285 29077 55075 59038;EQDQ01  00002PRCP06
0186834980999992002090212004-17730-039250FM-12+000399999V0203601N005110075019N0020001N1+02641+02091101251ADDAA106000091GF107991051041008001001081KA1240N+02191MA1999999101201MD1999999-0291REMSYN076AAXX  02124 83498 32595 73610 10264 20209 30120 40125 85408 333 20219 59029;EQDQ01  00002PRCP06
0167834980999992002090218004-17730-039250FM-12+000399999V0201801N005110075019N0020001N1+02461+02171101151ADDAA106000091GF108991071061008001011999MA1999999101101MD1999999+0051REMSYN070AAXX  02184 83498 32595 81810 10246 20217 30110 40115 8761/ 333 58005;EQDQ01  00002PRCP06
0198834980999992002090300004-17730-039250FM-12+000399999V0201801N005710075019N0020001N1+02341+02071101551ADDAA106000091GF108991071061008001021999KA1240M+03041MA1999999101501MD1999999+0361REMSYN088AAXX  03004 83498 32595 81811 10234 20207 30150 40155 8762/ 333 10304 29030 55030 58036;EQDQ01  00002PRCP06
0186834980999992002090312004-17730-039250FM-12+000399999V0201401N004610075019N0020001N1+02361+01761102071ADDAA106000091GF108991051051008001021999KA1240N+02221MA1999999102021MD1999999+0821REMSYN076AAXX  03124 83498 32595 81409 10236 20176 30202 40207 8552/ 333 20222 58082;EQDQ01  00002PRCP06
0167834980999992002090318004-17730-039250FM-12+000399999V0201401N003110450019N0020001N1+02301+01721101881ADDAA106000091GF108991041051008001021999MA1999999101831MD1999999+0731REMSYN070AAXX  03184 83498 32595 81406 10230 20172 30183 40188 8452/ 333 58073;EQDQ01  00002PRCP06
0198834980999992002090400004-17730-039250FM-12+000399999V0201401N001510450019N0020001N1+02321+01701102071ADDAA106000091GF108991041061008001021999KA1240M+02421MA1999999102021MD1999999+0521REMSYN088AAXX  04004 83498 32595 81403 10232 20170 30202 40207 8462/ 333 10242 29069 55000 58052;EQDQ01  00002PRCP06
0186834980999992002090412004-17730-039250FM-12+000399999V0201401N002610450019N0020001N1+02491+01751102081ADDAA106000091GF108991021051008001021999KA1240N+02221MA1999999102031MD1999999+0011REMSYN076AAXX  04124 83498 32595 81405 10249 20175 30203 40208 8252/ 333 20222 58001;EQDQ01  00002PRCP06
0176834980999992002090418004-17730-039250FM-12+000399999V0201401N002110450019N0020001N1+02461+02031101791ADDAA106000021AY151061AY221061GF108991041071008001021999MA1999999101741MD1999999-0091MW1511REMSYN076AAXX  04184 83498 31595 81404 10246 20203 30174 40179 75152 8472/ 333 59009;
0179834980999992002090500004-17730-039250FM-12+000399999V0201401N003610075019N0020001N1+02361+02071102021ADDAA106000021GF108991071071008001021999KA1240M+02701MA1999999101971MD1999999-0071REMSYN088AAXX  05004 83498 32595 81407 10236 20207 30197 40202 8772/ 333 10270 29077 55004 59007;
0190834980999992002090512004-17730-039250FM-12+000399999V0201401N003110075019N0020001N1+02531+02021102111ADDAY161061AY221061GF108991051051008001011001KA1240N+02251MA1999999102061MD1999999+0031MW1211REMSYN088AAXX  05124 83498 21595 81406 10253 20202 30206 40211 72162 85510 333 20225 58003 69934;
0198834980999992002090600004-17730-039250FM-12+000399999V0200901N002112200019N0020001N1+02361+01931102031ADDAA106000091GF101991011011008001001001KA1240M+02701MA1999999101981MD1999999+0011REMSYN088AAXX  06004 83498 32595 10904 10236 20193 30198 40203 81100 333 10270 29075 55052 58001;EQDQ01  00002PRCP06
0186834980999992002090612004-17730-039250FM-12+000399999V0200901N002610075019N0020001N1+02641+02121102071ADDAA106000091GF107991051021008001031091KA1240N+02271MA1999999102021MD1999999-0041REMSYN076AAXX  06124 83498 32595 70905 10264 20212 30202 40207 85239 333 20227 59004;EQDQ01  00002PRCP06
0167834980999992002090618004-17730-039250FM-12+000399999V0200901N003610120019N0020001N1+02581+02191101701ADDAA106000091GF107991051081008001031051MA1999999101651MD1999999-0131REMSYN070AAXX  06184 83498 32595 70907 10258 20219 30165 40170 85835 333 59013;EQDQ01  00002PRCP06
0198834980999992002090700004-17730-039250FM-12+000399999V0200501N001512200019N0020001N1+02341+02151101791ADDAA106000091GF102991021021008001001001KA1240M+02751MA1999999101741MD1999999-0241REMSYN088AAXX  07004 83498 32595 20503 10234 20215 30174 40179 82200 333 10275 29083 55041 59024;EQDQ01  00002PRCP06
0190834980999992002090712004-17730-039250FM-12+000399999V0203601N004110450019N0020001N1+02401+02211101911ADDAY161061AY221061GF108991041061008001031999KA1240N+02181MA1999999101861MD1999999-0161MW1211REMSYN088AAXX  07124 83498 21595 83608 10240 20221 30186 40191 72162 8463/ 333 20218 59016 60014;
0171834980999992002090718004-17730-039250FM-12+000399999V0203601N005712200019N0020001N1+02741+02321101561ADDAY161061AY211061GF104991021011008001051001MA1999999101511MD1999999-0141MW1211REMSYN082AAXX  07184 83498 21595 43611 10274 20232 30151 40156 72161 82150 333 59014 69921;
0201834980999992002090800004-17730-039250FM-12+000399999V0200501N002610012019N0020001N1+02451+02051101951ADDAA106000021GA1091+999999999GF109991091999999999999999KA1240M+02841MA1999999101901MD1999999+0161MW1131REMSYN088AAXX  08004 83498 31/95 90505 10245 20205 30190 40195 713// 333 10284 29081 55062 58016;
0190834980999992002090812004-17730-039250FM-12+000399999V0209999C000010450019N0020001N1+02461+02211102081ADDAY161061AY291061GF107991041051008001021091KA1240N+02311MA1999999102031MD1999999+0171MW1211REMSYN088AAXX  08124 83498 21595 70000 10246 20221 30203 40208 72169 84529 333 20231 58017 60204;
0171834980999992002090818004-17730-039250FM-12+000399999V0201801N005710075019N0020001N1+02301+02161101921ADDAY161061AY261061GF108991051071008001021999MA1999999101871MD1999999+0361MW1211REMSYN082AAXX  08184 83498 21595 81811 10230 20216 30187 40192 72166 8572/ 333 58036 60141;
0202834980999992002090900004-17730-039250FM-12+000399999V0201801N006210075019N0020001N1+02251+02171102181ADDAY161061AY261061GF108991051071008001021999KA1240M+02561MA1999999102131MD1999999+0231MW1211REMSYN100AAXX  09004 83498 21595 81812 10225 20217 30213 40218 72166 8572/ 333 10256 29093 55012 58023 60031;
0190834980999992002090912004-17730-039250FM-12+000399999V0201401N003110450019N0020001N1+02381+02111102381ADDAY161061AY261061GF108991041071008001021999KA1240N+02151MA1999999102331MD1999999+0301MW1611REMSYN088AAXX  09124 83498 21595 81406 10238 20211 30233 40238 76166 8472/ 333 20215 58030 60294;
0171834980999992002090918004-17730-039250FM-12+000399999V0200901N002612200019N0020001N1+02601+01941102141ADDAY161061AY211061GF104991021011008001001081MA1999999102091MD1999999+0221MW1211REMSYN082AAXX  09184 83498 21595 40905 10260 20194 30209 40214 72161 82108 333 58022 60011;
0179834980999992002091000004-17730-039250FM-12+000399999V0200901N001512200019N0020001N1+02341+01951102281ADDAA106000021GF102991021011008001001001KA1240M+02641MA1999999102231MD1999999+0101REMSYN088AAXX  10004 83498 32595 20903 10234 20195 30223 40228 82100 333 10264 29077 55032 58010;
0190834980999992002091012004-17730-039250FM-12+000399999V0201401N002110450019N0020001N1+02541+01951102321ADDAY161061AY221061GF107991041081008001031091KA1240N+02141MA1999999102271MD1999999-0061MW1211REMSYN088AAXX  10124 83498 21595 71404 10254 20195 30227 40232 72162 84839 333 20214 59006 60024;
0171834980999992002091018004-17730-039250FM-12+000399999V0200901N002110120019N0020001N1+02501+02131102081ADDAY161061AY221061GF107991051081008001051091MA1999999102031MD1999999-0061MW1211REMSYN082AAXX  10184 83498 21595 70904 10250 20213 30203 40208 72162 85859 333 59006 60031;
0179834980999992002091100004-17730-039250FM-12+000399999V0201401N001012200019N0020001N1+02301+02011102251ADDAA106000021GF101991011001017501031001KA1240M+02641MA1999999102201MD1999999-0031REMSYN088AAXX  11004 83498 32795 11402 10230 20201 30220 40225 81030 333 10264 29080 55061 59003;
0190834980999992002091112004-17730-039250FM-12+000399999V0201401N002610450019N0020001N1+02561+01931102251ADDAY161061AY221061GF106991041061008001031001KA1240N+02141MA1999999102201MD1999999-0071MW1211REMSYN088AAXX  11124 83498 21595 61405 10256 20193 30220 40225 72162 84630 333 20214 59007 60254;
0148834980999992002091118004-17730-039250FM-12+000399999V0201401N003110450019N0020001N1+02481+01871102091ADDAA106000021GF108991031051008001051011MA1999999102041MD1999999+0011REMSYN070AAXX  11184 83498 32595 81406 10248 20187 30204 40209 83551 333 58001;
0198834980999992002091200004-17730-039250FM-12+000399999V0201401N004112200019N0020001N1+02331+01631102281ADDAA106000091GF103991031061008001001001KA1240M+02621MA1999999102231MD1999999+0031REMSYN088AAXX  12004 83498 32595 31408 10233 20163 30223 40228 83600 333 10262 29067 55068 58003;EQDQ01  00002PRCP06
0186834980999992002091212004-17730-039250FM-12+000399999V0201401N002610450019N0020001N1+02491+01821102131ADDAA106000091GF105991031021008001021001KA1240N+02211MA1999999102081MD1999999-0121REMSYN076AAXX  12124 83498 32595 51405 10249 20182 30208 40213 83220 333 20221 59012;EQDQ01  00002PRCP06
0167834980999992002091218004-17730-039250FM-12+000399999V0201401N003112200019N0020001N1+02421+01881101871ADDAA106000091GF104991021021008001021041MA1999999101821MD1999999-0221REMSYN070AAXX  12184 83498 32595 41406 10242 20188 30182 40187 82224 333 59022;EQDQ01  00002PRCP06
0198834980999992002091300004-17730-039250FM-12+000399999V0200901N001012200019N0020001N1+02071+01851101881ADDAA106000091GF101991011011008001001001KA1240M+02541MA1999999101831MD1999999-0401REMSYN088AAXX  13004 83498 32595 10902 10207 20185 30183 40188 81100 333 10254 29078 55091 59040;EQDQ01  00002PRCP06
0186834980999992002091312004-17730-039250FM-12+000399999V0203601N003111050019N0020001N1+02501+01941101791ADDAA106000091GF105991021011008001001021KA1240N+01771MA1999999101741MD1999999-0341REMSYN076AAXX  13124 83498 32595 53606 10250 20194 30174 40179 82102 333 20177 59034;EQDQ01  00002PRCP06
0183834980999992002091318004-17730-039250FM-12+000399999V0200501N005112200019N0020001N1+02691+01941101361ADDAA106000091GF102991001001999999001021MA1999999101311MD1999999-0511REMSYN070AAXX  13184 83498 32795 20510 10269 20194 30131 40136 80002 333 59051;EQDQ01+017502SCOLCBQ02  00002PRCP06
0214834980999992002091400004-17730-039250FM-12+000399999V0203601N005112200019N0020001N1+02361+02051101551ADDAA106000091GF102991999001017501001001KA1240M+02801MA1999999101501MD1999999-0331REMSYN088AAXX  14004 83498 32795 23610 10236 20205 30150 40155 80000 333 10280 29075 55102 59033;EQDQ01+000002SCOTLCQ02  00002PRCP06
0186834980999992002091412004-17730-039250FM-12+000399999V0203601N005110075019N0020001N1+02641+02071101581ADDAA106000091GF106991051041008001001051KA1240N+02111MA1999999101531MD1999999-0211REMSYN076AAXX  14124 83498 32595 63610 10264 20207 30153 40158 85405 333 20211 59021;EQDQ01  00002PRCP06
0167834980999992002091418004-17730-039250FM-12+000399999V0200501N006212200019N0020001N1+02801+02201101171ADDAA106000091GF101991001001999999001051MA1999999101121MD1999999-0191REMSYN070AAXX  14184 83498 32995 10512 10280 20220 30112 40117 80005 333 59019;EQDQ01  00002PRCP06
0198834980999992002091500004-17730-039250FM-12+000399999V0203601N004612200019N0020001N1+02461+02171101391ADDAA106000091GF101991011011008001001001KA1240M+02861MA1999999101341MD1999999-0161REMSYN088AAXX  15004 83498 32595 13609 10246 20217 30134 40139 81100 333 10286 29097 55097 59016;EQDQ01  00002PRCP06
0186834980999992002091512004-17730-039250FM-12+000399999V0203201N001510450019N0020001N1+02651+01981101811ADDAA106000091GF106991031051008001051001KA1240N+02101MA1999999101761MD1999999+0231REMSYN076AAXX  15124 83498 32595 63203 10265 20198 30176 40181 83550 333 20210 58023;EQDQ01  00002PRCP06
0171834980999992002091518004-17730-039250FM-12+000399999V0201401N005110075019N0020001N1+02461+02151101771ADDAY161061AY221061GF108991051051008001021999MA1999999101721MD1999999+0601MW1211REMSYN082AAXX  15184 83498 21595 81410 10246 20215 30172 40177 72162 8552/ 333 58060 69921;
0179834980999992002091600004-17730-039250FM-12+000399999V0201401N005110075019N0020001N1+02281+02131102101ADDAA106000021GF108991061051008001021999KA1240M+02941MA1999999102051MD1999999+0711REMSYN088AAXX  16004 83498 32595 81410 10228 20213 30205 40210 8652/ 333 10294 29071 55022 58071;
0162834980999992002091612004-17730-039250FM-12+000399999V0201801N004110450019N0020001N1+02521+01981102251ADDGF107991041041008001051051KA1240N+02121MA1999999102201MD1999999+0441REMSYN082AAXX  16124 83498 22595 71808 10252 20198 30220 40225 84455 333 20212 58044 69924;
0167834980999992002091618004-17730-039250FM-12+000399999V0201801N004610120019N0020001N1+02501+02001102021ADDAA106000091GF108991051081008001051051MA1999999101971MD1999999+0251REMSYN070AAXX  16184 83498 32595 81809 10250 20200 30197 40202 85855 333 58025;EQDQ01  00002PRCP06
0198834980999992002091700004-17730-039250FM-12+000399999V0201401N002610120019N0020001N1+02411+01931102281ADDAA106000091GF108991051081008001051999KA1240M+02631MA1999999102231MD1999999+0181REMSYN088AAXX  17004 83498 32595 81405 10241 20193 30223 40228 8585/ 333 10263 29074 55043 58018;EQDQ01  00002PRCP06
0186834980999992002091712004-17730-039250FM-12+000399999V0201401N003610450019N0020001N1+02531+02021102391ADDAA199000091GF106991021021008001051081KA1240N+02351MA1999999102241MD1999999+0141REMSYN076AAXX  17124 83498 32595 61407 10253 20202 30224 40239 82258 333 20235 58014;EQDQ01  00002PRCP99
0171834980999992002091718004-17730-039250FM-12+000399999V0200901N001510075019N0020001N1+02391+02151102031ADDAY161061AY261061GF108991051061008001021999MA1999999101981MD1999999+0011MW1611REMSYN082AAXX  17184 83498 21595 80903 10239 20215 30198 40203 76166 8562/ 333 58001 60031;
0179834980999992002091800004-17730-039250FM-12+000399999V0201401N002610075019N0020001N1+02301+02131102301ADDAA106000021GF108991051061008001021999KA1240M+02621MA1999999102251MD1999999+0021REMSYN088AAXX  18004 83498 32595 81405 10230 20213 30225 40230 8562/ 333 10262 29085 55009 58002;
0190834980999992002091812004-17730-039250FM-12+000399999V0200901N005112200019N0020001N1+02581+02041102171ADDAY161061AY261061GF104991041081008001001001KA1240N+02141MA1999999102121MD1999999-0221MW1621REMSYN088AAXX  18124 83498 21595 40910 10258 20204 30212 40217 76266 84800 333 20214 59022 60104;
0148834980999992002091818004-17730-039250FM-12+000399999V0201401N002610075019N0020001N1+02581+01941101901ADDAA106000021GF106991051021008001051001MA1999999101851MD1999999-0131REMSYN070AAXX  18184 83498 32595 61405 10258 20194 30185 40190 85250 333 59013;
0198834980999992002091900004-17730-039250FM-12+000399999V0200901N004110450019N0020001N1+02361+01871102121ADDAA106000091GF106991021021008001051001KA1240M+02721MA1999999102071MD1999999-0181REMSYN088AAXX  19004 83498 32595 60908 10236 20187 30207 40212 82250 333 10272 29072 55081 59018;EQDQ01  00002PRCP06
0190834980999992002091912004-17730-039250FM-12+000399999V0200901N003110450019N0020001N1+02441+01951102211ADDAY161061AY261061GF106991031051008001051001KA1240N+02121MA1999999102161MD1999999+0041MW1601REMSYN088AAXX  19124 83498 21595 60906 10244 20195 30216 40221 76066 83550 333 20212 58004 69944;
0148834980999992002091918004-17730-039250FM-12+000399999V0200901N003110450019N0020001N1+02511+01871101841ADDAA106000021GF106991021081008001051001MA1999999101791MD1999999-0061REMSYN070AAXX  19184 83498 32595 60906 10251 20187 30179 40184 82850 333 59006;
0198834980999992002092000004-17730-039250FM-12+000399999V0200501N001510075019N0020001N1+02301+01961102031ADDAA106000091GF108991051051008001021999KA1240M+02641MA1999999101981MD1999999-0091REMSYN088AAXX  20004 83498 32595 80503 10230 20196 30198 40203 8552/ 333 10264 29076 55048 59009;EQDQ01  00002PRCP06
0162834980999992002092012004-17730-039250FM-12+000399999V0200501N003611050019N0020001N1+02581+01851101981ADDGF106991041021008001001021KA1240N+02121MA1999999101931MD1999999-0231REMSYN082AAXX  20124 83498 22595 60507 10258 20185 30193 40198 84202 333 20212 59023 69954;
0167834980999992002092018004-17730-039250FM-12+000399999V0200501N004111050019N0020001N1+02631+01831101561ADDAA106000091GF106991031021008001001081MA1999999101511MD1999999-0281REMSYN070AAXX  20184 83498 32595 60508 10263 20183 30151 40156 83208 333 59028;EQDQ01  00002PRCP06
0198834980999992002092100004-17730-039250FM-12+000399999V0200501N002112200019N0020001N1+02221+01881101671ADDAA106000091GF101991011011008001001001KA1240M+02771MA1999999101621MD1999999-0361REMSYN088AAXX  21004 83498 32595 10504 10222 20188 30162 40167 81100 333 10277 29072 55089 59036;EQDQ01  00002PRCP06
0186834980999992002092112004-17730-039250FM-12+000399999V0203601N004111050019N0020001N1+02611+02011101621ADDAA106000091GF105991031021008001001021KA1240N+02071MA1999999101571MD1999999-0361REMSYN076AAXX  21124 83498 32595 53608 10261 20201 30157 40162 83202 333 20207 59036;EQDQ01  00002PRCP06
0167834980999992002092118004-17730-039250FM-12+000399999V0200501N005110450019N0020001N1+02671+02141101291ADDAA106000091GF106991021011008001031021MA1999999101241MD1999999-0271REMSYN070AAXX  21184 83498 32595 60510 10267 20214 30124 40129 82132 333 59027;EQDQ01  00002PRCP06
0190834980999992002092212004-17730-039250FM-12+000399999V0201801N003110075019N0020001N1+02201+02131101731ADDAY161061AY261061GF108991071061008001021999KA1240N+02131MA1999999101681MD1999999+0111MW1621REMSYN088AAXX  22124 83498 21595 81806 10220 20213 30168 40173 76266 8762/ 333 20213 58011 60044;
0148834980999992002092218004-17730-039250FM-12+000399999V0201801N003610075019N0020001N1+02381+02091101401ADDAA106000021GF108991071061008001021999MA1999999101351MD1999999+0111REMSYN070AAXX  22184 83498 32595 81807 10238 20209 30135 40140 8762/ 333 58011;
0202834980999992002092300004-17730-039250FM-12+000399999V0201801N002610075019N0020001N1+02321+02241101581ADDAY161061AY261061GF108991071061008001021999KA1240M+02531MA1999999101531MD1999999+0141MW1601REMSYN100AAXX  23004 83498 21595 81805 10232 20224 30153 40158 76066 8762/ 333 10253 29093 55000 58014 60011;
0190834980999992002092312004-17730-039250FM-12+000399999V0201801N001010075019N0020001N1+02301+02161101631ADDAY161061AY261061GF108991051051008001021999KA1240N+02121MA1999999101581MD1999999-0101MW1211REMSYN088AAXX  23124 83498 21595 81802 10230 20216 30158 40163 72166 8552/ 333 20212 59010 60254;
0148834980999992002092318004-17730-039250FM-12+000399999V0201801N001010450019N0020001N1+02481+02321101411ADDAA106000021GF108991041061008001011999MA1999999101361MD1999999+0011REMSYN070AAXX  23184 83498 32595 81802 10248 20232 30136 40141 8461/ 333 58001;
0202834980999992002092400004-17730-039250FM-12+000399999V0209999C000010075019N0020001N1+02321+02241101491ADDAY161061AY221061GF108991051061008001021999KA1240M+02501MA1999999101441MD1999999-0091MW1211REMSYN100AAXX  24004 83498 21595 80000 10232 20224 30144 40149 72162 8562/ 333 10250 29093 55000 59009 69961;
0190834980999992002092412004-17730-039250FM-12+000399999V0203601N003110450019N0020001N1+02611+02231101351ADDAY161061AY261061GF108991031081008001021081KA1240N+02271MA1999999101301MD1999999-0281MW1211REMSYN088AAXX  24124 83498 21595 83606 10261 20223 30130 40135 72166 83828 333 20227 59028 60084;
0148834980999992002092418004-17730-039250FM-12+000399999V0203601N005110450019N0020001N1+02651+02201101041ADDAA106000021GF107991021051008001021081MA1999999100991MD1999999-0371REMSYN070AAXX  24184 83498 32595 73610 10265 20220 30099 40104 82528 333 59037;
0202834980999992002092500004-17730-039250FM-12+000399999V0200901N001010450019N0020001N1+02281+02201101301ADDAY161061AY261061GF108991041071008001021999KA1240M+02841MA1999999101251MD1999999-0191MW1211REMSYN100AAXX  25004 83498 21595 80902 10228 20220 30125 40130 72166 8472/ 333 10284 29087 55013 59019 60061;
0190834980999992002092512004-17730-039250FM-12+000399999V0202301N001510075019N0020001N1+02321+02181101551ADDAY161061AY221061GF108991051051008001021999KA1240N+02191MA1999999101501MD1999999+0201MW1211REMSYN088AAXX  25124 83498 21595 82303 10232 20218 30150 40155 72162 8552/ 333 20219 58020 60314;
0202834980999992002092600004-17730-039250FM-12+000399999V0201801N003110450019N0020001N1+02121+02041101751ADDAY161061AY261061GF108991041071008001021999KA1240M+02471MA1999999101701MD1999999+0451MW1211REMSYN100AAXX  26004 83498 21595 81806 10212 20204 30170 40175 72166 8472/ 333 10247 29094 55000 58045 60081;
0190834980999992002092612004-17730-039250FM-12+000399999V0201801N005710450019N0020001N1+02471+02051101871ADDAY161061AY221061GF106991041051008001041001KA1240N+02071MA1999999101821MD1999999+0321MW1211REMSYN088AAXX  26124 83498 21595 61811 10247 20205 30182 40187 72162 84540 333 20207 58032 60134;
0171834980999992002092618004-17730-039250FM-12+000399999V0201801N005110075019N0020001N1+02201+02031101771ADDAY161061AY261061GF108991071061008001021999MA1999999101721MD1999999+0341MW1601REMSYN082AAXX  26184 83498 21595 81810 10220 20203 30172 40177 76066 8762/ 333 58034 69941;
0190834980999992002092712004-17730-039250FM-12+000399999V0201401N005710450019N0020001N1+02501+02001102071ADDAY161061AY221061GF108991041051008001011999KA1240N+02081MA1999999102021MD1999999+0201MW1211REMSYN088AAXX  27124 83498 21595 81411 10250 20200 30202 40207 72162 8451/ 333 20208 58020 60024;
0148834980999992002092718004-17730-039250FM-12+000399999V0201801N005110450019N0020001N1+02531+02021101891ADDAA106000021GF106991041051008001041001MA1999999101841MD1999999+0121REMSYN070AAXX  27184 83498 32595 61810 10253 20202 30184 40189 84540 333 58012;
0198834980999992002092800004-17730-039250FM-12+000399999V0201801N005110450019N0020001N1+02201+02061102121ADDAA106000091GF108991041061008001021999KA1240M+02621MA1999999102071MD1999999+0151REMSYN088AAXX  28004 83498 32595 81810 10220 20206 30207 40212 8462/ 333 10262 29083 55093 58015;EQDQ01  00002PRCP06
0190834980999992002092812004-17730-039250FM-12+000399999V0201801N005110450019N0020001N1+02481+02031102161ADDAY161061AY261061GF108991031051008001021081KA1240N+02221MA1999999102111MD1999999+0091MW1211REMSYN088AAXX  28124 83498 21595 81810 10248 20203 30211 40216 72166 83528 333 20222 58009 60024;
0171834980999992002092818004-17730-039250FM-12+000399999V0201401N002610450019N0020001N1+02431+02131101911ADDAY161061AY261061GF108991031051008001021999MA1999999101861MD1999999+0021MW1211REMSYN082AAXX  28184 83498 21595 81405 10243 20213 30186 40191 72166 8352/ 333 58002 60021;
0202834980999992002092900004-17730-039250FM-12+000399999V0201401N003610075019N0020001N1+02161+02081102131ADDAY161061AY251061GF108991051071008001021999KA1240M+02641MA1999999102081MD1999999+0011MW1521REMSYN100AAXX  29004 83498 21595 81407 10216 20208 30208 40213 75265 8572/ 333 10264 29082 55088 58001 60031;
0190834980999992002092912004-17730-039250FM-12+000399999V0200901N003110450019N0020001N1+02461+02091102111ADDAY161061AY221061GF107991041061008001011001KA1240N+02101MA1999999102061MD1999999-0051MW1211REMSYN088AAXX  29124 83498 21595 70906 10246 20209 30206 40211 72162 84610 333 20210 59005 60074;
0171834980999992002092918004-17730-039250FM-12+000399999V0200901N003110450019N0020001N1+02511+02091101811ADDAY161061AY221061GF106991041051008001041001MA1999999101761MD1999999-0101MW1211REMSYN082AAXX  29184 83498 21595 60906 10251 20209 30176 40181 72162 84540 333 59010 60031;
0202834980999992002093000004-17730-039250FM-12+000399999V0200501N000510075019N0020001N1+02261+02211101951ADDAY161061AY221061GF108991061061008001021999KA1240M+02641MA1999999101901MD1999999-0181MW1211REMSYN100AAXX  30004 83498 21595 80501 10226 20221 30190 40195 72162 8662/ 333 10264 29088 55040 59018 60041;
0190834980999992002093012004-17730-039250FM-12+000399999V0200501N004610075019N0020001N1+02621+02141102021ADDAY161061AY221061GF107991051021008001001081KA1240N+02171MA1999999101971MD1999999-0091MW1211REMSYN088AAXX  30124 83498 21595 70509 10262 20214 30197 40202 72162 85208 333 20217 59009 60074;
0148834980999992002093018004-17730-039250FM-12+000399999V0200501N004612200019N0020001N1+02741+01891101741ADDAA106000021GF101991001001999999001051MA1999999101691MD1999999-0071REMSYN070AAXX  30184 83498 32995 10509 10274 20189 30169 40174 80005 333 59007;
0186834980999992002100112004-17730-039250FM-12+000399999V0203601N005712200019N0020001N1+02651+02001101951ADDAA106000091GF103991031011008001001001KA1240N+02101MA1999999101901MD1999999-0071REMSYN076AAXX  01124 83498 32595 33611 10265 20200 30190 40195 83100 333 20210 59007;EQDQ01  00002PRCP06
0167834980999992002100118004-17730-039250FM-12+000399999V0200501N006212200019N0020001N1+02791+02091101551ADDAA106000091GF102991001001999999001051MA1999999101501MD1999999-0191REMSYN070AAXX  01184 83498 32995 20512 10279 20209 30150 40155 80005 333 59019;EQDQ01  00002PRCP06
0208834980999992002100200004-17730-039250FM-12+000399999V0200501N003112200019N0020001N1+02381+02131101621ADDAA106000091GA1001+999999999GF100991001001999999001001KA1240M+02861MA1999999101571MD1999999-0321REMSYN082AAXX  02004 83498 32995 00506 10238 20213 30157 40162 333 10286 29076 55103 59032;EQDQ01  00002PRCP06
0186834980999992002100212004-17730-039250FM-12+000399999V0203601N002612200019N0020001N1+02611+02121101801ADDAA106000091GF107991031021008001001011KA1240N+02031MA1999999101751MD1999999-0151REMSYN076AAXX  02124 83498 32595 73605 10261 20212 30175 40180 83201 333 20203 59015;EQDQ01  00002PRCP06
0167834980999992002100218004-17730-039250FM-12+000399999V0200501N004111050019N0020001N1+02691+02091101421ADDAA106000091GF106991021011008001001081MA1999999101371MD1999999-0131REMSYN070AAXX  02184 83498 32595 60508 10269 20209 30137 40142 82108 333 59013;EQDQ01  00002PRCP06
0198834980999992002100300004-17730-039250FM-12+000399999V0201401N001012200019N0020001N1+02411+02171101791ADDAA106000091GF103991031021008001001001KA1240M+02881MA1999999101741MD1999999+0171REMSYN088AAXX  03004 83498 32595 31402 10241 20217 30174 40179 83200 333 10288 29080 55070 58017;EQDQ01  00002PRCP06
0190834980999992002100312004-17730-039250FM-12+000399999V0201401N003110450019N0020001N1+02571+02041101771ADDAY161061AY221061GF106991031051008001041001KA1240N+02291MA1999999101721MD1999999-0031MW1211REMSYN088AAXX  03124 83498 21595 61406 10257 20204 30172 40177 72162 83540 333 20229 59003 60084;
0148834980999992002100318004-17730-039250FM-12+000399999V0201401N003111050019N0020001N1+02611+02101101371ADDAA106000021GF106991041021008001001081MA1999999101321MD1999999-0051REMSYN070AAXX  03184 83498 32595 61406 10261 20210 30132 40137 84208 333 59005;
0208834980999992002100400004-17730-039250FM-12+000399999V0200901N001512200019N0020001N1+02361+02071101721ADDAA106000091GA1001+999999999GF100991001001999999001001KA1240M+02761MA1999999101671MD1999999-0071REMSYN082AAXX  04004 83498 32995 00903 10236 20207 30167 40172 333 10276 29079 55082 59007;EQDQ01  00002PRCP06
0186834980999992002100412004-17730-039250FM-12+000399999V0200501N002610075019N0020001N1+02701+02031101651ADDAA106000091GF105991051021008001001001KA1240N+02041MA1999999101601MD1999999-0121REMSYN076AAXX  04124 83498 32595 50505 10270 20203 30160 40165 85200 333 20204 59012;EQDQ01  00002PRCP06
0167834980999992002100418004-17730-039250FM-12+000399999V0200501N005112200019N0020001N1+02781+02131101371ADDAA106000091GF101991011011008001001001MA1999999101321MD1999999+0001REMSYN070AAXX  04184 83498 32595 10510 10278 20213 30132 40137 81100 333 58000;EQDQ01  00002PRCP06
0198834980999992002100500004-17730-039250FM-12+000399999V0200501N003112200019N0020001N1+02441+02131101631ADDAA106000091GF102991021011008001001001KA1240M+02901MA1999999101581MD1999999-0091REMSYN088AAXX  05004 83498 32595 20506 10244 20213 30158 40163 82100 333 10290 29075 55104 59009;EQDQ01  00002PRCP06
0186834980999992002100512004-17730-039250FM-12+000399999V0200501N005112200019N0020001N1+02711+02011101851ADDAA106000091GF104991041021008001001001KA1240N+02231MA1999999101801MD1999999+0201REMSYN076AAXX  05124 83498 32595 40510 10271 20201 30180 40185 84200 333 20223 58020;EQDQ01  00002PRCP06
0167834980999992002100518004-17730-039250FM-12+000399999V0200501N005112200019N0020001N1+02751+01951101541ADDAA106000091GF101991011011008001001001MA1999999101491MD1999999+0171REMSYN070AAXX  05184 83498 32595 10510 10275 20195 30149 40154 81100 333 58017;EQDQ01  00002PRCP06
0208834980999992002100600004-17730-039250FM-12+000399999V0200501N002612200019N0020001N1+02361+01971101771ADDAA106000091GA1001+999999999GF100991001001999999001001KA1240M+02861MA1999999101721MD1999999-0141REMSYN082AAXX  06004 83498 32995 00505 10236 20197 30172 40177 333 10286 29072 55106 59014;EQDQ01  00002PRCP06
0190834980999992002100612004-17730-039250FM-12+000399999V0200501N005110120019N0020001N1+02651+02181101821ADDAY161061AY221061GF107991071081008001001001KA1240N+02281MA1999999101771MD1999999-0031MW1211REMSYN088AAXX  06124 83498 21595 70510 10265 20218 30177 40182 72162 87800 333 20228 59003 60014;
0184834980999992002100618004-17730-039250FM-12+000399999V0200501N006710450019N0020001N1+02691+02201101631ADDAY161061AY251061GF107991041051008001021041MA1999999101581MD1999999+0091REMSYN082AAXX  06184 83498 21595 70513 10269 20220 30158 40163 75665 84524 333 58009 69911;EQDQ01+000562PRSWM1
0190834980999992002100700004-17730-039250FM-12+000399999V0200501N002112200019N0020001N1+02401+02111101831ADDGA1001+999999999GF100991001001999999001001KA1240M+02861MA1999999101781MD1999999+0061REMSYN094AAXX  07004 83498 21595 00504 10240 20211 30178 40183 7//// 333 10286 29080 55061 58006 69961;
0190834980999992002100712004-17730-039250FM-12+000399999V0200501N004112200019N0020001N1+02651+02251101991ADDAY161061AY211061GF104991041051008001001001KA1240N+02221MA1999999101941MD1999999+0171MW1211REMSYN088AAXX  07124 83498 21595 40508 10265 20225 30194 40199 72161 84500 333 20222 58017 60034;
0171834980999992002100718004-17730-039250FM-12+000399999V0200501N005112200019N0020001N1+02771+02121101791ADDAY161061AY201061GF102991021011008001001001MA1999999101741MD1999999+0161MW1211REMSYN082AAXX  07184 83498 21595 20510 10277 20212 30174 40179 72160 82100 333 58016 69921;
0189834980999992002100800004-17730-039250FM-12+000399999V0200501N001512200019N0020001N1+02311+02031101981ADDAA106000021GA1001+999999999GF100991001001999999001001KA1240M+02861MA1999999101931MD1999999+0151REMSYN082AAXX  08004 83498 32995 00503 10231 20203 30193 40198 333 10286 29079 55088 58015;
0162834980999992002100812004-17730-039250FM-12+000399999V0200501N004110075019N0020001N1+02801+02031102051ADDGF107991071021008001001001KA1240N+02221MA1999999102001MD1999999+0061REMSYN082AAXX  08124 83498 22595 70508 10280 20203 30200 40205 87200 333 20222 58006 69924;
0167834980999992002100818004-17730-039250FM-12+000399999V0200501N004612200019N0020001N1+02801+02031101681ADDAA106000091GF104991041011008001001001MA1999999101631MD1999999-0111REMSYN070AAXX  08184 83498 32595 40509 10280 20203 30163 40168 84100 333 59011;EQDQ01  00002PRCP06
0208834980999992002100900004-17730-039250FM-12+000399999V0200501N002112200019N0020001N1+02321+02051101801ADDAA106000091GA1001+999999999GF100991001001999999001001KA1240M+02911MA1999999101751MD1999999-0181REMSYN082AAXX  09004 83498 32995 00504 10232 20205 30175 40180 333 10291 29074 55100 59018;EQDQ01  00002PRCP06
0186834980999992002100912004-17730-039250FM-12+000399999V0200501N003110075019N0020001N1+02601+02031101891ADDAA106000091GF105991051021008001001001KA1240N+02001MA1999999101841MD1999999-0161REMSYN076AAXX  09124 83498 32595 50506 10260 20203 30184 40189 85200 333 20200 59016;EQDQ01  00002PRCP06
0167834980999992002100918004-17730-039250FM-12+000399999V0200501N003112200019N0020001N1+02781+02111101571ADDAA106000091GF103991031011008001001001MA1999999101521MD1999999-0111REMSYN070AAXX  09184 83498 32595 30506 10278 20211 30152 40157 83100 333 59011;EQDQ01  00002PRCP06
0208834980999992002101000004-17730-039250FM-12+000399999V0200501N001512200019N0020001N1+02281+01961101841ADDAA106000091GA1001+999999999GF100991001001999999001001KA1240M+02901MA1999999101791MD1999999+0041REMSYN082AAXX  10004 83498 32995 00503 10228 20196 30179 40184 333 10290 29075 55090 58004;EQDQ01  00002PRCP06
0190834980999992002101012004-17730-039250FM-12+000399999V0202701N001010075019N0020001N1+02571+02021101891ADDAY161061AY221061GF106991051021008001031011KA1240N+02001MA1999999101841MD1999999+0001MW1521REMSYN088AAXX  10124 83498 21595 62702 10257 20202 30184 40189 75262 85231 333 20200 58000 69914;
0148834980999992002101018004-17730-039250FM-12+000399999V0200501N005112200019N0020001N1+02671+02111101511ADDAA106000021GF104991041021008001001001MA1999999101461MD1999999-0061REMSYN070AAXX  10184 83498 32595 40510 10267 20211 30146 40151 84200 333 59006;
0198834980999992002101100004-17730-039250FM-12+000399999V0200501N001510450019N0020001N1+02381+02091101761ADDAA106000091GF105991021011008001031001KA1240M+02901MA1999999101711MD1999999-0081REMSYN088AAXX  11004 83498 32595 50503 10238 20209 30171 40176 82130 333 10290 29078 55079 59008;EQDQ01  00002PRCP06
0190834980999992002101112004-17730-039250FM-12+000399999V0200501N005110120019N0020001N1+02681+02091101901ADDAY161061AY221061GF107991071081008001001001KA1240N+02201MA1999999101851MD1999999+0011MW1621REMSYN088AAXX  11124 83498 21595 70510 10268 20209 30185 40190 76262 87800 333 20220 58001 60034;
0198834980999992002101200004-17730-039250FM-12+000399999V0200501N003612200019N0020001N1+02401+02031101781ADDAA106000091GF101991001001999999001051KA1240M+02771MA1999999101731MD1999999+0021REMSYN088AAXX  12004 83498 32995 10507 10240 20203 30173 40178 80005 333 10277 29076 55019 58002;EQDQ01  00002PRCP06
0162834980999992002101212004-17730-039250FM-12+000399999V0200501N004111050019N0020001N1+02721+01651101931ADDGF107991021011008001001021KA1240N+02021MA1999999101881MD1999999+0031REMSYN082AAXX  12124 83498 22595 70508 10272 20165 30188 40193 82102 333 20202 58003 60024;
0167834980999992002101218004-17730-039250FM-12+000399999V0200501N003112200019N0020001N1+02701+01861101671ADDAA106000091GF103991011011008001001051MA1999999101621MD1999999+0001REMSYN070AAXX  12184 83498 32595 30506 10270 20186 30162 40167 81105 333 58000;EQDQ01  00002PRCP06
0186834980999992002101312004-17730-039250FM-12+000399999V0200501N004112200019N0020001N1+02711+01961101901ADDAA106000091GF104991041021008001001001KA1240N+01971MA1999999101861MD1999999-0031REMSYN076AAXX  13124 83498 32595 40508 10271 20196 30186 40190 84200 333 20197 59003;EQDQ01  00002PRCP06
0167834980999992002101318004-17730-039250FM-12+000399999V0200501N005712200019N0020001N1+02751+01731101601ADDAA106000091GF104991021011008001001021MA1999999101551MD1999999-0071REMSYN070AAXX  13184 83498 32595 40511 10275 20173 30155 40160 82102 333 59007;EQDQ01  00002PRCP06
0198834980999992002101400004-17730-039250FM-12+000399999V0200501N001512200019N0020001N1+02221+01841101861ADDAA106000091GF102991001001999999001021KA1240M+02861MA1999999101811MD1999999+0061REMSYN088AAXX  14004 83498 32995 20503 10222 20184 30181 40186 80002 333 10286 29068 55096 58006;EQDQ01  00002PRCP06
0186834980999992002101412004-17730-039250FM-12+000399999V0200501N003112200019N0020001N1+02691+01781101931ADDAA106000091GF104991031021008001001021KA1240N+01981MA1999999101881MD1999999+0031REMSYN076AAXX  14124 83498 32595 40506 10269 20178 30188 40193 83202 333 20198 58003;EQDQ01  00002PRCP06
0167834980999992002101418004-17730-039250FM-12+000399999V0200501N002612200019N0020001N1+02831+01801101581ADDAA106000091GF103991011011008001001021MA1999999101531MD1999999-0021REMSYN070AAXX  14184 83498 32595 30505 10283 20180 30153 40158 81102 333 59002;EQDQ01  00002PRCP06
0198834980999992002101500004-17730-039250FM-12+000399999V0200901N001510120019N0020001N1+02341+02051101871ADDAA106000091GF106991061081008001001001KA1240M+02961MA1999999101821MD1999999+0011REMSYN088AAXX  15004 83498 32595 60903 10234 20205 30182 40187 86800 333 10296 29070 55101 58001;EQDQ01  00002PRCP06
0186834980999992002101512004-17730-039250FM-12+000399999V0200501N004112200019N0020001N1+02751+01891101951ADDAA106000091GF104991021021008001041001KA1240N+02101MA1999999101901MD1999999+0021REMSYN076AAXX  15124 83498 32595 40508 10275 20189 30190 40195 82240 333 20210 58002;EQDQ01  00002PRCP06
0167834980999992002101518004-17730-039250FM-12+000399999V0200501N003112200019N0020001N1+02711+01911101601ADDAA106000091GF102991021011008001001001MA1999999101551MD1999999+0021REMSYN070AAXX  15184 83498 32595 20506 10271 20191 30155 40160 82100 333 58002;EQDQ01  00002PRCP06
0208834980999992002101600004-17730-039250FM-12+000399999V0200501N001512200019N0020001N1+02181+01881101811ADDAA106000091GA1001+999999999GF100991001001999999001001KA1240M+02861MA1999999101761MD1999999-0061REMSYN082AAXX  16004 83498 32995 00503 10218 20188 30176 40181 333 10286 29072 55082 59006;EQDQ01  00002PRCP06
0186834980999992002101612004-17730-039250FM-12+000399999V0200501N004110075019N0020001N1+02681+01991101851ADDAA106000091GF107991071021008001001001KA1240N+01841MA1999999101801MD1999999-0101REMSYN076AAXX  16124 83498 32595 70508 10268 20199 30180 40185 87200 333 20184 59010;EQDQ01  00002PRCP06
0167834980999992002101618004-17730-039250FM-12+000399999V0200501N004110075019N0020001N1+02781+01961101551ADDAA106000091GF106991051021008001001051MA1999999101501MD1999999-0051REMSYN070AAXX  16184 83498 32595 60508 10278 20196 30150 40155 85205 333 59005;EQDQ01  00002PRCP06
0198834980999992002101700004-17730-039250FM-12+000399999V0200501N002612200019N0020001N1+02401+02031101721ADDAA106000091GF104991041021008001001001KA1240M+02941MA1999999101671MD1999999-0091REMSYN088AAXX  17004 83498 32595 40505 10240 20203 30167 40172 84200 333 10294 29072 55102 59009;EQDQ01  00002PRCP06
0186834980999992002101712004-17730-039250FM-12+000399999V0203601N004110450019N0020001N1+02621+01861101651ADDAA106000091GF106991041021008001041001KA1240N+02021MA1999999101601MD1999999-0201REMSYN076AAXX  17124 83498 32595 63608 10262 20186 30160 40165 84240 333 20202 59020;EQDQ01  00002PRCP06
0167834980999992002101718004-17730-039250FM-12+000399999V0200501N007212200019N0020001N1+02761+02121101281ADDAA106000091GF104991021011008001001051MA1999999101231MD1999999-0271REMSYN070AAXX  17184 83498 32595 40514 10276 20212 30123 40128 82105 333 59027;EQDQ01  00002PRCP06
0198834980999992002101800004-17730-039250FM-12+000399999V0200501N004112200019N0020001N1+02441+02151101561ADDAA106000091GF102991001001999999001051KA1240M+02921MA1999999101511MD1999999-0161REMSYN088AAXX  18004 83498 32995 20508 10244 20215 30151 40156 80005 333 10292 29075 55094 59016;EQDQ01  00002PRCP06
0186834980999992002101812004-17730-039250FM-12+000399999V0200501N002110075019N0020001N1+02581+02121101771ADDAA106000091GF106991061051008001001001KA1240N+02241MA1999999101721MD1999999+0121REMSYN076AAXX  18124 83498 32595 60504 10258 20212 30172 40177 86500 333 20224 58012;EQDQ01  00002PRCP06
0167834980999992002101818004-17730-039250FM-12+000399999V0200901N003612200019N0020001N1+02731+01951101541ADDAA106000091GF103991011011008001001011MA1999999101491MD1999999+0261REMSYN070AAXX  18184 83498 32595 30907 10273 20195 30149 40154 81101 333 58026;EQDQ01  00002PRCP06
0214834980999992002101900004-17730-039250FM-12+000399999V0200901N002112200019N0020001N1+02341+01981101801ADDAA106000091GF104991999011008001001001KA1240M+02901MA1999999101751MD1999999+0241REMSYN088AAXX  19004 83498 32595 40904 10234 20198 30175 40180 83100 333 10290 29075 55063 58024;EQDQ01+000032SCOTLCQ02  00002PRCP06
0190834980999992002101912004-17730-039250FM-12+000399999V0200901N003110450019N0020001N1+02281+02111102011ADDAY161061AY261061GF108991041071008001021999KA1240N+02171MA1999999101961MD1999999-0241MW1631REMSYN088AAXX  19124 83498 21595 80906 10228 20211 30196 40201 76366 8472/ 333 20217 59024 60124;
0171834980999992002101918004-17730-039250FM-12+000399999V0200501N003110450019N0020001N1+02561+02081101681ADDAY161061AY221061GF106991031051008001051001MA1999999101631MD1999999+0141MW1211REMSYN082AAXX  19184 83498 21595 60506 10256 20208 30163 40168 72162 83550 333 58014 60021;
0189834980999992002102000004-17730-039250FM-12+000399999V0200501N001512200019N0020001N1+02311+01921101811ADDAA106000021GA1001+999999999GF100991001001999999001001KA1240M+02621MA1999999101761MD1999999+0011REMSYN082AAXX  20004 83498 32995 00503 10231 20192 30176 40181 333 10262 29081 55001 58001;
0190834980999992002102012004-17730-039250FM-12+000399999V0200901N002610120019N0020001N1+02541+02001101871ADDAY161061AY221061GF107991051081008001051051KA1240N+02151MA1999999101821MD1999999-0141MW1211REMSYN088AAXX  20124 83498 21595 70905 10254 20200 30182 40187 72162 85855 333 20215 59014 60034;
0148834980999992002102018004-17730-039250FM-12+000399999V0200501N005110075019N0020001N1+02701+01911101501ADDAA106000021GF107991071021008001001001MA1999999101451MD1999999-0181REMSYN070AAXX  20184 83498 32595 70510 10270 20191 30145 40150 87200 333 59018;
0198834980999992002102100004-17730-039250FM-12+000399999V0200501N001012200019N0020001N1+02241+01921101661ADDAA106000091GF102991001001999999001051KA1240M+02831MA1999999101611MD1999999-0151REMSYN088AAXX  21004 83498 32995 20502 10224 20192 30161 40166 80005 333 10283 29075 55045 59015;EQDQ01  00002PRCP06
0186834980999992002102112004-17730-039250FM-12+000399999V0203601N004110075019N0020001N1+02681+01971101801ADDAA106000091GF105991051021008001001001KA1240N+01961MA1999999101751MD1999999-0071REMSYN076AAXX  21124 83498 32595 53608 10268 20197 30175 40180 85200 333 20196 59007;EQDQ01  00002PRCP06
0167834980999992002102118004-17730-039250FM-12+000399999V0200501N005112200019N0020001N1+02771+01971101421ADDAA106000091GF102991001001999999001051MA1999999101371MD1999999-0081REMSYN070AAXX  21184 83498 32995 20510 10277 20197 30137 40142 80005 333 59008;EQDQ01  00002PRCP06
0162834980999992002102200004-17730-039250FM-12+000399999V0200501N003112200019N0020001N1+02381+02071999999ADDAA106000091GA1001+999999999GF100991001001999999001001REMSYN078AAXX  22004 83498 32995 00506 10238 20207 10288 29073 30142 40147 55106 59019;EQDQ01  00002PRCP06
0186834980999992002102212004-17730-039250FM-12+000399999V0203601N004611050019N0020001N1+02711+01631101671ADDAA106000091GF105991031011008001001051KA1240N+02191MA1999999101621MD1999999-0131REMSYN076AAXX  22124 83498 32595 53609 10271 20163 30162 40167 83105 333 20219 59013;EQDQ01  00002PRCP06
0183834980999992002102218004-17730-039250FM-12+000399999V0200501N006212200019N0020001N1+02821+02021101401ADDAA106000091GF102991001001999999001081MA1999999101351MD1999999-0021REMSYN070AAXX  22184 83498 32595 20512 10282 20202 30135 40140 80008 333 59002;EQDQ01+008002SCOLCBQ02  00002PRCP06
0208834980999992002102300004-17730-039250FM-12+000399999V0200501N002112200019N0020001N1+02361+02191101701ADDAA106000091GA1001+999999999GF100991001001999999001001KA1240M+02961MA1999999101651MD1999999+0231REMSYN082AAXX  23004 83498 32995 00504 10236 20219 30165 40170 333 10296 29074 55111 58023;EQDQ01  00002PRCP06
0186834980999992002102312004-17730-039250FM-12+000399999V0202701N001510450019N0020001N1+02651+02181101841ADDAA106000091GF106991041051008001041001KA1240N+02071MA1999999101791MD1999999+0171REMSYN076AAXX  23124 83498 32595 62703 10265 20218 30179 40184 84540 333 20207 58017;EQDQ01  00002PRCP06
0167834980999992002102318004-17730-039250FM-12+000399999V0201801N005110450019N0020001N1+02531+02251101611ADDAA106000091GF107991041051008001041001MA1999999101561MD1999999+0211REMSYN070AAXX  23184 83498 32595 71810 10253 20225 30156 40161 84540 333 58021;EQDQ01  00002PRCP06
0198834980999992002102400004-17730-039250FM-12+000399999V0201401N003110450019N0020001N1+02481+02191101841ADDAA106000091GF106991041061008001011001KA1240M+02861MA1999999101791MD1999999+0141REMSYN088AAXX  24004 83498 32595 61406 10248 20219 30179 40184 84610 333 10286 29082 55066 58014;EQDQ01  00002PRCP06
0190834980999992002102412004-17730-039250FM-12+000399999V0201801N005110120019N0020001N1+02541+02171101851ADDAY161061AY221061GF108991071081008001001091KA1240N+02221MA1999999101801MD1999999+0011MW1211REMSYN088AAXX  24124 83498 21595 81810 10254 20217 30180 40185 72162 87809 333 20222 58001 60074;
0156834980999992002102418004-17730-039250FM-12+000399999V0201801N007210120019N0020001N1+02601+02141101551ADDAY161061AY221061GF107991051081008001031011MA1999999101501MW1211REMSYN081AAXX  24184 83498 21595 71814 10260 20214 30150 40155 72162 85831 33 59006 69971;
0190834980999992002102512004-17730-039250FM-12+000399999V0201401N003110450019N0020001N1+02621+02251101531ADDAY161061AY221061GF106991041061008001011001KA1240N+02241MA1999999101481MD1999999-0321MW1211REMSYN088AAXX  25124 83498 21595 61406 10262 20225 30148 40153 72162 84610 333 20224 59032 60114;
0171834980999992002102518004-17730-039250FM-12+000399999V0201401N001010450019N0020001N1+02961+02251101291ADDAY161061AY221061GF106991041051008001041001MA1999999101241MD1999999-0261MW1211REMSYN082AAXX  25184 83498 21595 61402 10296 20225 30124 40129 72162 84540 333 59026 69981;
0167834980999992002102618004-17730-039250FM-12+000399999V0200501N005711050019N0020001N1+02791+02111101191ADDAA106000091GF105991031021008001001021MA1999999101141MD1999999-0101REMSYN070AAXX  26184 83498 32595 50511 10279 20211 30114 40119 83202 333 59010;EQDQ01  00002PRCP06
0198834980999992002102700004-17730-039250FM-12+000399999V0200501N005112200019N0020001N1+02501+02111101361ADDAA106000091GF104991021021008001001081KA1240M+02941MA1999999101311MD1999999-0061REMSYN088AAXX  27004 83498 32595 40510 10250 20211 30131 40136 82208 333 10294 29072 55093 59006;EQDQ01  00002PRCP06
0186834980999992002102712004-17730-039250FM-12+000399999V0203601N006210450019N0020001N1+02771+02041101401ADDAA106000091GF106991041051008001041001KA1240N+02431MA1999999101351MD1999999-0111REMSYN076AAXX  27124 83498 32595 63612 10277 20204 30135 40140 84540 333 20243 59011;EQDQ01  00002PRCP06
0167834980999992002102718004-17730-039250FM-12+000399999V0200501N006212200019N0020001N1+02831+01971101191ADDAA106000091GF102991001001999999001051MA1999999101141MD1999999+0001REMSYN070AAXX  27184 83498 32995 20512 10283 20197 30114 40119 80005 333 58000;EQDQ01  00002PRCP06
0208834980999992002102800004-17730-039250FM-12+000399999V0200501N003112200019N0020001N1+02451+02211101331ADDAA106000091GA1001+999999999GF100991001001999999001001KA1240M+02961MA1999999101281MD1999999-0031REMSYN082AAXX  28004 83498 32995 00506 10245 20221 30128 40133 333 10296 29075 55087 59003;EQDQ01  00002PRCP06
0186834980999992002102812004-17730-039250FM-12+000399999V0200501N004110075019N0020001N1+02821+02101101501ADDAA106000091GF106991061021008001001001KA1240N+02321MA1999999101451MD1999999+0101REMSYN076AAXX  28124 83498 32595 60508 10282 20210 30145 40150 86200 333 20232 58010;EQDQ01  00002PRCP06
0167834980999992002102818004-17730-039250FM-12+000399999V0200501N005112200019N0020001N1+02821+02171101201ADDAA106000091GF102991021011008001001001MA1999999101151MD1999999+0011REMSYN070AAXX  28184 83498 32595 20510 10282 20217 30115 40120 82100 333 58001;EQDQ01  00002PRCP06
0198834980999992002102900004-17730-039250FM-12+000399999V0200501N003112200019N0020001N1+02481+02271101321ADDAA106000091GF101991011011008001001001KA1240M+02951MA1999999101271MD1999999-0011REMSYN088AAXX  29004 83498 32595 10506 10248 20227 30127 40132 81100 333 10295 29077 55103 59001;EQDQ01  00002PRCP06
0186834980999992002102912004-17730-039250FM-12+000399999V0200501N005710450019N0020001N1+02811+02201101441ADDAA106000091GF106991041021008001031001KA1240N+02431MA1999999101391MD1999999-0061REMSYN076AAXX  29124 83498 32595 60511 10281 20220 30139 40144 84230 333 20243 59006;EQDQ01  00002PRCP06
0167834980999992002102918004-17730-039250FM-12+000399999V0200501N006212200019N0020001N1+02861+02231101061ADDAA106000091GF102991021011008001001001MA1999999101011MD1999999-0141REMSYN070AAXX  29184 83498 32595 20512 10286 20223 30101 40106 82100 333 59014;EQDQ01  00002PRCP06
0198834980999992002103000004-17730-039250FM-12+000399999V0200501N007212200019N0020001N1+02531+02211101261ADDAA106000091GF103991031021008001001001KA1240M+02981MA1999999101211MD1999999-0061REMSYN088AAXX  30004 83498 32595 30514 10253 20221 30121 40126 83200 333 10298 29076 55109 59006;EQDQ01  00002PRCP06
0190834980999992002103012004-17730-039250FM-12+000399999V0200501N005110120019N0020001N1+02541+02251101321ADDAY161061AY261061GF107991051081008001001021KA1240N+02331MA1999999101271MD1999999-0121MW1631REMSYN088AAXX  30124 83498 21595 70510 10254 20225 30127 40132 76366 85802 333 20233 59012 60024;
0148834980999992002103018004-17730-039250FM-12+000399999V0200501N007211050019N0020001N1+02801+02221100981ADDAA106000021GF107991021011008001001021MA1999999100931MD1999999-0081REMSYN070AAXX  30184 83498 32595 70514 10280 20222 30093 40098 82102 333 59008;
0198834980999992002103100004-17730-039250FM-12+000399999V0200501N005112200019N0020001N1+02551+02271101191ADDAA106000091GF105991021011008001001081KA1240M+02941MA1999999101141MD1999999-0071REMSYN088AAXX  31004 83498 32595 50510 10255 20227 30114 40119 82108 333 10294 29081 55080 59007;EQDQ01  00002PRCP06
0190834980999992002103112004-17730-039250FM-12+000399999V0200501N004110450019N0020001N1+02591+02311101211ADDAY161061AY221061GF106991031051008001011001KA1240N+02411MA1999999101161MD1999999-0111MW1211REMSYN088AAXX  31124 83498 21595 60508 10259 20231 30116 40121 72162 83510 333 20241 59011 60014;
0148834980999992002103118004-17730-039250FM-12+000399999V0203601N007212200019N0020001N1+02811+02311100741ADDAA106000021GF103991001001999999001081MA1999999100691MD1999999-0241REMSYN070AAXX  31184 83498 32995 33614 10281 20231 30069 40074 80008 333 59024;
0198834980999992002110100004-17730-039250FM-12+000399999V0203601N006210450019N0020001N1+02571+02311101071ADDAA106000091GF108991031011008001021999KA1240M+03001MA1999999101021MD1999999-0121REMSYN088AAXX  01004 83498 32595 83612 10257 20231 30102 40107 8312/ 333 10300 29083 55046 59012;EQDQ01  00002PRCP06
0190834980999992002110112004-17730-039250FM-12+000399999V0203601N002610075019N0020001N1+02501+02361101191ADDAY161061AY261061GF108991051061008001021999KA1240N+02391MA1999999101141MD1999999-0021MW1621REMSYN088AAXX  01124 83498 21595 83605 10250 20236 30114 40119 76266 8562/ 333 20239 59002 60124;
0184834980999992002110118004-17730-039250FM-12+000399999V0201801N002610450019N0020001N1+02621+02411101001ADDAY161061AY261061GF107991041061008001021001MA1999999100951MD1999999+0261REMSYN082AAXX  01184 83498 21595 71805 10262 20241 30095 40100 76766 84620 333 58026 60111;EQDQ01+000672PRSWM1
0215834980999992002110200004-17730-039250FM-12+000399999V0200901N002110450019N0020001N1+02371+02291101261ADDAY161061AY261061GF108991041061008001021999KA1240M+02641MA1999999101211MD1999999+0191REMSYN100AAXX  02004 83498 21595 80904 10237 20229 30121 40126 76666 8462/ 333 10264 29093 55000 58019 60111;EQDQ01+000662PRSWM1
0190834980999992002110212004-17730-039250FM-12+000399999V0201801N003110450019N0020001N1+02481+02321101291ADDAY161061AY221061GF108991031071008001021999KA1240N+02331MA1999999101241MD1999999+0101MW1211REMSYN088AAXX  02124 83498 21595 81806 10248 20232 30124 40129 72162 8372/ 333 20233 58010 60394;
0148834980999992002110218004-17730-039250FM-12+000399999V0201801N005110450019N0020001N1+02511+02211101161ADDAA106000021GF108991041061008001021999MA1999999101111MD1999999+0161REMSYN070AAXX  02184 83498 32595 81810 10251 20221 30111 40116 8462/ 333 58016;
0198834980999992002110300004-17730-039250FM-12+000399999V0201401N003110450019N0020001N1+02481+02211101361ADDAA106000091GF106991041061008001011001KA1240M+02641MA1999999101311MD1999999+0101REMSYN088AAXX  03004 83498 32595 61406 10248 20221 30131 40136 84610 333 10264 29086 55000 58010;EQDQ01  00002PRCP06
0190834980999992002110312004-17730-039250FM-12+000399999V0201401N003610450019N0020001N1+02631+02121101391ADDAY161061AY261061GF105991041021008001021001KA1240N+02321MA1999999101341MD1999999+0101MW1211REMSYN088AAXX  03124 83498 21595 51407 10263 20212 30134 40139 72166 84220 333 20232 58010 69924;
0148834980999992002110318004-17730-039250FM-12+000399999V0201401N003612200019N0020001N1+02621+02121101131ADDAA106000021GF105991041021008001001081MA1999999101081MD1999999-0031REMSYN070AAXX  03184 83498 32595 51407 10262 20212 30108 40113 84208 333 59003;
0198834980999992002110400004-17730-039250FM-12+000399999V0200901N001012200019N0020001N1+02281+02141101381ADDAA106000091GF104991001001999999001081KA1240M+02781MA1999999101331MD1999999+0021REMSYN088AAXX  04004 83498 32995 40902 10228 20214 30133 40138 80008 333 10278 29083 55095 58002;EQDQ01  00002PRCP06
0186834980999992002110412004-17730-039250FM-12+000399999V0203601N001010450019N0020001N1+02651+02311101331ADDAA106000091GF106991031051008001041001KA1240N+02191MA1999999101281MD1999999-0061REMSYN076AAXX  04124 83498 32595 63602 10265 20231 30128 40133 83540 333 20219 59006;EQDQ01  00002PRCP06
0167834980999992002110418004-17730-039250FM-12+000399999V0200501N005112200019N0020001N1+02771+02341101111ADDAA106000091GF105991031021008001001081MA1999999101061MD1999999-0021REMSYN070AAXX  04184 83498 32595 50510 10277 20234 30106 40111 83208 333 59002;EQDQ01  00002PRCP06
0198834980999992002110500004-17730-039250FM-12+000399999V0203601N004112200019N0020001N1+02531+02311101231ADDAA106000091GF102991021011008001001001KA1240M+03051MA1999999101181MD1999999-0151REMSYN088AAXX  05004 83498 32595 23608 10253 20231 30118 40123 82100 333 10305 29084 55080 59015;EQDQ01  00002PRCP06
0186834980999992002110512004-17730-039250FM-12+000399999V0203601N004110120019N0020001N1+02741+02301101371ADDAA106000091GF108991071081008001001071KA1240N+02371MA1999999101321MD1999999+0041REMSYN076AAXX  05124 83498 32595 83608 10274 20230 30132 40137 87807 333 20237 58004;EQDQ01  00002PRCP06
0167834980999992002110518004-17730-039250FM-12+000399999V0200501N005111050019N0020001N1+02741+02301101051ADDAA106000091GF107991011011008001001081MA1999999101001MD1999999-0061REMSYN070AAXX  05184 83498 32595 70510 10274 20230 30100 40105 81108 333 59006;EQDQ01  00002PRCP06
0198834980999992002110600004-17730-039250FM-12+000399999V0200501N003612200019N0020001N1+02521+02361101241ADDAA106000091GF102991011011008001031001KA1240M+02901MA1999999101191MD1999999+0011REMSYN088AAXX  06004 83498 32595 20507 10252 20236 30119 40124 81130 333 10290 29084 55011 58001;EQDQ01  00002PRCP06
0190834980999992002110612004-17730-039250FM-12+000399999V0203601N003610075019N0020001N1+02591+02331101521ADDAY161061AY221061GF108991051061008001021999KA1240N+02481MA1999999101471MD1999999+0151MW1211REMSYN088AAXX  06124 83498 21595 83607 10259 20233 30147 40152 72162 8562/ 333 20248 58015 60014;
0171834980999992002110618004-17730-039250FM-12+000399999V0202301N003610075019N0020001N1+02441+02151101521ADDAY161061AY221061GF108991051051008001021999MA1999999101471MD1999999+0471MW1211REMSYN082AAXX  06184 83498 21595 82307 10244 20215 30147 40152 72162 8552/ 333 58047 60111;
0202834980999992002110700004-17730-039250FM-12+000399999V0201401N005110450019N0020001N1+02461+02151101721ADDAY161061AY221061GF108991041061008001021999KA1240M+02651MA1999999101671MD1999999+0481MW1211REMSYN100AAXX  07004 83498 21595 81410 10246 20215 30167 40172 72162 8462/ 333 10265 29084 55000 58048 60021;
0190834980999992002110712004-17730-039250FM-12+000399999V0202701N003110075019N0020001N1+02001+01931101911ADDAY161061AY261061GF108991051071008001021999KA1240N+01981MA1999999101861MD1999999+0291MW1211REMSYN088AAXX  07124 83498 21595 82706 10200 20193 30186 40191 72166 8572/ 333 20198 58029 60564;
0171834980999992002110718004-17730-039250FM-12+000399999V0202301N004110450019N0020001N1+02061+02011101741ADDAY161061AY261061GF108991041071008001021999MA1999999101691MD1999999+0221MW1211REMSYN082AAXX  07184 83498 21595 82308 10206 20201 30169 40174 72166 8472/ 333 58022 60071;
0202834980999992002110800004-17730-039250FM-12+000399999V0201801N006210075019N0020001N1+02191+01861101891ADDAY161061AY261061GF108991051071008001021999KA1240M+02481MA1999999101841MD1999999+0171MW1211REMSYN100AAXX  08004 83498 21595 81812 10219 20186 30184 40189 72166 8572/ 333 10248 29089 55000 58017 60021;
0190834980999992002110812004-17730-039250FM-12+000399999V0202301N004110450019N0020001N1+02111+02001101981ADDAY161061AY221061GF108991031071008001021999KA1240N+01871MA1999999101931MD1999999+0071MW1211REMSYN088AAXX  08124 83498 21595 82308 10211 20200 30193 40198 72162 8372/ 333 20187 58007 60124;
0148834980999992002110818004-17730-039250FM-12+000399999V0201801N005110450019N0020001N1+02421+01771101731ADDAA106000021GF108991041051008001021999MA1999999101681MD1999999-0011REMSYN070AAXX  08184 83498 32595 81810 10242 20177 30168 40173 8452/ 333 59001;
0198834980999992002110900004-17730-039250FM-12+000399999V0201401N001510075019N0020001N1+02361+01831101891ADDAA106000091GF108991051051008001021999KA1240M+02461MA1999999101841MD1999999+0001REMSYN088AAXX  09004 83498 32595 81403 10236 20183 30184 40189 8552/ 333 10246 29076 55001 58000;EQDQ01  00002PRCP06
0186834980999992002110912004-17730-039250FM-12+000399999V0201801N002610120019N0020001N1+02481+01921102001ADDAA106000091GF107991051081008001071021KA1240N+02091MA1999999101951MD1999999+0021REMSYN076AAXX  09124 83498 32595 71805 10248 20192 30195 40200 85872 333 20209 58002;EQDQ01  00002PRCP06
0167834980999992002110918004-17730-039250FM-12+000399999V0201401N002110450019N0020001N1+02441+01791101731ADDAA106000091GF108991011011008001021999MA1999999101681MD1999999+0001REMSYN070AAXX  09184 83498 32595 81404 10244 20179 30168 40173 8112/ 333 58000;EQDQ01  00002PRCP06
0198834980999992002111000004-17730-039250FM-12+000399999V0200901N001510450019N0020001N1+02341+01741101831ADDAA106000091GF108991031011008001021999KA1240M+02591MA1999999101781MD1999999-0061REMSYN088AAXX  10004 83498 32595 80903 10234 20174 30178 40183 8312/ 333 10259 29069 55003 59006;EQDQ01  00002PRCP06
0186834980999992002111012004-17730-039250FM-12+000399999V0200501N001510450019N0020001N1+02601+02331101791ADDAA106000091GF107991041021008001011001KA1240N+01981MA1999999101741MD1999999-0211REMSYN076AAXX  10124 83498 32595 70503 10260 20233 30174 40179 84210 333 20198 59021;EQDQ01  00002PRCP06
0167834980999992002111018004-17730-039250FM-12+000399999V0200501N002610450019N0020001N1+02681+02091101461ADDAA106000091GF106991031011008001051001MA1999999101411MD1999999-0271REMSYN070AAXX  10184 83498 32595 60505 10268 20209 30141 40146 83150 333 59027;EQDQ01  00002PRCP06
0198834980999992002111100004-17730-039250FM-12+000399999V0200501N001512200019N0020001N1+02481+02341101591ADDAA106000091GF102991021011008001001001KA1240M+02921MA1999999101541MD1999999-0241REMSYN088AAXX  11004 83498 32595 20503 10248 20234 30154 40159 82100 333 10292 29082 55084 59024;EQDQ01  00002PRCP06
0186834980999992002111112004-17730-039250FM-12+000399999V0200501N004111050019N0020001N1+02721+02121101631ADDAA106000091GF106991041021008001001021KA1240N+02361MA1999999101581MD1999999-0161REMSYN076AAXX  11124 83498 32595 60508 10272 20212 30158 40163 84202 333 20236 59016;EQDQ01  00002PRCP06
0167834980999992002111118004-17730-039250FM-12+000399999V0200501N004612200019N0020001N1+02811+02221101361ADDAA106000091GF105991021011008001001081MA1999999101311MD1999999-0101REMSYN070AAXX  11184 83498 32595 50509 10281 20222 30131 40136 82108 333 59010;EQDQ01  00002PRCP06
0198834980999992002111200004-17730-039250FM-12+000399999V0200501N002612200019N0020001N1+02501+02251101511ADDAA106000091GF101991001001999999001021KA1240M+02941MA1999999101461MD1999999-0081REMSYN088AAXX  12004 83498 32995 10505 10250 20225 30146 40151 80002 333 10294 29078 55081 59008;EQDQ01  00002PRCP06
0186834980999992002111212004-17730-039250FM-12+000399999V0200501N005112200019N0020001N1+02731+02101101851ADDAA106000091GF104991031021008001001021KA1240N+02381MA1999999101801MD1999999+0221REMSYN076AAXX  12124 83498 32595 40510 10273 20210 30180 40185 83202 333 20238 58022;EQDQ01  00002PRCP06
0167834980999992002111218004-17730-039250FM-12+000399999V0200501N005112200019N0020001N1+02861+02161101641ADDAA106000091GF103991011011008001001081MA1999999101591MD1999999+0281REMSYN070AAXX  12184 83498 32595 30510 10286 20216 30159 40164 81108 333 58028;EQDQ01  00002PRCP06
0198834980999992002111300004-17730-039250FM-12+000399999V0200501N002612200019N0020001N1+02461+02211101811ADDAA106000091GF101991011011008001001001KA1240M+02981MA1999999101761MD1999999+0301REMSYN088AAXX  13004 83498 32595 10505 10246 20221 30176 40181 81100 333 10298 29077 55110 58030;EQDQ01  00002PRCP06
0186834980999992002111312004-17730-039250FM-12+000399999V0200501N004111050019N0020001N1+02731+02151102001ADDAA106000091GF106991041021008001001021KA1240N+02171MA1999999101951MD1999999+0151REMSYN076AAXX  13124 83498 32595 60508 10273 20215 30195 40200 84202 333 20217 58015;EQDQ01  00002PRCP06
0167834980999992002111318004-17730-039250FM-12+000399999V0200501N005112200019N0020001N1+02801+02061101771ADDAA106000091GF102991021011008001001001MA1999999101721MD1999999+0131REMSYN070AAXX  13184 83498 32595 20510 10280 20206 30172 40177 82100 333 58013;EQDQ01  00002PRCP06
0198834980999992002111400004-17730-039250FM-12+000399999V0200501N001512200019N0020001N1+02501+02131101981ADDAA106000091GF103991031021008001001001KA1240M+02921MA1999999101931MD1999999+0171REMSYN088AAXX  14004 83498 32595 30503 10250 20213 30193 40198 83200 333 10292 29074 55104 58017;EQDQ01  00002PRCP06
0186834980999992002111412004-17730-039250FM-12+000399999V0200901N004112200019N0020001N1+02791+02091102041ADDAA106000091GF104991031021008001001011KA1240N+02301MA1999999101991MD1999999+0041REMSYN076AAXX  14124 83498 32595 40908 10279 20209 30199 40204 83201 333 20230 58004;EQDQ01  00002PRCP06
0167834980999992002111418004-17730-039250FM-12+000399999V0200901N003612200019N0020001N1+02781+02041101781ADDAA106000091GF102991021011008001001001MA1999999101731MD1999999+0011REMSYN070AAXX  14184 83498 32595 20907 10278 20204 30173 40178 82100 333 58001;EQDQ01  00002PRCP06
0198834980999992002111500004-17730-039250FM-12+000399999V0200501N000512200019N0020001N1+02281+02001102001ADDAA106000091GF103991031021008001001001KA1240M+02861MA1999999101951MD1999999+0021REMSYN088AAXX  15004 83498 32595 30501 10228 20200 30195 40200 83200 333 10286 29074 55091 58002;EQDQ01  00002PRCP06
0209834980999992002111512004-17730-039250FM-12+000399999V0200501N004119999999N0020001N1+02721+02031101851ADDAY161061AY221061GF106991999041008001081001KA1240N+02121MA1999999101801MD1999999-0191MW1521REMSYN088AAXX  15124 83498 21595 60508 10272 20203 30180 40185 75262 89480 333 20212 59019 69914;EQDQ01+000092SCOTLC
0148834980999992002111518004-17730-039250FM-12+000399999V0200501N005112200019N0020001N1+02771+02021101521ADDAA106000021GF105991031021008001001011MA1999999101471MD1999999-0261REMSYN070AAXX  15184 83498 32595 50510 10277 20202 30147 40152 83201 333 59026;
0198834980999992002111600004-17730-039250FM-12+000399999V0200501N002112200019N0020001N1+02401+02091101661ADDAA106000091GF103991001001999999001011KA1240M+02961MA1999999101611MD1999999-0341REMSYN088AAXX  16004 83498 32995 30504 10240 20209 30161 40166 80001 333 10296 29074 55101 59034;EQDQ01  00002PRCP06
0186834980999992002111612004-17730-039250FM-12+000399999V0203601N004112200019N0020001N1+02791+02061101681ADDAA106000091GF105991041021008001001011KA1240N+02171MA1999999101631MD1999999-0171REMSYN076AAXX  16124 83498 32595 53608 10279 20206 30163 40168 84201 333 20217 59017;EQDQ01  00002PRCP06
0183834980999992002111618004-17730-039250FM-12+000399999V0200501N005712200019N0020001N1+02811+02081101291ADDAA106000091GF102991001001999999001041MA1999999101241MD1999999-0231REMSYN070AAXX  16184 83498 32595 20511 10281 20208 30124 40129 80004 333 59023;EQDQ01+008002SCOLCBQ02  00002PRCP06
0198834980999992002111700004-17730-039250FM-12+000399999V0200501N003112200019N0020001N1+02471+02071101411ADDAA106000091GF103991001001999999001041KA1240M+02941MA1999999101361MD1999999-0251REMSYN088AAXX  17004 83498 32995 30506 10247 20207 30136 40141 80004 333 10294 29072 55101 59025;EQDQ01  00002PRCP06
0186834980999992002111712004-17730-039250FM-12+000399999V0200501N005110450019N0020001N1+02671+02021101571ADDAA106000091GF105991011011008001031001KA1240N+02191MA1999999101521MD1999999-0111REMSYN076AAXX  17124 83498 32595 50510 10267 20202 30152 40157 81130 333 20219 59011;EQDQ01  00002PRCP06
0167834980999992002111718004-17730-039250FM-12+000399999V0200501N006212200019N0020001N1+02851+01851101191ADDAA106000091GF104991011001008001031081MA1999999101141MD1999999-0101REMSYN070AAXX  17184 83498 32595 40512 10285 20185 30114 40119 81038 333 59010;EQDQ01  00002PRCP06
0198834980999992002111800004-17730-039250FM-12+000399999V0200501N004611050019N0020001N1+02491+02071101451ADDAA106000091GF106991011011008001001081KA1240M+03001MA1999999101401MD1999999+0041REMSYN088AAXX  18004 83498 32595 60509 10249 20207 30140 40145 81108 333 10300 29070 55080 58004;EQDQ01  00002PRCP06
0186834980999992002111812004-17730-039250FM-12+000399999V0203601N004110450019N0020001N1+02721+02001101591ADDAA106000091GF107991041021008001031001KA1240N+02271MA1999999101541MD1999999+0021REMSYN076AAXX  18124 83498 32595 73608 10272 20200 30154 40159 84230 333 20227 58002;EQDQ01  00002PRCP06
0198834980999992002111900004-17730-039250FM-12+000399999V0200501N005111050019N0020001N1+02521+02211101281ADDAA106000091GF106991041021008001001081KA1240M+02921MA1999999101231MD1999999-0171REMSYN088AAXX  19004 83498 32595 60510 10252 20221 30123 40128 84208 333 10292 29074 55011 59017;EQDQ01  00002PRCP06
0186834980999992002111912004-17730-039250FM-12+000399999V0200501N005710120019N0020001N1+02791+02211101441ADDAA106000091GF107991051081008001001081KA1240N+02531MA1999999101391MD1999999-0151REMSYN076AAXX  19124 83498 32595 70511 10279 20221 30139 40144 85808 333 20253 59015;EQDQ01  00002PRCP06
0183834980999992002111918004-17730-039250FM-12+000399999V0200501N005719999999N0020001N1+02861+02121101141ADDAA106000091GF100991001001999999001001MA1999999101091MD1999999-0071REMSYN070AAXX  19184 83498 32995 70511 10286 20212 30109 40114 80000 333 59007;EQDQ01+000072SCOTCVQ02  00002PRCP06
0198834980999992002112000004-17730-039250FM-12+000399999V0200501N004119999999N0020001N1+02511+02231101411ADDAA106000091GF106991001001999999001081KA1240M+02961MA1999999101361MD1999999+0131REMSYN088AAXX  20004 83498 32995 60508 10251 20223 30136 40141 80008 333 10296 29077 55040 58013;EQDQ01  00002PRCP06
0198834980999992002112100004-17730-039250FM-12+000399999V0200501N002612200019N0020001N1+02501+02231101451ADDAA106000091GF101991011011008001001001KA1240M+03001MA1999999101401MD1999999+0041REMSYN088AAXX  21004 83498 32595 10505 10250 20223 30140 40145 81100 333 10300 29075 55081 58004;EQDQ01  00002PRCP06
0186834980999992002112112004-17730-039250FM-12+000399999V0200501N006212200019N0020001N1+02881+02001101581ADDAA106000091GF105991011011008001051091KA1240N+02251MA1999999101531MD1999999+0091REMSYN076AAXX  21124 83498 32595 50512 10288 20200 30153 40158 81159 333 20225 58009;EQDQ01  00002PRCP06
0167834980999992002112118004-17730-039250FM-12+000399999V0200501N005110075019N0020001N1+02801+02151101351ADDAA106000091GF105991051021008001001001MA1999999101301MD1999999+0131REMSYN070AAXX  21184 83498 32595 50510 10280 20215 30130 40135 85200 333 58013;EQDQ01  00002PRCP06
0198834980999992002112200004-17730-039250FM-12+000399999V0200501N002112200019N0020001N1+02481+02191101451ADDAA106000091GF102991021041008001001001KA1240M+03001MA1999999101401MD1999999+0001REMSYN088AAXX  22004 83498 32595 20504 10248 20219 30140 40145 82400 333 10300 29074 55096 58000;EQDQ01  00002PRCP06
0186834980999992002112212004-17730-039250FM-12+000399999V0200501N004612200019N0020001N1+02771+02091101651ADDAA106000091GF105991031021008001001011KA1240N+02431MA1999999101601MD1999999+0071REMSYN076AAXX  22124 83498 32595 50509 10277 20209 30160 40165 83201 333 20243 58007;EQDQ01  00002PRCP06
0167834980999992002112218004-17730-039250FM-12+000399999V0200501N003112200019N0020001N1+02871+02121101471ADDAA106000091GF105991011011008001001041MA1999999101421MD1999999+0121REMSYN070AAXX  22184 83498 32595 50506 10287 20212 30142 40147 81104 333 58012;EQDQ01  00002PRCP06
0198834980999992002112300004-17730-039250FM-12+000399999V0200501N002612200019N0020001N1+02461+02171101711ADDAA106000091GF103991001001999999001041KA1240M+03001MA1999999101661MD1999999+0261REMSYN088AAXX  23004 83498 32995 30505 10246 20217 30166 40171 80004 333 10300 29075 55105 58026;EQDQ01  00002PRCP06
0186834980999992002112312004-17730-039250FM-12+000399999V0200501N003110450019N0020001N1+02811+02181101851ADDAA106000091GF107991041051008001021001KA1240N+02471MA1999999101801MD1999999+0201REMSYN076AAXX  23124 83498 32595 70506 10281 20218 30180 40185 84520 333 20247 58020;EQDQ01  00002PRCP06
0167834980999992002112318004-17730-039250FM-12+000399999V0200501N004612200019N0020001N1+02801+02251101581ADDAA106000091GF105991031021008001001041MA1999999101531MD1999999+0111REMSYN070AAXX  23184 83498 32595 50509 10280 20225 30153 40158 83204 333 58011;EQDQ01  00002PRCP06
0198834980999992002112400004-17730-039250FM-12+000399999V0200501N004612200019N0020001N1+02511+02211101641ADDAA106000091GF102991001001999999001041KA1240M+03001MA1999999101591MD1999999-0071REMSYN088AAXX  24004 83498 32995 20509 10251 20221 30159 40164 80004 333 10300 29077 55059 59007;EQDQ01  00002PRCP06
0167834980999992002112418004-17730-039250FM-12+000399999V0200501N004111050019N0020001N1+02821+02171101591ADDAA106000091GF108991011001017501031061MA1999999101541MD1999999+0011REMSYN070AAXX  24184 83498 32795 80508 10282 20217 30154 40159 81036 333 58001;EQDQ01  00002PRCP06
0198834980999992002112500004-17730-039250FM-12+000399999V0200501N002119999999N0020001N1+02521+02231101651ADDAA106000091GF107991001001999999001081KA1240M+03021MA1999999101601MD1999999+0011REMSYN088AAXX  25004 83498 32995 70504 10252 20223 30160 40165 80008 333 10302 29076 55011 58001;EQDQ01  00002PRCP06
0186834980999992002112512004-17730-039250FM-12+000399999V0200501N005110075019N0020001N1+02901+02171101801ADDAA106000091GF105991051021008001001001KA1240N+02381MA1999999101751MD1999999+0031REMSYN076AAXX  25124 83498 32595 50510 10290 20217 30175 40180 85200 333 20238 58003;EQDQ01  00002PRCP06
0167834980999992002112518004-17730-039250FM-12+000399999V0200501N005719999999N0020001N1+02941+02081101491ADDAA106000091GF107991001001999999001081MA1999999101441MD1999999-0101REMSYN070AAXX  25184 83498 32995 70511 10294 20208 30144 40149 80008 333 59010;EQDQ01  00002PRCP06
0198834980999992002112600004-17730-039250FM-12+000399999V0200501N003112200019N0020001N1+02501+02311101731ADDAA106000091GF102991011011008001001081KA1240M+03041MA1999999101681MD1999999+0081REMSYN088AAXX  26004 83498 32595 20506 10250 20231 30168 40173 81108 333 10304 29076 55105 58008;EQDQ01  00002PRCP06
0186834980999992002112612004-17730-039250FM-12+000399999V0203601N005110450019N0020001N1+02861+02031101851ADDAA106000091GF105991041021008001031001KA1240N+02301MA1999999101801MD1999999+0051REMSYN076AAXX  26124 83498 32595 53610 10286 20203 30180 40185 84230 333 20230 58005;EQDQ01  00002PRCP06
0167834980999992002112618004-17730-039250FM-12+000399999V0200501N005712200019N0020001N1+02961+02131101501ADDAA106000091GF102991021011008001001001MA1999999101451MD1999999+0011REMSYN070AAXX  26184 83498 32595 20511 10296 20213 30145 40150 82100 333 58001;EQDQ01  00002PRCP06
0208834980999992002112700004-17730-039250FM-12+000399999V0200501N003112200019N0020001N1+02471+02131101621ADDAA106000091GA1001+999999999GF100991001001999999001001KA1240M+03021MA1999999101571MD1999999-0111REMSYN082AAXX  27004 83498 32995 00506 10247 20213 30157 40162 333 10302 29072 55093 59011;EQDQ01  00002PRCP06
0186834980999992002112712004-17730-039250FM-12+000399999V0200501N004111050019N0020001N1+02851+02041101741ADDAA106000091GF105991021011008001001021KA1240N+02141MA1999999101691MD1999999-0111REMSYN076AAXX  27124 83498 32595 50508 10285 20204 30169 40174 82102 333 20214 59011;EQDQ01  00002PRCP06
0167834980999992002112718004-17730-039250FM-12+000399999V0200501N004110450019N0020001N1+02831+02021101471ADDAA106000091GF106991021041008001031021MA1999999101421MD1999999-0031REMSYN070AAXX  27184 83498 32595 60508 10283 20202 30142 40147 82432 333 59003;EQDQ01  00002PRCP06
0198834980999992002112800004-17730-039250FM-12+000399999V0200501N002112200019N0020001N1+02441+02151101551ADDAA106000091GF103991001001999999001021KA1240M+03061MA1999999101501MD1999999-0071REMSYN088AAXX  28004 83498 32995 30504 10244 20215 30150 40155 80002 333 10306 29073 55072 59007;EQDQ01  00002PRCP06
0186834980999992002112812004-17730-039250FM-12+000399999V0200501N004110075019N0020001N1+02881+02161101611ADDAA106000091GF105991051021008001001001KA1240N+02091MA1999999101561MD1999999-0131REMSYN076AAXX  28124 83498 32595 50508 10288 20216 30156 40161 85200 333 20209 59013;EQDQ01  00002PRCP06
0167834980999992002112818004-17730-039250FM-12+000399999V0200501N004612200019N0020001N1+02921+02271101351ADDAA106000091GF104991031021008001001011MA1999999101301MD1999999-0121REMSYN070AAXX  28184 83498 32595 40509 10292 20227 30130 40135 83201 333 59012;EQDQ01  00002PRCP06
0208834980999992002112900004-17730-039250FM-12+000399999V0200501N001512200019N0020001N1+02471+02251101581ADDAA106000091GA1001+999999999GF100991001001999999001001KA1240M+03071MA1999999101531MD1999999+0031REMSYN082AAXX  29004 83498 32995 00503 10247 20225 30153 40158 333 10307 29077 55110 58003;EQDQ01  00002PRCP06
0186834980999992002112912004-17730-039250FM-12+000399999V0200501N003610075019N0020001N1+02921+02121101701ADDAA106000091GF105991051021008001001001KA1240N+02221MA1999999101651MD1999999+0091REMSYN076AAXX  29124 83498 32595 50507 10292 20212 30165 40170 85200 333 20222 58009;EQDQ01  00002PRCP06
0167834980999992002112918004-17730-039250FM-12+000399999V0200501N005112200019N0020001N1+02921+02241101401ADDAA106000091GF102991011011008001001021MA1999999101351MD1999999+0051REMSYN070AAXX  29184 83498 32595 20510 10292 20224 30135 40140 81102 333 58005;EQDQ01  00002PRCP06
0198834980999992002113000004-17730-039250FM-12+000399999V0200501N002612200019N0020001N1+02521+02311101621ADDAA106000091GF102991011011008001001051KA1240M+03101MA1999999101571MD1999999+0041REMSYN088AAXX  30004 83498 32595 20505 10252 20231 30157 40162 81105 333 10310 29076 55102 58004;EQDQ01  00002PRCP06
0186834980999992002113012004-17730-039250FM-12+000399999V0200501N004112200019N0020001N1+02921+02091101781ADDAA106000091GF104991041021008001001001KA1240N+02301MA1999999101731MD1999999+0081REMSYN076AAXX  30124 83498 32595 40508 10292 20209 30173 40178 84200 333 20230 58008;EQDQ01  00002PRCP06
0167834980999992002113018004-17730-039250FM-12+000399999V0200501N005112200019N0020001N1+02961+02181101531ADDAA106000091GF102991021011008001001001MA1999999101481MD1999999+0131REMSYN070AAXX  30184 83498 32595 20510 10296 20218 30148 40153 82100 333 58013;EQDQ01  00002PRCP06
0208834980999992002120100004-17730-039250FM-12+000399999V0200501N001512200019N0020001N1+02441+02191101751ADDAA106000091GA1001+999999999GF100991001001999999001001KA1240M+03101MA1999999101701MD1999999+0131REMSYN082AAXX  01004 83498 32995 00503 10244 20219 30170 40175 333 10310 29074 55092 58013;EQDQ01  00002PRCP06
0190834980999992002120112004-17730-039250FM-12+000399999V0200501N003610075019N0020001N1+02851+02091101631ADDAY161061AY221061GF106991061021008001001001KA1240N+02291MA1999999101581MD1999999-0151MW1211REMSYN088AAXX  01124 83498 21595 60507 10285 20209 30158 40163 72162 86200 333 20229 59015 69924;
0198834980999992002120200004-17730-039250FM-12+000399999V0200501N002112200019N0020001N1+02451+02131101521ADDAA106000091GF101991011011008001001001KA1240M+03021MA1999999101471MD1999999-0231REMSYN088AAXX  02004 83498 32595 10504 10245 20213 30147 40152 81100 333 10302 29073 55108 59023;EQDQ01  00002PRCP06
0186834980999992002120212004-17730-039250FM-12+000399999V0203601N004611050019N0020001N1+02731+01981101461ADDAA106000091GF106991031021008001001021KA1240N+02221MA1999999101411MD1999999-0171REMSYN076AAXX  02124 83498 32595 63609 10273 20198 30141 40146 83202 333 20222 59017;EQDQ01  00002PRCP06
0167834980999992002120218004-17730-039250FM-12+000399999V0200501N006211050019N0020001N1+02871+02091101141ADDAA106000091GF105991021011008001001021MA1999999101091MD1999999-0151REMSYN070AAXX  02184 83498 32595 50512 10287 20209 30109 40114 82102 333 59015;EQDQ01  00002PRCP06
0208834980999992002120300004-17730-039250FM-12+000399999V0200501N002612200019N0020001N1+02481+02191101311ADDAA106000091GA1001+999999999GF100991001001999999001001KA1240M+03101MA1999999101261MD1999999-0211REMSYN082AAXX  03004 83498 32995 00505 10248 20219 30126 40131 333 10310 29074 55111 59021;EQDQ01  00002PRCP06
0186834980999992002120312004-17730-039250FM-12+000399999V0200501N002110075019N0020001N1+02901+01871101571ADDAA106000091GF105991051021008001001001KA1240N+02171MA1999999101521MD1999999+0111REMSYN076AAXX  03124 83498 32595 50504 10290 20187 30152 40157 85200 333 20217 58011;EQDQ01  00002PRCP06
0177834980999992002120318004-17730-039250FM-12+000399999V0200501N004112200019N0020001N1+03021+01831101321ADDAA106000091GA1001+999999999GF100991001001999999001001MA1999999101271MD1999999+0181REMSYN064AAXX  03184 83498 32995 00508 10302 20183 30127 40132 333 58018;EQDQ01  00002PRCP06
0208834980999992002120400004-17730-039250FM-12+000399999V0209999C000012200019N0020001N1+02401+02111101591ADDAA106000091GA1001+999999999GF100991001001999999001001KA1240M+03301MA1999999101541MD1999999+0281REMSYN082AAXX  04004 83498 32995 00000 10240 20211 30154 40159 333 10330 29068 55112 58028;EQDQ01  00002PRCP06
0186834980999992002120412004-17730-039250FM-12+000399999V0200501N001510075019N0020001N1+02741+02001101701ADDAA106000091GF105991051021008001001001KA1240N+02181MA1999999101651MD1999999+0131REMSYN076AAXX  04124 83498 32595 50503 10274 20200 30165 40170 85200 333 20218 58013;EQDQ01  00002PRCP06
0167834980999992002120418004-17730-039250FM-12+000399999V0200501N003612200019N0020001N1+03041+01851101381ADDAA106000091GF102991001001999999001021MA1999999101331MD1999999+0061REMSYN070AAXX  04184 83498 32995 20507 10304 20185 30133 40138 80002 333 58006;EQDQ01  00002PRCP06
0208834980999992002120500004-17730-039250FM-12+000399999V0200501N001512200019N0020001N1+02341+02051101571ADDAA106000091GA1001+999999999GF100991001001999999001001KA1240M+03121MA1999999101521MD1999999-0021REMSYN082AAXX  05004 83498 32995 00503 10234 20205 30152 40157 333 10312 29070 55100 59002;EQDQ01  00002PRCP06
0186834980999992002120512004-17730-039250FM-12+000399999V0200901N002610075019N0020001N1+02951+02111101561ADDAA106000091GF106991061021008001001001KA1240N+02121MA1999999101551MD1999999-0101REMSYN076AAXX  05124 83498 32595 60905 10295 20211 30155 40156 86200 333 20212 59010;EQDQ01  00002PRCP06
0167834980999992002120518004-17730-039250FM-12+000399999V0200501N004112200019N0020001N1+02971+02131101221ADDAA106000091GF103991011011008001001011MA1999999101171MD1999999-0161REMSYN070AAXX  05184 83498 32595 30508 10297 20213 30117 40122 81101 333 59016;EQDQ01  00002PRCP06
0198834980999992002120600004-17730-039250FM-12+000399999V0200501N003112200019N0020001N1+02531+02311101281ADDAA106000091GF102991021011008001001001KA1240M+03141MA1999999101231MD1999999-0291REMSYN088AAXX  06004 83498 32595 20506 10253 20231 30123 40128 82100 333 10314 29075 55108 59029;EQDQ01  00002PRCP06
0186834980999992002120612004-17730-039250FM-12+000399999V0203601N004112200019N0020001N1+02801+02221101211ADDAA106000091GF106991041021008001001011KA1240N+02361MA1999999101161MD1999999-0391REMSYN076AAXX  06124 83498 32595 63608 10280 20222 30116 40121 84201 333 20236 59039;EQDQ01  00002PRCP06
0167834980999992002120618004-17730-039250FM-12+000399999V0200501N005112200019N0020001N1+02911+02251100791ADDAA106000091GF103991001001999999001041MA1999999100741MD1999999-0431REMSYN070AAXX  06184 83498 32995 30510 10291 20225 30074 40079 80004 333 59043;EQDQ01  00002PRCP06
0198834980999992002120700004-17730-039250FM-12+000399999V0200501N005112200019N0020001N1+02591+02371100921ADDAA106000091GF102991021011008001001001KA1240M+03151MA1999999100871MD1999999-0361REMSYN088AAXX  07004 83498 32595 20510 10259 20237 30087 40092 82100 333 10315 29079 55076 59036;EQDQ01  00002PRCP06
0190834980999992002120712004-17730-039250FM-12+000399999V0203601N003610450019N0020001N1+02701+02201100921ADDAY161061AY221061GF108991011011008001021999KA1240N+02331MA1999999100871MD1999999-0291MW1211REMSYN088AAXX  07124 83498 21595 83607 10270 20220 30087 40092 72162 8112/ 333 20233 59029 69944;
0148834980999992002120718004-17730-039250FM-12+000399999V0200501N004610450019N0020001N1+03021+02241100501ADDAA106000021GF107991011031008001051091MA1999999100451MD1999999-0291REMSYN070AAXX  07184 83498 32595 70509 10302 20224 30045 40050 81359 333 59029;
0198834980999992002120800004-17730-039250FM-12+000399999V0200501N006210450019N0020001N1+02621+02211100731ADDAA106000091GF107991031031008001051091KA1240M+03071MA1999999100681MD1999999-0191REMSYN088AAXX  08004 83498 32595 70512 10262 20221 30068 40073 83359 333 10307 29073 55020 59019;EQDQ01  00002PRCP06
0190834980999992002120812004-17730-039250FM-12+000399999V0203601N003110450019N0020001N1+02601+02191100811ADDAY161061AY261061GF108991041051008001011999KA1240N+02331MA1999999100761MD1999999-0111MW1211REMSYN088AAXX  08124 83498 21595 83606 10260 20219 30076 40081 72166 8451/ 333 20233 59011 69914;
0148834980999992002120818004-17730-039250FM-12+000399999V0203601N005110450019N0020001N1+03001+02291100601ADDAA106000021GF108991031011008001051011MA1999999100551MD1999999+0101REMSYN070AAXX  08184 83498 32595 83610 10300 20229 30055 40060 83151 333 58010;
0198834980999992002120900004-17730-039250FM-12+000399999V0203601N005112200019N0020001N1+02581+02191100861ADDAA106000091GF103991031011008001001001KA1240M+03041MA1999999100811MD1999999+0131REMSYN088AAXX  09004 83498 32595 33610 10258 20219 30081 40086 83100 333 10304 29076 55015 58013;EQDQ01  00002PRCP06
0186834980999992002120912004-17730-039250FM-12+000399999V0200501N005710450019N0020001N1+02971+02421101021ADDAA106000091GF106991031021008001031081KA1240N+02581MA1999999100971MD1999999+0211REMSYN076AAXX  09124 83498 32595 60511 10297 20242 30097 40102 83238 333 20258 58021;EQDQ01  00002PRCP06
0176834980999992002120918004-17730-039250FM-12+000399999V0200501N004610450019N0020001N1+02781+02341100891ADDAA106000021AY191061AY291061GF108991041081008001091031MA1999999100841MD1999999+0291MW1951REMSYN076AAXX  09184 83498 31595 80509 10278 20234 30084 40089 79599 84893 333 58029;
0179834980999992002121000004-17730-039250FM-12+000399999V0200501N004619999999N0020001N1+02621+02411101201ADDAA106000021GF108991031001012501091031KA1240M+03251MA1999999101151MD1999999+0341REMSYN088AAXX  10004 83498 32695 80509 10262 20241 30115 40120 83093 333 10325 29082 55000 58034;
0186834980999992002121012004-17730-039250FM-12+000399999V0200501N004610450019N0020001N1+03121+02411101431ADDAA106000091GF107991011011008001031091KA1240N+02531MA1999999101381MD1999999+0411REMSYN076AAXX  10124 83498 32595 70509 10312 20241 30138 40143 81139 333 20253 58041;EQDQ01  00002PRCP06
0176834980999992002121018004-17730-039250FM-12+000399999V0200501N004610450019N0020001N1+02911+02341101321ADDAA106000021AY191061AY291061GF108991011091008001051091MA1999999101271MD1999999+0431MW1951REMSYN076AAXX  10184 83498 31595 80509 10291 20234 30127 40132 79599 81959 333 58043;
0179834980999992002121100004-17730-039250FM-12+000399999V0200501N003110450019N0020001N1+02631+02441101581ADDAA106000021GF106991031021008001051091KA1240M+03221MA1999999101531MD1999999+0381REMSYN088AAXX  11004 83498 32595 60506 10263 20244 30153 40158 83259 333 10322 29080 55000 58038;
0186834980999992002121112004-17730-039250FM-12+000399999V0200501N005110450019N0020001N1+02871+02331101741ADDAA106000091GF106991041051008001041001KA1240N+02481MA1999999101691MD1999999+0311REMSYN076AAXX  11124 83498 32595 60510 10287 20233 30169 40174 84540 333 20248 58031;EQDQ01  00002PRCP06
0167834980999992002121118004-17730-039250FM-12+000399999V0200501N005112200019N0020001N1+02871+02211101391ADDAA106000091GF105991021011008001001081MA1999999101341MD1999999+0071REMSYN070AAXX  11184 83498 32595 50510 10287 20221 30134 40139 82108 333 58007;EQDQ01  00002PRCP06
0198834980999992002121200004-17730-039250FM-12+000399999V0200501N004110450019N0020001N1+02611+02371101601ADDAA106000091GF106991021061008001051001KA1240M+03141MA1999999101551MD1999999+0021REMSYN088AAXX  12004 83498 32595 60508 10261 20237 30155 40160 82650 333 10314 29079 55000 58002;EQDQ01  00002PRCP06
0186834980999992002121212004-17730-039250FM-12+000399999V0203601N006210075019N0020001N1+02891+02251101621ADDAA106000091GF106991051021008001001081KA1240N+02431MA1999999101571MD1999999-0121REMSYN076AAXX  12124 83498 32595 63612 10289 20225 30157 40162 85208 333 20243 59012;EQDQ01  00002PRCP06
0167834980999992002121218004-17730-039250FM-12+000399999V0200501N005711050019N0020001N1+02941+02241101291ADDAA106000091GF107991011011008001001081MA1999999101241MD1999999-0101REMSYN070AAXX  12184 83498 32595 70511 10294 20224 30124 40129 81108 333 59010;EQDQ01  00002PRCP06
0198834980999992002121300004-17730-039250FM-12+000399999V0200501N003611050019N0020001N1+02591+02271101561ADDAA106000091GF108991021011008001001081KA1240M+03131MA1999999101511MD1999999-0041REMSYN088AAXX  13004 83498 32595 80507 10259 20227 30151 40156 82108 333 10313 29075 55053 59004;EQDQ01  00002PRCP06
0186834980999992002121312004-17730-039250FM-12+000399999V0200501N005710450019N0020001N1+02841+02121101631ADDAA106000091GF108991031081008001031071KA1240N+02331MA1999999101581MD1999999+0011REMSYN076AAXX  13124 83498 32595 80511 10284 20212 30158 40163 83837 333 20233 58001;EQDQ01  00002PRCP06
0167834980999992002121318004-17730-039250FM-12+000399999V0200501N009310450019N0020001N1+02841+02121101341ADDAA106000091GF107991011011008001051021MA1999999101291MD1999999+0051REMSYN070AAXX  13184 83498 32595 70518 10284 20212 30129 40134 81152 333 58005;EQDQ01  00002PRCP06
0198834980999992002121400004-17730-039250FM-12+000399999V0200501N003110150019N0020001N1+02541+02351101571ADDAA106000091GF108991071001017501051051KA1240M+03101MA1999999101521MD1999999+0011REMSYN088AAXX  14004 83498 32795 80506 10254 20235 30152 40157 87055 333 10310 29077 55014 58001;EQDQ01  00002PRCP06
0140834980999992002121412004-17730-039250FM-12+000399999V0203601N006212200019N0020001N1+02941+02161999999ADDAA106000091GF104991999999008001999999REMSYN072AAXX  14124 83498 32595 43612 10294 20216 20228 30154 40159 59004 84200;EQDQ01  00002PRCP06
0167834980999992002121418004-17730-039250FM-12+000399999V0200501N006710450019N0020001N1+02961+02211101331ADDAA106000091GF106991031011008001051011MA1999999101281MD1999999-0011REMSYN070AAXX  14184 83498 32595 60513 10296 20221 30128 40133 83151 333 59001;EQDQ01  00002PRCP06
0198834980999992002121500004-17730-039250FM-12+000399999V0200501N004112200019N0020001N1+02621+02291101521ADDAA106000091GF103991031001008001031001KA1240M+03181MA1999999101471MD1999999-0051REMSYN088AAXX  15004 83498 32595 30508 10262 20229 30147 40152 83030 333 10318 29073 55084 59005;EQDQ01  00002PRCP06
0186834980999992002121512004-17730-039250FM-12+000399999V0200501N005110120019N0020001N1+02781+02211101591ADDAA106000091GF107991051081008001051021KA1240N+02331MA1999999101541MD1999999+0001REMSYN076AAXX  15124 83498 32595 70510 10278 20221 30154 40159 85852 333 20233 58000;EQDQ01  00002PRCP06
0167834980999992002121518004-17730-039250FM-12+000399999V0200501N005711050019N0020001N1+02941+02241101331ADDAA106000091GF107991011011008001001021MA1999999101281MD1999999+0001REMSYN070AAXX  15184 83498 32595 70511 10294 20224 30128 40133 81102 333 58000;EQDQ01  00002PRCP06
0198834980999992002121600004-17730-039250FM-12+000399999V0200501N004119999999N0020001N1+02541+02291101431ADDAA106000091GF107991001001999999001091KA1240M+03101MA1999999101381MD1999999-0091REMSYN088AAXX  16004 83498 32995 70508 10254 20229 30138 40143 80009 333 10310 29077 55042 59009;EQDQ01  00002PRCP06
0186834980999992002121612004-17730-039250FM-12+000399999V0200501N005711050019N0020001N1+02871+02191101471ADDAA106000091GF106991041021008001001081KA1240N+02381MA1999999101421MD1999999-0121REMSYN076AAXX  16124 83498 32595 60511 10287 20219 30142 40147 84208 333 20238 59012;EQDQ01  00002PRCP06
0167834980999992002121618004-17730-039250FM-12+000399999V0200501N005710450019N0020001N1+02891+02301101151ADDAA106000091GF107991031021008001021081MA1999999101101MD1999999-0191REMSYN070AAXX  16184 83498 32595 70511 10289 20230 30110 40115 83228 333 59019;EQDQ01  00002PRCP06
0198834980999992002121700004-17730-039250FM-12+000399999V0200501N003119999999N0020001N1+02541+02291101321ADDAA106000091GF107991001001999999001081KA1240M+03121MA1999999101271MD1999999-0111REMSYN088AAXX  17004 83498 32995 70506 10254 20229 30127 40132 80008 333 10312 29078 55060 59011;EQDQ01  00002PRCP06
0186834980999992002121712004-17730-039250FM-12+000399999V0203601N005710450019N0020001N1+02681+02201101371ADDAA106000091GF108991031051008001021999KA1240N+02361MA1999999101321MD1999999-0101REMSYN076AAXX  17124 83498 32595 83611 10268 20220 30132 40137 8352/ 333 20236 59010;EQDQ01  00002PRCP06
0167834980999992002121718004-17730-039250FM-12+000399999V0200501N005110450019N0020001N1+02771+02191101141ADDAA106000091GF107991021011008001011081MA1999999101091MD1999999-0011REMSYN070AAXX  17184 83498 32595 70510 10277 20219 30109 40114 82118 333 59001;EQDQ01  00002PRCP06
0198834980999992002121800004-17730-039250FM-12+000399999V0200501N003119999999N0020001N1+02541+02251101381ADDAA106000091GF105991031001008001031081KA1240M+03041MA1999999101331MD1999999+0061REMSYN088AAXX  18004 83498 32595 50506 10254 20225 30133 40138 83038 333 10304 29079 55006 58006;EQDQ01  00002PRCP06
0186834980999992002121812004-17730-039250FM-12+000399999V0200501N004110450019N0020001N1+02911+02101101411ADDAA106000091GF106991031021008001031091KA1240N+02491MA1999999101361MD1999999+0041REMSYN076AAXX  18124 83498 32595 60508 10291 20210 30136 40141 83239 333 20249 58004;EQDQ01  00002PRCP06
0176834980999992002121818004-17730-039250FM-12+000399999V0200501N004110450019N0020001N1+02941+02211101121ADDAA106000021AY191061AY291061GF106991041041008001051091MA1999999101071MD1999999-0021MW1951REMSYN076AAXX  18184 83498 31595 60508 10294 20221 30107 40112 79599 84459 333 59002;
0199834980999992002121900004-17730-039250FM-12+000399999V0200901N001010075019N0020001N1+02591+02351101581ADDAA106000021AY191061GF108991081001008001021081KA1240M+03201MA1999999101531MD1999999+0201MW1001REMSYN094AAXX  19004 83498 31595 80902 10259 20235 30153 40158 7009/ 88028 333 10320 29075 55061 58020;
0190834980999992002121912004-17730-039250FM-12+000399999V0202301N001010120019N0020001N1+02541+02401101671ADDAY161061AY261061GF107991051081008001071001KA1240N+02431MA1999999101621MD1999999+0261MW1621REMSYN088AAXX  19124 83498 21595 72302 10254 20240 30162 40167 76266 85870 333 20243 58026 60054;
0148834980999992002121918004-17730-039250FM-12+000399999V0201401N002610075019N0020001N1+02941+02291101521ADDAA106000021GF105991051021008001001001MA1999999101471MD1999999+0401REMSYN070AAXX  19184 83498 32595 51405 10294 20229 30147 40152 85200 333 58040;
0198834980999992002122000004-17730-039250FM-12+000399999V0201401N002112200019N0020001N1+02581+02311101731ADDAA106000091GF101991011011008001001001KA1240M+02981MA1999999101681MD1999999+0151REMSYN088AAXX  20004 83498 32595 11404 10258 20231 30168 40173 81100 333 10298 29083 55051 58015;EQDQ01  00002PRCP06
0186834980999992002122012004-17730-039250FM-12+000399999V0203601N002612200019N0020001N1+02921+02171101791ADDAA106000091GF105991041021008001001011KA1240N+02301MA1999999101741MD1999999+0121REMSYN076AAXX  20124 83498 32595 53605 10292 20217 30174 40179 84201 333 20230 58012;EQDQ01  00002PRCP06
0167834980999992002122018004-17730-039250FM-12+000399999V0200501N004112200019N0020001N1+03021+02071101411ADDAA106000091GF102991011011008001001011MA1999999101361MD1999999-0111REMSYN070AAXX  20184 83498 32595 20508 10302 20207 30136 40141 81101 333 59011;EQDQ01  00002PRCP06
0198834980999992002122100004-17730-039250FM-12+000399999V0200501N002112200019N0020001N1+02511+02271101601ADDAA106000091GF101991011011008001001001KA1240M+03181MA1999999101551MD1999999-0131REMSYN088AAXX  21004 83498 32595 10504 10251 20227 30155 40160 81100 333 10318 29074 55104 59013;EQDQ01  00002PRCP06
0186834980999992002122112004-17730-039250FM-12+000399999V0200501N005112200019N0020001N1+02871+02271101581ADDAA106000091GF106991021021008001001011KA1240N+02381MA1999999101531MD1999999-0211REMSYN076AAXX  21124 83498 32595 60510 10287 20227 30153 40158 82201 333 20238 59021;EQDQ01  00002PRCP06
0167834980999992002122118004-17730-039250FM-12+000399999V0200501N005112200019N0020001N1+02981+02171101201ADDAA106000091GF103991001001999999001011MA1999999101151MD1999999-0211REMSYN070AAXX  21184 83498 32995 30510 10298 20217 30115 40120 80001 333 59021;EQDQ01  00002PRCP06
0198834980999992002122200004-17730-039250FM-12+000399999V0200501N002612200019N0020001N1+02521+02311101341ADDAA106000091GF102991001001999999001011KA1240M+03121MA1999999101291MD1999999-0261REMSYN088AAXX  22004 83498 32995 20505 10252 20231 30129 40134 80001 333 10312 29077 55100 59026;EQDQ01  00002PRCP06
0198834980999992002122300004-17730-039250FM-12+000399999V0200501N000512200019N0020001N1+02481+02231101381ADDAA106000091GF102991001001999999001051KA1240M+03201MA1999999101331MD1999999+0041REMSYN088AAXX  23004 83498 32995 20501 10248 20223 30133 40138 80005 333 10320 29071 55080 58004;EQDQ01  00002PRCP06
0186834980999992002122312004-17730-039250FM-12+000399999V0201401N001512200019N0020001N1+02911+02101101441ADDAA106000091GF103991021021008001031001KA1240N+02311MA1999999101391MD1999999-0061REMSYN076AAXX  23124 83498 32595 31403 10291 20210 30139 40144 82230 333 20231 59006;EQDQ01  00002PRCP06
0167834980999992002122318004-17730-039250FM-12+000399999V0201401N002612200019N0020001N1+03031+02131101161ADDAA106000091GF103991001001999999001081MA1999999101111MD1999999-0071REMSYN070AAXX  23184 83498 32995 31405 10303 20213 30111 40116 80008 333 59007;EQDQ01  00002PRCP06
0208834980999992002122400004-17730-039250FM-12+000399999V0200501N000512200019N0020001N1+02511+02211101331ADDAA106000091GA1001+999999999GF100991001001999999001001KA1240M+03101MA1999999101281MD1999999-0051REMSYN082AAXX  24004 83498 32995 00501 10251 20221 30128 40133 333 10310 29072 55096 59005;EQDQ01  00002PRCP06
0186834980999992002122412004-17730-039250FM-12+000399999V0203601N003112200019N0020001N1+02951+02191101241ADDAA106000091GF106991021011008001001011KA1240N+02371MA1999999101191MD1999999-0201REMSYN076AAXX  24124 83498 32595 63606 10295 20219 30119 40124 82101 333 20237 59020;EQDQ01  00002PRCP06
0167834980999992002122418004-17730-039250FM-12+000399999V0200501N005112200019N0020001N1+03031+02261100881ADDAA106000091GF104991021011008001001011MA1999999100831MD1999999-0281REMSYN070AAXX  24184 83498 32595 40510 10303 20226 30083 40088 82101 333 59028;EQDQ01  00002PRCP06
0198834980999992002122500004-17730-039250FM-12+000399999V0200501N004112200019N0020001N1+02621+02371101071ADDAA106000091GF101991001001999999001011KA1240M+03241MA1999999101021MD1999999-0261REMSYN088AAXX  25004 83498 32995 10508 10262 20237 30102 40107 80001 333 10324 29075 55076 59026;EQDQ01  00002PRCP06
0186834980999992002122512004-17730-039250FM-12+000399999V0203601N005110450019N0020001N1+03181+02281101121ADDAA106000091GF107991021011008001051081KA1240N+02481MA1999999101071MD1999999-0121REMSYN076AAXX  25124 83498 32595 73610 10318 20228 30107 40112 82158 333 20248 59012;EQDQ01  00002PRCP06
0167834980999992002122518004-17730-039250FM-12+000399999V0200501N006219999999N0020001N1+03081+02371100741ADDAA106000091GF107991001001999999001081MA1999999100691MD1999999-0141REMSYN070AAXX  25184 83498 32995 70512 10308 20237 30069 40074 80008 333 59014;EQDQ01  00002PRCP06
0226834980999992002122600004-17730-039250FM-12+000399999V0200501N004112200019N0020001N1+02701+02461101001ADDAA106000091AY101061AY211061GF104991011001017501071031KA1240M+03251MA1999999100951MD1999999-0071MW1131REMSYN094AAXX  26004 83498 31795 40508 10270 20246 30095 40100 71301 81073 333 10325 29075 55080 59007;EQDQ01  00002PRCP06
0186834980999992002122612004-17730-039250FM-12+000399999V0202301N001510450019N0020001N1+02851+02421101251ADDAA106000091GF107991041061008001071001KA1240N+02511MA1999999101201MD1999999+0131REMSYN076AAXX  26124 83498 32595 72303 10285 20242 30120 40125 84670 333 20251 58013;EQDQ01  00002PRCP06
0167834980999992002122618004-17730-039250FM-12+000399999V0201801N005110075019N0020001N1+02801+02501101031ADDAA106000091GF108991061051008001021999MA1999999100981MD1999999+0291REMSYN070AAXX  26184 83498 32595 81810 10280 20250 30098 40103 8652/ 333 58029;EQDQ01  00002PRCP06
0096834980999992002122700004-17730-039250FM-12+000399999V02099999999999999999N9999999N1+99999+99999999999REMSYN087AAXX  27004 83498 3255 81813 10263 20237 30121 40126 8362/ 333 10292 29084 55000 58026;
0201834980999992002122712004-17730-039250FM-12+000399999V0201801N003110075019N0020001N1+02531+02401101211ADDAY191061GF108991999041008001071021KA1240N+02341MA1999999101161MD1999999-0041MW1501REMSYN088AAXX  27124 83498 21595 81806 10253 20240 30116 40121 7509/ 88472 333 20234 59004 60584;EQDQ01+000082SCOTLC
0171834980999992002122718004-17730-039250FM-12+000399999V0202301N005110450019N0020001N1+02471+02361101011ADDAY161061AY261061GF108991041071008001021999MA1999999100951MD1999999-0031MW1211REMSYN082AAXX  27184 83498 21595 82310 10247 20236 30095 40101 72166 8472/ 333 59003 60021;
0202834980999992002122800004-17730-039250FM-12+000399999V0202301N003110075019N0020001N1+02421+02321101121ADDAY161061AY261061GF108991051071008001021999KA1240M+02721MA1999999101071MD1999999-0141MW1211REMSYN100AAXX  28004 83498 21595 82306 10242 20232 30107 40112 72166 8572/ 333 10272 29094 55000 59014 60051;
0190834980999992002122812004-17730-039250FM-12+000399999V0203201N002610075019N0020001N1+02281+02161101251ADDAY161061AY261061GF108991081061008001999999KA1240N+02221MA1999999101201MD1999999+0041MW1621REMSYN088AAXX  28124 83498 21595 83205 10228 20216 30120 40125 76266 886// 333 20222 58004 60434;
0171834980999992002122818004-17730-039250FM-12+000399999V0200501N002110075019N0020001N1+02421+02251101051ADDAY161061AY261061GF108991071061008001011999MA1999999101001MD1999999+0051MW1611REMSYN082AAXX  28184 83498 21595 80504 10242 20225 30100 40105 76166 8761/ 333 58005 60081;
0202834980999992002122900004-17730-039250FM-12+000399999V0200501N004110075019N0020001N1+02341+02221101381ADDAY161061AY261061GF108991071061008001011999KA1240M+02471MA1999999101331MD1999999+0261MW1611REMSYN100AAXX  29004 83498 21595 80508 10234 20222 30133 40138 76166 8761/ 333 10247 29092 55000 58026 60051;
0190834980999992002122912004-17730-039250FM-12+000399999V0209999C000010450019N0020001N1+02511+02341101531ADDAY161061AY261061GF108991031071008001021999KA1240N+02091MA1999999101481MD1999999+0281MW1601REMSYN088AAXX  29124 83498 21595 83200 10251 20234 30148 40153 76066 8372/ 333 20209 58028 60224;
0171834980999992002122918004-17730-039250FM-12+000399999V0203601N003610450019N0020001N1+02461+02271101391ADDAY161061AY261061GF108991031071008001021999MA1999999101341MD1999999+0341MW1211REMSYN082AAXX  29184 83498 21595 83607 10246 20227 30134 40139 72166 8372/ 333 58034 69941;
0202834980999992002123000004-17730-039250FM-12+000399999V0203201N001010450019N0020001N1+02421+02321101601ADDAY161061AY221061GF108991031071008001021999KA1240M+02891MA1999999101551MD1999999+0221MW1201REMSYN100AAXX  30004 83498 21595 83202 10242 20232 30155 40160 72062 8372/ 333 10289 29092 55000 58022 69931;
0162834980999992002123012004-17730-039250FM-12+000399999V0200501N005110450019N0020001N1+02701+02371101671ADDGF108991041051008001021081KA1240N+02401MA1999999101621MD1999999+0141REMSYN082AAXX  30124 83498 22595 80510 10270 20237 30162 40167 84528 333 20240 58014 69984;
0167834980999992002123018004-17730-039250FM-12+000399999V0200501N005111050019N0020001N1+02861+02311101381ADDAA106000091GF107991031021008001001021MA1999999101331MD1999999-0011REMSYN070AAXX  30184 83498 32595 70510 10286 20231 30133 40138 83202 333 59001;EQDQ01  00002PRCP06
0198834980999992002123100004-17730-039250FM-12+000399999V0200501N002611050019N0020001N1+02531+02331101541ADDAA106000091GF105991021011008001001021KA1240M+03021MA1999999101491MD1999999-0061REMSYN088AAXX  31004 83498 32595 50505 10253 20233 30149 40154 82102 333 10302 29083 55033 59006;EQDQ01  00002PRCP06
0186834980999992002123112004-17730-039250FM-12+000399999V0200501N003610075019N0020001N1+02881+02211101631ADDAA106000091GF105991051021008001001001KA1240N+02301MA1999999101581MD1999999-0041REMSYN076AAXX  31124 83498 32595 50507 10288 20221 30158 40163 85200 333 20230 59004;EQDQ01  00002PRCP06
0167834980999992002123118004-17730-039250FM-12+000399999V0200501N006712200019N0020001N1+02921+02061101251ADDAA106000091GF102991011011008001001051MA1999999101201MD1999999-0131REMSYN070AAXX  31184 83498 32595 20513 10292 20206 30120 40125 81105 333 59013;EQDQ01  00002PRCP06
