0226821980999992003010100004-01720-045400FM-12+004499999V0200501N003612200019N0002001N1+02701+02411101291ADDAA106000091AY111061AY201061GF103991031021017501001001KA1240M+03311MA1999999100781MD1999999+0021MW1131REMSYN094AAXX  01004 82198 31792 30507 10270 20241 30078 40129 71310 83200 333 10331 29075 55100 58002;EQDQ01  00002PRCP06
0186821980999992003010112004-01720-045400FM-12+004499999V0200501N002110450019N0040001N1+02991+02511101321ADDAA106000091GF106991041021017501061001KA1240N+02541MA1999999100811MD1999999-0071REMSYN076AAXX  01124 82198 32796 60504 10299 20251 30081 40132 84260 333 20254 59007;EQDQ01  00002PRCP06
0167821980999992003010118004-01720-045400FM-12+004499999V0203601N005710450019N0040001N1+03101+02291101031ADDAA106000091GF106991041021017501041001MA1999999100521MD1999999-0021REMSYN070AAXX  01184 82198 32796 63611 10310 20229 30052 40103 84240 333 59002;EQDQ01  00002PRCP06
0198821980999992003010200004-01720-045400FM-12+004499999V0200501N003112200019N0002001N1+02691+02291101201ADDAA106000091GF102991021011017501001001KA1240M+03311MA1999999100691MD1999999-0091REMSYN088AAXX  02004 82198 32792 20506 10269 20229 30069 40120 82100 333 10331 29075 55077 59009;EQDQ01  00002PRCP06
0186821980999992003010212004-01720-045400FM-12+004499999V0200901N003110150019N0020001N1+02961+02371101321ADDAA106000091GF105991051021017501001001KA1240N+02481MA1999999100811MD1999999+0001REMSYN076AAXX  02124 82198 32795 50906 10296 20237 30081 40132 85200 333 20248 58000;EQDQ01  00002PRCP06
0167821980999992003010218004-01720-045400FM-12+004499999V0203601N006710150019N0040001N1+03181+02261101011ADDAA106000091GF105991051021017501001001MA1999999100501MD1999999-0021REMSYN070AAXX  02184 82198 32796 53613 10318 20226 30050 40101 85200 333 59002;EQDQ01  00002PRCP06
0198821980999992003010300004-01720-045400FM-12+004499999V0200501N003612200019N0002001N1+02701+02301101091ADDAA106000091GF102991021011017501001001KA1240M+03281MA1999999100581MD1999999-0111REMSYN088AAXX  03004 82198 32792 20507 10270 20230 30058 40109 82100 333 10328 29073 55106 59011;EQDQ01  00002PRCP06
0186821980999992003010312004-01720-045400FM-12+004499999V0200501N004610150019N0040001N1+02941+02191101241ADDAA106000091GF105991051021017501001001KA1240N+02561MA1999999100731MD1999999-0081REMSYN076AAXX  03124 82198 32796 50509 10294 20219 30073 40124 85200 333 20256 59008;EQDQ01  00002PRCP06
0167821980999992003010318004-01720-045400FM-12+004499999V0200501N005110150019N0040001N1+03201+02121101051ADDAA106000091GF105991051021017501001001MA1999999100541MD1999999+0041REMSYN070AAXX  03184 82198 32796 50510 10320 20212 30054 40105 85200 333 58004;EQDQ01  00002PRCP06
0208821980999992003010400004-01720-045400FM-12+004499999V0200501N002112200019N0002001N1+02671+02271101021ADDAA106000091GA1001+999999999GF100991001001999999001001KA1240M+03301MA1999999100511MD1999999-0011REMSYN082AAXX  04004 82198 32992 00504 10267 20227 30051 40102 333 10330 29070 55101 59001;EQDQ01  00002PRCP06
0186821980999992003010412004-01720-045400FM-12+004499999V0200501N002610150019N0040001N1+02971+02271101261ADDAA106000091GF105991051021017501001001KA1240N+02481MA1999999100751MD1999999+0021REMSYN076AAXX  04124 82198 32796 50505 10297 20227 30075 40126 85200 333 20248 58002;EQDQ01  00002PRCP06
0167821980999992003010418004-01720-045400FM-12+004499999V0203601N006212200019N0040001N1+03171+02181101021ADDAA106000091GF104991041021017501001001MA1999999100511MD1999999-0031REMSYN070AAXX  04184 82198 32796 43612 10317 20218 30051 40102 84200 333 59003;EQDQ01  00002PRCP06
0186821980999992003010512004-01720-045400FM-12+004499999V0200501N003610450019N0020001N1+02961+02471101201ADDAA106000091GF106991041021017501061001KA1240N+02571MA1999999100691MD1999999-0061REMSYN076AAXX  05124 82198 32795 60507 10296 20247 30069 40120 84260 333 20257 59006;EQDQ01  00002PRCP06
0171821980999992003010518004-01720-045400FM-12+004499999V0203601N005710150019N0040001N1+03061+02381100931ADDAY151061AY221061GF106991061021017501001001MA1999999100421MD1999999-0091MW1031REMSYN082AAXX  05184 82198 21796 63611 10306 20238 30042 40093 70352 86200 333 59009 69911;
0162821980999992003010612004-01720-045400FM-12+004499999V0200501N004610450019N0020001N1+03031+02441101311ADDGF106991041021017501061001KA1240N+02571MA1999999100801MD1999999+0111REMSYN082AAXX  06124 82198 22795 60509 10303 20244 30080 40131 84260 333 20257 58011 69914;
0167821980999992003010618004-01720-045400FM-12+004499999V0203601N004610450019N0040001N1+03021+02241101011ADDAA106000091GF106991041021017501011001MA1999999100501MD1999999+0081REMSYN070AAXX  06184 82198 32796 63609 10302 20224 30050 40101 84210 333 58008;EQDQ01  00002PRCP06
0198821980999992003010700004-01720-045400FM-12+004499999V0200501N006212200019N0002001N1+02781+02331101161ADDAA106000091GF103991031011017501001001KA1240M+03301MA1999999100651MD1999999-0031REMSYN088AAXX  07004 82198 32792 30512 10278 20233 30065 40116 83100 333 10330 29074 55077 59003;EQDQ01  00002PRCP06
0186821980999992003010712004-01720-045400FM-12+004499999V0200501N004110150019N0020001N1+03001+02321101411ADDAA106000091GF105991051021017501001001KA1240N+02531MA1999999100901MD1999999+0101REMSYN076AAXX  07124 82198 32795 50508 10300 20232 30090 40141 85200 333 20253 58010;EQDQ01  00002PRCP06
0167821980999992003010718004-01720-045400FM-12+004499999V0203601N006712200019N0040001N1+03101+02441100981ADDAA106000091GF104991041021017501001001MA1999999100471MD1999999-0031REMSYN070AAXX  07184 82198 32796 43613 10310 20244 30047 40098 84200 333 59003;EQDQ01  00002PRCP06
0198821980999992003010800004-01720-045400FM-12+004499999V0200501N003612200019N0005001N1+02721+02451101171ADDAA106000091GF102991021011017501001001KA1240M+03211MA1999999100651MD1999999+0001REMSYN088AAXX  08004 82198 32793 20507 10272 20245 30065 40117 82100 333 10321 29076 55096 58000;EQDQ01  00002PRCP06
0167821980999992003010818004-01720-045400FM-12+004499999V0200501N006710450019N0020001N1+03041+02331101131ADDAA106000091GF105991031021017501061001MA1999999100621MD1999999+0151REMSYN070AAXX  08184 82198 32795 50513 10304 20233 30062 40113 83260 333 58015;EQDQ01  00002PRCP06
0197821980999992003010900004-01720-045400FM-12+004499999V0200501N003112200019N0002001N1+02721+02471101241ADDAA106000091GF102991021021017501001001KA1240M+03231MA1999999100721MD1999999+0071REMSYN087AAXX  09004 8219832792 20506 10272 20247 30072 40124 82200 333 10323 29077 55066 58007;EQDQ01  00002PRCP06
0186821980999992003010912004-01720-045400FM-12+004499999V0200501N003610150019N0020001N1+02821+02401101431ADDAA106000091GF108991061051017501061001KA1240N+02541MA1999999100921MD1999999+0101REMSYN076AAXX  09124 82198 32795 80507 10282 20240 30092 40143 86560 333 20254 58010;EQDQ01  00002PRCP06
0171821980999992003010918004-01720-045400FM-12+004499999V0200501N006710150019N0020001N1+02921+02341101211ADDAY161061AY221061GF108991051051017501041001MA1999999100701MD1999999+0081MW1021REMSYN082AAXX  09184 82198 21795 80513 10292 20234 30070 40121 70262 85540 333 58008 60011;
0198821980999992003011000004-01720-045400FM-12+004499999V0200501N003612200019N0002001N1+02701+02351101381ADDAA106000091GF102991021011017501001001KA1240M+03081MA1999999100861MD1999999+0141REMSYN088AAXX  10004 82198 32792 20507 10270 20235 30086 40138 82100 333 10308 29078 55018 58014;EQDQ01  00002PRCP06
0162821980999992003011012004-01720-045400FM-12+004499999V0200501N005110150019N0020001N1+02891+02431101401ADDGF107991061021017501061001KA1240N+02551MA1999999100891MD1999999-0031REMSYN082AAXX  10124 82198 22795 70510 10289 20243 30089 40140 86260 333 20255 59003 60014;
0171821980999992003011018004-01720-045400FM-12+004499999V0203601N005110450019N0020001N1+02791+02381101111ADDAY161061AY221061GF106991041021017501061001MA1999999100601MD1999999-0101MW1021REMSYN082AAXX  10184 82198 21795 63610 10279 20238 30060 40111 70262 84260 333 59010 60031;
0208821980999992003011100004-01720-045400FM-12+004499999V0200501N004612200019N0002001N1+02691+02461101291ADDAA106000091GA1001+999999999GF100991001001999999001001KA1240M+03041MA1999999100771MD1999999-0091REMSYN082AAXX  11004 82198 32992 00509 10269 20246 30077 40129 333 10304 29082 55076 59009;EQDQ01  00002PRCP06
0162821980999992003011112004-01720-045400FM-12+004499999V0200501N004110150019N0020001N1+02861+02371101411ADDGF105991051021017501001001KA1240N+02531MA1999999100901MD1999999+0011REMSYN082AAXX  11124 82198 22795 50508 10286 20237 30090 40141 85200 333 20253 58001 60034;
0167821980999992003011118004-01720-045400FM-12+004499999V0203601N007212200019N0040001N1+03101+02341101111ADDAA106000091GF104991041021017501001001MA1999999100601MD1999999+0001REMSYN070AAXX  11184 82198 32796 43614 10310 20234 30060 40111 84200 333 58000;EQDQ01  00002PRCP06
0208821980999992003011200004-01720-045400FM-12+004499999V0200501N004612200019N0002001N1+02701+02391101251ADDAA106000091GA1001+999999999GF100991001001999999001001KA1240M+03241MA1999999100731MD1999999-0041REMSYN082AAXX  12004 82198 32992 00509 10270 20239 30073 40125 333 10324 29076 55107 59004;EQDQ01  00002PRCP06
0186821980999992003011212004-01720-045400FM-12+004499999V0200501N004110450019N0020001N1+02921+02411101361ADDAA106000091GF105991041021017501061001KA1240N+02551MA1999999100851MD1999999-0051REMSYN076AAXX  12124 82198 32795 50508 10292 20241 30085 40136 84260 333 20255 59005;EQDQ01  00002PRCP06
0167821980999992003011218004-01720-045400FM-12+004499999V0203601N006712200019N0040001N1+03101+02291101041ADDAA106000091GF104991041021017501001001MA1999999100531MD1999999-0071REMSYN070AAXX  12184 82198 32796 43613 10310 20229 30053 40104 84200 333 59007;EQDQ01  00002PRCP06
0198821980999992003011400004-01720-045400FM-12+004499999V0200501N004612200019N0005001N1+02721+02301101231ADDAA106000091GF103991031021017501001001KA1240M+03111MA1999999100721MD1999999+0001REMSYN088AAXX  14004 82198 32793 30509 10272 20230 30072 40123 83200 333 10311 29074 55060 58000;EQDQ01  00002PRCP06
0186821980999992003011412004-01720-045400FM-12+004499999V0203601N006212200019N0100001N1+02941+02431101331ADDAA106000091GF104991031021017501001011KA1240N+02611MA1999999100821MD1999999-0011REMSYN076AAXX  14124 82198 32797 43612 10294 20243 30082 40133 83201 333 20261 59001;EQDQ01  00002PRCP06
0167821980999992003011418004-01720-045400FM-12+004499999V0200501N005712200019N0040001N1+03031+02221101131ADDAA106000091GF104991041021017501001001MA1999999100621MD1999999+0091REMSYN070AAXX  14184 82198 32796 40511 10303 20222 30062 40113 84200 333 58009;EQDQ01  00002PRCP06
0198821980999992003011500004-01720-045400FM-12+004499999V0200501N004612200019N0002001N1+02711+02351101201ADDAA106000091GF102991021021017501001001KA1240M+03221MA1999999100691MD1999999-0031REMSYN088AAXX  15004 82198 32792 20509 10271 20235 30069 40120 82200 333 10322 29074 55110 59003;EQDQ01  00002PRCP06
0186821980999992003011512004-01720-045400FM-12+004499999V0200501N004110450019N0040001N1+02821+02421101391ADDAA106000091GF108991041071017501061001KA1240N+02571MA1999999100881MD1999999+0061REMSYN076AAXX  15124 82198 32796 80508 10282 20242 30088 40139 84760 333 20257 58006;EQDQ01  00002PRCP06
0167821980999992003011518004-01720-045400FM-12+004499999V0200501N007212200019N0040001N1+03091+02081101181ADDAA106000091GF106991031021017501001011MA1999999100671MD1999999+0051REMSYN070AAXX  15184 82198 32796 60514 10309 20208 30067 40118 83201 333 58005;EQDQ01  00002PRCP06
0198821980999992003011600004-01720-045400FM-12+004499999V0200501N004112200019N0002001N1+02711+02351101271ADDAA106000091GF103991031011017501001001KA1240M+03261MA1999999100761MD1999999+0071REMSYN088AAXX  16004 82198 32792 30508 10271 20235 30076 40127 83100 333 10326 29074 55070 58007;EQDQ01  00002PRCP06
0186821980999992003011612004-01720-045400FM-12+004499999V0200501N005110450019N0020001N1+02841+02291101451ADDAA106000091GF106991031021017501061011KA1240N+02601MA1999999100941MD1999999+0061REMSYN076AAXX  16124 82198 32795 60510 10284 20229 30094 40145 83261 333 20260 58006;EQDQ01  00002PRCP06
0167821980999992003011618004-01720-045400FM-12+004499999V0203601N005712200019N0040001N1+03171+02271101181ADDAA106000091GF106991041021017501001011MA1999999100671MD1999999+0001REMSYN070AAXX  16184 82198 32796 63611 10317 20227 30067 40118 84201 333 58000;EQDQ01  00002PRCP06
0198821980999992003011700004-01720-045400FM-12+004499999V0200501N005112200019N0002001N1+02721+02341101241ADDAA106000091GF104991021021017501011011KA1240M+03361MA1999999100731MD1999999-0031REMSYN088AAXX  17004 82198 32792 40510 10272 20234 30073 40124 82211 333 10336 29073 55093 59003;EQDQ01  00002PRCP06
0186821980999992003011712004-01720-045400FM-12+004499999V0200501N005110450019N0040001N1+02891+02151101401ADDAA106000091GF106991041021017501061001KA1240N+02591MA1999999100891MD1999999-0051REMSYN076AAXX  17124 82198 32796 60510 10289 20215 30089 40140 84260 333 20259 59005;EQDQ01  00002PRCP06
0167821980999992003011718004-01720-045400FM-12+004499999V0203601N007710150019N0100001N1+03021+02291101181ADDAA106000091GF106991061021017501001001MA1999999100671MD1999999+0001REMSYN070AAXX  17184 82198 32797 63615 10302 20229 30067 40118 86200 333 58000;EQDQ01  00002PRCP06
0198821980999992003011800004-01720-045400FM-12+004499999V0203601N006210150019N0002001N1+02701+02371101341ADDAA106000091GF105991051021017501001001KA1240M+03181MA1999999100831MD1999999-0031REMSYN088AAXX  18004 82198 32792 53612 10270 20237 30083 40134 85200 333 10318 29074 55106 59003;EQDQ01  00002PRCP06
0186821980999992003011812004-01720-045400FM-12+004499999V0203601N006210450019N0020001N1+02851+02251101361ADDAA106000091GF107991041021017501011011KA1240N+02551MA1999999100851MD1999999-0041REMSYN076AAXX  18124 82198 32795 73612 10285 20225 30085 40136 84211 333 20255 59004;EQDQ01  00002PRCP06
0167821980999992003011818004-01720-045400FM-12+004499999V0203601N007210450019N0020001N1+02981+02201101221ADDAA106000091GF107991041021017501011011MA1999999100711MD1999999+0041REMSYN070AAXX  18184 82198 32795 73614 10298 20220 30071 40122 84211 333 58004;EQDQ01  00002PRCP06
0198821980999992003011900004-01720-045400FM-12+004499999V0200501N003610150019N0002001N1+02721+02371101331ADDAA106000091GF108991051071017501061001KA1240M+03181MA1999999100821MD1999999-0011REMSYN088AAXX  19004 82198 32792 80507 10272 20237 30082 40133 85760 333 10318 29076 55058 59001;EQDQ01  00002PRCP06
0190821980999992003011912004-01720-045400FM-12+004499999V0203601N006710150019N0020001N1+02791+02341101441ADDAY161061AY221061GF108991051071017501061011KA1240N+02351MA1999999100931MD1999999+0081MW1621REMSYN088AAXX  19124 82198 21795 83613 10279 20234 30093 40144 76262 85761 333 20235 58008 60054;
0171821980999992003011918004-01720-045400FM-12+004499999V0200501N003110150019N0005001N1+02961+02101101261ADDAY121061AY261061GF108991051071017501021001MA1999999100741MD1999999+0031MW1211REMSYN082AAXX  19184 82198 21793 80506 10296 20210 30074 40126 72126 85720 333 58003 60121;
0202821980999992003012000004-01720-045400FM-12+004499999V0203201N002610150019N0002001N1+02451+02351101431ADDAY161061AY221061GF108991061071017501021001KA1240M+03081MA1999999100911MD1999999+0091MW1211REMSYN100AAXX  20004 82198 21792 83205 10245 20235 30091 40143 72162 86720 333 10308 29082 55029 58009 60171;
0190821980999992003012012004-01720-045400FM-12+004499999V0200501N003610450019N0040001N1+02551+02171101461ADDAY121061AY261061GF107991041051017501041011KA1240N+02271MA1999999100941MD1999999+0011MW1621REMSYN088AAXX  20124 82198 21796 70507 10255 20217 30094 40146 76226 84541 333 20227 58001 60524;
0202821980999992003012100004-01720-045400FM-12+004499999V0203601N002110150019N0002001N1+02421+02301101261ADDAY161061AY221061GF108991061071017501021001KA1240M+03071MA1999999100741MD1999999-0171MW1211REMSYN100AAXX  21004 82198 21792 83604 10242 20230 30074 40126 72162 86720 333 10307 29082 55069 59017 60041;
0190821980999992003012112004-01720-045400FM-12+004499999V0200901N001510150019N0020001N1+02611+02461101291ADDAY161061AY221061GF108991051051017501061001KA1240N+02371MA1999999100781MD1999999-0161MW1021REMSYN088AAXX  21124 82198 21795 80903 10261 20246 30078 40129 70262 85560 333 20237 59016 60054;
0167821980999992003012118004-01720-045400FM-12+004499999V0200501N006210150019N0020001N1+03001+02321100931ADDAA106000091GF108991051051017501041001MA1999999100421MD1999999-0201REMSYN070AAXX  21184 82198 32795 80512 10300 20232 30042 40093 85540 333 59020;EQDQ01  00002PRCP06
0202821980999992003012200004-01720-045400FM-12+004499999V0200501N004610150019N0002001N1+02591+02441101141ADDAY161061AY221061GF108991051051017501021001KA1240M+03141MA1999999100621MD1999999-0121MW1621REMSYN100AAXX  22004 82198 21792 80509 10259 20244 30062 40114 76262 85520 333 10314 29086 55026 59012 69961;
0190821980999992003012212004-01720-045400FM-12+004499999V0200501N003110150019N0020001N1+02521+02331101311ADDAY161061AY221061GF108991051031017501041001KA1240N+02311MA1999999100801MD1999999+0021MW1021REMSYN088AAXX  22124 82198 21795 80506 10252 20233 30080 40131 70262 85340 333 20231 58002 60154;
0167821980999992003012218004-01720-045400FM-12+004499999V0200501N004610150019N0020001N1+02821+02331101051ADDAA106000091GF108991061051017501011001MA1999999100541MD1999999+0121REMSYN070AAXX  22184 82198 32795 80509 10282 20233 30054 40105 86510 333 58012;EQDQ01  00002PRCP06
0202821980999992003012300004-01720-045400FM-12+004499999V0200501N004110150019N0002001N1+02481+02341101291ADDAY161061AY221061GF108991051051017501021001KA1240M+03131MA1999999100781MD1999999+0161MW1021REMSYN100AAXX  23004 82198 21792 80508 10248 20234 30078 40129 70262 85520 333 10313 29087 55029 58016 69971;
0162821980999992003012312004-01720-045400FM-12+004499999V0200501N002610180019N0040001N1+02741+02401101391ADDGF108991051081017501041001KA1240N+02351MA1999999100881MD1999999+0081REMSYN082AAXX  23124 82198 22796 80505 10274 20240 30088 40139 85840 333 20235 58008 69974;
0171821980999992003012318004-01720-045400FM-12+004499999V0200501N005710450019N0040001N1+02931+02361101131ADDAY161061AY221061GF107991041021017501061001MA1999999100621MD1999999+0081MW1021REMSYN082AAXX  23184 82198 21796 70511 10293 20236 30062 40113 70262 84260 333 58008 60061;
0198821980999992003012400004-01720-045400FM-12+004499999V0200501N003110180019N0002001N1+02621+02411101371ADDAA106000091GF108991051081017501061001KA1240M+03011MA1999999100851MD1999999+0071REMSYN088AAXX  24004 82198 32792 80506 10262 20241 30085 40137 85860 333 10301 29082 55027 58007;EQDQ01  00002PRCP06
0190821980999992003012412004-01720-045400FM-12+004499999V0200901N001010450019N0020001N1+02541+02441101411ADDAY161061AY221061GF108991041051017501061001KA1240N+02311MA1999999100901MD1999999+0021MW1021REMSYN088AAXX  24124 82198 21795 80902 10254 20244 30090 40141 70262 84560 333 20231 58002 60074;
0171821980999992003012418004-01720-045400FM-12+004499999V0200501N003610150019N0020001N1+03031+02291101031ADDAY161061AY221061GF107991051021017501061001MA1999999100521MD1999999-0101MW1021REMSYN082AAXX  24184 82198 21795 70507 10303 20229 30052 40103 70262 85260 333 59010 69931;
0198821980999992003012500004-01720-045400FM-12+004499999V0200501N002112200019N0002001N1+02641+02411101231ADDAA106000091GF104991021021017501061001KA1240M+03101MA1999999100721MD1999999-0131REMSYN088AAXX  25004 82198 32792 40504 10264 20241 30072 40123 82260 333 10310 29083 55021 59013;EQDQ01  00002PRCP06
0162821980999992003012512004-01720-045400FM-12+004499999V0200501N004610150019N0020001N1+02761+02421101291ADDGF108991051021017501061001KA1240N+02481MA1999999100781MD1999999-0121REMSYN082AAXX  25124 82198 22795 80509 10276 20242 30078 40129 85260 333 20248 59012 69934;
0171821980999992003012518004-01720-045400FM-12+004499999V0200501N004610150019N0040001N1+03031+02391100881ADDAY161061AY221061GF107991051021017501061001MA1999999100371MD1999999-0151MW1021REMSYN082AAXX  25184 82198 21796 70509 10303 20239 30037 40088 70262 85260 333 59015 60011;
0208821980999992003012600004-01720-045400FM-12+004499999V0200501N003112200019N0002001N1+02661+02461101091ADDAA106000091GA1001+999999999GF100991001001999999001001KA1240M+03151MA1999999100581MD1999999-0141REMSYN082AAXX  26004 82198 32992 00506 10266 20246 30058 40109 333 10315 29082 55062 59014;EQDQ01  00002PRCP06
0162821980999992003012612004-01720-045400FM-12+004499999V0200501N004610150019N0020001N1+02831+02381101181ADDGF108991051021017501031001KA1240N+02471MA1999999100671MD1999999-0111REMSYN082AAXX  26124 82198 22795 80509 10283 20238 30067 40118 85230 333 20247 59011 60014;
0167821980999992003012618004-01720-045400FM-12+004499999V0200501N007210450019N0040001N1+02941+02401100831ADDAA106000091GF105991031021017501061001MA1999999100321MD1999999-0051REMSYN070AAXX  26184 82198 32796 50514 10294 20240 30032 40083 83260 333 59005;EQDQ01  00002PRCP06
0198821980999992003012700004-01720-045400FM-12+004499999V0200501N003610180019N0002001N1+02711+02411101011ADDAA106000091GF108991061081017501061001KA1240M+03151MA1999999100501MD1999999-0081REMSYN088AAXX  27004 82198 32792 80507 10271 20241 30050 40101 86860 333 10315 29079 55068 59008;EQDQ01  00002PRCP06
0186821980999992003012712004-01720-045400FM-12+004499999V0200501N005710150019N0020001N1+02841+02331101111ADDAA106000091GF108991051071017501061001KA1240N+02491MA1999999100601MD1999999-0071REMSYN076AAXX  27124 82198 32795 80511 10284 20233 30060 40111 85760 333 20249 59007;EQDQ01  00002PRCP06
0171821980999992003012718004-01720-045400FM-12+004499999V0202301N002110450019N0005001N1+02451+02371100971ADDAY161061AY221061GF108991041051017501021001MA1999999100461MD1999999+0141MW1621REMSYN082AAXX  27184 82198 21793 82304 10245 20237 30046 40097 76262 84520 333 58014 60241;
0202821980999992003012800004-01720-045400FM-12+004499999V0201401N002610150019N0002001N1+02381+02291101241ADDAY161061AY221061GF108991051071017501021001KA1240M+02941MA1999999100721MD1999999+0221MW1021REMSYN100AAXX  28004 82198 21792 81405 10238 20229 30072 40124 70262 85720 333 10294 29090 55023 58022 60301;
0190821980999992003012812004-01720-045400FM-12+004499999V0201401N001510150019N0020001N1+02531+02451101361ADDAY161061AY221061GF108991061071017501011001KA1240N+02251MA1999999100841MD1999999+0241MW1021REMSYN088AAXX  28124 82198 21795 81403 10253 20245 30084 40136 70262 86710 333 20225 58024 61074;
0171821980999992003012818004-01720-045400FM-12+004499999V0200501N005710450019N0040001N1+02921+02271101081ADDAY161061AY221061GF108991041051017501061041MA1999999100561MD1999999+0101MW1021REMSYN082AAXX  28184 82198 21796 80511 10292 20227 30056 40108 70262 84564 333 58010 69961;
0198821980999992003012900004-01720-045400FM-12+004499999V0200501N001010150019N0002001N1+02621+02421101301ADDAA106000091GF105991051021017501001001KA1240M+03011MA1999999100781MD1999999+0061REMSYN088AAXX  29004 82198 32792 50502 10262 20242 30078 40130 85200 333 10301 29086 55006 58006;EQDQ01  00002PRCP06
0162821980999992003012912004-01720-045400FM-12+004499999V0200501N003110450019N0040001N1+02801+02481101301ADDGF105991031021017501031011KA1240N+02421MA1999999100791MD1999999-0051REMSYN082AAXX  29124 82198 22796 50506 10280 20248 30079 40130 83231 333 20242 59005 69964;
0171821980999992003012918004-01720-045400FM-12+004499999V0200501N004110450019N0020001N1+02701+02431100971ADDAY161061AY221061GF107991041051017501061011MA1999999100451MD1999999-0111MW1601REMSYN082AAXX  29184 82198 21795 70508 10270 20243 30045 40097 76062 84561 333 59011 60021;
0179821980999992003013000004-01720-045400FM-12+004499999V0200501N003112200019N0002001N1+02661+02431101061ADDAA106000021GF103991031021017501001001KA1240M+03111MA1999999100551MD1999999-0231REMSYN088AAXX  30004 82198 32792 30506 10266 20243 30055 40106 83200 333 10311 29086 55064 59023;
0162821980999992003013012004-01720-045400FM-12+004499999V0200501N004110450019N0040001N1+02931+02461101161ADDGF106991041021017501061011KA1240N+02491MA1999999100651MD1999999-0141REMSYN082AAXX  30124 82198 22796 60508 10293 20246 30065 40116 84261 333 20249 59014 60024;
0171821980999992003013018004-01720-045400FM-12+004499999V0200501N006210150019N0040001N1+03031+02341100811ADDAY121061AY261061GF106991051021017501041041MA1999999100301MD1999999-0151MW1601REMSYN082AAXX  30184 82198 21796 60512 10303 20234 30030 40081 76026 85244 333 59015 60061;
0179821980999992003013100004-01720-045400FM-12+004499999V0200501N003112200019N0002001N1+02671+02331101011ADDAA106000021GF102991021021017501001001KA1240M+03171MA1999999100501MD1999999-0051REMSYN088AAXX  31004 82198 32792 20506 10267 20233 30050 40101 82200 333 10317 29078 55064 59005;
0190821980999992003013112004-01720-045400FM-12+004499999V0201401N002110450019N0005001N1+02391+02311101191ADDAY161061AY221061GF108991041071017501021001KA1240N+02351MA1999999100681MD1999999+0031MW1601REMSYN088AAXX  31124 82198 21793 81404 10239 20231 30068 40119 76062 84720 333 20235 58003 60044;
0171821980999992003013118004-01720-045400FM-12+004499999V0200901N004110450019N0020001N1+02701+02261100891ADDAY161061AY221061GF108991041051017501011011MA1999999100371MD1999999+0071MW1631REMSYN082AAXX  31184 82198 21795 80908 10270 20226 30037 40089 76362 84511 333 58007 60061;
0179821980999992003020100004-01720-045400FM-12+004499999V0200501N002110150019N0002001N1+02601+02391101101ADDAA106000021GF105991051021017501001001KA1240M+02861MA1999999100581MD1999999+0081REMSYN088AAXX  01004 82198 32792 50504 10260 20239 30058 40110 85200 333 10286 29087 55004 58008;
0190821980999992003020112004-01720-045400FM-12+004499999V0200501N003110450019N0040001N1+02741+02501101181ADDAY161061AY221061GF107991041051017501031011KA1240N+02231MA1999999100661MD1999999-0021MW1621REMSYN088AAXX  01124 82198 21796 70506 10274 20250 30066 40118 76262 84531 333 20223 59002 60264;
0171821980999992003020118004-01720-045400FM-12+004499999V0200901N002110450019N0020001N1+02391+02331100991ADDAY121061AY261061GF108991041071017501011001MA1999999100471MD1999999+0101MW1621REMSYN082AAXX  01184 82198 21795 80904 10239 20233 30047 40099 76226 84710 333 58010 60121;
0179821980999992003020200004-01720-045400FM-12+004499999V0200901N002610450019N0002001N1+02501+02341101201ADDAA106000021GF106991041021017501061001KA1240M+02961MA1999999100681MD1999999+0101REMSYN088AAXX  02004 82198 32792 60905 10250 20234 30068 40120 84260 333 10296 29091 55018 58010;
0190821980999992003020212004-01720-045400FM-12+004499999V0200501N002610450019N0020001N1+02741+02471101341ADDAY161061AY221061GF108991041071017501061001KA1240N+02331MA1999999100821MD1999999+0161MW1601REMSYN088AAXX  02124 82198 21795 80505 10274 20247 30082 40134 76062 84760 333 20233 58016 60134;
0171821980999992003020218004-01720-045400FM-12+004499999V0203601N003610150019N0005001N1+02731+02411101011ADDAY121061AY261061GF108991051071017501021001MA1999999100491MD1999999+0021MW1581REMSYN082AAXX  02184 82198 21793 83607 10273 20241 30049 40101 75826 85720 333 58002 60071;
0202821980999992003020300004-01720-045400FM-12+004499999V0200901N003110450019N0002001N1+02501+02361101271ADDAY161061AY221061GF106991041021017501061001KA1240M+02911MA1999999100751MD1999999+0071MW1031REMSYN100AAXX  03004 82198 21792 60906 10250 20236 30075 40127 70362 84260 333 10291 29088 55006 58007 69921;
0190821980999992003020312004-01720-045400FM-12+004499999V0200901N002110450019N0040001N1+02681+02301101291ADDAY121061AY261061GF108991041071017501061001KA1240N+02411MA1999999100771MD1999999-0051MW1601REMSYN088AAXX  03124 82198 21796 80904 10268 20230 30077 40129 76026 84760 333 20241 59005 60114;
0171821980999992003020318004-01720-045400FM-12+004499999V0200501N004610150019N0040001N1+02691+02371101041ADDAY121061AY261061GF108991051071017501011001MA1999999100521MD1999999+0031MW1601REMSYN082AAXX  03184 82198 21796 80509 10269 20237 30052 40104 76026 85710 333 58003 69961;
0202821980999992003020400004-01720-045400FM-12+004499999V0200501N003610450019N0002001N1+02491+02331101191ADDAY161061AY221061GF106991041021017501061001KA1240M+02901MA1999999100671MD1999999-0081MW1621REMSYN100AAXX  04004 82198 21792 60507 10249 20233 30067 40119 76262 84260 333 10290 29090 55005 59008 60031;
0162821980999992003020412004-01720-045400FM-12+004499999V0200501N002110180019N0040001N1+02721+02451101251ADDGF108991061081017501061001KA1240N+02401MA1999999100741MD1999999-0031REMSYN082AAXX  04124 82198 22796 80504 10272 20245 30074 40125 86860 333 20240 59003 60034;
0171821980999992003020418004-01720-045400FM-12+004499999V0203601N006712200019N0040001N1+02941+02431100931ADDAY161061AY221061GF106991041021017501001011MA1999999100421MD1999999-0101MW1011REMSYN082AAXX  04184 82198 21796 63613 10294 20243 30042 40093 70162 84201 333 59010 69921;
0198821980999992003020500004-01720-045400FM-12+004499999V0200501N002112200019N0002001N1+02641+02461101121ADDAA106000091GF104991041021017501001001KA1240M+03081MA1999999100611MD1999999-0061REMSYN088AAXX  05004 82198 32792 40504 10264 20246 30061 40112 84200 333 10308 29085 55077 59006;EQDQ01  00002PRCP06
0162821980999992003020512004-01720-045400FM-12+004499999V0200901N003110450019N0020001N1+02871+02441101231ADDGF106991031021017501061011KA1240N+02491MA1999999100721MD1999999-0021REMSYN082AAXX  05124 82198 22795 60906 10287 20244 30072 40123 83261 333 20249 59002 69924;
0171821980999992003020518004-01720-045400FM-12+004499999V0200501N002110150019N0020001N1+02501+02231101051ADDAY161061AY221061GF108991051051017501041001MA1999999100541MD1999999+0121MW1021REMSYN082AAXX  05184 82198 21795 80504 10250 20223 30054 40105 70262 85540 333 58012 60421;
0198821980999992003020600004-01720-045400FM-12+004499999V0200501N003112200019N0002001N1+02511+02291101181ADDAA106000091GF104991041001017501061001KA1240M+02971MA1999999100671MD1999999+0061REMSYN088AAXX  06004 82198 32792 40506 10251 20229 30067 40118 84060 333 10297 29084 55022 58006;EQDQ01  00002PRCP06
0190821980999992003020612004-01720-045400FM-12+004499999V0200501N001510450019N0020001N1+02621+02441101321ADDAY161061AY221061GF108991041081017501031001KA1240N+02321MA1999999100811MD1999999+0091MW1031REMSYN088AAXX  06124 82198 21795 80503 10262 20244 30081 40132 70362 84830 333 20232 58009 60444;
0167821980999992003020618004-01720-045400FM-12+004499999V0201801N003610150019N0040001N1+02781+02481101011ADDAA106000091GF108991051071017501041001MA1999999100501MD1999999-0041REMSYN070AAXX  06184 82198 32796 81807 10278 20248 30050 40101 85740 333 59004;EQDQ01  00002PRCP06
0202821980999992003020700004-01720-045400FM-12+004499999V0200501N002110450019N0005001N1+02601+02441101251ADDAY161061AY221061GF105991031011017501061001KA1240M+02961MA1999999100731MD1999999+0061MW1011REMSYN100AAXX  07004 82198 21793 50504 10260 20244 30073 40125 70162 83160 333 10296 29089 55006 58006 60011;
0190821980999992003020712004-01720-045400FM-12+004499999V0200901N004110150019N0040001N1+02871+02461101171ADDAY161061AY221061GF106991051021017501041001KA1240N+02411MA1999999100661MD1999999-0151MW1031REMSYN088AAXX  07124 82198 21796 60908 10287 20246 30066 40117 70362 85240 333 20241 59015 60024;
0171821980999992003020718004-01720-045400FM-12+004499999V0200901N003110150019N0040001N1+02781+02401100971ADDAY161061AY221061GF108991051071017501041001MA1999999100461MD1999999-0041MW1021REMSYN082AAXX  07184 82198 21796 80906 10278 20240 30046 40097 70262 85740 333 59004 60041;
0198821980999992003020800004-01720-045400FM-12+004499999V0200501N002112200019N0002001N1+02611+02401101181ADDAA106000091GF103991031001017501061001KA1240M+03211MA1999999100661MD1999999-0071REMSYN088AAXX  08004 82198 32792 30504 10261 20240 30066 40118 83060 333 10321 29084 55055 59007;EQDQ01  00002PRCP06
0190821980999992003020812004-01720-045400FM-12+004499999V0200501N004610150019N0040001N1+02791+02441101251ADDAY161061AY221061GF107991051071017501041011KA1240N+02421MA1999999100741MD1999999+0081MW1021REMSYN088AAXX  08124 82198 21796 70509 10279 20244 30074 40125 70262 85741 333 20242 58008 60044;
0171821980999992003020818004-01720-045400FM-12+004499999V0200501N004110150019N0020001N1+02741+02501101011ADDAY161061AY221061GF108991061051017501041001MA1999999100501MD1999999+0041MW1021REMSYN082AAXX  08184 82198 21795 80508 10274 20250 30050 40101 70262 86540 333 58004 60041;
0198821980999992003020900004-01720-045400FM-12+004499999V0200501N002610450019N0002001N1+02631+02521101231ADDAA106000091GF105991031071017501041001KA1240M+03041MA1999999100711MD1999999+0051REMSYN088AAXX  09004 82198 32792 50505 10263 20252 30071 40123 83740 333 10304 29089 55034 58005;EQDQ01  00002PRCP06
0162821980999992003020912004-01720-045400FM-12+004499999V0200501N005110450019N0040001N1+02801+02421101271ADDGF106991031021017501061001KA1240N+02481MA1999999100761MD1999999+0021REMSYN082AAXX  09124 82198 22796 60510 10280 20242 30076 40127 83260 333 20248 58002 60044;
0167821980999992003020918004-01720-045400FM-12+004499999V0200501N006210150019N0020001N1+02811+02381100951ADDAA106000091GF108991051051017501041001MA1999999100481MD1999999-0061REMSYN070AAXX  09184 82198 32795 80512 10281 20238 30048 40095 85540 333 59006;EQDQ01  00002PRCP06
0202821980999992003021000004-01720-045400FM-12+004499999V0200501N005110180019N0002001N1+02661+02411101191ADDAY161061AY221061GF108991061081017501041001KA1240M+03041MA1999999100681MD1999999-0031MW1021REMSYN100AAXX  10004 82198 21792 80510 10266 20241 30068 40119 70262 86840 333 10304 29082 55038 59003 60051;
0190821980999992003021012004-01720-045400FM-12+004499999V0200901N002610150019N0005001N1+02341+02131101381ADDAY161061AY221061GF108991051051017501021001KA1240N+02191MA1999999100861MD1999999+0101MW1511REMSYN088AAXX  10124 82198 21793 80905 10234 20213 30086 40138 75162 85520 333 20219 58010 60264;
0171821980999992003021018004-01720-045400FM-12+004499999V0200501N002610150019N0020001N1+02701+02371101031ADDAY161061AY221061GF108991051071017501041001MA1999999100521MD1999999+0081MW1021REMSYN082AAXX  10184 82198 21795 80505 10270 20237 30052 40103 70262 85740 333 58008 60011;
0198821980999992003021100004-01720-045400FM-12+004499999V0203601N001510450019N0002001N1+02521+02341101181ADDAA106000091GF106991021011017501031001KA1240M+02771MA1999999100671MD1999999-0011REMSYN088AAXX  11004 82198 32792 63603 10252 20234 30067 40118 82130 333 10277 29088 55004 59001;EQDQ01  00002PRCP06
0190821980999992003021112004-01720-045400FM-12+004499999V0203201N001010450019N0020001N1+02461+02411101241ADDAY161061AY221061GF108991041051017501021001KA1240N+02231MA1999999100721MD1999999-0141MW1601REMSYN088AAXX  11124 82198 21795 83202 10246 20241 30072 40124 76062 84520 333 20223 59014 60024;
0171821980999992003021118004-01720-045400FM-12+004499999V0203601N002110450019N0005001N1+02471+02331100961ADDAY121061AY261061GF108991041071017501021001MA1999999100441MD1999999-0081MW1621REMSYN082AAXX  11184 82198 21793 83604 10247 20233 30044 40096 76226 84720 333 59008 60131;
0202821980999992003021200004-01720-045400FM-12+004499999V0203601N002110450019N0002001N1+02491+02371101201ADDAY161061AY221061GF108991041071017501021001KA1240M+02951MA1999999100681MD1999999+0011MW1621REMSYN100AAXX  12004 82198 21792 83604 10249 20237 30068 40120 76262 84720 333 10295 29097 55000 58001 60301;
0190821980999992003021212004-01720-045400FM-12+004499999V0200501N003610450019N0020001N1+02771+02601101291ADDAY121061AY261061GF107991041051017501061001KA1240N+02371MA1999999100771MD1999999+0051MW1601REMSYN088AAXX  12124 82198 21795 70507 10277 20260 30077 40129 76026 84560 333 20237 58005 60344;
0171821980999992003021218004-01720-045400FM-12+004499999V0209999C000010450019N0020001N1+02541+02421101101ADDAY121061AY261061GF108991041071017501061001MA1999999100581MD1999999+0141MW1621REMSYN082AAXX  12184 82198 21795 80000 10254 20242 30058 40110 76226 84760 333 58014 60291;
0202821980999992003021300004-01720-045400FM-12+004499999V0200501N001010450019N0005001N1+02501+02431101221ADDAY151061AY211061GF105991031021017501031001KA1240M+02911MA1999999100701MD1999999+0021MW1501REMSYN100AAXX  13004 82198 21793 50502 10250 20243 30070 40122 75051 83230 333 10291 29094 55015 58002 69911;
0190821980999992003021312004-01720-045400FM-12+004499999V0201401N002610450019N0040001N1+02551+02441101231ADDAY121061AY261061GF107991041051017501071011KA1240N+02341MA1999999100721MD1999999-0051MW1621REMSYN088AAXX  13124 82198 21796 71405 10255 20244 30072 40123 76226 84571 333 20234 59005 60334;
0171821980999992003021318004-01720-045400FM-12+004499999V0200501N005110450019N0040001N1+02751+02541100931ADDAY161061AY221061GF108991041031017501011001MA1999999100411MD1999999-0171MW1621REMSYN082AAXX  13184 82198 21796 80510 10275 20254 30041 40093 76262 84310 333 59017 60061;
0190821980999992003021412004-01720-045400FM-12+004499999V0200501N003110450019N0040001N1+02701+02521101201ADDAY161061AY221061GF107991041021017501041041KA1240N+02221MA1999999100681MD1999999-0041MW1601REMSYN088AAXX  14124 82198 21796 70506 10270 20252 30068 40120 76062 84244 333 20222 59004 60194;
0148821980999992003021418004-01720-045400FM-12+004499999V0203601N005710450019N0100001N1+02901+02431100881ADDAA106000021GF108991041051017501041041MA1999999100371MD1999999-0041REMSYN070AAXX  14184 82198 32797 83611 10290 20243 30037 40088 84544 333 59004;
0198821980999992003021500004-01720-045400FM-12+004499999V0200501N002610450019N0005001N1+02641+02421101081ADDAA106000091GF108991041051017501011011KA1240M+03061MA1999999100561MD1999999-0161REMSYN088AAXX  15004 82198 32793 80505 10264 20242 30056 40108 84511 333 10306 29086 55040 59016;EQDQ01  00002PRCP06
0190821980999992003021512004-01720-045400FM-12+004499999V0200501N002110450019N0100001N1+02601+02481101121ADDAY161061AY221061GF106991041021017501031011KA1240N+02271MA1999999100601MD1999999-0081MW1621REMSYN088AAXX  15124 82198 21797 60504 10260 20248 30060 40112 76262 84231 333 20227 59008 60184;
0148821980999992003021518004-01720-045400FM-12+004499999V0203601N004610450019N0100001N1+03071+02421100771ADDAA106000021GF106991031021017501041041MA1999999100261MD1999999-0111REMSYN070AAXX  15184 82198 32797 63609 10307 20242 30026 40077 83244 333 59011;
0198821980999992003021600004-01720-045400FM-12+004499999V0200501N002610450019N0020001N1+02651+02351101021ADDAA106000091GF106991031021017501011061KA1240M+03181MA1999999100501MD1999999-0061REMSYN088AAXX  16004 82198 32795 60505 10265 20235 30050 40102 83216 333 10318 29084 55088 59006;EQDQ01  00002PRCP06
0186821980999992003021612004-01720-045400FM-12+004499999V0200901N003610450019N0100001N1+02871+02361101141ADDAA106000091GF106991031021017501011011KA1240N+02481MA1999999100631MD1999999+0031REMSYN076AAXX  16124 82198 32797 60907 10287 20236 30063 40114 83211 333 20248 58003;EQDQ01  00002PRCP06
0167821980999992003021618004-01720-045400FM-12+004499999V0203601N004611050019N0100001N1+03011+02391100831ADDAA106000091GF106991021021017501041041MA1999999100321MD1999999+0061REMSYN070AAXX  16184 82198 32797 63609 10301 20239 30032 40083 82244 333 58006;EQDQ01  00002PRCP06
0190821980999992003021712004-01720-045400FM-12+004499999V0200901N002110450019N0040001N1+02501+02191101391ADDAY161061AY221061GF108991041071017501021001KA1240N+02401MA1999999100871MD1999999+0241MW1621REMSYN088AAXX  17124 82198 21796 80904 10250 20219 30087 40139 76262 84720 333 20240 58024 60104;
0171821980999992003021718004-01720-045400FM-12+004499999V0200501N001510450019N0100001N1+02461+02281100981ADDAY121061AY261061GF108991041051017501041001MA1999999100461MD1999999+0141MW1621REMSYN082AAXX  17184 82198 21797 80503 10246 20228 30046 40098 76226 84540 333 58014 60031;
0202821980999992003021800004-01720-045400FM-12+004499999V0200501N002610450019N0002001N1+02521+02421101291ADDAY121061AY251061GF108991041051017501061001KA1240M+02691MA1999999100771MD1999999+0251MW1501REMSYN100AAXX  18004 82198 21792 80505 10252 20242 30077 40129 75025 84560 333 10269 29090 55005 58025 69921;
0162821980999992003021812004-01720-045400FM-12+004499999V0200501N000510450019N0020001N1+02531+02151101301ADDGF106991031011017501061001KA1240N+02321MA1999999100791MD1999999-0081REMSYN082AAXX  18124 82198 22795 60501 10253 20215 30079 40130 83160 333 20232 59008 60034;
0171821980999992003021818004-01720-045400FM-12+004499999V0200501N003610150019N0005001N1+02441+02351101051ADDAY161061AY221061GF108991051051017501021001MA1999999100541MD1999999+0081MW1601REMSYN082AAXX  18184 82198 21793 80507 10244 20235 30054 40105 76062 85520 333 58008 60331;
0179821980999992003021900004-01720-045400FM-12+004499999V0200501N002110450019N0002001N1+02521+02431101221ADDAA106000021GF106991021071017501041001KA1240M+03091MA1999999100701MD1999999-0071REMSYN088AAXX  19004 82198 32792 60504 10252 20243 30070 40122 82740 333 10309 29091 55020 59007;
0190821980999992003021912004-01720-045400FM-12+004499999V0200901N002610450019N0040001N1+02491+02391101241ADDAY161061AY221061GF107991031071017501061001KA1240N+02291MA1999999100731MD1999999-0061MW1021REMSYN088AAXX  19124 82198 21796 70905 10249 20239 30073 40124 70262 83760 333 20229 59006 60364;
0167821980999992003021918004-01720-045400FM-12+004499999V0200501N004110150019N0040001N1+03061+02401100921ADDAA106000091GF106991051021017501061001MA1999999100411MD1999999-0131REMSYN070AAXX  19184 82198 32796 60508 10306 20240 30041 40092 85260 333 59013;EQDQ01  00002PRCP06
0162821980999992003022312004-01720-045400FM-12+004499999V0200501N002110150019N0020001N1+02811+02331101411ADDGF108991051071017501061001KA1240N+02301MA1999999100901MD1999999+0161REMSYN082AAXX  23124 82198 22795 80504 10281 20233 30090 40141 85760 333 20230 58016 60024;
0190821980999992003022412004-01720-045400FM-12+004499999V0200901N003110150019N0040001N1+02451+02171101541ADDAY161061AY221061GF108991051051017501011001KA1240N+02291MA1999999101031MD1999999+0131MW1021REMSYN088AAXX  24124 82198 21796 80906 10245 20217 30103 40154 70262 85510 333 20229 58013 60234;
0202821980999992003022500004-01720-045400FM-12+004499999V0202301N001510450019N0002001N1+02481+02361101371ADDAY151061AY221061GF108991031021017501051001KA1240M+03061MA1999999100851MD1999999-0061MW1531REMSYN100AAXX  25004 82198 21792 82303 10248 20236 30085 40137 75352 83250 333 10306 29086 55005 59006 60021;
0190821980999992003022512004-01720-045400FM-12+004499999V0202301N001010450019N0040001N1+02511+02411101311ADDAY161061AY221061GF107991041071017501011001KA1240N+02391MA1999999100791MD1999999-0241MW1021REMSYN088AAXX  25124 82198 21796 72302 10251 20241 30079 40131 70262 84710 333 20239 59024 60034;
0171821980999992003022518004-01720-045400FM-12+004499999V0200901N002610150019N0020001N1+02391+02351101041ADDAY161061AY221061GF108991051071017501021001MA1999999100521MD1999999-0131MW1631REMSYN082AAXX  25184 82198 21795 80905 10239 20235 30052 40104 76362 85720 333 59013 60301;
0202821980999992003022600004-01720-045400FM-12+004499999V0200501N000510450019N0002001N1+02451+02371101161ADDAY121061AY261061GF106991041021017501061001KA1240M+03021MA1999999100641MD1999999-0211MW1601REMSYN100AAXX  26004 82198 21792 60501 10245 20237 30064 40116 76026 84260 333 10302 29097 55012 59021 60021;
0190821980999992003022612004-01720-045400FM-12+004499999V0200501N002110150019N0005001N1+02471+02351101251ADDAY121061AY261061GF108991051071017501021001KA1240N+02361MA1999999100731MD1999999-0061MW1211REMSYN088AAXX  26124 82198 21793 80504 10247 20235 30073 40125 72126 85720 333 20236 59006 60324;
0190821980999992003031212004-01720-045400FM-12+004499999V0200501N001510450019N0020001N1+02661+02411101291ADDAY161061AY221061GF107991041071017501061001KA1240N+02451MA1999999100771MD1999999+0071MW1581REMSYN088AAXX  12124 82198 21795 70503 10266 20241 30077 40129 75862 84760 333 20245 58007 60064;
0171821980999992003031218004-01720-045400FM-12+004499999V0200501N002110450019N0100001N1+02761+02361100981ADDAY161061AY221061GF107991041071017501011001MA1999999100461MD1999999+0001MW1621REMSYN082AAXX  12184 82198 21797 70504 10276 20236 30046 40098 76262 84710 333 58000 60071;
0202821980999992003031300004-01720-045400FM-12+004499999V0200501N004110450019N0002001N1+02561+02311101081ADDAY161061AY221061GF107991031071017501021001KA1240M+02851MA1999999100561MD1999999+0001MW1211REMSYN100AAXX  13004 82198 21792 70508 10256 20231 30056 40108 72162 83720 333 10285 29090 55/// 58000 60121;
0190821980999992003031312004-01720-045400FM-12+004499999V0200501N001010450019N0100001N1+02591+02481101201ADDAY121061AY261061GF107991031051017501011041KA1240N+02371MA1999999100681MD1999999-0091MW1621REMSYN088AAXX  13124 82198 21797 70502 10259 20248 30068 40120 76226 83514 333 20237 59009 60194;
0171821980999992003031318004-01720-045400FM-12+004499999V0203601N002110450019N0020001N1+02851+02441100871ADDAY161061AY221061GF107991041051017501011011MA1999999100351MD1999999-0111MW1621REMSYN082AAXX  13184 82198 21795 73604 10285 20244 30035 40087 76262 84511 333 59011 60041;
0202821980999992003031400004-01720-045400FM-12+004499999V0203201N002110450019N0002001N1+02531+02431101091ADDAY161061AY221061GF107991041071017501061001KA1240M+03031MA1999999100571MD1999999-0041MW1601REMSYN100AAXX  14004 82198 21792 73204 10253 20243 30057 40109 76062 84760 333 10303 29092 55/// 59004 69971;
0190821980999992003031412004-01720-045400FM-12+004499999V0200501N003110150019N0040001N1+02581+02401101201ADDAY121061AY261061GF108991051071017501021001KA1240N+02381MA1999999100681MD1999999+0001MW1621REMSYN088AAXX  14124 82198 21796 80506 10258 20240 30068 40120 76226 85720 333 20238 58000 60364;
0171821980999992003031418004-01720-045400FM-12+004499999V0203601N006210450019N0005001N1+02541+02411100941ADDAY121061AY261061GF107991041051017501021001MA1999999100421MD1999999+0071MW1621REMSYN082AAXX  14184 82198 21793 73612 10254 20241 30042 40094 76226 84520 333 58007 60031;
0202821980999992003031500004-01720-045400FM-12+004499999V0203201N000510450019N0002001N1+02321+02231101141ADDAY161061AY221061GF108991041071017501021001KA1240M+02941MA1999999100621MD1999999+0051MW1621REMSYN100AAXX  15004 82198 21792 83201 10232 20223 30062 40114 76262 84720 333 10294 29094 55/// 58005 60111;
0190821980999992003031512004-01720-045400FM-12+004499999V0200501N005710150019N0005001N1+02341+02221101451ADDAY161061AY221061GF108991081001017501021001KA1240N+02261MA1999999100931MD1999999+0251MW1631REMSYN088AAXX  15124 82198 21793 80511 10234 20222 30093 40145 76362 88020 333 20226 58025 60284;
0198821980999992003031600004-01720-045400FM-12+004499999V0203601N002110150019N0002001N1+02491+02231101251ADDAA106000091GF107991051051017501011001KA1240M+02591MA1999999100731MD1999999+0111REMSYN088AAXX  16004 82198 32792 73604 10249 20223 30073 40125 85510 333 10259 29091 55/// 58011;EQDQ01  00002PRCP06
0190821980999992003031612004-01720-045400FM-12+004499999V0202701N001010450019N0005001N1+02361+02251101391ADDAY121061AY261061GF108991041051017501011001KA1240N+02231MA1999999100871MD1999999-0061MW1621REMSYN088AAXX  16124 82198 21793 82702 10236 20225 30087 40139 76226 84510 333 20223 59006 60194;
0148821980999992003031618004-01720-045400FM-12+004499999V0203201N003610450019N0020001N1+02861+02411101081ADDAA106000021GF107991031051017501011011MA1999999100561MD1999999-0031REMSYN070AAXX  16184 82198 32795 73207 10286 20241 30056 40108 83511 333 59003;
0190821980999992003031712004-01720-045400FM-12+004499999V0209999C000010450019N0020001N1+02341+02241101351ADDAY161061AY221061GF108991041051017501011001KA1240N+02281MA1999999100831MD1999999-0041MW1631REMSYN088AAXX  17124 82198 21795 80000 10234 20224 30083 40135 76362 84510 333 20228 59004 60344;
0171821980999992003031718004-01720-045400FM-12+004499999V0200501N002610450019N0100001N1+02691+02351100991ADDAY161061AY221061GF107991041051017501041041MA1999999100471MD1999999-0091MW1601REMSYN082AAXX  17184 82198 21797 70505 10269 20235 30047 40099 76062 84544 333 59009 69981;
0179821980999992003031800004-01720-045400FM-12+004499999V0203601N001010450019N0005001N1+02511+02381101141ADDAA106000021GF108991041021017501061001KA1240M+02781MA1999999100621MD1999999-0191REMSYN088AAXX  18004 82198 32793 83602 10251 20238 30062 40114 84260 333 10278 29092 55/// 59019;
0190821980999992003031812004-01720-045400FM-12+004499999V0200501N002112200019N0100001N1+02771+02341101271ADDAY161061AY221061GF105991041021017501001011KA1240N+02301MA1999999100761MD1999999-0071MW1021REMSYN088AAXX  18124 82198 21797 50504 10277 20234 30076 40127 70262 84201 333 20230 59007 60144;
0167821980999992003031818004-01720-045400FM-12+004499999V0200501N005710450019N0100001N1+02971+02401100941ADDAA106000091GF105991041021017501061001MA1999999100431MD1999999-0041REMSYN070AAXX  18184 82198 32797 50511 10297 20240 30043 40094 84260 333 59004;EQDQ01  00002PRCP06
0202821980999992003032000004-01720-045400FM-12+004499999V0202301N001010450019N0002001N1+02441+02351101351ADDAY161061AY221061GF107991031011017501041001KA1240M+02911MA1999999100831MD1999999+0121MW1021REMSYN100AAXX  20004 82198 21792 72302 10244 20235 30083 40135 70262 83140 333 10291 29092 55/// 58012 60051;
0162821980999992003032012004-01720-045400FM-12+004499999V0202701N002110150019N0020001N1+02521+02381101451ADDGF108991061051017501061001KA1240N+02311MA1999999100941MD1999999+0021REMSYN082AAXX  20124 82198 22795 82704 10252 20238 30094 40145 86560 333 20231 58002 60104;
0171821980999992003032018004-01720-045400FM-12+004499999V0203201N001510150019N0020001N1+02541+02381101191ADDAY161061AY221061GF108991051051017501041001MA1999999100681MD1999999+0041MW1021REMSYN082AAXX  20184 82198 21795 83203 10254 20238 30068 40119 70262 85540 333 58004 60031;
0198821980999992003032100004-01720-045400FM-12+004499999V0203201N001512200019N0002001N1+02451+02351101411ADDAA106000091GF104991021071017501061001KA1240M+03101MA1999999100901MD1999999+0071REMSYN088AAXX  21004 82198 32792 43203 10245 20235 30090 40141 82760 333 10310 29093 55/// 58007;EQDQ01  00002PRCP06
0162821980999992003032112004-01720-045400FM-12+004499999V0200501N002110450019N0040001N1+02661+02461101351ADDGF107991041021017501061001KA1240N+02341MA1999999100841MD1999999-0101REMSYN082AAXX  21124 82198 22796 70504 10266 20246 30084 40135 84260 333 20234 59010 60034;
0167821980999992003032118004-01720-045400FM-12+004499999V0200501N005110450019N0040001N1+02861+02371100931ADDAA106000091GF107991041031017501061001MA1999999100421MD1999999-0261REMSYN070AAXX  21184 82198 32796 70510 10286 20237 30042 40093 84360 333 59026;EQDQ01  00002PRCP06
0190821980999992003032812004-01720-045400FM-12+004499999V0203601N001510450019N0040001N1+02641+02521101331ADDAY121061AY261061GF106991031021017501061011KA1240N+02251MA1999999100811MD1999999+0061MW1621REMSYN088AAXX  28124 82198 21796 63603 10264 20252 30081 40133 76226 83261 333 20225 58006 60234;
0171821980999992003032818004-01720-045400FM-12+004499999V0203601N005710450019N0100001N1+02931+02321101031ADDAY161061AY221061GF106991041021017501061011MA1999999100511MD1999999+0061MW1621REMSYN082AAXX  28184 82198 21797 63611 10293 20232 30051 40103 76262 84261 333 58006 60041;
0202821980999992003032900004-01720-045400FM-12+004499999V0202301N002110150019N0005001N1+02351+02331101331ADDAY161061AY221061GF108991061071017501021999KA1240M+03061MA1999999100811MD1999999+0011MW1631REMSYN100AAXX  29004 82198 21793 82304 10235 20233 30081 40133 76362 8672/ 333 10306 29089 55029 58001 60131;
0190821980999992003032912004-01720-045400FM-12+004499999V0200501N002110450019N0040001N1+02671+02501101291ADDAY121061AY251061GF107991041051017501061011KA1240N+02301MA1999999100771MD1999999-0041MW1021REMSYN088AAXX  29124 82198 21796 70504 10267 20250 30077 40129 70225 84561 333 20230 59004 60234;
0171821980999992003032918004-01720-045400FM-12+004499999V0203601N005710450019N0100001N1+02801+02461100911ADDAY161061AY221061GF106991041031017501041041MA1999999100391MD1999999-0121MW1601REMSYN082AAXX  29184 82198 21797 63611 10280 20246 30039 40091 76062 84344 333 59012 60011;
0202821980999992003033000004-01720-045400FM-12+004499999V0209999C000012200019N0005001N1+02521+02421101131ADDAY121061AY261061GF103991031021017501001001KA1240M+03061MA1999999100611MD1999999-0201MW1601REMSYN100AAXX  30004 82198 21793 30000 10252 20242 30061 40113 76026 83200 333 10306 29091 55040 59020 60041;
0190821980999992003033012004-01720-045400FM-12+004499999V0200901N002610450019N0040001N1+02681+02501101171ADDAY121061AY261061GF107991041071017501061041KA1240N+02381MA1999999100651MD1999999-0121MW1031REMSYN088AAXX  30124 82198 21796 70905 10268 20250 30065 40117 70326 84764 333 20238 59012 60094;
0171821980999992003033018004-01720-045400FM-12+004499999V0200501N003110450019N0040001N1+02911+02411100841ADDAY161061AY221061GF107991041051017501061041MA1999999100321MD1999999-0071MW1621REMSYN082AAXX  30184 82198 21796 70506 10291 20241 30032 40084 76262 84564 333 59007 60281;
0162821980999992003033112004-01720-045400FM-12+004499999V0200901N001010450019N0100001N1+02731+02521101161ADDGF107991041051017501061001KA1240N+02241MA1999999100641MD1999999-0011REMSYN082AAXX  31124 82198 22797 70902 10273 20252 30064 40116 84560 333 20224 59001 60284;
0171821980999992003033118004-01720-045400FM-12+004499999V0203601N003110450019N0040001N1+02861+02391100861ADDAY161061AY221061GF107991041071017501011041MA1999999100341MD1999999-0021MW1621REMSYN082AAXX  31184 82198 21796 73606 10286 20239 30034 40086 76262 84714 333 59002 60091;
0190821980999992003040112004-01720-045400FM-12+004499999V0201401N001010450019N0040001N1+02511+02401101311ADDAY161061AY221061GF107991031011017501061001KA1240N+02321MA1999999100801MD1999999+0161MW1021REMSYN088AAXX  01124 82198 21796 71402 10251 20240 30080 40131 70262 83160 333 20232 58016 60184;
0171821980999992003040118004-01720-045400FM-12+004499999V0200501N001510450019N0020001N1+02741+02501100921ADDAY161061AY221061GF107991031021017501041001MA1999999100411MD1999999+0071MW1021REMSYN082AAXX  01184 82198 21795 70503 10274 20250 30041 40092 70262 83240 333 58007 60241;
0202821980999992003040200004-01720-045400FM-12+004499999V0200501N002610150019N0002001N1+02511+02431101231ADDAY161061AY221061GF108991051051017501021999KA1240M+03051MA1999999100711MD1999999+0091MW1021REMSYN100AAXX  02004 82198 21792 80505 10251 20243 30071 40123 70262 8552/ 333 10305 29093 55023 58009 69981;
0190821980999992003040212004-01720-045400FM-12+004499999V0200901N002610150019N0005001N1+02401+02311101411ADDAY161061AY221061GF108991051071017501021999KA1240N+02321MA1999999100901MD1999999+0101MW1621REMSYN088AAXX  02124 82198 21793 80905 10240 20231 30090 40141 76262 8572/ 333 20232 58010 60524;
0171821980999992003040218004-01720-045400FM-12+004499999V0200501N003610450019N0040001N1+02641+02411101031ADDAY161061AY221061GF107991041011017501041001MA1999999100521MD1999999+0111MW1021REMSYN082AAXX  02184 82198 21796 70507 10264 20241 30052 40103 70262 84140 333 58011 60031;
0198821980999992003040300004-01720-045400FM-12+004499999V0201401N001010150019N0005001N1+02581+02441101261ADDAA106000091GF107991051071017501041001KA1240M+02781MA1999999100751MD1999999+0041REMSYN088AAXX  03004 82198 32793 71402 10258 20244 30075 40126 85740 333 10278 29092 55004 58004;EQDQ01  00002PRCP06
0190821980999992003040312004-01720-045400FM-12+004499999V0201801N001510150019N0040001N1+02541+02481101241ADDAY161061AY221061GF107991051011017501061001KA1240N+02321MA1999999100731MD1999999-0171MW1021REMSYN088AAXX  03124 82198 21796 71803 10254 20248 30073 40124 70262 85160 333 20232 59017 60054;
0171821980999992003040318004-01720-045400FM-12+004499999V0202301N001010450019N0100001N1+02781+02521100781ADDAY161061AY221061GF106991031021017501041001MA1999999100271MD1999999-0251MW1021REMSYN082AAXX  03184 82198 21797 62302 10278 20252 30027 40078 70262 83240 333 59025 69961;
0198821980999992003040400004-01720-045400FM-12+004499999V0203601N002112200019N0005001N1+02621+02441101041ADDAA106000091GF104991021011017501061001KA1240M+03151MA1999999100561MD1999999-0191REMSYN088AAXX  04004 82198 32793 43604 10262 20244 30056 40104 82160 333 10315 29090 55037 59019;EQDQ01  00002PRCP06
0162821980999992003040412004-01720-045400FM-12+004499999V0200501N003110150019N0040001N1+02761+02481101191ADDGF107991051031017501061001KA1240N+02351MA1999999100681MD1999999-0051REMSYN082AAXX  04124 82198 22796 70506 10276 20248 30068 40119 85360 333 20235 59005 69964;
0171821980999992003040418004-01720-045400FM-12+004499999V0200501N001010450019N0040001N1+02531+02431100891ADDAY161061AY221061GF108991031071017501041001MA1999999100381MD1999999+0111MW1021REMSYN082AAXX  04184 82198 21796 80502 10253 20243 30038 40089 70262 83740 333 58011 60081;
0198821980999992003040500004-01720-045400FM-12+004499999V0200901N001010450019N0005001N1+02521+02451101081ADDAA106000091GF106991031071017501051001KA1240M+02961MA1999999100571MD1999999+0011REMSYN088AAXX  05004 82198 32793 60902 10252 20245 30057 40108 83750 333 10296 29093 55014 58001;EQDQ01  00002PRCP06
0190821980999992003040512004-01720-045400FM-12+004499999V0200501N004110150019N0040001N1+02921+02521101211ADDAY161061AY221061GF106991051021017501061001KA1240N+02351MA1999999100701MD1999999+0021MW1011REMSYN088AAXX  05124 82198 21796 60508 10292 20252 30070 40121 70162 85260 333 20235 58002 60094;
0171821980999992003040518004-01720-045400FM-12+004499999V0203601N005110150019N0040001N1+02691+02501100931ADDAY161061AY221061GF108991051061017501041001MA1999999100421MD1999999+0041MW1021REMSYN082AAXX  05184 82198 21796 83610 10269 20250 30042 40093 70262 85640 333 58004 60131;
0198821980999992003040600004-01720-045400FM-12+004499999V0200501N003110450019N0002001N1+02611+02441101221ADDAA106000091GF106991041021017501061001KA1240M+02981MA1999999100701MD1999999+0131REMSYN088AAXX  06004 82198 32792 60506 10261 20244 30070 40122 84260 333 10298 29088 55033 58013;EQDQ01  00002PRCP06
0190821980999992003040612004-01720-045400FM-12+004499999V0200501N001510150019N0020001N1+02661+02501101271ADDAY161061AY221061GF108991051071017501051999KA1240N+02381MA1999999100761MD1999999+0061MW1031REMSYN088AAXX  06124 82198 21795 80503 10266 20250 30076 40127 70362 8575/ 333 20238 58006 60264;
0167821980999992003040618004-01720-045400FM-12+004499999V0200501N004110150019N0020001N1+02841+02401100981ADDAA106000091GF108991051071017501041001MA1999999100471MD1999999+0051REMSYN070AAXX  06184 82198 32795 80508 10284 20240 30047 40098 85740 333 58005;EQDQ01  00002PRCP06
0186821980999992003040712004-01720-045400FM-12+004499999V0203601N004110150019N0040001N1+02751+02501101161ADDAA106000091GF105991051021017501001001KA1240N+02401MA1999999100651MD1999999-0111REMSYN076AAXX  07124 82198 32796 53608 10275 20250 30065 40116 85200 333 20240 59011;EQDQ01  00002PRCP06
0167821980999992003040718004-01720-045400FM-12+004499999V0203601N004110450019N0040001N1+02941+02291100831ADDAA106000091GF106991041021017501061001MA1999999100321MD1999999-0151REMSYN070AAXX  07184 82198 32796 63608 10294 20229 30032 40083 84260 333 59015;EQDQ01  00002PRCP06
0198821980999992003040800004-01720-045400FM-12+004499999V0203601N002112200019N0005001N1+02601+02311101071ADDAA106000091GF102991021001017501061001KA1240M+03061MA1999999100561MD1999999-0091REMSYN088AAXX  08004 82198 32793 23604 10260 20231 30056 40107 82060 333 10306 29080 55055 59009;EQDQ01  00002PRCP06
0186821980999992003040812004-01720-045400FM-12+004499999V0203601N001512200019N0100001N1+02901+02341101131ADDAA106000091GF104991031021017501001011KA1240N+02381MA1999999100621MD1999999-0031REMSYN076AAXX  08124 82198 32797 43603 10290 20234 30062 40113 83201 333 20238 59003;EQDQ01  00002PRCP06
0171821980999992003040818004-01720-045400FM-12+004499999V0203601N004110150019N0040001N1+02551+02481100841ADDAY121061AY261061GF108991061071017501011001MA1999999100321MD1999999+0001MW1621REMSYN082AAXX  08184 82198 21796 83608 10255 20248 30032 40084 76226 86710 333 58000 60031;
0190821980999992003040912004-01720-045400FM-12+004499999V0200501N002610450019N0040001N1+02491+02371101321ADDAY121061AY261061GF108991041031017501021001KA1240N+02341MA1999999100801MD1999999+0181MW1621REMSYN088AAXX  09124 82198 21796 80505 10249 20237 30080 40132 76226 84320 333 20234 58018 60304;
0171821980999992003040918004-01720-045400FM-12+004499999V0203601N000510450019N0100001N1+02681+02541100991ADDAY121061AY261061GF107991031071017501011061MA1999999100471MD1999999+0151MW1031REMSYN082AAXX  09184 82198 21797 73601 10268 20254 30047 40099 70326 83716 333 58015 69911;
0198821980999992003041000004-01720-045400FM-12+004499999V0200501N001010450019N0005001N1+02561+02441101271ADDAA106000091GF106991031021017501031011KA1240M+02841MA1999999100751MD1999999+0101REMSYN088AAXX  10004 82198 32793 60502 10256 20244 30075 40127 83231 333 10284 29094 55000 58010;EQDQ01  00002PRCP06
0162821980999992003041012004-01720-045400FM-12+004499999V0200901N004110450019N0100001N1+02521+02361101361ADDGF107991041031017501041061KA1240N+02311MA1999999100841MD1999999+0041REMSYN082AAXX  10124 82198 22797 70908 10252 20236 30084 40136 84346 333 20231 58004 69914;
0171821980999992003041018004-01720-045400FM-12+004499999V0200901N002610450019N0100001N1+03021+02441100971ADDAY121061AY261061GF106991031021017501061061MA1999999100451MD1999999-0021MW1601REMSYN082AAXX  10184 82198 21797 60905 10302 20244 30045 40097 76026 83266 333 59002 60031;
0207821980999992003041100004-01720-045400FM-12+004499999V0200501N002610450019N0005001N1+02591+02441101201ADDAA106000021AY121061AY221061GF106991031021017501031011KA1240M+03041MA1999999100681MD1999999-0071MW1131REMSYN094AAXX  11004 82198 31793 60505 10259 20244 30068 40120 71322 83231 333 10304 29086 55023 59007;
0190821980999992003041112004-01720-045400FM-12+004499999V0200901N003610450019N0040001N1+02591+02501101321ADDAY161061AY221061GF107991041071017501011001KA1240N+02331MA1999999100801MD1999999-0041MW1601REMSYN088AAXX  11124 82198 21796 70907 10259 20250 30080 40132 76062 84710 333 20233 59004 60084;
0148821980999992003041118004-01720-045400FM-12+004499999V0200501N003110450019N0100001N1+02831+02341101031ADDAA106000021GF107991041071017501061001MA1999999100511MD1999999+0061REMSYN070AAXX  11184 82198 32797 70506 10283 20234 30051 40103 84760 333 58006;
0198821980999992003041200004-01720-045400FM-12+004499999V0209999C000010450019N0005001N1+02561+02461101221ADDAA106000091GF106991031021017501041041KA1240M+02931MA1999999100701MD1999999+0021REMSYN088AAXX  12004 82198 32793 60000 10256 20246 30070 40122 83244 333 10293 29090 55006 58002;EQDQ01  00002PRCP06
0186821980999992003041212004-01720-045400FM-12+004499999V0200501N003612200019N0100001N1+02951+02601101311ADDAA106000091GF105991031021017501001011KA1240N+02371MA1999999100791MD1999999-0011REMSYN076AAXX  12124 82198 32797 50507 10295 20260 30079 40131 83201 333 20237 59001;EQDQ01  00002PRCP06
0171821980999992003041218004-01720-045400FM-12+004499999V0200501N002110450019N0100001N1+02971+02551101031ADDAY121061AY261061GF106991031021017501041011MA1999999100511MD1999999+0001MW1621REMSYN082AAXX  12184 82198 21797 60504 10297 20255 30051 40103 76226 83241 333 58000 60021;
0207821980999992003041300004-01720-045400FM-12+004499999V0200501N003110150019N0005001N1+02671+02441101371ADDAA106000021AY121061AY221061GF108991051051017501031001KA1240M+03241MA1999999100851MD1999999+0151MW1131REMSYN094AAXX  13004 82198 31793 80506 10267 20244 30085 40137 71322 85530 333 10324 29084 55085 58015;
0162821980999992003041312004-01720-045400FM-12+004499999V0200501N003610450019N0100001N1+02871+02481101491ADDGF106991031021017501031041KA1240N+02541MA1999999100971MD1999999+0181REMSYN082AAXX  13124 82198 22797 60507 10287 20248 30097 40149 83234 333 20254 58018 60024;
0171821980999992003041318004-01720-045400FM-12+004499999V0203601N006710450019N0100001N1+03031+02441101121ADDAY111061AY221061GF106991031021017501041061MA1999999100611MD1999999+0101MW1021REMSYN082AAXX  13184 82198 21797 63613 10303 20244 30061 40112 70212 83246 333 58010 69911;
0202821980999992003041400004-01720-045400FM-12+004499999V0200501N002610450019N0005001N1+02541+02471101481ADDAY121061AY261061GF108991041071017501011001KA1240M+03131MA1999999100961MD1999999+0111MW1621REMSYN100AAXX  14004 82198 21793 80505 10254 20247 30096 40148 76226 84710 333 10313 29086 55055 58011 60081;
0162821980999992003041412004-01720-045400FM-12+004499999V0200501N003112200019N0100001N1+02921+02661101441ADDGF106991041021017501001061KA1240N+02451MA1999999100921MD1999999-0051REMSYN082AAXX  14124 82198 22797 60506 10292 20266 30092 40144 84206 333 20245 59005 60084;
0190821980999992003041512004-01720-045400FM-12+004499999V0201801N001010450019N0040001N1+02601+02391101401ADDAY161061AY221061GF107991021011017501071001KA1240N+02431MA1999999100891MD1999999-0031MW1021REMSYN088AAXX  15124 82198 21796 71802 10260 20239 30089 40140 70262 82170 333 20243 59003 60194;
0167821980999992003041518004-01720-045400FM-12+004499999V0200501N003610450019N0040001N1+03071+02471101011ADDAA106000091GF107991041021017501061001MA1999999100501MD1999999-0081REMSYN070AAXX  15184 82198 32796 70507 10307 20247 30050 40101 84260 333 59008;EQDQ01  00002PRCP06
0198821980999992003041600004-01720-045400FM-12+004499999V0200501N002110450019N0005001N1+02631+02421101271ADDAA106000091GF106991041021017501031001KA1240M+03151MA1999999100761MD1999999-0091REMSYN088AAXX  16004 82198 32793 60504 10263 20242 30076 40127 84230 333 10315 29084 55014 59009;EQDQ01  00002PRCP06
0190821980999992003041612004-01720-045400FM-12+004499999V0200501N001510150019N0020001N1+02411+02331101371ADDAY161061AY251061GF108991051071017501021001KA1240N+02321MA1999999100851MD1999999-0041MW1631REMSYN088AAXX  16124 82198 21795 80503 10241 20233 30085 40137 76365 85720 333 20232 59004 60194;
0171821980999992003041618004-01720-045400FM-12+004499999V0200501N003110450019N0100001N1+02751+02321100991ADDAY161061AY221061GF107991031021017501041001MA1999999100481MD1999999-0021MW1021REMSYN082AAXX  16184 82198 21797 70506 10275 20232 30048 40099 70262 83240 333 59002 60061;
0198821980999992003041700004-01720-045400FM-12+004499999V0203201N001010450019N0005001N1+02531+02421101261ADDAA106000091GF107991021021017501031001KA1240M+02811MA1999999100751MD1999999-0011REMSYN088AAXX  17004 82198 32793 73202 10253 20242 30075 40126 82230 333 10281 29090 55000 59001;EQDQ01  00002PRCP06
0162821980999992003041712004-01720-045400FM-12+004499999V0200501N003110450019N0100001N1+02971+02511101331ADDGF106991041021017501061001KA1240N+02351MA1999999100821MD1999999-0031REMSYN082AAXX  17124 82198 22797 60506 10297 20251 30082 40133 84260 333 20235 59003 60064;
0171821980999992003041718004-01720-045400FM-12+004499999V0200501N004110150019N0040001N1+02691+02461101001ADDAY161061AY221061GF107991051051017501041001MA1999999100491MD1999999+0011MW1021REMSYN082AAXX  17184 82198 21796 70508 10269 20246 30049 40100 70262 85540 333 58001 69931;
0202821980999992003041800004-01720-045400FM-12+004499999V0200901N001510450019N0005001N1+02541+02471101171ADDAY161061AY221061GF106991041021017501061001KA1240M+03241MA1999999100661MD1999999-0111MW1021REMSYN100AAXX  18004 82198 21793 60903 10254 20247 30066 40117 70262 84260 333 10324 29089 55063 59011 69991;
0162821980999992003041812004-01720-045400FM-12+004499999V0200901N002610150019N0100001N1+02851+02561101251ADDGF106991051021017501061001KA1240N+02341MA1999999100741MD1999999-0081REMSYN082AAXX  18124 82198 22797 60905 10285 20256 30074 40125 85260 333 20234 59008 60014;
0171821980999992003041818004-01720-045400FM-12+004499999V0200501N005110150019N0040001N1+02791+02421100951ADDAY161061AY221061GF107991051071017501041001MA1999999100441MD1999999-0051MW1021REMSYN082AAXX  18184 82198 21796 70510 10279 20242 30044 40095 70262 85740 333 59005 60011;
0202821980999992003041900004-01720-045400FM-12+004499999V0200501N001510450019N0005001N1+02441+02371101171ADDAY161061AY221061GF106991031071017501061001KA1240M+03221MA1999999100661MD1999999+0001MW1021REMSYN100AAXX  19004 82198 21793 60503 10244 20237 30066 40117 70262 83760 333 10322 29090 55063 58000 60531;
0162821980999992003041912004-01720-045400FM-12+004499999V0200501N004110150019N0040001N1+02911+02481101261ADDGF105991051021017501001001KA1240N+02361MA1999999100751MD1999999+0011REMSYN082AAXX  19124 82198 22796 50508 10291 20248 30075 40126 85200 333 20236 58001 60544;
0171821980999992003041918004-01720-045400FM-12+004499999V0200501N001510450019N0040001N1+02731+02541101011ADDAY121061AY261061GF106991041021017501041061MA1999999100501MD1999999+0061MW1621REMSYN082AAXX  19184 82198 21796 60503 10273 20254 30050 40101 76226 84246 333 58006 60031;
0179821980999992003042000004-01720-045400FM-12+004499999V0200901N002612200019N0005001N1+02641+02481101161ADDAA106000021GF102991021001017501061001KA1240M+03121MA1999999100651MD1999999-0011REMSYN088AAXX  20004 82198 32793 20905 10264 20248 30065 40116 82060 333 10312 29088 55058 59001;
0190821980999992003042012004-01720-045400FM-12+004499999V0200901N001510450019N0100001N1+02531+02361101161ADDAY161061AY221061GF106991021011017501041001KA1240N+02351MA1999999100651MD1999999-0101MW1031REMSYN088AAXX  20124 82198 21797 60903 10253 20236 30065 40116 70362 82140 333 20235 59010 60204;
0167821980999992003042018004-01720-045400FM-12+004499999V0200901N005110150019N0040001N1+02991+02371100801ADDAA106000091GF108991051021017501041001MA1999999100291MD1999999-0211REMSYN070AAXX  20184 82198 32796 80910 10299 20237 30029 40080 85240 333 59021;EQDQ01  00002PRCP06
0202821980999992003042100004-01720-045400FM-12+004499999V0200901N002610150019N0005001N1+02601+02401100981ADDAY161061AY221061GF107991051071017501041001KA1240M+03151MA1999999100471MD1999999-0181MW1021REMSYN100AAXX  21004 82198 21793 70905 10260 20240 30047 40098 70262 85740 333 10315 29085 55007 59018 69951;
0190821980999992003042112004-01720-045400FM-12+004499999V0200901N004610450019N0100001N1+02911+02601101111ADDAY161061AY221061GF106991041021017501061011KA1240N+02451MA1999999100601MD1999999-0051MW1021REMSYN088AAXX  21124 82198 21797 60909 10291 20260 30060 40111 70262 84261 333 20245 59005 69974;
0171821980999992003042118004-01720-045400FM-12+004499999V0200901N005110450019N0040001N1+03061+02301100741ADDAY161061AY231061GF106991031021017501041001MA1999999100231MD1999999-0061MW1021REMSYN082AAXX  21184 82198 21796 60910 10306 20230 30023 40074 70263 83240 333 59006 60061;
0198821980999992003042200004-01720-045400FM-12+004499999V0200501N002610450019N0005001N1+02631+02481101031ADDAA106000091GF106991031011017501041001KA1240M+03181MA1999999100521MD1999999+0061REMSYN088AAXX  22004 82198 32793 60505 10263 20248 30052 40103 83140 333 10318 29083 55065 58006;EQDQ01  00002PRCP06
0162821980999992003042212004-01720-045400FM-12+004499999V0200501N001510450019N0040001N1+02841+02521101121ADDGF106991031021017501041061KA1240N+02441MA1999999100601MD1999999+0001REMSYN082AAXX  22124 82198 22796 60503 10284 20252 30060 40112 83246 333 20244 58000 60064;
0171821980999992003042218004-01720-045400FM-12+004499999V0200501N001510450019N0040001N1+02631+02511100911ADDAY121061AY261061GF108991041051017501011001MA1999999100391MD1999999+0161MW1621REMSYN082AAXX  22184 82198 21796 80503 10263 20251 30039 40091 76226 84510 333 58016 60131;
0179821980999992003042300004-01720-045400FM-12+004499999V0200901N002110450019N0002001N1+02571+02481101061ADDAA106000021GF106991041021017501061001KA1240M+02921MA1999999100541MD1999999+0021REMSYN088AAXX  23004 82198 32792 60904 10257 20248 30054 40106 84260 333 10292 29091 55009 58002;
0190821980999992003042312004-01720-045400FM-12+004499999V0200501N004110150019N0040001N1+02671+02291101221ADDAY121061AY221061GF108991051071017501021001KA1240N+02401MA1999999100701MD1999999+0101MW1141REMSYN088AAXX  23124 82198 21796 80508 10267 20229 30070 40122 71422 85720 333 20240 58010 60134;
0171821980999992003042318004-01720-045400FM-12+004499999V0200501N001010450019N0100001N1+02641+02461100951ADDAY161061AY221061GF108991041051017501011001MA1999999100431MD1999999+0041MW1621REMSYN082AAXX  23184 82198 21797 80502 10264 20246 30043 40095 76262 84510 333 58004 60041;
0207821980999992003042400004-01720-045400FM-12+004499999V0200501N002610150019N0002001N1+02591+02511101181ADDAA106000021AY121061AY211061GF105991051021017501001001KA1240M+02941MA1999999100661MD1999999+0121MW1131REMSYN094AAXX  24004 82198 31792 50505 10259 20251 30066 40118 71321 85200 333 10294 29090 55013 58012;
0190821980999992003042412004-01720-045400FM-12+004499999V0201401N003110450019N0020001N1+02461+02431101281ADDAY161061AY221061GF108991041071017501021001KA1240N+02341MA1999999100761MD1999999+0061MW1601REMSYN088AAXX  24124 82198 21795 81406 10246 20243 30076 40128 76062 84720 333 20234 58006 60104;
0171821980999992003042418004-01720-045400FM-12+004499999V0201401N002610450019N0100001N1+03031+02491100891ADDAY121061AY261061GF106991041011017501041061MA1999999100371MD1999999-0061MW1601REMSYN082AAXX  24184 82198 21797 61405 10303 20249 30037 40089 76026 84146 333 59006 60021;
0207821980999992003042500004-01720-045400FM-12+004499999V0200501N001512200019N0002001N1+02601+02421101151ADDAA106000021AY121061AY211061GF103991021021017501061001KA1240M+03121MA1999999100631MD1999999-0031MW1131REMSYN094AAXX  25004 82198 31792 30503 10260 20242 30063 40115 71321 82260 333 10312 29088 55037 59003;
0190821980999992003042512004-01720-045400FM-12+004499999V0200501N001010450019N0100001N1+02631+02421101241ADDAY121061AY261061GF106991031011017501041041KA1240N+02371MA1999999100721MD1999999-0041MW1621REMSYN088AAXX  25124 82198 21797 60502 10263 20242 30072 40124 76226 83144 333 20237 59004 60044;
0171821980999992003042518004-01720-045400FM-12+004499999V0200501N002110450019N0040001N1+02501+02361100951ADDAY121061AY261061GF107991041071017501061011MA1999999100431MD1999999+0061MW1621REMSYN082AAXX  25184 82198 21796 70504 10250 20236 30043 40095 76226 84761 333 58006 60061;
0202821980999992003042600004-01720-045400FM-12+004499999V0201401N001510450019N0002001N1+02441+02371101331ADDAY161061AY221061GF106991041021017501061001KA1240M+03161MA1999999100811MD1999999+0181MW1211REMSYN100AAXX  26004 82198 21792 61403 10244 20237 30081 40133 72162 84260 333 10316 29094 55034 58018 60121;
0190821980999992003042612004-01720-045400FM-12+004499999V0203201N000510450019N0040001N1+02591+02511101411ADDAY121061AY261061GF107991041051017501061091KA1240N+02361MA1999999100891MD1999999+0171MW1601REMSYN088AAXX  26124 82198 21796 73201 10259 20251 30089 40141 76026 84569 333 20236 58017 60214;
0171821980999992003042618004-01720-045400FM-12+004499999V0200501N002110450019N0040001N1+02871+02461101141ADDAY151061AY221061GF107991041051017501061061MA1999999100621MD1999999+0171MW1521REMSYN082AAXX  26184 82198 21796 70504 10287 20246 30062 40114 75252 84566 333 58017 69951;
0207821980999992003042700004-01720-045400FM-12+004499999V0200901N002112200019N0002001N1+02601+02461101371ADDAA106000021AY111061AY221061GF103991031021017501001001KA1240M+03031MA1999999100851MD1999999+0041MW1131REMSYN094AAXX  27004 82198 31792 30904 10260 20246 30085 40137 71312 83200 333 10303 29090 55008 58004;
0190821980999992003042712004-01720-045400FM-12+004499999V0201801N000510450019N0040001N1+02561+02441101481ADDAY121061AY211061GF107991031071017501061011KA1240N+02371MA1999999100961MD1999999+0071MW1581REMSYN088AAXX  27124 82198 21796 71801 10256 20244 30096 40148 75821 83761 333 20237 58007 60024;
0148821980999992003042718004-01720-045400FM-12+004499999V0203601N004110450019N0100001N1+02941+02491101071ADDAA106000021GF107991041021017501061061MA1999999100551MD1999999-0071REMSYN070AAXX  27184 82198 32797 73608 10294 20249 30055 40107 84266 333 59007;
0226821980999992003042800004-01720-045400FM-12+004499999V0200501N002110450019N0002001N1+02581+02461101351ADDAA106000091AY121061AY221061GF105991031021017501061001KA1240M+03001MA1999999100831MD1999999-0021MW1131REMSYN094AAXX  28004 82198 31792 50504 10258 20246 30083 40135 71322 83260 333 10300 29088 55021 59002;EQDQ01  00002PRCP06
0190821980999992003042812004-01720-045400FM-12+004499999V0200901N001510450019N0100001N1+02641+02441101331ADDAY121061AY221061GF106991031051017501031061KA1240N+02221MA1999999100811MD1999999-0151MW1621REMSYN088AAXX  28124 82198 21797 60903 10264 20244 30081 40133 76222 83536 333 20222 59015 60164;
0176821980999992003042818004-01720-045400FM-12+004499999V0203601N004110450019N0100001N1+02921+02541100971ADDAA106000021AY121061AY221061GF106991031021012501041011MA1999999100451MD1999999-0101MW1171REMSYN076AAXX  28184 82198 31697 63608 10292 20254 30045 40097 71722 83241 333 59010;
0226821980999992003042900004-01720-045400FM-12+004499999V0203601N001510450019N0002001N1+02591+02401101251ADDAA106000091AY111061AY221061GF105991031021008001061001KA1240M+03081MA1999999100731MD1999999-0101MW1131REMSYN094AAXX  29004 82198 31592 53603 10259 20240 30073 40125 71312 83260 333 10308 29086 55061 59010;EQDQ01  00002PRCP06
0190821980999992003042912004-01720-045400FM-12+004499999V0200501N001510450019N0100001N1+02781+02541101331ADDAY121061AY261061GF106991031021012501041041KA1240N+02331MA1999999100821MD1999999+0011MW1021REMSYN088AAXX  29124 82198 21697 60503 10278 20254 30082 40133 70226 83244 333 20233 58001 60014;
0171821980999992003042918004-01720-045400FM-12+004499999V0200501N002610120019N0040001N1+02601+02441101011ADDAY121061AY261061GF107991051051012501041001MA1999999100501MD1999999+0051MW1621REMSYN082AAXX  29184 82198 21696 70505 10260 20244 30050 40101 76226 85540 333 58005 60241;
0202821980999992003043000004-01720-045400FM-12+004499999V0200501N001512200019N0002001N1+02521+02381101291ADDAY121061AY261061GF102991021001017501061001KA1240M+03141MA1999999100771MD1999999+0041MW1601REMSYN100AAXX  30004 82198 21792 20503 10252 20238 30077 40129 76026 82060 333 10314 29091 55029 58004 60021;
0190821980999992003043012004-01720-045400FM-12+004499999V0200901N002110450019N0040001N1+02611+02551101401ADDAY161061AY221061GF107991041071012501041001KA1240N+02281MA1999999100891MD1999999+0071MW1611REMSYN088AAXX  30124 82198 21696 70904 10261 20255 30089 40140 76162 84740 333 20228 58007 60334;
0171821980999992003043018004-01720-045400FM-12+004499999V0200901N001510450019N0040001N1+02601+02441101041ADDAY121061AY261061GF107991031031012501041001MA1999999100531MD1999999+0031MW1601REMSYN082AAXX  30184 82198 21696 70903 10260 20244 30053 40104 76026 83340 333 58003 60021;
0202821980999992003050100004-01720-045400FM-12+004499999V0200501N002110450019N0002001N1+02561+02461101361ADDAY121061AY261061GF105991031071012501041001KA1240M+02851MA1999999100841MD1999999+0071MW1621REMSYN100AAXX  01004 82198 21692 50504 10256 20246 30084 40136 76226 83740 333 10285 29094 55012 58007 60031;
0190821980999992003050112004-01720-045400FM-12+004499999V0200901N002112200019N0100001N1+02851+02521101401ADDAY121061AY261061GF105991041021004501001011KA1240N+02351MA1999999100891MD1999999+0001MW1611REMSYN088AAXX  01124 82198 21497 50904 10285 20252 30089 40140 76126 84201 333 20235 58000 60094;
0171821980999992003050118004-01720-045400FM-12+004499999V0200501N003610120019N0020001N1+02571+02461101091ADDAY121061AY261061GF108991051071012501041999MA1999999100581MD1999999-0051MW1631REMSYN082AAXX  01184 82198 21695 80507 10257 20246 30058 40109 76326 8574/ 333 59005 60091;
0202821980999992003050200004-01720-045400FM-12+004499999V0201801N001010450019N0002001N1+02501+02451101291ADDAY121061AY251061GF107991041071012501041001KA1240M+03121MA1999999100771MD1999999-0071MW1511REMSYN100AAXX  02004 82198 21692 71802 10250 20245 30077 40129 75125 84740 333 10312 29092 55032 59007 69911;
0190821980999992003050212004-01720-045400FM-12+004499999V0200501N001010120019N0040001N1+02561+02361101341ADDAY121061AY261061GF108991051071012501041001KA1240N+02331MA1999999100831MD1999999-0061MW1621REMSYN088AAXX  02124 82198 21696 80502 10256 20236 30083 40134 76226 85740 333 20233 59006 60154;
0171821980999992003050218004-01720-045400FM-12+004499999V0200501N001010075019N0020001N1+02541+02381101041ADDAY191061AY261061GF108991051051008001021999MA1999999100531MD1999999-0051MW1631REMSYN082AAXX  02184 82198 21595 80502 10254 20238 30053 40104 76396 8552/ 333 59005 60321;
0202821980999992003050300004-01720-045400FM-12+004499999V0203601N001010450019N0002001N1+02421+02351101231ADDAY121061AY261061GF107991041071012501041001KA1240M+03021MA1999999100721MD1999999-0051MW1631REMSYN100AAXX  03004 82198 21692 73602 10242 20235 30072 40123 76326 84740 333 10302 29093 55008 59005 60041;
0190821980999992003050312004-01720-045400FM-12+004499999V0203201N001010450019N0040001N1+02521+02451101321ADDAY121061AY261061GF107991031011008001061011KA1240N+02321MA1999999100801MD1999999-0031MW1621REMSYN088AAXX  03124 82198 21596 73202 10252 20245 30080 40132 76226 83161 333 20232 59003 60384;
0148821980999992003050318004-01720-045400FM-12+004499999V0203601N002610450019N0040001N1+02801+02461101011ADDAA106000021GF107991041021012501061001MA1999999100501MD1999999-0031REMSYN070AAXX  03184 82198 32696 73605 10280 20246 30050 40101 84260 333 59003;
0202821980999992003050400004-01720-045400FM-12+004499999V0203601N001512200019N0002001N1+02471+02341101281ADDAY121061AY261061GF102991021031012501001001KA1240M+02831MA1999999100761MD1999999+0041MW1621REMSYN100AAXX  04004 82198 21692 23603 10247 20234 30076 40128 76226 82300 333 10283 29092 55002 58004 60021;
0190821980999992003050412004-01720-045400FM-12+004499999V0200901N002110450019N0100001N1+02841+02561101291ADDAY121061AY261061GF106991031021004501061011KA1240N+02281MA1999999100781MD1999999-0021MW1611REMSYN088AAXX  04124 82198 21497 60904 10284 20256 30078 40129 76126 83261 333 20228 59002 60064;
0171821980999992003050418004-01720-045400FM-12+004499999V0203601N002110120019N0040001N1+02741+02521100881ADDAY121061AY261061GF107991051071012501041001MA1999999100371MD1999999-0131MW1631REMSYN082AAXX  04184 82198 21696 73604 10274 20252 30037 40088 76326 85740 333 59013 60061;
0179821980999992003050500004-01720-045400FM-12+004499999V0201401N003610120019N0002001N1+02441+02351101231ADDAA106000021GF108991051071012501041001KA1240M+03111MA1999999100721MD1999999-0041REMSYN088AAXX  05004 82198 32692 81407 10244 20235 30072 40123 85740 333 10311 29091 55034 59004;
0190821980999992003050512004-01720-045400FM-12+004499999V0200901N002611050019N0040001N1+02871+02641101301ADDAY121061AY261061GF105991021011004501061011KA1240N+02301MA1999999100791MD1999999+0011MW1531REMSYN088AAXX  05124 82198 21496 50905 10287 20264 30079 40130 75326 82161 333 20230 58001 60074;
0171821980999992003050518004-01720-045400FM-12+004499999V0203601N000510042019N0040001N1+02541+02451101031ADDAY161061AY251061GF108991061051004501011999MA1999999100521MD1999999+0151MW1631REMSYN082AAXX  05184 82198 21496 83601 10254 20245 30052 40103 76365 8651/ 333 58015 60331;
0202821980999992003050600004-01720-045400FM-12+004499999V0200901N001010450019N0005001N1+02551+02461101221ADDAY121061AY261061GF105991031011004501061001KA1240M+03041MA1999999100711MD1999999-0011MW1531REMSYN100AAXX  06004 82198 21493 50902 10255 20246 30071 40122 75326 83160 333 10304 29093 55029 59001 69921;
0190821980999992003050612004-01720-045400FM-12+004499999V0201401N001510450019N0040001N1+02781+02481101271ADDAY121061AY261061GF107991041071008001061001KA1240N+02331MA1999999100751MD1999999-0041MW1601REMSYN088AAXX  06124 82198 21596 71403 10278 20248 30075 40127 76026 84760 333 20233 59004 60414;
0171821980999992003050618004-01720-045400FM-12+004499999V0200901N005110450019N0040001N1+02981+02251101001ADDAY121061AY261061GF106991031021012501041041MA1999999100481MD1999999-0041MW1581REMSYN082AAXX  06184 82198 21696 60910 10298 20225 30048 40100 75826 83244 333 59004 60021;
0225821980999992003050700004-01720-045400FM-12+004499999V0200501N001512200019N0005001N1+02591+02441101101ADDAY101061AY251061GA1001+999999999GF100991001001999999001001KA1240M+03111MA1999999100581MD1999999-0131REMSYN094AAXX  07004 82198 21993 00503 10259 20244 30058 40110 75005 333 10311 29084 55074 59013 69911;EQDQ01+000502PRSWM1
0162821980999992003050712004-01720-045400FM-12+004499999V0200501N002110450019N0040001N1+02901+02521101201ADDGF106991041021008001061001KA1240N+02301MA1999999100691MD1999999-0061REMSYN082AAXX  07124 82198 22596 60504 10290 20252 30069 40120 84260 333 20230 59006 60024;
0167821980999992003050718004-01720-045400FM-12+004499999V0200501N004610120019N0100001N1+03231+02331100971ADDAA106000091GF105991051021012501001001MA1999999100451MD1999999-0031REMSYN070AAXX  07184 82198 32697 50509 10323 20233 30045 40097 85200 333 59003;EQDQ01  00002PRCP06
0208821980999992003050800004-01720-045400FM-12+004499999V0200501N002612200019N0005001N1+02641+02411101111ADDAA106000091GA1001+999999999GF100991001001999999001001KA1240M+03351MA1999999100591MD1999999+0011REMSYN082AAXX  08004 82198 32993 00505 10264 20241 30059 40111 333 10335 29078 55092 58001;EQDQ01  00002PRCP06
0186821980999992003050812004-01720-045400FM-12+004499999V0200501N002112200019N0100001N1+02921+02541101231ADDAA106000091GF104991031011008001001011KA1240N+02311MA1999999100711MD1999999+0021REMSYN076AAXX  08124 82198 32597 40504 10292 20254 30071 40123 83101 333 20231 58002;EQDQ01  00002PRCP06
0195821980999992003050818004-01720-045400FM-12+004499999V0200901N003110450019N0100001N1+03021+02471100921ADDAA106000091AY111061AY221061GF106991041021012501061001MA1999999100411MD1999999-0041MW1171REMSYN076AAXX  08184 82198 31697 60906 10302 20247 30041 40092 71712 84260 333 59004;EQDQ01  00002PRCP06
0202821980999992003050900004-01720-045400FM-12+004499999V0200901N003110450019N0005001N1+02561+02441101311ADDAY191061AY291061GF106991041021012501061001KA1240M+03451MA1999999100791MD1999999+0201MW1601REMSYN100AAXX  09004 82198 21693 60906 10256 20244 30079 40131 76099 84260 333 10345 29082 55085 58020 60021;
0162821980999992003050912004-01720-045400FM-12+004499999V0200501N003610450019N0040001N1+02951+02551101411ADDGF106991041021012501061001KA1240N+02351MA1999999100891MD1999999+0111REMSYN082AAXX  09124 82198 22696 60507 10295 20255 30089 40141 84260 333 20235 58011 60024;
0171821980999992003050918004-01720-045400FM-12+004499999V0200501N002610450019N0040001N1+02631+02391101061ADDAY121061AY291061GF107991041051008001041011MA1999999100541MD1999999+0131MW1501REMSYN082AAXX  09184 82198 21596 70505 10263 20239 30054 40106 75029 84541 333 58013 69911;
0207821980999992003051000004-01720-045400FM-12+004499999V0200501N003110450019N0005001N1+02651+02421101271ADDAA106000021AY191061AY221061GF105991031021008001041001KA1240M+03241MA1999999100751MD1999999-0041MW1131REMSYN094AAXX  10004 82198 31593 50506 10265 20242 30075 40127 71392 83240 333 10324 29086 55065 59004;
0171821980999992003051018004-01720-045400FM-12+004499999V0200501N000510450019N0040001N1+02791+02641101051ADDAY121061AY261061GF106991041071012501061001MA1999999100531MD1999999-0011MW1621REMSYN082AAXX  10184 82198 21696 60501 10279 20264 30053 40105 76226 84760 333 59001 60261;
0179821980999992003051100004-01720-045400FM-12+004499999V0200901N002111050019N0005001N1+02611+02371101311ADDAA106000021GF105991021011008001041041KA1240M+03141MA1999999100791MD1999999+0041REMSYN088AAXX  11004 82198 32593 50904 10261 20237 30079 40131 82144 333 10314 29084 55067 58004;
0162821980999992003051112004-01720-045400FM-12+004499999V0200901N002610450019N0100001N1+02821+02501101421ADDGF106991031021008001041011KA1240N+02471MA1999999100901MD1999999+0011REMSYN082AAXX  11124 82198 22597 60905 10282 20250 30090 40142 83241 333 20247 58001 60264;
0171821980999992003051118004-01720-045400FM-12+004499999V0202301N001510450019N0040001N1+02431+02331101121ADDAY121061AY261061GF106991031031012501061041MA1999999100601MD1999999+0071MW1621REMSYN082AAXX  11184 82198 21696 62303 10243 20233 30060 40112 76226 83364 333 58007 60191;
0179821980999992003051200004-01720-045400FM-12+004499999V0200501N002610450019N0005001N1+02581+02331101331ADDAA106000021GF105991031011008001061001KA1240M+03131MA1999999100821MD1999999+0031REMSYN088AAXX  12004 82198 32593 50505 10258 20233 30082 40133 83160 333 10313 29088 55027 58003;
0190821980999992003051212004-01720-045400FM-12+004499999V0201401N001510450019N0040001N1+02531+02401101491ADDAY121061AY261061GF106991041021012501041011KA1240N+02271MA1999999100981MD1999999+0081MW1621REMSYN088AAXX  12124 82198 21696 61403 10253 20240 30098 40149 76226 84241 333 20227 58008 60284;
0171821980999992003051218004-01720-045400FM-12+004499999V0200501N003110450019N0040001N1+02881+02541101111ADDAY121061AY261061GF106991031021012501011061MA1999999100591MD1999999-0011MW1621REMSYN082AAXX  12184 82198 21696 60506 10288 20254 30059 40111 76226 83216 333 59001 60181;
0179821980999992003051300004-01720-045400FM-12+004499999V0200901N002610450019N0005001N1+02621+02441101361ADDAA106000021GF106991041011012501031011KA1240M+03141MA1999999100841MD1999999+0021REMSYN088AAXX  13004 82198 31693 60905 10262 20244 30084 40136 84131 333 10314 29088 55064 58002;
0162821980999992003051312004-01720-045400FM-12+004499999V0200901N003610120019N0040001N1+02991+02531101371ADDGF105991051021012501001001KA1240N+02381MA1999999100861MD1999999-0121REMSYN082AAXX  13124 82198 22696 50907 10299 20253 30086 40137 85200 333 20238 59012 60184;
0171821980999992003051318004-01720-045400FM-12+004499999V0200501N004110450019N0020001N1+02871+02461101011ADDAY121061AY261061GF107991041071008001041001MA1999999100501MD1999999-0091MW1501REMSYN082AAXX  13184 82198 21595 70508 10287 20246 30050 40101 75026 84740 333 59009 60021;
0190821980999992003051412004-01720-045400FM-12+004499999V0200901N001510450019N0040001N1+02591+02441101331ADDAY161061AY251061GF106991021011012501061001KA1240N+02341MA1999999100821MD1999999-0041MW1581REMSYN088AAXX  14124 82198 21696 60903 10259 20244 30082 40133 75865 82160 333 20234 59004 60074;
0171821980999992003051418004-01720-045400FM-12+004499999V0200501N002610120019N0040001N1+02901+02541100911ADDAY121061AY261061GF107991051071012501041001MA1999999100401MD1999999-0101MW1621REMSYN082AAXX  14184 82198 21696 70505 10290 20254 30040 40091 76226 85740 333 59010 60111;
0190821980999992003051512004-01720-045400FM-12+004499999V0200901N001510450019N0020001N1+02741+02581101231ADDAY111061AY221061GF108991041051008001021999KA1240N+02421MA1999999100721MD1999999-0101MW1161REMSYN088AAXX  15124 82198 21595 80903 10274 20258 30072 40123 71612 8452/ 333 20242 59010 60114;
0171821980999992003051518004-01720-045400FM-12+004499999V0200501N003110450019N0040001N1+02871+02541100911ADDAY121061AY261061GF107991041011012501041001MA1999999100401MD1999999+0001MW1631REMSYN082AAXX  15184 82198 21696 70506 10287 20254 30040 40091 76326 84140 333 58000 60181;
0202821980999992003051600004-01720-045400FM-12+004499999V0200901N002610075019N0005001N1+02501+02401101161ADDAY121061AY261061GF107991051071008001041001KA1240M+02921MA1999999100641MD1999999+0021MW1611REMSYN100AAXX  16004 82198 21593 70905 10250 20240 30064 40116 76126 85740 333 10292 29090 55020 58002 60101;
0190821980999992003051612004-01720-045400FM-12+004499999V0200901N002110450019N0040001N1+02601+02501101131ADDAY161061AY251061GF107991031011008001031001KA1240N+02361MA1999999100621MD1999999-0101MW1631REMSYN088AAXX  16124 82198 21596 70904 10260 20250 30062 40113 76365 83130 333 20236 59010 60494;
0171821980999992003051618004-01720-045400FM-12+004499999V0200901N002610450019N0040001N1+02531+02381100881ADDAY121061AY261061GF108991041071012501041999MA1999999100371MD1999999-0031MW1621REMSYN082AAXX  16184 82198 21696 80905 10253 20238 30037 40088 76226 8474/ 333 59003 60121;
0179821980999992003051700004-01720-045400FM-12+004499999V0200901N001510450019N0005001N1+02601+02481101091ADDAA106000021GF106991031011012501061001KA1240M+02941MA1999999100581MD1999999-0061REMSYN088AAXX  17004 82198 32693 60903 10260 20248 30058 40109 83160 333 10294 29093 55007 59006;
0162821980999992003051712004-01720-045400FM-12+004499999V0200501N001510120019N0040001N1+02681+02561101061ADDGF108991051071012501041999KA1240N+02391MA1999999100551MD1999999-0071REMSYN082AAXX  17124 82198 22696 80503 10268 20256 30055 40106 8574/ 333 20239 59007 60124;
0171821980999992003051718004-01720-045400FM-12+004499999V0200901N005710120019N0040001N1+02621+02351100831ADDAY121061AY261061GF108991061051012501021999MA1999999100321MD1999999-0051MW1631REMSYN082AAXX  17184 82198 21696 80911 10262 20235 30032 40083 76326 8652/ 333 59005 60101;
0202821980999992003051800004-01720-045400FM-12+004499999V0200501N001510450019N0005001N1+02481+02391101081ADDAY121061AY261061GF106991041071012501041001KA1240M+02831MA1999999100561MD1999999-0021MW1611REMSYN100AAXX  18004 82198 21693 60503 10248 20239 30056 40108 76126 84740 333 10283 29092 55006 59002 60021;
0190821980999992003051812004-01720-045400FM-12+004499999V0200901N002610120019N0100001N1+02521+02361101201ADDAY161061AY251061GF107991051071012501061001KA1240N+02351MA1999999100691MD1999999+0141MW1621REMSYN088AAXX  18124 82198 21697 70905 10252 20236 30069 40120 76265 85760 333 20235 58014 60244;
0171821980999992003051818004-01720-045400FM-12+004499999V0201401N002110075019N0020001N1+02571+02371100881ADDAY121061AY261061GF107991051071008001041001MA1999999100371MD1999999+0051MW1621REMSYN082AAXX  18184 82198 21595 71404 10257 20237 30037 40088 76226 85740 333 58005 60101;
0179821980999992003051900004-01720-045400FM-12+004499999V0200901N002110450019N0005001N1+02601+02331101091ADDAA106000021GF106991031011012501061001KA1240M+02921MA1999999100581MD1999999+0021REMSYN088AAXX  19004 82198 32693 60904 10260 20233 30058 40109 83160 333 10292 29085 55006 58002;
0190821980999992003051912004-01720-045400FM-12+004499999V0200901N001510450019N0040001N1+02561+02421101231ADDAY121061AY261061GF108991041071012501041999KA1240N+02421MA1999999100721MD1999999+0031MW1601REMSYN088AAXX  19124 82198 21696 80903 10256 20242 30072 40123 76026 8474/ 333 20242 58003 60114;
0171821980999992003051918004-01720-045400FM-12+004499999V0200901N002110120019N0040001N1+02641+02441100941ADDAY191061AY261061GF107991051071012501061001MA1999999100431MD1999999+0061MW1621REMSYN082AAXX  19184 82198 21696 70904 10264 20244 30043 40094 76296 85760 333 58006 60021;
0179821980999992003052000004-01720-045400FM-12+004499999V0200901N002612200019N0005001N1+02591+02421101171ADDAA106000021GF102991021031012501001001KA1240M+02941MA1999999100651MD1999999+0071REMSYN088AAXX  20004 82198 32693 20905 10259 20242 30065 40117 82300 333 10294 29090 55004 58007;
0190821980999992003052012004-01720-045400FM-12+004499999V0200901N003610120019N0020001N1+02591+02511101301ADDAY121061AY251061GF108991061071012501021001KA1240N+02451MA1999999100781MD1999999+0061MW1601REMSYN088AAXX  20124 82198 21695 80907 10259 20251 30078 40130 76025 86720 333 20245 58006 60034;
0171821980999992003052018004-01720-045400FM-12+004499999V0201401N004110450019N0100001N1+03081+02361100991ADDAY151061AY221061GF106991031021008001041011MA1999999100471MD1999999+0041MW1501REMSYN082AAXX  20184 82198 21597 61408 10308 20236 30047 40099 75052 83241 333 58004 69911;
0179821980999992003052100004-01720-045400FM-12+004499999V0200901N002612200019N0005001N1+02631+02311101171ADDAA106000021GF103991031021012501001001KA1240M+03111MA1999999100651MD1999999+0001REMSYN088AAXX  21004 82198 32693 30905 10263 20231 30065 40117 83200 333 10311 29082 55051 58000;
0162821980999992003052112004-01720-045400FM-12+004499999V0201401N002610075019N0100001N1+02891+02541101111ADDGF105991051011008001001001KA1240N+02401MA1999999100651MD1999999-0131REMSYN082AAXX  21124 82198 22597 51405 10289 20254 30065 40111 85100 333 20240 59013 69914;
0167821980999992003052118004-01720-045400FM-12+004499999V0200901N005712200019N0100001N1+03121+02341100921ADDAA106000091GF104991041021008001001001MA1999999100401MD1999999-0071REMSYN070AAXX  21184 82198 32597 40911 10312 20234 30040 40092 84200 333 59007;EQDQ01  00002PRCP06
0198821980999992003052200004-01720-045400FM-12+004499999V0200901N001512200019N0005001N1+02691+02351100191ADDAA106000091GF102991021021012501001001KA1240M+03341MA1999999101191MD1999999+0021REMSYN088AAXX  22004 82198 32693 20903 10269 20235 30119 40019 82200 333 10334 29079 55103 58002;EQDQ01  00002PRCP06
0186821980999992003052212004-01720-045400FM-12+004499999V0200901N002610450019N0040001N1+02911+02601101371ADDAA106000091GF106991031021012501061061KA1240N+02511MA1999999100851MD1999999+0201REMSYN076AAXX  22124 82198 32696 60905 10291 20260 30085 40137 83266 333 20251 58020;EQDQ01  00002PRCP06
0167821980999992003052218004-01720-045400FM-12+004499999V0200501N004610450019N0040001N1+03241+02331101041ADDAA106000091GF105991031021012501031011MA1999999100521MD1999999+0121REMSYN070AAXX  22184 82198 32696 50509 10324 20233 30052 40104 83231 333 58012;EQDQ01  00002PRCP06
0198821980999992003052300004-01720-045400FM-12+004499999V0200501N001510450019N0005001N1+02721+02521101291ADDAA106000091GF105991031021012501061001KA1240M+03341MA1999999100771MD1999999+0101REMSYN088AAXX  23004 82198 32693 50503 10272 20252 30077 40129 83260 333 10334 29080 55081 58010;EQDQ01  00002PRCP06
0186821980999992003052312004-01720-045400FM-12+004499999V0200901N003110450019N0020001N1+02971+02681101261ADDAA106000091GF106991031011012501031011KA1240N+02531MA1999999100741MD1999999-0111REMSYN076AAXX  23124 82198 32695 60906 10297 20268 30074 40126 83131 333 20253 59011;EQDQ01  00002PRCP06
0167821980999992003052318004-01720-045400FM-12+004499999V0200901N005711050019N0040001N1+03261+02391101111ADDAA106000091GF105991021021008001041041MA1999999100591MD1999999-0021REMSYN070AAXX  23184 82198 32596 50911 10326 20239 30059 40111 82244 333 59002;EQDQ01  00002PRCP06
0208821980999992003052400004-01720-045400FM-12+004499999V0200501N002112200019N0005001N1+02721+02521101191ADDAA106000091GA1001+999999999GF100991001001999999001001KA1240M+03351MA1999999100671MD1999999-0101REMSYN082AAXX  24004 82198 32993 00504 10272 20252 30067 40119 333 10335 29089 55088 59010;EQDQ01  00002PRCP06
0186821980999992003052412004-01720-045400FM-12+004499999V0200501N005110450019N0040001N1+02971+02571101151ADDAA106000091GF106991041021008001061011KA1240N+02521MA1999999100631MD1999999-0111REMSYN076AAXX  24124 82198 32596 60510 10297 20257 30063 40115 84261 333 20252 59011;EQDQ01  00002PRCP06
0167821980999992003052418004-01720-045400FM-12+004499999V0200901N004612200019N0040001N1+03181+02231100851ADDAA106000091GF106991031021008001001011MA1999999100331MD1999999-0171REMSYN070AAXX  24184 82198 32596 60909 10318 20223 30033 40085 83201 333 59017;EQDQ01  00002PRCP06
0186821980999992003052512004-01720-045400FM-12+004499999V0200901N002612200019N0040001N1+02981+02581101191ADDAA106000091GF106991041021008001001011KA1240N+02501MA1999999100671MD1999999+0041REMSYN076AAXX  25124 82198 32596 60905 10298 20258 30067 40119 84201 333 20250 58004;EQDQ01  00002PRCP06
0171821980999992003052518004-01720-045400FM-12+004499999V0200901N004111050019N0040001N1+03211+02381100911ADDAY121061AY251061GF106991021011008001011061MA1999999100391MD1999999+0061MW1021REMSYN082AAXX  25184 82198 21596 60908 10321 20238 30039 40091 70225 82116 333 58006 69911;
0208821980999992003052600004-01720-045400FM-12+004499999V0200501N003112200019N0005001N1+02691+02391101161ADDAA106000091GA1001+999999999GF100991001001999999001001KA1240M+03231MA1999999100641MD1999999+0071REMSYN082AAXX  26004 82198 32993 00506 10269 20239 30064 40116 333 10323 29080 55066 58007;EQDQ01  00002PRCP06
0162821980999992003052612004-01720-045400FM-12+004499999V0200501N002612200019N0040001N1+02981+02681101231ADDGF105991031021008001001011KA1240N+02561MA1999999100711MD1999999+0041REMSYN082AAXX  26124 82198 22596 50505 10298 20268 30071 40123 83201 333 20256 58004 69914;
0167821980999992003052618004-01720-045400FM-12+004499999V0200901N005112200019N0040001N1+03051+02371101021ADDAA106000091GF105991031021012501001011MA1999999100501MD1999999+0111REMSYN070AAXX  26184 82198 32696 50910 10305 20237 30050 40102 83201 333 58011;EQDQ01  00002PRCP06
0186821980999992003052712004-01720-045400FM-12+004499999V0200901N004612200019N0040001N1+02971+02511101451ADDAA106000091GF105991031021008001001011KA1240N+02511MA1999999100941MD1999999+0231REMSYN076AAXX  27124 82198 32596 50909 10297 20251 30094 40145 83201 333 20251 58023;EQDQ01  00002PRCP06
0167821980999992003052718004-01720-045400FM-12+004499999V0200901N004612200019N0040001N1+03121+02431101181ADDAA106000091GF105991041021008001001011MA1999999100671MD1999999+0171REMSYN070AAXX  27184 82198 32596 50909 10312 20243 30067 40118 84201 333 58017;EQDQ01  00002PRCP06
0208821980999992003052800004-01720-045400FM-12+004499999V0200901N003112200019N0005001N1+02661+02431101311ADDAA106000091GA1001+999999999GF100991001001999999001001KA1240M+03281MA1999999100801MD1999999+0021REMSYN082AAXX  28004 82198 32993 00906 10266 20243 30080 40131 333 10328 29079 55088 58002;EQDQ01  00002PRCP06
0186821980999992003052812004-01720-045400FM-12+004499999V0200901N003610075019N0040001N1+02981+02511101481ADDAA106000091GF105991051021008001001001KA1240N+02431MA1999999100971MD1999999+0031REMSYN076AAXX  28124 82198 32596 50907 10298 20251 30097 40148 85200 333 20243 58003;EQDQ01  00002PRCP06
0167821980999992003052818004-01720-045400FM-12+004499999V0200901N006212200019N0100001N1+03181+02471101131ADDAA106000091GF103991031021012501001001MA1999999100621MD1999999-0051REMSYN070AAXX  28184 82198 32697 30912 10318 20247 30062 40113 83200 333 59005;EQDQ01  00002PRCP06
0208821980999992003052900004-01720-045400FM-12+004499999V0200901N002612200019N0005001N1+02651+02411101351ADDAA106000091GA1001+999999999GF100991001001999999001001KA1240M+03311MA1999999100831MD1999999+0031REMSYN082AAXX  29004 82198 32993 00905 10265 20241 30083 40135 333 10331 29079 55101 58003;EQDQ01  00002PRCP06
0186821980999992003052912004-01720-045400FM-12+004499999V0200901N004112200019N0040001N1+02961+02451101391ADDAA106000091GF104991041011008001001001KA1240N+02501MA1999999100881MD1999999-0091REMSYN076AAXX  29124 82198 32596 40908 10296 20245 30088 40139 84100 333 20250 59009;EQDQ01  00002PRCP06
0171821980999992003052918004-01720-045400FM-12+004499999V0200501N001511050019N0040001N1+02851+02381101071ADDAY121061AY261061GF105991021011012501061011MA1999999100561MD1999999-0061MW1031REMSYN082AAXX  29184 82198 21696 50503 10285 20238 30056 40107 70326 82161 333 59006 60171;
0208821980999992003053000004-01720-045400FM-12+004499999V0200501N003112200019N0002001N1+02621+02441101291ADDAA106000091GA1001+999999999GF100991001001999999001001KA1240M+03281MA1999999100771MD1999999-0061REMSYN082AAXX  30004 82198 32992 00506 10262 20244 30077 40129 333 10328 29082 55074 59006;EQDQ01  00002PRCP06
0162821980999992003053012004-01720-045400FM-12+004499999V0200501N002610075019N0040001N1+02931+02521101381ADDGF106991061021008001001001KA1240N+02301MA1999999100871MD1999999-0011REMSYN082AAXX  30124 82198 22596 60505 10293 20252 30087 40138 86200 333 20230 59001 60174;
0171821980999992003053018004-01720-045400FM-12+004499999V0200501N004110075019N0020001N1+02451+02321101151ADDAY161061AY251061GF108991051071008001041999MA1999999100641MD1999999+0081MW1621REMSYN082AAXX  30184 82198 21595 80508 10245 20232 30064 40115 76265 8574/ 333 58008 60271;
0179821980999992003053100004-01720-045400FM-12+004499999V0200501N002110450019N0005001N1+02561+02421101371ADDAA106000021GF106991041071012501061001KA1240M+03131MA1999999100851MD1999999+0081REMSYN088AAXX  31004 82198 32693 60504 10256 20242 30085 40137 84760 333 10313 29089 55036 58008;
0162821980999992003053112004-01720-045400FM-12+004499999V0200501N003610450019N0040001N1+02821+02541101491ADDGF106991021021012501031011KA1240N+02321MA1999999100981MD1999999+0111REMSYN082AAXX  31124 82198 22696 60507 10282 20254 30098 40149 82231 333 20232 58011 60274;
0171821980999992003053118004-01720-045400FM-12+004499999V0203601N004610450019N0040001N1+02971+02531101171ADDAY121061AY261061GF105991031021012501061001MA1999999100661MD1999999+0021MW1021REMSYN082AAXX  31184 82198 21696 53609 10297 20253 30066 40117 70226 83260 333 58002 69951;
0202821980999992003060100004-01720-045400FM-12+004499999V0200501N002612200019N0005001N1+02591+02451101431ADDAY121061AY261061GF104991041001017501061001KA1240M+03101MA1999999100921MD1999999+0001MW1621REMSYN100AAXX  01004 82198 21793 40505 10259 20245 30092 40143 76226 84060 333 10310 29087 55057 58000 60061;
0203821980999992003060112004-01720-045400FM-12+004499999V0209999C000010450019N0040001N1+02541+02471101421ADDAY121061AY221061GF105991031021012501061011KA1240N+02331MA1999999100911MD1999999-0071REMSYN088AAXX  01124 82198 21696 50000 10254 20247 30091 40142 77622 83261 333 20233 59007 60134;EQDQ01+000762PRSWM1
0171821980999992003060118004-01720-045400FM-12+004499999V0200901N002110450019N0040001N1+02531+02381101111ADDAY121061AY261061GF107991041071012501041001MA1999999100601MD1999999-0061MW1021REMSYN082AAXX  01184 82198 21696 70904 10253 20238 30060 40111 70226 84740 333 59006 60021;
0198821980999992003060200004-01720-045400FM-12+004499999V0200901N001012200019N0005001N1+02511+02401101351ADDAA106000091GF103991031001008001061001KA1240M+02781MA1999999100831MD1999999-0021REMSYN088AAXX  02004 82198 32593 30902 10251 20240 30083 40135 83060 333 10278 29094 55002 59002;EQDQ01  00002PRCP06
0162821980999992003060212004-01720-045400FM-12+004499999V0200901N003612200019N0040001N1+02861+02621101371ADDGF105991031021008001001011KA1240N+02331MA1999999100861MD1999999-0051REMSYN082AAXX  02124 82198 22596 50907 10286 20262 30086 40137 83201 333 20233 59005 60024;
0167821980999992003060218004-01720-045400FM-12+004499999V0200501N004112200019N0100001N1+03091+02491101011ADDAA106000091GF105991041021012501001011MA1999999100501MD1999999-0101REMSYN070AAXX  02184 82198 32697 50508 10309 20249 30050 40101 84201 333 59010;EQDQ01  00002PRCP06
0208821980999992003060300004-01720-045400FM-12+004499999V0200901N003112200019N0002001N1+02601+02421101241ADDAA106000091GA1001+999999999GF100991001001999999001001KA1240M+03201MA1999999100721MD1999999-0111REMSYN082AAXX  03004 82198 32992 00906 10260 20242 30072 40124 333 10320 29084 55077 59011;EQDQ01  00002PRCP06
0186821980999992003060312004-01720-045400FM-12+004499999V0200401N004110450019N0040001N1+02961+02491101241ADDAA106000091GF106991031021008001061001KA1240N+02441MA1999999100721MD1999999-0141REMSYN076AAXX  03124 82198 32596 60408 10296 20249 30072 40124 83260 333 20244 59014;EQDQ01  00002PRCP06
0198821980999992003060400004-01720-045400FM-12+004499999V0200401N002612200019N0005001N1+02641+02421101161ADDAA106000091GF103991031021008001001001KA1240M+03231MA1999999100641MD1999999-0081REMSYN088AAXX  04004 82198 32593 30405 10264 20242 30064 40116 83200 333 10323 29080 55078 59008;EQDQ01  00002PRCP06
0186821980999992003060412004-01720-045400FM-12+004499999V0200501N003110450019N0100001N1+02931+02431101291ADDAA106000091GF106991031021008001061001KA1240N+02371MA1999999100771MD1999999+0051REMSYN076AAXX  04124 82198 32597 60506 10293 20243 30077 40129 83260 333 20237 58005;EQDQ01  00002PRCP06
0171821980999992003060418004-01720-045400FM-12+004499999V0202201N003610450019N0100001N1+02611+02461101001ADDAY191061AY221061GF107991041071012501061001MA1999999100481MD1999999+0071MW1621REMSYN082AAXX  04184 82198 21697 72207 10261 20246 30048 40100 76292 84760 333 58007 60041;
0202821980999992003060500004-01720-045400FM-12+004499999V0201701N002612200019N0005001N1+02401+02301101241ADDAY111061AY221061GF103991031021008001001001KA1240M+03241MA1999999100721MD1999999+0081MW1621REMSYN100AAXX  05004 82198 21593 31705 10240 20230 30072 40124 76212 83200 333 10324 29089 55063 58008 60041;
0162821980999992003060512004-01720-045400FM-12+004499999V0200801N002110450019N0100001N1+02821+02501101321ADDGF106991041021008001031091KA1240N+02361MA1999999100801MD1999999+0031REMSYN082AAXX  05124 82198 22597 60804 10282 20250 30080 40132 84239 333 20236 58003 60094;
0171821980999992003060518004-01720-045400FM-12+004499999V0200401N004610450019N0040001N1+02911+02521100981ADDAY121061AY261061GF106991031021012501061011MA1999999100461MD1999999-0021MW1621REMSYN082AAXX  05184 82198 21696 60409 10291 20252 30046 40098 76226 83261 333 59002 60021;
0207821980999992003060600004-01720-045400FM-12+004499999V0200401N002110450019N0005001N1+02671+02351101271ADDAA106000021AY121061AY211061GF106991041021012501031001KA1240M+03191MA1999999100751MD1999999+0031MW1131REMSYN094AAXX  06004 82198 31693 60404 10267 20235 30075 40127 71321 84230 333 10319 29084 55071 58003;
0190821980999992003060612004-01720-045400FM-12+004499999V0201301N001510450019N0100001N1+02581+02491101251ADDAY121061AY221061GF106991041021008001061011KA1240N+02371MA1999999100731MD1999999-0071MW1501REMSYN088AAXX  06124 82198 21597 61303 10258 20249 30073 40125 75022 84261 333 20237 59007 60024;
0171821980999992003060618004-01720-045400FM-12+004499999V0200901N003610120019N0100001N1+02711+02351101051ADDAY161061AY221061GF106991051021012501061001MA1999999100531MD1999999+0071MW1621REMSYN082AAXX  06184 82198 21697 60907 10271 20235 30053 40105 76262 85260 333 58007 60081;
0189821980999992003060700004-01720-045400FM-12+004499999V0200401N002112200019N0005001N1+02611+02401101331ADDAA106000021GA1001+999999999GF100991001001999999001001KA1240M+03241MA1999999100811MD1999999+0061REMSYN082AAXX  07004 82198 32993 00404 10261 20240 30081 40133 333 10324 29088 55063 58006;
0162821980999992003060712004-01720-045400FM-12+004499999V0200501N002110450019N0040001N1+02941+02561101271ADDGF106991031021008001061011KA1240N+02371MA1999999100751MD1999999+0021REMSYN082AAXX  07124 82198 22596 60504 10294 20256 30075 40127 83261 333 20237 58002 60084;
0171821980999992003060718004-01720-045400FM-12+004499999V0200501N003610450019N0040001N1+02381+02241101031ADDAY161061AY221061GF107991041071012501021001MA1999999100511MD1999999-0021MW1621REMSYN082AAXX  07184 82198 21696 70507 10238 20224 30051 40103 76262 84720 333 59002 60061;
0207821980999992003060800004-01720-045400FM-12+004499999V0203501N001512200019N0005001N1+02561+02441101261ADDAA106000021AY121061AY221061GF105991021021012501001041KA1240M+03281MA1999999100741MD1999999-0071MW1131REMSYN094AAXX  08004 82198 31693 53503 10256 20244 30074 40126 71322 82204 333 10328 29090 55061 59007;
0162821980999992003060812004-01720-045400FM-12+004499999V0200501N001510450019N0100001N1+02861+02461101241ADDGF105991031011012501031091KA1240N+02281MA1999999100721MD1999999-0031REMSYN082AAXX  08124 82198 22697 50503 10286 20246 30072 40124 83139 333 20228 59003 60064;
0202821980999992003060900004-01720-045400FM-12+004499999V0200901N002110450019N0005001N1+02341+02241101301ADDAY161061AY291061GF106991031071012501061001KA1240M+03251MA1999999100781MD1999999+0041MW1621REMSYN100AAXX  09004 82198 21693 60904 10234 20224 30078 40130 76269 83760 333 10325 29084 55087 58004 60411;
0190821980999992003060912004-01720-045400FM-12+004499999V0201401N002610450019N0100001N1+02621+02461101351ADDAY121061AY261061GF106991031021012501031011KA1240N+02271MA1999999100831MD1999999+0111MW1621REMSYN088AAXX  09124 82198 21697 61405 10262 20246 30083 40135 76226 83231 333 20227 58011 60444;
0171821980999992003060918004-01720-045400FM-12+004499999V0200501N002610450019N0040001N1+02691+02461101111ADDAY121061AY291061GF107991041031012501021001MA1999999100591MD1999999+0171MW1211REMSYN082AAXX  09184 82198 21696 70505 10269 20246 30059 40111 72129 84320 333 58017 69931;
0202821980999992003061000004-01720-045400FM-12+004499999V0200901N001510450019N0005001N1+02441+02311101291ADDAY161061AY221061GF106991031021008001041061KA1240M+03281MA1999999100771MD1999999-0011MW1621REMSYN100AAXX  10004 82198 21593 60903 10244 20231 30077 40129 76262 83246 333 10328 29093 55046 59001 60111;
0162821980999992003061012004-01720-045400FM-12+004499999V0200801N002112200019N0100001N1+02981+02551101471ADDGF104991041011012501001001KA1240N+02351MA1999999100961MD1999999+0131REMSYN082AAXX  10124 82198 22697 40804 10298 20255 30096 40147 84100 333 20235 58013 60114;
0198821980999992003061100004-01720-045400FM-12+004499999V0200501N002112200019N0005001N1+02631+02521101351ADDAA106000091GF104991041021008001001001KA1240M+03231MA1999999100831MD1999999+0061REMSYN088AAXX  11004 82198 32593 40504 10263 20252 30083 40135 84200 333 10323 29088 55078 58006;EQDQ01  00002PRCP06
0190821980999992003061112004-01720-045400FM-12+004499999V0201401N000510450019N0100001N1+02511+02381101361ADDAY121061AY261061GF106991021011012501031001KA1240N+02251MA1999999100851MD1999999-0111MW1621REMSYN088AAXX  11124 82198 21697 61401 10251 20238 30085 40136 76226 82130 333 20225 59011 60024;
0206821980999992003061118004-01720-045400FM-12+004499999V0201301N001010450019N0040001N1+03131+02621101241ADDAY121061AY261061GF106991041021012501061021MA1999999100731MD1999999-0071MW1021REMSYN082AAXX  11184 82198 21696 61302 10313 20262 33005 40124 70226 84262 333 59007 69931;EQDQ01+030051APOSP Q02+999990APOSP 
0202821980999992003061200004-01720-045400FM-12+004499999V0200401N001012200019N0005001N1+02631+02481101241ADDAY121061AY261061GF103991011011012501061001KA1240M+03201MA1999999100721MD1999999-0111MW1621REMSYN100AAXX  12004 82198 21693 30402 10263 20248 30072 40124 76226 81160 333 10320 29088 55043 59011 60011;
0190821980999992003061212004-01720-045400FM-12+004499999V0200801N003112200019N0100001N1+02711+02481101231ADDAY121061AY261061GF103991011021012501061001KA1240N+02431MA1999999100721MD1999999-0071MW1621REMSYN088AAXX  12124 82198 21697 30806 10271 20248 30072 40123 76226 81260 333 20243 59007 60024;
0148821980999992003061218004-01720-045400FM-12+004499999V0200801N006711050019N0100001N1+03111+02411100811ADDAA106000021GF105991021021012501061011MA1999999100301MD1999999-0231REMSYN070AAXX  12184 82198 32697 50813 10311 20241 30030 40081 82261 333 59023;
0198821980999992003061300004-01720-045400FM-12+004499999V0200801N003110450019N0005001N1+02641+02461101161ADDAA106000091GF106991041011012501061001KA1240M+03201MA1999999100641MD1999999-0081REMSYN088AAXX  13004 82198 32693 60806 10264 20246 30064 40116 84160 333 10320 29084 55089 59008;EQDQ01  00002PRCP06
0186821980999992003061312004-01720-045400FM-12+004499999V0200901N003610075019N0040001N1+02921+02561101121ADDAA106000091GF106991051021008001001011KA1240N+02451MA1999999100611MD1999999-0111REMSYN076AAXX  13124 82198 32596 60907 10292 20256 30061 40112 85201 333 20245 59011;EQDQ01  00002PRCP06
0171821980999992003061318004-01720-045400FM-12+004499999V0200901N002110450019N0040001N1+02781+02481100831ADDAY161061AY221061GF107991041031008001041001MA1999999100321MD1999999+0021MW1521REMSYN082AAXX  13184 82198 21596 70904 10278 20248 30032 40083 75262 84340 333 58002 60041;
0179821980999992003061400004-01720-045400FM-12+004499999V0200501N002112200019N0005001N1+02611+02461101141ADDAA106000021GF103991031011012501001001KA1240M+03131MA1999999100621MD1999999-0021REMSYN088AAXX  14004 82198 32693 30504 10261 20246 30062 40114 83100 333 10313 29087 55052 59002;
0162821980999992003061412004-01720-045400FM-12+004499999V0200901N002112200019N0040001N1+02901+02601101171ADDGF104991021011012501061001KA1240N+02461MA1999999100661MD1999999+0051REMSYN082AAXX  14124 82198 22696 40904 10290 20260 30066 40117 82160 333 20246 58005 60044;
0171821980999992003061418004-01720-045400FM-12+004499999V0200901N001510450019N0040001N1+02641+02501100951ADDAY191061AY261061GF107991041071012501041001MA1999999100441MD1999999+0121MW1031REMSYN082AAXX  14184 82198 21696 70903 10264 20250 30044 40095 70396 84740 333 58012 60161;
0198821980999992003061500004-01720-045400FM-12+004499999V0200901N002112200019N0005001N1+02631+02501101191ADDAA106000091GF104991011011012501061001KA1240M+03191MA1999999100671MD1999999+0051REMSYN088AAXX  15004 82198 32693 40904 10263 20250 30067 40119 81160 333 10319 29090 55053 58005;EQDQ01  00002PRCP06
0162821980999992003061512004-01720-045400FM-12+004499999V0200501N004110075019N0040001N1+02871+02541101261ADDGF106991061021008001001001KA1240N+02481MA1999999100751MD1999999+0091REMSYN082AAXX  15124 82198 22596 60508 10287 20254 30075 40126 86200 333 20248 58009 60164;
0171821980999992003061518004-01720-045400FM-12+004499999V0200901N004110450019N0040001N1+02521+02381101091ADDAY161061AY221061GF108991041051008001021999MA1999999100581MD1999999+0141MW1631REMSYN082AAXX  15184 82198 21596 80908 10252 20238 30058 40109 76362 8452/ 333 58014 60131;
0202821980999992003061600004-01720-045400FM-12+004499999V0200901N002612200019N0005001N1+02491+02431101291ADDAY161061AY221061GF104991011011012501061001KA1240M+03171MA1999999100771MD1999999+0101MW1011REMSYN100AAXX  16004 82198 21693 40905 10249 20243 30077 40129 70162 81160 333 10317 29092 55051 58010 60211;
0162821980999992003061612004-01720-045400FM-12+004499999V0200901N003612200019N0040001N1+02861+02601101341ADDGF103991021011012501001011KA1240N+02341MA1999999100831MD1999999+0081REMSYN082AAXX  16124 82198 22696 30907 10286 20260 30083 40134 82101 333 20234 58008 60334;
0167821980999992003061618004-01720-045400FM-12+004499999V0200901N004110450019N0100001N1+03081+02441101091ADDAA106000091GF105991041021012501061001MA1999999100581MD1999999+0001REMSYN070AAXX  16184 82198 32697 50908 10308 20244 30058 40109 84260 333 58000;EQDQ01  00002PRCP06
0198821980999992003061700004-01720-045400FM-12+004499999V0200901N002112200019N0005001N1+02611+02401101341ADDAA106000091GF103991031001017501061001KA1240M+03201MA1999999100821MD1999999+0051REMSYN088AAXX  17004 82198 32793 30904 10261 20240 30082 40134 83060 333 10320 29083 55106 58005;EQDQ01  00002PRCP06
0186821980999992003061712004-01720-045400FM-12+004499999V0201401N002612200019N0100001N1+02701+02451101321ADDAA106000091GF103991021021012501031001KA1240N+02401MA1999999100801MD1999999-0031REMSYN076AAXX  17124 82198 32697 31405 10270 20245 30080 40132 82230 333 20240 59003;EQDQ01  00002PRCP06
0171821980999992003061718004-01720-045400FM-12+004499999V0200801N004110450019N0100001N1+02771+02481101081ADDAY161061AY221061GF106991031021008001041061MA1999999100561MD1999999-0021MW1601REMSYN082AAXX  17184 82198 21597 60808 10277 20248 30056 40108 76062 83246 333 59002 60011;
0179821980999992003061800004-01720-045400FM-12+004499999V0200201N002112200019N0005001N1+02561+02331101261ADDAA106000021GF102991021011008001001001KA1240M+03041MA1999999100741MD1999999-0081REMSYN088AAXX  18004 82198 32593 20204 10256 20233 30074 40126 82100 333 10304 29086 55089 59008;
0162821980999992003061812004-01720-045400FM-12+004499999V0200801N002611050019N0100001N1+02861+02521101311ADDGF105991021021008001031011KA1240N+02211MA1999999100791MD1999999-0011REMSYN082AAXX  18124 82198 22597 50805 10286 20252 30079 40131 82231 333 20221 59001 60014;
0171821980999992003061818004-01720-045400FM-12+004499999V0200801N004612200019N0100001N1+03041+02451101111ADDAY121061AY261061GF106991031021012501001061MA1999999100591MD1999999+0031MW1601REMSYN082AAXX  18184 82198 21697 60809 10304 20245 30059 40111 76026 83206 333 58003 60051;
0179821980999992003061900004-01720-045400FM-12+004499999V0200801N002610450019N0002001N1+02651+02351101291ADDAA106000021GF105991031021012501061001KA1240M+03161MA1999999100771MD1999999+0031REMSYN088AAXX  19004 82198 32692 50805 10265 20235 30077 40129 83260 333 10316 29081 55061 58003;
0162821980999992003061912004-01720-045400FM-12+004499999V0200801N003610450019N0100001N1+02961+02431101391ADDGF106991041021008001061001KA1240N+02441MA1999999100871MD1999999+0081REMSYN082AAXX  19124 82198 22597 60807 10296 20243 30087 40139 84260 333 20244 58008 60054;
0183821980999992003061918004-01720-045400FM-12+004499999V0200801N004619999999N0100001N1+03071+02371101101ADDAA106000091GF106991999041012501021001MA1999999100581MD1999999-0011REMSYN070AAXX  19184 82198 32697 60809 10307 20237 30058 40110 88420 333 59001;EQDQ01+000082SCOTLCQ02  00002PRCP06
0186821980999992003062012004-01720-045400FM-12+004499999V0200801N004110075019N0100001N1+02971+02571101391ADDAA106000091GF106991061021008001001001KA1240N+02481MA1999999100871MD1999999+0001REMSYN076AAXX  20124 82198 32597 60808 10297 20257 30087 40139 86200 333 20248 58000;EQDQ01  00002PRCP06
0167821980999992003062018004-01720-045400FM-12+004499999V0200801N004612200019N0040001N1+03211+02581101111ADDAA106000091GF106991041021012501001011MA1999999100591MD1999999+0011REMSYN070AAXX  20184 82198 32696 60809 10321 20258 30059 40111 84201 333 58001;EQDQ01  00002PRCP06
0226821980999992003062100004-01720-045400FM-12+004499999V0200701N002112200019N0005001N1+02641+02441101311ADDAA106000091AY111061AY291061GF103991021021008001061001KA1240M+03261MA1999999100791MD1999999-0041MW1131REMSYN094AAXX  21004 82198 31593 30704 10264 20244 30079 40131 71319 82260 333 10326 29082 55099 59004;EQDQ01  00002PRCP06
0162821980999992003062112004-01720-045400FM-12+004499999V0200701N004610450019N0100001N1+02891+02421101451ADDGF106991031021008001061001KA1240N+02521MA1999999100931MD1999999+0061REMSYN082AAXX  21124 82198 22597 60709 10289 20242 30093 40145 83260 333 20252 58006 69974;
0167821980999992003062118004-01720-045400FM-12+004499999V0200801N003610450019N0040001N1+03071+02391101091ADDAA106000091GF106991031021012501061041MA1999999100571MD1999999-0021REMSYN070AAXX  21184 82198 32696 60807 10307 20239 30057 40109 83264 333 59002;EQDQ01  00002PRCP06
0226821980999992003062200004-01720-045400FM-12+004499999V0200601N001512200019N0005001N1+02591+02441101321ADDAA106000091AY111061AY221061GF104991041021008001001001KA1240M+03251MA1999999100801MD1999999+0011MW1131REMSYN094AAXX  22004 82198 31593 40603 10259 20244 30080 40132 71312 84200 333 10325 29083 55074 58001;EQDQ01  00002PRCP06
0186821980999992003062212004-01720-045400FM-12+004499999V0200601N002610075019N0100001N1+02901+02521101371ADDAA106000091GF105991051021008001001001KA1240N+02281MA1999999100851MD1999999-0081REMSYN076AAXX  22124 82198 32597 50605 10290 20252 30085 40137 85200 333 20228 59008;EQDQ01  00002PRCP06
0162821980999992003062312004-01720-045400FM-12+004499999V0200801N002610120019N0100001N1+02911+02641101321ADDGF106991061021012501001001KA1240N+02461MA1999999100801MD1999999-0051REMSYN082AAXX  23124 82198 22697 60805 10291 20264 30080 40132 86200 333 20246 59005 69964;
0167821980999992003062318004-01720-045400FM-12+004499999V0200801N005110075019N0100001N1+03111+02441101061ADDAA106000091GF106991061021008001001001MA1999999100541MD1999999+0041REMSYN070AAXX  23184 82198 32597 60810 10311 20244 30054 40106 86200 333 58004;EQDQ01  00002PRCP06
0208821980999992003062400004-01720-045400FM-12+004499999V0200801N002612200019N0002001N1+02641+02441101311ADDAA106000091GA1001+999999999GF100991001001999999001001KA1240M+03261MA1999999100791MD1999999+0121REMSYN082AAXX  24004 82198 32992 00805 10264 20244 30079 40131 333 10326 29083 55098 58012;EQDQ01  00002PRCP06
0186821980999992003062412004-01720-045400FM-12+004499999V0200901N005110075019N0100001N1+02901+02481101431ADDAA106000091GF105991051021008001001001KA1240N+02431MA1999999100921MD1999999+0121REMSYN076AAXX  24124 82198 32597 50910 10290 20248 30092 40143 85200 333 20243 58012;EQDQ01  00002PRCP06
0167821980999992003062418004-01720-045400FM-12+004499999V0200901N004610120019N0100001N1+03041+02481101141ADDAA106000091GF105991051021012501001001MA1999999100631MD1999999+0091REMSYN070AAXX  24184 82198 32697 50909 10304 20248 30063 40114 85200 333 58009;EQDQ01  00002PRCP06
0208821980999992003062500004-01720-045400FM-12+004499999V0200901N002612200019N0005001N1+02621+02421101391ADDAA106000091GA1001+999999999GF100991001001999999001001KA1240M+03181MA1999999100871MD1999999+0081REMSYN082AAXX  25004 82198 32993 00905 10262 20242 30087 40139 333 10318 29082 55099 58008;EQDQ01  00002PRCP06
0186821980999992003062512004-01720-045400FM-12+004499999V0200901N003612200019N0100001N1+02941+02561101441ADDAA106000091GF104991041011008001001001KA1240N+02391MA1999999100931MD1999999+0011REMSYN076AAXX  25124 82198 32597 40907 10294 20256 30093 40144 84100 333 20239 58001;EQDQ01  00002PRCP06
0171821980999992003062518004-01720-045400FM-12+004499999V0200501N005710450019N0040001N1+02501+02381101121ADDAY191061AY261061GF106991041051008001061011MA1999999100601MD1999999-0031MW1621REMSYN082AAXX  25184 82198 21596 60511 10250 20238 30060 40112 76296 84561 333 59003 60191;
0202821980999992003062600004-01720-045400FM-12+004499999V0200501N002112200019N0002001N1+02451+02371101351ADDAY191061AY261061GF103991011011008001061001KA1240M+03261MA1999999100831MD1999999-0041MW1611REMSYN100AAXX  26004 82198 21592 30504 10245 20237 30083 40135 76196 81160 333 10326 29091 55064 59004 60121;
0162821980999992003062612004-01720-045400FM-12+004499999V0200901N003610075019N0040001N1+02881+02541101341ADDGF105991051021008001001001KA1240N+02351MA1999999100831MD1999999-0101REMSYN082AAXX  26124 82198 22596 50907 10288 20254 30083 40134 85200 333 20235 59010 60304;
0167821980999992003062618004-01720-045400FM-12+004499999V0200901N004610075019N0100001N1+03131+02461101031ADDAA106000091GF106991061021008001001001MA1999999100521MD1999999-0081REMSYN070AAXX  26184 82198 32597 60909 10313 20246 30052 40103 86200 333 59008;EQDQ01  00002PRCP06
0208821980999992003062700004-01720-045400FM-12+004499999V0200801N002112200019N0005001N1+02611+02401101231ADDAA106000091GA1001+999999999GF100991001001999999001001KA1240M+03221MA1999999100721MD1999999-0111REMSYN082AAXX  27004 82198 32993 00804 10261 20240 30072 40123 333 10322 29082 55098 59011;EQDQ01  00002PRCP06
0186821980999992003062712004-01720-045400FM-12+004499999V0200801N004612200019N0100001N1+02791+02561101271ADDAA106000091GF104991041011012501001001KA1240N+02391MA1999999100761MD1999999-0071REMSYN076AAXX  27124 82198 32697 40809 10279 20256 30076 40127 84100 333 20239 59007;EQDQ01  00002PRCP06
0167821980999992003062718004-01720-045400FM-12+004499999V0200601N005110450019N0040001N1+02901+02501100991ADDAA106000091GF106991041071008001041001MA1999999100481MD1999999-0041REMSYN070AAXX  27184 82198 32596 60610 10290 20250 30048 40099 84740 333 59004;EQDQ01  00002PRCP06
0212821980999992003062800004-01720-045400FM-12+004499999V0200901N002112200019N0005001N1+02461+02361101331ADDAY161061AY221061GA1001+999999999GF100991001001999999001001KA1240M+03251MA1999999100811MD1999999+0091MW1021REMSYN094AAXX  28004 82198 21993 00904 10246 20236 30081 40133 70262 333 10325 29089 55073 58009 60131;
0167821980999992003062818004-01720-045400FM-12+004499999V0200801N001510120019N0100001N1+03231+02431101031ADDAA106000091GF105991051021012501001001MA1999999100521MD1999999+0041REMSYN070AAXX  28184 82198 32697 50803 10323 20243 30052 40103 85200 333 58004;EQDQ01  00002PRCP06
0212821980999992003062900004-01720-045400FM-12+004499999V0201401N001512200019N0002001N1+02401+02351101361ADDAY161061AY221061GA1001+999999999GF100991001001999999001001KA1240M+03391MA1999999100811MD1999999+0001MW1021REMSYN094AAXX  29004 82198 21992 01403 10240 20235 30081 40136 70262 333 10339 29085 55088 58000 60471;
0162821980999992003062912004-01720-045400FM-12+004499999V0200801N002112200019N0100001N1+02841+02581101341ADDGF104991041011012501001001KA1240N+02281MA1999999100831MD1999999+0011REMSYN082AAXX  29124 82198 22697 40804 10284 20258 30083 40134 84100 333 20228 58001 60474;
0167821980999992003062918004-01720-045400FM-12+004499999V0200501N004110450019N0040001N1+02761+02481101041ADDAA106000091GF107991041021012501041001MA1999999100531MD1999999+0011REMSYN070AAXX  29184 82198 32696 70508 10276 20248 30053 40104 84240 333 58001;EQDQ01  00002PRCP06
0198821980999992003063000004-01720-045400FM-12+004499999V0200801N001512200019N0005001N1+02541+02401101301ADDAA106000091GF104991041001017501061001KA1240M+03201MA1999999100781MD1999999-0031REMSYN088AAXX  30004 82198 32793 40803 10254 20240 30078 40130 84060 333 10320 29089 55072 59003;EQDQ01  00002PRCP06
0186821980999992003063012004-01720-045400FM-12+004499999V0200801N003112200019N0040001N1+02881+02601101411ADDAA106000091GF104991041021008001001001KA1240N+02381MA1999999100901MD1999999+0071REMSYN076AAXX  30124 82198 32596 40806 10288 20260 30090 40141 84200 333 20238 58007;EQDQ01  00002PRCP06
0171821980999992003063018004-01720-045400FM-12+004499999V0200401N002610075019N0040001N1+02951+02561101111ADDAY121061AY261061GF105991051021008001001001MA1999999100601MD1999999+0071MW1601REMSYN082AAXX  30184 82198 21596 50405 10295 20256 30060 40111 76026 85200 333 58007 60011;
0212821980999992003070100004-01720-045400FM-12+004499999V0200901N003112200019N0005001N1+02581+02401101331ADDAY161061AY221061GA1001+999999999GF100991001001999999001001KA1240M+03211MA1999999100811MD1999999+0031MW1021REMSYN094AAXX  01004 82198 21993 00906 10258 20240 30081 40133 70262 333 10321 29086 55069 58003 60021;
0162821980999992003070112004-01720-045400FM-12+004499999V0200701N004112200019N0100001N1+02871+02441101421ADDGF106991041021008001001041KA1240N+02451MA1999999100901MD1999999+0001REMSYN082AAXX  01124 82198 22597 60708 10287 20244 30090 40142 84204 333 20245 58000 60034;
0171821980999992003070118004-01720-045400FM-12+004499999V0200701N002110450019N0100001N1+02411+02331101221ADDAY121061AY291061GF107991041021012501011061MA1999999100701MD1999999+0101MW1621REMSYN082AAXX  01184 82198 21697 70704 10241 20233 30070 40122 76229 84216 333 58010 60041;
0207821980999992003070200004-01720-045400FM-12+004499999V0200901N002610450019N0005001N1+02541+02401101431ADDAA106000021AY121061AY221061GF106991031071012501061001KA1240M+03161MA1999999100911MD1999999+0101MW1031REMSYN094AAXX  02004 82198 31693 60905 10254 20240 30091 40143 70322 83760 333 10316 29090 55043 58010;
0190821980999992003070212004-01720-045400FM-12+004499999V0201701N002610450019N0100001N1+02601+02421101451ADDAY121061AY261061GF106991041021008001061011KA1240N+02271MA1999999100931MD1999999+0031MW1621REMSYN088AAXX  02124 82198 21597 61705 10260 20242 30093 40145 76226 84261 333 20227 58003 60024;
0171821980999992003070218004-01720-045400FM-12+004499999V0200701N006210075019N0100001N1+03061+02381101121ADDAY161061AY221061GF105991051021008001001001MA1999999100601MD1999999-0101MW1601REMSYN082AAXX  02184 82198 21597 50712 10306 20238 30060 40112 76062 85200 333 59010 69981;
0189821980999992003070300004-01720-045400FM-12+004499999V0200801N002112200019N0005001N1+02551+02371101451ADDAA106000021GA1001+999999999GF100991001001999999001001KA1240M+03141MA1999999100931MD1999999+0021REMSYN082AAXX  03004 82198 32993 00804 10255 20237 30093 40145 333 10314 29082 55090 58002;
0171821980999992003070318004-01720-045400FM-12+004499999V0200901N001010450019N0100001N1+02731+02501101161ADDAY161061AY221061GF106991041021012501061001MA1999999100651MD1999999+0051MW1031REMSYN082AAXX  03184 82198 21697 60902 10273 20250 30065 40116 70362 84260 333 58005 60101;
0202821980999992003070400004-01720-045400FM-12+004499999V0201401N002112200019N0005001N1+02371+02281101331ADDAY161061AY221061GF103991031001017501061001KA1240M+02981MA1999999100811MD1999999-0121MW1011REMSYN100AAXX  04004 82198 21793 31404 10237 20228 30081 40133 70162 83060 333 10298 29092 55046 59012 60011;
0162821980999992003070412004-01720-045400FM-12+004499999V0200501N001510450019N0040001N1+02641+02521101311ADDGF106991041021008001031001KA1240N+02231MA1999999100801MD1999999-0091REMSYN082AAXX  04124 82198 22596 60503 10264 20252 30080 40131 84230 333 20223 59009 60114;
0167821980999992003070418004-01720-045400FM-12+004499999V0201301N003610450019N0100001N1+03101+02391100991ADDAA106000091GF106991031021012501061001MA1999999100481MD1999999-0171REMSYN070AAXX  04184 82198 32697 61307 10310 20239 30048 40099 83260 333 59017;EQDQ01  00002PRCP06
0208821980999992003070500004-01720-045400FM-12+004499999V0200501N001512200019N0005001N1+02471+02381101061ADDAA106000091GA1001+999999999GF100991001001999999001001KA1240M+03171MA1999999100541MD1999999-0271REMSYN082AAXX  05004 82198 32993 00503 10247 20238 30054 40106 333 10317 29087 55037 59027;EQDQ01  00002PRCP06
0186821980999992003070512004-01720-045400FM-12+004499999V0200801N003612200019N0100001N1+02871+02541101211ADDAA106000091GF105991041021008001001011KA1240N+02281MA1999999100701MD1999999-0101REMSYN076AAXX  05124 82198 32597 50807 10287 20254 30070 40121 84201 333 20228 59010;EQDQ01  00002PRCP06
0171821980999992003070518004-01720-045400FM-12+004499999V0200501N003110450019N0040001N1+02901+02461100951ADDAY191061AY261061GF105991031021012501061021MA1999999100441MD1999999-0041MW1151REMSYN082AAXX  05184 82198 21696 50506 10290 20246 30044 40095 71596 83262 333 59004 60041;
0212821980999992003070600004-01720-045400FM-12+004499999V0200901N002112200019N0005001N1+02481+02411101151ADDAY161061AY221061GA1001+999999999GF100991001001999999001001KA1240M+03211MA1999999100631MD1999999+0091MW1011REMSYN094AAXX  06004 82198 21993 00904 10248 20241 30063 40115 70162 333 10321 29088 55070 58009 60021;
0162821980999992003070612004-01720-045400FM-12+004499999V0200901N003612200019N0040001N1+02861+02561101191ADDGF105991041021008001001011KA1240N+02331MA1999999100681MD1999999-0021REMSYN082AAXX  06124 82198 22596 50907 10286 20256 30068 40119 84201 333 20233 59002 60064;
0167821980999992003070618004-01720-045400FM-12+004499999V0201401N002110075019N0100001N1+03011+02371100911ADDAA106000091GF105991051021008001001001MA1999999100401MD1999999-0041REMSYN070AAXX  06184 82198 32597 51404 10301 20237 30040 40091 85200 333 59004;EQDQ01  00002PRCP06
0212821980999992003070700004-01720-045400FM-12+004499999V0200901N002612200019N0005001N1+02601+02461101151ADDAY161061AY221061GA1001+999999999GF100991001001999999001001KA1240M+03251MA1999999100631MD1999999+0001MW1011REMSYN094AAXX  07004 82198 21993 00905 10260 20246 30063 40115 70162 333 10325 29084 55094 58000 60011;
0190821980999992003070712004-01720-045400FM-12+004499999V0200801N003110075019N0040001N1+02821+02601101311ADDAY121061AY261061GF106991061021008001001001KA1240N+02421MA1999999100801MD1999999+0121MW1201REMSYN088AAXX  07124 82198 21596 60806 10282 20260 30080 40131 72026 86200 333 20242 58012 60014;
0171821980999992003070718004-01720-045400FM-12+004499999V0201101N000510450019N0040001N1+02551+02471101081ADDAY121061AY261061GF106991041021012501041001MA1999999100571MD1999999+0171MW1621REMSYN082AAXX  07184 82198 21696 61101 10255 20247 30057 40108 76226 84240 333 58017 60161;
0202821980999992003070800004-01720-045400FM-12+004499999V0200901N001512200019N0005001N1+02471+02341101321ADDAY121061AY261061GF103991031001017501061001KA1240M+03101MA1999999100801MD1999999+0171MW1601REMSYN100AAXX  08004 82198 21793 30903 10247 20234 30080 40132 76026 83060 333 10310 29092 55051 58017 69981;
0162821980999992003070812004-01720-045400FM-12+004499999V0200901N005110075019N0040001N1+02871+02541101271ADDGF106991051021008001001011KA1240N+02381MA1999999100761MD1999999-0041REMSYN082AAXX  08124 82198 22596 60910 10287 20254 30076 40127 85201 333 20238 59004 60174;
0167821980999992003070818004-01720-045400FM-12+004499999V0200901N004612200019N0100001N1+03101+02481100991ADDAA106000091GF104991041021012501001001MA1999999100481MD1999999-0091REMSYN070AAXX  08184 82198 32697 40909 10310 20248 30048 40099 84200 333 59009;EQDQ01  00002PRCP06
0186821980999992003070912004-01720-045400FM-12+004499999V0200901N004110075019N0040001N1+02871+02541101221ADDAA106000091GF106991061021008001001001KA1240N+02451MA1999999100711MD1999999-0051REMSYN076AAXX  09124 82198 32596 60908 10287 20254 30071 40122 86200 333 20245 59005;EQDQ01  00002PRCP06
0224821980999992003071000004-01717-045400FM-12+004499999V0200901N001512200019N0005001N1+03581+02441101231ADDAA106000091GA1001+999999999GF100991001001999999001001KA1240M+99999MA1999999100711MD1999999+0031REMSYN082AAXX  10004 82198 32993 00903 10358 20244 30071 40123 333 10316 29084 55095 58003;EQDQ01  00002PRCP06Q02 +03162ATMX  
0179821980999992003071012004-01717-045400FM-12+004499999V0200901N005110120019N0040001N1+02911+02501101331ADDAA124000491GF106991051021012501001011KA1240N+02421MA1999999100821MD1999999+0111REMSYN088AAXX  10124 82198 22696 60910 10291 20250 30082 40133 85201 333 20242 58011 69944 10004;
0167821980999992003071018004-01717-045400FM-12+004499999V0200901N003610120019N0100001N1+03151+02381101011ADDAA106000091GF105991051021012501001001MA1999999100501MD1999999+0041REMSYN070AAXX  10184 82198 32697 50907 10315 20238 30050 40101 85200 333 58004;EQDQ01  00002PRCP06
0208821980999992003071100004-01717-045400FM-12+004499999V0200801N003112200019N0005001N1+02581+02371101251ADDAA106000091GA1001+999999999GF100991001001999999001001KA1240M+03221MA1999999100731MD1999999+0021REMSYN082AAXX  11004 82198 32993 00806 10258 20237 30073 40125 333 10322 29081 55099 58002;EQDQ01  00002PRCP06
0186821980999992003071112004-01717-045400FM-12+004499999V0200801N003612200019N0100001N1+02871+02501101331ADDAA106000091GF104991041011012501001001KA1240N+02381MA1999999100821MD1999999+0001REMSYN076AAXX  11124 82198 32697 40807 10287 20250 30082 40133 84100 333 20238 58000;EQDQ01  00002PRCP06
0167821980999992003071118004-01717-045400FM-12+004499999V0200501N003110120019N0100001N1+03031+02461101081ADDAA106000091GF105991051021012501001001MA1999999100571MD1999999+0071REMSYN070AAXX  11184 82198 32697 50506 10303 20246 30057 40108 85200 333 58007;EQDQ01  00002PRCP06
0208821980999992003071200004-01717-045400FM-12+004499999V0200801N003112200019N0005001N1+02561+02331101341ADDAA106000091GA1001+999999999GF100991001001999999001001KA1240M+03211MA1999999100821MD1999999+0091REMSYN082AAXX  12004 82198 32993 00806 10256 20233 30082 40134 333 10321 29082 55086 58009;EQDQ01  00002PRCP06
0186821980999992003071212004-01717-045400FM-12+004499999V0200901N003612200019N0100001N1+02851+02501101491ADDAA106000091GF103991031011012501001001KA1240N+02361MA1999999100981MD1999999+0161REMSYN076AAXX  12124 82198 32697 30907 10285 20250 30098 40149 83100 333 20236 58016;EQDQ01  00002PRCP06
0167821980999992003071218004-01717-045400FM-12+004499999V0201001N001510120019N0100001N1+03201+02481101111ADDAA106000091GF105991051021012501001001MA1999999100601MD1999999+0031REMSYN070AAXX  12184 82198 32697 51003 10320 20248 30060 40111 85200 333 58003;EQDQ01  00002PRCP06
0186821980999992003071312004-01717-045400FM-12+004499999V0201701N001512200019N0100001N1+02621+02311101451ADDAA106000091GF104991021011012501061001KA1240N+02381MA1999999100941MD1999999-0041REMSYN076AAXX  13124 82198 32697 41703 10262 20231 30094 40145 82160 333 20238 59004;EQDQ01  00002PRCP06
0167821980999992003071318004-01717-045400FM-12+004499999V0200801N002610450019N0040001N1+02851+02391101171ADDAA106000091GF105991031011012501061001MA1999999100661MD1999999+0061REMSYN070AAXX  13184 82198 32696 50805 10285 20239 30066 40117 83160 333 58006;EQDQ01  00002PRCP06
0198821980999992003071400004-01717-045400FM-12+004499999V0200901N002112200019N0005001N1+02541+02361101421ADDAA106000091GF102991021001017501061001KA1240M+03101MA1999999100901MD1999999-0021REMSYN088AAXX  14004 82198 32793 20904 10254 20236 30090 40142 82060 333 10310 29085 55048 59002;EQDQ01  00002PRCP06
0190821980999992003071412004-01717-045400FM-12+004499999V0200901N005110450019N0040001N1+02821+02581101441ADDAY121061AY261061GF105991031021012501061001KA1240N+02431MA1999999100931MD1999999-0011MW1601REMSYN088AAXX  14124 82198 21696 50910 10282 20258 30093 40144 76026 83260 333 20243 59001 60024;
0171821980999992003071418004-01717-045400FM-12+004499999V0201701N002110120019N0100001N1+02781+02421101161ADDAY121061AY261061GF106991051071012501041001MA1999999100651MD1999999-0011MW1621REMSYN082AAXX  14184 82198 21697 61704 10278 20242 30065 40116 76226 85740 333 59001 60041;
0202821980999992003071500004-01717-045400FM-12+004499999V0200901N002112200019N0005001N1+02541+02291101361ADDAY161061AY221061GF103991031001017501061001KA1240M+03131MA1999999100841MD1999999-0061MW1131REMSYN100AAXX  15004 82198 21793 30904 10254 20229 30084 40136 71362 83060 333 10313 29085 55059 59006 69951;
0162821980999992003071512004-01717-045400FM-12+004499999V0200801N004612200019N0040001N1+02851+02441101421ADDGF103991031011008001001001KA1240N+02291MA1999999100911MD1999999-0021REMSYN082AAXX  15124 82198 22596 30809 10285 20244 30091 40142 83100 333 20229 59002 60044;
0171821980999992003071518004-01717-045400FM-12+004499999V0200901N003110450019N0040001N1+02901+02461101171ADDAY161061AY221061GF105991031021012501061001MA1999999100661MD1999999+0011MW1151REMSYN082AAXX  15184 82198 21696 50906 10290 20246 30066 40117 71562 83260 333 58001 69921;
0208821980999992003071600004-01717-045400FM-12+004499999V0200801N001512200019N0005001N1+02541+02361101391ADDAA106000091GA1001+999999999GF100991001001999999001001KA1240M+03221MA1999999100871MD1999999+0031REMSYN082AAXX  16004 82198 32993 00803 10254 20236 30087 40139 333 10322 29084 55077 58003;EQDQ01  00002PRCP06
0162821980999992003071612004-01717-045400FM-12+004499999V0200801N004612200019N0040001N1+02861+02481101461ADDGF104991041021012501001001KA1240N+02261MA1999999100951MD1999999+0041REMSYN082AAXX  16124 82198 22696 40809 10286 20248 30095 40146 84200 333 20226 58004 69924;
0171821980999992003071618004-01717-045400FM-12+004499999V0203601N003110120019N0040001N1+02781+02501101251ADDAY121061AY261061GF106991051021012501061001MA1999999100741MD1999999+0081MW1621REMSYN082AAXX  16184 82198 21696 63606 10278 20250 30074 40125 76226 85260 333 58008 60031;
0212821980999992003071700004-01717-045400FM-12+004499999V0200401N002612200019N0002001N1+02491+02391101501ADDAY161061AY221061GA1001+999999999GF100991001001999999001001KA1240M+03181MA1999999100981MD1999999+0111MW1011REMSYN094AAXX  17004 82198 21992 00405 10249 20239 30098 40150 70162 333 10318 29089 55071 58011 60021;
0162821980999992003071712004-01717-045400FM-12+004499999V0200801N004112200019N0040001N1+02841+02541101571ADDGF104991041011012501001001KA1240N+02361MA1999999101061MD1999999+0111REMSYN082AAXX  17124 82198 22696 40808 10284 20254 30106 40157 84100 333 20236 58011 60054;
0171821980999992003071718004-01717-045400FM-12+004499999V0200801N004610450019N0040001N1+02911+02341101341ADDAY161061AY221061GF106991041021012501041001MA1999999100831MD1999999+0091MW1151REMSYN082AAXX  17184 82198 21696 60809 10291 20234 30083 40134 71562 84240 333 58009 60021;
0208821980999992003071800004-01717-045400FM-12+004499999V0200701N002112200019N0002001N1+02521+02251101581ADDAA106000091GA1001+999999999GF100991001001999999001001KA1240M+03131MA1999999101061MD1999999+0081REMSYN082AAXX  18004 82198 32992 00704 10252 20225 30106 40158 333 10313 29082 55084 58008;EQDQ01  00002PRCP06
0179821980999992003071812004-01717-045400FM-12+004499999V0201001N004112200019N0040001N1+02831+02401101641ADDAA124002091GF102991021011008001001001KA1240N+02351MA1999999101131MD1999999+0071REMSYN088AAXX  18124 82198 22596 21008 10283 20240 30113 40164 82100 333 20235 58007 60024 10021;
0167821980999992003071818004-01717-045400FM-12+004499999V0200901N004610120019N0100001N1+03081+02401101391ADDAA106000091GF105991051021012501001001MA1999999100881MD1999999+0051REMSYN070AAXX  18184 82198 32697 50909 10308 20240 30088 40139 85200 333 58005;EQDQ01  00002PRCP06
0208821980999992003071900004-01717-045400FM-12+004499999V0200901N002612200019N0002001N1+02561+02351101531ADDAA106000091GA1001+999999999GF100991001001999999001001KA1240M+03261MA1999999101011MD1999999-0051REMSYN082AAXX  19004 82198 32992 00905 10256 20235 30101 40153 333 10326 29080 55103 59005;EQDQ01  00002PRCP06
0186821980999992003071912004-01717-045400FM-12+004499999V0200801N003612200019N0100001N1+02821+02521101661ADDAA106000091GF102991021021012501001001KA1240N+02231MA1999999101151MD1999999+0021REMSYN076AAXX  19124 82198 32697 20807 10282 20252 30115 40166 82200 333 20223 58002;EQDQ01  00002PRCP06
0171821980999992003071918004-01717-045400FM-12+004499999V0201001N001012200019N0100001N1+02601+02421101431ADDAY191061AY261061GF104991031021012501001011MA1999999100921MD1999999+0041MW1021REMSYN082AAXX  19184 82198 21697 41002 10260 20242 30092 40143 70296 83201 333 58004 60341;
0208821980999992003072000004-01717-045400FM-12+004499999V0200501N002612200019N0002001N1+02571+02361101551ADDAA106000091GA1001+999999999GF100991001001999999001001KA1240M+03141MA1999999101031MD1999999+0021REMSYN082AAXX  20004 82198 32992 00505 10257 20236 30103 40155 333 10314 29088 55080 58002;EQDQ01  00002PRCP06
0179821980999992003072012004-01717-045400FM-12+004499999V0200801N003610075019N0040001N1+02831+02521101571ADDAA124034091GF105991051011008001001001KA1240N+02251MA1999999101061MD1999999+0011REMSYN088AAXX  20124 82198 22596 50807 10283 20252 30106 40157 85100 333 20225 58001 60344 10344;
0171821980999992003072018004-01717-045400FM-12+004499999V0201001N003110450019N0040001N1+02501+02321101251ADDAY161061AY221061GF106991031021012501061001MA1999999100741MD1999999-0181MW1611REMSYN082AAXX  20184 82198 21696 61006 10250 20232 30074 40125 76162 83260 333 59018 60031;
0162821980999992003072112004-01717-045400FM-12+004499999V0200801N004610450019N0040001N1+02761+02521101491ADDGF106991041021008001061001KA1240N+02361MA1999999100981MD1999999-0081REMSYN082AAXX  21124 82198 22596 60809 10276 20252 30098 40149 84260 333 20236 59008 60094;
0167821980999992003072118004-01717-045400FM-12+004499999V0200801N005112200019N0100001N1+02961+02351101211ADDAA106000091GF103991021021012501061001MA1999999100701MD1999999-0041REMSYN070AAXX  21184 82198 32697 30810 10296 20235 30070 40121 82260 333 59004;EQDQ01  00002PRCP06
0198821980999992003072200004-01717-045400FM-12+004499999V0200901N002610450019N0002001N1+02561+02361101471ADDAA106000091GF105991041021008001061001KA1240M+03111MA1999999100951MD1999999+0001REMSYN088AAXX  22004 82198 32592 50905 10256 20236 30095 40147 84260 333 10311 29084 55066 58000;EQDQ01  00002PRCP06
0186821980999992003072212004-01717-045400FM-12+004499999V0200801N003612200019N0100001N1+02891+02521101461ADDAA106000091GF104991041011008001001001KA1240N+02381MA1999999100951MD1999999-0031REMSYN076AAXX  22124 82198 32597 40807 10289 20252 30095 40146 84100 333 20238 59003;EQDQ01  00002PRCP06
0171821980999992003072218004-01717-045400FM-12+004499999V0201001N002610450019N0040001N1+02881+02541101151ADDAY161061AY221061GF106991031021012501061001MA1999999100641MD1999999-0061MW1611REMSYN082AAXX  22184 82198 21696 61005 10288 20254 30064 40115 76162 83260 333 59006 69941;
0189821980999992003072300004-01717-045400FM-12+004499999V0200901N001512200019N0002001N1+02581+02441101381ADDAA106000021GA1001+999999999GF100991001001999999001001KA1240M+03241MA1999999100861MD1999999-0091REMSYN082AAXX  23004 82198 32992 00903 10258 20244 30086 40138 333 10324 29087 55084 59009;
0162821980999992003072312004-01717-045400FM-12+004499999V0200801N004110075019N0040001N1+02861+02541101401ADDGF106991051021008001061001KA1240N+02401MA1999999100891MD1999999-0061REMSYN082AAXX  23124 82198 22596 60808 10286 20254 30089 40140 85260 333 20240 59006 69944;
0148821980999992003072318004-01717-045400FM-12+004499999V0200601N001519999999N0040001N1+03071+02521101091ADDGF106991999999008001999999MA1999999100581MD1999999-0061REMSYN081AAXX  23184 82198 21596 60603 10307 20252 30058 40109 7262 84260 333 59006 60071;
0198821980999992003072400004-01717-045400FM-12+004499999V0200801N003112200019N0002001N1+02631+02441101351ADDAA106000091GF104991031011012501061001KA1240M+03141MA1999999100831MD1999999-0031REMSYN088AAXX  24004 82198 32692 40806 10263 20244 30083 40135 83160 333 10314 29084 55049 59003;EQDQ01  00002PRCP06
0162821980999992003072412004-01717-045400FM-12+004499999V0200801N003110450019N0040001N1+02831+02541101381ADDGF106991021011012501031001KA1240N+02381MA1999999100871MD1999999-0021REMSYN082AAXX  24124 82198 22696 60806 10283 20254 30087 40138 82130 333 20238 59002 60074;
0167821980999992003072418004-01717-045400FM-12+004499999V0201001N004112200019N0100001N1+03031+02361101111ADDAA106000091GF104991041021008001001001MA1999999100601MD1999999+0021REMSYN070AAXX  24184 82198 32597 41008 10303 20236 30060 40111 84200 333 58002;EQDQ01  00002PRCP06
0198821980999992003072500004-01717-045400FM-12+004499999V0200801N001512200019N0005001N1+02621+02371101351ADDAA106000091GF102991021001017501061001KA1240M+03171MA1999999100841MD1999999+0011REMSYN088AAXX  25004 82198 32793 20803 10262 20237 30084 40135 82060 333 10317 29081 55079 58001;EQDQ01  00002PRCP06
0190821980999992003072512004-01717-045400FM-12+004499999V0201001N005710450019N0040001N1+02801+02501101431ADDAY161061AY221061GF106991041021008001061001KA1240N+02421MA1999999100921MD1999999+0051MW1031REMSYN088AAXX  25124 82198 21596 61011 10280 20250 30092 40143 70362 84260 333 20242 58005 60034;
0171821980999992003072518004-01717-045400FM-12+004499999V0200901N006212200019N0040001N1+03021+02441101111ADDAY161061AY221061GF104991041021008001001001MA1999999100601MD1999999+0001MW1011REMSYN082AAXX  25184 82198 21596 40912 10302 20244 30060 40111 70162 84200 333 58000 60041;
0198821980999992003072600004-01717-045400FM-12+004499999V0200801N002612200019N0002001N1+02641+02411101391ADDAA106000091GF104991021011012501061001KA1240M+03151MA1999999100881MD1999999+0041REMSYN088AAXX  26004 82198 32692 40805 10264 20241 30088 40139 82160 333 10315 29082 55086 58004;EQDQ01  00002PRCP06
0162821980999992003072612004-01717-045400FM-12+004499999V0200901N004110075019N0040001N1+02721+02521101501ADDGF108991061071008001041999KA1240N+02491MA1999999100991MD1999999+0071REMSYN082AAXX  26124 82198 22596 80908 10272 20252 30099 40150 8674/ 333 20249 58007 60044;
0171821980999992003072618004-01717-045400FM-12+004499999V0201001N001510075019N0040001N1+02511+02381101271ADDAY161061AY221061GF108991051051008001041999MA1999999100761MD1999999+0161MW1631REMSYN082AAXX  26184 82198 21596 81003 10251 20238 30076 40127 76362 8554/ 333 58016 60231;
0212821980999992003072700004-01717-045400FM-12+004499999V0200801N002612200019N0002001N1+02501+02401101441ADDAY161061AY201061GA1001+999999999GF100991001001999999001001KA1240M+03071MA1999999100921MD1999999+0041MW1011REMSYN094AAXX  27004 82198 21992 00805 10250 20240 30092 40144 70160 333 10307 29092 55025 58004 60011;
0162821980999992003072712004-01717-045400FM-12+004499999V0200801N005110075019N0040001N1+02841+02521101451ADDGF106991051021008001061001KA1240N+02421MA1999999100941MD1999999+0051REMSYN082AAXX  27124 82198 22596 60810 10284 20252 30094 40145 85260 333 20242 58005 60244;
0171821980999992003072718004-01717-045400FM-12+004499999V0200801N005110450019N0040001N1+02861+02461101101ADDAY161061AY221061GF106991041021012501061001MA1999999100591MD1999999-0171MW1021REMSYN082AAXX  27184 82198 21696 60810 10286 20246 30059 40110 70262 84260 333 59017 60031;
0212821980999992003072800004-01717-045400FM-12+004499999V0200801N003112200019N0002001N1+02531+02361101371ADDAY161061AY221061GA1001+999999999GF100991001001999999001001KA1240M+03031MA1999999100851MD1999999+0071MW1011REMSYN094AAXX  28004 82198 21992 00806 10253 20236 30085 40137 70162 333 10303 29086 55048 58007 60021;
0162821980999992003072812004-01717-045400FM-12+004499999V0200901N005110450019N0040001N1+02871+02641101441ADDGF105991021021012501031001KA1240N+02371MA1999999100931MD1999999-0011REMSYN082AAXX  28124 82198 22696 50910 10287 20264 30093 40144 82230 333 20237 59001 60054;
0167821980999992003072818004-01717-045400FM-12+004499999V0201001N005110450019N0100001N1+03021+02461101131ADDAA106000091GF105991031021012501061011MA1999999100621MD1999999+0031REMSYN070AAXX  28184 82198 32697 51010 10302 20246 30062 40113 83261 333 58003;EQDQ01  00002PRCP06
0208821980999992003072900004-01717-045400FM-12+004499999V0200801N002612200019N0005001N1+02601+02421101361ADDAA106000091GA1001+999999999GF100991001001999999001001KA1240M+03171MA1999999100841MD1999999-0011REMSYN082AAXX  29004 82198 32993 00805 10260 20242 30084 40136 333 10317 29085 55076 59001;EQDQ01  00002PRCP06
0186821980999992003072912004-01717-045400FM-12+004499999V0200801N004110450019N0100001N1+02871+02501101511ADDAA106000091GF106991041021008001061001KA1240N+02431MA1999999101001MD1999999+0071REMSYN076AAXX  29124 82198 32597 60808 10287 20250 30100 40151 84260 333 20243 58007;EQDQ01  00002PRCP06
0171821980999992003072918004-01717-045400FM-12+004499999V0201001N005110450019N0040001N1+02961+02371101251ADDAY161061AY201061GF105991031021012501061011MA1999999100741MD1999999+0121MW1021REMSYN082AAXX  29184 82198 21696 51010 10296 20237 30074 40125 70260 83261 333 58012 69971;
0208821980999992003073000004-01717-045400FM-12+004499999V0201001N002612200019N0005001N1+02561+02381101471ADDAA106000091GA1001+999999999GF100991001001999999001001KA1240M+03231MA1999999100951MD1999999+0111REMSYN082AAXX  30004 82198 32993 01005 10256 20238 30095 40147 333 10323 29082 55092 58011;EQDQ01  00002PRCP06
0162821980999992003073012004-01717-045400FM-12+004499999V0201001N005112200019N0040001N1+02871+02441101611ADDGF104991041011012501001001KA1240N+02421MA1999999101101MD1999999+0101REMSYN082AAXX  30124 82198 22696 41010 10287 20244 30110 40161 84100 333 20242 58010 69974;
0167821980999992003073018004-01717-045400FM-12+004499999V0200701N005710075019N0100001N1+03081+02441101271ADDAA106000091GF106991061021008001001001MA1999999100761MD1999999+0021REMSYN070AAXX  30184 82198 32597 60711 10308 20244 30076 40127 86200 333 58002;EQDQ01  00002PRCP06
0208821980999992003073100004-01717-045400FM-12+004499999V0200701N003112200019N0005001N1+02551+02311101431ADDAA106000091GA1001+999999999GF100991001001999999001001KA1240M+03181MA1999999100921MD1999999-0031REMSYN082AAXX  31004 82198 32993 00706 10255 20231 30092 40143 333 10318 29080 55094 59003;EQDQ01  00002PRCP06
0186821980999992003073112004-01717-045400FM-12+004499999V0200701N003610075019N0100001N1+02721+02431101441ADDAA106000091GF106991061021008001001001KA1240N+02421MA1999999100931MD1999999-0171REMSYN076AAXX  31124 82198 32597 60707 10272 20243 30093 40144 86200 333 20242 59017;EQDQ01  00002PRCP06
0171821980999992003073118004-01717-045400FM-12+004499999V0200701N004110075019N0100001N1+02721+02451101151ADDAY121061AY221061GF105991051021008001001001MA1999999100641MD1999999-0121MW1211REMSYN082AAXX  31184 82198 21597 50708 10272 20245 30064 40115 72122 85200 333 59012 60021;
0189821980999992003080100004-01717-045400FM-12+004499999V0200701N002612200019N0005001N1+02511+02271101371ADDAA106000021GA1001+999999999GF100991001001999999001001KA1240M+03171MA1999999100851MD1999999-0071REMSYN082AAXX  01004 82198 32993 00705 10251 20227 30085 40137 333 10317 29086 55075 59007;
0162821980999992003080112004-01717-045400FM-12+004499999V0200701N004610075019N0100001N1+02831+02361101371ADDGF106991061021008001001001KA1240N+02401MA1999999100861MD1999999-0071REMSYN082AAXX  01124 82198 22597 60709 10283 20236 30086 40137 86200 333 20240 59007 60024;
0167821980999992003080118004-01717-045400FM-12+004499999V0200701N004110075019N0100001N1+03111+02291101121ADDAA106000091GF105991051021008001001001MA1999999100611MD1999999-0031REMSYN070AAXX  01184 82198 32597 50708 10311 20229 30061 40112 85200 333 59003;EQDQ01  00002PRCP06
0208821980999992003080200004-01717-045400FM-12+004499999V0200701N002612200019N0005001N1+02561+02291101341ADDAA106000091GA1001+999999999GF100991001001999999001001KA1240M+03281MA1999999100821MD1999999-0031REMSYN082AAXX  02004 82198 32993 00705 10256 20229 30082 40134 333 10328 29077 55097 59003;EQDQ01  00002PRCP06
0186821980999992003080212004-01717-045400FM-12+004499999V0200701N004110042019N0100001N1+02891+02371101431ADDAA106000091GF105991051011004501001001KA1240N+02411MA1999999100921MD1999999+0061REMSYN076AAXX  02124 82198 32497 50708 10289 20237 30092 40143 85100 333 20241 58006;EQDQ01  00002PRCP06
0167821980999992003080218004-01717-045400FM-12+004499999V0200701N005110075019N0100001N1+03061+02301101171ADDAA106000091GF105991051021008001001001MA1999999100661MD1999999+0051REMSYN070AAXX  02184 82198 32597 50710 10306 20230 30066 40117 85200 333 58005;EQDQ01  00002PRCP06
0208821980999992003080300004-01717-045400FM-12+004499999V0200701N002112200019N0005001N1+02581+02371101441ADDAA106000091GA1001+999999999GF100991001001999999001001KA1240M+03231MA1999999100921MD1999999+0101REMSYN082AAXX  03004 82198 32993 00704 10258 20237 30092 40144 333 10323 29078 55097 58010;EQDQ01  00002PRCP06
0186821980999992003080312004-01717-045400FM-12+004499999V0200501N004110450019N0100001N1+02851+02341101481ADDAA106000091GF106991041021004501061001KA1240N+02441MA1999999100961MD1999999+0041REMSYN076AAXX  03124 82198 32497 60508 10285 20234 30096 40148 84260 333 20244 58004;EQDQ01  00002PRCP06
0167821980999992003080318004-01717-045400FM-12+004499999V0200901N005710450019N0100001N1+03111+02291101251ADDAA106000091GF106991041021004501061001MA1999999100731MD1999999+0071REMSYN070AAXX  03184 82198 32497 60911 10311 20229 30073 40125 84260 333 58007;EQDQ01  00002PRCP06
0186821980999992003080412004-01717-045400FM-12+004499999V0200501N004610075019N0040001N1+02881+02301101391ADDAA106000091GF107991051021008001061001KA1240N+02471MA1999999100871MD1999999-0071REMSYN076AAXX  04124 82198 32596 70509 10288 20230 30087 40139 85260 333 20247 59007;EQDQ01  00002PRCP06
0171821980999992003080418004-01717-045400FM-12+004499999V0200701N005110450019N0040001N1+02991+02441101091ADDAY161061AY221061GF106991031021008001061011MA1999999100571MD1999999-0161MW1211REMSYN082AAXX  04184 82198 21596 60710 10299 20244 30057 40109 72162 83261 333 59016 60021;
0189821980999992003080500004-01717-045400FM-12+004499999V0200701N003112200019N0005001N1+02561+02351101321ADDAA106000021GA1001+999999999GF100991001001999999001001KA1240M+03161MA1999999100801MD1999999-0111REMSYN082AAXX  05004 82198 32993 00706 10256 20235 30080 40132 333 10316 29080 55078 59011;
0162821980999992003080512004-01717-045400FM-12+004499999V0200901N004110450019N0040001N1+02781+02341101391ADDGF107991041021004501061001KA1240N+02431MA1999999100871MD1999999+0001REMSYN082AAXX  05124 82198 22496 70908 10278 20234 30087 40139 84260 333 20243 58000 60024;
0171821980999992003080518004-01717-045400FM-12+004499999V0201101N003110450019N0040001N1+03081+02391101141ADDAY151061AY221061GF107991041021008001061001MA1999999100631MD1999999+0061MW1201REMSYN082AAXX  05184 82198 21596 71106 10308 20239 30063 40114 72052 84260 333 58006 69911;
0189821980999992003080600004-01717-045400FM-12+004499999V0200701N003612200019N0005001N1+02551+02511101351ADDAA106000021GA1001+999999999GF100991001001999999001001KA1240M+03231MA1999999100831MD1999999+0031REMSYN082AAXX  06004 82198 32993 00707 10255 20251 30083 40135 333 10323 29083 55077 58003;
0162821980999992003080612004-01717-045400FM-12+004499999V0200701N003110042019N0040001N1+02861+02311101431ADDGF105991051011004501001001KA1240N+02411MA1999999100911MD1999999+0041REMSYN082AAXX  06124 82198 22496 50706 10286 20231 30091 40143 85100 333 20241 58004 69914;
0167821980999992003080618004-01717-045400FM-12+004499999V0200901N004110042019N0100001N1+03121+02361101181ADDAA106000091GF105991051021004501001001MA1999999100671MD1999999+0041REMSYN070AAXX  06184 82198 32497 50908 10312 20236 30067 40118 85200 333 58004;EQDQ01  00002PRCP06
0208821980999992003080700004-01717-045400FM-12+004499999V0200701N002612200019N0020001N1+02531+02231101371ADDAA106000091GA1001+999999999GF100991001001999999001001KA1240M+03391MA1999999100851MD1999999+0021REMSYN082AAXX  07004 82198 32995 00705 10253 20223 30085 40137 333 10339 29076 55094 58002;EQDQ01  00002PRCP06
0186821980999992003080712004-01717-045400FM-12+004499999V0200901N004110450019N0100001N1+02801+02381101381ADDAA106000091GF107991041021004501061001KA1240N+02391MA1999999100861MD1999999-0051REMSYN076AAXX  07124 82198 32497 70908 10280 20238 30086 40138 84260 333 20239 59005;EQDQ01  00002PRCP06
0167821980999992003080718004-01717-045400FM-12+004499999V0200901N005710042019N0100001N1+03081+02241101181ADDAA106000091GF106991061021004501001001MA1999999100661MD1999999-0011REMSYN070AAXX  07184 82198 32497 60911 10308 20224 30066 40118 86200 333 59001;EQDQ01  00002PRCP06
0198821980999992003080800004-01717-045400FM-12+004499999V0200701N003112200019N0020001N1+02551+02311101381ADDAA106000091GF102991021011008001001001KA1240M+03211MA1999999100861MD1999999+0011REMSYN088AAXX  08004 82198 32595 20706 10255 20231 30086 40138 82100 333 10321 29076 55092 58001;EQDQ01  00002PRCP06
0186821980999992003080812004-01717-045400FM-12+004499999V0200901N003610450019N0100001N1+02901+02271101371ADDAA106000091GF106991041021004501061001KA1240N+02411MA1999999100851MD1999999-0011REMSYN076AAXX  08124 82198 32497 60907 10290 20227 30085 40137 84260 333 20241 59001;EQDQ01  00002PRCP06
0167821980999992003080818004-01717-045400FM-12+004499999V0200701N005710450019N0100001N1+03001+02291101051ADDAA106000091GF106991041021008001061001MA1999999100531MD1999999-0131REMSYN070AAXX  08184 82198 32597 60711 10300 20229 30053 40105 84260 333 59013;EQDQ01  00002PRCP06
0198821980999992003080900004-01717-045400FM-12+004499999V0200701N002612200019N0020001N1+02581+02351101321ADDAA106000091GF103991011011008001001061KA1240M+03171MA1999999100801MD1999999-0061REMSYN088AAXX  09004 82198 32595 30705 10258 20235 30080 40132 81106 333 10317 29077 55084 59006;EQDQ01  00002PRCP06
0186821980999992003080912004-01717-045400FM-12+004499999V0200901N005710450019N0100001N1+02831+02361101441ADDAA106000091GF106991031021008001061001KA1240N+02431MA1999999100921MD1999999+0071REMSYN076AAXX  09124 82198 32597 60911 10283 20236 30092 40144 83260 333 20243 58007;EQDQ01  00002PRCP06
0171821980999992003080918004-01717-045400FM-12+004499999V0200901N003610450019N0040001N1+02731+02351101121ADDAY161061AY221061GF106991031021008001061011MA1999999100601MD1999999-0071MW1211REMSYN082AAXX  09184 82198 21596 60907 10273 20235 30060 40112 72162 83261 333 59007 69961;
0179821980999992003081000004-01717-045400FM-12+004499999V0200701N004112200019N0020001N1+02561+02441101441ADDAA106000021GF105991031001017501011061KA1240M+03211MA1999999100921MD1999999+0121REMSYN088AAXX  10004 82198 32795 50708 10256 20244 30092 40144 83016 333 10321 29086 55054 58012;
0162821980999992003081012004-01717-045400FM-12+004499999V0200701N005110450019N0040001N1+02891+02271101241ADDGF106991031021008001061001KA1240N+02471MA1999999101021MD1999999+0101REMSYN082AAXX  10124 82198 22596 60710 10289 20227 30102 40124 83260 333 20247 58010 69964;
0167821980999992003081018004-01717-045400FM-12+004499999V0200901N003610450019N0040001N1+02861+02231101281ADDAA106000091GF106991041021008001061001MA1999999100761MD1999999+0161REMSYN070AAXX  10184 82198 32596 60907 10286 20223 30076 40128 84260 333 58016;EQDQ01  00002PRCP06
0198821980999992003081100004-01717-045400FM-12+004499999V0200701N003612200019N0020001N1+02581+02291101471ADDAA106000091GF103991021011004501001011KA1240M+03181MA1999999100951MD1999999+0031REMSYN088AAXX  11004 82198 32495 30707 10258 20229 30095 40147 82101 333 10318 29078 55087 58003;EQDQ01  00002PRCP06
0186821980999992003081112004-01717-045400FM-12+004499999V0200701N003110450019N0040001N1+02861+02261101481ADDAA106000091GF107991041021008001061001KA1240N+02441MA1999999100961MD1999999-0061REMSYN076AAXX  11124 82198 32596 70706 10286 20226 30096 40148 84260 333 20244 59006;EQDQ01  00002PRCP06
0167821980999992003081118004-01717-045400FM-12+004499999V0200701N004110075019N0100001N1+03101+02291101231ADDAA106000091GF105991051021008001001001MA1999999100711MD1999999-0051REMSYN070AAXX  11184 82198 32597 50708 10310 20229 30071 40123 85200 333 59005;EQDQ01  00002PRCP06
0198821980999992003081200004-01717-045400FM-12+004499999V0200701N003112200019N0040001N1+02531+02211101391ADDAA106000091GF103991021011008001001011KA1240M+03211MA1999999100871MD1999999-0081REMSYN088AAXX  12004 82198 32596 30706 10253 20221 30087 40139 82101 333 10321 29075 55085 59008;EQDQ01  00002PRCP06
0186821980999992003081212004-01717-045400FM-12+004499999V0200901N004612200019N0100001N1+02891+02321101481ADDAA106000091GF104991041011008001001001KA1240N+02401MA1999999100971MD1999999+0011REMSYN076AAXX  12124 82198 32597 40909 10289 20232 30097 40148 84100 333 20240 58001;EQDQ01  00002PRCP06
0167821980999992003081218004-01717-045400FM-12+004499999V0200901N005112200019N0100001N1+03121+02191101241ADDAA106000091GF103991031021012501001001MA1999999100731MD1999999+0021REMSYN070AAXX  12184 82198 32697 30910 10312 20219 30073 40124 83200 333 58002;EQDQ01  00002PRCP06
0208821980999992003081300004-01717-045400FM-12+004499999V0200701N003112200019N0020001N1+02561+02291101421ADDAA106000091GA1001+999999999GF100991001001999999001001KA1240M+03191MA1999999100911MD1999999+0041REMSYN082AAXX  13004 82198 32995 00706 10256 20229 30091 40142 333 10319 29075 55100 58004;EQDQ01  00002PRCP06
0186821980999992003081312004-01717-045400FM-12+004499999V0200501N004110075019N0100001N1+02791+02321101531ADDAA106000091GF105991051021008001001001KA1240N+02391MA1999999101021MD1999999+0051REMSYN076AAXX  13124 82198 32597 50508 10279 20232 30102 40153 85200 333 20239 58005;EQDQ01  00002PRCP06
0167821980999992003081318004-01717-045400FM-12+004499999V0200701N005112200019N0100001N1+03091+02271101281ADDAA106000091GF104991041021008001001001MA1999999100771MD1999999+0041REMSYN070AAXX  13184 82198 32597 40710 10309 20227 30077 40128 84200 333 58004;EQDQ01  00002PRCP06
0208821980999992003081400004-01717-045400FM-12+004499999V0200701N002112200019N0020001N1+02591+02311101451ADDAA106000091GA1001+999999999GF100991001001999999001001KA1240M+03171MA1999999100931MD1999999+0021REMSYN082AAXX  14004 82198 32995 00704 10259 20231 30093 40145 333 10317 29077 55097 58002;EQDQ01  00002PRCP06
0186821980999992003081412004-01717-045400FM-12+004499999V0200701N003110075019N0040001N1+02831+02361101531ADDAA106000091GF106991061021008001001001KA1240N+02461MA1999999101021MD1999999+0001REMSYN076AAXX  14124 82198 32596 60706 10283 20236 30102 40153 86200 333 20246 58000;EQDQ01  00002PRCP06
0167821980999992003081418004-01717-045400FM-12+004499999V0200901N004110075019N0100001N1+03031+02291101231ADDAA106000091GF105991051021008001001001MA1999999100721MD1999999-0051REMSYN070AAXX  14184 82198 32597 50908 10303 20229 30072 40123 85200 333 59005;EQDQ01  00002PRCP06
0212821980999992003081500004-01717-045400FM-12+004499999V0200501N002112200019N0020001N1+02561+02291101421ADDAY161061AY211061GA1001+999999999GF100991001001999999001001KA1240M+03141MA1999999100901MD1999999-0031MW1011REMSYN094AAXX  15004 82198 21995 00504 10256 20229 30090 40142 70161 333 10314 29078 55080 59003 69921;
0162821980999992003081512004-01717-045400FM-12+004499999V0200501N004612200019N0100001N1+02821+02331101471ADDGF104991041021008001001001KA1240N+02441MA1999999100961MD1999999-0061REMSYN082AAXX  15124 82198 22597 40509 10282 20233 30096 40147 84200 333 20244 59006 69924;
0171821980999992003081518004-01717-045400FM-12+004499999V0200501N002610450019N0040001N1+02621+02331101261ADDAY121061AY201061GF106991041071008001061001MA1999999100751MD1999999+0031MW1211REMSYN082AAXX  15184 82198 21596 60505 10262 20233 30075 40126 72120 84760 333 58003 60011;
0189821980999992003081600004-01717-045400FM-12+004499999V0200701N003112200019N0005001N1+02561+02331101431ADDAA106000021GA1001+999999999GF100991001001999999001001KA1240M+03041MA1999999100911MD1999999+0011REMSYN082AAXX  16004 82198 32993 00706 10256 20233 30091 40143 333 10304 29083 55072 58001;
0162821980999992003081612004-01717-045400FM-12+004499999V0200701N004110075019N0040001N1+02831+02381101491ADDGF106991061021008001001001KA1240N+02421MA1999999100981MD1999999+0021REMSYN082AAXX  16124 82198 22596 60708 10283 20238 30098 40149 86200 333 20242 58002 60014;
0208821980999992003081700004-01717-045400FM-12+004499999V0200701N002112200019N0005001N1+02561+02331101381ADDAA106000091GA1001+999999999GF100991001001999999001001KA1240M+03131MA1999999100861MD1999999-0041REMSYN082AAXX  17004 82198 32993 00704 10256 20233 30086 40138 333 10313 29080 55075 59004;EQDQ01  00002PRCP06
0186821980999992003081712004-01717-045400FM-12+004499999V0200701N004110075019N0100001N1+02801+02401101541ADDAA106000091GF105991051021008001001001KA1240N+02391MA1999999101021MD1999999+0041REMSYN076AAXX  17124 82198 32597 50708 10280 20240 30102 40154 85200 333 20239 58004;EQDQ01  00002PRCP06
0167821980999992003081718004-01717-045400FM-12+004499999V0200501N004612200019N0100001N1+02971+02401101281ADDAA106000091GF104991041021008001001001MA1999999100771MD1999999+0071REMSYN070AAXX  17184 82198 32597 40509 10297 20240 30077 40128 84200 333 58007;EQDQ01  00002PRCP06
0208821980999992003081800004-01717-045400FM-12+004499999V0200701N002112200019N0020001N1+02601+02411101421ADDAA106000091GA1001+999999999GF100991001001999999001001KA1240M+03131MA1999999100901MD1999999+0061REMSYN082AAXX  18004 82198 32995 00704 10260 20241 30090 40142 333 10313 29082 55084 58006;EQDQ01  00002PRCP06
0186821980999992003081812004-01717-045400FM-12+004499999V0200501N003610075019N0100001N1+02821+02311101641ADDAA106000091GF106991051021008001001011KA1240N+02431MA1999999101131MD1999999+0111REMSYN076AAXX  18124 82198 32597 60507 10282 20231 30113 40164 85201 333 20243 58011;EQDQ01  00002PRCP06
0171821980999992003081818004-01717-045400FM-12+004499999V0200501N005710120019N0040001N1+02791+02471101321ADDAY161061AY221061GF106991061021012501001001MA1999999100811MD1999999+0041MW1021REMSYN082AAXX  18184 82198 21696 60511 10279 20247 30081 40132 70262 86200 333 58004 60031;
0198821980999992003081900004-01717-045400FM-12+004499999V0200901N002110120019N0005001N1+02601+02371101521ADDAA106000091GF106991051021012501061001KA1240M+03051MA1999999101001MD1999999+0101REMSYN088AAXX  19004 82198 32693 60904 10260 20237 30100 40152 85260 333 10305 29082 55070 58010;EQDQ01  00002PRCP06
0190821980999992003081912004-01717-045400FM-12+004499999V0200901N004110450019N0040001N1+02871+02291101641ADDAY161061AY221061GF106991031021008001061011KA1240N+02401MA1999999101121MD1999999-0011MW1021REMSYN088AAXX  19124 82198 21596 60908 10287 20229 30112 40164 70262 83261 333 20240 59001 60124;
0171821980999992003081918004-01717-045400FM-12+004499999V0202001N001010450019N0100001N1+02501+02321101361ADDAY161061AY221061GF107991041021008001061061MA1999999100841MD1999999+0031MW1031REMSYN082AAXX  19184 82198 21597 72002 10250 20232 30084 40136 70362 84266 333 58003 60041;
0208821980999992003082000004-01717-045400FM-12+004499999V0200701N002112200019N0005001N1+02501+02321101521ADDAA106000091GA1001+999999999GF100991001001999999001001KA1240M+03011MA1999999101001MD1999999+0001REMSYN082AAXX  20004 82198 32993 00704 10250 20232 30100 40152 333 10301 29086 55084 58000;EQDQ01  00002PRCP06
0162821980999992003082012004-01717-045400FM-12+004499999V0200901N004110450019N0100001N1+02851+02341101521ADDGF106991041021008001061001KA1240N+02331MA1999999101001MD1999999-0121REMSYN082AAXX  20124 82198 22597 60908 10285 20234 30100 40152 84260 333 20233 59012 60044;
0167821980999992003082018004-01717-045400FM-12+004499999V0201401N004610450019N0100001N1+03141+02001101131ADDAA106000091GF106991031021008001031091MA1999999100611MD1999999-0231REMSYN070AAXX  20184 82198 32597 61409 10314 20200 30061 40113 83239 333 59023;EQDQ01  00002PRCP06
0208821980999992003082100004-01717-045400FM-12+004499999V0200501N003112200019N0005001N1+02601+02351101361ADDAA106000091GA1001+999999999GF100991001001999999001001KA1240M+03211MA1999999100841MD1999999-0161REMSYN082AAXX  21004 82198 32993 00506 10260 20235 30084 40136 333 10321 29075 55080 59016;EQDQ01  00002PRCP06
0186821980999992003082112004-01717-045400FM-12+004499999V0200701N004610075019N0100001N1+02841+02341101431ADDAA106000091GF105991051021008001001001KA1240N+02401MA1999999100911MD1999999-0091REMSYN076AAXX  21124 82198 32597 50709 10284 20234 30091 40143 85200 333 20240 59009;EQDQ01  00002PRCP06
0167821980999992003082118004-01717-045400FM-12+004499999V0200901N004612200019N0100001N1+03121+02331101051ADDAA106000091GF105991031021004501001011MA1999999100531MD1999999-0081REMSYN070AAXX  21184 82198 32497 50909 10312 20233 30053 40105 83201 333 59008;EQDQ01  00002PRCP06
0208821980999992003082200004-01717-045400FM-12+004499999V0200701N003112200019N0005001N1+02561+02271101291ADDAA106000091GA1001+999999999GF100991001001999999001001KA1240M+03231MA1999999100771MD1999999-0071REMSYN082AAXX  22004 82198 32993 00706 10256 20227 30077 40129 333 10323 29077 55096 59007;EQDQ01  00002PRCP06
0186821980999992003082212004-01717-045400FM-12+004499999V0200901N003119999999N0100001N1+02861+02281101391ADDAA106000091GF106991061001022501001041KA1240N+02351MA1999999100871MD1999999-0041REMSYN076AAXX  22124 82198 32897 60906 10286 20228 30087 40139 86004 333 20235 59004;EQDQ01  00002PRCP06
0186821980999992003082312004-01717-045400FM-12+004499999V0200901N004110075019N0100001N1+02881+02391101471ADDAA106000091GF106991061021008001001001KA1240N+02391MA1999999100951MD1999999+0071REMSYN076AAXX  23124 82198 32597 60908 10288 20239 30095 40147 86200 333 20239 58007;EQDQ01  00002PRCP06
0167821980999992003082318004-01717-045400FM-12+004499999V0200701N004110042019N0100001N1+03151+02271101141ADDAA106000091GF105991051021004501001001MA1999999100621MD1999999+0041REMSYN070AAXX  23184 82198 32497 50708 10315 20227 30062 40114 85200 333 58004;EQDQ01  00002PRCP06
0208821980999992003082400004-01717-045400FM-12+004499999V0200701N004112200019N0005001N1+02581+02461101371ADDAA106000091GA1001+999999999GF100991001001999999001001KA1240M+03241MA1999999100851MD1999999+0011REMSYN082AAXX  24004 82198 32993 00708 10258 20246 30085 40137 333 10324 29079 55102 58001;EQDQ01  00002PRCP06
0186821980999992003082412004-01717-045400FM-12+004499999V0200701N004610042019N0100001N1+02881+02321101451ADDAA106000091GF106991061021004501001001KA1240N+02441MA1999999100931MD1999999-0031REMSYN076AAXX  24124 82198 32497 60709 10288 20232 30093 40145 86200 333 20244 59003;EQDQ01  00002PRCP06
0167821980999992003082418004-01717-045400FM-12+004499999V0200701N004110075019N0100001N1+03031+02321101141ADDAA106000091GF106991061021008001001001MA1999999100621MD1999999+0001REMSYN070AAXX  24184 82198 32597 60708 10303 20232 30062 40114 86200 333 58000;EQDQ01  00002PRCP06
0208821980999992003082500004-01717-045400FM-12+004499999V0200701N002112200019N0005001N1+02581+02351101351ADDAA106000091GA1001+999999999GF100991001001999999001001KA1240M+03181MA1999999100831MD1999999-0021REMSYN082AAXX  25004 82198 32993 00704 10258 20235 30083 40135 333 10318 29078 55095 59002;EQDQ01  00002PRCP06
0186821980999992003082512004-01717-045400FM-12+004499999V0200701N003610075019N0100001N1+02901+02321101431ADDAA106000091GF106991061011008001001001KA1240N+02401MA1999999100911MD1999999-0021REMSYN076AAXX  25124 82198 32597 60707 10290 20232 30091 40143 86100 333 20240 59002;EQDQ01  00002PRCP06
0167821980999992003082518004-01717-045400FM-12+004499999V0203601N004110075019N0100001N1+03041+02381101161ADDAA106000091GF105991051021008001001001MA1999999100641MD1999999+0021REMSYN070AAXX  25184 82198 32597 53608 10304 20238 30064 40116 85200 333 58002;EQDQ01  00002PRCP06
0186821980999992003082612004-01717-045400FM-12+004499999V0200701N004110120019N0100001N1+02851+02381101391ADDAA106000091GF106991061021012501001001KA1240N+02421MA1999999100881MD1999999-0031REMSYN076AAXX  26124 82198 32697 60708 10285 20238 30088 40139 86200 333 20242 59003;EQDQ01  00002PRCP06
0167821980999992003082618004-01717-045400FM-12+004499999V0200701N005710120019N0100001N1+03051+02301101081ADDAA106000091GF106991061021012501001001MA1999999100571MD1999999-0071REMSYN070AAXX  26184 82198 32697 60711 10305 20230 30057 40108 86200 333 59007;EQDQ01  00002PRCP06
0208821980999992003082700004-01717-045400FM-12+004499999V0200501N003612200019N0005001N1+02601+02371101331ADDAA106000091GA1001+999999999GF100991001001999999001001KA1240M+03201MA1999999100811MD1999999+0001REMSYN082AAXX  27004 82198 32993 00507 10260 20237 30081 40133 333 10320 29078 55088 58000;EQDQ01  00002PRCP06
0186821980999992003082712004-01717-045400FM-12+004499999V0200901N005710120019N0100001N1+02871+02321101511ADDAA106000091GF106991061021012501001001KA1240N+02451MA1999999101001MD1999999+0121REMSYN076AAXX  27124 82198 32697 60911 10287 20232 30100 40151 86200 333 20245 58012;EQDQ01  00002PRCP06
0167821980999992003082718004-01717-045400FM-12+004499999V0200701N004610120019N0100001N1+03041+02361101211ADDAA106000091GF105991051021012501001001MA1999999100701MD1999999+0131REMSYN070AAXX  27184 82198 32697 50709 10304 20236 30070 40121 85200 333 58013;EQDQ01  00002PRCP06
0208821980999992003082800004-01717-045400FM-12+004499999V0200501N002612200019N0005001N1+02581+02331101371ADDAA106000091GA1001+999999999GF100991001001999999001001KA1240M+03141MA1999999100851MD1999999+0041REMSYN082AAXX  28004 82198 32993 00505 10258 20233 30085 40137 333 10314 29078 55093 58004;EQDQ01  00002PRCP06
0186821980999992003082812004-01717-045400FM-12+004499999V0200901N004610120019N0100001N1+02831+02291101581ADDAA106000091GF106991061021012501001001KA1240N+02411MA1999999101071MD1999999+0071REMSYN076AAXX  28124 82198 32697 60909 10283 20229 30107 40158 86200 333 20241 58007;EQDQ01  00002PRCP06
0167821980999992003082818004-01717-045400FM-12+004499999V0200701N007212200019N0100001N1+03071+02211101191ADDAA106000091GF104991041021012501001001MA1999999100681MD1999999-0021REMSYN070AAXX  28184 82198 32697 40714 10307 20221 30068 40119 84200 333 59002;EQDQ01  00002PRCP06
0208821980999992003082900004-01717-045400FM-12+004499999V0200701N002112200019N0005001N1+02561+02271101391ADDAA106000091GA1001+999999999GF100991001001999999001001KA1240M+03141MA1999999100881MD1999999+0031REMSYN082AAXX  29004 82198 32993 00704 10256 20227 30088 40139 333 10314 29075 55093 58003;EQDQ01  00002PRCP06
0186821980999992003082912004-01717-045400FM-12+004499999V0200701N002610450019N0100001N1+02881+02371101591ADDAA106000091GF105991031021012501061001KA1240N+02441MA1999999101081MD1999999+0011REMSYN076AAXX  29124 82198 32697 50705 10288 20237 30108 40159 83260 333 20244 58001;EQDQ01  00002PRCP06
0167821980999992003082918004-01717-045400FM-12+004499999V0200501N004610120019N0100001N1+03111+02411101271ADDAA106000091GF106991061021012501041001MA1999999100761MD1999999+0081REMSYN070AAXX  29184 82198 32697 60509 10311 20241 30076 40127 86240 333 58008;EQDQ01  00002PRCP06
0208821980999992003083000004-01717-045400FM-12+004499999V0200501N002612200019N0005001N1+02581+02331101451ADDAA106000091GA1001+999999999GF100991001001999999001001KA1240M+03161MA1999999100931MD1999999+0051REMSYN082AAXX  30004 82198 32993 00505 10258 20233 30093 40145 333 10316 29078 55071 58005;EQDQ01  00002PRCP06
0186821980999992003083012004-01717-045400FM-12+004499999V0200501N005112200019N0100001N1+02861+02191101571ADDAA106000091GF102991021011008001001001KA1240N+02421MA1999999101051MD1999999-0031REMSYN076AAXX  30124 82198 32597 20510 10286 20219 30105 40157 82100 333 20242 59003;EQDQ01  00002PRCP06
0167821980999992003083018004-01717-045400FM-12+004499999V0200701N004110450019N0100001N1+02901+02271101371ADDAA106000091GF106991041021012501061001MA1999999100861MD1999999+0101REMSYN070AAXX  30184 82198 32697 60708 10290 20227 30086 40137 84260 333 58010;EQDQ01  00002PRCP06
0208821980999992003083100004-01717-045400FM-12+004499999V0200701N003112200019N0005001N1+02561+02291101491ADDAA106000091GA1001+999999999GF100991001001999999001001KA1240M+03111MA1999999100981MD1999999+0051REMSYN082AAXX  31004 82198 32993 00706 10256 20229 30098 40149 333 10311 29076 55057 58005;EQDQ01  00002PRCP06
0186821980999992003083112004-01717-045400FM-12+004499999V0200701N004110075019N0100001N1+02881+02351101651ADDAA106000091GF105991051011008001001001KA1240N+02401MA1999999101131MD1999999+0081REMSYN076AAXX  31124 82198 32597 50708 10288 20235 30113 40165 85100 333 20240 58008;EQDQ01  00002PRCP06
0167821980999992003083118004-01717-045400FM-12+004499999V0200901N005112200019N0100001N1+03101+02231101331ADDAA106000091GF104991041021012501001001MA1999999100811MD1999999-0051REMSYN070AAXX  31184 82198 32697 40910 10310 20223 30081 40133 84200 333 59005;EQDQ01  00002PRCP06
0198821980999992003090100004-01717-045400FM-12+004499999V0200501N002612200019N0005001N1+02561+02271101501ADDAA106000091GF104991041001012501061001KA1240M+03191MA1999999100981MD1999999+0001REMSYN088AAXX  01004 82198 32693 40505 10256 20227 30098 40150 84060 333 10319 29075 55079 58000;EQDQ01  00002PRCP06
0186821980999992003090112004-01717-045400FM-12+004499999V0200501N002110450019N0040001N1+02841+02291101671ADDAA106000091GF106991041021008001031011KA1240N+02571MA1999999101151MD1999999+0021REMSYN076AAXX  01124 82198 32596 60504 10284 20229 30115 40167 84231 333 20257 58002;EQDQ01  00002PRCP06
0167821980999992003090118004-01717-045400FM-12+004499999V0200701N004110450019N0040001N1+03201+02211101321ADDAA106000091GF105991031021008001031011MA1999999100801MD1999999-0011REMSYN070AAXX  01184 82198 32596 50708 10320 20221 30080 40132 83231 333 59001;EQDQ01  00002PRCP06
0198821980999992003090200004-01717-045400FM-12+004499999V0200701N002612200019N0005001N1+02601+02271101491ADDAA106000091GF102991021001022501001011KA1240M+03321MA1999999100971MD1999999-0011REMSYN088AAXX  02004 82198 32893 20705 10260 20227 30097 40149 82001 333 10332 29074 55073 59001;EQDQ01  00002PRCP06
0186821980999992003090212004-01717-045400FM-12+004499999V0200501N002610075019N0100001N1+02941+02361101621ADDAA106000091GF105991051021008001001001KA1240N+02391MA1999999101101MD1999999-0051REMSYN076AAXX  02124 82198 32597 50505 10294 20236 30110 40162 85200 333 20239 59005;EQDQ01  00002PRCP06
0171821980999992003090218004-01717-045400FM-12+004499999V0200901N004610075019N0040001N1+03091+02221101321ADDAY161061AY221061GF105991051021008001001001MA1999999100801MD1999999+0001MW1021REMSYN082AAXX  02184 82198 21596 50909 10309 20222 30080 40132 70262 85200 333 58000 69911;
0208821980999992003090300004-01717-045400FM-12+004499999V0200701N003112200019N0005001N1+02571+02311101421ADDAA106000091GA1001+999999999GF100991001001999999001001KA1240M+03111MA1999999100901MD1999999-0071REMSYN082AAXX  03004 82198 32993 00706 10257 20231 30090 40142 333 10311 29076 55089 59007;EQDQ01  00002PRCP06
0162821980999992003090312004-01717-045400FM-12+004499999V0200501N004110042019N0040001N1+02881+02321101611ADDGF106991061021004501001001KA1240N+02461MA1999999101091MD1999999-0011REMSYN082AAXX  03124 82198 22496 60508 10288 20232 30109 40161 86200 333 20246 59001 69914;
0167821980999992003090318004-01717-045400FM-12+004499999V0200901N005710075019N0040001N1+03091+02111101321ADDAA106000091GF106991061021008001001001MA1999999100801MD1999999+0001REMSYN070AAXX  03184 82198 32596 60911 10309 20211 30080 40132 86200 333 58000;EQDQ01  00002PRCP06
0186821980999992003090412004-01717-045400FM-12+004499999V0200701N004610042019N0040001N1+02871+02271101591ADDAA106000091GF106991061021004501001001KA1240N+02411MA1999999101071MD1999999-0021REMSYN076AAXX  04124 82198 32496 60709 10287 20227 30107 40159 86200 333 20241 59002;EQDQ01  00002PRCP06
0167821980999992003090418004-01717-045400FM-12+004499999V0200701N004610075019N0040001N1+03201+02181101251ADDAA106000091GF105991051021008001001001MA1999999100731MD1999999-0071REMSYN070AAXX  04184 82198 32596 50709 10320 20218 30073 40125 85200 333 59007;EQDQ01  00002PRCP06
0186821980999992003090512004-01717-045400FM-12+004499999V0200701N005110450019N0040001N1+02841+02401101561ADDAA106000091GF107991041071008001061001KA1240N+02481MA1999999101041MD1999999-0031REMSYN076AAXX  05124 82198 32596 70710 10284 20240 30104 40156 84760 333 20248 59003;EQDQ01  00002PRCP06
0171821980999992003090518004-01717-045400FM-12+004499999V0201101N004610450019N0040001N1+03181+02331101181ADDAY161061AY221061GF106991041021008001061001MA1999999100661MD1999999-0071MW1011REMSYN082AAXX  05184 82198 21596 61109 10318 20233 30066 40118 70162 84260 333 59007 69971;
0162821980999992003090612004-01717-045400FM-12+004499999V0200901N004610450019N0040001N1+02911+02271101451ADDGF106991041021008001061001KA1240N+02441MA1999999100931MD1999999-0111REMSYN082AAXX  06124 82198 22596 60909 10291 20227 30093 40145 84260 333 20244 59011 69974;
0167821980999992003090618004-01717-045400FM-12+004499999V0200901N003610075019N0100001N1+03201+02301101071ADDAA106000091GF105991051021008001001001MA1999999100551MD1999999-0111REMSYN070AAXX  06184 82198 32597 50907 10320 20230 30055 40107 85200 333 59011;EQDQ01  00002PRCP06
0186821980999992003090712004-01717-045400FM-12+004499999V0200701N003610450019N0100001N1+02851+02271101441ADDAA106000091GF106991041021008001061001KA1240N+02441MA1999999100891MD1999999-0041REMSYN076AAXX  07124 82198 32597 60707 10285 20227 30089 40144 84260 333 20244 59004;EQDQ01  00002PRCP06
0171821980999992003090718004-01717-045400FM-12+004499999V0200901N002610450019N0040001N1+03001+02441101091ADDAY161061AY221061GF106991041021008001061001MA1999999100571MD1999999+0021MW1031REMSYN082AAXX  07184 82198 21596 60905 10300 20244 30057 40109 70362 84260 333 58002 60021;
0162821980999992003090812004-01717-045400FM-12+004499999V0200701N005710450019N0100001N1+02861+02311101441ADDGF106991041021008001061001KA1240N+02361MA1999999100921MD1999999+0031REMSYN082AAXX  08124 82198 22597 60711 10286 20231 30092 40144 84260 333 20236 58003 60024;
0167821980999992003090818004-01717-045400FM-12+004499999V0200901N004110075019N0100001N1+03111+02181101091ADDAA106000091GF105991051021008001001001MA1999999100571MD1999999+0001REMSYN070AAXX  08184 82198 32597 50908 10311 20218 30057 40109 85200 333 58000;EQDQ01  00002PRCP06
0208821980999992003090900004-01717-045400FM-12+004499999V0200701N002612200019N0005001N1+02581+02291101371ADDAA106000091GA1001+999999999GF100991001001999999001001KA1240M+03181MA1999999100851MD1999999+0071REMSYN082AAXX  09004 82198 32993 00705 10258 20229 30085 40137 333 10318 29074 55103 58007;EQDQ01  00002PRCP06
0186821980999992003090912004-01717-045400FM-12+004499999V0200901N006710450019N0100001N1+02851+02201101491ADDAA106000091GF106991041021008001061011KA1240N+02371MA1999999100971MD1999999+0051REMSYN076AAXX  09124 82198 32597 60913 10285 20220 30097 40149 84261 333 20237 58005;EQDQ01  00002PRCP06
0208821980999992003091000004-01717-045400FM-12+004499999V0200701N002612200019N0005001N1+02581+02311101371ADDAA106000091GA1001+999999999GF100991001001999999001001KA1240M+03171MA1999999100851MD1999999+0001REMSYN082AAXX  10004 82198 32993 00705 10258 20231 30085 40137 333 10317 29074 55104 58000;EQDQ01  00002PRCP06
0186821980999992003091012004-01717-045400FM-12+004499999V0200501N003110450019N0100001N1+02871+02311101451ADDAA106000091GF106991041021008001061001KA1240N+02451MA1999999100931MD1999999-0041REMSYN076AAXX  10124 82198 32597 60506 10287 20231 30093 40145 84260 333 20245 59004;EQDQ01  00002PRCP06
0167821980999992003091018004-01717-045400FM-12+004499999V0200901N004610075019N0100001N1+03131+02201101121ADDAA106000091GF105991051021008001001001MA1999999100601MD1999999-0021REMSYN070AAXX  10184 82198 32597 50909 10313 20220 30060 40112 85200 333 59002;EQDQ01  00002PRCP06
0208821980999992003091100004-01717-045400FM-12+004499999V0200901N003112200019N0040001N1+02581+02311101331ADDAA106000091GA1001+999999999GF100991001001999999001001KA1240M+03211MA1999999100811MD1999999-0041REMSYN082AAXX  11004 82198 32996 00906 10258 20231 30081 40133 333 10321 29076 55092 59004;EQDQ01  00002PRCP06
0186821980999992003091112004-01717-045400FM-12+004499999V0200701N004610450019N0100001N1+02901+02271101371ADDAA106000091GF106991041021008001061001KA1240N+02421MA1999999100851MD1999999-0081REMSYN076AAXX  11124 82198 32597 60709 10290 20227 30085 40137 84260 333 20242 59008;EQDQ01  00002PRCP06
0167821980999992003091118004-01717-045400FM-12+004499999V0200701N004610450019N0100001N1+03061+02301101121ADDAA106000091GF106991041021008001061001MA1999999100601MD1999999+0001REMSYN070AAXX  11184 82198 32597 60709 10306 20230 30060 40112 84260 333 58000;EQDQ01  00002PRCP06
0198821980999992003091200004-01717-045400FM-12+004499999V0200701N003612200019N0040001N1+02581+02291101351ADDAA106000091GF101991011011004501001001KA1240M+03181MA1999999100831MD1999999+0021REMSYN088AAXX  12004 82198 32496 10707 10258 20229 30083 40135 81100 333 10318 29075 55094 58002;EQDQ01  00002PRCP06
0186821980999992003091212004-01717-045400FM-12+004499999V0200701N007710450019N0100001N1+02901+02321101501ADDAA106000091GF106991041021008001061001KA1240N+02461MA1999999100981MD1999999+0131REMSYN076AAXX  12124 82198 32597 60715 10290 20232 30098 40150 84260 333 20246 58013;EQDQ01  00002PRCP06
0162821980999992003091412004-01717-045400FM-12+004499999V0200701N003110075019N0100001N1+02881+02391101531ADDGF106991061021008001001001KA1240N+02471MA1999999101011MD1999999-0011REMSYN082AAXX  14124 82198 22597 60706 10288 20239 30101 40153 86200 333 20247 59001 69984;
0171821980999992003091418004-01717-045400FM-12+004499999V0200901N007710075019N0100001N1+02871+02381101201ADDAY161061AY221061GF105991051021008001001001MA1999999100681MD1999999-0071MW1211REMSYN082AAXX  14184 82198 21597 50915 10287 20238 30068 40120 72162 85200 333 59007 60021;
0189821980999992003091500004-01717-045400FM-12+004499999V0200701N002612200019N0005001N1+02571+02311101311ADDAA106000021GA1001+999999999GF100991001001999999001001KA1240M+03211MA1999999100791MD1999999-0081REMSYN082AAXX  15004 82198 32993 00705 10257 20231 30079 40131 333 10321 29080 55097 59008;
0186821980999992003091512004-01717-045400FM-12+004499999V0200501N002110450019N0100001N1+02811+02291101401ADDAA106000091GF106991041021008001061001KA1240N+02471MA1999999100881MD1999999-0131REMSYN076AAXX  15124 82198 32597 60504 10281 20229 30088 40140 84260 333 20247 59013;EQDQ01  00002PRCP06
0171821980999992003091618004-01717-045400FM-12+004499999V0201101N002610450019N0100001N1+02591+02391101191ADDAY191061AY261061GF107991041021008001011041MA1999999100671MD1999999+0121MW1031REMSYN082AAXX  16184 82198 21597 71105 10259 20239 30067 40119 70396 84214 333 58012 60271;
0208821980999992003091700004-01717-045400FM-12+004499999V0200701N002612200019N0005001N1+02501+02291101241ADDAA106000091GA1001+999999999GF100991001001999999001001KA1240M+03001MA1999999100721MD1999999-0051REMSYN082AAXX  17004 82198 32993 00705 10250 20229 30072 40124 333 10300 29082 55027 59005;EQDQ01  00002PRCP06
0162821980999992003091712004-01717-045400FM-12+004499999V0200701N004110450019N0100001N1+02851+02291101381ADDGF107991041021008001061001KA1240N+02191MA1999999100861MD1999999-0061REMSYN082AAXX  17124 82198 22597 70708 10285 20229 30086 40138 84260 333 20219 59006 60264;
0167821980999992003091718004-01717-045400FM-12+004499999V0200901N006210042019N0100001N1+03121+02301101111ADDAA106000091GF105991051021004501001001MA1999999100591MD1999999-0081REMSYN070AAXX  17184 82198 32497 50912 10312 20230 30059 40111 85200 333 59008;EQDQ01  00002PRCP06
0208821980999992003091800004-01717-045400FM-12+004499999V0200701N003112200019N0005001N1+02531+02231101221ADDAA106000091GA1001+999999999GF100991001001999999001001KA1240M+03161MA1999999100701MD1999999-0021REMSYN082AAXX  18004 82198 32993 00706 10253 20223 30070 40122 333 10316 29076 55101 59002;EQDQ01  00002PRCP06
0186821980999992003091812004-01717-045400FM-12+004499999V0200701N005110075019N0100001N1+02861+02231101301ADDAA106000091GF105991051021008001001001KA1240N+02401MA1999999100781MD1999999-0081REMSYN076AAXX  18124 82198 32597 50710 10286 20223 30078 40130 85200 333 20240 59008;EQDQ01  00002PRCP06
0167821980999992003091818004-01717-045400FM-12+004499999V0200901N006212200019N0100001N1+03111+02091101021ADDAA106000091GF105991031021008001001041MA1999999100591MD1999999-0091REMSYN070AAXX  18184 82198 32597 50912 10311 20209 30059 40102 83204 333 59009;EQDQ01  00002PRCP06
0208821980999992003091900004-01717-045400FM-12+004499999V0200701N003112200019N0005001N1+02591+02311101171ADDAA106000091GA1001+999999999GF100991001001999999001001KA1240M+03251MA1999999100651MD1999999-0051REMSYN082AAXX  19004 82198 32993 00706 10259 20231 30065 40117 333 10325 29073 55100 59005;EQDQ01  00002PRCP06
0186821980999992003091912004-01717-045400FM-12+004499999V0200901N005710450019N0100001N1+02901+02431101191ADDAA106000091GF106991041021008001061001KA1240N+02501MA1999999100671MD1999999-0111REMSYN076AAXX  19124 82198 32597 60911 10290 20243 30067 40119 84260 333 20250 59011;EQDQ01  00002PRCP06
0167821980999992003091918004-01717-045400FM-12+004499999V0200701N006212200019N0100001N1+03071+02221100931ADDAA106000091GF106991041021008001001041MA1999999100411MD1999999-0091REMSYN070AAXX  19184 82198 32597 60712 10307 20222 30041 40093 84204 333 59009;EQDQ01  00002PRCP06
0208821980999992003092000004-01717-045400FM-12+004499999V0200501N003612200019N0005001N1+02631+02271101111ADDAA106000091GA1001+999999999GF100991001001999999001001KA1240M+03161MA1999999100591MD1999999-0061REMSYN082AAXX  20004 82198 32993 00507 10263 20227 30059 40111 333 10316 29076 55097 59006;EQDQ01  00002PRCP06
0186821980999992003092012004-01717-045400FM-12+004499999V0200501N005710450019N0100001N1+02861+02261101261ADDAA106000091GF107991041021008001061041KA1240N+02481MA1999999100741MD1999999+0071REMSYN076AAXX  20124 82198 32597 70511 10286 20226 30074 40126 84264 333 20248 58007;EQDQ01  00002PRCP06
0186821980999992003092112004-01717-045400FM-12+004499999V0200701N005112200019N0100001N1+02821+02291101351ADDAA106000091GF106991031021008001001011KA1240N+02391MA1999999100831MD1999999+0091REMSYN076AAXX  21124 82198 32597 60710 10282 20229 30083 40135 83201 333 20239 58009;EQDQ01  00002PRCP06
0186821980999992003092212004-01717-045400FM-12+004499999V0203601N003112200019N0100001N1+02891+02221101331ADDAA106000091GF103991021011004501001011KA1240N+02461MA1999999100811MD1999999-0021REMSYN076AAXX  22124 82198 32497 33606 10289 20222 30081 40133 82101 333 20246 59002;EQDQ01  00002PRCP06
0167821980999992003092218004-01717-045400FM-12+004499999V0200501N005112200019N0100001N1+03221+02261100991ADDAA106000091GF103991031011004501001001MA1999999100471MD1999999-0111REMSYN070AAXX  22184 82198 32497 30510 10322 20226 30047 40099 83100 333 59011;EQDQ01  00002PRCP06
0208821980999992003092400004-01717-045400FM-12+004499999V0200501N002612200019N0005001N1+02641+02331101211ADDAA106000091GA1001+999999999GF100991001001999999001001KA1240M+03131MA1999999100691MD1999999-0021REMSYN082AAXX  24004 82198 32993 00505 10264 20233 30069 40121 333 10313 29079 55049 59002;EQDQ01  00002PRCP06
0186821980999992003092412004-01717-045400FM-12+004499999V0203601N003610450019N0100001N1+02831+02271101281ADDAA106000091GF105991041021008001061001KA1240N+02451MA1999999100761MD1999999+0031REMSYN076AAXX  24124 82198 32597 53607 10283 20227 30076 40128 84260 333 20245 58003;EQDQ01  00002PRCP06
0167821980999992003092418004-01717-045400FM-12+004499999V0203601N003110450019N0100001N1+03001+02391100961ADDAA106000091GF107991041051008001061041MA1999999100441MD1999999-0051REMSYN070AAXX  24184 82198 32597 73606 10300 20239 30044 40096 84564 333 59005;EQDQ01  00002PRCP06
0186821980999992003092512004-01717-045400FM-12+004499999V0203601N004110450019N0100001N1+02861+02311101241ADDAA106000091GF106991041021008001061001KA1240N+02521MA1999999100721MD1999999-0041REMSYN076AAXX  25124 82198 32597 63608 10286 20231 30072 40124 84260 333 20252 59004;EQDQ01  00002PRCP06
0167821980999992003092518004-01717-045400FM-12+004499999V0200701N004110450019N0100001N1+03141+02271101011ADDAA106000091GF106991041021008001061001MA1999999100491MD1999999+0051REMSYN070AAXX  25184 82198 32597 60708 10314 20227 30049 40101 84260 333 58005;EQDQ01  00002PRCP06
0226821980999992003092600004-01717-045400FM-12+004499999V0200501N002612200019N0005001N1+02601+02371101171ADDAA106000091AY101061AY221061GF102991021011004501001001KA1240M+03191MA1999999100651MD1999999+0011MW1131REMSYN094AAXX  26004 82198 31493 20505 10260 20237 30065 40117 71302 82100 333 10319 29067 55063 58001;EQDQ01  00002PRCP06
0186821980999992003092612004-01717-045400FM-12+004499999V0200501N003610450019N0100001N1+02911+02341101181ADDAA106000091GF106991031021008001061041KA1240N+02501MA1999999100661MD1999999-0061REMSYN076AAXX  26124 82198 32597 60507 10291 20234 30066 40118 83264 333 20250 59006;EQDQ01  00002PRCP06
0167821980999992003092618004-01717-045400FM-12+004499999V0200501N005710075019N0100001N1+03131+02311100951ADDAA106000091GF106991061021008001001001MA1999999100431MD1999999-0061REMSYN070AAXX  26184 82198 32597 60511 10313 20231 30043 40095 86200 333 59006;EQDQ01  00002PRCP06
0208821980999992003092700004-01717-045400FM-12+004499999V0200501N004112200019N0005001N1+02641+02351101151ADDAA106000091GA1001+999999999GF100991001001999999001001KA1240M+03241MA1999999100631MD1999999-0021REMSYN082AAXX  27004 82198 32993 00508 10264 20235 30063 40115 333 10324 29076 55085 59002;EQDQ01  00002PRCP06
0186821980999992003092712004-01717-045400FM-12+004499999V0200501N005112200019N0100001N1+02961+02311101151ADDAA106000091GF106991041021008001001011KA1240N+02481MA1999999100631MD1999999-0031REMSYN076AAXX  27124 82198 32597 60510 10296 20231 30063 40115 84201 333 20248 59003;EQDQ01  00002PRCP06
0167821980999992003092718004-01717-045400FM-12+004499999V0200501N004112200019N0100001N1+03231+02151100821ADDAA106000091GF105991031021008001001011MA1999999100301MD1999999-0131REMSYN070AAXX  27184 82198 32597 50508 10323 20215 30030 40082 83201 333 59013;EQDQ01  00002PRCP06
0208821980999992003092800004-01717-045400FM-12+004499999V0200501N003112200019N0005001N1+02621+02311100991ADDAA106000091GA1001+999999999GF100991001001999999001001KA1240M+03271MA1999999100471MD1999999-0161REMSYN082AAXX  28004 82198 32993 00506 10262 20231 30047 40099 333 10327 29072 55105 59016;EQDQ01  00002PRCP06
0186821980999992003092812004-01717-045400FM-12+004499999V0203601N003610450019N0100001N1+02881+02371101301ADDAA106000091GF106991041021004501061001KA1240N+02281MA1999999100791MD1999999+0161REMSYN076AAXX  28124 82198 32497 63607 10288 20237 30079 40130 84260 333 20228 58016;EQDQ01  00002PRCP06
0167821980999992003092818004-01717-045400FM-12+004499999V0203601N005712200019N0100001N1+03021+02411100961ADDAA106000091GF105991031021008001001011MA1999999100451MD1999999+0151REMSYN070AAXX  28184 82198 32597 53611 10302 20241 30045 40096 83201 333 58015;EQDQ01  00002PRCP06
0208821980999992003092900004-01717-045400FM-12+004499999V0203601N004112200019N0005001N1+02621+02231101151ADDAA106000091GA1001+999999999GF100991001001999999001001KA1240M+03191MA1999999100631MD1999999+0161REMSYN082AAXX  29004 82198 32993 03608 10262 20223 30063 40115 333 10319 29075 55093 58016;EQDQ01  00002PRCP06
0186821980999992003092912004-01717-045400FM-12+004499999V0200701N003110450019N0100001N1+02881+02321101281ADDAA106000091GF106991031021008001061011KA1240N+02451MA1999999100771MD1999999-0021REMSYN076AAXX  29124 82198 32597 60706 10288 20232 30077 40128 83261 333 20245 59002;EQDQ01  00002PRCP06
0167821980999992003092918004-01717-045400FM-12+004499999V0200701N006710075019N0100001N1+03231+02031101021ADDAA106000091GF105991051021008001001001MA1999999100511MD1999999+0061REMSYN070AAXX  29184 82198 32597 50713 10323 20203 30051 40102 85200 333 58006;EQDQ01  00002PRCP06
0208821980999992003093000004-01717-045400FM-12+004499999V0200501N002612200019N0005001N1+02611+02271101161ADDAA106000091GA1001+999999999GF100991001001999999001001KA1240M+03291MA1999999100641MD1999999+0011REMSYN082AAXX  30004 82198 32993 00505 10261 20227 30064 40116 333 10329 29072 55104 58001;EQDQ01  00002PRCP06
0186821980999992003093012004-01717-045400FM-12+004499999V0200501N003110450019N0100001N1+02871+02291101281ADDAA106000091GF106991041021008001061001KA1240N+02481MA1999999100771MD1999999+0001REMSYN076AAXX  30124 82198 32597 60506 10287 20229 30077 40128 84260 333 20248 58000;EQDQ01  00002PRCP06
0167821980999992003093018004-01717-045400FM-12+004499999V0200501N004612200019N0100001N1+03191+02241101031ADDAA106000091GF105991031021008001001011MA1999999100521MD1999999+0011REMSYN070AAXX  30184 82198 32597 50509 10319 20224 30052 40103 83201 333 58001;EQDQ01  00002PRCP06
0208821980999992003100100004-01717-045400FM-12+004499999V0200501N003112200019N0005001N1+02631+02231101151ADDAA106000091GA1001+999999999GF100991001001999999001001KA1240M+03271MA1999999100641MD1999999+0001REMSYN082AAXX  01004 82198 32993 00506 10263 20223 30064 40115 333 10327 29073 55105 58000;EQDQ01  00002PRCP06
0186821980999992003100112004-01717-045400FM-12+004499999V0200701N005110075019N0100001N1+02951+02331101221ADDAA106000091GF105991051021008001001001KA1240N+02481MA1999999100711MD1999999-0061REMSYN076AAXX  01124 82198 32597 50710 10295 20233 30071 40122 85200 333 20248 59006;EQDQ01  00002PRCP06
0167821980999992003100118004-01717-045400FM-12+004499999V0200701N005110450019N0040001N1+03021+02241100941ADDAA106000091GF107991041021008001061001MA1999999100431MD1999999-0091REMSYN070AAXX  01184 82198 32596 70710 10302 20224 30043 40094 84260 333 59009;EQDQ01  00002PRCP06
0208821980999992003100200004-01717-045400FM-12+004499999V0200501N003112200019N0005001N1+02601+02351101111ADDAA106000091GA1001+999999999GF100991001001999999001001KA1240M+03141MA1999999100601MD1999999-0041REMSYN082AAXX  02004 82198 32993 00506 10260 20235 30060 40111 333 10314 29076 55083 59004;EQDQ01  00002PRCP06
0202821980999992003100212004-01717-045400FM-12+004499999V0200701N007219999999N0100001N1+02901+02201101191ADDAA106000091GF105991999041008001061001KA1240N+02511MA1999999100681MD1999999-0031REMSYN076AAXX  02124 82198 32597 50714 10290 20220 30068 40119 88460 333 20251 59003;EQDQ01+000082SCOTLCQ02  00002PRCP06
0167821980999992003100218004-01717-045400FM-12+004499999V0200701N005110450019N0100001N1+03011+02241100911ADDAA106000091GF105991031021008001061001MA1999999100401MD1999999-0031REMSYN070AAXX  02184 82198 32597 50710 10301 20224 30040 40091 83260 333 59003;EQDQ01  00002PRCP06
0208821980999992003100300004-01717-045400FM-12+004499999V0200501N003112200019N0005001N1+02601+02271101071ADDAA106000091GA1001+999999999GF100991001001999999001001KA1240M+03091MA1999999100561MD1999999-0041REMSYN082AAXX  03004 82198 32993 00506 10260 20227 30056 40107 333 10309 29074 55079 59004;EQDQ01  00002PRCP06
0186821980999992003100312004-01717-045400FM-12+004499999V0200701N006710075019N0100001N1+02941+02261101271ADDAA106000091GF105991051021008001001001KA1240N+02501MA1999999100761MD1999999+0081REMSYN076AAXX  03124 82198 32597 50713 10294 20226 30076 40127 85200 333 20250 58008;EQDQ01  00002PRCP06
0167821980999992003100318004-01717-045400FM-12+004499999V0200501N005710450019N0040001N1+03041+02311100991ADDAA106000091GF105991031021008001061001MA1999999100481MD1999999+0081REMSYN070AAXX  03184 82198 32596 50511 10304 20231 30048 40099 83260 333 58008;EQDQ01  00002PRCP06
0208821980999992003100400004-01717-045400FM-12+004499999V0200501N002112200019N0005001N1+02591+02261101171ADDAA106000091GA1001+999999999GF100991001001999999001001KA1240M+03151MA1999999100661MD1999999+0101REMSYN082AAXX  04004 82198 32993 00504 10259 20226 30066 40117 333 10315 29074 55097 58010;EQDQ01  00002PRCP06
0186821980999992003100412004-01717-045400FM-12+004499999V0200701N006710075019N0100001N1+02901+02171101281ADDAA106000091GF106991061021008001001001KA1240N+02461MA1999999100771MD1999999+0011REMSYN076AAXX  04124 82198 32597 60713 10290 20217 30077 40128 86200 333 20246 58001;EQDQ01  00002PRCP06
0167821980999992003100418004-01717-045400FM-12+004499999V0200701N005112200019N0100001N1+03111+02151101041ADDAA106000091GF104991041021012501001001MA1999999100531MD1999999+0051REMSYN070AAXX  04184 82198 32697 40710 10311 20215 30053 40104 84200 333 58005;EQDQ01  00002PRCP06
0208821980999992003100500004-01717-045400FM-12+004499999V0200501N002112200019N0005001N1+02541+02271101181ADDAA106000091GA1001+999999999GF100991001001999999001001KA1240M+03201MA1999999100671MD1999999+0011REMSYN082AAXX  05004 82198 32993 00504 10254 20227 30067 40118 333 10320 29073 55104 58001;EQDQ01  00002PRCP06
0186821980999992003100512004-01717-045400FM-12+004499999V0200501N005110075019N0100001N1+02881+02281101181ADDAA106000091GF106991061021008001001001KA1240N+02441MA1999999100671MD1999999-0101REMSYN076AAXX  05124 82198 32597 60510 10288 20228 30067 40118 86200 333 20244 59010;EQDQ01  00002PRCP06
0208821980999992003100600004-01717-045400FM-12+004499999V0200501N003612200019N0005001N1+02601+02311101081ADDAA106000091GA1001+999999999GF100991001001999999001001KA1240M+03281MA1999999100571MD1999999-0101REMSYN082AAXX  06004 82198 32993 00507 10260 20231 30057 40108 333 10328 29073 55103 59010;EQDQ01  00002PRCP06
0186821980999992003100612004-01717-045400FM-12+004499999V0200701N005712200019N0100001N1+02941+02261101161ADDAA106000091GF103991031011008001001001KA1240N+02441MA1999999100651MD1999999-0021REMSYN076AAXX  06124 82198 32597 30711 10294 20226 30065 40116 83100 333 20244 59002;EQDQ01  00002PRCP06
0167821980999992003100618004-01717-045400FM-12+004499999V0200701N005710120019N0100001N1+03061+02271100911ADDAA106000091GF105991051021012501001001MA1999999100401MD1999999+0091REMSYN070AAXX  06184 82198 32697 50711 10306 20227 30040 40091 85200 333 58009;EQDQ01  00002PRCP06
0208821980999992003100700004-01717-045400FM-12+004499999V0200501N002612200019N0005001N1+02621+02311101131ADDAA106000091GA1001+999999999GF100991001001999999001001KA1240M+03221MA1999999100621MD1999999+0051REMSYN082AAXX  07004 82198 32993 00505 10262 20231 30062 40113 333 10322 29074 55096 58005;EQDQ01  00002PRCP06
0186821980999992003100712004-01717-045400FM-12+004499999V0203601N005710075019N0100001N1+02861+02271101311ADDAA106000091GF105991051021008001001001KA1240N+02471MA1999999100801MD1999999-0151REMSYN076AAXX  07124 82198 32597 53611 10286 20227 30080 40131 85200 333 20247 59015;EQDQ01  00002PRCP06
0167821980999992003100718004-01717-045400FM-12+004499999V0200701N005710075019N0100001N1+03211+02151100981ADDAA106000091GF106991061021008001001001MA1999999100461MD1999999+0061REMSYN070AAXX  07184 82198 32597 60711 10321 20215 30046 40098 86200 333 58006;EQDQ01  00002PRCP06
0208821980999992003100800004-01717-045400FM-12+004499999V0202301N003112200019N0040001N1+02601+02311101171ADDAA106000091GA1001+999999999GF100991001001999999001001KA1240M+03251MA1999999100651MD1999999+0031REMSYN082AAXX  08004 82198 32996 02306 10260 20231 30065 40117 333 10325 29072 55098 58003;EQDQ01  00002PRCP06
0186821980999992003100812004-01717-045400FM-12+004499999V0200501N005110450019N0100001N1+02881+02281101211ADDAA106000091GF107991041021008001061011KA1240N+02491MA1999999100701MD1999999-0101REMSYN076AAXX  08124 82198 32597 70510 10288 20228 30070 40121 84261 333 20249 59010;EQDQ01  00002PRCP06
0167821980999992003100818004-01717-045400FM-12+004499999V0203601N006212200019N0100001N1+03141+02161100931ADDAA106000091GF105991031021008001001011MA1999999100421MD1999999-0041REMSYN070AAXX  08184 82198 32597 53612 10314 20216 30042 40093 83201 333 59004;EQDQ01  00002PRCP06
0186821980999992003100912004-01717-045400FM-12+004499999V0200501N004610450019N0100001N1+02921+02341101141ADDAA106000091GF106991031021008001061011KA1240N+02551MA1999999100631MD1999999-0071REMSYN076AAXX  09124 82198 32597 60509 10292 20234 30063 40114 83261 333 20255 59007;EQDQ01  00002PRCP06
0167821980999992003100918004-01717-045400FM-12+004499999V0200501N006212200019N0100001N1+03101+02231100911ADDAA106000091GF106991041021008001001011MA1999999100401MD1999999-0021REMSYN070AAXX  09184 82198 32597 60512 10310 20223 30040 40091 84201 333 59002;EQDQ01  00002PRCP06
0186821980999992003101012004-01717-045400FM-12+004499999V0200701N006710042019N0100001N1+02931+02151101191ADDAA106000091GF105991051021004501001001KA1240N+02451MA1999999100681MD1999999+0051REMSYN076AAXX  10124 82198 32497 50713 10293 20215 30068 40119 85200 333 20245 58005;EQDQ01  00002PRCP06
0167821980999992003101018004-01717-045400FM-12+004499999V0200501N004610075019N0100001N1+03181+02251100931ADDAA106000091GF105991051021008001001001MA1999999100421MD1999999+0021REMSYN070AAXX  10184 82198 32597 50509 10318 20225 30042 40093 85200 333 58002;EQDQ01  00002PRCP06
0198821980999992003101100004-01717-045400FM-12+004499999V0200501N004112200019N0040001N1+02611+02231101071ADDAA106000091GF103991021011008001001011KA1240M+03261MA1999999100561MD1999999-0051REMSYN088AAXX  11004 82198 32596 30508 10261 20223 30056 40107 82101 333 10326 29070 55106 59005;EQDQ01  00002PRCP06
0186821980999992003101112004-01717-045400FM-12+004499999V0200501N004610450019N0100001N1+02901+02301101251ADDAA106000091GF106991031021008001011041KA1240N+02461MA1999999100741MD1999999+0061REMSYN076AAXX  11124 82198 32597 60509 10290 20230 30074 40125 83214 333 20246 58006;EQDQ01  00002PRCP06
0186821980999992003101212004-01717-045400FM-12+004499999V0200701N005110450019N0100001N1+02881+02281101201ADDAA106000091GF106991031021008001061011KA1240N+02521MA1999999100691MD1999999-0051REMSYN076AAXX  12124 82198 32597 60710 10288 20228 30069 40120 83261 333 20252 59005;EQDQ01  00002PRCP06
0167821980999992003101218004-01717-045400FM-12+004499999V0200901N005110075019N0100001N1+03201+02301100961ADDAA106000091GF105991051021008001001001MA1999999100451MD1999999-0021REMSYN070AAXX  12184 82198 32597 50910 10320 20230 30045 40096 85200 333 59002;EQDQ01  00002PRCP06
0186821980999992003101312004-01717-045400FM-12+004499999V0200501N003110450019N0100001N1+02861+02331101241ADDAA106000091GF107991041021008001061011KA1240N+02511MA1999999100731MD1999999+0041REMSYN076AAXX  13124 82198 32597 70506 10286 20233 30073 40124 84261 333 20251 58004;EQDQ01  00002PRCP06
0183821980999992003101318004-01717-045400FM-12+004499999V0203601N002619999999N0100001N1+03181+02361100971ADDAA106000091GF106991999021008001001001MA1999999100461MD1999999+0011REMSYN070AAXX  13184 82198 32597 63605 10318 20236 30046 40097 83200 333 58001;EQDQ01+000032SCOTLCQ02  00002PRCP06
0208821980999992003101400004-01717-045400FM-12+004499999V0200501N002112200019N0040001N1+02621+02351101111ADDAA106000091GA1001+999999999GF100991001001999999001001KA1240M+03121MA1999999100601MD1999999-0031REMSYN082AAXX  14004 82198 32996 00504 10262 20235 30060 40111 333 10312 29076 55051 59003;EQDQ01  00002PRCP06
0186821980999992003101412004-01717-045400FM-12+004499999V0200501N003612200019N0100001N1+02921+02341101321ADDAA106000091GF104991041011008001001001KA1240N+02371MA1999999100811MD1999999+0081REMSYN076AAXX  14124 82198 32597 40507 10292 20234 30081 40132 84100 333 20237 58008;EQDQ01  00002PRCP06
0167821980999992003101418004-01717-045400FM-12+004499999V0200501N005112200019N0100001N1+03031+02211100951ADDAA106000091GF103991031021012501001001MA1999999100441MD1999999-0021REMSYN070AAXX  14184 82198 32697 30510 10303 20221 30044 40095 83200 333 59002;EQDQ01  00002PRCP06
0208821980999992003101500004-01717-045400FM-12+004499999V0200501N003112200019N0005001N1+02621+02351101181ADDAA106000091GA1001+999999999GF100991001001999999001001KA1240M+03151MA1999999100671MD1999999+0071REMSYN082AAXX  15004 82198 32993 00506 10262 20235 30067 40118 333 10315 29076 55088 58007;EQDQ01  00002PRCP06
0171821980999992003101518004-01717-045400FM-12+004499999V0200701N004110450019N0100001N1+03031+02361100971ADDAY161061AY221061GF106991041021008001061001MA1999999100461MD1999999+0021MW1021REMSYN082AAXX  15184 82198 21597 60708 10303 20236 30046 40097 70262 84260 333 58002 69941;
0208821980999992003101600004-01717-045400FM-12+004499999V0200501N002612200019N0005001N1+02601+02351101211ADDAA106000091GA1001+999999999GF100991001001999999001001KA1240M+03041MA1999999100701MD1999999+0031REMSYN082AAXX  16004 82198 32993 00505 10260 20235 30070 40121 333 10304 29078 55041 58003;EQDQ01  00002PRCP06
0166821980999992003101618004-01717-045400FM-12+004499999V0200701N005710450019N0100001N1+03021+02291100941ADDAA106000091GF105991041021008001061001MA1999999100431MD1999999-0031REMSYN069AAXX  16184 82198 3259750711 10302 20229 30043 40094 84260 333 59003;EQDQ01  00002PRCP06
0208821980999992003101700004-01717-045400FM-12+004499999V0200501N003612200019N0005001N1+02601+02271101181ADDAA106000091GA1001+999999999GF100991001001999999001001KA1240M+03151MA1999999100671MD1999999-0031REMSYN082AAXX  17004 82198 32993 00507 10260 20227 30067 40118 333 10315 29075 55076 59003;EQDQ01  00002PRCP06
0186821980999992003101712004-01717-045400FM-12+004499999V0200701N004610075019N0100001N1+02881+02301101261ADDAA106000091GF107991051021008001061001KA1240N+02491MA1999999100751MD1999999-0021REMSYN076AAXX  17124 82198 32597 70709 10288 20230 30075 40126 85260 333 20249 59002;EQDQ01  00002PRCP06
0167821980999992003101718004-01717-045400FM-12+004499999V0200501N007212200019N0100001N1+03061+02221100911ADDAA106000091GF105991041021012501001011MA1999999100401MD1999999-0031REMSYN070AAXX  17184 82198 32697 50514 10306 20222 30040 40091 84201 333 59003;EQDQ01  00002PRCP06
0208821980999992003101800004-01717-045400FM-12+004499999V0200501N002612200019N0005001N1+02581+02331101151ADDAA106000091GA1001+999999999GF100991001001999999001001KA1240M+03211MA1999999100641MD1999999-0031REMSYN082AAXX  18004 82198 32993 00505 10258 20233 30064 40115 333 10321 29076 55076 59003;EQDQ01  00002PRCP06
0186821980999992003101812004-01717-045400FM-12+004499999V0200501N005712200019N0100001N1+02911+02221101271ADDAA106000091GF106991041021012501001011KA1240N+02451MA1999999100761MD1999999+0011REMSYN076AAXX  18124 82198 32697 60511 10291 20222 30076 40127 84201 333 20245 58001;EQDQ01  00002PRCP06
0167821980999992003101818004-01717-045400FM-12+004499999V0200501N005110450019N0100001N1+03111+02151100991ADDAA106000091GF106991041021012501061001MA1999999100481MD1999999+0081REMSYN070AAXX  18184 82198 32697 60510 10311 20215 30048 40099 84260 333 58008;EQDQ01  00002PRCP06
0208821980999992003101900004-01717-045400FM-12+004499999V0200501N002612200019N0005001N1+02561+02271101131ADDAA106000091GA1001+999999999GF100991001001999999001001KA1240M+03221MA1999999100621MD1999999-0021REMSYN082AAXX  19004 82198 32993 00505 10256 20227 30062 40113 333 10322 29073 55089 59002;EQDQ01  00002PRCP06
0202821980999992003101912004-01717-045400FM-12+004499999V0200501N005119999999N0100001N1+02901+02301101321ADDAA106000091GF107991999041008001021061KA1240N+02461MA1999999100811MD1999999+0051REMSYN076AAXX  19124 82198 32597 70510 10290 20230 30081 40132 88426 333 20246 58005;EQDQ01+000082SCOTLCQ02  00002PRCP06
0167821980999992003101918004-01717-045400FM-12+004499999V0200701N004612200019N0100001N1+03091+02241100981ADDAA106000091GF106991031021012501001011MA1999999100471MD1999999-0011REMSYN070AAXX  19184 82198 32697 60709 10309 20224 30047 40098 83201 333 59001;EQDQ01  00002PRCP06
0208821980999992003102000004-01717-045400FM-12+004499999V0200501N003112200019N0005001N1+02631+02391101191ADDAA106000091GA1001+999999999GF100991001001999999001001KA1240M+03221MA1999999100681MD1999999+0061REMSYN082AAXX  20004 82198 32993 00506 10263 20239 30068 40119 333 10322 29076 55084 58006;EQDQ01  00002PRCP06
0186821980999992003102012004-01717-045400FM-12+004499999V0200701N004610150019N0100001N1+02901+02321101291ADDAA106000091GF108991051081012501061999KA1240N+02491MA1999999100781MD1999999-0031REMSYN076AAXX  20124 82198 32697 80709 10290 20232 30078 40129 8586/ 333 20249 59003;EQDQ01  00002PRCP06
0167821980999992003102018004-01717-045400FM-12+004499999V0200501N006212200019N0100001N1+03161+02171101041ADDAA106000091GF104991031021012501061001MA1999999100531MD1999999+0061REMSYN070AAXX  20184 82198 32697 40512 10316 20217 30053 40104 83260 333 58006;EQDQ01  00002PRCP06
0208821980999992003102100004-01717-045400FM-12+004499999V0200501N003612200019N0005001N1+02601+02331101181ADDAA106000091GA1001+999999999GF100991001001999999001001KA1240M+03211MA1999999100671MD1999999-0011REMSYN082AAXX  21004 82198 32993 00507 10260 20233 30067 40118 333 10321 29074 55062 59001;EQDQ01  00002PRCP06
0186821980999992003102112004-01717-045400FM-12+004499999V0200501N004110450019N0100001N1+02761+02221101261ADDAA106000091GF107991041051008001061001KA1240N+02481MA1999999100741MD1999999-0041REMSYN076AAXX  21124 82198 32597 70508 10276 20222 30074 40126 84560 333 20248 59004;EQDQ01  00002PRCP06
0167821980999992003102118004-01717-045400FM-12+004499999V0200501N005710450019N0100001N1+03051+02141100881ADDAA106000091GF105991031021008001011011MA1999999100371MD1999999-0161REMSYN070AAXX  21184 82198 32597 50511 10305 20214 30037 40088 83211 333 59016;EQDQ01  00002PRCP06
0186821980999992003102212004-01717-045400FM-12+004499999V0200501N006212200019N0100001N1+02971+02241101231ADDAA106000091GF105991031021008001001011KA1240N+02491MA1999999100721MD1999999-0021REMSYN076AAXX  22124 82198 32597 50512 10297 20224 30072 40123 83201 333 20249 59002;EQDQ01  00002PRCP06
0167821980999992003102218004-01717-045400FM-12+004499999V0200501N005712200019N0100001N1+03041+02151101011ADDAA106000091GF105991031021008001001011MA1999999100501MD1999999-0131REMSYN070AAXX  22184 82198 32597 50511 10304 20215 30050 40101 83201 333 59013;EQDQ01  00002PRCP06
0186821980999992003102312004-01717-045400FM-12+004499999V0200501N004612200019N0100001N1+02961+02261101311ADDAA106000091GF106991041021008001001041KA1240N+02471MA1999999100801MD1999999+0081REMSYN076AAXX  23124 82198 32597 60509 10296 20226 30080 40131 84204 333 20247 58008;EQDQ01  00002PRCP06
0167821980999992003102318004-01717-045400FM-12+004499999V0203601N005110450019N0100001N1+03071+02171101121ADDAA106000091GF105991031021008001011061MA1999999100611MD1999999+0111REMSYN070AAXX  23184 82198 32597 53610 10307 20217 30061 40112 83216 333 58011;EQDQ01  00002PRCP06
0208821980999992003102400004-01717-045400FM-12+004499999V0200501N002612200019N0005001N1+02591+02291101351ADDAA106000091GA1001+999999999GF100991001001999999001001KA1240M+03211MA1999999100831MD1999999+0221REMSYN082AAXX  24004 82198 32993 00505 10259 20229 30083 40135 333 10321 29073 55106 58022;EQDQ01  00002PRCP06
0186821980999992003102412004-01717-045400FM-12+004499999V0203601N005110450019N0100001N1+02931+02151101391ADDAA106000091GF106991031021008001031061KA1240N+02501MA1999999100871MD1999999+0071REMSYN076AAXX  24124 82198 32597 63610 10293 20215 30087 40139 83236 333 20250 58007;EQDQ01  00002PRCP06
0208821980999992003102500004-01717-045400FM-12+004499999V0200501N002612200019N0005001N1+02601+02271101331ADDAA106000091GA1001+999999999GF100991001001999999001001KA1240M+03191MA1999999100811MD1999999-0021REMSYN082AAXX  25004 82198 32993 00505 10260 20227 30081 40133 333 10319 29072 55107 59002;EQDQ01  00002PRCP06
0186821980999992003102512004-01717-045400FM-12+004499999V0200501N003110075019N0100001N1+02851+02311101301ADDAA106000091GF106991061021008001001001KA1240N+02461MA1999999100791MD1999999-0081REMSYN076AAXX  25124 82198 32597 60506 10285 20231 30079 40130 86200 333 20246 59008;EQDQ01  00002PRCP06
0167821980999992003102518004-01717-045400FM-12+004499999V0203601N003612200019N0100001N1+03131+02231100951ADDAA106000091GF105991031021008001001011MA1999999100441MD1999999-0211REMSYN070AAXX  25184 82198 32597 53607 10313 20223 30044 40095 83201 333 59021;EQDQ01  00002PRCP06
0208821980999992003102600004-01717-045400FM-12+004499999V0200501N002612200019N0005001N1+02641+02371101091ADDAA106000091GA1001+999999999GF100991001001999999001001KA1240M+03311MA1999999100581MD1999999-0231REMSYN082AAXX  26004 82198 32993 00505 10264 20237 30058 40109 333 10331 29076 55098 59023;EQDQ01  00002PRCP06
0186821980999992003102612004-01717-045400FM-12+004499999V0200501N005110450019N0100001N1+02901+02201101121ADDAA106000091GF106991031021008001011011KA1240N+02501MA1999999100611MD1999999-0181REMSYN076AAXX  26124 82198 32597 60510 10290 20220 30061 40112 83211 333 20250 59018;EQDQ01  00002PRCP06
0167821980999992003102618004-01717-045400FM-12+004499999V0203601N004110450019N0100001N1+02911+02251100841ADDAA106000091GF107991041051008001061001MA1999999100331MD1999999-0111REMSYN070AAXX  26184 82198 32597 73608 10291 20225 30033 40084 84560 333 59011;EQDQ01  00002PRCP06
0190821980999992003102712004-01717-045400FM-12+004499999V0203601N003610450019N0100001N1+02691+02461101141ADDAY161061AY221061GF107991041071008001061001KA1240N+02481MA1999999100631MD1999999+0021MW1621REMSYN088AAXX  27124 82198 21597 73607 10269 20246 30063 40114 76262 84760 333 20248 58002 60014;
0171821980999992003102718004-01717-045400FM-12+004499999V0200701N006710450019N0040001N1+02651+02211100871ADDAY161061AY221061GF107991041071008001061011MA1999999100361MD1999999+0031MW1611REMSYN082AAXX  27184 82198 21596 70713 10265 20221 30036 40087 76162 84761 333 58003 60031;
0189821980999992003102800004-01717-045400FM-12+004499999V0200501N002612200019N0005001N1+02591+02291101001ADDAA106000021GA1001+999999999GF100991001001999999001001KA1240M+03061MA1999999100491MD1999999+0031REMSYN082AAXX  28004 82198 32993 00505 10259 20229 30049 40100 333 10306 29083 55039 58003;
0162821980999992003102812004-01717-045400FM-12+004499999V0200701N005710075019N0100001N1+02901+02271101151ADDGF106991061021008001001001KA1240N+02441MA1999999100641MD1999999+0011REMSYN082AAXX  28124 82198 22597 60711 10290 20227 30064 40115 86200 333 20244 58001 60034;
0167821980999992003102818004-01717-045400FM-12+004499999V0200501N004610450019N0100001N1+03111+02261100941ADDAA106000091GF105991031021012501061001MA1999999100431MD1999999+0071REMSYN070AAXX  28184 82198 32697 50509 10311 20226 30043 40094 83260 333 58007;EQDQ01  00002PRCP06
0208821980999992003102900004-01717-045400FM-12+004499999V0200501N003112200019N0005001N1+02581+02331101151ADDAA106000091GA1001+999999999GF100991001001999999001001KA1240M+03251MA1999999100641MD1999999+0151REMSYN082AAXX  29004 82198 32993 00506 10258 20233 30064 40115 333 10325 29076 55072 58015;EQDQ01  00002PRCP06
0186821980999992003102912004-01717-045400FM-12+004499999V0200501N005712200019N0100001N1+03001+02491101211ADDAA106000091GF104991041021008001001001KA1240N+02461MA1999999100701MD1999999+0061REMSYN076AAXX  29124 82198 32597 40511 10300 20249 30070 40121 84200 333 20246 58006;EQDQ01  00002PRCP06
0167821980999992003102918004-01717-045400FM-12+004499999V0200701N005710120019N0100001N1+03091+02321100931ADDAA106000091GF105991051021012501001001MA1999999100421MD1999999-0011REMSYN070AAXX  29184 82198 32697 50711 10309 20232 30042 40093 85200 333 59001;EQDQ01  00002PRCP06
0208821980999992003103000004-01717-045400FM-12+004499999V0200501N003612200019N0005001N1+02621+02351101121ADDAA106000091GA1001+999999999GF100991001001999999001001KA1240M+03181MA1999999100611MD1999999-0031REMSYN082AAXX  30004 82198 32993 00507 10262 20235 30061 40112 333 10318 29077 55093 59003;EQDQ01  00002PRCP06
0186821980999992003103012004-01717-045400FM-12+004499999V0200701N003612200019N0100001N1+02921+02321101201ADDAA106000091GF105991041021008001001011KA1240N+02451MA1999999100691MD1999999-0011REMSYN076AAXX  30124 82198 32597 50707 10292 20232 30069 40120 84201 333 20245 59001;EQDQ01  00002PRCP06
0167821980999992003103018004-01717-045400FM-12+004499999V0200501N003612200019N0100001N1+03201+02301100791ADDAA106000091GF104991031021012501001011MA1999999100281MD1999999-0141REMSYN070AAXX  30184 82198 32697 40507 10320 20230 30028 40079 83201 333 59014;EQDQ01  00002PRCP06
0198821980999992003103100004-01717-045400FM-12+004499999V0203601N003612200019N0005001N1+02661+02411101011ADDAA106000091GF103991031011008001001001KA1240M+03271MA1999999100501MD1999999-0111REMSYN088AAXX  31004 82198 32593 33607 10266 20241 30050 40101 83100 333 10327 29075 55088 59011;EQDQ01  00002PRCP06
0186821980999992003103112004-01717-045400FM-12+004499999V0203601N004110075019N0100001N1+02881+02481101151ADDAA106000091GF106991051021008001001011KA1240N+02441MA1999999100641MD1999999-0051REMSYN076AAXX  31124 82198 32597 63608 10288 20248 30064 40115 85201 333 20244 59005;EQDQ01  00002PRCP06
0167821980999992003103118004-01717-045400FM-12+004499999V0203601N005110450019N0100001N1+02911+02411100811ADDAA106000091GF106991031021012501061001MA1999999100301MD1999999+0021REMSYN070AAXX  31184 82198 32697 63610 10291 20241 30030 40081 83260 333 58002;EQDQ01  00002PRCP06
0208821980999992003110100004-01717-045400FM-12+004499999V0203601N003612200019N0040001N1+02661+02411101061ADDAA106000091GA1001+999999999GF100991001001999999001001KA1240M+03081MA1999999100551MD1999999+0051REMSYN082AAXX  01004 82198 32996 03607 10266 20241 30055 40106 333 10308 29082 55037 58005;EQDQ01  00002PRCP06
0186821980999992003110112004-01717-045400FM-12+004499999V0203601N005710120019N0100001N1+02871+02391101171ADDAA106000091GF106991051021012501001011KA1240N+02521MA1999999100661MD1999999+0021REMSYN076AAXX  01124 82198 32697 63611 10287 20239 30066 40117 85201 333 20252 58002;EQDQ01  00002PRCP06
0167821980999992003110118004-01717-045400FM-12+004499999V0203601N004110450019N0100001N1+03061+02351100841ADDAA106000091GF106991031021012501061011MA1999999100331MD1999999+0031REMSYN070AAXX  01184 82198 32697 63608 10306 20235 30033 40084 83261 333 58003;EQDQ01  00002PRCP06
0198821980999992003110200004-01717-045400FM-12+004499999V0203601N003112200019N0040001N1+02611+02391101121ADDAA106000091GF104991021011008001061001KA1240M+03221MA1999999100601MD1999999+0051REMSYN088AAXX  02004 82198 32596 43606 10261 20239 30060 40112 82160 333 10322 29079 55056 58005;EQDQ01  00002PRCP06
0186821980999992003110212004-01717-045400FM-12+004499999V0200701N003112200019N0100001N1+02971+02351101111ADDAA106000091GF104991031021008001001011KA1240N+02451MA1999999100601MD1999999-0061REMSYN076AAXX  02124 82198 32597 40706 10297 20235 30060 40111 83201 333 20245 59006;EQDQ01  00002PRCP06
0167821980999992003110218004-01717-045400FM-12+004499999V0200501N005712200019N0100001N1+03091+02271100811ADDAA106000091GF103991021021012501001011MA1999999100301MD1999999-0031REMSYN070AAXX  02184 82198 32697 30511 10309 20227 30030 40081 82201 333 59003;EQDQ01  00002PRCP06
0208821980999992003110300004-01717-045400FM-12+004499999V0200701N003112200019N0040001N1+02601+02331101011ADDAA106000091GA1001+999999999GF100991001001999999001001KA1240M+03201MA1999999100501MD1999999-0101REMSYN082AAXX  03004 82198 32996 00706 10260 20233 30050 40101 333 10320 29075 55111 59010;EQDQ01  00002PRCP06
0186821980999992003110312004-01717-045400FM-12+004499999V0200901N003110075019N0100001N1+02891+02351101161ADDAA106000091GF105991051021008001001001KA1240N+02431MA1999999100651MD1999999+0051REMSYN076AAXX  03124 82198 32597 50906 10289 20235 30065 40116 85200 333 20243 58005;EQDQ01  00002PRCP06
0167821980999992003110318004-01717-045400FM-12+004499999V0201801N006712200019N0100001N1+03011+02221100781ADDAA106000091GF103991031021012501001001MA1999999100271MD1999999-0031REMSYN070AAXX  03184 82198 32697 31813 10301 20222 30027 40078 83200 333 59003;EQDQ01  00002PRCP06
0208821980999992003110400004-01717-045400FM-12+004499999V0200501N003112200019N0040001N1+02561+02351101011ADDAA106000091GA1001+999999999GF100991001001999999001001KA1240M+03201MA1999999100501MD1999999+0001REMSYN082AAXX  04004 82198 32996 00506 10256 20235 30050 40101 333 10320 29078 55087 58000;EQDQ01  00002PRCP06
0186821980999992003110412004-01717-045400FM-12+004499999V0203601N003112200019N0100001N1+02941+02311101191ADDAA106000091GF106991041021004501001061KA1240N+02351MA1999999100681MD1999999+0031REMSYN076AAXX  04124 82198 32497 63606 10294 20231 30068 40119 84206 333 20235 58003;EQDQ01  00002PRCP06
0167821980999992003110418004-01717-045400FM-12+004499999V0203601N005110450019N0100001N1+03091+02031100901ADDAA106000091GF106991031021008001011061MA1999999100391MD1999999+0121REMSYN070AAXX  04184 82198 32597 63610 10309 20203 30039 40090 83216 333 58012;EQDQ01  00002PRCP06
0198821980999992003110500004-01717-045400FM-12+004499999V0203601N002612200019N0040001N1+02601+02271101251ADDAA106000091GF105991031001017501011061KA1240M+03191MA1999999100741MD1999999+0241REMSYN088AAXX  05004 82198 32796 53605 10260 20227 30074 40125 83016 333 10319 29072 55080 58024;EQDQ01  00002PRCP06
0186821980999992003110512004-01717-045400FM-12+004499999V0200501N002610450019N0100001N1+02931+02321101271ADDAA106000091GF106991031021004501041061KA1240N+02381MA1999999100761MD1999999+0081REMSYN076AAXX  05124 82198 32497 60505 10293 20232 30076 40127 83246 333 20238 58008;EQDQ01  00002PRCP06
0167821980999992003110518004-01717-045400FM-12+004499999V0203601N006712200019N0100001N1+03121+02361100951ADDAA106000091GF104991021021004501041061MA1999999100441MD1999999+0051REMSYN070AAXX  05184 82198 32497 43613 10312 20236 30044 40095 82246 333 58005;EQDQ01  00002PRCP06
0198821980999992003110600004-01717-045400FM-12+004499999V0203601N003112200019N0040001N1+02621+02351101221ADDAA106000091GF103991011011008001041041KA1240M+03331MA1999999100711MD1999999-0031REMSYN088AAXX  06004 82198 32596 33606 10262 20235 30071 40122 81144 333 10333 29076 55108 59003;EQDQ01  00002PRCP06
0186821980999992003110612004-01717-045400FM-12+004499999V0201401N001510450019N0100001N1+02861+02441101231ADDAA106000091GF106991031021004501061011KA1240N+02391MA1999999100721MD1999999-0041REMSYN076AAXX  06124 82198 32497 61403 10286 20244 30072 40123 83261 333 20239 59004;EQDQ01  00002PRCP06
0167821980999992003110618004-01717-045400FM-12+004499999V0203601N005110450019N0100001N1+03061+02301100831ADDAA106000091GF106991031021004501061011MA1999999100321MD1999999-0121REMSYN070AAXX  06184 82198 32497 63610 10306 20230 30032 40083 83261 333 59012;EQDQ01  00002PRCP06
0198821980999992003110700004-01717-045400FM-12+004499999V0200501N003112200019N0040001N1+02641+02391101071ADDAA106000091GF103991021001017501041011KA1240M+03411MA1999999100561MD1999999-0151REMSYN088AAXX  07004 82198 32796 30506 10264 20239 30056 40107 82041 333 10341 29078 55104 59015;EQDQ01  00002PRCP06
0186821980999992003110712004-01717-045400FM-12+004499999V0200501N003610450019N0100001N1+02971+02461101061ADDAA106000091GF106991041011004501061011KA1240N+02361MA1999999100551MD1999999-0171REMSYN076AAXX  07124 82198 32497 60507 10297 20246 30055 40106 84161 333 20236 59017;EQDQ01  00002PRCP06
0167821980999992003110718004-01717-045400FM-12+004499999V0203601N006210450019N0100001N1+03091+02111100851ADDAA106000091GF106991031021008001061041MA1999999100341MD1999999+0021REMSYN070AAXX  07184 82198 32597 63612 10309 20211 30034 40085 83264 333 58002;EQDQ01  00002PRCP06
0198821980999992003110800004-01717-045400FM-12+004499999V0203601N004112200019N0040001N1+02691+02251101001ADDAA106000091GF102991021021008001001001KA1240M+03321MA1999999100491MD1999999-0071REMSYN088AAXX  08004 82198 32596 23608 10269 20225 30049 40100 82200 333 10332 29074 55083 59007;EQDQ01  00002PRCP06
0186821980999992003110812004-01717-045400FM-12+004499999V0200501N004112200019N0100001N1+03021+02211101161ADDAA106000091GF106991041011004501001011KA1240N+02521MA1999999100651MD1999999+0101REMSYN076AAXX  08124 82198 32497 60508 10302 20221 30065 40116 84101 333 20252 58010;EQDQ01  00002PRCP06
0186821980999992003110912004-01717-045400FM-12+004499999V0200501N005112200019N0100001N1+02931+02321101131ADDAA106000091GF106991041011004501001011KA1240N+02521MA1999999100621MD1999999-0031REMSYN076AAXX  09124 82198 32497 60510 10293 20232 30062 40113 84101 333 20252 59003;EQDQ01  00002PRCP06
0167821980999992003110918004-01717-045400FM-12+004499999V0200501N006712200019N0100001N1+03061+02221100891ADDAA106000091GF106991041021008001001061MA1999999100381MD1999999-0041REMSYN070AAXX  09184 82198 32597 60513 10306 20222 30038 40089 84206 333 59004;EQDQ01  00002PRCP06
0198821980999992003111000004-01717-045400FM-12+004499999V0200501N002612200019N0040001N1+02621+02351101121ADDAA106000091GF102991011011008001001011KA1240M+03211MA1999999100611MD1999999+0021REMSYN088AAXX  10004 82198 32596 20505 10262 20235 30061 40112 81101 333 10321 29076 55107 58002;EQDQ01  00002PRCP06
0186821980999992003111012004-01717-045400FM-12+004499999V0200901N004610450019N0100001N1+03021+02491101211ADDAA106000091GF106991031021004501061061KA1240N+02421MA1999999100701MD1999999+0081REMSYN076AAXX  10124 82198 32497 60909 10302 20249 30070 40121 83266 333 20242 58008;EQDQ01  00002PRCP06
0167821980999992003111018004-01717-045400FM-12+004499999V0200501N005710450019N0100001N1+03171+02271100871ADDAA106000091GF106991031021008001011061MA1999999100361MD1999999-0021REMSYN070AAXX  10184 82198 32597 60511 10317 20227 30036 40087 83216 333 59002;EQDQ01  00002PRCP06
0198821980999992003111100004-01717-045400FM-12+004499999V0200501N003112200019N0040001N1+02631+02231101181ADDAA106000091GF101991011001022501001011KA1240M+03271MA1999999100671MD1999999+0061REMSYN088AAXX  11004 82198 32896 10506 10263 20223 30067 40118 81001 333 10327 29073 55101 58006;EQDQ01  00002PRCP06
0186821980999992003111112004-01717-045400FM-12+004499999V0200901N005110120019N0100001N1+02941+02291101161ADDAA106000091GF106991061021012501001001KA1240N+02451MA1999999100651MD1999999-0051REMSYN076AAXX  11124 82198 32697 60910 10294 20229 30065 40116 86200 333 20245 59005;EQDQ01  00002PRCP06
0208821980999992003111200004-01717-045400FM-12+004499999V0200701N003112200019N0040001N1+02661+02331101091ADDAA106000091GA1001+999999999GF100991001001999999001001KA1240M+03281MA1999999100581MD1999999-0091REMSYN082AAXX  12004 82198 32996 00706 10266 20233 30058 40109 333 10328 29072 55097 59009;EQDQ01  00002PRCP06
0186821980999992003111212004-01717-045400FM-12+004499999V0200901N007710450019N0100001N1+02921+02341101231ADDAA106000091GF106991041021012501061001KA1240N+02491MA1999999100721MD1999999+0071REMSYN076AAXX  12124 82198 32697 60915 10292 20234 30072 40123 84260 333 20249 58007;EQDQ01  00002PRCP06
0171821980999992003111218004-01717-045400FM-12+004499999V0200701N005112200019N0100001N1+03171+02311100931ADDAY161061AY221061GF104991041021012501001001MA1999999100421MD1999999+0111MW1011REMSYN082AAXX  12184 82198 21697 40710 10317 20231 30042 40093 70162 84200 333 58011 60011;
0208821980999992003111300004-01717-045400FM-12+004499999V0200501N002112200019N0005001N1+02641+02351101181ADDAA106000091GA1001+999999999GF100991001001999999001001KA1240M+03211MA1999999100671MD1999999+0091REMSYN082AAXX  13004 82198 32993 00504 10264 20235 30067 40118 333 10321 29075 55089 58009;EQDQ01  00002PRCP06
0162821980999992003111312004-01717-045400FM-12+004499999V0200501N005112200019N0100001N1+02991+02251101351ADDGF105991041021012501001011KA1240N+02501MA1999999100841MD1999999+0121REMSYN082AAXX  13124 82198 22697 50510 10299 20225 30084 40135 84201 333 20250 58012 60014;
0167821980999992003111318004-01717-045400FM-12+004499999V0200901N006212200019N0100001N1+03181+02251101141ADDAA106000091GF103991021021008001001011MA1999999100631MD1999999+0211REMSYN070AAXX  13184 82198 32597 30912 10318 20225 30063 40114 82201 333 58021;EQDQ01  00002PRCP06
0208821980999992003111400004-01717-045400FM-12+004499999V0200701N003612200019N0005001N1+02601+02331101161ADDAA106000091GA1001+999999999GF100991001001999999001001KA1240M+03281MA1999999100651MD1999999-0021REMSYN082AAXX  14004 82198 32993 00707 10260 20233 30065 40116 333 10328 29073 55105 59002;EQDQ01  00002PRCP06
0186821980999992003111412004-01717-045400FM-12+004499999V0200901N006712200019N0100001N1+02991+02151101251ADDAA106000091GF102991021011012501001001KA1240N+02351MA1999999100741MD1999999-0101REMSYN076AAXX  14124 82198 32697 20913 10299 20215 30074 40125 82100 333 20235 59010;EQDQ01  00002PRCP06
0167821980999992003111418004-01717-045400FM-12+004499999V0200701N005712200019N0100001N1+03221+02201100991ADDAA106000091GF103991021021008001001011MA1999999100481MD1999999-0151REMSYN070AAXX  14184 82198 32597 30711 10322 20220 30048 40099 82201 333 59015;EQDQ01  00002PRCP06
0208821980999992003111500004-01717-045400FM-12+004499999V0200501N002612200019N0005001N1+02601+02311101141ADDAA106000091GA1001+999999999GF100991001001999999001001KA1240M+03351MA1999999100631MD1999999-0021REMSYN082AAXX  15004 82198 32993 00505 10260 20231 30063 40114 333 10335 29071 55113 59002;EQDQ01  00002PRCP06
0186821980999992003111512004-01717-045400FM-12+004499999V0200501N004112200019N0100001N1+02951+02351101201ADDAA106000091GF103991031011012501001001KA1240N+02431MA1999999100691MD1999999-0051REMSYN076AAXX  15124 82198 32697 30508 10295 20235 30069 40120 83100 333 20243 59005;EQDQ01  00002PRCP06
0167821980999992003111518004-01717-045400FM-12+004499999V0200501N005712200019N0100001N1+03041+02381100911ADDAA106000091GF104991041021012501001001MA1999999100401MD1999999-0081REMSYN070AAXX  15184 82198 32697 40511 10304 20238 30040 40091 84200 333 59008;EQDQ01  00002PRCP06
0208821980999992003111600004-01717-045400FM-12+004499999V0200501N004112200019N0005001N1+02691+02391101141ADDAA106000091GA1001+999999999GF100991001001999999001001KA1240M+03271MA1999999100631MD1999999+0001REMSYN082AAXX  16004 82198 32993 00508 10269 20239 30063 40114 333 10327 29076 55111 58000;EQDQ01  00002PRCP06
0186821980999992003111612004-01717-045400FM-12+004499999V0200901N004610075019N0100001N1+02991+02351101151ADDAA106000091GF106991061021008001001001KA1240N+02541MA1999999100651MD1999999-0041REMSYN076AAXX  16124 82198 32597 60909 10299 20235 30065 40115 86200 333 20254 59004;EQDQ01  00002PRCP06
0167821980999992003111618004-01717-045400FM-12+004499999V0200701N005712200019N0100001N1+03171+02311100881ADDAA106000091GF104991041021012501001001MA1999999100371MD1999999-0031REMSYN070AAXX  16184 82198 32697 40711 10317 20231 30037 40088 84200 333 59003;EQDQ01  00002PRCP06
0208821980999992003111700004-01717-045400FM-12+004499999V0200501N004112200019N0005001N1+02701+02461101071ADDAA106000091GA1001+999999999GF100991001001999999001001KA1240M+03331MA1999999100561MD1999999-0071REMSYN082AAXX  17004 82198 32993 00508 10270 20246 30056 40107 333 10333 29076 55092 59007;EQDQ01  00002PRCP06
0186821980999992003111712004-01717-045400FM-12+004499999V0200501N005110075019N0100001N1+02981+02471101211ADDAA106000091GF106991061021008001001001KA1240N+02521MA1999999100701MD1999999+0051REMSYN076AAXX  17124 82198 32597 60510 10298 20247 30070 40121 86200 333 20252 58005;EQDQ01  00002PRCP06
0167821980999992003111718004-01717-045400FM-12+004499999V0200701N005112200019N0100001N1+03291+02261100881ADDAA106000091GF105991031021012501001011MA1999999100371MD1999999+0001REMSYN070AAXX  17184 82198 32697 50710 10329 20226 30037 40088 83201 333 58000;EQDQ01  00002PRCP06
0208821980999992003111800004-01717-045400FM-12+004499999V0200501N002112200019N0005001N1+02661+02431101011ADDAA106000091GA1001+999999999GF100991001001999999001001KA1240M+03361MA1999999100501MD1999999-0061REMSYN082AAXX  18004 82198 32993 00504 10266 20243 30050 40101 333 10336 29077 55099 59006;EQDQ01  00002PRCP06
0186821980999992003111812004-01717-045400FM-12+004499999V0203601N005110450019N0100001N1+02931+02321101151ADDAA106000091GF106991031021004501041061KA1240N+02531MA1999999100641MD1999999-0061REMSYN076AAXX  18124 82198 32497 63610 10293 20232 30064 40115 83246 333 20253 59006;EQDQ01  00002PRCP06
0208821980999992003111900004-01717-045400FM-12+004499999V0200501N002612200019N0005001N1+02681+02411101011ADDAA106000091GA1001+999999999GF100991001001999999001001KA1240M+03201MA1999999100501MD1999999+0001REMSYN082AAXX  19004 82198 32993 00505 10268 20241 30050 40101 333 10320 29076 55083 58000;EQDQ01  00002PRCP06
0186821980999992003111912004-01717-045400FM-12+004499999V0200501N005710450019N0100001N1+02841+02361101081ADDAA106000091GF107991041051008001061011KA1240N+02591MA1999999100571MD1999999-0071REMSYN076AAXX  19124 82198 32597 70511 10284 20236 30057 40108 84561 333 20259 59007;EQDQ01  00002PRCP06
0167821980999992003111918004-01717-045400FM-12+004499999V0203601N004610450019N0100001N1+02991+02341100841ADDAA106000091GF107991041051008001061041MA1999999100331MD1999999+0031REMSYN070AAXX  19184 82198 32597 73609 10299 20234 30033 40084 84564 333 58003;EQDQ01  00002PRCP06
0186821980999992003112012004-01717-045400FM-12+004499999V0203601N005710075019N0100001N1+02861+02371101141ADDAA106000091GF107991051051008001061001KA1240N+02581MA1999999100631MD1999999+0061REMSYN076AAXX  20124 82198 32597 73611 10286 20237 30063 40114 85560 333 20258 58006;EQDQ01  00002PRCP06
0167821980999992003112018004-01717-045400FM-12+004499999V0200501N004610450019N0100001N1+03141+02231100911ADDAA106000091GF107991041021008001011041MA1999999100401MD1999999+0071REMSYN070AAXX  20184 82198 32597 70509 10314 20223 30040 40091 84214 333 58007;EQDQ01  00002PRCP06
0208821980999992003112100004-01717-045400FM-12+004499999V0200701N003112200019N0005001N1+02661+02391101061ADDAA106000091GA1001+999999999GF100991001001999999001001KA1240M+03261MA1999999100551MD1999999+0091REMSYN082AAXX  21004 82198 32993 00706 10266 20239 30055 40106 333 10326 29076 55088 58009;EQDQ01  00002PRCP06
0186821980999992003112112004-01717-045400FM-12+004499999V0200901N004110042019N0100001N1+03031+02341101121ADDAA106000091GF105991051021004501001001KA1240N+02471MA1999999100611MD1999999-0021REMSYN076AAXX  21124 82198 32497 50908 10303 20234 30061 40112 85200 333 20247 59002;EQDQ01  00002PRCP06
0167821980999992003112118004-01717-045400FM-12+004499999V0200701N006212200019N0100001N1+03241+01991100871ADDAA106000091GF103991031021004501001001MA1999999100361MD1999999-0041REMSYN070AAXX  21184 82198 32497 30712 10324 20199 30036 40087 83200 333 59004;EQDQ01  00002PRCP06
0208821980999992003112200004-01717-045400FM-12+004499999V0200701N002612200019N0005001N1+02651+02311100971ADDAA106000091GA1001+999999999GF100991001001999999001001KA1240M+03351MA1999999100461MD1999999-0091REMSYN082AAXX  22004 82198 32993 00705 10265 20231 30046 40097 333 10335 29071 55120 59009;EQDQ01  00002PRCP06
0186821980999992003112212004-01717-045400FM-12+004499999V0200701N004610450019N0100001N1+02991+02291101101ADDAA106000091GF107991041021008001061001KA1240N+02531MA1999999100591MD1999999-0021REMSYN076AAXX  22124 82198 32597 70709 10299 20229 30059 40110 84260 333 20253 59002;EQDQ01  00002PRCP06
0171821980999992003112218004-01717-045400FM-12+004499999V0200701N004610450019N0100001N1+03001+02321100811ADDAY161061AY221061GF107991041021008001061011MA1999999100301MD1999999-0061MW1021REMSYN082AAXX  22184 82198 21597 70709 10300 20232 30030 40081 70262 84261 333 59006 60071;
0162821980999992003112312004-01717-045400FM-12+004499999V0200701N003610450019N0100001N1+02931+02371101111ADDGF107991031021008001061011KA1240N+02501MA1999999100601MD1999999-0011REMSYN082AAXX  23124 82198 22597 70707 10293 20237 30060 40111 83261 333 20250 59001 60074;
0171821980999992003112318004-01717-045400FM-12+004499999V0200701N005710450019N0100001N1+02941+02301100811ADDAY161061AY221061GF107991031051008001061011MA1999999100301MD1999999+0011MW1311REMSYN082AAXX  23184 82198 21597 70711 10294 20230 30030 40081 73162 83561 333 58001 69981;
0208821980999992003112400004-01717-045400FM-12+004499999V0200501N002112200019N0005001N1+02651+02331101041ADDAA106000091GA1001+999999999GF100991001001999999001001KA1240M+03121MA1999999100531MD1999999+0051REMSYN082AAXX  24004 82198 32993 00504 10265 20233 30053 40104 333 10312 29078 55068 58005;EQDQ01  00002PRCP06
0162821980999992003112412004-01717-045400FM-12+004499999V0200501N002610450019N0100001N1+02901+02461101111ADDGF106991031051008001061011KA1240N+02521MA1999999100601MD1999999+0001REMSYN082AAXX  24124 82198 22597 60505 10290 20246 30060 40111 83561 333 20252 58000 69984;
0167821980999992003112418004-01717-045400FM-12+004499999V0200501N004610450019N0100001N1+03041+02271100821ADDAA106000091GF106991031021008001011041MA1999999100311MD1999999+0011REMSYN070AAXX  24184 82198 32597 60509 10304 20227 30031 40082 83214 333 58001;EQDQ01  00002PRCP06
0208821980999992003112500004-01717-045400FM-12+004499999V0200501N004112200019N0005001N1+02671+02271100981ADDAA106000091GA1001+999999999GF100991001001999999001001KA1240M+03181MA1999999100471MD1999999-0061REMSYN082AAXX  25004 82198 32993 00508 10267 20227 30047 40098 333 10318 29076 55050 59006;EQDQ01  00002PRCP06
0186821980999992003112512004-01717-045400FM-12+004499999V0200901N006712200019N0100001N1+03041+02281101211ADDAA106000091GF104991041021008001001001KA1240N+02491MA1999999100701MD1999999+0101REMSYN076AAXX  25124 82198 32597 40913 10304 20228 30070 40121 84200 333 20249 58010;EQDQ01  00002PRCP06
0167821980999992003112518004-01717-045400FM-12+004499999V0200701N005112200019N0100001N1+03251+02331100961ADDAA106000091GF103991031021008001001001MA1999999100451MD1999999+0141REMSYN070AAXX  25184 82198 32597 30710 10325 20233 30045 40096 83200 333 58014;EQDQ01  00002PRCP06
0198821980999992003112600004-01717-045400FM-12+004499999V0200501N002612200019N0005001N1+02691+02411101091ADDAA106000091GF104991041001012501061001KA1240M+03311MA1999999100581MD1999999+0011REMSYN088AAXX  26004 82198 32693 40505 10269 20241 30058 40109 84060 333 10331 29073 55115 58001;EQDQ01  00002PRCP06
0186821980999992003112612004-01717-045400FM-12+004499999V0200701N005110075019N0100001N1+02931+02321101241ADDAA106000091GF106991051021008001061001KA1240N+02531MA1999999100731MD1999999+0031REMSYN076AAXX  26124 82198 32597 60710 10293 20232 30073 40124 85260 333 20253 58003;EQDQ01  00002PRCP06
0167821980999992003112618004-01717-045400FM-12+004499999V0200701N007712200019N0100001N1+03141+02321100991ADDAA106000091GF104991041021008001001001MA1999999100481MD1999999+0031REMSYN070AAXX  26184 82198 32597 40715 10314 20232 30048 40099 84200 333 58003;EQDQ01  00002PRCP06
0208821980999992003112700004-01717-045400FM-12+004499999V0200501N004112200019N0005001N1+02681+02391101141ADDAA106000091GA1001+999999999GF100991001001999999001001KA1240M+03281MA1999999100631MD1999999+0051REMSYN082AAXX  27004 82198 32993 00508 10268 20239 30063 40114 333 10328 29076 55109 58005;EQDQ01  00002PRCP06
0186821980999992003112712004-01717-045400FM-12+004499999V0200701N006710075019N0100001N1+02911+02251101131ADDAA106000091GF105991051021008001001001KA1240N+02501MA1999999100621MD1999999-0111REMSYN076AAXX  27124 82198 32597 50713 10291 20225 30062 40113 85200 333 20250 59011;EQDQ01  00002PRCP06
0167821980999992003112718004-01717-045400FM-12+004499999V0200901N005712200019N0100001N1+03071+02191100841ADDAA106000091GF103991031021012501001001MA1999999100331MD1999999-0151REMSYN070AAXX  27184 82198 32697 30911 10307 20219 30033 40084 83200 333 59015;EQDQ01  00002PRCP06
0212821980999992003112800004-01717-045400FM-12+004499999V0200501N003112200019N0005001N1+02631+02351100991ADDAY161061AY221061GA1001+999999999GF100991001001999999001001KA1240M+03241MA1999999100481MD1999999-0151MW1021REMSYN094AAXX  28004 82198 21993 00506 10263 20235 30048 40099 70262 333 10324 29074 55095 59015 69941;
0162821980999992003112812004-01717-045400FM-12+004499999V0200501N005112200019N0100001N1+02891+02281101051ADDGF104991041011008001001001KA1240N+02471MA1999999100541MD1999999-0081REMSYN082AAXX  28124 82198 22597 40510 10289 20228 30054 40105 84100 333 20247 59008 69944;
0167821980999992003112818004-01717-045400FM-12+004499999V0200501N005712200019N0100001N1+03071+02291100721ADDAA106000091GF103991031021012501001001MA1999999100211MD1999999-0121REMSYN070AAXX  28184 82198 32697 30511 10307 20229 30021 40072 83200 333 59012;EQDQ01  00002PRCP06
0208821980999992003112900004-01717-045400FM-12+004499999V0200501N002612200019N0005001N1+02601+02371100881ADDAA106000091GA1001+999999999GF100991001001999999001001KA1240M+03251MA1999999100371MD1999999-0111REMSYN082AAXX  29004 82198 32993 00505 10260 20237 30037 40088 333 10325 29077 55110 59011;EQDQ01  00002PRCP06
0186821980999992003112912004-01717-045400FM-12+004499999V0200901N004112200019N0100001N1+02921+02341101051ADDAA106000091GF103991031021008001001001KA1240N+02511MA1999999100541MD1999999+0001REMSYN076AAXX  29124 82198 32597 30908 10292 20234 30054 40105 83200 333 20251 58000;EQDQ01  00002PRCP06
0167821980999992003112918004-01717-045400FM-12+004499999V0200501N004610075019N0100001N1+03051+02251100731ADDAA106000091GF105991051021008001001001MA1999999100221MD1999999+0011REMSYN070AAXX  29184 82198 32597 50509 10305 20225 30022 40073 85200 333 58001;EQDQ01  00002PRCP06
0208821980999992003113000004-01717-045400FM-12+004499999V0200501N003112200019N0005001N1+02651+02371100911ADDAA106000091GA1001+999999999GF100991001001999999001001KA1240M+03181MA1999999100401MD1999999+0031REMSYN082AAXX  30004 82198 32993 00506 10265 20237 30040 40091 333 10318 29076 55102 58003;EQDQ01  00002PRCP06
0186821980999992003113012004-01717-045400FM-12+004499999V0200501N004612200019N0100001N1+02881+02371101061ADDAA106000091GF104991041011008001001001KA1240N+02521MA1999999100551MD1999999+0011REMSYN076AAXX  30124 82198 32597 40509 10288 20237 30055 40106 84100 333 20252 58001;EQDQ01  00002PRCP06
0167821980999992003113018004-01717-045400FM-12+004499999V0200701N006212200019N0100001N1+03201+02151100871ADDAA106000091GF103991031021008001001001MA1999999100361MD1999999+0141REMSYN070AAXX  30184 82198 32597 30712 10320 20215 30036 40087 83200 333 58014;EQDQ01  00002PRCP06
0208821980999992003120100004-01717-045400FM-12+004499999V0200501N003112200019N0040001N1+02631+02371100971ADDAA106000091GA1001+999999999GF100991001001999999001001KA1240M+03231MA1999999100461MD1999999+0061REMSYN082AAXX  01004 82198 32996 00506 10263 20237 30046 40097 333 10323 29075 55097 58006;EQDQ01  00002PRCP06
0186821980999992003120112004-01717-045400FM-12+004499999V0200501N003610450019N0100001N1+02881+02461101141ADDAA106000091GF107991041021008001061001KA1240N+02491MA1999999100631MD1999999+0081REMSYN076AAXX  01124 82198 32597 70507 10288 20246 30063 40114 84260 333 20249 58008;EQDQ01  00002PRCP06
0167821980999992003120118004-01717-045400FM-12+004499999V0200701N005710450019N0100001N1+03141+02271100781ADDAA106000091GF105991031021012501061011MA1999999100271MD1999999-0111REMSYN070AAXX  01184 82198 32697 50711 10314 20227 30027 40078 83261 333 59011;EQDQ01  00002PRCP06
0208821980999992003120200004-01717-045400FM-12+004499999V0200501N003112200019N0040001N1+02661+02411100891ADDAA106000091GA1001+999999999GF100991001001999999001001KA1240M+03321MA1999999100381MD1999999-0081REMSYN082AAXX  02004 82198 32996 00506 10266 20241 30038 40089 333 10332 29078 55086 59008;EQDQ01  00002PRCP06
0186821980999992003120212004-01717-045400FM-12+004499999V0200501N005710450019N0100001N1+02921+02451101051ADDAA106000091GF106991031051008001061011KA1240N+02541MA1999999100541MD1999999-0091REMSYN076AAXX  02124 82198 32597 60511 10292 20245 30054 40105 83561 333 20254 59009;EQDQ01  00002PRCP06
0195821980999992003120218004-01717-045400FM-12+004499999V0203601N005710450019N0040001N1+03031+02241100811ADDAA106000091AY121061AY211061GF106991031021008001061041MA1999999100301MD1999999+0031MW1041REMSYN076AAXX  02184 82198 31596 63611 10303 20224 30030 40081 70421 83264 333 58003;EQDQ01  00002PRCP06
0198821980999992003120300004-01717-045400FM-12+004499999V0200501N003112200019N0040001N1+02671+02271100931ADDAA106000091GF103991021011004501001061KA1240M+03141MA1999999100421MD1999999+0041REMSYN088AAXX  03004 82198 32496 30506 10267 20227 30042 40093 82106 333 10314 29076 55095 58004;EQDQ01  00002PRCP06
0186821980999992003120312004-01717-045400FM-12+004499999V0200501N005112200019N0100001N1+02911+02271101081ADDAA106000091GF104991041021004501001001KA1240N+02521MA1999999100571MD1999999+0031REMSYN076AAXX  03124 82198 32497 40510 10291 20227 30057 40108 84200 333 20252 58003;EQDQ01  00002PRCP06
0296821980999992003120318004-01717-045400FM-12+004499999V0200501N004112200019N0040001N1+03291+01991100771ADDAA106000091AY121061AY211061GA1021+013809029GF104991021021008001011011KA1240M+99999KA2240N+02311MA1999999100251MW1041REMSYN133AAXX  03184 82198 31596 40508 10329 20199 30025 40077 70421 82211 333 5900 82246 32597 71604 10313 20231 39901 40099 85461 333 58004;EQDQ01  00002PRCP06Q02 +03132ATMX  
0208821980999992003120400004-01717-045400FM-12+004499999V0200501N002112200019N0040001N1+02651+02231101021ADDAA106000091GA1001+999999999GF100991001001999999001001KA1240M+03351MA1999999100511MD1999999+0091REMSYN082AAXX  04004 82198 32996 00504 10265 20223 30051 40102 333 10335 29070 55091 58009;EQDQ01  00002PRCP06
0186821980999992003120412004-01717-045400FM-12+004499999V0200501N003610450019N0100001N1+02921+02291101141ADDAA106000091GF106991041021008001061001KA1240N+02501MA1999999100631MD1999999+0061REMSYN076AAXX  04124 82198 32597 60507 10292 20229 30063 40114 84260 333 20250 58006;EQDQ01  00002PRCP06
0195821980999992003120418004-01717-045400FM-12+004499999V0200501N003110450019N0100001N1+03101+02291100881ADDAA106000091AY121061AY211061GF106991031021008001061011MA1999999100371MD1999999+0121MW1041REMSYN076AAXX  04184 82198 31597 60506 10310 20229 30037 40088 70421 83261 333 58012;EQDQ01  00002PRCP06
0198821980999992003120500004-01717-045400FM-12+004499999V0203601N005112200019N0040001N1+02691+02231101001ADDAA106000091GF105991031021004501001061KA1240M+03181MA1999999100491MD1999999-0021REMSYN088AAXX  05004 82198 32496 53610 10269 20223 30049 40100 83206 333 10318 29073 55067 59002;EQDQ01  00002PRCP06
0186821980999992003120512004-01717-045400FM-12+004499999V0203601N004610450019N0100001N1+02951+02371101151ADDAA106000091GF106991031021004501061011KA1240N+02581MA1999999100641MD1999999+0011REMSYN076AAXX  05124 82198 32497 63609 10295 20237 30064 40115 83261 333 20258 58001;EQDQ01  00002PRCP06
0195821980999992003120518004-01717-045400FM-12+004499999V0203601N005110450019N0040001N1+03001+02461100861ADDAA106000091AY121061AY211061GF106991031021004501061011MA1999999100311MD1999999-0021MW1041REMSYN076AAXX  05184 82198 31496 63610 10300 20246 30031 40086 70421 83261 333 59002;EQDQ01  00002PRCP06
0198821980999992003120600004-01717-045400FM-12+004499999V0200501N002612200019N0040001N1+02681+02411101051ADDAA106000091GF102991021021004501001001KA1240M+03381MA1999999100541MD1999999+0051REMSYN088AAXX  06004 82198 32496 20505 10268 20241 30054 40105 82200 333 10338 29078 55094 58005;EQDQ01  00002PRCP06
0186821980999992003120612004-01717-045400FM-12+004499999V0203601N004610450019N0100001N1+02921+02291101141ADDAA106000091GF106991041021004501061001KA1240N+02511MA1999999100631MD1999999-0011REMSYN076AAXX  06124 82198 32497 63609 10292 20229 30063 40114 84260 333 20251 59001;EQDQ01  00002PRCP06
0167821980999992003120618004-01717-045400FM-12+004499999V0203601N005110042019N0100001N1+03071+02271100901ADDAA106000091GF105991051021004501001001MA1999999100391MD1999999+0041REMSYN070AAXX  06184 82198 32497 53610 10307 20227 30039 40090 85200 333 58004;EQDQ01  00002PRCP06
0186821980999992003120712004-01717-045400FM-12+004499999V0200701N003112200019N0100001N1+02961+02331101261ADDAA106000091GF103991021021004501001011KA1240N+02321MA1999999100751MD1999999+0121REMSYN076AAXX  07124 82198 32497 30706 10296 20233 30075 40126 82201 333 20232 58012;EQDQ01  00002PRCP06
0195821980999992003120718004-01717-045400FM-12+004499999V0203601N006210450019N0040001N1+03051+02221100951ADDAA106000091AY121061AY211061GF106991041021008001061001MA1999999100441MD1999999+0051MW1041REMSYN076AAXX  07184 82198 31596 63612 10305 20222 30044 40095 70421 84260 333 58005;EQDQ01  00002PRCP06
0186821980999992003120812004-01717-045400FM-12+004499999V0203601N003610450019N0100001N1+02661+02271101381ADDAA106000091GF107991031021004501061061KA1240N+02471MA1999999100871MD1999999+0121REMSYN076AAXX  08124 82198 32497 73607 10266 20227 30087 40138 83266 333 20247 58012;EQDQ01  00002PRCP06
0171821980999992003120818004-01717-045400FM-12+004499999V0203601N005710450019N0100001N1+02961+02301101061ADDAY161061AY221061GF107991031021008001061041MA1999999100551MD1999999+0111MW1021REMSYN082AAXX  08184 82198 21597 73611 10296 20230 30055 40106 70262 83264 333 58011 60011;
0198821980999992003120900004-01717-045400FM-12+004499999V0200501N003612200019N0040001N1+02691+02311101171ADDAA106000091GF103991021021004501001041KA1240M+03061MA1999999100661MD1999999-0021REMSYN088AAXX  09004 82198 32496 30507 10269 20231 30066 40117 82204 333 10306 29079 55051 59002;EQDQ01  00002PRCP06
0162821980999992003120912004-01717-045400FM-12+004499999V0200701N004612200019N0100001N1+03001+02321101391ADDGF104991031021008001001011KA1240N+02461MA1999999100881MD1999999+0011REMSYN082AAXX  09124 82198 22597 40709 10300 20232 30088 40139 83201 333 20246 58001 60014;
0167821980999992003120918004-01717-045400FM-12+004499999V0200701N005712200019N0100001N1+03151+02261101041ADDAA106000091GF105991041021008001001011MA1999999100531MD1999999-0021REMSYN070AAXX  09184 82198 32597 50711 10315 20226 30053 40104 84201 333 59002;EQDQ01  00002PRCP06
0208821980999992003121000004-01717-045400FM-12+004499999V0200501N003112200019N0040001N1+02681+02391101191ADDAA106000091GA1001+999999999GF100991001001999999001001KA1240M+03321MA1999999100681MD1999999+0021REMSYN082AAXX  10004 82198 32996 00506 10268 20239 30068 40119 333 10332 29074 55084 58002;EQDQ01  00002PRCP06
0186821980999992003121012004-01717-045400FM-12+004499999V0200701N005710075019N0100001N1+02971+02401101231ADDAA106000091GF107991051021008001061001KA1240N+02521MA1999999100721MD1999999-0161REMSYN076AAXX  10124 82198 32597 70711 10297 20240 30072 40123 85260 333 20252 59016;EQDQ01  00002PRCP06
0167821980999992003121018004-01717-045400FM-12+004499999V0200501N006710450019N0100001N1+03091+02161101021ADDAA106000091GF107991041021008001061001MA1999999100511MD1999999-0021REMSYN070AAXX  10184 82198 32597 70513 10309 20216 30051 40102 84260 333 59002;EQDQ01  00002PRCP06
0208821980999992003121100004-01717-045400FM-12+004499999V0200501N003112200019N0040001N1+02671+02431101161ADDAA106000091GA1001+999999999GF100991001001999999001001KA1240M+03271MA1999999100651MD1999999-0031REMSYN082AAXX  11004 82198 32996 00506 10267 20243 30065 40116 333 10327 29075 55090 59003;EQDQ01  00002PRCP06
0186821980999992003121112004-01717-045400FM-12+004499999V0200501N005112200019N0100001N1+03001+02371101311ADDAA106000091GF104991041021008001001001KA1240N+02531MA1999999100801MD1999999+0081REMSYN076AAXX  11124 82198 32597 40510 10300 20237 30080 40131 84200 333 20253 58008;EQDQ01  00002PRCP06
0167821980999992003121118004-01717-045400FM-12+004499999V0200501N005712200019N0040001N1+03051+02331100991ADDAA106000091GF104991031021008001001011MA1999999100481MD1999999-0031REMSYN070AAXX  11184 82198 32596 40511 10305 20233 30048 40099 83201 333 59003;EQDQ01  00002PRCP06
0198821980999992003121200004-01717-045400FM-12+004499999V0200501N003612200019N0040001N1+02721+02391101181ADDAA106000091GF104991041021008001001001KA1240M+03271MA1999999100671MD1999999+0021REMSYN088AAXX  12004 82198 32596 40507 10272 20239 30067 40118 84200 333 10327 29074 55099 58002;EQDQ01  00002PRCP06
0186821980999992003121212004-01717-045400FM-12+004499999V0203601N004110450019N0100001N1+02981+02331101231ADDAA106000091GF106991031021012501061021KA1240N+02541MA1999999100721MD1999999-0081REMSYN076AAXX  12124 82198 32697 63608 10298 20233 30072 40123 83262 333 20254 59008;EQDQ01  00002PRCP06
0167821980999992003121218004-01717-045400FM-12+004499999V0200501N005110450019N0100001N1+03081+02441100931ADDAA106000091GF105991031021012501061001MA1999999100421MD1999999-0061REMSYN070AAXX  12184 82198 32697 50510 10308 20244 30042 40093 83260 333 59006;EQDQ01  00002PRCP06
0198821980999992003121400004-01717-045400FM-12+004499999V0200501N002112200019N0005001N1+02641+02441101061ADDAA106000091GF103991031001017501061001KA1240M+03181MA1999999100551MD1999999-0041REMSYN088AAXX  14004 82198 32793 30504 10264 20244 30055 40106 83060 333 10318 29082 55024 59004;EQDQ01  00002PRCP06
0202821980999992003121412004-01717-045400FM-12+004499999V0200501N004619999999N0100001N1+02861+02391101181ADDAA106000091GF107991999051012501021061KA1240N+02501MA1999999100671MD1999999-0031REMSYN076AAXX  14124 82198 32697 70509 10286 20239 30067 40118 80526 333 20250 59003;EQDQ01+000002SCOTLCQ02  00002PRCP06
0171821980999992003121418004-01717-045400FM-12+004499999V0200901N004110450019N0100001N1+02971+02351100931ADDAY161061AY221061GF106991041021012501061001MA1999999100421MD1999999+0091MW1021REMSYN082AAXX  14184 82198 21697 60908 10297 20235 30042 40093 70262 84260 333 58009 60021;
0208821980999992003121500004-01717-045400FM-12+004499999V0200501N002112200019N0005001N1+02641+02411101161ADDAA106000091GA1001+999999999GF100991001001999999001001KA1240M+03221MA1999999100651MD1999999+0101REMSYN082AAXX  15004 82198 32993 00504 10264 20241 30065 40116 333 10322 29080 55040 58010;EQDQ01  00002PRCP06
0162821980999992003121512004-01717-045400FM-12+004499999V0200501N004610450019N0100001N1+02871+02441101301ADDGF105991041021012501061001KA1240N+02491MA1999999100791MD1999999+0121REMSYN082AAXX  15124 82198 22697 50509 10287 20244 30079 40130 84260 333 20249 58012 60024;
0167821980999992003121518004-01717-045400FM-12+004499999V0200501N004112200019N0100001N1+03211+02211100981ADDAA106000091GF104991041021008001001001MA1999999100471MD1999999+0051REMSYN070AAXX  15184 82198 32597 40508 10321 20221 30047 40098 84200 333 58005;EQDQ01  00002PRCP06
0208821980999992003121600004-01717-045400FM-12+004499999V0200501N003612200019N0005001N1+02681+02391101231ADDAA106000091GA1001+999999999GF100991001001999999001001KA1240M+03321MA1999999100721MD1999999+0071REMSYN082AAXX  16004 82198 32993 00507 10268 20239 30072 40123 333 10332 29075 55074 58007;EQDQ01  00002PRCP06
0186821980999992003121612004-01717-045400FM-12+004499999V0203601N005112200019N0100001N1+03041+02191101331ADDAA106000091GF104991031021008001001011KA1240N+02351MA1999999100811MD1999999+0021REMSYN076AAXX  16124 82198 32597 43610 10304 20219 30081 40133 83201 333 20235 58002;EQDQ01  00002PRCP06
0167821980999992003121618004-01717-045400FM-12+004499999V0200501N004110450019N0100001N1+02951+02321101111ADDAA106000091GF106991041021008001061001MA1999999100601MD1999999+0131REMSYN070AAXX  16184 82198 32597 60508 10295 20232 30060 40111 84260 333 58013;EQDQ01  00002PRCP06
0208821980999992003121700004-01717-045400FM-12+004499999V0200701N001512200019N0005001N1+02641+02331101211ADDAA106000091GA1001+999999999GF100991001001999999001001KA1240M+03251MA1999999100701MD1999999-0021REMSYN082AAXX  17004 82198 32993 00703 10264 20233 30070 40121 333 10325 29074 55084 59002;EQDQ01  00002PRCP06
0186821980999992003121712004-01717-045400FM-12+004499999V0200501N005111050019N0100001N1+02981+02221101181ADDAA106000091GF105991041021008001001091KA1240N+02521MA1999999100671MD1999999-0141REMSYN076AAXX  17124 82198 32597 50510 10298 20222 30067 40118 84209 333 20252 59014;EQDQ01  00002PRCP06
0167821980999992003121718004-01717-045400FM-12+004499999V0200501N005710450019N0100001N1+03021+02181101001ADDAA106000091GF106991041021008001011011MA1999999100491MD1999999-0111REMSYN070AAXX  17184 82198 32597 60511 10302 20218 30049 40100 84211 333 59011;EQDQ01  00002PRCP06
0208821980999992003121800004-01717-045400FM-12+004499999V0200501N003112200019N0005001N1+02651+02311101151ADDAA106000091GA1001+999999999GF100991001001999999001001KA1240M+03161MA1999999100641MD1999999-0061REMSYN082AAXX  18004 82198 32993 00506 10265 20231 30064 40115 333 10316 29074 55073 59006;EQDQ01  00002PRCP06
0186821980999992003121812004-01717-045400FM-12+004499999V0200501N003110450019N0100001N1+02931+02301101271ADDAA106000091GF106991031021008001061011KA1240N+02521MA1999999100761MD1999999+0091REMSYN076AAXX  18124 82198 32597 60506 10293 20230 30076 40127 83261 333 20252 58009;EQDQ01  00002PRCP06
0167821980999992003121918004-01717-045400FM-12+004499999V0200501N005110450019N0100001N1+02991+02371101111ADDAA106000091GF106991031021008001061061MA1999999100601MD1999999+0111REMSYN070AAXX  19184 82198 32597 60510 10299 20237 30060 40111 83266 333 58011;EQDQ01  00002PRCP06
0208821980999992003122000004-01717-045400FM-12+004499999V0200701N003612200019N0005001N1+02721+02391101421ADDAA106000091GA1001+999999999GF100991001001999999001001KA1240M+03181MA1999999100901MD1999999+0151REMSYN082AAXX  20004 82198 32993 00707 10272 20239 30090 40142 333 10318 29076 55079 58015;EQDQ01  00002PRCP06
0214821980999992003122012004-01717-045400FM-12+004499999V0200701N004610450019N0100001N1+02791+02381101461ADDAA106000091AY121061AY211061GF107991041071008001061001KA1240N+02591MA1999999100941MD1999999+0051MW1151REMSYN082AAXX  20124 82198 31597 70709 10279 20238 30094 40146 71521 84760 333 20259 58005;EQDQ01  00002PRCP06
0171821980999992003122018004-01717-045400FM-12+004499999V0200901N006210450019N0100001N1+03091+02221101121ADDAY161061AY221061GF107991041021008001061011MA1999999100611MD1999999+0011MW1021REMSYN082AAXX  20184 82198 21597 70912 10309 20222 30061 40112 70262 84261 333 58001 60021;
0208821980999992003122100004-01717-045400FM-12+004499999V0200701N001512200019N0005001N1+02631+02231101361ADDAA106000091GA1001+999999999GF100991001001999999001001KA1240M+03131MA1999999100841MD1999999-0061REMSYN082AAXX  21004 82198 32993 00703 10263 20223 30084 40136 333 10313 29075 55049 59006;EQDQ01  00002PRCP06
0162821980999992003122112004-01717-045400FM-12+004499999V0200501N003610450019N0100001N1+02951+02421101411ADDGF106991031021008001061091KA1240N+02501MA1999999100891MD1999999-0051REMSYN082AAXX  21124 82198 22597 60507 10295 20242 30089 40141 83269 333 20250 59005 60024;
0202821980999992003122212004-01717-045400FM-12+004499999V0200501N004119999999N0100001N1+02871+02401101311ADDAA106000091GF106991999021004501061001KA1240N+02441MA1999999100801MD1999999-0091REMSYN076AAXX  22124 82198 32497 60508 10287 20240 30080 40131 80260 333 20244 59009;EQDQ01+000002SCOTLCQ02  00002PRCP06
0167821980999992003122218004-01717-045400FM-12+004499999V0200501N007710450019N0100001N1+02981+02221101011ADDAA106000091GF105991031021008001061001MA1999999100501MD1999999-0131REMSYN070AAXX  22184 82198 32597 50515 10298 20222 30050 40101 83260 333 59013;EQDQ01  00002PRCP06
0167821980999992003122318004-01717-045400FM-12+004499999V0200501N005112200019N0100001N1+03111+02181100931ADDAA106000091GF104991041021008001001001MA1999999100421MD1999999-0081REMSYN070AAXX  23184 82198 32597 40510 10311 20218 30042 40093 84200 333 59008;EQDQ01  00002PRCP06
0186821980999992003122412004-01717-045400FM-12+004499999V0200501N003112200019N0100001N1+02921+02361101211ADDAA106000091GF104991041021008001001001KA1240N+02491MA1999999100701MD1999999+0011REMSYN076AAXX  24124 82198 32597 40506 10292 20236 30070 40121 84200 333 20249 58001;EQDQ01  00002PRCP06
0167821980999992003122418004-01717-045400FM-12+004499999V0200501N006712200019N0100001N1+03171+02331100921ADDAA106000091GF104991041021012501001001MA1999999100411MD1999999-0011REMSYN070AAXX  24184 82198 32697 40513 10317 20233 30041 40092 84200 333 59001;EQDQ01  00002PRCP06
0208821980999992003122500004-01717-045400FM-12+004499999V0200501N002612200019N0005001N1+02691+02431101051ADDAA106000091GA1001+999999999GF100991001001999999001001KA1240M+03271MA1999999100541MD1999999+0041REMSYN082AAXX  25004 82198 32993 00505 10269 20243 30054 40105 333 10327 29076 55110 58004;EQDQ01  00002PRCP06
0186821980999992003122512004-01717-045400FM-12+004499999V0200501N003610075019N0100001N1+03031+02261101171ADDAA106000091GF105991051021008001001001KA1240N+02541MA1999999100661MD1999999-0041REMSYN076AAXX  25124 82198 32597 50507 10303 20226 30066 40117 85200 333 20254 59004;EQDQ01  00002PRCP06
0167821980999992003122518004-01717-045400FM-12+004499999V0200701N004110120019N0100001N1+03101+02341100941ADDAA106000091GF105991051021012501001001MA1999999100431MD1999999+0021REMSYN070AAXX  25184 82198 32697 50708 10310 20234 30043 40094 85200 333 58002;EQDQ01  00002PRCP06
0186821980999992003122612004-01717-045400FM-12+004499999V0200501N005110120019N0100001N1+02881+02441101141ADDAA106000091GF107991051021012501061001KA1240N+02521MA1999999100631MD1999999-0031REMSYN076AAXX  26124 82198 32697 70510 10288 20244 30063 40114 85260 333 20252 59003;EQDQ01  00002PRCP06
0167821980999992003122618004-01717-045400FM-12+004499999V0200501N005710120019N0100001N1+03051+02331100741ADDAA106000091GF105991051021012501001001MA1999999100231MD1999999-0201REMSYN070AAXX  26184 82198 32697 50511 10305 20233 30023 40074 85200 333 59020;EQDQ01  00002PRCP06
0208821980999992003122700004-01717-045400FM-12+004499999V0200701N003112200019N0005001N1+02721+02391101011ADDAA106000091GA1001+999999999GF100991001001999999001001KA1240M+03221MA1999999100501MD1999999-0081REMSYN082AAXX  27004 82198 32993 00706 10272 20239 30050 40101 333 10322 29076 55072 59008;EQDQ01  00002PRCP06
0186821980999992003122712004-01717-045400FM-12+004499999V0200501N003112200019N0100001N1+02881+02351101091ADDAA106000091GF104991021021012501031021KA1240N+02521MA1999999100581MD1999999-0051REMSYN076AAXX  27124 82198 32697 40506 10288 20235 30058 40109 82232 333 20252 59005;EQDQ01  00002PRCP06
0167821980999992003122718004-01717-045400FM-12+004499999V0200501N005112200019N0100001N1+03061+02251100731ADDAA106000091GF104991041021008001001001MA1999999100221MD1999999-0011REMSYN070AAXX  27184 82198 32597 40510 10306 20225 30022 40073 84200 333 59001;EQDQ01  00002PRCP06
0208821980999992003122800004-01717-045400FM-12+004499999V0200701N003112200019N0005001N1+02661+02351100861ADDAA106000091GA1001+999999999GF100991001001999999001001KA1240M+03181MA1999999100351MD1999999-0151REMSYN082AAXX  28004 82198 32993 00706 10266 20235 30035 40086 333 10318 29075 55083 59015;EQDQ01  00002PRCP06
0186821980999992003122812004-01717-045400FM-12+004499999V0200701N004610075019N0100001N1+02781+02401101041ADDAA106000091GF107991051021008001061001KA1240N+02531MA1999999100531MD1999999-0051REMSYN076AAXX  28124 82198 32597 70709 10278 20240 30053 40104 85260 333 20253 59005;EQDQ01  00002PRCP06
0167821980999992003122818004-01717-045400FM-12+004499999V0200501N006210450019N0100001N1+02981+02281100731ADDAA106000091GF107991041071012501041001MA1999999100221MD1999999+0001REMSYN070AAXX  28184 82198 32697 70512 10298 20228 30022 40073 84740 333 58000;EQDQ01  00002PRCP06
0198821980999992003122900004-01717-045400FM-12+004499999V0200501N005712200019N0040001N1+02731+02411100941ADDAA106000091GF104991041021008001001001KA1240M+03121MA1999999100431MD1999999+0081REMSYN088AAXX  29004 82198 32596 40511 10273 20241 30043 40094 84200 333 10312 29078 55039 58008;EQDQ01  00002PRCP06
0186821980999992003122912004-01717-045400FM-12+004499999V0200501N002110450019N0100001N1+02881+02501101031ADDAA106000091GF107991041021012501031001KA1240N+02521MA1999999100521MD1999999-0011REMSYN076AAXX  29124 82198 32697 70504 10288 20250 30052 40103 84230 333 20252 59001;EQDQ01  00002PRCP06
0167821980999992003122918004-01717-045400FM-12+004499999V0200701N007210450019N0100001N1+03311+02211100711ADDAA106000091GF105991031021008001031001MA1999999100201MD1999999-0021REMSYN070AAXX  29184 82198 32597 50714 10331 20221 30020 40071 83230 333 59002;EQDQ01  00002PRCP06
0198821980999992003123000004-01717-045400FM-12+004499999V0200701N003612200019N0040001N1+02701+02411100971ADDAA106000091GF103991021011008001001011KA1240M+03411MA1999999100461MD1999999+0031REMSYN088AAXX  30004 82198 32596 30707 10270 20241 30046 40097 82101 333 10341 29075 55057 58003;EQDQ01  00002PRCP06
0186821980999992003123012004-01717-045400FM-12+004499999V0201101N002610450019N0100001N1+02891+02381101051ADDAA106000091GF106991031021008001061041KA1240N+02431MA1999999100541MD1999999+0021REMSYN076AAXX  30124 82198 32597 61105 10289 20238 30054 40105 83264 333 20243 58002;EQDQ01  00002PRCP06
0171821980999992003123018004-01717-045400FM-12+004499999V0200501N003610450019N0100001N1+03151+02461100741ADDAY161061AY221061GF106991031021008001061061MA1999999100231MD1999999+0031MW1021REMSYN082AAXX  30184 82198 21597 60507 10315 20246 30023 40074 70262 83266 333 58003 60011;
0198821980999992003123100004-01717-045400FM-12+004499999V0200501N001510450019N0040001N1+02701+02451101001ADDAA106000091GF105991031021008001031061KA1240M+03251MA1999999100491MD1999999+0031REMSYN088AAXX  31004 82198 32596 50503 10270 20245 30049 40100 83236 333 10325 29078 55043 58003;EQDQ01  00002PRCP06
0162821980999992003123112004-01717-045400FM-12+004499999V0200701N004610450019N0100001N1+03041+02441101171ADDGF107991041071008001061001KA1240N+02531MA1999999100661MD1999999+0121REMSYN082AAXX  31124 82198 22597 70709 10304 20244 30066 40117 84760 333 20253 58012 60014;
0167821980999992003123118004-01717-045400FM-12+004499999V0200501N005710450019N0100001N1+03161+02061100821ADDAA106000091GF106991031021008001061061MA1999999100311MD1999999+0081REMSYN070AAXX  31184 82198 32597 60511 10316 20206 30031 40082 83266 333 58008;EQDQ01  00002PRCP06
