0208823920999992003010100004-03700-040350FM-12+008399999V0203601N002612200019N0040001N1+02761+02041101221ADDAA106000091GA1001+999999999GF100991001001999999001001KA1240M+03681MA1999999100201MD1999999+0051REMSYN082AAXX  01004 82392 32996 03605 10276 20204 30020 40122 333 10368 29056 55092 58005;EQDQ01  00002PRCP06
0186823920999992003010112004-03700-040350FM-12+008399999V0201801N000510450019N0500001N1+02821+02171101321ADDAA106000091GF105991041041004501031001KA1240N+02331MA1999999100301MD1999999-0041REMSYN076AAXX  01124 82392 32499 51801 10282 20217 30030 40132 84430 333 20233 59004;EQDQ01  00002PRCP06
0167823920999992003010118004-03700-040350FM-12+008399999V0200501N002612200019N0500001N1+03501+01771100851ADDAA106000091GF104991041021004501001001MA1999999099841MD1999999-0061REMSYN070AAXX  01184 82392 32499 40505 10350 20177 39984 40085 84200 333 59006;EQDQ01  00002PRCP06
0208823920999992003010200004-03700-040350FM-12+008399999V0200501N003112200019N0040001N1+02721+02081101221ADDAA106000091GA1001+999999999GF100991001001999999001001KA1240M+03671MA1999999100201MD1999999+0001REMSYN082AAXX  02004 82392 32996 00506 10272 20208 30020 40122 333 10367 29060 55076 58000;EQDQ01  00002PRCP06
0186823920999992003010212004-03700-040350FM-12+008399999V0201401N001012200019N0500001N1+02901+02041101321ADDAA106000091GF104991041021004501001001KA1240N+02211MA1999999100301MD1999999+0001REMSYN076AAXX  02124 82392 32499 41402 10290 20204 30030 40132 84200 333 20221 58000;EQDQ01  00002PRCP06
0167823920999992003010218004-03700-040350FM-12+008399999V0200901N001512200019N0500001N1+03621+01691100811ADDAA106000091GF102991021011004501001001MA1999999099801MD1999999-0041REMSYN070AAXX  02184 82392 32499 20903 10362 20169 39980 40081 82100 333 59004;EQDQ01  00002PRCP06
0208823920999992003010300004-03700-040350FM-12+008399999V0200501N005712200019N0040001N1+02681+02131101121ADDAA106000091GA1001+999999999GF100991001001999999001001KA1240M+03691MA1999999100101MD1999999-0101REMSYN082AAXX  03004 82392 32996 00511 10268 20213 30010 40112 333 10369 29059 55097 59010;EQDQ01  00002PRCP06
0186823920999992003010312004-03700-040350FM-12+008399999V0203601N000512200019N0500001N1+02841+02041101291ADDAA106000091GF102991021011004501001001KA1240N+02151MA1999999100271MD1999999-0031REMSYN076AAXX  03124 82392 32499 23601 10284 20204 30027 40129 82100 333 20215 59003;EQDQ01  00002PRCP06
0167823920999992003010318004-03700-040350FM-12+008399999V0200501N001012200019N0500001N1+03581+01441100841ADDAA106000091GF104991041021004501001001MA1999999099831MD1999999+0031REMSYN070AAXX  03184 82392 32499 40502 10358 20144 39983 40084 84200 333 58003;EQDQ01  00002PRCP06
0208823920999992003010400004-03700-040350FM-12+008399999V0200501N004612200019N0040001N1+02701+02151101121ADDAA106000091GA1001+999999999GF100991001001999999001001KA1240M+03701MA1999999100101MD1999999+0001REMSYN082AAXX  04004 82392 32996 00509 10270 20215 30010 40112 333 10370 29058 55101 58000;EQDQ01  00002PRCP06
0186823920999992003010412004-03700-040350FM-12+008399999V0200501N001012200019N0500001N1+02911+02011101271ADDAA106000091GF102991021011004501001001KA1240N+02171MA1999999100251MD1999999-0021REMSYN076AAXX  04124 82392 32499 20502 10291 20201 30025 40127 82100 333 20217 59002;EQDQ01  00002PRCP06
0167823920999992003010418004-03700-040350FM-12+008399999V0200901N001012200019N0500001N1+03641+01651100871ADDAA106000091GF104991041011004501001001MA1999999099861MD1999999+0031REMSYN070AAXX  04184 82392 32499 40902 10364 20165 39986 40087 84100 333 58003;EQDQ01  00002PRCP06
0208823920999992003010500004-03700-040350FM-12+008399999V0203601N002612200019N0040001N1+02841+02071101091ADDAA106000091GA1001+999999999GF100991001001999999001001KA1240M+03741MA1999999100081MD1999999-0021REMSYN082AAXX  05004 82392 32996 03605 10284 20207 30008 40109 333 10374 29054 55106 59002;EQDQ01  00002PRCP06
0186823920999992003010512004-03700-040350FM-12+008399999V0200901N001012200019N0500001N1+02921+02141101211ADDAA106000091GF103991031021004501001001KA1240N+02341MA1999999100201MD1999999-0051REMSYN076AAXX  05124 82392 32499 30902 10292 20214 30020 40121 83200 333 20234 59005;EQDQ01  00002PRCP06
0167823920999992003010518004-03700-040350FM-12+008399999V0200501N003112200019N0500001N1+03721+01821100731ADDAA106000091GF102991021011004501001001MA1999999099721MD1999999-0141REMSYN070AAXX  05184 82392 32499 20506 10372 20182 39972 40073 82100 333 59014;EQDQ01  00002PRCP06
0208823920999992003010600004-03700-040350FM-12+008399999V0203601N004612200019N0040001N1+02781+02231101161ADDAA106000091GA1001+999999999GF100991001001999999001001KA1240M+03801MA1999999100151MD1999999+0071REMSYN082AAXX  06004 82392 32996 03609 10278 20223 30015 40116 333 10380 29060 55089 58007;EQDQ01  00002PRCP06
0186823920999992003010612004-03700-040350FM-12+008399999V0201801N000510450019N0500001N1+02781+02301101321ADDAA106000091GF106991041051004501031001KA1240N+02381MA1999999100301MD1999999+0101REMSYN076AAXX  06124 82392 32499 61801 10278 20230 30030 40132 84530 333 20238 58010;EQDQ01  00002PRCP06
0167823920999992003010618004-03700-040350FM-12+008399999V0200501N002612200019N0500001N1+03721+01721100751ADDAA106000091GF102991021011004501001001MA1999999099741MD1999999+0021REMSYN070AAXX  06184 82392 32499 20505 10372 20172 39974 40075 82100 333 58002;EQDQ01  00002PRCP06
0208823920999992003010700004-03700-040350FM-12+008399999V0203601N005112200019N0040001N1+02741+02191101151ADDAA106000091GA1001+999999999GF100991001001999999001001KA1240M+03771MA1999999100131MD1999999-0021REMSYN082AAXX  07004 82392 32996 03610 10274 20219 30013 40115 333 10377 29063 55074 59002;EQDQ01  00002PRCP06
0186823920999992003010712004-03700-040350FM-12+008399999V0200901N001012200019N0500001N1+02841+02121101371ADDAA106000091GF103991031011004501001001KA1240N+02371MA1999999100351MD1999999+0051REMSYN076AAXX  07124 82392 32499 30902 10284 20212 30035 40137 83100 333 20237 58005;EQDQ01  00002PRCP06
0167823920999992003010718004-03700-040350FM-12+008399999V0209999C000010042019N0500001N1+03631+01851100871ADDAA106000091GF105991051021004501001001MA1999999099861MD1999999+0121REMSYN070AAXX  07184 82392 32499 50000 10363 20185 39986 40087 85200 333 58012;EQDQ01  00002PRCP06
0208823920999992003010800004-03700-040350FM-12+008399999V0203601N004612200019N0040001N1+02761+02191101151ADDAA106000091GA1001+999999999GF100991001001999999001001KA1240M+03761MA1999999100131MD1999999+0001REMSYN082AAXX  08004 82392 32996 03609 10276 20219 30013 40115 333 10376 29061 55090 58000;EQDQ01  00002PRCP06
0167823920999992003010818004-03700-040350FM-12+008399999V0201401N001012200019N0500001N1+03521+01791100921ADDAA106000091GF103991031021004501001001MA1999999099911MD1999999+0051REMSYN070AAXX  08184 82392 32499 31402 10352 20179 39991 40092 83200 333 58005;EQDQ01  00002PRCP06
0208823920999992003010900004-03700-040350FM-12+008399999V0203601N001512200019N0040001N1+02731+02211101271ADDAA106000091GA1001+999999999GF100991001001999999001001KA1240M+03651MA1999999100251MD1999999+0121REMSYN082AAXX  09004 82392 32996 03603 10273 20221 30025 40127 333 10365 29062 55077 58012;EQDQ01  00002PRCP06
0186823920999992003010912004-03700-040350FM-12+008399999V0203601N001010450019N0500001N1+02971+02201101411ADDAA106000091GF106991041041004501031001KA1240N+02481MA1999999100401MD1999999+0071REMSYN076AAXX  09124 82392 32499 63602 10297 20220 30040 40141 84430 333 20248 58007;EQDQ01  00002PRCP06
0171823920999992003010918004-03700-040350FM-12+008399999V0200501N001510042019N0500001N1+03571+02051100991ADDAY101061AY221061GF106991051041004501031001MA1999999099981MD1999999+0071MW1201REMSYN082AAXX  09184 82392 21499 60503 10357 20205 39998 40099 72002 85430 333 58007 69911;
0202823920999992003011000004-03700-040350FM-12+008399999V0202301N000510450019N0040001N1+02741+02261101311ADDAY161061AY221061GF106991041011004501031001KA1240M+03601MA1999999100301MD1999999+0051MW1031REMSYN100AAXX  10004 82392 21496 62301 10274 20226 30030 40131 70362 84130 333 10360 29064 55054 58005 60041;
0190823920999992003011012004-03700-040350FM-12+008399999V0203201N000510042019N0500001N1+02661+02391101441ADDAY161061AY251061GF107991051051004501031001KA1240N+02491MA1999999100421MD1999999+0021MW1021REMSYN088AAXX  10124 82392 21499 73201 10266 20239 30042 40144 70265 85530 333 20249 58002 60054;
0167823920999992003011018004-03700-040350FM-12+008399999V0203601N000510450019N0500001N1+03501+01771100891ADDAA106000091GF106991041041004501031001MA1999999099881MD1999999-0101REMSYN070AAXX  10184 82392 32499 63601 10350 20177 39988 40089 84430 333 59010;EQDQ01  00002PRCP06
0198823920999992003011100004-03700-040350FM-12+008399999V0203601N001512200019N0040001N1+02731+02121101251ADDAA106000091GF101991011001008001031001KA1240M+03631MA1999999100231MD1999999-0071REMSYN088AAXX  11004 82392 32596 13603 10273 20212 30023 40125 81030 333 10363 29065 55068 59007;EQDQ01  00002PRCP06
0202823920999992003011112004-03700-040350FM-12+008399999V0201401N004619999999N0500001N1+02861+02141101451ADDAA106000091GF106991999011008001001001KA1240N+02341MA1999999100431MD1999999+0011REMSYN076AAXX  11124 82392 32599 61409 10286 20214 30043 40145 82100 333 20234 58001;EQDQ01+000022SCOTLCQ02  00002PRCP06
0183823920999992003011118004-03700-040350FM-12+008399999V0203601N001019999999N0500001N1+03491+01581100921ADDAA106000091GF106991999021008001001001MA1999999099911MD1999999+0031REMSYN070AAXX  11184 82392 32599 63602 10349 20158 39991 40092 84200 333 58003;EQDQ01+000042SCOTLCQ02  00002PRCP06
0198823920999992003011200004-03700-040350FM-12+008399999V0203601N002610042019N0040001N1+02841+01961101191ADDAA106000091GF105991051021004501001001KA1240M+03611MA1999999100181MD1999999-0051REMSYN088AAXX  12004 82392 32496 53605 10284 20196 30018 40119 85200 333 10361 29054 55080 59005;EQDQ01  00002PRCP06
0202823920999992003011212004-03700-040350FM-12+008399999V0201801N000519999999N0500001N1+02831+02171101361ADDAA106000091GF106991999021004501001001KA1240N+02421MA1999999100341MD1999999-0091REMSYN076AAXX  12124 82392 32499 61801 10283 20217 30034 40136 84200 333 20242 59009;EQDQ01+000042SCOTLCQ02  00002PRCP06
0167823920999992003011218004-03700-040350FM-12+008399999V0200501N000510042019N0500001N1+03491+01811100861ADDAA106000091GF106991061021004501001001MA1999999099851MD1999999-0061REMSYN070AAXX  12184 82392 32499 60501 10349 20181 39985 40086 86200 333 59006;EQDQ01  00002PRCP06
0214823920999992003011300004-03700-040350FM-12+008399999V0203601N001012200019N0040001N1+02731+02191101141ADDAA106000091GF101991999011008001001001KA1240M+03691MA1999999100121MD1999999-0061REMSYN088AAXX  13004 82392 32596 13602 10273 20219 30012 40114 82100 333 10369 29062 55080 59006;EQDQ01+000022SCOTLCQ02  00002PRCP06
0140823920999992003011312004-03700-040350FM-12+008399999V0202301N000519999999N0500001N1+02761+02281999999ADDAA106000091GF107991999999004501999999REMSYN072AAXX  13124 82392 32499 72301 10276 20228 20230 30032 40134 59002 84510;EQDQ01  00002PRCP06
0149823920999992003011318004-03700-040350FM-12+008399999V0200501N002612200019N0500001N1+03501+01721100841ADDAA106000091GF104991041021004501001001MA1999999099831REMSYN066AAXX  13184 82392 32499 40505 10350 20172 39983 40084 59002 84200;EQDQ01  00002PRCP06
0198823920999992003011400004-03700-040350FM-12+008399999V0200501N002612200019N0040001N1+02731+02101101151ADDAA106000091GF101991011001008001031001KA1240M+03611MA1999999100131MD1999999+0011REMSYN088AAXX  14004 82392 32596 10505 10273 20210 30013 40115 81030 333 10361 29062 55064 58001;EQDQ01  00002PRCP06
0186823920999992003011412004-03700-040350FM-12+008399999V0200501N003112200019N0500001N1+02781+02091101351ADDAA106000091GF103991031011004501001001KA1240N+02301MA1999999100331MD1999999+0011REMSYN076AAXX  14124 82392 32499 30506 10278 20209 30033 40135 83100 333 20230 58001;EQDQ01  00002PRCP06
0167823920999992003011418004-03700-040350FM-12+008399999V0200501N000512200019N0500001N1+03561+01781100901ADDAA106000091GF104991041021004501001001MA1999999099891MD1999999+0061REMSYN070AAXX  14184 82392 32499 40501 10356 20178 39989 40090 84200 333 58006;EQDQ01  00002PRCP06
0208823920999992003011500004-03700-040350FM-12+008399999V0203601N003112200019N0040001N1+02701+02031101241ADDAA106000091GA1001+999999999GF100991001001999999001001KA1240M+03611MA1999999100221MD1999999+0091REMSYN082AAXX  15004 82392 32996 03606 10270 20203 30022 40124 333 10361 29059 55097 58009;EQDQ01  00002PRCP06
0186823920999992003011512004-03700-040350FM-12+008399999V0201401N001012200019N0500001N1+02881+02041101401ADDAA106000091GF103991031011004501001001KA1240N+02271MA1999999100381MD1999999+0051REMSYN076AAXX  15124 82392 32499 31402 10288 20204 30038 40140 83100 333 20227 58005;EQDQ01  00002PRCP06
0167823920999992003011518004-03700-040350FM-12+008399999V0201401N001512200019N0500001N1+03621+01531100911ADDAA106000091GF104991031011004501001011MA1999999099901MD1999999+0011REMSYN070AAXX  15184 82392 32499 41403 10362 20153 39990 40091 83101 333 58001;EQDQ01  00002PRCP06
0208823920999992003011600004-03700-040350FM-12+008399999V0203601N003112200019N0040001N1+02711+02151101431ADDAA106000091GA1001+999999999GF100991001001999999001001KA1240M+03701MA1999999100261MD1999999+0071REMSYN082AAXX  16004 82392 32996 03606 10271 20215 30026 40143 333 10370 29058 55107 58007;EQDQ01  00002PRCP06
0186823920999992003011612004-03700-040350FM-12+008399999V0200501N000510042019N0500001N1+02901+02071101481ADDAA106000091GF106991061021004501001001KA1240N+02291MA1999999100451MD1999999+0071REMSYN076AAXX  16124 82392 32499 60501 10290 20207 30045 40148 86200 333 20229 58007;EQDQ01  00002PRCP06
0167823920999992003011618004-03700-040350FM-12+008399999V0201401N001010042019N0500001N1+03711+01671100931ADDAA106000091GF105991051021004501001001MA1999999099921MD1999999+0021REMSYN070AAXX  16184 82392 32499 51402 10371 20167 39992 40093 85200 333 58002;EQDQ01  00002PRCP06
0208823920999992003011700004-03700-040350FM-12+008399999V0203601N002612200019N0040001N1+02601+02171101261ADDAA106000091GA1001+999999999GF100991001001999999001001KA1240M+03741MA1999999100241MD1999999-0051REMSYN082AAXX  17004 82392 32996 03605 10260 20217 30024 40126 333 10374 29061 55106 59005;EQDQ01  00002PRCP06
0186823920999992003011712004-03700-040350FM-12+008399999V0203601N001510450019N0500001N1+02841+02171101371ADDAA106000091GF105991031011004501031001KA1240N+02301MA1999999100351MD1999999-0101REMSYN076AAXX  17124 82392 32499 53603 10284 20217 30035 40137 83130 333 20230 59010;EQDQ01  00002PRCP06
0167823920999992003011718004-03700-040350FM-12+008399999V0203601N001010450019N0500001N1+03651+01791100891ADDAA106000091GF105991031021004501031001MA1999999099881MD1999999-0041REMSYN070AAXX  17184 82392 32499 53602 10365 20179 39988 40089 83230 333 59004;EQDQ01  00002PRCP06
0208823920999992003011800004-03700-040350FM-12+008399999V0203601N002612200019N0040001N1+02701+02241999999ADDAA106000091GA1001+999999999GF100991001001999999001001KA1240M+03621MA1999999100301MD1999999+0061REMSYN082AAXX  18004 82392 32996 03605 10270 20224 30030 44013 333 10362 29064 55055 58006;EQDQ01  00002PRCP06
0186823920999992003011812004-03700-040350FM-12+008399999V0209999C000010042019N0500001N1+02741+02301101351ADDAA106000091GF107991051041004501031001KA1240N+02361MA1999999100341MD1999999-0011REMSYN076AAXX  18124 82392 32499 70000 10274 20230 30034 40135 85430 333 20236 59001;EQDQ01  00002PRCP06
0183823920999992003011818004-03700-040350FM-12+008399999V0203601N002610042019N0500001N1+03421+02131100931ADDAA106000091GF107991999041004501001001MA1999999099921MD1999999+0041REMSYN070AAXX  18184 82392 32499 73605 10342 20213 39992 40093 85400 333 58004;EQDQ01+000052SCOTLCQ02  00002PRCP06
0214823920999992003011900004-03700-040350FM-12+008399999V0203601N002619999999N0040001N1+02661+02311101281ADDAA106000091GF105991999021008001001001KA1240M+03481MA1999999100261MD1999999-0041REMSYN088AAXX  19004 82392 32596 53605 10266 20231 30026 40128 86200 333 10348 29072 55042 59004;EQDQ01+000062SCOTLCQ02  00002PRCP06
0209823920999992003011912004-03700-040350FM-12+008399999V0200901N001512200019N0040001N1+02821+02311101381ADDAY161061AY221061GF104991999021004501001001KA1240N+02401MA1999999100361MD1999999+0021MW1021REMSYN088AAXX  19124 82392 21496 40903 10282 20231 30036 40138 70262 83200 333 20240 58002 60024;EQDQ01+000032SCOTLC
0183823920999992003011918004-03700-040350FM-12+008399999V0200501N001519999999N0500001N1+02801+02251101121ADDAA106000091GF108991999061004501001001MA1999999100101MD1999999+0081REMSYN070AAXX  19184 82392 32499 80503 10280 20225 30010 40112 84600 333 58008;EQDQ01+000042SCOTLCQ02  00002PRCP06
0221823920999992003012000004-03700-040350FM-12+008399999V0202301N000519999999N0040001N1+02281+02251101401ADDAY161061AY261061GF108991999021004501001001KA1240M+03321MA1999999100381MD1999999-0121MW1031REMSYN100AAXX  20004 82392 21496 82301 10228 20225 30038 40140 70366 84200 333 10332 29086 55029 59012 60031;EQDQ01+000042SCOTLC
0190823920999992003012012004-03700-040350FM-12+008399999V0203201N001010450019N0500001N1+02721+02341101381ADDAY151061AY261061GF107991041051004501031001KA1240N+02281MA1999999100351MD1999999-0011MW1031REMSYN088AAXX  20124 82392 21499 73202 10272 20234 30035 40138 70356 84530 333 20228 59001 60044;
0163823920999992003012018004-03700-040350FM-12+008399999V0202701N000510450019N0200001N1+02201+02171101191ADDAY121061GF108991041061004501021999MA1999999100161MD1999999+0061MW1631REMSYN082AAXX  20184 82392 21498 82701 10220 20217 30016 40119 7632/ 8462/ 333 58006 60061;
0134823920999992003012100004-03700-040350FM-12+008399999V0209999C000019999999N0040001N1+02271+02231999999ADDGF108991999999004501999999REMSYN096AAXX  21004 82392 21496 80000 10227 20223 10320 29093 30030 40133 55033 59008 60131 70266 86620;
0128823920999992003012112004-03700-040350FM-12+008399999V0202701N000512200019N0500001N1+02641+02371999999ADDGF104991999999004501999999REMSYN090AAXX  21124 82392 22499 42701 10264 20237 10190 20220 30021 40124 59014 60194 70262 82130;
0149823920999992003012118004-03700-040350FM-12+008399999V0203601N002610450019N0500001N1+02901+02201100841ADDAA106000091GF106991031051004501031001MA1999999099821REMSYN066AAXX  21184 82392 32499 63605 10290 20220 39982 40084 59034 83530;EQDQ01  00002PRCP06
0198823920999992003012200004-03700-040350FM-12+008399999V0200501N000510450019N0040001N1+02621+02411101171ADDAA106000091GF108991031041004501021999KA1240M+03321MA1999999100151MD1999999-0151REMSYN088AAXX  22004 82392 32496 80501 10262 20241 30015 40117 8342/ 333 10332 29082 55072 59015;EQDQ01  00002PRCP06
0140823920999992003012212004-03700-040350FM-12+008399999V0200901N001512200019N0500001N1+02801+02311999999ADDAA106000091GF103991999999004501999999REMSYN072AAXX  22124 82392 32499 30903 10280 20231 20231 30020 40122 59001 83100;EQDQ01  00002PRCP06
0167823920999992003012218004-03700-040350FM-12+008399999V0203601N003110450019N0500001N1+02781+02361100921ADDAA106000091GF108991031061004501021999MA1999999099901MD1999999+0081REMSYN070AAXX  22184 82392 32499 83606 10278 20236 39990 40092 8362/ 333 58008;EQDQ01  00002PRCP06
0202823920999992003012300004-03700-040350FM-12+008399999V0203601N000510120019N0040001N1+02381+02331101281ADDAY161061AY261061GF108991081081008001999999KA1240M+03421MA1999999100261MD1999999+0111MW1021REMSYN100AAXX  23004 82392 21596 83601 10238 20233 30026 40128 70266 888// 333 10342 29087 55063 58011 60111;
0162823920999992003012312004-03700-040350FM-12+008399999V0201801N001010450019N0500001N1+02601+02311101381ADDGF108991041041004501031999KA1240N+02061MA1999999100351MD1999999-0151REMSYN082AAXX  23124 82392 22499 81802 10260 20231 30035 40138 8443/ 333 20206 59015 60114;
0171823920999992003012318004-03700-040350FM-12+008399999V0203601N002610042019N0500001N1+02901+02221101171ADDAY151061AY251061GF108991061061004501021999MA1999999100151MD1999999+0251MW1021REMSYN082AAXX  23184 82392 21499 83605 10290 20222 30015 40117 70255 8662/ 333 58025 69921;
0202823920999992003012400004-03700-040350FM-12+008399999V0203201N000510450019N0040001N1+02381+02351101431ADDAY161061AY251061GF108991031071004501021999KA1240M+03121MA1999999100401MD1999999+0141MW1021REMSYN100AAXX  24004 82392 21496 83201 10238 20235 30040 40143 70265 8372/ 333 10312 29087 55005 58014 60061;
0162823920999992003012412004-03700-040350FM-12+008399999V0201401N000510450019N0500001N1+02601+02421101391ADDGF106991041051004501031001KA1240N+02251MA1999999100361MD1999999+0011REMSYN082AAXX  24124 82392 22499 61401 10260 20242 30036 40139 84530 333 20225 58001 60064;
0171823920999992003012418004-03700-040350FM-12+008399999V0200501N001010450019N0500001N1+03111+02281101011ADDAY161061AY261061GF106991041041004501031001MA1999999099991MD1999999-0061MW1021REMSYN082AAXX  24184 82392 21499 60502 10311 20228 39999 40101 70266 84430 333 59006 60021;
0214823920999992003012500004-03700-040350FM-12+008399999V0202301N000519999999N0040001N1+02581+02371101321ADDAA106000091GF107991999021004501001001KA1240M+03191MA1999999100301MD1999999-0101REMSYN088AAXX  25004 82392 32496 72301 10258 20237 30030 40132 84200 333 10319 29082 55031 59010;EQDQ01+000042SCOTLCQ02  00002PRCP06
0162823920999992003012512004-03700-040350FM-12+008399999V0202301N001012200019N0500001N1+02761+02191101301ADDGF103991031011004501001001KA1240N+02191MA1999999100281MD1999999+0081REMSYN082AAXX  25124 82392 22499 32302 10276 20219 30028 40130 83100 333 20219 58008 60024;
0167823920999992003012518004-03700-040350FM-12+008399999V0200501N001512200019N0500001N1+03341+01951100771ADDAA106000091GF104991031011004501031001MA1999999099751MD1999999-0241REMSYN070AAXX  25184 82392 32499 40503 10334 20195 39975 40077 83130 333 59024;EQDQ01  00002PRCP06
0202823920999992003012600004-03700-040350FM-12+008399999V0202701N000512200019N0040001N1+02601+02391101121ADDAY121061AY251061GF102991021001004501031001KA1240M+03421MA1999999100101MD1999999-0201MW1031REMSYN100AAXX  26004 82392 21496 22701 10260 20239 30010 40112 70325 82030 333 10342 29073 55088 59020 69921;
0162823920999992003012612004-03700-040350FM-12+008399999V0200501N000510450019N0500001N1+02731+02301101191ADDGF107991041041004501031001KA1240N+02361MA1999999100171MD1999999-0111REMSYN082AAXX  26124 82392 22499 70501 10273 20230 30017 40119 84430 333 20236 59011 69924;
0190823920999992003012618004-03700-040350FM-12+008399999V0203601N001010042019N0500001N1+03211+02341100711ADDAY161061AY261061GF107991999061004501001001MA1999999099691MD1999999-0061MW1021REMSYN082AAXX  26184 82392 21499 73602 10321 20234 39969 40071 70266 85600 333 59006 69971;EQDQ01+000052SCOTLC
0134823920999992003012700004-03700-040350FM-12+008399999V0203601N002619999999N0040001N1+02561+02381999999ADDGF106991999999004501999999REMSYN096AAXX  27004 82392 21496 63605 10256 20238 10324 29079 39998 40100 55061 59002 60081 70266 84220;
0190823920999992003012712004-03700-040350FM-12+008399999V0202301N000510450019N0500001N1+02621+02421101171ADDAY161061AY261061GF107991041041004501031001KA1240N+02311MA1999999100151MD1999999-0021MW1031REMSYN088AAXX  27124 82392 21499 72301 10262 20242 30015 40117 70366 84430 333 20231 59002 60094;
0171823920999992003012718004-03700-040350FM-12+008399999V0202301N000510450019N0500001N1+02881+02281100881ADDAY151061AY221061GF107991031071004501011001MA1999999099861MD1999999-0171MW1031REMSYN082AAXX  27184 82392 21499 72301 10288 20228 39986 40088 70352 83710 333 59017 69961;
0196823920999992003012800004-03700-040350FM-12+008399999V0202701N000510450019N0040001N1+02401+02301101281ADDAY151061AY251061GF108991041061004501021999KA1240M+03081MA1999999100251MD1999999+0271MW1031REMSYN094AAXX  28004 82392 21496 82701 10240 20230 30025 40128 70355 8462/ 333 10308 29086 55046 58027;
0162823920999992003012812004-03700-040350FM-12+008399999V0202701N000510450019N0500001N1+02601+02191101361ADDGF108991031071004501021999KA1240N+02301MA1999999100331MD1999999+0111REMSYN082AAXX  28124 82392 22499 82701 10260 20219 30033 40136 8372/ 333 20230 58011 69984;
0167823920999992003012818004-03700-040350FM-12+008399999V0200901N000510042019N0500001N1+02931+02191101111ADDAA106000091GF107991051051004501031001MA1999999100091MD1999999+0231REMSYN070AAXX  28184 82392 32499 70901 10293 20219 30009 40111 85530 333 58023;EQDQ01  00002PRCP06
0152823920999992003012900004-03700-040350FM-12+008399999V0203601N000512200019N0040001N1+02641+02251999999ADDAA106000091GF102991999999004501999999REMSYN084AAXX  29004 82392 32496 23601 10264 20225 10298 29075 30025 40127 55011 58000 81200;EQDQ01  00002PRCP06
0186823920999992003012912004-03700-040350FM-12+008399999V0203601N000510450019N0500001N1+02741+02361101271ADDAA106000091GF107991031051004501031001KA1240N+02301MA1999999100251MD1999999-0081REMSYN076AAXX  29124 82392 32499 73601 10274 20236 30025 40127 83530 333 20230 59008;EQDQ01  00002PRCP06
0171823920999992003012918004-03700-040350FM-12+008399999V0200901N001510450019N0500001N1+03301+02301100821ADDAY151061AY221061GF107991041041004501031001MA1999999099801MD1999999-0291MW1021REMSYN082AAXX  29184 82392 21499 70903 10330 20230 39980 40082 70252 84430 333 59029 69921;
0198823920999992003013000004-03700-040350FM-12+008399999V0203601N000512200019N0040001N1+02701+02261101081ADDAA106000091GF102991021001008001021001KA1240M+03311MA1999999100061MD1999999-0191REMSYN088AAXX  30004 82392 32596 23601 10270 20226 30006 40108 82020 333 10331 29073 55047 59019;EQDQ01  00002PRCP06
0162823920999992003013012004-03700-040350FM-12+008399999V0201401N000510042019N0500001N1+02731+02281101191ADDGF107991061051004501031001KA1240N+02371MA1999999100171MD1999999-0011REMSYN082AAXX  30124 82392 22499 71401 10273 20228 30017 40119 86530 333 20237 59001 69924;
0167823920999992003013018004-03700-040350FM-12+008399999V0203601N000510450019N0500001N1+03191+02331100761ADDAA106000091GF106991041051004501031001MA1999999099741MD1999999-0061REMSYN070AAXX  30184 82392 32499 63601 10319 20233 39974 40076 84530 333 59006;EQDQ01  00002PRCP06
0134823920999992003013100004-03700-040350FM-12+008399999V0202701N000519999999N0040001N1+02321+02291999999ADDGF108991999999008001999999REMSYN096AAXX  31004 82392 21596 82701 10232 20229 10320 29083 39986 40089 55049 59020 60091 70366 84720;
0190823920999992003013112004-03700-040350FM-12+008399999V0202301N000510450019N0500001N1+02581+02401101131ADDAY161061AY261061GF108991041061004501021999KA1240N+02211MA1999999100101MD1999999-0071MW1031REMSYN088AAXX  31124 82392 21499 82301 10258 20240 30010 40113 70366 8462/ 333 20221 59007 60114;
0167823920999992003013118004-03700-040350FM-12+008399999V0200901N000511050019N0500001N1+03201+01991100711ADDAA106000091GF105991021021004501031041MA1999999099691MD1999999-0051REMSYN070AAXX  31184 82392 32499 50901 10320 20199 39969 40071 82234 333 59005;EQDQ01  00002PRCP06
0198823920999992003020100004-03700-040350FM-12+008399999V0200501N001012200019N0040001N1+02601+02331101081ADDAA106000091GF103991031011004501001001KA1240M+03201MA1999999100061MD1999999+0201REMSYN088AAXX  01004 82392 32496 30502 10260 20233 30006 40108 83100 333 10320 29077 55051 58020;EQDQ01  00002PRCP06
0140823920999992003020112004-03700-040350FM-12+008399999V0200501N000519999999N0500001N1+02541+02251999999ADDAA106000091GF107991999999008001999999REMSYN072AAXX  01124 82392 32599 70501 10254 20225 20235 30030 40132 58020 85500;EQDQ01  00002PRCP06
0179823920999992003020118004-03700-040350FM-12+008399999V0200501N000519999999N0500001N1+02941+02191100921ADDAA106000091GF107991999021004501001001MA1999999099901MD1810211+9999REMSYN066AAXX  01184 82392 32499 70501 10294 20219 39990 40092 58021 84200;EQDQ01+000042SCOTLCQ02  00002PRCP06
0134823920999992003020200004-03700-040350FM-12+008399999V0200501N000519999999N0040001N1+02561+02351999999ADDGF108991999999004501999999REMSYN096AAXX  02004 82392 21496 80501 10256 20235 10297 29081 30017 40119 55005 58011 69911 70255 82100;
0128823920999992003020212004-03700-040350FM-12+008399999V0201401N001019999999N0500001N1+02681+02411999999ADDGF105991999999004501999999REMSYN090AAXX  02124 82392 21499 51402 10268 20241 10008 20247 30026 40128 59004 69984 70355 84430;
0165823920999992003020218004-03700-040350FM-12+008399999V0201401N001019999999N0500001N1+03001+02081100881ADDAA106000091GF107991999011004501001001MA1999999099861REMSYN066AAXX  02184 82392 32499 71402 10300 20208 39986 40088 59004 82100;EQDQ01+000022SCOTLCQ02  00002PRCP06
0202823920999992003020300004-03700-040350FM-12+008399999V0203201N000510450019N0040001N1+02421+02401101221ADDAY161061AY261061GF106991031071004501011001KA1240M+03081MA1999999100201MD1999999+0031MW1031REMSYN100AAXX  03004 82392 21496 63201 10242 20240 30020 40122 70366 83710 333 10308 29085 55017 58003 60151;
0190823920999992003020312004-03700-040350FM-12+008399999V0200901N000510450019N0500001N1+02461+02461101381ADDAY161061AY261061GF108991041071004501021999KA1240N+02321MA1999999100351MD1999999+0091MW1031REMSYN088AAXX  03124 82392 21499 80901 10246 20246 30035 40138 70366 8472/ 333 20232 58009 60284;
0171823920999992003020318004-03700-040350FM-12+008399999V0201801N000510450019N0500001N1+02521+02451101031ADDAY161061AY221061GF108991041061004501021999MA1999999100001MD1999999+0141MW1021REMSYN082AAXX  03184 82392 21499 81801 10252 20245 30000 40103 70262 8462/ 333 58014 60041;
0198823920999992003020400004-03700-040350FM-12+008399999V0203601N000512200019N0040001N1+02431+02341101191ADDAA106000091GF102991021061004501001001KA1240M+02681MA1999999101161MD1999999-0041REMSYN088AAXX  04004 82392 32496 23601 10243 20234 30116 40119 82600 333 10268 29096 55003 59004;EQDQ01  00002PRCP06
0162823920999992003020412004-03700-040350FM-12+008399999V0200901N001012200019N0500001N1+02741+02361101181ADDGF102991021011017501001001KA1240N+02221MA1999999100161MD1999999-0191REMSYN082AAXX  04124 82392 22799 20902 10274 20236 30016 40118 82100 333 20222 59019 60044;
0167823920999992003020418004-03700-040350FM-12+008399999V0200901N000512200019N0500001N1+03291+02121100751ADDAA106000091GF103991021021004501001011MA1999999099731MD1999999-0271REMSYN070AAXX  04184 82392 32499 30901 10329 20212 39973 40075 82201 333 59027;EQDQ01  00002PRCP06
0208823920999992003020500004-03700-040350FM-12+008399999V0203601N000512200019N0040001N1+02671+02241101081ADDAA106000091GA1001+999999999GF100991001001999999001001KA1240M+03311MA1999999100061MD1999999-0101REMSYN082AAXX  05004 82392 32996 03601 10267 20224 30006 40108 333 10331 29071 55104 59010;EQDQ01  00002PRCP06
0186823920999992003020512004-03700-040350FM-12+008399999V0202301N000510450019N0500001N1+02741+02481101101ADDAA106000091GF105991041011004501031001KA1240N+02381MA1999999100081MD1999999-0081REMSYN076AAXX  05124 82392 32499 52301 10274 20248 30008 40110 84130 333 20238 59008;EQDQ01  00002PRCP06
0171823920999992003020518004-03700-040350FM-12+008399999V0202701N000510450019N0200001N1+02421+02391100931ADDAY161061AY221061GF108991041061004501021999MA1999999099901MD1999999+0171MW1631REMSYN082AAXX  05184 82392 21498 82701 10242 20239 39990 40093 76362 8462/ 333 58017 60251;
0202823920999992003020600004-03700-040350FM-12+008399999V0209999C000012200019N0040001N1+02031+00132101151ADDAY161061AY261061GF103991021061004501011001KA1240M+03231MA1999999101152MD1999999+0001MW1021REMSYN100AAXX  06004 82392 21496 30000 10203 20013 30115 40115 70266 82610 333 10323 29095 55046 58000 60011;
0162823920999992003020612004-03700-040350FM-12+008399999V0200901N000512200019N0500001N1+02741+02401101281ADDGF106991031041004501001011KA1240N+02281MA1999999100261MD1999999+0181REMSYN082AAXX  06124 82392 22499 60901 10274 20240 30026 40128 83401 333 20228 58018 60264;
0167823920999992003020618004-03700-040350FM-12+008399999V0200901N001010450019N0500001N1+03241+02251100861ADDAA106000091GF106991031041004501031011MA1999999099841MD1999999-0061REMSYN070AAXX  06184 82392 32499 60902 10324 20225 39984 40086 83431 333 59006;EQDQ01  00002PRCP06
0202823920999992003020700004-03700-040350FM-12+008399999V0202301N000510450019N0040001N1+02401+02301101201ADDAY161061AY221061GF108991041071004501021999KA1240M+03281MA1999999100181MD1999999+0051MW1031REMSYN100AAXX  07004 82392 21496 82301 10240 20230 30018 40120 70362 8472/ 333 10328 29082 55081 58005 60081;
0162823920999992003020712004-03700-040350FM-12+008399999V0200901N001012200019N0500001N1+02741+02431101171ADDGF103991031021004501001001KA1240N+02251MA1999999100151MD1999999-0111REMSYN082AAXX  07124 82392 22499 30902 10274 20243 30015 40117 83200 333 20225 59011 60084;
0167823920999992003020718004-03700-040350FM-12+008399999V0200901N001012200019N0500001N1+03221+02231100831ADDAA106000091GF104991021021004501011001MA1999999099811MD1999999-0031REMSYN070AAXX  07184 82392 32499 40902 10322 20223 39981 40083 82210 333 59003;EQDQ01  00002PRCP06
0198823920999992003020800004-03700-040350FM-12+008399999V0202301N000510450019N0040001N1+02601+02351101041ADDAA106000091GF108991041071004501021999KA1240M+03281MA1999999100021MD1999999+0161REMSYN088AAXX  08004 82392 32496 82301 10260 20235 30002 40104 8472/ 333 10328 29078 55085 58016;EQDQ01  00002PRCP06
0186823920999992003020812004-03700-040350FM-12+008399999V0200901N001010450019N0500001N1+02781+02441101271ADDAA106000091GF105991031021004501031001KA1240N+02391MA1999999100251MD1999999+0101REMSYN076AAXX  08124 82392 32499 50902 10278 20244 30025 40127 83230 333 20239 58010;EQDQ01  00002PRCP06
0167823920999992003020818004-03700-040350FM-12+008399999V0200901N001512200019N0500001N1+02941+02241100941ADDAA106000091GF104991041021004501001001MA1999999099921MD1999999+0111REMSYN070AAXX  08184 82392 32499 40903 10294 20224 39992 40094 84200 333 58011;EQDQ01  00002PRCP06
0198823920999992003020900004-03700-040350FM-12+008399999V0202701N000510450019N0040001N1+02601+02231101161ADDAA106000091GF106991041051004501031001KA1240M+03041MA1999999100141MD1999999+0121REMSYN088AAXX  09004 82392 32496 62701 10260 20223 30014 40116 84530 333 10304 29077 55019 58012;EQDQ01  00002PRCP06
0186823920999992003020912004-03700-040350FM-12+008399999V0209999C000011050019N0500001N1+02731+02211101231ADDAA106000091GF105991021021004501031011KA1240N+02281MA1999999100211MD1999999-0051REMSYN076AAXX  09124 82392 32499 50000 10273 20221 30021 40123 82231 333 20228 59005;EQDQ01  00002PRCP06
0167823920999992003020918004-03700-040350FM-12+008399999V0203601N000510450019N0500001N1+03081+02371100841ADDAA106000091GF106991021021004501031011MA1999999099821MD1999999-0101REMSYN070AAXX  09184 82392 32499 63601 10308 20237 39982 40084 82231 333 59010;EQDQ01  00002PRCP06
0198823920999992003021000004-03700-040350FM-12+008399999V0203601N001010450019N0040001N1+02611+02371101151ADDAA106000091GF108991021021004501021011KA1240M+03261MA1999999100131MD1999999-0011REMSYN088AAXX  10004 82392 32496 83602 10261 20237 30013 40115 82221 333 10326 29078 55072 59001;EQDQ01  00002PRCP06
0186823920999992003021012004-03700-040350FM-12+008399999V0200901N001010450019N0500001N1+02661+02561101221ADDAA106000091GF106991041041004501031001KA1240N+02351MA1999999100201MD1999999+0001REMSYN076AAXX  10124 82392 32499 60902 10266 20256 30020 40122 84430 333 20235 58000;EQDQ01  00002PRCP06
0167823920999992003021018004-03700-040350FM-12+008399999V0200501N003110450019N0500001N1+02721+02471100881ADDAA106000091GF108991031071004501021999MA1999999099861MD1999999+0041REMSYN070AAXX  10184 82392 32499 80506 10272 20247 39986 40088 8372/ 333 58004;EQDQ01  00002PRCP06
0198823920999992003021100004-03700-040350FM-12+008399999V0203601N000510450019N0040001N1+02521+02381101181ADDAA106000091GF107991041071004501011001KA1240M+03121MA1999999100161MD1999999+0031REMSYN088AAXX  11004 82392 32496 73601 10252 20238 30016 40118 84710 333 10312 29091 55034 58003;EQDQ01  00002PRCP06
0190823920999992003021112004-03700-040350FM-12+008399999V0202301N000510450019N0500001N1+02681+02431101171ADDAY151061AY221061GF106991041011004501031001KA1240N+02341MA1999999100151MD1999999-0051MW1031REMSYN088AAXX  11124 82392 21499 62301 10268 20243 30015 40117 70352 84130 333 20234 59005 69944;
0167823920999992003021118004-03700-040350FM-12+008399999V0203601N001010450019N0500001N1+02641+02371100911ADDAA106000091GF107991041061004501011011MA1999999099881MD1999999+0021REMSYN070AAXX  11184 82392 32499 73602 10264 20237 39988 40091 84611 333 58002;EQDQ01  00002PRCP06
0202823920999992003021200004-03700-040350FM-12+008399999V0203601N000510450019N0040001N1+02361+02221101241ADDAY161061AY261061GF108991041061004501011999KA1240M+03111MA1999999100211MD1999999+0051MW1021REMSYN100AAXX  12004 82392 21496 83601 10236 20222 30021 40124 70266 8461/ 333 10311 29089 55056 58005 69941;
0162823920999992003021212004-03700-040350FM-12+008399999V0202301N000510450019N0500001N1+02541+02361101351ADDGF107991041051004501011001KA1240N+02271MA1999999100321MD1999999+0171REMSYN082AAXX  12124 82392 22499 72301 10254 20236 30032 40135 84510 333 20227 58017 69944;
0167823920999992003021218004-03700-040350FM-12+008399999V0203601N001510042019N0500001N1+02961+02311100971ADDAA106000091GF106991051041004501031001MA1999999099951MD1999999+0071REMSYN070AAXX  12184 82392 32499 63603 10296 20231 39995 40097 85430 333 58007;EQDQ01  00002PRCP06
0198823920999992003021300004-03700-040350FM-12+008399999V0203601N000510450019N0040001N1+02501+02361101251ADDAA106000091GF106991021011004501031001KA1240M+02991MA1999999100221MD1999999+0011REMSYN088AAXX  13004 82392 32496 63601 10250 20236 30022 40125 82130 333 10299 29086 55019 58001;EQDQ01  00002PRCP06
0186823920999992003021312004-03700-040350FM-12+008399999V0201801N000510450019N0500001N1+02621+02371101251ADDAA106000091GF106991031061004501031001KA1240N+00231MA1999999100231MD1999999-0091REMSYN076AAXX  13124 82392 32499 61801 10262 20237 30023 40125 83630 333 20023 59009;EQDQ01  00002PRCP06
0167823920999992003021318004-03700-040350FM-12+008399999V0203601N000510450019N0500001N1+02941+02361100891ADDAA106000091GF106991031061004501031001MA1999999099871MD1999999-0081REMSYN070AAXX  13184 82392 32499 63601 10294 20236 39987 40089 83630 333 59008;EQDQ01  00002PRCP06
0198823920999992003021400004-03700-040350FM-12+008399999V0203601N001010450019N0040001N1+02461+02321101131ADDAA106000091GF106991041041004501031001KA1240M+03221MA1999999100101MD1999999-0121REMSYN088AAXX  14004 82392 32496 63602 10246 20232 30010 40113 84430 333 10322 29085 55058 59012;EQDQ01  00002PRCP06
0186823920999992003021412004-03700-040350FM-12+008399999V0200901N001512200019N0500001N1+02781+02301101221ADDAA106000091GF102991021011004501001001KA1240N+02241MA1999999100201MD1999999-0031REMSYN076AAXX  14124 82392 32499 20903 10278 20230 30020 40122 82100 333 20224 59003;EQDQ01  00002PRCP06
0167823920999992003021418004-03700-040350FM-12+008399999V0203601N000510450019N0500001N1+03081+02211100851ADDAA106000091GF106991031051004501011001MA1999999099831MD1999999-0141REMSYN070AAXX  14184 82392 32499 63601 10308 20221 39983 40085 83510 333 59014;EQDQ01  00002PRCP06
0198823920999992003021500004-03700-040350FM-12+008399999V0200501N002610450019N0040001N1+02541+02211101041ADDAA106000091GF106991041041004501031001KA1240M+03201MA1999999100021MD1999999-0081REMSYN088AAXX  15004 82392 32496 60505 10254 20221 30002 40104 84430 333 10320 29075 55065 59008;EQDQ01  00002PRCP06
0186823920999992003021512004-03700-040350FM-12+008399999V0200501N000510450019N0500001N1+02701+02371101121ADDAA106000091GF107991031021004501031001KA1240N+02321MA1999999100101MD1999999-0101REMSYN076AAXX  15124 82392 32499 70501 10270 20237 30010 40112 83230 333 20232 59010;EQDQ01  00002PRCP06
0167823920999992003021518004-03700-040350FM-12+008399999V0203601N001010450019N0500001N1+03111+02221100781ADDAA106000091GF107991031021004501031001MA1999999099761MD1999999-0071REMSYN070AAXX  15184 82392 32499 73602 10311 20222 39976 40078 83230 333 59007;EQDQ01  00002PRCP06
0181823920999992003021612004-03700-040350FM-12+008399999V0200901N002610450019N0500001N1+02201+99999101101ADDGF106991041011004501031001KA1240N+99999MA1999999100081MD1999999-0021REMSYN082AAXX  16124 82392 22499 60905 10220 20242 30008 40110 84130 333 20234 59002 69984;EQDQ01 +02342ATMN  
0162823920999992003021712004-03700-040350FM-12+008399999V0200501N001010450019N0500001N1+02681+02481101221ADDGF108991041051004501021999KA1240N+02401MA1999999100201MD1999999+0121REMSYN082AAXX  17124 82392 22499 80502 10268 20248 30020 40122 8452/ 333 20240 58012 60034;
0171823920999992003021718004-03700-040350FM-12+008399999V0200901N002110450019N0200001N1+02321+02291101041ADDAY161061AY261061GF108991041061004501021999MA1999999100011MD1999999+0311MW1611REMSYN082AAXX  17184 82392 21498 80904 10232 20229 30001 40104 76166 8462/ 333 58031 60121;
0179823920999992003021800004-03700-040350FM-12+008399999V0209999C000019999999N0040001N1+02331+02291101301ADDGF108991999999004501999999KA1240M+02941MA1999999100271MD1999999+0291REMSYN099AAXX  18004 82392 21496 80000 10233 20229 30027 40130 7066 886// 333 10294 29092 55004 58029 60141;
0190823920999992003021812004-03700-040350FM-12+008399999V0202301N001010450019N0500001N1+02421+02391101201ADDAY161061AY261061GF108991041071004501021999KA1240N+02201MA1999999100171MD1999999-0031MW1021REMSYN088AAXX  18124 82392 21499 82302 10242 20239 30017 40120 70266 8472/ 333 20220 59003 60264;
0167823920999992003021818004-03700-040350FM-12+008399999V0203601N001010450019N0500001N1+02761+02401100981ADDAA106000091GF106991041051004501031001MA1999999099951MD1999999-0061REMSYN070AAXX  18184 82392 32499 63602 10276 20240 39995 40098 84530 333 59006;EQDQ01  00002PRCP06
0202823920999992003021900004-03700-040350FM-12+008399999V0200901N000510042019N0040001N1+02321+02271101321ADDAY161061AY261061GF108991081051004501999999KA1240M+03021MA1999999100291MD1999999+0021MW1201REMSYN100AAXX  19004 82392 21496 80901 10232 20227 30029 40132 72066 885// 333 10302 29093 55030 58002 60161;
0190823920999992003021912004-03700-040350FM-12+008399999V0202301N001010450019N0500001N1+02561+02421101281ADDAY151061AY261061GF106991041041004501031001KA1240N+02261MA1999999100251MD1999999+0081MW1021REMSYN088AAXX  19124 82392 21499 62302 10256 20242 30025 40128 70256 84430 333 20226 58008 60174;
0167823920999992003021918004-03700-040350FM-12+008399999V0200901N000510450019N0500001N1+03121+02191100921ADDAA106000091GF105991031041004501031001MA1999999099901MD1999999-0051REMSYN070AAXX  19184 82392 32499 50901 10312 20219 39990 40092 83430 333 59005;EQDQ01  00002PRCP06
0198823920999992003022000004-03700-040350FM-12+008399999V0200601N000510450019N0040001N1+02561+02401101171ADDAA106000091GF106991031051004501011001KA1240M+03241MA1999999100151MD1999999-0141REMSYN088AAXX  20004 82392 32496 60601 10256 20240 30015 40117 83510 333 10324 29083 55068 59014;EQDQ01  00002PRCP06
0186823920999992003022012004-03700-040350FM-12+008399999V0209999C000010450019N0500001N1+02771+02441101221ADDAA106000091GF107991041041004501031001KA1240N+02321MA1999999100201MD1999999-0051REMSYN076AAXX  20124 82392 32499 70000 10277 20244 30020 40122 84430 333 20232 59005;EQDQ01  00002PRCP06
0171823920999992003022018004-03700-040350FM-12+008399999V0203601N001010450019N0500001N1+02681+02481100911ADDAY161061AY261061GF106991031051004501031001MA1999999099881MD1999999-0021MW1021REMSYN082AAXX  20184 82392 21499 63602 10268 20248 39988 40091 70266 83530 333 59002 60061;
0198823920999992003022100004-03700-040350FM-12+008399999V0200501N000512200019N0040001N1+02501+02471101121ADDAA106000091GF104991041021004501001001KA1240M+03441MA1999999100101MD1999999-0051REMSYN088AAXX  21004 82392 32496 40501 10250 20247 30010 40112 84200 333 10344 29092 55034 59005;EQDQ01  00002PRCP06
0209823920999992003022112004-03700-040350FM-12+008399999V0202301N002619999999N0500001N1+02241+02211101331ADDAY161061AY261061GF108991999021008001001001KA1240N+02081MA1999999100301MD1999999-0101MW1021REMSYN088AAXX  21124 82392 21599 82305 10224 20221 30030 40133 70266 83200 333 20208 59010 60114;EQDQ01+000032SCOTLC
0183823920999992003022118004-03700-040350FM-12+008399999V0203601N000519999999N0500001N1+02621+02311101041ADDAA106000091GF108991999021004501001001MA1999999100011MD1999999-0131REMSYN070AAXX  21184 82392 32499 83601 10262 20231 30001 40104 84200 333 59013;EQDQ01+000042SCOTLCQ02  00002PRCP06
0198823920999992003022200004-03700-040350FM-12+008399999V0203601N001012200019N0040001N1+02361+02331101061ADDAA106000091GF103991031011004501001001KA1240M+02641MA1999999100031MD1999999-0071REMSYN088AAXX  22004 82392 32496 33602 10236 20233 30003 40106 83100 333 10264 29094 55000 59007;EQDQ01  00002PRCP06
0186823920999992003022212004-03700-040350FM-12+008399999V0200901N001512200019N0500001N1+02661+02391101231ADDAA106000091GF104991041011004501001001KA1240N+02081MA1999999100201MD1999999-0101REMSYN076AAXX  22124 82392 32499 40903 10266 20239 30020 40123 84100 333 20208 59010;EQDQ01  00002PRCP06
0202823920999992003022300004-03700-040350FM-12+008399999V0200501N003112200019N0040001N1+02581+02441101251ADDAY121061AY261061GF103991031011004501001001KA1240M+03261MA1999999100231MD1999999+0201MW1021REMSYN100AAXX  23004 82392 21496 30506 10258 20244 30023 40125 70226 83100 333 10326 29082 55066 58020 60011;
0162823920999992003022312004-03700-040350FM-12+008399999V0200901N000510450019N0500001N1+02741+02361101421ADDGF106991041041004501031001KA1240N+02401MA1999999100401MD1999999+0201REMSYN082AAXX  23124 82392 22499 60901 10274 20236 30040 40142 84430 333 20240 58020 60014;
0198823920999992003022400004-03700-040350FM-12+008399999V0203601N000510450019N0040001N1+02501+02401101401ADDAA106000091GF106991031041004501011001KA1240M+03011MA1999999100381MD1999999+0151REMSYN088AAXX  24004 82392 32496 63601 10250 20240 30038 40140 83410 333 10301 29091 55042 58015;EQDQ01  00002PRCP06
0162823920999992003022412004-03700-040350FM-12+008399999V0202301N001010450019N0500001N1+02541+02511101431ADDGF107991041061004501011001KA1240N+02301MA1999999100401MD1999999+0001REMSYN082AAXX  24124 82392 22499 72302 10254 20251 30040 40143 84610 333 20230 58000 60024;
0171823920999992003022418004-03700-040350FM-12+008399999V0202301N001512200019N0200001N1+02761+02581101071ADDAY161061AY221061GF103991031061004501021001MA1999999100051MD1999999-0051MW1031REMSYN082AAXX  24184 82392 21498 32303 10276 20258 30005 40107 70362 83620 333 59005 60021;
0202823920999992003022500004-03700-040350FM-12+008399999V0209999C000010042019N0040001N1+02371+02361101371ADDAY161061AY261061GF108991061061004501021999KA1240M+03061MA1999999100341MD1999999-0041MW1021REMSYN100AAXX  25004 82392 21496 80000 10237 20236 30034 40137 70266 8662/ 333 10306 29097 55026 59004 60381;
0209823920999992003022512004-03700-040350FM-12+008399999V0202301N001019999999N0500001N1+02561+02421101261ADDAY161061AY261061GF106991999011004501001001KA1240N+02241MA1999999100231MD1999999-0171MW1031REMSYN088AAXX  25124 82392 21499 62302 10256 20242 30023 40126 70366 84100 333 20224 59017 60714;EQDQ01+000042SCOTLC
0202823920999992003022600004-03700-040350FM-12+008399999V0209999C000010042019N0040001N1+02221+02191101321ADDAY161061AY261061GF108991081061004501999999KA1240M+02601MA1999999100391MD1999999-0051MW1631REMSYN100AAXX  26004 82392 21496 80000 10222 20219 30039 40132 76366 886// 333 10260 29096 55038 59005 60591;
0190823920999992003022612004-03700-040350FM-12+008399999V0200501N002112200019N0500001N1+02581+02311101231ADDAY161061AY261061GF104991031011004501031001KA1240N+02201MA1999999100201MD1999999-0031MW1021REMSYN088AAXX  26124 82392 21499 40504 10258 20231 30020 40123 70266 83130 333 20220 59003 60714;
0167823920999992003022618004-03700-040350FM-12+008399999V0200501N001512200019N0500001N1+03101+02311100871ADDAA106000091GF104991021011004501031001MA1999999099851MD1999999-0021REMSYN070AAXX  26184 82392 32499 40503 10310 20231 39985 40087 82130 333 59002;EQDQ01  00002PRCP06
0202823920999992003022700004-03700-040350FM-12+008399999V0200501N000510450019N0040001N1+02481+02381101161ADDAY151061AY251061GF106991031061004501031001KA1240M+03161MA1999999100131MD1999999-0161MW1021REMSYN100AAXX  27004 82392 21496 60501 10248 20238 30013 40116 70255 83630 333 10316 29084 55073 59016 69931;
0190823920999992003022712004-03700-040350FM-12+008399999V0203601N000510450019N0500001N1+02661+02431101131ADDAY161061AY261061GF106991041041004501031001KA1240N+02321MA1999999100111MD1999999-0091MW1021REMSYN088AAXX  27124 82392 21499 63601 10266 20243 30011 40113 70266 84430 333 20232 59009 60014;
0171823920999992003022718004-03700-040350FM-12+008399999V0203601N001010450019N0500001N1+02941+02361100891ADDAY161061AY261061GF106991031041004501011011MA1999999099871MD1999999+0021MW1021REMSYN082AAXX  27184 82392 21499 63602 10294 20236 39987 40089 70266 83411 333 58002 60021;
0198823920999992003022800004-03700-040350FM-12+008399999V0200501N001012200019N0040001N1+02481+02431101241ADDAA106000091GF104991041021004501001001KA1240M+03001MA1999999100211MD1999999+0091REMSYN088AAXX  28004 82392 32496 40502 10248 20243 30021 40124 84200 333 10300 29088 55039 58009;EQDQ01  00002PRCP06
0190823920999992003022812004-03700-040350FM-12+008399999V0202301N001010450019N0500001N1+02561+02421101311ADDAY161061AY261061GF106991041041004501031001KA1240N+02351MA1999999100281MD1999999+0171MW1031REMSYN088AAXX  28124 82392 21499 62302 10256 20242 30028 40131 70366 84430 333 20235 58017 60044;
0171823920999992003022818004-03700-040350FM-12+008399999V0200501N000510042019N0500001N1+02421+02371101041ADDAY161061AY261061GF108991061051004501031999MA1999999100011MD1999999+0141MW1021REMSYN082AAXX  28184 82392 21499 80501 10242 20237 30001 40104 70266 8653/ 333 58014 60291;
0219823920999992003030112004-03700-040350FM-12+008399999V0202701N000519999999N0500001N1+02641+02421101261ADDAY121061AY251061GF105991999021004501001001KA1240N+02121MA1999999100231MD1999999-0051REMSYN088AAXX  01124 82392 21499 52701 10264 20242 30023 40126 77025 84200 333 20212 59005 60304;EQDQ01+000042SCOTLCQ02+000702PRSWM1
0167823920999992003030118004-03700-040350FM-12+008399999V0200901N000512200019N0500001N1+03141+02131100881ADDAA106000091GF103991021011004501031001MA1999999099861MD1999999-0151REMSYN070AAXX  01184 82392 32499 30901 10314 20213 39986 40088 82130 333 59015;EQDQ01  00002PRCP06
0162823920999992003030200004-03700-040350FM-12+008399999V0200501N000512200019N0040001N1+02561+02351999999ADDAA106000091GA1001+999999999GF100991001001999999001001REMSYN078AAXX  02004 82392 32996 00501 10256 20235 10328 29080 30007 40109 55104 59016;EQDQ01  00002PRCP06
0186823920999992003030212004-03700-040350FM-12+008399999V0200501N002612200019N0500001N1+02801+02421101121ADDAA106000091GF101991011011004501001001KA1240N+02101MA1999999100101MD1999999-0131REMSYN076AAXX  02124 82392 32499 10505 10280 20242 30010 40112 81100 333 20210 59013;EQDQ01  00002PRCP06
0167823920999992003030218004-03700-040350FM-12+008399999V0201401N001512200019N0500001N1+03141+02161100741ADDAA106000091GF101991011011004501001001MA1999999099721MD1999999-0141REMSYN070AAXX  02184 82392 32499 11403 10314 20216 39972 40074 81100 333 59014;EQDQ01  00002PRCP06
0208823920999992003030300004-03700-040350FM-12+008399999V0200501N001512200019N0040001N1+02481+02291101011ADDAA106000091GA1001+999999999GF100991001001999999001001KA1240M+03201MA1999999099991MD1999999-0081REMSYN082AAXX  03004 82392 32996 00503 10248 20229 39999 40101 333 10320 29078 55105 59008;EQDQ01  00002PRCP06
0186823920999992003030312004-03700-040350FM-12+008399999V0200901N001012200019N0500001N1+02801+02311101131ADDAA106000091GF101991011011004501001001KA1240N+02301MA1999999100111MD1999999-0011REMSYN076AAXX  03124 82392 32499 10902 10280 20231 30011 40113 81100 333 20230 59001;EQDQ01  00002PRCP06
0171823920999992003030318004-03700-040350FM-12+008399999V0200501N000510042019N0500001N1+02631+02421100951ADDAY161061AY261061GF108991051061004501011999MA1999999099921MD1999999+0201MW1021REMSYN082AAXX  03184 82392 21499 80501 10263 20242 39992 40095 70266 8561/ 333 58020 60081;
0202823920999992003030400004-03700-040350FM-12+008399999V0203601N000510450019N0040001N1+02461+02391101201ADDAY161061AY261061GF107991041061004501011001KA1240M+03121MA1999999100181MD1999999+0191MW1021REMSYN100AAXX  04004 82392 21496 73601 10246 20239 30018 40120 70266 84610 333 10312 29089 55055 58019 60031;
0190823920999992003030412004-03700-040350FM-12+008399999V0200901N001510450019N0500001N1+02501+02291101331ADDAY161061AY261061GF105991041021004501031001KA1240N+02241MA1999999100301MD1999999+0191MW1021REMSYN088AAXX  04124 82392 21499 50903 10250 20229 30030 40133 70266 84230 333 20224 58019 60134;
0171823920999992003030418004-03700-040350FM-12+008399999V0200901N000512200019N0500001N1+03071+02211100911ADDAY151061AY251061GF104991031041004501031001MA1999999099891MD1999999-0031MW1021REMSYN082AAXX  04184 82392 21499 40901 10307 20221 39989 40091 70255 83430 333 59003 69931;
0202823920999992003030500004-03700-040350FM-12+008399999V0209999C000012200019N0040001N1+02441+02351101181ADDAY161061AY261061GF102991021041004501001001KA1240M+03121MA1999999100151MD1999999-0031MW1021REMSYN100AAXX  05004 82392 21496 20000 10244 20235 30015 40118 70266 82400 333 10312 29085 55073 59003 60051;
0190823920999992003030512004-03700-040350FM-12+008399999V0202301N000510450019N0500001N1+02521+02381101211ADDAY151061AY261061GF106991041051004501031001KA1240N+02251MA1999999100181MD1999999-0121MW1021REMSYN088AAXX  05124 82392 21499 62301 10252 20238 30018 40121 70256 84530 333 20225 59012 60054;
0167823920999992003030518004-03700-040350FM-12+008399999V0200501N001510450019N0500001N1+02981+02151100831ADDAA106000091GF105991041021004501031001MA1999999099811MD1999999-0081REMSYN070AAXX  05184 82392 32499 50503 10298 20215 39981 40083 84230 333 59008;EQDQ01  00002PRCP06
0221823920999992003030600004-03700-040350FM-12+008399999V0200501N001012200019N0040001N1+02441+02391101031ADDAY161061AY261061GF103991999021008001001001KA1240M+03051MA1999999100001MD1999999-0151MW1021REMSYN100AAXX  06004 82392 21596 30502 10244 20239 30000 40103 70266 85200 333 10305 29087 55062 59015 60101;EQDQ01+000052SCOTLC
0162823920999992003030612004-03700-040350FM-12+008399999V0209999C000012200019N0500001N1+02731+02401101201ADDGF105991041021004501001011KA1240N+02221MA1999999100181MD1999999+0001REMSYN082AAXX  06124 82392 22499 50000 10273 20240 30018 40120 84201 333 20222 58000 60104;
0167823920999992003030618004-03700-040350FM-12+008399999V0200501N001010450019N0500001N1+03161+02201100751ADDAA106000091GF105991031021004501031011MA1999999099731MD1999999-0081REMSYN070AAXX  06184 82392 32499 50502 10316 20220 39973 40075 83231 333 59008;EQDQ01  00002PRCP06
0198823920999992003030700004-03700-040350FM-12+008399999V0200501N002610450019N0040001N1+02521+02291101021ADDAA106000091GF106991041041004501031001KA1240M+03201MA1999999100001MD1999999+0001REMSYN088AAXX  07004 82392 32496 60505 10252 20229 30000 40102 84430 333 10320 29078 55100 58000;EQDQ01  00002PRCP06
0186823920999992003030712004-03700-040350FM-12+008399999V0200901N001010042019N0500001N1+02721+02391101181ADDAA106000091GF106991051021004501031001KA1240N+02401MA1999999100161MD1999999-0021REMSYN076AAXX  07124 82392 32499 60902 10272 20239 30016 40118 85230 333 20240 59002;EQDQ01  00002PRCP06
0167823920999992003030718004-03700-040350FM-12+008399999V0203601N001010450019N0500001N1+02911+02411100931ADDAA106000091GF107991031041004501031001MA1999999099911MD1999999+0181REMSYN070AAXX  07184 82392 32499 73602 10291 20241 39991 40093 83430 333 58018;EQDQ01  00002PRCP06
0214823920999992003030800004-03700-040350FM-12+008399999V0200501N002612200019N0040001N1+02381+02281101301ADDAA106000091GF104991999021008001001001KA1240M+03121MA1999999100281MD1999999+0281REMSYN088AAXX  08004 82392 32596 40505 10238 20228 30028 40130 83200 333 10312 29086 55023 58028;EQDQ01+000032SCOTLCQ02  00002PRCP06
0186823920999992003030812004-03700-040350FM-12+008399999V0200901N001512200019N0500001N1+02681+02351101251ADDAA106000091GF103991031011004501001001KA1240N+02241MA1999999100221MD1999999+0061REMSYN076AAXX  08124 82392 32499 30903 10268 20235 30022 40125 83100 333 20224 58006;EQDQ01  00002PRCP06
0202823920999992003030900004-03700-040350FM-12+008399999V0203601N000510450019N0040001N1+02401+02351101111ADDAY161061AY261061GF108991041061004501021999KA1240M+03101MA1999999100081MD1999999-0201MW1021REMSYN100AAXX  09004 82392 21496 83601 10240 20235 30008 40111 70266 8462/ 333 10310 29094 55029 59020 60011;
0181823920999992003030912004-03700-040350FM-12+008399999V0200901N000519999999N0500001N1+02771+02421101231ADDGF106991999021004501001001KA1240N+02221MA1999999100211MD1999999-0011REMSYN082AAXX  09124 82392 22499 60901 10277 20242 30021 40123 83200 333 20222 59001 60054;EQDQ01+000032SCOTLC
0183823920999992003030918004-03700-040350FM-12+008399999V0200501N001019999999N0500001N1+03181+02191100871ADDAA106000091GF105991999021008001001001MA1999999099851MD1999999-0151REMSYN070AAXX  09184 82392 32599 50502 10318 20219 39985 40087 84200 333 59015;EQDQ01+000042SCOTLCQ02  00002PRCP06
0198823920999992003031000004-03700-040350FM-12+008399999V0203601N001012200019N0040001N1+02521+02311101141ADDAA106000091GF102991021031008001001001KA1240M+03201MA1999999100121MD1999999+0041REMSYN088AAXX  10004 82392 32596 23602 10252 20231 30012 40114 82300 333 10320 29078 55098 58004;EQDQ01  00002PRCP06
0186823920999992003031012004-03700-040350FM-12+008399999V0203601N002112200019N0500001N1+02741+02401101221ADDAA106000091GF102991021011004501001001KA1240N+02281MA1999999100201MD1999999-0011REMSYN076AAXX  10124 82392 32499 23604 10274 20240 30020 40122 82100 333 20228 59001;EQDQ01  00002PRCP06
0167823920999992003031018004-03700-040350FM-12+008399999V0203201N002110042019N0500001N1+02781+02461100901ADDAA106000091GF107991051051004501031001MA1999999099881MD1999999+0031REMSYN070AAXX  10184 82392 32499 73204 10278 20246 39988 40090 85530 333 58003;EQDQ01  00002PRCP06
0202823920999992003031100004-03700-040350FM-12+008399999V0203601N001010042019N0040001N1+02521+02431101211ADDAY161061AY261061GF108991061051004501021999KA1240M+03071MA1999999100191MD1999999+0071MW1021REMSYN100AAXX  11004 82392 21496 83602 10252 20243 30019 40121 70266 8652/ 333 10307 29089 55057 58007 60141;
0162823920999992003031112004-03700-040350FM-12+008399999V0200501N002110450019N0500001N1+02661+02461101181ADDGF106991041041004501031001KA1240N+02281MA1999999100161MD1999999-0041REMSYN082AAXX  11124 82392 22499 60504 10266 20246 30016 40118 84430 333 20228 59004 60144;
0171823920999992003031118004-03700-040350FM-12+008399999V0203601N003110042019N0100001N1+02621+02481100911ADDAY101061AY221061GF108991071071004501011999MA1999999099881MD1999999+0001MW1201REMSYN082AAXX  11184 82392 21497 83606 10262 20248 39988 40091 72002 8771/ 333 58000 69931;
0221823920999992003031200004-03700-040350FM-12+008399999V0200501N000510075019N0040001N1+02321+02241101201ADDAY161061AY261061GF108991999021008001001001KA1240M+03021MA1999999100171MD1999999-0021MW1511REMSYN100AAXX  12004 82392 21596 80501 10232 20224 30017 40120 75166 85200 333 10302 29093 55040 59002 60091;EQDQ01+000052SCOTLC
0190823920999992003031212004-03700-040350FM-12+008399999V0202301N001012200019N0500001N1+02541+02401101161ADDAY161061AY261061GF104991031011004501031001KA1240N+02241MA1999999100131MD1999999-0031MW1021REMSYN088AAXX  12124 82392 21499 42302 10254 20240 30013 40116 70266 83130 333 20224 59003 60224;
0167823920999992003031218004-03700-040350FM-12+008399999V0203201N001510450019N0500001N1+02721+02581100891ADDAA106000091GF107991041041004501011001MA1999999099861MD1999999-0021REMSYN070AAXX  12184 82392 32499 73203 10272 20258 39986 40089 84410 333 59002;EQDQ01  00002PRCP06
0202823920999992003031300004-03700-040350FM-12+008399999V0203601N000510450019N0040001N1+02491+02451101091ADDAY161061AY261061GF108991041061004501011999KA1240M+02981MA1999999100061MD1999999-0111MW1021REMSYN100AAXX  13004 82392 21496 83601 10249 20245 30006 40109 70266 8461/ 333 10298 29095 55040 59011 60121;
0162823920999992003031312004-03700-040350FM-12+008399999V0203601N000510450019N0500001N1+02701+02431101151ADDGF106991041061004501031001KA1240N+02321MA1999999100131MD1999999+0001REMSYN082AAXX  13124 82392 22499 63601 10270 20243 30013 40115 84630 333 20232 58000 60124;
0171823920999992003031318004-03700-040350FM-12+008399999V0203601N000510450019N0500001N1+02631+02461100811ADDAY101061AY221061GF107991041061004501031021MA1999999099781MD1999999-0081MW1511REMSYN082AAXX  13184 82392 21499 73601 10263 20246 39978 40081 75102 84632 333 59008 69921;
0221823920999992003031400004-03700-040350FM-12+008399999V0202301N000519999999N0040001N1+02401+02371101071ADDAY151061AY251061GF108991999021004501001001KA1240M+03161MA1999999100051MD1999999-0011MW1031REMSYN100AAXX  14004 82392 21496 82301 10240 20237 30005 40107 70355 83200 333 10316 29093 55073 59001 69921;EQDQ01+000032SCOTLC
0162823920999992003031412004-03700-040350FM-12+008399999V0203601N000510450019N0500001N1+02701+02431101201ADDGF105991041021004501031001KA1240N+02241MA1999999100181MD1999999+0051REMSYN082AAXX  14124 82392 22499 53601 10270 20243 30018 40120 84230 333 20224 58005 69944;
0167823920999992003031418004-03700-040350FM-12+008399999V0203601N001510450019N0500001N1+02761+02461100821ADDAA106000091GF106991031061004501031001MA1999999099801MD1999999+0021REMSYN070AAXX  14184 82392 32499 63603 10276 20246 39980 40082 83630 333 58002;EQDQ01  00002PRCP06
0202823920999992003031500004-03700-040350FM-12+008399999V0200501N001010450019N0040001N1+02421+02351101141ADDAY161061AY221061GF108991041071004501021999KA1240M+02411MA1999999100121MD1999999+0071MW1021REMSYN100AAXX  15004 82392 21496 80502 10242 20235 30012 40114 70262 8472/ 333 10241 29090 55088 58007 60051;
0162823920999992003031512004-03700-040350FM-12+008399999V0201801N000510042019N0500001N1+02671+02521101311ADDGF106991061041004501001001KA1240N+02321MA1999999100291MD1999999+0111REMSYN082AAXX  15124 82392 22499 61801 10267 20252 30029 40131 86400 333 20232 58011 60054;
0171823920999992003031518004-03700-040350FM-12+008399999V0203601N000510042019N0500001N1+02361+02311101031ADDAY161061AY261061GF108991081051004501999999MA1999999100001MD1999999+0201MW1201REMSYN082AAXX  15184 82392 21499 83601 10236 20231 30000 40103 72066 885// 333 58020 60081;
0179823920999992003031600004-03700-040350FM-12+008399999V0200501N002110450019N0040001N1+02381+02351101231ADDAA106000021GF105991041041004501031001KA1240M+03081MA1999999100201MD1999999+0081REMSYN088AAXX  16004 82392 32496 50504 10238 20235 30020 40123 84430 333 10308 29095 55042 58008;
0209823920999992003031612004-03700-040350FM-12+008399999V0202701N001010042019N0500001N1+02521+02381101381ADDAY161061AY261061GF108991999021004501001001KA1240N+02281MA1999999100351MD1999999+0061MW1021REMSYN088AAXX  16124 82392 21499 82702 10252 20238 30035 40138 70266 85200 333 20228 58006 60124;EQDQ01+000052SCOTLC
0167823920999992003031618004-03700-040350FM-12+008399999V0200501N001012200019N0500001N1+03061+02331100921ADDAA106000091GF103991031021004501001001MA1999999099901MD1999999-0101REMSYN070AAXX  16184 82392 32499 30502 10306 20233 39990 40092 83200 333 59010;EQDQ01  00002PRCP06
0221823920999992003031700004-03700-040350FM-12+008399999V0200501N001019999999N0040001N1+02381+02351101371ADDAY161061AY261061GF108991999021004501001001KA1240M+03131MA1999999100341MD1999999+0141MW1021REMSYN100AAXX  17004 82392 21496 80502 10238 20235 30034 40137 70266 83200 333 10313 29088 55068 58014 60101;EQDQ01+000032SCOTLC
0190823920999992003031712004-03700-040350FM-12+008399999V0202301N000510450019N0500001N1+02481+02291101391ADDAY161061AY261061GF108991031071004501021999KA1240N+02271MA1999999100361MD1999999+0011MW1021REMSYN088AAXX  17124 82392 21499 82301 10248 20229 30036 40139 70266 8372/ 333 20227 58001 60124;
0167823920999992003031718004-03700-040350FM-12+008399999V0200501N003110450019N0500001N1+02421+02231101031ADDAA106000091GF108991041061004501021999MA1999999100001MD1999999+0101REMSYN070AAXX  17184 82392 32499 80506 10242 20223 30000 40103 8462/ 333 58010;EQDQ01  00002PRCP06
0221823920999992003031800004-03700-040350FM-12+008399999V0200501N000519999999N0040001N1+02321+02271101121ADDAY161061AY261061GF108991999021004501001001KA1240M+03031MA1999999100091MD1999999-0251MW1031REMSYN100AAXX  18004 82392 21496 80501 10232 20227 30009 40112 70366 83200 333 10303 29093 55020 59025 60041;EQDQ01+000032SCOTLC
0162823920999992003031812004-03700-040350FM-12+008399999V0202301N001010042019N0500001N1+02501+02251101281ADDGF106991051051004501031001KA1240N+02201MA1999999100251MD1999999-0111REMSYN082AAXX  18124 82392 22499 62302 10250 20225 30025 40128 85530 333 20220 59011 60044;
0171823920999992003031818004-03700-040350FM-12+008399999V0200501N001010042019N0500001N1+03031+02361100881ADDAY101061AY261061GF107991051071004501031001MA1999999099861MD1999999-0141MW1291REMSYN082AAXX  18184 82392 21499 70502 10303 20236 39986 40088 72906 85730 333 59014 60061;
0167823920999992003031918004-03700-040350FM-12+008399999V0200501N001010042019N0500001N1+03021+02161100921ADDAA106000091GF106991051021004501031001MA1999999099901MD1999999+0041REMSYN070AAXX  19184 82392 32499 60502 10302 20216 39990 40092 85230 333 58004;EQDQ01  00002PRCP06
0214823920999992003032000004-03700-040350FM-12+008399999V0200501N001019999999N0040001N1+02541+02441101201ADDAA106000091GF107991999021004501001001KA1240M+03161MA1999999100181MD1999999-0051REMSYN088AAXX  20004 82392 32496 70502 10254 20244 30018 40120 83200 333 10316 29082 55089 59005;EQDQ01+000032SCOTLCQ02  00002PRCP06
0186823920999992003032012004-03700-040350FM-12+008399999V0201801N000510450019N0500001N1+02741+02261101431ADDAA106000091GF107991041041004501011001KA1240N+02321MA1999999100411MD1999999+0031REMSYN076AAXX  20124 82392 32499 71801 10274 20226 30041 40143 84410 333 20232 58003;EQDQ01  00002PRCP06
0171823920999992003032018004-03700-040350FM-12+008399999V0201801N001510042019N0100001N1+02491+02451101131ADDAY161061AY261061GF108991081071004501999999MA1999999100101MD1999999+0101MW1921REMSYN082AAXX  20184 82392 21497 81803 10249 20245 30010 40113 79266 887// 333 58010 60341;
0202823920999992003032100004-03700-040350FM-12+008399999V0209999C000010450019N0040001N1+02301+02251101411ADDAY161061AY221061GF108991031071004501021999KA1240M+03021MA1999999100381MD1999999+0201MW1021REMSYN100AAXX  21004 82392 21496 80000 10230 20225 30038 40141 70262 8372/ 333 10302 29091 55018 58020 60381;
0162823920999992003032112004-03700-040350FM-12+008399999V0200501N001010450019N0500001N1+02521+02431101431ADDGF108991041071004501021999KA1240N+02221MA1999999100401MD1999999-0011REMSYN082AAXX  21124 82392 22499 80502 10252 20243 30040 40143 8472/ 333 20222 59001 60724;
0167823920999992003032118004-03700-040350FM-12+008399999V0200501N001010042019N0500001N1+02701+02371100951ADDAA106000091GF108991061071004501021999MA1999999099921MD1999999-0081REMSYN070AAXX  21184 82392 32499 80502 10270 20237 39992 40095 8672/ 333 59008;EQDQ01  00002PRCP06
0162823920999992003032812004-03700-040350FM-12+008399999V0209999C000010450019N0500001N1+02721+02501101321ADDGF106991041041004501031001KA1240N+02411MA1999999100301MD1999999+0141REMSYN082AAXX  28124 82392 22499 60000 10272 20250 30030 40132 84430 333 20241 58014 60014;
0171823920999992003032818004-03700-040350FM-12+008399999V0203601N001010450019N0500001N1+02781+02541100951ADDAY161061AY261061GF106991031091004501031051MA1999999099931MD1999999+0011MW1021REMSYN082AAXX  28184 82392 21499 63602 10278 20254 39993 40095 70266 83935 333 58001 60041;
0209823920999992003032912004-03700-040350FM-12+008399999V0200501N000510042019N0500001N1+02691+02481101261ADDAY161061AY261061GF107991999021004501001001KA1240N+02361MA1999999100241MD1999999-0061MW1021REMSYN088AAXX  29124 82392 21499 70501 10269 20248 30024 40126 70266 86200 333 20236 59006 60074;EQDQ01+000062SCOTLC
0171823920999992003032918004-03700-040350FM-12+008399999V0209999C000010042019N0020001N1+02421+02301101081ADDAY101061AY201061GF108991051051004501999999MA1999999100051MD1999999+0121MW1621REMSYN082AAXX  29184 82392 21495 80000 10242 20230 30005 40108 76200 855// 333 58012 60241;
0221823920999992003033000004-03700-040350FM-12+008399999V0201801N000510075019N0040001N1+02411+02391101061ADDAY161061AY261061GF108991999051008001021001KA1240M+02941MA1999999100041MD1999999-0161MW1021REMSYN100AAXX  30004 82392 21596 81801 10241 20239 30004 40106 70266 88520 333 10294 29019 55095 59016 60011;EQDQ01+000082SCOTLC
0162823920999992003033012004-03700-040350FM-12+008399999V0202301N000512200019N0500001N1+02541+02471101151ADDGF104991031021004501031001KA1240N+02311MA1999999100121MD1999999-0121REMSYN082AAXX  30124 82392 22499 42301 10254 20247 30012 40115 83230 333 20231 59012 60254;
0202823920999992003033100004-03700-040350FM-12+008399999V0209999C000012200019N0040001N1+02421+02331101071ADDAY161061AY261061GF102991021001004501031001KA1240M+03081MA1999999100041MD1999999+0001MW1021REMSYN100AAXX  31004 82392 21496 20000 10242 20233 30004 40107 70266 82030 333 10308 29096 55047 58000 60051;
0162823920999992003033112004-03700-040350FM-12+008399999V0200501N002110450019N0500001N1+02641+02441101151ADDGF105991041021004501031001KA1240N+02291MA1999999100121MD1999999+0001REMSYN082AAXX  31124 82392 22499 50504 10264 20244 30012 40115 84230 333 20229 58000 60344;
0167823920999992003033118004-03700-040350FM-12+008399999V0200501N001010450019N0500001N1+03001+02321100701ADDAA106000091GF107991041051004501031001MA1999999099681MD1999999-0081REMSYN070AAXX  31184 82392 32499 70502 10300 20232 39968 40070 84530 333 59008;EQDQ01  00002PRCP06
0202823920999992003040100004-03700-040350FM-12+008399999V0203601N000510042019N0040001N1+02501+02451101131ADDAY161061AY261061GF108991061051004501021999KA1240M+03191MA1999999100111MD1999999+0071MW1021REMSYN100AAXX  01004 82392 21496 83601 10250 20245 30011 40113 70266 8652/ 333 10319 29088 55072 58007 60021;
0162823920999992003040112004-03700-040350FM-12+008399999V0200901N001012200019N0500001N1+02721+02451101281ADDGF103991031021004501001001KA1240N+02391MA1999999100261MD1999999+0141REMSYN082AAXX  01124 82392 22499 30902 10272 20245 30026 40128 83200 333 20239 58014 60024;
0171823920999992003040118004-03700-040350FM-12+008399999V0203601N000510042019N0500001N1+02591+02391101031ADDAY161061AY261061GF108991061051004501011999MA1999999100001MD1999999-0111MW1021REMSYN082AAXX  01184 82392 21499 83601 10259 20239 30000 40103 70266 8651/ 333 59011 60101;
0198823920999992003040200004-03700-040350FM-12+008399999V0203601N000510450019N0040001N1+02411+02351101311ADDAA106000091GF105991021051004501031001KA1240M+02881MA1999999100291MD1999999-0181REMSYN088AAXX  02004 82392 32496 53601 10241 20235 30029 40131 82530 333 10288 29091 55031 59018;EQDQ01  00002PRCP06
0162823920999992003040212004-03700-040350FM-12+008399999V0202301N001012200019N0500001N1+02681+02351101331ADDGF103991031021004501001001KA1240N+02321MA1999999100301MD1999999+0041REMSYN082AAXX  02124 82392 22499 32302 10268 20235 30030 40133 83200 333 20232 58004 60104;
0171823920999992003040218004-03700-040350FM-12+008399999V0209999C000010450019N0500001N1+02501+02431101031ADDAY161061AY221061GF108991031061004501021999MA1999999100001MD1999999+0001MW1021REMSYN082AAXX  02184 82392 21499 80000 10250 20243 30000 40103 70262 8362/ 333 58000 60101;
0221823920999992003040300004-03700-040350FM-12+008399999V0209999C000012200019N0040001N1+02381+02351101301ADDAY161061AY261061GF103991999021004501001001KA1240M+03081MA1999999100271MD1999999-0021MW1021REMSYN100AAXX  03004 82392 21496 30000 10238 20235 30027 40130 70266 81200 333 10308 29094 55048 59002 60041;EQDQ01+000012SCOTLC
0162823920999992003040312004-03700-040350FM-12+008399999V0202701N000512200019N0500001N1+02661+02371101201ADDGF103991031011004501001001KA1240N+02201MA1999999100171MD1999999-0131REMSYN082AAXX  03124 82392 22499 32701 10266 20237 30017 40120 83100 333 20220 59013 60144;
0199823920999992003040318004-03700-040350FM-12+008399999V0200901N000510450019N0500001N1+03181+02411100761ADDAA106000091GF106991041021004501031001MA1999999999999MD1999999-0261REMSYN070AAXX  03184 82392 32499 60901 10318 20241 35974 40076 84230 333 59026;EQDQ01+059743APOSP Q02  00002PRCP06Q03 059743APOSP 
0198823920999992003040400004-03700-040350FM-12+008399999V0200501N001512200019N0040001N1+02601+02531101021ADDAA106000091GF102991021001004501031001KA1240M+03201MA1999999100001MD1999999-0271REMSYN088AAXX  04004 82392 32496 20503 10260 20253 30000 40102 82030 333 10320 29085 55102 59027;EQDQ01  00002PRCP06
0186823920999992003040412004-03700-040350FM-12+008399999V0201401N001012200019N0500001N1+02721+02301101121ADDAA106000091GF103991031011004501001001KA1240N+02291MA1999999100101MD1999999-0071REMSYN076AAXX  04124 82392 32499 31402 10272 20230 30010 40112 83100 333 20229 59007;EQDQ01  00002PRCP06
0171823920999992003040418004-03700-040350FM-12+008399999V0203601N000510042019N0200001N1+02621+02511100761ADDAY161061AY261061GF108991051061004501021999MA1999999099731MD1999999-0011MW1651REMSYN082AAXX  04184 82392 21498 83601 10262 20251 39973 40076 76566 8562/ 333 59001 60141;
0221823920999992003040500004-03700-040350FM-12+008399999V0209999C000019999999N0040001N1+02421+02351101121ADDAY161061AY261061GF106991999021004501001001KA1240M+03041MA1999999100101MD1999999+0101MW1031REMSYN100AAXX  05004 82392 21496 60000 10242 20235 30010 40112 70366 84200 333 10304 29091 55040 58010 60171;EQDQ01+000042SCOTLC
0162823920999992003040512004-03700-040350FM-12+008399999V0203201N000510042019N0500001N1+02521+02451101281ADDGF107991061051004501031001KA1240N+02281MA1999999100251MD1999999+0151REMSYN082AAXX  05124 82392 22499 73201 10252 20245 30025 40128 86530 333 20228 58015 60314;
0167823920999992003040518004-03700-040350FM-12+008399999V0200501N001012200019N0500001N1+02901+02301100861ADDAA106000091GF104991031011004501031001MA1999999099841MD1999999+0111REMSYN070AAXX  05184 82392 32499 40502 10290 20230 39984 40086 83130 333 58011;EQDQ01  00002PRCP06
0202823920999992003040612004-03700-040350FM-12+008399999V0203601N000519999999N0500001N1+02791+02401101281ADDAA106000091GF106991999011008001001001KA1240N+02191MA1999999100261MD1999999+0011REMSYN076AAXX  06124 82392 32599 63601 10279 20240 30026 40128 82100 333 20219 58001;EQDQ01+000022SCOTLCQ02  00002PRCP06
0183823920999992003040618004-03700-040350FM-12+008399999V0203201N000519999999N0500001N1+03041+02381100871ADDAA106000091GF106991999021004501001001MA1999999099851MD1999999+0011REMSYN070AAXX  06184 82392 32499 63201 10304 20238 39985 40087 84200 333 58001;EQDQ01+000042SCOTLCQ02  00002PRCP06
0198823920999992003040700004-03700-040350FM-12+008399999V0203601N000510450019N0500001N1+02521+02331101151ADDAA106000091GF106991031041004501031001KA1240M+03111MA1999999100131MD1999999-0071REMSYN088AAXX  07004 82392 32499 63601 10252 20233 30013 40115 83430 333 10311 29081 55085 59007;EQDQ01  00002PRCP06
0186823920999992003040712004-03700-040350FM-12+008399999V0202301N001012200019N0500001N1+02641+02371101141ADDAA106000091GF101991011011004501001001KA1240N+02301MA1999999100121MD1999999-0141REMSYN076AAXX  07124 82392 32499 12302 10264 20237 30012 40114 81100 333 20230 59014;EQDQ01  00002PRCP06
0167823920999992003040718004-03700-040350FM-12+008399999V0200901N001012200019N0500001N1+03201+02271100611ADDAA106000091GF101991011011004501001001MA1999999099601MD1999999-0251REMSYN070AAXX  07184 82392 32499 10902 10320 20227 39960 40061 81100 333 59025;EQDQ01  00002PRCP06
0198823920999992003040800004-03700-040350FM-12+008399999V0200501N000510450019N0500001N1+02531+02421100971ADDAA106000091GF108991041041004501021999KA1240M+03261MA1999999099951MD1999999-0181REMSYN088AAXX  08004 82392 32499 80501 10253 20242 39995 40097 8442/ 333 10326 29082 55089 59018;EQDQ01  00002PRCP06
0190823920999992003040812004-03700-040350FM-12+008399999V0200501N001010450019N0500001N1+02661+02391101121ADDAY161061AY221061GF105991041021004501031001KA1240N+02401MA1999999100101MD1999999-0021MW1021REMSYN088AAXX  08124 82392 21499 50502 10266 20239 30010 40112 70262 84230 333 20240 59002 60024;
0171823920999992003040818004-03700-040350FM-12+008399999V0200501N000510042019N0500001N1+02591+02441100751ADDAY161061AY261061GF107991051071004501031001MA1999999099721MD1999999+0121MW1021REMSYN082AAXX  08184 82392 21499 70501 10259 20244 39972 40075 70266 85730 333 58012 60041;
0202823920999992003040900004-03700-040350FM-12+008399999V0200901N000510450019N0040001N1+02461+02411101071ADDAY161061AY261061GF106991031021004501011001KA1240M+03131MA1999999100051MD1999999-0101MW1021REMSYN100AAXX  09004 82392 21496 60901 10246 20241 30005 40107 70266 83210 333 10313 29093 55051 59010 69941;
0162823920999992003040912004-03700-040350FM-12+008399999V0201801N000512200019N0500001N1+02681+02451101221ADDGF103991031011004501001001KA1240N+02311MA1999999100201MD1999999+0101REMSYN082AAXX  09124 82392 22499 31801 10268 20245 30020 40122 83100 333 20231 58010 60044;
0167823920999992003040918004-03700-040350FM-12+008399999V0200901N001012200019N0500001N1+03121+02141100871ADDAA106000091GF103991031021004501001001MA1999999099851MD1999999+0131REMSYN070AAXX  09184 82392 32499 30902 10312 20214 39985 40087 83200 333 58013;EQDQ01  00002PRCP06
0221823920999992003041000004-03700-040350FM-12+008399999V0200501N000519999999N0040001N1+02521+02431101201ADDAY161061AY261061GF107991999021008001001001KA1240M+03231MA1999999100181MD1999999+0131MW1021REMSYN100AAXX  10004 82392 21596 70501 10252 20243 30018 40120 70266 83200 333 10323 29083 55080 58013 69961;EQDQ01+000032SCOTLC
0162823920999992003041012004-03700-040350FM-12+008399999V0209999C000010042019N0200001N1+02561+02421101381ADDGF108991051051004501011999KA1240N+02401MA1999999100351MD1999999+0151REMSYN082AAXX  10124 82392 22498 80000 10256 20242 30035 40138 8551/ 333 20240 58015 69964;
0171823920999992003041018004-03700-040350FM-12+008399999V0203601N000510450019N0500001N1+02581+02441101061ADDAY161061AY261061GF108991041051004501011999MA1999999100031MD1999999+0181MW1021REMSYN082AAXX  10184 82392 21499 83601 10258 20244 30003 40106 70266 8451/ 333 58018 60101;
0194823920999992003041100004-03700-040350FM-12+008399999V0200501N001019999999N0040001N1+02401+02331101281ADDAA106000091GF108991999021004501001001KA1240M+02821MA1999999100251REMSYN082AAXX  11004 82392 32496 80502 10240 20233 30025 40128 84200 333 10282 29094 55003;EQDQ01+000042SCOTLCQ02  00002PRCP06
0162823920999992003041112004-03700-040350FM-12+008399999V0202301N001510450019N0500001N1+02561+02351101291ADDGF106991041051004501031001KA1240N+02291MA1999999100261MD1999999-0091REMSYN082AAXX  11124 82392 22499 62303 10256 20235 30026 40129 84530 333 20229 59009 60104;
0167823920999992003041118004-03700-040350FM-12+008399999V0203601N000510450019N0500001N1+02941+02401100951ADDAA106000091GF106991031051004501031021MA1999999099931MD1999999-0101REMSYN070AAXX  11184 82392 32499 63601 10294 20240 39993 40095 83532 333 59010;EQDQ01  00002PRCP06
0198823920999992003041200004-03700-040350FM-12+008399999V0200501N001512200019N0040001N1+02501+02451101231ADDAA106000091GF102991021001004501031001KA1240M+03001MA1999999100201MD1999999-0051REMSYN088AAXX  12004 82392 32496 20503 10250 20245 30020 40123 82030 333 10300 29089 55020 59005;EQDQ01  00002PRCP06
0183823920999992003041218004-03700-040350FM-12+008399999V0200901N000519999999N0500001N1+03171+02331101001ADDAA106000091GF106991999021004501001001MA1999999099981MD1999999+0051REMSYN070AAXX  12184 82392 32499 60901 10317 20233 39998 40100 83200 333 58005;EQDQ01+000032SCOTLCQ02  00002PRCP06
0202823920999992003041300004-03700-040350FM-12+008399999V0200501N002110450019N0040001N1+02541+02381101331ADDAY161061AY261061GF106991011021004501011001KA1240M+03191MA1999999100321MD1999999+0111MW1021REMSYN100AAXX  13004 82392 21496 60504 10254 20238 30032 40133 70266 81210 333 10319 29083 55081 58011 60021;
0162823920999992003041312004-03700-040350FM-12+008399999V0200501N002612200019N0500001N1+02801+02421101531ADDGF102991021011004501001001KA1240N+02361MA1999999100501MD1999999+0201REMSYN082AAXX  13124 82392 22499 20505 10280 20242 30050 40153 82100 333 20236 58020 60024;
0167823920999992003041318004-03700-040350FM-12+008399999V0200501N003112200019N0500001N1+03021+02341101161ADDAA106000091GF103991021011004501031001MA1999999100141MD1999999+0161REMSYN070AAXX  13184 82392 32499 30506 10302 20234 30014 40116 82130 333 58016;EQDQ01  00002PRCP06
0198823920999992003041400004-03700-040350FM-12+008399999V0200501N001512200019N0040001N1+02501+02431101491ADDAA106000091GF102991021001004501031001KA1240M+03201MA1999999100461MD1999999+0151REMSYN088AAXX  14004 82392 32496 20503 10250 20243 30046 40149 82030 333 10320 29085 55091 58015;EQDQ01  00002PRCP06
0186823920999992003041412004-03700-040350FM-12+008399999V0200901N001012200019N0500001N1+02721+02301101481ADDAA106000091GF102991021021004501001001KA1240N+02191MA1999999100451MD1999999-0051REMSYN076AAXX  14124 82392 32499 20902 10272 20230 30045 40148 82200 333 20219 59005;EQDQ01  00002PRCP06
0186823920999992003041512004-03700-040350FM-12+008399999V0200501N000510042019N0500001N1+02661+02481101401ADDAA106000091GF107991051051004501031001KA1240N+02281MA1999999100381MD1999999-0071REMSYN076AAXX  15124 82392 32499 70501 10266 20248 30038 40140 85530 333 20228 59007;EQDQ01  00002PRCP06
0167823920999992003041518004-03700-040350FM-12+008399999V0201801N000510450019N0500001N1+03071+02471100941ADDAA106000091GF106991031021004501031011MA1999999099921MD1999999-0041REMSYN070AAXX  15184 82392 32499 61801 10307 20247 39992 40094 83231 333 59004;EQDQ01  00002PRCP06
0198823920999992003041600004-03700-040350FM-12+008399999V0203601N000512200019N0040001N1+02531+02381101161ADDAA106000091GF102991011021004501031001KA1240M+03191MA1999999100141MD1999999-0171REMSYN088AAXX  16004 82392 32496 23601 10253 20238 30014 40116 81230 333 10319 29086 55060 59017;EQDQ01  00002PRCP06
0186823920999992003041612004-03700-040350FM-12+008399999V0201401N000510450019N0500001N1+02781+02401101351ADDAA106000091GF106991041021004501031001KA1240N+02311MA1999999100331MD1999999-0051REMSYN076AAXX  16124 82392 32499 61401 10278 20240 30033 40135 84230 333 20231 59005;EQDQ01  00002PRCP06
0167823920999992003041618004-03700-040350FM-12+008399999V0201401N001012200019N0500001N1+03201+02211100881ADDAA106000091GF103991031021004501001001MA1999999099861MD1999999-0061REMSYN070AAXX  16184 82392 32499 31402 10320 20221 39986 40088 83200 333 59006;EQDQ01  00002PRCP06
0198823920999992003041700004-03700-040350FM-12+008399999V0203601N000511050019N0040001N1+02491+02451101181ADDAA106000091GF106991021011004501001071KA1240M+03261MA1999999100161MD1999999+0021REMSYN088AAXX  17004 82392 32496 63601 10249 20245 30016 40118 82107 333 10326 29083 55087 58002;EQDQ01  00002PRCP06
0186823920999992003041712004-03700-040350FM-12+008399999V0203201N000510450019N0500001N1+02721+02481101341ADDAA106000091GF106991041041004501031001KA1240N+02301MA1999999100021MD1999999-0011REMSYN076AAXX  17124 82392 32499 63201 10272 20248 30002 40134 84430 333 20230 59001;EQDQ01  00002PRCP06
0202823920999992003041800004-03700-040350FM-12+008399999V0200501N002612200019N0040001N1+02501+02431101241ADDAY161061AY221061GF102991021001004501031001KA1240M+03201MA1999999100221MD1999999+0061MW1021REMSYN100AAXX  18004 82392 21496 20505 10250 20243 30022 40124 70262 82030 333 10320 29085 55084 58006 60041;
0162823920999992003041812004-03700-040350FM-12+008399999V0201401N000510450019N0500001N1+02701+02431101321ADDGF105991041021004501031001KA1240N+02301MA1999999100301MD1999999-0021REMSYN082AAXX  18124 82392 22499 51401 10270 20243 30030 40132 84230 333 20230 59002 60044;
0167823920999992003041818004-03700-040350FM-12+008399999V0209999C000010450019N0500001N1+03141+02401100901ADDAA106000091GF105991031021004501031001MA1999999099881MD1999999-0041REMSYN070AAXX  18184 82392 32499 50000 10314 20240 39988 40090 83230 333 59004;EQDQ01  00002PRCP06
0202823920999992003041900004-03700-040350FM-12+008399999V0200501N000512200019N0040001N1+02401+02331101271ADDAY151061AY221061GF104991031011004501031001KA1240M+03221MA1999999100251MD1999999+0031MW1021REMSYN100AAXX  19004 82392 21496 40501 10240 20233 30025 40127 70252 83130 333 10322 29086 55095 58003 69941;
0190823920999992003041912004-03700-040350FM-12+008399999V0200901N001010450019N0500001N1+02421+02371101391ADDAY121061AY221061GF108991041061004501021999KA1240N+02391MA1999999100361MD1999999+0061MW1211REMSYN088AAXX  19124 82392 21499 80902 10242 20237 30036 40139 72122 8462/ 333 20239 58006 60034;
0171823920999992003041918004-03700-040350FM-12+008399999V0203201N000510042019N0500001N1+02501+02411101061ADDAY161061AY261061GF108991051071004501021999MA1999999100031MD1999999+0151MW1211REMSYN082AAXX  19184 82392 21499 83201 10250 20241 30003 40106 72166 8572/ 333 58015 60091;
0202823920999992003042000004-03700-040350FM-12+008399999V0202301N000512200019N0040001N1+02401+02331101251ADDAY161061AY261061GF103991031011004501001001KA1240M+02981MA1999999100221MD1999999-0031MW1031REMSYN100AAXX  20004 82392 21496 32301 10240 20233 30022 40125 70366 83100 333 10298 29096 55026 59003 60021;
0162823920999992003042012004-03700-040350FM-12+008399999V0200901N000510042019N0500001N1+02761+02401101191ADDGF105991051021004501001001KA1240N+02301MA1999999100171MD1999999-0191REMSYN082AAXX  20124 82392 22499 50901 10276 20240 30017 40119 85200 333 20230 59019 60104;
0183823920999992003042018004-03700-040350FM-12+008399999V0201801N000512200019N0500001N1+03111+02221100242ADDAA106000091GF105991021011004501001011MA1999999099921MD1999999-0111REMSYN070AAXX  20184 82392 32499 51801 10311 20222 39992 40024 82101 333 59011;EQDQ01+100243APOSLPQ02  00002PRCP06
0198823920999992003042100004-03700-040350FM-12+008399999V0200501N000512200019N0040001N1+02501+02411100981ADDAA106000091GF102991021021004501001001KA1240M+03131MA1999999099961MD1999999-0261REMSYN088AAXX  21004 82392 32496 20501 10250 20241 39996 40098 82200 333 10313 29083 55101 59026;EQDQ01  00002PRCP06
0186823920999992003042112004-03700-040350FM-12+008399999V0201801N001012200019N0500001N1+02761+02381101181ADDAA106000091GF103991031011004501001001KA1240N+02251MA1999999100161MD1999999-0011REMSYN076AAXX  21124 82392 32499 31802 10276 20238 30016 40118 83100 333 20225 59001;EQDQ01  00002PRCP06
0167823920999992003042118004-03700-040350FM-12+008399999V0200501N002612200019N0500001N1+03121+02251100881ADDAA106000091GF102991021011004501001001MA1999999099861MD1999999-0061REMSYN070AAXX  21184 82392 32499 20505 10312 20225 39986 40088 82100 333 59006;EQDQ01  00002PRCP06
0198823920999992003042200004-03700-040350FM-12+008399999V0200501N000510042019N0040001N1+02501+02411101101ADDAA106000091GF108991081051004501999999KA1240M+03171MA1999999100081MD1999999+0121REMSYN088AAXX  22004 82392 32496 80501 10250 20241 30008 40110 885// 333 10317 29083 55104 58012;EQDQ01  00002PRCP06
0190823920999992003042212004-03700-040350FM-12+008399999V0202301N001010450019N0500001N1+02561+02401101281ADDAY161061AY221061GF105991041021004501031001KA1240N+02201MA1999999100251MD1999999+0091MW1021REMSYN088AAXX  22124 82392 21499 52302 10256 20240 30025 40128 70262 84230 333 20220 58009 60104;
0167823920999992003042218004-03700-040350FM-12+008399999V0201401N000512200019N0500001N1+02981+02121100861ADDAA106000091GF105991021011004501001011MA1999999099841MD1999999-0021REMSYN070AAXX  22184 82392 32499 51401 10298 20212 39984 40086 82101 333 59002;EQDQ01  00002PRCP06
0198823920999992003042300004-03700-040350FM-12+008399999V0200501N000510042019N0040001N1+02541+02381101111ADDAA106000091GF106991061051004501001001KA1240M+03081MA1999999100091MD1999999+0011REMSYN088AAXX  23004 82392 32496 60501 10254 20238 30009 40111 86500 333 10308 29083 55077 58001;EQDQ01  00002PRCP06
0186823920999992003042312004-03700-040350FM-12+008399999V0202301N001012200019N0500001N1+02681+02331101221ADDAA106000091GF102991021001004501031001KA1240N+02281MA1999999100201MD1999999-0051REMSYN076AAXX  23124 82392 32499 22302 10268 20233 30020 40122 82030 333 20228 59005;EQDQ01  00002PRCP06
0167823920999992003042318004-03700-040350FM-12+008399999V0200501N001512200019N0500001N1+02981+02251100921ADDAA106000091GF104991041021004501001001MA1999999099901MD1999999+0061REMSYN070AAXX  23184 82392 32499 40503 10298 20225 39990 40092 84200 333 58006;EQDQ01  00002PRCP06
0198823920999992003042400004-03700-040350FM-12+008399999V0200501N000510450019N0040001N1+02531+02421101161ADDAA106000091GF105991021021004501031001KA1240M+03091MA1999999100141MD1999999+0051REMSYN088AAXX  24004 82392 32496 50501 10253 20242 30014 40116 82230 333 10309 29083 55067 58005;EQDQ01  00002PRCP06
0190823920999992003042412004-03700-040350FM-12+008399999V0202701N000510042019N0500001N1+02561+02461101201ADDAY161061AY261061GF107991051051004501031001KA1240N+02381MA1999999100181MD1999999-0021MW1021REMSYN088AAXX  24124 82392 21499 72701 10256 20246 30018 40120 70266 85530 333 20238 59002 60014;
0167823920999992003042418004-03700-040350FM-12+008399999V0202701N000510042019N0500001N1+02681+02411100961ADDAA106000091GF107991051051004501031001MA1999999099931MD1999999+0031REMSYN070AAXX  24184 82392 32499 72701 10268 20241 39993 40096 85530 333 58003;EQDQ01  00002PRCP06
0221823920999992003042500004-03700-040350FM-12+008399999V0203201N000519999999N0040001N1+02421+02351101151ADDAY161061AY261061GF107991999021004501001001KA1240M+03001MA1999999100121MD1999999-0021MW1031REMSYN100AAXX  25004 82392 21496 73201 10242 20235 30012 40115 70366 84200 333 10300 29093 55005 59002 60041;EQDQ01+000042SCOTLC
0162823920999992003042512004-03700-040350FM-12+008399999V0202301N000512200019N0500001N1+02621+02571101281ADDGF104991031051004501031001KA1240N+02191MA1999999100251MD1999999+0071REMSYN082AAXX  25124 82392 22499 42301 10262 20257 30025 40128 83530 333 20219 58007 60044;
0167823920999992003042518004-03700-040350FM-12+008399999V0203601N000510042019N0500001N1+02721+02501100971ADDAA106000091GF108991051051004501021999MA1999999099941MD1999999+0011REMSYN070AAXX  25184 82392 32499 83601 10272 20250 39994 40097 8552/ 333 58001;EQDQ01  00002PRCP06
0221823920999992003042600004-03700-040350FM-12+008399999V0202701N000519999999N0040001N1+02361+02311101451ADDAY161061AY261061GF106991999041004501001001KA1240M+02981MA1999999100421MD1999999+0301MW1031REMSYN100AAXX  26004 82392 21496 62701 10236 20231 30042 40145 70366 83400 333 10298 29095 55033 58030 60141;EQDQ01+000032SCOTLC
0190823920999992003042612004-03700-040350FM-12+008399999V0209999C000010042019N0500001N1+02601+02331101401ADDAY151061AY251061GF106991061021004501001001KA1240N+02301MA1999999100371MD1999999+0131MW1021REMSYN088AAXX  26124 82392 21499 60000 10260 20233 30037 40140 70255 86200 333 20230 58013 60154;
0167823920999992003042618004-03700-040350FM-12+008399999V0200901N000510450019N0500001N1+02961+02331101111ADDAA106000091GF106991041051008001031001MA1999999100091MD1999999+0151REMSYN070AAXX  26184 82392 32599 60901 10296 20233 30009 40111 84530 333 58015;EQDQ01  00002PRCP06
0214823920999992003042700004-03700-040350FM-12+008399999V0209999C000012200019N0040001N1+02461+02371101371ADDAA106000091GF104991999021008001001001KA1240M+03041MA1999999100351MD1999999-0021REMSYN088AAXX  27004 82392 32596 40000 10246 20237 30035 40137 82200 333 10304 29086 55056 59002;EQDQ01+000022SCOTLCQ02  00002PRCP06
0186823920999992003042712004-03700-040350FM-12+008399999V0201401N001012200019N0500001N1+02781+02501101421ADDAA106000091GF104991031021004501031001KA1240N+02211MA1999999100401MD1999999+0031REMSYN076AAXX  27124 82392 32499 41402 10278 20250 30040 40142 83230 333 20221 58003;EQDQ01  00002PRCP06
0167823920999992003042718004-03700-040350FM-12+008399999V0201401N001010042019N0500001N1+02701+02371101071ADDAA106000091GF107991051051004501031001MA1999999100041MD1999999-0051REMSYN070AAXX  27184 82392 32499 71402 10270 20237 30004 40107 85530 333 59005;EQDQ01  00002PRCP06
0202823920999992003042800004-03700-040350FM-12+008399999V0209999C000010450019N0040001N1+02401+02331101461ADDAY151061AY221061GF108991041071004501021999KA1240M+03121MA1999999100441MD1999999+0091MW1031REMSYN100AAXX  28004 82392 21496 80000 10240 20233 30044 40146 70352 8472/ 333 10312 29090 55070 58009 60011;
0162823920999992003042812004-03700-040350FM-12+008399999V0201401N001512200019N0500001N1+02601+02421101361ADDGF103991021011004501031001KA1240N+02191MA1999999100331MD1999999-0071REMSYN082AAXX  28124 82392 22499 31403 10260 20242 30033 40136 82130 333 20219 59007 60014;
0167823920999992003042818004-03700-040350FM-12+008399999V0200901N002110450019N0500001N1+02881+02461100971ADDAA106000091GF107991041051004501011001MA1999999099951MD1999999-0091REMSYN070AAXX  28184 82392 32499 70904 10288 20246 39995 40097 84510 333 59009;EQDQ01  00002PRCP06
0221823920999992003042900004-03700-040350FM-12+008399999V0209999C000019999999N0040001N1+02361+02331101321ADDAY161061AY261061GF105991999051004501001001KA1240M+03001MA1999999100291MD1999999-0151MW1021REMSYN100AAXX  29004 82392 21496 50000 10236 20233 30029 40132 70266 82500 333 10300 29091 55037 59015 60131;EQDQ01+000022SCOTLC
0162823920999992003042912004-03700-040350FM-12+008399999V0200901N000510042019N0500001N1+02601+02511101431ADDGF106991051051004501031001KA1240N+02241MA1999999100401MD1999999+0071REMSYN082AAXX  29124 82392 22499 60901 10260 20251 30040 40143 85530 333 20224 58007 60134;
0171823920999992003042918004-03700-040350FM-12+008399999V0209999C000010042019N0500001N1+02491+02401101051ADDAY101061AY221061GF108991061051004501011999MA1999999100021MD1999999+0071MW1211REMSYN082AAXX  29184 82392 21499 80000 10249 20240 30002 40105 72102 8651/ 333 58007 60011;
0202823920999992003043000004-03700-040350FM-12+008399999V0209999C000010042019N0040001N1+02431+02411101341ADDAY161061AY261061GF108991061051004501011999KA1240M+03081MA1999999100311MD1999999+0021MW1021REMSYN100AAXX  30004 82392 21496 80000 10243 20241 30031 40134 70266 8651/ 333 10308 29096 55047 58002 60011;
0162823920999992003043012004-03700-040350FM-12+008399999V0202301N001010042019N0500001N1+02601+02531101391ADDGF106991051041004501031001KA1240N+02261MA1999999100361MD1999999-0041REMSYN082AAXX  30124 82392 22499 62302 10260 20253 30036 40139 85430 333 20226 59004 60024;
0171823920999992003043018004-03700-040350FM-12+008399999V0200501N002110450019N0500001N1+02601+02461101031ADDAY161061AY221061GF107991031051004501011001MA1999999100001MD1999999-0021MW1021REMSYN082AAXX  30184 82392 21499 70504 10260 20246 30000 40103 70262 83510 333 59002 60071;
0221823920999992003050100004-03700-040350FM-12+008399999V0200501N000510042019N0040001N1+02691+02371101401ADDAY161061AY261061GF108991999021004501001001KA1240M+03011MA1999999100371MD1999999+0081MW1021REMSYN100AAXX  01004 82392 21496 80501 10269 20237 30037 40140 70266 85200 333 10301 29096 55039 58008 60021;EQDQ01+000052SCOTLC
0162823920999992003050112004-03700-040350FM-12+008399999V0200501N001010042019N0500001N1+02641+02391101511ADDGF107991051051004501031001KA1240N+02341MA1999999100471MD1999999+0111REMSYN082AAXX  01124 82392 22499 70502 10264 20239 30047 40151 85530 333 20234 58011 60094;
0171823920999992003050118004-03700-040350FM-12+008399999V0200901N000510450019N0500001N1+02761+02381101051ADDAY161061AY261061GF106991031051004501011021MA1999999100031MD1999999+0031MW1021REMSYN082AAXX  01184 82392 21499 60901 10276 20238 30003 40105 70266 83512 333 58003 60011;
0208823920999992003050200004-03700-040350FM-12+008399999V0200501N000512200019N0040001N1+02401+02301101331ADDAA106000091GA1001+999999999GF100991001001999999001001KA1240M+02781MA1999999100301MD1999999-0071REMSYN082AAXX  02004 82392 32996 00501 10240 20230 30030 40133 333 10278 29089 55005 59007;EQDQ01  00002PRCP06
0181823920999992003050212004-03700-040350FM-12+008399999V0200901N001019999999N0500001N1+02621+02421101431ADDGF107991999051004501001001KA1240N+02181MA1999999100401MD1999999-0071REMSYN082AAXX  02124 82392 22499 70902 10262 20242 30040 40143 84500 333 20218 59007 60014;EQDQ01+000042SCOTLC
0167823920999992003050218004-03700-040350FM-12+008399999V0200901N001012200019N0500001N1+02871+02371101031ADDAA106000091GF104991041021004501001001MA1999999100001MD1999999-0031REMSYN070AAXX  02184 82392 32499 40902 10287 20237 30000 40103 84200 333 59003;EQDQ01  00002PRCP06
0214823920999992003050300004-03700-040350FM-12+008399999V0200501N001019999999N0040001N1+02401+02311101231ADDAA106000091GF106991999021004501001001KA1240M+02961MA1999999100201MD1999999-0101REMSYN088AAXX  03004 82392 32496 60502 10240 20231 30020 40123 84200 333 10296 29088 55002 59010;EQDQ01+000042SCOTLCQ02  00002PRCP06
0186823920999992003050312004-03700-040350FM-12+008399999V0202301N000510042019N0500001N1+02701+02331101271ADDAA106000091GF106991051021004501031001KA1240N+02281MA1999999100251MD1999999-0151REMSYN076AAXX  03124 82392 32499 62301 10270 20233 30025 40127 85230 333 20228 59015;EQDQ01  00002PRCP06
0167823920999992003050318004-03700-040350FM-12+008399999V0200501N001510450019N0500001N1+02981+02511100941ADDAA106000091GF106991041021004501031001MA1999999099921MD1999999-0081REMSYN070AAXX  03184 82392 32499 60503 10298 20251 39992 40094 84230 333 59008;EQDQ01  00002PRCP06
0202823920999992003050400004-03700-040350FM-12+008399999V0209999C000010450019N0040001N1+02401+02351101261ADDAY151061AY221061GF108991041071004501021999KA1240M+03061MA1999999100261MD1999999+0061MW1031REMSYN100AAXX  04004 82392 21496 80000 10240 20235 30026 40126 70352 8472/ 333 10306 29087 55026 58006 69941;
0209823920999992003050412004-03700-040350FM-12+008399999V0201801N000519999999N0500001N1+02661+02501101291ADDAY161061AY261061GF106991999041004501001001KA1240N+02261MA1999999100261MD1999999+0011MW1021REMSYN088AAXX  04124 82392 21499 61801 10266 20250 30026 40129 70266 84400 333 20226 58001 60034;EQDQ01+000042SCOTLC
0183823920999992003050418004-03700-040350FM-12+008399999V0203601N001019999999N0500001N1+02711+02471100921ADDAA106000091GF106991999011008001001001MA1999999099891MD1999999+0031REMSYN070AAXX  04184 82392 32599 63602 10271 20247 39989 40092 82100 333 58003;EQDQ01+000022SCOTLCQ02  00002PRCP06
0198823920999992003050500004-03700-040350FM-12+008399999V0209999C000010075019N0040001N1+02461+02361101271ADDAA106000091GF108991051051008001011999KA1240M+03121MA1999999100251MD1999999-0011REMSYN088AAXX  05004 82392 32596 80000 10246 20236 30025 40127 8551/ 333 10312 29091 55059 59001;EQDQ01  00002PRCP06
0186823920999992003050512004-03700-040350FM-12+008399999V0200501N002612200019N0500001N1+02781+02401101351ADDAA106000091GF103991031021004501001001KA1240N+02251MA1999999100331MD1999999+0071REMSYN076AAXX  05124 82392 32499 30505 10278 20240 30033 40135 83200 333 20225 58007;EQDQ01  00002PRCP06
0171823920999992003050518004-03700-040350FM-12+008399999V0200501N003110450019N0500001N1+02441+02271101081ADDAY161061AY221061GF108991031061004501021999MA1999999100051MD1999999+0161MW1021REMSYN082AAXX  05184 82392 21499 80506 10244 20227 30005 40108 70262 8362/ 333 58016 60011;
0198823920999992003050600004-03700-040350FM-12+008399999V0200501N000512200019N0040001N1+02341+02291101271ADDAA106000091GF102991021061004501001001KA1240M+02941MA1999999100251MD1999999+0001REMSYN088AAXX  06004 82392 32496 20501 10234 20229 30025 40127 82600 333 10294 29055 55055 58000;EQDQ01  00002PRCP06
0162823920999992003050612004-03700-040350FM-12+008399999V0200901N001012200019N0500001N1+02681+02411101371ADDGF104991031021004501031001KA1240N+02041MA1999999100341MD1999999+0011REMSYN082AAXX  06124 82392 22499 40902 10268 20241 30034 40137 83230 333 20204 58001 60014;
0171823920999992003050618004-03700-040350FM-12+008399999V0203601N001011050019N0500001N1+02781+02361100971ADDAY151061AY251061GF105991041051004501001021MA1999999099941MD1999999-0111MW1021REMSYN082AAXX  06184 82392 21499 53602 10278 20236 39994 40097 70255 84502 333 59011 69911;
0212823920999992003050700004-03700-040350FM-12+008399999V0209999C000012200019N0040001N1+02341+02291101101ADDAY161061AY261061GA1001+999999999GF100991001001999999001001KA1240M+03121MA1999999100071MD1999999-0181MW1021REMSYN094AAXX  07004 82392 21996 00000 10234 20229 30007 40110 70266 333 10312 29089 55092 59018 60081;
0190823920999992003050712004-03700-040350FM-12+008399999V0202301N001010450019N0500001N1+02521+02341101261ADDAY151061AY261061GF105991041021004501031001KA1240N+02001MA1999999100231MD1999999-0111MW1021REMSYN088AAXX  07124 82392 21499 52302 10252 20234 30023 40126 70256 84230 333 20200 59011 60094;
0167823920999992003050718004-03700-040350FM-12+008399999V0200501N001512200019N0500001N1+03101+02231100921ADDAA106000091GF104991031051004501031001MA1999999099901MD1999999-0041REMSYN070AAXX  07184 82392 32499 40503 10310 20223 39990 40092 83530 333 59004;EQDQ01  00002PRCP06
0198823920999992003050800004-03700-040350FM-12+008399999V0200501N000512200019N0040001N1+02381+02291101131ADDAA106000091GF102991021011008001001001KA1240M+03141MA1999999100101MD1999999+0031REMSYN088AAXX  08004 82392 32596 20501 10238 20229 30010 40113 82100 333 10314 29085 55098 58003;EQDQ01  00002PRCP06
0186823920999992003050812004-03700-040350FM-12+008399999V0200501N000512200019N0500001N1+02781+02401101231ADDAA106000091GF102991021021004501001001KA1240N+02001MA1999999100211MD1999999-0021REMSYN076AAXX  08124 82392 32499 20501 10278 20240 30021 40123 82200 333 20200 59002;EQDQ01  00002PRCP06
0167823920999992003050818004-03700-040350FM-12+008399999V0200901N000512200019N0500001N1+03071+02321100901ADDAA106000091GF104991041021004501001001MA1999999099881MD1999999-0021REMSYN070AAXX  08184 82392 32499 40901 10307 20232 39988 40090 84200 333 59002;EQDQ01  00002PRCP06
0214823920999992003050900004-03700-040350FM-12+008399999V0200501N001012200019N0040001N1+02461+02371101271ADDAA106000091GF102991999021008001001001KA1240M+03201MA1999999100251MD1999999+0151REMSYN088AAXX  09004 82392 32596 20502 10246 20237 30025 40127 83200 333 10320 29083 55095 58015;EQDQ01+000032SCOTLCQ02  00002PRCP06
0186823920999992003050912004-03700-040350FM-12+008399999V0201801N001012200019N0500001N1+02661+02291101481ADDAA106000091GF102991021011004501001001KA1240N+02021MA1999999100451MD1999999+0241REMSYN076AAXX  09124 82392 32499 21802 10266 20229 30045 40148 82100 333 20202 58024;EQDQ01  00002PRCP06
0167823920999992003050918004-03700-040350FM-12+008399999V0201801N000510450019N0500001N1+02841+02311101041ADDAA106000091GF106991041051004501031001MA1999999100011MD1999999+0131REMSYN070AAXX  09184 82392 32499 61801 10284 20231 30001 40104 84530 333 58013;EQDQ01  00002PRCP06
0198823920999992003051000004-03700-040350FM-12+008399999V0200501N001012200019N0040001N1+02401+02311101331ADDAA106000091GF101991011001008001031001KA1240M+03181MA1999999100301MD1999999+0051REMSYN088AAXX  10004 82392 32596 10502 10240 20231 30030 40133 81030 333 10318 29086 55077 58005;EQDQ01  00002PRCP06
0202823920999992003051012004-03700-040350FM-12+008399999V0200901N000519999999N0500001N1+02761+02441101521ADDAA106000091GF106991999021004501001001KA1240N+02301MA1999999100491MD1999999+0041REMSYN076AAXX  10124 82392 32499 60901 10276 20244 30049 40152 83200 333 20230 58004;EQDQ01+000032SCOTLCQ02  00002PRCP06
0183823920999992003051018004-03700-040350FM-12+008399999V0203201N000519999999N0500001N1+03041+02431101071ADDAA106000091GF106991999021004501001001MA1999999100051MD1999999+0041REMSYN070AAXX  10184 82392 32499 63201 10304 20243 30005 40107 83200 333 58004;EQDQ01+000032SCOTLCQ02  00002PRCP06
0198823920999992003051100004-03700-040350FM-12+008399999V0200501N000512200019N0040001N1+02421+02331101381ADDAA106000091GF103991011021004501031011KA1240M+03071MA1999999100361MD1999999+0061REMSYN088AAXX  11004 82392 32496 30501 10242 20233 30036 40138 81231 333 10307 29086 55064 58006;EQDQ01  00002PRCP06
0186823920999992003051112004-03700-040350FM-12+008399999V0202301N000512200019N0500001N1+02541+02361101541ADDAA106000091GF101991011011004501001001KA1240N+02101MA1999999100501MD1999999+0011REMSYN076AAXX  11124 82392 32499 12301 10254 20236 30050 40154 81100 333 20210 58001;EQDQ01  00002PRCP06
0167823920999992003051118004-03700-040350FM-12+008399999V0202301N001012200019N0500001N1+03181+02011101131ADDAA106000091GF101991011011004501001001MA1999999100111MD1999999+0061REMSYN070AAXX  11184 82392 32499 12302 10318 20201 30011 40113 81100 333 58006;EQDQ01  00002PRCP06
0208823920999992003051200004-03700-040350FM-12+008399999V0200501N001512200019N0040001N1+02401+02331101431ADDAA106000091GA1001+999999999GF100991001001999999001001KA1240M+03201MA1999999100401MD1999999+0041REMSYN082AAXX  12004 82392 32496 00503 10240 20233 30040 40143 333 10320 29083 55100 58004;EQDQ01  00002PRCP06
0186823920999992003051212004-03700-040350FM-12+008399999V0202301N001010450019N0500001N1+02701+02371101531ADDAA106000091GF106991041041004501031001KA1240N+02201MA1999999100501MD1999999+0001REMSYN076AAXX  12124 82392 32499 62302 10270 20237 30050 40153 84430 333 20220 58000;EQDQ01  00002PRCP06
0167823920999992003051218004-03700-040350FM-12+008399999V0200901N001010450019N0500001N1+03081+02211101121ADDAA106000091GF105991041041004501031001MA1999999100101MD1999999-0011REMSYN070AAXX  12184 82392 32499 50902 10308 20221 30010 40112 84430 333 59001;EQDQ01  00002PRCP06
0214823920999992003051300004-03700-040350FM-12+008399999V0203601N000519999999N0040001N1+02441+02301101391ADDAA106000091GF105991999011004501001001KA1240M+03181MA1999999100371MD1999999-0031REMSYN088AAXX  13004 82392 32496 53601 10244 20230 30037 40139 82100 333 10318 29082 55069 59003;EQDQ01+000022SCOTLCQ02  00002PRCP06
0186823920999992003051312004-03700-040350FM-12+008399999V0200901N001512200019N0500001N1+02701+02371101421ADDAA106000091GF104991041021004501001001KA1240N+02201MA1999999100401MD1999999-0101REMSYN076AAXX  13124 82392 32499 40903 10270 20237 30040 40142 84200 333 20220 59010;EQDQ01  00002PRCP06
0171823920999992003051318004-03700-040350FM-12+008399999V0200901N000510450019N0500001N1+03021+02391100971ADDAY151061AY251061GF105991031021004501021001MA1999999099951MD1999999-0151MW1021REMSYN082AAXX  13184 82392 21499 50901 10302 20239 39995 40097 70255 83220 333 59015 69921;
0214823920999992003051400004-03700-040350FM-12+008399999V0209999C000010450019N0040001N1+02441+02341101311ADDAA106000091GF107991021021004501011001KA1240M+99999MA1999999100291MD1999999-0081REMSYN088AAXX  14004 82392 32496 70000 10244 20234 30029 40131 82210 333 10218 29085 55076 59008;EQDQ01  00002PRCP06Q02 +02182ATMX  
0162823920999992003051412004-03700-040350FM-12+008399999V0201401N002110042019N0500001N1+02781+02421101401ADDGF106991051051004501031001KA1240N+02181MA1999999100381MD1999999-0021REMSYN082AAXX  14124 82392 22499 61404 10278 20242 30038 40140 85530 333 20218 59002 69924;
0167823920999992003051418004-03700-040350FM-12+008399999V0200501N002610450019N0500001N1+02901+02301100961ADDAA106000091GF106991041041004501031001MA1999999099941MD1999999-0011REMSYN070AAXX  14184 82392 32499 60505 10290 20230 39994 40096 84430 333 59001;EQDQ01  00002PRCP06
0214823920999992003051500004-03700-040350FM-12+008399999V0200501N000519999999N0040001N1+02461+02411101291ADDAA106000091GF107991999021004501001001KA1240M+03021MA1999999100241MD1999999-0051REMSYN088AAXX  15004 82392 32496 70501 10246 20241 30024 40129 82200 333 10302 29087 55033 59005;EQDQ01+000022SCOTLCQ02  00002PRCP06
0186823920999992003051512004-03700-040350FM-12+008399999V0200901N001010450019N0500001N1+02861+02371101281ADDAA106000091GF106991021021004501031011KA1240N+02301MA1999999100261MD1999999-0121REMSYN076AAXX  15124 82392 32499 60902 10286 20237 30026 40128 82231 333 20230 59012;EQDQ01  00002PRCP06
0167823920999992003051518004-03700-040350FM-12+008399999V0200901N000510450019N0500001N1+02941+02311100971ADDAA106000091GF107991041051004501031001MA1999999099951MD1999999+0011REMSYN070AAXX  15184 82392 32499 70901 10294 20231 39995 40097 84530 333 58001;EQDQ01  00002PRCP06
0198823920999992003051600004-03700-040350FM-12+008399999V0200501N001510450019N0040001N1+02561+02421101261ADDAA106000091GF108991031051004501021999KA1240M+03101MA1999999100241MD1999999+0001REMSYN088AAXX  16004 82392 32496 80503 10256 20242 30024 40126 8352/ 333 10310 29082 55059 58000;EQDQ01  00002PRCP06
0190823920999992003051612004-03700-040350FM-12+008399999V0200901N001010450019N0500001N1+02681+02111101321ADDAY161061AY221061GF106991041041004501031001KA1240N+02221MA1999999100301MD1999999+0041MW1021REMSYN088AAXX  16124 82392 21499 60902 10268 20211 30030 40132 70262 84430 333 20222 58004 60054;
0167823920999992003051618004-03700-040350FM-12+008399999V0201801N001010450019N0500001N1+02991+02321100881ADDAA106000091GF107991031051004501031001MA1999999099861MD1999999-0091REMSYN070AAXX  16184 82392 32499 71802 10299 20232 39986 40088 83530 333 59009;EQDQ01  00002PRCP06
0198823920999992003051700004-03700-040350FM-12+008399999V0200501N001010450019N0040001N1+02521+02381101191ADDAA106000091GF106991041051004501031001KA1240M+03001MA1999999100161MD1999999-0081REMSYN088AAXX  17004 82392 32496 60502 10252 20238 30016 40119 84530 333 10300 29080 55013 59008;EQDQ01  00002PRCP06
0186823920999992003051712004-03700-040350FM-12+008399999V0200501N003112200019N0500001N1+02821+02241101171ADDAA106000091GF102991021021004501001001KA1240N+02401MA1999999100151MD1999999-0151REMSYN076AAXX  17124 82392 32499 20506 10282 20224 30015 40117 82200 333 20240 59015;EQDQ01  00002PRCP06
0167823920999992003051718004-03700-040350FM-12+008399999V0200501N002612200019N0500001N1+03101+01941100861ADDAA106000091GF101991011011004501001001MA1999999099841MD1999999-0021REMSYN070AAXX  17184 82392 32499 10505 10310 20194 39984 40086 81100 333 59002;EQDQ01  00002PRCP06
0208823920999992003051800004-03700-040350FM-12+008399999V0200501N001012200019N0040001N1+02381+02261101121ADDAA106000091GA1001+999999999GF100991001001999999001001KA1240M+03161MA1999999100101MD1999999-0061REMSYN082AAXX  18004 82392 32996 00502 10238 20226 30010 40112 333 10316 29077 55104 59006;EQDQ01  00002PRCP06
0202823920999992003051812004-03700-040350FM-12+008399999V0201401N000519999999N0500001N1+02801+02221101211ADDAA106000091GF105991999021004501001001KA1240N+02161MA1999999100191MD1999999+0041REMSYN076AAXX  18124 82392 32499 51401 10280 20222 30019 40121 82200 333 20216 58004;EQDQ01+000022SCOTLCQ02  00002PRCP06
0167823920999992003051818004-03700-040350FM-12+008399999V0200501N000510450019N0500001N1+03161+02201100871ADDAA106000091GF107991021011004501021011MA1999999099851MD1999999+0011REMSYN070AAXX  18184 82392 32499 70501 10316 20220 39985 40087 82121 333 58001;EQDQ01  00002PRCP06
0214823920999992003051900004-03700-040350FM-12+008399999V0203601N002119999999N0040001N1+02461+02301101201ADDAA106000091GF106991999021008001001001KA1240M+03161MA1999999100181MD1999999+0081REMSYN088AAXX  19004 82392 32596 63604 10246 20230 30018 40120 83200 333 10316 29078 55072 58008;EQDQ01+000032SCOTLCQ02  00002PRCP06
0186823920999992003051912004-03700-040350FM-12+008399999V0201401N001510450019N0500001N1+02701+02131101321ADDAA106000091GF107991041051004501011001KA1240N+02301MA1999999100301MD1999999+0111REMSYN076AAXX  19124 82392 32499 71403 10270 20213 30030 40132 84510 333 20230 58011;EQDQ01  00002PRCP06
0167823920999992003051918004-03700-040350FM-12+008399999V0209999C000010450019N0500001N1+02801+02461101061ADDAA106000091GF108991031071004501021999MA1999999100041MD1999999+0191REMSYN070AAXX  19184 82392 32499 80000 10280 20246 30004 40106 8372/ 333 58019;EQDQ01  00002PRCP06
0198823920999992003052000004-03700-040350FM-12+008399999V0209999C000012200019N0040001N1+02361+02261101221ADDAA106000091GF102991021001008001011001KA1240M+02771MA1999999100191MD1999999+0011REMSYN088AAXX  20004 82392 32596 20000 10236 20226 30019 40122 82010 333 10277 29082 55006 58001;EQDQ01  00002PRCP06
0186823920999992003052012004-03700-040350FM-12+008399999V0202301N000510042019N0500001N1+02501+02361101351ADDAA106000091GF107991051051004501031001KA1240N+02121MA1999999100321MD1999999+0021REMSYN076AAXX  20124 82392 32499 72301 10250 20236 30032 40135 85530 333 20212 58002;EQDQ01  00002PRCP06
0167823920999992003052018004-03700-040350FM-12+008399999V0200901N000510450019N0500001N1+02991+02221101021ADDAA106000091GF106991021011004501021011MA1999999100001MD1999999-0041REMSYN070AAXX  20184 82392 32499 60901 10299 20222 30000 40102 82121 333 59004;EQDQ01  00002PRCP06
0214823920999992003052100004-03700-040350FM-12+008399999V0209999C000019999999N0040001N1+02431+02271101261ADDAA106000091GF106991999041004501001001KA1240M+03081MA1999999101232MD1999999+0041REMSYN088AAXX  21004 82392 32496 60000 10243 20227 30123 40126 82400 333 10308 29084 55044 58004;EQDQ01+000022SCOTLCQ02  00002PRCP06
0186823920999992003052112004-03700-040350FM-12+008399999V0202301N001012200019N0500001N1+02761+02161101301ADDAA106000091GF101991011011004501001001KA1240N+02281MA1999999100281MD1999999-0041REMSYN076AAXX  21124 82392 32499 12302 10276 20216 30028 40130 81100 333 20228 59004;EQDQ01  00002PRCP06
0171823920999992003052118004-03700-040350FM-12+008399999V0200901N002110042019N0500001N1+02941+02381101021ADDAY121061AY261061GF106991051051004501031001MA1999999100001MD1999999+0001MW1021REMSYN082AAXX  21184 82392 21499 60904 10294 20238 30000 40102 70226 85530 333 58000 60031;
0198823920999992003052200004-03700-040350FM-12+008399999V0209999C000012200019N0040001N1+02381+02291101201ADDAA106000091GF103991011011004501031001KA1240M+03161MA1999999100181MD1999999-0051REMSYN088AAXX  22004 82392 32496 30000 10238 20229 30018 40120 81130 333 10316 29083 55092 59005;EQDQ01  00002PRCP06
0162823920999992003052212004-03700-040350FM-12+008399999V0209999C000011050019N0500001N1+02711+02391101391ADDGF105991021011004501031011KA1240N+02061MA1999999100371MD1999999+0091REMSYN082AAXX  22124 82392 22499 50000 10271 20239 30037 40139 82131 333 20206 58009 60034;
0167823920999992003052218004-03700-040350FM-12+008399999V0200901N000510450019N0500001N1+03041+02311101021ADDAA106000091GF106991021021004501031001MA1999999100001MD1999999+0001REMSYN070AAXX  22184 82392 32499 60901 10304 20231 30000 40102 82230 333 58000;EQDQ01  00002PRCP06
0208823920999992003052300004-03700-040350FM-12+008399999V0200501N000512200019N0040001N1+02401+02311101341ADDAA106000091GA1001+999999999GF100991001001999999001001KA1240M+03201MA1999999100321MD1999999+0141REMSYN082AAXX  23004 82392 32596 00501 10240 20231 30032 40134 333 10320 29084 55086 58014;EQDQ01  00002PRCP06
0186823920999992003052312004-03700-040350FM-12+008399999V0200901N001012200019N0500001N1+02741+02361101421ADDAA106000091GF104991031021004501031001KA1240N+02141MA1999999100401MD1999999+0031REMSYN076AAXX  23124 82392 32499 40902 10274 20236 30040 40142 83230 333 20214 58003;EQDQ01  00002PRCP06
0167823920999992003052318004-03700-040350FM-12+008399999V0200901N000512200019N0500001N1+03211+02171100981ADDAA106000091GF104991041021004501001001MA1999999099961MD1999999-0041REMSYN070AAXX  23184 82392 32499 40901 10321 20217 39996 40098 84200 333 59004;EQDQ01  00002PRCP06
0208823920999992003052400004-03700-040350FM-12+008399999V0209999C000012200019N0040001N1+02501+02341101261ADDAA106000091GA1001+999999999GF100991001001999999001001KA1240M+03281MA1999999100241MD1999999-0081REMSYN082AAXX  24004 82392 32996 00000 10250 20234 30024 40126 333 10328 29079 55090 59008;EQDQ01  00002PRCP06
0186823920999992003052412004-03700-040350FM-12+008399999V0200901N001012200019N0500001N1+02761+02381101291ADDAA106000091GF104991041021004501001001KA1240N+02081MA1999999100271MD1999999-0131REMSYN076AAXX  24124 82392 32499 40902 10276 20238 30027 40129 84200 333 20208 59013;EQDQ01  00002PRCP06
0183823920999992003052418004-03700-040350FM-12+008399999V0200901N001019999999N0500001N1+03221+02201100801ADDAA106000091GF106991999011004501001001MA1999999099781MD1999999-0181REMSYN070AAXX  24184 82392 32499 60902 10322 20220 39978 40080 82100 333 59018;EQDQ01+000022SCOTLCQ02  00002PRCP06
0208823920999992003052500004-03700-040350FM-12+008399999V0203601N000512200019N0040001N1+02461+02271101011ADDAA106000091GA1001+999999999GF100991001001999999001001KA1240M+03261MA1999999099991MD1999999-0251REMSYN082AAXX  25004 82392 32996 03601 10246 20227 39999 40101 333 10326 29078 55090 59025;EQDQ01  00002PRCP06
0186823920999992003052512004-03700-040350FM-12+008399999V0202301N001010042019N0500001N1+02641+02351101321ADDAA106000091GF106991051021004501031001KA1240N+02201MA1999999100301MD1999999+0031REMSYN076AAXX  25124 82392 32499 62302 10264 20235 30030 40132 85230 333 20220 58003;EQDQ01  00002PRCP06
0167823920999992003052518004-03700-040350FM-12+008399999V0200501N001512200019N0500001N1+03281+02001100921ADDAA106000091GF101991011011004501001001MA1999999099901MD1999999+0121REMSYN070AAXX  25184 82392 32499 10503 10328 20200 39990 40092 81100 333 58012;EQDQ01  00002PRCP06
0208823920999992003052600004-03700-040350FM-12+008399999V0200501N001012200019N0040001N1+02481+02321101141ADDAA106000091GA1001+999999999GF100991001001999999001001KA1240M+03321MA1999999100121MD1999999+0131REMSYN082AAXX  26004 82392 32996 00502 10248 20232 30012 40114 333 10332 29078 55093 58013;EQDQ01  00002PRCP06
0202823920999992003052612004-03700-040350FM-12+008399999V0202701N000512200019N0040001N1+02681+02351101361ADDAA106000091GF103991999011004501001001KA1240N+02181MA1999999100341MD1999999+0041REMSYN076AAXX  26124 82392 32496 32701 10268 20235 30034 40136 82100 333 20218 58004;EQDQ01+000022SCOTLCQ02  00002PRCP06
0167823920999992003052618004-03700-040350FM-12+008399999V0200501N001512200019N0500001N1+03321+02141100981ADDAA106000091GF103991021011004501031001MA1999999099961MD1999999+0061REMSYN070AAXX  26184 82392 32499 30503 10332 20214 39996 40098 82130 333 58006;EQDQ01  00002PRCP06
0208823920999992003052700004-03700-040350FM-12+008399999V0209999C000012200019N0040001N1+02511+02341101351ADDAA106000091GA1001+999999999GF100991001001999999001001KA1240M+03321MA1999999100331MD1999999+0211REMSYN082AAXX  27004 82392 32996 00000 10251 20234 30033 40135 333 10332 29078 55092 58021;EQDQ01  00002PRCP06
0186823920999992003052712004-03700-040350FM-12+008399999V0200901N002612200019N0500001N1+02801+02341101581ADDAA106000091GF104991031021004501031001KA1240N+02181MA1999999100551MD1999999+0211REMSYN076AAXX  27124 82392 32499 40905 10280 20234 30055 40158 83230 333 20218 58021;EQDQ01  00002PRCP06
0167823920999992003052718004-03700-040350FM-12+008399999V0203601N001012200019N0500001N1+03261+02211101231ADDAA106000091GF104991021011004501001011MA1999999100211MD1999999+0251REMSYN070AAXX  27184 82392 32499 43602 10326 20221 30021 40123 82101 333 58025;EQDQ01  00002PRCP06
0198823920999992003052800004-03700-040350FM-12+008399999V0203601N000512200019N0040001N1+02571+02371101421ADDAA106000091GF104991021011004501031001KA1240M+03341MA1999999100401MD1999999+0071REMSYN088AAXX  28004 82392 32496 43601 10257 20237 30040 40142 82130 333 10334 29077 55091 58007;EQDQ01  00002PRCP06
0186823920999992003052812004-03700-040350FM-12+008399999V0201401N001512200019N0500001N1+02721+02301101531ADDAA106000091GF102991021011004501001001KA1240N+02121MA1999999100501MD1999999-0051REMSYN076AAXX  28124 82392 32499 21403 10272 20230 30050 40153 82100 333 20212 59005;EQDQ01  00002PRCP06
0167823920999992003052818004-03700-040350FM-12+008399999V0200901N001012200019N0500001N1+03241+01861101121ADDAA106000091GF101991011011004501001001MA1999999100101MD1999999-0111REMSYN070AAXX  28184 82392 32499 10902 10324 20186 30010 40112 81100 333 59011;EQDQ01  00002PRCP06
0208823920999992003052900004-03700-040350FM-12+008399999V0203601N000512200019N0040001N1+02561+02291101371ADDAA106000091GA1001+999999999GF100991001001999999001001KA1240M+03321MA1999999100351MD1999999-0051REMSYN082AAXX  29004 82392 32996 03601 10256 20229 30035 40137 333 10332 29073 55098 59005;EQDQ01  00002PRCP06
0186823920999992003052912004-03700-040350FM-12+008399999V0200901N000512200019N0500001N1+02781+02341101451ADDAA106000091GF104991021011004501031001KA1240N+02191MA1999999100421MD1999999-0081REMSYN076AAXX  29124 82392 32499 40901 10278 20234 30042 40145 82130 333 20219 59008;EQDQ01  00002PRCP06
0167823920999992003052918004-03700-040350FM-12+008399999V0203601N000510450019N0500001N1+03201+02301101001ADDAA106000091GF106991041051004501031001MA1999999099981MD1999999-0121REMSYN070AAXX  29184 82392 32499 63601 10320 20230 39998 40100 84530 333 59012;EQDQ01  00002PRCP06
0198823920999992003053000004-03700-040350FM-12+008399999V0200501N001012200019N0040001N1+02481+02411101401ADDAA106000091GF103991031011004501001001KA1240M+03221MA1999999100381MD1999999+0031REMSYN088AAXX  30004 82392 32496 30502 10248 20241 30038 40140 83100 333 10322 29082 55068 58003;EQDQ01  00002PRCP06
0186823920999992003053012004-03700-040350FM-12+008399999V0202301N000512200019N0500001N1+02701+02241101481ADDAA106000091GF102991021011004501001001KA1240N+02201MA1999999100451MD1999999+0031REMSYN076AAXX  30124 82392 32499 22301 10270 20224 30045 40148 82100 333 20220 58003;EQDQ01  00002PRCP06
0171823920999992003053018004-03700-040350FM-12+008399999V0200901N000510042019N0500001N1+02741+02401101101ADDAY101061AY221061GF107991051051004501031001MA1999999100071MD1999999+0091MW1211REMSYN082AAXX  30184 82392 21499 70901 10274 20240 30007 40110 72102 85530 333 58009 60011;
0179823920999992003053100004-03700-040350FM-12+008399999V0200501N001012200019N0040001N1+02421+02351101391ADDAA106000021GF102991021001008001031001KA1240M+03161MA1999999100371MD1999999-0011REMSYN088AAXX  31004 82392 32596 20502 10242 20235 30037 40139 82030 333 10316 29087 55042 59001;
0162823920999992003053112004-03700-040350FM-12+008399999V0201401N000510450019N0500001N1+02681+02411101581ADDGF105991041041004501031001KA1240N+02201MA1999999100551MD1999999+0101REMSYN082AAXX  31124 82392 22499 51401 10268 20241 30055 40158 84430 333 20220 58010 60014;
0167823920999992003053118004-03700-040350FM-12+008399999V0200901N002110042019N0500001N1+03281+02161101181ADDAA106000091GF107991051051004501031001MA1999999100161MD1999999+0091REMSYN070AAXX  31184 82392 32499 70904 10328 20216 30016 40118 85530 333 58009;EQDQ01  00002PRCP06
0202823920999992003060100004-03700-040350FM-12+008399999V0200501N001510450019N0040001N1+02481+02411101491ADDAY161061AY221061GF105991041041004501031001KA1240M+03321MA1999999100461MD1999999+0091MW1031REMSYN100AAXX  01004 82392 21496 50503 10248 20241 30046 40149 70362 84430 333 10332 29082 55052 58009 60051;
0162823920999992003060112004-03700-040350FM-12+008399999V0201401N000510450019N0500001N1+02721+02321101521ADDGF105991031041004501031001KA1240N+02241MA1999999100491MD1999999-0061REMSYN082AAXX  01124 82392 22499 51401 10272 20232 30049 40152 83430 333 20224 59006 60054;
0171823920999992003060118004-03700-040350FM-12+008399999V0209999C000010075019N0040001N1+02861+02441101121ADDAY161061AY261061GF106991051021008001031001MA1999999100101MD1999999-0061MW1021REMSYN082AAXX  01184 82392 21596 60000 10286 20244 30010 40112 70266 85230 333 59006 60021;
0214823920999992003060200004-03700-040350FM-12+008399999V0200501N000512200019N0040001N1+02481+02281101381ADDAA106000091GF104991999021008001001001KA1240M+03101MA1999999100361MD1999999-0101REMSYN088AAXX  02004 82392 32596 40501 10248 20228 30036 40138 83200 333 10310 29084 55075 59010;EQDQ01+000032SCOTLCQ02  00002PRCP06
0167823920999992003060218004-03700-040350FM-12+008399999V0200901N002610450019N0500001N1+03081+01981101081ADDAA106000091GF106991041041004501031001MA1999999100061MD1999999-0041REMSYN070AAXX  02184 82392 32499 60905 10308 20198 30006 40108 84430 333 59004;EQDQ01  00002PRCP06
0208823920999992003060300004-03700-040350FM-12+008399999V0203601N000512200019N0040001N1+02401+02231101271ADDAA106000091GA1001+999999999GF100991001001999999001001KA1240M+03141MA1999999100241MD1999999-0121REMSYN082AAXX  03004 82392 32996 03601 10240 20223 30024 40127 333 10314 29079 55068 59012;EQDQ01  00002PRCP06
0186823920999992003060312004-03700-040350FM-12+008399999V0201801N001012200019N0500001N1+02601+02251101391ADDAA106000091GF102991021011004501001001KA1240N+02021MA1999999100361MD1999999-0091REMSYN076AAXX  03124 82392 32499 21802 10260 20225 30036 40139 82100 333 20202 59009;EQDQ01  00002PRCP06
0167823920999992003060318004-03700-040350FM-12+008399999V0209999C000010450019N0500001N1+03201+02181100891ADDAA106000091GF105991041021004501031001MA1999999099871MD1999999-0191REMSYN070AAXX  03184 82392 32499 50000 10320 20218 39987 40089 84230 333 59019;EQDQ01  00002PRCP06
0208823920999992003060400004-03700-040350FM-12+008399999V0203601N000512200019N0040001N1+02531+02291101171ADDAA106000091GA1001+999999999GF100991001001999999001001KA1240M+03291MA1999999100151MD1999999-0091REMSYN082AAXX  04004 82392 32996 03601 10253 20229 30015 40117 333 10329 29077 55093 59009;EQDQ01  00002PRCP06
0186823920999992003060412004-03700-040350FM-12+008399999V0202301N001010450019N0500001N1+02641+02271101341ADDAA106000091GF106991041041004501031001KA1240N+02081MA1999999100321MD1999999-0041REMSYN076AAXX  04124 82392 32499 62302 10264 20227 30032 40134 84430 333 20208 59004;EQDQ01  00002PRCP06
0167823920999992003060418004-03700-040350FM-12+008399999V0200901N001510450019N0500001N1+03101+02091101021ADDAA106000091GF106991041051004501031001MA1999999100001MD1999999-0131REMSYN070AAXX  04184 82392 32499 60903 10310 20209 30000 40102 84530 333 59013;EQDQ01  00002PRCP06
0202823920999992003060500004-03700-040350FM-12+008399999V0209999C000010450019N0040001N1+02471+02271101231ADDAY151061AY251061GF107991041051004501031001KA1240M+03221MA1999999100211MD1999999+0061MW1021REMSYN100AAXX  05004 82392 21496 70000 10247 20227 30021 40123 70255 84530 333 10322 29078 55035 58006 69931;
0162823920999992003060512004-03700-040350FM-12+008399999V0201801N000510042019N0500001N1+02601+02271101401ADDGF108991071051004501031001KA1240N+02141MA1999999100371MD1999999+0051REMSYN082AAXX  05124 82392 22499 81801 10260 20227 30037 40140 87530 333 20214 58005 69934;
0171823920999992003060518004-03700-040350FM-12+008399999V0202601N001010042019N0500001N1+02521+02271101161ADDAY161061AY261061GF108991061051004501021999MA1999999100131MD1999999+0131MW1021REMSYN082AAXX  05184 82392 21499 82602 10252 20227 30013 40116 70266 8652/ 333 58013 60021;
0202823920999992003060600004-03700-040350FM-12+008399999V0200501N000510450019N0040001N1+02301+02231101391ADDAY161061AY261061GF108991041071004501021001KA1240M+02721MA1999999100361MD1999999+0151MW1021REMSYN100AAXX  06004 82392 21496 80501 10230 20223 30036 40139 70266 84720 333 10272 29090 55006 58015 69981;
0162823920999992003060612004-03700-040350FM-12+008399999V0202301N001512200019N0500001N1+02601+02251101401ADDGF104991031021004501031001KA1240N+02041MA1999999100371MD1999999+0001REMSYN082AAXX  06124 82392 22499 42303 10260 20225 30037 40140 83230 333 20204 58000 60034;
0167823920999992003060618004-03700-040350FM-12+008399999V0201801N000512200019N0500001N1+03301+02021100901ADDAA106000091GF104991041021004501001001MA1999999099881MD1999999-0251REMSYN070AAXX  06184 82392 32499 41801 10330 20202 39988 40090 84200 333 59025;EQDQ01  00002PRCP06
0208823920999992003060700004-03700-040350FM-12+008399999V0200501N001512200019N0040001N1+02501+02361101321ADDAA106000091GA1001+999999999GF100991001001999999001001KA1240M+03301MA1999999100301MD1999999-0061REMSYN082AAXX  07004 82392 32496 00503 10250 20236 30030 40132 333 10330 29078 55091 59006;EQDQ01  00002PRCP06
0202823920999992003060712004-03700-040350FM-12+008399999V0201801N000519999999N0500001N1+02411+02261101371ADDAA106000091GF106991999021004501001001KA1240N+01911MA1999999100341MD1999999-0031REMSYN076AAXX  07124 82392 32499 61801 10241 20226 30034 40137 84200 333 20191 59003;EQDQ01+000042SCOTLCQ02  00002PRCP06
0167823920999992003060718004-03700-040350FM-12+008399999V0202301N000512200019N0500001N1+03281+02101100901ADDAA106000091GF103991031021008001001001MA1999999099881MD1999999+0001REMSYN070AAXX  07184 82392 32599 32301 10328 20210 39988 40090 83200 333 58000;EQDQ01  00002PRCP06
0198823920999992003060800004-03700-040350FM-12+008399999V0203601N000512200019N0040001N1+02581+02381101191ADDAA106000091GF102991021011008001001001KA1240M+03291MA1999999100161MD1999999-0141REMSYN088AAXX  08004 82392 32596 23601 10258 20238 30016 40119 82100 333 10329 29080 55084 59014;EQDQ01  00002PRCP06
0186823920999992003060812004-03700-040350FM-12+008399999V0201401N001012200019N0500001N1+02741+02141101291ADDAA106000091GF103991021011004501031001KA1240N+02121MA1999999100271MD1999999-0071REMSYN076AAXX  08124 82392 32499 31402 10274 20214 30027 40129 82130 333 20212 59007;EQDQ01  00002PRCP06
0167823920999992003060818004-03700-040350FM-12+008399999V0200901N001510450019N0500001N1+03081+02101100981ADDAA106000091GF106991041041004501031001MA1999999099961MD1999999+0081REMSYN070AAXX  08184 82392 32499 60903 10308 20210 39996 40098 84430 333 58008;EQDQ01  00002PRCP06
0198823920999992003060900004-03700-040350FM-12+008399999V0200501N001012200019N0040001N1+02481+02111101321ADDAA106000091GF104991031011004501031001KA1240M+03201MA1999999100301MD1999999+0141REMSYN088AAXX  09004 82392 32496 40502 10248 20211 30030 40132 83130 333 10320 29072 55050 58014;EQDQ01  00002PRCP06
0186823920999992003060912004-03700-040350FM-12+008399999V0202301N001512200019N0500001N1+02541+02211101391ADDAA106000091GF104991031011004501031001KA1240N+02101MA1999999100361MD1999999+0091REMSYN076AAXX  09124 82392 32499 42303 10254 20221 30036 40139 83130 333 20210 58009;EQDQ01  00002PRCP06
0167823920999992003060918004-03700-040350FM-12+008399999V0203601N001010450019N0500001N1+03321+01781100961ADDAA106000091GF106991041021004501031001MA1999999099941MD1999999-0021REMSYN070AAXX  09184 82392 32499 63602 10332 20178 39994 40096 84230 333 59002;EQDQ01  00002PRCP06
0214823920999992003061000004-03700-040350FM-12+008399999V0203601N000519999999N0040001N1+02671+02391101281ADDAA106000091GF106991999021008001001001KA1240M+03381MA1999999100261MD1999999-0041REMSYN088AAXX  10004 82392 32596 63601 10267 20239 30026 40128 84200 333 10338 29073 55065 59004;EQDQ01+000042SCOTLCQ02  00002PRCP06
0186823920999992003061012004-03700-040350FM-12+008399999V0201401N001010450019N0500001N1+02701+02111101421ADDAA106000091GF106991041041004501031001KA1240N+02281MA1999999100401MD1999999+0041REMSYN076AAXX  10124 82392 32499 61402 10270 20211 30040 40142 84430 333 20228 58004;EQDQ01  00002PRCP06
0198823920999992003061100004-03700-040350FM-12+008399999V0209999C000010450019N0040001N1+02421+02171101301ADDAA106000091GF106991021011004501011001KA1240M+03021MA1999999100281MD1999999+0021REMSYN088AAXX  11004 82392 32496 60000 10242 20217 30028 40130 82110 333 10302 29077 55019 58002;EQDQ01  00002PRCP06
0186823920999992003061112004-03700-040350FM-12+008399999V0202301N001010450019N0500001N1+02481+02111101431ADDAA106000091GF108991041071004501021999KA1240N+02081MA1999999100401MD1999999+0001REMSYN076AAXX  11124 82392 32499 82302 10248 20211 30040 40143 8472/ 333 20208 58000;EQDQ01  00002PRCP06
0167823920999992003061118004-03700-040350FM-12+008399999V0200901N001010450019N0500001N1+03021+01861101041ADDAA106000091GF108991031071004501021999MA1999999100021MD1999999-0051REMSYN070AAXX  11184 82392 32499 80902 10302 20186 30002 40104 8372/ 333 59005;EQDQ01  00002PRCP06
0198823920999992003061200004-03700-040350FM-12+008399999V0209999C000010450019N0040001N1+02441+02321101331ADDAA106000091GF108991041071004501011001KA1240M+03121MA1999999100301MD1999999+0021REMSYN088AAXX  12004 82392 32496 80000 10244 20232 30030 40133 84710 333 10312 29079 55010 58002;EQDQ01  00002PRCP06
0186823920999992003061212004-03700-040350FM-12+008399999V0200901N000510450019N0500001N1+02741+02301101271ADDAA106000091GF105991041041004501031001KA1240N+01941MA1999999100251MD1999999-0151REMSYN076AAXX  12124 82392 32499 50901 10274 20230 30025 40127 84430 333 20194 59015;EQDQ01  00002PRCP06
0167823920999992003061218004-03700-040350FM-12+008399999V0203601N000510450019N0500001N1+03241+02221100901ADDAA106000091GF106991041041004501031001MA1999999099881MD1999999-0141REMSYN070AAXX  12184 82392 32499 63601 10324 20222 39988 40090 84430 333 59014;EQDQ01  00002PRCP06
0198823920999992003061300004-03700-040350FM-12+008399999V0200501N002612200019N0040001N1+02501+02321101141ADDAA106000091GF102991021001008001031001KA1240M+03341MA1999999100121MD1999999-0181REMSYN088AAXX  13004 82392 32596 20505 10250 20232 30012 40114 82030 333 10334 29078 55073 59018;EQDQ01  00002PRCP06
0186823920999992003061312004-03700-040350FM-12+008399999V0201801N001010450019N0500001N1+02741+02261101181ADDAA106000091GF106991041051004501031001KA1240N+02101MA1999999100161MD1999999-0091REMSYN076AAXX  13124 82392 32499 61802 10274 20226 30016 40118 84530 333 20210 59009;EQDQ01  00002PRCP06
0167823920999992003061318004-03700-040350FM-12+008399999V0200501N000512200019N0500001N1+03461+01981100671ADDAA106000091GF103991031021004501001001MA1999999099651MD1999999-0181REMSYN070AAXX  13184 82392 32499 30501 10346 20198 39965 40067 83200 333 59018;EQDQ01  00002PRCP06
0198823920999992003061400004-03700-040350FM-12+008399999V0200501N002612200019N0040001N1+02601+02251101221ADDAA106000091GF103991031021008001001001KA1240M+03461MA1999999100201MD1999999+0081REMSYN088AAXX  14004 82392 32596 30505 10260 20225 30020 40122 83200 333 10346 29070 55082 58008;EQDQ01  00002PRCP06
0186823920999992003061412004-03700-040350FM-12+008399999V0201401N001512200019N0500001N1+02781+02061101281ADDAA106000091GF103991031021004501001001KA1240N+02121MA1999999100261MD1999999+0101REMSYN076AAXX  14124 82392 32499 31403 10278 20206 30026 40128 83200 333 20212 58010;EQDQ01  00002PRCP06
0167823920999992003061418004-03700-040350FM-12+008399999V0201401N002110450019N0500001N1+03321+01781100921ADDAA106000091GF105991041021004501031001MA1999999099901MD1999999+0251REMSYN070AAXX  14184 82392 32499 51404 10332 20178 39990 40092 84230 333 58025;EQDQ01  00002PRCP06
0198823920999992003061500004-03700-040350FM-12+008399999V0200501N002112200019N0040001N1+02521+02251101221ADDAA106000091GF102991021001008001031001KA1240M+03361MA1999999100201MD1999999+0001REMSYN088AAXX  15004 82392 32596 20504 10252 20225 30020 40122 82030 333 10336 29069 55080 58000;EQDQ01  00002PRCP06
0186823920999992003061512004-03700-040350FM-12+008399999V0200901N000510042019N0500001N1+02641+02261101301ADDAA106000091GF107991051051004501999999KA1240N+02171MA1999999100281MD1999999+0021REMSYN076AAXX  15124 82392 32499 70901 10264 20226 30028 40130 855// 333 20217 58002;EQDQ01  00002PRCP06
0171823920999992003061518004-03700-040350FM-12+008399999V0201401N000510042019N0500001N1+02981+02281100931ADDAY161061AY261061GF106991051051004501031001MA1999999099911MD1999999+0011MW1021REMSYN082AAXX  15184 82392 21499 61401 10298 20228 39991 40093 70266 85530 333 58001 60011;
0214823920999992003061600004-03700-040350FM-12+008399999V0203601N000519999999N0040001N1+02461+02361101341ADDAA106000091GF106991999021008001001001KA1240M+03381MA1999999100321MD1999999+0121REMSYN088AAXX  16004 82392 32596 63601 10246 20236 30032 40134 83200 333 10338 29082 55070 58012;EQDQ01+000032SCOTLCQ02  00002PRCP06
0186823920999992003061612004-03700-040350FM-12+008399999V0201401N001010450019N0500001N1+02601+02231101381ADDAA106000091GF106991041021004501031001KA1240N+02341MA1999999100351MD1999999+0071REMSYN076AAXX  16124 82392 32499 61402 10260 20223 30035 40138 84230 333 20234 58007;EQDQ01  00002PRCP06
0163823920999992003061618004-03700-040350FM-12+008399999V0200501N000510450019N0200001N1+02321+02251101181ADDAY121061GF108991041061004501021999MA1999999100151MD1999999+0241MW1611REMSYN082AAXX  16184 82392 21498 80501 10232 20225 30015 40118 7612/ 8462/ 333 58024 60061;
0202823920999992003061700004-03700-040350FM-12+008399999V0200901N000512200019N0040001N1+02271+02231101351ADDAY151061AY251061GF104991021061004501031001KA1240M+02801MA1999999100321MD1999999+0001MW1021REMSYN100AAXX  17004 82392 21496 40901 10227 20223 30032 40135 70255 82630 333 10280 29093 55017 58000 69931;
0162823920999992003061712004-03700-040350FM-12+008399999V0202301N001012200019N0500001N1+02561+02111101371ADDGF102991021011004501001001KA1240N+02101MA1999999100341MD1999999-0011REMSYN082AAXX  17124 82392 22499 22302 10256 20211 30034 40137 82100 333 20210 59001 60064;
0167823920999992003061718004-03700-040350FM-12+008399999V0200901N001012200019N0500001N1+03171+01871101001ADDAA106000091GF104991041021004501001001MA1999999099981MD1999999-0171REMSYN070AAXX  17184 82392 32499 40902 10317 20187 39998 40100 84200 333 59017;EQDQ01  00002PRCP06
0208823920999992003061800004-03700-040350FM-12+008399999V0200901N000512200019N0040001N1+02381+02071101261ADDAA106000091GA1001+999999999GF100991001001999999001001KA1240M+03261MA1999999100231MD1999999-0091REMSYN082AAXX  18004 82392 32996 00901 10238 20207 30023 40126 333 10326 29072 55097 59009;EQDQ01  00002PRCP06
0186823920999992003061812004-03700-040350FM-12+008399999V0201801N001012200019N0500001N1+02621+02051101391ADDAA106000091GF102991021011004501001001KA1240N+02001MA1999999100361MD1999999+0021REMSYN076AAXX  18124 82392 32499 21802 10262 20205 30036 40139 82100 333 20200 58002;EQDQ01  00002PRCP06
0167823920999992003061818004-03700-040350FM-12+008399999V0201401N001512200019N0500001N1+03321+01781101071ADDAA106000091GF104991031021004501031001MA1999999100051MD1999999+0081REMSYN070AAXX  18184 82392 32499 41403 10332 20178 30005 40107 83230 333 58008;EQDQ01  00002PRCP06
0198823920999992003061900004-03700-040350FM-12+008399999V0203601N004112200019N0040001N1+02461+02151101311ADDAA106000091GF101991011001008001011001KA1240M+03381MA1999999100281MD1999999+0051REMSYN088AAXX  19004 82392 32596 13608 10246 20215 30028 40131 81010 333 10338 29069 55095 58005;EQDQ01  00002PRCP06
0186823920999992003061912004-03700-040350FM-12+008399999V0209999C000010450019N0500001N1+02371+02271101451ADDAA106000091GF105991031041004501031001KA1240N+02021MA1999999100431MD1999999+0071REMSYN076AAXX  19124 82392 32499 50000 10237 20227 30043 40145 83430 333 20202 58007;EQDQ01  00002PRCP06
0167823920999992003061918004-03700-040350FM-12+008399999V0201401N001012200019N0500001N1+03391+01891101031ADDAA106000091GF103991031021004501001001MA1999999100011MD1999999-0051REMSYN070AAXX  19184 82392 32499 31402 10339 20189 30001 40103 83200 333 59005;EQDQ01  00002PRCP06
0208823920999992003062000004-03700-040350FM-12+008399999V0200501N002612200019N0040001N1+02421+02251101391ADDAA106000091GA1001+999999999GF100991001001999999001001KA1240M+03421MA1999999100361MD1999999+0081REMSYN082AAXX  20004 82392 32996 00505 10242 20225 30036 40139 333 10342 29075 55087 58008;EQDQ01  00002PRCP06
0186823920999992003062012004-03700-040350FM-12+008399999V0201401N001010450019N0500001N1+02681+02201101441ADDAA106000091GF106991041021004501031001KA1240N+02201MA1999999100421MD1999999-0011REMSYN076AAXX  20124 82392 32499 61402 10268 20220 30042 40144 84230 333 20220 59001;EQDQ01  00002PRCP06
0167823920999992003062018004-03700-040350FM-12+008399999V0200901N000512200019N0500001N1+03221+02051101041ADDAA106000091GF104991031021004501031001MA1999999100021MD1999999+0011REMSYN070AAXX  20184 82392 32499 40901 10322 20205 30002 40104 83230 333 58001;EQDQ01  00002PRCP06
0208823920999992003062100004-03700-040350FM-12+008399999V0200501N001012200019N0040001N1+02521+02341101381ADDAA106000091GA1001+999999999GF100991001001999999001001KA1240M+03421MA1999999100361MD1999999+0001REMSYN082AAXX  21004 82392 32996 00502 10252 20234 30036 40138 333 10342 29076 55085 58000;EQDQ01  00002PRCP06
0202823920999992003062112004-03700-040350FM-12+008399999V0201801N000519999999N0500001N1+02761+02321101511ADDAA106000091GF106991999021004501001001KA1240N+02071MA1999999100471MD1999999+0061REMSYN076AAXX  21124 82392 32499 61801 10276 20232 30047 40151 84200 333 20207 58006;EQDQ01+000042SCOTLCQ02  00002PRCP06
0183823920999992003062118004-03700-040350FM-12+008399999V0200901N001012200019N0500001N1+03241+01961101001ADDAA106000091GF104991999021004501001001MA1999999099981MD1999999-0041REMSYN070AAXX  21184 82392 32499 40902 10324 20196 39998 40100 83200 333 59004;EQDQ01+000032SCOTLCQ02  00002PRCP06
0202823920999992003062200004-03700-040350FM-12+008399999V0209999C000010450019N0040001N1+02441+02351101311ADDAY161061AY261061GF107991011011004501021001KA1240M+03391MA1999999100291MD1999999-0071MW1021REMSYN100AAXX  22004 82392 21496 70000 10244 20235 30029 40131 70266 81120 333 10339 29078 55071 59007 60041;
0162823920999992003062212004-03700-040350FM-12+008399999V0200901N000510450019N0500001N1+02621+02351101431ADDGF106991041041004501031001KA1240N+02221MA1999999100401MD1999999-0081REMSYN082AAXX  22124 82392 22499 60901 10262 20235 30040 40143 84430 333 20222 59008 60044;
0162823920999992003062312004-03700-040350FM-12+008399999V0200901N002112200019N0500001N1+02681+02041101371ADDGF101991011011004501001001KA1240N+02101MA1999999100351MD1999999-0051REMSYN082AAXX  23124 82392 22499 10904 10268 20204 30035 40137 81100 333 20210 59005 60014;
0167823920999992003062318004-03700-040350FM-12+008399999V0201401N002612200019N0500001N1+03401+01501101061ADDAA106000091GF101991011011004501001001MA1999999100041MD1999999+0101REMSYN070AAXX  23184 82392 32499 11405 10340 20150 30004 40106 81100 333 58010;EQDQ01  00002PRCP06
0208823920999992003062400004-03700-040350FM-12+008399999V0203601N000512200019N0040001N1+02281+01901101351ADDAA106000091GA1001+999999999GF100991001001999999001001KA1240M+03391MA1999999100321MD1999999+0071REMSYN082AAXX  24004 82392 32996 03601 10228 20190 30032 40135 333 10339 29065 55102 58007;EQDQ01  00002PRCP06
0186823920999992003062412004-03700-040350FM-12+008399999V0202301N000512200019N0500001N1+02701+02111101541ADDAA106000091GF103991031021004501001001KA1240N+02001MA1999999100501MD1999999+0151REMSYN076AAXX  24124 82392 32499 32301 10270 20211 30050 40154 83200 333 20200 58015;EQDQ01  00002PRCP06
0167823920999992003062418004-03700-040350FM-12+008399999V0200501N001012200019N0500001N1+03401+01721101131ADDAA106000091GF105991041021004501001011MA1999999100111MD1999999+0071REMSYN070AAXX  24184 82392 32499 50502 10340 20172 30011 40113 84201 333 58007;EQDQ01  00002PRCP06
0198823920999992003062500004-03700-040350FM-12+008399999V0203601N000512200019N0040001N1+02561+02231101431ADDAA106000091GF103991011011004501031001KA1240M+03421MA1999999100411MD1999999+0091REMSYN088AAXX  25004 82392 32496 33601 10256 20223 30041 40143 81130 333 10342 29068 55093 58009;EQDQ01  00002PRCP06
0186823920999992003062512004-03700-040350FM-12+008399999V0201401N001012200019N0500001N1+02701+01761101531ADDAA106000091GF102991021011004501001001KA1240N+02021MA1999999100501MD1999999+0001REMSYN076AAXX  25124 82392 32499 21402 10270 20176 30050 40153 82100 333 20202 58000;EQDQ01  00002PRCP06
0167823920999992003062518004-03700-040350FM-12+008399999V0200501N001012200019N0500001N1+03281+01391101061ADDAA106000091GF104991031021004501031001MA1999999100041MD1999999-0071REMSYN070AAXX  25184 82392 32499 40502 10328 20139 30004 40106 83230 333 59007;EQDQ01  00002PRCP06
0208823920999992003062600004-03700-040350FM-12+008399999V0203601N000512200019N0040001N1+02421+02111101331ADDAA106000091GA1001+999999999GF100991001001999999001001KA1240M+03401MA1999999100311MD1999999-0101REMSYN082AAXX  26004 82392 32996 03601 10242 20211 30031 40133 333 10340 29065 55083 59010;EQDQ01  00002PRCP06
0186823920999992003062612004-03700-040350FM-12+008399999V0209999C000012200019N0500001N1+02781+01981101441ADDAA106000091GF102991021011004501001001KA1240N+01981MA1999999100421MD1999999-0081REMSYN076AAXX  26124 82392 32499 20000 10278 20198 30042 40144 82100 333 20198 59008;EQDQ01  00002PRCP06
0167823920999992003062618004-03700-040350FM-12+008399999V0200901N000510042019N0500001N1+03441+01671100981ADDAA106000091GF105991051021004501001001MA1999999099961MD1999999-0081REMSYN070AAXX  26184 82392 32499 50901 10344 20167 39996 40098 85200 333 59008;EQDQ01  00002PRCP06
0208823920999992003062700004-03700-040350FM-12+008399999V0200501N001512200019N0040001N1+02481+02051101291ADDAA106000091GA1001+999999999GF100991001001999999001001KA1240M+03481MA1999999100271MD1999999-0041REMSYN082AAXX  27004 82392 32496 00503 10248 20205 30027 40129 333 10348 29063 55083 59004;EQDQ01  00002PRCP06
0186823920999992003062712004-03700-040350FM-12+008399999V0200901N001512200019N0500001N1+02701+01861101421ADDAA106000091GF102991021011004501001001KA1240N+01921MA1999999100401MD1999999-0021REMSYN076AAXX  27124 82392 32499 20903 10270 20186 30040 40142 82100 333 20192 59002;EQDQ01  00002PRCP06
0167823920999992003062718004-03700-040350FM-12+008399999V0201401N000512200019N0500001N1+03331+01581101021ADDAA106000091GF103991031011004501001001MA1999999100001MD1999999+0041REMSYN070AAXX  27184 82392 32499 31401 10333 20158 30000 40102 83100 333 58004;EQDQ01  00002PRCP06
0186823920999992003062812004-03700-040350FM-12+008399999V0202301N001012200019N0500001N1+02521+01771101501ADDAA106000091GF102991021011004501001001KA1240N+01731MA1999999100461MD1999999+0061REMSYN076AAXX  28124 82392 32499 22302 10252 20177 30046 40150 82100 333 20173 58006;EQDQ01  00002PRCP06
0167823920999992003062818004-03700-040350FM-12+008399999V0200901N001012200019N0500001N1+03341+01201101021ADDAA106000091GF103991031021004501001001MA1999999100001MD1999999+0001REMSYN070AAXX  28184 82392 32499 30902 10334 20120 30000 40102 83200 333 58000;EQDQ01  00002PRCP06
0208823920999992003062900004-03700-040350FM-12+008399999V0200501N001012200019N0040001N1+02561+02061101381ADDAA106000091GA1001+999999999GF100991001001999999001001KA1240M+03431MA1999999100351MD1999999+0021REMSYN082AAXX  29004 82392 32996 00502 10256 20206 30035 40138 333 10343 29060 55098 58002;EQDQ01  00002PRCP06
0186823920999992003062912004-03700-040350FM-12+008399999V0201401N001012200019N0500001N1+02801+02151101461ADDAA106000091GF103991031021004501001001KA1240N+01961MA1999999100441MD1999999-0021REMSYN076AAXX  29124 82392 32499 31402 10280 20215 30044 40146 83200 333 20196 59002;EQDQ01  00002PRCP06
0167823920999992003062918004-03700-040350FM-12+008399999V0201801N001010042019N0500001N1+03331+01831101011ADDAA106000091GF105991051021004501001001MA1999999099991MD1999999-0011REMSYN070AAXX  29184 82392 32499 51802 10333 20183 39999 40101 85200 333 59001;EQDQ01  00002PRCP06
0212823920999992003063000004-03700-040350FM-12+008399999V0200501N001012200019N0040001N1+02461+02211101321ADDAY151061AY221061GA1001+999999999GF100991001001999999001001KA1240M+03421MA1999999100301MD1999999-0051MW1021REMSYN094AAXX  30004 82392 21996 00502 10246 20221 30030 40132 70252 333 10342 29070 55093 59005 69931;
0162823920999992003063012004-03700-040350FM-12+008399999V0202301N000512200019N0500001N1+02601+02191101541ADDGF102991021011004501001001KA1240N+02021MA1999999100501MD1999999+0061REMSYN082AAXX  30124 82392 22499 22301 10260 20219 30050 40154 82100 333 20202 58006 69934;
0167823920999992003063018004-03700-040350FM-12+008399999V0201801N001010450019N0500001N1+03381+01481101071ADDAA106000091GF105991041021004501031001MA1999999100051MD1999999+0061REMSYN070AAXX  30184 82392 32499 51802 10338 20148 30005 40107 84230 333 58006;EQDQ01  00002PRCP06
0198823920999992003070100004-03700-040350FM-12+008399999V0203601N001012200019N0040001N1+02561+02151101381ADDAA106000091GF101991011011004501001001KA1240M+03441MA1999999100361MD1999999+0061REMSYN088AAXX  01004 82392 32496 13602 10256 20215 30036 40138 81100 333 10344 29067 55079 58006;EQDQ01  00002PRCP06
0186823920999992003070112004-03700-040350FM-12+008399999V0201401N002110042019N0500001N1+02701+02091101531ADDAA106000091GF107991051051004501031001KA1240N+02321MA1999999100501MD1999999+0001REMSYN076AAXX  01124 82392 32499 71404 10270 20209 30050 40153 85530 333 20232 58000;EQDQ01  00002PRCP06
0167823920999992003070118004-03700-040350FM-12+008399999V0200901N000510042019N0500001N1+03061+01901101231ADDAA106000091GF107991051051004501011001MA1999999100211MD1999999+0161REMSYN070AAXX  01184 82392 32499 70901 10306 20190 30021 40123 85510 333 58016;EQDQ01  00002PRCP06
0214823920999992003070200004-03700-040350FM-12+008399999V0203601N000519999999N0040001N1+02591+02031101481ADDAA106000091GF107991999021008001001001KA1240M+03181MA1999999100451MD1999999+0091REMSYN088AAXX  02004 82392 32596 73601 10259 20203 30045 40148 83200 333 10318 29066 55022 58009;EQDQ01+000032SCOTLCQ02  00002PRCP06
0186823920999992003070212004-03700-040350FM-12+008399999V0200901N001512200019N0500001N1+02741+01951101531ADDAA106000091GF102991021011004501001001KA1240N+02101MA1999999100501MD1999999+0001REMSYN076AAXX  02124 82392 32499 20903 10274 20195 30050 40153 82100 333 20210 58000;EQDQ01  00002PRCP06
0167823920999992003070218004-03700-040350FM-12+008399999V0200901N002110450019N0500001N1+03121+01641101121ADDAA106000091GF106991041041004501031001MA1999999100101MD1999999-0111REMSYN070AAXX  02184 82392 32499 60904 10312 20164 30010 40112 84430 333 59011;EQDQ01  00002PRCP06
0208823920999992003070300004-03700-040350FM-12+008399999V0203601N000512200019N0040001N1+02431+02071101311ADDAA106000091GA1001+999999999GF100991001001999999001001KA1240M+03241MA1999999100291MD1999999-0161REMSYN082AAXX  03004 82392 32996 03601 10243 20207 30029 40131 333 10324 29066 55057 59016;EQDQ01  00002PRCP06
0186823920999992003070312004-03700-040350FM-12+008399999V0201401N000512200019N0500001N1+02731+02021101511ADDAA106000091GF104991041011004501001001KA1240N+02011MA1999999100481MD1999999-0021REMSYN076AAXX  03124 82392 32499 41401 10273 20202 30048 40151 84100 333 20201 59002;EQDQ01  00002PRCP06
0167823920999992003070318004-03700-040350FM-12+008399999V0201401N000512200019N0500001N1+03411+01741101041ADDAA106000091GF103991021021004501031001MA1999999100021MD1999999-0081REMSYN070AAXX  03184 82392 32499 31401 10341 20174 30002 40104 82230 333 59008;EQDQ01  00002PRCP06
0214823920999992003070400004-03700-040350FM-12+008399999V0203601N001519999999N0040001N1+02581+02171101331ADDAA106000091GF106991999021004501001001KA1240M+03481MA1999999100311MD1999999+0021REMSYN088AAXX  04004 82392 32496 63603 10258 20217 30031 40133 84200 333 10348 29064 55097 58002;EQDQ01+000042SCOTLCQ02  00002PRCP06
0186823920999992003070412004-03700-040350FM-12+008399999V0202301N001010450019N0500001N1+02601+02031101381ADDAA106000091GF105991041021004501031001KA1240N+02101MA1999999100361MD1999999-0121REMSYN076AAXX  04124 82392 32499 52302 10260 20203 30036 40138 84230 333 20210 59012;EQDQ01  00002PRCP06
0167823920999992003070418004-03700-040350FM-12+008399999V0202301N001010450019N0500001N1+03281+01741100971ADDAA106000091GF106991041021004501031001MA1999999099951MD1999999-0071REMSYN070AAXX  04184 82392 32499 62302 10328 20174 39995 40097 84230 333 59007;EQDQ01  00002PRCP06
0186823920999992003070512004-03700-040350FM-12+008399999V0201401N001012200019N0500001N1+02741+02001101271ADDAA106000091GF102991021011004501001001KA1240N+01981MA1999999100251MD1999999-0111REMSYN076AAXX  05124 82392 32499 21402 10274 20200 30025 40127 82100 333 20198 59011;EQDQ01  00002PRCP06
0167823920999992003070518004-03700-040350FM-12+008399999V0201801N000512200019N0500001N1+03441+01761100841ADDAA106000091GF103991031011004501001001MA1999999099821MD1999999-0131REMSYN070AAXX  05184 82392 32499 31801 10344 20176 39982 40084 83100 333 59013;EQDQ01  00002PRCP06
0221823920999992003070600004-03700-040350FM-12+008399999V0203601N000510042019N0040001N1+02461+02271101171ADDAY161061AY261061GF108991999021004501001001KA1240M+03531MA1999999100151MD1999999-0011MW1021REMSYN100AAXX  06004 82392 21496 83601 10246 20227 30015 40117 70266 85200 333 10353 29070 55103 59001 60051;EQDQ01+000052SCOTLC
0162823920999992003070612004-03700-040350FM-12+008399999V0201401N002110450019N0500001N1+02741+02171101301ADDGF106991041051004501031001KA1240N+02081MA1999999100281MD1999999+0031REMSYN082AAXX  06124 82392 22499 61404 10274 20217 30028 40130 84530 333 20208 58003 60054;
0167823920999992003070618004-03700-040350FM-12+008399999V0200901N001012200019N0500001N1+03331+01711100881ADDAA106000091GF104991041021004501001001MA1999999099861MD1999999+0041REMSYN070AAXX  06184 82392 32499 40902 10333 20171 39986 40088 84200 333 58004;EQDQ01  00002PRCP06
0198823920999992003070700004-03700-040350FM-12+008399999V0203601N001012200019N0040001N1+02581+02231101191ADDAA106000091GF101991011021008001001001KA1240M+03521MA1999999100171MD1999999+0021REMSYN088AAXX  07004 82392 32596 13602 10258 20223 30017 40119 81200 333 10352 29068 55088 58002;EQDQ01  00002PRCP06
0186823920999992003070712004-03700-040350FM-12+008399999V0200901N000510042019N0500001N1+02641+01981101421ADDAA106000091GF105991051021004501001001KA1240N+01991MA1999999100401MD1999999+0121REMSYN076AAXX  07124 82392 32499 50901 10264 20198 30040 40142 85200 333 20199 58012;EQDQ01  00002PRCP06
0167823920999992003070718004-03700-040350FM-12+008399999V0201401N000510450019N0500001N1+03221+01771101071ADDAA106000091GF105991041021004501031001MA1999999100051MD1999999+0191REMSYN070AAXX  07184 82392 32499 51401 10322 20177 30005 40107 84230 333 58019;EQDQ01  00002PRCP06
0214823920999992003070800004-03700-040350FM-12+008399999V0203601N000519999999N0040001N1+02561+02131101331ADDAA106000091GF105991999021008001011001KA1240M+03001MA1999999100311MD1999999+0141REMSYN088AAXX  08004 82392 32596 53601 10256 20213 30031 40133 88210 333 10300 29066 55065 58014;EQDQ01+000082SCOTLCQ02  00002PRCP06
0186823920999992003070812004-03700-040350FM-12+008399999V0201401N000510450019N0500001N1+02731+02121101381ADDAA106000091GF106991041041004501031001KA1240N+02021MA1999999100361MD1999999-0041REMSYN076AAXX  08124 82392 32499 61401 10273 20212 30036 40138 84430 333 20202 59004;EQDQ01  00002PRCP06
0167823920999992003070818004-03700-040350FM-12+008399999V0201401N000510450019N0500001N1+03331+01801100961ADDAA106000091GF106991021041004501031001MA1999999099941MD1999999-0111REMSYN070AAXX  08184 82392 32499 61401 10333 20180 39994 40096 82430 333 59011;EQDQ01  00002PRCP06
0198823920999992003070900004-03700-040350FM-12+008399999V0200501N001012200019N0040001N1+02581+02201101251ADDAA106000091GF101991011001008001031001KA1240M+03381MA1999999100231MD1999999-0081REMSYN088AAXX  09004 82392 32596 10502 10258 20220 30023 40125 81030 333 10338 29065 55081 59008;EQDQ01  00002PRCP06
0186823920999992003070912004-03700-040350FM-12+008399999V0201401N000510450019N0500001N1+02821+02021101361ADDAA106000091GF105991041021004501031001KA1240N+02131MA1999999100341MD1999999-0021REMSYN076AAXX  09124 82392 32499 51401 10282 20202 30034 40136 84230 333 20213 59002;EQDQ01  00002PRCP06
0167823920999992003070918004-03700-040350FM-12+008399999V0200501N001012200019N0500001N1+03431+01721100931ADDAA106000091GF103991031011004501001001MA1999999099911MD1999999-0031REMSYN070AAXX  09184 82392 32499 30502 10343 20172 39991 40093 83100 333 59003;EQDQ01  00002PRCP06
0208823920999992003071000004-03700-040350FM-12+008399999V0200501N000512200019N0040001N1+02471+02071101261ADDAA106000091GA1001+999999999GF100991001001999999001001KA1240M+03561MA1999999100241MD1999999+0011REMSYN082AAXX  10004 82392 32996 00501 10247 20207 30024 40126 333 10356 29064 55096 58001;EQDQ01  00002PRCP06
0186823920999992003071012004-03700-040350FM-12+008399999V0201801N000510042019N0500001N1+02771+02061101511ADDAA106000091GF105991051021004501001001KA1240N+01911MA1999999100481MD1999999+0141REMSYN076AAXX  10124 82392 32499 51801 10277 20206 30048 40151 85200 333 20191 58014;EQDQ01  00002PRCP06
0167823920999992003071018004-03700-040350FM-12+008399999V0201401N000512200019N0500001N1+03411+01511100951ADDAA106000091GF104991041011004501001001MA1999999099931MD1999999+0021REMSYN070AAXX  10184 82392 32499 41401 10341 20151 39993 40095 84100 333 58002;EQDQ01  00002PRCP06
0208823920999992003071100004-03700-040350FM-12+008399999V0203601N000512200019N0040001N1+02481+02051101331ADDAA106000091GA1001+999999999GF100991001001999999001001KA1240M+03521MA1999999100311MD1999999+0071REMSYN082AAXX  11004 82392 32996 03601 10248 20205 30031 40133 333 10352 29063 55100 58007;EQDQ01  00002PRCP06
0185823920999992003071112004-03700-040350FM-12+008399999V0201401N001010042019N0500001N1+02661+02001101521ADDAA106000091GF106991061021004501001001KA1999N+01841MA1999999100491MD1999999+0011REMSYN075AAXX  11124 82392 32499 61402 10266 20200 30049 40152 86200 33320184 58001;EQDQ01  00002PRCP06
0167823920999992003071118004-03700-040350FM-12+008399999V0200901N001512200019N0500001N1+03471+01361100951ADDAA106000091GF102991021011004501001001MA1999999099931MD1999999+0001REMSYN070AAXX  11184 82392 32499 20903 10347 20136 39993 40095 82100 333 58000;EQDQ01  00002PRCP06
0178823920999992003071200004-03700-040350FM-12+008399999V0203601N001012200019N0040001N1+02521+02071999999ADDAA106000091GA1001+999999999GF100991001001999999001001KA1240M+03611REMSYN081AAXX  12004 82392 32996 03602 10252 20207 3002 40134 333 10361 29062 55105 58001;EQDQ01  00002PRCP06
0186823920999992003071212004-03700-040350FM-12+008399999V0201401N001010042019N0500001N1+02711+02051101631ADDAA106000091GF107991051041004501031001KA1240N+02011MA1999999100601MD1999999+0111REMSYN076AAXX  12124 82392 32499 71402 10271 20205 30060 40163 85430 333 20201 58011;EQDQ01  00002PRCP06
0171823920999992003071218004-03700-040350FM-12+008399999V0200901N001010450019N0500001N1+03071+01951101221ADDAY151061AY251061GF107991041041004501031001MA1999999100201MD1999999+0271MW1021REMSYN082AAXX  12184 82392 21499 70902 10307 20195 30020 40122 70255 84430 333 58027 69931;
0198823920999992003071300004-03700-040350FM-12+008399999V0209999C000010450019N0040001N1+02541+02001101361ADDAA106000091GF106991021041004501031001KA1240M+03141MA1999999100341MD1999999+0021REMSYN088AAXX  13004 82392 32496 60000 10254 20200 30034 40136 82430 333 10314 29066 55019 58002;EQDQ01  00002PRCP06
0167823920999992003071318004-03700-040350FM-12+008399999V0201801N001010450019N0500001N1+03161+01711101161ADDAA106000091GF108991041051004501031001MA1999999100141MD1999999-0061REMSYN070AAXX  13184 82392 32499 81802 10316 20171 30014 40116 84530 333 59006;EQDQ01  00002PRCP06
0198823920999992003071400004-03700-040350FM-12+008399999V0203601N000510450019N0040001N1+02561+01971101511ADDAA106000091GF106991021041004501031001KA1240M+03241MA1999999100481MD1999999+0141REMSYN088AAXX  14004 82392 32496 63601 10256 20197 30048 40151 82430 333 10324 29060 55054 58014;EQDQ01  00002PRCP06
0186823920999992003071412004-03700-040350FM-12+008399999V0200901N002612200019N0500001N1+02741+01891101561ADDAA106000091GF104991041021004501001001KA1240N+02201MA1999999100531MD1999999+0001REMSYN076AAXX  14124 82392 32499 40905 10274 20189 30053 40156 84200 333 20220 58000;EQDQ01  00002PRCP06
0167823920999992003071418004-03700-040350FM-12+008399999V0200301N000512200019N0500001N1+03491+01431101091ADDAA106000091GF101991011011004501001001MA1999999100081MD1999999-0061REMSYN070AAXX  14184 82392 32499 10301 10349 20143 30008 40109 81100 333 59006;EQDQ01  00002PRCP06
0208823920999992003071500004-03700-040350FM-12+008399999V0203601N000512200019N0040001N1+02481+01961101391ADDAA106000091GA1001+999999999GF100991001001999999001001KA1240M+03571MA1999999100371MD1999999-0111REMSYN082AAXX  15004 82392 32996 03601 10248 20196 30037 40139 333 10357 29059 55109 59011;EQDQ01  00002PRCP06
0186823920999992003071512004-03700-040350FM-12+008399999V0201801N000512200019N0500001N1+02671+02061101561ADDAA106000091GF104991021021004501031001KA1240N+02021MA1999999100531MD1999999+0001REMSYN076AAXX  15124 82392 32499 41801 10267 20206 30053 40156 82230 333 20202 58000;EQDQ01  00002PRCP06
0167823920999992003071518004-03700-040350FM-12+008399999V0201801N000512200019N0500001N1+03381+01751101011ADDAA106000091GF104991021021004501031001MA1999999100091MD1999999+0011REMSYN070AAXX  15184 82392 32499 41801 10338 20175 30009 40101 82230 333 58001;EQDQ01  00002PRCP06
0214823920999992003071600004-03700-040350FM-12+008399999V0203601N000512200019N0040001N1+02561+01991101351ADDAA106000091GF101991999011008001001001KA1240M+03541MA1999999100331MD1999999-0041REMSYN088AAXX  16004 82392 32596 13601 10256 20199 30033 40135 82100 333 10354 29063 55097 59004;EQDQ01+000022SCOTLCQ02  00002PRCP06
0186823920999992003071612004-03700-040350FM-12+008399999V0201401N000512200019N0500001N1+03721+01981101591ADDAA106000091GF104991041011004501001001KA1240N+02031MA1999999100561MD1999999+0031REMSYN076AAXX  16124 82392 32499 41401 10372 20198 30056 40159 84100 333 20203 58003;EQDQ01  00002PRCP06
0167823920999992003071618004-03700-040350FM-12+008399999V0201801N001012200019N0500001N1+03561+01311101161ADDAA106000091GF101991011001004501031001MA1999999100141MD1999999+0051REMSYN070AAXX  16184 82392 32499 11802 10356 20131 30014 40116 81030 333 58005;EQDQ01  00002PRCP06
0208823920999992003071700004-03700-040350FM-12+008399999V0203601N000512200019N0040001N1+02501+01961101521ADDAA106000091GA1001+999999999GF100991001001999999001001KA1240M+03631MA1999999100491MD1999999+0161REMSYN082AAXX  17004 82392 32996 03601 10250 20196 30049 40152 333 10363 29059 55105 58016;EQDQ01  00002PRCP06
0186823920999992003071712004-03700-040350FM-12+008399999V0200901N003112200019N0500001N1+02821+01481101761ADDAA106000091GF101991011011004501001001KA1240N+01881MA1999999100731MD1999999+0171REMSYN076AAXX  17124 82392 32499 10906 10282 20148 30073 40176 81100 333 20188 58017;EQDQ01  00002PRCP06
0167823920999992003071718004-03700-040350FM-12+008399999V0200501N001012200019N0500001N1+03441+01031101301ADDAA106000091GF101991011011004501001001MA1999999100281MD1999999+0141REMSYN070AAXX  17184 82392 32499 10502 10344 20103 30028 40130 81100 333 58014;EQDQ01  00002PRCP06
0208823920999992003071800004-03700-040350FM-12+008399999V0203601N001012200019N0040001N1+02471+02011101601ADDAA106000091GA1001+999999999GF100991001001999999001001KA1240M+03491MA1999999100571MD1999999+0081REMSYN082AAXX  18004 82392 32996 03602 10247 20201 30057 40160 333 10349 29054 55106 58008;EQDQ01  00002PRCP06
0186823920999992003071812004-03700-040350FM-12+008399999V0202301N000512200019N0500001N1+02701+01911101771ADDAA106000091GF102991021011004501001001KA1240N+01881MA1999999100741MD1999999+0011REMSYN076AAXX  18124 82392 32499 22301 10270 20191 30074 40177 82100 333 20188 58001;EQDQ01  00002PRCP06
0167823920999992003071818004-03700-040350FM-12+008399999V0201801N000512200019N0500001N1+03491+01481101291ADDAA106000091GF104991041011004501001001MA1999999100271MD1999999-0011REMSYN070AAXX  18184 82392 32499 41801 10349 20148 30027 40129 84100 333 59001;EQDQ01  00002PRCP06
0208823920999992003071900004-03700-040350FM-12+008399999V0200501N000512200019N0040001N1+02581+01941101571ADDAA106000091GA1001+999999999GF100991001001999999001001KA1240M+03561MA1999999100541MD1999999-0031REMSYN082AAXX  19004 82392 32996 00501 10258 20194 30054 40157 333 10356 29057 55097 59003;EQDQ01  00002PRCP06
0186823920999992003071912004-03700-040350FM-12+008399999V0200901N000512200019N0500001N1+02861+01951101771ADDAA106000091GF102991011011004501031001KA1240N+01961MA1999999100741MD1999999+0001REMSYN076AAXX  19124 82392 32499 20901 10286 20195 30074 40177 81130 333 20196 58000;EQDQ01  00002PRCP06
0167823920999992003071918004-03700-040350FM-12+008399999V0201401N000510042019N0500001N1+03421+01561101321ADDAA106000091GF105991051021004501001001MA1999999100301MD1999999+0031REMSYN070AAXX  19184 82392 32499 51401 10342 20156 30030 40132 85200 333 58003;EQDQ01  00002PRCP06
0214823920999992003072000004-03700-040350FM-12+008399999V0203601N000512200019N0040001N1+02601+01941101521ADDAA106000091GF101991999011008001001001KA1240M+03661MA1999999100491MD1999999-0051REMSYN088AAXX  20004 82392 32596 13601 10260 20194 30049 40152 82100 333 10366 29056 55099 59005;EQDQ01+000022SCOTLCQ02  00002PRCP06
0186823920999992003072012004-03700-040350FM-12+008399999V0201801N000510450019N0500001N1+02781+02011101651ADDAA106000091GF106991041041004501031001KA1240N+02081MA1999999100621MD1999999-0121REMSYN076AAXX  20124 82392 32499 61801 10278 20201 30062 40165 84430 333 20208 59012;EQDQ01  00002PRCP06
0167823920999992003072018004-03700-040350FM-12+008399999V0201801N000510042019N0500001N1+03231+01891101201ADDAA106000091GF106991061021004501001001MA1999999100181MD1999999-0121REMSYN070AAXX  20184 82392 32499 61801 10323 20189 30018 40120 86200 333 59012;EQDQ01  00002PRCP06
0198823920999992003072100004-03700-040350FM-12+008399999V0203601N000512200019N0040001N1+02661+02091101451ADDAA106000091GF101991011001008001031001KA1240M+03401MA1999999100431MD1999999-0061REMSYN088AAXX  21004 82392 32596 13601 10266 20209 30043 40145 81030 333 10340 29063 55076 59006;EQDQ01  00002PRCP06
0186823920999992003072112004-03700-040350FM-12+008399999V0201401N001010042019N0500001N1+02821+02021101581ADDAA106000091GF105991051021004501001001KA1240N+02101MA1999999100551MD1999999-0071REMSYN076AAXX  21124 82392 32499 51402 10282 20202 30055 40158 85200 333 20210 59007;EQDQ01  00002PRCP06
0167823920999992003072118004-03700-040350FM-12+008399999V0200901N000510450019N0500001N1+03431+01581101131ADDAA106000091GF105991031021004501031001MA1999999100111MD1999999-0071REMSYN070AAXX  21184 82392 32499 50901 10343 20158 30011 40113 83230 333 59007;EQDQ01  00002PRCP06
0208823920999992003072200004-03700-040350FM-12+008399999V0203601N000512200019N0040001N1+02631+02071101411ADDAA106000091GA1001+999999999GF100991001001999999001001KA1240M+03581MA1999999100391MD1999999-0041REMSYN082AAXX  22004 82392 32996 03601 10263 20207 30039 40141 333 10358 29059 55088 59004;EQDQ01  00002PRCP06
0186823920999992003072212004-03700-040350FM-12+008399999V0201801N000510042019N0500001N1+02881+02051101601ADDAA106000091GF106991061021004501001001KA1240N+02021MA1999999100571MD1999999+0021REMSYN076AAXX  22124 82392 32499 61801 10288 20205 30057 40160 86200 333 20202 58002;EQDQ01  00002PRCP06
0167823920999992003072218004-03700-040350FM-12+008399999V0201401N000512200019N0500001N1+03441+01631101101ADDAA106000091GF103991031021004501001001MA1999999100081MD1999999-0031REMSYN070AAXX  22184 82392 32499 31401 10344 20163 30008 40110 83200 333 59003;EQDQ01  00002PRCP06
0208823920999992003072300004-03700-040350FM-12+008399999V0203601N001012200019N0040001N1+02621+02051101321ADDAA106000091GA1001+999999999GF100991001001999999001001KA1240M+03631MA1999999100301MD1999999-0091REMSYN082AAXX  23004 82392 32996 03602 10262 20205 30030 40132 333 10363 29059 55106 59009;EQDQ01  00002PRCP06
0186823920999992003072312004-03700-040350FM-12+008399999V0201801N000512200019N0500001N1+02921+01711101501ADDAA106000091GF103991021011004501031001KA1240N+02071MA1999999100471MD1999999-0101REMSYN076AAXX  23124 82392 32499 31801 10292 20171 30047 40150 82130 333 20207 59010;EQDQ01  00002PRCP06
0167823920999992003072318004-03700-040350FM-12+008399999V0201801N001512200019N0500001N1+03441+02481101091ADDAA106000091GF102991011011004501031001MA1999999100071MD1999999-0011REMSYN070AAXX  23184 82392 32499 21803 10344 20248 30007 40109 81130 333 59001;EQDQ01  00002PRCP06
0208823920999992003072400004-03700-040350FM-12+008399999V0203601N000512200019N0040001N1+02561+01901101361ADDAA106000091GA1001+999999999GF100991001001999999001001KA1240M+03541MA1999999100341MD1999999+0041REMSYN082AAXX  24004 82392 32996 03601 10256 20190 30034 40136 333 10354 29053 55101 58004;EQDQ01  00002PRCP06
0186823920999992003072412004-03700-040350FM-12+008399999V0200901N001012200019N0500001N1+02921+01771101421ADDAA106000091GF104991021021004501031001KA1240N+02071MA1999999100401MD1999999-0071REMSYN076AAXX  24124 82392 32499 40902 10292 20177 30040 40142 82230 333 20207 59007;EQDQ01  00002PRCP06
0167823920999992003072418004-03700-040350FM-12+008399999V0200901N002610042019N0500001N1+03221+01801101051ADDAA106000091GF108991081051004501999999MA1999999100031MD1999999-0041REMSYN070AAXX  24184 82392 32499 80905 10322 20180 30003 40105 885// 333 59004;EQDQ01  00002PRCP06
0198823920999992003072500004-03700-040350FM-12+008399999V0200501N003110042019N0040001N1+02741+02121101401ADDAA106000091GF106991061051004501001001KA1240M+03341MA1999999100381MD1999999+0041REMSYN088AAXX  25004 82392 32496 60506 10274 20212 30038 40140 86500 333 10334 29058 55054 58004;EQDQ01  00002PRCP06
0186823920999992003072512004-03700-040350FM-12+008399999V0200901N002610450019N0500001N1+02881+02081101541ADDAA106000091GF106991041041004501031001KA1240N+02271MA1999999100511MD1999999+0111REMSYN076AAXX  25124 82392 32499 60905 10288 20208 30051 40154 84430 333 20227 58011;EQDQ01  00002PRCP06
0167823920999992003072518004-03700-040350FM-12+008399999V0200901N002610450019N0500001N1+03341+01831101121ADDAA106000091GF105991031041017501031001MA1999999100101MD1999999+0071REMSYN070AAXX  25184 82392 32799 50905 10334 20183 30010 40112 83430 333 58007;EQDQ01  00002PRCP06
0214823920999992003072600004-03700-040350FM-12+008399999V0203601N003119999999N0040001N1+02621+02141101431ADDAA106000091GF106991999021004501001001KA1240M+03401MA1999999100411MD1999999+0031REMSYN088AAXX  26004 82392 32496 63606 10262 20214 30041 40143 83200 333 10340 29063 55067 58003;EQDQ01+000032SCOTLCQ02  00002PRCP06
0186823920999992003072612004-03700-040350FM-12+008399999V0201401N000510450019N0500001N1+02941+02031101581ADDAA106000091GF106991041041004501031001KA1240N+02381MA1999999100551MD1999999+0041REMSYN076AAXX  26124 82392 32499 61401 10294 20203 30055 40158 84430 333 20238 58004;EQDQ01  00002PRCP06
0167823920999992003072618004-03700-040350FM-12+008399999V0209999C000010450019N0500001N1+03431+01721101141ADDAA106000091GF106991041041004501031001MA1999999100131MD1999999+0031REMSYN070AAXX  26184 82392 32499 60000 10343 20172 30013 40114 84430 333 58003;EQDQ01  00002PRCP06
0208823920999992003072700004-03700-040350FM-12+008399999V0203601N000512200019N0040001N1+02641+02161101421ADDAA106000091GA1001+999999999GF100991001001999999001001KA1240M+03481MA1999999100401MD1999999-0011REMSYN082AAXX  27004 82392 32996 03601 10264 20216 30040 40142 333 10348 29061 55072 59001;EQDQ01  00002PRCP06
0202823920999992003072712004-03700-040350FM-12+008399999V0201801N001012200019N0500001N1+02911+01831101571ADDAA106000091GF104991999011004501001001KA1240N+02101MA1999999100541MD1999999-0011REMSYN076AAXX  27124 82392 32499 41802 10291 20183 30054 40157 82100 333 20210 59001;EQDQ01+000022SCOTLCQ02  00002PRCP06
0167823920999992003072718004-03700-040350FM-12+008399999V0201401N001010042019N0500001N1+03401+01641101101ADDAA106000091GF105991051021004501001001MA1999999100081MD1999999-0051REMSYN070AAXX  27184 82392 32499 51402 10340 20164 30008 40110 85200 333 59005;EQDQ01  00002PRCP06
0208823920999992003072800004-03700-040350FM-12+008399999V0200901N000512200019N0040001N1+02631+01541101331ADDAA106000091GA1001+999999999GF100991001001999999001001KA1240M+03561MA1999999100311MD1999999-0091REMSYN082AAXX  28004 82392 32996 00901 10263 20154 30031 40133 333 10356 29047 55088 59009;EQDQ01  00002PRCP06
0186823920999992003072812004-03700-040350FM-12+008399999V0200901N001012200019N0500001N1+02871+01941101531ADDAA106000091GF104991031011004501031001KA1240N+02021MA1999999100501MD1999999-0041REMSYN076AAXX  28124 82392 32499 40902 10287 20194 30050 40153 83130 333 20202 59004;EQDQ01  00002PRCP06
0167823920999992003072818004-03700-040350FM-12+008399999V0209999C000012200019N0500001N1+03441+01631101071ADDAA106000091GF104991031011004501001011MA1999999100051MD1999999-0031REMSYN070AAXX  28184 82392 32499 40000 10344 20163 30005 40107 83101 333 59003;EQDQ01  00002PRCP06
0208823920999992003072900004-03700-040350FM-12+008399999V0203601N003112200019N0040001N1+02621+01881101361ADDAA106000091GA1001+999999999GF100991001001999999001001KA1240M+03691MA1999999100341MD1999999+0031REMSYN082AAXX  29004 82392 32996 03606 10262 20188 30034 40136 333 10369 29055 55096 58003;EQDQ01  00002PRCP06
0186823920999992003072912004-03700-040350FM-12+008399999V0200901N001010042019N0500001N1+02821+02021101641ADDAA106000091GF106991061041004501001001KA1240N+02181MA1999999100611MD1999999+0111REMSYN076AAXX  29124 82392 32499 60902 10282 20202 30061 40164 86400 333 20218 58011;EQDQ01  00002PRCP06
0167823920999992003072918004-03700-040350FM-12+008399999V0200901N001012200019N0500001N1+03431+01531101171ADDAA106000091GF104991041021004501001001MA1999999100151MD1999999+0101REMSYN070AAXX  29184 82392 32499 40902 10343 20153 30015 40117 84200 333 58010;EQDQ01  00002PRCP06
0208823920999992003073000004-03700-040350FM-12+008399999V0200501N001012200019N0040001N1+02631+02051101521ADDAA106000091GA1001+999999999GF100991001001999999001001KA1240M+03491MA1999999100431MD1999999+0051REMSYN082AAXX  30004 82392 32996 00502 10263 20205 30043 40152 333 10349 29052 55108 58005;EQDQ01  00002PRCP06
0186823920999992003073012004-03700-040350FM-12+008399999V0201401N002612200019N0500001N1+02861+02011101661ADDAA106000091GF104991031011004501031001KA1240N+02041MA1999999100631MD1999999+0021REMSYN076AAXX  30124 82392 32499 41405 10286 20201 30063 40166 83130 333 20204 58002;EQDQ01  00002PRCP06
0167823920999992003073018004-03700-040350FM-12+008399999V0201801N000512200019N0500001N1+03611+01641101111ADDAA106000091GF104991041021004501001001MA1999999100101MD1999999-0051REMSYN070AAXX  30184 82392 32499 41801 10361 20164 30010 40111 84200 333 59005;EQDQ01  00002PRCP06
0186823920999992003073112004-03700-040350FM-12+008399999V0200901N001010042019N0500001N1+02841+02011101541ADDAA106000091GF106991061041004501001001KA1240N+02131MA1999999100511MD1999999-0121REMSYN076AAXX  31124 82392 32499 60902 10284 20201 30051 40154 86400 333 20213 59012;EQDQ01  00002PRCP06
0167823920999992003073118004-03700-040350FM-12+008399999V0200501N001012200019N0500001N1+03471+01521101061ADDAA106000091GF104991041021004501001001MA1999999100051MD1999999-0051REMSYN070AAXX  31184 82392 32499 40502 10347 20152 30005 40106 84200 333 59005;EQDQ01  00002PRCP06
0208823920999992003080100004-03700-040350FM-12+008399999V0203601N001512200019N0040001N1+02541+01881101321ADDAA106000091GA1001+999999999GF100991001001999999001001KA1240M+03691MA1999999100301MD1999999-0091REMSYN082AAXX  01004 82392 32996 03603 10254 20188 30030 40132 333 10369 29057 55093 59009;EQDQ01  00002PRCP06
0186823920999992003080112004-03700-040350FM-12+008399999V0201401N000510450019N0500001N1+02701+01991101561ADDAA106000091GF106991041041004501031001KA1240N+01861MA1999999100531MD1999999+0021REMSYN076AAXX  01124 82392 32499 61401 10270 20199 30053 40156 84430 333 20186 58002;EQDQ01  00002PRCP06
0167823920999992003080118004-03700-040350FM-12+008399999V0201401N000512200019N0500001N1+03581+01651101011ADDAA106000091GF102991021011004501001001MA1999999100001MD1999999-0051REMSYN070AAXX  01184 82392 32499 21401 10358 20165 30000 40101 82100 333 59005;EQDQ01  00002PRCP06
0208823920999992003080200004-03700-040350FM-12+008399999V0203601N002612200019N0040001N1+02571+02061101331ADDAA106000091GA1001+999999999GF100991001001999999001001KA1240M+03631MA1999999100311MD1999999+0011REMSYN082AAXX  02004 82392 32996 03605 10257 20206 30031 40133 333 10363 29061 55091 58001;EQDQ01  00002PRCP06
0186823920999992003080212004-03700-040350FM-12+008399999V0201401N002610042019N0500001N1+02841+01991101591ADDAA106000091GF107991071041004501001001KA1240N+02141MA1999999100561MD1999999+0031REMSYN076AAXX  02124 82392 32499 71405 10284 20199 30056 40159 87400 333 20214 58003;EQDQ01  00002PRCP06
0167823920999992003080218004-03700-040350FM-12+008399999V0200901N001512200019N0010001N1+03531+01571101051ADDAA106000091GF104991041021004501001001MA1999999100041MD1999999+0041REMSYN070AAXX  02184 82392 32494 40903 10353 20157 30004 40105 84200 333 58004;EQDQ01  00002PRCP06
0198823920999992003080300004-03700-040350FM-12+008399999V0203601N001012200019N0040001N1+02641+02051101441ADDAA106000091GF101991011011008001001001KA1240M+03721MA1999999100721MD1999999+0111REMSYN088AAXX  03004 82392 32596 13602 10264 20205 30072 40144 81100 333 10372 29058 55098 58011;EQDQ01  00002PRCP06
0186823920999992003080312004-03700-040350FM-12+008399999V0201401N002610042019N0500001N1+02801+02001101551ADDAA106000091GF106991061021004501001001KA1240N+02221MA1999999100521MD1999999-0041REMSYN076AAXX  03124 82392 32499 61405 10280 20200 30052 40155 86200 333 20222 59004;EQDQ01  00002PRCP06
0167823920999992003080318004-03700-040350FM-12+008399999V0201401N000512200019N0500001N1+03571+01651101021ADDAA106000091GF104991041021004501001001MA1999999100011MD1999999-0031REMSYN070AAXX  03184 82392 32499 41401 10357 20165 30001 40102 84200 333 59003;EQDQ01  00002PRCP06
0198823920999992003080400004-03700-040350FM-12+008399999V0203601N001012200019N0040001N1+02581+02081101351ADDAA106000091GF101991011001008001031001KA1240M+03731MA1999999100331MD1999999-0091REMSYN088AAXX  04004 82392 32596 13602 10258 20208 30033 40135 81030 333 10373 29061 55104 59009;EQDQ01  00002PRCP06
0186823920999992003080412004-03700-040350FM-12+008399999V0201401N002112200019N0500001N1+02741+02101101491ADDAA106000091GF102991021011004501001001KA1240N+02141MA1999999100461MD1999999-0061REMSYN076AAXX  04124 82392 32499 21404 10274 20210 30046 40149 82100 333 20214 59006;EQDQ01  00002PRCP06
0167823920999992003080418004-03700-040350FM-12+008399999V0200901N001512200019N0500001N1+03521+01501100961ADDAA106000091GF101991011011004501001001MA1999999099951MD1999999-0061REMSYN070AAXX  04184 82392 32499 10903 10352 20150 39995 40096 81100 333 59006;EQDQ01  00002PRCP06
0208823920999992003080500004-03700-040350FM-12+008399999V0203601N003112200019N0040001N1+02531+01831101261ADDAA106000091GA1001+999999999GF100991001001999999001001KA1240M+03681MA1999999100241MD1999999-0091REMSYN082AAXX  05004 82392 32996 03606 10253 20183 30024 40126 333 10368 29057 55084 59009;EQDQ01  00002PRCP06
0186823920999992003080512004-03700-040350FM-12+008399999V0202301N001012200019N0500001N1+02801+01951101441ADDAA106000091GF101991011011004501001001KA1240N+01991MA1999999100421MD1999999-0041REMSYN076AAXX  05124 82392 32499 12302 10280 20195 30042 40144 81100 333 20199 59004;EQDQ01  00002PRCP06
0167823920999992003080518004-03700-040350FM-12+008399999V0209999C000012200019N0500001N1+03471+01661100971ADDAA106000091GF104991041021004501001001MA1999999099951MD1999999+0001REMSYN070AAXX  05184 82392 32499 40000 10347 20166 39995 40097 84200 333 58000;EQDQ01  00002PRCP06
0198823920999992003080600004-03700-040350FM-12+008399999V0203601N002612200019N0040001N1+02661+01871101311ADDAA106000091GF103991031001008001031001KA1240M+03671MA1999999100291MD1999999+0051REMSYN088AAXX  06004 82392 32596 33605 10266 20187 30029 40131 83030 333 10367 29055 55101 58005;EQDQ01  00002PRCP06
0186823920999992003080612004-03700-040350FM-12+008399999V0201801N001512200019N0500001N1+02801+01901101551ADDAA106000091GF101991011011004501001001KA1240N+01901MA1999999100521MD1999999+0101REMSYN076AAXX  06124 82392 32499 11803 10280 20190 30052 40155 81100 333 20190 58010;EQDQ01  00002PRCP06
0167823920999992003080618004-03700-040350FM-12+008399999V0200501N002612200019N0500001N1+03721+01451101061ADDAA106000091GF103991031021004501001001MA1999999100051MD1999999+0101REMSYN070AAXX  06184 82392 32499 30505 10372 20145 30005 40106 83200 333 58010;EQDQ01  00002PRCP06
0198823920999992003080700004-03700-040350FM-12+008399999V0203601N001510450019N0040001N1+02631+02071101321ADDAA106000091GF107991031041004501011001KA1240M+03611MA1999999100301MD1999999+0011REMSYN088AAXX  07004 82392 32496 73603 10263 20207 30030 40132 83410 333 10361 29057 55088 58001;EQDQ01  00002PRCP06
0186823920999992003080712004-03700-040350FM-12+008399999V0201801N000510042019N0500001N1+02721+01931101481ADDAA106000091GF105991051021004501001001KA1240N+02241MA1999999100451MD1999999-0071REMSYN076AAXX  07124 82392 32499 51801 10272 20193 30045 40148 85200 333 20224 59007;EQDQ01  00002PRCP06
0167823920999992003080718004-03700-040350FM-12+008399999V0201801N001012200019N0500001N1+03571+01601100961ADDAA106000091GF103991031011004501001001MA1999999099951MD1999999-0101REMSYN070AAXX  07184 82392 32499 31802 10357 20160 39995 40096 83100 333 59010;EQDQ01  00002PRCP06
0208823920999992003080800004-03700-040350FM-12+008399999V0200501N002612200019N0040001N1+02601+02311101321ADDAA106000091GA1001+999999999GF100991001001999999001001KA1240M+03701MA1999999100301MD1999999+0001REMSYN082AAXX  08004 82392 32996 00505 10260 20231 30030 40132 333 10370 29065 55098 58000;EQDQ01  00002PRCP06
0186823920999992003080812004-03700-040350FM-12+008399999V0200901N002112200019N0500001N1+02781+02091101441ADDAA106000091GF104991041021004501031001KA1240N+02131MA1999999100421MD1999999-0031REMSYN076AAXX  08124 82392 32499 40904 10278 20209 30042 40144 84230 333 20213 59003;EQDQ01  00002PRCP06
0167823920999992003080818004-03700-040350FM-12+008399999V0201401N002612200019N0500001N1+03581+01651100861ADDAA106000091GF104991041021004501001001MA1999999099851MD1999999-0101REMSYN070AAXX  08184 82392 32499 41405 10358 20165 39985 40086 84200 333 59010;EQDQ01  00002PRCP06
0208823920999992003080900004-03700-040350FM-12+008399999V0200501N003112200019N0020001N1+02541+02251101341ADDAA106000091GA1001+999999999GF100991001001999999001001KA1240M+03641MA1999999100321MD1999999+0021REMSYN082AAXX  09004 82392 32595 00506 10254 20225 30032 40134 333 10364 29066 55080 58002;EQDQ01  00002PRCP06
0186823920999992003080912004-03700-040350FM-12+008399999V0201401N002612200019N0500001N1+02901+01521101561ADDAA106000091GF101991011011004501001001KA1240N+02021MA1999999100531MD1999999+0111REMSYN076AAXX  09124 82392 32499 11405 10290 20152 30053 40156 81100 333 20202 58011;EQDQ01  00002PRCP06
0167823920999992003080918004-03700-040350FM-12+008399999V0200501N005112200019N0500001N1+03661+01511100981ADDAA106000091GF102991021011004501001001MA1999999099971MD1999999+0121REMSYN070AAXX  09184 82392 32499 20510 10366 20151 39997 40098 82100 333 58012;EQDQ01  00002PRCP06
0208823920999992003081000004-03700-040350FM-12+008399999V0203601N000512200019N0040001N1+02631+02031101381ADDAA106000091GA1001+999999999GF100991001001999999001001KA1240M+03771MA1999999100361MD1999999+0041REMSYN082AAXX  10004 82392 32996 03601 10263 20203 30036 40138 333 10377 29052 55110 58004;EQDQ01  00002PRCP06
0202823920999992003081012004-03700-040350FM-12+008399999V0200901N000519999999N0500001N1+02721+02121101691ADDAA106000091GF106991999021004501001001KA1240N+02221MA1999999100661MD1999999+0131REMSYN076AAXX  10124 82392 32499 60901 10272 20212 30066 40169 84200 333 20222 58013;EQDQ01+000042SCOTLCQ02  00002PRCP06
0183823920999992003081018004-03700-040350FM-12+008399999V0200501N002119999999N0500001N1+03501+01771101161ADDAA106000091GF105991999021004501001001MA1999999100151MD1999999+0181REMSYN070AAXX  10184 82392 32499 50504 10350 20177 30015 40116 83200 333 58018;EQDQ01+000032SCOTLCQ02  00002PRCP06
0208823920999992003081100004-03700-040350FM-12+008399999V0200501N005112200019N0040001N1+02601+01921101481ADDAA106000091GA1001+999999999GF100991001001999999001001KA1240M+03541MA1999999100451MD1999999+0091REMSYN082AAXX  11004 82392 32496 00510 10260 20192 30045 40148 333 10354 29059 55081 58009;EQDQ01  00002PRCP06
0186823920999992003081112004-03700-040350FM-12+008399999V0201401N001010042019N0500001N1+02801+02081101661ADDAA106000091GF105991051021004501001001KA1240N+01991MA1999999100631MD1999999-0031REMSYN076AAXX  11124 82392 32499 51402 10280 20208 30063 40166 85200 333 20199 59003;EQDQ01  00002PRCP06
0167823920999992003081118004-03700-040350FM-12+008399999V0200501N002612200019N0500001N1+03621+01481101121ADDAA106000091GF104991041021004501001001MA1999999100101MD1999999-0051REMSYN070AAXX  11184 82392 32499 40505 10362 20148 30010 40112 84200 333 59005;EQDQ01  00002PRCP06
0208823920999992003081200004-03700-040350FM-12+008399999V0203601N001512200019N0040001N1+02621+01761101381ADDAA106000091GA1001+999999999GF100991001001999999001001KA1240M+03661MA1999999100361MD1999999-0091REMSYN082AAXX  12004 82392 32996 03603 10262 20176 30036 40138 333 10366 29053 55108 59009;EQDQ01  00002PRCP06
0186823920999992003081212004-03700-040350FM-12+008399999V0200501N001512200019N0500001N1+02801+01951101611ADDAA106000091GF102991021011004501001001KA1240N+02101MA1999999100581MD1999999-0091REMSYN076AAXX  12124 82392 32499 20503 10280 20195 30058 40161 82100 333 20210 59009;EQDQ01  00002PRCP06
0167823920999992003081218004-03700-040350FM-12+008399999V0200901N000510042019N0500001N1+03441+01481101051ADDAA106000091GF105991051021004501001001MA1999999100031MD1999999-0071REMSYN070AAXX  12184 82392 32499 50901 10344 20148 30003 40105 85200 333 59007;EQDQ01  00002PRCP06
0208823920999992003081300004-03700-040350FM-12+008399999V0203601N002612200019N0040001N1+02601+01961101421ADDAA106000091GA1001+999999999GF100991001001999999001001KA1240M+03611MA1999999100401MD1999999+0041REMSYN082AAXX  13004 82392 32996 03605 10260 20196 30040 40142 333 10361 29057 55101 58004;EQDQ01  00002PRCP06
0186823920999992003081312004-03700-040350FM-12+008399999V0200501N005110450019N0500001N1+02801+02001101651ADDAA106000091GF106991041021004501031001KA1240N+02201MA1999999100631MD1999999+0041REMSYN076AAXX  13124 82392 32499 60510 10280 20200 30063 40165 84230 333 20220 58004;EQDQ01  00002PRCP06
0167823920999992003081318004-03700-040350FM-12+008399999V0201801N000512200019N0500001N1+03401+01851101121ADDAA106000091GF104991041021004501001001MA1999999100101MD1999999+0071REMSYN070AAXX  13184 82392 32499 41801 10340 20185 30010 40112 84200 333 58007;EQDQ01  00002PRCP06
0198823920999992003081400004-03700-040350FM-12+008399999V0203601N002612200019N0040001N1+02611+01961101361ADDAA106000091GF102991021001008001031001KA1240M+03591MA1999999100341MD1999999-0061REMSYN088AAXX  14004 82392 32596 23605 10261 20196 30034 40136 82030 333 10359 29059 55099 59006;EQDQ01  00002PRCP06
0186823920999992003081412004-03700-040350FM-12+008399999V0200901N000510450019N0500001N1+02821+02001101611ADDAA106000091GF106991031021004501031001KA1240N+02221MA1999999100581MD1999999-0041REMSYN076AAXX  14124 82392 32499 60901 10282 20200 30058 40161 83230 333 20222 59004;EQDQ01  00002PRCP06
0167823920999992003081418004-03700-040350FM-12+008399999V0201801N000512200019N0500001N1+03511+01651101041ADDAA106000091GF104991041021004501001001MA1999999100031MD1999999-0071REMSYN070AAXX  14184 82392 32499 41801 10351 20165 30003 40104 84200 333 59007;EQDQ01  00002PRCP06
0208823920999992003081500004-03700-040350FM-12+008399999V0200501N004612200019N0040001N1+02561+02231101381ADDAA106000091GA1001+999999999GF100991001001999999001001KA1240M+03641MA1999999100361MD1999999+0021REMSYN082AAXX  15004 82392 32996 00509 10256 20223 30036 40138 333 10364 29064 55096 58002;EQDQ01  00002PRCP06
0186823920999992003081512004-03700-040350FM-12+008399999V0201801N001012200019N0500001N1+02861+01951101581ADDAA106000091GF101991011011004501001001KA1240N+02171MA1999999100551MD1999999-0031REMSYN076AAXX  15124 82392 32499 11802 10286 20195 30055 40158 81100 333 20217 59003;EQDQ01  00002PRCP06
0167823920999992003081518004-03700-040350FM-12+008399999V0203201N000512200019N0500001N1+03571+01701101051ADDAA106000091GF104991041021004501001001MA1999999100031MD1999999+0001REMSYN070AAXX  15184 82392 32499 43201 10357 20170 30003 40105 84200 333 58000;EQDQ01  00002PRCP06
0208823920999992003081600004-03700-040350FM-12+008399999V0200501N004612200019N0040001N1+02581+02171101421ADDAA106000091GA1001+999999999GF100991001001999999001001KA1240M+03721MA1999999100401MD1999999+0041REMSYN082AAXX  16004 82392 32996 00509 10258 20217 30040 40142 333 10372 29062 55095 58004;EQDQ01  00002PRCP06
0202823920999992003081612004-03700-040350FM-12+008399999V0202301N000519999999N0500001N1+02701+02061101551ADDAA106000091GF106991999041004501001001KA1240N+02201MA1999999100521MD1999999-0031REMSYN076AAXX  16124 82392 32499 62301 10270 20206 30052 40155 84400 333 20220 59003;EQDQ01+000042SCOTLCQ02  00002PRCP06
0208823920999992003081700004-03700-040350FM-12+008399999V0200501N002612200019N0040001N1+02541+02271101361ADDAA106000091GA1001+999999999GF100991001001999999001001KA1240M+03681MA1999999100341MD1999999-0061REMSYN082AAXX  17004 82392 32996 00505 10254 20227 30034 40136 333 10368 29068 55079 59006;EQDQ01  00002PRCP06
0186823920999992003081712004-03700-040350FM-12+008399999V0200901N000510450019N0500001N1+02901+02101101611ADDAA106000091GF105991041021004501031001KA1240N+02401MA1999999100581MD1999999+0061REMSYN076AAXX  17124 82392 32499 50901 10290 20210 30058 40161 84230 333 20240 58006;EQDQ01  00002PRCP06
0167823920999992003081718004-03700-040350FM-12+008399999V0200901N000510042019N0500001N1+03591+02031101071ADDAA106000091GF105991051021004501001001MA1999999100061MD1999999+0021REMSYN070AAXX  17184 82392 32499 50901 10359 20203 30006 40107 85200 333 58002;EQDQ01  00002PRCP06
0208823920999992003081800004-03700-040350FM-12+008399999V0203601N001012200019N0040001N1+02641+02581101341ADDAA106000091GA1001+999999999GF100991001001999999001001KA1240M+03611MA1999999100321MD1999999-0021REMSYN082AAXX  18004 82392 32996 03602 10264 20258 30032 40134 333 10361 29064 55092 59002;EQDQ01  00002PRCP06
0186823920999992003081812004-03700-040350FM-12+008399999V0200501N003110042019N0500001N1+02901+02171101631ADDAA106000091GF106991051041004501031001KA1240N+02421MA1999999100601MD1999999+0021REMSYN076AAXX  18124 82392 32499 60506 10290 20217 30060 40163 85430 333 20242 58002;EQDQ01  00002PRCP06
0167823920999992003081818004-03700-040350FM-12+008399999V0200501N004112200019N0500001N1+03501+02091101171ADDAA106000091GF103991031021004501001001MA1999999100161MD1999999+0101REMSYN070AAXX  18184 82392 32499 30508 10350 20209 30016 40117 83200 333 58010;EQDQ01  00002PRCP06
0198823920999992003081900004-03700-040350FM-12+008399999V0200501N000512200019N0040001N1+02591+02101101431ADDAA106000091GF102991021001008001011001KA1240M+03631MA1999999100411MD1999999+0091REMSYN088AAXX  19004 82392 32596 20501 10259 20210 30041 40143 82010 333 10363 29064 55087 58009;EQDQ01  00002PRCP06
0186823920999992003081912004-03700-040350FM-12+008399999V0201401N005112200019N0500001N1+02881+01801101781ADDAA106000091GF101991011011004501001001KA1240N+02281MA1999999100951MD1999999+0151REMSYN076AAXX  19124 82392 32499 11410 10288 20180 30095 40178 81100 333 20228 58015;EQDQ01  00002PRCP06
0167823920999992003081918004-03700-040350FM-12+008399999V0201401N000512200019N0500001N1+03491+02871101251ADDAA106000091GF102991011011004501001011MA1999999100241MD1999999+0081REMSYN070AAXX  19184 82392 32499 21401 10349 20287 30024 40125 81101 333 58008;EQDQ01  00002PRCP06
0208823920999992003082000004-03700-040350FM-12+008399999V0203601N001012200019N0040001N1+02641+01801101551ADDAA106000091GA1001+999999999GF100991001001999999001001KA1240M+03631MA1999999100481MD1999999+0071REMSYN082AAXX  20004 82392 32996 03602 10264 20180 30048 40155 333 10363 29048 55109 58007;EQDQ01  00002PRCP06
0186823920999992003082012004-03700-040350FM-12+008399999V0201401N001512200019N0500001N1+02861+01721101601ADDAA106000091GF101991011011004501001001KA1240N+02011MA1999999100571MD1999999-0181REMSYN076AAXX  20124 82392 32499 11403 10286 20172 30057 40160 81100 333 20201 59018;EQDQ01  00002PRCP06
0167823920999992003082018004-03700-040350FM-12+008399999V0200501N005712200019N0500001N1+03541+00831101021ADDAA106000091GF102991021011004501001001MA1999999100001MD1999999-0041REMSYN070AAXX  20184 82392 32499 20511 10354 20083 30000 40102 82100 333 59004;EQDQ01  00002PRCP06
0208823920999992003082100004-03700-040350FM-12+008399999V0203601N001012200019N0040001N1+02641+01881101351ADDAA106000091GA1001+999999999GF100991001001999999001001KA1240M+03611MA1999999100331MD1999999-0151REMSYN082AAXX  21004 82392 32996 03602 10264 20188 30033 40135 333 10361 29049 55108 59015;EQDQ01  00002PRCP06
0186823920999992003082112004-03700-040350FM-12+008399999V0201401N000512200019N0500001N1+02881+01771101421ADDAA106000091GF102991011011004501031001KA1240N+01971MA1999999100401MD1999999-0171REMSYN076AAXX  21124 82392 32499 21401 10288 20177 30040 40142 81130 333 20197 59017;EQDQ01  00002PRCP06
0167823920999992003082118004-03700-040350FM-12+008399999V0201401N001012200019N0500001N1+03641+01191100831ADDAA106000091GF101991011011004501001001MA1999999099821MD1999999-0181REMSYN070AAXX  21184 82392 32499 11402 10364 20119 39982 40083 81100 333 59018;EQDQ01  00002PRCP06
0208823920999992003082200004-03700-040350FM-12+008399999V0203601N032422200019N0040001N1+02521+02051101221ADDAA106000091GA1001+999999999GF100991001001999999001001KA1240M+03681MA1999999100201MD1999999-0131REMSYN082AAXX  22004 82392 32996 03663 10252 20205 30020 40122 333 10368 29056 55109 59013;EQDQ01  00002PRCP06
0186823920999992003082212004-03700-040350FM-12+008399999V0201401N001010042019N0500001N1+02761+02121101401ADDAA106000091GF106991051041004501031001KA1240N+02121MA1999999100381MD1999999-0021REMSYN076AAXX  22124 82392 32499 61402 10276 20212 30038 40140 85430 333 20212 59002;EQDQ01  00002PRCP06
0167823920999992003082218004-03700-040350FM-12+008399999V0201801N000512200019N0500001N1+03561+01641100891ADDAA106000091GF104991031021004501031001MA1999999099881MD1999999+0061REMSYN070AAXX  22184 82392 32499 41801 10356 20164 39988 40089 83230 333 58006;EQDQ01  00002PRCP06
0208823920999992003082300004-03700-040350FM-12+008399999V0200501N004612200019N0040001N1+02581+02081101371ADDAA106000091GA1001+999999999GF100991001001999999001001KA1240M+03621MA1999999100351MD1999999+0151REMSYN082AAXX  23004 82392 32996 00509 10258 20208 30035 40137 333 10362 29062 55079 58015;EQDQ01  00002PRCP06
0186823920999992003082312004-03700-040350FM-12+008399999V0200501N001010042019N0500001N1+05281+01971101601ADDAA106000091GF105991051021004501001001KA1240N+02221MA1999999100571MD1999999+0191REMSYN076AAXX  23124 82392 32499 50502 10528 20197 30057 40160 85200 333 20222 58019;EQDQ01  00002PRCP06
0183823920999992003082318004-03700-040350FM-12+008399999V0200901N002612200019N0500001N1+03532+01461100941ADDAA106000091GF104991041011004501001001MA1999999099931MD1999999+0051REMSYN070AAXX  23184 82392 32499 40905 10353 20146 39993 40094 84100 333 58005;EQDQ01+003533ATOT  Q02  00002PRCP06
0208823920999992003082400004-03700-040350FM-12+008399999V0203601N002612200019N0040001N1+02641+02031101341ADDAA106000091GA1001+999999999GF100991001001999999001001KA1240M+03791MA1999999100321MD1999999-0031REMSYN082AAXX  24004 82392 32996 03605 10264 20203 30032 40134 333 10379 29056 55104 59003;EQDQ01  00002PRCP06
0186823920999992003082412004-03700-040350FM-12+008399999V0201401N001012200019N0500001N1+02861+02011101481ADDAA106000091GF103991031021004501001001KA1240N+02121MA1999999100451MD1999999-0121REMSYN076AAXX  24124 82392 32499 31402 10286 20201 30045 40148 83200 333 20212 59012;EQDQ01  00002PRCP06
0167823920999992003082418004-03700-040350FM-12+008399999V0201401N001512200019N0500001N1+03501+01481100931ADDAA106000091GF104991041021004501001001MA1999999099921MD1999999-0011REMSYN070AAXX  24184 82392 32499 41403 10350 20148 39992 40093 84200 333 59001;EQDQ01  00002PRCP06
0208823920999992003082500004-03700-040350FM-12+008399999V0200501N001512200019N0040001N1+02621+01621101301ADDAA106000091GA1001+999999999GF100991001001999999001001KA1240M+03601MA1999999100281MD1999999-0041REMSYN082AAXX  25004 82392 32996 00503 10262 20162 30028 40130 333 10360 29050 55091 59004;EQDQ01  00002PRCP06
0186823920999992003082512004-03700-040350FM-12+008399999V0201401N002612200019N0500001N1+02781+01981101531ADDAA106000091GF102991021011004501001001KA1240N+02061MA1999999100501MD1999999+0051REMSYN076AAXX  25124 82392 32499 21405 10278 20198 30050 40153 82100 333 20206 58005;EQDQ01  00002PRCP06
0167823920999992003082518004-03700-040350FM-12+008399999V0202301N000512200019N0040001N1+03561+01821100971ADDAA106000091GF101991011011004501001001MA1999999099961MD1999999+0041REMSYN070AAXX  25184 82392 32496 12301 10356 20182 39996 40097 81100 333 58004;EQDQ01  00002PRCP06
0208823920999992003082600004-03700-040350FM-12+008399999V0203601N002612200019N0040001N1+02591+02011101281ADDAA106000091GA1001+999999999GF100991001001999999001001KA1240M+03651MA1999999100261MD1999999-0021REMSYN082AAXX  26004 82392 32996 03605 10259 20201 30026 40128 333 10365 29060 55093 59002;EQDQ01  00002PRCP06
0186823920999992003082612004-03700-040350FM-12+008399999V0202301N000510450019N0500001N1+02601+02121101491ADDAA106000091GF106991041041004501031001KA1240N+02161MA1999999100461MD1999999-0041REMSYN076AAXX  26124 82392 32499 62301 10260 20212 30046 40149 84430 333 20216 59004;EQDQ01  00002PRCP06
0167823920999992003082618004-03700-040350FM-12+008399999V0201401N000512200019N0500001N1+03571+01551100871ADDAA106000091GF104991041011004501001001MA1999999099861MD1999999-0101REMSYN070AAXX  26184 82392 32499 41401 10357 20155 39986 40087 84100 333 59010;EQDQ01  00002PRCP06
0208823920999992003082700004-03700-040350FM-12+008399999V0203601N003112200019N0040001N1+02561+01971101311ADDAA106000091GA1001+999999999GF100991001001999999001001KA1240M+03761MA1999999100291MD1999999+0031REMSYN082AAXX  27004 82392 32996 03606 10256 20197 30029 40131 333 10376 29061 55085 58003;EQDQ01  00002PRCP06
0186823920999992003082712004-03700-040350FM-12+008399999V0201401N002612200019N0500001N1+02861+02201101531ADDAA106000091GF103991031021004501001001KA1240N+02261MA1999999100501MD1999999+0041REMSYN076AAXX  27124 82392 32499 31405 10286 20220 30050 40153 83200 333 20226 58004;EQDQ01  00002PRCP06
0167823920999992003082718004-03700-040350FM-12+008399999V0200501N003612200019N0500001N1+03621+01771100951ADDAA106000091GF104991041021004501001001MA1999999099941MD1999999+0081REMSYN070AAXX  27184 82392 32499 40507 10362 20177 39994 40095 84200 333 58008;EQDQ01  00002PRCP06
0208823920999992003082800004-03700-040350FM-12+008399999V0203601N003112200019N0040001N1+02591+01991101371ADDAA106000091GA1001+999999999GF100991001001999999001001KA1240M+03711MA1999999100351MD1999999+0061REMSYN082AAXX  28004 82392 32996 03606 10259 20199 30035 40137 333 10371 29060 55096 58006;EQDQ01  00002PRCP06
0186823920999992003082812004-03700-040350FM-12+008399999V0200901N000510042019N0500001N1+02721+02151101581ADDAA106000091GF107991071041004501001001KA1240N+02371MA1999999100551MD1999999+0051REMSYN076AAXX  28124 82392 32499 70901 10272 20215 30055 40158 87400 333 20237 58005;EQDQ01  00002PRCP06
0167823920999992003082818004-03700-040350FM-12+008399999V0200901N001010042019N0500001N1+03261+01911101031ADDAA106000091GF105991051041004501001001MA1999999100011MD1999999+0071REMSYN070AAXX  28184 82392 32499 50902 10326 20191 30001 40103 85400 333 58007;EQDQ01  00002PRCP06
0208823920999992003082900004-03700-040350FM-12+008399999V0200501N005112200019N0040001N1+02581+02101101321ADDAA106000091GA1001+999999999GF100991001001999999001001KA1240M+03561MA1999999100301MD1999999-0051REMSYN082AAXX  29004 82392 32996 00510 10258 20210 30030 40132 333 10356 29066 55055 59005;EQDQ01  00002PRCP06
0186823920999992003082912004-03700-040350FM-12+008399999V0201401N001512200019N0500001N1+02781+02061101611ADDAA106000091GF104991041021004501001001KA1240N+02181MA1999999100581MD1999999+0031REMSYN076AAXX  29124 82392 32499 41403 10278 20206 30058 40161 84200 333 20218 58003;EQDQ01  00002PRCP06
0167823920999992003082918004-03700-040350FM-12+008399999V0200501N001512200019N0500001N1+03471+01791101061ADDAA106000091GF104991041021004501001001MA1999999100041MD1999999+0031REMSYN070AAXX  29184 82392 32499 40503 10347 20179 30004 40106 84200 333 58003;EQDQ01  00002PRCP06
0208823920999992003083000004-03700-040350FM-12+008399999V0200501N002612200019N0040001N1+02681+02101101351ADDAA106000091GA1001+999999999GF100991001001999999001001KA1240M+03541MA1999999100331MD1999999+0031REMSYN082AAXX  30004 82392 32996 00505 10268 20210 30033 40135 333 10354 29063 55101 58003;EQDQ01  00002PRCP06
0186823920999992003083012004-03700-040350FM-12+008399999V0200501N001010450019N0500001N1+02621+02141101681ADDAA106000091GF108991041051004501021001KA1240N+02101MA1999999100651MD1999999+0071REMSYN076AAXX  30124 82392 32499 80502 10262 20214 30065 40168 84520 333 20210 58007;EQDQ01  00002PRCP06
0167823920999992003083018004-03700-040350FM-12+008399999V0200501N000510042019N0500001N1+03281+02011101271ADDAA106000091GF107991051051004501031001MA1999999100251MD1999999+0211REMSYN070AAXX  30184 82392 32499 70501 10328 20201 30025 40127 85530 333 58021;EQDQ01  00002PRCP06
0208823920999992003083100004-03700-040350FM-12+008399999V0203601N005712200019N0040001N1+02581+02081101461ADDAA106000091GA1001+999999999GF100991001001999999001001KA1240M+03431MA1999999100441MD1999999+0111REMSYN082AAXX  31004 82392 32496 03611 10258 20208 30044 40146 333 10343 29068 55014 58011;EQDQ01  00002PRCP06
0186823920999992003083112004-03700-040350FM-12+008399999V0200901N000510450019N0500001N1+02811+02101101721ADDAA106000091GF106991031041004501031001KA1240N+02081MA1999999100691MD1999999+0041REMSYN076AAXX  31124 82392 32499 60901 10281 20210 30069 40172 83430 333 20208 58004;EQDQ01  00002PRCP06
0167823920999992003083118004-03700-040350FM-12+008399999V0209999C000010450019N0500001N1+03271+01821101151ADDAA106000091GF106991031051004501031001MA1999999100131MD1999999-0121REMSYN070AAXX  31184 82392 32499 60000 10327 20182 30013 40115 83530 333 59012;EQDQ01  00002PRCP06
0198823920999992003090100004-03700-040350FM-12+008399999V0203601N000512200019N0040001N1+02601+01841101421ADDAA106000091GF102991011011004501031001KA1240M+03541MA1999999100401MD1999999-0041REMSYN088AAXX  01004 82392 32496 23601 10260 20184 30040 40142 81130 333 10354 29058 55063 59004;EQDQ01  00002PRCP06
0186823920999992003090112004-03700-040350FM-12+008399999V0201401N001012200019N0500001N1+02801+01951101651ADDAA106000091GF103991031021004501001001KA1240N+02021MA1999999100621MD1999999-0071REMSYN076AAXX  01124 82392 32499 31402 10280 20195 30062 40165 83200 333 20202 59007;EQDQ01  00002PRCP06
0167823920999992003090118004-03700-040350FM-12+008399999V0200501N003612200019N0500001N1+03621+01361101011ADDAA106000091GF102991021011004501001001MA1999999100101MD1999999-0031REMSYN070AAXX  01184 82392 32499 20507 10362 20136 30010 40101 82100 333 59003;EQDQ01  00002PRCP06
0208823920999992003090200004-03700-040350FM-12+008399999V0200501N001012200019N0040001N1+02551+02061101421ADDAA106000091GA1001+999999999GF100991001001999999001001KA1240M+03691MA1999999100401MD1999999+0001REMSYN082AAXX  02004 82392 32996 00502 10255 20206 30040 40142 333 10369 29059 55106 58000;EQDQ01  00002PRCP06
0171823920999992003090212004-03700-040350FM-12+008399999V0201401N001512200019N0500001N1+02701+02061101731ADDAA106000091GF103991999999004501999999KA1240N+02221MA1999999100701REMSYN075AAXX  02124 82392 32499 31403 10270 20206 30070 40173 8300 333 20222 58008;EQDQ01  00002PRCP06
0183823920999992003090218004-03700-040350FM-12+008399999V0200501N002612200019N0500001N1+03511+01551101141ADDAA106000091GF104991999011004501001001MA1999999100131MD1999999+0031REMSYN070AAXX  02184 82392 32499 40505 10351 20155 30013 40114 82100 333 58003;EQDQ01+000022SCOTLCQ02  00002PRCP06
0208823920999992003090300004-03700-040350FM-12+008399999V0200501N002612200019N0040001N1+02601+01821101391ADDAA106000091GA1001+999999999GF100991001001999999001001KA1240M+03621MA1999999100371MD1999999-0031REMSYN082AAXX  03004 82392 32496 00505 10260 20182 30037 40139 333 10362 29056 55097 59003;EQDQ01  00002PRCP06
0186823920999992003090312004-03700-040350FM-12+008399999V0200501N003112200019N0500001N1+02861+01841101691ADDAA106000091GF102991021011004501001001KA1240N+02001MA1999999100661MD1999999-0041REMSYN076AAXX  03124 82392 32499 20506 10286 20184 30066 40169 82100 333 20200 59004;EQDQ01  00002PRCP06
0167823920999992003090318004-03700-040350FM-12+008399999V0201401N002112200019N0500001N1+03621+01481101121ADDAA106000091GF103991021011004501031001MA1999999100101MD1999999-0031REMSYN070AAXX  03184 82392 32499 31404 10362 20148 30010 40112 82130 333 59003;EQDQ01  00002PRCP06
0208823920999992003090400004-03700-040350FM-12+008399999V0200501N001512200019N0040001N1+02661+01921101421ADDAA106000091GA1001+999999999GF100991001001999999001001KA1240M+03761MA1999999100401MD1999999+0031REMSYN082AAXX  04004 82392 32996 00503 10266 20192 30040 40142 333 10376 29053 55105 58003;EQDQ01  00002PRCP06
0186823920999992003090412004-03700-040350FM-12+008399999V0201801N000512200019N0500001N1+03241+01781101601ADDAA106000091GF104991041011004501001001KA1240N+02161MA1999999100581MD1999999-0081REMSYN076AAXX  04124 82392 32499 41801 10324 20178 30058 40160 84100 333 20216 59008;EQDQ01  00002PRCP06
0167823920999992003090418004-03700-040350FM-12+008399999V0201801N001012200019N0500001N1+03641+01601101021ADDAA106000091GF104991041011004501001001MA1999999100011MD1999999-0091REMSYN070AAXX  04184 82392 32499 41802 10364 20160 30001 40102 84100 333 59009;EQDQ01  00002PRCP06
0198823920999992003090500004-03700-040350FM-12+008399999V0200501N005712200019N0040001N1+02781+02131101451ADDAA106000091GF104991031011004501031001KA1240M+03721MA1999999100441MD1999999+0041REMSYN088AAXX  05004 82392 32496 40511 10278 20213 30044 40145 83130 333 10372 29052 55095 58004;EQDQ01  00002PRCP06
0186823920999992003090512004-03700-040350FM-12+008399999V0201401N002612200019N0500001N1+02981+01981101561ADDAA106000091GF102991021011004501001001KA1240N+02311MA1999999100541MD1999999-0041REMSYN076AAXX  05124 82392 32499 21405 10298 20198 30054 40156 82100 333 20231 59004;EQDQ01  00002PRCP06
0183823920999992003090518004-03700-040350FM-12+008399999V0201401N001019999999N0500001N1+03581+01601101051ADDAA106000091GF105991999011004501001001MA1999999100041MD1999999+0031REMSYN070AAXX  05184 82392 32499 51402 10358 20160 30004 40105 84100 333 58003;EQDQ01+000042SCOTLCQ02  00002PRCP06
0208823920999992003090600004-03700-040350FM-12+008399999V0200501N004112200019N0040001N1+02681+02241101381ADDAA106000091GA1001+999999999GF100991001001999999001001KA1240M+03621MA1999999100361MD1999999-0081REMSYN082AAXX  06004 82392 32996 00508 10268 20224 30036 40138 333 10362 29060 55097 59008;EQDQ01  00002PRCP06
0186823920999992003090612004-03700-040350FM-12+008399999V0201401N001012200019N0500001N1+03001+01611101421ADDAA106000091GF102991021011004501001001KA1240N+02221MA1999999100411MD1999999-0141REMSYN076AAXX  06124 82392 32499 21402 10300 20161 30041 40142 82100 333 20222 59014;EQDQ01  00002PRCP06
0167823920999992003090618004-03700-040350FM-12+008399999V0201401N001012200019N0500001N1+03661+01461100871ADDAA106000091GF103991031011004501001001MA1999999099861MD1999999-0181REMSYN070AAXX  06184 82392 32499 31402 10366 20146 39986 40087 83100 333 59018;EQDQ01  00002PRCP06
0208823920999992003090700004-03700-040350FM-12+008399999V0203601N000512200019N0040001N1+02721+01981101211ADDAA106000091GA1001+999999999GF100991001001999999001001KA1240M+03721MA1999999100201MD1999999-0161REMSYN082AAXX  07004 82392 32996 03601 10272 20198 30020 40121 333 10372 29050 55105 59016;EQDQ01  00002PRCP06
0186823920999992003090712004-03700-040350FM-12+008399999V0200901N003112200019N0500001N1+03001+01841101431ADDAA106000091GF101991011011004501001001KA1240N+02221MA1999999100421MD1999999+0021REMSYN076AAXX  07124 82392 32499 10906 10300 20184 30042 40143 81100 333 20222 58002;EQDQ01  00002PRCP06
0167823920999992003090718004-03700-040350FM-12+008399999V0201401N002612200019N0500001N1+03601+01521100891ADDAA106000091GF101991011011004501001001MA1999999099881MD1999999+0021REMSYN070AAXX  07184 82392 32499 11405 10360 20152 39988 40089 81100 333 58002;EQDQ01  00002PRCP06
0208823920999992003090800004-03700-040350FM-12+008399999V0200501N004612200019N0040001N1+02601+02231101261ADDAA106000091GA1001+999999999GF100991001001999999001001KA1240M+03681MA1999999100241MD1999999+0041REMSYN082AAXX  08004 82392 32996 00509 10260 20223 30024 40126 333 10368 29060 55101 58004;EQDQ01  00002PRCP06
0186823920999992003090812004-03700-040350FM-12+008399999V0201401N002612200019N0500001N1+02921+01891101481ADDAA106000091GF104991041021004501001001KA1240N+02201MA1999999100451MD1999999+0031REMSYN076AAXX  08124 82392 32499 41405 10292 20189 30045 40148 84200 333 20220 58003;EQDQ01  00002PRCP06
0167823920999992003090818004-03700-040350FM-12+008399999V0200501N003112200019N0500001N1+03541+01571100911ADDAA106000091GF103991031021004501001001MA1999999099901MD1999999+0021REMSYN070AAXX  08184 82392 32499 30506 10354 20157 39990 40091 83200 333 58002;EQDQ01  00002PRCP06
0198823920999992003090900004-03700-040350FM-12+008399999V0203601N001012200019N0040001N1+02641+01931101351ADDAA106000091GF101991011001008001031001KA1240M+03591MA1999999100331MD1999999+0091REMSYN088AAXX  09004 82392 32596 13602 10264 20193 30033 40135 81030 333 10359 29054 55105 58009;EQDQ01  00002PRCP06
0186823920999992003090912004-03700-040350FM-12+008399999V0200901N001512200019N0500001N1+02981+01891101531ADDAA106000091GF102991021011004501001001KA1240N+02231MA1999999100501MD1999999+0051REMSYN076AAXX  09124 82392 32499 20903 10298 20189 30050 40153 82100 333 20223 58005;EQDQ01  00002PRCP06
0208823920999992003091000004-03700-040350FM-12+008399999V0203601N000512200019N0040001N1+02641+01771101341ADDAA106000091GA1001+999999999GF100991001001999999001001KA1240M+03721MA1999999100321MD1999999-0011REMSYN082AAXX  10004 82392 32996 03601 10264 20177 30032 40134 333 10372 29050 55106 59001;EQDQ01  00002PRCP06
0186823920999992003091012004-03700-040350FM-12+008399999V0200901N003112200019N0500001N1+03001+01751101481ADDAA106000091GF101991011011004501001001KA1240N+02091MA1999999100451MD1999999-0051REMSYN076AAXX  10124 82392 32499 10906 10300 20175 30045 40148 81100 333 20209 59005;EQDQ01  00002PRCP06
0167823920999992003091018004-03700-040350FM-12+008399999V0200901N001012200019N0500001N1+03661+01621100881ADDAA106000091GF103991031021004501001001MA1999999099871MD1999999-0041REMSYN070AAXX  10184 82392 32499 30902 10366 20162 39987 40088 83200 333 59004;EQDQ01  00002PRCP06
0186823920999992003091112004-03700-040350FM-12+008399999V0200901N001012200019N0500001N1+02941+01761101421ADDAA106000091GF102991021011004501001001KA1240N+02121MA1999999100401MD1999999-0051REMSYN076AAXX  11124 82392 32499 20902 10294 20176 30040 40142 82100 333 20212 59005;EQDQ01  00002PRCP06
0167823920999992003091118004-03700-040350FM-12+008399999V0201801N001012200019N0500001N1+03641+01381100801ADDAA106000091GF101991011011004501001001MA1999999100791MD1999999-0081REMSYN070AAXX  11184 82392 32499 11802 10364 20138 30079 40080 81100 333 59008;EQDQ01  00002PRCP06
0208823920999992003091200004-03700-040350FM-12+008399999V0200501N002612200019N0040001N1+02681+02091101271ADDAA106000091GA1001+999999999GF100991001001999999001001KA1240M+03761MA1999999100251MD1999999-0041REMSYN082AAXX  12004 82392 32996 00505 10268 20209 30025 40127 333 10376 29054 55107 59004;EQDQ01  00002PRCP06
0186823920999992003091212004-03700-040350FM-12+008399999V0201401N003112200019N0500001N1+02901+02041101551ADDAA106000091GF104991041021004501001001KA1240N+02281MA1999999100521MD1999999+0121REMSYN076AAXX  12124 82392 32499 41406 10290 20204 30052 40155 84200 333 20228 58012;EQDQ01  00002PRCP06
0202823920999992003091312004-03700-040350FM-12+008399999V0201401N003112200019N0500001N1+02901+02041101581ADDAA106000091GF103991999021004501001001KA1240N+02091MA1999999100551MD1999999+0031REMSYN076AAXX  13124 82392 32499 31406 10290 20204 30055 40158 86200 333 20209 58003;EQDQ01+000062SCOTLCQ02  00002PRCP06
0183823920999992003091318004-03700-040350FM-12+008399999V0200501N004119999999N0500001N1+03641+01851101011ADDAA106000091GF105991999021004501001001MA1999999100001MD1999999-0031REMSYN070AAXX  13184 82392 32499 50508 10364 20185 30000 40101 83200 333 59003;EQDQ01+000032SCOTLCQ02  00002PRCP06
0208823920999992003091500004-03700-040350FM-12+008399999V0200501N003612200019N0040001N1+02701+02221101221ADDAA106000091GA1001+999999999GF100991001001999999001001KA1240M+03801MA1999999100201MD1999999-0101REMSYN082AAXX  15004 82392 32996 00507 10270 20222 30020 40122 333 10380 29061 55091 59010;EQDQ01  00002PRCP06
0186823920999992003091512004-03700-040350FM-12+008399999V0200901N002110450019N0500001N1+02921+02191101421ADDAA106000091GF106991041021004501031001KA1240N+02201MA1999999100401MD1999999-0101REMSYN076AAXX  15124 82392 32499 60904 10292 20219 30040 40142 84230 333 20220 59010;EQDQ01  00002PRCP06
0167823920999992003091618004-03700-040350FM-12+008399999V0200501N002612200019N0500001N1+03601+01571100871ADDAA106000091GF102991021011004501001001MA1999999099861MD1999999-0061REMSYN070AAXX  16184 82392 32499 20505 10360 20157 39986 40087 82100 333 59006;EQDQ01  00002PRCP06
0208823920999992003091700004-03700-040350FM-12+008399999V0203601N002612200019N0040001N1+02581+02011101211ADDAA106000091GA1001+999999999GF100991001001999999001001KA1240M+03891MA1999999100191MD1999999+0031REMSYN082AAXX  17004 82392 32996 03605 10258 20201 30019 40121 333 10389 29057 55101 58003;EQDQ01  00002PRCP06
0186823920999992003091712004-03700-040350FM-12+008399999V0200901N001510450019N0500001N1+02801+02081101441ADDAA106000091GF106991041041004501031001KA1240N+02321MA1999999100421MD1999999+0001REMSYN076AAXX  17124 82392 32499 60903 10280 20208 30042 40144 84430 333 20232 58000;EQDQ01  00002PRCP06
0167823920999992003091718004-03700-040350FM-12+008399999V0200901N001012200019N0500001N1+03401+01851100951ADDAA106000091GF104991041021004501001001MA1999999099941MD1999999+0081REMSYN070AAXX  17184 82392 32499 40902 10340 20185 39994 40095 84200 333 58008;EQDQ01  00002PRCP06
0208823920999992003091800004-03700-040350FM-12+008399999V0203601N002612200019N0040001N1+02591+01891101201ADDAA106000091GA1001+999999999GF100991001001999999001001KA1240M+03611MA1999999100181MD1999999-0011REMSYN082AAXX  18004 82392 32996 03605 10259 20189 30018 40120 333 10361 29059 55079 59001;EQDQ01  00002PRCP06
0186823920999992003091812004-03700-040350FM-12+008399999V0200901N004612200019N0500001N1+02901+02021101321ADDAA106000091GF102991021011004501001001KA1240N+02001MA1999999100301MD1999999-0121REMSYN076AAXX  18124 82392 32499 20909 10290 20202 30030 40132 82100 333 20200 59012;EQDQ01  00002PRCP06
0167823920999992003091818004-03700-040350FM-12+008399999V0200901N002610042019N0500001N1+03641+01701100791ADDAA106000091GF105991051021004501001001MA1999999099781MD1999999-0161REMSYN070AAXX  18184 82392 32499 50905 10364 20170 39978 40079 85200 333 59016;EQDQ01  00002PRCP06
0208823920999992003091900004-03700-040350FM-12+008399999V0200501N002612200019N0040001N1+02661+02181101161ADDAA106000091GA1001+999999999GF100991001001999999001001KA1240M+03721MA1999999100141MD1999999-0041REMSYN082AAXX  19004 82392 32996 00505 10266 20218 30014 40116 333 10372 29060 55102 59004;EQDQ01  00002PRCP06
0186823920999992003091912004-03700-040350FM-12+008399999V0200901N003110450019N0500001N1+02881+02031101281ADDAA106000091GF105991041021004501031001KA1240N+02271MA1999999100261MD1999999-0041REMSYN076AAXX  19124 82392 32499 50906 10288 20203 30026 40128 84230 333 20227 59004;EQDQ01  00002PRCP06
0167823920999992003091918004-03700-040350FM-12+008399999V0201801N001012200019N0500001N1+03701+01241100691ADDAA106000091GF101991011011004501001001MA1999999099681MD1999999-0101REMSYN070AAXX  19184 82392 32499 11802 10370 20124 39968 40069 81100 333 59010;EQDQ01  00002PRCP06
0208823920999992003092000004-03700-040350FM-12+008399999V0200501N003112200019N0040001N1+02581+01991101121ADDAA106000091GA1001+999999999GF100991001001999999001001KA1240M+03721MA1999999100101MD1999999-0041REMSYN082AAXX  20004 82392 32996 00506 10258 20199 30010 40112 333 10372 29058 55106 59004;EQDQ01  00002PRCP06
0186823920999992003092012004-03700-040350FM-12+008399999V0201401N001512200019N0500001N1+03001+02001101321ADDAA106000091GF102991021021004501001001KA1240N+02201MA1999999100301MD1999999+0041REMSYN076AAXX  20124 82392 32499 21403 10300 20200 30030 40132 82200 333 20220 58004;EQDQ01  00002PRCP06
0167823920999992003092018004-03700-040350FM-12+008399999V0200501N001010450019N0500001N1+03491+01481100851ADDAA106000091GF105991041011004501011001MA1999999099841MD1999999+0161REMSYN070AAXX  20184 82392 32499 50502 10349 20148 39984 40085 84110 333 58016;EQDQ01  00002PRCP06
0186823920999992003092112004-03700-040350FM-12+008399999V0200501N004612200019N0500001N1+02881+01801101421ADDAA106000091GF101991011011004501001001KA1240N+02181MA1999999100421MD1999999+0131REMSYN076AAXX  21124 82392 32499 10509 10288 20180 30042 40142 81100 333 20218 58013;EQDQ01  00002PRCP06
0167823920999992003092118004-03700-040350FM-12+008399999V0200901N003112200019N0500001N1+03521+01501100931ADDAA106000091GF101991011011004501001001MA1999999099921MD1999999+0081REMSYN070AAXX  21184 82392 32499 10906 10352 20150 39992 40093 81100 333 58008;EQDQ01  00002PRCP06
0208823920999992003092200004-03700-040350FM-12+008399999V0200501N002612200019N0040001N1+02641+01901101281ADDAA106000091GA1001+999999999GF100991001001999999001001KA1240M+03621MA1999999100261MD1999999+0011REMSYN082AAXX  22004 82392 32996 00505 10264 20190 30026 40128 333 10362 29053 55106 58001;EQDQ01  00002PRCP06
0186823920999992003092212004-03700-040350FM-12+008399999V0200901N003112200019N0500001N1+02981+01891101321ADDAA106000091GF101991011011004501001001KA1240N+02051MA1999999100301MD1999999-0101REMSYN076AAXX  22124 82392 32499 10906 10298 20189 30030 40132 81100 333 20205 59010;EQDQ01  00002PRCP06
0167823920999992003092218004-03700-040350FM-12+008399999V0200901N002612200019N0500001N1+03641+01601100781ADDAA106000091GF103991031021004501001001MA1999999099771MD1999999-0151REMSYN070AAXX  22184 82392 32499 30905 10364 20160 39977 40078 83200 333 59015;EQDQ01  00002PRCP06
0208823920999992003092400004-03700-040350FM-12+008399999V0203601N002612200019N0040001N1+02641+01961101091ADDAA106000091GA1001+999999999GF100991001001999999001001KA1240M+03691MA1999999100071MD1999999-0041REMSYN082AAXX  24004 82392 32996 03605 10264 20196 30007 40109 333 10369 29055 55093 59004;EQDQ01  00002PRCP06
0186823920999992003092412004-03700-040350FM-12+008399999V0200901N002619999999N0040001N1+02861+02011101381ADDAA106000091GF105991041021999999031001KA1240N+02101MA1999999100361MD1999999+0101REMSYN076AAXX  24124 82392 32996 50905 10286 20201 30036 40138 84230 333 20210 58010;EQDQ01  00002PRCP06
0167823920999992003092418004-03700-040350FM-12+008399999V0201401N001010450019N0500001N1+03521+01741100811ADDAA106000091GF105991031021004501031001MA1999999099801MD1999999+0081REMSYN070AAXX  24184 82392 32499 51402 10352 20174 39980 40081 83230 333 58008;EQDQ01  00002PRCP06
0208823920999992003092500004-03700-040350FM-12+008399999V0203601N001512200019N0040001N1+02621+01831101061ADDAA106000091GA1001+999999999GF100991001001999999001001KA1240M+03631MA1999999100041MD1999999-0031REMSYN082AAXX  25004 82392 32996 03603 10262 20183 30004 40106 333 10363 29055 55100 59003;EQDQ01  00002PRCP06
0186823920999992003092512004-03700-040350FM-12+008399999V0200901N004112200019N0500001N1+02801+01951101321ADDAA106000091GF104991041021004501001001KA1240N+02181MA1999999100301MD1999999-0061REMSYN076AAXX  25124 82392 32499 40908 10280 20195 30030 40132 84200 333 20218 59006;EQDQ01  00002PRCP06
0167823920999992003092518004-03700-040350FM-12+008399999V0200901N001010042019N0500001N1+03641+01651100801ADDAA106000091GF105991051021004501001001MA1999999099791MD1999999-0011REMSYN070AAXX  25184 82392 32499 50902 10364 20165 39979 40080 85200 333 59001;EQDQ01  00002PRCP06
0186823920999992003092612004-03700-040350FM-12+008399999V0200901N002610042019N0500001N1+02781+02161101221ADDAA106000091GF107991051051004501031001KA1240N+02101MA1999999100201MD1999999-0101REMSYN076AAXX  26124 82392 32499 70905 10278 20216 30020 40122 85530 333 20210 59010;EQDQ01  00002PRCP06
0167823920999992003092618004-03700-040350FM-12+008399999V0200901N001012200019N0500001N1+03541+01711100691ADDAA106000091GF106991041021004501001011MA1999999099681MD1999999-0111REMSYN070AAXX  26184 82392 32499 60902 10354 20171 39968 40069 84201 333 59011;EQDQ01  00002PRCP06
0208823920999992003092700004-03700-040350FM-12+008399999V0200501N004612200019N0500001N1+02581+02211101171ADDAA106000091GA1001+999999999GF100991001001999999001001KA1240M+03741MA1999999100151MD1999999-0011REMSYN082AAXX  27004 82392 32499 00509 10258 20221 30015 40117 333 10374 29066 55086 59001;EQDQ01  00002PRCP06
0186823920999992003092712004-03700-040350FM-12+008399999V0200501N002612200019N0500001N1+02941+01971101221ADDAA106000091GF102991021011004501001001KA1240N+02201MA1999999100201MD1999999+0001REMSYN076AAXX  27124 82392 32499 20505 10294 20197 30020 40122 82100 333 20220 58000;EQDQ01  00002PRCP06
0167823920999992003092718004-03700-040350FM-12+008399999V0200901N001512200019N0500001N1+03681+01531100601ADDAA106000091GF101991011011004501001001MA1999999099601MD1999999-0081REMSYN070AAXX  27184 82392 32499 10903 10368 20153 39960 40060 81100 333 59008;EQDQ01  00002PRCP06
0208823920999992003092800004-03700-040350FM-12+008399999V0200501N005112200019N0040001N1+02581+01901100941ADDAA106000091GA1001+999999999GF100991001001999999001001KA1240M+03721MA1999999099921MD1999999-0231REMSYN082AAXX  28004 82392 32996 00510 10258 20190 39992 40094 333 10372 29054 55107 59023;EQDQ01  00002PRCP06
0186823920999992003092812004-03700-040350FM-12+008399999V0201401N001512200019N0500001N1+02941+02081101241ADDAA106000091GF103991031021004501001001KA1240N+02081MA1999999100221MD1999999+0021REMSYN076AAXX  28124 82392 32499 31403 10294 20208 30022 40124 83200 333 20208 58002;EQDQ01  00002PRCP06
0167823920999992003092818004-03700-040350FM-12+008399999V0200501N001012200019N0500001N1+03731+01521100621ADDAA106000091GF102991021011004501001001MA1999999099621MD1999999+0021REMSYN070AAXX  28184 82392 32499 20502 10373 20152 39962 40062 82100 333 58002;EQDQ01  00002PRCP06
0208823920999992003092900004-03700-040350FM-12+008399999V0203601N002612200019N0500001N1+02631+02051101071ADDAA106000091GA1001+999999999GF100991001001999999001001KA1240M+03791MA1999999100051MD1999999+0131REMSYN082AAXX  29004 82392 32499 03605 10263 20205 30005 40107 333 10379 29057 55097 58013;EQDQ01  00002PRCP06
0186823920999992003092912004-03700-040350FM-12+008399999V0200901N002612200019N0500001N1+02901+01871101361ADDAA106000091GF103991031021004501001001KA1240N+02241MA1999999100341MD1999999+0121REMSYN076AAXX  29124 82392 32499 30905 10290 20187 30034 40136 83200 333 20224 58012;EQDQ01  00002PRCP06
0167823920999992003092918004-03700-040350FM-12+008399999V0200501N003112200019N0500001N1+03681+01531100791ADDAA106000091GF102991021011004501001001MA1999999099781MD1999999+0161REMSYN070AAXX  29184 82392 32499 20506 10368 20153 39978 40079 82100 333 58016;EQDQ01  00002PRCP06
0208823920999992003093000004-03700-040350FM-12+008399999V0203601N003112200019N0040001N1+02641+02051101181ADDAA106000091GA1001+999999999GF100991001001999999001001KA1240M+03771MA1999999100161MD1999999+0111REMSYN082AAXX  30004 82392 32996 03606 10264 20205 30016 40118 333 10377 29056 55104 58011;EQDQ01  00002PRCP06
0186823920999992003093012004-03700-040350FM-12+008399999V0200901N001512200019N0500001N1+03001+02001101361ADDAA106000091GF101991011011004501001001KA1240N+02201MA1999999100341MD1999999+0001REMSYN076AAXX  30124 82392 32499 10903 10300 20200 30034 40136 81100 333 20220 58000;EQDQ01  00002PRCP06
0167823920999992003093018004-03700-040350FM-12+008399999V0200901N001012200019N0500001N1+03641+01551100791ADDAA106000091GF106991011011004501001011MA1999999099781MD1999999+0001REMSYN070AAXX  30184 82392 32499 60902 10364 20155 39978 40079 81101 333 58000;EQDQ01  00002PRCP06
0198823920999992003100100004-03700-040350FM-12+008399999V0203601N002612200019N0040001N1+02761+01801101101ADDAA106000091GF101991011001017501001011KA1240M+03711MA1999999100091MD1999999-0071REMSYN088AAXX  01004 82392 32796 13605 10276 20180 30009 40110 81001 333 10371 29049 55099 59007;EQDQ01  00002PRCP06
0186823920999992003100112004-03700-040350FM-12+008399999V0201401N001012200019N0500001N1+02861+02011101321ADDAA106000091GF102991021021004501001001KA1240N+02101MA1999999100301MD1999999-0041REMSYN076AAXX  01124 82392 32499 21402 10286 20201 30030 40132 82200 333 20210 59004;EQDQ01  00002PRCP06
0167823920999992003100118004-03700-040350FM-12+008399999V0200901N002612200019N0500001N1+03681+01641100691ADDAA106000091GF102991021011004501001001MA1999999099681MD1999999-0101REMSYN070AAXX  01184 82392 32499 20905 10368 20164 39968 40069 82100 333 59010;EQDQ01  00002PRCP06
0198823920999992003100200004-03700-040350FM-12+008399999V0203601N001012200019N0040001N1+02631+01951101091ADDAA106000091GF101991011011008001001001KA1240M+03721MA1999999100071MD1999999-0021REMSYN088AAXX  02004 82392 32596 13602 10263 20195 30007 40109 81100 333 10372 29056 55098 59002;EQDQ01  00002PRCP06
0186823920999992003100212004-03700-040350FM-12+008399999V0200901N002112200019N0500001N1+03001+02081101271ADDAA106000091GF101991011011004501001001KA1240N+02041MA1999999100251MD1999999-0051REMSYN076AAXX  02124 82392 32499 10904 10300 20208 30025 40127 81100 333 20204 59005;EQDQ01  00002PRCP06
0167823920999992003100218004-03700-040350FM-12+008399999V0200901N001010042019N0500001N1+03681+01531100681ADDAA106000091GF105991051021004501001001MA1999999099671MD1999999-0011REMSYN070AAXX  02184 82392 32499 50902 10368 20153 39967 40068 85200 333 59001;EQDQ01  00002PRCP06
0208823920999992003100300004-03700-040350FM-12+008399999V0200501N003112200019N0040001N1+02601+02121101071ADDAA106000091GA1001+999999999GF100991001001999999001001KA1240M+03701MA1999999100051MD1999999-0021REMSYN082AAXX  03004 82392 32996 00506 10260 20212 30005 40107 333 10370 29059 55103 59002;EQDQ01  00002PRCP06
0186823920999992003100312004-03700-040350FM-12+008399999V0201401N002610450019N0500001N1+02841+01991101401ADDAA106000091GF105991041021004501031001KA1240N+02241MA1999999100381MD1999999+0131REMSYN076AAXX  03124 82392 32499 51405 10284 20199 30038 40140 84230 333 20224 58013;EQDQ01  00002PRCP06
0167823920999992003100318004-03700-040350FM-12+008399999V0200901N002612200019N0500001N1+03461+01601100851ADDAA106000091GF104991041011004501001001MA1999999099841MD1999999+0171REMSYN070AAXX  03184 82392 32499 40905 10346 20160 39984 40085 84100 333 58017;EQDQ01  00002PRCP06
0208823920999992003100400004-03700-040350FM-12+008399999V0200501N004612200019N0040001N1+02621+01961101251ADDAA106000091GA1001+999999999GF100991001001999999001001KA1240M+03621MA1999999100231MD1999999+0181REMSYN082AAXX  04004 82392 32996 00509 10262 20196 30023 40125 333 10362 29056 55101 58018;EQDQ01  00002PRCP06
0186823920999992003100412004-03700-040350FM-12+008399999V0201401N002112200019N0500001N1+02901+02041101381ADDAA106000091GF103991031021004501001001KA1240N+02001MA1999999100361MD1999999-0021REMSYN076AAXX  04124 82392 32499 31404 10290 20204 30036 40138 83200 333 20200 59002;EQDQ01  00002PRCP06
0167823920999992003100418004-03700-040350FM-12+008399999V0200901N001012200019N0500001N1+03611+01481100851ADDAA106000091GF104991041021004501001001MA1999999099841MD1999999+0001REMSYN070AAXX  04184 82392 32499 40902 10361 20148 39984 40085 84200 333 58000;EQDQ01  00002PRCP06
0208823920999992003100500004-03700-040350FM-12+008399999V0203601N001012200019N0040001N1+02631+01831101231ADDAA106000091GA1001+999999999GF100991001001999999001001KA1240M+03611MA1999999100211MD1999999-0021REMSYN082AAXX  05004 82392 32996 03602 10263 20183 30021 40123 333 10361 29053 55103 59002;EQDQ01  00002PRCP06
0202823920999992003100512004-03700-040350FM-12+008399999V0201401N001512200019N0500001N1+02821+01971101281ADDAA106000091GF103991999011004501001001KA1240N+02161MA1999999100251MD1999999-0111REMSYN076AAXX  05124 82392 32499 31403 10282 20197 30025 40128 82100 333 20216 59011;EQDQ01+000022SCOTLCQ02  00002PRCP06
0167823920999992003100518004-03700-040350FM-12+008399999V0200501N002612200019N0500001N1+03621+01591100621ADDAA106000091GF102991021011004501001001MA1999999099621MD1999999-0221REMSYN070AAXX  05184 82392 32499 20505 10362 20159 39962 40062 82100 333 59022;EQDQ01  00002PRCP06
0208823920999992003100600004-03700-040350FM-12+008399999V0200501N003112200019N0040001N1+02621+02141101041ADDAA106000091GA1001+999999999GF100991001001999999001001KA1240M+03741MA1999999100021MD1999999-0191REMSYN082AAXX  06004 82392 32996 00506 10262 20214 30002 40104 333 10374 29060 55107 59019;EQDQ01  00002PRCP06
0202823920999992003100612004-03700-040350FM-12+008399999V0200901N004612200019N0500001N1+02001+01871101221ADDAA106000091GF104991041021004501001001KA1240N+99999MA1999999100201MD1999999-0051REMSYN076AAXX  06124 82392 32499 40909 10200 20187 30020 40122 84200 333 20219 59005;EQDQ01  00002PRCP06Q02 +02192ATMN  
0167823920999992003100618004-03700-040350FM-12+008399999V0200501N003112200019N0500001N1+03621+01481100691ADDAA106000091GF102991021011004501001001MA1999999099681MD1999999+0061REMSYN070AAXX  06184 82392 32499 20506 10362 20148 39968 40069 82100 333 58006;EQDQ01  00002PRCP06
0208823920999992003100700004-03700-040350FM-12+008399999V0203601N001012200019N0040001N1+02661+01921101121ADDAA106000091GA1001+999999999GF100991001001999999001001KA1240M+03681MA1999999100101MD1999999+0081REMSYN082AAXX  07004 82392 32996 03602 10266 20192 30010 40112 333 10368 29053 55095 58008;EQDQ01  00002PRCP06
0186823920999992003100712004-03700-040350FM-12+008399999V0201401N001512200019N0500001N1+02901+02041101381ADDAA106000091GF102991021011004501001001KA1240N+02091MA1999999100361MD1999999+0101REMSYN076AAXX  07124 82392 32499 21403 10290 20204 30036 40138 82100 333 20209 58010;EQDQ01  00002PRCP06
0167823920999992003100718004-03700-040350FM-12+008399999V0200901N001012200019N0500001N1+03501+01381100731ADDAA106000091GF106991041021004501001011MA1999999099721MD1999999+0041REMSYN070AAXX  07184 82392 32499 60902 10350 20138 39972 40073 84201 333 58004;EQDQ01  00002PRCP06
0198823920999992003100800004-03700-040350FM-12+008399999V0203601N001012200019N0040001N1+02641+02001101131ADDAA106000091GF102991021001017501001011KA1240M+03681MA1999999100111MD1999999+0011REMSYN088AAXX  08004 82392 32796 23602 10264 20200 30011 40113 82001 333 10368 29056 55089 58001;EQDQ01  00002PRCP06
0186823920999992003100812004-03700-040350FM-12+008399999V0201401N001512200019N0500001N1+02981+01891101281ADDAA106000091GF102991021011004501001001KA1240N+02231MA1999999100261MD1999999-0101REMSYN076AAXX  08124 82392 32499 21403 10298 20189 30026 40128 82100 333 20223 59010;EQDQ01  00002PRCP06
0167823920999992003100818004-03700-040350FM-12+008399999V0200901N002612200019N0500001N1+03661+01511100691ADDAA106000091GF101991011011004501001001MA1999999099681MD1999999-0041REMSYN070AAXX  08184 82392 32499 10905 10366 20151 39968 40069 81100 333 59004;EQDQ01  00002PRCP06
0208823920999992003100900004-03700-040350FM-12+008399999V0203601N001012200019N0040001N1+02641+02071101131ADDAA106000091GA1001+999999999GF100991001001999999001001KA1240M+03691MA1999999100111MD1999999+0001REMSYN082AAXX  09004 82392 32996 03602 10264 20207 30011 40113 333 10369 29056 55106 58000;EQDQ01  00002PRCP06
0186823920999992003100912004-03700-040350FM-12+008399999V0200901N001012200019N0500001N1+03021+01891101361ADDAA106000091GF104991041011004501001001KA1240N+02291MA1999999100241MD1999999-0021REMSYN076AAXX  09124 82392 32499 40902 10302 20189 30024 40136 84100 333 20229 59002;EQDQ01  00002PRCP06
0167823920999992003100918004-03700-040350FM-12+008399999V0200901N002612200019N0500001N1+03661+01511100661ADDAA106000091GF103991031011004501001001MA1999999099651MD1999999-0031REMSYN070AAXX  09184 82392 32499 30905 10366 20151 39965 40066 83100 333 59003;EQDQ01  00002PRCP06
0208823920999992003101000004-03700-040350FM-12+008399999V0200501N004612200019N0040001N1+02641+01951101161ADDAA106000091GA1001+999999999GF100991001001999999001001KA1240M+03721MA1999999100141MD1999999+0031REMSYN082AAXX  10004 82392 32996 00509 10264 20195 30014 40116 333 10372 29053 55104 58003;EQDQ01  00002PRCP06
0186823920999992003101012004-03700-040350FM-12+008399999V0200901N003112200019N0500001N1+02841+01991101221ADDAA106000091GF103991021021004501031001KA1240N+02081MA1999999100201MD1999999-0041REMSYN076AAXX  10124 82392 32499 30906 10284 20199 30020 40122 82230 333 20208 59004;EQDQ01  00002PRCP06
0167823920999992003101018004-03700-040350FM-12+008399999V0201401N001012200019N0500001N1+03631+01501100691ADDAA106000091GF104991041021004501001001MA1999999099681MD1999999+0031REMSYN070AAXX  10184 82392 32499 41402 10363 20150 39968 40069 84200 333 58003;EQDQ01  00002PRCP06
0208823920999992003101100004-03700-040350FM-12+008399999V0200501N003112200019N0040001N1+02601+02271101021ADDAA106000091GA1001+999999999GF100991001001999999001001KA1240M+03741MA1999999100001MD1999999-0141REMSYN082AAXX  11004 82392 32996 00506 10260 20227 30000 40102 333 10374 29063 55105 59014;EQDQ01  00002PRCP06
0186823920999992003101112004-03700-040350FM-12+008399999V0200901N002612200019N0500001N1+02901+02041101271ADDAA106000091GF103991031021004501001001KA1240N+02221MA1999999100251MD1999999+0051REMSYN076AAXX  11124 82392 32499 30905 10290 20204 30025 40127 83200 333 20222 58005;EQDQ01  00002PRCP06
0167823920999992003101118004-03700-040350FM-12+008399999V0200501N001512200019N0500001N1+03701+01651100761ADDAA106000091GF101991011011004501001001MA1999999099751MD1999999+0071REMSYN070AAXX  11184 82392 32499 10503 10370 20165 39975 40076 81100 333 58007;EQDQ01  00002PRCP06
0208823920999992003101200004-03700-040350FM-12+008399999V0200501N003612200019N0040001N1+02701+02011101051ADDAA106000091GA1001+999999999GF100991001001999999001001KA1240M+03761MA1999999100031MD1999999+0031REMSYN082AAXX  12004 82392 32996 00507 10270 20201 30003 40105 333 10376 29056 55088 58003;EQDQ01  00002PRCP06
0186823920999992003101212004-03700-040350FM-12+008399999V0200501N002610042019N0500001N1+02991+01911101191ADDAA106000091GF106991051021004501031001KA1240N+02261MA1999999100181MD1999999-0071REMSYN076AAXX  12124 82392 32499 60505 10299 20191 30018 40119 85230 333 20226 59007;EQDQ01  00002PRCP06
0167823920999992003101218004-03700-040350FM-12+008399999V0200501N001012200019N0500001N1+03741+01581100631ADDAA106000091GF104991041011004501001001MA1999999099631MD1999999-0121REMSYN070AAXX  12184 82392 32499 40502 10374 20158 39963 40063 84100 333 59012;EQDQ01  00002PRCP06
0208823920999992003101300004-03700-040350FM-12+008399999V0203601N001012200019N0040001N1+02741+01891101041ADDAA106000091GA1001+999999999GF100991001001999999001001KA1240M+03811MA1999999100031MD1999999+0001REMSYN082AAXX  13004 82392 32996 03602 10274 20189 30003 40104 333 10381 29050 55102 58000;EQDQ01  00002PRCP06
0186823920999992003101312004-03700-040350FM-12+008399999V0200501N001510450019N0500001N1+02861+02161101241ADDAA106000091GF108991041041004501021999KA1240N+02341MA1999999100221MD1999999+0041REMSYN076AAXX  13124 82392 32499 80503 10286 20216 30022 40124 8442/ 333 20234 58004;EQDQ01  00002PRCP06
0167823920999992003101318004-03700-040350FM-12+008399999V0200501N001512200019N0500001N1+03661+01911100751ADDAA106000091GF102991021021004501001001MA1999999099741MD1999999+0111REMSYN070AAXX  13184 82392 32499 20503 10366 20191 39974 40075 82200 333 58011;EQDQ01  00002PRCP06
0198823920999992003101400004-03700-040350FM-12+008399999V0203601N002610450019N0040001N1+02681+01941101051ADDAA106000091GF105991021011004501031001KA1240M+03691MA1999999100031MD1999999+0001REMSYN088AAXX  14004 82392 32496 53605 10268 20194 30003 40105 82130 333 10369 29058 55058 58000;EQDQ01  00002PRCP06
0186823920999992003101412004-03700-040350FM-12+008399999V0201401N001010450019N0500001N1+02881+02181101281ADDAA106000091GF106991041041004501031001KA1240N+02361MA1999999100261MD1999999+0041REMSYN076AAXX  14124 82392 32499 61402 10288 20218 30026 40128 84430 333 20236 58004;EQDQ01  00002PRCP06
0167823920999992003101418004-03700-040350FM-12+008399999V0201401N001012200019N0500001N1+03571+01751100691ADDAA106000091GF104991041011004501001001MA1999999099681MD1999999-0061REMSYN070AAXX  14184 82392 32499 41402 10357 20175 39968 40069 84100 333 59006;EQDQ01  00002PRCP06
0198823920999992003101500004-03700-040350FM-12+008399999V0203601N003112200019N0040001N1+02671+02111101161ADDAA106000091GF103991021011004501031001KA1240M+03661MA1999999100141MD1999999+0011REMSYN088AAXX  15004 82392 32496 33606 10267 20211 30014 40116 82130 333 10366 29061 55062 58001;EQDQ01  00002PRCP06
0186823920999992003101512004-03700-040350FM-12+008399999V0200901N001512200019N0500001N1+02901+02201101321ADDAA106000091GF103991031021004501001001KA1240N+02501MA1999999100301MD1999999+0041REMSYN076AAXX  15124 82392 32499 30903 10290 20220 30030 40132 83200 333 20250 58004;EQDQ01  00002PRCP06
0167823920999992003101518004-03700-040350FM-12+008399999V0201401N001012200019N0500001N1+03501+01771100871ADDAA106000091GF103991031021004501001001MA1999999099861MD1999999+0181REMSYN070AAXX  15184 82392 32499 31402 10350 20177 39986 40087 83200 333 58018;EQDQ01  00002PRCP06
0208823920999992003101600004-03700-040350FM-12+008399999V0200501N004612200019N0040001N1+02581+02311101221ADDAA106000091GA1001+999999999GF100991001001999999001001KA1240M+03661MA1999999100201MD1999999+0061REMSYN082AAXX  16004 82392 32996 00509 10258 20231 30020 40122 333 10366 29068 55090 58006;EQDQ01  00002PRCP06
0167823920999992003101618004-03700-040350FM-12+008399999V0200501N000512200019N0500001N1+03711+01561100721ADDAA106000091GF104991041011004501001001MA1999999099711MD1999999-0151REMSYN070AAXX  16184 82392 32499 40501 10371 20156 39971 40072 84100 333 59015;EQDQ01  00002PRCP06
0208823920999992003101700004-03700-040350FM-12+008399999V0203601N001012200019N0040001N1+02631+01951101161ADDAA106000091GA1001+999999999GF100991001001999999001001KA1240M+03731MA1999999100141MD1999999-0061REMSYN082AAXX  17004 82392 32996 03602 10263 20195 30014 40116 333 10373 29053 55108 59006;EQDQ01  00002PRCP06
0186823920999992003101712004-03700-040350FM-12+008399999V0200901N001010450019N0500001N1+02901+02121101371ADDAA106000091GF106991041041004501031001KA1240N+02321MA1999999100351MD1999999-0061REMSYN076AAXX  17124 82392 32499 60902 10290 20212 30035 40137 84430 333 20232 59006;EQDQ01  00002PRCP06
0167823920999992003101718004-03700-040350FM-12+008399999V0200901N002610450019N0500001N1+03631+01501100771ADDAA106000091GF105991041021004501011001MA1999999099761MD1999999+0051REMSYN070AAXX  17184 82392 32499 50905 10363 20150 39976 40077 84210 333 58005;EQDQ01  00002PRCP06
0208823920999992003101800004-03700-040350FM-12+008399999V0200501N003112200019N0040001N1+02601+02331101171ADDAA106000091GA1001+999999999GF100991001001999999001001KA1240M+03641MA1999999100151MD1999999+0011REMSYN082AAXX  18004 82392 32996 00506 10260 20233 30015 40117 333 10364 29065 55097 58001;EQDQ01  00002PRCP06
0186823920999992003101812004-03700-040350FM-12+008399999V0200501N002619999999N0500001N1+02921+01981101331ADDAA106000091GF106991999021008001001001KA1240N+02231MA1999999100311MD1999999-0041REMSYN076AAXX  18124 82392 32599 60505 10292 20198 30031 40133 84200 333 20223 59004;EQDQ01  00002PRCP06
0167823920999992003101818004-03700-040350FM-12+008399999V0200901N001019999999N0500001N1+03541+01671100871ADDAA106000091GF105991999021004501001001MA1999999099861MD1999999+0101REMSYN070AAXX  18184 82392 32499 50902 10354 20167 39986 40087 84200 333 58010;EQDQ01  00002PRCP06
0208823920999992003101900004-03700-040350FM-12+008399999V0203601N001012200019N0040001N1+02761+01941101011ADDAA106000091GA1001+999999999GF100991001001999999001001KA1240M+03631MA1999999100091MD1999999-0061REMSYN082AAXX  19004 82392 32996 03602 10276 20194 30009 40101 333 10363 29053 55071 59006;EQDQ01  00002PRCP06
0186823920999992003101912004-03700-040350FM-12+008399999V0200901N003110450019N0500001N1+02821+02101101421ADDAA106000091GF106991041051004501031001KA1240N+02181MA1999999100401MD1999999+0091REMSYN076AAXX  19124 82392 32499 60906 10282 20210 30040 40142 84530 333 20218 58009;EQDQ01  00002PRCP06
0167823920999992003101918004-03700-040350FM-12+008399999V0201401N001012200019N0040001N1+03721+01771100771ADDAA106000091GF102991021011004501001001MA1999999099761MD1999999-0101REMSYN070AAXX  19184 82392 32496 21402 10372 20177 39976 40077 82100 333 59010;EQDQ01  00002PRCP06
0208823920999992003102000004-03700-040350FM-12+008399999V0200501N005112200019N0040001N1+02641+02231101201ADDAA106000091GA1001+999999999GF100991001001999999001001KA1240M+03741MA1999999100181MD1999999+0091REMSYN082AAXX  20004 82392 32996 00510 10264 20223 30018 40120 333 10374 29063 55081 58009;EQDQ01  00002PRCP06
0186823920999992003102012004-03700-040350FM-12+008399999V0200901N001512200019N0500001N1+02961+01961101341ADDAA106000091GF101991011011004501001001KA1240N+02311MA1999999100321MD1999999-0081REMSYN076AAXX  20124 82392 32499 10903 10296 20196 30032 40134 81100 333 20231 59008;EQDQ01  00002PRCP06
0177823920999992003102018004-03700-040350FM-12+008399999V0201401N001012200019N0500001N1+03761+01481100751ADDAA106000091GA1001+999999999GF100991001001999999001001MA1999999099741MD1999999-0021REMSYN064AAXX  20184 82392 32499 01402 10376 20148 39974 40075 333 59002;EQDQ01  00002PRCP06
0208823920999992003102100004-03700-040350FM-12+008399999V0203601N001012200019N0040001N1+02631+02031101131ADDAA106000091GA1001+999999999GF100991001001999999001001KA1240M+03831MA1999999100111MD1999999-0071REMSYN082AAXX  21004 82392 32996 03602 10263 20203 30011 40113 333 10383 29055 55110 59007;EQDQ01  00002PRCP06
0186823920999992003102112004-03700-040350FM-12+008399999V0201401N002612200019N0500001N1+02981+02011101291ADDAA106000091GF103991031021004501001001KA1240N+02321MA1999999100271MD1999999-0051REMSYN076AAXX  21124 82392 32499 31405 10298 20201 30027 40129 83200 333 20232 59005;EQDQ01  00002PRCP06
0167823920999992003102118004-03700-040350FM-12+008399999V0200901N002612200019N0500001N1+03671+01641100581ADDAA106000091GF104991011011004501011011MA1999999099581MD1999999-0161REMSYN070AAXX  21184 82392 32499 40905 10367 20164 39958 40058 81111 333 59016;EQDQ01  00002PRCP06
0202823920999992003102212004-03700-040350FM-12+008399999V0200901N002612200019N0500001N1+02981+01891101281ADDAA106000091GF102991999011004501001001KA1240N+02341MA1999999100261MD1999999-0011REMSYN076AAXX  22124 82392 32499 20905 10298 20189 30026 40128 81100 333 20234 59001;EQDQ01+000012SCOTLCQ02  00002PRCP06
0167823920999992003102218004-03700-040350FM-12+008399999V0200901N003112200019N0500001N1+03701+01651100731ADDAA106000091GF103991031021004501001001MA1999999099721MD1999999+0141REMSYN070AAXX  22184 82392 32499 30906 10370 20165 39972 40073 83200 333 58014;EQDQ01  00002PRCP06
0198823920999992003102300004-03700-040350FM-12+008399999V0203601N002612200019N0040001N1+02721+01821101091ADDAA106000091GF102991021001012501011001KA1240M+03691MA1999999100081MD1999999+0131REMSYN088AAXX  23004 82392 32696 23605 10272 20182 30008 40109 82010 333 10369 29050 55090 58013;EQDQ01  00002PRCP06
0186823920999992003102312004-03700-040350FM-12+008399999V0200501N002610450019N0500001N1+02941+01911101361ADDAA106000091GF106991041021004501031001KA1240N+02261MA1999999100341MD1999999+0081REMSYN076AAXX  23124 82392 32499 60505 10294 20191 30034 40136 84230 333 20226 58008;EQDQ01  00002PRCP06
0167823920999992003102318004-03700-040350FM-12+008399999V0200901N001010450019N0500001N1+03641+01381100801ADDAA106000091GF106991041021004501011001MA1999999099791MD1999999+0071REMSYN070AAXX  23184 82392 32499 60902 10364 20138 39979 40080 84210 333 58007;EQDQ01  00002PRCP06
0208823920999992003102400004-03700-040350FM-12+008399999V0200501N003112200019N0040001N1+02621+02211101321ADDAA106000091GA1001+999999999GF100991001001999999001001KA1240M+03781MA1999999100301MD1999999+0221REMSYN082AAXX  24004 82392 32996 00506 10262 20221 30030 40132 333 10378 29059 55109 58022;EQDQ01  00002PRCP06
0186823920999992003102412004-03700-040350FM-12+008399999V0201401N001512200019N0500001N1+03001+01911101381ADDAA106000091GF101991011011004501001001KA1240N+02201MA1999999100361MD1999999+0021REMSYN076AAXX  24124 82392 32499 11403 10300 20191 30036 40138 81100 333 20220 58002;EQDQ01  00002PRCP06
0167823920999992003102418004-03700-040350FM-12+008399999V0201401N001012200019N0500001N1+03661+01571100871ADDAA106000091GF103991011011004501011011MA1999999099861MD1999999+0071REMSYN070AAXX  24184 82392 32499 31402 10366 20157 39986 40087 81111 333 58007;EQDQ01  00002PRCP06
0208823920999992003102500004-03700-040350FM-12+008399999V0203601N002612200019N0040001N1+02741+01951101261ADDAA106000091GA1001+999999999GF100991001001999999001001KA1240M+03761MA1999999100251MD1999999-0051REMSYN082AAXX  25004 82392 32996 03605 10274 20195 30025 40126 333 10376 29051 55106 59005;EQDQ01  00002PRCP06
0186823920999992003102512004-03700-040350FM-12+008399999V0200501N001512200019N0500001N1+03041+02061101271ADDAA106000091GF103991011011004501031001KA1240N+02281MA1999999100261MD1999999-0101REMSYN076AAXX  25124 82392 32499 30503 10304 20206 30026 40127 81130 333 20228 59010;EQDQ01  00002PRCP06
0137823920999992003102518004-03700-040350FM-12+008399999V0201401N001012200019N0500001N1+99999+99999999999ADDAA106000091GF104991999999004501999999REMSYN069AAXX  25184 82392 32499 41402 1066 20162 39966 40067 83230 333 59020;EQDQ01  00002PRCP06
0208823920999992003102600004-03700-040350FM-12+008399999V0203601N003112200019N0040001N1+02661+02201101021ADDAA106000091GA1001+999999999GF100991001001999999001001KA1240M+03781MA1999999100011MD1999999-0241REMSYN082AAXX  26004 82392 32996 03606 10266 20220 30001 40102 333 10378 29059 55099 59024;EQDQ01  00002PRCP06
0186823920999992003102612004-03700-040350FM-12+008399999V0200501N001010450019N0500001N1+02921+01921101111ADDAA106000091GF106991041021004501031001KA1240N+02321MA1999999100091MD1999999-0171REMSYN076AAXX  26124 82392 32499 60502 10292 20192 30009 40111 84230 333 20232 59017;EQDQ01  00002PRCP06
0167823920999992003102618004-03700-040350FM-12+008399999V0200501N000510450019N0500001N1+03611+01641100491ADDAA106000091GF106991021011004501031001MA1999999099491MD1999999+0101REMSYN070AAXX  26184 82392 32499 60501 10361 20164 39949 40049 82130 333 58010;EQDQ01  00002PRCP06
0208823920999992003102700004-03700-040350FM-12+008399999V0203601N002612200019N0040001N1+02621+02051100911ADDAA106000091GA1001+999999999GF100991001001999999001001KA1240M+03731MA1999999099891MD1999999-0121REMSYN082AAXX  27004 82392 32996 03605 10262 20205 39989 40091 333 10373 29057 55096 59012;EQDQ01  00002PRCP06
0186823920999992003102712004-03700-040350FM-12+008399999V0200901N001012200019N0500001N1+02821+02021101101ADDAA106000091GF103991011011004501031001KA1240N+02421MA1999999100081MD1999999-0011REMSYN076AAXX  27124 82392 32499 30902 10282 20202 30008 40110 81130 333 20242 59001;EQDQ01  00002PRCP06
0167823920999992003102718004-03700-040350FM-12+008399999V0200501N001512200019N0500001N1+03521+01741100601ADDAA106000091GF101991011011004501001001MA1999999099601MD1999999-0111REMSYN070AAXX  27184 82392 32499 10503 10352 20174 39960 40060 81100 333 59011;EQDQ01  00002PRCP06
0240823920999992003102800004-03700-040350FM-12+008399999V0200501N002612200019N0040001N1+02601+02191101021ADDAA106000091GA1001+999999999GF100991001001999999001001KA1240M+03641MA1999999099991MD1999999+0111REMSYN082AAXX  28004 82392 32996 00505 10260 20219 33000 40102 333 10364 29063 55091 58011;EQDQ01+030001APOSP Q02+999990APOSP Q03  00002PRCP06
0186823920999992003102812004-03700-040350FM-12+008399999V0201401N001512200019N0500001N1+02841+02041101271ADDAA106000091GF103991031021004501001001KA1240N+02211MA1999999100251MD1999999+0171REMSYN076AAXX  28124 82392 32499 31403 10284 20204 30025 40127 83200 333 20221 58017;EQDQ01  00002PRCP06
0167823920999992003102818004-03700-040350FM-12+008399999V0200901N001510042019N0500001N1+03521+01601100751ADDAA106000091GF105991051021004501001001MA1999999099741MD1999999+0141REMSYN070AAXX  28184 82392 32499 50903 10352 20160 39974 40075 85200 333 58014;EQDQ01  00002PRCP06
0208823920999992003102900004-03700-040350FM-12+008399999V0203601N001012200019N0040001N1+02681+01941101161ADDAA106000091GA1001+999999999GF100991001001999999001001KA1240M+03551MA1999999100141MD1999999+0141REMSYN082AAXX  29004 82392 32996 03602 10268 20194 30014 40116 333 10355 29056 55093 58014;EQDQ01  00002PRCP06
0186823920999992003102912004-03700-040350FM-12+008399999V0201401N001012200019N0500001N1+02941+02081101221ADDAA106000091GF103991031021004501001001KA1240N+02201MA1999999100201MD1999999-0051REMSYN076AAXX  29124 82392 32499 31402 10294 20208 30020 40122 83200 333 20220 59005;EQDQ01  00002PRCP06
0167823920999992003102918004-03700-040350FM-12+008399999V0200501N001512200019N0500001N1+03661+01621100691ADDAA106000091GF102991021011004501001001MA1999999099681MD1999999-0061REMSYN070AAXX  29184 82392 32499 20503 10366 20162 39968 40069 82100 333 59006;EQDQ01  00002PRCP06
0208823920999992003103000004-03700-040350FM-12+008399999V0203601N003112200019N0040001N1+02641+02161101061ADDAA106000091GA1001+999999999GF100991001001999999001001KA1240M+03741MA1999999100041MD1999999-0101REMSYN082AAXX  30004 82392 32996 03606 10264 20216 30004 40106 333 10374 29059 55096 59010;EQDQ01  00002PRCP06
0186823920999992003103012004-03700-040350FM-12+008399999V0200901N001510450019N0500001N1+03001+02171101151ADDAA106000091GF106991031021004501031001KA1240N+02501MA1999999100131MD1999999-0071REMSYN076AAXX  30124 82392 32499 60903 10300 20217 30013 40115 83230 333 20250 59007;EQDQ01  00002PRCP06
0167823920999992003103018004-03700-040350FM-12+008399999V0201801N000512200019N0500001N1+03671+01641100571ADDAA106000091GF102991021011004501001001MA1999999099571MD1999999-0111REMSYN070AAXX  30184 82392 32499 21801 10367 20164 39957 40057 82100 333 59011;EQDQ01  00002PRCP06
0208823920999992003103100004-03700-040350FM-12+008399999V0203601N003112200019N0040001N1+02681+02131100931ADDAA106000091GA1001+999999999GF100991001001999999001001KA1240M+03741MA1999999099911MD1999999-0131REMSYN082AAXX  31004 82392 32996 03606 10268 20213 39991 40093 333 10374 29059 55092 59013;EQDQ01  00002PRCP06
0186823920999992003103112004-03700-040350FM-12+008399999V0201401N000512200019N0500001N1+03001+02241101081ADDAA106000091GF104991031021004501031001KA1240N+02361MA1999999100061MD1999999-0071REMSYN076AAXX  31124 82392 32499 41401 10300 20224 30006 40108 83230 333 20236 59007;EQDQ01  00002PRCP06
0167823920999992003103118004-03700-040350FM-12+008399999V0200501N001010450019N0500001N1+03631+01751100521ADDAA106000091GF105991031021004501011001MA1999999099721MD1999999-0051REMSYN070AAXX  31184 82392 32499 50502 10363 20175 39972 40052 83210 333 59005;EQDQ01  00002PRCP06
0208823920999992003110100004-03700-040350FM-12+008399999V0200501N003112200019N0040001N1+02631+02371101021ADDAA106000091GA1001+999999999GF100991001001999999001001KA1240M+03701MA1999999100001MD1999999+0091REMSYN082AAXX  01004 82392 32996 00506 10263 20237 30000 40102 333 10370 29067 55083 58009;EQDQ01  00002PRCP06
0207823920999992003110112004-03700-040350FM-12+008399999V0200501N001010450019N0500001N1+02801+02311101151ADDAA124000491AY151061AY251061GF106991041041004501031001KA1240N+02521MA1999999100131MD1999999+0071MW1021REMSYN094AAXX  01124 82392 21499 60502 10280 20231 30013 40115 70255 84430 333 20252 58007 69944 10004;
0167823920999992003110118004-03700-040350FM-12+008399999V0203601N001010450019N0500001N1+03461+01981100661ADDAA106000091GF106991041041004501031001MA1999999099651MD1999999+0131REMSYN070AAXX  01184 82392 32499 63602 10346 20198 39965 40066 84430 333 58013;EQDQ01  00002PRCP06
0198823920999992003110200004-03700-040350FM-12+008399999V0203601N001010450019N0040001N1+02631+02031101141ADDAA106000091GF105991021021004501011001KA1240M+03571MA1999999100121MD1999999+0121REMSYN088AAXX  02004 82392 32496 53602 10263 20203 30012 40114 82210 333 10357 29064 55063 58012;EQDQ01  00002PRCP06
0186823920999992003110212004-03700-040350FM-12+008399999V0201401N001010450019N0500001N1+02741+02261101171ADDAA106000091GF108991041051004501021999KA1240N+02301MA1999999100151MD1999999+0021REMSYN076AAXX  02124 82392 32499 81402 10274 20226 30015 40117 8452/ 333 20230 58002;EQDQ01  00002PRCP06
0167823920999992003110218004-03700-040350FM-12+008399999V0201401N001012200019N0500001N1+03441+01921100691ADDAA106000091GF102991021011004501001001MA1999999099681MD1999999+0031REMSYN070AAXX  02184 82392 32499 21402 10344 20192 39968 40069 82100 333 58003;EQDQ01  00002PRCP06
0208823920999992003110300004-03700-040350FM-12+008399999V0200501N003112200019N0040001N1+02601+02121100971ADDAA106000091GA1001+999999999GF100991001001999999001001KA1240M+03501MA1999999099951MD1999999-0151REMSYN082AAXX  03004 82392 32996 00506 10260 20212 39995 40097 333 10350 29066 55044 59015;EQDQ01  00002PRCP06
0186823920999992003110312004-03700-040350FM-12+008399999V0200901N001512200019N0500001N1+03041+01751101121ADDAA106000091GF101991011011004501001001KA1240N+02301MA1999999100101MD1999999-0051REMSYN076AAXX  03124 82392 32499 10903 10304 20175 30010 40112 81100 333 20230 59005;EQDQ01  00002PRCP06
0167823920999992003110318004-03700-040350FM-12+008399999V0200901N002112200019N0500001N1+03721+01121100521ADDAA106000091GF101991011011004501001001MA1999999099521MD1999999-0161REMSYN070AAXX  03184 82392 32499 10904 10372 20112 39952 40052 81100 333 59016;EQDQ01  00002PRCP06
0198823920999992003110400004-03700-040350FM-12+008399999V0203601N002612200019N0040001N1+02641+02071100941ADDAA106000091GF101991011001008001011001KA1240M+03741MA1999999099921MD1999999-0031REMSYN088AAXX  04004 82392 32596 13605 10264 20207 39992 40094 81010 333 10374 29052 55111 59003;EQDQ01  00002PRCP06
0186823920999992003110412004-03700-040350FM-12+008399999V0200901N001012200019N0500001N1+02961+02131101121ADDAA106000091GF103991031021004501001001KA1240N+02281MA1999999100101MD1999999+0001REMSYN076AAXX  04124 82392 32499 30902 10296 20213 30010 40112 83200 333 20228 58000;EQDQ01  00002PRCP06
0167823920999992003110418004-03700-040350FM-12+008399999V0200501N001510450019N0500001N1+03571+01751100671ADDAA106000091GF106991031021004501011001MA1999999099661MD1999999+0141REMSYN070AAXX  04184 82392 32499 60503 10357 20175 39966 40067 83210 333 58014;EQDQ01  00002PRCP06
0198823920999992003110500004-03700-040350FM-12+008399999V0203601N000510450019N0040001N1+02721+01931101161ADDAA106000091GF106991011011004501021011KA1240M+03611MA1999999100141MD1999999+0221REMSYN088AAXX  05004 82392 32496 63601 10272 20193 30014 40116 81121 333 10361 29055 55083 58022;EQDQ01  00002PRCP06
0186823920999992003110512004-03700-040350FM-12+008399999V0201401N001012200019N0500001N1+03001+02001101261ADDAA106000091GF103991021011004501001011KA1240N+02121MA1999999100251MD1999999+0151REMSYN076AAXX  05124 82392 32499 31402 10300 20200 30025 40126 82101 333 20212 58015;EQDQ01  00002PRCP06
0167823920999992003110518004-03700-040350FM-12+008399999V0200901N001012200019N0500001N1+03581+01551100701ADDAA106000091GF103991031021004501001001MA1999999099681MD1999999+0021REMSYN070AAXX  05184 82392 32499 30902 10358 20155 39968 40070 83200 333 58002;EQDQ01  00002PRCP06
0198823920999992003110600004-03700-040350FM-12+008399999V0203601N001012200019N0040001N1+02701+02171101141ADDAA106000091GF104991041001008001031001KA1240M+03761MA1999999100131MD1999999-0011REMSYN088AAXX  06004 82392 32596 43602 10270 20217 30013 40114 84030 333 10376 29058 55101 59001;EQDQ01  00002PRCP06
0186823920999992003110612004-03700-040350FM-12+008399999V0200901N000510450019N0500001N1+03021+02041101261ADDAA106000091GF106991021021004501031001KA1240N+02441MA1999999100251MD1999999+0001REMSYN076AAXX  06124 82392 32499 60901 10302 20204 30025 40126 82230 333 20244 58000;EQDQ01  00002PRCP06
0167823920999992003110618004-03700-040350FM-12+008399999V0201801N001010450019N0500001N1+03701+01601100661ADDAA106000091GF106991041041004501011001MA1999999099651MD1999999-0031REMSYN070AAXX  06184 82392 32499 61802 10370 20160 39965 40066 84410 333 59003;EQDQ01  00002PRCP06
0198823920999992003110700004-03700-040350FM-12+008399999V0200501N005110450019N0040001N1+02701+02221101071ADDAA106000091GF106991041051004501031001KA1240M+03761MA1999999100061MD1999999-0071REMSYN088AAXX  07004 82392 32496 60510 10270 20222 30006 40107 84530 333 10376 29059 55069 59007;EQDQ01  00002PRCP06
0186823920999992003110712004-03700-040350FM-12+008399999V0200901N001012200019N0500001N1+02941+02081101101ADDAA106000091GF102991021021004501001001KA1240N+02301MA1999999100081MD1999999-0171REMSYN076AAXX  07124 82392 32499 20902 10294 20208 30008 40110 82200 333 20230 59017;EQDQ01  00002PRCP06
0167823920999992003110718004-03700-040350FM-12+008399999V0201401N001012200019N0500001N1+03561+01731100611ADDAA106000091GF104991041021004501001001MA1999999099611MD1999999-0041REMSYN070AAXX  07184 82392 32499 41402 10356 20173 39961 40061 84200 333 59004;EQDQ01  00002PRCP06
0198823920999992003110800004-03700-040350FM-12+008399999V0200501N004610450019N0040001N1+02661+02071100981ADDAA106000091GF106991041021004501031001KA1240M+03601MA1999999099961MD1999999-0101REMSYN088AAXX  08004 82392 32496 60509 10266 20207 39996 40098 84230 333 10360 29058 55082 59010;EQDQ01  00002PRCP06
0186823920999992003110812004-03700-040350FM-12+008399999V0200901N002110042019N0500001N1+03021+01921101251ADDAA106000091GF106991051021004501031001KA1240N+02301MA1999999100231MD1999999+0151REMSYN076AAXX  08124 82392 32499 60904 10302 20192 30023 40125 85230 333 20230 58015;EQDQ01  00002PRCP06
0167823920999992003110818004-03700-040350FM-12+008399999V0200501N003112200019N0500001N1+03521+01391100771ADDAA106000091GF103991031021004501001001MA1999999099761MD1999999+0151REMSYN070AAXX  08184 82392 32499 30506 10352 20139 39976 40077 83200 333 58015;EQDQ01  00002PRCP06
0208823920999992003110900004-03700-040350FM-12+008399999V0200501N005112200019N0040001N1+02681+02091101071ADDAA106000091GA1001+999999999GF100991001001999999001001KA1240M+03641MA1999999100061MD1999999+0101REMSYN082AAXX  09004 82392 32496 00510 10268 20209 30006 40107 333 10364 29055 55088 58010;EQDQ01  00002PRCP06
0186823920999992003110912004-03700-040350FM-12+008399999V0200901N002610042019N0500001N1+03081+01951101181ADDAA106000091GF106991051021004501011001KA1240N+02201MA1999999100171MD1999999-0061REMSYN076AAXX  09124 82392 32499 60905 10308 20195 30017 40118 85210 333 20220 59006;EQDQ01  00002PRCP06
0167823920999992003110918004-03700-040350FM-12+008399999V0200501N001012200019N0500001N1+03661+01511100621ADDAA106000091GF104991031021004501011001MA1999999099621MD1999999-0141REMSYN070AAXX  09184 82392 32499 40502 10366 20151 39962 40062 83210 333 59014;EQDQ01  00002PRCP06
0198823920999992003111000004-03700-040350FM-12+008399999V0200501N001012200019N0040001N1+02641+01981101071ADDAA106000091GF102991011011004501011001KA1240M+03731MA1999999100061MD1999999+0001REMSYN088AAXX  10004 82392 32496 20502 10264 20198 30006 40107 81110 333 10373 29053 55107 58000;EQDQ01  00002PRCP06
0186823920999992003111012004-03700-040350FM-12+008399999V0201401N001012200019N0500001N1+02941+01851101221ADDAA106000091GF102991021011004501001001KA1240N+02181MA1999999100201MD1999999+0031REMSYN076AAXX  10124 82392 32499 21402 10294 20185 30020 40122 82100 333 20218 58003;EQDQ01  00002PRCP06
0167823920999992003111018004-03700-040350FM-12+008399999V0200901N002612200019N0500001N1+03581+01441100671ADDAA106000091GF103991031021004501001001MA1999999099661MD1999999+0041REMSYN070AAXX  10184 82392 32499 30905 10358 20144 39966 40067 83200 333 58004;EQDQ01  00002PRCP06
0208823920999992003111100004-03700-040350FM-12+008399999V0203601N002612200019N0040001N1+02681+01971100971ADDAA106000091GA1001+999999999GF100991001001999999001001KA1240M+03691MA1999999099951MD1999999-0111REMSYN082AAXX  11004 82392 32996 03605 10268 20197 39995 40097 333 10369 29053 55108 59011;EQDQ01  00002PRCP06
0186823920999992003111112004-03700-040350FM-12+008399999V0201401N001512200019N0500001N1+03001+02001101121ADDAA106000091GF103991021011004501001011KA1240N+02381MA1999999100101MD1999999-0101REMSYN076AAXX  11124 82392 32499 31403 10300 20200 30010 40112 82101 333 20238 59010;EQDQ01  00002PRCP06
0167823920999992003111118004-03700-040350FM-12+008399999V0200901N001010450019N0500001N1+03561+01681100581ADDAA106000091GF106991031021004501011011MA1999999099581MD1999999-0081REMSYN070AAXX  11184 82392 32499 60902 10356 20168 39958 40058 83211 333 59008;EQDQ01  00002PRCP06
0198823920999992003111200004-03700-040350FM-12+008399999V0203601N002610450019N0040001N1+02701+01881101011ADDAA106000091GF106991021011004501011011KA1240M+03661MA1999999100001MD1999999+0051REMSYN088AAXX  12004 82392 32496 63605 10270 20188 30000 40101 82111 333 10366 29053 55085 58005;EQDQ01  00002PRCP06
0190823920999992003111212004-03700-040350FM-12+008399999V0200501N002610450019N0500001N1+02741+02261101271ADDAY161061AY221061GF108991041061004501021999KA1240N+02361MA1999999100251MD1999999+0151MW1211REMSYN088AAXX  12124 82392 21499 80505 10274 20226 30025 40127 72162 8462/ 333 20236 58015 69964;
0148823920999992003111218004-03700-040350FM-12+008399999V0200901N003112200019N0500001N1+03621+01831100741ADDAA106000021GF104991041021004501001001MA1999999099731MD1999999+0151REMSYN070AAXX  12184 82392 32499 40906 10362 20183 39973 40074 84200 333 58015;
0208823920999992003111300004-03700-040350FM-12+008399999V0203601N002612200019N0040001N1+02681+02091101151ADDAA106000091GA1001+999999999GF100991001001999999001001KA1240M+03621MA1999999100131MD1999999+0131REMSYN082AAXX  13004 82392 32996 03605 10268 20209 30013 40115 333 10362 29063 55071 58013;EQDQ01  00002PRCP06
0186823920999992003111312004-03700-040350FM-12+008399999V0200501N001010450019N0500001N1+02961+02101101341ADDAA106000091GF106991041021004501031001KA1240N+02261MA1999999100321MD1999999+0071REMSYN076AAXX  13124 82392 32499 60502 10296 20210 30032 40134 84230 333 20226 58007;EQDQ01  00002PRCP06
0167823920999992003111318004-03700-040350FM-12+008399999V0200501N002610450019N0500001N1+03541+01801100811ADDAA106000091GF105991031021004501031011MA1999999099801MD1999999+0071REMSYN070AAXX  13184 82392 32499 50505 10354 20180 39980 40081 83231 333 58007;EQDQ01  00002PRCP06
0208823920999992003111400004-03700-040350FM-12+008399999V0203601N005712200019N0040001N1+02621+02271101221ADDAA106000091GA1001+999999999GF100991001001999999001001KA1240M+03701MA1999999100201MD1999999+0071REMSYN082AAXX  14004 82392 32996 03611 10262 20227 30020 40122 333 10370 29064 55094 58007;EQDQ01  00002PRCP06
0186823920999992003111412004-03700-040350FM-12+008399999V0200501N004612200019N0500001N1+03021+01861101271ADDAA106000091GF103991021011004501031001KA1240N+02281MA1999999100251MD1999999-0071REMSYN076AAXX  14124 82392 32499 30509 10302 20186 30025 40127 82130 333 20228 59007;EQDQ01  00002PRCP06
0167823920999992003111418004-03700-040350FM-12+008399999V0200501N002612200019N0500001N1+03611+01481100721ADDAA106000091GF103991021011004501001011MA1999999099711MD1999999-0091REMSYN070AAXX  14184 82392 32499 30505 10361 20148 39971 40072 82101 333 59009;EQDQ01  00002PRCP06
0208823920999992003111500004-03700-040350FM-12+008399999V0200501N003112200019N0040001N1+02701+02111101131ADDAA106000091GA1001+999999999GF100991001001999999001001KA1240M+03701MA1999999100121MD1999999-0081REMSYN082AAXX  15004 82392 32996 00506 10270 20211 30012 40113 333 10370 29054 55110 59008;EQDQ01  00002PRCP06
0186823920999992003111512004-03700-040350FM-12+008399999V0201401N001010042019N0500001N1+02961+02021101181ADDAA106000091GF105991051021004501001001KA1240N+02201MA1999999100161MD1999999+0001REMSYN076AAXX  15124 82392 32499 51402 10296 20202 30016 40118 85200 333 20220 59000;EQDQ01  00002PRCP06
0167823920999992003111518004-03700-040350FM-12+008399999V0201401N000512200019N0500001N1+03811+01271100611ADDAA106000091GF102991021011004501001001MA1999999099611MD1999999-0101REMSYN070AAXX  15184 82392 32499 21401 10381 20127 39961 40061 82100 333 59010;EQDQ01  00002PRCP06
0224823920999992003111600004-03700-040350FM-12+008399999V0203601N003112200019N0040001N1+02721+02081101051ADDAA106000091GA1001+999999999GF100991001001999999001001KA1240M+99999MA1999999100031MD1999999-0091REMSYN082AAXX  16004 82392 32996 03606 10272 20208 30003 40105 333 11038 29054 55107 59009;EQDQ01  00002PRCP06Q02 -00382ATMX  
0186823920999992003111612004-03700-040350FM-12+008399999V0200901N003112200019N0500001N1+03001+02141101191ADDAA106000091GF104991031011004501031001KA1240N+02421MA1999999100181MD1999999+0021REMSYN076AAXX  16124 82392 32499 40906 10300 20214 30018 40119 83130 333 20242 58002;EQDQ01  00002PRCP06
0167823920999992003111618004-03700-040350FM-12+008399999V0200501N004612200019N0500001N1+03581+01791100711ADDAA106000091GF102991021011004501001001MA1999999099701MD1999999+0091REMSYN070AAXX  16184 82392 32499 20509 10358 20179 39970 40071 82100 333 58009;EQDQ01  00002PRCP06
0208823920999992003111700004-03700-040350FM-12+008399999V0200501N005112200019N0040001N1+02801+02111101051ADDAA106000091GA1001+999999999GF100991001001999999001001KA1240M+03701MA1999999100041MD1999999+0011REMSYN082AAXX  17004 82392 32996 00510 10280 20211 30004 40105 333 10370 29057 55103 58001;EQDQ01  00002PRCP06
0186823920999992003111712004-03700-040350FM-12+008399999V0201401N002612200019N0500001N1+03101+02121101171ADDAA106000091GF103991031021004501001001KA1240N+02401MA1999999100161MD1999999-0021REMSYN076AAXX  17124 82392 32499 31405 10310 20212 30016 40117 83200 333 20240 59002;EQDQ01  00002PRCP06
0167823920999992003111718004-03700-040350FM-12+008399999V0200501N001512200019N0500001N1+03621+01591100661ADDAA106000091GF104991041021004501001001MA1999999099651MD1999999-0051REMSYN070AAXX  17184 82392 32499 40503 10362 20159 39965 40066 84200 333 59005;EQDQ01  00002PRCP06
0208823920999992003111800004-03700-040350FM-12+008399999V0203601N001512200019N0040001N1+02721+02081100941ADDAA106000091GA1001+999999999GF100991001001999999001001KA1240M+03731MA1999999099931MD1999999-0111REMSYN082AAXX  18004 82392 32996 03603 10272 20208 39993 40094 333 10373 29056 55103 59011;EQDQ01  00002PRCP06
0186823920999992003111812004-03700-040350FM-12+008399999V0200901N001512200019N0500001N1+02981+02121101141ADDAA106000091GF103991021011004501001011KA1240N+02201MA1999999100121MD1999999-0041REMSYN076AAXX  18124 82392 32499 30903 10298 20212 30012 40114 82101 333 20220 59004;EQDQ01  00002PRCP06
0167823920999992003111818004-03700-040350FM-12+008399999V0200501N002612200019N0500001N1+03761+01541100471ADDAA106000091GF103991031011004501001001MA1999999099471MD1999999-0181REMSYN070AAXX  18184 82392 32499 30505 10376 20154 39947 40047 83100 333 59018;EQDQ01  00002PRCP06
0208823920999992003111900004-03700-040350FM-12+008399999V0203601N002612200019N0040001N1+02721+02121100901ADDAA106000091GA1001+999999999GF100991001001999999001001KA1240M+03831MA1999999099891MD1999999-0041REMSYN082AAXX  19004 82392 32996 03605 10272 20212 39989 40090 333 10383 29057 55109 59004;EQDQ01  00002PRCP06
0186823920999992003111912004-03700-040350FM-12+008399999V0201401N001010450019N0500001N1+02881+02181101141ADDAA106000091GF108991041051004501021999KA1240N+02501MA1999999100121MD1999999+0001REMSYN076AAXX  19124 82392 32499 81402 10288 20218 30012 40114 8452/ 333 20250 58000;EQDQ01  00002PRCP06
0167823920999992003111918004-03700-040350FM-12+008399999V0201801N001012200019N0500001N1+03661+01951100601ADDAA106000091GF101991011011004501001001MA1999999099601MD1999999+0131REMSYN070AAXX  19184 82392 32499 11802 10366 20195 39960 40060 81100 333 58013;EQDQ01  00002PRCP06
0208823920999992003112000004-03700-040350FM-12+008399999V0203601N002612200019N0040001N1+02741+01781100941ADDAA106000091GA1001+999999999GF100991001001999999001001KA1240M+03681MA1999999099921MD1999999+0031REMSYN082AAXX  20004 82392 32996 03605 10274 20178 39992 40094 333 10368 29054 55084 58003;EQDQ01  00002PRCP06
0186823920999992003112012004-03700-040350FM-12+008399999V0200501N001010042019N0500001N1+02881+02001101181ADDAA106000091GF106991061021004501001001KA1240N+02271MA1999999100161MD1999999+0041REMSYN076AAXX  20124 82392 32499 60502 10288 20200 30016 40118 86200 333 20227 58004;EQDQ01  00002PRCP06
0167823920999992003112018004-03700-040350FM-12+008399999V0201401N001012200019N0500001N1+03541+01621100701ADDAA106000091GF104991041021004501001001MA1999999099691MD1999999+0091REMSYN070AAXX  20184 82392 32499 41402 10354 20162 39969 40070 84200 333 58009;EQDQ01  00002PRCP06
0208823920999992003112100004-03700-040350FM-12+008399999V0200501N002612200019N0040001N1+02701+02111101081ADDAA106000091GA1001+999999999GF100991001001999999001001KA1240M+03701MA1999999100061MD1999999+0141REMSYN082AAXX  21004 82392 32996 00505 10270 20211 30006 40108 333 10370 29058 55074 58014;EQDQ01  00002PRCP06
0186823920999992003112112004-03700-040350FM-12+008399999V0200901N003110450019N0500001N1+02881+02181101221ADDAA106000091GF106991041041004501031001KA1240N+02191MA1999999100201MD1999999+0041REMSYN076AAXX  21124 82392 32499 60906 10288 20218 30020 40122 84430 333 20219 58004;EQDQ01  00002PRCP06
0167823920999992003112118004-03700-040350FM-12+008399999V0200501N001512200019N0500001N1+03661+01671100591ADDAA106000091GF104991041021004501001001MA1999999099591MD1999999-0101REMSYN070AAXX  21184 82392 32499 40503 10366 20167 39959 40059 84200 333 59010;EQDQ01  00002PRCP06
0208823920999992003112200004-03700-040350FM-12+008399999V0203601N002612200019N0040001N1+02741+02021100961ADDAA106000091GA1001+999999999GF100991001001999999001001KA1240M+03711MA1999999099941MD1999999-0121REMSYN082AAXX  22004 82392 32996 03605 10274 20202 39994 40096 333 10371 29057 55083 59012;EQDQ01  00002PRCP06
0186823920999992003112212004-03700-040350FM-12+008399999V0200901N001510042019N0500001N1+03041+01821101091ADDAA106000091GF105991051021004501001001KA1240N+02361MA1999999100081MD1999999-0121REMSYN076AAXX  22124 82392 32499 50903 10304 20182 30008 40109 85200 333 20236 59012;EQDQ01  00002PRCP06
0183823920999992003112218004-03700-040350FM-12+008399999V0200901N001012200019N0500001N1+03591+01771100561ADDAA106000091GF104991999011004501001001MA1999999099561MD1999999-0031REMSYN070AAXX  22184 82392 32499 40902 10359 20177 39956 40056 82100 333 59003;EQDQ01+000022SCOTLCQ02  00002PRCP06
0208823920999992003112300004-03700-040350FM-12+008399999V0203601N001512200019N0040001N1+02681+02131100941ADDAA106000091GA1001+999999999GF100991001001999999001001KA1240M+03661MA1999999099931MD1999999-0011REMSYN082AAXX  23004 82392 32996 03603 10268 20213 39993 40094 333 10366 29057 55100 59001;EQDQ01  00002PRCP06
0186823920999992003112312004-03700-040350FM-12+008399999V0200901N000512200019N0500001N1+02981+01891101101ADDAA106000091GF104991041021004501001001KA1240N+02261MA1999999100081MD1999999+0001REMSYN076AAXX  23124 82392 32499 40901 10298 20189 30008 40110 84200 333 20226 58000;EQDQ01  00002PRCP06
0167823920999992003112318004-03700-040350FM-12+008399999V0201801N000512200019N0500001N1+03631+01651100491ADDAA106000091GF104991041021004501001001MA1999999099491MD1999999-0071REMSYN070AAXX  23184 82392 32499 41801 10363 20165 39949 40049 84200 333 59007;EQDQ01  00002PRCP06
0198823920999992003112400004-03700-040350FM-12+008399999V0203601N001012200019N0040001N1+02761+01801100861ADDAA106000091GF101991011041004501001001KA1240M+03731MA1999999099851MD1999999-0081REMSYN088AAXX  24004 82392 32496 13602 10276 20180 39985 40086 81400 333 10373 29049 55100 59008;EQDQ01  00002PRCP06
0186823920999992003112412004-03700-040350FM-12+008399999V0201401N000510450019N0500001N1+02861+02261101121ADDAA106000091GF108991041051004501021999KA1240N+02321MA1999999100101MD1999999+0021REMSYN076AAXX  24124 82392 32499 81401 10286 20226 30010 40112 8452/ 333 20232 58002;EQDQ01  00002PRCP06
0167823920999992003112418004-03700-040350FM-12+008399999V0200501N001012200019N0500001N1+03471+01661100641ADDAA106000091GF105991041021004501001011MA1999999099641MD1999999+0151REMSYN070AAXX  24184 82392 32499 50502 10347 20166 39964 40064 84201 333 58015;EQDQ01  00002PRCP06
0208823920999992003112500004-03700-040350FM-12+008399999V0200501N002612200019N0040001N1+02661+02141100961ADDAA106000091GA1001+999999999GF100991001001999999001001KA1240M+03641MA1999999099941MD1999999+0091REMSYN082AAXX  25004 82392 32996 00505 10266 20214 39994 40096 333 10364 29063 55058 58009;EQDQ01  00002PRCP06
0186823920999992003112512004-03700-040350FM-12+008399999V0201401N001012200019N0500001N1+02921+02141101221ADDAA106000091GF104991041021004501001001KA1240N+02361MA1999999100201MD1999999+0101REMSYN076AAXX  25124 82392 32499 41402 10292 20214 30020 40122 84200 333 20236 58010;EQDQ01  00002PRCP06
0167823920999992003112518004-03700-040350FM-12+008399999V0201401N000511050019N0500001N1+03521+01741100781ADDAA106000091GF105991021011004501011011MA1999999099711MD1999999+0071REMSYN070AAXX  25184 82392 32499 51401 10352 20174 39971 40078 82111 333 58007;EQDQ01  00002PRCP06
0208823920999992003112600004-03700-040350FM-12+008399999V0203601N002612200019N0040001N1+02701+02201101161ADDAA106000091GA1001+999999999GF100991001001999999001001KA1240M+03661MA1999999100141MD1999999+0201REMSYN082AAXX  26004 82392 32996 03605 10270 20220 30014 40116 333 10366 29062 55069 58020;EQDQ01  00002PRCP06
0186823920999992003112612004-03700-040350FM-12+008399999V0200501N003110450019N0500001N1+02941+02241101271ADDAA106000091GF106991041051004501031001KA1240N+02281MA1999999100251MD1999999+0051REMSYN076AAXX  26124 82392 32499 60506 10294 20224 30025 40127 84530 333 20228 58005;EQDQ01  00002PRCP06
0167823920999992003112618004-03700-040350FM-12+008399999V0200901N001011050019N0500001N1+03481+01841100841ADDAA106000091GF105991021011004501011011MA1999999099831MD1999999+0121REMSYN070AAXX  26184 82392 32499 50902 10348 20184 39983 40084 82111 333 58012;EQDQ01  00002PRCP06
0208823920999992003112700004-03700-040350FM-12+008399999V0203601N002612200019N0040001N1+02681+02161101181ADDAA106000091GA1001+999999999GF100991001001999999001001KA1240M+03571MA1999999100161MD1999999+0021REMSYN082AAXX  27004 82392 32996 03605 10268 20216 30016 40118 333 10357 29063 55078 58002;EQDQ01  00002PRCP06
0186823920999992003112712004-03700-040350FM-12+008399999V0200901N001512200019N0500001N1+03041+01911101141ADDAA106000091GF104991041011004501001001KA1240N+02361MA1999999100131MD1999999-0121REMSYN076AAXX  27124 82392 32499 40903 10304 20191 30013 40114 84100 333 20236 59012;EQDQ01  00002PRCP06
0167823920999992003112718004-03700-040350FM-12+008399999V0200901N001012200019N0500001N1+03561+01591100601ADDAA106000091GF103991031011004501001001MA1999999099601MD1999999-0231REMSYN070AAXX  27184 82392 32499 30902 10356 20159 39960 40060 83100 333 59023;EQDQ01  00002PRCP06
0208823920999992003112800004-03700-040350FM-12+008399999V0200501N005112200019N0040001N1+02681+02041100961ADDAA106000091GA1001+999999999GF100991001001999999001001KA1240M+03671MA1999999099951MD1999999-0211REMSYN082AAXX  28004 82392 32996 00510 10268 20204 39995 40096 333 10367 29054 55099 59021;EQDQ01  00002PRCP06
0186823920999992003112812004-03700-040350FM-12+008399999V0200901N003110042019N0500001N1+02881+02031101081ADDAA106000091GF106991051041004501031001KA1240N+02201MA1999999100061MD1999999-0071REMSYN076AAXX  28124 82392 32499 60906 10288 20203 30006 40108 85430 333 20220 59007;EQDQ01  00002PRCP06
0167823920999992003112818004-03700-040350FM-12+008399999V0200901N001012200019N0500001N1+03581+01701100461ADDAA106000091GF103991031011004501001001MA1999999099461MD1999999-0141REMSYN070AAXX  28184 82392 32499 30902 10358 20170 39946 40046 83100 333 59014;EQDQ01  00002PRCP06
0208823920999992003112900004-03700-040350FM-12+008399999V0200501N005712200019N0040001N1+02721+02001100821ADDAA106000091GA1001+999999999GF100991001001999999001001KA1240M+03681MA1999999099801MD1999999-0151REMSYN082AAXX  29004 82392 32996 00511 10272 20200 39980 40082 333 10368 29056 55100 59015;EQDQ01  00002PRCP06
0186823920999992003112912004-03700-040350FM-12+008399999V0200901N001010042019N0500001N1+02901+02041101011ADDAA106000091GF106991061021004501001001KA1240N+02261MA1999999099991MD1999999-0071REMSYN076AAXX  29124 82392 32499 60902 10290 20204 39999 40101 86200 333 20226 59007;EQDQ01  00002PRCP06
0167823920999992003112918004-03700-040350FM-12+008399999V0200901N001012200019N0500001N1+03481+01661100491ADDAA106000091GF104991041021004501001001MA1999999099491MD1999999+0031REMSYN070AAXX  29184 82392 32499 40902 10348 20166 39949 40049 84200 333 58003;EQDQ01  00002PRCP06
0208823920999992003113000004-03700-040350FM-12+008399999V0203601N002612200019N0040001N1+02681+02041100821ADDAA106000091GA1001+999999999GF100991001001999999001001KA1240M+03661MA1999999099801MD1999999+0001REMSYN082AAXX  30004 82392 32996 03605 10268 20204 39980 40082 333 10366 29056 55086 58000;EQDQ01  00002PRCP06
0186823920999992003113012004-03700-040350FM-12+008399999V0200901N001512200019N0500001N1+02881+02161101071ADDAA106000091GF104991041021004501001001KA1240N+02301MA1999999100051MD1999999+0061REMSYN076AAXX  30124 82392 32499 40903 10288 20216 30005 40107 84200 333 20230 58006;EQDQ01  00002PRCP06
0167823920999992003113018004-03700-040350FM-12+008399999V0201401N001012200019N0500001N1+03621+01831100671ADDAA106000091GF103991031021004501001001MA1999999099661MD1999999+0171REMSYN070AAXX  30184 82392 32499 31402 10362 20183 39966 40067 83200 333 58017;EQDQ01  00002PRCP06
0208823920999992003120100004-03700-040350FM-12+008399999V0200501N004612200019N0040001N1+02721+02121100931ADDAA106000091GA1001+999999999GF100991001001999999001001KA1240M+03651MA1999999099911MD1999999+0111REMSYN082AAXX  01004 82392 32996 00509 10272 20212 39991 40093 333 10365 29060 55078 58011;EQDQ01  00002PRCP06
0186823920999992003120112004-03700-040350FM-12+008399999V0200901N002610450019N0500001N1+03021+02181101131ADDAA106000091GF105991041021004501031001KA1240N+02441MA1999999100121MD1999999+0071REMSYN076AAXX  01124 82392 32499 50905 10302 20218 30012 40113 84230 333 20244 58007;EQDQ01  00002PRCP06
0167823920999992003120118004-03700-040350FM-12+008399999V0200501N001512200019N0500001N1+03541+01801100561ADDAA106000091GF104991041021004501001001MA1999999099561MD1999999-0101REMSYN070AAXX  01184 82392 32499 40503 10354 20180 39956 40056 84200 333 59010;EQDQ01  00002PRCP06
0208823920999992003120200004-03700-040350FM-12+008399999V0203601N001012200019N0040001N1+02731+02021100891ADDAA106000091GA1001+999999999GF100991001001999999001001KA1240M+03701MA1999999099881MD1999999-0031REMSYN082AAXX  02004 82392 32996 03602 10273 20202 39988 40089 333 10370 29057 55074 59003;EQDQ01  00002PRCP06
0186823920999992003120212004-03700-040350FM-12+008399999V0200901N001010042019N0500001N1+02801+02311101101ADDAA106000091GF107991051041004501031001KA1240N+02381MA1999999100081MD1999999-0041REMSYN076AAXX  02124 82392 32499 70902 10280 20231 30008 40110 85430 333 20238 59004;EQDQ01  00002PRCP06
0198823920999992003120300004-03700-040350FM-12+008399999V0203601N001012200019N0040001N1+02691+01911100971ADDAA106000091GF101991011001999999031001KA1240M+03641MA1999999099951MD1999999+0071REMSYN088AAXX  03004 82392 32996 13602 10269 20191 39995 40097 81030 333 10364 29059 55060 58007;EQDQ01  00002PRCP06
0186823920999992003120312004-03700-040350FM-12+008399999V0200501N001012200019N0500001N1+02841+02121101141ADDAA106000091GF103991031021004501001001KA1240N+02211MA1999999100121MD1999999+0041REMSYN076AAXX  03124 82392 32499 30502 10284 20212 30012 40114 83200 333 20221 58004;EQDQ01  00002PRCP06
0198823920999992003120400004-03700-040350FM-12+008399999V0203601N002612200019N0040001N1+02661+02071100941ADDAA106000091GF101991011001008001011001KA1240M+03631MA1999999099921MD1999999-0031REMSYN088AAXX  04004 82392 32596 13605 10266 20207 39992 40094 81010 333 10363 29059 55078 59003;EQDQ01  00002PRCP06
0186823920999992003120412004-03700-040350FM-12+008399999V0200501N001510042019N0500001N1+02801+02001101211ADDAA106000091GF106991061041004501001001KA1240N+02181MA1999999100191MD1999999+0071REMSYN076AAXX  04124 82392 32499 60503 10280 20200 30019 40121 86400 333 20218 58007;EQDQ01  00002PRCP06
0208823920999992003120500004-03700-040350FM-12+008399999V0200501N004612200019N0040001N1+02701+02221101121ADDAA106000091GA1001+999999999GF100991001001999999001001KA1240M+03761MA1999999100001MD1999999+0081REMSYN082AAXX  05004 82392 32996 00509 10270 20222 30000 40112 333 10376 29/// 55097 58008;EQDQ01  00002PRCP06
0186823920999992003120512004-03700-040350FM-12+008399999V0200501N003112200019N0500001N1+02981+02171101191ADDAA106000091GF103991031021004501001001KA1240N+02261MA1999999100171MD1999999-0021REMSYN076AAXX  05124 82392 32499 30506 10298 20217 30017 40119 83200 333 20226 59002;EQDQ01  00002PRCP06
0208823920999992003120600004-03700-040350FM-12+008399999V0203601N004612200019N0040001N1+02661+02291101101ADDAA106000091GA1001+999999999GF100991001001999999001001KA1240M+03681MA1999999100081MD1999999+0081REMSYN082AAXX  06004 82392 32996 03609 10266 20229 30008 40110 333 10368 29/// 55086 58008;EQDQ01  00002PRCP06
0202823920999992003120612004-03700-040350FM-12+008399999V0200501N005119999999N0500001N1+02861+02111101201ADDAA106000091GF105991999021004501001001KA1240N+02121MA1999999100181MD1999999+0011REMSYN076AAXX  06124 82392 32499 50510 10286 20211 30018 40120 84200 333 20212 58001;EQDQ01+000042SCOTLCQ02  00002PRCP06
0208823920999992003120700004-03700-040350FM-12+008399999V0203601N005712200019N0040001N1+02701+02281101021ADDAA106000091GA1001+999999999GF100991001001999999001001KA1240M+03721MA1999999100001MD1999999-0081REMSYN082AAXX  07004 82392 32996 03611 10270 20228 30000 40102 333 10372 29/// 55103 59008;EQDQ01  00002PRCP06
0186823920999992003120712004-03700-040350FM-12+008399999V0200901N004612200019N0500001N1+03001+02081101261ADDAA106000091GF103991031011004501001001KA1240N+02201MA1999999100251MD1999999+0071REMSYN076AAXX  07124 82392 32499 30909 10300 20208 30025 40126 83100 333 20220 58007;EQDQ01  00002PRCP06
0208823920999992003120800004-03700-040350FM-12+008399999V0200501N005112200019N0040001N1+02901+02041101031ADDAA106000091GA1001+999999999GF100991001001999999001001KA1240M+03681MA1999999100021MD1999999+0021REMSYN082AAXX  08004 82392 32996 00510 10290 20204 30002 40103 333 10368 29/// 55106 58002;EQDQ01  00002PRCP06
0186823920999992003120812004-03700-040350FM-12+008399999V0201401N002612200019N0500001N1+02881+02281101281ADDAA106000091GF104991041021004501001001KA1240N+02401MA1999999100271MD1999999+0021REMSYN076AAXX  08124 82392 32499 41405 10288 20228 30027 40128 84200 333 20240 58002;EQDQ01  00002PRCP06
0208823920999992003120900004-03700-040350FM-12+008399999V0200901N002612200019N0040001N1+02721+02391101201ADDAA106000091GA1001+999999999GF100991001001999999001001KA1240M+03721MA1999999100181MD1999999+0161REMSYN082AAXX  09004 82392 32596 00905 10272 20239 30018 40120 333 10372 29/// 55075 58016;EQDQ01  00002PRCP06
0186823920999992003120912004-03700-040350FM-12+008399999V0200501N005712200019N0500001N1+03001+02001101311ADDAA106000091GF103991021011004501001011KA1240N+02371MA1999999100301MD1999999+0031REMSYN076AAXX  09124 82392 32499 30511 10300 20200 30030 40131 82101 333 20237 58003;EQDQ01  00002PRCP06
0208823920999992003121000004-03700-040350FM-12+008399999V0203601N005112200019N0040001N1+02741+01891101211ADDAA106000091GA1001+999999999GF100991001001999999001001KA1240M+03691MA1999999100201MD1999999+0021REMSYN082AAXX  10004 82392 32996 03610 10274 20189 30020 40121 333 10369 29/// 55105 58002;EQDQ01  00002PRCP06
0186823920999992003121012004-03700-040350FM-12+008399999V0200901N003112200019N0500001N1+02981+02121101291ADDAA106000091GF103991031021004501001001KA1240N+02201MA1999999100281MD1999999-0021REMSYN076AAXX  10124 82392 32499 30906 10298 20212 30028 40129 83200 333 20220 59002;EQDQ01  00002PRCP06
0198823920999992003121100004-03700-040350FM-12+008399999V0200501N004610450019N0040001N1+02701+02281101221ADDAA106000091GF105991031041004501031001KA1240M+03721MA1999999100201MD1999999+0001REMSYN088AAXX  11004 82392 32496 50509 10270 20228 30020 40122 83430 333 10372 29/// 55107 58000;EQDQ01  00002PRCP06
0186823920999992003121112004-03700-040350FM-12+008399999V0203601N000512200019N0500001N1+02881+02251101321ADDAA106000091GF104991041021004501001001KA1240N+02351MA1999999100301MD1999999+0021REMSYN076AAXX  11124 82392 32499 43601 10288 20225 30030 40132 84200 333 20235 58002;EQDQ01  00002PRCP06
0214823920999992003121200004-03700-040350FM-12+008399999V0203201N001010042019N0040001N1+02741+02321101141ADDAA106000091GF106991999041004501001001KA1240M+03541MA1999999100121MD1999999-0081REMSYN088AAXX  12004 82392 32496 63202 10274 20232 30012 40114 85400 333 10354 29/// 55059 59008;EQDQ01+000052SCOTLCQ02  00002PRCP06
0186823920999992003121212004-03700-040350FM-12+008399999V0201401N001512200019N0500001N1+03081+02101101191ADDAA106000091GF104991031011004501031001KA1240N+02371MA1999999100181MD1999999-0121REMSYN076AAXX  12124 82392 32499 41403 10308 20210 30018 40119 83130 333 20237 59012;EQDQ01  00002PRCP06
0198823920999992003121400004-03700-040350FM-12+008399999V0200501N004610450019N0040001N1+02701+02221100941ADDAA106000091GF105991041041004501031001KA1240M+03641MA1999999099921MD1999999-0141REMSYN088AAXX  14004 82392 32496 50509 10270 20222 39992 40094 84430 333 10364 29/// 55086 59014;EQDQ01  00002PRCP06
0209823920999992003121412004-03700-040350FM-12+008399999V0201401N001019999999N0500001N1+02861+02261101281ADDAY121061AY261061GF105991999021004501001001KA1240N+02461MA1999999100261MD1999999+0081MW1021REMSYN088AAXX  14124 82392 21499 51402 10286 20226 30026 40128 70226 83200 333 20246 58008 69934;EQDQ01+000032SCOTLC
0208823920999992003121500004-03700-040350FM-12+008399999V0200501N003112200019N0040001N1+02761+02211101121ADDAA106000091GA1001+999999999GF100991001001999999001001KA1240M+03621MA1999999100101MD1999999+0081REMSYN082AAXX  15004 82392 32996 00506 10276 20221 30010 40112 333 10362 29/// 55087 58008;EQDQ01  00002PRCP06
0186823920999992003121512004-03700-040350FM-12+008399999V0201401N002612200019N0500001N1+03021+02021101311ADDAA106000091GF103991031021004501001001KA1240N+02381MA1999999100301MD1999999+0041REMSYN076AAXX  15124 82392 32499 31405 10302 20202 30030 40131 83200 333 20238 58004;EQDQ01  00002PRCP06
0208823920999992003121600004-03700-040350FM-12+008399999V0200501N005712200019N0040001N1+02681+02201101161ADDAA106000091GA1001+999999999GF100991001001999999001001KA1240M+03621MA1999999100151MD1999999+0051REMSYN082AAXX  16004 82392 32996 00511 10268 20220 30015 40116 333 10362 29/// 55094 58005;EQDQ01  00002PRCP06
0186823920999992003121612004-03700-040350FM-12+008399999V0200901N001510450019N0500001N1+02921+02191101321ADDAA106000091GF105991041021004501031001KA1240N+02481MA1999999100301MD1999999+0001REMSYN076AAXX  16124 82392 32499 50903 10292 20219 30030 40132 84230 333 20248 58000;EQDQ01  00002PRCP06
0208823920999992003121700004-03700-040350FM-12+008399999V0203601N005112200019N0040001N1+02681+02221101221ADDAA106000091GA1001+999999999GF100991001001999999001001KA1240M+03561MA1999999100201MD1999999+0051REMSYN082AAXX  17004 82392 32996 03610 10268 20222 30020 40122 333 10356 29/// 55069 58005;EQDQ01  00002PRCP06
0190823920999992003121712004-03700-040350FM-12+008399999V0200501N001510042019N0500001N1+02801+02251101251ADDAY121061AY261061GF108991051051004501021999KA1240N+02301MA1999999100231MD1999999-0071MW1031REMSYN088AAXX  17124 82392 21499 80503 10280 20225 30023 40125 70326 8552/ 333 20230 59007 69924;
0198823920999992003121800004-03700-040350FM-12+008399999V0203601N005710450019N0040001N1+02661+02331101201ADDAA106000091GF106991041041004501031001KA1240M+03401MA1999999100181MD1999999-0021REMSYN088AAXX  18004 82392 32496 63611 10266 20233 30018 40120 84430 333 10340 29/// 55065 59002;EQDQ01  00002PRCP06
0186823920999992003121812004-03700-040350FM-12+008399999V0200901N004612200019N0500001N1+02941+02081101301ADDAA106000091GF104991041021004501001001KA1240N+02281MA1999999100281MD1999999+0051REMSYN076AAXX  18124 82392 32499 40909 10294 20208 30028 40130 84200 333 20228 58005;EQDQ01  00002PRCP06
0169823920999992003122000004-03700-040350FM-12+008399999V0203601N004112200019N0040001N1+02721+02241101351ADDAA106000091GF104991041021004501001001MA1999999100331REMSYN086AAXX  20004 82392 32496 43608 10272 20224 30033 40135 84200 333 364 29/// 55083 58010;EQDQ01  00002PRCP06
0186823920999992003122012004-03700-040350FM-12+008399999V0200901N003110450019N0500001N1+03001+02081101451ADDAA106000091GF105991041021004501031001KA1240N+02341MA1999999100441MD1999999+0041REMSYN076AAXX  20124 82392 32499 50906 10300 20208 30044 40145 84230 333 20234 58004;EQDQ01  00002PRCP06
0198823920999992003122100004-03700-040350FM-12+008399999V0203601N005110450019N0040001N1+02781+02361101361ADDAA106000091GF106991041041004501031001KA1240M+03681MA1999999100351MD1999999+0021REMSYN088AAXX  21004 82392 32496 63610 10278 20236 30035 40136 84430 333 10368 29/// 55109 58002;EQDQ01  00002PRCP06
0186823920999992003122112004-03700-040350FM-12+008399999V0200501N001510042019N0500001N1+02981+02281101381ADDAA106000091GF105991051021004501001001KA1240N+02521MA1999999100371MD1999999-0071REMSYN076AAXX  21124 82392 32499 50503 10298 20228 30037 40138 85200 333 20252 59007;EQDQ01  00002PRCP06
0198823920999992003122200004-03700-040350FM-12+008399999V0203601N004112200019N0040001N1+02601+02531101181ADDAA106000091GF103991031021004501001001KA1240M+03331MA1999999100161MD1999999-0191REMSYN088AAXX  22004 82392 32496 33608 10260 20253 30016 40118 83200 333 10333 29/// 55068 59019;EQDQ01  00002PRCP06
0186823920999992003122212004-03700-040350FM-12+008399999V0200901N002112200019N0500001N1+02901+02121101321ADDAA106000091GF104991041021004501001001KA1240N+02461MA1999999100301MD1999999-0071REMSYN076AAXX  22124 82392 32499 40904 10290 20212 30030 40132 84200 333 20246 59007;EQDQ01  00002PRCP06
0208823920999992003122300004-03700-040350FM-12+008399999V0203601N003112200019N0040001N1+02621+02351101071ADDAA106000091GA1001+999999999GF100991001001999999001001KA1240M+03601MA1999999100051MD1999999-0111REMSYN082AAXX  23004 82392 32996 03606 10262 20235 30005 40107 333 10360 29/// 55072 59011;EQDQ01  00002PRCP06
0186823920999992003122312004-03700-040350FM-12+008399999V0203201N000510042019N0500001N1+02721+02241101221ADDAA106000091GF107991051051004501031001KA1240N+02301MA1999999100201MD1999999-0101REMSYN076AAXX  23124 82392 32499 73201 10272 20224 30020 40122 85530 333 20230 59010;EQDQ01  00002PRCP06
0208823920999992003122400004-03700-040350FM-12+008399999V0203601N003112200019N0040001N1+02701+02221100981ADDAA106000091GA1001+999999999GF100991001001999999001001KA1240M+03681MA1999999099961MD1999999-0091REMSYN082AAXX  24004 82392 32996 03606 10270 20222 39996 40098 333 10368 29/// 55082 59009;EQDQ01  00002PRCP06
0186823920999992003122412004-03700-040350FM-12+008399999V0201401N001010450019N0500001N1+02841+02241101171ADDAA106000091GF105991041021004501031001KA1240N+02301MA1999999100151MD1999999-0051REMSYN076AAXX  24124 82392 32499 51402 10284 20224 30015 40117 84230 333 20230 59005;EQDQ01  00002PRCP06
0208823920999992003122500004-03700-040350FM-12+008399999V0203601N004612200019N0040001N1+02761+02161100991ADDAA106000091GA1001+999999999GF100991001001999999001001KA1240M+03701MA1999999099971MD1999999+0011REMSYN082AAXX  25004 82392 32996 03609 10276 20216 39997 40099 333 10370 29/// 55099 58001;EQDQ01  00002PRCP06
0186823920999992003122512004-03700-040350FM-12+008399999V0200901N003112200019N0500001N1+02981+02231101211ADDAA106000091GF103991031021004501001001KA1240N+02321MA1999999100201MD1999999+0051REMSYN076AAXX  25124 82392 32499 30906 10298 20223 30020 40121 83200 333 20232 58005;EQDQ01  00002PRCP06
0186823920999992003122612004-03700-040350FM-12+008399999V0200901N003112200019N0500001N1+03001+02081101111ADDAA106000091GF104991041021004501001001KA1240N+02471MA1999999100101MD1999999-0101REMSYN076AAXX  26124 82392 32499 40906 10300 20208 30010 40111 84200 333 20247 59010;EQDQ01  00002PRCP06
0208823920999992003122700004-03700-040350FM-12+008399999V0200501N005112200019N0040001N1+02741+02361100871ADDAA106000091GA1001+999999999GF100991001001999999001001KA1240M+03661MA1999999099861MD1999999-0131REMSYN082AAXX  27004 82392 32996 00510 10274 20236 39986 40087 333 10366 29/// 55108 59013;EQDQ01  00002PRCP06
0186823920999992003122712004-03700-040350FM-12+008399999V0201401N001012200019N0500001N1+02901+02121101051ADDAA106000091GF103991031011004501001001KA1240N+02391MA1999999100031MD1999999-0071REMSYN076AAXX  27124 82392 32499 31402 10290 20212 30003 40105 83100 333 20239 59007;EQDQ01  00002PRCP06
0214823920999992003122800004-03700-040350FM-12+008399999V0200501N004112200019N0040001N1+02801+02341100861ADDAA106000091GF104991999011004501001001KA1240M+03681MA1999999099851MD1999999-0011REMSYN088AAXX  28004 82392 32496 40508 10280 20234 39985 40086 83100 333 10368 29/// 55095 59001;EQDQ01+000032SCOTLCQ02  00002PRCP06
0186823920999992003122812004-03700-040350FM-12+008399999V0200901N001010450019N0500001N1+02761+02341101021ADDAA106000091GF108991041041004501021001KA1240N+02501MA1999999100001MD1999999-0031REMSYN076AAXX  28124 82392 32499 80902 10276 20234 30000 40102 84420 333 20250 59003;EQDQ01  00002PRCP06
0202823920999992003122900004-03700-040350FM-12+008399999V0200501N005710450019N0040001N1+02741+02521100921ADDAY161061AY221061GF106991041041004501031001KA1240M+03641MA1999999099901MD1999999+0051MW1031REMSYN100AAXX  29004 82392 21496 60511 10274 20252 39990 40092 70362 84430 333 10364 29/// 55057 58005 60011;
0162823920999992003122912004-03700-040350FM-12+008399999V0200901N003110450019N0500001N1+02901+02301101021ADDGF107991041051004501031001KA1240N+02481MA1999999100001MD1999999+0001REMSYN082AAXX  29124 82392 22499 70906 10290 20230 30000 40102 84530 333 20248 58000 60014;
0202823920999992003123000004-03700-040350FM-12+008399999V0203601N002610042019N0040001N1+02641+02501100971ADDAY161061AY221061GF106991051041004501031001KA1240M+03441MA1999999099951MD1999999+0051MW1031REMSYN100AAXX  30004 82392 21496 63605 10264 20250 39995 40097 70362 85430 333 10344 29/// 55026 58005 69931;
0162823920999992003123012004-03700-040350FM-12+008399999V0201401N001512200019N0500001N1+02981+02121101061ADDGF103991021011004501001011KA1240N+02221MA1999999100041MD1999999+0041REMSYN082AAXX  30124 82392 22499 31403 10298 20212 30004 40106 82101 333 20222 58004 69934;
0208823920999992003123100004-03700-040350FM-12+008399999V0203601N002612200019N0040001N1+02881+02281100991ADDAA106000091GA1001+999999999GF100991001001999999001001KA1240M+03601MA1999999099981MD1999999+0061REMSYN082AAXX  31004 82392 32996 03605 10288 20228 39998 40099 333 10360 29/// 55106 58006;EQDQ01  00002PRCP06
0186823920999992003123112004-03700-040350FM-12+008399999V0201401N001012200019N0500001N1+03001+02241101061ADDAA106000091GF102991021011004501001001KA1240N+02421MA1999999100051MD1999999+0011REMSYN076AAXX  31124 82392 32499 21402 10300 20224 30005 40106 82100 333 20242 58001;EQDQ01  00002PRCP06
