0202825710999992003010100004-05500-045270FM-12+017499999V0202301N003110042019N0040001N1+02351+02291101461ADDAY191061AY261061GF108991081051004501999999KA1240M+03121MA1999999099471MD1999999+0041MW1611REMSYN100AAXX  01004 82571 21496 82306 10235 20229 39947 40146 76196 885// 333 10312 29088 55012 58004 60061;
0182825710999992003010112004-05500-045270FM-12+017499999V0203201N001010450019N0100001N1+02511+02381101591ADDAY161061GF106991041051004501031001KA1240N+02341MA1999999099601MD1999999-0071MW1021REMSYN088AAXX  01124 82571 21497 63202 10251 20238 39960 40159 7026/ 84530 333 20234 59007 60064;
0167825710999992003010118004-05500-045270FM-12+017499999V0200501N001012200019N0100001N1+03091+02311101171ADDAA106000091GF103991021021004501031001MA1999999099211MD1999999-0141REMSYN070AAXX  01184 82571 32497 30502 10309 20231 39921 40117 82230 333 59014;EQDQ01  00002PRCP06
0208825710999992003010200004-05500-045270FM-12+017499999V0209999C000012200019N0100001N1+02651+02441101391ADDAA106000091GA1001+999999999GF100991001001999999001001KA1240M+03211MA1999999099421MD1999999-0051REMSYN082AAXX  02004 82571 32997 00000 10265 20244 39942 40139 333 10321 29083 55061 59005;EQDQ01  00002PRCP06
0186825710999992003010212004-05500-045270FM-12+017499999V0200501N001010450019N0100001N1+02691+02391101551ADDAA106000091GF106991031021004501031011KA1240N+02381MA1999999099581MD1999999+0021REMSYN076AAXX  02124 82571 32497 60502 10269 20239 39958 40155 83231 333 20238 58002;EQDQ01  00002PRCP06
0167825710999992003010218004-05500-045270FM-12+017499999V0200501N001012200019N0100001N1+03231+02311101071ADDAA106000091GF103991021021004501031001MA1999999099131MD1999999-0081REMSYN070AAXX  02184 82571 32497 30502 10323 20231 39913 40107 82230 333 59008;EQDQ01  00002PRCP06
0208825710999992003010300004-05500-045270FM-12+017499999V0209999C000012200019N0100001N1+02801+02481101211ADDAA106000091GA1001+999999999GF100991001001999999001001KA1240M+03301MA1999999099251MD1999999-0171REMSYN082AAXX  03004 82571 32997 00000 10280 20248 39925 40121 333 10330 29077 55095 59017;EQDQ01  00002PRCP06
0186825710999992003010312004-05500-045270FM-12+017499999V0200501N003110042019N0100001N1+02691+02301101481ADDAA106000091GF108991081051004501999999KA1240N+02421MA1999999099521MD1999999-0061REMSYN076AAXX  03124 82571 32497 80506 10269 20230 39952 40148 885// 333 20242 59006;EQDQ01  00002PRCP06
0167825710999992003010318004-05500-045270FM-12+017499999V0200501N001012200019N0100001N1+03251+02211101121ADDAA106000091GF103991021021004501001011MA1999999099181MD1999999+0051REMSYN070AAXX  03184 82571 32497 30502 10325 20221 39918 40112 82201 333 58005;EQDQ01  00002PRCP06
0208825710999992003010400004-05500-045270FM-12+017499999V0209999C000012200019N0100001N1+02851+02441101211ADDAA106000091GA1001+999999999GF100991001001999999001001KA1240M+03321MA1999999099251MD1999999+0001REMSYN082AAXX  04004 82571 32997 00000 10285 20244 39925 40121 333 10332 29072 55080 58000;EQDQ01  00002PRCP06
0186825710999992003010412004-05500-045270FM-12+017499999V0200701N005112200019N0100001N1+02771+02301101491ADDAA106000091GF102991021021004501001001KA1240N+02371MA1999999099531MD1999999+0011REMSYN076AAXX  04124 82571 32497 20710 10277 20230 39953 40149 82200 333 20237 58001;EQDQ01  00002PRCP06
0167825710999992003010418004-05500-045270FM-12+017499999V0203601N003112200019N0100001N1+03371+02121101071ADDAA106000091GF102991021021004501001001MA1999999099131MD1999999-0051REMSYN070AAXX  04184 82571 32497 23606 10337 20212 39913 40107 82200 333 59005;EQDQ01  00002PRCP06
0186825710999992003010512004-05500-045270FM-12+017499999V0200501N001010042019N0100001N1+02791+02361101491ADDAA106000091GF106991061021004501001001KA1240N+02491MA1999999099531MD1999999+0001REMSYN076AAXX  05124 82571 32497 60502 10279 20236 39953 40149 86200 333 20249 58000;EQDQ01  00002PRCP06
0167825710999992003010518004-05500-045270FM-12+017499999V0200501N001012200019N0100001N1+03431+02211101021ADDAA106000091GF102991021021004501001001MA1999999099091MD1999999-0041REMSYN070AAXX  05184 82571 32497 20502 10343 20221 39909 40102 82200 333 59004;EQDQ01  00002PRCP06
0208825710999992003010600004-05500-045270FM-12+017499999V0209999C000012200019N0100001N1+02961+02331101301ADDAA106000091GA1001+999999999GF100991001001999999001001KA1240M+03501MA1999999099351MD1999999+0131REMSYN082AAXX  06004 82571 32997 00000 10296 20233 39935 40130 333 10350 29066 55096 58013;EQDQ01  00002PRCP06
0186825710999992003010612004-05500-045270FM-12+017499999V0200201N003110042019N0100001N1+02771+02361101531ADDAA106000091GF106991061021004501001001KA1240N+02421MA1999999099571MD1999999+0041REMSYN076AAXX  06124 82571 32497 60206 10277 20236 39957 40153 86200 333 20242 58004;EQDQ01  00002PRCP06
0167825710999992003010618004-05500-045270FM-12+017499999V0201601N003112200019N0100001N1+03471+02221101021ADDAA106000091GF104991031021004501041001MA1999999099091MD1999999+0001REMSYN070AAXX  06184 82571 32497 41606 10347 20222 39909 40102 83240 333 58000;EQDQ01  00002PRCP06
0208825710999992003010700004-05500-045270FM-12+017499999V0209999C000012200019N0100001N1+03011+02531101221ADDAA106000091GA1001+999999999GF100991001001999999001001KA1240M+03531MA1999999099271MD1999999-0081REMSYN082AAXX  07004 82571 32997 00000 10301 20253 39927 40122 333 10353 29069 55097 59008;EQDQ01  00002PRCP06
0186825710999992003010712004-05500-045270FM-12+017499999V0200201N005110042019N0100001N1+02821+02331101581ADDAA106000091GF106991061051004501001001KA1240N+02501MA1999999099631MD1999999+0061REMSYN076AAXX  07124 82571 32497 60210 10282 20233 39963 40158 86500 333 20250 58006;EQDQ01  00002PRCP06
0167825710999992003010718004-05500-045270FM-12+017499999V0200501N003112200019N0100001N1+03421+02261101081ADDAA106000091GF103991031021004501001001MA1999999099151MD1999999+0061REMSYN070AAXX  07184 82571 32497 30506 10342 20226 39915 40108 83200 333 58006;EQDQ01  00002PRCP06
0208825710999992003010800004-05500-045270FM-12+017499999V0200901N001012200019N0100001N1+02901+02321101181ADDAA106000091GA1001+999999999GF100991001001999999001001KA1240M+03461MA1999999099231MD1999999-0041REMSYN082AAXX  08004 82571 32997 00902 10290 20232 39923 40118 333 10346 29067 55085 59004;EQDQ01  00002PRCP06
0167825710999992003010818004-05500-045270FM-12+017499999V0200501N001010450019N0100001N1+03361+02241101181ADDAA106000091GF106991031021004501011011MA1999999099241MD1999999+0091REMSYN070AAXX  08184 82571 32497 60502 10336 20224 39924 40118 83211 333 58009;EQDQ01  00002PRCP06
0208825710999992003010900004-05500-045270FM-12+017499999V0209999C000012200019N0100001N1+02931+02471101331ADDAA106000091GA1001+999999999GF100991001001999999001001KA1240M+03451MA1999999099381MD1999999+0151REMSYN082AAXX  09004 82571 32997 00000 10293 20247 39938 40133 333 10345 29071 55090 58015;EQDQ01  00002PRCP06
0186825710999992003010912004-05500-045270FM-12+017499999V0200501N003110042019N0100001N1+02691+02371101591ADDAA106000091GF106991061051004501001001KA1240N+02481MA1999999099631MD1999999+0061REMSYN076AAXX  09124 82571 32497 60506 10269 20237 39963 40159 86500 333 20248 58006;EQDQ01  00002PRCP06
0167825710999992003010918004-05500-045270FM-12+017499999V0200901N004110450019N0100001N1+03141+02321101381ADDAA106000091GF106991041051004501041001MA1999999099431MD1999999+0191REMSYN070AAXX  09184 82571 32497 60908 10314 20232 39943 40138 84540 333 58019;EQDQ01  00002PRCP06
0198825710999992003011000004-05500-045270FM-12+017499999V0209999C000012200019N0100001N1+02771+02501101471ADDAA106000091GF101991011001017501011001KA1240M+03171MA1999999099511MD1999999+0131REMSYN088AAXX  10004 82571 32797 10000 10277 20250 39951 40147 81010 333 10317 29078 55027 58013;EQDQ01  00002PRCP06
0190825710999992003011012004-05500-045270FM-12+017499999V0200501N001010042019N0100001N1+02661+02441101661ADDAY161061AY221061GF107991071051004501001001KA1240N+02521MA1999999099691MD1999999+0061MW1811REMSYN088AAXX  10124 82571 21497 70502 10266 20244 39969 40166 78162 87500 333 20252 58006 60034;
0148825710999992003011018004-05500-045270FM-12+017499999V0200501N002112200019N0100001N1+03251+02331101161ADDAA106000021GF104991031021004501011001MA1999999099221MD1999999-0211REMSYN070AAXX  10184 82571 32497 40504 10325 20233 39922 40116 83210 333 59021;
0198825710999992003011100004-05500-045270FM-12+017499999V0209999C000012200019N0100001N1+02661+02461101351ADDAA106000091GF101991011001017501031001KA1240M+03351MA1999999099381MD1999999-0131REMSYN088AAXX  11004 82571 32797 10000 10266 20246 39938 40135 81030 333 10335 29081 55062 59013;EQDQ01  00002PRCP06
0182825710999992003011112004-05500-045270FM-12+017499999V0200501N001010090019N0100001N1+02541+02441101671ADDAY161061GF107991051081004501031001KA1240N+02441MA1999999099691MD1999999+0001MW1011REMSYN088AAXX  11124 82571 21497 70502 10254 20244 39969 40167 7016/ 85830 333 20244 58000 60034;
0167825710999992003011118004-05500-045270FM-12+017499999V0200501N002112200019N0100001N1+03211+02291101251ADDAA106000091GF104991041021004501001001MA1999999099301MD1999999+0081REMSYN070AAXX  11184 82571 32497 40504 10321 20229 39930 40125 84200 333 58008;EQDQ01  00002PRCP06
0208825710999992003011200004-05500-045270FM-12+017499999V0202301N001012200019N0100001N1+02781+02561101421ADDAA106000091GA1001+999999999GF100991001001999999001001KA1240M+03311MA1999999099451MD1999999+0071REMSYN082AAXX  12004 82571 32997 02302 10278 20256 39945 40142 333 10331 29082 55054 58007;EQDQ01  00002PRCP06
0186825710999992003011212004-05500-045270FM-12+017499999V0203601N002112200019N0100001N1+02701+02331101621ADDAA106000091GF103991031021004501001001KA1240N+02341MA1999999099651MD1999999-0041REMSYN076AAXX  12124 82571 32497 33604 10270 20233 39965 40162 83200 333 20234 59004;EQDQ01  00002PRCP06
0167825710999992003011218004-05500-045270FM-12+017499999V0200501N003112200019N0100001N1+03401+02141101131ADDAA106000091GF104991041021004501001001MA1999999099191MD1999999-0111REMSYN070AAXX  12184 82571 32497 40506 10340 20214 39919 40113 84200 333 59011;EQDQ01  00002PRCP06
0208825710999992003011300004-05500-045270FM-12+017499999V0202301N001012200019N0100001N1+02781+02401101271ADDAA106000091GA1001+999999999GF100991001001999999001001KA1240M+03451MA1999999099311MD1999999-0141REMSYN082AAXX  13004 82571 32997 02302 10278 20240 39931 40127 333 10345 29072 55069 59014;EQDQ01  00002PRCP06
0186825710999992003011312004-05500-045270FM-12+017499999V0200201N001010042019N0100001N1+02711+02371101541ADDAA106000091GF105991051021004501001001KA1240N+02381MA1999999099571MD1999999-0081REMSYN076AAXX  13124 82571 32497 50202 10271 20237 39957 40154 85200 333 20238 59008;EQDQ01  00002PRCP06
0167825710999992003011318004-05500-045270FM-12+017499999V0200501N003112200019N0100001N1+03321+02231101021ADDAA106000091GF103991031021004501001001MA1999999099081MD1999999-0111REMSYN070AAXX  13184 82571 32497 30506 10332 20223 39908 40102 83200 333 59011;EQDQ01  00002PRCP06
0198825710999992003011400004-05500-045270FM-12+017499999V0200501N001012200019N0100001N1+02791+02361101261ADDAA106000091GF101991011001017501031001KA1240M+03431MA1999999099301MD1999999-0011REMSYN088AAXX  14004 82571 32797 10502 10279 20236 39930 40126 81030 333 10343 29072 55088 59001;EQDQ01  00002PRCP06
0186825710999992003011412004-05500-045270FM-12+017499999V0200501N002110042019N0100001N1+02601+02331101551ADDAA106000091GF108991081051004501999999KA1240N+02451MA1999999099581MD1999999+0011REMSYN076AAXX  14124 82571 32497 80504 10260 20233 39958 40155 885// 333 20245 58001;EQDQ01  00002PRCP06
0167825710999992003011418004-05500-045270FM-12+017499999V0200901N002110042019N0100001N1+02711+02301101311ADDAA106000091GF107991071051004501001001MA1999999099341MD1999999+0261REMSYN070AAXX  14184 82571 32497 70904 10271 20230 39934 40131 87500 333 58026;EQDQ01  00002PRCP06
0198825710999992003011500004-05500-045270FM-12+017499999V0202701N001010450019N0100001N1+02591+02441101331ADDAA106000091GF107991031051004501051001KA1240M+03131MA1999999099361MD1999999+0061REMSYN088AAXX  15004 82571 32497 72702 10259 20244 39936 40133 83550 333 10313 29086 55014 58006;EQDQ01  00002PRCP06
0186825710999992003011512004-05500-045270FM-12+017499999V0200501N002110450019N0100001N1+02671+02351101661ADDAA106000091GF106991041021004501031001KA1240N+02471MA1999999099681MD1999999+0101REMSYN076AAXX  15124 82571 32497 60504 10267 20235 39968 40166 84230 333 20247 58010;EQDQ01  00002PRCP06
0167825710999992003011518004-05500-045270FM-12+017499999V0200701N003110450019N0100001N1+03331+02121101261ADDAA106000091GF106991031021004501031001MA1999999099321MD1999999-0021REMSYN070AAXX  15184 82571 32497 60706 10333 20212 39932 40126 83230 333 59002;EQDQ01  00002PRCP06
0198825710999992003011600004-05500-045270FM-12+017499999V0209999C000012200019N0100001N1+02861+02421101391ADDAA106000091GF101991011001017501031001KA1240M+03401MA1999999099431MD1999999+0071REMSYN088AAXX  16004 82571 32797 10000 10286 20242 39943 40139 81030 333 10340 29071 55076 58007;EQDQ01  00002PRCP06
0186825710999992003011612004-05500-045270FM-12+017499999V0200501N002110090019N0100001N1+02671+02311101711ADDAA106000091GF107991071081004501001001KA1240N+02391MA1999999099741MD1999999+0061REMSYN076AAXX  16124 82571 32497 70504 10267 20231 39974 40171 87800 333 20239 58006;EQDQ01  00002PRCP06
0167825710999992003011618004-05500-045270FM-12+017499999V0200501N004112200019N0100001N1+03381+02161101211ADDAA106000091GF104991031021004501031001MA1999999099271MD1999999-0051REMSYN070AAXX  16184 82571 32497 40508 10338 20216 39927 40121 83230 333 59005;EQDQ01  00002PRCP06
0198825710999992003011700004-05500-045270FM-12+017499999V0209999C000012200019N0100001N1+02921+02361101301ADDAA106000091GF102991011001017501011011KA1240M+03471MA1999999099341MD1999999-0091REMSYN088AAXX  17004 82571 32797 20000 10292 20236 39934 40130 81011 333 10347 29068 55088 59009;EQDQ01  00002PRCP06
0186825710999992003011712004-05500-045270FM-12+017499999V0200501N003110042019N0100001N1+02761+02191101591ADDAA106000091GF105991051021004501001001KA1240N+02421MA1999999099631MD1999999-0111REMSYN076AAXX  17124 82571 32497 50506 10276 20219 39963 40159 85200 333 20242 59011;EQDQ01  00002PRCP06
0167825710999992003011718004-05500-045270FM-12+017499999V0200201N003112200019N0100001N1+03331+02121101161ADDAA106000091GF104991041021004501001001MA1999999099221MD1999999-0051REMSYN070AAXX  17184 82571 32497 40206 10333 20212 39922 40116 84200 333 59005;EQDQ01  00002PRCP06
0198825710999992003011800004-05500-045270FM-12+017499999V0209999C000012200019N0100001N1+02931+02291101361ADDAA106000091GF101991011001017501011001KA1240M+03431MA1999999099411MD1999999+0071REMSYN088AAXX  18004 82571 32797 10000 10293 20229 39941 40136 81010 333 10343 29064 55084 58007;EQDQ01  00002PRCP06
0186825710999992003011812004-05500-045270FM-12+017499999V0200501N002110042019N0100001N1+02621+02331101551ADDAA106000091GF108991081051004501999999KA1240N+02421MA1999999099591MD1999999-0041REMSYN076AAXX  18124 82571 32497 80504 10262 20233 39959 40155 885// 333 20242 59004;EQDQ01  00002PRCP06
0167825710999992003011818004-05500-045270FM-12+017499999V0203601N003110042019N0100001N1+03311+02231101221ADDAA106000091GF106991051021004501041001MA1999999099281MD1999999+0061REMSYN070AAXX  18184 82571 32497 63606 10331 20223 39928 40122 85240 333 58006;EQDQ01  00002PRCP06
0198825710999992003011900004-05500-045270FM-12+017499999V0200701N001012200019N0100001N1+02821+02441101441ADDAA106000091GF104991011011004501041001KA1240M+03371MA1999999099471MD1999999+0061REMSYN088AAXX  19004 82571 32497 40702 10282 20244 39947 40144 81140 333 10337 29074 55046 58006;EQDQ01  00002PRCP06
0186825710999992003011912004-05500-045270FM-12+017499999V0200201N001010042019N0100001N1+02641+02311101721ADDAA106000091GF108991081051004501999999KA1240N+02461MA1999999099751MD1999999+0161REMSYN076AAXX  19124 82571 32497 80202 10264 20231 39975 40172 885// 333 20246 58016;EQDQ01  00002PRCP06
0187825710999992003011918004-05500-045270FM-12+017499999V0202301N001010450019N0100001N1+02791+02361101371ADDAA106000091AY191061GF108991031021004501071001MA1999999099401MD1999999+0121MW1021REMSYN076AAXX  19184 82571 31497 82302 10279 20236 39940 40137 7029/ 83270 333 58012;EQDQ01  00002PRCP06
0210825710999992003012000004-05500-045270FM-12+017499999V0200501N005110042019N0100001N1+02461+02191101631ADDAA106000091GF108991081051004501999999KA1240M+02961MA1999999099651MD1999999+0181MW1131REMSYN094AAXX  20004 82571 31497 80510 10246 20219 39965 40163 713// 885// 333 10296 29082 55001 58018;EQDQ01  00002PRCP06
0182825710999992003012012004-05500-045270FM-12+017499999V0200701N001010042019N0100001N1+02421+02261101631ADDAY161061GF108991081051004501999999KA1240N+02251MA1999999099641MD1999999-0111MW1021REMSYN088AAXX  20124 82571 21497 80702 10242 20226 39964 40163 7026/ 885// 333 20225 59011 60034;
0167825710999992003012018004-05500-045270FM-12+017499999V0202301N001012200019N0100001N1+03061+02271101181ADDAA106000091GF104991031021004501031001MA1999999099221MD1999999-0181REMSYN070AAXX  20184 82571 32497 42302 10306 20227 39922 40118 83230 333 59018;EQDQ01  00002PRCP06
0202825710999992003012100004-05500-045270FM-12+017499999V0209999C000010090019N0100001N1+02501+02321101411ADDAY161061AY221061GF106991061081004501001001KA1240M+03241MA1999999099421MD1999999-0231MW1021REMSYN100AAXX  21004 82571 21497 60000 10250 20232 39942 40141 70262 86800 333 10324 29084 55033 59023 69941;
0162825710999992003012112004-05500-045270FM-12+017499999V0200501N001010042019N0100001N1+02481+02231101561ADDGF108991081051004501999999KA1240N+02311MA1999999099571MD1999999-0071REMSYN082AAXX  21124 82571 22497 80502 10248 20223 39957 40156 885// 333 20231 59007 69944;
0167825710999992003012118004-05500-045270FM-12+017499999V0200701N003110450019N0100001N1+03171+02161100991ADDAA106000091GF105991031021004501011011MA1999999099041MD1999999-0181REMSYN070AAXX  21184 82571 32497 50706 10317 20216 39904 40099 83211 333 59018;EQDQ01  00002PRCP06
0198825710999992003012200004-05500-045270FM-12+017499999V0202501N003110042019N0100001N1+02701+02301101361ADDAA106000091GF108991081051004501999999KA1240M+03261MA1999999099391MD1999999-0031REMSYN088AAXX  22004 82571 32497 82506 10270 20230 39939 40136 885// 333 10326 29075 55066 59003;EQDQ01  00002PRCP06
0182825710999992003012212004-05500-045270FM-12+017499999V0201801N001010450019N0020001N1+02221+02151101631ADDAY161061GF108991031071004501021999KA1240N+02221MA1999999099641MD1999999+0071MW1611REMSYN088AAXX  22124 82571 21495 81802 10222 20215 39964 40163 7616/ 8372/ 333 20222 58007 60314;
0171825710999992003012218004-05500-045270FM-12+017499999V0201401N003110450019N0100001N1+02891+02371101171ADDAY161061AY221061GF106991041021004501041011MA1999999099211MD1999999+0171MW1011REMSYN082AAXX  22184 82571 21497 61406 10289 20237 39921 40117 70162 84241 333 58017 60101;
0198825710999992003012300004-05500-045270FM-12+017499999V0209999C000012200019N0100001N1+02591+02441101421ADDAA106000091GF103991031001017501031001KA1240M+02981MA1999999099431MD1999999+0041REMSYN088AAXX  23004 82571 32797 30000 10259 20244 39943 40142 83030 333 10298 29088 55032 58004;EQDQ01  00002PRCP06
0162825710999992003012312004-05500-045270FM-12+017499999V0200201N001010042019N0100001N1+02551+02331101661ADDGF107991051021004501031001KA1240N+02211MA1999999099671MD1999999+0031REMSYN082AAXX  23124 82571 22497 70202 10255 20233 39967 40166 85230 333 20221 58003 60104;
0167825710999992003012318004-05500-045270FM-12+017499999V0200901N005110042019N0100001N1+02751+02021101411ADDAA106000091GF108991081091004501999999MA1999999099441MD1999999+0231REMSYN070AAXX  23184 82571 32497 80910 10275 20202 39944 40141 889// 333 58023;EQDQ01  00002PRCP06
0202825710999992003012400004-05500-045270FM-12+017499999V0209999C000010042019N0100001N1+02331+02261101621ADDAY191061AY261061GF107991071021004501001001KA1240M+03121MA1999999099631MD1999999+0201MW1021REMSYN100AAXX  24004 82571 21497 70000 10233 20226 39963 40162 70296 87200 333 10312 29085 55026 58020 60041;
0182825710999992003012412004-05500-045270FM-12+017499999V0200901N001010450019N0100001N1+02371+02331101771ADDAY161061GF108991031071004501021999KA1240N+02291MA1999999099771MD1999999+0101MW1021REMSYN088AAXX  24124 82571 21497 80902 10237 20233 39977 40177 7026/ 8372/ 333 20229 58010 60044;
0167825710999992003012418004-05500-045270FM-12+017499999V0201801N001010090019N0100001N1+02631+02411101401ADDAA106000091GF107991051081004501031001MA1999999099411MD1999999-0031REMSYN070AAXX  24184 82571 32497 71802 10263 20241 39941 40140 85830 333 59003;EQDQ01  00002PRCP06
0208825710999992003012500004-05500-045270FM-12+017499999V0209999C000012200019N0100001N1+02491+02381101411ADDAA106000091GA1001+999999999GF100991001001999999001001KA1240M+02711MA1999999099421MD1999999-0211REMSYN082AAXX  25004 82571 32997 00000 10249 20238 39942 40141 333 10271 29092 55005 59021;EQDQ01  00002PRCP06
0182825710999992003012512004-05500-045270FM-12+017499999V0200501N001010450019N0100001N1+02591+02401101561ADDAY161061GF105991031021004501031011KA1240N+02261MA1999999099581MD1999999-0191MW1031REMSYN088AAXX  25124 82571 21497 50502 10259 20240 39958 40156 7036/ 83231 333 20226 59019 69914;
0167825710999992003012518004-05500-045270FM-12+017499999V0201401N002110450019N0100001N1+03211+02341101001ADDAA106000091GF105991031021004501041011MA1999999099051MD1999999-0361REMSYN070AAXX  25184 82571 32497 51404 10321 20234 39905 40100 83241 333 59036;EQDQ01  00002PRCP06
0212825710999992003012600004-05500-045270FM-12+017499999V0209999C000012200019N0100001N1+02641+02291101221ADDAY161061AY201061GA1001+999999999GF100991001001999999001001KA1240M+03301MA1999999099251MD1999999-0171MW1021REMSYN094AAXX  26004 82571 21997 00000 10264 20229 39925 40122 70260 333 10330 29078 55081 59017 60021;
0162825710999992003012612004-05500-045270FM-12+017499999V0200501N002110042019N0100001N1+02651+02411101371ADDGF107991071051004501001001KA1240N+02321MA1999999099401MD1999999-0181REMSYN082AAXX  26124 82571 22497 70504 10265 20241 39940 40137 87500 333 20232 59018 60024;
0171825710999992003012618004-05500-045270FM-12+017499999V0201401N005110042019N0100001N1+03161+02391101011ADDAY161061AY201061GF106991051051004501041001MA1999999099061MD1999999+0011MW1031REMSYN082AAXX  26184 82571 21497 61410 10316 20239 39906 40101 70360 85540 333 58001 69911;
0208825710999992003012700004-05500-045270FM-12+017499999V0209999C000012200019N0100001N1+02611+02421101101ADDAA106000091GA1001+999999999GF100991001001999999001001KA1240M+03201MA1999999099141MD1999999-0111REMSYN082AAXX  27004 82571 32997 00000 10261 20242 39914 40110 333 10320 29082 55050 59011;EQDQ01  00002PRCP06
0182825710999992003012712004-05500-045270FM-12+017499999V0203601N001010450019N0100001N1+02481+02431101411ADDAY161061GF106991041021004501031011KA1240N+02391MA1999999099431MD1999999+0031MW1011REMSYN088AAXX  27124 82571 21497 63602 10248 20243 39943 40141 7016/ 84231 333 20239 58003 60054;
0171825710999992003012718004-05500-045270FM-12+017499999V0201801N001010090019N0100001N1+02531+02331101061ADDAY161061AY221061GF107991071081004501001001MA1999999099081MD1999999+0021MW1021REMSYN082AAXX  27184 82571 21497 71802 10253 20233 39908 40106 70262 87800 333 58002 69931;
0202825710999992003012800004-05500-045270FM-12+017499999V0201101N001010450019N0020001N1+02461+02391101491ADDAY161061AY221061GF108991041071004501021999KA1240M+02811MA1999999099501MD1999999+0361MW1611REMSYN100AAXX  28004 82571 21495 81102 10246 20239 39950 40149 76162 8472/ 333 10281 29094 55006 58036 60051;
0182825710999992003012812004-05500-045270FM-12+017499999V0201401N001010090019N0100001N1+02351+02201101631ADDAY161061GF107991071081004501001001KA1240N+02251MA1999999099631MD1999999+0201MW1011REMSYN088AAXX  28124 82571 21497 71402 10235 20220 39963 40163 7016/ 87800 333 20225 58020 60124;
0167825710999992003012818004-05500-045270FM-12+017499999V0200501N003112200019N0100001N1+02991+02171101211ADDAA106000091GF104991031021004501041001MA1999999099251MD1999999+0171REMSYN070AAXX  28184 82571 32497 40506 10299 20217 39925 40121 83240 333 58017;EQDQ01  00002PRCP06
0198825710999992003012900004-05500-045270FM-12+017499999V0209999C000012200019N0100001N1+02521+02331101461ADDAA106000091GF104991041001017501031001KA1240M+03061MA1999999099471MD1999999-0031REMSYN088AAXX  29004 82571 32797 40000 10252 20233 39947 40146 84030 333 10306 29082 55053 59003;EQDQ01  00002PRCP06
0186825710999992003012912004-05500-045270FM-12+017499999V0200501N001010042019N0100001N1+02461+02321101581ADDAA106000091GF107991071051004501001001KA1240N+02271MA1999999099591MD1999999-0041REMSYN076AAXX  29124 82571 32497 70502 10246 20232 39959 40158 87500 333 20227 59004;EQDQ01  00002PRCP06
0167825710999992003012918004-05500-045270FM-12+017499999V0200201N001010450019N0100001N1+03091+02291101121ADDAA106000091GF106991041021004501031001MA1999999099161MD1999999-0091REMSYN070AAXX  29184 82571 32497 60202 10309 20229 39916 40112 84230 333 59009;EQDQ01  00002PRCP06
0208825710999992003013000004-05500-045270FM-12+017499999V0201401N001012200019N0100001N1+02671+02331101231ADDAA106000091GA1001+999999999GF100991001001999999001001KA1240M+03151MA1999999099251MD1999999-0221REMSYN082AAXX  30004 82571 32997 01402 10267 20233 39925 40123 333 10315 29079 55035 59022;EQDQ01  00002PRCP06
0190825710999992003013012004-05500-045270FM-12+017499999V0209999C000010450019N0040001N1+02171+02151101591ADDAY191061AY261061GF108991041071004501021999KA1240N+02161MA1999999099591MD1999999+0001MW1911REMSYN088AAXX  30124 82571 21496 80000 10217 20215 39959 40159 79196 8472/ 333 20216 58000 60314;
0171825710999992003013018004-05500-045270FM-12+017499999V0202701N001010042019N0100001N1+02731+02381101161ADDAY161061AY221061GF107991051021004501051001MA1999999099191MD1999999+0031MW1011REMSYN082AAXX  30184 82571 21497 72702 10273 20238 39919 40116 70162 85250 333 58003 60011;
0198825710999992003013100004-05500-045270FM-12+017499999V0201401N001012200019N0100001N1+02611+02441101301ADDAA106000091GF103991021021004501031001KA1240M+03071MA1999999099311MD1999999+0061REMSYN088AAXX  31004 82571 32497 31402 10261 20244 39931 40130 82230 333 10307 29090 55028 58006;EQDQ01  00002PRCP06
0182825710999992003013112004-05500-045270FM-12+017499999V0203201N001010450019N0100001N1+02451+02271101401ADDAY161061GF105991041021004501031001KA1240N+02221MA1999999099421MD1999999+0171MW1031REMSYN088AAXX  31124 82571 21497 53202 10245 20227 39942 40140 7036/ 84230 333 20222 58017 60204;
0155825710999992003013118004-05500-045270FM-12+017499999V0201401N001010042019N0100001N1+02431+02091101081ADDGF107991071051004501001001MA1999999099091MD1999999-0101MW1211REMSYN082AAXX  31184 82571 21497 71402 10243 20209 39909 40108 721// 87500 333 59010 69911;
0179825710999992003020100004-05500-045270FM-12+017499999V0200501N002110042019N0100001N1+02311+02241101291ADDAA106000021GF105991051021004501001001KA1240M+03011MA1999999099301MD1999999-0011REMSYN088AAXX  01004 82571 32497 50504 10231 20224 39930 40129 85200 333 10301 29090 55042 59001;
0182825710999992003020112004-05500-045270FM-12+017499999V0201801N001010042019N0100001N1+02381+02261101521ADDAY161061GF107991071051004501001001KA1240N+02241MA1999999099521MD1999999+0101MW1021REMSYN088AAXX  01124 82571 21497 71802 10238 20226 39952 40152 7026/ 87500 333 20224 58010 60044;
0171825710999992003020118004-05500-045270FM-12+017499999V0201401N002110090019N0100001N1+02921+02361101151ADDAY161061AY221061GF107991071081004501001001MA1999999099181MD1999999+0091MW1021REMSYN082AAXX  01184 82571 21497 71404 10292 20236 39918 40115 70262 87800 333 58009 69921;
0198825710999992003020200004-05500-045270FM-12+017499999V0201401N002110090019N0100001N1+02551+02441101361ADDAA106000091GF106991061081004501001001KA1240M+03011MA1999999099371MD1999999+0071REMSYN088AAXX  02004 82571 32497 61404 10255 20244 39937 40136 86800 333 10301 29088 55028 58007;EQDQ01  00002PRCP06
0162825710999992003020212004-05500-045270FM-12+017499999V0201401N001011050019N0100001N1+02551+02271101551ADDGF105991011021004501041011KA1240N+02301MA1999999099571MD1999999+0051REMSYN082AAXX  02124 82571 22497 51402 10255 20227 39957 40155 81241 333 20230 58005 69924;
0167825710999992003020218004-05500-045270FM-12+017499999V0200501N005112200019N0100001N1+03201+02121101171ADDAA106000091GF104991021021004501031001MA1999999099221MD1999999+0041REMSYN070AAXX  02184 82571 32497 40510 10320 20212 39922 40117 82230 333 58004;EQDQ01  00002PRCP06
0198825710999992003020300004-05500-045270FM-12+017499999V0200901N001010042019N0100001N1+02711+02191101421ADDAA106000091GF105991051061004501001001KA1240M+03271MA1999999099401MD1999999+0081REMSYN088AAXX  03004 82571 32497 50902 10271 20219 39940 40142 85600 333 10327 29071 55087 58008;EQDQ01  00002PRCP06
0182825710999992003020312004-05500-045270FM-12+017499999V0200501N001010042019N0000001N1+02531+02331101591ADDAY161061GF107991061021004501031001KA1240N+02341MA1999999099611MD1999999+0041MW1021REMSYN088AAXX  03124 82571 21490 70502 10253 20233 39961 40159 7026/ 86230 333 20234 58004 69934;
0171825710999992003020318004-05500-045270FM-12+017499999V0200501N003110450019N0100001N1+03091+02361101181ADDAY161061AY221061GF105991031021004501031001MA1999999099231MD1999999+0011MW1011REMSYN082AAXX  03184 82571 21497 50506 10309 20236 39923 40118 70162 83230 333 58001 69911;
0198825710999992003020400004-05500-045270FM-12+017499999V0209999C000012200019N0100001N1+02791+02501101291ADDAA106000091GF104991041021004501001001KA1240M+03161MA1999999099321MD1999999-0131REMSYN088AAXX  04004 82571 32497 40000 10279 20250 39932 40129 84200 333 10316 29080 55043 59013;EQDQ01  00002PRCP06
0181825710999992003020412004-05500-045270FM-12+017499999V0200701N001010042019N0100001N1+02571+02401101461ADDGF108991999051004501001001KA1240N+02391MA1999999099491MD1999999-0121REMSYN082AAXX  04124 82571 22497 80702 10257 20240 39949 40146 87500 333 20239 59012 69914;EQDQ01+000072SCOTLC
0167825710999992003020418004-05500-045270FM-12+017499999V0201801N003112200019N0100001N1+03191+02381101071ADDAA106000091GF104991021021004501011011MA1999999099131MD1999999-0101REMSYN070AAXX  04184 82571 32497 41806 10319 20238 39913 40107 82211 333 59010;EQDQ01  00002PRCP06
0182825710999992003020512004-05500-045270FM-12+017499999V0200501N002110042019N0100001N1+02571+02381101471ADDAY161061GF107991071051004501001001KA1240N+02351MA1999999099501MD1999999+0011MW1031REMSYN088AAXX  05124 82571 21497 70504 10257 20238 39950 40147 7036/ 87500 333 20235 58001 60094;
0171825710999992003020518004-05500-045270FM-12+017499999V0201801N002110090019N0100001N1+02651+02481101121ADDAY161061AY211061GF107991071081004501001001MA1999999099151MD1999999+0021MW1211REMSYN082AAXX  05184 82571 21497 71804 10265 20248 39915 40112 72161 87800 333 58002 60011;
0191825710999992003020600004-05500-045270FM-12+017499999V0209999C000012200019N0100001N1+02591+02511101301ADDAA106000021GF103991021031004501011001KA1240M+03101MA1999999099331MD1999999+0081MW1131REMSYN094AAXX  06004 82571 31497 30000 10259 20251 39933 40130 713// 82310 333 10310 29092 55042 58008;
0182825710999992003020612004-05500-045270FM-12+017499999V0202301N001010450019N0100001N1+02531+02381101571ADDAY161061GF106991041051004501031001KA1240N+02301MA1999999099591MD1999999+0091MW1011REMSYN088AAXX  06124 82571 21497 62302 10253 20238 39959 40157 7016/ 84530 333 20230 58009 60194;
0171825710999992003020618004-05500-045270FM-12+017499999V0200501N003112200019N0100001N1+03031+02331101171ADDAY161061AY201061GF105991031021004501001011MA1999999099211MD1999999+0061MW1031REMSYN082AAXX  06184 82571 21497 50506 10303 20233 39921 40117 70360 83201 333 58006 69961;
0208825710999992003020700004-05500-045270FM-12+017499999V0200501N001012200019N0100001N1+02651+02371101311ADDAA106000091GA1001+999999999GF100991001001999999001001KA1240M+03151MA1999999099341MD1999999+0011REMSYN082AAXX  07004 82571 32497 00502 10265 20237 39934 40131 333 10315 29081 55061 58001;EQDQ01  00002PRCP06
0162825710999992003020712004-05500-045270FM-12+017499999V0202301N001012200019N0100001N1+02511+02331101421ADDGF104991011011004501001011KA1240N+02191MA1999999099451MD1999999-0141REMSYN082AAXX  07124 82571 22497 42302 10251 20233 39945 40142 81101 333 20219 59014 69964;
0167825710999992003020718004-05500-045270FM-12+017499999V0200501N003110450019N0100001N1+03071+02441101131ADDAA106000091GF106991021021004501041011MA1999999099171MD1999999-0041REMSYN070AAXX  07184 82571 32497 60506 10307 20244 39917 40113 82241 333 59004;EQDQ01  00002PRCP06
0198825710999992003020800004-05500-045270FM-12+017499999V0209999C000012200019N0100001N1+02601+02251101321ADDAA106000091GF103991031001017501071001KA1240M+03161MA1999999099341MD1999999+0001REMSYN088AAXX  08004 82571 32797 30000 10260 20225 39934 40132 83070 333 10316 29080 55088 58000;EQDQ01  00002PRCP06
0186825710999992003020812004-05500-045270FM-12+017499999V0201401N001010042019N0100001N1+02481+02271101521ADDAA106000091GF108991081051004501999999KA1240N+02291MA1999999099541MD1999999-0091REMSYN076AAXX  08124 82571 32497 81402 10248 20227 39954 40152 885// 333 20229 59009;EQDQ01  00002PRCP06
0167825710999992003020818004-05500-045270FM-12+017499999V0201401N001010450019N0100001N1+03201+02411101171ADDAA106000091GF106991021021004501031011MA1999999099221MD1999999+0051REMSYN070AAXX  08184 82571 32497 61402 10320 20241 39922 40117 82231 333 58005;EQDQ01  00002PRCP06
0208825710999992003020900004-05500-045270FM-12+017499999V0200501N003112200019N0100001N1+02711+02391101271ADDAA106000091GA1001+999999999GF100991001001999999001001KA1240M+03361MA1999999099301MD1999999-0041REMSYN082AAXX  09004 82571 32997 00506 10271 20239 39930 40127 333 10336 29079 55080 59004;EQDQ01  00002PRCP06
0186825710999992003020912004-05500-045270FM-12+017499999V0202301N001010042019N0100001N1+02501+02321101541ADDAA106000091GF108991081051004501999999KA1240N+02301MA1999999099561MD1999999+0021REMSYN076AAXX  09124 82571 32497 82302 10250 20232 39956 40154 885// 333 20230 58002;EQDQ01  00002PRCP06
0167825710999992003020918004-05500-045270FM-12+017499999V0200501N001010450019N0100001N1+03121+02461101101ADDAA106000091GF106991041021004501031001MA1999999099151MD1999999-0071REMSYN070AAXX  09184 82571 32497 60502 10312 20246 39915 40110 84230 333 59007;EQDQ01  00002PRCP06
0214825710999992003021000004-05500-045270FM-12+017499999V0200501N003112200019N0100001N1+02521+02331101311ADDAA106000091GF104991999021017501091001KA1240M+03211MA1999999099331MD1999999+0031REMSYN088AAXX  10004 82571 32797 40506 10252 20233 39933 40131 80290 333 10321 29084 55039 58003;EQDQ01+000002SCOTLCQ02  00002PRCP06
0186825710999992003021012004-05500-045270FM-12+017499999V0200501N001010042019N0100001N1+02431+02321101521ADDAA106000091GF107991061051004501031001KA1240N+02341MA1999999099531MD1999999-0031REMSYN076AAXX  10124 82571 32497 70502 10243 20232 39953 40152 86530 333 20234 59003;EQDQ01  00002PRCP06
0167825710999992003021018004-05500-045270FM-12+017499999V0200701N002110042019N0100001N1+02861+02331101191ADDAA106000091GF107991051021004501041001MA1999999099221MD1999999+0071REMSYN070AAXX  10184 82571 32497 70704 10286 20233 39922 40119 85240 333 58007;EQDQ01  00002PRCP06
0198825710999992003021100004-05500-045270FM-12+017499999V0201401N001010150019N0100001N1+02591+02421101361ADDAA106000091GF106991061001017501031001KA1240M+02991MA1999999099381MD1999999+0051REMSYN088AAXX  11004 82571 32797 61402 10259 20242 39938 40136 86030 333 10299 29086 55029 58005;EQDQ01  00002PRCP06
0186825710999992003021112004-05500-045270FM-12+017499999V0201401N001010042019N0100001N1+02451+02321101551ADDAA106000091GF108991081051004501999999KA1240N+02241MA1999999099561MD1999999+0031REMSYN076AAXX  11124 82571 32497 81402 10245 20232 39956 40155 885// 333 20224 58003;EQDQ01  00002PRCP06
0167825710999992003021118004-05500-045270FM-12+017499999V0200501N001012200019N0100001N1+02991+02421101041ADDAA106000091GF104991031021004501041001MA1999999099081MD1999999-0141REMSYN070AAXX  11184 82571 32497 40502 10299 20242 39908 40104 83240 333 59014;EQDQ01  00002PRCP06
0186825710999992003021212004-05500-045270FM-12+017499999V0200901N025710450019N0100001N1+02551+02331101601ADDAA106000091GF106991041021004501031001KA1240N+02361MA1999999099631MD1999999+0071REMSYN076AAXX  12124 82571 32497 60950 10255 20233 39963 40160 84230 333 20236 58007;EQDQ01  00002PRCP06
0171825710999992003021218004-05500-045270FM-12+017499999V0201801N001010450019N0100001N1+02331+02261101371ADDAY161061AY221061GF108991041071004501021999MA1999999099381MD1999999+0301MW1611REMSYN082AAXX  12184 82571 21497 81802 10233 20226 39938 40137 76162 8472/ 333 58030 60031;
0179825710999992003021300004-05500-045270FM-12+017499999V0201401N001010090019N0100001N1+02371+02311101401ADDAA106000021GF107991071081004501001001KA1240M+02751MA1999999099411MD1999999+0061REMSYN088AAXX  13004 82571 32497 71402 10237 20231 39941 40140 87800 333 10275 29094 55003 58006;
0182825710999992003021312004-05500-045270FM-12+017499999V0201601N001010450019N0100001N1+02461+02301101551ADDAY161061GF107991041021004501051001KA1240N+02281MA1999999099551MD1999999-0081MW1021REMSYN088AAXX  13124 82571 21497 71602 10246 20230 39955 40155 7026/ 84250 333 20228 59008 60104;
0167825710999992003021318004-05500-045270FM-12+017499999V0200901N003112200019N0100001N1+03091+02291101071ADDAA106000091GF104991021021004501011011MA1999999099111MD1999999-0271REMSYN070AAXX  13184 82571 32497 40906 10309 20229 39911 40107 82211 333 59027;EQDQ01  00002PRCP06
0198825710999992003021400004-05500-045270FM-12+017499999V0209999C000010150019N0100001N1+02741+02431101321ADDAA106000091GF106991061001017501051001KA1240M+03201MA1999999099351MD1999999-0061REMSYN088AAXX  14004 82571 32797 60000 10274 20243 39935 40132 86050 333 10320 29080 55069 59006;EQDQ01  00002PRCP06
0182825710999992003021412004-05500-045270FM-12+017499999V0200501N003110042019N0100001N1+02361+02241101491ADDAY161061GF107991051051004501041001KA1240N+02291MA1999999099511MD1999999-0041MW1021REMSYN088AAXX  14124 82571 21497 70506 10236 20224 39951 40149 7026/ 85540 333 20229 59004 60014;
0167825710999992003021418004-05500-045270FM-12+017499999V0200501N002110450019N0100001N1+02891+02391101101ADDAA106000091GF106991021021004501041001MA1999999099141MD1999999+0031REMSYN070AAXX  14184 82571 32497 60504 10289 20239 39914 40110 82240 333 58003;EQDQ01  00002PRCP06
0198825710999992003021500004-05500-045270FM-12+017499999V0209999C000010042019N0100001N1+02641+02461101291ADDAA106000091GF108991081051004501999999KA1240M+02941MA1999999099311MD1999999-0041REMSYN088AAXX  15004 82571 32497 80000 10264 20246 39931 40129 885// 333 10294 29087 55018 59004;EQDQ01  00002PRCP06
0167825710999992003021518004-05500-045270FM-12+017499999V0201401N001010042019N0100001N1+03051+02271100951ADDAA106000091GF106991051031004501041001MA1999999099001MD1999999-0141REMSYN070AAXX  15184 82571 32497 61402 10305 20227 39900 40095 85340 333 59014;EQDQ01  00002PRCP06
0202825710999992003021600004-05500-045270FM-12+017499999V0202301N001010042019N0100001N1+02461+02361101271ADDAY191061AY261061GF108991081051004501999999KA1240M+03201MA1999999099291MD1999999-0021MW1021REMSYN100AAXX  16004 82571 21497 82302 10246 20236 39929 40127 70296 885// 333 10320 29086 55031 59002 60031;
0162825710999992003021612004-05500-045270FM-12+017499999V0202301N001010042019N0100001N1+02541+02381101431ADDGF108991081051004501999999KA1240N+02321MA1999999099451MD1999999+0081REMSYN082AAXX  16124 82571 22497 82302 10254 20238 39945 40143 885// 333 20232 58008 60034;
0167825710999992003021618004-05500-045270FM-12+017499999V0203601N001010450019N0100001N1+03091+02461100941ADDAA106000091GF106991031051004501031001MA1999999098991MD1999999-0011REMSYN070AAXX  16184 82571 32497 63602 10309 20246 39899 40094 83530 333 59001;EQDQ01  00002PRCP06
0182825710999992003021712004-05500-045270FM-12+017499999V0201401N001010042019N0100001N1+02291+02231101641ADDAY161061GF108991081051004501999999KA1240N+02211MA1999999099641MD1999999+0191MW1511REMSYN088AAXX  17124 82571 21497 81402 10229 20223 39964 40164 7516/ 885// 333 20221 58019 60084;
0171825710999992003021718004-05500-045270FM-12+017499999V0200501N001010042019N0100001N1+02611+02331101291ADDAY161061AY221061GF108991081051004501999999MA1999999099301MD1999999+0311MW1021REMSYN082AAXX  17184 82571 21497 80502 10261 20233 39930 40129 70262 885// 333 58031 69941;
0198825710999992003021800004-05500-045270FM-12+017499999V0202301N001010042019N0100001N1+02531+02401101421ADDAA106000091GF108991081051004501999999KA1240M+02741MA1999999099431MD1999999+0121REMSYN088AAXX  18004 82571 32497 82302 10253 20240 39943 40142 885// 333 10274 29091 55001 58012;EQDQ01  00002PRCP06
0162825710999992003021812004-05500-045270FM-12+017499999V0202701N001012200019N0100001N1+02571+02291101471ADDGF103991011021004501031011KA1240N+02341MA1999999099491MD1999999-0151REMSYN082AAXX  18124 82571 22497 32702 10257 20229 39949 40147 81231 333 20234 59015 69944;
0167825710999992003021818004-05500-045270FM-12+017499999V0200501N002112200019N0100001N1+03071+02321101101ADDAA106000091GF104991031021004501011001MA1999999099141MD1999999-0161REMSYN070AAXX  18184 82571 32497 40504 10307 20232 39914 40110 83210 333 59016;EQDQ01  00002PRCP06
0210825710999992003021900004-05500-045270FM-12+017499999V0201601N001012200019N0100001N1+02731+02431101341ADDAA106000091GF103991031041004501001001KA1240M+03201MA1999999099371MD1999999-0061MW1131REMSYN094AAXX  19004 82571 31497 31602 10273 20243 39937 40134 713// 83400 333 10320 29078 55093 59006;EQDQ01  00002PRCP06
0182825710999992003021912004-05500-045270FM-12+017499999V0202301N001010042019N0100001N1+02431+02321101521ADDAY161061GF107991071051004501001001KA1240N+02271MA1999999099541MD1999999+0051MW1031REMSYN088AAXX  19124 82571 21497 72302 10243 20232 39954 40152 7036/ 87500 333 20227 58005 60424;
0167825710999992003021918004-05500-045270FM-12+017499999V0201401N001010450019N0100001N1+03011+02311101261ADDAA106000091GF106991041021004501031001MA1999999099281MD1999999+0141REMSYN070AAXX  19184 82571 32497 61402 10301 20231 39928 40126 84230 333 58014;EQDQ01  00002PRCP06
0208825710999992003022000004-05500-045270FM-12+017499999V0209999C000012200019N0100001N1+02621+02461101331ADDAA106000091GA1001+999999999GF100991001001999999001001KA1240M+03071MA1999999099351MD1999999-0021REMSYN082AAXX  20004 82571 32997 00000 10262 20246 39935 40133 333 10307 29085 55029 59002;EQDQ01  00002PRCP06
0162825710999992003022112004-05500-045270FM-12+017499999V0201601N002110090019N0100001N1+02351+02171101561ADDGF107991071081004501001001KA1240N+02261MA1999999099561MD1999999-0041REMSYN082AAXX  21124 82571 22497 71604 10235 20217 39956 40156 87800 333 20226 59004 60184;
0167825710999992003022118004-05500-045270FM-12+017499999V0200901N001010450019N0100001N1+02931+02261101151ADDAA106000091GF106991031021004501031001MA1999999099181MD1999999+0011REMSYN070AAXX  21184 82571 32497 60902 10293 20226 39918 40115 83230 333 58001;EQDQ01  00002PRCP06
0208825710999992003022200004-05500-045270FM-12+017499999V0201601N001012200019N0100001N1+02591+02401101361ADDAA106000091GA1001+999999999GF100991001001999999001001KA1240M+03031MA1999999099371MD1999999-0031REMSYN082AAXX  22004 82571 32997 01602 10259 20240 39937 40136 333 10303 29084 55011 59003;EQDQ01  00002PRCP06
0186825710999992003022212004-05500-045270FM-12+017499999V0200501N001010450019N0100001N1+02681+02351101361ADDAA106000091GF106991021021004501051011KA1240N+02341MA1999999099391MD1999999-0171REMSYN076AAXX  22124 82571 32497 60502 10268 20235 39939 40136 82251 333 20234 59017;EQDQ01  00002PRCP06
0167825710999992003022218004-05500-045270FM-12+017499999V0200501N003110450019N0100001N1+03131+02241101111ADDAA106000091GF106991031021004501071001MA1999999099141MD1999999-0021REMSYN070AAXX  22184 82571 32497 60506 10313 20224 39914 40111 83270 333 59002;EQDQ01  00002PRCP06
0202825710999992003022300004-05500-045270FM-12+017499999V0201401N001010042019N0100001N1+02341+02261101481ADDAY191061AY261061GF108991081051004501999999KA1240M+03181MA1999999099491MD1999999+0121MW1541REMSYN100AAXX  23004 82571 21497 81402 10234 20226 39949 40148 75496 885// 333 10318 29083 55065 58012 60051;
0182825710999992003022312004-05500-045270FM-12+017499999V0202301N001010042019N0100001N1+02441+02351101731ADDAY161061GF108991081051004501999999KA1240N+02341MA1999999099731MD1999999+0341MW1021REMSYN088AAXX  23124 82571 21497 82302 10244 20235 39973 40173 7026/ 885// 333 20234 58034 60064;
0202825710999992003022400004-05500-045270FM-12+017499999V0201401N001010042019N0100001N1+02391+02351101621ADDAY191061AY261061GF108991081051004501999999KA1240M+03101MA1999999099621MD1999999+0131MW1611REMSYN100AAXX  24004 82571 21497 81402 10239 20235 39962 40162 76196 885// 333 10310 29093 55030 58013 60041;
0181825710999992003022412004-05500-045270FM-12+017499999V0202001N001019999999N0100001N1+02391+02351101751ADDGF108991999021004501061999KA1240N+02241MA1999999099751MD1999999+0021REMSYN082AAXX  24124 82571 22497 82002 10239 20235 39975 40175 8026/ 333 20224 58002 60144;EQDQ01+000002SCOTLC
0202825710999992003022500004-05500-045270FM-12+017499999V0209999C000012200019N0100001N1+02631+02541101561ADDAY161061AY211061GF104991021021004501041001KA1240M+03101MA1999999099571MD1999999-0051MW1131REMSYN100AAXX  25004 82571 21497 40000 10263 20254 39957 40156 71361 82240 333 10310 29092 55040 59005 69961;
0182825710999992003022512004-05500-045270FM-12+017499999V0200501N001010042019N0100001N1+02411+02261101601ADDAY161061GF107991071051004501001001KA1240N+02181MA1999999099611MD1999999-0141MW1021REMSYN088AAXX  25124 82571 21497 70502 10241 20226 39961 40160 7026/ 87500 333 20218 59014 60014;
0167825710999992003022518004-05500-045270FM-12+017499999V0203601N001010450019N0100001N1+03051+02331101101ADDAA106000091GF106991041021004501041011MA1999999099141MD1999999-0211REMSYN070AAXX  25184 82571 32497 63602 10305 20233 39914 40110 84241 333 59021;EQDQ01  00002PRCP06
0202825710999992003022600004-05500-045270FM-12+017499999V0209999C000012200019N0100001N1+02681+02461101321ADDAY161061AY211061GF101991011031004501001001KA1240M+03151MA1999999099341MD1999999-0231MW1131REMSYN100AAXX  26004 82571 21497 10000 10268 20246 39934 40132 71361 81300 333 10315 29083 55050 59023 69911;
0190825710999992003022612004-05500-045270FM-12+017499999V0201401N001010450019N0100001N1+02301+02271101451ADDAY191061AY261061GF108991041071004501021999KA1240N+02271MA1999999099461MD1999999-0151MW1531REMSYN088AAXX  26124 82571 21497 81402 10230 20227 39946 40145 75396 8472/ 333 20227 59015 60314;
0167825710999992003022718004-05500-045270FM-12+017499999V0200201N001012200019N0100001N1+03091+02441101041ADDAA106000091GF103991021021004501011001MA1999999099081MD1999999-0071REMSYN070AAXX  27184 82571 32497 30202 10309 20244 39908 40104 82210 333 59007;EQDQ01  00002PRCP06
0186825710999992003031012004-05500-045270FM-12+017499999V0200501N002110042019N0100001N1+02571+02381101491ADDAA106000091GF107991071051004501001001KA1240N+02361MA1999999099511MD1999999+0041REMSYN076AAXX  10124 82571 32497 70504 10257 20238 39951 40149 87500 333 20236 58004;EQDQ01  00002PRCP06
0167825710999992003031018004-05500-045270FM-12+017499999V0200501N001012200019N0100001N1+03091+02391101041ADDAA106000091GF103991021021004501031001MA1999999099091MD1999999-0061REMSYN070AAXX  10184 82571 32497 30502 10309 20239 39909 40104 82230 333 59006;EQDQ01  00002PRCP06
0210825710999992003031100004-05500-045270FM-12+017499999V0200501N002112200019N0100001N1+02621+02271101281ADDAA106000091GF103991011031004501031001KA1240M+03171MA1999999099311MD1999999+0011MW1131REMSYN094AAXX  11004 82571 31497 30504 10262 20227 39931 40128 713// 81330 333 10317 29079 55074 58001;EQDQ01  00002PRCP06
0186825710999992003031112004-05500-045270FM-12+017499999V0200501N001010042019N0100001N1+02511+02361101521ADDAA106000091GF107991071051004501001001KA1240N+02301MA1999999099541MD1999999+0031REMSYN076AAXX  11124 82571 32497 70502 10251 20236 39954 40152 87500 333 20230 58003;EQDQ01  00002PRCP06
0167825710999992003031118004-05500-045270FM-12+017499999V0201401N002112200019N0100001N1+03031+02411101051ADDAA106000091GF103991031021004501001001MA1999999099091MD1999999+0001REMSYN070AAXX  11184 82571 32497 31404 10303 20241 39909 40105 83200 333 58000;EQDQ01  00002PRCP06
0186825710999992003031212004-05500-045270FM-12+017499999V0200501N002110042019N0100001N1+02601+02421101531ADDAA106000091GF107991061051004501031001KA1240N+02391MA1999999099551MD1999999+0011REMSYN076AAXX  12124 82571 32497 70504 10260 20242 39955 40153 86530 333 20239 58001;EQDQ01  00002PRCP06
0171825710999992003031218004-05500-045270FM-12+017499999V0201401N003110450019N0100001N1+03151+02341101021ADDAY161061AY201061GF106991041021004501011001MA1999999099071MD1999999-0021MW1011REMSYN082AAXX  12184 82571 21497 61406 10315 20234 39907 40102 70160 84210 333 59002 69911;
0198825710999992003031300004-05500-045270FM-12+017499999V0200901N001012200019N0100001N1+02731+02501101171ADDAA106000091GF102991011031004501011001KA1240M+03201MA1999999099201MD1999999-0121REMSYN088AAXX  13004 82571 32497 20902 10273 20250 39920 40117 81310 333 10320 29082 55068 59012;EQDQ01  00002PRCP06
0162825710999992003031312004-05500-045270FM-12+017499999V0203201N001010042019N0100001N1+02581+02371101481ADDGF106991051021004501031001KA1240N+02321MA1999999099511MD1999999-0041REMSYN082AAXX  13124 82571 22497 63202 10258 20237 39951 40148 85230 333 20232 59004 69914;
0167825710999992003031318004-05500-045270FM-12+017499999V0201801N001011050019N0100001N1+03151+02391100971ADDAA106000091GF105991021021004501041011MA1999999099021MD1999999-0051REMSYN070AAXX  13184 82571 32497 51802 10315 20239 39902 40097 82241 333 59005;EQDQ01  00002PRCP06
0186825710999992003031412004-05500-045270FM-12+017499999V0203201N001012200019N0100001N1+02581+02291101451ADDAA106000091GF104991021021004501011011KA1240N+02371MA1999999099481MD1999999-0031REMSYN076AAXX  14124 82571 32497 43202 10258 20229 39948 40145 82211 333 20237 59003;EQDQ01  00002PRCP06
0167825710999992003031418004-05500-045270FM-12+017499999V0202301N001010450019N0100001N1+03031+02431101011ADDAA106000091GF106991031021004501041011MA1999999099061MD1999999+0041REMSYN070AAXX  14184 82571 32497 62302 10303 20243 39906 40101 83241 333 58004;EQDQ01  00002PRCP06
0194825710999992003031500004-05500-045270FM-12+017499999V0203601N001012200019N0100001N1+02331+02181101291ADDAY161061GF102991021001017501071001KA1240M+03071MA1999999099301MD1999999+0021MW1011REMSYN100AAXX  15004 82571 21797 23602 10233 20218 39930 40129 7016/ 82070 333 10307 29084 55024 58002 60031;
0194825710999992003031600004-05500-045270FM-12+017499999V0202301N001010042019N0100001N1+02331+02271101521ADDAY161061GF108991081051004501999999KA1240M+03031MA1999999099531MD1999999+0231MW1501REMSYN100AAXX  16004 82571 21497 82302 10233 20227 39953 40152 7506/ 885// 333 10303 29093 55025 58023 60061;
0190825710999992003031612004-05500-045270FM-12+017499999V0202301N001010042019N0100001N1+02491+02401101651ADDAY191061AY261061GF106991051051004501031001KA1240N+02301MA1999999099651MD1999999-0031MW1021REMSYN088AAXX  16124 82571 21497 62302 10249 20240 39965 40165 70296 85530 333 20230 59003 60274;
0171825710999992003031618004-05500-045270FM-12+017499999V0202301N010310450019N0100001N1+02961+02401101341ADDAY161061AY211061GF106991031021004501031001MA1999999099341MD1999999+0181MW1011REMSYN082AAXX  16184 82571 21497 62320 10296 20240 39934 40134 70161 83230 333 58018 60031;
0210825710999992003031700004-05500-045270FM-12+017499999V0202701N001012200019N0100001N1+02541+02421101501ADDAA106000091GF103991031001017501041001KA1240M+03101MA1999999099511MD1999999-0021MW1131REMSYN094AAXX  17004 82571 31797 32702 10254 20242 39951 40150 713// 83040 333 10310 29088 55010 59002;EQDQ01  00002PRCP06
0182825710999992003031712004-05500-045270FM-12+017499999V0203201N001010450019N0100001N1+02471+02271101571ADDAY161061GF106991031051004501051001KA1240N+02221MA1999999099581MD1999999-0071MW1011REMSYN088AAXX  17124 82571 21497 63202 10247 20227 39958 40157 7016/ 83550 333 20222 59007 60164;
0167825710999992003031718004-05500-045270FM-12+017499999V0200701N003112200019N0100001N1+02921+02341101061ADDAA106000091GF103991021021004501001011MA1999999099101MD1999999-0241REMSYN070AAXX  17184 82571 32497 30706 10292 20234 39910 40106 82201 333 59024;EQDQ01  00002PRCP06
0198825710999992003031800004-05500-045270FM-12+017499999V0209999C000010450019N0100001N1+02571+02421101281ADDAA106000091GF105991031061004501031001KA1240M+03011MA1999999099301MD1999999-0211REMSYN088AAXX  18004 82571 32497 50000 10257 20242 39930 40128 83630 333 10301 29085 55070 59021;EQDQ01  00002PRCP06
0186825710999992003031812004-05500-045270FM-12+017499999V0202301N001010450019N0100001N1+02581+02381101471ADDAA106000091GF106991041021004501031011KA1240N+02311MA1999999099491MD1999999-0091REMSYN076AAXX  18124 82571 32497 62302 10258 20238 39949 40147 84231 333 20231 59009;EQDQ01  00002PRCP06
0167825710999992003031818004-05500-045270FM-12+017499999V0201101N002110450019N0100001N1+02931+02471101071ADDAA106000091GF106991041021004501071001MA1999999099111MD1999999+0011REMSYN070AAXX  18184 82571 32497 61104 10293 20247 39911 40107 84270 333 58001;EQDQ01  00002PRCP06
0202825710999992003032000004-05500-045270FM-12+017499999V0201801N001010042019N0100001N1+02431+02411101571ADDAY191061AY261061GF108991081051004501999999KA1240M+03071MA1999999099581MD1999999+0171MW1511REMSYN100AAXX  20004 82571 21497 81802 10243 20241 39958 40157 75196 885// 333 10307 29095 55019 58017 60081;
0182825710999992003032012004-05500-045270FM-12+017499999V0201801N001010042019N0100001N1+02411+02371101711ADDAY161061GF108991081051004501999999KA1240N+02341MA1999999099711MD1999999+0031MW1021REMSYN088AAXX  20124 82571 21497 81802 10241 20237 39971 40171 7026/ 885// 333 20234 58003 60264;
0167825710999992003032018004-05500-045270FM-12+017499999V0200501N003110450019N0100001N1+02981+02491101251ADDAA106000091GF106991041051004501041001MA1999999099291MD1999999-0121REMSYN070AAXX  20184 82571 32497 60506 10298 20249 39929 40125 84540 333 59012;EQDQ01  00002PRCP06
0198825710999992003032100004-05500-045270FM-12+017499999V0202301N001010150019N0100001N1+02611+02481101581ADDAA106000091GF105991051001017501071001KA1240M+03141MA1999999099591MD1999999+0011REMSYN088AAXX  21004 82571 32797 52302 10261 20248 39959 40158 85070 333 10314 29088 55020 58001;EQDQ01  00002PRCP06
0186825710999992003032112004-05500-045270FM-12+017499999V0203601N001010042019N0100001N1+02511+02381101521ADDAA106000091GF107991071051004501001001KA1240N+02361MA1999999099541MD1999999-0171REMSYN076AAXX  21124 82571 32497 73602 10251 20238 39954 40152 87500 333 20236 59017;EQDQ01  00002PRCP06
0186825710999992003032812004-05500-045270FM-12+017499999V0200901N001012200019N0100001N1+02541+02331101641ADDAA106000091GF105991031041004501001011KA1240N+02301MA1999999099651MD1999999+0121REMSYN076AAXX  28124 82571 32497 50902 10254 20233 39965 40164 83401 333 20230 58012;EQDQ01  00002PRCP06
0167825710999992003032818004-05500-045270FM-12+017499999V0201801N001010450019N0100001N1+03051+02471101171ADDAA106000091GF106991031021004501031011MA1999999099211MD1999999+0031REMSYN070AAXX  28184 82571 32497 61802 10305 20247 39921 40117 83231 333 58003;EQDQ01  00002PRCP06
0186825710999992003032912004-05500-045270FM-12+017499999V0200501N001010042019N0100001N1+02541+02421101551ADDAA106000091GF107991071051004501001001KA1240N+02391MA1999999099571MD1999999-0081REMSYN076AAXX  29124 82571 32497 70502 10254 20242 39957 40155 87500 333 20239 59008;EQDQ01  00002PRCP06
0171825710999992003032918004-05500-045270FM-12+017499999V0202301N001010450019N0100001N1+03021+02501101051ADDAY161061AY221061GF106991041051004501031001MA1999999099101MD1999999-0111MW1021REMSYN082AAXX  29184 82571 21497 62302 10302 20250 39910 40105 70262 84530 333 59011 60061;
0220825710999992003033000004-05500-045270FM-12+017499999V0200501N003112200019N0100001N1+02521+02421101411ADDAA106000091GA1001+999999999GF100991001001999999001001KA1240M+03171MA1999999099431MD1999999+0011MW1131REMSYN088AAXX  30004 82571 31997 00506 10252 20242 39943 40141 713// 333 10317 29089 55024 58001;EQDQ01  00002PRCP06
0182825710999992003033012004-05500-045270FM-12+017499999V0202301N001010450019N0100001N1+02391+02241101441ADDAY161061GF107991041051004501031001KA1240N+02221MA1999999099451MD1999999-0121MW1021REMSYN088AAXX  30124 82571 21497 72302 10239 20224 39945 40144 7026/ 84530 333 20222 59012 60064;
0167825710999992003033018004-05500-045270FM-12+017499999V0203401N003112200019N0100001N1+03051+02381100971ADDAA106000091GF103991021021004501001011MA1999999099011MD1999999-0091REMSYN070AAXX  30184 82571 32497 33406 10305 20238 39901 40097 82201 333 59009;EQDQ01  00002PRCP06
0211825710999992003033100004-05500-045270FM-12+017499999V0202301N001012200019N0100001N1+02511+02431101221ADDAY191061AY261061GA1001+999999999GF100991001001999999001001KA1240M+03111MA1999999099241MD1999999-0191MW1131REMSYN093AAXX  31004 82571 21997 02302 10251 20243 39924 40122 71396 333 10311 29086 55054 5901969941;
0182825710999992003033112004-05500-045270FM-12+017499999V0202301N001010042019N0100001N1+02411+02371101411ADDAY161061GF107991061051004501031001KA1240N+02281MA1999999099421MD1999999-0031MW1011REMSYN088AAXX  31124 82571 21497 72302 10241 20237 39942 40141 7016/ 86530 333 20228 59003 60244;
0167825710999992003033118004-05500-045270FM-12+017499999V0203601N001010450019N0100001N1+03051+02521100971ADDAA106000091GF105991031031004501031001MA1999999099011MD1999999+0001REMSYN070AAXX  31184 82571 32497 53602 10305 20252 39901 40097 83330 333 58000;EQDQ01  00002PRCP06
0202825710999992003040100004-05500-045270FM-12+017499999V0200901N001010042019N0100001N1+02391+02301101341ADDAY191061AY261061GF105991051071004501001001KA1240M+03201MA1999999099351MD1999999+0111MW1021REMSYN100AAXX  01004 82571 21497 50902 10239 20230 39935 40134 70296 85700 333 10320 29090 55061 58011 60051;
0162825710999992003040112004-05500-045270FM-12+017499999V0200501N001010042019N0100001N1+02511+02401101571ADDGF107991061051004501051001KA1240N+02271MA1999999099581MD1999999+0161REMSYN082AAXX  01124 82571 22497 70502 10251 20240 39958 40157 86550 333 20227 58016 60054;
0167825710999992003040118004-05500-045270FM-12+017499999V0201401N002112200019N0100001N1+03141+02381101001ADDAA106000091GF103991021021004501011001MA1999999099051MD1999999+0041REMSYN070AAXX  01184 82571 32497 31404 10314 20238 39905 40100 82210 333 58004;EQDQ01  00002PRCP06
0186825710999992003040200004-05500-045270FM-12+017499999V0200901N003110042019N0100001N1+02421+02281101511ADDGF108991081001004501021999KA1240M+03231MA1999999099521MD1999999+0171MW1951REMSYN100AAXX  02004 82571 21497 80906 10242 20228 39952 40151 795// 8802/ 333 10323 29085 55073 58017 60031;
0190825710999992003040212004-05500-045270FM-12+017499999V0201401N001010450019N0100001N1+02501+02361101631ADDAY191061AY261061GF106991041021004501031001KA1240N+02261MA1999999099641MD1999999+0061MW1011REMSYN088AAXX  02124 82571 21497 61402 10250 20236 39964 40163 70196 84230 333 20226 58006 60084;
0167825710999992003040218004-05500-045270FM-12+017499999V0201401N003110450019N0100001N1+03091+02441101151ADDAA106000091GF105991031021004501011001MA1999999099191MD1999999+0141REMSYN070AAXX  02184 82571 32497 51406 10309 20244 39919 40115 83210 333 58014;EQDQ01  00002PRCP06
0210825710999992003040300004-05500-045270FM-12+017499999V0200201N001012200019N0100001N1+02531+02401101511ADDAA106000091GF101991011001017501041001KA1240M+03181MA1999999099521MD1999999+0001MW1131REMSYN094AAXX  03004 82571 31797 10202 10253 20240 39952 40151 713// 81040 333 10318 29086 55081 58000;EQDQ01  00002PRCP06
0186825710999992003040312004-05500-045270FM-12+017499999V0202901N001010450019N0100001N1+02491+02341101491ADDAA106000091GF106991041021004501051001KA1240N+02351MA1999999099501MD1999999-0141REMSYN076AAXX  03124 82571 32497 62902 10249 20234 39950 40149 84250 333 20235 59014;EQDQ01  00002PRCP06
0167825710999992003040318004-05500-045270FM-12+017499999V0200501N002110450019N0100001N1+03241+02441100971ADDAA106000091GF105991031021004501041001MA1999999099021MD1999999-0171REMSYN070AAXX  03184 82571 32497 50504 10324 20244 39902 40097 83240 333 59017;EQDQ01  00002PRCP06
0210825710999992003040400004-05500-045270FM-12+017499999V0202301N001012200019N0100001N1+02551+02421101281ADDAA106000091GF101991011001017501041001KA1240M+03291MA1999999099301MD1999999-0221MW1131REMSYN094AAXX  04004 82571 31797 12302 10255 20242 39930 40128 713// 81040 333 10329 29084 55067 59022;EQDQ01  00002PRCP06
0186825710999992003040412004-05500-045270FM-12+017499999V0200901N001010042019N0100001N1+02591+02441101431ADDAA106000091GF108991081051004501999999KA1240N+02321MA1999999099451MD1999999-0051REMSYN076AAXX  04124 82571 32497 80902 10259 20244 39945 40143 885// 333 20232 59005;EQDQ01  00002PRCP06
0167825710999992003040418004-05500-045270FM-12+017499999V0201401N003112200019N0100001N1+03211+02401100871ADDAA106000091GF104991031021004501011001MA1999999098921MD1999999-0101REMSYN070AAXX  04184 82571 32497 41406 10321 20240 39892 40087 83210 333 59010;EQDQ01  00002PRCP06
0228825710999992003040500004-05500-045270FM-12+017499999V0203601N001012200019N0100001N1+02591+02401101271ADDAA106000091AY191061GA1001+999999999GF100991001001999999001001KA1240M+03271MA1999999099301MD1999999+0001MW1131REMSYN088AAXX  05004 82571 31997 03602 10259 20240 39930 40127 7139/ 333 10327 29083 55059 58000;EQDQ01  00002PRCP06
0186825710999992003040512004-05500-045270FM-12+017499999V0201401N001010450019N0100001N1+02691+02411101491ADDAA106000091GF106991041051004501031001KA1240N+02371MA1999999099521MD1999999+0071REMSYN076AAXX  05124 82571 32497 61402 10269 20241 39952 40149 84530 333 20237 58007;EQDQ01  00002PRCP06
0167825710999992003040518004-05500-045270FM-12+017499999V0201401N003112200019N0100001N1+03191+02431101081ADDAA106000091GF105991041021004501001011MA1999999099131MD1999999+0211REMSYN070AAXX  05184 82571 32497 51406 10319 20243 39913 40108 84201 333 58021;EQDQ01  00002PRCP06
0220825710999992003040600004-05500-045270FM-12+017499999V0200501N001012200019N0100001N1+02691+02501101331ADDAA106000091GA1001+999999999GF100991001001999999001001KA1240M+03271MA1999999099361MD1999999+0061MW1131REMSYN088AAXX  06004 82571 31997 00502 10269 20250 39936 40133 713// 333 10327 29082 55092 58006;EQDQ01  00002PRCP06
0186825710999992003040612004-05500-045270FM-12+017499999V0202301N001010450019N0100001N1+02541+02441101551ADDAA106000091GF106991041051004501031001KA1240N+02421MA1999999099571MD1999999+0051REMSYN076AAXX  06124 82571 32497 62302 10254 20244 39957 40155 84530 333 20242 58005;EQDQ01  00002PRCP06
0171825710999992003040618004-05500-045270FM-12+017499999V0202701N001010450019N0100001N1+02861+02521101111ADDAY161061AY221061GF106991031021004501031001MA1999999099151MD1999999+0021MW1011REMSYN082AAXX  06184 82571 21497 62702 10286 20252 39915 40111 70162 83230 333 58002 60021;
0208825710999992003040700004-05500-045270FM-12+017499999V0209999C000012200019N0100001N1+02521+02381101381ADDAA106000091GA1001+999999999GF100991001001999999001001KA1240M+03081MA1999999099401MD1999999+0041REMSYN082AAXX  07004 82571 32997 00000 10252 20238 39940 40138 333 10308 29090 55052 58004;EQDQ01  00002PRCP06
0162825710999992003040712004-05500-045270FM-12+017499999V0203601N001010042019N0100001N1+02561+02401101431ADDGF108991081051004501999999KA1240N+02351MA1999999099451MD1999999-0121REMSYN082AAXX  07124 82571 22497 83602 10256 20240 39945 40143 885// 333 20235 59012 60024;
0171825710999992003040718004-05500-045270FM-12+017499999V0203601N002112200019N0100001N1+03051+02451100891ADDAY161061AY211061GF104991031021004501001011MA1999999098941MD1999999-0211MW1011REMSYN082AAXX  07184 82571 21497 43604 10305 20245 39894 40089 70161 83201 333 59021 69931;
0208825710999992003040800004-05500-045270FM-12+017499999V0209999C000012200019N0100001N1+02671+02521101181ADDAA106000091GA1001+999999999GF100991001001999999001001KA1240M+03151MA1999999099211MD1999999-0191REMSYN082AAXX  08004 82571 32997 00000 10267 20252 39921 40118 333 10315 29086 55060 59019;EQDQ01  00002PRCP06
0162825710999992003040812004-05500-045270FM-12+017499999V0202701N001010450019N0100001N1+02721+02411101391ADDGF105991041021004501041001KA1240N+02441MA1999999099421MD1999999-0031REMSYN082AAXX  08124 82571 22497 52702 10272 20241 39942 40139 84240 333 20244 59003 69934;
0167825710999992003040818004-05500-045270FM-12+017499999V0202301N001010450019N0100001N1+03091+02511100821ADDAA106000091GF105991031021004501031011MA1999999098871MD1999999-0071REMSYN070AAXX  08184 82571 32497 52302 10309 20251 39887 40082 83231 333 59007;EQDQ01  00002PRCP06
0226825710999992003040900004-05500-045270FM-12+017499999V0201101N002110090019N0100001N1+02691+02411101231ADDAA106000091AY191061AY211061GF106991061081004501001001KA1240M+03301MA1999999099271MD1999999+0061MW1131REMSYN094AAXX  09004 82571 31497 61104 10269 20241 39927 40123 71391 86800 333 10330 29080 55067 58006;EQDQ01  00002PRCP06
0186825710999992003040912004-05500-045270FM-12+017499999V0200501N001010042019N0100001N1+02531+02381101551ADDAA106000091GF107991071051004501001001KA1240N+02361MA1999999099571MD1999999+0151REMSYN076AAXX  09124 82571 32497 70502 10253 20238 39957 40155 87500 333 20236 58015;EQDQ01  00002PRCP06
0167825710999992003040918004-05500-045270FM-12+017499999V0201401N002110450019N0100001N1+03061+02431101061ADDAA106000091GF106991041051004501071001MA1999999099111MD1999999+0241REMSYN070AAXX  09184 82571 32497 61404 10306 20243 39911 40106 84570 333 58024;EQDQ01  00002PRCP06
0210825710999992003041000004-05500-045270FM-12+017499999V0200501N001010450019N0100001N1+02501+02361101461ADDAA106000091GF105991011021004501071001KA1240M+03151MA1999999099471MD1999999+0201MW1131REMSYN094AAXX  10004 82571 31497 50502 10250 20236 39947 40146 713// 81270 333 10315 29086 55033 58020;EQDQ01  00002PRCP06
0186825710999992003041012004-05500-045270FM-12+017499999V0200501N001010042019N0100001N1+02551+02361101631ADDAA106000091GF108991081051004501999999KA1240N+02301MA1999999099641MD1999999+0071REMSYN076AAXX  10124 82571 32497 80502 10255 20236 39964 40163 885// 333 20230 58007;EQDQ01  00002PRCP06
0167825710999992003041018004-05500-045270FM-12+017499999V0201401N003112200019N0100001N1+03181+02391101111ADDAA106000091GF103991021021004501031001MA1999999099161MD1999999+0051REMSYN070AAXX  10184 82571 32497 31406 10318 20239 39916 40111 82230 333 58005;EQDQ01  00002PRCP06
0198825710999992003041100004-05500-045270FM-12+017499999V0200901N001012200019N0100001N1+02511+02401101381ADDAA106000091GF102991021001017501041001KA1240M+03231MA1999999099401MD1999999-0071REMSYN088AAXX  11004 82571 32797 20902 10251 20240 39940 40138 82040 333 10323 29084 55064 59007;EQDQ01  00002PRCP06
0186825710999992003041112004-05500-045270FM-12+017499999V0203601N001010042019N0100001N1+02461+02361101581ADDAA106000091GF107991071051004501001001KA1240N+02321MA1999999099591MD1999999-0051REMSYN076AAXX  11124 82571 32497 73602 10246 20236 39959 40158 87500 333 20232 59005;EQDQ01  00002PRCP06
0167825710999992003041118004-05500-045270FM-12+017499999V0201401N001012200019N0100001N1+03091+02311101131ADDAA106000091GF105991031021004501001011MA1999999099171MD1999999+0011REMSYN070AAXX  11184 82571 32497 51402 10309 20231 39917 40113 83201 333 58001;EQDQ01  00002PRCP06
0220825710999992003041200004-05500-045270FM-12+017499999V0201401N001012200019N0100001N1+02691+02541101341ADDAA106000091GA1001+999999999GF100991001001999999001001KA1240M+03251MA1999999099371MD1999999-0031MW1131REMSYN088AAXX  12004 82571 31997 01402 10269 20254 39937 40134 713// 333 10325 29085 55080 59003;EQDQ01  00002PRCP06
0186825710999992003041212004-05500-045270FM-12+017499999V0200501N001012200019N0100001N1+02671+02391101571ADDAA106000091GF103991031021004501001001KA1240N+02341MA1999999099601MD1999999+0011REMSYN076AAXX  12124 82571 32497 30502 10267 20239 39960 40157 83200 333 20234 58001;EQDQ01  00002PRCP06
0167825710999992003041218004-05500-045270FM-12+017499999V0203601N001012200019N0100001N1+03291+02451101161ADDAA106000091GF104991031021004501001011MA1999999099211MD1999999+0041REMSYN070AAXX  12184 82571 32497 43602 10329 20245 39921 40116 83201 333 58004;EQDQ01  00002PRCP06
0221825710999992003041300004-05500-045270FM-12+017499999V0201401N001012200019N0100001N1+02521+02421101541ADDAY191061AY261061GF102991999021017501001011KA1240M+03331MA1999999099561MD1999999+0191MW1131REMSYN100AAXX  13004 82571 21797 21402 10252 20242 39956 40154 71396 83201 333 10333 29083 55078 58019 60041;EQDQ01+000032SCOTLC
0162825710999992003041312004-05500-045270FM-12+017499999V0200901N001010042019N0100001N1+02691+02451101741ADDGF106991061051004501001001KA1240N+02321MA1999999099761MD1999999+0161REMSYN082AAXX  13124 82571 22497 60902 10269 20245 39976 40174 86500 333 20232 58016 60044;
0167825710999992003041318004-05500-045270FM-12+017499999V0200501N001012200019N0100001N1+03191+02481101251ADDAA106000091GF103991031021004501001001MA1999999099291MD1999999+0081REMSYN070AAXX  13184 82571 32497 30502 10319 20248 39929 40125 83200 333 58008;EQDQ01  00002PRCP06
0220825710999992003041400004-05500-045270FM-12+017499999V0200501N001012200019N0100001N1+02641+02441101601ADDAA106000091GA1001+999999999GF100991001001999999001001KA1240M+03271MA1999999099631MD1999999+0071MW1131REMSYN088AAXX  14004 82571 31997 00502 10264 20244 39963 40160 713// 333 10327 29082 55078 58007;EQDQ01  00002PRCP06
0186825710999992003041412004-05500-045270FM-12+017499999V0202001N001010042019N0100001N1+02531+02441101721ADDAA106000091GF108991081051004501999999KA1240N+02381MA1999999099741MD1999999-0021REMSYN076AAXX  14124 82571 32497 82002 10253 20244 39974 40172 885// 333 20238 59002;EQDQ01  00002PRCP06
0162825710999992003041512004-05500-045270FM-12+017499999V0202701N001010450019N0100001N1+02731+02401101571ADDGF106991031021004501041001KA1240N+02321MA1999999099591MD1999999-0151REMSYN082AAXX  15124 82571 22497 62702 10273 20240 39959 40157 83240 333 20232 59015 60024;
0155825710999992003041518004-05500-045270FM-12+017499999V0202501N001010150019N0100001N1+02531+02351101321ADDGF108991081001017501021999MA1999999099331MD1999999+0051MW1951REMSYN082AAXX  15184 82571 21797 82502 10253 20235 39933 40132 795// 8802/ 333 58005 60121;
0179825710999992003041600004-05500-045270FM-12+017499999V0209999C000010150019N0100001N1+02401+02331101451ADDAA106000021GF108991081001017501071999KA1240M+03181MA1999999099471MD1999999-0151REMSYN088AAXX  16004 82571 32797 80000 10240 20233 39947 40145 8807/ 333 10318 29091 55052 59015;
0182825710999992003041612004-05500-045270FM-12+017499999V0202301N001010042019N0100001N1+02341+02291101571ADDAY141061GF108991081051004501999999KA1240N+02171MA1999999099571MD1999999-0021MW1021REMSYN088AAXX  16124 82571 21497 82302 10234 20229 39957 40157 7024/ 885// 333 20217 59002 60124;
0167825710999992003041618004-05500-045270FM-12+017499999V0202001N001011050019N0100001N1+03071+02441101111ADDAA106000091GF105991021021004501011011MA1999999099151MD1999999-0181REMSYN070AAXX  16184 82571 32497 52002 10307 20244 39915 40111 82211 333 59018;EQDQ01  00002PRCP06
0198825710999992003041700004-05500-045270FM-12+017499999V0209999C000010150019N0100001N1+02591+02351101441ADDAA106000091GF105991051001017501051001KA1240M+03151MA1999999099451MD1999999-0021REMSYN088AAXX  17004 82571 32797 50000 10259 20235 39945 40144 85050 333 10315 29084 55063 59002;EQDQ01  00002PRCP06
0186825710999992003041712004-05500-045270FM-12+017499999V0200501N002110042019N0100001N1+02531+02401101601ADDAA106000091GF107991071051004501001001KA1240N+02321MA1999999099621MD1999999+0051REMSYN076AAXX  17124 82571 32497 70504 10253 20240 39962 40160 87500 333 20232 58005;EQDQ01  00002PRCP06
0167825710999992003041718004-05500-045270FM-12+017499999V0201801N001012200019N0100001N1+03201+02431101111ADDAA106000091GF105991041021004501001011MA1999999099161MD1999999+0011REMSYN070AAXX  17184 82571 32497 51802 10320 20243 39916 40111 84201 333 58001;EQDQ01  00002PRCP06
0194825710999992003041800004-05500-045270FM-12+017499999V0209999C000012200019N0100001N1+02461+02301101351ADDAY161061GF101991011001017501031001KA1240M+03251MA1999999099371MD1999999-0081MW1021REMSYN100AAXX  18004 82571 21797 10000 10246 20230 39937 40135 7026/ 81030 333 10325 29084 55053 59008 60041;
0182825710999992003041812004-05500-045270FM-12+017499999V0203601N001010042019N0100001N1+02501+02321101561ADDAY141061GF106991061051004501001001KA1240N+02211MA1999999099571MD1999999-0051MW1021REMSYN088AAXX  18124 82571 21497 63602 10250 20232 39957 40156 7024/ 86500 333 20221 59005 60044;
0167825710999992003041818004-05500-045270FM-12+017499999V0200501N003112200019N0100001N1+03161+02341101161ADDAA106000091GF103991021021004501001011MA1999999099201MD1999999+0041REMSYN070AAXX  18184 82571 32497 30506 10316 20234 39920 40116 82201 333 58004;EQDQ01  00002PRCP06
0208825710999992003041900004-05500-045270FM-12+017499999V0209999C000012200019N0100001N1+02691+02481101411ADDAA106000091GA1001+999999999GF100991001001999999001001KA1240M+03231MA1999999099441MD1999999+0071REMSYN082AAXX  19004 82571 32997 00000 10269 20248 39944 40141 333 10323 29082 55083 58007;EQDQ01  00002PRCP06
0186825710999992003041912004-05500-045270FM-12+017499999V0201401N001010042019N0100001N1+02541+02421101591ADDAA106000091GF108991081051004501999999KA1240N+02231MA1999999099611MD1999999+0041REMSYN076AAXX  19124 82571 32497 81402 10254 20242 39961 40159 885// 333 20223 58004;EQDQ01  00002PRCP06
0167825710999992003041918004-05500-045270FM-12+017499999V0201801N003112200019N0100001N1+03111+02361101161ADDAA106000091GF104991041021004501001001MA1999999099211MD1999999+0011REMSYN070AAXX  19184 82571 32497 41806 10311 20236 39921 40116 84200 333 58001;EQDQ01  00002PRCP06
0210825710999992003042000004-05500-045270FM-12+017499999V0209999C000012200019N0100001N1+02631+02481101371ADDAA106000091GF101991011001017501041001KA1240M+03271MA1999999099401MD1999999-0041MW1131REMSYN094AAXX  20004 82571 31797 10000 10263 20248 39940 40137 713// 81040 333 10327 29085 55076 59004;EQDQ01  00002PRCP06
0186825710999992003042012004-05500-045270FM-12+017499999V0201601N001010042019N0100001N1+02641+02371101441ADDAA106000091GF106991061021004501001001KA1240N+02301MA1999999099471MD1999999-0141REMSYN076AAXX  20124 82571 32497 61602 10264 20237 39947 40144 86200 333 20230 59014;EQDQ01  00002PRCP06
0167825710999992003042018004-05500-045270FM-12+017499999V0201401N003112200019N0100001N1+03131+02351101021ADDAA106000091GF103991031021004501001001MA1999999099071MD1999999-0141REMSYN070AAXX  20184 82571 32497 31406 10313 20235 39907 40102 83200 333 59014;EQDQ01  00002PRCP06
0208825710999992003042100004-05500-045270FM-12+017499999V0209999C000012200019N0100001N1+02691+02461101171ADDAA106000091GA1001+999999999GF100991001001999999001001KA1240M+03181MA1999999099201MD1999999-0201REMSYN082AAXX  21004 82571 32997 00000 10269 20246 39920 40117 333 10318 29080 55093 59020;EQDQ01  00002PRCP06
0186825710999992003042112004-05500-045270FM-12+017499999V0200701N001010042019N0100001N1+02461+02411101451ADDAA106000091GF108991081051004501999999KA1240N+02311MA1999999099471MD1999999+0001REMSYN076AAXX  21124 82571 32497 80702 10246 20241 39947 40145 885// 333 20231 58000;EQDQ01  00002PRCP06
0167825710999992003042118004-05500-045270FM-12+017499999V0200501N003112200019N0100001N1+03151+02341101031ADDAA106000091GF103991021021004501001011MA1999999099081MD1999999+0011REMSYN070AAXX  21184 82571 32497 30506 10315 20234 39908 40103 82201 333 58001;EQDQ01  00002PRCP06
0208825710999992003042200004-05500-045270FM-12+017499999V0201401N001012200019N0100001N1+02691+02451101201ADDAA106000091GA1001+999999999GF100991001001999999001001KA1240M+03201MA1999999099231MD1999999+0031REMSYN082AAXX  22004 82571 32997 01402 10269 20245 39923 40120 333 10320 29083 55079 58003;EQDQ01  00002PRCP06
0186825710999992003042212004-05500-045270FM-12+017499999V0203601N001012200019N0100001N1+02691+02431101391ADDAA106000091GF103991021021004501001011KA1240N+02221MA1999999099421MD1999999-0051REMSYN076AAXX  22124 82571 32497 33602 10269 20243 39942 40139 82201 333 20222 59005;EQDQ01  00002PRCP06
0167825710999992003042218004-05500-045270FM-12+017499999V0201401N001012200019N0100001N1+03151+02261101071ADDAA106000091GF103991031021004501001001MA1999999099121MD1999999+0041REMSYN070AAXX  22184 82571 32497 31402 10315 20226 39912 40107 83200 333 58004;EQDQ01  00002PRCP06
0208825710999992003042300004-05500-045270FM-12+017499999V0209999C000012200019N0100001N1+02661+02331101351ADDAA106000091GA1001+999999999GF100991001001999999001001KA1240M+03211MA1999999099381MD1999999+0151REMSYN082AAXX  23004 82571 32997 00000 10266 20233 39938 40135 333 10321 29077 55104 58015;EQDQ01  00002PRCP06
0186825710999992003042312004-05500-045270FM-12+017499999V0201601N002111050019N0100001N1+02761+02301101451ADDAA106000091GF105991011011004501011011KA1240N+02171MA1999999099481MD1999999+0061REMSYN076AAXX  23124 82571 32497 51604 10276 20230 39948 40145 81111 333 20217 58006;EQDQ01  00002PRCP06
0167825710999992003042318004-05500-045270FM-12+017499999V0200901N002112200019N0100001N1+03141+02271101101ADDAA106000091GF104991011021004501031011MA1999999099151MD1999999+0031REMSYN070AAXX  23184 82571 32497 40904 10314 20227 39915 40110 81231 333 58003;EQDQ01  00002PRCP06
0236825710999992003042400004-05500-045270FM-12+017499999V0201601N001012200019N0100001N1+02641+02331101331ADDAA106000091AY111061AY201061GA1001+999999999GF100991001001999999001001KA1240M+03271MA1999999099361MD1999999-0021MW1131REMSYN088AAXX  24004 82571 31997 01602 10264 20233 39936 40133 71310 333 10327 29076 55101 59002;EQDQ01  00002PRCP06
0186825710999992003042412004-05500-045270FM-12+017499999V0202301N001012200019N0100001N1+02621+02351101551ADDAA106000091GF104991011011004501011011KA1240N+02161MA1999999099581MD1999999+0101REMSYN076AAXX  24124 82571 32497 42302 10262 20235 39958 40155 81111 333 20216 58010;EQDQ01  00002PRCP06
0167825710999992003042418004-05500-045270FM-12+017499999V0200901N002110450019N0100001N1+03211+02291101121ADDAA106000091GF105991041021004501011001MA1999999099171MD1999999+0021REMSYN070AAXX  24184 82571 32497 50904 10321 20229 39917 40112 84210 333 58002;EQDQ01  00002PRCP06
0208825710999992003042500004-05500-045270FM-12+017499999V0209999C000012200019N0100001N1+02691+02431101281ADDAA106000091GA1001+999999999GF100991001001999999001001KA1240M+03281MA1999999099311MD1999999-0051REMSYN082AAXX  25004 82571 32997 00000 10269 20243 39931 40128 333 10328 29078 55097 59005;EQDQ01  00002PRCP06
0186825710999992003042512004-05500-045270FM-12+017499999V0202301N001012200019N0100001N1+02651+02371101541ADDAA106000091GF103991011021004501031001KA1240N+02221MA1999999099561MD1999999-0021REMSYN076AAXX  25124 82571 32497 32302 10265 20237 39956 40154 81230 333 20222 59002;EQDQ01  00002PRCP06
0167825710999992003042518004-05500-045270FM-12+017499999V0202301N001011050019N0100001N1+03091+02441101111ADDAA106000091GF105991021021004501031011MA1999999099161MD1999999-0011REMSYN070AAXX  25184 82571 32497 52302 10309 20244 39916 40111 82231 333 59001;EQDQ01  00002PRCP06
0198825710999992003042600004-05500-045270FM-12+017499999V0200501N003110042019N0100001N1+02591+02371101471ADDAA106000091GF108991081071004501999999KA1240M+03261MA1999999099491MD1999999+0181REMSYN088AAXX  26004 82571 32497 80506 10259 20237 39949 40147 887// 333 10326 29082 55071 58018;EQDQ01  00002PRCP06
0186825710999992003042612004-05500-045270FM-12+017499999V0202701N001012200019N0100001N1+02641+02331101621ADDAA106000091GF104991031021004501001011KA1240N+02301MA1999999099641MD1999999+0081REMSYN076AAXX  26124 82571 32497 42702 10264 20233 39964 40162 83201 333 20230 58008;EQDQ01  00002PRCP06
0167825710999992003042618004-05500-045270FM-12+017499999V0200201N003110450019N0100001N1+03211+02371101241ADDAA106000091GF105991031021004501031001MA1999999099281MD1999999+0121REMSYN070AAXX  26184 82571 32497 50206 10321 20237 39928 40124 83230 333 58012;EQDQ01  00002PRCP06
0202825710999992003042700004-05500-045270FM-12+017499999V0200501N003110042019N0100001N1+02321+02251101681ADDAY191061AY261061GF108991081001004501021999KA1240M+03301MA1999999099691MD1999999+0201MW1951REMSYN100AAXX  27004 82571 21497 80506 10232 20225 39969 40168 79596 8802/ 333 10330 29084 55085 58020 60041;
0190825710999992003042712004-05500-045270FM-12+017499999V0202301N001010042019N0100001N1+02391+02351101701ADDAY191061AY261061GF108991081051004501999999KA1240N+02271MA1999999099701MD1999999+0061MW1021REMSYN088AAXX  27124 82571 21497 82302 10239 20235 39970 40170 70296 885// 333 20227 58006 60104;
0167825710999992003042718004-05500-045270FM-12+017499999V0202301N001012200019N0100001N1+03151+02451101151ADDAA106000091GF103991021021004501031001MA1999999099191MD1999999-0091REMSYN070AAXX  27184 82571 32497 32302 10315 20245 39919 40115 82230 333 59009;EQDQ01  00002PRCP06
0226825710999992003042800004-05500-045270FM-12+017499999V0209999C000012200019N0100001N1+02571+02371101521ADDAA106000091AY191061AY201061GF104991041001017501061001KA1240M+03251MA1999999099531MD1999999-0161MW1011REMSYN094AAXX  28004 82571 31797 40000 10257 20237 39953 40152 70190 84060 333 10325 29085 55056 59016;EQDQ01  00002PRCP06
0186825710999992003042812004-05500-045270FM-12+017499999V0201601N001010042019N0100001N1+02621+02291101491ADDAA106000091GF107991051021004501031001KA1240N+02371MA1999999099511MD1999999-0191REMSYN076AAXX  28124 82571 32497 71602 10262 20229 39951 40149 85230 333 20237 59019;EQDQ01  00002PRCP06
0171825710999992003042818004-05500-045270FM-12+017499999V0201801N003110150019N0100001N1+02441+02351101301ADDAY101061AY201061GF108991081001017501021999MA1999999099311MD1999999+0121MW1971REMSYN082AAXX  28184 82571 21797 81806 10244 20235 39931 40130 79700 8802/ 333 58012 60221;
0202825710999992003042900004-05500-045270FM-12+017499999V0202001N001010042019N0100001N1+02391+02351101451ADDAY191061AY261061GF108991081051004501999999KA1240M+03181MA1999999099461MD1999999-0071MW1021REMSYN100AAXX  29004 82571 21497 82002 10239 20235 39946 40145 70296 885// 333 10318 29093 55058 59007 60091;
0190825710999992003042912004-05500-045270FM-12+017499999V0200201N001010450019N0100001N1+02561+02311101661ADDAY191061AY261061GF105991031021004501031001KA1240N+02221MA1999999099671MD1999999+0161MW1011REMSYN088AAXX  29124 82571 21497 50202 10256 20231 39967 40166 70196 83230 333 20222 58016 60644;
0167825710999992003042918004-05500-045270FM-12+017499999V0200501N001010450019N0100001N1+03091+02461101181ADDAA106000091GF105991031021004501041001MA1999999099221MD1999999-0091REMSYN070AAXX  29184 82571 32497 50502 10309 20246 39922 40118 83240 333 59009;EQDQ01  00002PRCP06
0236825710999992003043000004-05500-045270FM-12+017499999V0200501N001012200019N0100001N1+02661+02501101441ADDAA106000091AY101061AY201061GA1001+999999999GF100991001001999999001001KA1240M+03151MA1999999099461MD1999999+0001MW1131REMSYN088AAXX  30004 82571 31997 00502 10266 20250 39946 40144 71300 333 10315 29084 55075 58000;EQDQ01  00002PRCP06
0186825710999992003043012004-05500-045270FM-12+017499999V0202301N001010450019N0100001N1+02611+02391101671ADDAA106000091GF105991031021004501031011KA1240N+02421MA1999999099691MD1999999+0021REMSYN076AAXX  30124 82571 32497 52302 10261 20239 39969 40167 83231 333 20242 58002;EQDQ01  00002PRCP06
0171825710999992003043018004-05500-045270FM-12+017499999V0201401N001012200019N0100001N1+02931+02331101161ADDAY161061AY201061GF103991011021004501041001MA1999999099201MD1999999-0021MW1011REMSYN082AAXX  30184 82571 21497 31402 10293 20233 39920 40116 70160 81240 333 59002 69961;
0208825710999992003050100004-05500-045270FM-12+017499999V0209999C000012200019N0100001N1+02651+02521101471ADDAA106000091GA1001+999999999GF100991001001999999001001KA1240M+03121MA1999999099501MD1999999+0041REMSYN082AAXX  01004 82571 32997 00000 10265 20252 39950 40147 333 10312 29085 55048 58004;EQDQ01  00002PRCP06
0190825710999992003050112004-05500-045270FM-12+017499999V0200501N001010042019N0100001N1+02601+02421101671ADDAY141061AY221061GF106991051021004501001011KA1240N+02331MA1999999099691MD1999999+0001MW1011REMSYN088AAXX  01124 82571 21497 60502 10260 20242 39969 40167 70142 85201 333 20233 58000 69964;
0167825710999992003050118004-05500-045270FM-12+017499999V0200501N002110450019N0100001N1+03071+02581101191ADDAA106000091GF105991031051004501041011MA1999999099241MD1999999+0041REMSYN070AAXX  01184 82571 32497 50504 10307 20258 39924 40119 83541 333 58004;EQDQ01  00002PRCP06
0236825710999992003050200004-05500-045270FM-12+017499999V0200201N002112200019N0100001N1+02571+02461101521ADDAA106000091AY111061AY201061GA1001+999999999GF100991001001999999001001KA1240M+03181MA1999999099541MD1999999+0041MW1131REMSYN088AAXX  02004 82571 31997 00204 10257 20246 39954 40152 71310 333 10318 29088 55071 58004;EQDQ01  00002PRCP06
0186825710999992003050212004-05500-045270FM-12+017499999V0202301N001010450019N0100001N1+02521+02341101551ADDAA106000091GF106991031021004501031011KA1240N+02301MA1999999099571MD1999999-0121REMSYN076AAXX  02124 82571 32497 62302 10252 20234 39957 40155 83231 333 20230 59012;EQDQ01  00002PRCP06
0195825710999992003050218004-05500-045270FM-12+017499999V0203201N001012200019N0100001N1+03131+02481101141ADDAA106000091AY191061AY201061GF103991021031004501001011MA1999999099191MD1999999-0051MW1031REMSYN076AAXX  02184 82571 31497 33202 10313 20248 39919 40114 70390 82301 333 59005;EQDQ01  00002PRCP06
0212825710999992003050300004-05500-045270FM-12+017499999V0209999C000012200019N0100001N1+02491+02411101431ADDAY191061AY261061GA1001+999999999GF100991001001999999001001KA1240M+03231MA1999999099451MD1999999-0091MW1131REMSYN094AAXX  03004 82571 21997 00000 10249 20241 39945 40143 71396 333 10323 29087 55073 59009 60041;
0162825710999992003050312004-05500-045270FM-12+017499999V0202301N001010042019N0100001N1+02511+02401101561ADDGF106991061051004501001001KA1240N+02221MA1999999099571MD1999999+0001REMSYN082AAXX  03124 82571 22497 62302 10251 20240 39957 40156 86500 333 20222 58000 60044;
0167825710999992003050318004-05500-045270FM-12+017499999V0202001N001012200019N0100001N1+03071+02491101081ADDAA106000091GF104991041031004501001001MA1999999099121MD1999999-0071REMSYN070AAXX  03184 82571 32497 42002 10307 20249 39912 40108 84300 333 59007;EQDQ01  00002PRCP06
0212825710999992003050400004-05500-045270FM-12+017499999V0209999C000012200019N0100001N1+02521+02451101431ADDAY161061AY211061GA1001+999999999GF100991001001999999001001KA1240M+03011MA1999999099451MD1999999-0891MW1001REMSYN094AAXX  04004 82571 21997 00000 10252 20245 39945 40143 70061 333 10301 59089 55030 58000 69911;
0162825710999992003050412004-05500-045270FM-12+017499999V0201801N001010450019N0100001N1+02611+02301101561ADDGF106991031021004501031011KA1240N+02321MA1999999099581MD1999999+0011REMSYN082AAXX  04124 82571 22497 61802 10261 20230 39958 40156 83231 333 20232 58001 69914;
0171825710999992003050418004-05500-045270FM-12+017499999V0201801N001012200019N0100001N1+03111+02431101111ADDAY161061AY211061GF104991021021004501041001MA1999999099151MD1999999+0031MW1021REMSYN082AAXX  04184 82571 21497 41802 10311 20243 39915 40111 70261 82240 333 58003 69911;
0202825710999992003050500004-05500-045270FM-12+017499999V0209999C000010042019N0100001N1+02451+02361101461ADDAY191061AY261061GF105991051061004501001001KA1240M+03151MA1999999099481MD1999999+0031MW1131REMSYN100AAXX  05004 82571 21497 50000 10245 20236 39948 40146 71396 85600 333 10315 29085 55072 58003 69921;
0162825710999992003050512004-05500-045270FM-12+017499999V0202001N001010042019N0100001N1+02491+02401101621ADDGF107991061051004501031001KA1240N+02341MA1999999099631MD1999999+0051REMSYN082AAXX  05124 82571 22497 72002 10249 20240 39963 40162 86530 333 20234 58005 69934;
0171825710999992003050518004-05500-045270FM-12+017499999V0201801N003110450019N0100001N1+03001+02421101181ADDAY161061AY211061GF106991021021004501021001MA1999999099221MD1999999+0071MW1031REMSYN082AAXX  05184 82571 21497 61806 10300 20242 39922 40118 70361 82220 333 58007 69941;
0202825710999992003050600004-05500-045270FM-12+017499999V0202301N001010150019N0100001N1+02491+02411101481ADDAY161061AY221061GF108991081001017501071999KA1240M+03051MA1999999099491MD1999999+0011MW1031REMSYN100AAXX  06004 82571 21797 82302 10249 20241 39949 40148 70362 8807/ 333 10305 29089 55043 58001 60011;
0162825710999992003050612004-05500-045270FM-12+017499999V0201401N001012200019N0100001N1+02711+02371101571ADDGF104991041021004501001001KA1240N+02321MA1999999099591MD1999999-0041REMSYN082AAXX  06124 82571 22497 41402 10271 20237 39959 40157 84200 333 20232 59004 60024;
0167825710999992003050618004-05500-045270FM-12+017499999V0200901N001012200019N0100001N1+03021+02391101151ADDAA106000091GF102991021021004501001001MA1999999099191MD1999999-0031REMSYN070AAXX  06184 82571 32497 20902 10302 20239 39919 40115 82200 333 59003;EQDQ01  00002PRCP06
0208825710999992003050700004-05500-045270FM-12+017499999V0209999C000012200019N0100001N1+02521+02311101281ADDAA106000091GA1001+999999999GF100991001001999999001001KA1240M+03131MA1999999099311MD1999999-0181REMSYN082AAXX  07004 82571 32997 00000 10252 20231 39931 40128 333 10313 29084 55084 59018;EQDQ01  00002PRCP06
0190825710999992003050712004-05500-045270FM-12+017499999V0200201N002112200019N0100001N1+02601+02351101521ADDAY161061AY241061GF104991021021004501051001KA1240N+02151MA1999999099541MD1999999-0051MW1031REMSYN088AAXX  07124 82571 21497 40204 10260 20235 39954 40152 70364 82250 333 20215 59005 69914;
0167825710999992003050718004-05500-045270FM-12+017499999V0200501N001012200019N0100001N1+03211+02351101141ADDAA106000091GF104991031021004501001011MA1999999099191MD1999999+0001REMSYN070AAXX  07184 82571 32497 40502 10321 20235 39919 40114 83201 333 58000;EQDQ01  00002PRCP06
0208825710999992003050800004-05500-045270FM-12+017499999V0209999C000012200019N0100001N1+02631+02461101381ADDAA106000091GA1001+999999999GF100991001001999999001001KA1240M+03291MA1999999099411MD1999999+0101REMSYN082AAXX  08004 82571 32997 00000 10263 20246 39941 40138 333 10329 29082 55099 58010;EQDQ01  00002PRCP06
0214825710999992003050812004-05500-045270FM-12+017499999V0202501N001012200019N0100001N1+02651+02331101481ADDAA106000091AY141061AY201061GF104991021001017501011011KA1240N+02161MA1999999099511MD1999999-0031MW1031REMSYN082AAXX  08124 82571 31797 42502 10265 20233 39951 40148 70340 82011 333 20216 59003;EQDQ01  00002PRCP06
0167825710999992003050818004-05500-045270FM-12+017499999V0200901N002112200019N0100001N1+03261+02301101111ADDAA106000091GF103991021021004501001011MA1999999099161MD1999999-0031REMSYN070AAXX  08184 82571 32497 30904 10326 20230 39916 40111 82201 333 59003;EQDQ01  00002PRCP06
0208825710999992003050900004-05500-045270FM-12+017499999V0209999C000012200019N0100001N1+02671+02481101421ADDAA106000091GA1001+999999999GF100991001001999999001001KA1240M+03341MA1999999099451MD1999999+0041REMSYN082AAXX  09004 82571 32997 00000 10267 20248 39945 40142 333 10334 29079 55097 58004;EQDQ01  00002PRCP06
0186825710999992003050912004-05500-045270FM-12+017499999V0203601N001010042019N0100001N1+02491+02401101691ADDAA106000091GF108991081051004501999999KA1240N+02321MA1999999099711MD1999999+0201REMSYN076AAXX  09124 82571 32497 83602 10249 20240 39971 40169 885// 333 20232 58020;EQDQ01  00002PRCP06
0167825710999992003050918004-05500-045270FM-12+017499999V0200201N001012200019N0100001N1+03231+02311101201ADDAA106000091GF102991021021004501001001MA1999999099251MD1999999+0091REMSYN070AAXX  09184 82571 32497 20202 10323 20231 39925 40120 82200 333 58009;EQDQ01  00002PRCP06
0208825710999992003051000004-05500-045270FM-12+017499999V0209999C000012200019N0100001N1+02671+02481101481ADDAA106000091GA1001+999999999GF100991001001999999001001KA1240M+03301MA1999999099481MD1999999+0031REMSYN082AAXX  10004 82571 32997 00000 10267 20248 39948 40148 333 10330 29082 55074 58003;EQDQ01  00002PRCP06
0186825710999992003051012004-05500-045270FM-12+017499999V0200501N005110450019N0100001N1+02611+02421101661ADDAA106000091GF106991031031004501031011KA1240N+02301MA1999999099681MD1999999-0031REMSYN076AAXX  10124 82571 32497 60510 10261 20242 39968 40166 83331 333 20230 59003;EQDQ01  00002PRCP06
0195825710999992003051018004-05500-045270FM-12+017499999V0201801N001010450019N0100001N1+03131+02481101261ADDAA106000091AY161061AY201061GF106991031031004501021011MA1999999099301MD1999999+0051MW1171REMSYN076AAXX  10184 82571 31497 61802 10313 20248 39930 40126 71760 83321 333 58005;EQDQ01  00002PRCP06
0202825710999992003051100004-05500-045270FM-12+017499999V0209999C000012200019N0100001N1+02531+02451101501ADDAY191061AY261061GF102991021041004501001001KA1240M+03201MA1999999099521MD1999999+0041MW1131REMSYN100AAXX  11004 82571 21497 20000 10253 20245 39952 40150 71396 82400 333 10320 29087 55063 58004 69971;
0190825710999992003051112004-05500-045270FM-12+017499999V0201401N001010042019N0100001N1+02541+02331101761ADDAY141061AY211061GF106991051021004501001011KA1240N+02301MA1999999099771MD1999999+0091MW1021REMSYN088AAXX  11124 82571 21497 61402 10254 20233 39977 40176 70241 85201 333 20230 58009 60014;
0167825710999992003051118004-05500-045270FM-12+017499999V0201401N001012200019N0100001N1+03101+02181101361ADDAA106000091GF102991021021004501001001MA1999999099401MD1999999+0101REMSYN070AAXX  11184 82571 32497 21402 10310 20218 39940 40136 82200 333 58010;EQDQ01  00002PRCP06
0208825710999992003051200004-05500-045270FM-12+017499999V0209999C000012200019N0100001N1+02581+02381101521ADDAA106000091GA1001+999999999GF100991001001999999001001KA1240M+03181MA1999999099541MD1999999+0021REMSYN082AAXX  12004 82571 32997 00000 10258 20238 39954 40152 333 10318 29081 55088 58002;EQDQ01  00002PRCP06
0214825710999992003051212004-05500-045270FM-12+017499999V0201401N003112200019N0100001N1+02691+02201101721ADDAA106000091AY141061AY201061GF102991011011004501031001KA1240N+02171MA1999999099741MD1999999-0031MW1031REMSYN082AAXX  12124 82571 31497 21406 10269 20220 39974 40172 70340 81130 333 20217 59003;EQDQ01  00002PRCP06
0167825710999992003051218004-05500-045270FM-12+017499999V0201101N002112200019N0100001N1+03101+02291101331ADDAA106000091GF104991031021004501011001MA1999999099371MD1999999-0031REMSYN070AAXX  12184 82571 32497 41104 10310 20229 39937 40133 83210 333 59003;EQDQ01  00002PRCP06
0198825710999992003051300004-05500-045270FM-12+017499999V0209999C000012200019N0100001N1+02631+02411101561ADDAA106000091GF101991011001017501011001KA1240M+03221MA1999999099591MD1999999+0041REMSYN088AAXX  13004 82571 32797 10000 10263 20241 39959 40156 81010 333 10322 29078 55104 58004;EQDQ01  00002PRCP06
0186825710999992003051312004-05500-045270FM-12+017499999V0200901N001010450019N0100001N1+02581+02291101711ADDAA106000091GF105991021021004501051001KA1240N+02311MA1999999099731MD1999999-0011REMSYN076AAXX  13124 82571 32497 50902 10258 20229 39973 40171 82250 333 20231 59001;EQDQ01  00002PRCP06
0167825710999992003051318004-05500-045270FM-12+017499999V0201101N002112200019N0100001N1+03151+02341101231ADDAA106000091GF104991031021004501001011MA1999999099271MD1999999-0101REMSYN070AAXX  13184 82571 32497 41104 10315 20234 39927 40123 83201 333 59010;EQDQ01  00002PRCP06
0214825710999992003051412004-05500-045270FM-12+017499999V0201401N003112200019N0100001N1+02771+02321101561ADDAA106000091AY141061AY201061GF101991011011004501001001KA1240N+02221MA1999999099591MD1999999-0141MW1031REMSYN082AAXX  14124 82571 31497 11406 10277 20232 39959 40156 70340 81100 333 20222 59014;EQDQ01  00002PRCP06
0167825710999992003051418004-05500-045270FM-12+017499999V0201101N003112200019N0100001N1+03201+02301101101ADDAA106000091GF103991021021004501011001MA1999999099151MD1999999-0121REMSYN070AAXX  14184 82571 32497 31106 10320 20230 39915 40110 82210 333 59012;EQDQ01  00002PRCP06
0186825710999992003051512004-05500-045270FM-12+017499999V0201401N005112200019N0100001N1+02791+02201101531ADDAA106000091GF101991011001017501031001KA1240N+02251MA1999999099561MD1999999-0031REMSYN076AAXX  15124 82571 32797 11410 10279 20220 39956 40153 81030 333 20225 59003;EQDQ01  00002PRCP06
0167825710999992003051518004-05500-045270FM-12+017499999V0201101N003112200019N0100001N1+03181+02221101161ADDAA106000091GF103991021021004501031001MA1999999099211MD1999999+0061REMSYN070AAXX  15184 82571 32497 31106 10318 20222 39921 40116 82230 333 58006;EQDQ01  00002PRCP06
0198825710999992003051600004-05500-045270FM-12+017499999V0209999C000012200019N0100001N1+02671+02371101371ADDAA106000091GF101991011021017501001001KA1240M+03221MA1999999099411MD1999999+0011REMSYN088AAXX  16004 82571 32797 10000 10267 20237 39941 40137 81200 333 10322 29073 55098 58001;EQDQ01  00002PRCP06
0186825710999992003051612004-05500-045270FM-12+017499999V0201401N004112200019N0100001N1+02731+02121101481ADDAA106000091GF103991031001017501011001KA1240N+02221MA1999999099511MD1999999-0051REMSYN076AAXX  16124 82571 32797 31408 10273 20212 39951 40148 83010 333 20222 59005;EQDQ01  00002PRCP06
0167825710999992003051618004-05500-045270FM-12+017499999V0201401N004112200019N0100001N1+03141+02181101111ADDAA106000091GF103991011021004501031001MA1999999099161MD1999999-0051REMSYN070AAXX  16184 82571 32497 31408 10314 20218 39916 40111 81230 333 59005;EQDQ01  00002PRCP06
0198825710999992003051700004-05500-045270FM-12+017499999V0209999C000012200019N0100001N1+02551+02311101261ADDAA106000091GF102991021001017501031001KA1240M+03171MA1999999099291MD1999999-0121REMSYN088AAXX  17004 82571 32797 20000 10255 20231 39929 40126 82030 333 10317 29074 55102 59012;EQDQ01  00002PRCP06
0186825710999992003051712004-05500-045270FM-12+017499999V0200501N005112200019N0100001N1+02671+02111101361ADDAA106000091GF102991011011004501031001KA1240N+02231MA1999999099391MD1999999-0121REMSYN076AAXX  17124 82571 32497 20510 10267 20211 39939 40136 81130 333 20223 59012;EQDQ01  00002PRCP06
0167825710999992003051718004-05500-045270FM-12+017499999V0200901N001012200019N0100001N1+03071+02131101091ADDAA106000091GF102991021021004501001001MA1999999099131MD1999999-0031REMSYN070AAXX  17184 82571 32497 20902 10307 20213 39913 40109 82200 333 59003;EQDQ01  00002PRCP06
0198825710999992003051800004-05500-045270FM-12+017499999V0201801N001012200019N0100001N1+02631+02331101321ADDAA106000091GF101991011011004501001001KA1240M+03201MA1999999099351MD1999999+0061REMSYN088AAXX  18004 82571 32497 11802 10263 20233 39935 40132 81100 333 10320 29074 55099 58006;EQDQ01  00002PRCP06
0186825710999992003051812004-05500-045270FM-12+017499999V0201601N007212200019N0100001N1+02691+02081101441ADDAA106000091GF101991011041004501001001KA1240N+02081MA1999999099471MD1999999+0081REMSYN076AAXX  18124 82571 32497 11614 10269 20208 39947 40144 81400 333 20208 58008;EQDQ01  00002PRCP06
0167825710999992003051818004-05500-045270FM-12+017499999V0201401N001012200019N0100001N1+03091+02261101181ADDAA106000091GF103991021021004501031001MA1999999099221MD1999999+0091REMSYN070AAXX  18184 82571 32497 31402 10309 20226 39922 40118 82230 333 58009;EQDQ01  00002PRCP06
0198825710999992003051900004-05500-045270FM-12+017499999V0209999C000012200019N0100001N1+02581+02371101371ADDAA106000091GF102991021001004501041001KA1240M+03231MA1999999099401MD1999999+0051REMSYN088AAXX  19004 82571 32497 20000 10258 20237 39940 40137 82040 333 10323 29076 55087 58005;EQDQ01  00002PRCP06
0214825710999992003051912004-05500-045270FM-12+017499999V0201401N005112200019N0100001N1+02701+01911101501ADDAA106000091AY141061AY201061GF103991011021004501041001KA1240N+02121MA1999999099531MD1999999+0061MW1001REMSYN082AAXX  19124 82571 31497 31410 10270 20191 39953 40150 70040 81240 333 20212 58006;EQDQ01  00002PRCP06
0167825710999992003051918004-05500-045270FM-12+017499999V0200901N002112200019N0100001N1+03021+02211101191ADDAA106000091GF104991011021004501051011MA1999999099231MD1999999+0011REMSYN070AAXX  19184 82571 32497 40904 10302 20221 39923 40119 81251 333 58001;EQDQ01  00002PRCP06
0208825710999992003052000004-05500-045270FM-12+017499999V0201401N001012200019N0100001N1+02591+02391101391ADDAA106000091GA1001+999999999GF100991001001999999001001KA1240M+03151MA1999999099421MD1999999+0021REMSYN082AAXX  20004 82571 32997 01402 10259 20239 39942 40139 333 10315 29075 55079 58002;EQDQ01  00002PRCP06
0186825710999992003052012004-05500-045270FM-12+017499999V0201801N001010090019N0100001N1+02521+02311101591ADDAA106000091GF107991051081004501031001KA1240N+02311MA1999999099611MD1999999+0081REMSYN076AAXX  20124 82571 32497 71802 10252 20231 39961 40159 85830 333 20231 58008;EQDQ01  00002PRCP06
0167825710999992003052018004-05500-045270FM-12+017499999V0201401N003112200019N0100001N1+03031+02231101231ADDAA106000091GF104991021021004501031001MA1999999099271MD1999999+0041REMSYN070AAXX  20184 82571 32497 41406 10303 20223 39927 40123 82230 333 58004;EQDQ01  00002PRCP06
0212825710999992003052100004-05500-045270FM-12+017499999V0209999C000012200019N0100001N1+02471+02321101471ADDAY161061AY211061GA1001+999999999GF100991001001999999001001KA1240M+03151MA1999999099481MD1999999+0061MW1021REMSYN094AAXX  21004 82571 21997 00000 10247 20232 39948 40147 70261 333 10315 29083 55059 58006 69911;
0172825710999992003052112004-05500-045270FM-12+017499999V0201401N003112200019N0100001N1+02721+02261101511ADDGA1001+999999999GF100991001001999999001001KA1240N+02221MA1999999099531MD1999999-0081REMSYN076AAXX  21124 82571 22497 01406 10272 20226 39953 40151 333 20222 59008 69914;
0167825710999992003052118004-05500-045270FM-12+017499999V0200901N003112200019N0100001N1+03271+02201101131ADDAA106000091GF103991021021004501031001MA1999999099181MD1999999-0091REMSYN070AAXX  21184 82571 32497 30906 10327 20220 39918 40113 82230 333 59009;EQDQ01  00002PRCP06
0208825710999992003052200004-05500-045270FM-12+017499999V0200501N001012200019N0100001N1+02681+02371101361ADDAA106000091GA1001+999999999GF100991001001999999001001KA1240M+03331MA1999999099391MD1999999-0091REMSYN082AAXX  22004 82571 32997 00502 10268 20237 39939 40136 333 10333 29074 55101 59009;EQDQ01  00002PRCP06
0214825710999992003052212004-05500-045270FM-12+017499999V0201401N003112200019N0100001N1+02811+02291101571ADDAA106000091AY141061AY201061GF101991011001017501031001KA1240N+02211MA1999999099601MD1999999+0071MW1031REMSYN082AAXX  22124 82571 31797 11406 10281 20229 39960 40157 70340 81030 333 20221 58007;EQDQ01  00002PRCP06
0167825710999992003052218004-05500-045270FM-12+017499999V0200901N003112200019N0100001N1+03251+02211101231ADDAA106000091GF102991011021004501031001MA1999999099281MD1999999+0101REMSYN070AAXX  22184 82571 32497 20906 10325 20221 39928 40123 81230 333 58010;EQDQ01  00002PRCP06
0208825710999992003052300004-05500-045270FM-12+017499999V0209999C000012200019N0100001N1+02601+02351101491ADDAA106000091GA1001+999999999GF100991001001999999001001KA1240M+03301MA1999999099521MD1999999+0131REMSYN082AAXX  23004 82571 32997 00000 10260 20235 39952 40149 333 10330 29075 55101 58013;EQDQ01  00002PRCP06
0186825710999992003052312004-05500-045270FM-12+017499999V0202301N001012200019N0100001N1+02691+02371101571ADDAA106000091GF101991011011004501001001KA1240N+02171MA1999999099601MD1999999+0001REMSYN076AAXX  23124 82571 32497 12302 10269 20237 39960 40157 81100 333 20217 58000;EQDQ01  00002PRCP06
0167825710999992003052318004-05500-045270FM-12+017499999V0200901N003112200019N0100001N1+03291+02271101181ADDAA106000091GF102991021021004501001001MA1999999099231MD1999999-0051REMSYN070AAXX  23184 82571 32497 20906 10329 20227 39923 40118 82200 333 59005;EQDQ01  00002PRCP06
0208825710999992003052400004-05500-045270FM-12+017499999V0209999C000012200019N0100001N1+02641+02411101381ADDAA106000091GA1001+999999999GF100991001001999999001001KA1240M+03341MA1999999099411MD1999999-0111REMSYN082AAXX  24004 82571 32997 00000 10264 20241 39941 40138 333 10334 29078 55101 59011;EQDQ01  00002PRCP06
0186825710999992003052412004-05500-045270FM-12+017499999V0203601N003112200019N0100001N1+02721+02451101431ADDAA106000091GF103991021021004501001011KA1240N+02191MA1999999099461MD1999999-0141REMSYN076AAXX  24124 82571 32497 33606 10272 20245 39946 40143 82201 333 20219 59014;EQDQ01  00002PRCP06
0167825710999992003052418004-05500-045270FM-12+017499999V0200901N001010450019N0100001N1+03291+02361101001ADDAA106000091GF106991021021004501031011MA1999999099051MD1999999-0181REMSYN070AAXX  24184 82571 32497 60902 10329 20236 39905 40100 82231 333 59018;EQDQ01  00002PRCP06
0208825710999992003052500004-05500-045270FM-12+017499999V0200501N001012200019N0100001N1+02691+02451101181ADDAA106000091GA1001+999999999GF100991001001999999001001KA1240M+03371MA1999999099221MD1999999-0191REMSYN082AAXX  25004 82571 32997 00502 10269 20245 39922 40118 333 10337 29079 55093 59019;EQDQ01  00002PRCP06
0214825710999992003052512004-05500-045270FM-12+017499999V0203401N001012200019N0100001N1+02691+02411101441ADDAA106000091AY141061AY201061GF103991011011004501001011KA1240N+02241MA1999999099471MD1999999+0011MW1011REMSYN082AAXX  25124 82571 31497 33402 10269 20241 39947 40144 70140 81101 333 20224 58001;EQDQ01  00002PRCP06
0167825710999992003052518004-05500-045270FM-12+017499999V0200501N001012200019N0100001N1+03311+02351101041ADDAA106000091GF102991021021004501001001MA1999999099101MD1999999+0051REMSYN070AAXX  25184 82571 32497 20502 10331 20235 39910 40104 82200 333 58005;EQDQ01  00002PRCP06
0208825710999992003052600004-05500-045270FM-12+017499999V0209999C000012200019N0100001N1+02721+02471101271ADDAA106000091GA1001+999999999GF100991001001999999001001KA1240M+03401MA1999999099311MD1999999+0031REMSYN082AAXX  26004 82571 32997 00000 10272 20247 39931 40127 333 10340 29078 55093 58003;EQDQ01  00002PRCP06
0186825710999992003052612004-05500-045270FM-12+017499999V0201101N001010042019N0100001N1+02511+02401101541ADDAA106000091GF108991081051004501999999KA1240N+02271MA1999999099561MD1999999+0091REMSYN076AAXX  26124 82571 32497 81102 10251 20240 39956 40154 885// 333 20227 58009;EQDQ01  00002PRCP06
0167825710999992003052618004-05500-045270FM-12+017499999V0200901N001010450019N0100001N1+03101+02461101171ADDAA106000091GF105991021021004501031001MA1999999099221MD1999999+0121REMSYN070AAXX  26184 82571 32497 50902 10310 20246 39922 40117 82230 333 58012;EQDQ01  00002PRCP06
0236825710999992003052700004-05500-045270FM-12+017499999V0209999C000012200019N0100001N1+02711+02521101441ADDAA106000091AY111061AY201061GA1001+999999999GF100991001001999999001001KA1240M+03211MA1999999099461MD1999999+0151MW1131REMSYN088AAXX  27004 82571 31997 00000 10271 20252 39946 40144 71310 333 10321 29085 55042 58015;EQDQ01  00002PRCP06
0190825710999992003052712004-05500-045270FM-12+017499999V0202001N001010042019N0100001N1+02231+02191101821ADDAY161061AY221061GF108991081051004501999999KA1240N+02241MA1999999099821MD1999999+0261MW1611REMSYN088AAXX  27124 82571 21497 82002 10223 20219 39982 40182 76162 885// 333 20224 58026 60344;
0171825710999992003052718004-05500-045270FM-12+017499999V0202701N001010450019N0100001N1+02851+02331101491ADDAY161061AY221061GF106991041081004501031001MA1999999099501MD1999999-0061MW1021REMSYN082AAXX  27184 82571 21497 62702 10285 20233 39950 40149 70262 84830 333 59006 69991;
0208825710999992003052800004-05500-045270FM-12+017499999V0209999C000012200019N0100001N1+02511+02381101601ADDAA106000091GA1001+999999999GF100991001001999999001001KA1240M+02941MA1999999099601MD1999999+0161REMSYN082AAXX  28004 82571 32997 00000 10251 20238 39960 40160 333 10294 29088 55014 58016;EQDQ01  00002PRCP06
0190825710999992003052812004-05500-045270FM-12+017499999V0202301N001012200019N0100001N1+02391+02311101721ADDAY161061AY241061GF104991031001017501061011KA1240N+02171MA1999999099731MD1999999-0091MW1011REMSYN088AAXX  28124 82571 21797 42302 10239 20231 39973 40172 70164 83061 333 20217 59009 60014;
0167825710999992003052818004-05500-045270FM-12+017499999V0200501N001012200019N0100001N1+03191+02411101381ADDAA106000091GF102991021021004501001001MA1999999099421MD1999999-0081REMSYN070AAXX  28184 82571 32497 20502 10319 20241 39942 40138 82200 333 59008;EQDQ01  00002PRCP06
0208825710999992003052900004-05500-045270FM-12+017499999V0209999C000012200019N0100001N1+02611+02461101521ADDAA106000091GA1001+999999999GF100991001001999999001001KA1240M+03281MA1999999099531MD1999999-0071REMSYN082AAXX  29004 82571 32997 00000 10261 20246 39953 40152 333 10328 29085 55081 59007;EQDQ01  00002PRCP06
0190825710999992003052912004-05500-045270FM-12+017499999V0202301N001010450019N0100001N1+02581+02401101731ADDAY161061AY241061GF105991031021004501031001KA1240N+02251MA1999999099751MD1999999+0021MW1011REMSYN088AAXX  29124 82571 21497 52302 10258 20240 39975 40173 70164 83230 333 20225 58002 69914;
0167825710999992003052918004-05500-045270FM-12+017499999V0200501N001012200019N0100001N1+02891+02391101331ADDAA106000091GF103991021001004501041011MA1999999099361MD1999999-0061REMSYN070AAXX  29184 82571 32497 30502 10289 20239 39936 40133 82041 333 59006;EQDQ01  00002PRCP06
0208825710999992003053000004-05500-045270FM-12+017499999V0209999C000012200019N0100001N1+02541+02381101471ADDAA106000091GA1001+999999999GF100991001001999999001001KA1240M+03151MA1999999099491MD1999999-0041REMSYN082AAXX  30004 82571 32997 00000 10254 20238 39949 40147 333 10315 29086 55082 59004;EQDQ01  00002PRCP06
0186825710999992003053012004-05500-045270FM-12+017499999V0201801N001010450019N0100001N1+02511+02381101731ADDAA106000091GF106991031051004501031001KA1240N+02221MA1999999099741MD1999999-0011REMSYN076AAXX  30124 82571 32497 61802 10251 20238 39974 40173 83530 333 20222 59001;EQDQ01  00002PRCP06
0167825710999992003053018004-05500-045270FM-12+017499999V0203601N001012200019N0100001N1+03151+02291101311ADDAA106000091GF104991031021004501001011MA1999999099351MD1999999-0011REMSYN070AAXX  30184 82571 32497 43602 10315 20229 39935 40131 83201 333 59001;EQDQ01  00002PRCP06
0208825710999992003053100004-05500-045270FM-12+017499999V0209999C000012200019N0100001N1+02611+02421101531ADDAA106000091GA1001+999999999GF100991001001999999001001KA1240M+03201MA1999999099551MD1999999+0061REMSYN082AAXX  31004 82571 32997 00000 10261 20242 39955 40153 333 10320 29082 55086 58006;EQDQ01  00002PRCP06
0186825710999992003053112004-05500-045270FM-12+017499999V0202301N001010450019N0100001N1+02541+02361101831ADDAA106000091GF106991041051004501031001KA1240N+02291MA1999999099851MD1999999+0111REMSYN076AAXX  31124 82571 32497 62302 10254 20236 39985 40183 84530 333 20229 58011;EQDQ01  00002PRCP06
0167825710999992003053118004-05500-045270FM-12+017499999V0201401N001010450019N0100001N1+02911+02361101461ADDAA106000091GF106991031021004501031011MA1999999099491MD1999999+0141REMSYN070AAXX  31184 82571 32497 61402 10291 20236 39949 40146 83231 333 58014;EQDQ01  00002PRCP06
0208825710999992003060100004-05500-045270FM-12+017499999V0200201N001012200019N0100001N1+02531+02401101621ADDAA106000091GA1001+999999999GF100991001001999999001001KA1240M+03021MA1999999099641MD1999999+0091REMSYN082AAXX  01004 82571 32997 00202 10253 20240 39964 40162 333 10302 29086 55027 58009;EQDQ01  00002PRCP06
0186825710999992003060112004-05500-045270FM-12+017499999V0201801N001010150019N0100001N1+02431+02351101741ADDAA106000091GF108991081001017501021999KA1240N+02201MA1999999099751MD1999999-0101REMSYN076AAXX  01124 82571 32797 81802 10243 20235 39975 40174 8802/ 333 20220 59010;EQDQ01  00002PRCP06
0171825710999992003060118004-05500-045270FM-12+017499999V0201801N003112200019N0100001N1+03141+02271101331ADDAY161061AY201061GF102991021021004501001001MA1999999099371MD1999999-0121MW1011REMSYN082AAXX  01184 82571 21497 21806 10314 20227 39937 40133 70160 82200 333 59012 60011;
0208825710999992003060200004-05500-045270FM-12+017499999V0209999C000012200019N0100001N1+02571+02381101531ADDAA106000091GA1001+999999999GF100991001001999999001001KA1240M+03171MA1999999099541MD1999999-0101REMSYN082AAXX  02004 82571 32997 00000 10257 20238 39954 40153 333 10317 29083 55063 59010;EQDQ01  00002PRCP06
0162825710999992003060212004-05500-045270FM-12+017499999V0203601N001010042019N0100001N1+02451+02371101691ADDGF107991071051004501001001KA1240N+02241MA1999999099701MD1999999-0051REMSYN082AAXX  02124 82571 22497 73602 10245 20237 39970 40169 87500 333 20224 59005 60014;
0167825710999992003060218004-05500-045270FM-12+017499999V0201401N001012200019N0100001N1+03151+02141101241ADDAA106000091GF102991021021004501001001MA1999999099281MD1999999-0091REMSYN070AAXX  02184 82571 32497 21402 10315 20214 39928 40124 82200 333 59009;EQDQ01  00002PRCP06
0208825710999992003060300004-05500-045270FM-12+017499999V0201401N001012200019N0100001N1+02551+02361101451ADDAA106000091GA1001+999999999GF100991001001999999001001KA1240M+03221MA1999999099461MD1999999-0081REMSYN082AAXX  03004 82571 32997 01402 10255 20236 39946 40145 333 10322 29082 55071 59008;EQDQ01  00002PRCP06
0186825710999992003060312004-05500-045270FM-12+017499999V0201601N001010042019N0100001N1+02451+02341101601ADDAA106000091GF108991081051004501999999KA1240N+02141MA1999999099611MD1999999-0091REMSYN076AAXX  03124 82571 32497 81602 10245 20234 39961 40160 885// 333 20214 59009;EQDQ01  00002PRCP06
0167825710999992003060318004-05500-045270FM-12+017499999V0200901N001012200019N0100001N1+03171+02161101191ADDAA106000091GF103991021021004501001011MA1999999099231MD1999999-0051REMSYN070AAXX  03184 82571 32497 30902 10317 20216 39923 40119 82201 333 59005;EQDQ01  00002PRCP06
0208825710999992003060400004-05500-045270FM-12+017499999V0209999C000012200019N0100001N1+02551+02361101381ADDAA106000091GA1001+999999999GF100991001001999999001001KA1240M+03241MA1999999099401MD1999999-0061REMSYN082AAXX  04004 82571 32997 00000 10255 20236 39940 40138 333 10324 29082 55080 59006;EQDQ01  00002PRCP06
0186825710999992003060412004-05500-045270FM-12+017499999V0200501N001012200019N0100001N1+02571+02311101621ADDAA106000091GF104991041001017501051001KA1240N+02091MA1999999099641MD1999999+0031REMSYN076AAXX  04124 82571 32797 40502 10257 20231 39964 40162 84050 333 20209 58003;EQDQ01  00002PRCP06
0167825710999992003060418004-05500-045270FM-12+017499999V0200901N003112200019N0100001N1+03181+02251101241ADDAA106000091GF102991011011004501031001MA1999999099281MD1999999+0051REMSYN070AAXX  04184 82571 32497 20906 10318 20225 39928 40124 81130 333 58005;EQDQ01  00002PRCP06
0208825710999992003060500004-05500-045270FM-12+017499999V0209999C000012200019N0100001N1+02641+02411101321ADDAA106000091GA1001+999999999GF100991001001999999001001KA1240M+03231MA1999999099351MD1999999-0051REMSYN082AAXX  05004 82571 32997 00000 10264 20241 39935 40132 333 10323 29079 55096 59005;EQDQ01  00002PRCP06
0214825710999992003060512004-05500-045270FM-12+017499999V0202901N001010042019N0100001N1+02431+02341101631ADDAA106000091AY141061AY221061GF107991071051004501001001KA1240N+02181MA1999999099651MD1999999+0011MW1021REMSYN082AAXX  05124 82571 31497 72902 10243 20234 39965 40163 70242 87500 333 20218 58001;EQDQ01  00002PRCP06
0167825710999992003060518004-05500-045270FM-12+017499999V0201401N002110450019N0100001N1+03111+02361101221ADDAA106000091GF105991041021004501031001MA1999999099261MD1999999-0021REMSYN070AAXX  05184 82571 32497 51404 10311 20236 39926 40122 84230 333 59002;EQDQ01  00002PRCP06
0212825710999992003060600004-05500-045270FM-12+017499999V0209999C000012200019N0100001N1+02431+02301101441ADDAY161061AY201061GA1001+999999999GF100991001001999999001001KA1240M+03021MA1999999099451MD1999999+0101MW1001REMSYN094AAXX  06004 82571 21997 00000 10243 20230 39945 40144 70060 333 10302 29086 55065 58010 69991;
0162825710999992003060612004-05500-045270FM-12+017499999V0203201N001010150019N0100001N1+02561+02271101601ADDGF106991061001017501051001KA1240N+02281MA1999999099611MD1999999-0041REMSYN082AAXX  06124 82571 22797 63202 10256 20227 39961 40160 86050 333 20228 59004 69994;
0167825710999992003060618004-05500-045270FM-12+017499999V0200501N001012200019N0100001N1+03151+02231101181ADDAA106000091GF102991021021004501001001MA1999999099221MD1999999-0041REMSYN070AAXX  06184 82571 32497 20502 10315 20223 39922 40118 82200 333 59004;EQDQ01  00002PRCP06
0208825710999992003060700004-05500-045270FM-12+017499999V0209999C000012200019N0100001N1+02631+02371101471ADDAA106000091GA1001+999999999GF100991001001999999001001KA1240M+03251MA1999999099491MD1999999+0041REMSYN082AAXX  07004 82571 32997 00000 10263 20237 39949 40147 333 10325 29078 55090 58004;EQDQ01  00002PRCP06
0186825710999992003060712004-05500-045270FM-12+017499999V0200501N003112200019N0100001N1+02651+02111101611ADDAA106000091GF105991031001017501041011KA1240N+02091MA1999999099641MD1999999+0031REMSYN076AAXX  07124 82571 32797 50506 10265 20211 39964 40161 83041 333 20209 58003;EQDQ01  00002PRCP06
0167825710999992003060718004-05500-045270FM-12+017499999V0201801N001012200019N0100001N1+03151+02171101251ADDAA106000091GF104991041021004501001001MA1999999099291MD1999999+0071REMSYN070AAXX  07184 82571 32497 41802 10315 20217 39929 40125 84200 333 58007;EQDQ01  00002PRCP06
0208825710999992003060800004-05500-045270FM-12+017499999V0209999C000012200019N0100001N1+02531+02331101391ADDAA106000091GA1001+999999999GF100991001001999999001001KA1240M+03231MA1999999099421MD1999999-0071REMSYN082AAXX  08004 82571 32997 00000 10253 20233 39942 40139 333 10323 29076 55102 59007;EQDQ01  00002PRCP06
0186825710999992003060812004-05500-045270FM-12+017499999V0201401N005112200019N0100001N1+02671+02111101531ADDAA106000091GF102991001001999999001011KA1240N+02041MA1999999099551MD1999999-0091REMSYN076AAXX  08124 82571 32997 21410 10267 20211 39955 40153 80001 333 20204 59009;EQDQ01  00002PRCP06
0208825710999992003060900004-05500-045270FM-12+017499999V0209999C000012200019N0100001N1+02571+02311101471ADDAA106000091GA1001+999999999GF100991001001999999001001KA1240M+03251MA1999999099491MD1999999+0071REMSYN082AAXX  09004 82571 32997 00000 10257 20231 39949 40147 333 10325 29074 55102 58007;EQDQ01  00002PRCP06
0214825710999992003060912004-05500-045270FM-12+017499999V0201401N003112200019N0100001N1+02521+02001101611ADDAA106000091AY141061AY201061GF104991021001017501011011KA1240N+02001MA1999999099631MD1999999+0081MW1021REMSYN082AAXX  09124 82571 31797 41406 10252 20200 39963 40161 70240 82011 333 20200 58008;EQDQ01  00002PRCP06
0167825710999992003060918004-05500-045270FM-12+017499999V0201401N003112200019N0100001N1+03171+02071101281ADDAA106000091GF104991011021004501031011MA1999999099321MD1999999+0071REMSYN070AAXX  09184 82571 32497 41406 10317 20207 39932 40128 81231 333 58007;EQDQ01  00002PRCP06
0208825710999992003061000004-05500-045270FM-12+017499999V0209999C000012200019N0100001N1+02531+02291101511ADDAA106000091GA1001+999999999GF100991001001999999001001KA1240M+03231MA1999999099521MD1999999+0031REMSYN082AAXX  10004 82571 32997 00000 10253 20229 39952 40151 333 10323 29074 55098 58003;EQDQ01  00002PRCP06
0186825710999992003061012004-05500-045270FM-12+017499999V0201401N004112200019N0100001N1+02531+01911101601ADDAA106000091GF102991011001017501041011KA1240N+01901MA1999999099621MD1999999-0011REMSYN076AAXX  10124 82571 32797 21408 10253 20191 39962 40160 81041 333 20190 59001;EQDQ01  00002PRCP06
0198825710999992003061100004-05500-045270FM-12+017499999V0209999C000012200019N0100001N1+02551+02311101491ADDAA106000091GF103991031001017501031001KA1240M+03201MA1999999099511MD1999999-0011REMSYN088AAXX  11004 82571 32797 30000 10255 20231 39951 40149 83030 333 10320 29073 55103 59001;EQDQ01  00002PRCP06
0171825710999992003061112004-05500-045270FM-12+017499999V0202701N001012200019N0100001N1+02531+02251101571ADDAA106000091GF102991999999017501999999KA1240N+02081MA1999999099591REMSYN075AAXX  11124 82571 32797 22702 10253 20225 39959 40157 2030 333 20208 59003;EQDQ01  00002PRCP06
0167825710999992003061118004-05500-045270FM-12+017499999V0200501N003112200019N0100001N1+03211+02111101261ADDAA106000091GF102991021021004501001001MA1999999099301MD1999999-0071REMSYN070AAXX  11184 82571 32497 20506 10321 20211 39930 40126 82200 333 59007;EQDQ01  00002PRCP06
0208825710999992003061200004-05500-045270FM-12+017499999V0209999C000012200019N0100001N1+02651+02411101371ADDAA106000091GA1001+999999999GF100991001001999999001001KA1240M+03271MA1999999099401MD1999999-0111REMSYN082AAXX  12004 82571 32997 00000 10265 20241 39940 40137 333 10327 29077 55090 59011;EQDQ01  00002PRCP06
0186825710999992003061212004-05500-045270FM-12+017499999V0200501N001010450019N0100001N1+02571+02351101531ADDAA106000091GF106991041021004501051001KA1240N+02321MA1999999099551MD1999999-0041REMSYN076AAXX  12124 82571 32497 60502 10257 20235 39955 40153 84250 333 20232 59004;EQDQ01  00002PRCP06
0167825710999992003061218004-05500-045270FM-12+017499999V0201401N001010450019N0100001N1+03131+02301101101ADDAA106000091GF105991031021004501031001MA1999999099151MD1999999-0151REMSYN070AAXX  12184 82571 32497 51402 10313 20230 39915 40110 83230 333 59015;EQDQ01  00002PRCP06
0198825710999992003061300004-05500-045270FM-12+017499999V0209999C000010450019N0100001N1+02711+02451101281ADDAA106000091GF106991041081004501031001KA1240M+03231MA1999999099311MD1999999-0091REMSYN088AAXX  13004 82571 32497 60000 10271 20245 39931 40128 84830 333 10323 29080 55058 59009;EQDQ01  00002PRCP06
0186825710999992003061312004-05500-045270FM-12+017499999V0200501N001012200019N0100001N1+02661+02371101371ADDAA106000091GF103991011021004501011011KA1240N+02321MA1999999099401MD1999999-0151REMSYN076AAXX  13124 82571 32497 30502 10266 20237 39940 40137 81211 333 20232 59015;EQDQ01  00002PRCP06
0167825710999992003061318004-05500-045270FM-12+017499999V0200201N001012200019N0100001N1+03191+02241101001ADDAA106000091GF102991021021004501001001MA1999999099051MD1999999-0101REMSYN070AAXX  13184 82571 32497 20202 10319 20224 39905 40100 82200 333 59010;EQDQ01  00002PRCP06
0208825710999992003061400004-05500-045270FM-12+017499999V0209999C000012200019N0100001N1+02651+02411101301ADDAA106000091GA1001+999999999GF100991001001999999001001KA1240M+03261MA1999999099331MD1999999+0021REMSYN082AAXX  14004 82571 32997 00000 10265 20241 39933 40130 333 10326 29078 55091 58002;EQDQ01  00002PRCP06
0186825710999992003061412004-05500-045270FM-12+017499999V0201401N001012200019N0100001N1+02611+01881101491ADDAA106000091GF104991001001999999001011KA1240N+02081MA1999999099521MD1999999+0121REMSYN076AAXX  14124 82571 32997 41402 10261 20188 39952 40149 80001 333 20208 58012;EQDQ01  00002PRCP06
0167825710999992003061418004-05500-045270FM-12+017499999V0200901N001012200019N0100001N1+03211+02111101131ADDAA106000091GF106991031001017501061011MA1999999099181MD1999999+0131REMSYN070AAXX  14184 82571 32797 60902 10321 20211 39918 40113 83061 333 58013;EQDQ01  00002PRCP06
0208825710999992003061500004-05500-045270FM-12+017499999V0202301N001012200019N0100001N1+02521+02211101361ADDAA106000091GA1001+999999999GF100991001001999999001001KA1240M+03261MA1999999099381MD1999999+0051REMSYN082AAXX  15004 82571 32997 02302 10252 20221 39938 40136 333 10326 29070 55094 58005;EQDQ01  00002PRCP06
0186825710999992003061512004-05500-045270FM-12+017499999V0201401N001012200019N0100001N1+02651+02181101541ADDAA106000091GF102991001001999999001011KA1240N+02071MA1999999099561MD1999999+0041REMSYN076AAXX  15124 82571 32997 21402 10265 20218 39956 40154 80001 333 20207 58004;EQDQ01  00002PRCP06
0167825710999992003061518004-05500-045270FM-12+017499999V0200901N001012200019N0100001N1+03221+02111101241ADDAA106000091GF103991021021004501001011MA1999999099281MD1999999+0101REMSYN070AAXX  15184 82571 32497 30902 10322 20211 39928 40124 82201 333 58010;EQDQ01  00002PRCP06
0208825710999992003061600004-05500-045270FM-12+017499999V0209999C000012200019N0100001N1+02571+02311101351ADDAA106000091GA1001+999999999GF100991001001999999001001KA1240M+03271MA1999999099381MD1999999+0001REMSYN082AAXX  16004 82571 32997 00000 10257 20231 39938 40135 333 10327 29074 55104 58000;EQDQ01  00002PRCP06
0186825710999992003061612004-05500-045270FM-12+017499999V0200501N001010042019N0100001N1+02451+02321101671ADDAA106000091GF108991081051004501999999KA1240N+02311MA1999999099681MD1999999+0121REMSYN076AAXX  16124 82571 32497 80502 10245 20232 39968 40167 885// 333 20231 58012;EQDQ01  00002PRCP06
0171825710999992003061618004-05500-045270FM-12+017499999V0201401N002110450019N0100001N1+02891+02371101311ADDAY161061AY221061GF106991031051004501031001MA1999999099341MD1999999+0061MW1011REMSYN082AAXX  16184 82571 21497 61404 10289 20237 39934 40131 70162 83530 333 58006 60021;
0202825710999992003061700004-05500-045270FM-12+017499999V0209999C000010150019N0100001N1+02531+02441101501ADDAY161061AY211061GF105991051001017501051001KA1240M+03011MA1999999099511MD1999999+0131MW1031REMSYN100AAXX  17004 82571 21797 50000 10253 20244 39951 40150 70361 85050 333 10301 29088 55007 58013 69941;
0162825710999992003061712004-05500-045270FM-12+017499999V0201401N001010450019N0100001N1+02591+02311101601ADDGF105991041021004501031001KA1240N+02331MA1999999099621MD1999999-0061REMSYN082AAXX  17124 82571 22497 51402 10259 20231 39962 40160 84230 333 20233 59006 60034;
0167825710999992003061718004-05500-045270FM-12+017499999V0200701N002110450019N0100001N1+02911+02271101291ADDAA106000091GF106991021021004501051001MA1999999099321MD1999999-0021REMSYN070AAXX  17184 82571 32497 60704 10291 20227 39932 40129 82250 333 59002;EQDQ01  00002PRCP06
0198825710999992003061800004-05500-045270FM-12+017499999V0209999C000012200019N0100001N1+02501+02381101441ADDAA106000091GF103991031001017501031001KA1240M+02981MA1999999099461MD1999999-0051REMSYN088AAXX  18004 82571 32797 30000 10250 20238 39946 40144 83030 333 10298 29084 55034 59005;EQDQ01  00002PRCP06
0224825710999992003061812004-05500-045270FM-12+017499999V0201101N001012200019N0100001N1+02741+02191101611ADDAA106000091AY141061AY201061GA1001+999999999GF100991001001999999001001KA1240N+02241MA1999999099631MD1999999+0011MW1021REMSYN076AAXX  18124 82571 31497 01102 10274 20219 39963 40161 70240 333 20224 58001;EQDQ01  00002PRCP06
0137825710999992003061818004-05500-045270FM-12+017499999V0200501N002112200019N0100001N1+03221+02051999999ADDAA106000091GF101991999999004501999999REMSYN069AAXX  18184 82571 32497 10504 10322 20205 3940 40136 81200 333 58008;EQDQ01  00002PRCP06
0208825710999992003061900004-05500-045270FM-12+017499999V0209999C000012200019N0100001N1+02551+02271101431ADDAA106000091GA1001+999999999GF100991001001999999001001KA1240M+03291MA1999999099461MD1999999+0001REMSYN082AAXX  19004 82571 32997 00000 10255 20227 39946 40143 333 10329 29072 55099 58000;EQDQ01  00002PRCP06
0186825710999992003061912004-05500-045270FM-12+017499999V0202301N001012200019N0100001N1+02491+02211101651ADDAA106000091GF101991011011004501001001KA1240N+02001MA1999999099661MD1999999+0031REMSYN076AAXX  19124 82571 32497 12302 10249 20221 39966 40165 81100 333 20200 58003;EQDQ01  00002PRCP06
0167825710999992003061918004-05500-045270FM-12+017499999V0201401N003112200019N0100001N1+03231+02161101291ADDAA106000091GF102991021021004501001001MA1999999099331MD1999999-0071REMSYN070AAXX  19184 82571 32497 21406 10323 20216 39933 40129 82200 333 59007;EQDQ01  00002PRCP06
0208825710999992003062000004-05500-045270FM-12+017499999V0209999C000012200019N0100001N1+02591+02311101521ADDAA106000091GA1001+999999999GF100991001001999999001001KA1240M+03331MA1999999099541MD1999999+0081REMSYN082AAXX  20004 82571 32997 00000 10259 20231 39954 40152 333 10333 29076 55102 58008;EQDQ01  00002PRCP06
0186825710999992003062012004-05500-045270FM-12+017499999V0203601N001010042019N0100001N1+02411+02301101671ADDAA106000091GF108991081051004501999999KA1240N+02141MA1999999099681MD1999999+0021REMSYN076AAXX  20124 82571 32497 83602 10241 20230 39968 40167 885// 333 20214 58002;EQDQ01  00002PRCP06
0167825710999992003062018004-05500-045270FM-12+017499999V0200501N003112200019N0100001N1+03171+02221101311ADDAA106000091GF102991021011004501001001MA1999999099351MD1999999+0021REMSYN070AAXX  20184 82571 32497 20506 10317 20222 39935 40131 82100 333 58002;EQDQ01  00002PRCP06
0208825710999992003062100004-05500-045270FM-12+017499999V0209999C000012200019N0100001N1+02571+02351101471ADDAA106000091GA1001+999999999GF100991001001999999001001KA1240M+03241MA1999999099481MD1999999-0061REMSYN082AAXX  21004 82571 32997 00000 10257 20235 39948 40147 333 10324 29081 55075 59006;EQDQ01  00002PRCP06
0186825710999992003062112004-05500-045270FM-12+017499999V0202301N001010042019N0100001N1+02351+02281101721ADDAA106000091GF108991081051004501999999KA1240N+02121MA1999999099731MD1999999+0051REMSYN076AAXX  21124 82571 32497 82302 10235 20228 39973 40172 885// 333 20212 58005;EQDQ01  00002PRCP06
0167825710999992003062118004-05500-045270FM-12+017499999V0201401N001012200019N0100001N1+03071+02271101371ADDAA106000091GF104991021031004501031001MA1999999099401MD1999999+0051REMSYN070AAXX  21184 82571 32497 41402 10307 20227 39940 40137 82330 333 58005;EQDQ01  00002PRCP06
0208825710999992003062200004-05500-045270FM-12+017499999V0209999C000012200019N0100001N1+02431+02231101551ADDAA106000091GA1001+999999999GF100991001001999999001001KA1240M+03151MA1999999099551MD1999999+0071REMSYN082AAXX  22004 82571 32997 00000 10243 20223 39955 40155 333 10315 29083 55040 58007;EQDQ01  00002PRCP06
0186825710999992003062212004-05500-045270FM-12+017499999V0200501N001010042019N0100001N1+02351+02241101681ADDAA106000091GF108991081051004501999999KA1240N+02171MA1999999099681MD1999999-0051REMSYN076AAXX  22124 82571 32497 80502 10235 20224 39968 40168 885// 333 20217 59005;EQDQ01  00002PRCP06
0186825710999992003062312004-05500-045270FM-12+017499999V0200501N001010042019N0100001N1+02531+02331101621ADDAA106000091GF107991071021004501001001KA1240N+02221MA1999999099641MD1999999-0041REMSYN076AAXX  23124 82571 32497 70502 10253 20233 39964 40162 87200 333 20222 59004;EQDQ01  00002PRCP06
0167825710999992003062318004-05500-045270FM-12+017499999V0200501N003112200019N0100001N1+03161+02261101251ADDAA106000091GF104991031021004501001011MA1999999099291MD1999999+0061REMSYN070AAXX  23184 82571 32497 40506 10316 20226 39929 40125 83201 333 58006;EQDQ01  00002PRCP06
0198825710999992003062400004-05500-045270FM-12+017499999V0200901N001012200019N0100001N1+02591+02371101511ADDAA106000091GF103991031001017501031001KA1240M+03241MA1999999099531MD1999999+0121REMSYN088AAXX  24004 82571 32797 30902 10259 20237 39953 40151 83030 333 10324 29080 55070 58012;EQDQ01  00002PRCP06
0214825710999992003062412004-05500-045270FM-12+017499999V0200701N001010042019N0100001N1+02491+02341101831ADDAA106000091AY141061AY211061GF106991051021004501011001KA1240N+02171MA1999999099841MD1999999+0201MW1031REMSYN082AAXX  24124 82571 31497 60702 10249 20234 39984 40183 70341 85210 333 20217 58020;EQDQ01  00002PRCP06
0167825710999992003062418004-05500-045270FM-12+017499999V0200901N004112200019N0100001N1+03171+02131101411ADDAA106000091GF104991021021004501011011MA1999999099451MD1999999+0161REMSYN070AAXX  24184 82571 32497 40908 10317 20213 39945 40141 82211 333 58016;EQDQ01  00002PRCP06
0208825710999992003062500004-05500-045270FM-12+017499999V0200501N002112200019N0100001N1+02551+02211101591ADDAA106000091GA1001+999999999GF100991001001999999001001KA1240M+03251MA1999999099601MD1999999+0071REMSYN082AAXX  25004 82571 32997 00504 10255 20221 39960 40159 333 10325 29077 55083 58007;EQDQ01  00002PRCP06
0186825710999992003062512004-05500-045270FM-12+017499999V0201601N001012200019N0100001N1+02531+02191101811ADDAA106000091GF101991011011004501001001KA1240N+01981MA1999999099821MD1999999-0021REMSYN076AAXX  25124 82571 32497 11602 10253 20219 39982 40181 81100 333 20198 59002;EQDQ01  00002PRCP06
0167825710999992003062518004-05500-045270FM-12+017499999V0201401N003112200019N0100001N1+03191+02091101361ADDAA106000091GF103991031021004501001001MA1999999099391MD1999999-0061REMSYN070AAXX  25184 82571 32497 31406 10319 20209 39939 40136 83200 333 59006;EQDQ01  00002PRCP06
0208825710999992003062600004-05500-045270FM-12+017499999V0209999C000012200019N0100001N1+02571+02331101501ADDAA106000091GA1001+999999999GF100991001001999999001001KA1240M+03251MA1999999099521MD1999999-0081REMSYN082AAXX  26004 82571 32997 00000 10257 20233 39952 40150 333 10325 29076 55102 59008;EQDQ01  00002PRCP06
0186825710999992003062612004-05500-045270FM-12+017499999V0200901N001012200019N0100001N1+02561+02151101691ADDAA106000091GF101991011021004501001001KA1240N+02051MA1999999099701MD1999999-0121REMSYN076AAXX  26124 82571 32497 10902 10256 20215 39970 40169 81200 333 20205 59012;EQDQ01  00002PRCP06
0167825710999992003062618004-05500-045270FM-12+017499999V0200901N003112200019N0100001N1+03201+01891101291ADDAA106000091GF103991031021004501001001MA1999999099331MD1999999-0061REMSYN070AAXX  26184 82571 32497 30906 10320 20189 39933 40129 83200 333 59006;EQDQ01  00002PRCP06
0208825710999992003062700004-05500-045270FM-12+017499999V0209999C000012200019N0100001N1+02521+02191101461ADDAA106000091GA1001+999999999GF100991001001999999001001KA1240M+03261MA1999999099481MD1999999-0041REMSYN082AAXX  27004 82571 32997 00000 10252 20219 39948 40146 333 10326 29072 55104 59004;EQDQ01  00002PRCP06
0196825710999992003062712004-05500-045270FM-12+017499999V0201101N002112200019N0100001N1+02571+01971101691ADDAA106000091GA1001+999999999GF100991001001999999001001KA1240N+01921MA1999999099701MD1999999+0001REMSYN070AAXX  27124 82571 32997 01104 10257 20197 39970 40169 333 20192 58000;EQDQ01  00002PRCP06
0167825710999992003062718004-05500-045270FM-12+017499999V0200901N003112200019N0100001N1+03181+01801101301ADDAA106000091GF101991011011004501001001MA1999999099341MD1999999+0011REMSYN070AAXX  27184 82571 32497 10906 10318 20180 39934 40130 81100 333 58001;EQDQ01  00002PRCP06
0208825710999992003062800004-05500-045270FM-12+017499999V0209999C000012200019N0100001N1+02451+02031101551ADDAA106000091GA1001+999999999GF100991001001999999001001KA1240M+03251MA1999999099561MD1999999+0081REMSYN082AAXX  28004 82571 32997 00000 10245 20203 39956 40155 333 10325 29067 55104 58008;EQDQ01  00002PRCP06
0196825710999992003062812004-05500-045270FM-12+017499999V0200901N001012200019N0100001N1+02381+01911101771ADDAA106000091GA1001+999999999GF100991001001999999001001KA1240N+01751MA1999999099781MD1999999+0071REMSYN070AAXX  28124 82571 32997 00902 10238 20191 39978 40177 333 20175 58007;EQDQ01  00002PRCP06
0167825710999992003062818004-05500-045270FM-12+017499999V0200901N001012200019N0100001N1+03221+01911101381ADDAA106000091GF102991021021004501001001MA1999999099411MD1999999+0071REMSYN070AAXX  28184 82571 32497 20902 10322 20191 39941 40138 82200 333 58007;EQDQ01  00002PRCP06
0208825710999992003062900004-05500-045270FM-12+017499999V0209999C000012200019N0100001N1+02511+02071101561ADDAA106000091GA1001+999999999GF100991001001999999001001KA1240M+03281MA1999999099571MD1999999+0011REMSYN082AAXX  29004 82571 32997 00000 10251 20207 39957 40156 333 10328 29068 55103 58001;EQDQ01  00002PRCP06
0196825710999992003062912004-05500-045270FM-12+017499999V0200901N001012200019N0100001N1+02491+01981101731ADDAA106000091GA1001+999999999GF100991001001999999001001KA1240N+01821MA1999999099741MD1999999-0031REMSYN070AAXX  29124 82571 32997 00902 10249 20198 39974 40173 333 20182 59003;EQDQ01  00002PRCP06
0167825710999992003062918004-05500-045270FM-12+017499999V0200701N003112200019N0100001N1+03251+02021101351ADDAA106000091GF102991021021004501001001MA1999999099381MD1999999-0031REMSYN070AAXX  29184 82571 32497 20706 10325 20202 39938 40135 82200 333 59003;EQDQ01  00002PRCP06
0208825710999992003063000004-05500-045270FM-12+017499999V0209999C000012200019N0100001N1+02561+02151101531ADDAA106000091GA1001+999999999GF100991001001999999001001KA1240M+03331MA1999999099541MD1999999-0031REMSYN082AAXX  30004 82571 32997 00000 10256 20215 39954 40153 333 10333 29069 55104 59003;EQDQ01  00002PRCP06
0186825710999992003063012004-05500-045270FM-12+017499999V0200201N001012200019N0100001N1+02551+02151101761ADDAA106000091GF102991011011004501031001KA1240N+01901MA1999999099771MD1999999+0031REMSYN076AAXX  30124 82571 32497 20202 10255 20215 39977 40176 81130 333 20190 58003;EQDQ01  00002PRCP06
0167825710999992003063018004-05500-045270FM-12+017499999V0200901N003112200019N0100001N1+03261+02081101361ADDAA106000091GF103991031021004501001001MA1999999099401MD1999999+0021REMSYN070AAXX  30184 82571 32497 30906 10326 20208 39940 40136 83200 333 58002;EQDQ01  00002PRCP06
0208825710999992003070100004-05500-045270FM-12+017499999V0209999C000012200019N0100001N1+02571+02251101511ADDAA106000091GA1001+999999999GF100991001001999999001001KA1240M+03321MA1999999099531MD1999999-0011REMSYN082AAXX  01004 82571 32997 00000 10257 20225 39953 40151 333 10332 29073 55104 59001;EQDQ01  00002PRCP06
0186825710999992003070112004-05500-045270FM-12+017499999V0201101N002112200019N0100001N1+02641+01931101771ADDAA106000091GF101991011001017501011001KA1240N+01911MA1999999099791MD1999999+0021REMSYN076AAXX  01124 82571 32797 11104 10264 20193 39979 40177 81010 333 20191 58002;EQDQ01  00002PRCP06
0167825710999992003070118004-05500-045270FM-12+017499999V0201401N002111050019N0100001N1+03181+01801101451ADDAA106000091GF105991011011004501011011MA1999999099481MD1999999+0081REMSYN070AAXX  01184 82571 32497 51404 10318 20180 39948 40145 81111 333 58008;EQDQ01  00002PRCP06
0198825710999992003070200004-05500-045270FM-12+017499999V0209999C000012200019N0100001N1+02531+02231101581ADDAA106000091GF104991041001017501051001KA1240M+03221MA1999999099601MD1999999+0071REMSYN088AAXX  02004 82571 32797 40000 10253 20223 39960 40158 84050 333 10322 29069 55099 58007;EQDQ01  00002PRCP06
0186825710999992003070212004-05500-045270FM-12+017499999V0201401N002110150019N0100001N1+02461+01991101791ADDAA106000091GF107991071001017501051001KA1240N+02301MA1999999099801MD1999999+0011REMSYN076AAXX  02124 82571 32797 71404 10246 20199 39980 40179 87050 333 20230 58001;EQDQ01  00002PRCP06
0167825710999992003070218004-05500-045270FM-12+017499999V0201401N004112200019N0100001N1+03211+01731101371ADDAA106000091GF101991011001004501011001MA1999999099411MD1999999-0071REMSYN070AAXX  02184 82571 32497 11408 10321 20173 39941 40137 81010 333 59007;EQDQ01  00002PRCP06
0208825710999992003070300004-05500-045270FM-12+017499999V0209999C000012200019N0100001N1+02501+02001101591ADDAA106000091GA1001+999999999GF100991001001999999001001KA1240M+03301MA1999999099601MD1999999+0001REMSYN082AAXX  03004 82571 32997 00000 10250 20200 39960 40159 333 10330 29066 55081 58000;EQDQ01  00002PRCP06
0186825710999992003070312004-05500-045270FM-12+017499999V0201601N001012200019N0100001N1+02641+02031101741ADDAA106000091GF104991031001017501031011KA1240N+02211MA1999999099751MD1999999-0051REMSYN076AAXX  03124 82571 32797 41602 10264 20203 39975 40174 83031 333 20221 59005;EQDQ01  00002PRCP06
0167825710999992003070318004-05500-045270FM-12+017499999V0200901N001010450019N0100001N1+03241+02031101351ADDAA106000091GF106991031021004501031001MA1999999099391MD1999999-0021REMSYN070AAXX  03184 82571 32497 60902 10324 20203 39939 40135 83230 333 59002;EQDQ01  00002PRCP06
0208825710999992003070400004-05500-045270FM-12+017499999V0209999C000012200019N0100001N1+02651+02291101491ADDAA106000091GA1001+999999999GF100991001001999999001001KA1240M+03351MA1999999099521MD1999999-0081REMSYN082AAXX  04004 82571 32997 00000 10265 20229 39952 40149 333 10335 29070 55073 59008;EQDQ01  00002PRCP06
0196825710999992003070412004-05500-045270FM-12+017499999V0200501N001012200019N0100001N1+02551+02111101631ADDAA106000091GA1001+999999999GF100991001001999999001001KA1240N+02001MA1999999099651MD1999999-0101REMSYN070AAXX  04124 82571 32997 00502 10255 20211 39965 40163 333 20200 59010;EQDQ01  00002PRCP06
0167825710999992003070418004-05500-045270FM-12+017499999V0200501N001012200019N0100001N1+03291+02021101191ADDAA106000091GF102991021011004501001001MA1999999099241MD1999999-0151REMSYN070AAXX  04184 82571 32497 20502 10329 20202 39924 40119 82100 333 59015;EQDQ01  00002PRCP06
0208825710999992003070500004-05500-045270FM-12+017499999V0202301N001012200019N0100001N1+02621+02241101331ADDAA106000091GA1001+999999999GF100991001001999999001001KA1240M+03421MA1999999099361MD1999999-0161REMSYN082AAXX  05004 82571 32997 02302 10262 20224 39936 40133 333 10342 29070 55100 59016;EQDQ01  00002PRCP06
0186825710999992003070512004-05500-045270FM-12+017499999V0200501N001012200019N0100001N1+02451+02191101571ADDAA106000091GF102991021041004501001001KA1240N+02061MA1999999099591MD1999999-0061REMSYN076AAXX  05124 82571 32497 20502 10245 20219 39959 40157 82400 333 20206 59006;EQDQ01  00002PRCP06
0167825710999992003070518004-05500-045270FM-12+017499999V0201801N001012200019N0100001N1+03191+01861101191ADDAA106000091GF103991011011004501001011MA1999999099241MD1999999+0001REMSYN070AAXX  05184 82571 32497 31802 10319 20186 39924 40119 81101 333 58000;EQDQ01  00002PRCP06
0208825710999992003070600004-05500-045270FM-12+017499999V0209999C000012200019N0100001N1+02521+02171101331ADDAA106000091GA1001+999999999GF100991001001999999001001KA1240M+03301MA1999999099351MD1999999-0011REMSYN082AAXX  06004 82571 32997 00000 10252 20217 39935 40133 333 10330 29073 55092 59001;EQDQ01  00002PRCP06
0186825710999992003070612004-05500-045270FM-12+017499999V0200501N001010042019N0100001N1+02331+02151101581ADDAA106000091GF108991081051004501999999KA1240N+01851MA1999999099581MD1999999-0011REMSYN076AAXX  06124 82571 32497 80502 10233 20215 39958 40158 885// 333 20185 59001;EQDQ01  00002PRCP06
0177825710999992003070618004-05500-045270FM-12+017499999V0200501N001012200019N0100001N1+03211+01521101281ADDAA106000091GA1001+999999999GF100991001001999999001001MA1999999099321MD1999999+0081REMSYN064AAXX  06184 82571 32997 00502 10321 20152 39932 40128 333 58008;EQDQ01  00002PRCP06
0208825710999992003070700004-05500-045270FM-12+017499999V0209999C000012200019N0100001N1+02391+01861101431ADDAA106000091GA1001+999999999GF100991001001999999001001KA1240M+03281MA1999999099341MD1999999+0081REMSYN082AAXX  07004 82571 32997 00000 10239 20186 39934 40143 333 10328 29067 55081 58008;EQDQ01  00002PRCP06
0186825710999992003070712004-05500-045270FM-12+017499999V0203601N001012200019N0100001N1+02271+01811101571ADDAA106000091GF102991021041004501001001KA1240N+01591MA1999999099571MD1999999-0011REMSYN076AAXX  07124 82571 32497 23602 10227 20181 39957 40157 82400 333 20159 59001;EQDQ01  00002PRCP06
0183825710999992003070718004-05500-045270FM-12+017499999V0201601N001012200019N0100001N1+03211+01951101311ADDAA106000091GF103991999021004501001001MA1999999099341MD1999999+0021REMSYN070AAXX  07184 82571 32497 31602 10321 20195 39934 40131 82200 333 58002;EQDQ01+000022SCOTLCQ02  00002PRCP06
0208825710999992003070800004-05500-045270FM-12+017499999V0209999C000012200019N0100001N1+02481+02111101421ADDAA106000091GA1001+999999999GF100991001001999999001001KA1240M+03301MA1999999099431MD1999999+0001REMSYN082AAXX  08004 82571 32997 00000 10248 20211 39943 40142 333 10330 29070 55104 58000;EQDQ01  00002PRCP06
0186825710999992003070812004-05500-045270FM-12+017499999V0202301N001010042019N0100001N1+02231+02091101641ADDAA106000091GF108991081051004501999999KA1240N+01951MA1999999099641MD1999999+0071REMSYN076AAXX  08124 82571 32497 82302 10223 20209 39964 40164 885// 333 20195 58007;EQDQ01  00002PRCP06
0167825710999992003070818004-05500-045270FM-12+017499999V0201401N003112200019N0100001N1+03151+01961101251ADDAA106000091GF102991021021004501001001MA1999999099291MD1999999-0051REMSYN070AAXX  08184 82571 32497 21406 10315 20196 39929 40125 82200 333 59005;EQDQ01  00002PRCP06
0186825710999992003070912004-05500-045270FM-12+017499999V0201401N001010450019N0100001N1+02541+02131101551ADDAA106000091GF106991031021004501031001KA1240N+02371MA1999999099561MD1999999-0081REMSYN076AAXX  09124 82571 32497 61402 10254 20213 39956 40155 83230 333 20237 59008;EQDQ01  00002PRCP06
0208825710999992003071000004-05500-045267FM-12+017499999V0201401N001012200019N0100001N1+02551+02211101511ADDAA106000091GA1001+999999999GF100991001001999999001001KA1240M+03301MA1999999099531MD1999999+0111REMSYN082AAXX  10004 82571 32997 01402 10255 20221 39953 40151 333 10330 29071 55097 58011;EQDQ01  00002PRCP06
0171825710999992003071012004-05500-045267FM-12+017499999V0201401N001012200019N0100001N1+02521+02071101621ADDAA106000091GF102991999999999999999999KA1240N+01701MA1999999099641REMSYN075AAXX  10124 82571 32997 21402 10252 20207 39964 40162 8001 333 20170 58008;EQDQ01  00002PRCP06
0183825710999992003071018004-05500-045267FM-12+017499999V0203601N001012200019N0100001N1+03351+01601101271ADDAA106000091GF102991001001999999001011MA1999999099311MD1999999+0021REMSYN070AAXX  10184 82571 32497 23602 10335 20160 39931 40127 80001 333 58002;EQDQ01+004502SCOLCBQ02  00002PRCP06
0208825710999992003071100004-05500-045267FM-12+017499999V0209999C000012200019N0100001N1+02391+01971101451ADDAA106000091GA1001+999999999GF100991001001999999001001KA1240M+03431MA1999999099461MD1999999-0071REMSYN082AAXX  11004 82571 32997 00000 10239 20197 39946 40145 333 10343 29066 55094 59007;EQDQ01  00002PRCP06
0190825710999992003071112004-05500-045267FM-12+017499999V0200501N001010042019N0100001N1+02171+02111101731ADDAY161061AY241061GF108991081051004501999999KA1240N+01641MA1999999099721MD1999999+0081MW1021REMSYN088AAXX  11124 82571 21497 80502 10217 20211 39972 40173 70264 885// 333 20164 58008 69914;
0167825710999992003071118004-05500-045267FM-12+017499999V0200501N001012200019N0100001N1+03251+01911101341ADDAA106000091GF102991021021004501001001MA1999999099371MD1999999+0061REMSYN070AAXX  11184 82571 32497 20502 10325 20191 39937 40134 82200 333 58006;EQDQ01  00002PRCP06
0208825710999992003071200004-05500-045267FM-12+017499999V0209999C000012200019N0100001N1+02521+02091101541ADDAA106000091GA1001+999999999GF100991001001999999001001KA1240M+03331MA1999999099541MD1999999+0081REMSYN082AAXX  12004 82571 32997 00000 10252 20209 39954 40154 333 10333 29074 55066 58008;EQDQ01  00002PRCP06
0186825710999992003071212004-05500-045267FM-12+017499999V0200901N001010042019N0100001N1+02351+02151101841ADDAA106000091GF108991081051004501999999KA1240N+01871MA1999999099841MD1999999+0121REMSYN076AAXX  12124 82571 32497 80902 10235 20215 39984 40184 885// 333 20187 58012;EQDQ01  00002PRCP06
0167825710999992003071218004-05500-045267FM-12+017499999V0203601N003112200019N0100001N1+03171+02101101471ADDAA106000091GF103991021021004501031001MA1999999099501MD1999999+0131REMSYN070AAXX  12184 82571 32497 33606 10317 20210 39950 40147 82230 333 58013;EQDQ01  00002PRCP06
0186825710999992003071312004-05500-045267FM-12+017499999V0201401N005112200019N0100001N1+02691+01961101761ADDAA106000091GF102991021091004501001001KA1240N+02251MA1999999099781MD1999999-0061REMSYN076AAXX  13124 82571 32497 21410 10269 20196 39978 40176 82900 333 20225 59006;EQDQ01  00002PRCP06
0167825710999992003071318004-05500-045267FM-12+017499999V0200501N003112200019N0100001N1+03341+01711101351ADDAA106000091GF102991021011004501001001MA1999999099401MD1999999-0101REMSYN070AAXX  13184 82571 32497 20506 10334 20171 39940 40135 82100 333 59010;EQDQ01  00002PRCP06
0198825710999992003071400004-05500-045267FM-12+017499999V0209999C000012200019N0100001N1+02611+02031101621ADDAA106000091GF102991021021004501001001KA1240M+03421MA1999999099651MD1999999+0011REMSYN088AAXX  14004 82571 32497 20000 10261 20203 39965 40162 82200 333 10342 29060 55103 58001;EQDQ01  00002PRCP06
0196825710999992003071412004-05500-045267FM-12+017499999V0201401N025712200019N0100001N1+02581+01661101761ADDAA106000091GA1001+999999999GF100991001001999999001001KA1240N+01901MA1999999099781MD1999999+0001REMSYN070AAXX  14124 82571 32997 01450 10258 20166 39978 40176 333 20190 58000;EQDQ01  00002PRCP06
0167825710999992003071418004-05500-045267FM-12+017499999V0201401N001012200019N0100001N1+03241+01581101441ADDAA106000091GF102991021011004501001001MA1999999099481MD1999999+0081REMSYN070AAXX  14184 82571 32497 21402 10324 20158 39948 40144 82100 333 58008;EQDQ01  00002PRCP06
0208825710999992003071500004-05500-045267FM-12+017499999V0209999C000012200019N0100001N1+02541+02021101581ADDAA106000091GA1001+999999999GF100991001001999999001001KA1240M+03371MA1999999099601MD1999999-0051REMSYN082AAXX  15004 82571 32997 00000 10254 20202 39960 40158 333 10337 29060 55105 59005;EQDQ01  00002PRCP06
0196825710999992003071512004-05500-045267FM-12+017499999V0201401N005112200019N0100001N1+02521+01791101731ADDAA106000091GA1001+999999999GF100991001001999999001001KA1240N+01751MA1999999099741MD1999999-0041REMSYN070AAXX  15124 82571 32997 01410 10252 20179 39974 40173 333 20175 59004;EQDQ01  00002PRCP06
0167825710999992003071518004-05500-045267FM-12+017499999V0201401N001012200019N0100001N1+03311+01521101421ADDAA106000091GF101991011011004501001001MA1999999099451MD1999999-0031REMSYN070AAXX  15184 82571 32497 11402 10331 20152 39945 40142 81100 333 59003;EQDQ01  00002PRCP06
0208825710999992003071600004-05500-045267FM-12+017499999V0209999C000012200019N0100001N1+02431+01901101591ADDAA106000091GA1001+999999999GF100991001001999999001001KA1240M+03401MA1999999099601MD1999999+0001REMSYN082AAXX  16004 82571 32997 00000 10243 20190 39960 40159 333 10340 29060 55103 58000;EQDQ01  00002PRCP06
0196825710999992003071612004-05500-045267FM-12+017499999V0201401N001012200019N0100001N1+02471+01831101781ADDAA106000091GA1001+999999999GF100991001001999999001001KA1240N+01701MA1999999099781MD1999999+0041REMSYN070AAXX  16124 82571 32997 01402 10247 20183 39978 40178 333 20170 58004;EQDQ01  00002PRCP06
0167825710999992003071618004-05500-045267FM-12+017499999V0201401N003110450019N0100001N1+03271+01781101541ADDAA106000091GF105991031021004501031001MA1999999099571MD1999999+0121REMSYN070AAXX  16184 82571 32497 51406 10327 20178 39957 40154 83230 333 58012;EQDQ01  00002PRCP06
0208825710999992003071700004-05500-045267FM-12+017499999V0209999C000012200019N0100001N1+02541+02041101681ADDAA106000091GA1001+999999999GF100991001001999999001001KA1240M+03381MA1999999099691MD1999999+0091REMSYN082AAXX  17004 82571 32997 00000 10254 20204 39969 40168 333 10338 29064 55106 58009;EQDQ01  00002PRCP06
0196825710999992003071712004-05500-045267FM-12+017499999V0201401N003112200019N0100001N1+02641+01851101871ADDAA106000091GA1001+999999999GF100991001001999999001001KA1240N+01901MA1999999099891MD1999999+0111REMSYN070AAXX  17124 82571 32997 01406 10264 20185 39989 40187 333 20190 58011;EQDQ01  00002PRCP06
0167825710999992003071718004-05500-045267FM-12+017499999V0201401N005112200019N0100001N1+03251+01801101601ADDAA106000091GF102991021021004501001001MA1999999099631MD1999999+0061REMSYN070AAXX  17184 82571 32497 21410 10325 20180 39963 40160 82200 333 58006;EQDQ01  00002PRCP06
0208825710999992003071800004-05500-045267FM-12+017499999V0209999C000012200019N0100001N1+02571+02101101751ADDAA106000091GA1001+999999999GF100991001001999999001001KA1240M+03331MA1999999099771MD1999999+0081REMSYN082AAXX  18004 82571 32997 00000 10257 20210 39977 40175 333 10333 29064 55107 58008;EQDQ01  00002PRCP06
0186825710999992003071812004-05500-045267FM-12+017499999V0201401N005112200019N0100001N1+02651+01851101991ADDAA106000091GF102991021011004501001001KA1240N+01911MA1999999099991MD1999999+0101REMSYN076AAXX  18124 82571 32497 21410 10265 20185 39999 40199 82100 333 20191 58010;EQDQ01  00002PRCP06
0167825710999992003071818004-05500-045267FM-12+017499999V0200901N001012200019N0100001N1+03211+01881101701ADDAA106000091GF103991031021004501001001MA1999999099731MD1999999+0101REMSYN070AAXX  18184 82571 32497 30902 10321 20188 39973 40170 83200 333 58010;EQDQ01  00002PRCP06
0208825710999992003071900004-05500-045267FM-12+017499999V0209999C000012200019N0100001N1+02511+02091101771ADDAA106000091GA1001+999999999GF100991001001999999001001KA1240M+03301MA1999999099791MD1999999+0021REMSYN082AAXX  19004 82571 32997 00000 10251 20209 39979 40177 333 10330 29065 55106 58002;EQDQ01  00002PRCP06
0196825710999992003071912004-05500-045267FM-12+017499999V0201801N007212200019N0100001N1+02571+01801101971ADDAA106000091GA1001+999999999GF100991001001999999001001KA1240N+01801MA1999999099981MD1999999-0011REMSYN070AAXX  19124 82571 32997 01814 10257 20180 39998 40197 333 20180 59001;EQDQ01  00002PRCP06
0167825710999992003071918004-05500-045267FM-12+017499999V0201401N001012200019N0100001N1+03371+01871101621ADDAA106000091GF102991021021004501001001MA1999999099651MD1999999-0081REMSYN070AAXX  19184 82571 32497 21402 10337 20187 39965 40162 82200 333 59008;EQDQ01  00002PRCP06
0208825710999992003072000004-05500-045267FM-12+017499999V0209999C000012200019N0100001N1+02621+02031101711ADDAA106000091GA1001+999999999GF100991001001999999001001KA1240M+03471MA1999999099731MD1999999-0061REMSYN082AAXX  20004 82571 32997 00000 10262 20203 39973 40171 333 10347 29061 55103 59006;EQDQ01  00002PRCP06
0186825710999992003072012004-05500-045267FM-12+017499999V0200901N003112200019N0100001N1+02691+01861101861ADDAA106000091GF101991011011004501001001KA1240N+01951MA1999999099881MD1999999-0101REMSYN076AAXX  20124 82571 32497 10906 10269 20186 39988 40186 81100 333 20195 59010;EQDQ01  00002PRCP06
0167825710999992003072018004-05500-045267FM-12+017499999V0202301N001012200019N0100001N1+03231+01961101531ADDAA106000091GF106991041021004501001011MA1999999099561MD1999999-0091REMSYN070AAXX  20184 82571 32497 62302 10323 20196 39956 40153 84201 333 59009;EQDQ01  00002PRCP06
0196825710999992003072112004-05500-045267FM-12+017499999V0200901N003112200019N0100001N1+02591+01761101851ADDAA106000091GA1001+999999999GF100991001001999999001001KA1240N+01951MA1999999099871MD1999999-0011REMSYN070AAXX  21124 82571 32997 00906 10259 20176 39987 40185 333 20195 59001;EQDQ01  00002PRCP06
0167825710999992003072118004-05500-045267FM-12+017499999V0202301N001012200019N0100001N1+03351+01811101461ADDAA106000091GF102991021011004501001001MA1999999099501MD1999999-0061REMSYN070AAXX  21184 82571 32497 22302 10335 20181 39950 40146 82100 333 59006;EQDQ01  00002PRCP06
0208825710999992003072200004-05500-045267FM-12+017499999V0209999C000012200019N0100001N1+02611+01931101611ADDAA106000091GA1001+999999999GF100991001001999999001001KA1240M+03461MA1999999099631MD1999999-0011REMSYN082AAXX  22004 82571 32997 00000 10261 20193 39963 40161 333 10346 29058 55105 59001;EQDQ01  00002PRCP06
0196825710999992003072212004-05500-045267FM-12+017499999V0200501N001012200019N0100001N1+02491+01821101811ADDAA106000091GA1001+999999999GF100991001001999999001001KA1240N+01841MA1999999099821MD1999999-0051REMSYN070AAXX  22124 82571 32497 00502 10249 20182 39982 40181 333 20184 59005;EQDQ01  00002PRCP06
0167825710999992003072218004-05500-045267FM-12+017499999V0200501N003112200019N0100001N1+03311+01821101421ADDAA106000091GF103991031011004501001001MA1999999099461MD1999999-0041REMSYN070AAXX  22184 82571 32497 30506 10331 20182 39946 40142 83100 333 59004;EQDQ01  00002PRCP06
0208825710999992003072300004-05500-045267FM-12+017499999V0209999C000012200019N0100001N1+02521+02091101531ADDAA106000091GA1001+999999999GF100991001001999999001001KA1240M+03431MA1999999099541MD1999999-0091REMSYN082AAXX  23004 82571 32997 00000 10252 20209 39954 40153 333 10343 29065 55106 59009;EQDQ01  00002PRCP06
0196825710999992003072312004-05500-045267FM-12+017499999V0200901N001012200019N0100001N1+02621+01641101771ADDAA106000091GA1001+999999999GF100991001001999999001001KA1240N+01901MA1999999099781MD1999999-0041REMSYN070AAXX  23124 82571 32997 00902 10262 20164 39978 40177 333 20190 59004;EQDQ01  00002PRCP06
0167825710999992003072318004-05500-045267FM-12+017499999V0201401N005112200019N0100001N1+03341+01801101391ADDAA106000091GF101991011011004501001001MA1999999099431MD1999999-0031REMSYN070AAXX  23184 82571 32497 11410 10334 20180 39943 40139 81100 333 59003;EQDQ01  00002PRCP06
0208825710999992003072400004-05500-045267FM-12+017499999V0209999C000012200019N0100001N1+02571+01971101571ADDAA106000091GA1001+999999999GF100991001001999999001001KA1240M+03421MA1999999099591MD1999999+0051REMSYN082AAXX  24004 82571 32997 00000 10257 20197 39959 40157 333 10342 29058 55104 58005;EQDQ01  00002PRCP06
0196825710999992003072412004-05500-045267FM-12+017499999V0200501N001012200019N0100001N1+02491+01771101711ADDAA106000091GA1001+999999999GF100991001001999999001001KA1240N+01731MA1999999099721MD1999999-0061REMSYN070AAXX  24124 82571 32997 00502 10249 20177 39972 40171 333 20173 59006;EQDQ01  00002PRCP06
0167825710999992003072418004-05500-045267FM-12+017499999V0201401N003112200019N0100001N1+03331+01671101341ADDAA106000091GF102991021021004501001001MA1999999099381MD1999999-0051REMSYN070AAXX  24184 82571 32497 21406 10333 20167 39938 40134 82200 333 59005;EQDQ01  00002PRCP06
0198825710999992003072500004-05500-045267FM-12+017499999V0209999C000012200019N0100001N1+02531+02131101561ADDAA106000091GF102991021001017501031001KA1240M+03441MA1999999099571MD1999999-0021REMSYN088AAXX  25004 82571 32797 20000 10253 20213 39957 40156 82030 333 10344 29064 55103 59002;EQDQ01  00002PRCP06
0196825710999992003072512004-05500-045267FM-12+017499999V0201401N001012200019N0100001N1+02731+01781101721ADDAA106000091GA1001+999999999GF100991001001999999001001KA1240N+02001MA1999999099741MD1999999+0021REMSYN070AAXX  25124 82571 32997 01402 10273 20178 39974 40172 333 20200 58002;EQDQ01  00002PRCP06
0167825710999992003072518004-05500-045267FM-12+017499999V0201401N005112200019N0100001N1+03291+01871101421ADDAA106000091GF106991041021004501001011MA1999999099461MD1999999+0021REMSYN070AAXX  25184 82571 32497 61410 10329 20187 39946 40142 84201 333 58002;EQDQ01  00002PRCP06
0198825710999992003072600004-05500-045267FM-12+017499999V0209999C000012200019N0100001N1+02731+02211101571ADDAA106000091GF104991041001017501031001KA1240M+03451MA1999999099601MD1999999+0031REMSYN088AAXX  26004 82571 32797 40000 10273 20221 39960 40157 84030 333 10345 29061 55100 58003;EQDQ01  00002PRCP06
0196825710999992003072612004-05500-045267FM-12+017499999V0203601N003112200019N0100001N1+02791+01841101811ADDAA106000091GA1001+999999999GF100991001001999999001001KA1240N+02201MA1999999099841MD1999999+0101REMSYN070AAXX  26124 82571 32997 03606 10279 20184 39984 40181 333 20220 58010;EQDQ01  00002PRCP06
0167825710999992003072618004-05500-045267FM-12+017499999V0201401N003112200019N0100001N1+03451+01691101401ADDAA106000091GF103991031011004501001001MA1999999099451MD1999999-0011REMSYN070AAXX  26184 82571 32497 31406 10345 20169 39945 40140 83100 333 59001;EQDQ01  00002PRCP06
0208825710999992003072700004-05500-045267FM-12+017499999V0209999C000012200019N0100001N1+02721+02151101551ADDAA106000091GA1001+999999999GF100991001001999999001001KA1240M+03571MA1999999099581MD1999999-0021REMSYN082AAXX  27004 82571 32997 00000 10272 20215 39958 40155 333 10357 29058 55107 59002;EQDQ01  00002PRCP06
0186825710999992003072712004-05500-045267FM-12+017499999V0200501N001012200019N0100001N1+02571+02101101771ADDAA106000091GF104991031001017501031011KA1240N+02181MA1999999099791MD1999999-0051REMSYN076AAXX  27124 82571 32797 40502 10257 20210 39979 40177 83031 333 20218 59005;EQDQ01  00002PRCP06
0167825710999992003072718004-05500-045267FM-12+017499999V0200901N003112200019N0100001N1+03431+01841101341ADDAA106000091GF104991021021004501031001MA1999999099391MD1999999-0061REMSYN070AAXX  27184 82571 32497 40906 10343 20184 39939 40134 82230 333 59006;EQDQ01  00002PRCP06
0208825710999992003072800004-05500-045267FM-12+017499999V0209999C000012200019N0100001N1+02771+02111101521ADDAA106000091GA1001+999999999GF100991001001999999001001KA1240M+03521MA1999999099551MD1999999-0031REMSYN082AAXX  28004 82571 32997 00000 10277 20211 39955 40152 333 10352 29062 55084 59003;EQDQ01  00002PRCP06
0186825710999992003072812004-05500-045267FM-12+017499999V0201401N001012200019N0100001N1+02571+01721101751ADDAA106000091GF102991021001017501031001KA1240N+02041MA1999999099771MD1999999-0021REMSYN076AAXX  28124 82571 32797 21402 10257 20172 39977 40175 82030 333 20204 59002;EQDQ01  00002PRCP06
0167825710999992003072818004-05500-045267FM-12+017499999V0200501N001010450019N0100001N1+03371+01621101371ADDAA106000091GF106991021051004501031001MA1999999099421MD1999999+0031REMSYN070AAXX  28184 82571 32497 60502 10337 20162 39942 40137 82530 333 58003;EQDQ01  00002PRCP06
0208825710999992003072900004-05500-045267FM-12+017499999V0209999C000012200019N0100001N1+02531+02061101541ADDAA106000091GA1001+999999999GF100991001001999999001001KA1240M+03451MA1999999099561MD1999999+0011REMSYN082AAXX  29004 82571 32997 00000 10253 20206 39956 40154 333 10345 29061 55082 58001;EQDQ01  00002PRCP06
0186825710999992003072912004-05500-045267FM-12+017499999V0200501N003112200019N0100001N1+02591+01761101811ADDAA106000091GF102991011001017501031011KA1240N+01881MA1999999099821MD1999999+0051REMSYN076AAXX  29124 82571 32797 20506 10259 20176 39982 40181 81031 333 20188 58005;EQDQ01  00002PRCP06
0167825710999992003072918004-05500-045267FM-12+017499999V0201401N001012200019N0100001N1+03411+01831101471ADDAA106000091GF102991021021004501001001MA1999999099511MD1999999+0091REMSYN070AAXX  29184 82571 32497 21402 10341 20183 39951 40147 82200 333 58009;EQDQ01  00002PRCP06
0208825710999992003073000004-05500-045267FM-12+017499999V0209999C000012200019N0100001N1+02661+01921101641ADDAA106000091GA1001+999999999GF100991001001999999001001KA1240M+03491MA1999999099661MD1999999+0101REMSYN082AAXX  30004 82571 32997 00000 10266 20192 39966 40164 333 10349 29067 55097 58010;EQDQ01  00002PRCP06
0196825710999992003073012004-05500-045267FM-12+017499999V0203201N001012200019N0100001N1+02671+02181101871ADDAA106000091GA1001+999999999GF100991001001999999001001KA1240N+01971MA1999999099891MD1999999+0071REMSYN070AAXX  30124 82571 32997 03202 10267 20218 39989 40187 333 20197 58007;EQDQ01  00002PRCP06
0167825710999992003073018004-05500-045267FM-12+017499999V0201801N001012200019N0100001N1+03391+01811101481ADDAA106000091GF102991021021004501001001MA1999999099521MD1999999+0011REMSYN070AAXX  30184 82571 32497 21802 10339 20181 39952 40148 82200 333 58001;EQDQ01  00002PRCP06
0208825710999992003073100004-05500-045267FM-12+017499999V0209999C000012200019N0100001N1+02731+02051101591ADDAA106000091GA1001+999999999GF100991001001999999001001KA1240M+03471MA1999999099621MD1999999-0041REMSYN082AAXX  31004 82571 32997 00000 10273 20205 39962 40159 333 10347 29061 55107 59004;EQDQ01  00002PRCP06
0186825710999992003073112004-05500-045267FM-12+017499999V0200201N001012200019N0100001N1+02511+02171101771ADDAA106000091GF103991031021004501001001KA1240N+02031MA1999999099791MD1999999-0101REMSYN076AAXX  31124 82571 32497 30202 10251 20217 39979 40177 83200 333 20203 59010;EQDQ01  00002PRCP06
0167825710999992003073118004-05500-045267FM-12+017499999V0201401N001012200019N0100001N1+03371+01871101361ADDAA106000091GF103991031021004501001001MA1999999099411MD1999999-0111REMSYN070AAXX  31184 82571 32497 31402 10337 20187 39941 40136 83200 333 59011;EQDQ01  00002PRCP06
0208825710999992003080100004-05500-045267FM-12+017499999V0209999C000012200019N0100001N1+02691+01991101471ADDAA106000091GA1001+999999999GF100991001001999999001001KA1240M+03511MA1999999099491MD1999999-0131REMSYN082AAXX  01004 82571 32997 00000 10269 20199 39949 40147 333 10351 29063 55089 59013;EQDQ01  00002PRCP06
0214825710999992003080112004-05500-045267FM-12+017499999V0201401N001010042019N0100001N1+02171+02111101731ADDAA106000091AY141061AY221061GF108991081051004501999999KA1240N+01881MA1999999099741MD1999999-0051MW1021REMSYN082AAXX  01124 82571 31497 81402 10217 20211 39974 40173 70242 885// 333 20188 59005;EQDQ01  00002PRCP06
0183825710999992003080118004-05500-045267FM-12+017499999V0200501N001019999999N0100001N1+03281+02001101371ADDAA106000091GF105991999011004501001001MA1999999099411MD1999999+0001REMSYN070AAXX  01184 82571 32497 50502 10328 20200 39941 40137 82100 333 58000;EQDQ01+000022SCOTLCQ02  00002PRCP06
0208825710999992003080200004-05500-045267FM-12+017499999V0209999C000012200019N0100001N1+02571+02121101501ADDAA106000091GA1001+999999999GF100991001001999999001001KA1240M+03371MA1999999099501MD1999999+0011REMSYN082AAXX  02004 82571 32997 00000 10257 20212 39950 40150 333 10337 29074 55077 58001;EQDQ01  00002PRCP06
0167825710999992003080218004-05500-045267FM-12+017499999V0200901N003112200019N0100001N1+03471+01841101391ADDAA106000091GF102991021021004501001001MA1999999099431MD1999999+0031REMSYN070AAXX  02184 82571 32497 20906 10347 20184 39943 40139 82200 333 58003;EQDQ01  00002PRCP06
0208825710999992003080300004-05500-045267FM-12+017499999V0209999C000012200019N0100001N1+02771+02091101521ADDAA106000091GA1001+999999999GF100991001001999999001001KA1240M+03571MA1999999099451MD1999999+0041REMSYN082AAXX  03004 82571 32997 00000 10277 20209 39945 40152 333 10357 29063 55090 58004;EQDQ01  00002PRCP06
0186825710999992003080312004-05500-045267FM-12+017499999V0200701N003112200019N0100001N1+02581+02211101731ADDAA106000091GF102991021021004501001001KA1240N+01961MA1999999099761MD1999999-0011REMSYN076AAXX  03124 82571 32497 20706 10258 20221 39976 40173 82200 333 20196 59001;EQDQ01  00002PRCP06
0167825710999992003080318004-05500-045267FM-12+017499999V0201401N001012200019N0100001N1+03471+01791101381ADDAA106000091GF102991021011004501001001MA1999999099431MD1999999+0001REMSYN070AAXX  03184 82571 32497 21402 10347 20179 39943 40138 82100 333 58000;EQDQ01  00002PRCP06
0208825710999992003080400004-05500-045267FM-12+017499999V0209999C000012200019N0100001N1+02731+01951101531ADDAA106000091GA1001+999999999GF100991001001999999001001KA1240M+03521MA1999999099561MD1999999+0021REMSYN082AAXX  04004 82571 32997 00000 10273 20195 39956 40153 333 10352 29060 55093 58002;EQDQ01  00002PRCP06
0186825710999992003080412004-05500-045267FM-12+017499999V0201601N001012200019N0100001N1+02661+02071101701ADDAA106000091GF101991011011004501001001KA1240N+02041MA1999999099731MD1999999-0031REMSYN076AAXX  04124 82571 32497 11602 10266 20207 39973 40170 81100 333 20204 59003;EQDQ01  00002PRCP06
0167825710999992003080418004-05500-045267FM-12+017499999V0201601N002112200019N0100001N1+03451+01691101241ADDAA106000091GF103991031021004501001001MA1999999099291MD1999999-0141REMSYN070AAXX  04184 82571 32497 31604 10345 20169 39929 40124 83200 333 59014;EQDQ01  00002PRCP06
0208825710999992003080500004-05500-045267FM-12+017499999V0200701N001012200019N0100001N1+02771+01961101431ADDAA106000091GA1001+999999999GF100991001001999999001001KA1240M+03551MA1999999099461MD1999999-0101REMSYN082AAXX  05004 82571 32997 00702 10277 20196 39946 40143 333 10355 29057 55098 59010;EQDQ01  00002PRCP06
0186825710999992003080512004-05500-045267FM-12+017499999V0200901N002112200019N0100001N1+02671+02131101691ADDAA106000091GF101991011011004501001001KA1240N+01971MA1999999099721MD1999999-0011REMSYN076AAXX  05124 82571 32497 10904 10267 20213 39972 40169 81100 333 20197 59001;EQDQ01  00002PRCP06
0167825710999992003080518004-05500-045267FM-12+017499999V0200901N002112200019N0100001N1+03461+01861101251ADDAA106000091GF101991011011004501001001MA1999999099301MD1999999+0011REMSYN070AAXX  05184 82571 32497 10904 10346 20186 39930 40125 81100 333 58001;EQDQ01  00002PRCP06
0208825710999992003080600004-05500-045267FM-12+017499999V0200701N001012200019N0100001N1+02731+01921101471ADDAA106000091GA1001+999999999GF100991001001999999001001KA1240M+03541MA1999999099501MD1999999+0041REMSYN082AAXX  06004 82571 32997 00702 10273 20192 39950 40147 333 10354 29058 55101 58004;EQDQ01  00002PRCP06
0167825710999992003080618004-05500-045267FM-12+017499999V0201401N003112200019N0100001N1+03491+01631101261ADDAA106000091GF103991031021004501001001MA1999999099311MD1999999+0011REMSYN070AAXX  06184 82571 32497 31406 10349 20163 39931 40126 83200 333 58001;EQDQ01  00002PRCP06
0208825710999992003080700004-05500-045267FM-12+017499999V0200701N002112200019N0100001N1+02721+01771101431ADDAA106000091GA1001+999999999GF100991001001999999001001KA1240M+03571MA1999999099461MD1999999-0041REMSYN082AAXX  07004 82571 32997 00704 10272 20177 39946 40143 333 10357 29054 55098 59004;EQDQ01  00002PRCP06
0186825710999992003080712004-05500-045267FM-12+017499999V0200901N001010042019N0100001N1+02511+02191101711ADDAA106000091GF106991061021004501001001KA1240N+01911MA1999999099731MD1999999-0061REMSYN076AAXX  07124 82571 32497 60902 10251 20219 39973 40171 86200 333 20191 59006;EQDQ01  00002PRCP06
0167825710999992003080718004-05500-045267FM-12+017499999V0201601N001012200019N0100001N1+03511+01651101251ADDAA106000091GF103991031021004501001001MA1999999099301MD1999999-0011REMSYN070AAXX  07184 82571 32497 31602 10351 20165 39930 40125 83200 333 59001;EQDQ01  00002PRCP06
0208825710999992003080800004-05500-045267FM-12+017499999V0209999C000012200019N0100001N1+02761+01941101431ADDAA106000091GA1001+999999999GF100991001001999999001001KA1240M+03601MA1999999099461MD1999999+0001REMSYN082AAXX  08004 82571 32997 00000 10276 20194 39946 40143 333 10360 29059 55089 58000;EQDQ01  00002PRCP06
0186825710999992003080812004-05500-045267FM-12+017499999V0200701N002110042019N0100001N1+02611+02211101631ADDAA106000091GF106991061021004501001001KA1240N+02051MA1999999099661MD1999999-0071REMSYN076AAXX  08124 82571 32497 60704 10261 20221 39966 40163 86200 333 20205 59007;EQDQ01  00002PRCP06
0167825710999992003080818004-05500-045267FM-12+017499999V0201401N003112200019N0100001N1+03371+01911101171ADDAA106000091GF103991031021004501001001MA1999999099221MD1999999-0081REMSYN070AAXX  08184 82571 32497 31406 10337 20191 39922 40117 83200 333 59008;EQDQ01  00002PRCP06
0208825710999992003080900004-05500-045267FM-12+017499999V0209999C000012200019N0100001N1+02751+02091101341ADDAA106000091GA1001+999999999GF100991001001999999001001KA1240M+03451MA1999999099371MD1999999-0091REMSYN082AAXX  09004 82571 32997 00000 10275 20209 39937 40134 333 10345 29064 55092 59009;EQDQ01  00002PRCP06
0186825710999992003080912004-05500-045267FM-12+017499999V0200501N003112200019N0100001N1+02741+02191101721ADDAA106000091GF104991041021004501001001KA1240N+02171MA1999999099751MD1999999+0091REMSYN076AAXX  09124 82571 32497 40506 10274 20219 39975 40172 84200 333 20217 58009;EQDQ01  00002PRCP06
0167825710999992003080918004-05500-045267FM-12+017499999V0201801N001012200019N0100001N1+03451+02231101331ADDAA106000091GF102991021021004501001001MA1999999099381MD1999999+0161REMSYN070AAXX  09184 82571 32497 21802 10345 20223 39938 40133 82200 333 58016;EQDQ01  00002PRCP06
0208825710999992003081000004-05500-045267FM-12+017499999V0209999C000012200019N0100001N1+02801+02131101491ADDAA106000091GA1001+999999999GF100991001001999999001001KA1240M+03531MA1999999099531MD1999999+0161REMSYN082AAXX  10004 82571 32997 00000 10280 20213 39953 40149 333 10353 29064 55097 58016;EQDQ01  00002PRCP06
0186825710999992003081012004-05500-045267FM-12+017499999V0200501N003112200019N0100001N1+02691+02241101761ADDAA106000091GF103991031021004501001001KA1240N+02041MA1999999099791MD1999999+0041REMSYN076AAXX  10124 82571 32497 30506 10269 20224 39979 40176 83200 333 20204 58004;EQDQ01  00002PRCP06
0167825710999992003081018004-05500-045267FM-12+017499999V0201401N003112200019N0100001N1+03431+01921101381ADDAA106000091GF102991021021004501001001MA1999999099431MD1999999+0051REMSYN070AAXX  10184 82571 32497 21406 10343 20192 39943 40138 82200 333 58005;EQDQ01  00002PRCP06
0208825710999992003081100004-05500-045267FM-12+017499999V0209999C000012200019N0100001N1+02751+02041101501ADDAA106000091GA1001+999999999GF100991001001999999001001KA1240M+03471MA1999999099531MD1999999+0001REMSYN082AAXX  11004 82571 32997 00000 10275 20204 39953 40150 333 10347 29062 55102 58000;EQDQ01  00002PRCP06
0186825710999992003081112004-05500-045267FM-12+017499999V0200201N003110042019N0100001N1+02631+02201101751ADDAA106000091GF106991061021004501001001KA1240N+02191MA1999999099781MD1999999+0011REMSYN076AAXX  11124 82571 32497 60206 10263 20220 39978 40175 86200 333 20219 58001;EQDQ01  00002PRCP06
0167825710999992003081118004-05500-045267FM-12+017499999V0201401N001012200019N0100001N1+03331+01981101331ADDAA106000091GF102991021021004501001001MA1999999099381MD1999999-0051REMSYN070AAXX  11184 82571 32497 21402 10333 20198 39938 40133 82200 333 59005;EQDQ01  00002PRCP06
0208825710999992003081200004-05500-045267FM-12+017499999V0209999C000012200019N0100001N1+02771+02211101441ADDAA106000091GA1001+999999999GF100991001001999999001001KA1240M+03501MA1999999099741MD1999999-0061REMSYN082AAXX  12004 82571 32997 00000 10277 20221 39974 40144 333 10350 29066 55087 59006;EQDQ01  00002PRCP06
0186825710999992003081212004-05500-045267FM-12+017499999V0200501N001010450019N0100001N1+02621+02181101741ADDAA106000091GF106991041051004501031001KA1240N+02191MA1999999099771MD1999999-0011REMSYN076AAXX  12124 82571 32497 60502 10262 20218 39977 40174 84530 333 20219 59001;EQDQ01  00002PRCP06
0167825710999992003081218004-05500-045267FM-12+017499999V0201401N003112200019N0100001N1+03471+02001101281ADDAA106000091GF103991031021004501001001MA1999999099341MD1999999-0041REMSYN070AAXX  12184 82571 32497 31406 10347 20200 39934 40128 83200 333 59004;EQDQ01  00002PRCP06
0208825710999992003081300004-05500-045267FM-12+017499999V0200501N001012200019N0100001N1+02791+02131101491ADDAA106000091GA1001+999999999GF100991001001999999001001KA1240M+03571MA1999999099521MD1999999+0051REMSYN082AAXX  13004 82571 32997 00502 10279 20213 39952 40149 333 10357 29063 55094 58005;EQDQ01  00002PRCP06
0186825710999992003081312004-05500-045267FM-12+017499999V0200201N002110042019N0100001N1+02641+02181101821ADDAA106000091GF106991061021004501001001KA1240N+02271MA1999999099851MD1999999+0081REMSYN076AAXX  13124 82571 32497 60204 10264 20218 39985 40182 86200 333 20227 58008;EQDQ01  00002PRCP06
0167825710999992003081318004-05500-045267FM-12+017499999V0200501N003112200019N0100001N1+03451+01981101311ADDAA106000091GF104991041021004501001001MA1999999099371MD1999999+0031REMSYN070AAXX  13184 82571 32497 40506 10345 20198 39937 40131 84200 333 58003;EQDQ01  00002PRCP06
0198825710999992003081400004-05500-045267FM-12+017499999V0200501N001012200019N0100001N1+02851+02061101481ADDAA106000091GF101991011001017501011001KA1240M+03561MA1999999099521MD1999999+0001REMSYN088AAXX  14004 82571 32797 10502 10285 20206 39952 40148 81010 333 10356 29060 55094 58000;EQDQ01  00002PRCP06
0186825710999992003081412004-05500-045267FM-12+017499999V0200501N003110042019N0100001N1+02621+02201101871ADDAA106000091GF106991061021004501001001KA1240N+02211MA1999999099861MD1999999+0011REMSYN076AAXX  14124 82571 32497 60506 10262 20220 39986 40187 86200 333 20221 58001;EQDQ01  00002PRCP06
0167825710999992003081418004-05500-045267FM-12+017499999V0201601N002112200019N0100001N1+03401+01961101331ADDAA106000091GF104991031021004501001011MA1999999099381MD1999999+0011REMSYN070AAXX  14184 82571 32497 41604 10340 20196 39938 40133 83201 333 58001;EQDQ01  00002PRCP06
0208825710999992003081500004-05500-045267FM-12+017499999V0200901N001012200019N0100001N1+02831+02091101451ADDAA106000091GA1001+999999999GF100991001001999999001001KA1240M+03571MA1999999099491MD1999999-0031REMSYN082AAXX  15004 82571 32997 00902 10283 20209 39949 40145 333 10357 29062 55098 59003;EQDQ01  00002PRCP06
0186825710999992003081512004-05500-045267FM-12+017499999V0200901N001010042019N0100001N1+02641+02201101741ADDAA106000091GF106991061051004501001001KA1240N+02301MA1999999099771MD1999999-0091REMSYN076AAXX  15124 82571 32497 60902 10264 20220 39977 40174 86500 333 20230 59009;EQDQ01  00002PRCP06
0167825710999992003081518004-05500-045267FM-12+017499999V0202701N001010450019N0100001N1+03461+01981101311ADDAA106000091GF106991031021004501061001MA1999999099371MD1999999-0011REMSYN070AAXX  15184 82571 32497 62702 10346 20198 39937 40131 83260 333 59001;EQDQ01  00002PRCP06
0208825710999992003081600004-05500-045267FM-12+017499999V0200501N003112200019N0100001N1+02821+02071101501ADDAA106000091GA1001+999999999GF100991001001999999001001KA1240M+03551MA1999999099541MD1999999+0051REMSYN082AAXX  16004 82571 32997 00506 10282 20207 39954 40150 333 10355 29062 55085 58005;EQDQ01  00002PRCP06
0186825710999992003081612004-05500-045267FM-12+017499999V0200501N003110042019N0100001N1+02631+02161101761ADDAA106000091GF106991061051004501001001KA1240N+02421MA1999999099791MD1999999+0021REMSYN076AAXX  16124 82571 32497 60506 10263 20216 39979 40176 86500 333 20242 58002;EQDQ01  00002PRCP06
0208825710999992003081700004-05500-045267FM-12+017499999V0209999C000012200019N0100001N1+02811+02151101451ADDAA106000091GA1001+999999999GF100991001001999999001001KA1240M+03541MA1999999099481MD1999999-0061REMSYN082AAXX  17004 82571 32997 00000 10281 20215 39948 40145 333 10354 29064 55072 59006;EQDQ01  00002PRCP06
0186825710999992003081712004-05500-045267FM-12+017499999V0203601N001010042019N0100001N1+02631+02251101801ADDAA106000091GF107991071051004501001001KA1240N+02351MA1999999099831MD1999999+0041REMSYN076AAXX  17124 82571 32497 73602 10263 20225 39983 40180 87500 333 20235 58004;EQDQ01  00002PRCP06
0167825710999992003081718004-05500-045267FM-12+017499999V0200501N001012200019N0100001N1+03321+02141101421ADDAA106000091GF103991031021004501001001MA1999999099471MD1999999+0081REMSYN070AAXX  17184 82571 32497 30502 10332 20214 39947 40142 83200 333 58008;EQDQ01  00002PRCP06
0186825710999992003081812004-05500-045267FM-12+017499999V0201401N001010042019N0100001N1+02721+02221101881ADDAA106000091GF106991051021004501031001KA1240N+02361MA1999999099911MD1999999+0081REMSYN076AAXX  18124 82571 32497 61402 10272 20222 39991 40188 85230 333 20236 58008;EQDQ01  00002PRCP06
0167825710999992003081818004-05500-045267FM-12+017499999V0201401N003110042019N0100001N1+03481+02111101361ADDAA106000091GF107991051021004501011001MA1999999099421MD1999999-0051REMSYN070AAXX  18184 82571 32497 71406 10348 20211 39942 40136 85210 333 59005;EQDQ01  00002PRCP06
0202825710999992003081900004-05500-045267FM-12+017499999V0202301N001012200019N0100001N1+02561+02291101671ADDAY191061AY261061GF104991041001017501041001KA1240M+03551MA1999999099691MD1999999+0161MW1131REMSYN100AAXX  19004 82571 21797 42302 10256 20229 39969 40167 71396 84040 333 10355 29072 55070 58016 69931;
0162825710999992003081912004-05500-045267FM-12+017499999V0200501N001010450019N0100001N1+02791+02271101911ADDGF106991011021004501041011KA1240N+02301MA1999999099931MD1999999+0021REMSYN082AAXX  19124 82571 22497 60502 10279 20227 39993 40191 81241 333 20230 58002 69934;
0167825710999992003081918004-05500-045267FM-12+017499999V0201801N003112200019N0100001N1+03451+01641101421ADDAA106000091GF103991021011004501011001MA1999999099471MD1999999+0051REMSYN070AAXX  19184 82571 32497 31806 10345 20164 39947 40142 82110 333 58005;EQDQ01  00002PRCP06
0208825710999992003082000004-05500-045267FM-12+017499999V0202701N001012200019N0100001N1+02761+01861101601ADDAA106000091GA1001+999999999GF100991001001999999001001KA1240M+03541MA1999999099641MD1999999-0051REMSYN082AAXX  20004 82571 32997 02702 10276 20186 39964 40160 333 10354 29056 55101 59005;EQDQ01  00002PRCP06
0186825710999992003082012004-05500-045267FM-12+017499999V0201401N002112200019N0100001N1+02751+01801101821ADDAA106000091GF102991011001017501041011KA1240N+01961MA1999999099851MD1999999-0081REMSYN076AAXX  20124 82571 32797 21404 10275 20180 39985 40182 81041 333 20196 59008;EQDQ01  00002PRCP06
0167825710999992003082018004-05500-045267FM-12+017499999V0201401N003112200019N0100001N1+03471+01661101251ADDAA106000091GF103991021021004501011001MA1999999099301MD1999999-0171REMSYN070AAXX  20184 82571 32497 31406 10347 20166 39930 40125 82210 333 59017;EQDQ01  00002PRCP06
0208825710999992003082100004-05500-045267FM-12+017499999V0201401N002112200019N0100001N1+02781+01881101551ADDAA106000091GA1001+999999999GF100991001001999999001001KA1240M+03551MA1999999099581MD1999999-0061REMSYN082AAXX  21004 82571 32997 01404 10278 20188 39958 40155 333 10355 29052 55108 59006;EQDQ01  00002PRCP06
0186825710999992003082112004-05500-045267FM-12+017499999V0201401N003112200019N0100001N1+02731+01871101691ADDAA106000091GF101991011011004501001001KA1240N+02051MA1999999099721MD1999999-0131REMSYN076AAXX  21124 82571 32497 11406 10273 20187 39972 40169 81100 333 20205 59013;EQDQ01  00002PRCP06
0167825710999992003082118004-05500-045267FM-12+017499999V0201101N003112200019N0100001N1+03531+01711101091ADDAA106000091GF103991031021004501001001MA1999999099151MD1999999-0151REMSYN070AAXX  21184 82571 32497 31106 10353 20171 39915 40109 83200 333 59015;EQDQ01  00002PRCP06
0208825710999992003082200004-05500-045267FM-12+017499999V0203601N001012200019N0100001N1+02771+01911101371ADDAA106000091GA1001+999999999GF100991001001999999001001KA1240M+03611MA1999999099411MD1999999-0171REMSYN082AAXX  22004 82571 32997 03602 10277 20191 39941 40137 333 10361 29053 55104 59017;EQDQ01  00002PRCP06
0186825710999992003082212004-05500-045267FM-12+017499999V0201601N001012200019N0100001N1+02751+02141101701ADDAA106000091GF102991011011004501001011KA1240N+02161MA1999999099731MD1999999+0011REMSYN076AAXX  22124 82571 32497 21602 10275 20214 39973 40170 81101 333 20216 58001;EQDQ01  00002PRCP06
0167825710999992003082218004-05500-045267FM-12+017499999V0201801N001012200019N0100001N1+03481+01611101231ADDAA106000091GF103991021021004501011001MA1999999099291MD1999999+0141REMSYN070AAXX  22184 82571 32497 31802 10348 20161 39929 40123 82210 333 58014;EQDQ01  00002PRCP06
0208825710999992003082300004-05500-045267FM-12+017499999V0200501N001012200019N0100001N1+02791+01751101451ADDAA106000091GA1001+999999999GF100991001001999999001001KA1240M+03601MA1999999099491MD1999999+0081REMSYN082AAXX  23004 82571 32997 00502 10279 20175 39949 40145 333 10360 29052 55105 58008;EQDQ01  00002PRCP06
0186825710999992003082312004-05500-045267FM-12+017499999V0201401N001010042019N0100001N1+02521+02151101731ADDAA106000091GF105991051021004501001001KA1240N+02071MA1999999099741MD1999999+0011REMSYN076AAXX  23124 82571 32497 51402 10252 20215 39974 40173 85200 333 20207 58001;EQDQ01  00002PRCP06
0137825710999992003082318004-05500-045267FM-12+017499999V0201401N003112200019N0100001N1+03291+99999999999ADDAA106000091GF104991999999004501999999REMSYN069AAXX  23184 82571 32497 41406 10329 2205 39938 40133 82230 333 58009;EQDQ01  00002PRCP06
0208825710999992003082400004-05500-045267FM-12+017499999V0209999C000012200019N0100001N1+02841+02121101431ADDAA106000091GA1001+999999999GF100991001001999999001001KA1240M+03471MA1999999099461MD1999999-0031REMSYN082AAXX  24004 82571 32997 00000 10284 20212 39946 40143 333 10347 29064 55064 59003;EQDQ01  00002PRCP06
0186825710999992003082412004-05500-045267FM-12+017499999V0201401N001010042019N0100001N1+02491+02271101741ADDAA106000091GF108991081051004501999999KA1240N+02241MA1999999099761MD1999999+0011REMSYN076AAXX  24124 82571 32497 81402 10249 20227 39976 40174 885// 333 20224 58001;EQDQ01  00002PRCP06
0167825710999992003082418004-05500-045267FM-12+017499999V0202301N001012200019N0100001N1+03431+01841101241ADDAA106000091GF103991031021004501001001MA1999999099301MD1999999-0081REMSYN070AAXX  24184 82571 32497 32302 10343 20184 39930 40124 83200 333 59008;EQDQ01  00002PRCP06
0186825710999992003082512004-05500-045267FM-12+017499999V0200701N001012200019N0100001N1+02691+02171101691ADDAA106000091GF101991011011004501001001KA1240N+02201MA1999999099721MD1999999-0041REMSYN076AAXX  25124 82571 32497 10702 10269 20217 39972 40169 81100 333 20220 59004;EQDQ01  00002PRCP06
0167825710999992003082518004-05500-045267FM-12+017499999V0201401N001012200019N0100001N1+03691+01941101201ADDAA106000091GF103991031021004501001001MA1999999099271MD1999999-0021REMSYN070AAXX  25184 82571 32497 31402 10369 20194 39927 40120 83200 333 59002;EQDQ01  00002PRCP06
0186825710999992003082612004-05500-045267FM-12+017499999V0200901N001010042019N0100001N1+02621+02251101581ADDAA106000091GF106991061021004501001001KA1240N+02251MA1999999099611MD1999999-0111REMSYN076AAXX  26124 82571 32497 60902 10262 20225 39961 40158 86200 333 20225 59011;EQDQ01  00002PRCP06
0167825710999992003082618004-05500-045267FM-12+017499999V0203601N001012200019N0100001N1+03511+02031101091ADDAA106000091GF103991031021004501001001MA1999999099611MD1999999-0111REMSYN070AAXX  26184 82571 32497 33602 10351 20203 39961 40109 83200 333 59011;EQDQ01  00002PRCP06
0208825710999992003082700004-05500-045267FM-12+017499999V0209999C000012200019N0100001N1+02831+02071101291ADDAA106000091GA1001+999999999GF100991001001999999001001KA1240M+03611MA1999999099331MD1999999-0061REMSYN082AAXX  27004 82571 32997 00000 10283 20207 39933 40129 333 10361 29062 55084 59006;EQDQ01  00002PRCP06
0186825710999992003082712004-05500-045267FM-12+017499999V0200901N001010042019N0100001N1+02611+02181101741ADDAA106000091GF108991081051004501999999KA1240N+02521MA1999999099771MD1999999+0161REMSYN076AAXX  27124 82571 32497 80902 10261 20218 39977 40174 885// 333 20252 58016;EQDQ01  00002PRCP06
0167825710999992003082718004-05500-045267FM-12+017499999V0200501N002112200019N0100001N1+03301+02121101241ADDAA106000091GF104991041021004501001001MA1999999099301MD1999999+0141REMSYN070AAXX  27184 82571 32497 40504 10330 20212 39930 40124 84200 333 58014;EQDQ01  00002PRCP06
0208825710999992003082800004-05500-045267FM-12+017499999V0209999C000012200019N0100001N1+02841+02171101431ADDAA106000091GA1001+999999999GF100991001001999999001001KA1240M+03501MA1999999099461MD1999999+0131REMSYN082AAXX  28004 82571 32997 00000 10284 20217 39946 40143 333 10350 29065 55038 58013;EQDQ01  00002PRCP06
0186825710999992003082812004-05500-045267FM-12+017499999V0200501N001010042019N0100001N1+02671+02241101761ADDAA106000091GF108991081051004501999999KA1240N+02411MA1999999099791MD1999999+0021REMSYN076AAXX  28124 82571 32497 80502 10267 20224 39979 40176 885// 333 20241 58002;EQDQ01  00002PRCP06
0167825710999992003082818004-05500-045267FM-12+017499999V0201401N003112200019N0100001N1+03361+02141101361ADDAA106000091GF104991041021004501001001MA1999999099411MD1999999+0111REMSYN070AAXX  28184 82571 32497 41406 10336 20214 39941 40136 84200 333 58011;EQDQ01  00002PRCP06
0208825710999992003082900004-05500-045267FM-12+017499999V0209999C000012200019N0100001N1+02821+02381101491ADDAA106000091GA1001+999999999GF100991001001999999001001KA1240M+03451MA1999999099531MD1999999+0071REMSYN082AAXX  29004 82571 32997 00000 10282 20238 39953 40149 333 10345 29070 55043 58007;EQDQ01  00002PRCP06
0186825710999992003082912004-05500-045267FM-12+017499999V0200501N002110042019N0100001N1+02661+02221101801ADDAA106000091GF107991071051004501001001KA1240N+02391MA1999999099831MD1999999+0041REMSYN076AAXX  29124 82571 32497 70504 10266 20222 39983 40180 87500 333 20239 58004;EQDQ01  00002PRCP06
0167825710999992003082918004-05500-045267FM-12+017499999V0201401N003112200019N0100001N1+03431+02111101261ADDAA106000091GF103991031021004501001001MA1999999099321MD1999999-0091REMSYN070AAXX  29184 82571 32497 31406 10343 20211 39932 40126 83200 333 59009;EQDQ01  00002PRCP06
0208825710999992003083000004-05500-045267FM-12+017499999V0209999C000012200019N0100001N1+02771+02251101471ADDAA106000091GA1001+999999999GF100991001001999999001001KA1240M+03501MA1999999099501MD1999999-0031REMSYN082AAXX  30004 82571 32997 00000 10277 20225 39950 40147 333 10350 29067 55050 59003;EQDQ01  00002PRCP06
0186825710999992003083012004-05500-045267FM-12+017499999V0200501N003110042019N0100001N1+02671+02221101801ADDAA106000091GF108991081051004501999999KA1240N+02371MA1999999099831MD1999999+0001REMSYN076AAXX  30124 82571 32497 80506 10267 20222 39983 40180 885// 333 20237 58000;EQDQ01  00002PRCP06
0166825710999992003083018004-05500-045267FM-12+017499999V0201801N003112200019N0100001N1+03311+02101101401ADDAA106000091GF106991041021004501001011MA1999999099451MD1999999+0131REMSYN069AAXX  30184 82571 32497 61806 10331 20210 39945 4014084201 333 58013;EQDQ01  00002PRCP06
0208825710999992003083100004-05500-045267FM-12+017499999V0209999C000012200019N0100001N1+02671+02311101551ADDAA106000091GA1001+999999999GF100991001001999999001001KA1240M+03431MA1999999099581MD1999999+0081REMSYN082AAXX  31004 82571 32997 00000 10267 20231 39958 40155 333 10343 29071 55035 58008;EQDQ01  00002PRCP06
0190825710999992003083112004-05500-045267FM-12+017499999V0202301N001010042019N0100001N1+02221+02151101911ADDAY191061AY261061GF108991081051004501999999KA1240N+02141MA1999999099911MD1999999+0081MW1611REMSYN088AAXX  31124 82571 21497 82302 10222 20215 39991 40191 76196 885// 333 20214 58008 60164;
0148825710999992003083118004-05500-045267FM-12+017499999V0202501N001010042019N0100001N1+03131+02101101491ADDAA106000021GF106991061021004501001001MA1999999099531MD1999999+0081REMSYN070AAXX  31184 82571 32497 62502 10313 20210 39953 40149 86200 333 58008;
0208825710999992003090100004-05500-045267FM-12+017499999V0209999C000012200019N0100001N1+02671+02221101591ADDAA106000091GA1001+999999999GF100991001001999999001001KA1240M+03281MA1999999099601MD1999999+0021REMSYN082AAXX  01004 82571 32997 00000 10267 20222 39960 40159 333 10328 29076 55055 58002;EQDQ01  00002PRCP06
0186825710999992003090112004-05500-045267FM-12+017499999V0201101N001010042019N0100001N1+02571+02191101921ADDAA106000091GF107991071051004501001001KA1240N+02241MA1999999099941MD1999999+0031REMSYN076AAXX  01124 82571 32497 71102 10257 20219 39994 40192 87500 333 20224 58003;EQDQ01  00002PRCP06
0167825710999992003090118004-05500-045267FM-12+017499999V0200501N002112200019N0100001N1+03411+01911101361ADDAA106000091GF104991041021004501001001MA1999999099411MD1999999-0121REMSYN070AAXX  01184 82571 32497 40504 10341 20191 39941 40136 84200 333 59012;EQDQ01  00002PRCP06
0208825710999992003090200004-05500-045267FM-12+017499999V0203201N001012200019N0100001N1+02761+02401101511ADDAA106000091GA1001+999999999GF100991001001999999001001KA1240M+03491MA1999999099541MD1999999-0061REMSYN082AAXX  02004 82571 32997 03202 10276 20240 39954 40151 333 10349 29070 55084 59006;EQDQ01  00002PRCP06
0186825710999992003090212004-05500-045267FM-12+017499999V0200201N001010042019N0100001N1+02681+02181101961ADDAA106000091GF106991061021004501001001KA1240N+02261MA1999999099981MD1999999+0041REMSYN076AAXX  02124 82571 32497 60202 10268 20218 39998 40196 86200 333 20226 58004;EQDQ01  00002PRCP06
0167825710999992003090218004-05500-045267FM-12+017499999V0201601N001012200019N0100001N1+03351+01971101471ADDAA106000091GF103991031021004501001001MA1999999099521MD1999999+0111REMSYN070AAXX  02184 82571 32497 31602 10335 20197 39952 40147 83200 333 58011;EQDQ01  00002PRCP06
0209825710999992003090300004-05500-045267FM-12+017499999V0209999C000012200019N0100001N1+02811+02151101531ADDAA106000091GA1001+999999999GF100991001001999999001001KA1240M+03471MA1999999099561REMSYN081AAXX  03004 82571 32997 00000 10281 20215 39956 4153 333 10347 29063 55097 58002;EQDQ01+999990APOSLPQ02  00002PRCP06
0186825710999992003090312004-05500-045267FM-12+017499999V0203601N001010042019N0100001N1+02581+02231101881ADDAA106000091GF106991061051004501001001KA1240N+02161MA1999999099901MD1999999-0081REMSYN076AAXX  03124 82571 32497 63602 10258 20223 39990 40188 86500 333 20216 59008;EQDQ01  00002PRCP06
0167825710999992003090318004-05500-045267FM-12+017499999V0200901N003110450019N0100001N1+03481+02001101361ADDAA106000091GF105991031021004501011011MA1999999099421MD1999999-0101REMSYN070AAXX  03184 82571 32497 50906 10348 20200 39942 40136 83211 333 59010;EQDQ01  00002PRCP06
0198825710999992003090400004-05500-045267FM-12+017499999V0209999C000012200019N0100001N1+02811+02311101581ADDAA106000091GF102991021001017501011001KA1240M+03561MA1999999099611MD1999999+0051REMSYN088AAXX  04004 82571 32797 20000 10281 20231 39961 40158 82010 333 10356 29068 55082 58005;EQDQ01  00002PRCP06
0186825710999992003090412004-05500-045267FM-12+017499999V0200901N003112200019N0100001N1+02771+02211101871ADDAA106000091GF101991011011004501001001KA1240N+02261MA1999999099901MD1999999+0001REMSYN076AAXX  04124 82571 32497 10906 10277 20221 39990 40187 81100 333 20226 58000;EQDQ01  00002PRCP06
0167825710999992003090418004-05500-045267FM-12+017499999V0201401N002112200019N0100001N1+03521+01791101321ADDAA106000091GF103991021011004501011001MA1999999099381MD1999999-0041REMSYN070AAXX  04184 82571 32497 31404 10352 20179 39938 40132 82110 333 59004;EQDQ01  00002PRCP06
0208825710999992003090500004-05500-045267FM-12+017499999V0209999C000012200019N0100001N1+02851+02141101511ADDAA106000091GA1001+999999999GF100991001001999999001001KA1240M+03651MA1999999099551MD1999999-0061REMSYN082AAXX  05004 82571 32997 00000 10285 20214 39955 40151 333 10365 29059 55108 59006;EQDQ01  00002PRCP06
0186825710999992003090512004-05500-045267FM-12+017499999V0201401N003112200019N0100001N1+02911+02011101821ADDAA106000091GF101991011001017501031001KA1240N+02311MA1999999099861MD1999999-0041REMSYN076AAXX  05124 82571 32797 11406 10291 20201 39986 40182 81030 333 20231 59004;EQDQ01  00002PRCP06
0167825710999992003090518004-05500-045267FM-12+017499999V0201801N004112200019N0100001N1+03481+01611101281ADDAA106000091GF103991031021004501001001MA1999999099341MD1999999-0041REMSYN070AAXX  05184 82571 32497 31808 10348 20161 39934 40128 83200 333 59004;EQDQ01  00002PRCP06
0198825710999992003090600004-05500-045267FM-12+017499999V0201801N001012200019N0100001N1+02861+01841101511ADDAA106000091GF102991021001017501011001KA1240M+03601MA1999999099561MD1999999+0011REMSYN088AAXX  06004 82571 32797 21802 10286 20184 39956 40151 82010 333 10360 29050 55097 58001;EQDQ01  00002PRCP06
0186825710999992003090612004-05500-045267FM-12+017499999V0201401N005112200019N0100001N1+02871+01771101741ADDAA106000091GF101991011011004501001001KA1240N+02181MA1999999099781MD1999999-0081REMSYN076AAXX  06124 82571 32497 11410 10287 20177 39978 40174 81100 333 20218 59008;EQDQ01  00002PRCP06
0167825710999992003090618004-05500-045267FM-12+017499999V0201601N002112200019N0100001N1+03451+01691101171ADDAA106000091GF103991031021004501001001MA1999999099231MD1999999-0111REMSYN070AAXX  06184 82571 32497 31604 10345 20169 39923 40117 83200 333 59011;EQDQ01  00002PRCP06
0198825710999992003090700004-05500-045267FM-12+017499999V0201401N001012200019N0100001N1+02971+01761101351ADDAA106000091GF103991031001017501031001KA1240M+03561MA1999999099401MD1999999-0161REMSYN088AAXX  07004 82571 32797 31402 10297 20176 39940 40135 83030 333 10356 29046 55101 59016;EQDQ01  00002PRCP06
0186825710999992003090712004-05500-045267FM-12+017499999V0201401N003112200019N0100001N1+02851+01901101751ADDAA106000091GF101991011011004501001001KA1240N+02271MA1999999099791MD1999999+0011REMSYN076AAXX  07124 82571 32497 11406 10285 20190 39979 40175 81100 333 20227 58001;EQDQ01  00002PRCP06
0167825710999992003090718004-05500-045267FM-12+017499999V0200901N002112200019N0100001N1+03491+01941101111ADDAA106000091GF103991031021004501001001MA1999999099181MD1999999-0051REMSYN070AAXX  07184 82571 32497 30904 10349 20194 39918 40111 83200 333 59005;EQDQ01  00002PRCP06
0202825710999992003090812004-05500-045267FM-12+017499999V0201401N005112200019N0100001N1+02871+01771101691ADDAA106000091GF101991001001999999001011KA1240N+02251MA1999999099731MD1999999-0061REMSYN076AAXX  08124 82571 32497 11410 10287 20177 39973 40169 80001 333 20225 59006;EQDQ01+004502SCOLCBQ02  00002PRCP06
0167825710999992003090818004-05500-045267FM-12+017499999V0201401N003112200019N0100001N1+03461+01731101161ADDAA106000091GF103991031021004501001001MA1999999099221MD1999999+0041REMSYN070AAXX  08184 82571 32497 31406 10346 20173 39922 40116 83200 333 58004;EQDQ01  00002PRCP06
0198825710999992003090900004-05500-045267FM-12+017499999V0209999C000012200019N0100001N1+02851+02141101381ADDAA106000091GF102991021001017501031001KA1240M+03571MA1999999099431MD1999999+0011REMSYN088AAXX  09004 82571 32797 20000 10285 20214 39943 40138 82030 333 10357 29054 55102 58001;EQDQ01  00002PRCP06
0186825710999992003090912004-05500-045267FM-12+017499999V0201601N001010042019N0100001N1+02491+02211101751ADDAA106000091GF108991081051004501999999KA1240N+02241MA1999999099771MD1999999+0041REMSYN076AAXX  09124 82571 32497 81602 10249 20221 39977 40175 885// 333 20224 58004;EQDQ01  00002PRCP06
0208825710999992003091000004-05500-045267FM-12+017499999V0209999C000012200019N0100001N1+02871+02301101481ADDAA106000091GA1001+999999999GF100991001001999999001001KA1240M+03561MA1999999099511MD1999999+0031REMSYN082AAXX  10004 82571 32997 00000 10287 20230 39951 40148 333 10356 29066 55070 58003;EQDQ01  00002PRCP06
0186825710999992003091012004-05500-045267FM-12+017499999V0200901N003112200019N0100001N1+02831+02241101661ADDAA106000091GF101991011011004501001001KA1240N+02251MA1999999099701MD1999999-0071REMSYN076AAXX  10124 82571 32497 10906 10283 20224 39970 40166 81100 333 20225 59007;EQDQ01  00002PRCP06
0167825710999992003091018004-05500-045267FM-12+017499999V0201601N003112200019N0100001N1+03601+01991101071ADDAA106000091GF103991031021004501001001MA1999999099141MD1999999-0131REMSYN070AAXX  10184 82571 32497 31606 10360 20199 39914 40107 83200 333 59013;EQDQ01  00002PRCP06
0186825710999992003091112004-05500-045267FM-12+017499999V0200901N002112200019N0100001N1+02691+02241101611ADDAA106000091GF101991011021004501001001KA1240N+02221MA1999999099651MD1999999-0051REMSYN076AAXX  11124 82571 32497 10904 10269 20224 39965 40161 81200 333 20222 59005;EQDQ01  00002PRCP06
0167825710999992003091118004-05500-045267FM-12+017499999V0200701N002112200019N0100001N1+03631+01801100971ADDAA106000091GF103991031021004501001001MA1999999099041MD1999999-0101REMSYN070AAXX  11184 82571 32497 30704 10363 20180 39904 40097 83200 333 59010;EQDQ01  00002PRCP06
0208825710999992003091200004-05500-045267FM-12+017499999V0203201N003112200019N0100001N1+02991+02221101261ADDAA106000091GA1001+999999999GF100991001001999999001001KA1240M+03751MA1999999099311MD1999999-0081REMSYN082AAXX  12004 82571 32997 03206 10299 20222 39931 40126 333 10375 29059 55097 59008;EQDQ01  00002PRCP06
0186825710999992003091212004-05500-045267FM-12+017499999V0200501N002110042019N0100001N1+02691+02131101791ADDAA106000091GF108991081051004501999999KA1240N+02551MA1999999099831MD1999999+0181REMSYN076AAXX  12124 82571 32497 80504 10269 20213 39983 40179 885// 333 20255 58018;EQDQ01  00002PRCP06
0186825710999992003091412004-05500-045267FM-12+017499999V0200501N001010042019N0100001N1+02671+02221101781ADDAA106000091GF108991081051004501999999KA1240N+02491MA1999999099811MD1999999-0011REMSYN076AAXX  14124 82571 32497 80502 10267 20222 39981 40178 885// 333 20249 59001;EQDQ01  00002PRCP06
0167825710999992003091418004-05500-045267FM-12+017499999V0200901N001012200019N0100001N1+03411+02061101311ADDAA106000091GF102991021021004501001001MA1999999099371MD1999999+0091REMSYN070AAXX  14184 82571 32497 20902 10341 20206 39937 40131 82200 333 58009;EQDQ01  00002PRCP06
0208825710999992003091500004-05500-045267FM-12+017499999V0209999C000012200019N0100001N1+02941+02141101321ADDAA106000091GA1001+999999999GF100991001001999999001001KA1240M+03571MA1999999099361MD1999999-0071REMSYN082AAXX  15004 82571 32997 00000 10294 20214 39936 40132 333 10357 29061 55053 59007;EQDQ01  00002PRCP06
0186825710999992003091512004-05500-045267FM-12+017499999V0200901N003112200019N0100001N1+02701+02151101631ADDAA106000091GF104991041021004501001001KA1240N+02401MA1999999099671MD1999999-0141REMSYN076AAXX  15124 82571 32497 40906 10270 20215 39967 40163 84200 333 20240 59014;EQDQ01  00002PRCP06
0167825710999992003091618004-05500-045267FM-12+017499999V0201801N001012200019N0100001N1+03521+01791101161ADDAA106000091GF104991041021004501001001MA1999999099231MD1999999-0011REMSYN070AAXX  16184 82571 32497 41802 10352 20179 39923 40116 84200 333 59001;EQDQ01  00002PRCP06
0208825710999992003091700004-05500-045267FM-12+017499999V0200501N001012200019N0100001N1+02941+02031101271ADDAA106000091GA1001+999999999GF100991001001999999001001KA1240M+03681MA1999999099321MD1999999-0011REMSYN082AAXX  17004 82571 32997 00502 10294 20203 39932 40127 333 10368 29056 55090 59001;EQDQ01  00002PRCP06
0186825710999992003091712004-05500-045267FM-12+017499999V0201401N001010042019N0100001N1+02551+02231101681ADDAA106000091GF108991081051004501999999KA1240N+02521MA1999999099711MD1999999+0071REMSYN076AAXX  17124 82571 32497 81402 10255 20223 39971 40168 885// 333 20252 58007;EQDQ01  00002PRCP06
0167825710999992003091718004-05500-045267FM-12+017499999V0200501N001012200019N0100001N1+03421+01941101251ADDAA106000091GF103991031021004501001001MA1999999099321MD1999999+0091REMSYN070AAXX  17184 82571 32497 30502 10342 20194 39932 40125 83200 333 58009;EQDQ01  00002PRCP06
0208825710999992003091800004-05500-045267FM-12+017499999V0209999C000012200019N0100001N1+02911+02061101251ADDAA106000091GA1001+999999999GF100991001001999999001001KA1240M+03561MA1999999099291MD1999999-0031REMSYN082AAXX  18004 82571 32997 00000 10291 20206 39929 40125 333 10356 29061 55061 59003;EQDQ01  00002PRCP06
0186825710999992003091812004-05500-045267FM-12+017499999V0201101N001010042019N0100001N1+02611+02161101581ADDAA106000091GF107991071021004501001001KA1240N+02361MA1999999099611MD1999999-0101REMSYN076AAXX  18124 82571 32497 71102 10261 20216 39961 40158 87200 333 20236 59010;EQDQ01  00002PRCP06
0167825710999992003091818004-05500-045267FM-12+017499999V0202901N001012200019N0100001N1+03521+01961101021ADDAA106000091GF102991021021004501001001MA1999999099091MD1999999-0231REMSYN070AAXX  18184 82571 32497 22902 10352 20196 39909 40102 82200 333 59023;EQDQ01  00002PRCP06
0208825710999992003091900004-05500-045267FM-12+017499999V0200501N001012200019N0100001N1+02981+02061101131ADDAA106000091GA1001+999999999GF100991001001999999001001KA1240M+03721MA1999999099181MD1999999-0111REMSYN082AAXX  19004 82571 32997 00502 10298 20206 39918 40113 333 10372 29058 55074 59011;EQDQ01  00002PRCP06
0186825710999992003091912004-05500-045267FM-12+017499999V0201101N001010042019N0100001N1+02671+02391101461ADDAA106000091GF108991081051004501999999KA1240N+02561MA1999999099501MD1999999-0111REMSYN076AAXX  19124 82571 32497 81102 10267 20239 39950 40146 885// 333 20256 59011;EQDQ01  00002PRCP06
0183825710999992003091918004-05500-045267FM-12+017499999V0201401N003119999999N0100001N1+03231+01911100951ADDAA106000091GF108991999021004501001001MA1999999099031MD1999999-0061REMSYN070AAXX  19184 82571 32497 81406 10323 20191 39903 40095 83200 333 59006;EQDQ01+000032SCOTLCQ02  00002PRCP06
0208825710999992003092000004-05500-045267FM-12+017499999V0201401N001012200019N0100001N1+02881+02211101091ADDAA106000091GA1001+999999999GF100991001001999999001001KA1240M+03641MA1999999099141MD1999999-0041REMSYN082AAXX  20004 82571 32997 01402 10288 20221 39914 40109 333 10364 29064 55056 59004;EQDQ01  00002PRCP06
0186825710999992003092012004-05500-045267FM-12+017499999V0200901N001012200019N0100001N1+02811+02151101511ADDAA106000091GF104991021021004501001011KA1240N+02411MA1999999099551MD1999999+0051REMSYN076AAXX  20124 82571 32497 40902 10281 20215 39955 40151 82201 333 20241 58005;EQDQ01  00002PRCP06
0186825710999992003092112004-05500-045267FM-12+017499999V0202301N001012200019N0100001N1+02771+02251101501ADDAA106000091GF102991021021004501001001KA1240N+02381MA1999999099541MD1999999-0011REMSYN076AAXX  21124 82571 32497 22302 10277 20225 39954 40150 82200 333 20238 59001;EQDQ01  00002PRCP06
0208825710999992003092200004-05500-045267FM-12+017499999V0201401N001012200019N0100001N1+02951+01961101291ADDAA106000091GA1001+999999999GF100991001001999999001001KA1240M+03721MA1999999099341MD1999999+0141REMSYN082AAXX  22004 82571 32997 01402 10295 20196 39934 40129 333 10372 29055 55060 58014;EQDQ01  00002PRCP06
0186825710999992003092212004-05500-045267FM-12+017499999V0201401N002112200019N0100001N1+02841+02121101561ADDAA106000091GF101991011011004501001001KA1240N+02211MA1999999099611MD1999999+0071REMSYN076AAXX  22124 82571 32497 11404 10284 20212 39961 40156 81100 333 20221 58007;EQDQ01  00002PRCP06
0167825710999992003092218004-05500-045267FM-12+017499999V0201401N004112200019N0100001N1+03631+01801100991ADDAA106000091GF103991021011004501031001MA1999999099061MD1999999-0091REMSYN070AAXX  22184 82571 32497 31408 10363 20180 39906 40099 82130 333 59009;EQDQ01  00002PRCP06
0198825710999992003092400004-05500-045267FM-12+017499999V0200501N001012200019N0100001N1+02971+02041101191ADDAA106000091GF102991021001017501011001KA1240M+03721MA1999999099241MD1999999-0071REMSYN088AAXX  24004 82571 32797 20502 10297 20204 39924 40119 82010 333 10372 29054 55087 59007;EQDQ01  00002PRCP06
0186825710999992003092412004-05500-045267FM-12+017499999V0200501N002110042019N0100001N1+02771+02271101531ADDAA106000091GF106991061021004501001001KA1240N+02461MA1999999099571MD1999999-0011REMSYN076AAXX  24124 82571 32497 60504 10277 20227 39957 40153 86200 333 20246 59001;EQDQ01  00002PRCP06
0167825710999992003092418004-05500-045267FM-12+017499999V0203401N002112200019N0100001N1+03621+02121100931ADDAA106000091GF104991031021004501031001MA1999999099011MD1999999+0001REMSYN070AAXX  24184 82571 32497 43404 10362 20212 39901 40093 83230 333 58000;EQDQ01  00002PRCP06
0186825710999992003092512004-05500-045267FM-12+017499999V0203601N002110042019N0100001N1+02631+02201101531ADDAA106000091GF107991071051004501001001KA1240N+02481MA1999999099571MD1999999+0001REMSYN076AAXX  25124 82571 32497 73604 10263 20220 39957 40153 87500 333 20248 58000;EQDQ01  00002PRCP06
0167825710999992003092518004-05500-045267FM-12+017499999V0200501N001012200019N0100001N1+03491+01981100991ADDAA106000091GF103991031021004501001001MA1999999099061MD1999999+0051REMSYN070AAXX  25184 82571 32497 30502 10349 20198 39906 40099 83200 333 58005;EQDQ01  00002PRCP06
0208825710999992003092600004-05500-045267FM-12+017499999V0200201N001012200019N0100001N1+02971+02061101141ADDAA106000091GA1001+999999999GF100991001001999999001001KA1240M+03651MA1999999099191MD1999999+0041REMSYN082AAXX  26004 82571 32997 00202 10297 20206 39919 40114 333 10365 29058 55066 58004;EQDQ01  00002PRCP06
0186825710999992003092612004-05500-045267FM-12+017499999V0203601N001010042019N0100001N1+02791+02201101431ADDAA106000091GF107991061021004501031001KA1240N+02501MA1999999099481MD1999999-0091REMSYN076AAXX  26124 82571 32497 73602 10279 20220 39948 40143 86230 333 20250 59009;EQDQ01  00002PRCP06
0167825710999992003092618004-05500-045267FM-12+017499999V0201101N001012200019N0100001N1+03561+02151100931ADDAA106000091GF104991031021004501001011MA1999999099011MD1999999-0051REMSYN070AAXX  26184 82571 32497 41102 10356 20215 39901 40093 83201 333 59005;EQDQ01  00002PRCP06
0208825710999992003092700004-05500-045267FM-12+017499999V0209999C000012200019N0100001N1+03071+02161101031ADDAA106000091GA1001+999999999GF100991001001999999001001KA1240M+03701MA1999999099091MD1999999+0101REMSYN082AAXX  27004 82571 32997 00000 10307 20216 39909 40103 333 10370 29058 55068 58010;EQDQ01  00002PRCP06
0186825710999992003092712004-05500-045267FM-12+017499999V0200901N001010042019N0100001N1+02731+02171101351ADDAA106000091GF108991081051004501999999KA1240N+02531MA1999999099401MD1999999-0081REMSYN076AAXX  27124 82571 32497 80902 10273 20217 39940 40135 885// 333 20253 59008;EQDQ01  00002PRCP06
0167825710999992003092718004-05500-045267FM-12+017499999V0201801N001012200019N0100001N1+03351+02171100901ADDAA106000091GF106991041021004501001011MA1999999098981MD1999999-0031REMSYN070AAXX  27184 82571 32497 61802 10335 20217 39898 40090 84201 333 59003;EQDQ01  00002PRCP06
0208825710999992003092800004-05500-045267FM-12+017499999V0202301N001012200019N0100001N1+02931+02261101011ADDAA106000091GA1001+999999999GF100991001001999999001001KA1240M+03501MA1999999099061MD1999999-0031REMSYN082AAXX  28004 82571 32997 02302 10293 20226 39906 40101 333 10350 29064 55041 59003;EQDQ01  00002PRCP06
0167825710999992003092818004-05500-045267FM-12+017499999V0200501N003110042019N0100001N1+03531+02201100951ADDAA106000091GF105991051021004501001001MA1999999099021MD1999999+0041REMSYN070AAXX  28184 82571 32497 50506 10353 20220 39902 40095 85200 333 58004;EQDQ01  00002PRCP06
0186825710999992003092912004-05500-045267FM-12+017499999V0201401N001010042019N0100001N1+02631+02271101531ADDAA106000091GF108991081051004501999999KA1240N+02461MA1999999099571MD1999999+0091REMSYN076AAXX  29124 82571 32497 81402 10263 20227 39957 40153 885// 333 20246 58009;EQDQ01  00002PRCP06
0167825710999992003092918004-05500-045267FM-12+017499999V0200901N001012200019N0100001N1+03471+02151101021ADDAA106000091GF104991041021004501001001MA1999999099091MD1999999+0071REMSYN070AAXX  29184 82571 32497 40902 10347 20215 39909 40102 84200 333 58007;EQDQ01  00002PRCP06
0208825710999992003093000004-05500-045267FM-12+017499999V0209999C000012200019N0100001N1+02971+02151101141ADDAA106000091GA1001+999999999GF100991001001999999001001KA1240M+03601MA1999999099191MD1999999-0051REMSYN082AAXX  30004 82571 32997 00000 10297 20215 39919 40114 333 10360 29062 55046 59005;EQDQ01  00002PRCP06
0186825710999992003093012004-05500-045267FM-12+017499999V0203401N002110042019N0100001N1+02821+02171101531ADDAA106000091GF106991051021004501011001KA1240N+02411MA1999999099581MD1999999+0011REMSYN076AAXX  30124 82571 32497 63404 10282 20217 39958 40153 85210 333 20241 58001;EQDQ01  00002PRCP06
0167825710999992003093018004-05500-045267FM-12+017499999V0203201N001010450019N0100001N1+03591+02181101051ADDAA106000091GF107991041021004501011011MA1999999099131MD1999999+0041REMSYN070AAXX  30184 82571 32497 73202 10359 20218 39913 40105 84211 333 58004;EQDQ01  00002PRCP06
0208825710999992003100100004-05500-045267FM-12+017499999V0203201N003112200019N0100001N1+03011+02161101151ADDAA106000091GA1001+999999999GF100991001001999999001001KA1240M+03681MA1999999099201MD1999999+0011REMSYN082AAXX  01004 82571 32997 03206 10301 20216 39920 40115 333 10368 29058 55053 58001;EQDQ01  00002PRCP06
0186825710999992003100112004-05500-045267FM-12+017499999V0200701N002110450019N0100001N1+02861+02211101471ADDAA106000091GF107991031021004501011011KA1240N+02511MA1999999099521MD1999999-0061REMSYN076AAXX  01124 82571 32497 70704 10286 20221 39952 40147 83211 333 20251 59006;EQDQ01  00002PRCP06
0179825710999992003100118004-05500-045267FM-12+017499999V0201401N001012200019N0100001N1+03421+02261100931ADDAA106000091GF106991041021004501001011MA1999999099001MD1999999-0131MW1171REMSYN076AAXX  01184 82571 31497 61402 10342 20226 39900 40093 717// 84201 333 59013;EQDQ01  00002PRCP06
0208825710999992003100200004-05500-045267FM-12+017499999V0209999C000012200019N0100001N1+02821+02151101131ADDAA106000091GA1001+999999999GF100991001001999999001001KA1240M+03641MA1999999099181MD1999999+0021REMSYN082AAXX  02004 82571 32997 00000 10282 20215 39918 40113 333 10364 29036 55054 58002;EQDQ01  00002PRCP06
0186825710999992003100212004-05500-045267FM-12+017499999V0200501N003112200019N0100001N1+02911+02141101391ADDAA106000091GF103991031021004501001001KA1240N+02501MA1999999099441MD1999999-0081REMSYN076AAXX  02124 82571 32497 30506 10291 20214 39944 40139 83200 333 20250 59008;EQDQ01  00002PRCP06
0167825710999992003100218004-05500-045267FM-12+017499999V0201601N001012200019N0100001N1+03551+02111100941ADDAA106000091GF103991031021004501001001MA1999999099011MD1999999+0011REMSYN070AAXX  02184 82571 32497 31602 10355 20211 39901 40094 83200 333 58001;EQDQ01  00002PRCP06
0186825710999992003100312004-05500-045267FM-12+017499999V0200501N002110042019N0100001N1+02771+02181101511ADDAA106000091GF108991081051004501999999KA1240N+02571MA1999999099551MD1999999+0111REMSYN076AAXX  03124 82571 32497 80504 10277 20218 39955 40151 885// 333 20257 58011;EQDQ01  00002PRCP06
0167825710999992003100318004-05500-045267FM-12+017499999V0200501N001010042019N0100001N1+03511+01991101011ADDAA106000091GF106991051021004501001011MA1999999099091MD1999999+0081REMSYN070AAXX  03184 82571 32497 60502 10351 20199 39909 40101 85201 333 58008;EQDQ01  00002PRCP06
0202825710999992003100400004-05500-045267FM-12+017499999V0202301N001012200019N0100001N1+02891+02121101241ADDAY161061AY201061GF102991021001017501011001KA1240M+03671MA1999999099291MD1999999+0171MW1021REMSYN100AAXX  04004 82571 21797 22302 10289 20212 39929 40124 70260 82010 333 10367 29059 55066 58017 69911;
0172825710999992003100412004-05500-045267FM-12+017499999V0200901N003112200019N0100001N1+02851+02091101441ADDGA1001+999999999GF100991001001999999001001KA1240N+02401MA1999999099481MD1999999-0071REMSYN076AAXX  04124 82571 22997 00906 10285 20209 39948 40144 333 20240 59007 69914;
0167825710999992003100418004-05500-045267FM-12+017499999V0200501N001012200019N0100001N1+03631+01981100991ADDAA106000091GF102991021021004501001001MA1999999099071MD1999999-0021REMSYN070AAXX  04184 82571 32497 20502 10363 20198 39907 40099 82200 333 59002;EQDQ01  00002PRCP06
0198825710999992003100500004-05500-045267FM-12+017499999V0200501N001012200019N0100001N1+03031+01941101151ADDAA106000091GF102991021001017501041001KA1240M+03801MA1999999099201MD1999999-0091REMSYN088AAXX  05004 82571 32797 20502 10303 20194 39920 40115 82040 333 10380 29051 55100 59009;EQDQ01  00002PRCP06
0186825710999992003100512004-05500-045267FM-12+017499999V0201801N001012200019N0100001N1+02911+02171101391ADDAA106000091GF102991021021004501001001KA1240N+02301MA1999999099441MD1999999-0041REMSYN076AAXX  05124 82571 32497 21802 10291 20217 39944 40139 82200 333 20230 59004;EQDQ01  00002PRCP06
0198825710999992003100600004-05500-045267FM-12+017499999V0202301N001012200019N0100001N1+03051+02991101021ADDAA106000091GF102991021001017501031001KA1240M+03781MA1999999099081MD1999999-0121REMSYN088AAXX  06004 82571 32797 22302 10305 20299 39908 40102 82030 333 10378 29051 55099 59012;EQDQ01  00002PRCP06
0186825710999992003100612004-05500-045267FM-12+017499999V0200501N001012200019N0100001N1+02791+02221101361ADDAA106000091GF102991021011004501001001KA1240N+02451MA1999999099411MD1999999-0031REMSYN076AAXX  06124 82571 32497 20502 10279 20222 39941 40136 82100 333 20245 59003;EQDQ01  00002PRCP06
0167825710999992003100618004-05500-045267FM-12+017499999V0200501N003112200019N0100001N1+03661+01821100751ADDAA106000091GF104991041021004501001001MA1999999098841MD1999999-0071REMSYN070AAXX  06184 82571 32497 40506 10366 20182 39884 40075 84200 333 59007;EQDQ01  00002PRCP06
0198825710999992003100700004-05500-045267FM-12+017499999V0200501N002112200019N0100001N1+03051+01961101031ADDAA106000091GF102991021001017501031001KA1240M+03781MA1999999099091MD1999999+0011REMSYN088AAXX  07004 82571 32797 20504 10305 20196 39909 40103 82030 333 10378 29052 55092 58001;EQDQ01  00002PRCP06
0186825710999992003100712004-05500-045267FM-12+017499999V0203201N001010042019N0100001N1+02851+02231101531ADDAA106000091GF105991051021004501001001KA1240N+02451MA1999999099581MD1999999+0171REMSYN076AAXX  07124 82571 32497 53202 10285 20223 39958 40153 85200 333 20245 58017;EQDQ01  00002PRCP06
0167825710999992003100718004-05500-045267FM-12+017499999V0203201N001012200019N0100001N1+03491+02021100941ADDAA106000091GF104991031021004501011001MA1999999099011MD1999999+0171REMSYN070AAXX  07184 82571 32497 43202 10349 20202 39901 40094 83210 333 58017;EQDQ01  00002PRCP06
0198825710999992003100800004-05500-045267FM-12+017499999V0200501N001010150019N0100001N1+03051+02191101121ADDAA106000091GF105991051001017501011001KA1240M+03731MA1999999099181MD1999999+0091REMSYN088AAXX  08004 82571 32797 50502 10305 20219 39918 40112 85010 333 10373 29058 55080 58009;EQDQ01  00002PRCP06
0186825710999992003100812004-05500-045267FM-12+017499999V0203601N003110042019N0100001N1+02751+02191101451ADDAA106000091GF107991071021004501001001KA1240N+02471MA1999999099501MD1999999-0081REMSYN076AAXX  08124 82571 32497 73606 10275 20219 39950 40145 87200 333 20247 59008;EQDQ01  00002PRCP06
0167825710999992003100818004-05500-045267FM-12+017499999V0203401N001012200019N0100001N1+03591+01941100901ADDAA106000091GF104991031021004501011001MA1999999098981MD1999999-0031REMSYN070AAXX  08184 82571 32497 43402 10359 20194 39898 40090 83210 333 59003;EQDQ01  00002PRCP06
0198825710999992003100900004-05500-045267FM-12+017499999V0209999C000012200019N0100001N1+03011+02211101101ADDAA106000091GF102991021001017501011001KA1240M+03731MA1999999099151MD1999999-0031REMSYN088AAXX  09004 82571 32797 20000 10301 20221 39915 40110 82010 333 10373 29058 55067 59003;EQDQ01  00002PRCP06
0186825710999992003100912004-05500-045267FM-12+017499999V0200501N003110042019N0100001N1+02861+02231101431ADDAA106000091GF106991061021004501001001KA1240N+02581MA1999999099481MD1999999-0021REMSYN076AAXX  09124 82571 32497 60506 10286 20223 39948 40143 86200 333 20258 59002;EQDQ01  00002PRCP06
0167825710999992003100918004-05500-045267FM-12+017499999V0200501N002110450019N0100001N1+03441+02001100931ADDAA106000091GF106991031021004501011011MA1999999099001MD1999999+0021REMSYN070AAXX  09184 82571 32497 60504 10344 20200 39900 40093 83211 333 58002;EQDQ01  00002PRCP06
0208825710999992003101000004-05500-045267FM-12+017499999V0200501N001012200019N0100001N1+02951+02131101101ADDAA106000091GA1001+999999999GF100991001001999999001001KA1240M+03571MA1999999099151MD1999999+0001REMSYN082AAXX  10004 82571 32997 00502 10295 20213 39915 40110 333 10357 29058 55059 58000;EQDQ01  00002PRCP06
0186825710999992003101012004-05500-045267FM-12+017499999V0200901N002110450019N0100001N1+02851+02211101371ADDAA106000091GF106991021011004501011001KA1240N+02491MA1999999099421MD1999999-0061REMSYN076AAXX  10124 82571 32497 60904 10285 20221 39942 40137 82110 333 20249 59006;EQDQ01  00002PRCP06
0167825710999992003101018004-05500-045267FM-12+017499999V0200501N003111050019N0100001N1+03631+01801100841ADDAA106000091GF105991021021004501011011MA1999999098921MD1999999-0081REMSYN070AAXX  10184 82571 32497 50506 10363 20180 39892 40084 82211 333 59008;EQDQ01  00002PRCP06
0208825710999992003101100004-05500-045267FM-12+017499999V0200201N001012200019N0100001N1+03031+02061101001ADDAA106000091GA1001+999999999GF100991001001999999001001KA1240M+03751MA1999999099061MD1999999-0091REMSYN082AAXX  11004 82571 32997 00202 10303 20206 39906 40100 333 10375 29054 55082 59009;EQDQ01  00002PRCP06
0186825710999992003101112004-05500-045267FM-12+017499999V0202701N001010042019N0100001N1+02631+02251101481ADDAA106000091GF108991081051004501999999KA1240N+02381MA1999999099521MD1999999+0101REMSYN076AAXX  11124 82571 32497 82702 10263 20225 39952 40148 885// 333 20238 58010;EQDQ01  00002PRCP06
0167825710999992003101118004-05500-045267FM-12+017499999V0201401N001012200019N0100001N1+03541+01891101001ADDAA106000091GF102991021021004501001001MA1999999099071MD1999999+0151REMSYN070AAXX  11184 82571 32497 21402 10354 20189 39907 40100 82200 333 58015;EQDQ01  00002PRCP06
0178825710999992003101200004-05500-045267FM-12+017499999V0203601N001012200019N0100001N1+99999+99999999999ADDAA106000091GA1001+999999999GF100991001001999999001001KA1240M+03721REMSYN081AAXX  12004 82571 32997 03602 1029 20215 39919 40114 333 10372 29060 55073 58013;EQDQ01  00002PRCP06
0186825710999992003101212004-05500-045267FM-12+017499999V0203201N001010042019N0100001N1+02631+02351101391ADDAA106000091GF108991081051004501999999KA1240N+02531MA1999999099431MD1999999-0091REMSYN076AAXX  12124 82571 32497 83202 10263 20235 39943 40139 885// 333 20253 59009;EQDQ01  00002PRCP06
0167825710999992003101218004-05500-045267FM-12+017499999V0203601N001012200019N0100001N1+03591+02111100931ADDAA106000091GF103991031021004501001001MA1999999099011MD1999999-0061REMSYN070AAXX  12184 82571 32497 33602 10359 20211 39901 40093 83200 333 59006;EQDQ01  00002PRCP06
0198825710999992003101300004-05500-045267FM-12+017499999V0202301N001012200019N0100001N1+02851+02061101121ADDAA106000091GF103991031001017501071001KA1240M+03681MA1999999099161MD1999999-0031REMSYN088AAXX  13004 82571 32797 32302 10285 20206 39916 40112 83070 333 10368 29062 55054 59003;EQDQ01  00002PRCP06
0186825710999992003101312004-05500-045267FM-12+017499999V0203401N001010450019N0100001N1+02821+02221101441ADDAA106000091GF107991041021004501011011KA1240N+02531MA1999999099481MD1999999+0051REMSYN076AAXX  13124 82571 32497 73402 10282 20222 39948 40144 84211 333 20253 58005;EQDQ01  00002PRCP06
0167825710999992003101318004-05500-045267FM-12+017499999V0201601N006210042019N0100001N1+03301+02051101091ADDAA106000091GF107991061051004501031001MA1999999099151MD1999999+0141REMSYN070AAXX  13184 82571 32497 71612 10330 20205 39915 40109 86530 333 58014;EQDQ01  00002PRCP06
0208825710999992003101400004-05500-045267FM-12+017499999V0209999C000012200019N0100001N1+02631+02031101261ADDAA106000091GA1001+999999999GF100991001001999999001001KA1240M+03601MA1999999099301MD1999999+0141REMSYN082AAXX  14004 82571 32997 00000 10263 20203 39930 40126 333 10360 29064 55042 58014;EQDQ01  00002PRCP06
0186825710999992003101412004-05500-045267FM-12+017499999V0201801N001011050019N0100001N1+02871+02051101521ADDAA106000091GF105991021021004501031011KA1240N+02161MA1999999099551MD1999999+0071REMSYN076AAXX  14124 82571 32497 51802 10287 20205 39955 40152 82231 333 20216 58007;EQDQ01  00002PRCP06
0167825710999992003101418004-05500-045267FM-12+017499999V0202301N001012200019N0100001N1+03581+01881101061ADDAA106000091GF102991021021004501001001MA1999999099121MD1999999-0031REMSYN070AAXX  14184 82571 32497 22302 10358 20188 39912 40106 82200 333 59003;EQDQ01  00002PRCP06
0208825710999992003101500004-05500-045267FM-12+017499999V0201401N001012200019N0100001N1+03021+01991101171ADDAA106000091GA1001+999999999GF100991001001999999001001KA1240M+03701MA1999999099231MD1999999-0071REMSYN082AAXX  15004 82571 32997 01402 10302 20199 39923 40117 333 10370 29052 55092 59007;EQDQ01  00002PRCP06
0167825710999992003101518004-05500-045267FM-12+017499999V0201401N001010450019N0100001N1+03381+01981101091ADDAA106000091GF105991021021004501031001MA1999999099161MD1999999+0041REMSYN070AAXX  15184 82571 32497 51402 10338 20198 39916 40109 82230 333 58004;EQDQ01  00002PRCP06
0167825710999992003101618004-05500-045267FM-12+017499999V0201401N001010042019N0100001N1+03371+02091101021ADDAA106000091GF106991061051004501001001MA1999999099091MD1999999-0071REMSYN070AAXX  16184 82571 32497 61402 10337 20209 39909 40102 86500 333 59007;EQDQ01  00002PRCP06
0208825710999992003101700004-05500-045267FM-12+017499999V0209999C000012200019N0100001N1+03071+02271101211ADDAA106000091GA1001+999999999GF100991001001999999001001KA1240M+03451MA1999999099271MD1999999-0121REMSYN082AAXX  17004 82571 32997 00000 10307 20227 39927 40121 333 10345 29060 55050 59012;EQDQ01  00002PRCP06
0186825710999992003101712004-05500-045267FM-12+017499999V0200701N001010450019N0100001N1+02751+02281101461ADDAA106000091GF105991031021004501031001KA1240N+02541MA1999999099511MD1999999-0041REMSYN076AAXX  17124 82571 32497 50702 10275 20228 39951 40146 83230 333 20254 59004;EQDQ01  00002PRCP06
0208825710999992003101800004-05500-045267FM-12+017499999V0209999C000012200019N0100001N1+02951+02261101171ADDAA106000091GA1001+999999999GF100991001001999999001001KA1240M+03601MA1999999099221MD1999999-0051REMSYN082AAXX  18004 82571 32997 00000 10295 20226 39922 40117 333 10360 29062 55079 59005;EQDQ01  00002PRCP06
0186825710999992003101812004-05500-045267FM-12+017499999V0200501N001010042019N0100001N1+02631+02231101481ADDAA106000091GF108991081051004501999999KA1240N+02531MA1999999099521MD1999999+0011REMSYN076AAXX  18124 82571 32497 80502 10263 20223 39952 40148 885// 333 20253 58001;EQDQ01  00002PRCP06
0167825710999992003101818004-05500-045267FM-12+017499999V0202301N001012200019N0100001N1+03431+02111101051ADDAA106000091GF104991021021004501001011MA1999999099121MD1999999+0051REMSYN070AAXX  18184 82571 32497 42302 10343 20211 39912 40105 82201 333 58005;EQDQ01  00002PRCP06
0208825710999992003101900004-05500-045267FM-12+017499999V0202001N001012200019N0100001N1+03021+02291101251ADDAA106000091GA1001+999999999GF100991001001999999001001KA1240M+03571MA1999999099291MD1999999+0071REMSYN082AAXX  19004 82571 32997 02002 10302 20229 39929 40125 333 10357 29064 55061 58007;EQDQ01  00002PRCP06
0186825710999992003101912004-05500-045267FM-12+017499999V0200501N003112200019N0100001N1+02971+02211101471ADDAA106000091GF101991011011004501001001KA1240N+02551MA1999999099531MD1999999+0011REMSYN076AAXX  19124 82571 32497 10506 10297 20221 39953 40147 81100 333 20255 58001;EQDQ01  00002PRCP06
0167825710999992003101918004-05500-045267FM-12+017499999V0201401N001012200019N0100001N1+03661+02001100901ADDAA106000091GF102991021021004501001001MA1999999098981MD1999999-0141REMSYN070AAXX  19184 82571 32497 21402 10366 20200 39898 40090 82200 333 59014;EQDQ01  00002PRCP06
0208825710999992003102000004-05500-045267FM-12+017499999V0201801N001012200019N0100001N1+03171+02251101121ADDAA106000091GA1001+999999999GF100991001001999999001001KA1240M+03781MA1999999099191MD1999999-0101REMSYN082AAXX  20004 82571 32997 01802 10317 20225 39919 40112 333 10378 29055 55102 59010;EQDQ01  00002PRCP06
0186825710999992003102012004-05500-045267FM-12+017499999V0200501N002110042019N0100001N1+02751+02211101531ADDAA106000091GF108991081051004501999999KA1240N+02621MA1999999099581MD1999999+0051REMSYN076AAXX  20124 82571 32497 80504 10275 20221 39958 40153 885// 333 20262 58005;EQDQ01  00002PRCP06
0167825710999992003102018004-05500-045267FM-12+017499999V0203601N002112200019N0100001N1+03531+02131100951ADDAA106000091GF103991031021004501001001MA1999999099031MD1999999+0051REMSYN070AAXX  20184 82571 32497 33604 10353 20213 39903 40095 83200 333 58005;EQDQ01  00002PRCP06
0208825710999992003102100004-05500-045267FM-12+017499999V0202901N001012200019N0100001N1+03041+02231101131ADDAA106000091GA1001+999999999GF100991001001999999001001KA1240M+03651MA1999999099181MD1999999-0011REMSYN082AAXX  21004 82571 32997 02902 10304 20223 39918 40113 333 10365 29060 55061 59001;EQDQ01  00002PRCP06
0186825710999992003102112004-05500-045267FM-12+017499999V0200501N001010042019N0100001N1+02691+02241101441ADDAA106000091GF108991081051004501999999KA1240N+02561MA1999999099481MD1999999-0101REMSYN076AAXX  21124 82571 32497 80502 10269 20224 39948 40144 885// 333 20256 59010;EQDQ01  00002PRCP06
0167825710999992003102118004-05500-045267FM-12+017499999V0200501N003112200019N0100001N1+03561+02151100801ADDAA106000091GF104991041021004501001001MA1999999098881MD1999999-0151REMSYN070AAXX  21184 82571 32497 40506 10356 20215 39888 40080 84200 333 59015;EQDQ01  00002PRCP06
0208825710999992003102200004-05500-045267FM-12+017499999V0203601N002112200019N0100001N1+02991+02221101051ADDAA106000091GA1001+999999999GF100991001001999999001001KA1240M+03631MA1999999099101MD1999999-0081REMSYN082AAXX  22004 82571 32997 03604 10299 20222 39910 40105 333 10363 29062 55054 59008;EQDQ01  00002PRCP06
0186825710999992003102212004-05500-045267FM-12+017499999V0200501N001010042019N0100001N1+02791+02271101441ADDAA106000091GF107991071051004501001001KA1240N+02531MA1999999099491MD1999999+0011REMSYN076AAXX  22124 82571 32497 70502 10279 20227 39949 40144 87500 333 20253 58001;EQDQ01  00002PRCP06
0167825710999992003102218004-05500-045267FM-12+017499999V0203401N001012200019N0100001N1+03481+02151100901ADDAA106000091GF104991021021004501011001MA1999999098971MD1999999+0091REMSYN070AAXX  22184 82571 32497 43402 10348 20215 39897 40090 82210 333 58009;EQDQ01  00002PRCP06
0208825710999992003102300004-05500-045267FM-12+017499999V0202701N001012200019N0100001N1+02991+02371101111ADDAA106000091GA1001+999999999GF100991001001999999001001KA1240M+03571MA1999999099161MD1999999+0061REMSYN082AAXX  23004 82571 32997 02702 10299 20237 39916 40111 333 10357 29064 55055 58006;EQDQ01  00002PRCP06
0186825710999992003102312004-05500-045267FM-12+017499999V0200501N003110042019N0100001N1+02791+02181101541ADDAA106000091GF106991051021004501011001KA1240N+02471MA1999999099591MD1999999+0101REMSYN076AAXX  23124 82571 32497 60506 10279 20218 39959 40154 85210 333 20247 58010;EQDQ01  00002PRCP06
0167825710999992003102318004-05500-045267FM-12+017499999V0200201N002110450019N0100001N1+03571+02011100991ADDAA106000091GF105991031021004501011001MA1999999099071MD1999999+0101REMSYN070AAXX  23184 82571 32497 50204 10357 20201 39907 40099 83210 333 58010;EQDQ01  00002PRCP06
0208825710999992003102400004-05500-045267FM-12+017499999V0202501N001012200019N0100001N1+03111+02171101251ADDAA106000091GA1001+999999999GF100991001001999999001001KA1240M+03701MA1999999099311MD1999999+0151REMSYN082AAXX  24004 82571 32997 02502 10311 20217 39931 40125 333 10370 29056 55093 58015;EQDQ01  00002PRCP06
0186825710999992003102412004-05500-045267FM-12+017499999V0200201N002110042019N0100001N1+02771+02181101601ADDAA106000091GF107991071051004501001001KA1240N+02541MA1999999099651MD1999999+0061REMSYN076AAXX  24124 82571 32497 70204 10277 20218 39965 40160 87500 333 20254 58006;EQDQ01  00002PRCP06
0167825710999992003102418004-05500-045267FM-12+017499999V0201401N001012200019N0100001N1+03511+02111101121ADDAA106000091GF104991041021004501001001MA1999999099191MD1999999+0121REMSYN070AAXX  24184 82571 32497 41402 10351 20211 39919 40112 84200 333 58012;EQDQ01  00002PRCP06
0198825710999992003102500004-05500-045267FM-12+017499999V0201401N003112200019N0100001N1+03051+02051101321ADDAA106000091GF102991021001017501061001KA1240M+03671MA1999999099371MD1999999+0061REMSYN088AAXX  25004 82571 32797 21406 10305 20205 39937 40132 82060 333 10367 29056 55086 58006;EQDQ01  00002PRCP06
0186825710999992003102512004-05500-045267FM-12+017499999V0203401N001012200019N0100001N1+02931+02081101531ADDAA106000091GF102991021011004501001001KA1240N+02531MA1999999099581MD1999999-0071REMSYN076AAXX  25124 82571 32497 23402 10293 20208 39958 40153 82100 333 20253 59007;EQDQ01  00002PRCP06
0167825710999992003102518004-05500-045267FM-12+017499999V0202301N001012200019N0100001N1+03581+02011100951ADDAA106000091GF103991031021004501001001MA1999999099031MD1999999-0161REMSYN070AAXX  25184 82571 32497 32302 10358 20201 39903 40095 83200 333 59016;EQDQ01  00002PRCP06
0208825710999992003102600004-05500-045267FM-12+017499999V0202301N001012200019N0100001N1+03041+02201101111ADDAA106000091GA1001+999999999GF100991001001999999001001KA1240M+03671MA1999999099171MD1999999-0201REMSYN082AAXX  26004 82571 32497 02302 10304 20220 39917 40111 333 10367 29056 55105 59020;EQDQ01  00002PRCP06
0202825710999992003102700004-05500-045267FM-12+017499999V0202301N001010042019N0100001N1+02491+02251101061ADDAY191061AY261061GF108991081051004501999999KA1240M+03551MA1999999099101MD1999999-0071MW1021REMSYN100AAXX  27004 82571 21497 82302 10249 20225 39910 40106 70296 885// 333 10355 29071 55057 59007 60121;
0162825710999992003102712004-05500-045267FM-12+017499999V0200501N001010042019N0100001N1+02621+02271101321ADDGF107991071051004501001001KA1240N+02451MA1999999099341MD1999999+0011REMSYN082AAXX  27124 82571 22497 70502 10262 20227 39934 40132 87500 333 20245 58001 60124;
0167825710999992003102718004-05500-045267FM-12+017499999V0203601N001012200019N0100001N1+03451+02131100831ADDAA106000091GF102991021021004501001001MA1999999098891MD1999999-0081REMSYN070AAXX  27184 82571 32497 23602 10345 20213 39889 40083 82200 333 59008;EQDQ01  00002PRCP06
0208825710999992003102800004-05500-045267FM-12+017499999V0200901N001012200019N0100001N1+02941+02191100991ADDAA106000091GA1001+999999999GF100991001001999999001001KA1240M+03571MA1999999099041MD1999999-0061REMSYN082AAXX  28004 82571 32997 00902 10294 20219 39904 40099 333 10357 29064 55086 59006;EQDQ01  00002PRCP06
0186825710999992003102812004-05500-045267FM-12+017499999V0200501N003110042019N0100001N1+02691+02241101411ADDAA106000091GF107991071051004501001001KA1240N+02531MA1999999099451MD1999999+0111REMSYN076AAXX  28124 82571 32497 70506 10269 20224 39945 40141 87500 333 20253 58011;EQDQ01  00002PRCP06
0167825710999992003102818004-05500-045267FM-12+017499999V0201601N003112200019N0100001N1+03461+02061100911ADDAA106000091GF104991021021004501011011MA1999999098981MD1999999+0091REMSYN070AAXX  28184 82571 32497 41606 10346 20206 39898 40091 82211 333 58009;EQDQ01  00002PRCP06
0198825710999992003102900004-05500-045267FM-12+017499999V0201801N001012200019N0100001N1+03091+02291101101ADDAA106000091GF102991021001004501011001KA1240M+03621MA1999999099151MD1999999+0111REMSYN088AAXX  29004 82571 32497 21802 10309 20229 39915 40110 82010 333 10362 29061 55074 58011;EQDQ01  00002PRCP06
0186825710999992003102912004-05500-045267FM-12+017499999V0200901N002110042019N0100001N1+02681+02181101441ADDAA106000091GF107991071051004501001001KA1240N+02441MA1999999099491MD1999999+0041REMSYN076AAXX  29124 82571 32497 70904 10268 20218 39949 40144 87500 333 20244 58004;EQDQ01  00002PRCP06
0167825710999992003102918004-05500-045267FM-12+017499999V0201601N002112200019N0100001N1+03521+01961100871ADDAA106000091GF104991031021004501001011MA1999999098951MD1999999-0031REMSYN070AAXX  29184 82571 32497 41604 10352 20196 39895 40087 83201 333 59003;EQDQ01  00002PRCP06
0208825710999992003103000004-05500-045267FM-12+017499999V0202501N001012200019N0100001N1+03051+02171101071ADDAA106000091GA1001+999999999GF100991001001999999001001KA1240M+03621MA1999999099121MD1999999-0031REMSYN082AAXX  30004 82571 32997 02502 10305 20217 39912 40107 333 10362 29058 55089 59003;EQDQ01  00002PRCP06
0186825710999992003103012004-05500-045267FM-12+017499999V0200501N001010042019N0100001N1+02751+02211101401ADDAA106000091GF108991081051004501999999KA1240N+02571MA1999999099451MD1999999-0041REMSYN076AAXX  30124 82571 32497 80502 10275 20221 39945 40140 885// 333 20257 59004;EQDQ01  00002PRCP06
0167825710999992003103018004-05500-045267FM-12+017499999V0203401N002112200019N0100001N1+03531+02011100831ADDAA106000091GF104991041021004501001001MA1999999098911MD1999999-0041REMSYN070AAXX  30184 82571 32497 43404 10353 20201 39891 40083 84200 333 59004;EQDQ01  00002PRCP06
0208825710999992003103100004-05500-045267FM-12+017499999V0200501N001012200019N0100001N1+03011+02161100961ADDAA106000091GA1001+999999999GF100991001001999999001001KA1240M+03641MA1999999099021MD1999999-0101REMSYN082AAXX  31004 82571 32997 00502 10301 20216 39902 40096 333 10364 29058 55072 59010;EQDQ01  00002PRCP06
0186825710999992003103112004-05500-045267FM-12+017499999V0203601N001010450019N0100001N1+02931+02291101271ADDAA106000091GF105991031021004501031001KA1240N+02601MA1999999099331MD1999999-0121REMSYN076AAXX  31124 82571 32497 53602 10293 20229 39933 40127 83230 333 20260 59012;EQDQ01  00002PRCP06
0167825710999992003103118004-05500-045267FM-12+017499999V0203601N001012200019N0100001N1+03481+02181100801ADDAA106000091GF104991031021004501001011MA1999999098881MD1999999-0031REMSYN070AAXX  31184 82571 32497 43602 10348 20218 39888 40080 83201 333 59003;EQDQ01  00002PRCP06
0198825710999992003110100004-05500-045267FM-12+017499999V0202301N030820042019N0100001N1+03031+02121101091ADDAA106000091GF105991051051004501001001KA1240M+03701MA1999999099071MD1999999+0051REMSYN088AAXX  01004 82571 32497 52360 10303 20212 39907 40109 85500 333 10370 29058 55079 58005;EQDQ01  00002PRCP06
0190825710999992003110112004-05500-045267FM-12+017499999V0200901N001010450019N0100001N1+02681+02391101391ADDAY161061AY211061GF106991031051004501031001KA1240N+02591MA1999999099441MD1999999+0111MW1021REMSYN088AAXX  01124 82571 21497 60902 10268 20239 39944 40139 70261 83530 333 20259 58011 60024;
0167825710999992003110118004-05500-045267FM-12+017499999V0200901N001012200019N0100001N1+03331+02121100951ADDAA106000091GF106991041051004501001011MA1999999099021MD1999999+0111REMSYN070AAXX  01184 82571 32497 60902 10333 20212 39902 40095 84501 333 58011;EQDQ01  00002PRCP06
0198825710999992003110200004-05500-045267FM-12+017499999V0203201N001010042019N0100001N1+02721+02281101321ADDAA106000091GF108991081051004501999999KA1240M+03481MA1999999099351MD1999999+0281REMSYN088AAXX  02004 82571 32497 83202 10272 20228 39935 40132 885// 333 10348 29072 55057 58028;EQDQ01  00002PRCP06
0186825710999992003110212004-05500-045267FM-12+017499999V0201401N001012200019N0100001N1+02911+02171101321ADDAA106000091GF102991011001017501031011KA1240N+02401MA1999999099361MD1999999-0081REMSYN076AAXX  02124 82571 32797 21402 10291 20217 39936 40132 81031 333 20240 59008;EQDQ01  00002PRCP06
0167825710999992003110218004-05500-045267FM-12+017499999V0202701N001011050019N0100001N1+03651+02121100761ADDAA106000091GF105991021051004501031011MA1999999098841MD1999999-0181REMSYN070AAXX  02184 82571 32497 52702 10365 20212 39884 40076 82531 333 59018;EQDQ01  00002PRCP06
0202825710999992003110300004-05500-045267FM-12+017499999V0201401N001010042019N0100001N1+02461+02341101201ADDAY191061AY261061GF108991081051004501999999KA1240M+03721MA1999999099241MD1999999-0111MW1171REMSYN100AAXX  03004 82571 21497 81402 10246 20234 39924 40120 71796 885// 333 10372 29073 55086 59011 60351;
0190825710999992003110312004-05500-045267FM-12+017499999V0200501N003110450019N0100001N1+02531+02381101391ADDAY191061AY261061GF106991041051004501031001KA1240N+02371MA1999999099411MD1999999+0051MW1811REMSYN088AAXX  03124 82571 21497 60506 10253 20238 39941 40139 78196 84530 333 20237 58005 60384;
0148825710999992003110318004-05500-045267FM-12+017499999V0200901N005112200019N0100001N1+03211+02201100801ADDAA106000021GF103991011021004501041011MA1999999098851MD1999999+0011REMSYN070AAXX  03184 82571 32497 30910 10321 20220 39885 40080 81241 333 58001;
0198825710999992003110400004-05500-045267FM-12+017499999V0209999C000012200019N0100001N1+02851+02391101031ADDAA106000091GF104991041091004501001001KA1240M+03351MA1999999099071MD1999999-0171REMSYN088AAXX  04004 82571 32497 40000 10285 20239 39907 40103 84900 333 10335 29074 55079 59017;EQDQ01  00002PRCP06
0186825710999992003110412004-05500-045267FM-12+017499999V0200201N004110042019N0100001N1+02671+02241101371ADDAA106000091GF108991081051004501999999KA1240N+02501MA1999999099411MD1999999+0001REMSYN076AAXX  04124 82571 32497 80208 10267 20224 39941 40137 885// 333 20250 58000;EQDQ01  00002PRCP06
0090825710999992003110418004-05500-045267FM-12+017499999V02099999999999999999N9999999N1+99999+99999999999REMSYN081AAXX  04184 82571 21497 7302 10265 20233 39918 40115 71761 86510 333 58033 69911;
0202825710999992003110500004-05500-045267FM-12+017499999V0202301N001010450019N0040001N1+02251+02211101501ADDAY191061AY261061GF108991041071004501021999KA1240M+02981MA1999999099511MD1999999+0441MW1611REMSYN100AAXX  05004 82571 21496 82302 10225 20221 39951 40150 76196 8472/ 333 10298 29088 55008 58044 60191;
0190825710999992003110512004-05500-045267FM-12+017499999V0202301N001010042019N0100001N1+02431+02301101641ADDAY161061AY221061GF108991081051004501999999KA1240N+02221MA1999999099641MD1999999+0231MW1021REMSYN088AAXX  05124 82571 21497 82302 10243 20230 39964 40164 70262 885// 333 20222 58023 60194;
0167825710999992003110518004-05500-045267FM-12+017499999V0200901N003112200019N0100001N1+03211+02261101001ADDAA106000091GF104991041021004501001001MA1999999099041MD1999999-0141REMSYN070AAXX  05184 82571 32497 40906 10321 20226 39904 40100 84200 333 59014;EQDQ01  00002PRCP06
0210825710999992003110600004-05500-045267FM-12+017499999V0202501N001012200019N0100001N1+02741+02341101371ADDAA106000091GF103991011061004501041001KA1240M+03321MA1999999099401MD1999999-0111MW1131REMSYN094AAXX  06004 82571 31497 32502 10274 20234 39940 40137 713// 81640 333 10332 29077 55057 59011;EQDQ01  00002PRCP06
0190825710999992003110612004-05500-045267FM-12+017499999V0201801N001010042019N0100001N1+02411+02351101611ADDAY161061AY221061GF108991081051004501999999KA1240N+02381MA1999999099631MD1999999-0011MW1021REMSYN088AAXX  06124 82571 21497 81802 10241 20235 39963 40161 70262 885// 333 20238 59001 60014;
0171825710999992003110618004-05500-045267FM-12+017499999V0200901N001010450019N0100001N1+03091+02261101061ADDAY161061AY221061GF106991041021004501041001MA1999999099111MD1999999+0071MW1011REMSYN082AAXX  06184 82571 21497 60902 10309 20226 39911 40106 70162 84240 333 58007 69931;
0198825710999992003110700004-05500-045267FM-12+017499999V0201601N001012200019N0100001N1+02671+02391101241ADDAA106000091GF103991031001017501031001KA1240M+03341MA1999999099261MD1999999-0141REMSYN088AAXX  07004 82571 32797 31602 10267 20239 39926 40124 83030 333 10334 29081 55032 59014;EQDQ01  00002PRCP06
0162825710999992003110712004-05500-045267FM-12+017499999V0202701N001012200019N0100001N1+02851+02311101261ADDGF103991011011004501001011KA1240N+02291MA1999999099301MD1999999-0331REMSYN082AAXX  07124 82571 22497 32702 10285 20231 39930 40126 81101 333 20229 59033 69934;
0167825710999992003110718004-05500-045267FM-12+017499999V0201401N002112200019N0100001N1+03641+02101100721ADDAA106000091GF103991031021004501001001MA1999999098791MD1999999-0321REMSYN070AAXX  07184 82571 32497 31404 10364 20210 39879 40072 83200 333 59032;EQDQ01  00002PRCP06
0226825710999992003110800004-05500-045267FM-12+017499999V0201401N007210450019N0100001N1+02931+02241101001ADDAA106000091AY191061AY211061GF105991031041004501031001KA1240M+03761MA1999999099061MD1999999-0201MW1131REMSYN094AAXX  08004 82571 31497 51414 10293 20224 39906 40100 71391 83430 333 10376 29061 55106 59020;EQDQ01  00002PRCP06
0190825710999992003110812004-05500-045267FM-12+017499999V0201401N001010042019N0100001N1+02521+02361101491ADDAY191061AY261061GF108991081051004501999999KA1240N+02301MA1999999099521MD1999999+0221MW1021REMSYN088AAXX  08124 82571 21497 81402 10252 20236 39952 40149 70296 885// 333 20230 58022 60294;
0171825710999992003110818004-05500-045267FM-12+017499999V0202301N001012200019N0100001N1+02921+02361101171ADDAY161061AY221061GF103991031021004501031011MA1999999099211MD1999999+0421MW1031REMSYN082AAXX  08184 82571 21497 32302 10292 20236 39921 40117 70362 83231 333 58042 60241;
0198825710999992003110900004-05500-045267FM-12+017499999V0201801N001012200019N0100001N1+02591+02291101281ADDAA106000091GF102991021001017501061001KA1240M+03011MA1999999099311MD1999999+0281REMSYN088AAXX  09004 82571 32797 21802 10259 20229 39931 40128 82060 333 10301 29082 55039 58028;EQDQ01  00002PRCP06
0162825710999992003110912004-05500-045267FM-12+017499999V0200501N003110450019N0100001N1+02731+02121101371ADDGF106991031021004501031011KA1240N+02341MA1999999099401MD1999999-0121REMSYN082AAXX  09124 82571 22497 60506 10273 20212 39940 40137 83231 333 20234 59012 60244;
0167825710999992003110918004-05500-045267FM-12+017499999V0200701N001010450019N0100001N1+03131+02161100991ADDAA106000091GF106991041051004501041011MA1999999099041MD1999999-0171REMSYN070AAXX  09184 82571 32497 60702 10313 20216 39904 40099 84541 333 59017;EQDQ01  00002PRCP06
0198825710999992003111000004-05500-045267FM-12+017499999V0202301N001010150019N0100001N1+02711+02391101191ADDAA106000091GF106991061001017501041001KA1240M+03241MA1999999099231MD1999999-0081REMSYN088AAXX  10004 82571 32797 62302 10271 20239 39923 40119 86040 333 10324 29072 55048 59008;EQDQ01  00002PRCP06
0186825710999992003111012004-05500-045267FM-12+017499999V0203601N001012200019N0100001N1+02821+02221101381ADDAA106000091GF102991011011004501001011KA1240N+02321MA1999999099421MD1999999+0021REMSYN076AAXX  10124 82571 32497 23602 10282 20222 39942 40138 81101 333 20232 58002;EQDQ01  00002PRCP06
0167825710999992003111018004-05500-045267FM-12+017499999V0201801N001012200019N0100001N1+03531+02131100841ADDAA106000091GF104991031021004501001011MA1999999098911MD1999999-0131REMSYN070AAXX  10184 82571 32497 41802 10353 20213 39891 40084 83201 333 59013;EQDQ01  00002PRCP06
0198825710999992003111100004-05500-045267FM-12+017499999V0201801N002110042019N0100001N1+02871+02321101191ADDAA106000091GF105991051051004501001001KA1240M+03601MA1999999099241MD1999999+0011REMSYN088AAXX  11004 82571 32497 51804 10287 20232 39924 40119 85500 333 10360 29064 55108 58001;EQDQ01  00002PRCP06
0190825710999992003111112004-05500-045267FM-12+017499999V0201601N001010042019N0100001N1+02501+02321101411ADDAY161061AY221061GF107991071051004501001001KA1240N+02381MA1999999099441MD1999999+0021MW1011REMSYN088AAXX  11124 82571 21497 71602 10250 20232 39944 40141 70162 87500 333 20238 58002 69934;
0208825710999992003111200004-05500-045267FM-12+017499999V0200701N001012200019N0100001N1+02851+02371101091ADDAA106000091GA1001+999999999GF100991001001999999001001KA1240M+03531MA1999999099131MD1999999-0111REMSYN082AAXX  12004 82571 32997 00702 10285 20237 39913 40109 333 10353 29072 55072 59011;EQDQ01  00002PRCP06
0186825710999992003111212004-05500-045267FM-12+017499999V0200901N003110042019N0100001N1+02711+02321101401ADDAA106000091GF107991071051004501001001KA1240N+02411MA1999999099441MD1999999+0001REMSYN076AAXX  12124 82571 32497 70906 10271 20232 39944 40140 87500 333 20241 58000;EQDQ01  00002PRCP06
0167825710999992003111218004-05500-045267FM-12+017499999V0201401N002112200019N0100001N1+03341+02281100951ADDAA106000091GF103991021021004501011001MA1999999099021MD1999999+0071REMSYN070AAXX  12184 82571 32497 31404 10334 20228 39902 40095 82210 333 58007;EQDQ01  00002PRCP06
0198825710999992003111300004-05500-045267FM-12+017499999V0201801N001012200019N0100001N1+02971+02281101191ADDAA106000091GF102991021021004501001001KA1240M+03491MA1999999099241MD1999999+0111REMSYN088AAXX  13004 82571 32497 21802 10297 20228 39924 40119 82200 333 10349 29066 55091 58011;EQDQ01  00002PRCP06
0186825710999992003111312004-05500-045267FM-12+017499999V0200501N003110042019N0100001N1+02661+02331101321ADDAA106000091GF108991081051004501999999KA1240N+02481MA1999999099561MD1999999+0121REMSYN076AAXX  13124 82571 32497 80506 10266 20233 39956 40132 885// 333 20248 58012;EQDQ01  00002PRCP06
0167825710999992003111318004-05500-045267FM-12+017499999V0202301N002112200019N0100001N1+03291+02331101141ADDAA106000091GF103991021021004501001011MA1999999099201MD1999999+0181REMSYN070AAXX  13184 82571 32497 32304 10329 20233 39920 40114 82201 333 58018;EQDQ01  00002PRCP06
0198825710999992003111400004-05500-045267FM-12+017499999V0201801N001012200019N0100001N1+02751+02071101201ADDAA106000091GF102991021001017501011001KA1240M+03471MA1999999099241MD1999999+0001REMSYN088AAXX  14004 82571 32797 21802 10275 20207 39924 40120 82010 333 10347 29068 55043 58000;EQDQ01  00002PRCP06
0186825710999992003111412004-05500-045267FM-12+017499999V0200901N003110450019N0100001N1+02721+02261101401ADDAA106000091GF106991041051004501031001KA1240N+02401MA1999999099441MD1999999-0121REMSYN076AAXX  14124 82571 32497 60906 10272 20226 39944 40140 84530 333 20240 59012;EQDQ01  00002PRCP06
0167825710999992003111418004-05500-045267FM-12+017499999V0201401N001010450019N0100001N1+03281+02291101061ADDAA106000091GF105991041021004501031001MA1999999099121MD1999999-0081REMSYN070AAXX  14184 82571 32497 51402 10328 20229 39912 40106 84230 333 59008;EQDQ01  00002PRCP06
0208825710999992003111500004-05500-045267FM-12+017499999V0202301N001012200019N0100001N1+02811+02381101231ADDAA106000091GA1001+999999999GF100991001001999999001001KA1240M+03381MA1999999099271MD1999999+0031REMSYN082AAXX  15004 82571 32997 02302 10281 20238 39927 40123 333 10338 29072 55095 58003;EQDQ01  00002PRCP06
0196825710999992003111512004-05500-045267FM-12+017499999V0200501N001012200019N0100001N1+02791+02271101391ADDAA106000091GA1001+999999999GF100991001001999999001001KA1240N+02371MA1999999099431MD1999999-0011REMSYN070AAXX  15124 82571 32997 00502 10279 20227 39943 40139 333 20237 59001;EQDQ01  00002PRCP06
0167825710999992003111518004-05500-045267FM-12+017499999V0202301N001012200019N0100001N1+03531+02251100961ADDAA106000091GF103991031021004501001001MA1999999099031MD1999999-0091REMSYN070AAXX  15184 82571 32497 32302 10353 20225 39903 40096 83200 333 59009;EQDQ01  00002PRCP06
0208825710999992003111600004-05500-045267FM-12+017499999V0202301N001012200019N0100001N1+02931+02491101131ADDAA106000091GA1001+999999999GF100991001001999999001001KA1240M+03631MA1999999099181MD1999999-0091REMSYN082AAXX  16004 82571 32997 02302 10293 20249 39918 40113 333 10363 29069 55111 59009;EQDQ01  00002PRCP06
0186825710999992003111612004-05500-045267FM-12+017499999V0201601N001010042019N0100001N1+02731+02381101361ADDAA106000091GF108991081051004501999999KA1240N+02581MA1999999099411MD1999999-0021REMSYN076AAXX  16124 82571 32497 81602 10273 20238 39941 40136 885// 333 20258 59002;EQDQ01  00002PRCP06
0167825710999992003111618004-05500-045267FM-12+017499999V0202301N001010450019N0100001N1+03391+02271100961ADDAA106000091GF106991031021004501031011MA1999999099031MD1999999+0001REMSYN070AAXX  16184 82571 32497 62302 10339 20227 39903 40096 83231 333 58000;EQDQ01  00002PRCP06
0208825710999992003111700004-05500-045267FM-12+017499999V0200901N001012200019N0100001N1+02901+02341101041ADDAA106000091GA1001+999999999GF100991001001999999001001KA1240M+03501MA1999999099091MD1999999-0091REMSYN082AAXX  17004 82571 32997 00902 10290 20234 39909 40104 333 10350 29069 55072 59009;EQDQ01  00002PRCP06
0186825710999992003111712004-05500-045267FM-12+017499999V0203601N001010042019N0100001N1+02691+02371101431ADDAA106000091GF108991081051004501999999KA1240N+02551MA1999999099471MD1999999+0061REMSYN076AAXX  17124 82571 32497 83602 10269 20237 39947 40143 885// 333 20255 58006;EQDQ01  00002PRCP06
0167825710999992003111718004-05500-045267FM-12+017499999V0201401N001010450019N0100001N1+03341+02281100931ADDAA106000091GF106991041051004501031001MA1999999099001MD1999999-0031REMSYN070AAXX  17184 82571 32497 61402 10334 20228 39900 40093 84530 333 59003;EQDQ01  00002PRCP06
0208825710999992003111800004-05500-045267FM-12+017499999V0202301N001012200019N0100001N1+02791+02461101111ADDAA106000091GA1001+999999999GF100991001001999999001001KA1240M+03471MA1999999099511MD1999999+0061REMSYN082AAXX  18004 82571 32997 02302 10279 20246 39951 40111 333 10347 29075 55042 58006;EQDQ01  00002PRCP06
0186825710999992003111812004-05500-045267FM-12+017499999V0200501N002110450019N0100001N1+02751+02341101381ADDAA106000091GF106991021011004501051011KA1240N+02451MA1999999099421MD1999999-0051REMSYN076AAXX  18124 82571 32497 60504 10275 20234 39942 40138 82151 333 20245 59005;EQDQ01  00002PRCP06
0208825710999992003111900004-05500-045267FM-12+017499999V0202301N001012200019N0100001N1+02971+02491101011ADDAA106000091GA1001+999999999GF100991001001999999001001KA1240M+03571MA1999999099061MD1999999-0091REMSYN082AAXX  19004 82571 32497 02302 10297 20249 39906 40101 333 10357 29069 55088 59009;EQDQ01  00002PRCP06
0190825710999992003111912004-05500-045267FM-12+017499999V0200501N001010450019N0100001N1+02171+02111101391ADDAY191061AY261061GF108991041071004501021999KA1240N+02161MA1999999099411MD1999999-0011MW1951REMSYN088AAXX  19124 82571 21497 80502 10217 20211 39941 40139 79596 8472/ 333 20216 59001 60184;
0171825710999992003111918004-05500-045267FM-12+017499999V0200501N002110450019N0100001N1+02841+02441101031ADDAY191061AY261061GF107991021021004501041011MA1999999099071MD1999999+0131MW1011REMSYN082AAXX  19184 82571 21497 70504 10284 20244 39907 40103 70196 82241 333 58013 60031;
0208825710999992003112000004-05500-045267FM-12+017499999V0201401N001012200019N0100001N1+02571+02461101141ADDAA106000091GA1001+999999999GF100991001001999999001001KA1240M+02981MA1999999099151MD1999999+0091REMSYN082AAXX  20004 82571 32997 01402 10257 20246 39915 40114 333 10298 29090 55016 58009;EQDQ01  00002PRCP06
0162825710999992003112012004-05500-045267FM-12+017499999V0201801N001010042019N0100001N1+02511+02401101431ADDGF108991081051004501999999KA1240N+02191MA1999999099451MD1999999+0041REMSYN082AAXX  20124 82571 22497 81802 10251 20240 39945 40143 885// 333 20219 58004 60034;
0167825710999992003112018004-05500-045267FM-12+017499999V0201401N001010450019N0100001N1+03131+02351101051ADDAA106000091GF105991031021004501031011MA1999999099091MD1999999+0021REMSYN070AAXX  20184 82571 32497 51402 10313 20235 39909 40105 83231 333 58002;EQDQ01  00002PRCP06
0208825710999992003112100004-05500-045267FM-12+017499999V0209999C000012200019N0100001N1+02561+02471101261ADDAA106000091GA1001+999999999GF100991001001999999001001KA1240M+03201MA1999999099281MD1999999+0131REMSYN082AAXX  21004 82571 32997 00000 10256 20247 39928 40126 333 10320 29086 55046 58013;EQDQ01  00002PRCP06
0186825710999992003112112004-05500-045267FM-12+017499999V0200501N001012200019N0100001N1+02751+02341101351ADDAA106000091GF103991021021004501041001KA1240N+02271MA1999999099381MD1999999-0071REMSYN076AAXX  21124 82571 32497 30502 10275 20234 39938 40135 82240 333 20227 59007;EQDQ01  00002PRCP06
0167825710999992003112118004-05500-045267FM-12+017499999V0202001N001012200019N0100001N1+03271+02261100931ADDAA106000091GF102991021021004501001001MA1999999098981MD1999999-0111REMSYN070AAXX  21184 82571 32497 22002 10327 20226 39898 40093 82200 333 59011;EQDQ01  00002PRCP06
0208825710999992003112200004-05500-045267FM-12+017499999V0209999C000012200019N0100001N1+02831+02581101091ADDAA106000091GA1001+999999999GF100991001001999999001001KA1240M+03451MA1999999099141MD1999999-0141REMSYN082AAXX  22004 82571 32997 00000 10283 20258 39914 40109 333 10345 29076 55104 59014;EQDQ01  00002PRCP06
0202825710999992003112212004-05500-045267FM-12+017499999V0200901N001019999999N0100001N1+02721+02371101361ADDAA106000091GF106991999061004501051001KA1240N+02401MA1999999099401MD1999999+0021REMSYN076AAXX  22124 82571 32497 60902 10272 20237 39940 40136 88650 333 20240 58002;EQDQ01+000082SCOTLCQ02  00002PRCP06
0167825710999992003112218004-05500-045267FM-12+017499999V0201801N001012200019N0100001N1+03311+02291100921ADDAA106000091GF102991021021004501001001MA1999999098981MD1999999+0001REMSYN070AAXX  22184 82571 32497 21802 10331 20229 39898 40092 82200 333 58000;EQDQ01  00002PRCP06
0208825710999992003112300004-05500-045267FM-12+017499999V0209999C000012200019N0100001N1+02811+02561101031ADDAA106000091GA1001+999999999GF100991001001999999001001KA1240M+03421MA1999999099071MD1999999-0071REMSYN082AAXX  23004 82571 32997 00000 10281 20256 39907 40103 333 10342 29077 55097 59007;EQDQ01  00002PRCP06
0190825710999992003112312004-05500-045267FM-12+017499999V0200501N001010450019N0100001N1+02591+02401101351ADDAY111061AY261061GF106991031051004501031001KA1240N+02531MA1999999099381MD1999999-0021MW1061REMSYN088AAXX  23124 82571 21497 60502 10259 20240 39938 40135 70616 83530 333 20253 59002 69974;
0167825710999992003112318004-05500-045267FM-12+017499999V0201401N001010450019N0100001N1+03251+02331100931ADDAA106000091GF106991031031004501041001MA1999999098991MD1999999+0011REMSYN070AAXX  23184 82571 32497 61402 10325 20233 39899 40093 83340 333 58001;EQDQ01  00002PRCP06
0208825710999992003112400004-05500-045267FM-12+017499999V0209999C000012200019N0100001N1+02751+02521101141ADDAA106000091GA1001+999999999GF100991001001999999001001KA1240M+03371MA1999999099171MD1999999+0101REMSYN082AAXX  24004 82571 32997 00000 10275 20252 39917 40114 333 10337 29080 55084 58010;EQDQ01  00002PRCP06
0186825710999992003112412004-05500-045267FM-12+017499999V0201401N001010042019N0100001N1+02721+02391101271ADDAA106000091GF107991061051004501001011KA1240N+02451MA1999999099311MD1999999-0071REMSYN076AAXX  24124 82571 32497 71402 10272 20239 39931 40127 86501 333 20245 59007;EQDQ01  00002PRCP06
0167825710999992003112418004-05500-045267FM-12+017499999V0200901N002112200019N0100001N1+03381+02321100811ADDAA106000091GF104991021021004501011011MA1999999098881MD1999999-0111REMSYN070AAXX  24184 82571 32497 40904 10338 20232 39888 40081 82211 333 59011;EQDQ01  00002PRCP06
0198825710999992003112500004-05500-045267FM-12+017499999V0201801N001012200019N0100001N1+02871+02391101021ADDAA106000091GF101991011001017501011001KA1240M+03471MA1999999099071MD1999999-0101REMSYN088AAXX  25004 82571 32797 11802 10287 20239 39907 40102 81010 333 10347 29072 55098 59010;EQDQ01  00002PRCP06
0186825710999992003112512004-05500-045267FM-12+017499999V0200901N003110042019N0100001N1+02671+02311101451ADDAA106000091GF107991071051004501001001KA1240N+02491MA1999999099491MD1999999+0181REMSYN076AAXX  25124 82571 32497 70906 10267 20231 39949 40145 87500 333 20249 58018;EQDQ01  00002PRCP06
0167825710999992003112518004-05500-045267FM-12+017499999V0200901N001010450019N0100001N1+03251+02331101031ADDAA106000091GF106991031021004501011011MA1999999099091MD1999999+0211REMSYN070AAXX  25184 82571 32497 60902 10325 20233 39909 40103 83211 333 58021;EQDQ01  00002PRCP06
0208825710999992003112600004-05500-045267FM-12+017499999V0202301N001012200019N0100001N1+02851+02481101221ADDAA106000091GA1001+999999999GF100991001001999999001001KA1240M+03371MA1999999099261MD1999999+0191REMSYN082AAXX  26004 82571 32997 02302 10285 20248 39926 40122 333 10337 29074 55073 58019;EQDQ01  00002PRCP06
0186825710999992003112612004-05500-045267FM-12+017499999V0200501N002110042019N0100001N1+02711+02371101421ADDAA106000091GF107991071051004501001001KA1240N+02451MA1999999099461MD1999999-0031REMSYN076AAXX  26124 82571 32497 70504 10271 20237 39946 40142 87500 333 20245 59003;EQDQ01  00002PRCP06
0167825710999992003112618004-05500-045267FM-12+017499999V0202001N001010450019N0100001N1+03221+02481101111ADDAA106000091GF106991031021004501011001MA1999999099171MD1999999+0081REMSYN070AAXX  26184 82571 32497 62002 10322 20248 39917 40111 83210 333 58008;EQDQ01  00002PRCP06
0208825710999992003112700004-05500-045267FM-12+017499999V0209999C000012200019N0100001N1+02791+02461101171ADDAA106000091GA1001+999999999GF100991001001999999001001KA1240M+03351MA1999999099211MD1999999-0051REMSYN082AAXX  27004 82571 32497 00000 10279 20246 39921 40117 333 10335 29078 55030 59005;EQDQ01  00002PRCP06
0186825710999992003112712004-05500-045267FM-12+017499999V0200501N002110042019N0100001N1+02691+02351101321ADDAA106000091GF107991071051004501001001KA1240N+02451MA1999999099361MD1999999-0101REMSYN076AAXX  27124 82571 32497 70504 10269 20235 39936 40132 87500 333 20245 59010;EQDQ01  00002PRCP06
0167825710999992003112718004-05500-045267FM-12+017499999V0200901N002110042019N0100001N1+03351+02331100821ADDAA106000091GF105991051021004501001001MA1999999098891MD1999999-0281REMSYN070AAXX  27184 82571 32497 50904 10335 20233 39889 40082 85200 333 59028;EQDQ01  00002PRCP06
0208825710999992003112800004-05500-045267FM-12+017499999V0202301N001012200019N0100001N1+02931+02471100981ADDAA106000091GA1001+999999999GF100991001001999999001001KA1240M+03491MA1999999099031MD1999999-0181REMSYN082AAXX  28004 82571 32997 02302 10293 20247 39903 40098 333 10349 29072 55086 59018;EQDQ01  00002PRCP06
0186825710999992003112812004-05500-045267FM-12+017499999V0200501N003112200019N0100001N1+02801+02251101211ADDAA106000091GF105991041021004501001011KA1240N+02491MA1999999099261MD1999999-0101REMSYN076AAXX  28124 82571 32497 50506 10280 20225 39926 40121 84201 333 20249 59010;EQDQ01  00002PRCP06
0167825710999992003112818004-05500-045267FM-12+017499999V0200901N001010450019N0100001N1+03411+02321100741ADDAA106000091GF105991031021004501011011MA1999999098811MD1999999-0081REMSYN070AAXX  28184 82571 32497 50902 10341 20232 39881 40074 83211 333 59008;EQDQ01  00002PRCP06
0208825710999992003112900004-05500-045267FM-12+017499999V0209999C000012200019N0100001N1+02931+02381100881ADDAA106000091GA1001+999999999GF100991001001999999001001KA1240M+03511MA1999999098941MD1999999-0091REMSYN082AAXX  29004 82571 32997 00000 10293 20238 39894 40088 333 10351 29067 55098 59009;EQDQ01  00002PRCP06
0186825710999992003112912004-05500-045267FM-12+017499999V0200501N001010450019N0100001N1+02671+02311101201ADDAA106000091GF106991041021004501031001KA1240N+02481MA1999999099251MD1999999-0011REMSYN076AAXX  29124 82571 32497 60502 10267 20231 39925 40120 84230 333 20248 59001;EQDQ01  00002PRCP06
0155825710999992003112918004-05500-045267FM-12+017499999V0202301N001010450019N0100001N1+03051+02331100901ADDGF106991041021004501031001MA1999999098961MD1999999+0151MW1631REMSYN082AAXX  29184 82571 21497 62302 10305 20233 39896 40090 763// 84230 333 58015 69951;
0217825710999992003113000004-05500-045267FM-12+017499999V0209999C000012200019N0100001N1+02731+02301101011ADDAA106000021AY101061AY201061GA1001+999999999GF100991001001999999001001KA1240M+03221MA1999999099051MD1999999+0111MW1131REMSYN088AAXX  30004 82571 31997 00000 10273 20230 39905 40101 71300 333 10322 29075 55055 58011;
0181825710999992003113012004-05500-045267FM-12+017499999V0200501N001010090019N0100001N1+02671+02331101331ADDGF108991999081004501051999KA1240N+02371MA1999999099361MD1999999+0111REMSYN082AAXX  30124 82571 22497 80502 10267 20233 39936 40133 8885/ 333 20237 58011 69954;EQDQ01+000082SCOTLC
0167825710999992003113018004-05500-045267FM-12+017499999V0201401N001012200019N0100001N1+03291+02271100931ADDAA106000091GF104991031021004501001011MA1999999098991MD1999999+0031REMSYN070AAXX  30184 82571 32497 41402 10329 20227 39899 40093 83201 333 58003;EQDQ01  00002PRCP06
0208825710999992003120100004-05500-045267FM-12+017499999V0201401N003112200019N0100001N1+02861+02351101001ADDAA106000091GA1001+999999999GF100991001001999999001001KA1240M+03401MA1999999099051MD1999999+0001REMSYN082AAXX  01004 82571 32997 01406 10286 20235 39905 40100 333 10340 29071 55071 58000;EQDQ01  00002PRCP06
0186825710999992003120112004-05500-045267FM-12+017499999V0200501N003110042019N0100001N1+02751+02341101321ADDAA106000091GF107991071051004501001001KA1240N+02421MA1999999099361MD1999999+0001REMSYN076AAXX  01124 82571 32497 70506 10275 20234 39936 40132 87500 333 20242 58000;EQDQ01  00002PRCP06
0167825710999992003120118004-05500-045267FM-12+017499999V0201601N001012200019N0100001N1+03291+02331100881ADDAA106000091GF105991041021004501001011MA1999999098941MD1999999-0051REMSYN070AAXX  01184 82571 32497 51602 10329 20233 39894 40088 84201 333 59005;EQDQ01  00002PRCP06
0208825710999992003120200004-05500-045267FM-12+017499999V0202301N001012200019N0100001N1+02721+02431100961ADDAA106000091GA1001+999999999GF100991001001999999001001KA1240M+03401MA1999999099011MD1999999-0041REMSYN082AAXX  02004 82571 32997 02302 10272 20243 39901 40096 333 10340 29076 55/// 59004;EQDQ01  00002PRCP06
0186825710999992003120212004-05500-045267FM-12+017499999V0200901N001010042019N0100001N1+02671+02331101251ADDAA106000091GF108991081051004501999999KA1240N+02401MA1999999099291MD1999999-0071REMSYN076AAXX  02124 82571 32497 80902 10267 20233 39929 40125 885// 333 20240 59007;EQDQ01  00002PRCP06
0167825710999992003120218004-05500-045267FM-12+017499999V0200901N001012200019N0100001N1+03431+02311100811ADDAA106000091GF107991041021004501001011MA1999999098881MD1999999-0061REMSYN070AAXX  02184 82571 32497 70902 10343 20231 39888 40081 84201 333 59006;EQDQ01  00002PRCP06
0208825710999992003120300004-05500-045267FM-12+017499999V0209999C000012200019N0100001N1+02811+02241100911ADDAA106000091GA1001+999999999GF100991001001999999001001KA1240M+03551MA1999999098961MD1999999-0051REMSYN082AAXX  03004 82571 32997 00000 10281 20224 39896 40091 333 10355 29069 55/// 59005;EQDQ01  00002PRCP06
0186825710999992003120312004-05500-045267FM-12+017499999V0200901N002110042019N0100001N1+02661+02311101351ADDAA106000091GF108991081051004501999999KA1240N+02401MA1999999099391MD1999999+0101REMSYN076AAXX  03124 82571 32497 80904 10266 20231 39939 40135 885// 333 20240 58010;EQDQ01  00002PRCP06
0167825710999992003120318004-05500-045267FM-12+017499999V0201801N001012200019N0100001N1+03241+02331100871ADDAA106000091GF104991031021004501031001MA1999999098931MD1999999+0051REMSYN070AAXX  03184 82571 32497 41802 10324 20233 39893 40087 83230 333 58005;EQDQ01  00002PRCP06
0198825710999992003120400004-05500-045267FM-12+017499999V0209999C000012200019N0100001N1+02811+02441101081ADDAA106000091GF102991021001017501011001KA1240M+03531MA1999999099121MD1999999+0161REMSYN088AAXX  04004 82571 32797 20000 10281 20244 39912 40108 82010 333 10353 29075 55/// 58016;EQDQ01  00002PRCP06
0186825710999992003120412004-05500-045267FM-12+017499999V0200701N002110042019N0100001N1+02621+02331101411ADDAA106000091GF108991081051004501999999KA1240N+02291MA1999999099441MD1999999+0051REMSYN076AAXX  04124 82571 32497 80704 10262 20233 39944 40141 885// 333 20229 58005;EQDQ01  00002PRCP06
0167825710999992003120418004-05500-045267FM-12+017499999V0200901N003112200019N0100001N1+03441+02281100901ADDAA106000091GF103991021021004501011001MA1999999098971MD1999999+0041REMSYN070AAXX  04184 82571 32497 30906 10344 20228 39897 40090 82210 333 58004;EQDQ01  00002PRCP06
0208825710999992003120500004-05500-045267FM-12+017499999V0209999C000012200019N0100001N1+02891+02521101061ADDAA106000091GA1001+999999999GF100991001001999999001001KA1240M+03541MA1999999099101MD1999999-0021REMSYN082AAXX  05004 82571 32997 00000 10289 20252 39910 40106 333 10354 29074 55/// 59002;EQDQ01  00002PRCP06
0186825710999992003120512004-05500-045267FM-12+017499999V0200201N003110042019N0100001N1+02691+02331101371ADDAA106000091GF107991071051004501001001KA1240N+02531MA1999999099411MD1999999-0031REMSYN076AAXX  05124 82571 32497 70206 10269 20233 39941 40137 87500 333 20253 59003;EQDQ01  00002PRCP06
0167825710999992003120518004-05500-045267FM-12+017499999V0200501N002110450019N0100001N1+03151+02291100971ADDAA106000091GF106991031021004501031001MA1999999099031MD1999999+0071REMSYN070AAXX  05184 82571 32497 60504 10315 20229 39903 40097 83230 333 58007;EQDQ01  00002PRCP06
0198825710999992003120600004-05500-045267FM-12+017499999V0209999C000012200019N0100001N1+02721+02411101201ADDAA106000091GF101991001001999999001011KA1240M+03201MA1999999099241MD1999999+0141REMSYN088AAXX  06004 82571 32997 10000 10272 20241 39924 40120 80001 333 10320 29076 55/// 58014;EQDQ01  00002PRCP06
0186825710999992003120612004-05500-045267FM-12+017499999V0200501N003110450019N0100001N1+02741+02261101391ADDAA106000091GF105991041021004501031001KA1240N+02321MA1999999099431MD1999999+0021REMSYN076AAXX  06124 82571 32497 50506 10274 20226 39943 40139 84230 333 20232 58002;EQDQ01  00002PRCP06
0167825710999992003120618004-05500-045267FM-12+017499999V0200501N001010450019N0100001N1+03411+02261100861ADDAA106000091GF105991031021004501011001MA1999999098921MD1999999-0111REMSYN070AAXX  06184 82571 32497 50502 10341 20226 39892 40086 83210 333 59011;EQDQ01  00002PRCP06
0202825710999992003120700004-05500-045267FM-12+017499999V0202301N001012200019N0100001N1+02581+02401101131ADDAY161061AY211061GF104991041001017501011001KA1240M+03521MA1999999099161MD1999999-0081MW1021REMSYN100AAXX  07004 82571 21797 42302 10258 20240 39916 40113 70261 84010 333 10352 29076 55/// 59008 69931;
0162825710999992003120712004-05500-045267FM-12+017499999V0201401N001010450019N0100001N1+02671+02231101501ADDGF106991041051004501031001KA1240N+02351MA1999999099251MD1999999+0091REMSYN082AAXX  07124 82571 22497 61402 10267 20223 39925 40150 84530 333 20235 58009 69934;
0167825710999992003120718004-05500-045267FM-12+017499999V0201601N001010450019N0100001N1+02351+02211101041ADDAA106000091GF106991031021004501031011MA1999999099101MD1999999+0181REMSYN070AAXX  07184 82571 32497 61602 10235 20221 39910 40104 83231 333 58018;EQDQ01  00002PRCP06
0202825710999992003120800004-05500-045267FM-12+017499999V0202301N003110042019N0100001N1+02351+02241101351ADDAY191061AY261061GF108991081051004501999999KA1240M+03531MA1999999099371MD1999999+0211MW1131REMSYN100AAXX  08004 82571 21497 82306 10235 20224 39937 40135 71396 885// 333 10353 29079 55/// 58021 60111;
0162825710999992003120812004-05500-045267FM-12+017499999V0200501N001010450019N0100001N1+02691+02391101551ADDGF106991041051004501031001KA1240N+02241MA1999999099561MD1999999+0041REMSYN082AAXX  08124 82571 22497 60502 10269 20239 39956 40155 84530 333 20224 58004 60114;
0167825710999992003120818004-05500-045267FM-12+017499999V0200501N001012200019N0100001N1+03231+02331101181ADDAA106000091GF105991021021004501001011MA1999999099221MD1999999+0121REMSYN070AAXX  08184 82571 32497 50502 10323 20233 39922 40118 82201 333 58012;EQDQ01  00002PRCP06
0198825710999992003120900004-05500-045267FM-12+017499999V0201801N001012200019N0100001N1+02771+02361101261ADDAA106000091GF103991031001017501041001KA1240M+03361MA1999999099301MD1999999-0071REMSYN088AAXX  09004 82571 32797 31802 10277 20236 39930 40126 83040 333 10336 29074 55/// 59007;EQDQ01  00002PRCP06
0186825710999992003120912004-05500-045267FM-12+017499999V0201401N001010042019N0100001N1+02591+02371101631ADDAA106000091GF108991081051004501999999KA1240N+02421MA1999999099661MD1999999+0101REMSYN076AAXX  09124 82571 32497 81402 10259 20237 39966 40163 885// 333 20242 58010;EQDQ01  00002PRCP06
0167825710999992003120918004-05500-045267FM-12+017499999V0201401N001011050019N0100001N1+03291+02271101181ADDAA106000091GF105991021021004501031011MA1999999099241MD1999999+0021REMSYN070AAXX  09184 82571 32497 51402 10329 20227 39924 40118 82231 333 58002;EQDQ01  00002PRCP06
0202825710999992003121000004-05500-045267FM-12+017499999V0202301N001012200019N0100001N1+02631+02331101271ADDAY191061AY211061GF102991021001017501041001KA1240M+03431MA1999999099301MD1999999+0001MW1921REMSYN100AAXX  10004 82571 21797 22302 10263 20233 39930 40127 79291 82040 333 10343 29077 55/// 58000 60021;
0162825710999992003121012004-05500-045267FM-12+017499999V0200501N001010042019N0100001N1+02661+02311101461ADDGF107991071051004501001001KA1240N+02341MA1999999099491MD1999999-0171REMSYN082AAXX  10124 82571 22497 70502 10266 20231 39949 40146 87500 333 20234 59017 60024;
0167825710999992003121018004-05500-045267FM-12+017499999V0200901N002112200019N0100001N1+03361+02331101001ADDAA106000091GF103991021021004501001011MA1999999099061MD1999999-0181REMSYN070AAXX  10184 82571 32497 30904 10336 20233 39906 40100 82201 333 59018;EQDQ01  00002PRCP06
0208825710999992003121100004-05500-045267FM-12+017499999V0209999C000012200019N0100001N1+02881+02541101171ADDAA106000091GA1001+999999999GF100991001001999999001001KA1240M+03471MA1999999099211MD1999999-0091REMSYN082AAXX  11004 82571 32997 00000 10288 20254 39921 40117 333 10347 29075 55/// 59009;EQDQ01  00002PRCP06
0186825710999992003121112004-05500-045267FM-12+017499999V0200501N003110042019N0100001N1+02681+02281101501ADDAA106000091GF106991051021004501051001KA1240N+02481MA1999999099541MD1999999+0051REMSYN076AAXX  11124 82571 32497 60506 10268 20228 39954 40150 85250 333 20248 58005;EQDQ01  00002PRCP06
0167825710999992003121118004-05500-045267FM-12+017499999V0200701N001012200019N0100001N1+03421+02131101031ADDAA106000091GF103991021021004501001011MA1999999099101MD1999999+0041REMSYN070AAXX  11184 82571 32497 30702 10342 20213 39910 40103 82201 333 58004;EQDQ01  00002PRCP06
0202825710999992003121200004-05500-045267FM-12+017499999V0201101N001012200019N0100001N1+02691+02201101211ADDAY161061AY201061GF104991041071004501001001KA1240M+03571MA1999999099251MD1999999+0041MW1131REMSYN100AAXX  12004 82571 21497 41102 10269 20220 39925 40121 71360 84700 333 10357 29068 55/// 58004 60021;
0162825710999992003121212004-05500-045267FM-12+017499999V0200201N001010042019N0100001N1+02611+02351101491ADDGF108991081051004501999999KA1240N+02451MA1999999099521MD1999999-0021REMSYN082AAXX  12124 82571 22497 80202 10261 20235 39952 40149 885// 333 20245 59002 60024;
0171825710999992003121218004-05500-045267FM-12+017499999V0202701N002111050019N0100001N1+02991+02491101101ADDAY161061AY221061GF105991021021004501031011MA1999999099151MD1999999+0051MW1011REMSYN082AAXX  12184 82571 21497 52704 10299 20249 39915 40110 70162 82231 333 58005 69921;
0208825710999992003121400004-05500-045267FM-12+017499999V0203201N001012200019N0100001N1+02581+02251101201ADDAA106000091GA1001+999999999GF100991001001999999001001KA1240M+03041MA1999999099221MD1999999-0011REMSYN082AAXX  14004 82571 32997 03202 10258 20225 39922 40120 333 10304 29081 55/// 59001;EQDQ01  00002PRCP06
0186825710999992003121412004-05500-045267FM-12+017499999V0200501N003110042019N0100001N1+02691+02371101441ADDAA106000091GF106991061051004501001001KA1240N+02271MA1999999099471MD1999999-0021REMSYN076AAXX  14124 82571 32497 60506 10269 20237 39947 40144 86500 333 20227 59002;EQDQ01  00002PRCP06
0171825710999992003121418004-05500-045267FM-12+017499999V0200901N001010450019N0100001N1+03211+02321101081ADDAY161061AY211061GF105991031021004501031001MA1999999099131MD1999999+0011MW1031REMSYN082AAXX  14184 82571 21497 50902 10321 20232 39913 40108 70361 83230 333 58001 69921;
0208825710999992003121500004-05500-045267FM-12+017499999V0209999C000012200019N0100001N1+02631+02331101271ADDAA106000091GA1001+999999999GF100991001001999999001001KA1240M+03341MA1999999099301MD1999999+0081REMSYN082AAXX  15004 82571 32997 00000 10263 20233 39930 40127 333 10334 29077 55/// 58008;EQDQ01  00002PRCP06
0162825710999992003121512004-05500-045267FM-12+017499999V0200501N001010042019N0100001N1+02651+02371101501ADDGF106991061051004501001001KA1240N+02361MA1999999099531MD1999999+0061REMSYN082AAXX  15124 82571 22497 60502 10265 20237 39953 40150 86500 333 20236 58006 69924;
0167825710999992003121518004-05500-045267FM-12+017499999V0200901N003112200019N0100001N1+03371+02191100981ADDAA106000091GF104991031021004501011001MA1999999099041MD1999999-0091REMSYN070AAXX  15184 82571 32497 40906 10337 20219 39904 40098 83210 333 59009;EQDQ01  00002PRCP06
0208825710999992003121600004-05500-045267FM-12+017499999V0200501N001012200019N0100001N1+02811+02381101241ADDAA106000091GA1001+999999999GF100991001001999999001001KA1240M+03451MA1999999099281MD1999999-0021REMSYN082AAXX  16004 82571 32997 00502 10281 20238 39928 40124 333 10345 29072 55/// 59002;EQDQ01  00002PRCP06
0186825710999992003121612004-05500-045267FM-12+017499999V0200501N002110042019N0100001N1+02651+02291101541ADDAA106000091GF107991071051004501001001KA1240N+02411MA1999999099571MD1999999+0041REMSYN076AAXX  16124 82571 32497 70504 10265 20229 39957 40154 87500 333 20241 58004;EQDQ01  00002PRCP06
0171825710999992003121618004-05500-045267FM-12+017499999V0201401N002110450019N0100001N1+03041+02361101161ADDAY161061AY211061GF106991031021004501011011MA1999999099211MD1999999+0171MW1011REMSYN082AAXX  16184 82571 21497 61404 10304 20236 39921 40116 70161 83211 333 58017 69991;
0208825710999992003121700004-05500-045267FM-12+017499999V0209999C000012200019N0100001N1+02711+02481101371ADDAA106000091GA1001+999999999GF100991001001999999001001KA1240M+03081MA1999999099401MD1999999+0121REMSYN082AAXX  17004 82571 32997 00000 10271 20248 39940 40137 333 10308 29080 55/// 58012;EQDQ01  00002PRCP06
0162825710999992003121712004-05500-045267FM-12+017499999V0200501N003112200019N0100001N1+02701+02261101481ADDGF104991021021004501031001KA1240N+02391MA1999999099511MD1999999-0061REMSYN082AAXX  17124 82571 22497 40506 10270 20226 39951 40148 82230 333 20239 59006 69994;
0167825710999992003121718004-05500-045267FM-12+017499999V0200501N002112200019N0100001N1+03191+02151101121ADDAA106000091GF103991021021004501041001MA1999999099171MD1999999-0041REMSYN070AAXX  17184 82571 32497 30504 10319 20215 39917 40112 82240 333 59004;EQDQ01  00002PRCP06
0208825710999992003121800004-05500-045267FM-12+017499999V0201401N001012200019N0100001N1+02801+02311101281ADDAA106000091GA1001+999999999GF100991001001999999001001KA1240M+03221MA1999999099321MD1999999-0081REMSYN082AAXX  18004 82571 32997 01402 10280 20231 39932 40128 333 10322 29070 55/// 59008;EQDQ01  00002PRCP06
0186825710999992003121812004-05500-045267FM-12+017499999V0200501N003110042019N0100001N1+02721+02241101541ADDAA106000091GF106991061051004501001001KA1240N+02311MA1999999099571MD1999999+0061REMSYN076AAXX  18124 82571 32497 60506 10272 20224 39957 40154 86500 333 20231 58006;EQDQ01  00002PRCP06
0210825710999992003121900004-05500-045267FM-12+017499999V0209999C000012200019N0100001N1+02401+02131101401ADDAA106000091GF101991011001017501041001KA1240M+03451MA1999999099421MD1999999+0101MW1131REMSYN094AAXX  19004 82571 31797 10000 10240 20213 39942 40140 713// 81040 333 10345 29073 55/// 58010;EQDQ01  00002PRCP06
0186825710999992003121912004-05500-045267FM-12+017499999V0200901N003112200019N0100001N1+02831+02291101611ADDAA106000091GF103991011011004501031001KA1240N+02261MA1999999099631MD1999999+0061REMSYN076AAXX  19124 82571 32497 30906 10283 20229 39963 40161 81130 333 20226 58006;EQDQ01  00002PRCP06
0167825710999992003121918004-05500-045267FM-12+017499999V0201401N002110090019N0100001N1+03331+02221101191ADDAA106000091GF105991051081004501001001MA1999999099241MD1999999+0091REMSYN070AAXX  19184 82571 32497 51404 10333 20222 39924 40119 85800 333 58009;EQDQ01  00002PRCP06
0220825710999992003122000004-05500-045267FM-12+017499999V0200501N001012200019N0100001N1+02931+02241101451ADDAA106000091GA1001+999999999GF100991001001999999001001KA1240M+03481MA1999999099501MD1999999+0021MW1131REMSYN088AAXX  20004 82571 31997 00502 10293 20224 39950 40145 713// 333 10348 29064 55/// 58002;EQDQ01  00002PRCP06
0190825710999992003122012004-05500-045267FM-12+017499999V0200501N001010450019N0100001N1+02611+02391101661ADDAY161061AY201061GF106991041021004501031001KA1240N+02381MA1999999099691MD1999999+0061MW1021REMSYN088AAXX  20124 82571 21497 60502 10261 20239 39969 40166 70260 84230 333 20238 58006 60024;
0171825710999992003122018004-05500-045267FM-12+017499999V0201401N005110450019N0100001N1+03051+02301101221ADDAY161061AY211061GF106991031021004501031011MA1999999099271MD1999999+0031MW1031REMSYN082AAXX  20184 82571 21497 61410 10305 20230 39927 40122 70361 83231 333 58003 60041;
0208825710999992003122100004-05500-045267FM-12+017499999V0209999C000012200019N0100001N1+02621+02421101461ADDAA106000091GA1001+999999999GF100991001001999999001001KA1240M+03251MA1999999099481MD1999999-0021REMSYN082AAXX  21004 82571 32997 00000 10262 20242 39948 40146 333 10325 29082 55/// 59002;EQDQ01  00002PRCP06
0162825710999992003122112004-05500-045267FM-12+017499999V0200901N001010042019N0100001N1+02591+02251101661ADDGF108991081051004501999999KA1240N+02321MA1999999099681MD1999999-0011REMSYN082AAXX  21124 82571 22497 80902 10259 20225 39968 40166 885// 333 20232 59001 60044;
0186825710999992003122212004-05500-045267FM-12+017499999V0200901N001010042019N0100001N1+02591+02441101541ADDAA106000091GF107991071051004501001001KA1240N+02361MA1999999099571MD1999999-0111REMSYN076AAXX  22124 82571 32497 70902 10259 20244 39957 40154 87500 333 20236 59011;EQDQ01  00002PRCP06
0167825710999992003122218004-05500-045267FM-12+017499999V0201401N001012200019N0100001N1+03191+02211101111ADDAA106000091GF104991041021004501001001MA1999999099161MD1999999-0161REMSYN070AAXX  22184 82571 32497 41402 10319 20221 39916 40111 84200 333 59016;EQDQ01  00002PRCP06
0186825710999992003122312004-05500-045267FM-12+017499999V0200501N002110042019N0100001N1+02581+02291101451ADDAA106000091GF108991081051004501999999KA1240N+02311MA1999999099481MD1999999-0091REMSYN076AAXX  23124 82571 32497 80504 10258 20229 39948 40145 885// 333 20231 59009;EQDQ01  00002PRCP06
0167825710999992003122318004-05500-045267FM-12+017499999V0200701N002112200019N0100001N1+03311+02171100951ADDAA106000091GF104991031021004501001011MA1999999099011MD1999999-0151REMSYN070AAXX  23184 82571 32497 40704 10331 20217 39901 40095 83201 333 59015;EQDQ01  00002PRCP06
0186825710999992003122412004-05500-045267FM-12+017499999V0200201N003110042019N0100001N1+02731+02281101431ADDAA106000091GF106991061051004501001001KA1240N+02411MA1999999099471MD1999999-0011REMSYN076AAXX  24124 82571 32497 60206 10273 20228 39947 40143 86500 333 20241 59001;EQDQ01  00002PRCP06
0167825710999992003122418004-05500-045267FM-12+017499999V0200901N003112200019N0100001N1+03441+02041100971ADDAA106000091GF104991031021004501001011MA1999999099041MD1999999+0031REMSYN070AAXX  24184 82571 32497 40906 10344 20204 39904 40097 83201 333 58003;EQDQ01  00002PRCP06
0208825710999992003122500004-05500-045267FM-12+017499999V0209999C000012200019N0100001N1+02931+02241101121ADDAA106000091GA1001+999999999GF100991001001999999001001KA1240M+03521MA1999999099171MD1999999+0071REMSYN082AAXX  25004 82571 32997 00000 10293 20224 39917 40112 333 10352 29063 55/// 58007;EQDQ01  00002PRCP06
0186825710999992003122512004-05500-045267FM-12+017499999V0201401N001010042019N0100001N1+02661+02291101461ADDAA106000091GF108991081051004501999999KA1240N+02401MA1999999099501MD1999999+0031REMSYN076AAXX  25124 82571 32497 81402 10266 20229 39950 40146 885// 333 20240 58003;EQDQ01  00002PRCP06
0167825710999992003122518004-05500-045267FM-12+017499999V0201401N003112200019N0100001N1+03391+02181101071ADDAA106000091GF104991031031004501001011MA1999999099131MD1999999+0091REMSYN070AAXX  25184 82571 32497 41406 10339 20218 39913 40107 83301 333 58009;EQDQ01  00002PRCP06
0208825710999992003122600004-05500-045267FM-12+017499999V0200901N001012200019N0100001N1+02831+02291101141ADDAA106000091GA1001+999999999GF100991001001999999001001KA1240M+03481MA1999999099181MD1999999+0011REMSYN082AAXX  26004 82571 32997 00902 10283 20229 39918 40114 333 10348 29068 55/// 58001;EQDQ01  00002PRCP06
0190825710999992003122612004-05500-045267FM-12+017499999V0200501N001010450019N0100001N1+02451+02411101361ADDAY161061AY211061GF106991031021004501031011KA1240N+02251MA1999999099381MD1999999-0211MW1811REMSYN088AAXX  26124 82571 21497 60502 10245 20241 39938 40136 78161 83231 333 20225 59021 60174;
0148825710999992003122618004-05500-045267FM-12+017499999V0200901N005111050019N0100001N1+03271+02261100841ADDAA106000021GF105991021021004501031011MA1999999098901MD1999999-0211REMSYN070AAXX  26184 82571 32497 50910 10327 20226 39890 40084 82231 333 59021;
0220825710999992003122700004-05500-045267FM-12+017499999V0202701N003112200019N0100001N1+02731+02381101051ADDAA106000091GA1001+999999999GF100991001001999999001001KA1240M+03401MA1999999099081MD1999999-0101MW1131REMSYN088AAXX  27004 82571 31997 02706 10273 20238 39908 40105 713// 333 10340 29078 55/// 59010;EQDQ01  00002PRCP06
0186825710999992003122712004-05500-045267FM-12+017499999V0200501N001010450019N0100001N1+02691+02301101251ADDAA106000091GF106991041051004501031001KA1240N+02501MA1999999099291MD1999999-0091REMSYN076AAXX  27124 82571 32497 60502 10269 20230 39929 40125 84530 333 20250 59009;EQDQ01  00002PRCP06
0167825710999992003122718004-05500-045267FM-12+017499999V0200501N001010450019N0100001N1+03111+02281100851ADDAA106000091GF106991041051004501041001MA1999999098911MD1999999+0011REMSYN070AAXX  27184 82571 32497 60502 10311 20228 39891 40085 84540 333 58001;EQDQ01  00002PRCP06
0210825710999992003122800004-05500-045267FM-12+017499999V0200501N001010042019N0100001N1+02631+02231101101ADDAA106000091GF108991081051004501999999KA1240M+03231MA1999999099141MD1999999+0061MW1171REMSYN094AAXX  28004 82571 31497 80502 10263 20223 39914 40110 717// 885// 333 10323 29074 55/// 58006;EQDQ01  00002PRCP06
0190825710999992003122812004-05500-045267FM-12+017499999V0202701N001010042019N0100001N1+02431+02301101281ADDAY161061AY221061GF108991081051004501999999KA1240N+02321MA1999999099301MD1999999+0011MW1021REMSYN088AAXX  28124 82571 21497 82702 10243 20230 39930 40128 70262 885// 333 20232 58001 69914;
0171825710999992003122818004-05500-045267FM-12+017499999V0202001N001010450019N0100001N1+02881+02391100941ADDAY191061AY261061GF106991041051004501031001MA1999999098981MD1999999+0071MW1171REMSYN082AAXX  28184 82571 21497 62002 10288 20239 39898 40094 71796 84530 333 58007 60081;
0198825710999992003122900004-05500-045267FM-12+017499999V0201801N001019999999N0100001N1+02581+02401101091ADDAA106000091GF105991011031017501999999KA1240M+03101MA1999999099111MD1999999-0031REMSYN088AAXX  29004 82571 32797 51802 10258 20240 39911 40109 813// 333 10310 29087 55/// 59003;EQDQ01  00002PRCP06
0190825710999992003122912004-05500-045267FM-12+017499999V0201801N001010042019N0100001N1+02391+02241101341ADDAY161061AY221061GF107991051051004501031001KA1240N+02271MA1999999099361MD1999999+0061MW1021REMSYN088AAXX  29124 82571 21497 71802 10239 20224 39936 40134 70262 85530 333 20227 58006 60094;
0167825710999992003122918004-05500-045267FM-12+017499999V0201401N003110450019N0100001N1+02971+02331100961ADDAA106000091GF107991041051004501071001MA1999999099001MD1999999+0021REMSYN070AAXX  29184 82571 32497 71406 10297 20233 39900 40096 84570 333 58002;EQDQ01  00002PRCP06
0198825710999992003123000004-05500-045267FM-12+017499999V0202001N001010090019N0100001N1+02501+02251101291ADDAA106000091GF106991061081004501001001KA1240M+03101MA1999999099301MD1999999+0191REMSYN088AAXX  30004 82571 32497 62002 10250 20225 39930 40129 86800 333 10310 29083 55/// 58019;EQDQ01  00002PRCP06
0186825710999992003123012004-05500-045267FM-12+017499999V0201401N001019999999N0100001N1+02471+02271101311ADDAA106000091GF106991061001004501071001KA1240N+02301MA1999999099331MD1999999-0031REMSYN076AAXX  30124 82571 32497 61402 10247 20227 39933 40131 86070 333 20230 59003;EQDQ01  00002PRCP06
0167825710999992003123018004-05500-045267FM-12+017499999V0201401N003110450019N0100001N1+03261+02111100951ADDAA106000091GF106991031021004501031001MA1999999099001MD1999999+0001REMSYN070AAXX  30184 82571 32497 61406 10326 20211 39900 40095 83230 333 58000;EQDQ01  00002PRCP06
0198825710999992003123100004-05500-045267FM-12+017499999V0201601N001012200019N0100001N1+02711+02261101191ADDAA106000091GF104991041001017501041001KA1240M+03321MA1999999099221MD1999999-0081REMSYN088AAXX  31004 82571 32797 41602 10271 20226 39922 40119 84040 333 10332 29073 55/// 59008;EQDQ01  00002PRCP06
0186825710999992003123112004-05500-045267FM-12+017499999V0202701N001012200019N0100001N1+02831+02331101351ADDAA106000091GF103991011021004501031011KA1240N+02321MA1999999099331MD1999999+0061REMSYN076AAXX  31124 82571 32497 32702 10283 20233 39933 40135 81231 333 20232 58006;EQDQ01  00002PRCP06
0167825710999992003123118004-05500-045267FM-12+017499999V0201401N002112200019N0100001N1+03531+02091100891ADDAA106000091GF104991031021004501001011MA1999999098961MD1999999-0041REMSYN070AAXX  31184 82571 32497 41404 10353 20209 39896 40089 83201 333 59004;EQDQ01  00002PRCP06
