0172825830999992003010112004-05170-040670FM-12+029999999V0200901N003610075019N0500001N1+02841+01881999999ADDAA106000091GF107991061021008001001011KA1240N+02441MA1999999097891REMSYN076AAXX  01124 82583 32599 70907 10284 20188 39789 40/// 86201 333 20244 5////;EQDQ01  00002PRCP06
0188825830999992003010200004-05170-040670FM-12+029999999V0200901N000512200019N0040001N1+02701+02351101121ADDAY161061AY261061GF102991021021008001001001KA1240M+03511MA1999999097761MW1011REMSYN100AAXX  02004 82583 21596 20901 10270 20235 39776 40112 70166 82200 333 10351 29068 55045 5//// 60011;
0152825830999992003010206004-05170-040670FM-12+029999999V0201401N002019999999N0060001N1+99999+99999999999ADDGF108991999999999999999999REMSYN079AAXX  02061 82583 11956 81402 11229 21254 21208 49869.PR 60020 77177 8802/ EEE;EQDQ01-002293ATOT  Q02-002543ATOD  
0179825830999992003010212004-05170-040670FM-12+029999999V0200901N004610075019N0500001N1+02871+01891101311ADDAA124001091GF106991061021008001001001KA1240N+02251MA1999999097951MD1999999+0061REMSYN088AAXX  02124 82583 22599 60909 10287 20189 39795 40131 86200 333 20225 58006 60014 10010;
0198825830999992003010300004-05170-040670FM-12+029999999V0200901N002612200019N0040001N1+03041+01451100871ADDAA106000091GF101991011011008001001001KA1240M+03711MA1999999097551MD1999999-0111REMSYN088AAXX  03004 82583 32596 10905 10304 20145 39755 40087 81100 333 10371 29044 55108 59011;EQDQ01  00002PRCP06
0186825830999992003010312004-05170-040670FM-12+029999999V0200901N004610075019N0500001N1+02831+01821101221ADDAA106000091GF106991061021008001001001KA1240N+02281MA1999999097881MD1999999-0071REMSYN076AAXX  03124 82583 32599 60909 10283 20182 39788 40122 86200 333 20228 59007;EQDQ01  00002PRCP06
0208825830999992003010400004-05170-040670FM-12+029999999V0200901N002612200019N0040001N1+03041+01281100851ADDAA106000091GA1001+999999999GF100991001001999999001001KA1240M+03691MA1999999097531MD1999999-0021REMSYN082AAXX  04004 82583 32996 00905 10304 20128 39753 40085 333 10369 29037 55101 59002;EQDQ01  00002PRCP06
0186825830999992003010412004-05170-040670FM-12+029999999V0200901N005112200019N0500001N1+02881+01861101241ADDAA106000091GF101991011011008001001001KA1240N+02251MA1999999097901MD1999999+0021REMSYN076AAXX  04124 82583 32599 10910 10288 20186 39790 40124 81100 333 20225 58002;EQDQ01  00002PRCP06
0208825830999992003010500004-05170-040670FM-12+029999999V0200901N003112200019N0040001N1+03001+01331100911ADDAA106000091GA1001+999999999GF100991001001999999001001KA1240M+03021MA1999999097581MD1999999+0051REMSYN082AAXX  05004 82583 32996 00906 10300 20133 39758 40091 333 10302 29040 55104 58005;EQDQ01  00002PRCP06
0186825830999992003010512004-05170-040670FM-12+029999999V0202701N000510075019N0500001N1+02741+02021101181ADDAA106000091GF107991071021008001001001KA1240N+02411MA1999999097841MD1999999-0061REMSYN076AAXX  05124 82583 32599 72701 10274 20202 39784 40118 87200 333 20241 59006;EQDQ01  00002PRCP06
0208825830999992003010600004-05170-040670FM-12+029999999V0200901N002112200019N0040001N1+03121+01391101031ADDAA106000091GA1001+999999999GF100991001001999999001001KA1240M+03721MA1999999097701MD1999999+0121REMSYN082AAXX  06004 82583 32996 00904 10312 20139 39770 40103 333 10372 29042 55077 58012;EQDQ01  00002PRCP06
0186825830999992003010612004-05170-040670FM-12+029999999V0200901N004610075019N0500001N1+02831+02011101201ADDAA106000091GF107991071051008001001001KA1240N+02461MA1999999097871MD1999999+0031REMSYN076AAXX  06124 82583 32599 70909 10283 20201 39787 40120 87500 333 20246 58003;EQDQ01  00002PRCP06
0198825830999992003010700004-05170-040670FM-12+029999999V0200501N001512200019N0040001N1+03211+01411100901ADDAA106000091GF101991011011008001001001KA1240M+03741MA1999999097581MD1999999-0121REMSYN088AAXX  07004 82583 32596 10503 10321 20141 39758 40090 81100 333 10374 29038 55082 59012;EQDQ01  00002PRCP06
0202825830999992003010712004-05170-040670FM-12+029999999V0200901N003110120019N0500001N1+02811+01941101321ADDAA106000091GF108991999081008001001001KA1240N+02461MA1999999097981MD1999999+0111REMSYN076AAXX  07124 82583 32599 80906 10281 20194 39798 40132 87800 333 20246 58011;EQDQ01+000072SCOTLCQ02  00002PRCP06
0198825830999992003010800004-05170-040670FM-12+029999999V0200901N002112200019N0040001N1+03201+01511100901ADDAA106000091GF101991011011008001001001KA1240M+03711MA1999999097581MD1999999+0001REMSYN088AAXX  08004 82583 32596 10904 10320 20151 39758 40090 81100 333 10371 29040 55075 58000;EQDQ01  00002PRCP06
0198825830999992003010900004-05170-040670FM-12+029999999V0200901N001512200019N0040001N1+03221+01641101021ADDAA106000091GF101991011011008001001001KA1240M+03671MA1999999097691MD1999999+0111REMSYN088AAXX  09004 82583 32596 10903 10322 20164 39769 40102 81100 333 10367 29043 55066 58011;EQDQ01  00002PRCP06
0186825830999992003010912004-05170-040670FM-12+029999999V0200901N005710120019N0500001N1+02861+01981101311ADDAA106000091GF107991061081008001041001KA1240N+02541MA1999999097971MD1999999+0031REMSYN076AAXX  09124 82583 32599 70911 10286 20198 39797 40131 86840 333 20254 58003;EQDQ01  00002PRCP06
0198825830999992003011000004-05170-040670FM-12+029999999V0200501N002112200019N0040001N1+03041+01751101111ADDAA106000091GF101991011011008001001001KA1240M+03521MA1999999097771MD1999999+0021REMSYN088AAXX  10004 82583 32596 10504 10304 20175 39777 40111 81100 333 10352 29047 55062 58002;EQDQ01  00002PRCP06
0196825830999992003011012004-05170-040670FM-12+029999999V0200901N005712200019N0500001N1+02831+01911101361ADDAA106000091GA1001+999999999GF100991001001999999001001KA1240N+02531MA1999999098021MD1999999+0051REMSYN070AAXX  10124 82583 32599 00911 10283 20191 39802 40136 333 20253 58005;EQDQ01  00002PRCP06
0198825830999992003011100004-05170-040670FM-12+029999999V0200901N002612200019N0040001N1+03041+01411101011ADDAA106000091GF102991021011008001001001KA1240M+03621MA1999999097681MD1999999-0091REMSYN088AAXX  11004 82583 32596 20905 10304 20141 39768 40101 82100 333 10362 29040 55072 59009;EQDQ01  00002PRCP06
0202825830999992003011112004-05170-040670FM-12+029999999V0200901N005719999999N0500001N1+02831+01911101341ADDAA106000091GF107991999011008001001001KA1240N+02531MA1999999098021MD1999999+0051REMSYN076AAXX  11124 82583 32599 70911 10283 20191 39802 40134 82100 333 20253 58005;EQDQ01+000022SCOTLCQ02  00002PRCP06
0198825830999992003011200004-05170-040670FM-12+029999999V0200901N001012200019N0040001N1+03181+01441101021ADDAA106000091GF104991041021008001001001KA1240M+03671MA1999999097691MD1999999+0011REMSYN088AAXX  12004 82583 32596 40902 10318 20144 39769 40102 84200 333 10367 29038 55085 58001;EQDQ01  00002PRCP06
0186825830999992003011212004-05170-040670FM-12+029999999V0201401N002612200019N0500001N1+02851+01951101201ADDAA106000091GF102991021011008001001001KA1240N+02371MA1999999097871MD1999999-0171REMSYN076AAXX  12124 82583 32599 21405 10285 20195 39787 40120 82100 333 20237 59017;EQDQ01  00002PRCP06
0198825830999992003011300004-05170-040670FM-12+029999999V0203601N004612200019N0040001N1+03131+01801100891ADDAA106000091GF104991041021008001001001KA1240M+03721MA1999999097571MD1999999+0121REMSYN088AAXX  13004 82583 32596 43609 10313 20180 39757 40089 84200 333 10372 29043 55109 58012;EQDQ01  00002PRCP06
0140825830999992003011312004-05170-040670FM-12+029999999V0200901N002119999999N0500001N1+02701+02011999999ADDAA106000091GF107991999999008001999999REMSYN072AAXX  13124 82583 32599 70904 10270 20201 20242 39791 40125 58004 87800;EQDQ01  00002PRCP06
0198825830999992003011400004-05170-040670FM-12+029999999V0203601N004612200019N0040001N1+03121+01821100981ADDAA106000091GF103991031021008001001001KA1240M+03551MA1999999097621MD1999999+0051REMSYN088AAXX  14004 82583 32596 33609 10312 20182 39762 40098 83200 333 10355 29048 55054 58005;EQDQ01  00002PRCP06
0186825830999992003011412004-05170-040670FM-12+029999999V0200501N002612200019N0500001N1+02881+01911101231ADDAA106000091GF104991041011008001001001KA1240N+02341MA1999999097901MD1999999-0011REMSYN076AAXX  14124 82583 32599 40505 10288 20191 39790 40123 84100 333 20234 59001;EQDQ01  00002PRCP06
0198825830999992003011500004-05170-040670FM-12+029999999V0200501N002110120019N0040001N1+03141+01541100961ADDAA106000091GF106991061081008001001001KA1240M+03631MA1999999097641MD1999999+0021REMSYN088AAXX  15004 82583 32596 60504 10314 20154 39764 40096 86800 333 10363 29040 55096 58002;EQDQ01  00002PRCP06
0186825830999992003011512004-05170-040670FM-12+029999999V0200901N004612200019N0500001N1+02851+01811101311ADDAA106000091GF102991021011008001001001KA1240N+02321MA1999999097971MD1999999+0071REMSYN076AAXX  15124 82583 32599 20909 10285 20181 39797 40131 82100 333 20232 58007;EQDQ01  00002PRCP06
0198825830999992003011600004-05170-040670FM-12+029999999V0200901N002112200019N0040001N1+03041+01141101061ADDAA106000091GF102991011011008001001011KA1240M+03711MA1999999097731MD1999999+0091REMSYN088AAXX  16004 82583 32596 20904 10304 20114 39773 40106 81101 333 10371 29033 55109 58009;EQDQ01  00002PRCP06
0186825830999992003011612004-05170-040670FM-12+029999999V0200901N004612200019N0500001N1+02871+01861101421ADDAA106000091GF102991021011008001001001KA1240N+02291MA1999999098081MD1999999+0111REMSYN076AAXX  16124 82583 32599 20909 10287 20186 39808 40142 82100 333 20229 58011;EQDQ01  00002PRCP06
0214825830999992003011700004-05170-040670FM-12+029999999V0201401N003112200019N0040001N1+03121+01211101011ADDAA106000091GF101991011011008001001001KA1240M+99999MA1999999097691MD1999999-0041REMSYN088AAXX  17004 82583 32596 11406 10312 20121 39769 40101 81100 333 10284 29036 55107 59004;EQDQ01  00002PRCP06Q02 +02842ATMX  
0186825830999992003011712004-05170-040670FM-12+029999999V0200901N003610075019N0500001N1+02701+01881101321ADDAA106000091GF106991051021008001001011KA1240N+02321MA1999999097971MD1999999-0111REMSYN076AAXX  17124 82583 32599 60907 10270 20188 39797 40132 85201 333 20232 59011;EQDQ01  00002PRCP06
0214825830999992003011800004-05170-040670FM-12+029999999V0200501N002112200019N0040001N1+03141+01581101081ADDAA106000091GF102991999011008001001011KA1240M+03611MA1999999097741MD1999999+0051REMSYN088AAXX  18004 82583 32596 20504 10314 20158 39774 40108 80101 333 10361 29041 55080 58005;EQDQ01+000002SCOTLCQ02  00002PRCP06
0186825830999992003011812004-05170-040670FM-12+029999999V0201401N002110075019N0500001N1+02831+02071101241ADDAA106000091GF106991061021008001001001KA1240N+02301MA1999999097911MD1999999-0061REMSYN076AAXX  18124 82583 32599 61404 10283 20207 39791 40124 86200 333 20230 59006;EQDQ01  00002PRCP06
0226825830999992003011900004-05170-040670FM-12+029999999V0203601N006210075019N0040001N1+02921+02171101101ADDAA106000091AY121061AY221061GF106991061021008001001011KA1240M+03541MA1999999097761MD1999999+0021MW1131REMSYN094AAXX  19004 82583 31596 63612 10292 20217 39776 40110 71322 86201 333 10354 29056 55040 58002;EQDQ01  00002PRCP06
0190825830999992003011912004-05170-040670FM-12+029999999V0200501N002610075019N0200001N1+02661+02221101371ADDAY161061AY261061GF107991071021008001001001KA1240N+02421MA1999999098011MD1999999+0101MW1021REMSYN088AAXX  19124 82583 21598 70505 10266 20222 39801 40137 70266 87200 333 20242 58010 60024;
0202825830999992003012000004-05170-040670FM-12+029999999V0203601N002610090019N0020001N1+02161+02131101471ADDAY191061AY291061GF108991081081004501999999KA1240M+03131MA1999999098031MD1999999+0301MW1951REMSYN100AAXX  20004 82583 21495 83605 10216 20213 39803 40147 79599 888// 333 10313 29080 55020 58030 60581;
0190825830999992003012012004-05170-040670FM-12+029999999V0203601N000510075019N0500001N1+02471+02171101391ADDAY191061AY291061GF107991071051008001001001KA1240N+02141MA1999999097971MD1999999-0041MW1031REMSYN088AAXX  20124 82583 21599 73601 10247 20217 39797 40139 70399 87500 333 20214 59004 60584;
0134825830999992003012100004-05170-040670FM-12+029999999V0203601N002119999999N0040001N1+02241+02101999999ADDGF107991999999008001999999REMSYN096AAXX  21004 82583 21596 73604 10224 20210 10312 29090 39780 40120 55047 59026 60161 70266 87500;
0122825830999992003012112004-05170-040670FM-12+029999999V0200901N001019999999N0500001N1+02491+02171999999ADDGF107991999999008001999999REMSYN084AAXX  21124 82583 22599 70902 10249 20217 10158 20215 39786 40126 59011 60164 87800;
0202825830999992003012200004-05170-040670FM-12+029999999V0203601N003610042019N0020001N1+02241+02191101031ADDAY161061AY261061GF108991081051004501999999KA1240M+03221MA1999999097681MD1999999-0121MW1631REMSYN100AAXX  22004 82583 21495 83607 10224 20219 39768 40103 76366 885// 333 10322 29083 55060 59012 60161;
0128825830999992003012212004-05170-040670FM-12+029999999V0200901N001519999999N0500001N1+02601+02231999999ADDGF108991999999008001999999REMSYN090AAXX  22124 82583 21599 80903 10260 20223 10150 20221 39786 40126 58000 60154 70266 885//;
0198825830999992003012300004-05170-040670FM-12+029999999V0203601N004610075019N0040001N1+02531+02191101131ADDAA106000091GF106991061021008001001001KA1240M+03251MA1999999097751MD1999999+0071REMSYN088AAXX  23004 82583 32596 63609 10253 20219 39775 40113 86200 333 10325 29071 55032 58007;EQDQ01  00002PRCP06
0202825830999992003012312004-05170-040670FM-12+029999999V0200901N001010120019N0500001N1+02491+02051101351ADDAA106000091GF108991999081008001081999KA1240N+02251MA1999999097961MD1999999+0101REMSYN076AAXX  23124 82583 32599 80902 10249 20205 39796 40135 8888/ 333 20225 58010;EQDQ01+000082SCOTLCQ02  00002PRCP06
0198825830999992003012400004-05170-040670FM-12+029999999V0203601N002112200019N0040001N1+02601+02191101281ADDAA106000091GF104991041021008001001001KA1240M+03031MA1999999097901MD1999999+0151REMSYN088AAXX  24004 82583 32596 43604 10260 20219 39790 40128 84200 333 10303 29072 55000 58015;EQDQ01  00002PRCP06
0186825830999992003012412004-05170-040670FM-12+029999999V0200501N000510075019N0500001N1+02461+02251101361ADDAA106000091GF108991081051008001999999KA1240N+02281MA1999999097981MD1999999+0021REMSYN076AAXX  24124 82583 32599 80501 10246 20225 39798 40136 885// 333 20228 58002;EQDQ01  00002PRCP06
0198825830999992003012500004-05170-040670FM-12+029999999V0203601N002110120019N0040001N1+02611+02161101281ADDAA106000091GF108991081081008001999999KA1240M+03191MA1999999097901MD1999999+0001REMSYN088AAXX  25004 82583 32596 83604 10261 20216 39790 40128 888// 333 10319 29071 55028 58000;EQDQ01  00002PRCP06
0202825830999992003012512004-05170-040670FM-12+029999999V0200901N002110075019N0500001N1+02591+02141101311ADDAA106000091GF106991999021008001001001KA1240N+02231MA1999999097931MD1999999-0051REMSYN076AAXX  25124 82583 32599 60904 10259 20214 39793 40131 85200 333 20223 59005;EQDQ01+000052SCOTLCQ02  00002PRCP06
0198825830999992003012600004-05170-040670FM-12+029999999V0200501N003110120019N0040001N1+02841+02141100981ADDAA106000091GF106991061081008001001001KA1240M+03371MA1999999097631MD1999999-0281REMSYN088AAXX  26004 82583 32596 60506 10284 20214 39763 40098 86800 333 10337 29061 55073 59028;EQDQ01  00002PRCP06
0186825830999992003012612004-05170-040670FM-12+029999999V0200501N002610075019N0500001N1+02671+02091101121ADDAA106000091GF106991061021008001001001KA1240N+02281MA1999999097771MD1999999-0161REMSYN076AAXX  26124 82583 32599 60505 10267 20209 39777 40112 86200 333 20228 59016;EQDQ01  00002PRCP06
0152825830999992003012700004-05170-040670FM-12+029999999V0203601N003112200019N0040001N1+02721+02151999999ADDAA106000091GF102991999999008001999999REMSYN084AAXX  27004 82583 32596 23606 10272 20215 10333 29063 39746 40081 55090 59016 82800;EQDQ01  00002PRCP06
0190825830999992003012712004-05170-040670FM-12+029999999V0200501N003610075019N0500001N1+02621+02251101061ADDAY161061AY261061GF107991061021008001001011KA1240N+02371MA1999999097701MD1999999-0071MW1021REMSYN088AAXX  27124 82583 21599 70507 10262 20225 39770 40106 70266 86201 333 20237 59007 69964;
0198825830999992003012800004-05170-040670FM-12+029999999V0203601N002110120019N0040001N1+02371+02191101171ADDAA106000091GF108991081081008001999999KA1240M+03201MA1999999097791MD1999999+0331REMSYN088AAXX  28004 82583 32596 83604 10237 20219 39779 40117 888// 333 10320 29078 55034 58033;EQDQ01  00002PRCP06
0190825830999992003012812004-05170-040670FM-12+029999999V0200901N001010075019N0500001N1+02411+02051101351ADDAY161061AY261061GF108991081051008001999999KA1240N+02321MA1999999097951MD1999999+0251MW1031REMSYN088AAXX  28124 82583 21599 80902 10241 20205 39795 40135 70366 885// 333 20232 58025 69994;
0152825830999992003012900004-05170-040670FM-12+029999999V0203601N002119999999N0040001N1+02611+02101999999ADDAA106000091GF105991999999008001999999REMSYN084AAXX  29004 82583 32596 53604 10261 20210 10300 29070 39789 40127 55008 58010 85500;EQDQ01  00002PRCP06
0186825830999992003012912004-05170-040670FM-12+029999999V0200501N004610075019N0500001N1+02721+02051101271ADDAA106000091GF106991051021008001001011KA1240N+02241MA1999999097901MD1999999-0051REMSYN076AAXX  29124 82583 32599 60509 10272 20205 39790 40127 85201 333 20224 59005;EQDQ01  00002PRCP06
0168825830999992003013000004-05170-040670FM-12+029999999V0200901N003612200019N0500001N1+99999+99999999999ADDAA106000091GF104991999999008001999999KA1240M+03431REMSYN087AAXX  30004 82583 32599 40907 1275 20199 39761 40096 84200 333 10343 29056 55070 59028;EQDQ01  00002PRCP06
0186825830999992003013012004-05170-040670FM-12+029999999V0200901N003110075019N0500001N1+02671+02161101131ADDAA106000091GF107991061021008001031001KA1240N+02381MA1999999097771MD1999999-0131REMSYN076AAXX  30124 82583 32599 70906 10267 20216 39777 40113 86230 333 20238 59013;EQDQ01  00002PRCP06
0209825830999992003013112004-05170-040670FM-12+029999999V0201401N001510120019N0500001N1+02351+02111101141ADDAY161061AY261061GF108991999081008001081999KA1240N+02161MA1999999097761MD1999999-0011MW1031REMSYN088AAXX  31124 82583 21599 81403 10235 20211 39776 40114 70366 8888/ 333 20216 59001 60014;EQDQ01+000082SCOTLC
0198825830999992003020100004-05170-040670FM-12+029999999V0200901N001512200019N0040001N1+02601+02061101041ADDAA106000091GF102991021011008001001001KA1240M+03071MA1999999097661MD1999999+0121REMSYN088AAXX  01004 82583 32596 20903 10260 20206 39766 40104 82100 333 10307 29068 55006 58012;EQDQ01  00002PRCP06
0140825830999992003020112004-05170-040670FM-12+029999999V0201401N002119999999N0500001N1+02611+02101999999ADDAA106000091GF107991999999008001999999REMSYN072AAXX  01124 82583 32599 71404 10261 20210 20221 39790 40128 58014 87200;EQDQ01  00002PRCP06
0152825830999992003020200004-05170-040670FM-12+029999999V0200901N003119999999N0040001N1+02711+02031999999ADDAA106000091GF106991999999008001999999REMSYN084AAXX  02004 82583 32596 60906 10271 20203 10326 29062 39774 40110 55020 58008 86200;EQDQ01  00002PRCP06
0140825830999992003020212004-05170-040670FM-12+029999999V0200901N005719999999N0500001N1+02711+02151999999ADDAA106000091GF108991999999008001999999REMSYN072AAXX  02124 82583 32599 80911 10271 20215 20228 39798 40134 58008 882//;EQDQ01  00002PRCP06
0243825830999992003020300004-05170-040670FM-12+029999999V0203601N002610120019N0040001N1+02241+02171101251ADDAY161061AY261061GA1041+999999089GF108991081081008001999999KA1240M+03211MA1999999097861MD1999999-0011MW1211REMSYN125AAXX  03004 82583 21596 83605 10224 20217 39786 40125 72166 888// 333 10321 41 79265 8487/ 333 10304 29088 55044 59001 69921;
0190825830999992003020312004-05170-040670FM-12+029999999V0201401N003110120019N0500001N1+02591+02391101321ADDAY161061AY261061GF107991061081008001031001KA1240N+02211MA1999999097911MD1999999-0071MW1031REMSYN088AAXX  03124 82583 21599 71406 10259 20239 39791 40132 70366 86830 333 20221 59007 60164;
0198825830999992003020400004-05170-040670FM-12+029999999V0200501N001512200019N0040001N1+02721+02081101061ADDAA106000091GF104991041021008001001001KA1240M+03181MA1999999097701MD1999999-0161REMSYN088AAXX  04004 82583 32596 40503 10272 20208 39770 40106 84200 333 10318 29068 55040 59016;EQDQ01  00002PRCP06
0186825830999992003020412004-05170-040670FM-12+029999999V0200501N001510120019N0500001N1+02641+02251101111ADDAA106000091GF107991071081008001001001KA1240N+02361MA1999999097751MD1999999-0161REMSYN076AAXX  04124 82583 32599 70503 10264 20225 39775 40111 87800 333 20236 59016;EQDQ01  00002PRCP06
0226825830999992003020500004-05170-040670FM-12+029999999V0200901N001512200019N0040001N1+02771+02091100921ADDAA106000091AY121061AY221061GF104991041021008001001001KA1240M+03381MA1999999097561MD1999999-0141MW1131REMSYN094AAXX  05004 82583 31596 40903 10277 20209 39756 40092 71322 84200 333 10338 29062 55101 59014;EQDQ01  00002PRCP06
0190825830999992003020512004-05170-040670FM-12+029999999V0201401N002110120019N0500001N1+02491+02341101121ADDAY121061AY221061GF108991061081008001021999KA1240N+02301MA1999999097761MD1999999+0011MW1211REMSYN088AAXX  05124 82583 21599 81404 10249 20234 39776 40112 72122 8682/ 333 20230 58001 69954;
0202825830999992003020600004-05170-040670FM-12+029999999V0202701N001510120019N0040001N1+02431+02371101081ADDAY161061AY261061GF106991061081008001001001KA1240M+02951MA1999999097701MD1999999+0141MW1021REMSYN100AAXX  06004 82583 21596 62703 10243 20237 39770 40108 70266 86800 333 10295 29093 55015 58014 60121;
0162825830999992003020612004-05170-040670FM-12+029999999V0200901N002110075019N0500001N1+02651+02331101241ADDGF107991061021008001001011KA1240N+02271MA1999999097861MD1999999+0101REMSYN082AAXX  06124 82583 22599 70904 10265 20233 39786 40124 86201 333 20227 58010 60124;
0198825830999992003020700004-05170-040670FM-12+029999999V0200901N001012200019N0040001N1+02661+02181101021ADDAA106000091GF104991041021008001001001KA1240M+03251MA1999999097661MD1999999-0041REMSYN088AAXX  07004 82583 32596 40902 10266 20218 39766 40102 84200 333 10325 29069 55067 59004;EQDQ01  00002PRCP06
0186825830999992003020712004-05170-040670FM-12+029999999V0200901N002110075019N0500001N1+02681+02281101131ADDAA106000091GF106991051021008001001011KA1240N+02211MA1999999097771MD1999999-0091REMSYN076AAXX  07124 82583 32599 60904 10268 20228 39777 40113 85201 333 20221 59009;EQDQ01  00002PRCP06
0198825830999992003020800004-05170-040670FM-12+029999999V0200901N001512200019N0040001N1+02711+02101101011ADDAA106000091GF102991021011008001001001KA1240M+03321MA1999999097651MD1999999-0071REMSYN088AAXX  08004 82583 32596 20903 10271 20210 39765 40101 82100 333 10332 29064 55074 59007;EQDQ01  00002PRCP06
0186825830999992003020812004-05170-040670FM-12+029999999V0200901N003610075019N0500001N1+02781+02231101171ADDAA106000091GF106991051021008001001011KA1240N+02381MA1999999097811MD1999999+0041REMSYN076AAXX  08124 82583 32599 60907 10278 20223 39781 40117 85201 333 20238 58004;EQDQ01  00002PRCP06
0186825830999992003020912004-05170-040670FM-12+029999999V0209999C000011050019N0500001N1+02561+02111101191ADDAA106000091GF106991021011008001001021KA1240N+02161MA1999999097831MD1999999+0021REMSYN076AAXX  09124 82583 32599 63200 10256 20211 39783 40119 82102 333 20216 58002;EQDQ01  00002PRCP06
0226825830999992003021000004-05170-040670FM-12+029999999V0203601N001510120019N0040001N1+02471+02151101051ADDAA106000091AY121061AY221061GF108991081081008001999999KA1240M+03311MA1999999097671MD1999999-0011MW1171REMSYN094AAXX  10004 82583 31596 83603 10247 20215 39767 40105 71722 888// 333 10331 29070 55048 59001;EQDQ01  00002PRCP06
0190825830999992003021012004-05170-040670FM-12+029999999V0200501N003110120019N0500001N1+02631+02271101191ADDAY161061AY261061GF107991071081008001001001KA1240N+02271MA1999999097811MD1999999-0021MW1021REMSYN088AAXX  10124 82583 21599 70506 10263 20227 39781 40119 70266 87800 333 20227 59002 60014;
0198825830999992003021100004-05170-040670FM-12+029999999V0203601N002610075019N0040001N1+02511+02171101121ADDAA106000091GF108991051021008001001021KA1240M+03041MA1999999097741MD1999999+0071REMSYN088AAXX  11004 82583 32596 83605 10251 20217 39774 40112 85202 333 10304 29073 55005 58007;EQDQ01  00002PRCP06
0186825830999992003021112004-05170-040670FM-12+029999999V0203601N001010075019N0500001N1+02631+02251101201ADDAA106000091GF106991051021008001001011KA1240N+02281MA1999999097821MD1999999+0011REMSYN076AAXX  11124 82583 32599 63602 10263 20225 39782 40120 85201 333 20228 58001;EQDQ01  00002PRCP06
0202825830999992003021200004-05170-040670FM-12+029999999V0203601N003110120019N0020001N1+02291+02251101151ADDAY161061AY261061GF108991081081008001999999KA1240M+03351MA1999999097761MD1999999+0021MW1631REMSYN100AAXX  12004 82583 21595 83606 10229 20225 39776 40115 76366 888// 333 10335 29078 55057 58002 60291;
0190825830999992003021212004-05170-040670FM-12+029999999V0200901N000510075019N0500001N1+02471+02291101361ADDAY161061AY261061GF108991081051008001999999KA1240N+02221MA1999999097961MD1999999+0141MW1021REMSYN088AAXX  12124 82583 21599 80901 10247 20229 39796 40136 70266 885// 333 20222 58014 60324;
0202825830999992003021300004-05170-040670FM-12+029999999V0200901N003119999999N0020001N1+02221+02171101261ADDAY161061AY261061GF108991051999004501999999KA1240M+02961MA1999999097861MD1999999+0001MW1621REMSYN100AAXX  13004 82583 21495 80906 10222 20217 39786 40126 76266 85/// 333 10296 29094 55017 58000 66031;
0190825830999992003021312004-05170-040670FM-12+029999999V0200901N001510450019N0500001N1+02471+02291101251ADDAY161061AY261061GF106991041051008001031001KA1240N+02111MA1999999097851MD1999999-0111MW1021REMSYN088AAXX  13124 82583 21599 60903 10247 20229 39785 40125 70266 84530 333 20211 59011 60464;
0198825830999992003021400004-05170-040670FM-12+029999999V0203601N001510075019N0040001N1+02581+02171101091ADDAA106000091GF105991051011008001001001KA1240M+03151MA1999999097711MD1999999-0151REMSYN088AAXX  14004 82583 32596 53603 10258 20217 39771 40109 85100 333 10315 29054 55070 59015;EQDQ01  00002PRCP06
0186825830999992003021412004-05170-040670FM-12+029999999V0200501N003112200019N0500001N1+02661+02181101151ADDAA106000091GF104991031021008001001011KA1240N+02311MA1999999097081MD1999999-0071REMSYN076AAXX  14124 82583 32599 40506 10266 20218 39708 40115 83201 333 20231 59007;EQDQ01  00002PRCP06
0198825830999992003021500004-05170-040670FM-12+029999999V0203601N000510120019N0040001N1+02611+02311100951ADDAA106000091GF108991081001012501021999KA1240M+03131MA1999999097591MD1999999-0121REMSYN088AAXX  15004 82583 32696 83601 10261 20231 39759 40095 8802/ 333 10313 29072 55062 59012;EQDQ01  00002PRCP06
0186825830999992003021512004-05170-040670FM-12+029999999V0200901N004110450019N0500001N1+02641+02161101061ADDAA106000091GF108991041011008001021999KA1240N+02321MA1999999097691MD1999999-0091REMSYN076AAXX  15124 82583 32599 80908 10264 20216 39769 40106 8412/ 333 20232 59009;EQDQ01  00002PRCP06
0186825830999992003021612004-05170-040670FM-12+029999999V0200901N000510075019N0500001N1+02581+02331101091ADDAA106000091GF108991081011008001999999KA1240N+02381MA1999999097721MD1999999+0031REMSYN076AAXX  16124 82583 32599 80901 10258 20233 39772 40109 881// 333 20238 58003;EQDQ01  00002PRCP06
0186825830999992003021712004-05170-040670FM-12+029999999V0203601N002110120019N0500001N1+02601+02271101131ADDAA106000091GF107991061081008001001011KA1240N+02381MA1999999097771MD1999999+0051REMSYN076AAXX  17124 82583 32599 73604 10260 20227 39777 40113 86801 333 20238 58005;EQDQ01  00002PRCP06
0202825830999992003021800004-05170-040670FM-12+029999999V0203601N002110075019N0040001N1+02321+02251101201ADDAY151061AY291061GF108991081051008001999999KA1240M+02951MA1999999097811MD1999999+0131MW1511REMSYN100AAXX  18004 82583 21596 83604 10232 20225 39781 40120 75159 885// 333 10295 29086 55009 58013 60041;
0162825830999992003021812004-05170-040670FM-12+029999999V0201401N001010075019N0500001N1+02511+02291101171ADDGF106991051021008001031001KA1240N+02251MA1999999097771MD1999999+0001REMSYN082AAXX  18124 82583 22599 61402 10251 20229 39777 40117 85230 333 20225 58000 60044;
0202825830999992003021900004-05170-040670FM-12+029999999V0203601N002110120019N0040001N1+02271+02231101211ADDAY161061AY291061GF108991081081008001999999KA1240M+03071MA1999999097811MD1999999+0001MW1021REMSYN100AAXX  19004 82583 21596 83604 10227 20223 39781 40121 70269 888// 333 10307 29090 55039 58000 60201;
0162825830999992003021912004-05170-040670FM-12+029999999V0200901N002110120019N0500001N1+02571+02331101231ADDGF107991071081008001001001KA1240N+02231MA1999999097831MD1999999+0061REMSYN082AAXX  19124 82583 22599 70904 10257 20233 39783 40123 87800 333 20223 58006 60204;
0198825830999992003022000004-05170-040670FM-12+029999999V0203601N001010120019N0040001N1+02711+02431101021ADDAA106000091GF107991071081008001001001KA1240M+03141MA1999999097661MD1999999-0151REMSYN088AAXX  20004 82583 32596 73602 10271 20243 39766 40102 87800 333 10314 29077 55046 59015;EQDQ01  00002PRCP06
0186825830999992003022012004-05170-040670FM-12+029999999V0201401N002110075019N0500001N1+02591+02291101181ADDAA106000091GF108991061051008001021999KA1240N+02321MA1999999097821MD1999999-0011REMSYN076AAXX  20124 82583 32599 81404 10259 20229 39782 40118 8652/ 333 20232 59001;EQDQ01  00002PRCP06
0198825830999992003022100004-05170-040670FM-12+029999999V0203201N001519999999N0040001N1+02511+02271101081ADDAA106000091GF108991081999008001999999KA1240M+03161MA1999999097701MD1999999+0041REMSYN088AAXX  21004 82583 32596 83203 10251 20227 39770 40108 88/// 333 10316 29076 55038 58004;EQDQ01  00002PRCP06
0186825830999992003022112004-05170-040670FM-12+029999999V0200901N001510450019N0500001N1+02581+02101101201ADDAA106000091GF108991031061008001021001KA1240N+02371MA1999999097821MD1999999+0001REMSYN076AAXX  21124 82583 32599 80903 10258 20210 39782 40120 83620 333 20237 58000;EQDQ01  00002PRCP06
0198825830999992003022200004-05170-040670FM-12+029999999V0202701N001010075019N0040001N1+02391+02241101031ADDAA106000091GF105991051021008001001001KA1240M+02971MA1999999097651MD1999999-0051REMSYN088AAXX  22004 82583 32596 52702 10239 20224 39765 40103 85200 333 10297 29080 55026 59005;EQDQ01  00002PRCP06
0186825830999992003022212004-05170-040670FM-12+029999999V0200501N001010075019N0500001N1+02551+02191101201ADDAA106000091GF106991061021008001001001KA1240N+02141MA1999999097821MD1999999+0001REMSYN076AAXX  22124 82583 32599 60502 10255 20219 39782 40120 86200 333 20214 58000;EQDQ01  00002PRCP06
0186825830999992003022312004-05170-040670FM-12+029999999V0200901N003610075019N0500001N1+02691+02261101371ADDAA106000091GF107991071021008001001001KA1240N+02371MA1999999097991MD1999999+0171REMSYN076AAXX  23124 82583 32599 70907 10269 20226 39799 40137 87200 333 20237 58017;EQDQ01  00002PRCP06
0202825830999992003022400004-05170-040670FM-12+029999999V0203101N002110120019N0040001N1+02681+02211101221ADDAY161061AY261061GF106991061081008001001001KA1240M+03991MA1999999097931MD1999999+0111MW1211REMSYN100AAXX  24004 82583 21596 63104 10268 20221 39793 40122 72166 86800 333 10399 29083 55017 58011 60051;
0162825830999992003022412004-05170-040670FM-12+029999999V0201401N002110075019N0500001N1+02521+02291101441ADDGF108991051051008001999999KA1240N+02281MA1999999098041MD1999999+0051REMSYN082AAXX  24124 82583 22599 81404 10252 20229 39804 40144 855// 333 20228 58005 60054;
0162825830999992003022512004-05170-040670FM-12+029999999V0203601N001510075019N0500001N1+02521+02271101251ADDGF106991061021008001001001KA1240N+02161MA1999999097851MD1999999-0191REMSYN082AAXX  25124 82583 22599 63603 10252 20227 39785 40125 86200 333 20216 59019 60094;
0221825830999992003022600004-05170-040670FM-12+029999999V0203601N001519999999N0040001N1+02361+02201101321ADDAY161061AY261061GF106991999081008001001001KA1240M+03071MA1999999097921MD1999999-0031MW1021REMSYN100AAXX  26004 82583 21596 63603 10236 20220 39792 40132 70266 88800 333 10307 29083 55034 59003 60421;EQDQ01+000082SCOTLC
0190825830999992003022612004-05170-040670FM-12+029999999V0201401N003112200019N0500001N1+02491+02321101151ADDAY161061AY261061GF106991041051008001001011KA1240N+02151MA1999999097751MD1999999-0101MW1031REMSYN088AAXX  26124 82583 21599 61406 10249 20232 39775 40115 70366 84501 333 20215 59010 60554;
0198825830999992003022700004-05170-040670FM-12+029999999V0203201N001010120019N0040001N1+02491+02211101071ADDAA106000091GF106991061081008001001001KA1240M+03101MA1999999097691MD1999999-0231REMSYN088AAXX  27004 82583 32596 63202 10249 20221 39769 40107 86800 333 10310 29077 55078 59023;EQDQ01  00002PRCP06
0186825830999992003022712004-05170-040670FM-12+029999999V0200501N002110075019N0500001N1+02651+02291101181ADDAA106000091GF106991061021008001001001KA1240N+02281MA1999999097801MD1999999+0051REMSYN076AAXX  27124 82583 32599 60504 10265 20229 39780 40118 86200 333 20228 58005;EQDQ01  00002PRCP06
0186825830999992003022812004-05170-040670FM-12+029999999V0200901N001510120019N0500001N1+02561+02311101271ADDAA106000091GF108991081081008001999999KA1240N+02301MA1999999097891MD1999999+0091REMSYN076AAXX  28124 82583 32599 80903 10256 20231 39789 40127 888// 333 20230 58009;EQDQ01  00002PRCP06
0181825830999992003030112004-05170-040670FM-12+029999999V0200901N002612200019N0500001N1+02641+02331101231ADDGF104991999011008001001001KA1240N+02201MA1999999097831MD1999999-0061REMSYN082AAXX  01124 82583 22599 40905 10264 20233 39783 40123 83100 333 20220 59006 60374;EQDQ01+000032SCOTLC
0186825830999992003030212004-05170-040670FM-12+029999999V0200901N001510075019N0500001N1+02631+02231101091ADDAA106000091GF106991061011008001001001KA1240N+02141MA1999999097721MD1999999-0111REMSYN076AAXX  02124 82583 32599 60903 10263 20223 39772 40109 86100 333 20214 59011;EQDQ01  00002PRCP06
0198825830999992003030300004-05170-040670FM-12+029999999V0203601N001512200019N0040001N1+02441+02131100931ADDAA106000091GF102991021021008001001001KA1240M+03111MA1999999097551MD1999999-0151REMSYN088AAXX  03004 82583 32596 23603 10244 20213 39755 40093 82200 333 10311 29076 55068 59015;EQDQ01  00002PRCP06
0186825830999992003030312004-05170-040670FM-12+029999999V0200901N002110120019N0500001N1+02631+02271101111ADDAA106000091GF107991061081008001001011KA1240N+02231MA1999999097731MD1999999+0011REMSYN076AAXX  03124 82583 32599 70904 10263 20227 39773 40111 86801 333 20223 58001;EQDQ01  00002PRCP06
0202825830999992003030400004-05170-040670FM-12+029999999V0200501N001010120019N0040001N1+02411+02321101111ADDAY161061AY261061GF108991081081008001999999KA1240M+03041MA1999999097731MD1999999+0181MW1511REMSYN100AAXX  04004 82583 21596 80502 10241 20232 39773 40111 75166 888// 333 10304 29087 55055 58018 60021;
0190825830999992003030412004-05170-040670FM-12+029999999V0201401N000510075019N0500001N1+02371+02221101271ADDAY161061AY261061GF108991081051008001999999KA1240N+02251MA1999999097871MD1999999+0141MW1201REMSYN088AAXX  04124 82583 21599 81401 10237 20222 39787 40127 72066 885// 333 20225 58014 60064;
0198825830999992003030500004-05170-040670FM-12+029999999V0203601N002610075019N0040001N1+02491+02291101151ADDAA106000091GF105991051021008001001001KA1240M+03001MA1999999097761MD1999999+0031REMSYN088AAXX  05004 82583 32596 53605 10249 20229 39776 40115 85200 333 10300 29081 55049 58003;EQDQ01  00002PRCP06
0190825830999992003030512004-05170-040670FM-12+029999999V0201401N002110450019N0500001N1+02521+02291101131ADDAY161061AY261061GF106991041021008001031001KA1240N+02121MA1999999097751MD1999999-0121MW1031REMSYN088AAXX  05124 82583 21599 61404 10252 20229 39775 40113 70366 84230 333 20212 59012 60104;
0212825830999992003030600004-05170-040670FM-12+029999999V0200901N001012200019N0040001N1+02421+02301100981ADDAY151061AY251061GA1001+999999999GF100991001001999999001001KA1240M+03091MA1999999097601MD1999999-0161MW1021REMSYN094AAXX  06004 82583 21596 00902 10242 20230 39760 40098 70255 333 10309 29083 55058 59016 69931;
0162825830999992003030612004-05170-040670FM-12+029999999V0200901N002610075019N0500001N1+02691+02301101101ADDGF105991051021008001001001KA1240N+02251MA1999999097721MD1999999-0031REMSYN082AAXX  06124 82583 22599 50905 10269 20230 39772 40110 85200 333 20225 59003 69934;
0198825830999992003030700004-05170-040670FM-12+029999999V0200901N000512200019N0040001N1+02501+02171100991ADDAA106000091GF102991021021008001001001KA1240M+03131MA1999999097621MD1999999+0021REMSYN088AAXX  07004 82583 32596 20901 10250 20217 39762 40099 82200 333 10313 29072 55079 58002;EQDQ01  00002PRCP06
0186825830999992003030712004-05170-040670FM-12+029999999V0200501N001510450019N0500001N1+02641+02271101121ADDAA106000091GF107991021011008001031001KA1240N+02161MA1999999097751MD1999999+0031REMSYN076AAXX  07124 82583 32599 70503 10264 20227 39775 40112 82130 333 20216 58003;EQDQ01  00002PRCP06
0198825830999992003030800004-05170-040670FM-12+029999999V0203601N003112200019N0040001N1+02621+02421101111ADDAA106000091GF103991031021008001001001KA1240M+03021MA1999999098481MD1999999+0061REMSYN088AAXX  08004 82583 32596 33606 10262 20242 39848 40111 83200 333 10302 29035 55079 58006;EQDQ01  00002PRCP06
0186825830999992003030812004-05170-040670FM-12+029999999V0200901N003112200019N0500001N1+02581+02271101251ADDAA106000091GF102991021011008001001001KA1240N+02151MA1999999097871MD1999999+0121REMSYN076AAXX  08124 82583 32599 20906 10258 20227 39787 40125 82100 333 20215 58012;EQDQ01  00002PRCP06
0198825830999992003030900004-05170-040670FM-12+029999999V0200501N001512200019N0040001N1+02571+01941101631ADDAA106000091GF102991021011008001001001KA1240M+03081MA1999999097661MD1999999-0101REMSYN088AAXX  09004 82583 32596 20503 10257 20194 39766 40163 82100 333 10308 29096 55070 59010;EQDQ01  00002PRCP06
0186825830999992003030912004-05170-040670FM-12+029999999V0200901N004110075019N0500001N1+02611+02211101251ADDAA106000091GF106991061021008001001001KA1240N+02231MA1999999097871MD1999999+0001REMSYN076AAXX  09124 82583 32599 60908 10261 20221 39787 40125 86200 333 20223 58000;EQDQ01  00002PRCP06
0198825830999992003031000004-05170-040670FM-12+029999999V0200501N000512200019N0040001N1+02521+02131101011ADDAA106000091GF101991011011008001001001KA1240M+03131MA1999999097641MD1999999-0031REMSYN088AAXX  10004 82583 32596 10501 10252 20213 39764 40101 81100 333 10313 29071 55095 59003;EQDQ01  00002PRCP06
0186825830999992003031012004-05170-040670FM-12+029999999V0200901N001010120019N0500001N1+02591+02211101191ADDAA106000091GF107991071081008001001001KA1240N+02251MA1999999097811MD1999999-0061REMSYN076AAXX  10124 82583 32599 70902 10259 20221 39781 40119 87800 333 20225 59006;EQDQ01  00002PRCP06
0198825830999992003031100004-05170-040670FM-12+029999999V0203601N002112200019N0040001N1+02411+02191101111ADDAA106000091GF103991031011008001001001KA1240M+03141MA1999999097731MD1999999-0051REMSYN088AAXX  11004 82583 32596 33604 10241 20219 39773 40111 83100 333 10314 29077 55055 59005;EQDQ01  00002PRCP06
0186825830999992003031112004-05170-040670FM-12+029999999V0200901N000510120019N0500001N1+02561+02251101151ADDAA106000091GF108991081081008001999999KA1240N+02251MA1999999097771MD1999999-0041REMSYN076AAXX  11124 82583 32599 80901 10256 20225 39777 40115 888// 333 20225 59004;EQDQ01  00002PRCP06
0214825830999992003031200004-05170-040670FM-12+029999999V0203601N002110075019N0040001N1+02491+02291101041ADDAA106000091GF108991999021008001001001KA1240M+03161MA1999999097661MD1999999-0071REMSYN088AAXX  12004 82583 32596 83604 10249 20229 39766 40104 85200 333 10316 29079 55077 59007;EQDQ01+000052SCOTLCQ02  00002PRCP06
0171825830999992003031212004-05170-040670FM-12+029999999V0200901N002110075019N0500001N1+02631+02231101161ADDAA106000091GF106991061021008001001001KA1240N+02281MA1999999097781REMSYN075AAXX  12124 82583 32599 60904 10263 20223 39778 40116 86200 333 20228 5801;EQDQ01  00002PRCP06
0198825830999992003031300004-05170-040670FM-12+029999999V0200501N002112200019N0040001N1+02581+02041101001ADDAA106000091GF101991001001999999001011KA1240M+03231MA1999999097631MD1999999-0031REMSYN088AAXX  13004 82583 32996 10504 10258 20204 39763 40100 80001 333 10323 29066 55093 59003;EQDQ01  00002PRCP06
0186825830999992003031312004-05170-040670FM-12+029999999V0200901N002110075019N0500001N1+02641+02371101091ADDAA106000091GF107991071021008001001001KA1240N+02251MA1999999097721MD1999999-0061REMSYN076AAXX  13124 82583 32599 70904 10264 20237 39772 40109 87200 333 20225 59006;EQDQ01  00002PRCP06
0198825830999992003031400004-05170-040670FM-12+029999999V0203201N002612200019N0040001N1+02391+02231100961ADDAA106000091GF102991021011008001001001KA1240M+03341MA1999999097581MD1999999-0051REMSYN088AAXX  14004 82583 32596 23205 10239 20223 39758 40096 82100 333 10334 29077 55090 59005;EQDQ01  00002PRCP06
0186825830999992003031412004-05170-040670FM-12+029999999V0200901N001010120019N0500001N1+02611+02271101141ADDAA106000091GF108991081081008001999999KA1240N+02191MA1999999097761MD1999999+0041REMSYN076AAXX  14124 82583 32599 80902 10261 20227 39776 40114 888// 333 20219 58004;EQDQ01  00002PRCP06
0202825830999992003031500004-05170-040670FM-12+029999999V0200501N003110075019N0040001N1+02361+02311101071ADDAY161061AY261061GF108991081051008001999999KA1240M+03331MA1999999097691MD1999999+0111MW1211REMSYN100AAXX  15004 82583 21596 80506 10236 20231 39769 40107 72166 885// 333 10333 29079 55041 58011 60101;
0162825830999992003031512004-05170-040670FM-12+029999999V0202701N000510120019N0500001N1+02471+02291101291ADDGF107991071081008001001001KA1240N+02181MA1999999097891MD1999999+0131REMSYN082AAXX  15124 82583 22599 72701 10247 20229 39789 40129 87800 333 20218 58013 60104;
0202825830999992003031600004-05170-040670FM-12+029999999V0203601N002610120019N0040001N1+02321+02201101121ADDAY161061AY261061GF107991071081008001001001KA1240M+03121MA1999999097731MD1999999+0041MW1021REMSYN100AAXX  16004 82583 21596 73605 10232 20220 39773 40112 70266 87800 333 10312 29083 55025 58004 60031;
0190825830999992003031612004-05170-040670FM-12+029999999V0201401N002110075019N0040001N1+02481+02321101341ADDAY161061AY261061GF106991061011008001001001KA1240N+02241MA1999999097941MD1999999+0051MW1021REMSYN088AAXX  16124 82583 21596 61404 10248 20232 39794 40134 70266 86100 333 20224 58005 60044;
0202825830999992003031700004-05170-040670FM-12+029999999V0203201N001510120019N0040001N1+02301+02221101241ADDAY161061AY261061GF108991081081008001999999KA1240M+03131MA1999999097841MD1999999+0091MW1611REMSYN100AAXX  17004 82583 21596 83203 10230 20222 39784 40124 76166 888// 333 10313 29083 55075 58009 60041;
0202825830999992003031800004-05170-040670FM-12+029999999V0202701N000510075019N0040001N1+02221+02171101001ADDAY191061AY261061GF108991051051008001999999KA1240M+03071MA1999999097601MD1999999-0211MW1531REMSYN100AAXX  18004 82583 21596 82701 10222 20217 39760 40100 75396 855// 333 10307 29086 55025 59021 60141;
0162825830999992003031812004-05170-040670FM-12+029999999V0200901N001010075019N0500001N1+02391+02211101251ADDGF108991081051008001999999KA1240N+02171MA1999999097841MD1999999-0061REMSYN082AAXX  18124 82583 22599 80902 10239 20221 39784 40125 885// 333 20217 59006 60144;
0186825830999992003031912004-05170-040670FM-12+029999999V0200501N001510075019N0500001N1+02521+02311101361ADDAA106000091GF106991051051008001001011KA1240N+02271MA1999999097961MD1999999+0121REMSYN076AAXX  19124 82583 32599 60503 10252 20231 39796 40136 85501 333 20227 58012;EQDQ01  00002PRCP06
0198825830999992003032000004-05170-040670FM-12+029999999V0200501N002110075019N0040001N1+02611+02311101101ADDAA106000091GF107991071021008001001001KA1240M+03101MA1999999097731MD1999999-0061REMSYN088AAXX  20004 82583 32596 70504 10261 20231 39773 40110 87200 333 10310 29078 55056 59006;EQDQ01  00002PRCP06
0190825830999992003032012004-05170-040670FM-12+029999999V0202301N000510042019N0020001N1+02221+02201101531ADDAY161061AY261061GF108991081051004501999999KA1240N+02171MA1999999098121MD1999999+0161MW1631REMSYN088AAXX  20124 82583 21495 82301 10222 20220 39812 40153 76366 885// 333 20217 58016 60634;
0202825830999992003032100004-05170-040670FM-12+029999999V0203201N000510075019N0040001N1+02281+02161101371ADDAY161061AY261061GF107991071051008001001001KA1240M+02501MA1999999097951MD1999999+0221MW1021REMSYN100AAXX  21004 82583 21596 73201 10228 20216 39795 40137 70266 87500 333 10250 29092 55000 58022 60481;
0162825830999992003032112004-05170-040670FM-12+029999999V0200501N000510075019N0500001N1+02521+02191101351ADDGF107991061021008001031001KA1240N+02161MA1999999097951MD1999999-0171REMSYN082AAXX  21124 82583 22599 70501 10252 20219 39795 40135 86230 333 20216 59017 60484;
0186825830999992003032812004-05170-040670FM-12+029999999V0200501N003110075019N0500001N1+02721+02411101221ADDAA106000091GF106991061021008001001001KA1240N+02351MA1999999097851MD1999999+0031REMSYN076AAXX  28124 82583 32599 60506 10272 20241 39785 40122 86200 333 20235 58003;EQDQ01  00002PRCP06
0209825830999992003032912004-05170-040670FM-12+029999999V0200501N001512200019N0500001N1+02691+02431101261ADDAY161061AY261061GF103991999021008001001001KA1240N+02281MA1999999097881MD1999999+0031MW1021REMSYN088AAXX  29124 82583 21599 30503 10269 20243 39788 40126 70266 86200 333 20228 58003 60084;EQDQ01+000062SCOTLC
0221825830999992003033000004-05170-040670FM-12+029999999V0202701N001010075019N0040001N1+02331+02291101111ADDAY161061AY261061GF108991999021008001001001KA1240M+03071MA1999999097731MD1999999-0051MW1511REMSYN100AAXX  30004 82583 21596 82702 10233 20229 39773 40111 75166 86200 333 10307 29086 55055 59005 60021;EQDQ01+000062SCOTLC
0190825830999992003033012004-05170-040670FM-12+029999999V0201401N002610075019N0500001N1+02481+02321101161ADDAY151061AY251061GF108991081051008001999999KA1240N+02291MA1999999097761MD1999999-0121MW1021REMSYN088AAXX  30124 82583 21599 81405 10248 20232 39776 40116 70255 885// 333 20229 59012 60024;
0190825830999992003033112004-05170-040670FM-12+029999999V0201401N002110120019N0500001N1+02521+02381101151ADDAY151061AY251061GF108991081081008001999999KA1240N+02271MA1999999098021MD1999999+0001MW1031REMSYN088AAXX  31124 82583 21599 81404 10252 20238 39802 40115 70355 888// 333 20227 58000 69954;
0202825830999992003040100004-05170-040670FM-12+029999999V0201801N001010120019N0040001N1+02461+02301101071ADDAY161061AY221061GF108991081081008001999999KA1240M+03071MA1999999097691MD1999999+0061MW1631REMSYN100AAXX  01004 82583 21596 81802 10246 20230 39769 40107 76362 888// 333 10307 29084 55071 58006 60041;
0190825830999992003040112004-05170-040670FM-12+029999999V0200901N001510075019N0500001N1+02611+02211101291ADDAY161061AY261061GF107991061021008001001011KA1240N+02231MA1999999097911MD1999999+0151MW1031REMSYN088AAXX  01124 82583 21599 70903 10261 20221 39791 40129 70366 86201 333 20223 58015 60144;
0202825830999992003040200004-05170-040670FM-12+029999999V0200901N001510075019N0040001N1+02371+02331101211ADDAY191061AY261061GF106991061021008001001001KA1240M+03061MA1999999097831MD1999999+0141MW1021REMSYN100AAXX  02004 82583 21596 60903 10237 20233 39783 40121 70296 86200 333 10306 29082 55064 58014 60031;
0162825830999992003040212004-05170-040670FM-12+029999999V0200901N003112200019N0500001N1+02661+02271101331ADDGF104991041021008001001001KA1240N+02321MA1999999097941MD1999999+0031REMSYN082AAXX  02124 82583 22599 40906 10266 20227 39794 40133 84200 333 20232 58003 60034;
0214825830999992003040300004-05170-040670FM-12+029999999V0203201N001510075019N0040001N1+02401+02231101211ADDAA106000091GF108991999021008001001001KA1240M+03081MA1999999097831MD1999999+0001REMSYN088AAXX  03004 82583 32596 83203 10240 20223 39783 40121 85200 333 10308 29078 55077 58000;EQDQ01+000052SCOTLCQ02  00002PRCP06
0186825830999992003040312004-05170-040670FM-12+029999999V0201401N001010075019N0500001N1+02761+02341101151ADDAA106000091GF106991051021008001021021KA1240N+02311MA1999999097781MD1999999-0161REMSYN076AAXX  03124 82583 32599 61402 10276 20234 39778 40115 85222 333 20231 59016;EQDQ01  00002PRCP06
0198825830999992003040400004-05170-040670FM-12+029999999V0202701N001012200019N0040001N1+02511+02421100991ADDAA106000091GF102991021011008001001001KA1240M+03071MA1999999097631MD1999999-0201REMSYN088AAXX  04004 82583 32596 22702 10251 20242 39763 40099 82100 333 10307 29085 55062 59020;EQDQ01  00002PRCP06
0186825830999992003040412004-05170-040670FM-12+029999999V0200501N001512200019N0500001N1+02781+02371101101ADDAA106000091GF104991041021008001001001KA1240N+02281MA1999999097741MD1999999-0041REMSYN076AAXX  04124 82583 32599 40503 10278 20237 39774 40110 84200 333 20228 59004;EQDQ01  00002PRCP06
0221825830999992003040500004-05170-040670FM-12+029999999V0203201N002110075019N0040001N1+02371+02351101081ADDAY161061AY261061GF108991999041008001001001KA1240M+03201MA1999999097711MD1999999+0081MW1131REMSYN100AAXX  05004 82583 21596 83204 10237 20235 39771 40108 71366 86400 333 10320 29083 55094 58008 60081;EQDQ01+000062SCOTLC
0162825830999992003040512004-05170-040670FM-12+029999999V0200901N002110450019N0500001N1+02691+02411101211ADDGF106991031021008001031001KA1240N+02301MA1999999097831MD1999999+0091REMSYN082AAXX  05124 82583 22599 60904 10269 20241 39783 40121 83230 333 20230 58009 60084;
0186825830999992003040612004-05170-040670FM-12+029999999V0201401N001510075019N0500001N1+02561+02271101191ADDAA106000091GF107991071021008001001001KA1240N+02341MA1999999097811MD1999999-0021REMSYN076AAXX  06124 82583 32599 71403 10256 20227 39781 40119 87200 333 20234 59002;EQDQ01  00002PRCP06
0198825830999992003040700004-05170-040670FM-12+029999999V0203201N002612200019N0040001N1+02581+02311101051ADDAA106000091GF102991021011008001001001KA1240M+03071MA1999999097671MD1999999-0091REMSYN088AAXX  07004 82583 32596 23205 10258 20231 39767 40105 82100 333 10307 29077 55077 59009;EQDQ01  00002PRCP06
0186825830999992003040712004-05170-040670FM-12+029999999V0203601N001510075019N0500001N1+02591+02251101111ADDAA106000091GF106991061021008001001001KA1240N+02271MA1999999097741MD1999999-0071REMSYN076AAXX  07124 82583 32599 63603 10259 20225 39774 40111 86200 333 20227 59007;EQDQ01  00002PRCP06
0226825830999992003040800004-05170-040670FM-12+029999999V0203201N001010075019N0040001N1+02461+02301100971ADDAA106000091AY121061AY221061GF105991051021008001001001KA1240M+03211MA1999999097591MD1999999-0011MW1131REMSYN094AAXX  08004 82583 31596 53202 10246 20230 39759 40097 71322 85200 333 10321 29079 55083 59001;EQDQ01  00002PRCP06
0186825830999992003040812004-05170-040670FM-12+029999999V0200501N002610075019N0500001N1+02671+02331101061ADDAA106000091GF106991061021008001001001KA1240N+02291MA1999999097681MD1999999-0061REMSYN076AAXX  08124 82583 32599 60505 10267 20233 39768 40106 86200 333 20229 59006;EQDQ01  00002PRCP06
0198825830999992003040900004-05170-040670FM-12+029999999V0200501N001012200019N0040001N1+02331+02261101051ADDAA106000091GF103991031011008001001001KA1240M+03061MA1999999097671MD1999999+0081REMSYN088AAXX  09004 82583 32596 30502 10233 20226 39767 40105 83100 333 10306 29082 55060 58008;EQDQ01  00002PRCP06
0186825830999992003040912004-05170-040670FM-12+029999999V0200901N002610075019N0500001N1+02661+02241101181ADDAA106000091GF106991061021008001001001KA1240N+02241MA1999999097801MD1999999+0121REMSYN076AAXX  09124 82583 32599 60905 10266 20224 39780 40118 86200 333 20224 58012;EQDQ01  00002PRCP06
0198825830999992003041000004-05170-040670FM-12+029999999V0200901N000510120019N0040001N1+02521+02211101131ADDAA106000091GF107991071081008001001001KA1240M+03131MA1999999097761MD1999999+0091REMSYN088AAXX  10004 82583 32596 70901 10252 20221 39776 40113 87800 333 10313 29073 55101 58009;EQDQ01  00002PRCP06
0190825830999992003041012004-05170-040670FM-12+029999999V0201801N001510120019N0500001N1+02571+02311101311ADDAY161061AY261061GF107991071081008001001001KA1240N+02291MA1999999097931MD1999999+0131MW1021REMSYN088AAXX  10124 82583 21599 71803 10257 20231 39793 40131 70266 87800 333 20229 58013 69964;
0178825830999992003041100004-05170-040670FM-12+029999999V0203601N001012200019N0040001N1+02421+02301102501ADDAA106000091GF103991031021008001001001KA1240M+03031MA1999999097851REMSYN082AAXX  11004 82583 32596 33602 10242 20230 39785 40250 83200 333 10303 29082 55012;EQDQ01  00002PRCP06
0162825830999992003041112004-05170-040670FM-12+029999999V0201401N003110450019N0500001N1+02661+02271101271ADDGF105991011011008001051001KA1240N+02301MA1999999097871MD1999999-0071REMSYN082AAXX  11124 82583 22599 51406 10266 20227 39787 40127 81150 333 20230 59007 69984;
0221825830999992003041200004-05170-040670FM-12+029999999V0203601N000512200019N0040001N1+02401+02331101121ADDAY161061AY261061GF102991001001999999001021KA1240M+03211MA1999999097751MD1999999-0101MW1011REMSYN100AAXX  12004 82583 21896 23601 10240 20233 39775 40112 70166 80002 333 10321 29086 55068 59010 60061;EQDQ01+022502SCOLCB
0198825830999992003041300004-05170-040670FM-12+029999999V0201401N000512200019N0040001N1+02541+02381101271ADDAA106000091GF104991041021008001001001KA1240M+03111MA1999999097891MD1999999+0141REMSYN088AAXX  13004 82583 32596 41401 10254 20238 39789 40127 84200 333 10311 29082 55081 58014;EQDQ01  00002PRCP06
0214825830999992003041400004-05170-040670FM-12+029999999V0203601N002612200019N0040001N1+02581+02331101361ADDAA106000091GF102991001001999999001011KA1240M+03181MA1999999097981MD1999999-0091REMSYN088AAXX  14004 82583 32896 23605 10258 20233 39798 40136 80001 333 10318 29078 55084 59009;EQDQ01+022502SCOLCBQ02  00002PRCP06
0186825830999992003041412004-05170-040670FM-12+029999999V0200901N003112200019N0500001N1+02711+02221101441ADDAA106000091GF103991021011008001001011KA1240N+02311MA1999999098061MD1999999-0011REMSYN076AAXX  14124 82583 32599 30906 10271 20222 39806 40144 82101 333 20231 59001;EQDQ01  00002PRCP06
0186825830999992003041512004-05170-040670FM-12+029999999V0202301N001010120019N0500001N1+02511+02271101331ADDAA106000091GF107991071081008001001001KA1240N+02161MA1999999097941MD1999999-0121REMSYN076AAXX  15124 82583 32599 72302 10251 20227 39794 40133 87800 333 20216 59012;EQDQ01  00002PRCP06
0198825830999992003041600004-05170-040670FM-12+029999999V0200501N001012200019N0040001N1+02521+02341101101ADDAA106000091GF102991011031008001001011KA1240M+03191MA1999999097721MD1999999-0181REMSYN088AAXX  16004 82583 32596 20502 10252 20234 39772 40110 81301 333 10319 29081 55077 59018;EQDQ01  00002PRCP06
0196825830999992003041612004-05170-040670FM-12+029999999V0200901N001512200019N0500001N1+02611+02311101311ADDAA106000091GA1001+999999999GF100991001001999999001001KA1240N+02171MA1999999097931MD1999999-0011REMSYN070AAXX  16124 82583 32599 00903 10261 20231 39793 40131 333 20217 59001;EQDQ01  00002PRCP06
0198825830999992003041700004-05170-040670FM-12+029999999V0200501N001512200019N0040001N1+02561+02271101061ADDAA106000091GF102991011011008001001011KA1240M+03221MA1999999097691MD1999999-0031REMSYN088AAXX  17004 82583 32596 20503 10256 20227 39769 40106 81101 333 10322 29076 55073 59003;EQDQ01  00002PRCP06
0186825830999992003041712004-05170-040670FM-12+029999999V0200901N003110075019N0500001N1+02591+02291101481ADDAA106000091GF105991051021008001001001KA1240N+02221MA1999999098101MD1999999+0171REMSYN076AAXX  17124 82583 32599 50906 10259 20229 39810 40148 85200 333 20222 58017;EQDQ01  00002PRCP06
0198825830999992003041800004-05170-040670FM-12+029999999V0200501N001012200019N0040001N1+02611+02331101081ADDAA106000091GF102991011011008001001011KA1240M+03221MA1999999097711MD1999999+0021REMSYN088AAXX  18004 82583 32596 20502 10261 20233 39771 40108 81101 333 10322 29075 55085 58002;EQDQ01  00002PRCP06
0186825830999992003041812004-05170-040670FM-12+029999999V0200501N002110075019N0500001N1+02721+02301101241ADDAA106000091GF105991051021008001001001KA1240N+02281MA1999999097881MD1999999-0121REMSYN076AAXX  18124 82583 32599 50504 10272 20230 39788 40124 85200 333 20228 59012;EQDQ01  00002PRCP06
0198825830999992003041900004-05170-040670FM-12+029999999V0200501N001012200019N0040001N1+02621+02181101141ADDAA106000091GF102991021021008001001001KA1240M+03211MA1999999097781MD1999999+0071REMSYN088AAXX  19004 82583 32596 20502 10262 20218 39778 40114 82200 333 10321 29072 55082 58007;EQDQ01  00002PRCP06
0190825830999992003041912004-05170-040670FM-12+029999999V0200501N003110075019N0500001N1+02711+02241101271ADDAY161061AY261061GF106991061021008001001001KA1240N+02291MA1999999097901MD1999999+0021MW1021REMSYN088AAXX  19124 82583 21599 60506 10271 20224 39790 40127 70266 86200 333 20229 58002 69954;
0202825830999992003042000004-05170-040670FM-12+029999999V0203601N002112200019N0040001N1+02521+02361101111ADDAY161061AY261061GF103991031021008001001001KA1240M+02991MA1999999097741MD1999999-0041MW1011REMSYN100AAXX  20004 82583 21596 33604 10252 20236 39774 40111 70166 83200 333 10299 29085 55047 59004 60051;
0162825830999992003042012004-05170-040670FM-12+029999999V0200901N002610075019N0500001N1+02641+02271101171ADDGF107991061021008001001011KA1240N+02391MA1999999097801MD1999999-0101REMSYN082AAXX  20124 82583 22599 70905 10264 20227 39780 40117 86201 333 20239 59010 60054;
0198825830999992003042100004-05170-040670FM-12+029999999V0200901N001512200019N0040001N1+02371+02091100901ADDAA106000091GF101991011011008001001001KA1240M+03141MA1999999097571MD1999999-0211REMSYN088AAXX  21004 82583 32596 10903 10237 20209 39757 40090 81100 333 10314 29073 55084 59021;EQDQ01  00002PRCP06
0186825830999992003042112004-05170-040670FM-12+029999999V0200901N003110120019N0500001N1+02581+02211101131ADDAA106000091GF107991071081008001001001KA1240N+02141MA1999999097751MD1999999-0051REMSYN076AAXX  21124 82583 32599 70906 10258 20221 39775 40113 87800 333 20214 59005;EQDQ01  00002PRCP06
0226825830999992003042200004-05170-040670FM-12+029999999V0200901N002112200019N0040001N1+02571+02211100911ADDAA106000091AY111061AY211061GF101991999011008001021001KA1240M+03251MA1999999097531MD1999999+0001MW1131REMSYN094AAXX  22004 82583 31596 10904 10257 20221 39753 40091 71311 88120 333 10325 29070 55098 58000;EQDQ01  00002PRCP06
0186825830999992003042212004-05170-040670FM-12+029999999V0200901N005712200019N0500001N1+02701+02131101111ADDAA106000091GF105991041021008001001011KA1240N+02131MA1999999097751MD1999999+0001REMSYN076AAXX  22124 82583 32599 50911 10270 20213 39775 40111 84201 333 20213 58000;EQDQ01  00002PRCP06
0198825830999992003042300004-05170-040670FM-12+029999999V0200501N001512200019N0040001N1+02351+02191101041ADDAA106000091GF101991011011008001001001KA1240M+03081MA1999999097661MD1999999+0131REMSYN088AAXX  23004 82583 32596 10503 10235 20219 39766 40104 81100 333 10308 29076 55048 58013;EQDQ01  00002PRCP06
0190825830999992003042312004-05170-040670FM-12+029999999V0201401N003112200019N0500001N1+02691+02281101181ADDAY161061AY261061GF105991041021008001001011KA1240N+02221MA1999999097801MD1999999+0051MW1021REMSYN088AAXX  23124 82583 21599 51406 10269 20228 39780 40118 70266 84201 333 20222 58005 60014;
0198825830999992003042400004-05170-040670FM-12+029999999V0200901N001012200019N0040001N1+02381+01991101081ADDAA106000091GF101991011011008001001001KA1240M+03201MA1999999097701MD1999999+0041REMSYN088AAXX  24004 82583 32596 10902 10238 20199 39770 40108 81100 333 10320 29068 55091 58004;EQDQ01  00002PRCP06
0186825830999992003042412004-05170-040670FM-12+029999999V0201801N002610075019N0500001N1+02481+02171101211ADDAA106000091GF107991071051008001001001KA1240N+02231MA1999999097821MD1999999+0021REMSYN076AAXX  24124 82583 32599 71805 10248 20217 39782 40121 87500 333 20223 58002;EQDQ01  00002PRCP06
0221825830999992003042500004-05170-040670FM-12+029999999V0203601N001019999999N0040001N1+02471+02381101101ADDAY161061AY251061GF107991999041008001021001KA1240M+02981MA1999999097721MD1999999+0021MW1511REMSYN100AAXX  25004 82583 21596 73602 10247 20238 39772 40110 75165 88420 333 10298 29089 55005 58002 60011;EQDQ01+000082SCOTLC
0190825830999992003042512004-05170-040670FM-12+029999999V0200901N002110075019N0500001N1+02611+02251101211ADDAY151061AY251061GF106991061021008001001001KA1240N+02181MA1999999097831MD1999999+0011MW1021REMSYN088AAXX  25124 82583 21599 60904 10261 20225 39783 40121 70255 86200 333 20218 58001 60024;
0198825830999992003042600004-05170-040670FM-12+029999999V0203201N001510075019N0040001N1+02331+02291101331ADDAA106000091GF108991081051008001999999KA1240M+03221MA1999999097931MD1999999+0211REMSYN088AAXX  26004 82583 32596 83203 10233 20229 39793 40133 885// 333 10322 29079 55063 58021;EQDQ01  00002PRCP06
0202825830999992003042612004-05170-040670FM-12+029999999V0201401N002110075019N0500001N1+02521+02191101381ADDAA106000091GF107991999021008001001001KA1240N+02221MA1999999097981MD1999999+0151REMSYN076AAXX  26124 82583 32599 71404 10252 20219 39798 40138 86200 333 20222 58015;EQDQ01+000062SCOTLCQ02  00002PRCP06
0202825830999992003042700004-05170-040670FM-12+029999999V0203201N000512200019N0040001N1+02441+02371101501ADDAY161061AY261061GF102991021021008001001001KA1240M+02981MA1999999098101MD1999999+0101MW1021REMSYN100AAXX  27004 82583 21596 23201 10244 20237 39810 40150 70266 82200 333 10298 29084 55022 58010 60031;
0162825830999992003042712004-05170-040670FM-12+029999999V0201401N002110120019N0500001N1+02641+02231101381ADDGF106991061081008001001001KA1240N+02201MA1999999098001MD1999999+0021REMSYN082AAXX  27124 82583 22599 61404 10264 20223 39800 40138 86800 333 20220 58002 60044;
0202825830999992003042800004-05170-040670FM-12+029999999V0203601N001510075019N0040001N1+02351+02261101331ADDAY161061AY261061GF108991081051008001999999KA1240M+02981MA1999999097941MD1999999-0061MW1021REMSYN100AAXX  28004 82583 21596 83603 10235 20226 39794 40133 70266 885// 333 10298 29088 55031 59006 60041;
0190825830999992003042812004-05170-040670FM-12+029999999V0201401N002110075019N0500001N1+02451+02271101241ADDAY161061AY251061GF107991061051008001001011KA1240N+02151MA1999999097841MD1999999-0161MW1021REMSYN088AAXX  28124 82583 21599 71404 10245 20227 39784 40124 70265 86501 333 20215 59016 60094;
0202825830999992003042900004-05170-040670FM-12+029999999V0202701N001010075019N0040001N1+02411+02301101221ADDAY161061AY261061GF108991081051008001999999KA1240M+02961MA1999999097831MD1999999-0111MW1021REMSYN100AAXX  29004 82583 21596 82702 10241 20230 39783 40122 70266 885// 333 10296 29092 55034 59011 60021;
0162825830999992003042912004-05170-040670FM-12+029999999V0200901N001510075019N0500001N1+02521+02211101431ADDGF108991081051008001999999KA1240N+02161MA1999999098031MD1999999+0191REMSYN082AAXX  29124 82583 22599 80903 10252 20221 39803 40143 885// 333 20216 58019 60024;
0202825830999992003043000004-05170-040670FM-12+029999999V0203201N001512200019N0040001N1+02441+02341101321ADDAY161061AY261061GF102991011011008001001011KA1240M+03131MA1999999097931MD1999999+0101MW1011REMSYN100AAXX  30004 82583 21596 23203 10244 20234 39793 40132 70166 81101 333 10313 29089 55044 58010 69981;
0162825830999992003043012004-05170-040670FM-12+029999999V0200501N004112200019N0500001N1+02791+02311101351ADDGF102991011011008001001011KA1240N+02311MA1999999097971MD1999999-0061REMSYN082AAXX  30124 82583 22599 20508 10279 20231 39797 40135 81101 333 20231 59006 69984;
0198825830999992003050100004-05170-040670FM-12+029999999V0203201N002110075019N0040001N1+02461+02281101321ADDAA106000091GF106991061021008001001001KA1240M+03201MA1999999097941MD1999999+0011REMSYN088AAXX  01004 82583 32596 63204 10246 20228 39794 40132 86200 333 10320 29076 55086 58001;EQDQ01  00002PRCP06
0162825830999992003050112004-05170-040670FM-12+029999999V0200901N004610075019N0500001N1+02731+02261101421ADDGF107991051021008001041001KA1240N+02321MA1999999098041MD1999999+0071REMSYN082AAXX  01124 82583 22599 70909 10273 20226 39804 40142 85240 333 20232 58007 69924;
0212825830999992003050200004-05170-040670FM-12+029999999V0203601N000512200019N0040001N1+02391+02371101281ADDAY161061AY261061GA1001+999999999GF100991001001999999001001KA1240M+03061MA1999999097901MD1999999-0041MW1021REMSYN094AAXX  02004 82583 21596 03601 10239 20237 39790 40128 70266 333 10306 29083 55040 59004 60141;
0181825830999992003050212004-05170-040670FM-12+029999999V0200901N000510075019N0500001N1+02581+02371101331ADDGF107991999021008001001001KA1240N+02201MA1999999097941MD1999999-0101REMSYN082AAXX  02124 82583 22599 70901 10258 20237 39794 40133 86200 333 20220 59010 60144;EQDQ01+000062SCOTLC
0202825830999992003050300004-05170-040670FM-12+029999999V0209999C000012200019N0040001N1+02381+02241101111ADDAY161061AY261061GF102991021011008001001001KA1240M+03091MA1999999097731MD1999999-0171MW1011REMSYN100AAXX  03004 82583 21596 23200 10238 20224 39773 40111 70166 82100 333 10309 29092 55030 59017 60061;
0162825830999992003050312004-05170-040670FM-12+029999999V0200501N001010120019N0500001N1+02631+02311101211ADDGF107991071081008001001001KA1240N+02191MA1999999097831MD1999999-0111REMSYN082AAXX  03124 82583 22599 70502 10263 20231 39783 40121 87800 333 20219 59011 60064;
0202825830999992003050400004-05170-040670FM-12+029999999V0203201N000512200019N0040001N1+02381+02291101211ADDAY161061AY261061GF102991021011008001001001KA1240M+03121MA1999999097831MD1999999+0101MW1021REMSYN100AAXX  04004 82583 21596 23201 10238 20229 39783 40121 70266 82100 333 10312 29085 55050 58010 60051;
0162825830999992003050412004-05170-040670FM-12+029999999V0200901N002110075019N0500001N1+02641+02291101391ADDGF105991051021008001001001KA1240N+02151MA1999999098001MD1999999+0171REMSYN082AAXX  04124 82583 22599 50904 10264 20229 39800 40139 85200 333 20215 58017 60054;
0202825830999992003050500004-05170-040670FM-12+029999999V0200901N000510075019N0040001N1+02381+02311101251ADDAY161061AY261061GF108991081051008001999999KA1240M+03111MA1999999097861MD1999999+0031MW1611REMSYN100AAXX  05004 82583 21596 80901 10238 20231 39786 40125 76166 885// 333 10311 29084 55075 58003 69951;
0162825830999992003050512004-05170-040670FM-12+029999999V0200901N003112200019N0500001N1+02641+02181101321ADDGF105991041011008001001011KA1240N+02281MA1999999097931MD1999999-0071REMSYN082AAXX  05124 82583 22599 50906 10264 20218 39793 40132 84101 333 20228 59007 69954;
0202825830999992003050600004-05170-040670FM-12+029999999V0200901N000512200019N0040001N1+02321+02181101201ADDAY161061AY261061GF101991011011008001001001KA1240M+03101MA1999999097821MD1999999-0041MW1011REMSYN100AAXX  06004 82583 21596 10901 10232 20218 39782 40120 70166 81100 333 10310 29081 55062 59004 60061;
0162825830999992003050612004-05170-040670FM-12+029999999V0200901N003110075019N0500001N1+02671+02281101301ADDGF105991051021008001001001KA1240N+02171MA1999999097911MD1999999-0021REMSYN082AAXX  06124 82583 22599 50906 10267 20228 39791 40130 85200 333 20217 59002 60064;
0198825830999992003050700004-05170-040670FM-12+029999999V0200901N001012200019N0040001N1+02321+02111101041ADDAA106000091GF101991011011008001001001KA1240M+03101MA1999999097661MD1999999-0161REMSYN088AAXX  07004 82583 32596 10902 10232 20211 39766 40104 81100 333 10310 29076 55085 59016;EQDQ01  00002PRCP06
0186825830999992003050712004-05170-040670FM-12+029999999V0200901N002112200019N0500001N1+02661+02181101191ADDAA106000091GF102991011011008001001011KA1240N+02041MA1999999097811MD1999999-0101REMSYN076AAXX  07124 82583 32599 20904 10266 20218 39781 40119 81101 333 20204 59010;EQDQ01  00002PRCP06
0198825830999992003050800004-05170-040670FM-12+029999999V0200901N000512200019N0040001N1+02521+02051999999ADDAA106000091GF101991011011008001001001KA1240M+03151MA1999999097711MD1999999+0051REMSYN088AAXX  08004 82583 32596 10901 10252 20205 39771 40901 81100 333 10315 29070 55085 58005;EQDQ01  00002PRCP06
0186825830999992003050812004-05170-040670FM-12+029999999V0200901N002112200019N0500001N1+02701+02281101201ADDAA106000091GF103991021011008001001011KA1240N+02051MA1999999097831MD1999999+0021REMSYN076AAXX  08124 82583 32599 30904 10270 20228 39783 40120 82101 333 20205 58002;EQDQ01  00002PRCP06
0208825830999992003050900004-05170-040670FM-12+029999999V0200501N002112200019N0040001N1+02551+02131101181ADDAA106000091GA1001+999999999GF100991001001999999001001KA1240M+03261MA1999999097811MD1999999+0101REMSYN082AAXX  09004 82583 32596 00504 10255 20213 39781 40118 333 10326 29070 55106 58010;EQDQ01  00002PRCP06
0186825830999992003050912004-05170-040670FM-12+029999999V0200501N001012200019N0500001N1+02671+02201101401ADDAA106000091GF103991021011008001001011KA1240N+02021MA1999999098021MD1999999+0191REMSYN076AAXX  09124 82583 32599 30502 10267 20220 39802 40140 82101 333 20202 58019;EQDQ01  00002PRCP06
0162825830999992003051012004-05170-040670FM-12+029999999V0200901N001512200019N0500001N1+02601+02271101471ADDGF104991041021008001001001KA1240N+02231MA1999999098091MD1999999+0071REMSYN082AAXX  10124 82583 22599 40903 10260 20227 39809 40147 84200 333 20223 58007 60024;
0198825830999992003051100004-05170-040670FM-12+029999999V0200501N000512200019N0040001N1+02501+02131101361ADDAA106000091GF102991021011008001001001KA1240M+03241MA1999999097981MD1999999+0101REMSYN088AAXX  11004 82583 32596 20501 10250 20213 39798 40136 82100 333 10324 29072 55069 58010;EQDQ01  00002PRCP06
0186825830999992003051112004-05170-040670FM-12+029999999V0200901N003110075019N0500001N1+02621+02211101451ADDAA106000091GF106991061021008001001001KA1240N+02101MA1999999098061MD1999999-0031REMSYN076AAXX  11124 82583 32599 60906 10262 20221 39806 40145 86200 333 20210 59003;EQDQ01  00002PRCP06
0186825830999992003051212004-05170-040670FM-12+029999999V0200901N000510120019N0500001N1+02471+02191101481ADDAA106000091GF108991081081008001999999KA1240N+02151MA1999999098071MD1999999+0011REMSYN076AAXX  12124 82583 32599 80901 10247 20219 39807 40148 888// 333 20215 58001;EQDQ01  00002PRCP06
0198825830999992003051300004-05170-040670FM-12+029999999V0200901N000512200019N0040001N1+02431+02011101311ADDAA106000091GF102991011011008001001011KA1240M+03191MA1999999097911MD1999999+0001REMSYN088AAXX  13004 82583 32596 20901 10243 20201 39791 40131 81101 333 10319 29073 55043 58000;EQDQ01  00002PRCP06
0186825830999992003051312004-05170-040670FM-12+029999999V0201401N001510120019N0500001N1+02571+02211101341ADDAA106000091GF108991081081008001999999KA1240N+02091MA1999999097951MD1999999-0121REMSYN076AAXX  13124 82583 32599 81403 10257 20221 39795 40134 888// 333 20209 59012;EQDQ01  00002PRCP06
0202825830999992003051400004-05170-040670FM-12+029999999V0209999C000012200019N0040001N1+02351+02281101281ADDAY161061AY261061GF103991011011008001001011KA1240M+02881MA1999999097881MD1999999-0031MW1011REMSYN100AAXX  14004 82583 21596 33600 10235 20228 39788 40128 70166 81101 333 10288 29092 55009 59003 60081;
0162825830999992003051412004-05170-040670FM-12+029999999V0200501N003610120019N0500001N1+02601+02311101331ADDGF106991061081008001001001KA1240N+02101MA1999999097941MD1999999-0011REMSYN082AAXX  14124 82583 22599 60507 10260 20231 39794 40133 86800 333 20210 59001 60084;
0214825830999992003051500004-05170-040670FM-12+029999999V0200901N002119999999N0040001N1+02411+02211101171ADDAA106000091GF105991999021012501001001KA1240M+03171MA1999999097791MD1999999-0091REMSYN088AAXX  15004 82583 32696 50904 10241 20221 39779 40117 84200 333 10317 29077 55066 59009;EQDQ01+000042SCOTLCQ02  00002PRCP06
0186825830999992003051512004-05170-040670FM-12+029999999V0200901N003610075019N0500001N1+02701+02221101231ADDAA106000091GF106991051021008001001011KA1240N+02171MA1999999097851MD1999999-0091REMSYN076AAXX  15124 82583 32599 60907 10270 20222 39785 40123 85201 333 20217 59009;EQDQ01  00002PRCP06
0198825830999992003051600004-05170-040670FM-12+029999999V0200901N002110075019N0040001N1+02541+02191101111ADDAA106000091GF107991071051008001001001KA1240M+03121MA1999999097741MD1999999-0051REMSYN088AAXX  16004 82583 32596 70904 10254 20219 39774 40111 87500 333 10312 29073 55074 59005;EQDQ01  00002PRCP06
0186825830999992003051612004-05170-040670FM-12+029999999V0201401N002110450019N0500001N1+02571+02271101251ADDAA106000091GF107991041021008001051001KA1240N+02241MA1999999097871MD1999999+0021REMSYN076AAXX  16124 82583 32599 71404 10257 20227 39787 40125 84250 333 20224 58002;EQDQ01  00002PRCP06
0198825830999992003051700004-05170-040670FM-12+029999999V0200501N001010075019N0040001N1+02521+02131101081ADDAA106000091GF108991051051008001999999KA1240M+03011MA1999999097701MD1999999-0041REMSYN088AAXX  17004 82583 32596 80502 10252 20213 39770 40108 855// 333 10301 29073 55005 59004;EQDQ01  00002PRCP06
0186825830999992003051712004-05170-040670FM-12+029999999V0201401N003612200019N0500001N1+02741+02021101071ADDAA106000091GF104991031011008001041001KA1240N+02271MA1999999097711MD1999999-0161REMSYN076AAXX  17124 82583 32599 41407 10274 20202 39771 40107 83140 333 20227 59016;EQDQ01  00002PRCP06
0208825830999992003051800004-05170-040670FM-12+029999999V0200901N000512200019N0040001N1+02341+01951101101ADDAA106000091GA1001+999999999GF100991001001999999001001KA1240M+03611MA1999999097721MD1999999+0021REMSYN082AAXX  18004 82583 32596 00901 10234 20195 39772 40110 333 10361 29065 55097 58002;EQDQ01  00002PRCP06
0186825830999992003051812004-05170-040670FM-12+029999999V0200901N005112200019N0500001N1+02701+02081101211ADDAA106000091GF103991031021008001001001KA1240N+01981MA1999999097831MD1999999+0121REMSYN076AAXX  18124 82583 32599 30910 10270 20208 39783 40121 83200 333 20198 58012;EQDQ01  00002PRCP06
0198825830999992003051900004-05170-040670FM-12+029999999V0200901N002112200019N0040001N1+02411+01991101161ADDAA106000091GF101991011021999999001001KA1240M+03151MA1999999097751MD1999999+0031REMSYN088AAXX  19004 82583 32996 10904 10241 20199 39775 40116 81200 333 10315 29064 55079 58003;EQDQ01  00002PRCP06
0186825830999992003051912004-05170-040670FM-12+029999999V0201801N003110120019N0500001N1+02381+02211101321ADDAA106000091GF108991081081008001999999KA1240N+02181MA1999999097921MD1999999+0091REMSYN076AAXX  19124 82583 32599 81806 10238 20221 39792 40132 888// 333 20218 58009;EQDQ01  00002PRCP06
0221825830999992003052000004-05170-040670FM-12+029999999V0201401N002112200019N0040001N1+02371+02151101241ADDAY161061AY261061GF104991001001999999001011KA1240M+02811MA1999999097841MD1999999+0091MW1011REMSYN100AAXX  20004 82583 21896 41404 10237 20215 39784 40124 70166 80001 333 10281 29084 55007 58009 60081;EQDQ01+022502SCOLCB
0162825830999992003052012004-05170-040670FM-12+029999999V0201401N001510075019N0500001N1+02541+02211101331ADDGF106991051021008001031001KA1240N+02131MA1999999097931MD1999999+0011REMSYN082AAXX  20124 82583 22599 61403 10254 20221 39793 40133 85230 333 20213 58001 60084;
0198825830999992003052100004-05170-040670FM-12+029999999V0200901N001010075019N0040001N1+02421+02111101211ADDAA106000091GF106991051051008001999999KA1240M+03101MA1999999097831MD1999999-0011REMSYN088AAXX  21004 82583 32596 60902 10242 20211 39783 40121 855// 333 10310 29074 55045 59001;EQDQ01  00002PRCP06
0186825830999992003052112004-05170-040670FM-12+029999999V0201801N003610120019N0500001N1+02671+02201101221ADDAA106000091GF107991061081008001001011KA1240N+02111MA1999999097841MD1999999-0091REMSYN076AAXX  21124 82583 32599 71807 10267 20220 39784 40122 86801 333 20211 59009;EQDQ01  00002PRCP06
0198825830999992003052200004-05170-040670FM-12+029999999V0200901N002612200019N0040001N1+02461+02071101151ADDAA106000091GF101991001001999999001011KA1240M+03191MA1999999097771MD1999999-0061REMSYN088AAXX  22004 82583 32996 10905 10246 20207 39777 40115 80001 333 10319 29070 55046 59006;EQDQ01  00002PRCP06
0186825830999992003052212004-05170-040670FM-12+029999999V0200901N002612200019N0500001N1+02731+02171101311ADDAA106000091GF102991021011008001001001KA1240N+02001MA1999999097931MD1999999+0091REMSYN076AAXX  22124 82583 32599 20905 10273 20217 39793 40131 82100 333 20200 58009;EQDQ01  00002PRCP06
0208825830999992003052300004-05170-040670FM-12+029999999V0201401N002112200019N0040001N1+02431+02071101301ADDAA106000091GA1001+999999999GF100991001001999999001001KA1240M+03201MA1999999097921MD1999999+0151REMSYN082AAXX  23004 82583 32596 01404 10243 20207 39792 40130 333 10320 29069 55076 58015;EQDQ01  00002PRCP06
0186825830999992003052312004-05170-040670FM-12+029999999V0202301N000512200019N0500001N1+02571+02121101351ADDAA106000091GF101991011011008001001001KA1240N+02031MA1999999097961MD1999999+0031REMSYN076AAXX  23124 82583 32599 12301 10257 20212 39796 40135 81100 333 20203 58003;EQDQ01  00002PRCP06
0208825830999992003052400004-05170-040670FM-12+029999999V0200901N001012200019N0040001N1+02581+02041101151ADDAA106000091GA1001+999999999GF100991001001999999001001KA1240M+03441MA1999999097781MD1999999-0141REMSYN082AAXX  24004 82583 32996 00902 10258 20204 39778 40115 333 10344 29063 55080 59014;EQDQ01  00002PRCP06
0202825830999992003052412004-05170-040670FM-12+029999999V0201401N003119999999N0500001N1+02681+02201101191ADDAA106000091GF105991999021008001001001KA1240N+02051MA1999999097831MD1999999-0131REMSYN076AAXX  24124 82583 32599 51406 10268 20220 39783 40119 84200 333 20205 59013;EQDQ01+000042SCOTLCQ02  00002PRCP06
0208825830999992003052500004-05170-040670FM-12+029999999V0200501N001512200019N0040001N1+02551+02081100941ADDAA106000091GA1001+999999999GF100991001001999999001001KA1240M+03371MA1999999097571MD1999999-0211REMSYN082AAXX  25004 82583 32996 00503 10255 20208 39757 40094 333 10337 29065 55088 59021;EQDQ01  00002PRCP06
0186825830999992003052512004-05170-040670FM-12+029999999V0200901N002112200019N0500001N1+02811+02201101171ADDAA106000091GF102991021011008001001001KA1240N+02091MA1999999097811MD1999999-0021REMSYN076AAXX  25124 82583 32599 20904 10281 20220 39781 40117 82100 333 20209 59002;EQDQ01  00002PRCP06
0198825830999992003052600004-05170-040670FM-12+029999999V0200501N001012200019N0040001N1+02601+02061101011ADDAA106000091GF101991011011008001001001KA1240M+03441MA1999999097651MD1999999+0081REMSYN088AAXX  26004 82583 32596 10502 10260 20206 39765 40101 81100 333 10344 29061 55092 58008;EQDQ01  00002PRCP06
0186825830999992003052612004-05170-040670FM-12+029999999V0201401N002612200019N0500001N1+02821+02201101231ADDAA106000091GF102991011011008001001011KA1240N+02041MA1999999097871MD1999999+0061REMSYN076AAXX  26124 82583 32599 21405 10282 20220 39787 40123 81101 333 20204 58006;EQDQ01  00002PRCP06
0198825830999992003052700004-05170-040670FM-12+029999999V0200501N001012200019N0040001N1+02641+02091101241ADDAA106000091GF101991011011008001001001KA1240M+03441MA1999999097881MD1999999+0231REMSYN088AAXX  27004 82583 32596 10502 10264 20209 39788 40124 81100 333 10344 29062 55100 58023;EQDQ01  00002PRCP06
0186825830999992003052712004-05170-040670FM-12+029999999V0200501N005110075019N0500001N1+02831+02121101411ADDAA106000091GF106991051021008001001011KA1240N+02181MA1999999098051MD1999999+0181REMSYN076AAXX  27124 82583 32599 60510 10283 20212 39805 40141 85201 333 20218 58018;EQDQ01  00002PRCP06
0198825830999992003052800004-05170-040670FM-12+029999999V0200901N000512200019N0040001N1+02511+02001101331ADDAA106000091GF101991011011008001001001KA1240M+03331MA1999999097951MD1999999+0071REMSYN088AAXX  28004 82583 32596 10901 10251 20200 39795 40133 81100 333 10333 29063 55093 58007;EQDQ01  00002PRCP06
0186825830999992003052812004-05170-040670FM-12+029999999V0201401N001510075019N0500001N1+02601+02191101481ADDAA106000091GF106991061021008001001001KA1240N+02061MA1999999098091MD1999999+0041REMSYN076AAXX  28124 82583 32599 61403 10260 20219 39809 40148 86200 333 20206 58004;EQDQ01  00002PRCP06
0208825830999992003052900004-05170-040670FM-12+029999999V0203201N001012200019N0040001N1+02631+02001101261ADDAA106000091GA1001+999999999GF100991001001999999001001KA1240M+03411MA1999999097881MD1999999-0071REMSYN082AAXX  29004 82583 32996 03202 10263 20200 39788 40126 333 10341 29061 55077 59007;EQDQ01  00002PRCP06
0186825830999992003052912004-05170-040670FM-12+029999999V0201401N001010075019N0500001N1+02611+02181101401ADDAA106000091GF106991061021008001001001KA1240N+02051MA1999999098021MD1999999-0071REMSYN076AAXX  29124 82583 32599 61402 10261 20218 39802 40140 86200 333 20205 59007;EQDQ01  00002PRCP06
0198825830999992003053000004-05170-040670FM-12+029999999V0201801N001510120019N0040001N1+02471+02211101241ADDAA106000091GF107991071081008001001001KA1240M+03361MA1999999097861MD1999999-0021REMSYN088AAXX  30004 82583 32596 71803 10247 20221 39786 40124 87800 333 10336 29071 55064 59002;EQDQ01  00002PRCP06
0186825830999992003053012004-05170-040670FM-12+029999999V0201801N003110075019N0500001N1+02571+02101101421ADDAA106000091GF107991071051008001001001KA1240N+02191MA1999999098031MD1999999+0011REMSYN076AAXX  30124 82583 32599 71806 10257 20210 39803 40142 87500 333 20219 58001;EQDQ01  00002PRCP06
0198825830999992003053100004-05170-040670FM-12+029999999V0200901N001512200019N0040001N1+02491+02051101271ADDAA106000091GF102991021011008001001001KA1240M+03231MA1999999097891MD1999999+0031REMSYN088AAXX  31004 82583 32596 20903 10249 20205 39789 40127 82100 333 10323 29068 55052 58003;EQDQ01  00002PRCP06
0202825830999992003053112004-05170-040670FM-12+029999999V0201801N001519999999N0500001N1+02621+02071101501ADDAA106000091GF107991999071008001081001KA1240N+02141MA1999999098111MD1999999+0081REMSYN076AAXX  31124 82583 32599 71803 10262 20207 39811 40150 88780 333 20214 58008;EQDQ01+000082SCOTLCQ02  00002PRCP06
0198825830999992003060100004-05170-040670FM-12+029999999V0200901N001012200019N0040001N1+02521+02021101351ADDAA106000091GF102991021021008001001001KA1240M+03221MA1999999097971MD1999999+0081REMSYN088AAXX  01004 82583 32596 20902 10252 20202 39797 40135 82200 333 10322 29066 55049 58008;EQDQ01  00002PRCP06
0186825830999992003060112004-05170-040670FM-12+029999999V0201401N002610075019N0500001N1+02561+02131101441ADDAA106000091GF107991071021008001001001KA1240N+02131MA1999999098061MD1999999-0051REMSYN076AAXX  01124 82583 32599 71405 10256 20213 39806 40144 87200 333 20213 59005;EQDQ01  00002PRCP06
0198825830999992003060200004-05170-040670FM-12+029999999V0200901N002112200019N0040001N1+02541+02021101301ADDAA106000091GF104991041021008001001001KA1240M+03171MA1999999097921MD1999999-0051REMSYN088AAXX  02004 82583 32596 40904 10254 20202 39792 40130 84200 333 10317 29068 55048 59005;EQDQ01  00002PRCP06
0208825830999992003060300004-05170-040670FM-12+029999999V0200501N001512200019N0040001N1+02661+01971101151ADDAA106000091GA1001+999999999GF100991001001999999001001KA1240M+03301MA1999999097791MD1999999-0131REMSYN082AAXX  03004 82583 32996 00503 10266 20197 39779 40115 333 10330 29061 55077 59013;EQDQ01  00002PRCP06
0186825830999992003060312004-05170-040670FM-12+029999999V0201401N002110075019N0500001N1+02601+02121101291ADDAA106000091GF106991061021008001001001KA1240N+01991MA1999999097921MD1999999-0071REMSYN076AAXX  03124 82583 32599 61404 10260 20212 39792 40129 86200 333 20199 59007;EQDQ01  00002PRCP06
0198825830999992003060400004-05170-040670FM-12+029999999V0201801N002112200019N0040001N1+02571+01901101111ADDAA106000091GF101991011011008001001001KA1240M+03411MA1999999097741MD1999999-0051REMSYN088AAXX  04004 82583 32596 11804 10257 20190 39774 40111 81100 333 10341 29060 55066 59005;EQDQ01  00002PRCP06
0186825830999992003060412004-05170-040670FM-12+029999999V0201801N003610075019N0500001N1+02661+02161101291ADDAA106000091GF106991061021008001001001KA1240N+02111MA1999999097911MD1999999-0011REMSYN076AAXX  04124 82583 32599 61807 10266 20216 39791 40129 86200 333 20211 59001;EQDQ01  00002PRCP06
0198825830999992003060500004-05170-040670FM-12+029999999V0209999C000012200019N0040001N1+02571+02121101091ADDAA106000091GF102991021021008001001001KA1240M+03211MA1999999097721MD1999999-0021REMSYN088AAXX  05004 82583 32596 23600 10257 20212 39772 40109 82200 333 10321 29070 55038 59002;EQDQ01  00002PRCP06
0190825830999992003060512004-05170-040670FM-12+029999999V0201401N001010075019N0500001N1+02331+02131101381ADDAY161061AY261061GF108991081051008001999999KA1240N+02141MA1999999097981MD1999999+0071MW1511REMSYN088AAXX  05124 82583 21599 81402 10233 20213 39798 40138 75166 885// 333 20214 58007 60354;
0190825830999992003060612004-05170-040670FM-12+029999999V0200901N003110120019N0500001N1+02431+02131101381ADDAY161061AY261061GF108991081081008001999999KA1240N+02161MA1999999097981MD1999999+0001MW1021REMSYN088AAXX  06124 82583 21599 80906 10243 20213 39798 40138 70266 888// 333 20216 58000 69944;
0198825830999992003060700004-05170-040670FM-12+029999999V0200901N000512200019N0040001N1+02311+02181101211ADDAA106000091GF101991011011008001001001KA1240M+03251MA1999999097811MD1999999-0071REMSYN088AAXX  07004 82583 32596 10901 10231 20218 39781 40121 81100 333 10325 29067 55064 59007;EQDQ01  00002PRCP06
0186825830999992003060712004-05170-040670FM-12+029999999V0201401N003612200019N0500001N1+02671+02021101341ADDAA106000091GF101991011011008001001001KA1240N+01891MA1999999097951MD1999999-0031REMSYN076AAXX  07124 82583 32599 11407 10267 20202 39795 40134 81100 333 20189 59003;EQDQ01  00002PRCP06
0198825830999992003060800004-05170-040670FM-12+029999999V0200901N001512200019N0040001N1+02441+02031101391ADDAA106000091GF102991021011008001001001KA1240M+03381MA1999999097751MD1999999-0231REMSYN088AAXX  08004 82583 32596 20903 10244 20203 39775 40139 82100 333 10338 29064 55103 59023;EQDQ01  00002PRCP06
0186825830999992003060812004-05170-040670FM-12+029999999V0201401N003612200019N0500001N1+02581+01901101201ADDAA106000091GF102991021021008001001001KA1240N+02081MA1999999097811MD1999999-0141REMSYN076AAXX  08124 82583 32599 21407 10258 20190 39781 40120 82200 333 20208 59014;EQDQ01  00002PRCP06
0198825830999992003060900004-05170-040670FM-12+029999999V0201401N000512200019N0040001N1+02451+01971101211ADDAA106000091GF101991011011008001001001KA1240M+03231MA1999999097831MD1999999+0011REMSYN088AAXX  09004 82583 32596 11401 10245 20197 39783 40121 81100 333 10323 29062 55095 58001;EQDQ01  00002PRCP06
0186825830999992003060912004-05170-040670FM-12+029999999V0201801N001512200019N0500001N1+02581+01941101331ADDAA106000091GF102991011011008001001011KA1240N+01921MA1999999097941MD1999999+0131REMSYN076AAXX  09124 82583 32599 21803 10258 20194 39794 40133 81101 333 20192 58013;EQDQ01  00002PRCP06
0198825830999992003061000004-05170-040670FM-12+029999999V0200901N001012200019N0040001N1+02401+01921101261ADDAA106000091GF101991011011008001001001KA1240M+03221MA1999999097841MD1999999+0011REMSYN088AAXX  10004 82583 32596 10902 10240 20192 39784 40126 81100 333 10322 29061 55105 58001;EQDQ01  00002PRCP06
0186825830999992003061012004-05170-040670FM-12+029999999V0201401N003610450019N0500001N1+02611+02011101401ADDAA106000091GF105991031011008001031001KA1240N+01951MA1999999098021MD1999999+0081REMSYN076AAXX  10124 82583 32599 51407 10261 20201 39802 40140 83130 333 20195 58008;EQDQ01  00002PRCP06
0198825830999992003061100004-05170-040670FM-12+029999999V0200901N001010075019N0040001N1+02511+01961101241ADDAA106000091GF108991081051008001999999KA1240M+03161MA1999999097861MD1999999+0021REMSYN088AAXX  11004 82583 32596 80902 10251 20196 39786 40124 885// 333 10316 29063 55040 58002;EQDQ01  00002PRCP06
0186825830999992003061112004-05170-040670FM-12+029999999V0200901N004610075019N0500001N1+02691+02151101341ADDAA106000091GF105991051021008001001001KA1240N+02161MA1999999097961MD1999999-0061REMSYN076AAXX  11124 82583 32599 50909 10269 20215 39796 40134 85200 333 20216 59006;EQDQ01  00002PRCP06
0198825830999992003061200004-05170-040670FM-12+029999999V0200901N002612200019N0040001N1+02531+02061101171ADDAA106000091GF104991041021017501001001KA1240M+03281MA1999999097811MD1999999-0051REMSYN088AAXX  12004 82583 32796 40905 10253 20206 39781 40117 84200 333 10328 29066 55088 59005;EQDQ01  00002PRCP06
0186825830999992003061212004-05170-040670FM-12+029999999V0201401N002610075019N0500001N1+02561+02251101211ADDAA106000091GF106991061021008001001001KA1240N+02181MA1999999097831MD1999999-0131REMSYN076AAXX  12124 82583 32599 61405 10256 20225 39783 40121 86200 333 20218 59013;EQDQ01  00002PRCP06
0198825830999992003061300004-05170-040670FM-12+029999999V0201801N002112200019N0040001N1+02451+02031101061ADDAA106000091GF101991001001999999001011KA1240M+03211MA1999999097681MD1999999-0131REMSYN088AAXX  13004 82583 32996 11804 10245 20203 39768 40106 80001 333 10321 29072 55063 59013;EQDQ01  00002PRCP06
0162825830999992003061312004-05170-040670FM-12+029999999V0201401N002610075019N0500001N1+02671+02181101131ADDGF106991051021008001041001KA1240N+02151MA1999999097751MD1999999-0081REMSYN082AAXX  13124 82583 22599 61405 10267 20218 39775 40113 85240 333 20215 59008 60024;
0198825830999992003061400004-05170-040670FM-12+029999999V0200901N002112200019N0040001N1+02491+02051101081ADDAA106000091GF101991001001999999001011KA1240M+03311MA1999999097711MD1999999+0031REMSYN088AAXX  14004 82583 32996 10904 10249 20205 39771 40108 80001 333 10331 29067 55095 58003;EQDQ01  00002PRCP06
0186825830999992003061412004-05170-040670FM-12+029999999V0201401N005712200019N0500001N1+02791+01921101171ADDAA106000091GF101991011011008001001001KA1240N+02071MA1999999097811MD1999999+0061REMSYN076AAXX  14124 82583 32599 11411 10279 20192 39781 40117 81100 333 20207 58006;EQDQ01  00002PRCP06
0214825830999992003061500004-05170-040670FM-12+029999999V0200901N001510075019N0040001N1+02481+01941101141ADDAA106000091GF106991061011008001001001KA1240M+99999MA1999999097771MD1999999+0061REMSYN088AAXX  15004 82583 32596 60903 10248 20194 39777 40114 86100 333 10238 29060 55098 58006;EQDQ01  00002PRCP06Q02 +02382ATMX  
0186825830999992003061512004-05170-040670FM-12+029999999V0200901N003610075019N0500001N1+02681+02161101311ADDAA106000091GF106991061021008001001001KA1240N+02201MA1999999097931MD1999999+0121REMSYN076AAXX  15124 82583 32599 60907 10268 20216 39793 40131 86200 333 20220 58012;EQDQ01  00002PRCP06
0198825830999992003061600004-05170-040670FM-12+029999999V0203601N001510120019N0040001N1+02641+02181101201ADDAA106000091GF108991081081008001999999KA1240M+03111MA1999999097841MD1999999+0071REMSYN088AAXX  16004 82583 32596 83603 10264 20218 39784 40120 888// 333 10311 29071 55052 58007;EQDQ01  00002PRCP06
0190825830999992003061612004-05170-040670FM-12+029999999V0201401N003610120019N0500001N1+02311+02201101351ADDAY161061AY261061GF107991061081008001041001KA1240N+02171MA1999999097961MD1999999+0031MW1021REMSYN088AAXX  16124 82583 21599 71407 10231 20220 39796 40135 70266 86840 333 20217 58003 60404;
0198825830999992003061700004-05170-040670FM-12+029999999V0200901N002110075019N0040001N1+02541+02041101261ADDAA106000091GF108991081051008001999999KA1240M+03061MA1999999097861MD1999999+0021REMSYN088AAXX  17004 82583 32596 80904 10254 20204 39786 40126 885// 333 10306 29071 55042 58002;EQDQ01  00002PRCP06
0190825830999992003061712004-05170-040670FM-12+029999999V0201401N004110450019N0500001N1+02561+02111101281ADDAY161061AY261061GF105991041021008001031001KA1240N+02161MA1999999097901MD1999999-0061MW1021REMSYN088AAXX  17124 82583 21599 51408 10256 20211 39790 40128 70266 84230 333 20216 59006 60044;
0208825830999992003061800004-05170-040670FM-12+029999999V0201401N001012200019N0040001N1+02291+02011101221ADDAA106000091GA1001+999999999GF100991001001999999001001KA1240M+03031MA1999999097821MD1999999-0041REMSYN082AAXX  18004 82583 32996 01402 10229 20201 39782 40122 333 10303 29072 55080 59004;EQDQ01  00002PRCP06
0186825830999992003061812004-05170-040670FM-12+029999999V0201401N002112200019N0500001N1+02681+02041101361ADDAA106000091GF101991011011008001001001KA1240N+01991MA1999999097971MD1999999+0071REMSYN076AAXX  18124 82583 32599 11404 10268 20204 39797 40136 81100 333 20199 58007;EQDQ01  00002PRCP06
0198825830999992003061900004-05170-040670FM-12+029999999V0200501N002112200019N0040001N1+02441+01921101201ADDAA106000091GF101991011011008001001001KA1240M+03231MA1999999097821MD1999999+0001REMSYN088AAXX  19004 82583 32596 10504 10244 20192 39782 40120 81100 333 10323 29063 55101 58000;EQDQ01  00002PRCP06
0186825830999992003061912004-05170-040670FM-12+029999999V0200901N002612200019N0500001N1+02671+02111101401ADDAA106000091GF102991021011008001001001KA1240N+02001MA1999999098021MD1999999+0051REMSYN076AAXX  19124 82583 32599 20905 10267 20211 39802 40140 82100 333 20200 58005;EQDQ01  00002PRCP06
0208825830999992003062000004-05170-040670FM-12+029999999V0200901N002112200019N0040001N1+02381+01991101191ADDAA106000091GA1001+999999999GF100991001001999999001001KA1240M+03211MA1999999097811MD1999999-0011REMSYN082AAXX  20004 82583 32596 00904 10238 20199 39781 40119 333 10321 29067 55081 59001;EQDQ01  00002PRCP06
0186825830999992003062012004-05170-040670FM-12+029999999V0203601N001010075019N0500001N1+02561+02191101411ADDAA106000091GF106991051021008001031001KA1240N+02091MA1999999098011MD1999999-0011REMSYN076AAXX  20124 82583 32599 63602 10256 20219 39801 40141 85230 333 20209 59001;EQDQ01  00002PRCP06
0198825830999992003062100004-05170-040670FM-12+029999999V0200901N001512200019N0040001N1+02491+02091101241ADDAA106000091GF101991011011008001001001KA1240M+03131MA1999999097861MD1999999+0071REMSYN088AAXX  21004 82583 32596 10903 10249 20209 39786 40124 81100 333 10313 29069 55058 58007;EQDQ01  00002PRCP06
0186825830999992003062112004-05170-040670FM-12+029999999V0200901N001510075019N0500001N1+02661+02181101461ADDAA106000091GF106991061021008001001001KA1240N+02231MA1999999098081MD1999999+0071REMSYN076AAXX  21124 82583 32599 60903 10266 20218 39808 40146 86200 333 20223 58007;EQDQ01  00002PRCP06
0198825830999992003062200004-05170-040670FM-12+029999999V0200901N001012200019N0040001N1+02441+02091101231ADDAA106000091GF101991011011008001001001KA1240M+03221MA1999999097851MD1999999-0011REMSYN088AAXX  22004 82583 32596 10902 10244 20209 39785 40123 81100 333 10322 29068 55085 59001;EQDQ01  00002PRCP06
0186825830999992003062212004-05170-040670FM-12+029999999V0200901N003110075019N0500001N1+02631+02181101401ADDAA106000091GF106991061021008001001001KA1240N+02071MA1999999098011MD1999999-0071REMSYN076AAXX  22124 82583 32599 60906 10263 20218 39801 40140 86200 333 20207 59007;EQDQ01  00002PRCP06
0186825830999992003062312004-05170-040670FM-12+029999999V0201401N002112200019N0500001N1+02541+02061101341ADDAA106000091GF103991031021008001001001KA1240N+02161MA1999999097951MD1999999-0061REMSYN076AAXX  23124 82583 32599 31404 10254 20206 39795 40134 83200 333 20216 59006;EQDQ01  00002PRCP06
0208825830999992003062400004-05170-040670FM-12+029999999V0200901N001012200019N0040001N1+02331+01891101271ADDAA106000091GA1001+999999999GF100991001001999999001001KA1240M+03171MA1999999097871MD1999999+0101REMSYN082AAXX  24004 82583 32996 00902 10233 20189 39787 40127 333 10317 29066 55101 58010;EQDQ01  00002PRCP06
0186825830999992003062412004-05170-040670FM-12+029999999V0201401N003112200019N0500001N1+02621+02051101501ADDAA106000091GF102991021021008001001001KA1240N+01901MA1999999098101MD1999999+0151REMSYN076AAXX  24124 82583 32599 21406 10262 20205 39810 40150 82200 333 20190 58015;EQDQ01  00002PRCP06
0208825830999992003062500004-05170-040670FM-12+029999999V0200501N001012200019N0040001N1+02431+01901101341ADDAA106000091GA1001+999999999GF100991001001999999001001KA1240M+03281MA1999999097951MD1999999-0081REMSYN082AAXX  25004 82583 32996 00502 10243 20190 39795 40134 333 10328 29061 55103 59008;EQDQ01  00002PRCP06
0186825830999992003062512004-05170-040670FM-12+029999999V0201401N004612200019N0500001N1+02591+02061101511ADDAA106000091GF103991031011008001001001KA1240N+01941MA1999999098111MD1999999+0011REMSYN076AAXX  25124 82583 32599 31409 10259 20206 39811 40151 83100 333 20194 58001;EQDQ01  00002PRCP06
0198825830999992003062600004-05170-040670FM-12+029999999V0200901N001512200019N0040001N1+02321+01811101241ADDAA106000091GF101991011011008001001001KA1240M+03291MA1999999097851MD1999999-0101REMSYN088AAXX  26004 82583 32596 10903 10232 20181 39785 40124 81100 333 10329 29063 55099 59010;EQDQ01  00002PRCP06
0186825830999992003062612004-05170-040670FM-12+029999999V0200901N003112200019N0500001N1+02551+02061101411ADDAA106000091GF103991031021008001001001KA1240N+01911MA1999999098011MD1999999-0101REMSYN076AAXX  26124 82583 32599 30906 10255 20206 39801 40141 83200 333 20191 59010;EQDQ01  00002PRCP06
0198825830999992003062700004-05170-040670FM-12+029999999V0200901N000512200019N0040001N1+02301+01681101221ADDAA106000091GF101991011011008001001001KA1240M+03211MA1999999097821MD1999999-0031REMSYN088AAXX  27004 82583 32596 10901 10230 20168 39782 40122 81100 333 10321 29060 55093 59003;EQDQ01  00002PRCP06
0186825830999992003062712004-05170-040670FM-12+029999999V0201401N004112200019N0500001N1+02521+01961101411ADDAA106000091GF102991021011008001001001KA1240N+01781MA1999999098011MD1999999+0001REMSYN076AAXX  27124 82583 32599 21408 10252 20196 39801 40141 82100 333 20178 58000;EQDQ01  00002PRCP06
0198825830999992003062800004-05170-040670FM-12+029999999V0200501N001012200019N0040001N1+02401+01751101291ADDAA106000091GF101991011011008001001001KA1240M+03181MA1999999097891MD1999999+0071REMSYN088AAXX  28004 82583 32596 10502 10240 20175 39789 40129 81100 333 10318 29058 55097 58007;EQDQ01  00002PRCP06
0186825830999992003062812004-05170-040670FM-12+029999999V0201401N002112200019N0500001N1+02541+01881101471ADDAA106000091GF101991011011008001001001KA1240N+01781MA1999999098071MD1999999+0061REMSYN076AAXX  28124 82583 32599 11404 10254 20188 39807 40147 81100 333 20178 58006;EQDQ01  00002PRCP06
0208825830999992003062900004-05170-040670FM-12+029999999V0200901N001012200019N0040001N1+02421+01771101321ADDAA106000091GA1001+999999999GF100991001001999999001001KA1240M+03281MA1999999097931MD1999999+0041REMSYN082AAXX  29004 82583 32596 00902 10242 20177 39793 40132 333 10328 29057 55098 58004;EQDQ01  00002PRCP06
0186825830999992003062912004-05170-040670FM-12+029999999V0201401N003610075019N0500001N1+02621+01881101521ADDAA106000091GF106991061021008001001001KA1240N+01821MA1999999098121MD1999999+0051REMSYN076AAXX  29124 82583 32599 61407 10262 20188 39812 40152 86200 333 20182 58005;EQDQ01  00002PRCP06
0198825830999992003063000004-05170-040670FM-12+029999999V0200901N001512200019N0040001N1+02391+01801101271ADDAA106000091GF102991021011008001001001KA1240M+03181MA1999999097881MD1999999-0051REMSYN088AAXX  30004 82583 32596 20903 10239 20180 39788 40127 82100 333 10318 29059 55074 59005;EQDQ01  00002PRCP06
0186825830999992003063012004-05170-040670FM-12+029999999V0201801N002110075019N0500001N1+02431+02091101531ADDAA106000091GF106991061021008001001001KA1240N+01831MA1999999098121MD1999999+0001REMSYN076AAXX  30124 82583 32599 61804 10243 20209 39812 40153 86200 333 20183 58000;EQDQ01  00002PRCP06
0198825830999992003070100004-05170-040670FM-12+029999999V0200901N002112200019N0040001N1+02371+01841101281ADDAA106000091GF101991011011008001001001KA1240M+03271MA1999999097881MD1999999+0001REMSYN088AAXX  01004 82583 32596 10904 10237 20184 39788 40128 81100 333 10327 29064 55067 58000;EQDQ01  00002PRCP06
0186825830999992003070112004-05170-040670FM-12+029999999V0201401N005112200019N0500001N1+02691+01881101461ADDAA106000091GF102991021011008001001001KA1240N+02071MA1999999098071MD1999999-0051REMSYN076AAXX  01124 82583 32599 21410 10269 20188 39807 40146 82100 333 20207 59005;EQDQ01  00002PRCP06
0198825830999992003070200004-05170-040670FM-12+029999999V0200901N001512200019N0040001N1+02571+02041101331ADDAA106000091GF104991041021008001001001KA1240M+03231MA1999999097951MD1999999+0081REMSYN088AAXX  02004 82583 32596 40903 10257 20204 39795 40133 84200 333 10323 29060 55071 58008;EQDQ01  00002PRCP06
0186825830999992003070212004-05170-040670FM-12+029999999V0201401N004612200019N0500001N1+02651+01531101501ADDAA106000091GF103991031011008001001001KA1240N+02141MA1999999098121MD1999999+0051REMSYN076AAXX  02124 82583 32599 31409 10265 20153 39812 40150 83100 333 20214 58005;EQDQ01  00002PRCP06
0198825830999992003070300004-05170-040670FM-12+029999999V0200901N001012200019N0040001N1+02531+01861101261ADDAA106000091GF101991001001999999001011KA1240M+03251MA1999999097881MD1999999-0071REMSYN088AAXX  03004 82583 32996 10902 10253 20186 39788 40126 80001 333 10325 29054 55096 59007;EQDQ01  00002PRCP06
0186825830999992003070312004-05170-040670FM-12+029999999V0201401N003612200019N0500001N1+02721+01951101431ADDAA106000091GF102991021011008001001001KA1240N+02051MA1999999098051MD1999999-0071REMSYN076AAXX  03124 82583 32599 21407 10272 20195 39805 40143 82100 333 20205 59007;EQDQ01  00002PRCP06
0208825830999992003070400004-05170-040670FM-12+029999999V0200901N001512200019N0040001N1+02541+02001101251ADDAA106000091GA1001+999999999GF100991001001999999001001KA1240M+03281MA1999999097881MD1999999+0001REMSYN082AAXX  04004 82583 32596 00903 10254 20200 39788 40125 333 10328 29061 55103 58000;EQDQ01  00002PRCP06
0186825830999992003070412004-05170-040670FM-12+029999999V0201401N003110120019N0500001N1+02481+01981101401ADDAA106000091GF108991081081008001999999KA1240N+02001MA1999999098011MD1999999-0041REMSYN076AAXX  04124 82583 32599 81406 10248 20198 39801 40140 888// 333 20200 59004;EQDQ01  00002PRCP06
0198825830999992003070500004-05170-040670FM-12+029999999V0200901N001012200019N0040001N1+02561+01851101091ADDAA106000091GF103991031011008001001001KA1240M+03331MA1999999097711MD1999999-0171REMSYN088AAXX  05004 82583 32596 30902 10256 20185 39771 40109 83100 333 10333 29059 55065 59017;EQDQ01  00002PRCP06
0196825830999992003070512004-05170-040670FM-12+029999999V0201401N004112200019N0500001N1+02691+01601101261ADDAA106000091GA1001+999999999GF100991001001999999001001KA1240N+01901MA1999999097881MD1999999-0131REMSYN070AAXX  05124 82583 32999 01408 10269 20160 39788 40126 333 20190 59013;EQDQ01  00002PRCP06
0198825830999992003070600004-05170-040670FM-12+029999999V0200901N001012200019N0040001N1+02491+01771101071ADDAA106000091GF101991011011008001001001KA1240M+03341MA1999999097701MD1999999-0011REMSYN088AAXX  06004 82583 32596 10902 10249 20177 39770 40107 81100 333 10334 29051 55106 59001;EQDQ01  00002PRCP06
0186825830999992003070612004-05170-040670FM-12+029999999V0200901N003112200019N0500001N1+02601+02061101321ADDAA106000091GF104991041021008001001001KA1240N+01941MA1999999097931MD1999999-0051REMSYN076AAXX  06124 82583 32599 40906 10260 20206 39793 40132 84200 333 20194 59005;EQDQ01  00002PRCP06
0208825830999992003070700004-05170-040670FM-12+029999999V0200901N003112200019N0040001N1+02481+01761101271ADDAA106000091GA1001+999999999GF100991001001999999001001KA1240M+03331MA1999999097881MD1999999+0181REMSYN082AAXX  07004 82583 32596 00906 10248 20176 39788 40127 333 10333 29057 55102 58018;EQDQ01  00002PRCP06
0186825830999992003070712004-05170-040670FM-12+029999999V0201401N003612200019N0500001N1+02621+01911101341ADDAA106000091GF101991011011008001001001KA1240N+01951MA1999999097961MD1999999+0031REMSYN076AAXX  07124 82583 32599 11407 10262 20191 39796 40134 81100 333 20195 58003;EQDQ01  00002PRCP06
0198825830999992003070800004-05170-040670FM-12+029999999V0200501N001012200019N0040001N1+02471+01621101251ADDAA106000091GF101991011011008001001001KA1240M+03241MA1999999097851MD1999999-0031REMSYN088AAXX  08004 82583 32596 10502 10247 20162 39785 40125 81100 333 10324 29085 55096 59003;EQDQ01  00002PRCP06
0186825830999992003070812004-05170-040670FM-12+029999999V0200901N001510075019N0500001N1+02621+02031101351ADDAA106000091GF106991061021008001001001KA1240N+02071MA1999999097971MD1999999+0011REMSYN076AAXX  08124 82583 32599 60903 10262 20203 39797 40135 86200 333 20207 58001;EQDQ01  00002PRCP06
0208825830999992003070900004-05170-040670FM-12+029999999V0200901N001012200019N0040001N1+02481+01801101131ADDAA106000091GA1001+999999999GF100991001001999999001001KA1240M+03221MA1999999097751MD1999999-0101REMSYN082AAXX  09004 82583 32996 00902 10248 20180 39775 40113 333 10322 29060 55063 59010;EQDQ01  00002PRCP06
0187825830999992003070912004-05170-040670FM-12+029999999V0200901N005112200019N0500001N1+02791+02031101271ADDAA106000091GF104991999999008001999999KA1240N+02031MA1999999097911REMSYN075AAXX  09124 82583 32599 40910 10279 20203 39791 0128 84200 333 20203 59006;EQDQ01+999990APOSLPQ02  00002PRCP06
0208825830999992003071000004-05167-040667FM-12+029999999V0200901N001512200019N0040001N1+02471+01621101181ADDAA106000091GA1001+999999999GF100991001001999999001001KA1240M+03291MA1999999097821MD1999999+0071REMSYN082AAXX  10004 82583 32996 00903 10247 20162 39782 40118 333 10329 29052 55099 58007;EQDQ01  00002PRCP06
0186825830999992003071012004-05167-040667FM-12+029999999V0201401N002612200019N0500001N1+02631+01951101461ADDAA106000091GF103991031011008001001001KA1240N+01781MA1999999098071MD1999999+0161REMSYN076AAXX  10124 82583 32599 31405 10263 20195 39807 40146 83100 333 20178 58016;EQDQ01  00002PRCP06
0208825830999992003071100004-05167-040667FM-12+029999999V0201401N001512200019N0040001N1+02421+01421101211ADDAA106000091GA1001+999999999GF100991001001999999001001KA1240M+03341MA1999999097831MD1999999+0011REMSYN082AAXX  11004 82583 32996 01403 10242 20142 39783 40121 333 10334 29050 55105 58001;EQDQ01  00002PRCP06
0186825830999992003071112004-05167-040667FM-12+029999999V0200901N003610075019N0500001N1+02521+01931101501ADDAA106000091GF106991061021008001001001KA1240N+01771MA1999999098101MD1999999+0031REMSYN076AAXX  11124 82583 32599 60907 10252 20193 39810 40150 86200 333 20177 58003;EQDQ01  00002PRCP06
0224825830999992003071200004-05167-040667FM-12+029999999V0200501N001512200019N0040001N1+03421+01581101241ADDAA106000091GA1001+999999999GF100991001001999999001001KA1240M+99999MA1999999097861MD1999999+0031REMSYN082AAXX  12004 82583 32996 00503 10342 20158 39786 40124 333 10336 29051 55090 58003;EQDQ01  00002PRCP06Q02 +03362ATMX  
0190825830999992003071212004-05167-040667FM-12+029999999V0201401N003610120019N0500001N1+02251+02161101641ADDAY161061AY261061GF108991081081008001999999KA1240N+02111MA1999999098231MD1999999+0131MW1021REMSYN088AAXX  12124 82583 21599 81407 10225 20216 39823 40164 70266 888// 333 20211 58013 60194;
0198825830999992003071300004-05167-040667FM-12+029999999V0201801N001512200019N0040001N1+02361+02051101511ADDAA106000091GF103991031011999999001001KA1240M+03021MA1999999098091MD1999999+0231REMSYN088AAXX  13004 82583 32996 31803 10236 20205 39809 40151 83100 333 10302 29072 55013 58023;EQDQ01  00002PRCP06
0186825830999992003071312004-05167-040667FM-12+029999999V0201401N005112200019N0500001N1+02661+01711101551ADDAA106000091GF101991011011008001001001KA1240N+01951MA1999999098151MD1999999-0081REMSYN076AAXX  13124 82583 32599 11410 10266 20171 39815 40155 81100 333 20195 59008;EQDQ01  00002PRCP06
0198825830999992003071400004-05167-040667FM-12+029999999V0209999C000010075019N0040001N1+02431+01861101421ADDAA106000091GF107991071051008001001001KA1240M+03071MA1999999098041MD1999999-0051REMSYN088AAXX  14004 82583 32596 70900 10243 20186 39804 40142 87500 333 10307 29058 55089 59005;EQDQ01  00002PRCP06
0186825830999992003071412004-05167-040667FM-12+029999999V0200901N004612200019N0500001N1+02641+01541101571ADDAA106000091GF101991011011008001001001KA1240N+01871MA1999999098171MD1999999+0021REMSYN076AAXX  14124 82583 32599 10909 10264 20154 39817 40157 81100 333 20187 58002;EQDQ01  00002PRCP06
0208825830999992003071500004-05167-040667FM-12+029999999V0201401N002112200019N0040001N1+02331+01551101321ADDAA106000091GA1001+999999999GF100991001001999999001001KA1240M+03251MA1999999097931MD1999999-0111REMSYN082AAXX  15004 82583 32996 01404 10233 20155 39793 40132 333 10325 29051 55109 59011;EQDQ01  00002PRCP06
0186825830999992003071512004-05167-040667FM-12+029999999V0201401N004612200019N0500001N1+02631+01631101521ADDAA106000091GF101991011011008001001001KA1240N+01861MA1999999098121MD1999999-0051REMSYN076AAXX  15124 82583 32599 11409 10263 20163 39812 40152 81100 333 20186 59005;EQDQ01  00002PRCP06
0208825830999992003071600004-05167-040667FM-12+029999999V0200901N001512200019N0040001N1+02371+01391101311ADDAA106000091GA1001+999999999GF100991001001999999001001KA1240M+03331MA1999999097921MD1999999-0011REMSYN082AAXX  16004 82583 32996 00903 10237 20139 39792 40131 333 10333 29048 55109 59001;EQDQ01  00002PRCP06
0186825830999992003071612004-05167-040667FM-12+029999999V0201401N004612200019N0500001N1+02651+01651101581ADDAA106000091GF101991011011008001001001KA1240N+01751MA1999999098181MD1999999+0061REMSYN076AAXX  16124 82583 32599 11409 10265 20165 39818 40158 81100 333 20175 58006;EQDQ01  00002PRCP06
0198825830999992003071700004-05167-040667FM-12+029999999V0200901N001012200019N0040001N1+02481+01301101401ADDAA106000091GF104991041011008001001001KA1240M+03361MA1999999098021MD1999999+0101REMSYN088AAXX  17004 82583 32596 40902 10248 20130 39802 40140 84100 333 10336 29044 55106 58010;EQDQ01  00002PRCP06
0186825830999992003071712004-05167-040667FM-12+029999999V0201401N003612200019N0500001N1+02671+01641101701ADDAA106000091GF101991011011008001001001KA1240N+01981MA1999999098311MD1999999+0131REMSYN076AAXX  17124 82583 32599 11407 10267 20164 39831 40170 81100 333 20198 58013;EQDQ01  00002PRCP06
0198825830999992003071800004-05167-040667FM-12+029999999V0201401N001012200019N0040001N1+02481+02221101501ADDAA106000091GF102991021011008001001001KA1240M+03261MA1999999098121MD1999999+0101REMSYN088AAXX  18004 82583 32596 21402 10248 20222 39812 40150 82100 333 10326 29044 55105 58010;EQDQ01  00002PRCP06
0186825830999992003071812004-05167-040667FM-12+029999999V0201401N005112200019N0500001N1+02721+01771101761ADDAA106000091GF102991021011008001001001KA1240N+01981MA1999999098371MD1999999+0061REMSYN076AAXX  18124 82583 32599 21410 10272 20177 39837 40176 82100 333 20198 58006;EQDQ01  00002PRCP06
0198825830999992003071900004-05167-040667FM-12+029999999V0200901N001012200019N0040001N1+02501+01421101541ADDAA106000091GF101991011011008001001001KA1240M+03361MA1999999098151MD1999999+0031REMSYN088AAXX  19004 82583 32596 10902 10250 20142 39815 40154 81100 333 10336 29048 55108 58003;EQDQ01  00002PRCP06
0186825830999992003071912004-05167-040667FM-12+029999999V0201401N006712200019N0500001N1+02691+01721101841ADDAA106000091GF102991021011008001001001KA1240N+01941MA1999999098451MD1999999+0081REMSYN076AAXX  19124 82583 32599 21413 10269 20172 39845 40184 82100 333 20194 58008;EQDQ01  00002PRCP06
0186825830999992003072012004-05167-040667FM-12+029999999V0201401N002110120019N0500001N1+02601+01761101681ADDAA106000091GF106991061081008001001001KA1240N+02101MA1999999098291MD1999999-0161REMSYN076AAXX  20124 82583 32599 61404 10260 20176 39829 40168 86800 333 20210 59016;EQDQ01  00002PRCP06
0198825830999992003072100004-05167-040667FM-12+029999999V0203601N002112200019N0040001N1+02701+01721101411ADDAA106000091GF101991011011008001001001KA1240M+03341MA1999999098031MD1999999+0081REMSYN088AAXX  21004 82583 32596 13604 10270 20172 39803 40141 81100 333 10334 29054 55093 58008;EQDQ01  00002PRCP06
0186825830999992003072112004-05167-040667FM-12+029999999V0201801N005110120019N0500001N1+02661+01591101611ADDAA106000091GF106991061081008001001001KA1240N+01881MA1999999098231MD1999999-0061REMSYN076AAXX  21124 82583 32599 61810 10266 20159 39823 40161 86800 333 20188 59006;EQDQ01  00002PRCP06
0198825830999992003072200004-05167-040667FM-12+029999999V0201401N001512200019N0040001N1+02541+01451101411ADDAA106000091GF101991011011008001001001KA1240M+03351MA1999999098031MD1999999+0001REMSYN088AAXX  22004 82583 32596 11403 10254 20145 39803 40141 81100 333 10335 29048 55091 58000;EQDQ01  00002PRCP06
0186825830999992003072212004-05167-040667FM-12+029999999V0201401N004112200019N0500001N1+02811+01711101531ADDAA106000091GF101991011011008001001001KA1240N+01971MA1999999098151MD1999999-0081REMSYN076AAXX  22124 82583 32599 11408 10281 20171 39815 40153 81100 333 20197 59008;EQDQ01  00002PRCP06
0208825830999992003072300004-05167-040667FM-12+029999999V0201401N000512200019N0040001N1+02801+01661101251ADDAA106000091GA1001+999999999GF100991001001999999001001KA1240M+03381MA1999999097891MD1999999-0141REMSYN082AAXX  23004 82583 32996 01401 10280 20166 39789 40125 333 10338 29046 55103 59014;EQDQ01  00002PRCP06
0186825830999992003072312004-05167-040667FM-12+029999999V0201401N006712200019N0500001N1+02691+01751101531ADDAA106000091GF101991011011008001001001KA1240N+02031MA1999999098151MD1999999+0001REMSYN076AAXX  23124 82583 32599 11413 10269 20175 39815 40153 81100 333 20203 58000;EQDQ01  00002PRCP06
0198825830999992003072400004-05167-040667FM-12+029999999V0201801N001510075019N0040001N1+02571+01491101341ADDAA106000091GF107991071051008001001001KA1240M+03201MA1999999097961MD1999999+0071REMSYN088AAXX  24004 82583 32596 71803 10257 20149 39796 40134 87500 333 10320 29050 55107 58007;EQDQ01  00002PRCP06
0186825830999992003072412004-05167-040667FM-12+029999999V0201401N005712200019N0500001N1+02781+01731101391ADDAA106000091GF101991011011008001001001KA1240N+01981MA1999999098021MD1999999-0131REMSYN076AAXX  24124 82583 32599 11411 10278 20173 39802 40139 81100 333 20198 59013;EQDQ01  00002PRCP06
0198825830999992003072500004-05167-040667FM-12+029999999V0200901N002110075019N0040001N1+02841+01791101281ADDAA106000091GF105991051051008001001001KA1240M+03291MA1999999097931MD1999999-0031REMSYN088AAXX  25004 82583 32596 50904 10284 20179 39793 40128 85500 333 10329 29050 55062 59003;EQDQ01  00002PRCP06
0186825830999992003072512004-05167-040667FM-12+029999999V0201401N004112200019N0500001N1+02811+02001101481ADDAA106000091GF102991021011008001001001KA1240N+02191MA1999999098121MD1999999+0101REMSYN076AAXX  25124 82583 32599 21408 10281 20200 39812 40148 82100 333 20219 58010;EQDQ01  00002PRCP06
0214825830999992003072600004-05167-040667FM-12+029999999V0200901N001519999999N0040001N1+02801+01781101331ADDAA106000091GF106991999021008001001001KA1240M+03321MA1999999097971MD1999999+0041REMSYN088AAXX  26004 82583 32596 60903 10280 20178 39797 40133 83200 333 10332 29052 55076 58004;EQDQ01+000032SCOTLCQ02  00002PRCP06
0186825830999992003072612004-05167-040667FM-12+029999999V0201401N005112200019N0500001N1+02891+01721101521ADDAA106000091GF101991011011008001001001KA1240N+02291MA1999999098161MD1999999+0041REMSYN076AAXX  26124 82583 32599 11410 10289 20172 39816 40152 81100 333 20229 58004;EQDQ01  00002PRCP06
0208825830999992003072700004-05167-040667FM-12+029999999V0200901N001012200019N0040001N1+02681+01701101321ADDAA106000091GA1001+999999999GF100991001001999999001001KA1240M+03381MA1999999097961MD1999999-0011REMSYN082AAXX  27004 82583 32996 00902 10268 20170 39796 40132 333 10338 29049 55105 59001;EQDQ01  00002PRCP06
0186825830999992003072712004-05167-040667FM-12+029999999V0201401N006712200019N0500001N1+02741+01481101651ADDAA106000091GF101991011011008001001001KA1240N+02161MA1999999098271MD1999999+0111REMSYN076AAXX  27124 82583 32599 11413 10274 20148 39827 40165 81100 333 20216 58011;EQDQ01  00002PRCP06
0208825830999992003072800004-05167-040667FM-12+029999999V0201801N002112200019N0040001N1+02591+01631101311ADDAA106000091GA1001+999999999GF100991001001999999001001KA1240M+03341MA1999999097941MD1999999-0021REMSYN082AAXX  28004 82583 32996 01804 10259 20163 39794 40131 333 10334 29049 55104 59002;EQDQ01  00002PRCP06
0186825830999992003072812004-05167-040667FM-12+029999999V0201401N004612200019N0500001N1+02741+01671101501ADDAA106000091GF101991011011008001001001KA1240N+02001MA1999999098121MD1999999-0151REMSYN076AAXX  28124 82583 32599 11409 10274 20167 39812 40150 81100 333 20200 59015;EQDQ01  00002PRCP06
0208825830999992003072900004-05167-040667FM-12+029999999V0200901N002112200019N0040001N1+02651+01441101291ADDAA106000091GA1001+999999999GF100991001001999999001001KA1240M+03441MA1999999097931MD1999999-0011REMSYN082AAXX  29004 82583 32996 00904 10265 20144 39793 40129 333 10344 29043 55104 59001;EQDQ01  00002PRCP06
0186825830999992003072912004-05167-040667FM-12+029999999V0201401N005112200019N0500001N1+02681+01921101591ADDAA106000091GF104991041011008001001001KA1240N+02101MA1999999098211MD1999999+0091REMSYN076AAXX  29124 82583 32599 41410 10268 20192 39821 40159 84100 333 20210 58009;EQDQ01  00002PRCP06
0208825830999992003073000004-05167-040667FM-12+029999999V0201401N001512200019N0040001N1+02571+01581101411ADDAA106000091GA1001+999999999GF100991001001999999001001KA1240M+03401MA1999999098031MD1999999+0101REMSYN082AAXX  30004 82583 32996 01403 10257 20158 39803 40141 333 10340 29050 55089 58010;EQDQ01  00002PRCP06
0186825830999992003073012004-05167-040667FM-12+029999999V0201401N004110075019N0500001N1+02711+01981101611ADDAA106000091GF106991051021008001001011KA1240N+02131MA1999999098231MD1999999+0021REMSYN076AAXX  30124 82583 32599 61408 10271 20198 39823 40161 85201 333 20213 58002;EQDQ01  00002PRCP06
0186825830999992003073112004-05167-040667FM-12+029999999V0201401N003610075019N0500001N1+02571+01971101521ADDAA106000091GF106991061021008001001001KA1240N+01941MA1999999098141MD1999999-0091REMSYN076AAXX  31124 82583 32599 61407 10257 20197 39814 40152 86200 333 20194 59009;EQDQ01  00002PRCP06
0208825830999992003080100004-05167-040667FM-12+029999999V0200901N002112200019N0040001N1+02701+01471101191ADDAA106000091GA1001+999999999GF100991001001999999001001KA1240M+03401MA1999999097831MD1999999-0091REMSYN082AAXX  01004 82583 32996 00904 10270 20147 39783 40119 333 10340 29048 55086 59009;EQDQ01  00002PRCP06
0186825830999992003080112004-05167-040667FM-12+029999999V0200901N002612200019N0500001N1+02731+01891101461ADDAA106000091GF102991011011008001001011KA1240N+01961MA1999999098091MD1999999-0051REMSYN076AAXX  01124 82583 32599 20905 10273 20189 39809 40146 81101 333 20196 59005;EQDQ01  00002PRCP06
0208825830999992003080200004-05167-040667FM-12+029999999V0200901N002112200019N0040001N1+02751+01621101231ADDAA106000091GA1001+999999999GF100991001001999999001001KA1240M+03391MA1999999097871MD1999999+0041REMSYN082AAXX  02004 82583 32996 00904 10275 20162 39787 40123 333 10339 29048 55107 58004;EQDQ01  00002PRCP06
0186825830999992003080212004-05167-040667FM-12+029999999V0201401N004612200019N0500001N1+02781+01911101541ADDAA106000091GF102991021011008001001001KA1240N+02161MA1999999098171MD1999999+0081REMSYN076AAXX  02124 82583 32599 21409 10278 20191 39817 40154 82100 333 20216 58008;EQDQ01  00002PRCP06
0198825830999992003080300004-05167-040667FM-12+029999999V0200901N002112200019N0040001N1+02651+01711101351ADDAA106000091GF101991011011008001001001KA1240M+03461MA1999999097981MD1999999-0111REMSYN088AAXX  03004 82583 32596 10904 10265 20171 39798 40135 81100 333 10346 29049 55103 59011;EQDQ01  00002PRCP06
0186825830999992003080312004-05167-040667FM-12+029999999V0201401N003110075019N0500001N1+02821+01911101641ADDAA106000091GF106991061021008001001001KA1240N+02081MA1999999098261MD1999999+0091REMSYN076AAXX  03124 82583 32599 61406 10282 20191 39826 40164 86200 333 20208 58009;EQDQ01  00002PRCP06
0198825830999992003080400004-05167-040667FM-12+029999999V0200901N002112200019N0040001N1+02721+01321101271ADDAA106000091GF101991011011008001001001KA1240M+03461MA1999999097921MD1999999-0061REMSYN088AAXX  04004 82583 32596 10904 10272 20132 39792 40127 81100 333 10346 29041 55105 59006;EQDQ01  00002PRCP06
0186825830999992003080412004-05167-040667FM-12+029999999V0201401N004612200019N0500001N1+02731+01611101401ADDAA106000091GF101991011011008001001001KA1240N+02021MA1999999098031MD1999999-0131REMSYN076AAXX  04124 82583 32599 11409 10273 20161 39803 40140 81100 333 20202 59013;EQDQ01  00002PRCP06
0214825830999992003080500004-05167-040667FM-12+029999999V0201401N001512200019N0040001N1+02631+01351101191ADDAA106000091GF101991999011017501001001KA1240M+03431MA1999999097831MD1999999-0091REMSYN088AAXX  05004 82583 32796 11403 10263 20135 39783 40119 82100 333 10343 29041 55109 59009;EQDQ01+000022SCOTLCQ02  00002PRCP06
0186825830999992003080512004-05167-040667FM-12+029999999V0201401N005112200019N0500001N1+02711+01681101411ADDAA106000091GF101991011011008001001001KA1240N+01991MA1999999098031MD1999999+0001REMSYN076AAXX  05124 82583 32599 11410 10271 20168 39803 40141 81100 333 20199 58000;EQDQ01  00002PRCP06
0198825830999992003080600004-05167-040667FM-12+029999999V0200901N002612200019N0040001N1+02711+01281101191ADDAA106000091GF101991011001017501031001KA1240M+03471MA1999999097831MD1999999+0001REMSYN088AAXX  06004 82583 32796 10905 10271 20128 39783 40119 81030 333 10347 29040 55109 58000;EQDQ01  00002PRCP06
0186825830999992003080612004-05167-040667FM-12+029999999V0201401N004612200019N0500001N1+02791+01841101451ADDAA106000091GF101991011011008001001001KA1240N+02021MA1999999098091MD1999999+0061REMSYN076AAXX  06124 82583 32599 11409 10279 20184 39809 40145 81100 333 20202 58006;EQDQ01  00002PRCP06
0198825830999992003080700004-05167-040667FM-12+029999999V0200901N001012200019N0040001N1+02691+01301101161ADDAA106000091GF101991011001017501041001KA1240M+03461MA1999999097801MD1999999-0031REMSYN088AAXX  07004 82583 32796 10902 10269 20130 39780 40116 81040 333 10346 29042 55096 59003;EQDQ01  00002PRCP06
0186825830999992003080712004-05167-040667FM-12+029999999V0200901N004610075019N0500001N1+02601+01591101441ADDAA106000091GF105991051011008001001001KA1240N+02181MA1999999098061MD1999999-0031REMSYN076AAXX  07124 82583 32599 50909 10260 20159 39806 40144 85100 333 20218 59003;EQDQ01  00002PRCP06
0208825830999992003080800004-05167-040667FM-12+029999999V0201401N001512200019N0040001N1+02681+01701101351ADDAA106000091GA1001+999999999GF100991001001999999001001KA1240M+03381MA1999999097971MD1999999+0171REMSYN082AAXX  08004 82583 32596 01403 10268 20170 39797 40135 333 10338 29051 55094 58017;EQDQ01  00002PRCP06
0186825830999992003080812004-05167-040667FM-12+029999999V0201401N003110075019N0500001N1+02671+01971101371ADDAA106000091GF105991051011008001001001KA1240N+02021MA1999999098001MD1999999-0061REMSYN076AAXX  08124 82583 32599 51406 10267 20197 39800 40137 85100 333 20202 59006;EQDQ01  00002PRCP06
0198825830999992003080900004-05167-040667FM-12+029999999V0201401N002612200019N0040001N1+02811+01481101131ADDAA106000091GF101991011011008001001001KA1240M+03501MA1999999097771MD1999999-0101REMSYN088AAXX  09004 82583 32596 11405 10281 20148 39777 40113 81100 333 10350 29046 55079 59010;EQDQ01  00002PRCP06
0186825830999992003080912004-05167-040667FM-12+029999999V0201401N004110075019N0500001N1+02631+02031101551ADDAA106000091GF106991061021008001001001KA1240N+02091MA1999999098171MD1999999+0171REMSYN076AAXX  09124 82583 32599 61408 10263 20203 39817 40155 86200 333 20209 58017;EQDQ01  00002PRCP06
0208825830999992003081000004-05167-040667FM-12+029999999V0200901N001012200019N0040001N1+02731+01261101261ADDAA106000091GA1001+999999999GF100991001001999999001001KA1240M+03501MA1999999097901MD1999999+0131REMSYN082AAXX  10004 82583 32596 00902 10273 20126 39790 40126 333 10350 29041 55094 58013;EQDQ01  00002PRCP06
0186825830999992003081012004-05167-040667FM-12+029999999V0200901N005110075019N0500001N1+02641+01881101611ADDAA106000091GF106991061021008001001001KA1240N+02101MA1999999098231MD1999999+0061REMSYN076AAXX  10124 82583 32599 60910 10264 20188 39823 40161 86200 333 20210 58006;EQDQ01  00002PRCP06
0208825830999992003081100004-05167-040667FM-12+029999999V0200901N002112200019N0040001N1+02661+01501101301ADDAA106000091GA1001+999999999GF100991001001999999001001KA1240M+03361MA1999999097931MD1999999+0031REMSYN082AAXX  11004 82583 32596 00904 10266 20150 39793 40130 333 10336 29049 55082 58003;EQDQ01  00002PRCP06
0186825830999992003081112004-05167-040667FM-12+029999999V0201401N005112200019N0500001N1+02781+01791101611ADDAA106000091GF102991021011008001001001KA1240N+02091MA1999999098231MD1999999+0001REMSYN076AAXX  11124 82583 32599 21410 10278 20179 39823 40161 82100 333 20209 58000;EQDQ01  00002PRCP06
0208825830999992003081200004-05167-040667FM-12+029999999V0200901N001012200019N0040001N1+02731+01541101231ADDAA106000091GA1001+999999999GF100991001001999999001001KA1240M+03491MA1999999097871MD1999999-0061REMSYN082AAXX  12004 82583 32996 00902 10273 20154 39787 40123 333 10349 29045 55103 59006;EQDQ01  00002PRCP06
0186825830999992003081212004-05167-040667FM-12+029999999V0200901N002612200019N0500001N1+02821+01861101511ADDAA106000091GF102991021011008001001001KA1240N+02041MA1999999098151MD1999999-0081REMSYN076AAXX  12124 82583 32599 20905 10282 20186 39815 40151 82100 333 20204 59008;EQDQ01  00002PRCP06
0186825830999992003081312004-05167-040667FM-12+029999999V0200901N004610075019N0500001N1+02791+01951101541ADDAA106000091GF105991051011008001001001KA1240N+02111MA1999999098171MD1999999+0021REMSYN076AAXX  13124 82583 32599 50909 10279 20195 39817 40154 85100 333 20211 58002;EQDQ01  00002PRCP06
0208825830999992003081400004-05167-040667FM-12+029999999V0200901N001512200019N0040001N1+02741+01541101211ADDAA106000091GA1001+999999999GF100991001001999999001001KA1240M+03471MA1999999097851MD1999999-0071REMSYN082AAXX  14004 82583 32996 00903 10274 20154 39785 40121 333 10347 29047 55095 59007;EQDQ01  00002PRCP06
0186825830999992003081412004-05167-040667FM-12+029999999V0200901N004610075019N0500001N1+02681+01971101551ADDAA106000091GF106991061021008001001001KA1240N+02181MA1999999098171MD1999999+0001REMSYN076AAXX  14124 82583 32599 60909 10268 20197 39817 40155 86200 333 20218 58000;EQDQ01  00002PRCP06
0208825830999992003081500004-05167-040667FM-12+029999999V0200901N001512200019N0040001N1+02711+01241101181ADDAA106000091GA1001+999999999GF100991001001999999001001KA1240M+03481MA1999999097821MD1999999-0031REMSYN082AAXX  15004 82583 32996 00903 10271 20124 39782 40118 333 10348 29043 55104 59003;EQDQ01  00002PRCP06
0186825830999992003081512004-05167-040667FM-12+029999999V0201401N002610450019N0500001N1+02661+01951101481ADDAA106000091GF107991031011008001031001KA1240N+02181MA1999999098111MD1999999-0061REMSYN076AAXX  15124 82583 32599 71405 10266 20195 39811 40148 83130 333 20218 59006;EQDQ01  00002PRCP06
0198825830999992003081600004-05167-040667FM-12+029999999V0200901N001012200019N0040001N1+02831+01461101161ADDAA106000091GF101991011011008001001001KA1240M+03521MA1999999097801MD1999999-0021REMSYN088AAXX  16004 82583 32596 10902 10283 20146 39780 40116 81100 333 10352 29044 55008 59002;EQDQ01  00002PRCP06
0186825830999992003081612004-05167-040667FM-12+029999999V0200901N003110075019N0500001N1+02681+01861101471ADDAA106000091GF106991061021008001001001KA1240N+02311MA1999999098111MD1999999+0001REMSYN076AAXX  16124 82583 32599 60906 10268 20186 39811 40147 86200 333 20231 58000;EQDQ01  00002PRCP06
0186825830999992003081712004-05167-040667FM-12+029999999V0200901N003110075019N0500001N1+02681+02061101531ADDAA106000091GF107991071021008001001001KA1240N+02211MA1999999098171MD1999999+0061REMSYN076AAXX  17124 82583 32599 70906 10268 20206 39817 40153 87200 333 20221 58006;EQDQ01  00002PRCP06
0198825830999992003081800004-05167-040667FM-12+029999999V0203601N000512200019N0040001N1+02681+01921101231ADDAA106000091GF101991011011008001001001KA1240M+03531MA1999999097871MD1999999+0071REMSYN088AAXX  18004 82583 32596 13601 10268 20192 39787 40123 81100 333 10353 29057 55078 58007;EQDQ01  00002PRCP06
0186825830999992003081812004-05167-040667FM-12+029999999V0200501N003110075019N0500001N1+02691+02081101581ADDAA106000091GF107991061051008001041001KA1240N+02301MA1999999098201MD1999999+0031REMSYN076AAXX  18124 82583 32599 70506 10269 20208 39820 40158 86540 333 20230 58003;EQDQ01  00002PRCP06
0198825830999992003081900004-05167-040667FM-12+029999999V0200901N000512200019N0040001N1+02791+01661101281ADDAA106000091GF101991011011008001001001KA1240M+03471MA1999999097921MD1999999+0051REMSYN088AAXX  19004 82583 32596 10901 10279 20166 39792 40128 81100 333 10347 29051 55067 58005;EQDQ01  00002PRCP06
0186825830999992003081912004-05167-040667FM-12+029999999V0201401N006712200019N0500001N1+02781+01701101711ADDAA106000091GF103991021011008001001011KA1240N+02191MA1999999098341MD1999999+0141REMSYN076AAXX  19124 82583 32599 31413 10278 20170 39834 40171 82101 333 20219 58014;EQDQ01  00002PRCP06
0198825830999992003082000004-05167-040667FM-12+029999999V0200901N001512200019N0040001N1+02681+01211101411ADDAA106000091GF101991011011008001001001KA1240M+03391MA1999999098051MD1999999+0131REMSYN088AAXX  20004 82583 32596 10903 10268 20121 39805 40141 81100 333 10339 29038 55101 58013;EQDQ01  00002PRCP06
0186825830999992003082012004-05167-040667FM-12+029999999V0201401N008212200019N0500001N1+02801+01601101581ADDAA106000091GF101991011011008001001001KA1240N+01971MA1999999098211MD1999999-0131REMSYN076AAXX  20124 82583 32599 11416 10280 20160 39821 40158 81100 333 20197 59013;EQDQ01  00002PRCP06
0208825830999992003082100004-05167-040667FM-12+029999999V0200901N001512200019N0040001N1+02691+01021101241ADDAA106000091GA1001+999999999GF100991001001999999001001KA1240M+03461MA1999999097881MD1999999-0171REMSYN082AAXX  21004 82583 32996 00903 10269 20102 39788 40124 333 10346 29034 55111 59017;EQDQ01  00002PRCP06
0186825830999992003082112004-05167-040667FM-12+029999999V0201401N006212200019N0500001N1+02861+01621101411ADDAA106000091GF101991011011008001001001KA1240N+02221MA1999999098051MD1999999-0161REMSYN076AAXX  21124 82583 32599 11412 10286 20162 39805 40141 81100 333 20222 59016;EQDQ01  00002PRCP06
0208825830999992003082200004-05167-040667FM-12+029999999V0200901N000512200019N0040001N1+02681+01131101131ADDAA106000091GA1001+999999999GF100991001001999999001001KA1240M+03481MA1999999097781MD1999999-0101REMSYN082AAXX  22004 82583 32996 00901 10268 20113 39778 40113 333 10348 29038 55109 59010;EQDQ01  00002PRCP06
0186825830999992003082212004-05167-040667FM-12+029999999V0201401N001512200019N0500001N1+02641+01901101391ADDAA106000091GF105991041021008001001011KA1240N+02181MA1999999098011MD1999999-0041REMSYN076AAXX  22124 82583 32599 51403 10264 20190 39801 40139 84201 333 20218 59004;EQDQ01  00002PRCP06
0198825830999992003082300004-05167-040667FM-12+029999999V0201401N002110075019N0040001N1+02971+01471101181ADDAA106000091GF107991071051008001001001KA1240M+03521MA1999999097831MD1999999+0051REMSYN088AAXX  23004 82583 32596 71404 10297 20147 39783 40118 87500 333 10352 29043 55073 58005;EQDQ01  00002PRCP06
0186825830999992003082312004-05167-040667FM-12+029999999V0201401N003112200019N0500001N1+02791+01781101471ADDAA106000091GF103991031001008001031001KA1240N+02341MA1999999098121MD1999999+0111REMSYN076AAXX  23124 82583 32599 31406 10279 20178 39812 40147 83030 333 20234 58011;EQDQ01  00002PRCP06
0198825830999992003082400004-05167-040667FM-12+029999999V0200901N002112200019N0040001N1+02901+01481101231ADDAA106000091GF101991011011008001001001KA1240M+03681MA1999999097881MD1999999+0051REMSYN088AAXX  24004 82583 32596 10904 10290 20148 39788 40123 81100 333 10368 29041 55091 58005;EQDQ01  00002PRCP06
0186825830999992003082412004-05167-040667FM-12+029999999V0200901N005710075019N0500001N1+02651+01851101491ADDAA106000091GF106991061021008001001001KA1240N+01761MA1999999098131MD1999999+0011REMSYN076AAXX  24124 82583 32599 60911 10265 20185 39813 40149 86200 333 20176 58001;EQDQ01  00002PRCP06
0198825830999992003082500004-05167-040667FM-12+029999999V0200901N002112200019N0040001N1+02861+01651101101ADDAA106000091GF101991011011008001001001KA1240M+03581MA1999999097741MD1999999-0141REMSYN088AAXX  25004 82583 32596 10904 10286 20165 39774 40110 81100 333 10358 29048 55093 59014;EQDQ01  00002PRCP06
0186825830999992003082512004-05167-040667FM-12+029999999V0200901N004610120019N0500001N1+02591+01921101431ADDAA106000091GF108991081081008001999999KA1240N+02171MA1999999098061MD1999999-0071REMSYN076AAXX  25124 82583 32599 80909 10259 20192 39806 40143 888// 333 20217 59007;EQDQ01  00002PRCP06
0208825830999992003082600004-05167-040667FM-12+029999999V0200901N001012200019N0040001N1+02801+01431101091ADDAA106000091GA1001+999999999GF100991001001999999001001KA1240M+03491MA1999999097731MD1999999-0011REMSYN082AAXX  26004 82583 32996 00902 10280 20143 39773 40109 333 10349 29046 55076 59001;EQDQ01  00002PRCP06
0186825830999992003082612004-05167-040667FM-12+029999999V0200901N004612200019N0500001N1+02821+01911101391ADDAA106000091GF102991021011008001001001KA1240N+02101MA1999999098031MD1999999-0031REMSYN076AAXX  26124 82583 32599 20909 10282 20191 39803 40139 82100 333 20210 59003;EQDQ01  00002PRCP06
0208825830999992003082700004-05167-040667FM-12+029999999V0200901N001512200019N0040001N1+02851+01371101041ADDAA106000091GA1001+999999999GF100991001001999999001001KA1240M+03631MA1999999097701MD1999999-0031REMSYN082AAXX  27004 82583 32996 00903 10285 20137 39770 40104 333 10363 29041 55103 59003;EQDQ01  00002PRCP06
0186825830999992003082712004-05167-040667FM-12+029999999V0200901N005712200019N0500001N1+02981+01891101421ADDAA106000091GF104991031011008001001011KA1240N+02311MA1999999098071MD1999999+0041REMSYN076AAXX  27124 82583 32599 40911 10298 20189 39807 40142 83101 333 20231 58004;EQDQ01  00002PRCP06
0208825830999992003082800004-05167-040667FM-12+029999999V0200901N002112200019N0040001N1+02841+01691101131ADDAA106000091GA1001+999999999GF100991001001999999001001KA1240M+03571MA1999999097791MD1999999+0091REMSYN082AAXX  28004 82583 32996 00904 10284 20169 39779 40113 333 10357 29045 55096 58009;EQDQ01  00002PRCP06
0190825830999992003082812004-05167-040667FM-12+029999999V0201401N000510120019N0500001N1+02591+02121101541ADDAY161061AY261061GF108991081081008001999999KA1240N+02311MA1999999098161MD1999999-0091MW1021REMSYN088AAXX  28124 82583 21599 81401 10259 20212 39816 40154 70266 888// 333 20231 59009 60034;
0198825830999992003082900004-05167-040667FM-12+029999999V0200901N000512200019N0040001N1+02781+01641101161ADDAA106000091GF101991011011008001001001KA1240M+03421MA1999999097801MD1999999+0011REMSYN088AAXX  29004 82583 32596 10901 10278 20164 39780 40116 81100 333 10342 29052 55056 58001;EQDQ01  00002PRCP06
0186825830999992003082912004-05167-040667FM-12+029999999V0201401N003110075019N0500001N1+02721+01771101521ADDAA106000091GF106991061021008001001001KA1240N+02181MA1999999098151MD1999999-0011REMSYN076AAXX  29124 82583 32599 61406 10272 20177 39815 40152 86200 333 20218 59001;EQDQ01  00002PRCP06
0208825830999992003083000004-05167-040667FM-12+029999999V0200501N001512200019N0040001N1+02941+01621101161ADDAA106000091GA1001+999999999GF100991001001999999001001KA1240M+03521MA1999999097801MD1999999+0001REMSYN082AAXX  30004 82583 32996 00503 10294 20162 39780 40116 333 10352 29044 55096 58000;EQDQ01  00002PRCP06
0186825830999992003083012004-05167-040667FM-12+029999999V0200901N003110075019N0500001N1+02611+01931101591ADDAA106000091GF107991071051008001001001KA1240N+02331MA1999999098231MD1999999+0081REMSYN076AAXX  30124 82583 32599 70906 10261 20193 39823 40159 87500 333 20233 58008;EQDQ01  00002PRCP06
0208825830999992003083100004-05167-040667FM-12+029999999V0200501N001512200019N0020001N1+02721+01791101421ADDAA106000091GA1001+999999999GF100991001001999999001001KA1240M+03361MA1999999098751MD1999999+0251REMSYN082AAXX  31004 82583 32995 00503 10272 20179 39875 40142 333 10336 29055 55045 58025;EQDQ01  00002PRCP06
0186825830999992003083112004-05167-040667FM-12+029999999V0200901N003610120019N0500001N1+02581+01941101701ADDAA106000091GF108991081081008001999999KA1240N+02301MA1999999098321MD1999999+0091REMSYN076AAXX  31124 82583 32599 80907 10258 20194 39832 40170 888// 333 20230 58009;EQDQ01  00002PRCP06
0198825830999992003090100004-05167-040667FM-12+029999999V0200901N001012200019N0040001N1+02771+01221101251ADDAA106000091GF102991021011008001001001KA1240M+03431MA1999999097891MD1999999-0161REMSYN088AAXX  01004 82583 32596 20902 10277 20122 39789 40125 82100 333 10343 29046 55033 59016;EQDQ01  00002PRCP06
0186825830999992003090112004-05167-040667FM-12+029999999V0201401N003610075019N0500001N1+02711+01901101601ADDAA106000091GF106991061021008001001001KA1240N+02291MA1999999098231MD1999999-0091REMSYN076AAXX  01124 82583 32599 61407 10271 20190 39823 40160 86200 333 20229 59009;EQDQ01  00002PRCP06
0208825830999992003090200004-05167-040667FM-12+029999999V0201401N002112200019N0040001N1+02701+01111101241ADDAA106000091GA1001+999999999GF100991001001999999001001KA1240M+03601MA1999999097881MD1999999-0011REMSYN082AAXX  02004 82583 32996 01404 10270 20111 39788 40124 333 10360 29039 55103 59001;EQDQ01  00002PRCP06
0186825830999992003090212004-05167-040667FM-12+029999999V0201401N003610075019N0500001N1+02761+01911101611ADDAA106000091GF106991061021008001001001KA1240N+02251MA1999999098241MD1999999+0011REMSYN076AAXX  02124 82583 32599 61407 10276 20191 39824 40161 86200 333 20225 58001;EQDQ01  00002PRCP06
0230825830999992003090300004-05167-040667FM-12+029999999V0201401N001512200019N0040001N1+02741+01341101261ADDAA106000091GF101991011011008001001001KA1240M+03531MA1999999097901MD1999999+0021REMSYN088AAXX  03004 82583 32596 11403 10274 20134 33979 40126 81100 333 10353 29043 55099 58002;EQDQ01+039791APOSP Q02+999990APOSP Q03  00002PRCP06
0186825830999992003090312004-05167-040667FM-12+029999999V0201401N005112200019N0500001N1+02771+01761101581ADDAA106000091GF103991031011008001001001KA1240N+02111MA1999999098211MD1999999-0031REMSYN076AAXX  03124 82583 32599 31410 10277 20176 39821 40158 83100 333 20211 59003;EQDQ01  00002PRCP06
0198825830999992003090400004-05167-040667FM-12+029999999V0201401N002112200019N0040001N1+02821+01331101351ADDAA106000091GF101991011011008001001001KA1240M+03511MA1999999097961MD1999999+0061REMSYN088AAXX  04004 82583 32596 11404 10282 20133 39796 40135 81100 333 10351 29041 55104 58006;EQDQ01  00002PRCP06
0196825830999992003090412004-05167-040667FM-12+029999999V0201401N006712200019N0500001N1+03021+01621101561ADDAA106000091GA1001+999999999GF100991001001999999001001KA1240N+02181MA1999999098201MD1999999-0011REMSYN070AAXX  04124 82583 32999 01413 10302 20162 39820 40156 333 20218 59001;EQDQ01  00002PRCP06
0208825830999992003090500004-05167-040667FM-12+029999999V0201401N003112200019N0040001N1+02811+01681101411ADDAA106000091GA1001+999999999GF100991001001999999001001KA1240M+03521MA1999999098061MD1999999+0181REMSYN082AAXX  05004 82583 32996 01406 10281 20168 39806 40141 333 10352 29045 55105 58018;EQDQ01  00002PRCP06
0186825830999992003090512004-05167-040667FM-12+029999999V0201401N006712200019N0500001N1+02861+01761101571ADDAA106000091GF103991021011008001001011KA1240N+02371MA1999999098211MD1999999+0011REMSYN076AAXX  05124 82583 32599 31413 10286 20176 39821 40157 82101 333 20237 58001;EQDQ01  00002PRCP06
0198825830999992003090600004-05167-040667FM-12+029999999V0201801N002612200019N0040001N1+02831+01501101311ADDAA106000091GF101991011011008001001001KA1240M+03451MA1999999097951MD1999999-0111REMSYN088AAXX  06004 82583 32596 11805 10283 20150 39795 40131 81100 333 10345 29044 55093 59011;EQDQ01  00002PRCP06
0186825830999992003090612004-05167-040667FM-12+029999999V0201401N005112200019N0500001N1+02821+01651101441ADDAA106000091GF101991011011008001001001KA1240N+02361MA1999999098081MD1999999-0131REMSYN076AAXX  06124 82583 32599 11410 10282 20165 39808 40144 81100 333 20236 59013;EQDQ01  00002PRCP06
0208825830999992003090700004-05167-040667FM-12+029999999V0200501N003112200019N0040001N1+02821+01041101201ADDAA106000091GA1001+999999999GF100991001001999999001001KA1240M+03501MA1999999097851MD1999999+0101REMSYN082AAXX  07004 82583 32996 00506 10282 20104 39785 40120 333 10350 29037 55101 58010;EQDQ01  00002PRCP06
0186825830999992003090712004-05167-040667FM-12+029999999V0201401N005112200019N0500001N1+02871+01641101471ADDAA106000091GF101991011011008001001001KA1240N+02341MA1999999098111MD1999999+0031REMSYN076AAXX  07124 82583 32599 11410 10287 20164 39811 40147 81100 333 20234 58003;EQDQ01  00002PRCP06
0186825830999992003090812004-05167-040667FM-12+029999999V0200101N004612200019N0500001N1+02831+01761101451ADDAA106000091GF102991021011008001001001KA1240N+02371MA1999999098101MD1999999-0011REMSYN076AAXX  08124 82583 32599 20109 10283 20176 39810 40145 82100 333 20237 59001;EQDQ01  00002PRCP06
0198825830999992003090900004-05167-040667FM-12+029999999V0200901N003612200019N0040001N1+02991+01611101171ADDAA106000091GF101991011011008001001001KA1240M+03561MA1999999097831MD1999999-0031REMSYN088AAXX  09004 82583 32596 10907 10299 20161 39783 40117 81100 333 10356 29042 55094 59003;EQDQ01  00002PRCP06
0186825830999992003090912004-05167-040667FM-12+029999999V0201401N005112200019N0500001N1+02961+01641101421ADDAA106000091GF102991021011008001001001KA1240N+02421MA1999999098081MD1999999-0021REMSYN076AAXX  09124 82583 32599 21410 10296 20164 39808 40142 82100 333 20242 59002;EQDQ01  00002PRCP06
0198825830999992003091000004-05167-040667FM-12+029999999V0201401N002112200019N0040001N1+02921+01381101181ADDAA106000091GF101991011011008001001001KA1240M+03551MA1999999097841MD1999999+0011REMSYN088AAXX  10004 82583 32596 11404 10292 20138 39784 40118 81100 333 10355 29039 55081 58001;EQDQ01  00002PRCP06
0186825830999992003091012004-05167-040667FM-12+029999999V0201401N004612200019N0500001N1+02821+01801101451ADDAA106000091GF102991021011008001001001KA1240N+02251MA1999999098091MD1999999+0011REMSYN076AAXX  10124 82583 32599 21409 10282 20180 39809 40145 82100 333 20225 58001;EQDQ01  00002PRCP06
0198825830999992003091100004-05167-040667FM-12+029999999V0200901N001012200019N0040001N1+02891+01281101111ADDAA106000091GF101991011011008001001001KA1240M+03601MA1999999097771MD1999999-0071REMSYN088AAXX  11004 82583 32596 10902 10289 20128 39777 40111 81100 333 10360 29039 55105 59007;EQDQ01  00002PRCP06
0186825830999992003091212004-05167-040667FM-12+029999999V0201401N006712200019N0500001N1+02791+01901101531ADDAA106000091GF104991041011008001001001KA1240N+02421MA1999999098171MD1999999+0141REMSYN076AAXX  12124 82583 32599 41413 10279 20190 39817 40153 84100 333 20242 58014;EQDQ01  00002PRCP06
0186825830999992003091312004-05167-040667FM-12+029999999V0201401N006710075019N0500001N1+02801+01901101561ADDAA106000091GF106991061021008001001001KA1240N+02421MA1999999098201MD1999999+0031REMSYN076AAXX  13124 82583 32599 61413 10280 20190 39820 40156 86200 333 20242 58003;EQDQ01  00002PRCP06
0186825830999992003091412004-05167-040667FM-12+029999999V0200901N003610075019N0500001N1+02781+01981101521ADDAA106000091GF106991061021008001001001KA1240N+02341MA1999999098161MD1999999-0041REMSYN076AAXX  14124 82583 32599 60907 10278 20198 39816 40152 86200 333 20234 59004;EQDQ01  00002PRCP06
0198825830999992003091500004-05167-040667FM-12+029999999V0200901N002112200019N0040001N1+03041+01491101041ADDAA106000091GF102991021011008001001001KA1240M+03621MA1999999097701MD1999999-0131REMSYN088AAXX  15004 82583 32596 20904 10304 20149 39770 40104 82100 333 10362 29043 55089 59013;EQDQ01  00002PRCP06
0186825830999992003091512004-05167-040667FM-12+029999999V0200901N004610075019N0500001N1+02951+02021101311ADDAA106000091GF105991051021008001001001KA1240N+02391MA1999999097971MD1999999-0191REMSYN076AAXX  15124 82583 32599 50909 10295 20202 39797 40131 85200 333 20239 59019;EQDQ01  00002PRCP06
0208825830999992003091700004-05167-040667FM-12+029999999V0200901N001012200019N0040001N1+02891+01241101021ADDAA106000091GA1001+999999999GF100991001001999999001001KA1240M+03531MA1999999097681MD1999999-0021REMSYN082AAXX  17004 82583 32996 00902 10289 20124 39768 40102 333 10353 29038 55095 59002;EQDQ01  00002PRCP06
0186825830999992003091712004-05167-040667FM-12+029999999V0200901N005110075019N0500001N1+02891+01901101391ADDAA106000091GF105991051011008001001001KA1240N+02271MA1999999098041MD1999999+0031REMSYN076AAXX  17124 82583 32599 50910 10289 20190 39804 40139 85100 333 20227 58003;EQDQ01  00002PRCP06
0208825830999992003091800004-05167-040667FM-12+029999999V0200901N002112200019N0040001N1+02861+01411101041ADDAA106000091GA1001+999999999GF100991001001999999001001KA1240M+03521MA1999999097701MD1999999+0021REMSYN082AAXX  18004 82583 32996 00904 10286 20141 39770 40104 333 10352 29042 55096 58002;EQDQ01  00002PRCP06
0186825830999992003091812004-05167-040667FM-12+029999999V0200901N003612200019N0500001N1+02941+01791101331ADDAA106000091GF101991011011008001001001KA1240N+02131MA1999999097981MD1999999-0061REMSYN076AAXX  18124 82583 32599 10907 10294 20179 39798 40133 81100 333 20213 59006;EQDQ01  00002PRCP06
0208825830999992003091900004-05167-040667FM-12+029999999V0201401N000512200019N0040001N1+02921+01301100931ADDAA106000091GA1001+999999999GF100991001001999999001001KA1240M+03681MA1999999097601MD1999999-0101REMSYN082AAXX  19004 82583 32996 01401 10292 20130 39760 40093 333 10368 29069 55098 59010;EQDQ01  00002PRCP06
0202825830999992003091912004-05167-040667FM-12+029999999V0201401N005712200019N0500001N1+02931+01881101221ADDAA106000091GF101991999011008001001001KA1240N+02261MA1999999097881MD1999999-0101REMSYN076AAXX  19124 82583 32599 11411 10293 20188 39788 40122 82100 333 20226 59010;EQDQ01+000022SCOTLCQ02  00002PRCP06
0186825830999992003092012004-05167-040667FM-12+029999999V0201401N005110075019N0500001N1+02871+01911101261ADDAA106000091GF106991051021008001001011KA1240N+02241MA1999999097921MD1999999+0041REMSYN076AAXX  20124 82583 32599 61410 10287 20191 39792 40126 85201 333 20224 58004;EQDQ01  00002PRCP06
0186825830999992003092112004-05167-040667FM-12+029999999V0201401N003110075019N0040001N1+02861+01721101361ADDAA106000091GF105991051021008001001001KA1240N+02161MA1999999098001MD1999999+0081REMSYN076AAXX  21124 82583 32596 51406 10286 20172 39800 40136 85200 333 20216 58008;EQDQ01  00002PRCP06
0208825830999992003092200004-05167-040667FM-12+029999999V0200901N001512200019N0040001N1+02811+01171101111ADDAA106000091GA1001+999999999GF100991001001999999001001KA1240M+03481MA1999999097761MD1999999+0001REMSYN082AAXX  22004 82583 32996 00903 10281 20117 39776 40111 333 10348 29038 55100 58000;EQDQ01  00002PRCP06
0186825830999992003092212004-05167-040667FM-12+029999999V0201401N006712200019N0500001N1+02961+01781101271ADDAA106000091GF101991011011008001001001KA1240N+02141MA1999999097931MD1999999-0071REMSYN076AAXX  22124 82583 32599 11413 10296 20178 39793 40127 81100 333 20214 59007;EQDQ01  00002PRCP06
0208825830999992003092400004-05167-040667FM-12+029999999V0201401N001512200019N0040001N1+02931+01401100931ADDAA106000091GA1001+999999999GF100991001001999999001001KA1240M+03611MA1999999097601MD1999999-0051REMSYN082AAXX  24004 82583 32996 01403 10293 20140 39760 40093 333 10361 29041 55102 59005;EQDQ01  00002PRCP06
0186825830999992003092412004-05167-040667FM-12+029999999V0200901N003612200019N0500001N1+02801+01901101271ADDAA106000091GF102991021011008001001001KA1240N+02291MA1999999097931MD1999999+0051REMSYN076AAXX  24124 82583 32599 20907 10280 20190 39793 40127 82100 333 20229 58005;EQDQ01  00002PRCP06
0208825830999992003092500004-05167-040667FM-12+029999999V0200901N002112200019N0040001N1+02861+01481100891ADDAA106000091GA1001+999999999GF100991001001999999001001KA1240M+03551MA1999999097551MD1999999-0051REMSYN082AAXX  25004 82583 32996 00904 10286 20148 39755 40089 333 10355 29044 55103 59005;EQDQ01  00002PRCP06
0186825830999992003092512004-05167-040667FM-12+029999999V0200901N004110075019N0500001N1+02731+01841101241ADDAA106000091GF106991061021008001001001KA1240N+02271MA1999999097891MD1999999-0041REMSYN076AAXX  25124 82583 32599 60908 10273 20184 39789 40124 86200 333 20227 59004;EQDQ01  00002PRCP06
0186825830999992003092612004-05167-040667FM-12+029999999V0200901N005110075019N0500001N1+02801+01921101191ADDAA106000091GF107991071021008001001001KA1240N+02341MA1999999097851MD1999999-0041REMSYN076AAXX  26124 82583 32599 70910 10280 20192 39785 40119 87200 333 20234 59004;EQDQ01  00002PRCP06
0198825830999992003092700004-05167-040667FM-12+029999999V0200901N003112200019N0040001N1+02981+01621100911ADDAA106000091GF101991011011008001001001KA1240M+03601MA1999999097581MD1999999-0061REMSYN088AAXX  27004 82583 32596 10906 10298 20162 39758 40091 81100 333 10360 29045 55073 59006;EQDQ01  00002PRCP06
0186825830999992003092712004-05167-040667FM-12+029999999V0200901N005112200019N0500001N1+02911+01831101141ADDAA106000091GF102991011011008001001011KA1240N+02291MA1999999097801MD1999999-0051REMSYN076AAXX  27124 82583 32599 20910 10291 20183 39780 40114 81101 333 20229 59005;EQDQ01  00002PRCP06
0202825830999992003092812004-05167-040667FM-12+029999999V0200901N005112200019N0500001N1+02881+01941101701ADDAA106000091GF103991999011008001001001KA1240N+02251MA1999999097861MD1999999+0061REMSYN076AAXX  28124 82583 32599 30910 10288 20194 39786 40170 84100 333 20225 58006;EQDQ01+000042SCOTLCQ02  00002PRCP06
0208825830999992003092900004-05167-040667FM-12+029999999V0200901N002112200019N0040001N1+02861+01211100901ADDAA106000091GA1001+999999999GF100991001001999999001001KA1240M+03721MA1999999097571MD1999999+0121REMSYN082AAXX  29004 82583 32996 00904 10286 20121 39757 40090 333 10372 29037 55088 58012;EQDQ01  00002PRCP06
0186825830999992003092912004-05167-040667FM-12+029999999V0200901N006212200019N0500001N1+02921+01771101261ADDAA106000091GF101991011011008001001001KA1240N+02261MA1999999097921MD1999999+0061REMSYN076AAXX  29124 82583 32599 10912 10292 20177 30792 40126 81100 333 20226 58006;EQDQ01  00002PRCP06
0186825830999992003093012004-05167-040667FM-12+029999999V0200901N007212200019N0500001N1+02981+01891101291ADDAA106000091GF102991011011008001001011KA1240N+02341MA1999999097951MD1999999+0031REMSYN076AAXX  30124 82583 32599 20914 10298 20189 39795 40129 81101 333 20234 58003;EQDQ01  00002PRCP06
0208825830999992003100100004-05167-040667FM-12+029999999V0200901N002612200019N0040001N1+02981+01401100921ADDAA106000091GA1001+999999999GF100991001001999999001001KA1240M+03671MA1999999097601MD1999999+0001REMSYN082AAXX  01004 82583 32996 00905 10298 20140 39760 40092 333 10367 29038 55100 58000;EQDQ01  00002PRCP06
0196825830999992003100112004-05167-040667FM-12+029999999V0200901N005112200019N0500001N1+02931+01821101211ADDAA106000091GA1001+999999999GF100991001001999999001001KA1240N+02301MA1999999097871MD1999999-0081REMSYN070AAXX  01124 82583 32999 00910 10293 20182 39787 40121 333 20230 59008;EQDQ01  00002PRCP06
0198825830999992003100200004-05167-040667FM-12+029999999V0200901N002612200019N0040001N1+03011+01261100851ADDAA106000091GF101991011011008001001001KA1240M+03651MA1999999097531MD1999999-0071REMSYN088AAXX  02004 82583 32596 10905 10301 20126 39753 40085 81100 333 10365 29037 55102 59007;EQDQ01  00002PRCP06
0202825830999992003100212004-05167-040667FM-12+029999999V0200901N006219999999N0500001N1+02831+01881101221ADDAA106000091GF106991999021008001001001KA1240N+02391MA1999999097881MD1999999+0011REMSYN076AAXX  02124 82583 32599 60912 10283 20188 39788 40122 87200 333 20239 58001;EQDQ01+000072SCOTLCQ02  00002PRCP06
0198825830999992003100300004-05167-040667FM-12+029999999V0200901N002112200019N0040001N1+02951+01461100841ADDAA106000091GF103991031011008001001001KA1240M+03601MA1999999097491MD1999999+0041REMSYN088AAXX  03004 82583 32596 30904 10295 20146 39749 40084 83100 333 10360 29042 55083 58004;EQDQ01  00002PRCP06
0186825830999992003100312004-05167-040667FM-12+029999999V0200901N008212200019N0500001N1+02961+01461101281ADDAA106000091GF101991011011008001001001KA1240N+02361MA1999999097941MD1999999+0061REMSYN076AAXX  03124 82583 32599 10916 10296 20146 39794 40128 81100 333 20236 58006;EQDQ01  00002PRCP06
0198825830999992003100400004-05167-040667FM-12+029999999V0200901N001512200019N0040001N1+02871+01531101041ADDAA106000091GF103991001001999999001011KA1240M+03581MA1999999097701MD1999999+0211REMSYN088AAXX  04004 82583 32996 30903 10287 20153 39770 40104 80001 333 10358 29039 55093 58021;EQDQ01  00002PRCP06
0186825830999992003100412004-05167-040667FM-12+029999999V0200901N004612200019N0500001N1+02951+01841101331ADDAA106000091GF102991021011008001001001KA1240N+02241MA1999999097981MD1999999+0041REMSYN076AAXX  04124 82583 32599 20909 10295 20184 39798 40133 82100 333 20224 58004;EQDQ01  00002PRCP06
0198825830999992003100500004-05167-040667FM-12+029999999V0200901N001012200019N0040001N1+02871+01391101031ADDAA106000091GF103991031011008001001001KA1240M+03591MA1999999097691MD1999999+0011REMSYN088AAXX  05004 82583 32596 30902 10287 20139 39769 40103 83100 333 10359 29040 55105 58001;EQDQ01  00002PRCP06
0202825830999992003100512004-05167-040667FM-12+029999999V0201401N004119999999N0500001N1+02791+01921101221ADDAA106000091GF107991999021008001001001KA1240N+02271MA1999999097871MD1999999-0111REMSYN076AAXX  05124 82583 32599 71408 10279 20192 39787 40122 84200 333 20227 59011;EQDQ01+000042SCOTLCQ02  00002PRCP06
0198825830999992003100600004-05167-040667FM-12+029999999V0200901N001512200019N0040001N1+02941+01361100851ADDAA106000091GF103991031021008001001001KA1240M+03641MA1999999097521MD1999999-0171REMSYN088AAXX  06004 82583 32596 30903 10294 20136 39752 40085 83200 333 10364 29041 55099 59017;EQDQ01  00002PRCP06
0186825830999992003100612004-05167-040667FM-12+029999999V0200901N004612200019N0500001N1+02941+01821101171ADDAA106000091GF102991021011008001001001KA1240N+02241MA1999999097821MD1999999-0051REMSYN076AAXX  06124 82583 32599 20909 10294 20182 39782 40117 82100 333 20224 59005;EQDQ01  00002PRCP06
0186825830999992003100712004-05167-040667FM-12+029999999V0200901N004612200019N0500001N1+02931+01761101321ADDAA106000091GF101991011011008001001001KA1240N+02331MA1999999097981MD1999999+0161REMSYN076AAXX  07124 82583 32599 10909 10293 20176 39798 40132 81100 333 20233 58016;EQDQ01  00002PRCP06
0186825830999992003100812004-05167-040667FM-12+029999999V0200901N004612200019N0500001N1+02951+01711101201ADDAA106000091GF101991011011008001001001KA1240N+02391MA1999999097861MD1999999-0121REMSYN076AAXX  08124 82583 32599 10909 10295 20171 39786 40120 81100 333 20239 59012;EQDQ01  00002PRCP06
0208825830999992003100900004-05167-040667FM-12+029999999V0200901N001512200019N0040001N1+02911+01261100931ADDAA106000091GA1001+999999999GF100991001001999999001001KA1240M+03651MA1999999097601MD1999999+0031REMSYN082AAXX  09004 82583 32996 00903 10291 20126 39760 40093 333 10365 29037 55104 58003;EQDQ01  00002PRCP06
0186825830999992003100912004-05167-040667FM-12+029999999V0200901N005712200019N0500001N1+02941+01591101241ADDAA106000091GF102991021011008001001001KA1240N+02351MA1999999097901MD1999999+0041REMSYN076AAXX  09124 82583 32599 20911 10294 20159 39790 40124 82100 333 20235 58004;EQDQ01  00002PRCP06
0198825830999992003101000004-05167-040667FM-12+029999999V0200901N004112200019N0040001N1+02971+01351100921ADDAA106000091GF101991011011008001001001KA1240M+03601MA1999999097601MD1999999+0001REMSYN088AAXX  10004 82583 32596 10908 10297 20135 39760 40092 81100 333 10360 29036 55107 58000;EQDQ01  00002PRCP06
0186825830999992003101012004-05167-040667FM-12+029999999V0200901N004612200019N0500001N1+02771+02041101191ADDAA106000091GF103991031011008001001001KA1240N+02281MA1999999097851MD1999999-0051REMSYN076AAXX  10124 82583 32599 30909 10277 20204 39785 40119 83100 333 20228 59005;EQDQ01  00002PRCP06
0208825830999992003101100004-05167-040667FM-12+029999999V0200501N001012200019N0040001N1+02991+01371100931ADDAA106000091GA1001+999999999GF100991001001999999001001KA1240M+03661MA1999999097601MD1999999+0101REMSYN082AAXX  11004 82583 32996 00502 10299 20137 39760 40093 333 10366 29041 55078 58010;EQDQ01  00002PRCP06
0186825830999992003101112004-05167-040667FM-12+029999999V0200901N004612200019N0500001N1+02921+01921101191ADDAA106000091GF104991041011008001001001KA1240N+02351MA1999999097851MD1999999+0001REMSYN076AAXX  11124 82583 32599 40909 10292 20192 39785 40119 84100 333 20235 58000;EQDQ01  00002PRCP06
0224825830999992003101200004-05167-040667FM-12+029999999V0200901N046322200019N0040001N1+03001+01371100891ADDAA106000091GA1001+999999999GF100991001001999999001001KA1240M+03641MA1999999097571MD1999999+0071REMSYN082AAXX  12004 82583 32996 00990 10300 20137 39757 40089 333 10364 29038 55102 58007;EQDQ01+004633WOSPD Q02  00002PRCP06
0186825830999992003101212004-05167-040667FM-12+029999999V0200901N003612200019N0500001N1+02861+01951101141ADDAA106000091GF103991031011008001001001KA1240N+02261MA1999999097801MD1999999-0051REMSYN076AAXX  12124 82583 32599 30907 10286 20195 39780 40114 83100 333 20226 59005;EQDQ01  00002PRCP06
0208825830999992003101300004-05167-040667FM-12+029999999V0200901N001012200019N0040001N1+03031+01371100801ADDAA106000091GA1001+999999999GF100991001001999999001001KA1240M+03811MA1999999097481MD1999999-0071REMSYN082AAXX  13004 82583 32996 00902 10303 20137 39748 40080 333 10381 29038 55099 59007;EQDQ01  00002PRCP06
0186825830999992003101312004-05167-040667FM-12+029999999V0200901N003112200019N0500001N1+02931+01971101121ADDAA106000091GF105991041011008001001011KA1240N+02511MA1999999097791MD1999999-0011REMSYN076AAXX  13124 82583 32599 50906 10293 20197 39779 40112 84101 333 20251 59001;EQDQ01  00002PRCP06
0198825830999992003101400004-05167-040667FM-12+029999999V0200901N000512200019N0040001N1+03001+01571100871ADDAA106000091GF101991011011008001001001KA1240M+03711MA1999999097551MD1999999+0071REMSYN088AAXX  14004 82583 32596 10901 10300 20157 39755 40087 81100 333 10371 29042 55085 58007;EQDQ01  00002PRCP06
0186825830999992003101412004-05167-040667FM-12+029999999V0200901N002110120019N0500001N1+02781+02011101241ADDAA106000091GF107991071081008001001001KA1240N+02461MA1999999097901MD1999999+0111REMSYN076AAXX  14124 82583 32599 70904 10278 20201 39790 40124 87800 333 20246 58011;EQDQ01  00002PRCP06
0198825830999992003101500004-05167-040667FM-12+029999999V0203201N005112200019N0040001N1+02991+01751100961ADDAA106000091GF101991011081008001001001KA1240M+03581MA1999999097631MD1999999+0081REMSYN088AAXX  15004 82583 32596 13210 10299 20175 39763 40096 81800 333 10358 29047 55072 58008;EQDQ01  00002PRCP06
0186825830999992003101512004-05167-040667FM-12+029999999V0200901N003610075019N0500001N1+02911+02041101261ADDAA106000091GF106991061021008001001001KA1240N+02431MA1999999097921MD1999999+0021REMSYN076AAXX  15124 82583 32599 60907 10291 20204 39792 40126 86200 333 20243 58002;EQDQ01  00002PRCP06
0198825830999992003101600004-05167-040667FM-12+029999999V0200501N001512200019N0040001N1+03011+01551100971ADDAA106000091GF101991011011008001001001KA1240M+03511MA1999999097651MD1999999+0021REMSYN088AAXX  16004 82583 32596 10503 10301 20155 39765 40097 81100 333 10351 29044 55095 58002;EQDQ01  00002PRCP06
0208825830999992003101700004-05167-040667FM-12+029999999V0200901N003112200019N0040001N1+03011+01531100961ADDAA106000091GA1001+999999999GF100991001001999999001001KA1240M+03621MA1999999097631MD1999999+0021REMSYN082AAXX  17004 82583 32996 00906 10301 20153 39763 40096 333 10362 29041 55104 58002;EQDQ01  00002PRCP06
0186825830999992003101712004-05167-040667FM-12+029999999V0200901N008210075019N0500001N1+02781+01931101301ADDAA106000091GF107991071021008001001001KA1240N+02311MA1999999097951MD1999999-0071REMSYN076AAXX  17124 82583 32599 70916 10278 20193 39795 40130 87200 333 20231 59007;EQDQ01  00002PRCP06
0198825830999992003101800004-05167-040667FM-12+029999999V0200901N001012200019N0040001N1+02861+01441100981ADDAA106000091GF101991011011008001001001KA1240M+03481MA1999999097641MD1999999+0011REMSYN088AAXX  18004 82583 32596 10902 10286 20144 39764 40098 81100 333 10348 29044 55094 58001;EQDQ01  00002PRCP06
0186825830999992003101812004-05167-040667FM-12+029999999V0200901N004610075019N0500001N1+02791+02061101261ADDAA106000091GF106991061021008001001001KA1240N+02281MA1999999097911MD1999999-0041REMSYN076AAXX  18124 82583 32599 60909 10279 20206 39791 40126 86200 333 20228 59004;EQDQ01  00002PRCP06
0186825830999992003101912004-05167-040667FM-12+029999999V0200901N004110075019N0500001N1+02911+01981101331ADDAA106000091GF106991061021008001001001KA1240N+02901MA1999999097981MD1999999+0071REMSYN076AAXX  19124 82583 32599 60908 10291 20198 39798 40133 86200 333 20290 58007;EQDQ01  00002PRCP06
0208825830999992003102000004-05167-040667FM-12+029999999V0200901N002612200019N0040001N1+03021+02361100971ADDAA106000091GA1001+999999999GF100991001001999999001001KA1240M+03721MA1999999097651MD1999999-0071REMSYN082AAXX  20004 82583 32996 00905 10302 20236 39765 40097 333 10372 29055 55110 59007;EQDQ01  00002PRCP06
0186825830999992003102012004-05167-040667FM-12+029999999V0200901N005712200019N0500001N1+02881+01911101251ADDAA106000091GF104991041011008001001001KA1240N+02371MA1999999097911MD1999999-0071REMSYN076AAXX  20124 82583 32599 40911 10288 20191 39791 40125 84100 333 20237 59007;EQDQ01  00002PRCP06
0208825830999992003102100004-05167-040667FM-12+029999999V0200901N001512200019N0040001N1+03011+01511100921ADDAA106000091GA1001+999999999GF100991001001999999001001KA1240M+03611MA1999999097601MD1999999-0051REMSYN082AAXX  21004 82583 32996 00903 10301 20151 39760 40092 333 10361 29041 55090 59005;EQDQ01  00002PRCP06
0186825830999992003102112004-05167-040667FM-12+029999999V0200901N006210075019N0500001N1+02831+01881101211ADDAA106000091GF106991061021008001001001KA1240N+02461MA1999999097871MD1999999-0041REMSYN076AAXX  21124 82583 32599 60912 10283 20188 39787 40121 86200 333 20246 59004;EQDQ01  00002PRCP06
0198825830999992003102200004-05167-040667FM-12+029999999V0200901N002112200019N0040001N1+03001+01331100811ADDAA106000091GF101991011011008001001001KA1240M+03701MA1999999097481MD1999999-0121REMSYN088AAXX  22004 82583 32596 10904 10300 20133 39748 40081 81100 333 10370 29039 55082 59012;EQDQ01  00002PRCP06
0186825830999992003102212004-05167-040667FM-12+029999999V0200901N006712200019N0500001N1+02981+01731101231ADDAA106000091GF102991011011008001001011KA1240N+02431MA1999999097901MD1999999+0031REMSYN076AAXX  22124 82583 32599 20913 10298 20173 39790 40123 81101 333 20243 58003;EQDQ01  00002PRCP06
0198825830999992003102300004-05167-040667FM-12+029999999V0200901N002112200019N0040001N1+02991+01291100921ADDAA106000091GF102991021011008001001001KA1240M+03711MA1999999097601MD1999999+0121REMSYN088AAXX  23004 82583 32596 20904 10299 20129 39760 40092 82100 333 10371 29036 55092 58012;EQDQ01  00002PRCP06
0186825830999992003102312004-05167-040667FM-12+029999999V0200901N004610075019N0500001N1+02961+01961101251ADDAA106000091GF105991051011008001001001KA1240N+02441MA1999999097921MD1999999+0021REMSYN076AAXX  23124 82583 32599 50909 10296 20196 39792 40125 85100 333 20244 58002;EQDQ01  00002PRCP06
0198825830999992003102400004-05167-040667FM-12+029999999V0200901N002112200019N0040001N1+03011+01621101051ADDAA106000091GF101991011011008001001001KA1240M+03691MA1999999097731MD1999999+0131REMSYN088AAXX  24004 82583 32596 10904 10301 20162 39773 40105 81100 333 10369 29041 55091 58013;EQDQ01  00002PRCP06
0186825830999992003102412004-05167-040667FM-12+029999999V0200901N005712200019N0500001N1+02971+01921101301ADDAA106000091GF102991021011008001001001KA1240N+02351MA1999999097961MD1999999+0041REMSYN076AAXX  24124 82583 32599 20911 10297 20192 39796 40130 82100 333 20235 58004;EQDQ01  00002PRCP06
0198825830999992003102500004-05167-040667FM-12+029999999V0200901N002612200019N0040001N1+03041+01371101041ADDAA106000091GF101991011011008001001001KA1240M+03041MA1999999097721MD1999999-0011REMSYN088AAXX  25004 82583 32596 10905 10304 20137 39772 40104 81100 333 10304 29038 55105 59001;EQDQ01  00002PRCP06
0186825830999992003102512004-05167-040667FM-12+029999999V0200901N005710075019N0500001N1+03021+02021101201ADDAA106000091GF106991061011008001001001KA1240N+02471MA1999999097871MD1999999-0071REMSYN076AAXX  25124 82583 32599 60911 10302 20202 39787 40120 86100 333 20247 59007;EQDQ01  00002PRCP06
0208825830999992003102600004-05167-040667FM-12+029999999V0201401N001512200019N0040001N1+02981+01401100931ADDAA106000091GA1001+999999999GF100991001001999999001001KA1240M+03691MA1999999097611MD1999999-0111REMSYN082AAXX  26004 82583 32996 01403 10298 20140 39761 40093 333 10369 29069 55100 59011;EQDQ01  00002PRCP06
0186825830999992003102612004-05167-040667FM-12+029999999V0201401N003612200019N0500001N1+03001+01811101021ADDAA106000091GF104991041021008001001001KA1240N+02381MA1999999097701MD1999999-0171REMSYN076AAXX  26124 82583 32599 41407 10300 20181 39770 40102 84200 333 20238 59017;EQDQ01  00002PRCP06
0208825830999992003102700004-05167-040667FM-12+029999999V0200901N002112200019N0040001N1+03001+01221100671ADDAA106000091GA1001+999999999GF100991001001999999001001KA1240M+02981MA1999999097351MD1999999-0261REMSYN082AAXX  27004 82583 32996 00904 10300 20122 39735 40067 333 10298 29034 55107 59026;EQDQ01  00002PRCP06
0186825830999992003102712004-05167-040667FM-12+029999999V0200901N003112200019N0500001N1+02951+01871100921ADDAA106000091GF102991021011008001001001KA1240N+02331MA1999999097601MD1999999-0101REMSYN076AAXX  27124 82583 32599 20906 10295 20187 39760 40092 82100 333 20233 59010;EQDQ01  00002PRCP06
0208825830999992003102800004-05167-040667FM-12+029999999V0200901N001512200019N0040001N1+03021+01471100721ADDAA106000091GA1001+999999999GF100991001001999999001001KA1240M+03611MA1999999097401MD1999999+0051REMSYN082AAXX  28004 82583 32996 00903 10302 20147 39740 40072 333 10361 29040 55101 58005;EQDQ01  00002PRCP06
0186825830999992003102812004-05167-040667FM-12+029999999V0200901N006210075019N0500001N1+02791+01811101171ADDAA106000091GF106991061021008001001001KA1240N+02391MA1999999097831MD1999999+0231REMSYN076AAXX  28124 82583 32599 60912 10279 20181 39783 40117 86200 333 20239 58023;EQDQ01  00002PRCP06
0198825830999992003102900004-05167-040667FM-12+029999999V0200901N001512200019N0040001N1+02961+01531100911ADDAA106000091GF101991011011008001001001KA1240M+03571MA1999999097581MD1999999+0141REMSYN088AAXX  29004 82583 32596 10903 10296 20153 39758 40091 81100 333 10357 29043 55063 58014;EQDQ01  00002PRCP06
0186825830999992003102912004-05167-040667FM-12+029999999V0200901N005112200019N0500001N1+02961+01901101091ADDAA106000091GF103991031011008001001001KA1240N+02391MA1999999097751MD1999999-0081REMSYN076AAXX  29124 82583 32599 30910 10296 20190 39775 40109 83100 333 20239 59008;EQDQ01  00002PRCP06
0214825830999992003103000004-05167-040667FM-12+029999999V0200901N002112200019N0040001N1+03001+01411100831ADDAA106000091GF101991999011008001001001KA1240M+03671MA1999999097151MD1999999-0071REMSYN088AAXX  30004 82583 32596 10904 10300 20141 39715 40083 82100 333 10367 29039 55095 59007;EQDQ01+000022SCOTLCQ02  00002PRCP06
0186825830999992003103012004-05167-040667FM-12+029999999V0200901N004610075019N0500001N1+03041+01971101081ADDAA106000091GF105991051021008001001001KA1240N+02521MA1999999097751MD1999999+0001REMSYN076AAXX  30124 82583 32599 50909 10304 20197 39775 40108 85200 333 20252 58000;EQDQ01  00002PRCP06
0208825830999992003103100004-05167-040667FM-12+029999999V0201401N001512200019N0040001N1+03081+01561100811ADDAA106000091GA1001+999999999GF100991001001999999001001KA1240M+03741MA1999999097501MD1999999-0011REMSYN082AAXX  31004 82583 32996 01403 10308 20156 39750 40081 333 10374 29040 55109 59001;EQDQ01  00002PRCP06
0186825830999992003103112004-05167-040667FM-12+029999999V0200901N004610075019N0500001N1+02981+01951100981ADDAA106000091GF107991061021008001001011KA1240N+02501MA1999999097661MD1999999-0091REMSYN076AAXX  31124 82583 32599 70909 10298 20195 39766 40098 86201 333 20250 59009;EQDQ01  00002PRCP06
0198825830999992003110100004-05167-040667FM-12+029999999V0200901N002612200019N0040001N1+03171+01731100671ADDAA106000091GF102991021001017501031001KA1240M+03621MA1999999097371MD1999999-0131REMSYN088AAXX  01004 82583 32796 20905 10317 20173 39737 40067 82030 333 10362 29043 55088 59013;EQDQ01  00002PRCP06
0186825830999992003110112004-05167-040667FM-12+029999999V0200901N004610075019N0500001N1+02921+02091101021ADDAA106000091GF107991061021008001001011KA1240N+02511MA1999999097701MD1999999+0041REMSYN076AAXX  01124 82583 32599 70909 10292 20209 39770 40102 86201 333 20251 58004;EQDQ01  00002PRCP06
0198825830999992003110200004-05167-040667FM-12+029999999V0200501N001510120019N0040001N1+03021+01801100891ADDAA106000091GF106991061081008001001001KA1240M+03441MA1999999097571MD1999999+0201REMSYN088AAXX  02004 82583 32596 60503 10302 20180 39757 40089 86800 333 10344 29049 55027 58020;EQDQ01  00002PRCP06
0186825830999992003110212004-05167-040667FM-12+029999999V0200501N003610075019N0500001N1+02941+01621101041ADDAA106000091GF106991061011008001001001KA1240N+02401MA1999999097721MD1999999+0021REMSYN076AAXX  02124 82583 32599 60507 10294 20162 39772 40104 86100 333 20240 58002;EQDQ01  00002PRCP06
0208825830999992003110300004-05167-040667FM-12+029999999V0200901N001512200019N0040001N1+02871+01731100771ADDAA106000091GA1001+999999999GF100991001001999999001001KA1240M+03461MA1999999097441MD1999999-0131REMSYN082AAXX  03004 82583 32996 00903 10287 20173 39744 40077 333 10346 29046 55074 59013;EQDQ01  00002PRCP06
0186825830999992003110312004-05167-040667FM-12+029999999V0200901N004110075019N0500001N1+02691+01991101081ADDAA106000091GF108991081051008001999999KA1240N+02421MA1999999097731MD1999999+0011REMSYN076AAXX  03124 82583 32599 80908 10269 20199 39773 40108 885// 333 20242 58001;EQDQ01  00002PRCP06
0198825830999992003110400004-05167-040667FM-12+029999999V0203601N001512200019N0040001N1+03111+01351100771ADDAA106000091GF104991041051008001001001KA1240M+03711MA1999999097441MD1999999+0001REMSYN088AAXX  04004 82583 32596 43603 10311 20135 39744 40077 84500 333 10371 29040 55073 58000;EQDQ01  00002PRCP06
0186825830999992003110412004-05167-040667FM-12+029999999V0200901N002110075019N0500001N1+02701+01991101041ADDAA106000091GF108991071051008001021999KA1240N+02351MA1999999097701MD1999999-0031REMSYN076AAXX  04124 82583 32599 80904 10270 20199 39770 40104 8752/ 333 20235 59003;EQDQ01  00002PRCP06
0198825830999992003110500004-05167-040667FM-12+029999999V0203601N001010120019N0040001N1+03001+01751100981ADDAA106000091GF108991081081008001999999KA1240M+03581MA1999999097641MD1999999+0201REMSYN088AAXX  05004 82583 32596 83602 10300 20175 39764 40098 888// 333 10358 29048 55041 58020;EQDQ01  00002PRCP06
0186825830999992003110512004-05167-040667FM-12+029999999V0201401N003612200019N0500001N1+02971+01861101181ADDAA106000091GF102991011011008001001011KA1240N+02461MA1999999097851MD1999999+0151REMSYN076AAXX  05124 82583 32599 21407 10297 20186 39785 40118 81101 333 20246 58015;EQDQ01  00002PRCP06
0198825830999992003110600004-05167-040667FM-12+029999999V0201401N002110075019N0040001N1+03121+01391100851ADDAA106000091GF106991061021008001001001KA1240M+03601MA1999999097531MD1999999-0111REMSYN088AAXX  06004 82583 32596 61404 10312 20139 39753 40085 86200 333 10360 29038 55101 59011;EQDQ01  00002PRCP06
0186825830999992003110612004-05167-040667FM-12+029999999V0200901N003610075019N0500001N1+02941+01971101171ADDAA106000091GF106991061021008001001001KA1240N+02471MA1999999097851MD1999999+0001REMSYN076AAXX  06124 82583 32599 60907 10294 20197 39785 40117 86200 333 20247 58000;EQDQ01  00002PRCP06
0198825830999992003110700004-05167-040667FM-12+029999999V0203201N002112200019N0040001N1+02951+01841100911ADDAA106000091GF104991041081008001001001KA1240M+03601MA1999999097581MD1999999+0051REMSYN088AAXX  07004 82583 32596 43204 10295 20184 39758 40091 84800 333 10360 29047 55086 58005;EQDQ01  00002PRCP06
0186825830999992003110712004-05167-040667FM-12+029999999V0200901N003110075019N0500001N1+02851+01981100961ADDAA106000091GF107991071021008001001001KA1240N+02491MA1999999097631MD1999999-0221REMSYN076AAXX  07124 82583 32599 70906 10285 20198 39763 40096 87200 333 20249 59022;EQDQ01  00002PRCP06
0202825830999992003110800004-05167-040667FM-12+029999999V0200901N001010120019N0040001N1+03011+01961100701ADDAY121061AY221061GF108991081081008001999999KA1240M+03631MA1999999097381MD1999999-0201MW1201REMSYN100AAXX  08004 82583 21596 80902 10301 20196 39738 40070 72022 888// 333 10363 29050 55063 59020 69911;
0162825830999992003110812004-05167-040667FM-12+029999999V0201401N004110120019N0500001N1+02911+01821101191ADDGF107991071081008001001001KA1240N+02401MA1999999097851MD1999999+0221REMSYN082AAXX  08124 82583 22599 71408 10291 20182 39785 40119 87800 333 20240 58022 69914;
0186825830999992003110912004-05167-040667FM-12+029999999V0200901N005112200019N0500001N1+02991+01841101151ADDAA106000091GF104991041021008001001001KA1240N+02281MA1999999097811MD1999999-0051REMSYN076AAXX  09124 82583 32599 40910 10299 20184 39781 40115 84200 333 20228 59005;EQDQ01  00002PRCP06
0214825830999992003111000004-05167-040667FM-12+029999999V0200901N002112200019N0040001N1+02941+01321100841ADDAA106000091GF103991001001999999001021KA1240M+03691MA1999999097521MD1999999-0051REMSYN088AAXX  10004 82583 32896 30904 10294 20132 39752 40084 80002 333 10369 29037 55109 59005;EQDQ01+022502SCOLCBQ02  00002PRCP06
0186825830999992003111012004-05167-040667FM-12+029999999V0200901N005112200019N0500001N1+02911+01741101111ADDAA106000091GF102991011011008001001021KA1240N+02371MA1999999097771MD1999999-0041REMSYN076AAXX  10124 82583 32599 20910 10291 20174 39777 40111 81102 333 20237 59004;EQDQ01  00002PRCP06
0198825830999992003111100004-05167-040667FM-12+029999999V0200901N000512200019N0040001N1+02971+01351100751ADDAA106000091GF102991011011008001001011KA1240M+03681MA1999999097431MD1999999-0091REMSYN088AAXX  11004 82583 32596 20901 10297 20135 39743 40075 81101 333 10368 29037 55086 59009;EQDQ01  00002PRCP06
0186825830999992003111112004-05167-040667FM-12+029999999V0201401N003612200019N0500001N1+02961+01901101021ADDAA106000091GF104991021021008001001011KA1240N+02411MA1999999097691MD1999999-0081REMSYN076AAXX  11124 82583 32599 41407 10296 20190 39769 40102 82201 333 20241 59008;EQDQ01  00002PRCP06
0198825830999992003111200004-05167-040667FM-12+029999999V0200901N001510075019N0040001N1+03171+01571100071ADDAA106000091GF106991061021008001001001KA1240M+03671MA1999999097431MD1999999+0001REMSYN088AAXX  12004 82583 32596 60903 10317 20157 39743 40007 86200 333 10367 29040 55105 58000;EQDQ01  00002PRCP06
0186825830999992003111212004-05167-040667FM-12+029999999V0200901N005110075019N0500001N1+02921+01861101111ADDAA106000091GF105991051021008001001001KA1240N+02511MA1999999097791MD1999999+0101REMSYN076AAXX  12124 82583 32599 50910 10292 20186 39779 40111 85200 333 20251 58010;EQDQ01  00002PRCP06
0198825830999992003111300004-05167-040667FM-12+029999999V0200901N002112200019N0040001N1+03021+01591100921ADDAA106000091GF101991011011008001001001KA1240M+03591MA1999999097601MD1999999+0171REMSYN088AAXX  13004 82583 32596 10904 10302 20159 39760 40092 81100 333 10359 29043 55098 58017;EQDQ01  00002PRCP06
0186825830999992003111312004-05167-040667FM-12+029999999V0200901N004612200019N0500001N1+03071+01881101191ADDAA106000091GF102991021011008001001001KA1240N+02401MA1999999097871MD1999999+0081REMSYN076AAXX  13124 82583 32599 20909 10307 20188 39787 40119 82100 333 20240 58008;EQDQ01  00002PRCP06
0198825830999992003111400004-05167-040667FM-12+029999999V0200901N005112200019N0040001N1+03051+01931100981ADDAA106000091GF101991011011008001001001KA1240M+03651MA1999999097661MD1999999+0061REMSYN088AAXX  14004 82583 32596 10910 10305 20193 39766 40098 81100 333 10365 29046 55102 58006;EQDQ01  00002PRCP06
0186825830999992003111412004-05167-040667FM-12+029999999V0200901N004612200019N0500001N1+02971+01951101171ADDAA106000091GF102991021011008001001001KA1240N+02421MA1999999097841MD1999999-0031REMSYN076AAXX  14124 82583 32599 20909 10297 20195 39784 40117 82100 333 20242 59003;EQDQ01  00002PRCP06
0208825830999992003111500004-05167-040667FM-12+029999999V0201401N001512200019N0040001N1+02971+01231100891ADDAA106000091GA1001+999999999GF100991001001999999001001KA1240M+03681MA1999999097571MD1999999-0091REMSYN082AAXX  15004 82583 32996 01403 10297 20123 39757 40089 333 10368 29036 55111 59009;EQDQ01  00002PRCP06
0186825830999992003111512004-05167-040667FM-12+029999999V0200901N005110075019N0500001N1+02981+01981101101ADDAA106000091GF105991051011008001001001KA1240N+02321MA1999999097771MD1999999-0071REMSYN076AAXX  15124 82583 32599 50910 10298 20198 39777 40110 85100 333 20232 59007;EQDQ01  00002PRCP06
0186825830999992003111612004-05167-040667FM-12+029999999V0200901N005112200019N0500001N1+02961+01931101111ADDAA106000091GF104991041021008001001001KA1240N+02461MA1999999097781MD1999999+0011REMSYN076AAXX  16124 82583 32599 40910 10296 20193 39778 40111 84200 333 20246 58001;EQDQ01  00002PRCP06
0208825830999992003111700004-05167-040667FM-12+029999999V0200901N001012200019N0040001N1+03121+01511100741ADDAA106000091GA1001+999999999GF100991001001999999001001KA1240M+03731MA1999999097431MD1999999-0171REMSYN082AAXX  17004 82583 32996 00902 10312 20151 39743 40074 333 10373 29040 55105 59017;EQDQ01  00002PRCP06
0186825830999992003111712004-05167-040667FM-12+029999999V0200901N006710075019N0500001N1+02991+01971101051ADDAA106000091GF106991061011008001001001KA1240N+02491MA1999999097731MD1999999-0051REMSYN076AAXX  17124 82583 32599 60913 10299 20197 39773 40105 86100 333 20249 59005;EQDQ01  00002PRCP06
0198825830999992003111800004-05167-040667FM-12+029999999V0200901N001012200019N0040001N1+03021+01431100731ADDAA106000091GF101991011011008001001001KA1240M+03721MA1999999097411MD1999999-0021REMSYN088AAXX  18004 82583 32596 10902 10302 20143 39741 40073 81100 333 10372 29040 55094 59002;EQDQ01  00002PRCP06
0186825830999992003111812004-05167-040667FM-12+029999999V0201401N004610075019N0500001N1+02981+01981101041ADDAA106000091GF106991061021008001001001KA1240N+02451MA1999999097721MD1999999-0011REMSYN076AAXX  18124 82583 32599 61409 10298 20198 39772 40104 86200 333 20245 59001;EQDQ01  00002PRCP06
0198825830999992003111900004-05167-040667FM-12+029999999V0200901N001012200019N0040001N1+03091+01501100641ADDAA106000091GF101991011011008001001001KA1240M+03711MA1999999097341MD1999999-0031REMSYN088AAXX  19004 82583 32596 10902 10309 20150 39734 40064 81100 333 10371 29040 55113 59003;EQDQ01  00002PRCP06
0186825830999992003111912004-05167-040667FM-12+029999999V0201401N006210075019N0500001N1+02831+01821101021ADDAA106000091GF107991071051008001001001KA1240N+02561MA1999999097691MD1999999-0031REMSYN076AAXX  19124 82583 32599 71412 10283 20182 39769 40102 87500 333 20256 59003;EQDQ01  00002PRCP06
0198825830999992003112000004-05167-040667FM-12+029999999V0200901N001512200019N0040001N1+03051+01381100681ADDAA106000091GF101991011011008001001001KA1240M+03681MA1999999097361MD1999999+0021REMSYN088AAXX  20004 82583 32596 10903 10305 20138 39736 40068 81100 333 10368 29038 55070 58002;EQDQ01  00002PRCP06
0186825830999992003112012004-05167-040667FM-12+029999999V0200901N004612200019N0500001N1+03021+01801101081ADDAA106000091GF105991041021008001001011KA1240N+02411MA1999999097761MD1999999+0071REMSYN076AAXX  20124 82583 32599 50909 10302 20180 39776 40108 84201 333 20241 58007;EQDQ01  00002PRCP06
0208825830999992003112100004-05167-040667FM-12+029999999V0200901N001512200019N0040001N1+03001+01331100851ADDAA106000091GA1001+999999999GF100991001001999999001001KA1240M+03641MA1999999097531MD1999999+0171REMSYN082AAXX  21004 82583 32996 00903 10300 20133 39753 40085 333 10364 29037 55099 58017;EQDQ01  00002PRCP06
0186825830999992003112112004-05167-040667FM-12+029999999V0200901N006210075019N0500001N1+03011+01961101121ADDAA106000091GF106991061021008001001001KA1240N+02421MA1999999097791MD1999999+0031REMSYN076AAXX  21124 82583 32599 60912 10301 20196 39779 40112 86200 333 20242 58003;EQDQ01  00002PRCP06
0198825830999992003112200004-05167-040667FM-12+029999999V0200901N001512200019N0040001N1+03051+01581100731ADDAA106000091GF101991011011008001001001KA1240M+03611MA1999999097421MD1999999-0111REMSYN088AAXX  22004 82583 32596 10903 10305 20158 39742 40073 81100 333 10361 29042 55096 59011;EQDQ01  00002PRCP06
0186825830999992003112212004-05167-040667FM-12+029999999V0200901N005110075019N0500001N1+02891+01931101021ADDAA106000091GF106991061021008001001001KA1240N+02531MA1999999097691MD1999999-0101REMSYN076AAXX  22124 82583 32599 60910 10289 20193 39769 40102 86200 333 20253 59010;EQDQ01  00002PRCP06
0208825830999992003112300004-05167-040667FM-12+029999999V0200501N001512200019N0040001N1+03101+01621100731ADDAA106000091GA1001+999999999GF100991001001999999001001KA1240M+03701MA1999999097411MD1999999-0011REMSYN082AAXX  23004 82583 32996 00503 10310 20162 39741 40073 333 10370 29041 55082 59001;EQDQ01  00002PRCP06
0208825830999992003112400004-05167-040667FM-12+029999999V0200901N001512200019N0040001N1+03111+01641100731ADDAA106000091GA1001+999999999GF100991001001999999001001KA1240M+03641MA1999999097411MD1999999+0001REMSYN082AAXX  24004 82583 32996 00903 10311 20164 39741 40073 333 10364 29044 55083 58000;EQDQ01  00002PRCP06
0186825830999992003112412004-05167-040667FM-12+029999999V0200501N003112200019N0500001N1+02911+01981101021ADDAA106000091GF106991041011008001001011KA1240N+02391MA1999999097701MD1999999-0071REMSYN076AAXX  24124 82583 32599 60506 10291 20198 39770 40102 84101 333 20239 59007;EQDQ01  00002PRCP06
0198825830999992003112500004-05167-040667FM-12+029999999V0200901N001012200019N0040001N1+03001+01491100691ADDAA106000091GF101991011011008001001001KA1240M+03581MA1999999097371MD1999999-0041REMSYN088AAXX  25004 82583 32596 10902 10300 20149 39737 40069 81100 333 10358 29043 55075 59004;EQDQ01  00002PRCP06
0186825830999992003112512004-05167-040667FM-12+029999999V0200901N004612200019N0500001N1+03061+01701101121ADDAA106000091GF102991011011008001001011KA1240N+02401MA1999999097801MD1999999+0101REMSYN076AAXX  25124 82583 32599 20909 10306 20170 39780 40112 81101 333 20240 58010;EQDQ01  00002PRCP06
0208825830999992003112600004-05167-040667FM-12+029999999V0200901N002612200019N0040001N1+03051+01421100921ADDAA106000091GA1001+999999999GF100991001001999999001001KA1240M+03691MA1999999097601MD1999999+0231REMSYN082AAXX  26004 82583 32996 00905 10305 20142 39760 40092 333 10369 29036 55110 58023;EQDQ01  00002PRCP06
0186825830999992003112612004-05167-040667FM-12+029999999V0200901N004610075019N0500001N1+02871+01861101211ADDAA106000091GF107991071021008001001001KA1240N+02501MA1999999097871MD1999999+0071REMSYN076AAXX  26124 82583 32599 70909 10287 20186 39787 40121 87200 333 20250 58007;EQDQ01  00002PRCP06
0186825830999992003112712004-05167-040667FM-12+029999999V0200901N006712200019N0500001N1+02991+01681101061ADDAA106000091GF101991011011008001001001KA1240N+02471MA1999999097741MD1999999-0131REMSYN076AAXX  27124 82583 32599 10913 10299 20168 39774 40106 81100 333 20247 59013;EQDQ01  00002PRCP06
0208825830999992003112800004-05167-040667FM-12+029999999V0200501N002112200019N0040001N1+03011+01301100721ADDAA106000091GA1001+999999999GF100991001001999999001001KA1240M+03631MA1999999097401MD1999999-0171REMSYN082AAXX  28004 82583 32996 00504 10301 20130 39740 40072 333 10363 29036 55100 59017;EQDQ01  00002PRCP06
0186825830999992003112812004-05167-040667FM-12+029999999V0200901N005712200019N0500001N1+02991+01841100961ADDAA106000091GF102991021011008001001001KA1240N+02301MA1999999097641MD1999999-0101REMSYN076AAXX  28124 82583 32599 20911 10299 20184 39764 40096 82100 333 20230 59010;EQDQ01  00002PRCP06
0208825830999992003112900004-05167-040667FM-12+029999999V0200901N002612200019N0040001N1+03031+01531100571ADDAA106000091GA1001+999999999GF100991001001999999001001KA1240M+03641MA1999999097261MD1999999-0141REMSYN082AAXX  29004 82583 32996 00905 10303 20153 39726 40057 333 10364 29040 55108 59014;EQDQ01  00002PRCP06
0186825830999992003112912004-05167-040667FM-12+029999999V0200901N003110075019N0500001N1+02811+01971100931ADDAA106000091GF107991071021008001001001KA1240N+02381MA1999999097601MD1999999-0041REMSYN076AAXX  29124 82583 32599 70906 10281 20197 39760 40093 87200 333 20238 59004;EQDQ01  00002PRCP06
0208825830999992003113000004-05167-040667FM-12+029999999V0200501N001012200019N0040001N1+03111+01481100641ADDAA106000091GA1001+999999999GF100991001001999999001001KA1240M+03561MA1999999097331MD1999999+0071REMSYN082AAXX  30004 82583 32996 00502 10311 20148 39733 40064 333 10356 29042 55073 58007;EQDQ01  00002PRCP06
0186825830999992003113012004-05167-040667FM-12+029999999V0200901N003612200019N0500001N1+02921+01801101031ADDAA106000091GF103991031021008001001001KA1240N+02381MA1999999097701MD1999999+0101REMSYN076AAXX  30124 82583 32599 30907 10292 20180 39770 40103 83200 333 20238 58010;EQDQ01  00002PRCP06
0208825830999992003120100004-05167-040667FM-12+029999999V0200901N002112200019N0040001N1+03021+01551100711ADDAA106000091GA1001+999999999GF100991001001999999001001KA1240M+03621MA1999999097351MD1999999-0061REMSYN082AAXX  01004 82583 32996 00904 10302 20155 39735 40071 333 10362 29042 55105 59006;EQDQ01  00002PRCP06
