0208825860999992003010100004-05200-039300FM-12+021199999V0200501N005712200019N0010001N1+02881+01771100931ADDAA106000091GA1001+999999999GF100991001001999999001001KA1240M+03611MA1999999098581MD1999999+0011REMSYN082AAXX  01004 82586 32994 00511 10288 20177 39858 40093 333 10361 29049 55112 58001;EQDQ01  00002PRCP06
0186825860999992003010112004-05200-039300FM-12+021199999V0203601N005110075019N0200001N1+02921+02171101051ADDAA106000091GF106991061021008001001001KA1240N+02501MA1999999098701MD1999999-0061REMSYN076AAXX  01124 82586 32598 63610 10292 20217 39870 40105 86200 333 20250 59006;EQDQ01  00002PRCP06
0167825860999992003010118004-05200-039300FM-12+021199999V0200501N003112200019N0200001N1+03601+01571100801ADDAA106000091GF104991041021008001001001MA1999999098461MD1999999-0071REMSYN070AAXX  01184 82586 32598 40506 10360 20157 39846 40080 84200 333 59007;EQDQ01  00002PRCP06
0208825860999992003010200004-05200-039300FM-12+021199999V02099999999992200019N0010001N1+02841+01881100931ADDAA106000091GA1001+999999999GF100991001001999999001001KA1240M+03661MA1999999098521MD1999999-0011REMSYN082AAXX  02004 82586 32994 036// 10284 20188 39852 40093 333 10366 29052 55102 59001;EQDQ01  00002PRCP06
0186825860999992003010212004-05200-039300FM-12+021199999V0200501N004110075019N0200001N1+02841+02091101081ADDAA106000091GF106991061021008001001001KA1240N+02481MA1999999098721MD1999999+0021REMSYN076AAXX  02124 82586 32598 60508 10284 20209 39872 40108 86200 333 20248 58002;EQDQ01  00002PRCP06
0183825860999992003010218004-05200-039300FM-12+021199999V0200901N005119999999N0200001N1+03601+01521100731ADDAA106000091GF107991999021008001001001MA1999999098391MD1999999-0071REMSYN070AAXX  02184 82586 32598 70910 10360 20152 39839 40073 84200 333 59007;EQDQ01+000042SCOTLCQ02  00002PRCP06
0208825860999992003010300004-05200-039300FM-12+021199999V0203601N005112200019N0010001N1+02721+01931100871ADDAA106000091GA1001+999999999GF100991001001999999001001KA1240M+03701MA1999999098521MD1999999-0051REMSYN082AAXX  03004 82586 32994 03610 10272 20193 39852 40087 333 10370 29054 55106 59005;EQDQ01  00002PRCP06
0186825860999992003010312004-05200-039300FM-12+021199999V0200501N005710075019N0200001N1+02801+02061101031ADDAA106000091GF106991061021008001001001KA1240N+02421MA1999999098671MD1999999-0051REMSYN076AAXX  03124 82586 32598 60511 10280 20206 39867 40103 86200 333 20242 59005;EQDQ01  00002PRCP06
0167825860999992003010318004-05200-039300FM-12+021199999V0200901N003112200019N0200001N1+03581+01391100741ADDAA106000091GF102991021011008001001001MA1999999098401MD1999999+0011REMSYN070AAXX  03184 82586 32598 20906 10358 20139 39840 40074 82100 333 58001;EQDQ01  00002PRCP06
0208825860999992003010400004-05200-039300FM-12+021199999V02099999999992200019N0010001N1+02861+01751100851ADDAA106000091GA1001+999999999GF100991001001999999001001KA1240M+03661MA1999999098491MD1999999-0031REMSYN082AAXX  04004 82586 32994 005// 10286 20175 39849 40085 333 10366 29048 55098 59003;EQDQ01  00002PRCP06
0186825860999992003010412004-05200-039300FM-12+021199999V02099999999990075019N0200001N1+02961+01961101051ADDAA106000091GF106991061011008001001001KA1240N+02401MA1999999098701MD1999999+0031REMSYN076AAXX  04124 82586 32598 605// 10296 20196 39870 40105 86100 333 20240 58003;EQDQ01  00002PRCP06
0167825860999992003010418004-05200-039300FM-12+021199999V0200901N004612200019N0200001N1+03641+01321100761ADDAA106000091GF101991011011008001001001MA1999999098421MD1999999+0021REMSYN070AAXX  04184 82586 32598 10909 10364 20132 39842 40076 81100 333 58002;EQDQ01  00002PRCP06
0208825860999992003010500004-05200-039300FM-12+021199999V0203601N005112200019N0010001N1+02901+01621100881ADDAA106000091GA1001+999999999GF100991001001999999001001KA1240M+03711MA1999999098571MD1999999+0051REMSYN082AAXX  05004 82586 32994 03610 10290 20162 39857 40088 333 10371 29043 55106 58005;EQDQ01  00002PRCP06
0186825860999992003010512004-05200-039300FM-12+021199999V02099999999992200019N0200001N1+03001+02191100971ADDAA106000091GF104991041021008001001001KA1240N+02581MA1999999098631MD1999999-0071REMSYN076AAXX  05124 82586 32598 409// 10300 20219 39863 40097 84200 333 20258 59007;EQDQ01  00002PRCP06
0167825860999992003010518004-05200-039300FM-12+021199999V0201401N004112200019N0200001N1+03611+01521100701ADDAA106000091GF103991031011008001001001MA1999999098371MD1999999-0081REMSYN070AAXX  05184 82586 32598 31408 10361 20152 39837 40070 83100 333 59008;EQDQ01  00002PRCP06
0208825860999992003010600004-05200-039300FM-12+021199999V0200501N005112200019N0010001N1+02871+02311100871ADDAA106000091GA1001+999999999GF100991001001999999001001KA1240M+03731MA1999999098531MD1999999-0011REMSYN082AAXX  06004 82586 32994 00510 10287 20231 39853 40087 333 10373 29059 55111 59001;EQDQ01  00002PRCP06
0186825860999992003010612004-05200-039300FM-12+021199999V0200501N003110075019N0200001N1+02861+02251101031ADDAA106000091GF106991061041008001001001KA1240N+02521MA1999999098671MD1999999+0041REMSYN076AAXX  06124 82586 32598 60506 10286 20225 39867 40103 86400 333 20252 58004;EQDQ01  00002PRCP06
0167825860999992003010618004-05200-039300FM-12+021199999V0200901N003112200019N0200001N1+03641+01601100721ADDAA106000091GF104991041011008001001001MA1999999098381MD1999999+0011REMSYN070AAXX  06184 82586 32598 40906 10364 20160 39838 40072 84100 333 58001;EQDQ01  00002PRCP06
0208825860999992003010700004-05200-039300FM-12+021199999V0203601N004112200019N0010001N1+02851+02041100911ADDAA106000091GA1001+999999999GF100991001001999999001001KA1240M+03741MA1999999098551MD1999999+0021REMSYN082AAXX  07004 82586 32994 03608 10285 20204 39855 40091 333 10374 29056 55102 58002;EQDQ01  00002PRCP06
0186825860999992003010712004-05200-039300FM-12+021199999V0203601N003112200019N0200001N1+02941+02241101121ADDAA106000091GF104991041021008001001001KA1240N+02541MA1999999098771MD1999999+0101REMSYN076AAXX  07124 82586 32598 43606 10294 20224 39877 40112 84200 333 20254 58010;EQDQ01  00002PRCP06
0167825860999992003010718004-05200-039300FM-12+021199999V02099999999992200019N0200001N1+03641+01651100801ADDAA106000091GF103991031011008001001001MA1999999098461MD1999999+0081REMSYN070AAXX  07184 82586 32598 336// 10364 20165 39846 40080 83100 333 58008;EQDQ01  00002PRCP06
0208825860999992003010800004-05200-039300FM-12+021199999V02099999999992200019N0010001N1+02841+02041100931ADDAA106000091GA1001+999999999GF100991001001999999001001KA1240M+03761MA1999999098581MD1999999+0031REMSYN082AAXX  08004 82586 32994 036// 10284 20204 39858 40093 333 10376 29055 55102 58003;EQDQ01  00002PRCP06
0167825860999992003010818004-05200-039300FM-12+021199999V0200501N003110075019N0200001N1+03581+01881100811ADDAA106000091GF105991051021008001001001MA1999999098471MD1999999+0011REMSYN070AAXX  08184 82586 32598 50506 10358 20188 39847 40081 85200 333 58001;EQDQ01  00002PRCP06
0208825860999992003010900004-05200-039300FM-12+021199999V0203601N005112200019N0010001N1+02851+02131100961ADDAA106000091GA1001+999999999GF100991001001999999001001KA1240M+03701MA1999999098611MD1999999+0031REMSYN082AAXX  09004 82586 32994 03610 10285 20213 39861 40096 333 10370 29051 55085 58003;EQDQ01  00002PRCP06
0190825860999992003010912004-05200-039300FM-12+021199999V0200901N002610075019N0200001N1+02901+02571101181ADDAY161061AY221061GF108991081071008001999999KA1240N+02501MA1999999098811MD1999999+0061MW1511REMSYN088AAXX  09124 82586 21598 80905 10290 20257 39881 40118 75162 887// 333 20250 58006 60014;
0148825860999992003010918004-05200-039300FM-12+021199999V0200901N003112200019N0200001N1+03481+01841100921ADDAA106000021GF103991031021008001001001MA1999999098581MD1999999+0111REMSYN070AAXX  09184 82586 32598 30906 10348 20184 39858 40092 83200 333 58011;
0208825860999992003011000004-05200-039300FM-12+021199999V0203601N005112200019N0010001N1+02811+02131101051ADDAA106000091GA1001+999999999GF100991001001999999001001KA1240M+03561MA1999999098691MD1999999+0081REMSYN082AAXX  10004 82586 32994 03610 10281 20213 39869 40105 333 10356 29067 55076 58008;EQDQ01  00002PRCP06
0186825860999992003011012004-05200-039300FM-12+021199999V0200501N003110075019N0200001N1+02741+02241101171ADDAA106000091GF106991061041008001001001KA1240N+02481MA1999999098811MD1999999+0001REMSYN076AAXX  10124 82586 32598 60506 10274 20224 39881 40117 86400 333 20248 58000;EQDQ01  00002PRCP06
0208825860999992003011100004-05200-039300FM-12+021199999V0203601N003112200019N0010001N1+02781+01981100971ADDAA106000091GA1001+999999999GF100991001001999999001001KA1240M+03611MA1999999098641MD1999999-0081REMSYN082AAXX  11004 82586 32994 03606 10278 20198 39864 40097 333 10361 29058 55095 59008;EQDQ01  00002PRCP06
0186825860999992003011112004-05200-039300FM-12+021199999V02099999999990075019N0200001N1+02941+02001101131ADDAA106000091GF105991051021008001001001KA1240N+02441MA1999999098771MD1999999-0041REMSYN076AAXX  11124 82586 32598 505// 10294 20200 39877 40113 85200 333 20244 59004;EQDQ01  00002PRCP06
0167825860999992003011118004-05200-039300FM-12+021199999V02099999999992200019N0200001N1+03581+01441100831ADDAA106000091GF104991041021008001001001MA1999999098591MD1999999-0021REMSYN070AAXX  11184 82586 32598 414// 10358 20144 39859 40083 84200 333 59002;EQDQ01  00002PRCP06
0198825860999992003011200004-05200-039300FM-12+021199999V02099999999990120019N0010001N1+03001+01571100921ADDAA106000091GF106991061021012501001001KA1240M+03711MA1999999098581MD1999999-0031REMSYN088AAXX  12004 82586 32694 636// 10300 20157 39858 40092 86200 333 10371 29042 55099 59003;EQDQ01  00002PRCP06
0186825860999992003011212004-05200-039300FM-12+021199999V02099999999990075019N0200001N1+02881+02181101041ADDAA106000091GF106991061021008001001001KA1240N+02501MA1999999098701MD1999999-0071REMSYN076AAXX  12124 82586 32598 614// 10288 20218 39870 40104 86200 333 20250 59007;EQDQ01  00002PRCP06
0183825860999992003011218004-05200-039300FM-12+021199999V02099999999999999999N0200001N1+03631+01591100741ADDAA106000091GF108991999021008001001001MA1999999098401MD1999999-0091REMSYN070AAXX  12184 82586 32598 836// 10363 20159 39840 40074 84200 333 59009;EQDQ01+000042SCOTLCQ02  00002PRCP06
0208825860999992003011400004-05200-039300FM-12+021199999V02099999999992200019N0010001N1+02841+01761100861ADDAA106000091GA1001+999999999GF100991001001999999001001KA1240M+03621MA1999999098521MD1999999+0051REMSYN082AAXX  14004 82586 32994 036// 10284 20176 39852 40086 333 10362 29050 55103 58005;EQDQ01  00002PRCP06
0186825860999992003011412004-05200-039300FM-12+021199999V02099999999990075019N0200001N1+02841+01961101111ADDAA106000091GF106991061041008001001001KA1240N+02421MA1999999098751MD1999999+0051REMSYN076AAXX  14124 82586 32598 636// 10284 20196 39875 40111 86400 333 20242 58005;EQDQ01  00002PRCP06
0167825860999992003011418004-05200-039300FM-12+021199999V02099999999990075019N0200001N1+03421+01701100831ADDAA106000091GF105991051021008001001001MA1999999098491MD1999999+0071REMSYN070AAXX  14184 82586 32598 505// 10342 20170 39849 40083 85200 333 58007;EQDQ01  00002PRCP06
0208825860999992003011500004-05200-039300FM-12+021199999V02099999999992200019N0010001N1+02781+01821101051ADDAA106000091GA1001+999999999GF100991001001999999001001KA1240M+03601MA1999999098691MD1999999+0171REMSYN082AAXX  15004 82586 32994 005// 10278 20182 39869 40105 333 10360 29052 55099 58017;EQDQ01  00002PRCP06
0186825860999992003011512004-05200-039300FM-12+021199999V02099999999990075019N0200001N1+02901+01871101131ADDAA106000091GF106991061011008001001001KA1240N+02321MA1999999098771MD1999999+0021REMSYN076AAXX  15124 82586 32598 609// 10290 20187 39877 40113 86100 333 20232 58002;EQDQ01  00002PRCP06
0184825860999992003011518004-05200-039300FM-12+021199999V02099999999992200019N0200001N1+03641+01061100601ADDAA106000091GF102991999011008001001001MD1999999-0031REMSYN070AAXX  15184 82586 32598 209// 10364 20106 30146 40060 80100 333 59003;EQDQ01+000002SCOTLCQ02+101463APOSP Q03  00002PRCP06
0208825860999992003011600004-05200-039300FM-12+021199999V02099999999992200019N0010001N1+02881+01801101001ADDAA106000091GA1001+999999999GF100991001001999999001001KA1240M+03721MA1999999098651MD1999999-0041REMSYN082AAXX  16004 82586 32994 036// 10288 20180 39865 40100 333 10372 29045 55112 59004;EQDQ01  00002PRCP06
0186825860999992003011612004-05200-039300FM-12+021199999V02099999999990075019N0200001N1+02941+02001101181ADDAA106000091GF106991061041008001001001KA1240N+02381MA1999999098831MD1999999+0061REMSYN076AAXX  16124 82586 32598 605// 10294 20200 39883 40118 86400 333 20238 58006;EQDQ01  00002PRCP06
0167825860999992003011618004-05200-039300FM-12+021199999V02099999999992200019N0200001N1+03621+01421100821ADDAA106000091GF103991031011008001001001MA1999999098481MD1999999+0021REMSYN070AAXX  16184 82586 32598 305// 10362 20142 39848 40082 83100 333 58002;EQDQ01  00002PRCP06
0208825860999992003011700004-05200-039300FM-12+021199999V02099999999992200019N0010001N1+02861+01921100961ADDAA106000091GA1001+999999999GF100991001001999999001001KA1240M+03711MA1999999098521MD1999999-0041REMSYN082AAXX  17004 82586 32594 036// 10286 20192 39852 40096 333 10371 29050 55111 59004;EQDQ01  00002PRCP06
0186825860999992003011712004-05200-039300FM-12+021199999V0203601N003110075019N0200001N1+02821+02101101151ADDAA106000091GF106991061041008001001001KA1240N+02461MA1999999098791MD1999999-0041REMSYN076AAXX  17124 82586 32598 63606 10282 20210 39879 40115 86400 333 20246 59004;EQDQ01  00002PRCP06
0167825860999992003011718004-05200-039300FM-12+021199999V02099999999990075019N0200001N1+03531+01601100801ADDAA106000091GF106991061021008001001001MA1999999098461MD1999999-0021REMSYN070AAXX  17184 82586 32598 605// 10353 20160 39846 40080 86200 333 59002;EQDQ01  00002PRCP06
0198825860999992003011800004-05200-039300FM-12+021199999V0203601N005112200019N0010001N1+02891+01941100961ADDAA106000091GF104991001001999999001041KA1240M+03611MA1999999098601MD1999999-0011REMSYN088AAXX  18004 82586 32994 43610 10289 20194 39860 40096 80004 333 10361 29053 55085 59001;EQDQ01  00002PRCP06
0202825860999992003011812004-05200-039300FM-12+021199999V02099999999999999999N0200001N1+02701+02431101071ADDAA106000091GF108991999011008001001001KA1240N+02461MA1999999098711MD1999999-0081REMSYN076AAXX  18124 82586 32598 805// 10270 20243 39871 40107 82100 333 20246 59008;EQDQ01+000022SCOTLCQ02  00002PRCP06
0167825860999992003011818004-05200-039300FM-12+021199999V0200901N005110075019N0200001N1+03501+01861100791ADDAA106000091GF106991061041008001001001MA1999999098481MD1999999-0011REMSYN070AAXX  18184 82586 32598 60910 10350 20186 39848 40079 86400 333 59001;EQDQ01  00002PRCP06
0202825860999992003011900004-05200-039300FM-12+021199999V0203601N001510075019N0010001N1+02761+02321100931ADDAY191061AY261061GF106991061031008001001001KA1240M+03631MA1999999098571MD1999999-0031MW1131REMSYN100AAXX  19004 82586 21594 63603 10276 20232 39857 40093 71396 86300 333 10363 29069 55059 59003 60131;
0190825860999992003011912004-05200-039300FM-12+021199999V0200501N001510075019N0200001N1+02811+02181101131ADDAY151061AY221061GF106991061021008001001001KA1240N+02401MA1999999098771MD1999999+0061MW1031REMSYN088AAXX  19124 82586 21598 60503 10281 20218 39877 40113 70352 86200 333 20240 58006 60144;
0167825860999992003011918004-05200-039300FM-12+021199999V0200501N006710075019N0200001N1+03181+02101100851ADDAA106000091GF106991061021008001001001MA1999999098501MD1999999+0061REMSYN070AAXX  19184 82586 32598 60513 10318 20210 39850 40085 86200 333 58006;EQDQ01  00002PRCP06
0226825860999992003012000004-05200-039300FM-12+021199999V0202701N003110075019N0010001N1+02541+02491101091ADDAA106000091AY121061AY221061GF107991071091008001001001KA1240M+03431MA1999999098721MD1999999+0151MW1131REMSYN094AAXX  20004 82586 31594 72706 10254 20249 39872 40109 71322 87900 333 10343 29079 55069 58015;EQDQ01  00002PRCP06
0202825860999992003012012004-05200-039300FM-12+021199999V0201801N000519999999N0200001N1+02541+02331101141ADDAA106000091GF106991999071008001999999KA1240N+02361MA1999999098761MD1999999-0011REMSYN076AAXX  20124 82586 32598 61801 10254 20233 39876 40114 887// 333 20236 59001;EQDQ01+000082SCOTLCQ02  00002PRCP06
0190825860999992003012018004-05200-039300FM-12+021199999V0200501N003110075019N0200001N1+02821+01901100981ADDAY161061AY251061GF106991061051008001001001MA1999999091912MD1999999+0111MW1031REMSYN082AAXX  20184 82586 21598 60506 10282 20190 39191 40098 70365 86500 333 58011 60101;EQDQ01+091913APOSP 
0151825860999992003012100004-05200-039300FM-12+021199999V0203601N001519999999N0010001N1+02501+02271999999ADDAA106000091GF106991999999008001999999REMSYN083AAXX  21004 82586 32594 63603 10250 20227 10293 29080 39868 40107 55030 59009 8620;EQDQ01  00002PRCP06
0122825860999992003012112004-05200-039300FM-12+021199999V0200901N001519999999N0200001N1+02801+02081999999ADDGF106991999999008001999999REMSYN084AAXX  21124 82586 22598 60903 10280 20208 10102 20222 39867 40104 59009 60104 86400;
0163825860999992003012118004-05200-039300FM-12+021199999V0200501N003112200019N0200001N1+03331+01611100641ADDAA106000091GF104991041021008001001001MA1999999098301MD1810321+9999REMSYN066AAXX  21184 82586 32598 40506 10333 20161 39830 40064 58032 84200;EQDQ01  00002PRCP06
0198825860999992003012200004-05200-039300FM-12+021199999V0203601N002610075019N0010001N1+02721+02281100931ADDAA106000091GF106991061041008001001001KA1240M+03421MA1999999098571MD1999999-0111REMSYN088AAXX  22004 82586 32594 63605 10272 20228 39857 40093 86400 333 10342 29064 55092 59011;EQDQ01  00002PRCP06
0140825860999992003012212004-05200-039300FM-12+021199999V0200501N001519999999N0200001N1+02781+02161999999ADDAA106000091GF107991999999008001999999REMSYN072AAXX  22124 82586 32598 70503 10278 20216 20244 39865 40101 59002 84420;EQDQ01  00002PRCP06
0183825860999992003012218004-05200-039300FM-12+021199999V0200501N003119999999N0200001N1+03321+01611100791ADDAA106000091GF107991999021008001001001MA1999999098451MD1999999+0151REMSYN070AAXX  22184 82586 32598 70506 10332 20161 39845 40079 83200 333 58015;EQDQ01+000032SCOTLCQ02  00002PRCP06
0226825860999992003012300004-05200-039300FM-12+021199999V0203601N004610075019N0010001N1+02691+02201100931ADDAA106000091AY121061AY221061GF106991061021008001001001KA1240M+03421MA1999999098571MD1999999+0001MW1131REMSYN094AAXX  23004 82586 31594 63609 10269 20220 39857 40093 71322 86200 333 10342 29064 55058 58000;EQDQ01  00002PRCP06
0190825860999992003012312004-05200-039300FM-12+021199999V0200901N001010075019N0200001N1+02441+02411101141ADDAY191061AY261061GF108991081071008001999999KA1240N+02161MA1999999098761MD1999999+0111MW1031REMSYN088AAXX  23124 82586 21598 80902 10244 20241 39876 40114 70396 887// 333 20216 58011 60074;
0167825860999992003012318004-05200-039300FM-12+021199999V0200501N003110450019N0200001N1+03021+01861100981ADDAA106000091GF108991041021008001021999MA1999999098601MD1999999+0151REMSYN070AAXX  23184 82586 32598 80506 10302 20186 39860 40098 8422/ 333 58015;EQDQ01  00002PRCP06
0198825860999992003012400004-05200-039300FM-12+021199999V0203601N003610075019N0010001N1+02731+02081101051ADDAA106000091GF106991061041008001001001KA1240M+03111MA1999999098721MD1999999+0151REMSYN088AAXX  24004 82586 32594 63607 10273 20208 39872 40105 86400 333 10311 29071 55006 58015;EQDQ01  00002PRCP06
0186825860999992003012412004-05200-039300FM-12+021199999V0203601N001510075019N0200001N1+02521+02231101141ADDAA106000091GF108991081071008001999999KA1240N+02421MA1999999098761MD1999999+0001REMSYN076AAXX  24124 82586 32598 83603 10252 20223 39876 40114 887// 333 20242 58000;EQDQ01  00002PRCP06
0167825860999992003012418004-05200-039300FM-12+021199999V0203601N005110075019N0200001N1+02921+02141100901ADDAA106000091GF106991061041008001001001MA1999999098531MD1999999-0071REMSYN070AAXX  24184 82586 32598 63610 10292 20214 39853 40090 86400 333 59007;EQDQ01  00002PRCP06
0198825860999992003012500004-05200-039300FM-12+021199999V0203601N001510075019N0010001N1+02501+02431101101ADDAA106000091GF106991061021008001001001KA1240M+03111MA1999999098711MD1999999-0011REMSYN088AAXX  25004 82586 32594 63603 10250 20243 39871 40110 86200 333 10311 29085 55016 59001;EQDQ01  00002PRCP06
0186825860999992003012512004-05200-039300FM-12+021199999V0200901N001510075019N0200001N1+02701+02171101101ADDAA106000091GF106991061041008001001001KA1240N+02321MA1999999098731MD1999999-0031REMSYN076AAXX  25124 82586 32598 60903 10270 20217 39873 40110 86400 333 20232 59003;EQDQ01  00002PRCP06
0167825860999992003012518004-05200-039300FM-12+021199999V0200901N003110075019N0200001N1+03201+02061100741ADDAA106000091GF106991061021008001001001MA1999999098381MD1999999-0151REMSYN070AAXX  25184 82586 32598 60906 10320 20206 39838 40074 86200 333 59015;EQDQ01  00002PRCP06
0202825860999992003012612004-05200-039300FM-12+021199999V0200501N005119999999N0200001N1+02861+02011100981ADDAA106000091GF105991999021008001001001KA1240N+02391MA1999999098621MD1999999-0111REMSYN076AAXX  26124 82586 32598 50510 10286 20201 39862 40098 86200 333 20239 59011;EQDQ01+000062SCOTLCQ02  00002PRCP06
0183825860999992003012618004-05200-039300FM-12+021199999V0200901N003112200019N0200001N1+03291+01621100681ADDAA106000091GF104991999021008001001001MA1999999098341MD1999999-0041REMSYN070AAXX  26184 82586 32598 40906 10329 20162 39834 40068 82200 333 59004;EQDQ01+000022SCOTLCQ02  00002PRCP06
0162825860999992003012700004-05200-039300FM-12+021199999V0203601N004612200019N0010001N1+02741+02061999999ADDAA106000091GA1001+999999999GF100991001001999999001001REMSYN078AAXX  27004 82586 32994 03609 10274 20206 10340 29057 39843 40078 55073 59012;EQDQ01  00002PRCP06
0202825860999992003012712004-05200-039300FM-12+021199999V0203601N004610120019N0200001N1+02721+02191100131ADDAA106000091GF108991999081008001041999KA1240N+02461MA1999999098571MD1999999-0031REMSYN076AAXX  27124 82586 32598 83609 10272 20219 39857 40013 8884/ 333 20246 59003;EQDQ01+000082SCOTLCQ02  00002PRCP06
0171825860999992003012718004-05200-039300FM-12+021199999V0200901N003110075019N0200001N1+02601+02331100901ADDAY161061AY221061GF106991061041008001001001MA1999999098521MD1999999+0181MW1031REMSYN082AAXX  27184 82586 21598 60906 10260 20233 39852 40090 70362 86400 333 58018 60051;
0198825860999992003012800004-05200-039300FM-12+021199999V0203601N001510075019N0010001N1+02501+01841101031ADDAA106000091GF106991061041008001001001KA1240M+03011MA1999999098661MD1999999+0231REMSYN088AAXX  28004 82586 32594 63603 10250 20184 39866 40103 86400 333 10301 29073 55019 58023;EQDQ01  00002PRCP06
0162825860999992003012812004-05200-039300FM-12+021199999V0200501N003110075019N0200001N1+02481+02431101161ADDGF108991081071008001999999KA1240N+02341MA1999999098771MD1999999+0201REMSYN082AAXX  28124 82586 22598 80506 10248 20243 39877 40116 887// 333 20234 58020 60054;
0183825860999992003012818004-05200-039300FM-12+021199999V0200501N003119999999N0200001N1+03001+01911101071ADDAA106000091GF106991999071008001999999MA1999999098611MD1999999+0091REMSYN070AAXX  28184 82586 32598 60506 10300 20191 39861 40107 887// 333 58009;EQDQ01+000082SCOTLCQ02  00002PRCP06
0152825860999992003012900004-05200-039300FM-12+021199999V0209999C000019999999N0010001N1+02601+02351999999ADDAA106000091GF106991999999008001999999REMSYN084AAXX  29004 82586 32594 60000 10260 20235 10321 29080 39873 40111 55015 59007 84200;EQDQ01  00002PRCP06
0186825860999992003012912004-05200-039300FM-12+021199999V0200501N004110075019N0200001N1+02861+02091101111ADDAA106000091GF105991051021008001001001KA1240N+02381MA1999999098751MD1999999-0021REMSYN076AAXX  29124 82586 32598 50508 10286 20209 39875 40111 85200 333 20238 59002;EQDQ01  00002PRCP06
0167825860999992003012918004-05200-039300FM-12+021199999V0203601N005110075019N0200001N1+03001+02461100791ADDAA106000091GF105991051021008001001001MA1999999098431MD1999999-0181REMSYN070AAXX  29184 82586 32598 53610 10300 20246 39843 40079 85200 333 59018;EQDQ01  00002PRCP06
0202825860999992003013000004-05200-039300FM-12+021199999V0203601N003110075019N0010001N1+02301+02281100921ADDAY161061AY221061GF108991081071008001999999KA1240M+03451MA1999999098561MD1999999-0171MW1031REMSYN100AAXX  30004 82586 21594 83606 10230 20228 39856 40092 70362 887// 333 10345 29084 55099 59017 60051;
0162825860999992003013012004-05200-039300FM-12+021199999V0200901N004110075019N0200001N1+02681+02461101021ADDGF107991071071008001001001KA1240N+02341MA1999999098631MD1999999-0141REMSYN082AAXX  30124 82586 22598 70908 10268 20246 39863 40102 87700 333 20234 59014 60054;
0167825860999992003013018004-05200-039300FM-12+021199999V0200501N003110075019N0200001N1+03311+01681100711ADDAA106000091GF106991061071008001001001MA1999999098371MD1999999-0061REMSYN070AAXX  30184 82586 32598 60506 10331 20168 39837 40071 86700 333 59006;EQDQ01  00002PRCP06
0158825860999992003013100004-05200-039300FM-12+021199999V0203601N005119999999N0010001N1+02761+02211999999ADDAA106000091GF106991999999008001999999REMSYN090AAXX  31004 82586 31594 63610 10276 20221 10343 29068 39841 40077 55072 59015 71322 86200;EQDQ01  00002PRCP06
0190825860999992003013112004-05200-039300FM-12+021199999V0200501N001510075019N0200001N1+02541+02251100981ADDAY161061AY261061GF107991071041008001001001KA1240N+02121MA1999999098621MD1999999-0011MW1021REMSYN088AAXX  31124 82586 21598 70503 10254 20225 39862 40098 70266 87400 333 20212 59001 60134;
0167825860999992003013118004-05200-039300FM-12+021199999V0200901N005110450019N0200001N1+03001+01911100811ADDAA106000091GF106991031021008001051001MA1999999098431MD1999999+0061REMSYN070AAXX  31184 82586 32598 60910 10300 20191 39843 40081 83250 333 58006;EQDQ01  00002PRCP06
0198825860999992003020100004-05200-039300FM-12+021199999V0200501N006710075019N0010001N1+02531+02071101051ADDAA106000091GF108991081071008001999999KA1240M+03111MA1999999098671MD1999999+0261REMSYN088AAXX  01004 82586 32594 80513 10253 20207 39867 40105 887// 333 10311 29072 55024 58026;EQDQ01  00002PRCP06
0128825860999992003020112004-05200-039300FM-12+021199999V0200901N003119999999N0200001N1+02601+02141999999ADDGF107991999999008001999999REMSYN090AAXX  01124 82586 21598 70906 10260 20214 10004 20220 39871 40109 58009 69944 70355 82100;
0179825860999992003020118004-05200-039300FM-12+021199999V0200901N005119999999N0200001N1+03021+01861100931ADDAA106000091GF108991999011008001001001MA1999999098561MD1810131+9999REMSYN066AAXX  01184 82586 32598 80910 10302 20186 39856 40093 58013 82100;EQDQ01+000022SCOTLCQ02  00002PRCP06
0152825860999992003020200004-05200-039300FM-12+021199999V0200501N002119999999N0010001N1+02621+02271999999ADDAA106000091GF106991999999008001999999REMSYN084AAXX  02004 82586 32594 60504 10262 20227 10317 29072 39863 40100 55023 59004 86200;EQDQ01  00002PRCP06
0140825860999992003020212004-05200-039300FM-12+021199999V0201401N005119999999N0200001N1+02721+02151999999ADDAA106000091GF107991999999008001999999REMSYN072AAXX  02124 82586 32598 71410 10272 20215 20244 39862 40098 59009 84200;EQDQ01  00002PRCP06
0149825860999992003020218004-05200-039300FM-12+021199999V0200901N003110075019N0200001N1+03241+01751100881ADDAA106000091GF106991061021008001001001MA1999999098531REMSYN066AAXX  02184 82586 32598 60906 10324 20175 39853 40088 59003 86200;EQDQ01  00002PRCP06
0202825860999992003020300004-05200-039300FM-12+021199999V0209999C000010075019N0010001N1+02461+02441101041ADDAY191061AY261061GF108991081071008001999999KA1240M+03231MA1999999098671MD1999999+0041MW1031REMSYN100AAXX  03004 82586 21594 80000 10246 20244 39867 40104 70396 887// 333 10323 29078 55081 58004 60121;
0190825860999992003020312004-05200-039300FM-12+021199999V0201401N003110075019N0200001N1+02741+02241101071ADDAY151061AY221061GF107991071041008001001001KA1240N+02381MA1999999098711MD1999999+0091MW1031REMSYN088AAXX  03124 82586 21598 71406 10274 20224 39871 40107 70352 87400 333 20238 58009 60134;
0167825860999992003020318004-05200-039300FM-12+021199999V0200901N003110450019N0200001N1+03241+01501100921ADDAA106000091GF106991031021008001051001MA1999999098571MD1999999+0041REMSYN070AAXX  03184 82586 32598 60906 10324 20150 39857 40092 83250 333 58004;EQDQ01  00002PRCP06
0198825860999992003020400004-05200-039300FM-12+021199999V0203601N003110075019N0010001N1+02741+02301100971ADDAA106000091GF106991061021008001001001KA1240M+03331MA1999999098611MD1999999-0061REMSYN088AAXX  04004 82586 32594 63606 10274 20230 39861 40097 86200 333 10333 29069 55077 59006;EQDQ01  00002PRCP06
0186825860999992003020412004-05200-039300FM-12+021199999V0200901N003110075019N0200001N1+02801+02251101021ADDAA106000091GF106991061041008001001001KA1240N+02441MA1999999098661MD1999999-0051REMSYN076AAXX  04124 82586 32598 60906 10280 20225 39866 40102 86400 333 20244 59005;EQDQ01  00002PRCP06
0167825860999992003020418004-05200-039300FM-12+021199999V0200501N005112200019N0200001N1+03361+01851100821ADDAA106000091GF104991041021008001001001MA1999999098481MD1999999-0091REMSYN070AAXX  04184 82586 32598 40510 10336 20185 39848 40082 84200 333 59009;EQDQ01  00002PRCP06
0202825860999992003020500004-05200-039300FM-12+021199999V0203601N002610075019N0010001N1+02381+02361100971ADDAY181061AY261061GF108991081091008001999999KA1240M+03431MA1999999098601MD1999999-0011MW1621REMSYN100AAXX  05004 82586 21594 83605 10238 20236 39860 40097 76286 889// 333 10343 29078 55101 59001 60191;
0190825860999992003020512004-05200-039300FM-12+021199999V0200501N002110075019N0200001N1+02421+02401101021ADDAY161061AY251061GF108991081071008001999999KA1240N+02321MA1999999098621MD1999999-0041MW1611REMSYN088AAXX  05124 82586 21598 80504 10242 20240 39862 40102 76165 887// 333 20232 59004 60214;
0148825860999992003020518004-05200-039300FM-12+021199999V0200501N003110075019N0200001N1+02961+02281100851ADDAA106000021GF106991061021008001001001MA1999999098491MD1999999+0011REMSYN070AAXX  05184 82586 32598 60506 10296 20228 39849 40085 86200 333 58001;
0198825860999992003020600004-05200-039300FM-12+021199999V0209999C000010075019N0010001N1+02701+02261100901ADDAA106000091GF106991061041008001001001KA1240M+03111MA1999999098521MD1999999-0081REMSYN088AAXX  06004 82586 32594 60000 10270 20226 39852 40090 86400 333 10311 29080 55025 59008;EQDQ01  00002PRCP06
0202825860999992003020612004-05200-039300FM-12+021199999V0200501N001519999999N0200001N1+02781+02131101031ADDAA106000091GF106991999021008001001001KA1240N+02441MA1999999098671MD1999999+0051REMSYN076AAXX  06124 82586 32598 60503 10278 20213 39867 40103 83200 333 20244 58005;EQDQ01+000032SCOTLCQ02  00002PRCP06
0167825860999992003020618004-05200-039300FM-12+021199999V0200901N003112200019N0200001N1+03261+01801100811ADDAA106000091GF106991031021008001001041MA1999999098471MD1999999-0021REMSYN070AAXX  06184 82586 32598 60906 10326 20180 39847 40081 83204 333 59002;EQDQ01  00002PRCP06
0226825860999992003020700004-05200-039300FM-12+021199999V0209999C000010075019N0010001N1+02701+02261100941ADDAA106000091AY121061AY221061GF105991051031008001001001KA1240M+03111MA1999999098581MD1999999+0081MW1131REMSYN094AAXX  07004 82586 31594 50000 10270 20226 39858 40094 71322 85300 333 10311 29066 55092 58008;EQDQ01  00002PRCP06
0186825860999992003020712004-05200-039300FM-12+021199999V0200901N003110075019N0200001N1+02781+02301100971ADDAA106000091GF107991071071008001001001KA1240N+02521MA1999999098611MD1999999-0061REMSYN076AAXX  07124 82586 32598 70906 10278 20230 39861 40097 87700 333 20252 59006;EQDQ01  00002PRCP06
0167825860999992003020718004-05200-039300FM-12+021199999V0200501N003110450019N0200001N1+03231+01951100821ADDAA106000091GF108991041011008001021999MA1999999098471MD1999999+0001REMSYN070AAXX  07184 82586 32598 80506 10323 20195 39847 40082 8412/ 333 58000;EQDQ01  00002PRCP06
0198825860999992003020800004-05200-039300FM-12+021199999V0209999C000010450019N0010001N1+02801+02001100861ADDAA106000091GF108991011081008001041999KA1240M+03401MA1999999098511MD1999999-0071REMSYN088AAXX  08004 82586 32594 80000 10280 20200 39851 40086 8184/ 333 10340 29061 55066 59007;EQDQ01  00002PRCP06
0186825860999992003020812004-05200-039300FM-12+021199999V02099999999990075019N0200001N1+02801+02081101021ADDAA106000091GF107991071041008001001001KA1240N+02461MA1999999098661MD1999999+0051REMSYN076AAXX  08124 82586 32598 705// 10280 20208 39866 40102 87400 333 20246 58005;EQDQ01  00002PRCP06
0183825860999992003020818004-05200-039300FM-12+021199999V0200501N005119999999N0200001N1+03111+01701100861ADDAA106000091GF106991001001999999001041MA1999999098591MD1999999+0041REMSYN070AAXX  08184 82586 32598 60510 10311 20170 39859 40086 80004 333 58004;EQDQ01+008002SCOLCBQ02  00002PRCP06
0198825860999992003020900004-05200-039300FM-12+021199999V0209999C000010075019N0010001N1+02621+01861100981ADDAA106000091GF105991051021008001001001KA1240M+03231MA1999999098521MD1999999+0071REMSYN088AAXX  09004 82586 32594 50000 10262 20186 39852 40098 85200 333 10323 29059 55045 58007;EQDQ01  00002PRCP06
0186825860999992003020912004-05200-039300FM-12+021199999V0200501N003110075019N0200001N1+02821+02051101011ADDAA106000091GF107991071051008001001051KA1240N+02351MA1999999098651MD1999999-0011REMSYN076AAXX  09124 82586 32598 70506 10282 20205 39865 40101 87505 333 20235 59001;EQDQ01  00002PRCP06
0167825860999992003020918004-05200-039300FM-12+021199999V0200501N003110450019N0200001N1+03331+01781100721ADDAA106000091GF106991031021008001021001MA1999999098381MD1999999-0131REMSYN070AAXX  09184 82586 32598 60506 10333 20178 39838 40072 83220 333 59013;EQDQ01  00002PRCP06
0198825860999992003021000004-05200-039300FM-12+021199999V0209999C000010075019N0010001N1+02721+02161100841ADDAA106000091GF106991061041008001001001KA1240M+03431MA1999999098531MD1999999-0051REMSYN088AAXX  10004 82586 32594 60000 10272 20216 39853 40084 86400 333 10343 29061 55077 59005;EQDQ01  00002PRCP06
0186825860999992003021012004-05200-039300FM-12+021199999V0200501N003110075019N0200001N1+02801+02151100951ADDAA106000091GF106991061021008001001001KA1240N+02521MA1999999098591MD1999999-0061REMSYN076AAXX  10124 82586 32598 60506 10280 20215 39859 40095 86200 333 20252 59006;EQDQ01  00002PRCP06
0167825860999992003021018004-05200-039300FM-12+021199999V0200501N003110075019N0200001N1+03331+01851100761ADDAA106000091GF106991061021008001001001MA1999999098421MD1999999+0041REMSYN070AAXX  10184 82586 32598 60506 10333 20185 39842 40076 86200 333 58004;EQDQ01  00002PRCP06
0198825860999992003021100004-05200-039300FM-12+021199999V0203601N003110075019N0010001N1+02721+02151100931ADDAA106000091GF108991081071008001999999KA1240M+03421MA1999999098571MD1999999-0041REMSYN088AAXX  11004 82586 32594 83606 10272 20215 39857 40093 887// 333 10342 29063 55069 59004;EQDQ01  00002PRCP06
0186825860999992003021112004-05200-039300FM-12+021199999V0203601N004110075019N0200001N1+02701+02411101011ADDAA106000091GF107991071041008001001001KA1240N+02461MA1999999098651MD1999999+0061REMSYN076AAXX  11124 82586 32598 73608 10270 20241 39865 40101 87400 333 20246 58006;EQDQ01  00002PRCP06
0183825860999992003021118004-05200-039300FM-12+021199999V0200901N003119999999N0200001N1+03301+01801100751ADDAA106000091GF106991999041008001001001MA1999999098411MD1999999-0011REMSYN070AAXX  11184 82586 32598 60906 10330 20180 39841 40075 87400 333 59001;EQDQ01+000072SCOTLCQ02  00002PRCP06
0198825860999992003021200004-05200-039300FM-12+021199999V0203601N001510075019N0010001N1+02641+02311100911ADDAA106000091GF108991081041008001999999KA1240M+03411MA1999999098551MD1999999-0021REMSYN088AAXX  12004 82586 32594 83603 10264 20231 39855 40091 884// 333 10341 29072 55043 59002;EQDQ01  00002PRCP06
0186825860999992003021212004-05200-039300FM-12+021199999V0203601N004110075019N0200001N1+02811+02251101031ADDAA106000091GF107991071041008001001001KA1240N+02501MA1999999098671MD1999999+0021REMSYN076AAXX  12124 82586 32598 73608 10281 20225 39867 40103 87400 333 20250 58002;EQDQ01  00002PRCP06
0165825860999992003021218004-05200-039300FM-12+021199999V0201401N001510075019N0200001N1+02681+02241100901ADDAY161061AY221061GF108991081071008001999999MA1999999098521MD1999999+0111MW1031REMSYN076AAXX  12184 82586 21598 81403 10268 20224 39852 40090 70362 887// 333 58011;
0202825860999992003021300004-05200-039300FM-12+021199999V0203601N001510075019N0010001N1+02541+02521101021ADDAY151061AY221061GF108991081071008001999999KA1240M+03141MA1999999098661MD1999999+0111MW1031REMSYN100AAXX  13004 82586 21594 83603 10254 20252 39866 40102 70352 887// 333 10314 29086 55029 58011 69921;
0162825860999992003021312004-05200-039300FM-12+021199999V0200901N002110075019N0200001N1+02761+02281101041ADDGF106991061041008001001001KA1240N+02441MA1999999098671MD1999999+0001REMSYN082AAXX  13124 82586 22598 60904 10276 20228 39867 40104 86400 333 20244 58000 60024;
0167825860999992003021318004-05200-039300FM-12+021199999V0200501N005112200019N0200001N1+03281+01621100781ADDAA106000091GF106991021021008001001041MA1999999098641MD1999999-0081REMSYN070AAXX  13184 82586 32598 60510 10328 20162 39864 40078 82204 333 59008;EQDQ01  00002PRCP06
0198825860999992003021400004-05200-039300FM-12+021199999V0203601N002610075019N0010001N1+02771+02121100911ADDAA106000091GF106991061001008001021001KA1240M+03401MA1999999098551MD1999999-0111REMSYN088AAXX  14004 82586 32594 63605 10277 20212 39855 40091 86020 333 10340 29063 55083 59011;EQDQ01  00002PRCP06
0186825860999992003021412004-05200-039300FM-12+021199999V0200501N003612200019N0200001N1+02761+02141100971ADDAA106000091GF106991021021008001001011KA1240N+02431MA1999999098611MD1999999-0061REMSYN076AAXX  14124 82586 32598 60507 10276 20214 39861 40097 82201 333 20243 59006;EQDQ01  00002PRCP06
0183825860999992003021418004-05200-039300FM-12+021199999V0200501N003119999999N0200001N1+03271+01601100761ADDAA106000091GF106991999021008001001001MA1999999098421MD1999999-0021REMSYN070AAXX  14184 82586 32598 60506 10327 20160 39842 40076 83200 333 59002;EQDQ01+000032SCOTLCQ02  00002PRCP06
0198825860999992003021500004-05200-039300FM-12+021199999V0203601N005110075019N0010001N1+02801+02021100851ADDAA106000091GF106991061001008001021001KA1240M+03431MA1999999098501MD1999999-0051REMSYN088AAXX  15004 82586 32594 63610 10280 20202 39850 40085 86020 333 10343 29058 55073 59005;EQDQ01  00002PRCP06
0186825860999992003021512004-05200-039300FM-12+021199999V0200501N005110075019N0200001N1+02861+02091100911ADDAA106000091GF106991061041008001001001KA1240N+02501MA1999999098551MD1999999-0111REMSYN076AAXX  15124 82586 32598 60510 10286 20209 39855 40091 86400 333 20250 59011;EQDQ01  00002PRCP06
0167825860999992003021518004-05200-039300FM-12+021199999V0200501N003110075019N0200001N1+03281+01821100821ADDAA106000091GF106991061021008001001001MA1999999098471MD1999999+0051REMSYN070AAXX  15184 82586 32598 60506 10328 20182 39847 40082 86200 333 58005;EQDQ01  00002PRCP06
0167825860999992003021618004-05200-039300FM-12+021199999V0201401N003110450019N0200001N1+03341+01671100711ADDAA106000091GF106991031021008001051001MA1999999098371MD1999999-0101REMSYN070AAXX  16184 82586 32598 61406 10334 20167 39837 40071 83250 333 59010;EQDQ01  00002PRCP06
0186825860999992003021712004-05200-039300FM-12+021199999V0200901N003610075019N0200001N1+02881+02101100921ADDAA106000091GF107991071041008001001001KA1240N+02541MA1999999098561MD1999999+0041REMSYN076AAXX  17124 82586 32598 70907 10288 20210 39856 40092 87400 333 20254 58004;EQDQ01  00002PRCP06
0167825860999992003021718004-05200-039300FM-12+021199999V0200501N002612200019N0200001N1+03261+01981100761ADDAA106000091GF106991031021008001001041MA1999999098421MD1999999+0051REMSYN070AAXX  17184 82586 32598 60505 10326 20198 39842 40076 83204 333 58005;EQDQ01  00002PRCP06
0198825860999992003021800004-05200-039300FM-12+021199999V0202301N005110075019N0010001N1+02831+02221100961ADDAA106000091GF108991081071008001999999KA1240M+03401MA1999999098571MD1999999+0131REMSYN088AAXX  18004 82586 32594 82310 10283 20222 39857 40096 887// 333 10340 29063 55060 58013;EQDQ01  00002PRCP06
0186825860999992003021812004-05200-039300FM-12+021199999V0200901N003110075019N0200001N1+02861+02161101021ADDAA106000091GF106991061041008001001001KA1240N+02501MA1999999098661MD1999999+0101REMSYN076AAXX  18124 82586 32598 60906 10286 20216 39866 40102 86400 333 20250 58010;EQDQ01  00002PRCP06
0167825860999992003021818004-05200-039300FM-12+021199999V0200501N003110075019N0200001N1+03261+01981100761ADDAA106000091GF106991061021008001001001MA1999999098421MD1999999+0001REMSYN070AAXX  18184 82586 32598 60506 10326 20198 39842 40076 86200 333 58000;EQDQ01  00002PRCP06
0198825860999992003021900004-05200-039300FM-12+021199999V0203601N001510450019N0010001N1+02661+02441100971ADDAA106000091GF106991031021008001051001KA1240M+03231MA1999999098611MD1999999+0041REMSYN088AAXX  19004 82586 32594 63603 10266 20244 39861 40097 83250 333 10323 29072 55051 58004;EQDQ01  00002PRCP06
0186825860999992003021912004-05200-039300FM-12+021199999V0200901N003110075019N0200001N1+02901+01961101021ADDAA106000091GF106991061021008001001001KA1240N+02401MA1999999098661MD1999999+0001REMSYN076AAXX  19124 82586 32598 60906 10290 20196 39866 40102 86200 333 20240 58000;EQDQ01  00002PRCP06
0167825860999992003021918004-05200-039300FM-12+021199999V0200901N003110075019N0200001N1+03361+01691100791ADDAA106000091GF106991061021008001001001MA1999999098451MD1999999+0031REMSYN070AAXX  19184 82586 32598 60906 10336 20169 39845 40079 86200 333 58003;EQDQ01  00002PRCP06
0226825860999992003022000004-05200-039300FM-12+021199999V0203601N005110075019N0010001N1+02721+02391100891ADDAA106000091AY131061AY221061GF107991071031008001001001KA1240M+03531MA1999999098541MD1999999+0071MW1131REMSYN094AAXX  20004 82586 31594 73610 10272 20239 39854 40089 71332 87300 333 10353 29065 55078 58007;EQDQ01  00002PRCP06
0190825860999992003022012004-05200-039300FM-12+021199999V0200901N002610075019N0200001N1+02761+02421101011ADDAY161061AY261061GF107991071041008001001001KA1240N+02441MA1999999098651MD1999999-0011MW1031REMSYN088AAXX  20124 82586 21598 70905 10276 20242 39865 40101 70366 87400 333 20244 59001 60074;
0167825860999992003022018004-05200-039300FM-12+021199999V0201801N001510075019N0200001N1+03181+01871100761ADDAA106000091GF106991061041008001001001MA1999999098401MD1999999-0051REMSYN070AAXX  20184 82586 32598 61803 10318 20187 39840 40076 86400 333 59005;EQDQ01  00002PRCP06
0202825860999992003022100004-05200-039300FM-12+021199999V0203601N001510075019N0010001N1+02391+02361100941ADDAY151061AY211061GF108991081091008001999999KA1240M+03321MA1999999098571MD1999999+0031MW1131REMSYN100AAXX  21004 82586 21594 83603 10239 20236 39857 40094 71351 889// 333 10332 29082 55049 58003 69931;
0162825860999992003022112004-05200-039300FM-12+021199999V0200501N001010075019N0200001N1+02521+02021101091ADDGF108991071071008001999999KA1240N+02221MA1999999098691MD1999999+0041REMSYN082AAXX  21124 82586 22598 80502 10252 20202 39869 40109 877// 333 20222 58004 69934;
0183825860999992003022118004-05200-039300FM-12+021199999V0201801N001519999999N0200001N1+03101+01701100851ADDAA106000091GF108991999021008001001001MA1999999098491MD1999999+0091REMSYN070AAXX  21184 82586 32598 81803 10310 20170 39849 40085 84200 333 58009;EQDQ01+000042SCOTLCQ02  00002PRCP06
0226825860999992003022200004-05200-039300FM-12+021199999V0203601N001510075019N0010001N1+02561+02211100921ADDAA106000091AY121061AY221061GF106991061031008001001001KA1240M+03191MA1999999098541MD1999999-0031MW1131REMSYN094AAXX  22004 82586 31594 63603 10256 20221 39854 40092 71322 86300 333 10319 29070 55014 59003;EQDQ01  00002PRCP06
0186825860999992003022212004-05200-039300FM-12+021199999V0200501N002110075019N0200001N1+02821+02101100981ADDAA106000091GF107991071041008001001001KA1240N+02361MA1999999098621MD1999999-0071REMSYN076AAXX  22124 82586 32598 70504 10282 20210 39862 40098 87400 333 20236 59007;EQDQ01  00002PRCP06
0167825860999992003022218004-05200-039300FM-12+021199999V0203601N003610075019N0200001N1+03331+01851100811ADDAA106000091GF106991061041008001001001MA1999999098461MD1999999-0031REMSYN070AAXX  22184 82586 32598 63607 10333 20185 39846 40081 86400 333 59003;EQDQ01  00002PRCP06
0226825860999992003022300004-05200-039300FM-12+021199999V0203601N003110075019N0010001N1+02681+02241101011ADDAA106000091AY121061AY221061GF106991061031008001001001KA1240M+03431MA1999999098651MD1999999+0111MW1131REMSYN094AAXX  23004 82586 31594 63606 10268 20224 39865 40101 71322 86300 333 10343 29065 55093 58011;EQDQ01  00002PRCP06
0186825860999992003022312004-05200-039300FM-12+021199999V0200501N002112200019N0200001N1+02611+02271101041ADDAA106000091GF106991041021008001001041KA1240N+02461MA1999999098761MD1999999+0141REMSYN076AAXX  23124 82586 32598 60504 10261 20227 39876 40104 84204 333 20246 58014;EQDQ01  00002PRCP06
0183825860999992003022318004-05200-039300FM-12+021199999V0200901N001519999999N0200001N1+03161+01821100891ADDAA106000091GF107991999021008001001001MA1999999098541MD1999999+0081REMSYN070AAXX  23184 82586 32598 70903 10316 20182 39854 40089 83200 333 58008;EQDQ01+000032SCOTLCQ02  00002PRCP06
0226825860999992003022400004-05200-039300FM-12+021199999V0209999C000010075019N0010001N1+02621+02351101061ADDAA106000091AY121061AY221061GF106991061031008001001001KA1240M+03261MA1999999098691MD1999999+0041MW1131REMSYN094AAXX  24004 82586 31594 60000 10262 20235 39869 40106 71322 86300 333 10326 29075 55031 58004;EQDQ01  00002PRCP06
0190825860999992003022412004-05200-039300FM-12+021199999V0201401N001010120019N0200001N1+02461+02441101201ADDAY161061AY251061GF108991081081008001999999KA1240N+02301MA1999999098821MD1999999+0061MW1031REMSYN088AAXX  24124 82586 21598 81402 10246 20244 39882 40120 70365 888// 333 20230 58006 60084;
0202825860999992003022500004-05200-039300FM-12+021199999V0209999C000010075019N0010001N1+02441+02411101121ADDAY121061AY221061GF106991061031008001001001KA1240M+02891MA1999999098721MD1999999+0031MW1131REMSYN100AAXX  25004 82586 21594 60000 10244 20241 39872 40112 71322 86300 333 10289 29098 55001 58003 60011;
0209825860999992003022512004-05200-039300FM-12+021199999V0200901N001019999999N0200001N1+02621+02411101111ADDAY161061AY221061GF107991999011008001001001KA1240N+02341MA1999999098721MD1999999-0091MW1031REMSYN088AAXX  25124 82586 21598 70902 10262 20241 39872 40111 70362 82100 333 20234 59009 60104;EQDQ01+000022SCOTLC
0190825860999992003022518004-05200-039300FM-12+021199999V0201801N001519999999N0200001N1+03021+02101100821ADDAY161061AY221061GF106991999021008001001001MA1999999098461MD1999999-0191MW1031REMSYN082AAXX  25184 82586 21598 61803 10302 20210 39846 40082 70362 83200 333 59019 60301;EQDQ01+000032SCOTLC
0202825860999992003022600004-05200-039300FM-12+021199999V0203601N002610075019N0010001N1+02461+02441101011ADDAY121061AY221061GF106991061031008001001001KA1240M+03191MA1999999098631MD1999999-0091MW1131REMSYN100AAXX  26004 82586 21594 63605 10246 20244 39863 40101 71322 86300 333 10319 29086 55050 59009 60151;
0190825860999992003022612004-05200-039300FM-12+021199999V0200901N002610075019N0200001N1+02641+02311101051ADDAY161061AY251061GF107991071041008001001001KA1240N+02221MA1999999098661MD1999999-0061MW1031REMSYN088AAXX  26124 82586 21598 70905 10264 20231 39866 40105 70365 87400 333 20222 59006 60624;
0167825860999992003022618004-05200-039300FM-12+021199999V0200501N003110075019N0200001N1+03101+01871100831ADDAA106000091GF106991061021008001001001MA1999999098471MD1999999+0011REMSYN070AAXX  26184 82586 32598 60506 10310 20187 39847 40083 86200 333 58001;EQDQ01  00002PRCP06
0168825860999992003022712004-05200-039300FM-12+021199999V0200901N001510450019N0500001N1+02061+01981101291ADDGF106991031051008001021001KA1240N+01921MA1999999090211MD1999999+0041REMSYN088AAXX  27124 82586 21599 60903 10206 20198 39021 40129 7//66 83520 333 20192 58004 60074;
0183825860999992003022718004-05200-039300FM-12+021199999V0200501N004610075019N0200001N1+03061+02271100841ADDAA106000091GF106991061071008001001001MA1999999098482MD1999999+0011REMSYN070AAXX  27184 82586 32598 60509 10306 20227 39848 40084 86700 333 58001;EQDQ01+098483APOSP Q02  00002PRCP06
0198825860999992003022800004-05200-039300FM-12+021199999V0203601N002610075019N0010001N1+02531+02431101021ADDAA106000091GF108991081071008001999999KA1240M+03211MA1999999098651MD1999999+0081REMSYN088AAXX  28004 82586 32594 83605 10253 20243 39865 40102 887// 333 10321 29079 55065 58008;EQDQ01  00002PRCP06
0186825860999992003022812004-05200-039300FM-12+021199999V0200901N002612200019N0200001N1+02701+02221101081ADDAA106000091GF106991031021008001001011KA1240N+02381MA1999999098711MD1999999+0041REMSYN076AAXX  28124 82586 32598 60905 10270 20222 39871 40108 83201 333 20238 58004;EQDQ01  00002PRCP06
0171825860999992003022818004-05200-039300FM-12+021199999V0203601N002619999999N0200001N1+02461+02441100881ADDAY191061AY261061GF108991081001008001999999MA1999999098501MD1999999+0021MW1211REMSYN082AAXX  28184 82586 21598 83605 10246 20244 39850 40088 72196 880// 333 58002 60031;
0162825860999992003030112004-05200-039300FM-12+021199999V0200901N002610075019N0200001N1+02681+02201101021ADDGF106991061021008001001001KA1240N+02301MA1999999098641MD1999999-0071REMSYN082AAXX  01124 82586 22598 60905 10268 20220 39864 40102 86200 333 20230 59007 60044;
0149825860999992003030118004-05200-039300FM-12+021199999V0200901N002612200019N0200001N1+03221+01731100831ADDAA106000091GF104991041021008001001001MA1999999098481REMSYN066AAXX  01184 82586 32598 40905 10322 20173 39848 40083 59002 84200;EQDQ01  00002PRCP06
0158825860999992003030200004-05200-039300FM-12+021199999V0203601N002619999999N0010001N1+02621+02161999999ADDAA106000091GF106991999999008001999999REMSYN090AAXX  02004 82586 31594 63605 10262 20216 10331 29067 39857 40093 55091 59006 71322 83200;EQDQ01  00002PRCP06
0186825860999992003030212004-05200-039300FM-12+021199999V0200501N002110075019N0200001N1+02731+02151100941ADDAA106000091GF106991061021008001001001KA1240N+02421MA1999999098581MD1999999-0061REMSYN076AAXX  02124 82586 32598 60504 10273 20215 39858 40094 86200 333 20242 59006;EQDQ01  00002PRCP06
0167825860999992003030218004-05200-039300FM-12+021199999V0200501N001510075019N0200001N1+03221+01841100711ADDAA106000091GF106991061041008001001001MA1999999098371MD1999999-0111REMSYN070AAXX  02184 82586 32598 60503 10322 20184 39837 40071 86400 333 59011;EQDQ01  00002PRCP06
0198825860999992003030300004-05200-039300FM-12+021199999V0203601N002112200019N0010001N1+02631+02211100901ADDAA106000091GF102991021021008001001001KA1240M+03311MA1999999098541MD1999999-0031REMSYN088AAXX  03004 82586 32594 23604 10263 20221 39854 40090 82200 333 10331 29068 55091 59003;EQDQ01  00002PRCP06
0186825860999992003030312004-05200-039300FM-12+021199999V0200501N002110075019N0200001N1+02841+02121100911ADDAA106000091GF107991071041008001001001KA1240N+02481MA1999999098551MD1999999-0031REMSYN076AAXX  03124 82586 32598 70504 10284 20212 39855 40091 87400 333 20248 59003;EQDQ01  00002PRCP06
0167825860999992003030318004-05200-039300FM-12+021199999V0200501N003110450019N0200001N1+03261+01601100761ADDAA106000091GF106991031021008001021001MA1999999098421MD1999999+0051REMSYN070AAXX  03184 82586 32598 60506 10326 20160 39842 40076 83220 333 58005;EQDQ01  00002PRCP06
0226825860999992003030400004-05200-039300FM-12+021199999V0203601N001510075019N0010001N1+02561+02351100941ADDAA106000091AY121061AY221061GF106991061031008001001001KA1240M+03331MA1999999098581MD1999999+0041MW1131REMSYN094AAXX  04004 82586 31594 63603 10256 20235 39858 40094 71322 86300 333 10333 29070 55069 58004;EQDQ01  00002PRCP06
0190825860999992003030412004-05200-039300FM-12+021199999V0200901N001510075019N0200001N1+02421+02331101091ADDAY161061AY251061GF108991081071008001999999KA1240N+02241MA1999999098701MD1999999+0151MW1031REMSYN088AAXX  04124 82586 21598 80903 10242 20233 39870 40109 70365 887// 333 20224 58015 60284;
0167825860999992003030418004-05200-039300FM-12+021199999V0200501N003110075019N0200001N1+03051+01881100851ADDAA106000091GF106991061041008001001001MA1999999098491MD1999999+0071REMSYN070AAXX  04184 82586 32598 60506 10305 20188 39849 40085 86400 333 58007;EQDQ01  00002PRCP06
0202825860999992003030500004-05200-039300FM-12+021199999V0201401N001010120019N0010001N1+02221+02201101071ADDAY161061AY261061GF108991081081008001999999KA1240M+03111MA1999999098671MD1999999+0111MW1621REMSYN100AAXX  05004 82586 21594 81402 10222 20220 39867 40107 76266 888// 333 10311 29086 55054 58011 60131;
0190825860999992003030512004-05200-039300FM-12+021199999V0201401N001510075019N0200001N1+02521+02381101071ADDAY161061AY251061GF106991061041008001001001KA1240N+02221MA1999999098671MD1999999-0031MW1031REMSYN088AAXX  05124 82586 21598 61403 10252 20238 39867 40107 70365 86400 333 20222 59003 60164;
0167825860999992003030518004-05200-039300FM-12+021199999V0200501N003110075019N0200001N1+03041+02061100761ADDAA106000091GF106991061021008001001001MA1999999098401MD1999999-0091REMSYN070AAXX  05184 82586 32598 60506 10304 20206 39840 40076 86200 333 59009;EQDQ01  00002PRCP06
0226825860999992003030600004-05200-039300FM-12+021199999V0209999C000010075019N0010001N1+02581+02491100961ADDAA106000091AY121061AY221061GF106991061021008001001001KA1240M+03161MA1999999098531MD1999999-0141MW1131REMSYN094AAXX  06004 82586 31594 60000 10258 20249 39853 40096 71322 86200 333 10316 29087 55070 59014;EQDQ01  00002PRCP06
0186825860999992003030612004-05200-039300FM-12+021199999V0200901N003612200019N0200001N1+02721+02171100941ADDAA106000091GF104991041021008001001001KA1240N+02361MA1999999098581MD1999999-0091REMSYN076AAXX  06124 82586 32598 40907 10272 20217 39858 40094 84200 333 20236 59009;EQDQ01  00002PRCP06
0167825860999992003030618004-05200-039300FM-12+021199999V0200901N004612200019N0200001N1+03141+01621100771ADDAA106000091GF105991031021008001001041MA1999999098421MD1999999+0021REMSYN070AAXX  06184 82586 32598 50909 10314 20162 39842 40077 83204 333 58002;EQDQ01  00002PRCP06
0226825860999992003030700004-05200-039300FM-12+021199999V0203601N002612200019N0010001N1+02601+02101100881ADDAA106000091AY121061AY221061GF104991041031008001001001KA1240M+03211MA1999999098521MD1999999-0011MW1131REMSYN094AAXX  07004 82586 31594 43605 10260 20210 39852 40088 71322 84300 333 10321 29066 55091 59001;EQDQ01  00002PRCP06
0202825860999992003030712004-05200-039300FM-12+021199999V0200501N003119999999N0200001N1+02801+02201100981ADDAA106000091GF106991999041008001001001KA1240N+02401MA1999999098621MD1999999+0041REMSYN076AAXX  07124 82586 32598 60506 10280 20220 39862 40098 87400 333 20240 58004;EQDQ01+000072SCOTLCQ02  00002PRCP06
0167825860999992003030718004-05200-039300FM-12+021199999V0200501N005112200019N0200001N1+03161+01861100871ADDAA106000091GF105991031021008001001041MA1999999098521MD1999999+0101REMSYN070AAXX  07184 82586 32598 50510 10316 20186 39852 40087 83204 333 58010;EQDQ01  00002PRCP06
0198825860999992003030800004-05200-039300FM-12+021199999V0200501N004610075019N0010001N1+02461+02281101041ADDAA106000091GF106991061021008001001001KA1240M+03231MA1999999098671MD1999999+0151REMSYN088AAXX  08004 82586 32594 60509 10246 20228 39867 40104 86200 333 10323 29074 55094 58015;EQDQ01  00002PRCP06
0186825860999992003030812004-05200-039300FM-12+021199999V0200901N004112200019N0200001N1+02721+02001101011ADDAA106000091GF107991041041008001001011KA1240N+02261MA1999999098641MD1999999+0021REMSYN076AAXX  08124 82586 32598 70908 10272 20200 39864 40101 84401 333 20226 58002;EQDQ01  00002PRCP06
0198825860999992003030900004-05200-039300FM-12+021199999V0209999C000012200019N0010001N1+02561+02191100931ADDAA106000091GF104991041051012501001001KA1240M+03211MA1999999098571MD1999999-0101REMSYN088AAXX  09004 82586 32694 40000 10256 20219 39857 40093 84500 333 10321 29069 55068 59010;EQDQ01  00002PRCP06
0186825860999992003030912004-05200-039300FM-12+021199999V0200501N002112200019N0200001N1+02801+02031101031ADDAA106000091GF104991041021008001001001KA1240N+02461MA1999999098671MD1999999+0031REMSYN076AAXX  09124 82586 32598 40504 10280 20203 39867 40103 84200 333 20246 58003;EQDQ01  00002PRCP06
0167825860999992003030918004-05200-039300FM-12+021199999V0200901N003112200019N0200001N1+03221+01651100851ADDAA106000091GF103991031021008001001001MA1999999098501MD1999999-0071REMSYN070AAXX  09184 82586 32598 30906 10322 20165 39850 40085 83200 333 59007;EQDQ01  00002PRCP06
0226825860999992003031000004-05200-039300FM-12+021199999V0203601N005110075019N0010001N1+02681+02241100931ADDAA106000091AY121061AY221061GF106991061021008001001001KA1240M+03311MA1999999098571MD1999999+0001MW1131REMSYN094AAXX  10004 82586 31594 63610 10268 20224 39857 40093 71322 86200 333 10331 29064 55106 58000;EQDQ01  00002PRCP06
0190825860999992003031012004-05200-039300FM-12+021199999V0203601N003110075019N0200001N1+02621+02411100991ADDAY161061AY261061GF108991081071008001999999KA1240N+02381MA1999999098631MD1999999-0041MW1031REMSYN088AAXX  10124 82586 21598 83606 10262 20241 39863 40099 70366 887// 333 20238 59004 60144;
0167825860999992003031018004-05200-039300FM-12+021199999V0201401N003110075019N0200001N1+03121+01991100901ADDAA106000091GF106991061021008001001001MA1999999098541MD1999999+0041REMSYN070AAXX  10184 82586 32598 61406 10312 20199 39854 40090 86200 333 58004;EQDQ01  00002PRCP06
0198825860999992003031100004-05200-039300FM-12+021199999V0203601N001510075019N0010001N1+02561+02351100961ADDAA106000091GF106991061041008001001001KA1240M+03211MA1999999098571MD1999999+0071REMSYN088AAXX  11004 82586 32594 63603 10256 20235 39857 40096 86400 333 10321 29079 55049 58007;EQDQ01  00002PRCP06
0186825860999992003031112004-05200-039300FM-12+021199999V0200901N003112200019N0200001N1+02821+02151100981ADDAA106000091GF104991041021008001001001KA1240N+02401MA1999999098621MD1999999-0011REMSYN076AAXX  11124 82586 32598 40906 10282 20215 39862 40098 84200 333 20240 59001;EQDQ01  00002PRCP06
0167825860999992003031118004-05200-039300FM-12+021199999V0201401N003112200019N0200001N1+03201+01711100811ADDAA106000091GF104991041021008001001001MA1999999098461MD1999999-0081REMSYN070AAXX  11184 82586 32598 41406 10320 20171 39846 40081 84200 333 59008;EQDQ01  00002PRCP06
0198825860999992003031200004-05200-039300FM-12+021199999V0200501N003610075019N0010001N1+02601+02391100911ADDAA106000091GF106991061021008001021001KA1240M+03271MA1999999098551MD1999999-0021REMSYN088AAXX  12004 82586 32594 60507 10260 20239 39855 40091 86220 333 10327 29071 55103 59002;EQDQ01  00002PRCP06
0186825860999992003031212004-05200-039300FM-12+021199999V0200901N003112200019N0200001N1+02821+02021101011ADDAA106000091GF103991031011008001001001KA1240N+02381MA1999999098651MD1999999+0031REMSYN076AAXX  12124 82586 32598 30906 10282 20202 39865 40101 83100 333 20238 58003;EQDQ01  00002PRCP06
0167825860999992003031218004-05200-039300FM-12+021199999V0201401N003112200019N0200001N1+03201+01551100821ADDAA106000091GF103991011011008001001041MA1999999098471MD1999999+0011REMSYN070AAXX  12184 82586 32598 31406 10320 20155 39847 40082 81104 333 58001;EQDQ01  00002PRCP06
0208825860999992003031300004-05200-039300FM-12+021199999V0203601N009312200019N0010001N1+02881+02351100931ADDAA106000091GA1001+999999999GF100991001001999999001001KA1240M+03291MA1999999098571MD1999999+0021REMSYN082AAXX  13004 82586 32994 03618 10288 20235 39857 40093 333 10329 29066 55104 58002;EQDQ01  00002PRCP06
0186825860999992003031312004-05200-039300FM-12+021199999V0200501N004610075019N0200001N1+02901+02201100991ADDAA106000091GF106991061021008001001001KA1240N+02441MA1999999098631MD1999999-0021REMSYN076AAXX  13124 82586 32598 60509 10290 20220 39863 40099 86200 333 20244 59002;EQDQ01  00002PRCP06
0167825860999992003031318004-05200-039300FM-12+021199999V0201401N002112200019N0200001N1+03261+01961100721ADDAA106000091GF106991031021008001001041MA1999999098381MD1999999-0111REMSYN070AAXX  13184 82586 32598 61404 10326 20196 39838 40072 83204 333 59011;EQDQ01  00002PRCP06
0226825860999992003031400004-05200-039300FM-12+021199999V0203601N001510075019N0010001N1+02681+02111100831ADDAA106000091AY121061AY221061GF106991061021008001001001KA1240M+03331MA1999999098481MD1999999-0091MW1131REMSYN094AAXX  14004 82586 31594 63603 10268 20211 39848 40083 71322 86200 333 10333 29067 55095 59009;EQDQ01  00002PRCP06
0190825860999992003031412004-05200-039300FM-12+021199999V0200901N005110075019N0200001N1+02861+02061100971ADDAY161061AY221061GF106991061021008001001001KA1240N+02461MA1999999098611MD1999999-0021MW1031REMSYN088AAXX  14124 82586 21598 60910 10286 20206 39861 40097 70362 86200 333 20246 59002 60014;
0167825860999992003031418004-05200-039300FM-12+021199999V0203601N004110075019N0200001N1+03161+02021100701ADDAA106000091GF106991061021008001001001MA1999999098351MD1999999-0031REMSYN070AAXX  14184 82586 32598 63608 10316 20202 39835 40070 86200 333 59003;EQDQ01  00002PRCP06
0226825860999992003031500004-05200-039300FM-12+021199999V0209999C000010075019N0010001N1+02421+02391100831ADDAA106000091AY121061AY221061GF106991061031008001001001KA1240M+03331MA1999999098471MD1999999-0011MW1131REMSYN094AAXX  15004 82586 31594 60000 10242 20239 39847 40083 71322 86300 333 10333 29077 55083 59001;EQDQ01  00002PRCP06
0167825860999992003031518004-05200-039300FM-12+021199999V0200901N003112200019N0200001N1+03211+02061100761ADDAA106000091GF104991041021008001001001MA1999999098321MD1999999+0031REMSYN070AAXX  15184 82586 32598 40906 10321 20206 39832 40076 84200 333 58003;EQDQ01  00002PRCP06
0202825860999992003031600004-05200-039300FM-12+021199999V0201401N002610075019N0010001N1+02401+02261100971ADDAY191061AY221061GF108991081091008001999999KA1240M+03271MA1999999098571MD1999999+0101MW1621REMSYN100AAXX  16004 82586 21594 81405 10240 20226 39857 40097 76292 889// 333 10327 29078 55094 58010 60041;
0190825860999992003031612004-05200-039300FM-12+021199999V0200501N001510075019N0200001N1+02501+02431101061ADDAY161061AY261061GF107991051041008001021001KA1240N+02221MA1999999098661MD1999999+0001MW1031REMSYN088AAXX  16124 82586 21598 70503 10250 20243 39866 40106 70366 85420 333 20222 58000 60184;
0183825860999992003031618004-05200-039300FM-12+021199999V0200501N002119999999N0200001N1+03161+01921100791ADDAA106000091GF106991999021008001001001MA1999999098431MD1999999+0051REMSYN070AAXX  16184 82586 32598 60504 10316 20192 39843 40079 83200 333 58005;EQDQ01+000032SCOTLCQ02  00002PRCP06
0226825860999992003031700004-05200-039300FM-12+021199999V0203601N001510120019N0010001N1+02561+02321100931ADDAA106000091AY121061AY221061GF108991081081008001999999KA1240M+03231MA1999999098551MD1999999+0021MW1131REMSYN094AAXX  17004 82586 31594 83603 10256 20232 39855 40093 71322 888// 333 10323 29080 55078 58002;EQDQ01  00002PRCP06
0202825860999992003031712004-05200-039300FM-12+021199999V0200901N001519999999N0200001N1+02581+02421101111ADDAA106000091GF107991999071008001999999KA1240N+02401MA1999999098731MD1999999+0071REMSYN076AAXX  17124 82586 32598 70903 10258 20242 39873 40111 887// 333 20240 58007;EQDQ01+000082SCOTLCQ02  00002PRCP06
0171825860999992003031718004-05200-039300FM-12+021199999V0200501N003110075019N0200001N1+02821+02361100861ADDAY151061AY221061GF108991081071008001999999MA1999999098491MD1999999+0061MW1031REMSYN082AAXX  17184 82586 21598 80506 10282 20236 39849 40086 70352 887// 333 58006 69921;
0202825860999992003031800004-05200-039300FM-12+021199999V02099999999990075019N0010001N1+02361+02341100981ADDAY151061AY221061GF108991051021008001999999KA1240M+03011MA1999999098581MD1999999+0031MW1021REMSYN100AAXX  18004 82586 21594 805// 10236 20234 39858 40098 70252 852// 333 10301 29091 55008 58003 69981;
0162825860999992003031812004-05200-039300FM-12+021199999V0201801N000510075019N0200001N1+02561+02291101091ADDGF106991061021008001001001KA1240N+02301MA1999999098691MD1999999-0041REMSYN082AAXX  18124 82586 22598 61801 10256 20229 39869 40109 86200 333 20230 59004 60014;
0171825860999992003031818004-05200-039300FM-12+021199999V0200501N004112200019N0200001N1+02871+02211100831ADDAY151061AY221061GF106991031021008001001041MA1999999098471MD1999999-0021MW1031REMSYN082AAXX  18184 82586 21598 60508 10287 20221 39847 40083 70352 83204 333 59002 69941;
0190825860999992003031912004-05200-039300FM-12+021199999V0203601N003610075019N0200001N1+02481+02411101191ADDAY161061AY221061GF107991071071008001001001KA1240N+02361MA1999999098801MD1999999+0111MW1031REMSYN088AAXX  19124 82586 21598 73607 10248 20241 39880 40119 70362 87700 333 20236 58011 60014;
0167825860999992003031918004-05200-039300FM-12+021199999V0201001N003112200019N0200001N1+03111+01871100851ADDAA106000091GF105991031021008001001011MA1999999098491MD1999999+0021REMSYN070AAXX  19184 82586 32598 51006 10311 20187 39849 40085 83201 333 58002;EQDQ01  00002PRCP06
0242825860999992003032000004-05200-039300FM-12+021199999V0200501N003119999999N0010001N1+02601+02461101031ADDAA106000091AY121061AY221061GF108991999011008001001001KA1240M+03211MA1999999098651MD1999999+0001MW1131REMSYN094AAXX  20004 82586 31594 80506 10260 20246 39865 40103 71322 82100 333 10321 29082 55077 58000;EQDQ01+000022SCOTLCQ02  00002PRCP06
0186825860999992003032012004-05200-039300FM-12+021199999V0200901N002610075019N0200001N1+02721+02241101131ADDAA106000091GF108991081071008001999999KA1240N+02441MA1999999098751MD1999999-0051REMSYN076AAXX  20124 82586 32598 80905 10272 20224 39875 40113 887// 333 20244 59005;EQDQ01  00002PRCP06
0167825860999992003032018004-05200-039300FM-12+021199999V0201801N005110075019N0200001N1+02641+02311100941ADDAA106000091GF108991081071008001999999MA1999999098561MD1999999+0071REMSYN070AAXX  20184 82586 32598 81810 10264 20231 39856 40094 887// 333 58007;EQDQ01  00002PRCP06
0202825860999992003032100004-05200-039300FM-12+021199999V0203601N001510075019N0010001N1+02221+02221101111ADDAY191061AY261061GF108991081071008001999999KA1240M+03011MA1999999098721MD1999999+0071MW1211REMSYN100AAXX  21004 82586 21594 83603 10222 20222 39872 40111 72196 887// 333 10301 29089 55019 58007 60251;
0162825860999992003032112004-05200-039300FM-12+021199999V0201801N000510075019N0200001N1+02461+02431101171ADDGF108991081071008001999999KA1240N+02361MA1999999098771MD1999999+0021REMSYN082AAXX  21124 82586 22598 81801 10246 20243 39877 40117 887// 333 20236 58002 60254;
0171825860999992003032118004-05200-039300FM-12+021199999V0203601N001510075019N0200001N1+02471+02341100921ADDAY161061AY251061GF108991081071008001999999MA1999999098531MD1999999-0031MW1031REMSYN082AAXX  21184 82586 21598 83603 10247 20234 39853 40092 70365 887// 333 59003 60011;
0162825860999992003032812004-05200-039300FM-12+021199999V0200501N005110075019N0200001N1+02861+02261101091ADDGF108991081071008001999999KA1240N+02401MA1999999098721MD1999999+0031REMSYN082AAXX  28124 82586 22598 80510 10286 20226 39872 40109 887// 333 20240 58003 69924;
0167825860999992003032818004-05200-039300FM-12+021199999V0201801N003612200019N0200001N1+03001+02221100861ADDAA106000091GF104991021021008001001041MA1999999098501MD1999999+0021REMSYN070AAXX  28184 82586 32598 41807 10300 20222 39850 40086 82204 333 58002;EQDQ01  00002PRCP06
0190825860999992003032912004-05200-039300FM-12+021199999V0200501N003110075019N0200001N1+02821+02271101031ADDAY161061AY231061GF106991061071008001999999KA1240N+02761MA1999999098671MD1999999-0051MW1621REMSYN088AAXX  29124 82586 21598 60506 10282 20227 39867 40103 76263 867// 333 20276 59005 60014;
0148825860999992003032918004-05200-039300FM-12+021199999V0203601N004110075019N0200001N1+02861+02391100871ADDAA106000021GF108991071071008001999999MA1999999098461MD1999999-0141REMSYN070AAXX  29184 82586 32598 83608 10286 20239 39846 40087 877// 333 59014;
0202825860999992003033000004-05200-039300FM-12+021199999V0200901N001510075019N0010001N1+02401+02381100941ADDAY131061AY281061GF106991061021008001001001KA1240M+03111MA1999999098571MD1999999-0031MW1011REMSYN100AAXX  30004 82586 21594 60903 10240 20238 39857 40094 70138 86200 333 10311 29087 55038 59003 69921;
0190825860999992003033012004-05200-039300FM-12+021199999V0203601N002110075019N0200001N1+02601+02331101021ADDAY151061AY221061GF107991071071008001001001KA1240N+02361MA1999999098691MD1999999-0041MW1031REMSYN088AAXX  30124 82586 21598 73604 10260 20233 39869 40102 70352 87700 333 20236 59004 69934;
0202825860999992003033100004-05200-039300FM-12+021199999V0201401N005110075019N0010001N1+02501+02491100911ADDAY161061AY221061GF108991081091008001999999KA1240M+03201MA1999999098531MD1999999-0041MW1131REMSYN100AAXX  31004 82586 21594 81410 10250 20249 39853 40091 71362 889// 333 10320 29084 55072 59004 60051;
0190825860999992003033112004-05200-039300FM-12+021199999V0200501N001510075019N0200001N1+02681+02351100931ADDAY151061AY221061GF108991081071008001999999KA1240N+02321MA1999999098561MD1999999-0071MW1031REMSYN088AAXX  31124 82586 21598 80503 10268 20235 39856 40093 70352 887// 333 20232 59007 60064;
0167825860999992003033118004-05200-039300FM-12+021199999V0200901N001512200019N0200001N1+03171+01921100701ADDAA106000091GF104991041021008001001001MA1999999098341MD1999999+0001REMSYN070AAXX  31184 82586 32598 40903 10317 20192 39834 40070 84200 333 58000;EQDQ01  00002PRCP06
0202825860999992003040100004-05200-039300FM-12+021199999V0209999C000010075019N0010001N1+02421+02401100941ADDAY191061AY261061GF108991081091008001999999KA1240M+03271MA1999999098561MD1999999+0031MW1131REMSYN100AAXX  01004 82586 21594 80000 10242 20240 39856 40094 71396 889// 333 10327 29083 55094 58003 60031;
0190825860999992003040112004-05200-039300FM-12+021199999V0200901N003110075019N0200001N1+02601+02531101001ADDAY161061AY251061GF108991081071008001999999KA1240N+02361MA1999999098611MD1999999+0051MW1031REMSYN088AAXX  01124 82586 21598 80906 10260 20253 39861 40100 70365 887// 333 20236 58005 60044;
0167825860999992003040118004-05200-039300FM-12+021199999V0200901N003610075019N0200001N1+03021+02241100861ADDAA106000091GF106991061041008001001001MA1999999098501MD1999999+0161REMSYN070AAXX  01184 82586 32598 60907 10302 20224 39850 40086 86400 333 58016;EQDQ01  00002PRCP06
0198825860999992003040200004-05200-039300FM-12+021199999V0203601N000510075019N0010001N1+02491+02461101061ADDAA106000091GF106991061041008001001001KA1240M+03101MA1999999098681MD1999999+0121REMSYN088AAXX  02004 82586 32594 63601 10249 20246 39868 40106 86400 333 10310 29090 55017 58012;EQDQ01  00002PRCP06
0186825860999992003040212004-05200-039300FM-12+021199999V0200901N005110075019N0200001N1+02781+02131101111ADDAA106000091GF106991061041008001001001KA1240N+02381MA1999999098741MD1999999+0131REMSYN076AAXX  02124 82586 32598 60910 10278 20213 39874 40111 86400 333 20238 58013;EQDQ01  00002PRCP06
0167825860999992003040218004-05200-039300FM-12+021199999V0201401N002612200019N0200001N1+03101+01971100891ADDAA106000091GF104991041021008001001001MA1999999098531MD1999999+0031REMSYN070AAXX  02184 82586 32598 41405 10310 20197 39853 40089 84200 333 58003;EQDQ01  00002PRCP06
0221825860999992003040300004-05200-039300FM-12+021199999V0203601N002110075019N0200001N1+02371+02341101081ADDAY151061AY221061GF108991999021008001001001KA1240M+03171MA1999999098711MD1999999+0031MW1611REMSYN100AAXX  03004 82586 21598 83604 10237 20234 39871 40108 76152 86200 333 10317 29079 55087 58003 60021;EQDQ01+000062SCOTLC
0190825860999992003040312004-05200-039300FM-12+021199999V0200901N002110075019N0200001N1+02721+02281101051ADDAY151061AY221061GF106991061041008001001001KA1240N+02341MA1999999098651MD1999999-0091MW1031REMSYN088AAXX  03124 82586 21598 60904 10272 20228 39865 40105 70352 86400 333 20234 59009 60074;
0167825860999992003040318004-05200-039300FM-12+021199999V0200901N002112200019N0200001N1+03181+01871100811ADDAA106000091GF104991041021008001001001MA1999999098451MD1999999-0081REMSYN070AAXX  03184 82586 32598 40904 10318 20187 39845 40081 84200 333 59008;EQDQ01  00002PRCP06
0208825860999992003040400004-05200-039300FM-12+021199999V0209999C000012200019N0010001N1+02641+02391100861ADDAA106000091GA1001+999999999GF100991001001999999001001KA1240M+03261MA1999999098501MD1999999-0211REMSYN082AAXX  04004 82586 32994 00000 10264 20239 39850 40086 333 10326 29074 55090 59021;EQDQ01  00002PRCP06
0186825860999992003040412004-05200-039300FM-12+021199999V0200901N003110075019N0200001N1+02721+02291100981ADDAA106000091GF107991071071008001001001KA1240N+02381MA1999999098631MD1999999-0031REMSYN076AAXX  04124 82586 32598 70906 10272 20229 39863 40098 87700 333 20238 59003;EQDQ01  00002PRCP06
0167825860999992003040418004-05200-039300FM-12+021199999V0203601N003610075019N0200001N1+02801+02441100741ADDAA106000091GF106991061041008001001001MA1999999098371MD1999999-0081REMSYN070AAXX  04184 82586 32598 63607 10280 20244 39837 40074 86400 333 59008;EQDQ01  00002PRCP06
0242825860999992003040500004-05200-039300FM-12+021199999V0203601N001510075019N0010001N1+02561+02541100931ADDAA106000091AY121061AY221061GF107991999021008001001001KA1240M+03271MA1999999098571MD1999999+0071MW1131REMSYN094AAXX  05004 82586 31594 73603 10256 20254 39857 40093 71322 85200 333 10327 29090 55058 58007;EQDQ01+000052SCOTLCQ02  00002PRCP06
0190825860999992003040512004-05200-039300FM-12+021199999V0200501N005110075019N0200001N1+02801+02251101031ADDAY161061AY251061GF106991061041008001001001KA1240N+02361MA1999999098671MD1999999+0051MW1031REMSYN088AAXX  05124 82586 21598 60510 10280 20225 39867 40103 70365 86400 333 20236 58005 60034;
0167825860999992003040518004-05200-039300FM-12+021199999V0200501N004112200019N0200001N1+03181+01691100871ADDAA106000091GF106991031021008001001041MA1999999098511MD1999999+0141REMSYN070AAXX  05184 82586 32598 60508 10318 20169 39851 40087 83204 333 58014;EQDQ01  00002PRCP06
0167825860999992003040618004-05200-039300FM-12+021199999V0201401N002610075019N0200001N1+03221+02001100781ADDAA106000091GF106991061021008001001001MA1999999098421MD1999999-0091REMSYN070AAXX  06184 82586 32598 61405 10322 20200 39842 40078 86200 333 59009;EQDQ01  00002PRCP06
0214825860999992003040700004-05200-039300FM-12+021199999V0203601N005119999999N0010001N1+02561+02421100861ADDAA106000091GF105991999051008001001001KA1240M+03311MA1999999098501MD1999999-0101REMSYN088AAXX  07004 82586 32594 53610 10256 20242 39850 40086 84500 333 10331 29074 55103 59010;EQDQ01+000042SCOTLCQ02  00002PRCP06
0186825860999992003040712004-05200-039300FM-12+021199999V0200901N001510075019N0200001N1+02621+02051100941ADDAA106000091GF107991071071008001001001KA1240N+02201MA1999999098571MD1999999-0171REMSYN076AAXX  07124 82586 32598 70903 10262 20205 39857 40094 87700 333 20220 59017;EQDQ01  00002PRCP06
0167825860999992003040718004-05200-039300FM-12+021199999V0203601N001510075019N0200001N1+03031+02071100691ADDAA106000091GF105991051021008001001001MA1999999098331MD1999999-0091REMSYN070AAXX  07184 82586 32598 53603 10303 20207 39833 40069 85200 333 59009;EQDQ01  00002PRCP06
0198825860999992003040800004-05200-039300FM-12+021199999V0203601N000512200019N0010001N1+02581+02481100841ADDAA106000091GF102991021011008001001001KA1240M+03111MA1999999098471MD1999999-0031REMSYN088AAXX  08004 82586 32594 23601 10258 20248 39847 40084 82100 333 10311 29080 55056 59003;EQDQ01  00002PRCP06
0186825860999992003040812004-05200-039300FM-12+021199999V0200501N000510075019N0200001N1+02701+02331100931ADDAA106000091GF107991071071008001001001KA1240N+02341MA1999999098571MD1999999+0001REMSYN076AAXX  08124 82586 32598 70501 10270 20233 39857 40093 87700 333 20234 58000;EQDQ01  00002PRCP06
0167825860999992003040818004-05200-039300FM-12+021199999V0201801N002110075019N0200001N1+02781+02501100741ADDAA106000091GF106991061021008001001001MA1999999098361MD1999999+0031REMSYN070AAXX  08184 82586 32598 61804 10278 20250 39836 40074 86200 333 58003;EQDQ01  00002PRCP06
0202825860999992003040900004-05200-039300FM-12+021199999V0201801N001010075019N0010001N1+02391+02361100911ADDAY161061AY221061GF106991061041008001001001KA1240M+03171MA1999999098531MD1999999+0061MW1031REMSYN100AAXX  09004 82586 21594 61802 10239 20236 39853 40091 70362 86400 333 10317 29091 55054 58006 60111;
0162825860999992003040912004-05200-039300FM-12+021199999V0200501N004610075019N0200001N1+02761+02281101041ADDGF106991061041008001001001KA1240N+02321MA1999999098671MD1999999+0101REMSYN082AAXX  09124 82586 22598 60509 10276 20228 39867 40104 86400 333 20232 58010 60114;
0167825860999992003040918004-05200-039300FM-12+021199999V0201801N003112200019N0200001N1+03131+01791100811ADDAA106000091GF102991021011008001001001MA1999999098451MD1999999+0091REMSYN070AAXX  09184 82586 32598 21806 10313 20179 39845 40081 82100 333 58009;EQDQ01  00002PRCP06
0202825860999992003041000004-05200-039300FM-12+021199999V0209999C000010075019N0010001N1+02541+02521100991ADDAY121061AY221061GF106991061031008001001001KA1240M+03231MA1999999098631MD1999999+0101MW1131REMSYN100AAXX  10004 82586 21594 60000 10254 20252 39863 40099 71322 86300 333 10323 29080 55100 58010 69921;
0190825860999992003041012004-05200-039300FM-12+021199999V0200901N021110075019N0200001N1+02821+02171101081ADDAY191061AY261061GF107991071041008001001001KA1240N+02321MA1999999098721MD1999999+0051MW1031REMSYN088AAXX  10124 82586 21598 70941 10282 20217 39872 40108 70396 87400 333 20232 58005 60304;
0167825860999992003041018004-05200-039300FM-12+021199999V0203601N003110075019N0200001N1+02641+02291100961ADDAA106000091GF107991071021008001001001MA1999999098571MD1999999+0121REMSYN070AAXX  10184 82586 32598 73606 10264 20229 39857 40096 87200 333 58012;EQDQ01  00002PRCP06
0178825860999992003041100004-05200-039300FM-12+021199999V0201801N001010075019N0010001N1+02481+99999101031ADDAA106000091GF107991071021008001001001KA1240M+03101MA1999999098681REMSYN082AAXX  11004 82586 32594 71802 10248 20256 39868 40103 87200 333 10310 29087 55072;EQDQ01  00002PRCP06
0186825860999992003041112004-05200-039300FM-12+021199999V0200901N003610075019N0200001N1+02681+02261101091ADDAA106000091GF107991071071008001001001KA1240N+02361MA1999999098711MD1999999-0011REMSYN076AAXX  11124 82586 32598 70907 10268 20226 39871 40109 87700 333 20236 59001;EQDQ01  00002PRCP06
0167825860999992003041118004-05200-039300FM-12+021199999V0200901N001510075019N0200001N1+03061+01991100861ADDAA106000091GF106991061021008001001001MA1999999098501MD1999999-0071REMSYN070AAXX  11184 82586 32598 60903 10306 20199 39850 40086 86200 333 59007;EQDQ01  00002PRCP06
0198825860999992003041200004-05200-039300FM-12+021199999V0203601N002112200019N0010001N1+02621+02271100981ADDAA106000091GF102991021051008001001001KA1240M+03211MA1999999098621MD1999999-0061REMSYN088AAXX  12004 82586 32594 23604 10262 20227 39862 40098 82500 333 10321 29073 55084 59006;EQDQ01  00002PRCP06
0202825860999992003041212004-05200-039300FM-12+021199999V0200501N003610075019N0200001N1+02681+02261101071ADDAA106000091GF108991999021008001001001KA1240N+02421MA1999999098701MD1999999-0011REMSYN076AAXX  12124 82586 32598 80507 10268 20226 39870 40107 87200 333 20242 59001;EQDQ01+000072SCOTLCQ02  00002PRCP06
0208825860999992003041300004-05200-039300FM-12+021199999V0203601N001012200019N0020001N1+02621+02351101071ADDAA106000091GA1001+999999999GF100991001001999999001001KA1240M+03231MA1999999098711MD1999999+0091REMSYN082AAXX  13004 82586 32595 03602 10262 20235 39871 40107 333 10323 29073 55079 58009;EQDQ01  00002PRCP06
0167825860999992003041318004-05200-039300FM-12+021199999V0200501N003110075019N0200001N1+03071+02381100961ADDAA106000091GF106991061041008001001001MA1999999098601MD1999999+0041REMSYN070AAXX  13184 82586 32598 60506 10307 20238 39860 40096 86400 333 58004;EQDQ01  00002PRCP06
0169825860999992003041400004-05200-039300FM-12+021199999V0203601N001519999999N0010001N1+02631+02271999999ADDAA106000091GF105991999999999999999999KA1240M+03251REMSYN088AAXX  14004 82586 32994 53603 10263 20227 29872 40108 80004 333 10325 29076 55092 58001;EQDQ01  00002PRCP06
0186825860999992003041412004-05200-039300FM-12+021199999V0200501N002610075019N0200001N1+02881+02031101221ADDAA106000091GF105991051011008001001001KA1240N+02341MA1999999098851MD1999999+0041REMSYN076AAXX  14124 82586 32598 50505 10288 20203 39885 40122 85100 333 20234 58004;EQDQ01  00002PRCP06
0202825860999992003041512004-05200-039300FM-12+021199999V0203601N001510075019N0200001N1+02221+02041101021ADDAA106000091GF106991061041008001001001KA1240N+99999MA1999999098771MD1999999-0081REMSYN076AAXX  15124 82586 32598 63603 10222 20204 39877 40102 86400 333 20242 59008;EQDQ01  00002PRCP06Q02 +02422ATMN  
0167825860999992003041518004-05200-039300FM-12+021199999V0201801N001510075019N0200001N1+03141+02071100901ADDAA106000091GF106991061021008001001001MA1999999098541MD1999999-0091REMSYN070AAXX  15184 82586 32598 61803 10314 20207 39854 40090 86200 333 59009;EQDQ01  00002PRCP06
0208825860999992003041600004-05200-039300FM-12+021199999V0209999C000012200019N0010001N1+02681+02451100971ADDAA106000091GA1001+999999999GF100991001001999999001001KA1240M+03251MA1999999098611MD1999999-0111REMSYN082AAXX  16004 82586 32994 00000 10268 20245 39861 40097 333 10325 29075 55089 59011;EQDQ01  00002PRCP06
0186825860999992003041612004-05200-039300FM-12+021199999V0200501N003110075019N0200001N1+02861+02161101091ADDAA106000091GF107991071041008001001001KA1240N+02421MA1999999098731MD1999999-0041REMSYN076AAXX  16124 82586 32598 70506 10286 20216 39873 40109 87400 333 20242 59004;EQDQ01  00002PRCP06
0167825860999992003041618004-05200-039300FM-12+021199999V0201401N001512200019N0200001N1+03161+01711100861ADDAA106000091GF102991021011008001001001MA1999999098511MD1999999-0031REMSYN070AAXX  16184 82586 32598 21403 10316 20171 39851 40086 82100 333 59003;EQDQ01  00002PRCP06
0208825860999992003041700004-05200-039300FM-12+021199999V0202301N001012200019N0010001N1+02601+02391100921ADDAA106000091GA1001+999999999GF100991001001999999001001KA1240M+03251MA1999999098561MD1999999-0051REMSYN082AAXX  17004 82586 32994 02302 10260 20239 39856 40092 333 10325 29071 55101 59005;EQDQ01  00002PRCP06
0186825860999992003041712004-05200-039300FM-12+021199999V0200501N002110075019N0200001N1+02641+02271101161ADDAA106000091GF107991071041008001001001KA1240N+02241MA1999999098781MD1999999+0051REMSYN076AAXX  17124 82586 32598 70504 10264 20227 39878 40116 87400 333 20224 58005;EQDQ01  00002PRCP06
0167825860999992003041718004-05200-039300FM-12+021199999V0201801N002112200019N0200001N1+03191+01731100861ADDAA106000091GF104991041011008001001001MA1999999098501MD1999999-0011REMSYN070AAXX  17184 82586 32598 41804 10319 20173 39850 40086 84100 333 59001;EQDQ01  00002PRCP06
0198825860999992003041800004-05200-039300FM-12+021199999V0201401N001519999999N0010001N1+02681+02461100981ADDAA106000091GF106991061041999999001001KA1240M+03301MA1999999098621MD1999999+0061REMSYN088AAXX  18004 82586 32994 61403 10268 20246 39862 40098 86400 333 10330 29070 55096 58006;EQDQ01  00002PRCP06
0186825860999992003041812004-05200-039300FM-12+021199999V0200901N003110075019N0200001N1+02781+02131101051ADDAA106000091GF106991061041008001001001KA1240N+02321MA1999999098691MD1999999-0091REMSYN076AAXX  18124 82586 32598 60906 10278 20213 39869 40105 86400 333 20232 59009;EQDQ01  00002PRCP06
0167825860999992003041818004-05200-039300FM-12+021199999V0201801N002612200019N0200001N1+03201+01891100851ADDAA106000091GF104991041021008001001001MA1999999098501MD1999999+0001REMSYN070AAXX  18184 82586 32598 41805 10320 20189 39850 40085 84200 333 58000;EQDQ01  00002PRCP06
0226825860999992003041900004-05200-039300FM-12+021199999V0203601N001510075019N0010001N1+02701+02431100871ADDAA106000091AY121061AY221061GF106991061031008001001001KA1240M+03311MA1999999098511MD1999999-0111MW1131REMSYN094AAXX  19004 82586 31594 63603 10270 20243 39851 40087 71322 86300 333 10331 29071 55094 59011;EQDQ01  00002PRCP06
0190825860999992003041912004-05200-039300FM-12+021199999V0200901N004110075019N0200001N1+02601+02391101091ADDAY191061AY261061GF108991081071008001999999KA1240N+02201MA1999999098721MD1999999-0031MW1031REMSYN088AAXX  19124 82586 21598 80908 10260 20239 39872 40109 70396 887// 333 20220 59003 60104;
0183825860999992003041918004-05200-039300FM-12+021199999V0200501N003119999999N0200001N1+03041+01941100861ADDAA106000091GF105991999021008001001001MA1999999098511MD1999999+0011REMSYN070AAXX  19184 82586 32598 50506 10304 20194 39851 40086 84200 333 58001;EQDQ01+000042SCOTLCQ02  00002PRCP06
0198825860999992003042000004-05200-039300FM-12+021199999V0203601N002112200019N0010001N1+02531+02451101001ADDAA106000091GF102991021021008001001001KA1240M+03131MA1999999098621MD1999999+0111REMSYN088AAXX  20004 82586 32594 23604 10253 20245 39862 40100 82200 333 10313 29083 55070 58011;EQDQ01  00002PRCP06
0202825860999992003042012004-05200-039300FM-12+021199999V0200901N003112200019N0200001N1+02831+02021101041ADDAA106000091GF104991999041008001021001KA1240N+02351MA1999999098681MD1999999-0041REMSYN076AAXX  20124 82586 32598 40906 10283 20202 39868 40104 88420 333 20235 59004;EQDQ01+000082SCOTLCQ02  00002PRCP06
0167825860999992003042018004-05200-039300FM-12+021199999V0201401N003112200019N0200001N1+03081+01851100871ADDAA106000091GF102991021021008001001001MA1999999098511MD1999999+0001REMSYN070AAXX  20184 82586 32598 21406 10308 20185 39851 40087 82200 333 58000;EQDQ01  00002PRCP06
0208825860999992003042100004-05200-039300FM-12+021199999V0209999C000012200019N0010001N1+02581+02231100931ADDAA106000091GA1001+999999999GF100991001001999999001001KA1240M+03201MA1999999098571MD1999999+0051REMSYN082AAXX  21004 82586 32994 00000 10258 20223 39857 40093 333 10320 29068 55103 58005;EQDQ01  00002PRCP06
0186825860999992003042112004-05200-039300FM-12+021199999V0201401N004612200019N0200001N1+02801+01921100941ADDAA106000091GF102991021011008001001001KA1240N+02361MA1999999098581MD1999999-0101REMSYN076AAXX  21124 82586 32598 21409 10280 20192 39858 40094 82100 333 20236 59010;EQDQ01  00002PRCP06
0167825860999992003042118004-05200-039300FM-12+021199999V0201401N003112200019N0200001N1+03161+01861100821ADDAA106000091GF104991021021008001051001MA1999999098471MD1999999-0041REMSYN070AAXX  21184 82586 32598 41406 10316 20186 39847 40082 82250 333 59004;EQDQ01  00002PRCP06
0202825860999992003042200004-05200-039300FM-12+021199999V0201401N003110075019N0010001N1+02421+02301100941ADDAY151061AY221061GF106991061041008001001001KA1240M+03261MA1999999098601MD1999999+0031MW1031REMSYN100AAXX  22004 82586 21594 61406 10242 20230 39860 40094 70352 86400 333 10326 29073 55104 58003 69921;
0190825860999992003042212004-05200-039300FM-12+021199999V0200901N002110075019N0200001N1+02621+02141101041ADDAY161061AY221061GF107991071041008001001001KA1240N+02261MA1999999098651MD1999999+0071MW1031REMSYN088AAXX  22124 82586 21598 70904 10262 20214 39865 40104 70362 87400 333 20226 58007 60134;
0167825860999992003042218004-05200-039300FM-12+021199999V0200901N003110450019N0200001N1+02931+01981100881ADDAA106000091GF108991041021008001021999MA1999999098511MD1999999+0041REMSYN070AAXX  22184 82586 32598 80906 10293 20198 39851 40088 8422/ 333 58004;EQDQ01  00002PRCP06
0226825860999992003042300004-05200-039300FM-12+021199999V0209999C000010075019N0010001N1+02521+02501101031ADDAA106000091AY121061AY221061GF106991061031008001001001KA1240M+03051MA1999999098651MD1999999+0051MW1131REMSYN094AAXX  23004 82586 31594 60000 10252 20250 39865 40103 71322 86300 333 10305 29083 55064 58005;EQDQ01  00002PRCP06
0186825860999992003042312004-05200-039300FM-12+021199999V0201801N002612200019N0200001N1+02821+02111101941ADDAA106000091GF104991041021008001001001KA1240N+02221MA1999999098671MD1999999+0061REMSYN076AAXX  23124 82586 32598 41805 10282 20211 39867 40194 84200 333 20222 58006;EQDQ01  00002PRCP06
0215825860999992003042318004-05200-039300FM-12+021199999V0200901N001512200019N0200001N1+03041+01731100982ADDAA106000091GF106991021051008001001041MA1999999999999MD1999999-0061REMSYN070AAXX  23184 82586 32598 60903 10304 20173 39447 40098 82504 333 59006;EQDQ01+094473APOSP Q02+100983APOSLPQ03  00002PRCP06Q04 094473APOSP 
0214825860999992003042400004-05200-039300FM-12+021199999V0202301N001019999999N0010001N1+02641+02421100931ADDAA106000091GF106991999061008001051001KA1240M+03151MA1999999098571MD1999999-0081REMSYN088AAXX  24004 82586 32594 62302 10264 20242 39857 40093 88650 333 10315 29074 55091 59008;EQDQ01+000082SCOTLCQ02  00002PRCP06
0186825860999992003042412004-05200-039300FM-12+021199999V0200901N003110075019N0200001N1+02641+02421101051ADDAA106000091GF107991071071008001001001KA1240N+02421MA1999999098681MD1999999+0011REMSYN076AAXX  24124 82586 32598 70906 10264 20242 39868 40105 87700 333 20242 58001;EQDQ01  00002PRCP06
0167825860999992003042418004-05200-039300FM-12+021199999V0201801N002110450019N0200001N1+02881+02321100881ADDAA106000091GF108991041021008001021999MA1999999098521MD1999999+0061REMSYN070AAXX  24184 82586 32598 81804 10288 20232 39852 40088 8422/ 333 58006;EQDQ01  00002PRCP06
0198825860999992003042500004-05200-039300FM-12+021199999V0209999C000010075019N0010001N1+02661+02521100931ADDAA106000091GF107991071071008001001001KA1240M+02991MA1999999098571MD1999999+0001REMSYN088AAXX  25004 82586 32594 70000 10266 20252 39857 40093 87700 333 10299 29086 55009 58000;EQDQ01  00002PRCP06
0186825860999992003042512004-05200-039300FM-12+021199999V0200501N002610075019N0200001N1+02801+02251101041ADDAA106000091GF105991051021008001001001KA1240N+02341MA1999999098681MD1999999+0001REMSYN076AAXX  25124 82586 32598 50505 10280 20225 39868 40104 85200 333 20234 58000;EQDQ01  00002PRCP06
0167825860999992003042518004-05200-039300FM-12+021199999V0200501N002112200019N0200001N1+03121+01791100841ADDAA106000091GF106991031021008001001041MA1999999098481MD1999999-0041REMSYN070AAXX  25184 82586 32598 60504 10312 20179 39848 40084 83204 333 59004;EQDQ01  00002PRCP06
0198825860999992003042600004-05200-039300FM-12+021199999V0203601N003110075019N0010001N1+02541+02191101141ADDAA106000091GF106991061041008001001001KA1240M+03201MA1999999098761MD1999999+0191REMSYN088AAXX  26004 82586 32594 63606 10254 20219 39876 40114 86400 333 10320 29070 55079 58019;EQDQ01  00002PRCP06
0190825860999992003042612004-05200-039300FM-12+021199999V0200901N001510120019N0200001N1+02501+02381101171ADDAY161061AY221061GF108991081081008001999999KA1240N+02321MA1999999098781MD1999999+0101MW1031REMSYN088AAXX  26124 82586 21598 80903 10250 20238 39878 40117 70362 888// 333 20232 58010 60014;
0183825860999992003042618004-05200-039300FM-12+021199999V0203601N002619999999N0200001N1+02891+02321100991ADDAA106000091GF106991999021008001001001MA1999999098621MD1999999+0141REMSYN070AAXX  26184 82586 32598 63605 10289 20232 39862 40099 83200 333 58014;EQDQ01+000032SCOTLCQ02  00002PRCP06
0198825860999992003042700004-05200-039300FM-12+021199999V0209999C000010075019N0010001N1+02601+02551101021ADDAA106000091GF106991061041008001001001KA1240M+03061MA1999999098641MD1999999-0121REMSYN088AAXX  27004 82586 32594 60000 10260 20255 39864 40102 86400 333 10306 29090 55024 59012;EQDQ01  00002PRCP06
0190825860999992003042712004-05200-039300FM-12+021199999V0201401N000510075019N0010001N1+02561+02351101161ADDAY161061AY251061GF108991081071008001999999KA1240N+02351MA1999999098781MD1999999+0001MW1031REMSYN088AAXX  27124 82586 21594 81401 10256 20235 39878 40116 70365 887// 333 20235 58000 60014;
0171825860999992003042718004-05200-039300FM-12+021199999V0201801N002610075019N0200001N1+02871+02311100891ADDAY161061AY261061GF108991081071008001999999MA1999999098521MD1999999-0101MW1031REMSYN082AAXX  27184 82586 21598 81805 10287 20231 39852 40089 70366 887// 333 59010 60151;
0202825860999992003042800004-05200-039300FM-12+021199999V0201801N001010075019N0010001N1+02261+02241101231ADDAY191061AY261061GF108991081071008001999999KA1240M+03011MA1999999098831MD1999999+0191MW1611REMSYN100AAXX  28004 82586 21594 81802 10226 20224 39883 40123 76196 887// 333 10301 29090 55036 58019 60761;
0190825860999992003042812004-05200-039300FM-12+021199999V0200701N001010075019N0200001N1+02481+02411101121ADDAY161061AY261061GF108991081071008001999999KA1240N+02201MA1999999098721MD1999999-0061MW1031REMSYN088AAXX  28124 82586 21598 80702 10248 20241 39872 40112 70366 887// 333 20220 59006 60954;
0167825860999992003042818004-05200-039300FM-12+021199999V0201801N002112200019N0200001N1+03191+01731100861ADDAA106000091GF104991041011008001001001MA1999999098501MD1999999-0011REMSYN070AAXX  28184 82586 32598 41804 10319 20173 39850 40086 84100 333 59001;EQDQ01  00002PRCP06
0226825860999992003042900004-05200-039300FM-12+021199999V0201801N001510075019N0010001N1+02541+02401101071ADDAA106000091AY121061AY221061GF106991061021008001001001KA1240M+03031MA1999999098681MD1999999-0171MW1131REMSYN094AAXX  29004 82586 31594 61803 10254 20240 39868 40107 71322 86200 333 10303 29086 55077 59017;EQDQ01  00002PRCP06
0186825860999992003042912004-05200-039300FM-12+021199999V0200501N002112200019N0200001N1+02761+02211101181ADDAA106000091GF106991041011008001001011KA1240N+02321MA1999999098801MD1999999+0081REMSYN076AAXX  29124 82586 32598 60504 10276 20221 39880 40118 84101 333 20232 58008;EQDQ01  00002PRCP06
0167825860999992003042918004-05200-039300FM-12+021199999V0201801N002110075019N0200001N1+02741+02521100951ADDAA106000091GF106991061021008001001001MA1999999098571MD1999999+0051REMSYN070AAXX  29184 82586 32598 61804 10274 20252 39857 40095 86200 333 58005;EQDQ01  00002PRCP06
0226825860999992003043000004-05200-039300FM-12+021199999V0203601N001510075019N0010001N1+02531+02501101061ADDAA106000091AY121061AY221061GF106991061031008001001001KA1240M+03111MA1999999098691MD1999999+0011MW1131REMSYN094AAXX  30004 82586 31594 63603 10253 20250 39869 40106 71322 86300 333 10311 29090 55080 58001;EQDQ01  00002PRCP06
0186825860999992003043012004-05200-039300FM-12+021199999V0200901N004112200019N0200001N1+02821+02171101191ADDAA106000091GF104991041021008001001001KA1240N+02421MA1999999098821MD1999999+0021REMSYN076AAXX  30124 82586 32598 40908 10282 20217 39882 40119 84200 333 20242 58002;EQDQ01  00002PRCP06
0183825860999992003043018004-05200-039300FM-12+021199999V0201401N003110075019N0200001N1+03091+02131100911ADDAA106000091GF106991999021008001001001MA1999999098551MD1999999-0021REMSYN070AAXX  30184 82586 32598 61406 10309 20213 39855 40091 85200 333 59002;EQDQ01+000052SCOTLCQ02  00002PRCP06
0226825860999992003050100004-05200-039300FM-12+021199999V0200501N003110075019N0010001N1+02641+02611101111ADDAA106000091AY121061AY221061GF106991061021008001001001KA1240M+03071MA1999999098751MD1999999+0061MW1131REMSYN094AAXX  01004 82586 31594 60506 10264 20261 39875 40111 71322 86200 333 10307 29080 55095 58006;EQDQ01  00002PRCP06
0190825860999992003050112004-05200-039300FM-12+021199999V0200901N003110075019N0200001N1+02641+02421101251ADDAY161061AY221061GF108991081071008001999999KA1240N+02361MA1999999098871MD1999999+0051MW1031REMSYN088AAXX  01124 82586 21598 80906 10264 20242 39887 40125 70362 887// 333 20236 58005 60024;
0171825860999992003050118004-05200-039300FM-12+021199999V0200501N002610075019N0200001N1+03001+02321100961ADDAY151061AY221061GF106991061041008001001001MA1999999098601MD1999999+0051MW1031REMSYN082AAXX  01184 82586 21598 60505 10300 20232 39860 40096 70352 86400 333 58005 69981;
0198825860999992003050200004-05200-039300FM-12+021199999V0209999C000012200019N0010001N1+02561+02541101161ADDAA106000091GF104991041021008001001001KA1240M+03131MA1999999098781MD1999999+0031REMSYN088AAXX  02004 82586 32594 40000 10256 20254 39878 40116 84200 333 10313 29088 55054 58003;EQDQ01  00002PRCP06
0190825860999992003050212004-05200-039300FM-12+021199999V0200501N003110075019N0200001N1+02821+02271101161ADDAY151061AY251061GF106991061021008001001001KA1240N+02381MA1999999098791MD1999999-0081MW1031REMSYN088AAXX  02124 82586 21598 60506 10282 20227 39879 40116 70355 86200 333 20238 59008 60014;
0183825860999992003050218004-05200-039300FM-12+021199999V0200501N002112200019N0200001N1+03141+02071100871ADDAA106000091GF103991999011008001001001MA1999999098511MD1999999-0091REMSYN070AAXX  02184 82586 32598 30504 10314 20207 39851 40087 82100 333 59009;EQDQ01+000022SCOTLCQ02  00002PRCP06
0208825860999992003050300004-05200-039300FM-12+021199999V0209999C000012200019N0010001N1+02521+02451100981ADDAA106000091GA1001+999999999GF100991001001999999001001KA1240M+03201MA1999999098621MD1999999-0161REMSYN082AAXX  03004 82586 32994 00000 10252 20245 39862 40098 333 10320 29079 55087 59016;EQDQ01  00002PRCP06
0186825860999992003050312004-05200-039300FM-12+021199999V0200501N003110075019N0200001N1+02761+02281101051ADDAA106000091GF106991061041008001001001KA1240N+02341MA1999999098681MD1999999-0111REMSYN076AAXX  03124 82586 32598 60506 10276 20228 39868 40105 86400 333 20234 59011;EQDQ01  00002PRCP06
0167825860999992003050318004-05200-039300FM-12+021199999V0203601N001510075019N0200001N1+02821+02401100931ADDAA106000091GF106991061041008001001001MA1999999098561MD1999999+0051REMSYN070AAXX  03184 82586 32598 63603 10282 20240 39856 40093 86400 333 58005;EQDQ01  00002PRCP06
0198825860999992003050400004-05200-039300FM-12+021199999V0203601N001510075019N0010001N1+02601+02461101031ADDAA106000091GF106991061041008001001001KA1240M+03131MA1999999098671MD1999999+0051REMSYN088AAXX  04004 82586 32594 63603 10260 20246 39867 40103 86400 333 10313 29084 55071 58005;EQDQ01  00002PRCP06
0186825860999992003050412004-05200-039300FM-12+021199999V0203601N002610075019N0200001N1+02841+02241101251ADDAA106000091GF107991071021008001001001KA1240N+02321MA1999999098691MD1999999+0011REMSYN076AAXX  04124 82586 32598 73605 10284 20224 39869 40125 87200 333 20232 58001;EQDQ01  00002PRCP06
0171825860999992003050418004-05200-039300FM-12+021199999V0201801N001010075019N0200001N1+02881+02541100871ADDAY161061AY221061GF107991071071008001999999MA1999999098511MD1999999-0051MW1211REMSYN082AAXX  04184 82586 21598 71802 10288 20254 39851 40087 72162 877// 333 59005 60161;
0202825860999992003050500004-05200-039300FM-12+021199999V0209999C000010075019N0010001N1+02381+02361101021ADDAY161061AY221061GF106991061021008001001001KA1240M+03211MA1999999098651MD1999999-0021MW1031REMSYN100AAXX  05004 82586 21594 60000 10238 20236 39865 40102 70362 86200 333 10321 29090 55048 59002 60051;
0209825860999992003050512004-05200-039300FM-12+021199999V0200901N001519999999N0200001N1+02481+02481101161ADDAY161061AY251061GF106991999071008001999999KA1240N+02201MA1999999098761MD1999999+0071MW1031REMSYN088AAXX  05124 82586 21598 60903 10248 20248 39876 40116 70365 887// 333 20220 58007 60284;EQDQ01+000082SCOTLC
0171825860999992003050518004-05200-039300FM-12+021199999V0203601N001510075019N0200001N1+02601+02581101021ADDAY161061AY221061GF106991061041008001001001MA1999999098621MD1999999+0111MW1031REMSYN082AAXX  05184 82586 21598 63603 10260 20258 39862 40102 70362 86400 333 58011 60021;
0198825860999992003050600004-05200-039300FM-12+021199999V0203601N001010075019N0010001N1+02461+02431101121ADDAA106000091GF106991061041008001001001KA1240M+03111MA1999999098721MD1999999+0071REMSYN088AAXX  06004 82586 32594 63602 10246 20243 39872 40112 86400 333 10311 29099 55042 58007;EQDQ01  00002PRCP06
0162825860999992003050612004-05200-039300FM-12+021199999V0200501N002612200019N0200001N1+02701+02201101181ADDGF104991041021008001001001KA1240N+02301MA1999999098801MD1999999+0041REMSYN082AAXX  06124 82586 22598 40505 10270 20220 39880 40118 84200 333 20230 58004 60024;
0167825860999992003050618004-05200-039300FM-12+021199999V0200901N003112200019N0200001N1+03021+01861100951ADDAA106000091GF103991031021008001001001MA1999999098591MD1999999-0031REMSYN070AAXX  06184 82586 32598 30906 10302 20186 39859 40095 83200 333 59003;EQDQ01  00002PRCP06
0198825860999992003050700004-05200-039300FM-12+021199999V0209999C000012200019N0010001N1+02501+02471101001ADDAA106000091GF104991041041008001001001KA1240M+03161MA1999999098631MD1999999-0091REMSYN088AAXX  07004 82586 32594 40000 10250 20247 39863 40100 84400 333 10316 29080 55093 59009;EQDQ01  00002PRCP06
0186825860999992003050712004-05200-039300FM-12+021199999V0200901N002612200019N0200001N1+02801+02001101091ADDAA106000091GF103991031011008001001001KA1240N+02241MA1999999098721MD1999999-0081REMSYN076AAXX  07124 82586 32598 30905 10280 20200 39872 40109 83100 333 20224 59008;EQDQ01  00002PRCP06
0167825860999992003050718004-05200-039300FM-12+021199999V0201801N003112200019N0200001N1+03041+01781100861ADDAA106000091GF103991031011008001001001MA1999999098501MD1999999-0091REMSYN070AAXX  07184 82586 32598 31806 10304 20178 39850 40086 83100 333 59009;EQDQ01  00002PRCP06
0198825860999992003050800004-05200-039300FM-12+021199999V0209999C000012200019N0010001N1+02541+02471100991ADDAA106000091GF104991041011008001001001KA1240M+03141MA1999999098611MD1999999-0021REMSYN088AAXX  08004 82586 32594 40000 10254 20247 39861 40099 84100 333 10314 29075 55099 59002;EQDQ01  00002PRCP06
0186825860999992003050812004-05200-039300FM-12+021199999V0200901N002110075019N0200001N1+02761+02121101131ADDAA106000091GF106991061041008001001001KA1240N+02261MA1999999098751MD1999999+0031REMSYN076AAXX  08124 82586 32598 60904 10276 20212 39875 40113 86400 333 20226 58003;EQDQ01  00002PRCP06
0167825860999992003050818004-05200-039300FM-12+021199999V0200501N003112200019N0200001N1+03121+01521100921ADDAA106000091GF102991021021008001001001MA1999999098561MD1999999+0061REMSYN070AAXX  08184 82586 32598 20506 10312 20152 39856 40092 82200 333 58006;EQDQ01  00002PRCP06
0198825860999992003050900004-05200-039300FM-12+021199999V0209999C000010075019N0010001N1+02521+02451101031ADDAA106000091GF105991051021008001001001KA1240M+03201MA1999999098701MD1999999+0091REMSYN088AAXX  09004 82586 32594 50000 10252 20245 39870 40103 85200 333 10320 29075 55105 58009;EQDQ01  00002PRCP06
0186825860999992003050912004-05200-039300FM-12+021199999V0200901N004110075019N0200001N1+02621+02151101321ADDAA106000091GF105991051021008001001001KA1240N+02161MA1999999098851MD1999999+0101REMSYN076AAXX  09124 82586 32598 50908 10262 20215 39885 40132 85200 333 20216 58010;EQDQ01  00002PRCP06
0167825860999992003050918004-05200-039300FM-12+021199999V0200901N001512200019N0200001N1+03151+01841100961ADDAA106000091GF102991011011008001001041MA1999999098601MD1999999+0041REMSYN070AAXX  09184 82586 32598 20903 10315 20184 39860 40096 81104 333 58004;EQDQ01  00002PRCP06
0208825860999992003051000004-05200-039300FM-12+021199999V0209999C000012200019N0010001N1+02561+02381100991ADDAA106000091GA1001+999999999GF100991001001999999001001KA1240M+03231MA1999999098631MD1999999-0071REMSYN082AAXX  10004 82586 32994 00000 10256 20238 39863 40099 333 10323 29074 55096 59007;EQDQ01  00002PRCP06
0078825860999992003051018004-05200-039300FM-12+021199999V02099999999999999999N9999999N1+99999+99999999999REMSYN069AAXX  10184 82586 3258 21404 10309 20192 39869 40105 82200 333 58009;
0208825860999992003051100004-05200-039300FM-12+021199999V0203601N000512200019N0010001N1+02541+02471101151ADDAA106000091GA1001+999999999GF100991001001999999001001KA1240M+03211MA1999999098771MD1999999+0141REMSYN082AAXX  11004 82586 32994 03601 10254 20247 39877 40115 333 10321 29077 55096 58014;EQDQ01  00002PRCP06
0186825860999992003051112004-05200-039300FM-12+021199999V0200901N003110075019N0200001N1+02661+02221101271ADDAA106000091GF106991061041008001001001KA1240N+02321MA1999999098891MD1999999+0011REMSYN076AAXX  11124 82586 32598 60906 10266 20222 39889 40127 86400 333 20232 58001;EQDQ01  00002PRCP06
0167825860999992003051118004-05200-039300FM-12+021199999V0201401N001510075019N0200001N1+03111+01771101041ADDAA106000091GF106991061021008001001001MA1999999098681MD1999999-0011REMSYN070AAXX  11184 82586 32598 61403 10311 20177 39868 40104 86200 333 59001;EQDQ01  00002PRCP06
0198825860999992003051200004-05200-039300FM-12+021199999V0209999C000010075019N0010001N1+02621+02411101151ADDAA106000091GF106991061051008001001001KA1240M+03171MA1999999098771MD1999999+0001REMSYN088AAXX  12004 82586 32594 60000 10262 20241 39877 40115 86500 333 10317 29075 55089 58000;EQDQ01  00002PRCP06
0190825860999992003051212004-05200-039300FM-12+021199999V0201801N001510075019N0200001N1+02501+02471101251ADDAY161061AY251061GF107991071041008001001001KA1240N+02281MA1999999098871MD1999999-0021MW1031REMSYN088AAXX  12124 82586 21598 71803 10250 20247 39887 40125 70365 87400 333 20228 59002 60114;
0167825860999992003051218004-05200-039300FM-12+021199999V0200901N002612200019N0200001N1+03021+01921101021ADDAA106000091GF104991041021008001001001MA1999999098661MD1999999-0021REMSYN070AAXX  12184 82586 32598 40905 10302 20192 39866 40102 84200 333 59002;EQDQ01  00002PRCP06
0208825860999992003051300004-05200-039300FM-12+021199999V0209999C000012200019N0010001N1+02561+02491101131ADDAA106000091GA1001+999999999GF100991001001999999001001KA1240M+03141MA1999999098751MD1999999-0021REMSYN082AAXX  13004 82586 32994 00000 10256 20249 39875 40113 333 10314 29086 55079 59002;EQDQ01  00002PRCP06
0186825860999992003051312004-05200-039300FM-12+021199999V0201801N002110075019N0200001N1+02581+02511101191ADDAA106000091GF108991081071008001999999KA1240N+02401MA1999999098811MD1999999-0061REMSYN076AAXX  13124 82586 32598 81804 10258 20251 39881 40119 887// 333 20240 59006;EQDQ01  00002PRCP06
0171825860999992003051318004-05200-039300FM-12+021199999V0200901N001512200019N0200001N1+02961+01871100931ADDAY161061AY221061GF102991021021008001001001MA1999999098611MD1999999-0051MW1031REMSYN082AAXX  13184 82586 21598 20903 10296 20187 39861 40093 70362 82200 333 59005 60051;
0198825860999992003051400004-05200-039300FM-12+021199999V0209999C000019999999N0010001N1+02501+02471101161ADDAA106000091GF106991061001012501051001KA1240M+03101MA1999999098781MD1999999+0031REMSYN088AAXX  14004 82586 32694 60000 10250 20247 39878 40116 86050 333 10310 29086 55049 58003;EQDQ01  00002PRCP06
0162825860999992003051412004-05200-039300FM-12+021199999V0200501N002610075019N0200001N1+02661+02221101211ADDGF107991071041008001001001KA1240N+02401MA1999999098831MD1999999+0021REMSYN082AAXX  14124 82586 22598 70505 10266 20222 39883 40121 87400 333 20240 58002 60054;
0167825860999992003051418004-05200-039300FM-12+021199999V0200901N002112200019N0200001N1+03061+01621100911ADDAA106000091GF102991021011008001001001MA1999999098551MD1999999-0061REMSYN070AAXX  14184 82586 32598 20904 10306 20162 39855 40091 82100 333 59006;EQDQ01  00002PRCP06
0198825860999992003051500004-05200-039300FM-12+021199999V0209999C000012200019N0010001N1+02521+02381101041ADDAA106000091GF104991041021012501001001KA1240M+03171MA1999999098671MD1999999-0111REMSYN088AAXX  15004 82586 32694 40000 10252 20238 39867 40104 84200 333 10317 29076 55070 59011;EQDQ01  00002PRCP06
0186825860999992003051512004-05200-039300FM-12+021199999V0200901N003110075019N0200001N1+02781+02111101051ADDAA106000091GF106991061041008001001001KA1240N+02421MA1999999098681MD1999999-0151REMSYN076AAXX  15124 82586 32598 60906 10278 20211 39868 40105 86400 333 20242 59015;EQDQ01  00002PRCP06
0167825860999992003051518004-05200-039300FM-12+021199999V0200901N002110075019N0200001N1+02821+02271100921ADDAA106000091GF106991061041008001001001MA1999999098561MD1999999+0011REMSYN070AAXX  15184 82586 32598 60904 10282 20227 39856 40092 86400 333 58001;EQDQ01  00002PRCP06
0198825860999992003051600004-05200-039300FM-12+021199999V0203601N001010075019N0010001N1+02581+02551101001ADDAA106000091GF108991081071008001999999KA1240M+03061MA1999999098621MD1999999-0021REMSYN088AAXX  16004 82586 32594 83602 10258 20255 39862 40100 887// 333 10306 29084 55048 59002;EQDQ01  00002PRCP06
0186825860999992003051612004-05200-039300FM-12+021199999V0200901N004610075019N0200001N1+02781+02181101091ADDAA106000091GF107991071041008001001001KA1240N+02321MA1999999098731MD1999999+0051REMSYN076AAXX  16124 82586 32598 70909 10278 20218 39873 40109 87400 333 20232 58005;EQDQ01  00002PRCP06
0183825860999992003051618004-05200-039300FM-12+021199999V0201401N002119999999N0200001N1+02991+01891100781ADDAA106000091GF106991999021008001001001MA1999999098421MD1999999-0141REMSYN070AAXX  16184 82586 32598 61404 10299 20189 39842 40078 84200 333 59014;EQDQ01+000042SCOTLCQ02  00002PRCP06
0214825860999992003051700004-05200-039300FM-12+021199999V0209999C000019999999N0010001N1+02621+02481100941ADDAA106000091GF108991999021999999001001KA1240M+03061MA1999999098581MD1999999-0041REMSYN088AAXX  17004 82586 32994 80000 10262 20248 39858 40094 87200 333 10306 29077 55030 59004;EQDQ01+000072SCOTLCQ02  00002PRCP06
0186825860999992003051712004-05200-039300FM-12+021199999V0201401N003112200019N0200001N1+02701+01991101021ADDAA106000091GF104991041021008001001001KA1240N+02301MA1999999098651MD1999999-0081REMSYN076AAXX  17124 82586 32598 41406 10270 20199 39865 40102 84200 333 20230 59008;EQDQ01  00002PRCP06
0167825860999992003051718004-05200-039300FM-12+021199999V0201401N003112200019N0200001N1+03091+01641100811ADDAA106000091GF104991041021008001001001MA1999999098451MD1999999+0031REMSYN070AAXX  17184 82586 32598 41406 10309 20164 39845 40081 84200 333 58003;EQDQ01  00002PRCP06
0208825860999992003051800004-05200-039300FM-12+021199999V0209999C000012200019N0010001N1+02621+02481100911ADDAA106000091GA1001+999999999GF100991001001999999001001KA1240M+03061MA1999999098551MD1999999-0031REMSYN082AAXX  18004 82586 32994 00000 10262 20248 39855 40091 333 10306 29073 55102 59003;EQDQ01  00002PRCP06
0186825860999992003051812004-05200-039300FM-12+021199999V0200901N002612200019N0200001N1+02681+02021101031ADDAA106000091GF103991031021008001001001KA1240N+02331MA1999999098661MD1999999+0011REMSYN076AAXX  18124 82586 32598 30905 10268 20202 39866 40103 83200 333 20233 58001;EQDQ01  00002PRCP06
0167825860999992003051818004-05200-039300FM-12+021199999V0201401N002110075019N0200001N1+03091+01821100871ADDAA106000091GF107991071071008001001001MA1999999098511MD1999999+0061REMSYN070AAXX  18184 82586 32598 71404 10309 20182 39851 40087 87700 333 58006;EQDQ01  00002PRCP06
0198825860999992003051900004-05200-039300FM-12+021199999V0203601N001510075019N0010001N1+02621+02411100961ADDAA106000091GF107991071071008001001001KA1240M+03211MA1999999098601MD1999999+0051REMSYN088AAXX  19004 82586 32594 73603 10262 20241 39860 40096 87700 333 10321 29073 55075 58005;EQDQ01  00002PRCP06
0186825860999992003051912004-05200-039300FM-12+021199999V0201401N001510075019N0200001N1+02481+02411101141ADDAA106000091GF108991081071008001999999KA1240N+02361MA1999999098761MD1999999+0101REMSYN076AAXX  19124 82586 32598 81403 10248 20241 39876 40114 887// 333 20236 58010;EQDQ01  00002PRCP06
0167825860999992003051918004-05200-039300FM-12+021199999V0200501N002110075019N0200001N1+02621+02291100931ADDAA106000091GF108991081071008001999999MA1999999098551MD1999999+0041REMSYN070AAXX  19184 82586 32598 80504 10262 20229 39855 40093 887// 333 58004;EQDQ01  00002PRCP06
0198825860999992003052000004-05200-039300FM-12+021199999V0203601N003110075019N0010001N1+02501+02431101141ADDAA106000091GF108991081071008001999999KA1240M+02891MA1999999098751MD1999999+0151REMSYN088AAXX  20004 82586 32594 83606 10250 20243 39875 40114 887// 333 10289 29093 55000 58015;EQDQ01  00002PRCP06
0186825860999992003052012004-05200-039300FM-12+021199999V0200501N001510075019N0200001N1+02541+02251101221ADDAA106000091GF108991081071008001999999KA1240N+02321MA1999999098831MD1999999+0071REMSYN076AAXX  20124 82586 32598 80503 10254 20225 39883 40122 887// 333 20232 58007;EQDQ01  00002PRCP06
0167825860999992003052018004-05200-039300FM-12+021199999V0201401N002112200019N0200001N1+02991+01551101031ADDAA106000091GF104991021021008001001041MA1999999098661MD1999999+0111REMSYN070AAXX  20184 82586 32598 41404 10299 20155 39866 40103 82204 333 58011;EQDQ01  00002PRCP06
0198825860999992003052100004-05200-039300FM-12+021199999V0200501N002110075019N0010001N1+02541+02331101141ADDAA106000091GF106991061021008001001001KA1240M+03061MA1999999098731MD1999999+0011REMSYN088AAXX  21004 82586 32594 60504 10254 20233 39873 40114 86200 333 10306 29076 55037 58001;EQDQ01  00002PRCP06
0186825860999992003052112004-05200-039300FM-12+021199999V0200901N000510075019N0200001N1+02521+02361101161ADDAA106000091GF108991081071008001999999KA1240N+02341MA1999999098781MD1999999+0051REMSYN076AAXX  21124 82586 32598 80901 10252 20236 39878 40116 887// 333 20234 58005;EQDQ01  00002PRCP06
0167825860999992003052118004-05200-039300FM-12+021199999V0201401N003112200019N0200001N1+03111+01701100851ADDAA106000091GF104991041021008001001001MA1999999098491MD1999999-0171REMSYN070AAXX  21184 82586 32598 41406 10311 20170 39849 40085 84200 333 59017;EQDQ01  00002PRCP06
0198825860999992003052200004-05200-039300FM-12+021199999V0209999C000010075019N0010001N1+02571+02211101081ADDAA106000091GF106991061041008001001001KA1240M+03151MA1999999098701MD1999999-0061REMSYN088AAXX  22004 82586 32594 60000 10257 20221 39870 40108 86400 333 10315 29074 55055 59006;EQDQ01  00002PRCP06
0186825860999992003052212004-05200-039300FM-12+021199999V0200901N002612200019N0200001N1+02721+02101101211ADDAA106000091GF103991031011008001001001KA1240N+02201MA1999999098831MD1999999+0051REMSYN076AAXX  22124 82586 32598 30905 10272 20210 39883 40121 83100 333 20220 58005;EQDQ01  00002PRCP06
0167825860999992003052218004-05200-039300FM-12+021199999V0201901N002110075019N0200001N1+03141+01801101011ADDAA106000091GF105991051021008001001001MA1999999098651MD1999999+0161REMSYN070AAXX  22184 82586 32598 51904 10314 20180 39865 40101 85200 333 58016;EQDQ01  00002PRCP06
0208825860999992003052300004-05200-039300FM-12+021199999V0209999C000012200019N0010001N1+02611+02371101031ADDAA106000091GA1001+999999999GF100991001001999999001001KA1240M+03211MA1999999098751MD1999999+0051REMSYN082AAXX  23004 82586 32994 00000 10261 20237 39875 40103 333 10321 29072 55081 58005;EQDQ01  00002PRCP06
0202825860999992003052312004-05200-039300FM-12+021199999V0200901N001010075019N0200001N1+02781+02301101231ADDAA106000091GF107991999011008001001001KA1240N+02221MA1999999098861MD1999999+0031REMSYN076AAXX  23124 82586 32598 70902 10278 20230 39886 40123 86100 333 20222 58003;EQDQ01+000062SCOTLCQ02  00002PRCP06
0167825860999992003052318004-05200-039300FM-12+021199999V0200501N002112200019N0200001N1+03281+01821100981ADDAA106000091GF104991041011008001001001MA1999999098621MD1999999-0031REMSYN070AAXX  23184 82586 32598 40504 10328 20182 39862 40098 84100 333 59003;EQDQ01  00002PRCP06
0208825860999992003052400004-05200-039300FM-12+021199999V0200501N001512200019N0010001N1+02631+02411101071ADDAA106000091GA1001+999999999GF100991001001999999001001KA1240M+03331MA1999999098711MD1999999-0041REMSYN082AAXX  24004 82586 32994 00503 10263 20241 39871 40107 333 10333 29073 55094 59004;EQDQ01  00002PRCP06
0202825860999992003052412004-05200-039300FM-12+021199999V0200501N002112200019N0200001N1+02761+02041101151ADDAA106000091GF103991999021008001001001KA1240N+02381MA1999999098781MD1999999-0081REMSYN076AAXX  24124 82586 32598 30504 10276 20204 39878 40115 86200 333 20238 59008;EQDQ01+000062SCOTLCQ02  00002PRCP06
0183825860999992003052418004-05200-039300FM-12+021199999V0203601N001512200019N0200001N1+03201+01821100831ADDAA106000091GF104991999011008001001001MA1999999098481MD1999999-0141REMSYN070AAXX  24184 82586 32598 43603 10320 20182 39848 40083 82100 333 59014;EQDQ01+000022SCOTLCQ02  00002PRCP06
0208825860999992003052500004-05200-039300FM-12+021199999V0209999C000012200019N0010001N1+02601+02251100931ADDAA106000091GA1001+999999999GF100991001001999999001001KA1240M+03271MA1999999098571MD1999999-0141REMSYN082AAXX  25004 82586 32994 00000 10260 20225 39857 40093 333 10327 29068 55091 59014;EQDQ01  00002PRCP06
0186825860999992003052512004-05200-039300FM-12+021199999V0203601N003612200019N0200001N1+02831+02101101121ADDAA106000091GF104991041011008001001001KA1240N+02391MA1999999098751MD1999999-0031REMSYN076AAXX  25124 82586 32598 43607 10283 20210 39875 40112 84100 333 20239 59003;EQDQ01  00002PRCP06
0167825860999992003052518004-05200-039300FM-12+021199999V0200501N003112200019N0200001N1+03321+01821100841ADDAA106000091GF104991041011008001001001MA1999999098501MD1999999+0021REMSYN070AAXX  25184 82586 32598 40506 10332 20182 39850 40084 84100 333 58002;EQDQ01  00002PRCP06
0208825860999992003052600004-05200-039300FM-12+021199999V0203601N002112200019N0010001N1+02641+02271100981ADDAA106000091GA1001+999999999GF100991001001999999001001KA1240M+03401MA1999999098621MD1999999+0051REMSYN082AAXX  26004 82586 32994 03604 10264 20227 39862 40098 333 10340 29067 55104 58005;EQDQ01  00002PRCP06
0186825860999992003052612004-05200-039300FM-12+021199999V0200501N002612200019N0200001N1+02881+02081101111ADDAA106000091GF104991041011008001001001KA1240N+02381MA1999999098751MD1999999+0001REMSYN076AAXX  26124 82586 32598 40505 10288 20208 39875 40111 84100 333 20238 58000;EQDQ01  00002PRCP06
0167825860999992003052618004-05200-039300FM-12+021199999V0200501N005110075019N0200001N1+03221+01731100931ADDAA106000091GF106991061041008001001001MA1999999098571MD1999999+0071REMSYN070AAXX  26184 82586 32598 60510 10322 20173 39857 40093 86400 333 58007;EQDQ01  00002PRCP06
0208825860999992003052700004-05200-039300FM-12+021199999V0200501N004112200019N0010001N1+02641+02291101111ADDAA106000091GA1001+999999999GF100991001001999999001001KA1240M+03351MA1999999098751MD1999999+0131REMSYN082AAXX  27004 82586 32994 00508 10264 20229 39875 40111 333 10335 29066 55100 58013;EQDQ01  00002PRCP06
0202825860999992003052712004-05200-039300FM-12+021199999V0200501N002619999999N0200001N1+02741+02171101291ADDAA106000091GA1091+999999999GF109991091999999999999999KA1240N+02421MA1999999098921MD1999999+0171REMSYN076AAXX  27124 82586 32598 90505 10274 20217 39892 40129 86400 333 20242 58017;EQDQ01  00002PRCP06
0167825860999992003052718004-05200-039300FM-12+021199999V0200501N003112200019N0200001N1+03201+01891101051ADDAA106000091GF102991021011008001001001MA1999999098691MD1999999+0121REMSYN070AAXX  27184 82586 32598 20506 10320 20189 39869 40105 82100 333 58012;EQDQ01  00002PRCP06
0198825860999992003052800004-05200-039300FM-12+021199999V0200501N005112200019N0010001N1+02641+02201101171ADDAA106000091GF103991031021008001001001KA1240M+03301MA1999999098801MD1999999+0051REMSYN088AAXX  28004 82586 32594 30510 10264 20220 39880 40117 83200 333 10330 29068 55088 58005;EQDQ01  00002PRCP06
0186825860999992003052812004-05200-039300FM-12+021199999V0200901N004612200019N0200001N1+02761+02041101251ADDAA106000091GF104991041021008001001001KA1240N+02041MA1999999098881MD1999999-0041REMSYN076AAXX  28124 82586 32598 40909 10276 20204 39888 40125 84200 333 20204 59004;EQDQ01  00002PRCP06
0167825860999992003052818004-05200-039300FM-12+021199999V0201401N002112200019N0200001N1+03281+01741100971ADDAA106000091GF104991041021008001001001MA1999999098611MD1999999-0081REMSYN070AAXX  28184 82586 32598 41404 10328 20174 39861 40097 84200 333 59008;EQDQ01  00002PRCP06
0208825860999992003052900004-05200-039300FM-12+021199999V0209999C000012200019N0010001N1+02501+01911101151ADDAA106000091GA1001+999999999GF100991001001999999001001KA1240M+03331MA1999999098771MD1999999-0031REMSYN082AAXX  29004 82586 32994 00000 10250 20191 39877 40115 333 10333 29060 55094 59003;EQDQ01  00002PRCP06
0186825860999992003052912004-05200-039300FM-12+021199999V0200901N005110075019N0200001N1+02801+02181101241ADDAA106000091GF106991061041008001001001KA1240N+02421MA1999999098841MD1999999-0041REMSYN076AAXX  29124 82586 32598 60910 10280 20218 39884 40124 86400 333 20242 59004;EQDQ01  00002PRCP06
0167825860999992003052918004-05200-039300FM-12+021199999V0201801N005110075019N0200001N1+02821+02271100991ADDAA106000091GF106991061021008001001001MA1999999098631MD1999999+0021REMSYN070AAXX  29184 82586 32598 61810 10282 20227 39863 40099 86200 333 58002;EQDQ01  00002PRCP06
0208825860999992003053000004-05200-039300FM-12+021199999V0209999C000012200019N0010001N1+02461+02211101071ADDAA106000091GA1001+999999999GF100991001001999999001001KA1240M+03121MA1999999098701MD1999999-0071REMSYN082AAXX  30004 82586 32994 00000 10246 20221 39870 40107 333 10312 29078 55077 59007;EQDQ01  00002PRCP06
0190825860999992003053012004-05200-039300FM-12+021199999V0201801N003110075019N0200001N1+02481+02451101291ADDAY161061AY251061GF108991081071008001999999KA1240N+02181MA1999999098891MD1999999+0041MW1031REMSYN088AAXX  30124 82586 21598 81806 10248 20245 39889 40129 70365 887// 333 20218 58004 60294;
0167825860999992003053018004-05200-039300FM-12+021199999V0201801N001010075019N0200001N1+02761+02191101051ADDAA106000091GF106991061041008001001001MA1999999098661MD1999999+0031REMSYN070AAXX  30184 82586 32598 61802 10276 20219 39866 40105 86400 333 58003;EQDQ01  00002PRCP06
0214825860999992003053100004-05200-039300FM-12+021199999V0209999C000012200019N0010001N1+02501+02481101161ADDAA106000091GF104991999011008001001001KA1240M+02981MA1999999098771MD1999999+0071REMSYN088AAXX  31004 82586 32594 40000 10250 20248 39877 40116 82100 333 10298 29092 55034 58007;EQDQ01+000022SCOTLCQ02  00002PRCP06
0190825860999992003053112004-05200-039300FM-12+021199999V0201401N001510075019N0200001N1+02381+02361101291ADDAY161061AY221061GF107991071071008001001001KA1240N+02321MA1999999098891MD1999999+0001MW1031REMSYN088AAXX  31124 82586 21598 71403 10238 20236 39889 40129 70362 87700 333 20232 58000 60074;
0171825860999992003053118004-05200-039300FM-12+021199999V0201801N000512200019N0200001N1+02811+02001101081ADDAY161061AY221061GF102991021011008001001001MA1999999098711MD1999999+0051MW1031REMSYN082AAXX  31184 82586 21598 21801 10281 20200 39871 40108 70362 82100 333 58005 60021;
0198825860999992003060100004-05200-039300FM-12+021199999V0203601N001510075019N0010001N1+02481+02411101181ADDAA106000091GF106991061041008001001001KA1240M+03051MA1999999098781MD1999999+0011REMSYN088AAXX  01004 82586 32594 63603 10248 20241 39878 40118 86400 333 10305 29088 55051 58001;EQDQ01  00002PRCP06
0181825860999992003060112004-05200-039300FM-12+021199999V0200901N003110075019N0200001N1+02791+02111101261ADDGF108991999021008001011001KA1240N+02291MA1999999098871MD1999999-0021REMSYN082AAXX  01124 82586 22598 80906 10279 20211 39887 40126 88210 333 20229 59002 60024;EQDQ01+000082SCOTLC
0167825860999992003060118004-05200-039300FM-12+021199999V0201401N002612200019N0200001N1+02991+01981101031ADDAA106000091GF102991021011008001001001MA1999999098661MD1999999-0051REMSYN070AAXX  01184 82586 32598 21405 10299 20198 39866 40103 82100 333 59005;EQDQ01  00002PRCP06
0198825860999992003060200004-05200-039300FM-12+021199999V0203601N001512200019N0010001N1+02501+02291101161ADDAA106000091GF104991041021008001001001KA1240M+03061MA1999999098771MD1999999-0011REMSYN088AAXX  02004 82586 32594 43603 10250 20229 39877 40116 84200 333 10306 29080 55072 59001;EQDQ01  00002PRCP06
0167825860999992003060218004-05200-039300FM-12+021199999V0201801N002112200019N0200001N1+03081+01681100981ADDAA106000091GF104991041011008001001001MA1999999098621MD1999999-0041REMSYN070AAXX  02184 82586 32598 41804 10308 20168 39862 40098 84100 333 59004;EQDQ01  00002PRCP06
0198825860999992003060300004-05200-039300FM-12+021199999V0203601N000512200019N0010001N1+02461+02321101071ADDAA106000091GF104991041021008001001001KA1240M+03181MA1999999098691MD1999999-0061REMSYN088AAXX  03004 82586 32594 43601 10246 20232 39869 40107 84200 333 10318 29076 55078 59006;EQDQ01  00002PRCP06
0186825860999992003060312004-05200-039300FM-12+021199999V0201401N000510075019N0200001N1+02631+02211101071ADDAA106000091GF106991061041008001001001KA1240N+02261MA1999999098771MD1999999-0041REMSYN076AAXX  03124 82586 32598 61401 10263 20221 39877 40107 86400 333 20226 59004;EQDQ01  00002PRCP06
0167825860999992003060318004-05200-039300FM-12+021199999V0201401N003112200019N0200001N1+03101+01661100921ADDAA106000091GF104991041011008001001001MA1999999098561MD1999999-0061REMSYN070AAXX  03184 82586 32598 41406 10310 20166 39856 40092 84100 333 59006;EQDQ01  00002PRCP06
0198825860999992003060400004-05200-039300FM-12+021199999V0200501N001510075019N0040001N1+02531+02361101051ADDAA106000091GF106991061031008001001001KA1240M+03231MA1999999098681MD1999999-0011REMSYN088AAXX  04004 82586 32596 60503 10253 20236 39868 40105 86300 333 10323 29076 55085 59001;EQDQ01  00002PRCP06
0186825860999992003060412004-05200-039300FM-12+021199999V0200901N002612200019N0200001N1+02721+02081101151ADDAA106000091GF103991031011008001001001KA1240N+02401MA1999999098771MD1999999+0001REMSYN076AAXX  04124 82586 32598 30905 10272 20208 39877 40115 83100 333 20240 58000;EQDQ01  00002PRCP06
0167825860999992003060418004-05200-039300FM-12+021199999V0201401N001510075019N0200001N1+03021+01921100921ADDAA106000091GF106991061041008001001001MA1999999098561MD1999999+0001REMSYN070AAXX  04184 82586 32598 61403 10302 20192 39856 40092 86400 333 58000;EQDQ01  00002PRCP06
0202825860999992003060500004-05200-039300FM-12+021199999V0200501N003110075019N0200001N1+02521+02501101041ADDAY151061AY221061GF108991081091008001999999KA1240M+03231MA1999999098671MD1999999-0011MW1131REMSYN100AAXX  05004 82586 21598 80506 10252 20250 39867 40104 71352 889// 333 10323 29081 55088 59001 69921;
0190825860999992003060512004-05200-039300FM-12+021199999V0200901N002110075019N0200001N1+02501+02171101151ADDAY151061AY261061GF106991061041008001071001KA1240N+02241MA1999999098761MD1999999-0011MW1031REMSYN088AAXX  05124 82586 21598 60904 10250 20217 39876 40115 70356 86470 333 20224 59001 60154;
0167825860999992003060518004-05200-039300FM-12+021199999V0201801N003110075019N0200001N1+02881+02081100991ADDAA106000091GF106991061041008001001001MA1999999098611MD1999999+0051REMSYN070AAXX  05184 82586 32598 61806 10288 20208 39861 40099 86400 333 58005;EQDQ01  00002PRCP06
0202825860999992003060600004-05200-039300FM-12+021199999V0203601N003110120019N0010001N1+02491+02461101111ADDAY151061AY221061GF108991081081008001999999KA1240M+03071MA1999999098721MD1999999+0051MW1031REMSYN100AAXX  06004 82586 21594 83606 10249 20246 39872 40111 70352 888// 333 10307 29086 55071 58005 69961;
0162825860999992003060612004-05200-039300FM-12+021199999V0201401N001510075019N0200001N1+02581+02171101211ADDGF106991061021008001001001KA1240N+02241MA1999999098881MD1999999+0071REMSYN082AAXX  06124 82586 22598 61403 10258 20217 39888 40121 86200 333 20224 58007 69964;
0167825860999992003060618004-05200-039300FM-12+021199999V0201801N003112200019N0200001N1+03081+01681100921ADDAA106000091GF102991021011008001001001MA1999999098561MD1999999-0051REMSYN070AAXX  06184 82586 32598 21806 10308 20168 39856 40092 82100 333 59005;EQDQ01  00002PRCP06
0208825860999992003060700004-05200-039300FM-12+021199999V0209999C000012200019N0010001N1+02361+02151101081ADDAA106000091GA1001+999999999GF100991001001999999001001KA1240M+03031MA1999999098681MD1999999-0041REMSYN082AAXX  07004 82586 32994 00000 10236 20215 39868 40108 333 10303 29074 55095 59004;EQDQ01  00002PRCP06
0186825860999992003060712004-05200-039300FM-12+021199999V0201801N003110075019N0200001N1+02561+02171101171ADDAA106000091GF106991061021008001001001KA1240N+02141MA1999999098771MD1999999-0061REMSYN076AAXX  07124 82586 32598 61806 10256 20217 39877 40117 86200 333 20214 59006;EQDQ01  00002PRCP06
0167825860999992003060718004-05200-039300FM-12+021199999V0201801N003112200019N0200001N1+03051+01781100921ADDAA106000091GF102991021011008001001001MA1999999098551MD1999999-0011REMSYN070AAXX  07184 82586 32598 21806 10305 20178 39855 40092 82100 333 59001;EQDQ01  00002PRCP06
0214825860999992003060800004-05200-039300FM-12+021199999V0209999C000019999999N0010001N1+02541+02331101031ADDAA106000091GF106991999021012501001001KA1240M+03111MA1999999098651MD1999999-0031REMSYN088AAXX  08004 82586 32694 60000 10254 20233 39865 40103 83200 333 10311 29076 55097 59003;EQDQ01+000032SCOTLCQ02  00002PRCP06
0190825860999992003060812004-05200-039300FM-12+021199999V0201401N002610075019N0200001N1+02461+02011101121ADDAY161061AY221061GF105991051041008001001001KA1240N+02201MA1999999098731MD1999999-0041MW1031REMSYN088AAXX  08124 82586 21598 51405 10246 20201 39873 40112 70362 85400 333 20220 59004 60024;
0167825860999992003060818004-05200-039300FM-12+021199999V0201401N002612200019N0200001N1+02961+01611100881ADDAA106000091GF104991041021008001001001MA1999999098521MD1999999-0031REMSYN070AAXX  08184 82586 32598 41405 10296 20161 39852 40088 84200 333 59003;EQDQ01  00002PRCP06
0208825860999992003060900004-05200-039300FM-12+021199999V0209999C000012200019N0010001N1+02421+02211101161ADDAA106000091GA1001+999999999GF100991001001999999001001KA1240M+03011MA1999999098761MD1999999+0111REMSYN082AAXX  09004 82586 32994 00000 10242 20221 39876 40116 333 10301 29074 55075 58011;EQDQ01  00002PRCP06
0186825860999992003060912004-05200-039300FM-12+021199999V0201801N002110075019N0200001N1+02501+02151101211ADDAA106000091GF106991061021008001001001KA1240N+02141MA1999999098811MD1999999+0081REMSYN076AAXX  09124 82586 32598 61804 10250 20215 39881 40121 86200 333 20214 58008;EQDQ01  00002PRCP06
0167825860999992003060918004-05200-039300FM-12+021199999V02099999999992200019N0200001N1+03041+01411101031ADDAA106000091GF104991021011008001051001MA1999999098661MD1999999+0141REMSYN070AAXX  09184 82586 32598 418// 10304 20141 39866 40103 82150 333 58014;EQDQ01  00002PRCP06
0198825860999992003061000004-05200-039300FM-12+021199999V0203601N000519999999N0010001N1+02621+01961101121ADDAA106000091GF106991061001012501051001KA1240M+03111MA1999999098751MD1999999-0011REMSYN088AAXX  10004 82586 32694 63601 10262 20196 39875 40112 86050 333 10311 29062 55073 59001;EQDQ01  00002PRCP06
0190825860999992003061012004-05200-039300FM-12+021199999V0200901N001510075019N0200001N1+02401+02091101241ADDAY161061AY251061GF108991081071008001999999KA1240N+02161MA1999999098851MD1999999+0041MW1031REMSYN088AAXX  10124 82586 21598 80903 10240 20209 39885 40124 70365 887// 333 20216 58004 60124;
0198825860999992003061100004-05200-039300FM-12+021199999V0209999C000010120019N0010001N1+02491+02151101151ADDAA106000091GF106991061001012501021001KA1240M+02841MA1999999098751MD1999999+0001REMSYN088AAXX  11004 82586 32694 60000 10249 20215 39875 40115 86020 333 10284 29076 55018 58000;EQDQ01  00002PRCP06
0190825860999992003061112004-05200-039300FM-12+021199999V0201401N000510075019N0200001N1+02541+02251101261ADDAY151061AY221061GF108991081071008001999999KA1240N+02281MA1999999098861MD1999999+0011MW1031REMSYN088AAXX  11124 82586 21598 81401 10254 20225 39886 40126 70352 887// 333 20228 58001 69944;
0167825860999992003061118004-05200-039300FM-12+021199999V0200501N003110075019N0200001N1+02961+01961100991ADDAA106000091GF106991061041008001001001MA1999999098631MD1999999-0121REMSYN070AAXX  11184 82586 32598 60506 10296 20196 39863 40099 86400 333 59012;EQDQ01  00002PRCP06
0198825860999992003061200004-05200-039300FM-12+021199999V0203601N000510120019N0010001N1+02521+02381101131ADDAA106000091GF106991061021012501001001KA1240M+03061MA1999999098711MD1999999-0041REMSYN088AAXX  12004 82586 32694 63601 10252 20238 39871 40113 86200 333 10306 29081 55080 59004;EQDQ01  00002PRCP06
0186825860999992003061212004-05200-039300FM-12+021199999V0200901N003610075019N0200001N1+02641+02291101131ADDAA106000091GF106991061041008001001001KA1240N+02401MA1999999098751MD1999999-0111REMSYN076AAXX  12124 82586 32598 60907 10264 20229 39875 40113 86400 333 20240 59011;EQDQ01  00002PRCP06
0167825860999992003061218004-05200-039300FM-12+021199999V0200501N001510075019N0200001N1+03041+01941100901ADDAA106000091GF105991051021008001001001MA1999999098541MD1999999-0091REMSYN070AAXX  12184 82586 32598 50503 10304 20194 39854 40090 85200 333 59009;EQDQ01  00002PRCP06
0208825860999992003061300004-05200-039300FM-12+021199999V0209999C000012200019N0010001N1+02601+02421100991ADDAA106000091GA1001+999999999GF100991001001999999001001KA1240M+03191MA1999999098621MD1999999-0091REMSYN082AAXX  13004 82586 32994 00000 10260 20242 39862 40099 333 10319 29079 55098 59009;EQDQ01  00002PRCP06
0190825860999992003061312004-05200-039300FM-12+021199999V0200901N002610120019N0200001N1+02601+02441100971ADDAY161061AY261061GF106991061081008001001001KA1240N+02301MA1999999098601MD1999999-0151MW1031REMSYN088AAXX  13124 82586 21598 60905 10260 20244 39860 40097 70366 86800 333 20230 59015 60024;
0167825860999992003061318004-05200-039300FM-12+021199999V0201801N003112200019N0200001N1+03031+01761100871ADDAA106000091GF104991041011008001001001MA1999999098511MD1999999-0031REMSYN070AAXX  13184 82586 32598 41806 10303 20176 39851 40087 84100 333 59003;EQDQ01  00002PRCP06
0198825860999992003061400004-05200-039300FM-12+021199999V0203601N001510075019N0010001N1+02541+02211101031ADDAA106000091GF106991061021008001001001KA1240M+03111MA1999999098651MD1999999+0031REMSYN088AAXX  14004 82586 32594 63603 10254 20221 39865 40103 86200 333 10311 29075 55091 58003;EQDQ01  00002PRCP06
0186825860999992003061412004-05200-039300FM-12+021199999V0201401N001510075019N0200001N1+02621+02161101101ADDAA106000091GF106991061041008001001001KA1240N+02221MA1999999098731MD1999999+0131REMSYN076AAXX  14124 82586 32598 61403 10262 20216 39873 40110 86400 333 20222 58013;EQDQ01  00002PRCP06
0183825860999992003061418004-05200-039300FM-12+021199999V0201401N001512200019N0200001N1+03071+01801100921ADDAA106000091GF104991999011008001001001MA1999999098561MD1999999+0051REMSYN070AAXX  14184 82586 32598 41403 10307 20180 39856 40092 83100 333 58005;EQDQ01+000032SCOTLCQ02  00002PRCP06
0198825860999992003061500004-05200-039300FM-12+021199999V0201401N003119999999N0010001N1+02641+02371101041ADDAA106000091GF106991061001012501051001KA1240M+03231MA1999999098671MD1999999-0021REMSYN088AAXX  15004 82586 32694 61406 10264 20237 39867 40104 86050 333 10323 29073 55093 59002;EQDQ01  00002PRCP06
0186825860999992003061512004-05200-039300FM-12+021199999V0200901N001510075019N0200001N1+02661+02331101201ADDAA106000091GF107991071041008001001001KA1240N+02301MA1999999098821MD1999999+0091REMSYN076AAXX  15124 82586 32598 70903 10266 20233 39882 40120 87400 333 20230 58009;EQDQ01  00002PRCP06
0171825860999992003061518004-05200-039300FM-12+021199999V0200901N001010075019N0200001N1+02811+02341100961ADDAY161061AY221061GF105991051021008001001001MA1999999098601MD1999999+0041MW1031REMSYN082AAXX  15184 82586 21598 50902 10281 20234 39860 40096 70362 85200 333 58004 60011;
0221825860999992003061600004-05200-039300FM-12+021199999V0209999C000019999999N0010001N1+02381+02361101031ADDAY191061AY261061GF106991999021008001001001KA1240M+03011MA1999999098751MD1999999+0081MW1031REMSYN100AAXX  16004 82586 21594 60000 10238 20236 39875 40103 70396 84200 333 10301 29089 55046 58008 60161;EQDQ01+000042SCOTLC
0190825860999992003061612004-05200-039300FM-12+021199999V0201401N001010075019N0200001N1+02501+02341101211ADDAY161061AY251061GF106991061041008001001001KA1240N+02221MA1999999098811MD1999999-0011MW1031REMSYN088AAXX  16124 82586 21598 61402 10250 20234 39881 40121 70365 86400 333 20222 59001 60394;
0167825860999992003061618004-05200-039300FM-12+021199999V0201801N002610075019N0200001N1+02861+02091101041ADDAA106000091GF106991061041008001001001MA1999999098681MD1999999+0081REMSYN070AAXX  16184 82586 32598 61805 10286 20209 39868 40104 86400 333 58008;EQDQ01  00002PRCP06
0202825860999992003061700004-05200-039300FM-12+021199999V0201801N002610075019N0010001N1+02321+02301101191ADDAY161061AY221061GF108991081071008001999999KA1240M+02991MA1999999098791MD1999999+0041MW1201REMSYN100AAXX  17004 82586 21594 81805 10232 20230 39879 40119 72062 887// 333 10299 29088 55058 58004 60051;
0190825860999992003061712004-05200-039300FM-12+021199999V0200901N002610075019N0200001N1+02521+02021101251ADDAY161061AY251061GF106991061041008001001001KA1240N+02161MA1999999098851MD1999999+0041MW1031REMSYN088AAXX  17124 82586 21598 60905 10252 20202 39885 40125 70365 86400 333 20216 58004 60114;
0167825860999992003061718004-05200-039300FM-12+021199999V0201401N003110075019N0200001N1+02801+01561101071ADDAA106000091GF105991051021008001001001MA1999999098681MD1999999+0001REMSYN070AAXX  17184 82586 32598 51406 10280 20156 39868 40107 85200 333 58000;EQDQ01  00002PRCP06
0198825860999992003061800004-05200-039300FM-12+021199999V0201801N001512200019N0010001N1+02391+02361101111ADDAA106000091GF104991041051008001001001KA1240M+03011MA1999999098711MD1999999-0081REMSYN088AAXX  18004 82586 32594 41803 10239 20236 39871 40111 84500 333 10301 29080 55079 59008;EQDQ01  00002PRCP06
0186825860999992003061812004-05200-039300FM-12+021199999V0201401N000512200019N0200001N1+02481+02171101221ADDAA106000091GF104991041011008001001001KA1240N+02141MA1999999098821MD1999999-0031REMSYN076AAXX  18124 82586 32598 41401 10248 20217 39882 40122 84100 333 20214 59003;EQDQ01  00002PRCP06
0167825860999992003061818004-05200-039300FM-12+021199999V0200901N002112200019N0200001N1+03031+01591101061ADDAA106000091GF104991041021008001001001MA1999999098691MD1999999+0011REMSYN070AAXX  18184 82586 32598 40904 10303 20159 39869 40106 84200 333 58001;EQDQ01  00002PRCP06
0198825860999992003061900004-05200-039300FM-12+021199999V0209999C000010075019N0010001N1+02561+02291101161ADDAA106000091GF106991061021008001001001KA1240M+03071MA1999999098771MD1999999+0061REMSYN088AAXX  19004 82586 32594 60000 10256 20229 39877 40116 86200 333 10307 29073 55104 58006;EQDQ01  00002PRCP06
0190825860999992003061912004-05200-039300FM-12+021199999V0200901N003110075019N0200001N1+02661+02181101231ADDAY151061AY221061GF105991051021008001001001KA1240N+02341MA1999999098851MD1999999+0031MW1031REMSYN088AAXX  19124 82586 21598 50906 10266 20218 39885 40123 70352 85200 333 20234 58003 69924;
0167825860999992003061918004-05200-039300FM-12+021199999V0201401N001512200019N0200001N1+02961+01871101031ADDAA106000091GF104991041021008001001001MA1999999098671MD1999999-0021REMSYN070AAXX  19184 82586 32598 41403 10296 20187 39867 40103 84200 333 59002;EQDQ01  00002PRCP06
0198825860999992003062000004-05200-039300FM-12+021199999V0203601N001510075019N0010001N1+02501+02431101151ADDAA106000091GF105991051071008001001001KA1240M+03071MA1999999098771MD1999999+0001REMSYN088AAXX  20004 82586 32594 53603 10250 20243 39877 40115 85700 333 10307 29080 55084 58000;EQDQ01  00002PRCP06
0190825860999992003062012004-05200-039300FM-12+021199999V0200901N003110075019N0200001N1+02721+01881101211ADDAY151061AY221061GF105991051011008001001001KA1240N+02361MA1999999098831MD1999999-0021MW1031REMSYN088AAXX  20124 82586 21598 50906 10272 20188 39883 40121 70352 85100 333 20236 59002 69914;
0167825860999992003062018004-05200-039300FM-12+021199999V0200501N001512200019N0200001N1+03051+01781101061ADDAA106000091GF102991021011008001001001MA1999999098701MD1999999+0031REMSYN070AAXX  20184 82586 32598 20503 10305 20178 39870 40106 82100 333 58003;EQDQ01  00002PRCP06
0208825860999992003062100004-05200-039300FM-12+021199999V0203601N002112200019N0010001N1+02541+02331101151ADDAA106000091GA1001+999999999GF100991001001999999001001KA1240M+03071MA1999999098771MD1999999+0001REMSYN082AAXX  21004 82586 32994 03604 10254 20233 39877 40115 333 10307 29070 55092 58000;EQDQ01  00002PRCP06
0186825860999992003062112004-05200-039300FM-12+021199999V0200501N005110075019N0200001N1+02721+01931101331ADDAA106000091GF105991051021008001001001KA1240N+02381MA1999999098951MD1999999+0121REMSYN076AAXX  21124 82586 32598 50510 10272 20193 39895 40133 85200 333 20238 58012;EQDQ01  00002PRCP06
0183825860999992003062118004-05200-039300FM-12+021199999V0200901N001519999999N0200001N1+03081+01751101031ADDAA106000091GF105991999021008001001001MA1999999098671MD1999999-0031REMSYN070AAXX  21184 82586 32598 50903 10308 20175 39867 40103 83200 333 59003;EQDQ01+000032SCOTLCQ02  00002PRCP06
0198825860999992003062200004-05200-039300FM-12+021199999V02099999999990075019N0010001N1+02561+02211101151ADDAA106000091GF106991061021008001001001KA1240M+03141MA1999999098751MD1999999-0021REMSYN088AAXX  22004 82586 32594 636// 10256 20221 39875 40115 86200 333 10314 29067 55100 59002;EQDQ01  00002PRCP06
0186825860999992003062212004-05200-039300FM-12+021199999V0200501N003110075019N0200001N1+02551+02131101251ADDAA106000091GF108991081071008001999999KA1240N+02401MA1999999098871MD1999999-0081REMSYN076AAXX  22124 82586 32598 80506 10255 20213 39887 40125 887// 333 20240 59008;EQDQ01  00002PRCP06
0186825860999992003062312004-05200-039300FM-12+021199999V0200901N003112200019N0200001N1+02581+01611101231ADDAA106000091GF101991011011008001001001KA1240N+02161MA1999999098851MD1999999-0021REMSYN076AAXX  23124 82586 32598 10906 10258 20161 39885 40123 81100 333 20216 59002;EQDQ01  00002PRCP06
0163825860999992003062318004-05200-039300FM-12+021199999V0201401N003112200019N0200001N1+03091+01021101061ADDAA106000091GA1001+999999999GF100991001001999999001001MA1999999098691REMSYN064AAXX  23184 82586 32998 01406 10309 20102 39869 40106 333 58239;EQDQ01  00002PRCP06
0208825860999992003062400004-05200-039300FM-12+021199999V0202701N001012200019N0010001N1+02431+01971101191ADDAA106000091GA1001+999999999GF100991001001999999001001KA1240M+03211MA1999999098801MD1999999+0131REMSYN082AAXX  24004 82586 32994 02702 10243 20197 39880 40119 333 10321 29059 55106 58013;EQDQ01  00002PRCP06
0186825860999992003062412004-05200-039300FM-12+021199999V0201401N001512200019N0200001N1+02601+01891101381ADDAA106000091GF102991021011008001001001KA1240N+02081MA1999999098981MD1999999+0131REMSYN076AAXX  24124 82586 32598 21403 10260 20189 39898 40138 82100 333 20208 58013;EQDQ01  00002PRCP06
0167825860999992003062418004-05200-039300FM-12+021199999V0201801N003112200019N0200001N1+03061+01471101141ADDAA106000091GF102991021011008001001001MA1999999098761MD1999999+0071REMSYN070AAXX  24184 82586 32598 21806 10306 20147 39876 40114 82100 333 58007;EQDQ01  00002PRCP06
0208825860999992003062500004-05200-039300FM-12+021199999V0203601N001512200019N0010001N1+02461+02251101251ADDAA106000091GA1001+999999999GF100991001001999999001001KA1240M+03151MA1999999098871MD1999999+0071REMSYN082AAXX  25004 82586 32994 03603 10246 20225 39887 40125 333 10315 29070 55102 58007;EQDQ01  00002PRCP06
0186825860999992003062512004-05200-039300FM-12+021199999V0201401N004610075019N0200001N1+02621+01831101361ADDAA106000091GF106991061021008001001001KA1240N+02241MA1999999098971MD1999999-0011REMSYN076AAXX  25124 82586 32598 61409 10262 20183 39897 40136 86200 333 20224 59001;EQDQ01  00002PRCP06
0167825860999992003062518004-05200-039300FM-12+021199999V0201401N002612200019N0200001N1+03051+01371100961ADDAA106000091GF104991041021008001001001MA1999999098601MD1999999-0161REMSYN070AAXX  25184 82586 32598 41405 10305 20137 39860 40096 84200 333 59016;EQDQ01  00002PRCP06
0208825860999992003062600004-05200-039300FM-12+021199999V0203601N001512200019N0010001N1+02421+02191101221ADDAA106000091GA1001+999999999GF100991001001999999001001KA1240M+03111MA1999999098831MD1999999+0031REMSYN082AAXX  26004 82586 32994 03603 10242 20219 39883 40122 333 10311 29068 55097 58003;EQDQ01  00002PRCP06
0186825860999992003062612004-05200-039300FM-12+021199999V02099999999990075019N0200001N1+02601+01871101421ADDAA106000091GF105991051021008001001001KA1240N+02121MA1999999099021MD1999999+0031REMSYN076AAXX  26124 82586 32598 509// 10260 20187 39902 40142 85200 333 20212 58003;EQDQ01  00002PRCP06
0167825860999992003062618004-05200-039300FM-12+021199999V0201801N002112200019N0200001N1+03031+01171101031ADDAA106000091GF101991011011008001001001MA1999999098671MD1999999+0071REMSYN070AAXX  26184 82586 32598 11804 10303 20117 39867 40103 81100 333 58007;EQDQ01  00002PRCP06
0208825860999992003062700004-05200-039300FM-12+021199999V0200501N001012200019N0010001N1+02281+01811101151ADDAA106000091GA1001+999999999GF100991001001999999001001KA1240M+03101MA1999999098751MD1999999-0081REMSYN082AAXX  27004 82586 32994 00502 10228 20181 39875 40115 333 10310 29062 55102 59008;EQDQ01  00002PRCP06
0186825860999992003062712004-05200-039300FM-12+021199999V0201401N003112200019N0200001N1+02501+01821101311ADDAA106000091GF103991031021008001001001KA1240N+02121MA1999999098911MD1999999+0111REMSYN076AAXX  27124 82586 32598 31406 10250 20182 39891 40131 83200 333 20212 58011;EQDQ01  00002PRCP06
0167825860999992003062718004-05200-039300FM-12+021199999V0201801N001512200019N0200001N1+03001+01151101071ADDAA106000091GF102991021011008001001001MA1999999098701MD1999999+0031REMSYN070AAXX  27184 82586 32598 21803 10300 20115 39870 40107 82100 333 58003;EQDQ01  00002PRCP06
0208825860999992003062800004-05200-039300FM-12+021199999V0203601N001012200019N0010001N1+02401+01631101191ADDAA106000091GA1001+999999999GF100991001001999999001001KA1240M+03111MA1999999098791MD1999999+0041REMSYN082AAXX  28004 82586 32994 03602 10240 20163 39879 40119 333 10311 29056 55103 58004;EQDQ01  00002PRCP06
0186825860999992003062812004-05200-039300FM-12+021199999V0201801N001012200019N0200001N1+02541+01781101331ADDAA106000091GF104991041011008001001001KA1240N+02081MA1999999098931MD1999999+0021REMSYN076AAXX  28124 82586 32598 41802 10254 20178 39893 40133 84100 333 20208 58002;EQDQ01  00002PRCP06
0167825860999992003062818004-05200-039300FM-12+021199999V0201801N001012200019N0200001N1+03041+01371101041ADDAA106000091GF103991031011008001001001MA1999999098671MD1999999-0031REMSYN070AAXX  28184 82586 32598 31802 10304 20137 39867 40104 83100 333 59003;EQDQ01  00002PRCP06
0208825860999992003062900004-05200-039300FM-12+021199999V0203601N001512200019N0010001N1+02551+01881101231ADDAA106000091GA1001+999999999GF100991001001999999001001KA1240M+03211MA1999999098851MD1999999+0061REMSYN082AAXX  29004 82586 32994 03603 10255 20188 39885 40123 333 10321 29058 55105 58006;EQDQ01  00002PRCP06
0186825860999992003062912004-05200-039300FM-12+021199999V0201801N001512200019N0200001N1+02501+01911101311ADDAA106000091GF102991021011008001001001KA1240N+02301MA1999999098931MD1999999+0001REMSYN076AAXX  29124 82586 32598 21803 10250 20191 39893 40131 82100 333 20230 58000;EQDQ01  00002PRCP06
0167825860999992003062918004-05200-039300FM-12+021199999V0201801N003112200019N0200001N1+03081+01271101071ADDAA106000091GF103991031011008001001001MA1999999098701MD1999999+0031REMSYN070AAXX  29184 82586 32598 31806 10308 20127 39870 40107 83100 333 58003;EQDQ01  00002PRCP06
0208825860999992003063000004-05200-039300FM-12+021199999V0203601N003112200019N0010001N1+02461+01811101171ADDAA106000091GA1001+999999999GF100991001001999999001001KA1240M+03111MA1999999098781MD1999999-0071REMSYN082AAXX  30004 82586 32994 03606 10246 20181 39878 40117 333 10311 29059 55088 59007;EQDQ01  00002PRCP06
0186825860999992003063012004-05200-039300FM-12+021199999V0201801N002610075019N0200001N1+02601+02101101311ADDAA106000091GF106991061041008001001001KA1240N+02261MA1999999098931MD1999999+0001REMSYN076AAXX  30124 82586 32598 61805 10260 20210 39893 40131 86400 333 20226 58000;EQDQ01  00002PRCP06
0167825860999992003063018004-05200-039300FM-12+021199999V0201801N001510450019N0200001N1+03081+01641101071ADDAA106000091GF106991031021008001051001MA1999999098711MD1999999+0011REMSYN070AAXX  30184 82586 32598 61803 10308 20164 39871 40107 83250 333 58001;EQDQ01  00002PRCP06
0198825860999992003070100004-05200-039300FM-12+021199999V0200501N002612200019N0010001N1+02621+01961101191ADDAA106000091GF104991041021008001001001KA1240M+03231MA1999999098811MD1999999+0031REMSYN088AAXX  01004 82586 32594 40505 10262 20196 39881 40119 84200 333 10323 29063 55066 58003;EQDQ01  00002PRCP06
0186825860999992003070112004-05200-039300FM-12+021199999V0201801N003110075019N0200001N1+02581+02061101341ADDAA106000091GF107991071041008001001001KA1240N+02381MA1999999098861MD1999999+0031REMSYN076AAXX  01124 82586 32598 71806 10258 20206 39886 40134 87400 333 20238 58003;EQDQ01  00002PRCP06
0167825860999992003070118004-05200-039300FM-12+021199999V0201801N003110075019N0200001N1+03001+01411101141ADDAA106000091GF106991061041008001001001MA1999999098771MD1999999+0061REMSYN070AAXX  01184 82586 32598 61806 10300 20141 39877 40114 86400 333 58006;EQDQ01  00002PRCP06
0208825860999992003070200004-05200-039300FM-12+021199999V0209999C000012200019N0010001N1+02461+02031101241ADDAA106000091GA1001+999999999GF100991001001999999001001KA1240M+03091MA1999999098851MD1999999+0041REMSYN082AAXX  02004 82586 32994 00000 10246 20203 39885 40124 333 10309 29066 55060 58004;EQDQ01  00002PRCP06
0186825860999992003070212004-05200-039300FM-12+021199999V0201801N003112200019N0200001N1+02521+01061101361ADDAA106000091GF104991011011008001021001KA1240N+02181MA1999999098961MD1999999+0001REMSYN076AAXX  02124 82586 32598 41806 10252 20106 39896 40136 81120 333 20218 58000;EQDQ01  00002PRCP06
0167825860999992003070218004-05200-039300FM-12+021199999V0200901N002610075019N0200001N1+03161+01291101041ADDAA106000091GF105991051041008001001001MA1999999098681MD1999999-0091REMSYN070AAXX  02184 82586 32598 50905 10316 20129 39868 40104 85400 333 59009;EQDQ01  00002PRCP06
0208825860999992003070300004-05200-039300FM-12+021199999V0209999C000012200019N0010001N1+02561+01831101161ADDAA106000091GA1001+999999999GF100991001001999999001001KA1240M+03231MA1999999098781MD1999999-0071REMSYN082AAXX  03004 82586 32994 00000 10256 20183 39878 40116 333 10323 29050 55098 59007;EQDQ01  00002PRCP06
0186825860999992003070312004-05200-039300FM-12+021199999V0209999C000012200019N0200001N1+02701+02061101291ADDAA106000091GF102991021011008001001001KA1240N+02241MA1999999098911MD1999999-0051REMSYN076AAXX  03124 82586 32598 20000 10270 20206 39891 40129 82100 333 20224 59005;EQDQ01  00002PRCP06
0167825860999992003070318004-05200-039300FM-12+021199999V0201801N004112200019N0200001N1+03121+01711101031ADDAA106000091GF103991031011008001001001MA1999999098661MD1999999-0021REMSYN070AAXX  03184 82586 32598 31808 10312 20171 39866 40103 83100 333 59002;EQDQ01  00002PRCP06
0198825860999992003070400004-05200-039300FM-12+021199999V0200501N003112200019N0010001N1+02541+02111101161ADDAA106000091GF103991031021008001001001KA1240M+03221MA1999999098781MD1999999+0001REMSYN088AAXX  04004 82586 32594 30506 10254 20211 39878 40116 83200 333 10322 29066 55102 58000;EQDQ01  00002PRCP06
0186825860999992003070412004-05200-039300FM-12+021199999V0201401N003110075019N0200001N1+02581+02081101261ADDAA106000091GF107991071071008001001001KA1240N+02301MA1999999098881MD1999999-0031REMSYN076AAXX  04124 82586 32598 71406 10258 20208 39888 40126 87700 333 20230 59003;EQDQ01  00002PRCP06
0183825860999992003070418004-05200-039300FM-12+021199999V0201801N002612200019N0200001N1+03121+01441100911ADDAA106000091GF104991999051008001001001MA1999999098851MD1999999-0111REMSYN070AAXX  04184 82586 32598 41805 10312 20144 39885 40091 82500 333 59011;EQDQ01+000022SCOTLCQ02  00002PRCP06
0198825860999992003070500004-05200-039300FM-12+021199999V0200501N001512200019N0010001N1+02741+02021101081ADDAA106000091GF102991021021008001001001KA1240M+03211MA1999999098621MD1999999-0161REMSYN088AAXX  05004 82586 32594 20503 10274 20202 39862 40108 82200 333 10321 29060 55077 59016;EQDQ01  00002PRCP06
0186825860999992003070512004-05200-039300FM-12+021199999V0201401N003112200019N0200001N1+02541+01631101071ADDAA106000091GF102991021011008001001001KA1240N+02161MA1999999098701MD1999999-0141REMSYN076AAXX  05124 82586 32598 21406 10254 20163 39870 40107 82100 333 20216 59014;EQDQ01  00002PRCP06
0167825860999992003070518004-05200-039300FM-12+021199999V0201801N001512200019N0200001N1+03151+01451100841ADDAA106000091GF104991021011008001001041MA1999999098481MD1999999-0051REMSYN070AAXX  05184 82586 32598 41803 10315 20145 39848 40084 82104 333 59005;EQDQ01  00002PRCP06
0208825860999992003070600004-05200-039300FM-12+021199999V0209999C000012200019N0010001N1+02491+01731100971ADDAA106000091GA1001+999999999GF100991001001999999001001KA1240M+03231MA1999999098581MD1999999-0041REMSYN082AAXX  06004 82586 32594 00000 10249 20173 39858 40097 333 10323 29055 55107 59004;EQDQ01  00002PRCP06
0186825860999992003070612004-05200-039300FM-12+021199999V0201401N002110075019N0200001N1+02521+02091101141ADDAA106000091GF106991061021008001001001KA1240N+02221MA1999999098751MD1999999+0051REMSYN076AAXX  06124 82586 32598 61404 10252 20209 39875 40114 86200 333 20222 58005;EQDQ01  00002PRCP06
0214825860999992003070700004-05200-039300FM-12+021199999V0203601N001012200019N0010001N1+02731+01791100991ADDAA106000091GF102991999021008001001001KA1240M+03261MA1999999098621MD1999999+0041REMSYN088AAXX  07004 82586 32594 23602 10273 20179 39862 40099 83200 333 10326 29056 55079 58004;EQDQ01+000032SCOTLCQ02  00002PRCP06
0186825860999992003070712004-05200-039300FM-12+021199999V0200901N002612200019N0200001N1+02861+01451101121ADDAA106000091GF102991021011008001001001KA1240N+02121MA1999999098751MD1999999+0001REMSYN076AAXX  07124 82586 32598 20905 10286 20145 39875 40112 82100 333 20212 58000;EQDQ01  00002PRCP06
0186825860999992003070812004-05200-039300FM-12+021199999V0200901N003112200019N0200001N1+02801+01751101251ADDAA106000091GF104991041021008001001001KA1240N+02321MA1999999098871MD1999999+0121REMSYN076AAXX  08124 82586 32598 40906 10280 20175 39887 40125 84200 333 20232 58012;EQDQ01  00002PRCP06
0167825860999992003070818004-05200-039300FM-12+021199999V0200901N004112200019N0200001N1+03141+01801101011ADDAA106000091GF104991041021008001001001MA1999999098651MD1999999-0051REMSYN070AAXX  08184 82586 32598 40908 10314 20180 39865 40101 84200 333 59005;EQDQ01  00002PRCP06
0186825860999992003070912004-05200-039300FM-12+021199999V0200901N003612200019N0200001N1+02641+01831101211ADDAA106000091GF102991021011008001001001KA1240N+02241MA1999999098831MD1999999-0041REMSYN076AAXX  09124 82586 32598 20907 10264 20183 39883 40121 82100 333 20224 59004;EQDQ01  00002PRCP06
0183825860999992003070918004-05200-039300FM-12+021199999V0200501N003112200019N0200001N1+03181+01311100981ADDAA106000091GF103991999011008001001001MA1999999098621MD1999999-0031REMSYN070AAXX  09184 82586 32598 30506 10318 20131 39862 40098 84100 333 59003;EQDQ01+000042SCOTLCQ02  00002PRCP06
0198825860999992003071000004-05200-039300FM-12+021199999V0203601N001512200019N0010001N1+02511+01721101091ADDAA106000091GF102991021011008001001001KA1240M+03301MA1999999098721MD1999999+0011REMSYN088AAXX  10004 82586 32594 23603 10251 20172 39872 40109 82100 333 10330 29054 55090 58001;EQDQ01  00002PRCP06
0186825860999992003071012004-05200-039300FM-12+021199999V0200901N001512200019N0200001N1+02621+01641101371ADDAA106000091GF102991021011008001001001KA1240N+02041MA1999999098981MD1999999+0151REMSYN076AAXX  10124 82586 32598 20903 10262 20164 39898 40137 82100 333 20204 58015;EQDQ01  00002PRCP06
0167825860999992003071018004-05200-039300FM-12+021199999V0200901N002612200019N0200001N1+03211+01011100991ADDAA106000091GF102991021011008001001001MA1999999098631MD1999999+0011REMSYN070AAXX  10184 82586 32598 20905 10321 20101 39863 40099 82100 333 58001;EQDQ01  00002PRCP06
0208825860999992003071100004-05200-039300FM-12+021199999V0200501N003112200019N0010001N1+02511+01801101111ADDAA106000091GA1001+999999999GF100991001001999999001001KA1240M+03311MA1999999098741MD1999999+0021REMSYN082AAXX  11004 82586 32994 00506 10251 20180 39874 40111 333 10331 29053 55104 58002;EQDQ01  00002PRCP06
0186825860999992003071112004-05200-039300FM-12+021199999V0200901N001012200019N0200001N1+02641+01751101301ADDAA106000091GF104991041011008001001001KA1240N+02221MA1999999098931MD1999999-0051REMSYN076AAXX  11124 82586 32598 40902 10264 20175 39893 40130 84100 333 20222 59005;EQDQ01  00002PRCP06
0167825860999992003071118004-05200-039300FM-12+021199999V0201401N003110075019N0200001N1+03241+01261101021ADDAA106000091GF106991061021008001001001MA1999999098661MD1999999+0031REMSYN070AAXX  11184 82586 32598 61406 10324 20126 39866 40102 86200 333 58003;EQDQ01  00002PRCP06
0198825860999992003071200004-05200-039300FM-12+021199999V0203601N005110075019N0010001N1+02581+01771101071ADDAA106000091GF105991051021008001001001KA1240M+03331MA1999999098771MD1999999-0041REMSYN088AAXX  12004 82586 32594 53610 10258 20177 39877 40107 85200 333 10333 29053 55101 59004;EQDQ01  00002PRCP06
0209825860999992003071212004-05200-039300FM-12+021199999V0200901N005110150019N0500001N1+02221+02071101881ADDAY151061AY201061GF108991999081012501041999KA1240N+02121MA1999999097991MD1999999+0191MW1211REMSYN088AAXX  12124 82586 21699 80910 10222 20207 39799 40188 72150 8884/ 333 20212 58019 60034;EQDQ01+000082SCOTLC
0148825860999992003071218004-05200-039300FM-12+021199999V0200501N003110075019N0200001N1+02841+01531101131ADDAA106000021GF108991081071008001999999MA1999999098751MD1999999+0091REMSYN070AAXX  12184 82586 32598 80506 10284 20153 39875 40113 887// 333 58009;
0198825860999992003071300004-05200-039300FM-12+021199999V0209999C000012200019N0010001N1+02461+02131101261ADDAA106000091GF102991021001012501051001KA1240M+02961MA1999999098861MD1999999+0161REMSYN088AAXX  13004 82586 32694 20000 10246 20213 39886 40126 82050 333 10296 29074 55029 58016;EQDQ01  00002PRCP06
0186825860999992003071312004-05200-039300FM-12+021199999V0201801N003112200019N0200001N1+02581+01551101371ADDAA106000091GF102991021011008001001001KA1240N+02121MA1999999098971MD1999999+0061REMSYN076AAXX  13124 82586 32598 21806 10258 20155 39897 40137 82100 333 20212 58006;EQDQ01  00002PRCP06
0167825860999992003071318004-05200-039300FM-12+021199999V0201801N003610075019N0200001N1+02881+01501101021ADDAA106000091GF108991081071008001999999MA1999999098721MD1999999-0031REMSYN070AAXX  13184 82586 32598 81807 10288 20150 39872 40102 887// 333 59003;EQDQ01  00002PRCP06
0198825860999992003071400004-05200-039300FM-12+021199999V0209999C000010075019N0010001N1+02621+01731101251ADDAA106000091GF108991081071008001999999KA1240M+03031MA1999999098871MD1999999+0011REMSYN088AAXX  14004 82586 32594 80000 10262 20173 39887 40125 887// 333 10303 29053 55046 58001;EQDQ01  00002PRCP06
0186825860999992003071412004-05200-039300FM-12+021199999V0201801N003112200019N0200001N1+02571+01801101361ADDAA106000091GF104991041021008001001001KA1240N+02151MA1999999098981MD1999999+0011REMSYN076AAXX  14124 82586 32598 41806 10257 20180 39898 40136 84200 333 20215 58001;EQDQ01  00002PRCP06
0167825860999992003071418004-05200-039300FM-12+021199999V0200901N003112200019N0200001N1+03241+00661101101ADDAA106000091GF102991021011008001001001MA1999999098741MD1999999+0021REMSYN070AAXX  14184 82586 32598 20906 10324 20066 39874 40110 82100 333 58002;EQDQ01  00002PRCP06
0198825860999992003071500004-05200-039300FM-12+021199999V0200901N001512200019N0010001N1+02581+01231101251ADDAA106000091GF102991021001012501051001KA1240M+03321MA1999999098871MD1999999+0001REMSYN088AAXX  15004 82586 32694 20903 10258 20123 39887 40125 82050 333 10332 29042 55105 58000;EQDQ01  00002PRCP06
0186825860999992003071512004-05200-039300FM-12+021199999V0201801N001012200019N0200001N1+02601+01761101341ADDAA106000091GF102991021011008001001001KA1240N+02101MA1999999098961MD1999999-0021REMSYN076AAXX  15124 82586 32598 21802 10260 20176 39896 40134 82100 333 20210 59002;EQDQ01  00002PRCP06
0167825860999992003071518004-05200-039300FM-12+021199999V0201801N003112200019N0200001N1+03241+01161101061ADDAA106000091GF102991021011008001001001MA1999999098701MD1999999-0041REMSYN070AAXX  15184 82586 32598 21806 10324 20116 39870 40106 82100 333 59004;EQDQ01  00002PRCP06
0198825860999992003071600004-05200-039300FM-12+021199999V0203601N001512200019N0010001N1+02581+01191101181ADDAA106000091GF103991031021012501001001KA1240M+03321MA1999999098801MD1999999-0071REMSYN088AAXX  16004 82586 32694 33603 10258 20119 39880 40118 83200 333 10332 29044 55102 59007;EQDQ01  00002PRCP06
0186825860999992003071612004-05200-039300FM-12+021199999V0201801N000512200019N0200001N1+02601+01631101411ADDAA106000091GF103991031011008001001001KA1240N+02001MA1999999099031MD1999999+0071REMSYN076AAXX  16124 82586 32598 31801 10260 20163 39903 40141 83100 333 20200 58007;EQDQ01  00002PRCP06
0177825860999992003071618004-05200-039300FM-12+021199999V0201401N003112200019N0200001N1+03261+00671101131ADDAA106000091GA1001+999999999GF100991001001999999001001MA1999999098761MD1999999+0061REMSYN064AAXX  16184 82586 32998 01406 10326 20067 39876 40113 333 58006;EQDQ01  00002PRCP06
0208825860999992003071700004-05200-039300FM-12+021199999V0203601N001012200019N0010001N1+02501+01191101261ADDAA106000091GA1001+999999999GF100991001001999999001001KA1240M+03311MA1999999098881MD1999999+0081REMSYN082AAXX  17004 82586 32994 03602 10250 20119 39888 40126 333 10331 29041 55105 58008;EQDQ01  00002PRCP06
0186825860999992003071712004-05200-039300FM-12+021199999V0201401N005112200019N0200001N1+02661+01531101461ADDAA106000091GF102991021011008001001001KA1240N+02061MA1999999099081MD1999999+0051REMSYN076AAXX  17124 82586 32598 21410 10266 20153 39908 40146 82100 333 20206 58005;EQDQ01  00002PRCP06
0167825860999992003071718004-05200-039300FM-12+021199999V0200901N003112200019N0200001N1+03321+00841101181ADDAA106000091GF102991021011008001001001MA1999999098821MD1999999+0061REMSYN070AAXX  17184 82586 32598 20906 10332 20084 39882 40118 82100 333 58006;EQDQ01  00002PRCP06
0208825860999992003071800004-05200-039300FM-12+021199999V0200501N005112200019N0010001N1+02681+02041101331ADDAA106000091GA1001+999999999GF100991001001999999001001KA1240M+03411MA1999999098951MD1999999+0071REMSYN082AAXX  18004 82586 32994 00510 10268 20204 39895 40133 333 10341 29052 55107 58007;EQDQ01  00002PRCP06
0186825860999992003071812004-05200-039300FM-12+021199999V0201801N003112200019N0200001N1+02621+01731101541ADDAA106000091GF102991021011008001001001KA1240N+02061MA1999999099161MD1999999+0081REMSYN076AAXX  18124 82586 32598 21806 10262 20173 39916 40154 82100 333 20206 58008;EQDQ01  00002PRCP06
0177825860999992003071818004-05200-039300FM-12+021199999V0201801N002112200019N0010001N1+03321+00861101231ADDAA106000091GA1001+999999999GF100991001001999999001001MA1999999098861MD1999999+0041REMSYN064AAXX  18184 82586 32994 01804 10332 20086 39886 40123 333 58004;EQDQ01  00002PRCP06
0208825860999992003071900004-05200-039300FM-12+021199999V0209999C000012200019N0010001N1+02621+01041101311ADDAA106000091GA1001+999999999GF100991001001999999001001KA1240M+03391MA1999999098931MD1999999-0031REMSYN082AAXX  19004 82586 32994 00000 10262 20104 39893 40131 333 10339 29039 55106 59003;EQDQ01  00002PRCP06
0186825860999992003071912004-05200-039300FM-12+021199999V0201801N002612200019N0200001N1+02681+01891101551ADDAA106000091GF103991031021008001001001KA1240N+02141MA1999999099171MD1999999+0011REMSYN076AAXX  19124 82586 32598 31805 10268 20189 39917 40155 83200 333 20214 58001;EQDQ01  00002PRCP06
0167825860999992003071918004-05200-039300FM-12+021199999V0201801N003112200019N0200001N1+03331+01171101201ADDAA106000091GF103991031011008001001001MA1999999098841MD1999999-0021REMSYN070AAXX  19184 82586 32598 31806 10333 20117 39884 40120 83100 333 59002;EQDQ01  00002PRCP06
0208825860999992003072000004-05200-039300FM-12+021199999V0200501N005112200019N0010001N1+02631+01861101281ADDAA106000091GA1001+999999999GF100991001001999999001001KA1240M+03401MA1999999098901MD1999999-0031REMSYN082AAXX  20004 82586 32994 00510 10263 20186 39890 40128 333 10340 29054 55102 59003;EQDQ01  00002PRCP06
0190825860999992003072012004-05200-039300FM-12+021199999V0201801N003112200019N0200001N1+02461+01881101421ADDAY151061AY221061GF102991021011008001001001KA1240N+02241MA1999999099031MD1999999-0141MW1031REMSYN088AAXX  20124 82586 21598 21806 10246 20188 39903 40142 70352 82100 333 20224 59014 69934;
0167825860999992003072018004-05200-039300FM-12+021199999V0201801N002610075019N0200001N1+03071+01471101161ADDAA106000091GF105991051011008001001001MA1999999098801MD1999999-0041REMSYN070AAXX  20184 82586 32598 51805 10307 20147 39880 40116 85100 333 59004;EQDQ01  00002PRCP06
0196825860999992003072112004-05200-039300FM-12+021199999V0201801N004112200019N0200001N1+02561+01641101381ADDAA106000091GA1001+999999999GF100991001001999999001001KA1240N+02201MA1999999098991MD1999999-0041REMSYN070AAXX  21124 82586 32998 01808 10256 20164 39899 40138 333 20220 59004;EQDQ01  00002PRCP06
0167825860999992003072118004-05200-039300FM-12+021199999V0201401N002612200019N0200001N1+03271+01121101121ADDAA106000091GF102991021011008001001001MA1999999098751MD1999999-0051REMSYN070AAXX  21184 82586 32598 21405 10327 20112 39875 40112 82100 333 59005;EQDQ01  00002PRCP06
0208825860999992003072200004-05200-039300FM-12+021199999V0203601N001512200019N0010001N1+02621+01531101251ADDAA106000091GA1001+999999999GF100991001001999999001001KA1240M+03331MA1999999098871MD1999999+0001REMSYN082AAXX  22004 82586 32994 03603 10262 20153 39887 40125 333 10333 29047 55097 58000;EQDQ01  00002PRCP06
0186825860999992003072212004-05200-039300FM-12+021199999V0201401N003112200019N0200001N1+02631+01861101401ADDAA106000091GF102991021011008001001001KA1240N+02051MA1999999099021MD1999999+0031REMSYN076AAXX  22124 82586 32598 21406 10263 20186 39902 40140 82100 333 20205 58003;EQDQ01  00002PRCP06
0167825860999992003072218004-05200-039300FM-12+021199999V0201401N003112200019N0200001N1+03321+01171101101ADDAA106000091GF103991031021008001001001MA1999999098741MD1999999-0011REMSYN070AAXX  22184 82586 32598 31406 10332 20117 39874 40110 83200 333 59001;EQDQ01  00002PRCP06
0198825860999992003072300004-05200-039300FM-12+021199999V0200501N001512200019N0010001N1+02741+01181101191ADDAA106000091GF103991031021008001001001KA1240M+03401MA1999999098821MD1999999-0051REMSYN088AAXX  23004 82586 32594 30503 10274 20118 39882 40119 83200 333 10340 29042 55111 59005;EQDQ01  00002PRCP06
0186825860999992003072312004-05200-039300FM-12+021199999V0201401N006712200019N0200001N1+02681+01481101341ADDAA106000091GF104991041011008001001001KA1240N+02301MA1999999098971MD1999999-0051REMSYN076AAXX  23124 82586 32598 41413 10268 20148 39897 40134 84100 333 20230 59005;EQDQ01  00002PRCP06
0167825860999992003072318004-05200-039300FM-12+021199999V0201401N005112200019N0200001N1+03201+01281101091ADDAA106000091GF104991041011008001001001MA1999999098731MD1999999-0011REMSYN070AAXX  23184 82586 32598 41410 10320 20128 39873 40109 84100 333 59001;EQDQ01  00002PRCP06
0198825860999992003072400004-05200-039300FM-12+021199999V02099999999992200019N0010001N1+02691+01451101191ADDAA106000091GF102991021011008001001001KA1240M+03251MA1999999098821MD1999999+0001REMSYN088AAXX  24004 82586 32594 2//// 10269 20145 39882 40119 82100 333 10325 29043 55110 58000;EQDQ01  00002PRCP06
0186825860999992003072412004-05200-039300FM-12+021199999V0201401N005112200019N0200001N1+02821+01681101301ADDAA106000091GF103991031011008001001001KA1240N+02321MA1999999098931MD1999999-0041REMSYN076AAXX  24124 82586 32598 31410 10282 20168 39893 40130 83100 333 20232 59004;EQDQ01  00002PRCP06
0167825860999992003072418004-05200-039300FM-12+021199999V0200901N004610075019N0200001N1+03081+01641101061ADDAA106000091GF108991081071008001999999MA1999999098701MD1999999-0031REMSYN070AAXX  24184 82586 32598 80909 10308 20164 39870 40106 887// 333 59003;EQDQ01  00002PRCP06
0198825860999992003072500004-05200-039300FM-12+021199999V0203601N003112200019N0010001N1+02751+02021101201ADDAA106000091GF104991041041008001001001KA1240M+03171MA1999999098841MD1999999-0021REMSYN088AAXX  25004 82586 32594 43606 10275 20202 39884 40120 84400 333 10317 29056 55041 59002;EQDQ01  00002PRCP06
0186825860999992003072512004-05200-039300FM-12+021199999V0201401N003110075019N0200001N1+02741+01921101341ADDAA106000091GF106991061021008001001001KA1240N+02361MA1999999098971MD1999999+0041REMSYN076AAXX  25124 82586 32598 61406 10274 20192 39897 40134 86200 333 20236 58004;EQDQ01  00002PRCP06
0167825860999992003072518004-05200-039300FM-12+021199999V0201401N004110075019N0200001N1+03181+01531101061ADDAA106000091GF105991051021008001001001MA1999999098701MD1999999+0001REMSYN070AAXX  25184 82586 32598 51408 10318 20153 39870 40106 85200 333 58000;EQDQ01  00002PRCP06
0214825860999992003072600004-05200-039300FM-12+021199999V0200501N003112200019N0010001N1+02841+01701101201ADDAA106000091GF102991999021008001001001KA1240M+03321MA1999999098841MD1999999+0001REMSYN088AAXX  26004 82586 32594 20506 10284 20170 39884 40120 83200 333 10332 29050 55054 58000;EQDQ01+000032SCOTLCQ02  00002PRCP06
0186825860999992003072612004-05200-039300FM-12+021199999V0201401N005112200019N0200001N1+02721+01711101371ADDAA106000091GF104991041011008001001001KA1240N+02321MA1999999099001MD1999999+0031REMSYN076AAXX  26124 82586 32598 41410 10272 20171 39900 40137 84100 333 20232 58003;EQDQ01  00002PRCP06
0167825860999992003072618004-05200-039300FM-12+021199999V0201801N003610075019N0200001N1+03161+01511101131ADDAA106000091GF106991061021008001001001MA1999999098771MD1999999+0071REMSYN070AAXX  26184 82586 32598 61807 10316 20151 39877 40113 86200 333 58007;EQDQ01  00002PRCP06
0208825860999992003072700004-05200-039300FM-12+021199999V0209999C000012200019N0010001N1+02681+01551101221ADDAA106000091GA1001+999999999GF100991001001999999001001KA1240M+03231MA1999999098851MD1999999+0011REMSYN082AAXX  27004 82586 32994 00000 10268 20155 39885 40122 333 10323 29048 55094 58001;EQDQ01  00002PRCP06
0186825860999992003072712004-05200-039300FM-12+021199999V0201801N003112200019N0200001N1+02701+01631101391ADDAA106000091GF102991021011008001001001KA1240N+02351MA1999999099021MD1999999+0021REMSYN076AAXX  27124 82586 32598 21806 10270 20163 39902 40139 82100 333 20235 58002;EQDQ01  00002PRCP06
0167825860999992003072718004-05200-039300FM-12+021199999V0201801N005112200019N0200001N1+03261+01381101001ADDAA106000091GF104991041011008001001001MA1999999098641MD1999999-0131REMSYN070AAXX  27184 82586 32598 41810 10326 20138 39864 40100 84100 333 59013;EQDQ01  00002PRCP06
0208825860999992003072800004-05200-039300FM-12+021199999V0209999C000012200019N0010001N1+02801+01391101211ADDAA106000091GA1001+999999999GF100991001001999999001001KA1240M+03331MA1999999098801MD1999999-0051REMSYN082AAXX  28004 82586 32994 00000 10280 20139 39880 40121 333 10333 29042 55105 59005;EQDQ01  00002PRCP06
0186825860999992003072812004-05200-039300FM-12+021199999V0201801N003112200019N0200001N1+02721+01521101311ADDAA106000091GF102991021011008001001001KA1240N+02121MA1999999098941MD1999999-0081REMSYN076AAXX  28124 82586 32598 21806 10272 20152 39894 40131 82100 333 20212 59008;EQDQ01  00002PRCP06
0167825860999992003072818004-05200-039300FM-12+021199999V0201801N005112200019N0200001N1+03381+01271101061ADDAA106000091GF103991021011008001001041MA1999999098701MD1999999+0061REMSYN070AAXX  28184 82586 32598 31810 10338 20127 39870 40106 82104 333 58006;EQDQ01  00002PRCP06
0208825860999992003072900004-05200-039300FM-12+021199999V0200501N004112200019N0010001N1+02721+01821101181ADDAA106000091GA1001+999999999GF100991001001999999001001KA1240M+03431MA1999999098811MD1999999+0011REMSYN082AAXX  29004 82586 32994 00508 10272 20182 39881 40118 333 10343 29048 55105 58001;EQDQ01  00002PRCP06
0186825860999992003072912004-05200-039300FM-12+021199999V0201401N003610075019N0200001N1+02761+01911101421ADDAA106000091GF107991071041008001001001KA1240N+02381MA1999999099051MD1999999+0111REMSYN076AAXX  29124 82586 32598 71407 10276 20191 39905 40142 87400 333 20238 58011;EQDQ01  00002PRCP06
0167825860999992003072918004-05200-039300FM-12+021199999V0200501N003112200019N0200001N1+03321+01481101131ADDAA106000091GF104991041021008001001001MA1999999098771MD1999999+0071REMSYN070AAXX  29184 82586 32598 40506 10332 20148 39877 40113 84200 333 58007;EQDQ01  00002PRCP06
0208825860999992003073000004-05200-039300FM-12+021199999V0203601N006712200019N0010001N1+02721+02081101271ADDAA106000091GA1001+999999999GF100991001001999999001001KA1240M+03431MA1999999098901MD1999999+0001REMSYN082AAXX  30004 82586 32994 03613 10272 20208 39890 40127 333 10343 29057 55090 58000;EQDQ01  00002PRCP06
0186825860999992003073012004-05200-039300FM-12+021199999V0201801N002612200019N0200001N1+02781+01821101431ADDAA106000091GF103991031011008001001001KA1240N+02301MA1999999099061MD1999999+0011REMSYN076AAXX  30124 82586 32598 31805 10278 20182 39906 40143 83100 333 20230 58001;EQDQ01  00002PRCP06
0167825860999992003073018004-05200-039300FM-12+021199999V0201801N002112200019N0200001N1+03351+01351101031ADDAA106000091GF104991041011008001001001MA1999999098671MD1999999-0101REMSYN070AAXX  30184 82586 32598 41804 10335 20135 39867 40103 84100 333 59010;EQDQ01  00002PRCP06
0186825860999992003073112004-05200-039300FM-12+021199999V0200901N002110075019N0200001N1+02621+01961101341ADDAA106000091GF106991061041008001001001KA1240N+02281MA1999999098961MD1999999-0101REMSYN076AAXX  31124 82586 32598 60904 10262 20196 39896 40134 86400 333 20228 59010;EQDQ01  00002PRCP06
0167825860999992003073118004-05200-039300FM-12+021199999V0203601N002112200019N0200001N1+03301+01361101031ADDAA106000091GF104991041011008001001001MA1999999098671MD1999999+0001REMSYN070AAXX  31184 82586 32598 43604 10330 20136 39867 40103 84100 333 58000;EQDQ01  00002PRCP06
0208825860999992003080100004-05200-039300FM-12+021199999V0200501N005112200019N0010001N1+02621+01961101121ADDAA106000091GA1001+999999999GF100991001001999999001001KA1240M+03411MA1999999098751MD1999999-0071REMSYN082AAXX  01004 82586 32994 00510 10262 20196 39875 40112 333 10341 29058 55080 59007;EQDQ01  00002PRCP06
0186825860999992003080112004-05200-039300FM-12+021199999V0201401N005712200019N0200001N1+02701+01861101311ADDAA106000091GF103991031011008001001001KA1240N+02161MA1999999098931MD1999999-0031REMSYN076AAXX  01124 82586 32598 31411 10270 20186 39893 40131 83100 333 20216 59003;EQDQ01  00002PRCP06
0167825860999992003080118004-05200-039300FM-12+021199999V0200901N003112200019N0200001N1+03321+01381101071ADDAA106000091GF103991031011008001001001MA1999999098671MD1999999+0001REMSYN070AAXX  01184 82586 32598 30906 10332 20138 39867 40107 83100 333 58000;EQDQ01  00002PRCP06
0208825860999992003080200004-05200-039300FM-12+021199999V0200501N003112200019N0010001N1+02701+02051101131ADDAA106000091GA1001+999999999GF100991001001999999001001KA1240M+03431MA1999999098761MD1999999+0011REMSYN082AAXX  02004 82586 32994 00506 10270 20205 39876 40113 333 10343 29056 55105 58001;EQDQ01  00002PRCP06
0186825860999992003080212004-05200-039300FM-12+021199999V0200901N001510075019N0200001N1+02741+01971101351ADDAA106000091GF106991061021008001001001KA1240N+02221MA1999999098981MD1999999+0051REMSYN076AAXX  02124 82586 32598 60903 10274 20197 39898 40135 86200 333 20222 58005;EQDQ01  00002PRCP06
0167825860999992003080218004-05200-039300FM-12+021199999V0201401N003112200019N0010001N1+03341+01171101071ADDAA106000091GF103991031011008001001001MA1999999098711MD1999999+0041REMSYN070AAXX  02184 82586 32594 31406 10334 20117 39871 40107 83100 333 58004;EQDQ01  00002PRCP06
0198825860999992003080300004-05200-039300FM-12+021199999V0200501N005112200019N0010001N1+02811+01841101161ADDAA106000091GF103991031011008001001001KA1240M+03491MA1999999098801MD1999999+0041REMSYN088AAXX  03004 82586 32594 30510 10281 20184 39880 40116 83100 333 10349 29051 55104 58004;EQDQ01  00002PRCP06
0186825860999992003080312004-05200-039300FM-12+021199999V0201801N003112200019N0200001N1+02721+01821101441ADDAA106000091GF102991021011008001001001KA1240N+02251MA1999999099071MD1999999+0091REMSYN076AAXX  03124 82586 32598 21806 10272 20182 39907 40144 82100 333 20225 58009;EQDQ01  00002PRCP06
0167825860999992003080318004-05200-039300FM-12+021199999V0201801N002612200019N0200001N1+03331+01171101021ADDAA106000091GF103991031011008001001001MA1999999098671MD1999999-0041REMSYN070AAXX  03184 82586 32598 31805 10333 20117 39867 40102 83100 333 59004;EQDQ01  00002PRCP06
0208825860999992003080400004-05200-039300FM-12+021199999V0203601N001512200019N0010001N1+02701+01151101181ADDAA106000091GA1001+999999999GF100991001001999999001001KA1240M+03441MA1999999098811MD1999999+0001REMSYN082AAXX  04004 82586 32994 03603 10270 20115 39881 40118 333 10344 29040 55102 58000;EQDQ01  00002PRCP06
0186825860999992003080412004-05200-039300FM-12+021199999V0201401N003110075019N0200001N1+02681+01971101291ADDAA106000091GF106991061041008001001001KA1240N+02181MA1999999098921MD1999999-0151REMSYN076AAXX  04124 82586 32598 61406 10268 20197 39892 40129 86400 333 20218 59015;EQDQ01  00002PRCP06
0167825860999992003080418004-05200-039300FM-12+021199999V0201401N005112200019N0200001N1+03351+00881100981ADDAA106000091GF102991021011008001001001MA1999999098631MD1999999-0041REMSYN070AAXX  04184 82586 32598 21410 10335 20088 39863 40098 82100 333 59004;EQDQ01  00002PRCP06
0198825860999992003080500004-05200-039300FM-12+021199999V0200501N005112200019N0010001N1+02681+01611101151ADDAA106000091GF102991021011008001001001KA1240M+03411MA1999999098781MD1999999-0031REMSYN088AAXX  05004 82586 32594 20510 10268 20161 39878 40115 82100 333 10341 29048 55101 59003;EQDQ01  00002PRCP06
0186825860999992003080512004-05200-039300FM-12+021199999V0201801N003112200019N0200001N1+02721+01741101301ADDAA106000091GF104991041011008001001001KA1240N+02141MA1999999098931MD1999999+0011REMSYN076AAXX  05124 82586 32598 41806 10272 20174 39893 40130 84100 333 20214 58001;EQDQ01  00002PRCP06
0167825860999992003080518004-05200-039300FM-12+021199999V0201801N003112200019N0200001N1+03401+00931100991ADDAA106000091GF104991041011008001001001MA1999999098631MD1999999+0001REMSYN070AAXX  05184 82586 32598 41806 10340 20093 39863 40099 84100 333 58000;EQDQ01  00002PRCP06
0198825860999992003080600004-05200-039300FM-12+021199999V0200501N005112200019N0010001N1+02721+01351101061ADDAA106000091GF103991031051008001001001KA1240M+03491MA1999999098701MD1999999-0081REMSYN088AAXX  06004 82586 32594 30510 10272 20135 39870 40106 83500 333 10349 29041 55107 59008;EQDQ01  00002PRCP06
0186825860999992003080612004-05200-039300FM-12+021199999V0200901N003112200019N0200001N1+02741+01611101341ADDAA106000091GF103991031011008001001001KA1240N+02181MA1999999098971MD1999999+0041REMSYN076AAXX  06124 82586 32598 30906 10274 20161 39897 40134 83100 333 20218 58004;EQDQ01  00002PRCP06
0167825860999992003080618004-05200-039300FM-12+021199999V0200901N003112200019N0200001N1+03351+01071101061ADDAA106000091GF104991041011008001001001MA1999999098701MD1999999+0071REMSYN070AAXX  06184 82586 32598 40906 10335 20107 39870 40106 84100 333 58007;EQDQ01  00002PRCP06
0208825860999992003080700004-05200-039300FM-12+021199999V0200501N003112200019N0010001N1+02641+01881101161ADDAA106000091GA1001+999999999GF100991001001999999001001KA1240M+03411MA1999999098791MD1999999+0091REMSYN082AAXX  07004 82586 32994 00506 10264 20188 39879 40116 333 10341 29050 55099 58009;EQDQ01  00002PRCP06
0186825860999992003080712004-05200-039300FM-12+021199999V0200901N003110075019N0200001N1+02661+01951101351ADDAA106000091GF106991061041008001001001KA1240N+02281MA1999999098971MD1999999+0001REMSYN076AAXX  07124 82586 32598 60906 10266 20195 39897 40135 86400 333 20228 58000;EQDQ01  00002PRCP06
0167825860999992003080718004-05200-039300FM-12+021199999V0201801N002112200019N0200001N1+03381+01221100931ADDAA106000091GF102991021011008001001001MA1999999098571MD1999999-0131REMSYN070AAXX  07184 82586 32598 21804 10338 20122 39857 40093 82100 333 59013;EQDQ01  00002PRCP06
0198825860999992003080800004-05200-039300FM-12+021199999V0203601N002612200019N0010001N1+02781+01581101101ADDAA106000091GF103991031011008001001001KA1240M+03431MA1999999098741MD1999999-0051REMSYN088AAXX  08004 82586 32594 33605 10278 20158 39874 40110 83100 333 10343 29047 55106 59005;EQDQ01  00002PRCP06
0186825860999992003080812004-05200-039300FM-12+021199999V0201401N002610075019N0200001N1+02761+01861101261ADDAA106000091GF106991061021008001001001KA1240N+02261MA1999999098921MD1999999-0071REMSYN076AAXX  08124 82586 32598 61405 10276 20186 39892 40126 86200 333 20226 59007;EQDQ01  00002PRCP06
0167825860999992003080818004-05200-039300FM-12+021199999V0200501N002112200019N0200001N1+03411+01291100901ADDAA106000091GF102991021011008001001001MA1999999098551MD1999999-0021REMSYN070AAXX  08184 82586 32598 20504 10341 20129 39855 40090 82100 333 59002;EQDQ01  00002PRCP06
0198825860999992003080900004-05200-039300FM-12+021199999V0200501N001512200019N0010001N1+02641+01981101101ADDAA106000091GF102991021011008001001001KA1240M+03491MA1999999098741MD1999999+0001REMSYN088AAXX  09004 82586 32594 20503 10264 20198 39874 40110 82100 333 10349 29055 55104 58000;EQDQ01  00002PRCP06
0186825860999992003080912004-05200-039300FM-12+021199999V0201401N005112200019N0200001N1+02761+01561101391ADDAA106000091GF102991021011008001001001KA1240N+02221MA1999999099021MD1999999+0101REMSYN076AAXX  09124 82586 32598 21410 10276 20156 39902 40139 82100 333 20222 58010;EQDQ01  00002PRCP06
0167825860999992003080918004-05200-039300FM-12+021199999V0201801N003112200019N0200001N1+03421+00941101011ADDAA106000091GF101991001001999999001011MA1999999098651MD1999999+0101REMSYN070AAXX  09184 82586 32998 11806 10342 20094 39865 40101 80001 333 58010;EQDQ01  00002PRCP06
0208825860999992003081000004-05200-039300FM-12+021199999V0203601N004112200019N0010001N1+02601+01961101211ADDAA106000091GA1001+999999999GF100991001001999999001001KA1240M+03491MA1999999098841MD1999999+0101REMSYN082AAXX  10004 82586 32994 03608 10260 20196 39884 40121 333 10349 29052 55106 58010;EQDQ01  00002PRCP06
0186825860999992003081012004-05200-039300FM-12+021199999V0201401N003110075019N0200001N1+03701+02131101451ADDAA106000091GF106991061041008001001001KA1240N+02301MA1999999099071MD1999999+0051REMSYN076AAXX  10124 82586 32598 61406 10370 20213 39907 40145 86400 333 20230 58005;EQDQ01  00002PRCP06
0167825860999992003081018004-05200-039300FM-12+021199999V0200901N001512200019N0200001N1+03261+01511101131ADDAA106000091GF103991031021008001001001MA1999999098771MD1999999+0121REMSYN070AAXX  10184 82586 32598 30903 10326 20151 39877 40113 83200 333 58012;EQDQ01  00002PRCP06
0186825860999992003081112004-05200-039300FM-12+021199999V0200901N001510075019N0200001N1+02601+01761101501ADDAA106000091GF105991051021008001001001KA1240N+02181MA1999999099121MD1999999+0051REMSYN076AAXX  11124 82586 32598 50903 10260 20176 39912 40150 85200 333 20218 58005;EQDQ01  00002PRCP06
0183825860999992003081118004-05200-039300FM-12+021199999V0201401N002119999999N0200001N1+03321+01381101031ADDAA106000091GF107991999021008001001001MA1999999098671MD1999999-0101REMSYN070AAXX  11184 82586 32598 71404 10332 20138 39867 40103 84200 333 59010;EQDQ01+000042SCOTLCQ02  00002PRCP06
0208825860999992003081200004-05200-039300FM-12+021199999V0203101N000512200019N0010001N1+02721+01591101151ADDAA106000091GA1001+999999999GF100991001001999999001001KA1240M+03411MA1999999098771MD1999999-0111REMSYN082AAXX  12004 82586 32994 03101 10272 20159 39877 40115 333 10341 29048 55101 59011;EQDQ01  00002PRCP06
0186825860999992003081212004-05200-039300FM-12+021199999V0200901N004112200019N0200001N1+02761+01491101331ADDAA106000091GF102991021011008001001001KA1240N+02441MA1999999098961MD1999999-0161REMSYN076AAXX  12124 82586 32598 20908 10276 20149 39896 40133 82100 333 20244 59016;EQDQ01  00002PRCP06
0167825860999992003081218004-05200-039300FM-12+021199999V0200901N002610075019N0200001N1+03341+01241101071ADDAA106000091GF105991051021008001001001MA1999999098671MD1999999+0001REMSYN070AAXX  12184 82586 32598 50905 10334 20124 39867 40107 85200 333 58000;EQDQ01  00002PRCP06
0208825860999992003081300004-05200-039300FM-12+021199999V0200501N004112200019N0010001N1+02651+01851101131ADDAA106000091GA1001+999999999GF100991001001999999001001KA1240M+03431MA1999999098761MD1999999-0011REMSYN082AAXX  13004 82586 32994 00508 10265 20185 39876 40113 333 10343 29050 55102 59001;EQDQ01  00002PRCP06
0186825860999992003081312004-05200-039300FM-12+021199999V0200901N003610075019N0200001N1+02681+01891101341ADDAA106000091GF107991071071008001001001KA1240N+02421MA1999999098961MD1999999+0001REMSYN076AAXX  13124 82586 32598 70907 10268 20189 39896 40134 87700 333 20242 58000;EQDQ01  00002PRCP06
0167825860999992003081318004-05200-039300FM-12+021199999V0201801N004612200019N0200001N1+03301+01361101011ADDAA106000091GF104991041021008001001001MA1999999098651MD1999999-0021REMSYN070AAXX  13184 82586 32598 41809 10330 20136 39865 40101 84200 333 59002;EQDQ01  00002PRCP06
0198825860999992003081400004-05200-039300FM-12+021199999V0203601N005112200019N0010001N1+02661+01871101161ADDAA106000091GF103991031021008001001001KA1240M+03391MA1999999098781MD1999999+0021REMSYN088AAXX  14004 82586 32594 33610 10266 20187 39878 40116 83200 333 10339 29054 55091 58002;EQDQ01  00002PRCP06
0186825860999992003081412004-05200-039300FM-12+021199999V0200901N003610075019N0200001N1+02661+01951101341ADDAA106000091GF106991061041008001001001KA1240N+02321MA1999999098961MD1999999+0001REMSYN076AAXX  14124 82586 32598 60907 10266 20195 39896 40134 86400 333 20232 58000;EQDQ01  00002PRCP06
0167825860999992003081418004-05200-039300FM-12+021199999V0201801N001512200019N0200001N1+03381+01161100981ADDAA106000091GF102991021011008001001001MA1999999098631MD1999999-0021REMSYN070AAXX  14184 82586 32598 21803 10338 20116 39863 40098 82100 333 59002;EQDQ01  00002PRCP06
0208825860999992003081500004-05200-039300FM-12+021199999V0200501N004112200019N0010001N1+02711+01471101071ADDAA106000091GA1001+999999999GF100991001001999999001001KA1240M+03431MA1999999098711MD1999999-0071REMSYN082AAXX  15004 82586 32994 00508 10271 20147 39871 40107 333 10343 29046 55106 59007;EQDQ01  00002PRCP06
0186825860999992003081512004-05200-039300FM-12+021199999V0201401N001512200019N0200001N1+02721+01491101251ADDAA106000091GF103991031011008001001001KA1240N+02241MA1999999098881MD1999999-0081REMSYN076AAXX  15124 82586 32598 31403 10272 20149 39888 40125 83100 333 20224 59008;EQDQ01  00002PRCP06
0167825860999992003081518004-05200-039300FM-12+021199999V0201801N003112200019N0200001N1+03441+01331100941ADDAA106000091GF103991031011008001001001MA1999999098581MD1999999-0051REMSYN070AAXX  15184 82586 32598 31806 10344 20133 39858 40094 83100 333 59005;EQDQ01  00002PRCP06
0198825860999992003081600004-05200-039300FM-12+021199999V0200501N006710075019N0010001N1+02571+01991101221ADDAA106000091GF106991061051008001001001KA1240M+03561MA1999999098841MD1999999+0131REMSYN088AAXX  16004 82586 32594 60513 10257 20199 39884 40122 86500 333 10356 29054 55107 58013;EQDQ01  00002PRCP06
0186825860999992003081612004-05200-039300FM-12+021199999V0200501N000512200019N0200001N1+02781+01851101291ADDAA106000091GF104991041021008001001001KA1240N+02261MA1999999098921MD1999999+0041REMSYN076AAXX  16124 82586 32598 40501 10278 20185 39892 40129 84200 333 20226 58004;EQDQ01  00002PRCP06
0208825860999992003081700004-05200-039300FM-12+021199999V0200501N006712200019N0010001N1+02641+02071101141ADDAA106000091GA1001+999999999GF100991001001999999001001KA1240M+03541MA1999999098771MD1999999-0071REMSYN082AAXX  17004 82586 32994 00513 10264 20207 39877 40114 333 10354 29057 55107 59007;EQDQ01  00002PRCP06
0186825860999992003081712004-05200-039300FM-12+021199999V0200501N004112200019N0200001N1+02861+02061101341ADDAA106000091GF104991041021008001001001KA1240N+02401MA1999999098771MD1999999+0051REMSYN076AAXX  17124 82586 32598 40508 10286 20206 39877 40134 84200 333 20240 58005;EQDQ01  00002PRCP06
0167825860999992003081718004-05200-039300FM-12+021199999V0200501N003610075019N0200001N1+03391+01711101051ADDAA106000091GF106991061041008001001001MA1999999098701MD1999999+0131REMSYN070AAXX  17184 82586 32598 60507 10339 20171 39870 40105 86400 333 58013;EQDQ01  00002PRCP06
0208825860999992003081800004-05200-039300FM-12+021199999V0203601N003112200019N0010001N1+02711+02131101191ADDAA106000091GA1001+999999999GF100991001001999999001001KA1240M+03461MA1999999098831MD1999999+0061REMSYN082AAXX  18004 82586 32994 03606 10271 20213 39883 40119 333 10346 29060 55092 58006;EQDQ01  00002PRCP06
0186825860999992003081812004-05200-039300FM-12+021199999V0200501N003610075019N0200001N1+02601+02101101401ADDAA106000091GF108991081071008001999999KA1240N+02481MA1999999099021MD1999999+0051REMSYN076AAXX  18124 82586 32598 80507 10260 20210 39902 40140 887// 333 20248 58005;EQDQ01  00002PRCP06
0167825860999992003081818004-05200-039300FM-12+021199999V0201401N003112200019N0200001N1+03311+01461101121ADDAA106000091GF104991041011008001001001MA1999999098771MD1999999+0071REMSYN070AAXX  18184 82586 32598 41406 10331 20146 39877 40112 84100 333 58007;EQDQ01  00002PRCP06
0208825860999992003081900004-05200-039300FM-12+021199999V0200501N006712200019N0010001N1+02601+02191101191ADDAA106000091GA1001+999999999GF100991001001999999001001KA1240M+03421MA1999999098811MD1999999-0021REMSYN082AAXX  19004 82586 32994 00513 10260 20219 39881 40119 333 10342 29066 55061 59002;EQDQ01  00002PRCP06
0186825860999992003081912004-05200-039300FM-12+021199999V0201401N006212200019N0200001N1+02681+02121101531ADDAA106000091GF103991031011008001001001KA1240N+02161MA1999999098151MD1999999+0131REMSYN076AAXX  19124 82586 32598 31412 10268 20212 39815 40153 83100 333 20216 58013;EQDQ01  00002PRCP06
0167825860999992003081918004-05200-039300FM-12+021199999V0201401N006712200019N0200001N1+03261+01121101161ADDAA106000091GF102991021011008001001001MA1999999098801MD1999999+0031REMSYN070AAXX  19184 82586 32598 21413 10326 20112 39880 40116 82100 333 58003;EQDQ01  00002PRCP06
0208825860999992003082000004-05200-039300FM-12+021199999V0203101N001512200019N0010001N1+02721+00951101261ADDAA106000091GA1001+999999999GF100991001001999999001001KA1240M+03331MA1999999098891MD1999999+0081REMSYN082AAXX  20004 82586 32994 03103 10272 20095 39889 40126 333 10333 29033 55108 58008;EQDQ01  00002PRCP06
0196825860999992003082012004-05200-039300FM-12+021199999V0201401N005712200019N0200001N1+02781+01011101361ADDAA106000091GA1001+999999999GF100991001001999999001001KA1240N+02301MA1999999098991MD1999999-0061REMSYN070AAXX  20124 82586 32598 01411 10278 20101 39899 40136 333 20230 59006;EQDQ01  00002PRCP06
0177825860999992003082018004-05200-039300FM-12+021199999V0201401N003112200019N0200001N1+03321+00791100991ADDAA106000091GA1001+999999999GF100991001001999999001001MA1999999098631MD1999999-0171REMSYN064AAXX  20184 82586 32998 01406 10332 20079 39863 40099 333 59017;EQDQ01  00002PRCP06
0208825860999992003082100004-05200-039300FM-12+021199999V0200501N004112200019N0010001N1+02751+01141101081ADDAA106000091GA1001+999999999GF100991001001999999001001KA1240M+03401MA1999999098721MD1999999-0171REMSYN082AAXX  21004 82586 32994 00508 10275 20114 39872 40108 333 10340 29032 55095 59017;EQDQ01  00002PRCP06
0186825860999992003082112004-05200-039300FM-12+021199999V0201801N003112200019N0200001N1+02781+01051101231ADDAA106000091GF102991021011008001001001KA1240N+02101MA1999999098851MD1999999-0141REMSYN076AAXX  21124 82586 32598 21806 10278 20105 39885 40123 82100 333 20210 59014;EQDQ01  00002PRCP06
0167825860999992003082118004-05200-039300FM-12+021199999V0200901N003112200019N0200001N1+03381+00911100831ADDAA106000091GF101991011011008001001001MA1999999098481MD1999999-0151REMSYN070AAXX  21184 82586 32598 10906 10338 20091 39848 40083 81100 333 59015;EQDQ01  00002PRCP06
0208825860999992003082200004-05200-039300FM-12+021199999V0203601N003112200019N0010001N1+02721+01771100941ADDAA106000091GA1001+999999999GF100991001001999999001001KA1240M+03491MA1999999098581MD1999999-0141REMSYN082AAXX  22004 82586 32994 03606 10272 20177 39858 40094 333 10349 29042 55108 59014;EQDQ01  00002PRCP06
0186825860999992003082212004-05200-039300FM-12+021199999V0201401N004112200019N0200001N1+02801+01751101141ADDAA106000091GF103991031011008001001001KA1240N+02321MA1999999098781MD1999999-0071REMSYN076AAXX  22124 82586 32598 31408 10280 20175 39878 40114 83100 333 20232 59007;EQDQ01  00002PRCP06
0167825860999992003082218004-05200-039300FM-12+021199999V0200901N003112200019N0200001N1+03411+01291100811ADDAA106000091GF104991041021008001001001MA1999999098471MD1999999-0011REMSYN070AAXX  22184 82586 32598 40906 10341 20129 39847 40081 84200 333 59001;EQDQ01  00002PRCP06
0208825860999992003082300004-05200-039300FM-12+021199999V0203601N004112200019N0010001N1+02681+02041101041ADDAA106000091GA1001+999999999GF100991001001999999001001KA1240M+03511MA1999999098681MD1999999+0101REMSYN082AAXX  23004 82586 32294 03608 10268 20204 39868 40104 333 10351 29054 55097 58010;EQDQ01  00002PRCP06
0186825860999992003082312004-05200-039300FM-12+021199999V0200901N002612200019N0200001N1+02841+01631101241ADDAA106000091GF102991021011008001001001KA1240N+02321MA1999999098871MD1999999+0091REMSYN076AAXX  23124 82586 32598 20905 10284 20163 39887 40124 82100 333 20232 58009;EQDQ01  00002PRCP06
0167825860999992003082318004-05200-039300FM-12+021199999V0201401N003112200019N0200001N1+03421+01311100931ADDAA106000091GF104991041011008001001001MA1999999098571MD1999999+0101REMSYN070AAXX  23184 82586 32598 41406 10342 20131 39857 40093 84100 333 58010;EQDQ01  00002PRCP06
0198825860999992003082400004-05200-039300FM-12+021199999V0203601N003112200019N0010001N1+02981+01621101041ADDAA106000091GF102991021011008001001001KA1240M+03501MA1999999098691MD1999999+0011REMSYN088AAXX  24004 82586 32594 23606 10298 20162 39869 40104 82100 333 10350 29041 55109 58001;EQDQ01  00002PRCP06
0186825860999992003082412004-05200-039300FM-12+021199999V0201401N003610075019N0200001N1+02501+01981101301ADDAA106000091GF108991081051008001999999KA1240N+02251MA1999999098931MD1999999+0061REMSYN076AAXX  24124 82586 32598 81407 10250 20198 39893 40130 885// 333 20225 58006;EQDQ01  00002PRCP06
0183825860999992003082418004-05200-039300FM-12+021199999V0200901N002612200019N0200001N1+03301+01551100881ADDAA106000091GF101991999051022501001001MA1999999098531MD1999999-0041REMSYN070AAXX  24184 82586 32898 10905 10330 20155 39853 40088 84500 333 59004;EQDQ01+000042SCOTLCQ02  00002PRCP06
0208825860999992003082500004-05200-039300FM-12+021199999V0200501N005112200019N0010001N1+02701+01911101031ADDAA106000091GA1001+999999999GF100991001001999999001001KA1240M+03401MA1999999098661MD1999999-0031REMSYN082AAXX  25004 82586 32994 00510 10270 20191 39866 40103 333 10340 29058 55069 59003;EQDQ01  00002PRCP06
0186825860999992003082512004-05200-039300FM-12+021199999V0200901N003112200019N0200001N1+02721+01821101221ADDAA106000091GF104991041011008001001001KA1240N+02281MA1999999098851MD1999999-0081REMSYN076AAXX  25124 82586 32598 40906 10272 20182 39885 40122 84100 333 20228 59008;EQDQ01  00002PRCP06
0167825860999992003082518004-05200-039300FM-12+021199999V0200901N002612200019N0200001N1+03431+01311100991ADDAA106000091GF102991021011008001001001MA1999999098631MD1999999+0101REMSYN070AAXX  25184 82586 32598 20905 10343 20131 39863 40099 82100 333 58010;EQDQ01  00002PRCP06
0208825860999992003082600004-05200-039300FM-12+021199999V0200501N005112200019N0010001N1+02721+01931101061ADDAA106000091GA1001+999999999GF100991001001999999001001KA1240M+03541MA1999999098701MD1999999+0041REMSYN082AAXX  26004 82586 32994 00510 10272 20193 39870 40106 333 10354 29053 55106 58004;EQDQ01  00002PRCP06
0186825860999992003082612004-05200-039300FM-12+021199999V0200901N001512200019N0200001N1+02781+01851101201ADDAA106000091GF103991031011008001001001KA1240N+02341MA1999999098881MD1999999+0031REMSYN076AAXX  26124 82586 32598 30903 10278 20185 39888 40120 83100 333 20234 58003;EQDQ01  00002PRCP06
0167825860999992003082618004-05200-039300FM-12+021199999V0200901N004112200019N0200001N1+03521+01031100921ADDAA106000091GF101991011011008001001001MA1999999098571MD1999999-0061REMSYN070AAXX  26184 82586 32598 10908 10352 20103 39857 40092 81100 333 59006;EQDQ01  00002PRCP06
0208825860999992003082700004-05200-039300FM-12+021199999V0200501N004612200019N0010001N1+02681+02241101061ADDAA106000091GA1001+999999999GF100991001001999999001001KA1240M+03631MA1999999098701MD1999999+0001REMSYN082AAXX  27004 82586 32994 00509 10268 20224 39870 40106 333 10363 29059 55104 58000;EQDQ01  00002PRCP06
0186825860999992003082712004-05200-039300FM-12+021199999V0200501N004610075019N0200001N1+02721+02001101351ADDAA106000091GF108991081071008001999999KA1240N+02461MA1999999098981MD1999999+0101REMSYN076AAXX  27124 82586 32598 80509 10272 20200 39898 40135 887// 333 20246 58010;EQDQ01  00002PRCP06
0167825860999992003082718004-05200-039300FM-12+021199999V0200501N005112200019N0200001N1+03461+01581100981ADDAA106000091GF103991031011008001001001MA1999999098631MD1999999+0061REMSYN070AAXX  27184 82586 32598 30510 10346 20158 39863 40098 83100 333 58006;EQDQ01  00002PRCP06
0208825860999992003082800004-05200-039300FM-12+021199999V0200501N003112200019N0010001N1+02601+02071101141ADDAA106000091GA1001+999999999GF100991001001999999001001KA1240M+03531MA1999999098771MD1999999+0071REMSYN082AAXX  28004 82586 32994 00506 10260 20207 39877 40114 333 10353 29059 55070 58007;EQDQ01  00002PRCP06
0186825860999992003082812004-05200-039300FM-12+021199999V02099999999990075019N0200001N1+02701+02131101371ADDAA106000091GF108991081071008001999999KA1240N+02451MA1999999099001MD1999999+0021REMSYN076AAXX  28124 82586 32598 805// 10270 20213 39900 40137 887// 333 20245 58002;EQDQ01  00002PRCP06
0167825860999992003082818004-05200-039300FM-12+021199999V0201401N002612200019N0200001N1+03341+01631101011ADDAA106000091GF104991041011008001001001MA1999999098661MD1999999+0031REMSYN070AAXX  28184 82586 32598 41405 10334 20163 39866 40101 84100 333 58003;EQDQ01  00002PRCP06
0208825860999992003082900004-05200-039300FM-12+021199999V0200501N005112200019N0010001N1+02701+01081101141ADDAA106000091GA1001+999999999GF100991001001999999001001KA1240M+03411MA1999999098761MD1999999-0011REMSYN082AAXX  29004 82586 32994 00510 10270 20108 39876 40114 333 10341 29056 55051 59001;EQDQ01  00002PRCP06
0186825860999992003082912004-05200-039300FM-12+021199999V0200901N003110075019N0200001N1+02721+02001101341ADDAA106000091GF108991081071008001999999KA1240N+02361MA1999999098971MD1999999-0031REMSYN076AAXX  29124 82586 32598 80906 10272 20200 39897 40134 887// 333 20236 59003;EQDQ01  00002PRCP06
0167825860999992003082918004-05200-039300FM-12+021199999V0200501N001512200019N0200001N1+03461+01601100971ADDAA106000091GF104991041011008001001001MA1999999098621MD1999999-0041REMSYN070AAXX  29184 82586 32598 40503 10346 20160 39862 40097 84100 333 59004;EQDQ01  00002PRCP06
0208825860999992003083000004-05200-039300FM-12+021199999V0200501N005112200019N0010001N1+02671+02071101141ADDAA106000091GA1001+999999999GF100991001001999999001001KA1240M+03531MA1999999098771MD1999999+0011REMSYN082AAXX  30004 82586 32994 00510 10267 20207 39877 40114 333 10353 29060 55081 58001;EQDQ01  00002PRCP06
0202825860999992003083012004-05200-039300FM-12+021199999V0200901N003610075019N0200001N1+02621+01981101431ADDAA106000091GF108991999021008001001001KA1240N+02401MA1999999099051MD1999999+0081REMSYN076AAXX  30124 82586 32598 80907 10262 20198 39905 40143 85200 333 20240 58008;EQDQ01+000052SCOTLCQ02  00002PRCP06
0167825860999992003083018004-05200-039300FM-12+021199999V0200501N003110075019N0200001N1+03101+01771101161ADDAA106000091GF106991061021008001001001MA1999999098801MD1999999+0181REMSYN070AAXX  30184 82586 32598 60506 10310 20177 39880 40116 86200 333 58018;EQDQ01  00002PRCP06
0208825860999992003083100004-05200-039300FM-12+021199999V0203601N006212200019N0010001N1+02621+02071101281ADDAA106000091GA1001+999999999GF100991001001999999001001KA1240M+03241MA1999999098901MD1999999+0131REMSYN082AAXX  31004 82586 32994 03612 10262 20207 39890 40128 333 10324 29064 55027 58013;EQDQ01  00002PRCP06
0186825860999992003083112004-05200-039300FM-12+021199999V0201401N004612200019N0200001N1+02781+01851101451ADDAA106000091GF104991041021008001001001KA1240N+02381MA1999999099081MD1999999+0031REMSYN076AAXX  31124 82586 32598 41409 10278 20185 39908 40145 84200 333 20238 58003;EQDQ01  00002PRCP06
0167825860999992003083118004-05200-039300FM-12+021199999V0201801N002610075019N0200001N1+03411+02991101051ADDAA106000091GF105991051021008001001001MA1999999098701MD1999999-0101REMSYN070AAXX  31184 82586 32598 51805 10341 20299 39870 40105 85200 333 59010;EQDQ01  00002PRCP06
0208825860999992003090100004-05200-039300FM-12+021199999V0200501N005112200019N0010001N1+02761+01971101171ADDAA106000091GA1001+999999999GF100991001001999999001001KA1240M+03511MA1999999098811MD1999999-0091REMSYN082AAXX  01004 82586 32994 00510 10276 20197 39881 40117 333 10351 29051 55089 59009;EQDQ01  00002PRCP06
0186825860999992003090112004-05200-039300FM-12+021199999V0201401N003612200019N0200001N1+02881+01501101391ADDAA106000091GF103991031011008001001001KA1240N+02201MA1999999099031MD1999999-0051REMSYN076AAXX  01124 82586 32598 31407 10288 20150 39903 40139 83100 333 20220 59005;EQDQ01  00002PRCP06
0167825860999992003090118004-05200-039300FM-12+021199999V0201401N004612200019N0200001N1+03521+00891101021ADDAA106000091GF102991021011008001001001MA1999999098671MD1999999-0031REMSYN070AAXX  01184 82586 32598 21409 10352 20089 39867 40102 82100 333 59003;EQDQ01  00002PRCP06
0208825860999992003090200004-05200-039300FM-12+021199999V0203601N004112200019N0010001N1+02701+02031101161ADDAA106000091GA1001+999999999GF100991001001999999001001KA1240M+03611MA1999999098801MD1999999-0011REMSYN082AAXX  02004 82586 32994 03608 10270 20203 39880 40116 333 10361 29049 55106 59001;EQDQ01  00002PRCP06
0186825860999992003090212004-05200-039300FM-12+021199999V0200901N005112200019N0200001N1+02821+01611101451ADDAA106000091GF104991041021008001001001KA1240N+02351MA1999999099081MD1999999+0051REMSYN076AAXX  02124 82586 32598 40910 10282 20161 39908 40145 84200 333 20235 58005;EQDQ01  00002PRCP06
0167825860999992003090218004-05200-039300FM-12+021199999V02099999999992200019N0200001N1+03411+01291101081ADDAA106000091GF102991021011008001001001MA1999999098721MD1999999+0051REMSYN070AAXX  02184 82586 32598 219// 10341 20129 39872 40108 82100 333 58005;EQDQ01  00002PRCP06
0208825860999992003090300004-05200-039300FM-12+021199999V0200501N005112200019N0010001N1+02701+01911101171ADDAA106000091GA1001+999999999GF100991001001999999001001KA1240M+03511MA1999999098811MD1999999+0011REMSYN082AAXX  03004 82586 32994 00510 10270 20191 39881 40117 333 10351 29050 55100 58001;EQDQ01  00002PRCP06
0186825860999992003090312004-05200-039300FM-12+021199999V0200901N005112200019N0200001N1+02801+01751101411ADDAA106000091GF104991041011008001001001KA1240N+02301MA1999999099041MD1999999-0041REMSYN076AAXX  03124 82586 32598 40910 10280 20175 39904 40141 84100 333 20230 59004;EQDQ01  00002PRCP06
0167825860999992003090318004-05200-039300FM-12+021199999V0201801N001512200019N0200001N1+03461+01341101031ADDAA106000091GF102991021011008001001001MA1999999098671MD1999999-0051REMSYN070AAXX  03184 82586 32598 21803 10346 20134 39867 40103 82100 333 59005;EQDQ01  00002PRCP06
0198825860999992003090400004-05200-039300FM-12+021199999V0200501N001512200019N0010001N1+02991+01131101181ADDAA106000091GF104991041011008001001001KA1240M+03551MA1999999098831MD1999999+0021REMSYN088AAXX  04004 82586 32594 40503 10299 20113 39883 40118 84100 333 10355 29036 55098 58002;EQDQ01  00002PRCP06
0186825860999992003090412004-05200-039300FM-12+021199999V0201401N006712200019N0200001N1+02901+01751101381ADDAA106000091GF106991031011008001001011KA1240N+02241MA1999999099021MD1999999-0021REMSYN076AAXX  04124 82586 32598 61413 10290 20175 39902 40138 83101 333 20224 59002;EQDQ01  00002PRCP06
0167825860999992003090418004-05200-039300FM-12+021199999V0201801N004110450019N0200001N1+03311+01591101131ADDAA106000091GF106991031021008001021001MA1999999098771MD1999999+0101REMSYN070AAXX  04184 82586 32598 61808 10331 20159 39877 40113 83220 333 58010;EQDQ01  00002PRCP06
0198825860999992003090500004-05200-039300FM-12+021199999V0201401N001512200019N0010001N1+02901+01691101241ADDAA106000091GF104991041011008001001001KA1240M+03431MA1999999098891MD1999999+0061REMSYN088AAXX  05004 82586 32594 41403 10290 20169 39889 40124 84100 333 10343 29046 55095 58006;EQDQ01  00002PRCP06
0186825860999992003090512004-05200-039300FM-12+021199999V0201401N002610075019N0200001N1+02821+01771101361ADDAA106000091GF106991061021008001001001KA1240N+02381MA1999999099001MD1999999-0021REMSYN076AAXX  05124 82586 32598 61405 10282 20177 39900 40136 86200 333 20238 59002;EQDQ01  00002PRCP06
0167825860999992003090518004-05200-039300FM-12+021199999V0201401N005110075019N0200001N1+03391+01481101011ADDAA106000091GF106991061021008001001001MA1999999098671MD1999999-0101REMSYN070AAXX  05184 82586 32598 61410 10339 20148 39867 40101 86200 333 59010;EQDQ01  00002PRCP06
0208825860999992003090600004-05200-039300FM-12+021199999V0200501N005112200019N0010001N1+02761+02041101171ADDAA106000091GA1001+999999999GF100991001001999999001001KA1240M+03501MA1999999098811MD1999999-0081REMSYN082AAXX  06004 82586 32994 00510 10276 20204 39881 40117 333 10350 29054 55099 59008;EQDQ01  00002PRCP06
0186825860999992003090612004-05200-039300FM-12+021199999V0201401N005112200019N0200001N1+02821+01551101321ADDAA106000091GF101991011011008001001001KA1240N+02301MA1999999098951MD1999999-0051REMSYN076AAXX  06124 82586 32598 11410 10282 20155 39895 40132 81100 333 20230 59005;EQDQ01  00002PRCP06
0167825860999992003090618004-05200-039300FM-12+021199999V0201401N005112200019N0200001N1+03421+01311100911ADDAA106000091GF101991011011008001001001MA1999999098571MD1999999-0101REMSYN070AAXX  06184 82586 32598 11410 10342 20131 39857 40091 81100 333 59010;EQDQ01  00002PRCP06
0198825860999992003090700004-05200-039300FM-12+021199999V0203601N005110075019N0200001N1+02861+01921101051ADDAA106000091GF106991061051008001001001KA1240M+03501MA1999999098691MD1999999+0121REMSYN088AAXX  07004 82586 32598 63610 10286 20192 39869 40105 86500 333 10350 29047 55105 58012;EQDQ01  00002PRCP06
0186825860999992003090712004-05200-039300FM-12+021199999V02099999999992200019N0200001N1+02741+01781101341ADDAA106000091GF104991041011008001001001KA1240N+02321MA1999999098971MD1999999+0021REMSYN076AAXX  07124 82586 32598 414// 10274 20178 39897 40134 84100 333 20232 58002;EQDQ01  00002PRCP06
0186825860999992003090812004-05200-039300FM-12+021199999V0200901N003112200019N0200001N1+02901+01871101241ADDAA106000091GF104991041011008001001001KA1240N+02281MA1999999098891MD1999999-0081REMSYN076AAXX  08124 82586 32598 40906 10290 20187 39889 40124 84100 333 20228 59008;EQDQ01  00002PRCP06
0208825860999992003090900004-05200-039300FM-12+021199999V0200501N005112200019N0010001N1+02601+02171101261ADDAA106000091GA1001+999999999GF100991001001999999001001KA1240M+03501MA1999999098891MD1999999+0161REMSYN082AAXX  09004 82586 32994 00510 10260 20217 39889 40126 333 10350 29060 55102 58016;EQDQ01  00002PRCP06
0186825860999992003090912004-05200-039300FM-12+021199999V0201401N003112200019N0200001N1+02851+01671101371ADDAA106000091GF101991011011008001001001KA1240N+02371MA1999999099001MD1999999+0111REMSYN076AAXX  09124 82586 32598 11406 10285 20167 39900 40137 81100 333 20237 58011;EQDQ01  00002PRCP06
0208825860999992003091000004-05200-039300FM-12+021199999V0203601N005112200019N0010001N1+02701+02031101071ADDAA106000091GA1001+999999999GF100991001001999999001001KA1240M+03501MA1999999098711MD1999999-0181REMSYN082AAXX  10004 82586 32994 03610 10270 20203 39871 40107 333 10350 29054 55104 59018;EQDQ01  00002PRCP06
0196825860999992003091012004-05200-039300FM-12+021199999V0201401N003612200019N0200001N1+02801+01521101321ADDAA106000091GA1001+999999999GF100991001001999999001001KA1240N+02321MA1999999098951MD1999999-0051REMSYN070AAXX  10124 82586 32998 01407 10280 20152 39895 40132 333 20232 59005;EQDQ01  00002PRCP06
0167825860999992003091018004-05200-039300FM-12+021199999V0200501N004612200019N0200001N1+03501+01321100921ADDAA106000091GF102991021011008001001001MA1999999098571MD1999999-0081REMSYN070AAXX  10184 82586 32598 20509 10350 20132 39857 40092 82100 333 59008;EQDQ01  00002PRCP06
0198825860999992003091100004-05200-039300FM-12+021199999V0203601N005112200019N0010001N1+02741+01951101151ADDAA106000091GF102991021051008001001001KA1240M+03611MA1999999098791MD1999999+0081REMSYN088AAXX  11004 82586 32594 23610 10274 20195 39879 40115 82500 333 10361 29079 55105 58008;EQDQ01  00002PRCP06
0196825860999992003091112004-05200-039300FM-12+021199999V0200901N002612200019N0200001N1+02921+01531101261ADDAA106000091GA1001+999999999GF100991001001999999001001KA1240N+02301MA1999999098901MD1999999-0051REMSYN070AAXX  11124 82586 32998 00905 10292 20153 39890 40126 333 20230 59005;EQDQ01  00002PRCP06
0167825860999992003091118004-05200-039300FM-12+021199999V0200501N003112200019N0200001N1+03521+01281100901ADDAA106000091GF102991021011008001001001MA1999999098551MD1999999-0021REMSYN070AAXX  11184 82586 32598 20506 10352 20128 39855 40090 82100 333 59002;EQDQ01  00002PRCP06
0208825860999992003091200004-05200-039300FM-12+021199999V0203601N004112200019N0010001N1+02681+02091101101ADDAA106000091GA1001+999999999GF100991001001999999001001KA1240M+03621MA1999999098741MD1999999-0051REMSYN082AAXX  12004 82586 32994 03608 10268 20209 39874 40110 333 10362 29052 55107 59005;EQDQ01  00002PRCP06
0186825860999992003091212004-05200-039300FM-12+021199999V0200901N003112200019N0200001N1+02801+01921101441ADDAA106000091GF104991041011008001001001KA1240N+02321MA1999999099071MD1999999+0171REMSYN076AAXX  12124 82586 32598 40906 10280 20192 39907 40144 84100 333 20232 58017;EQDQ01  00002PRCP06
0202825860999992003091312004-05200-039300FM-12+021199999V0200901N003119999999N0200001N1+02861+01751101431ADDAA106000091GF106991999021008001001001KA1240N+02301MA1999999099061MD1999999-0011REMSYN076AAXX  13124 82586 32598 60906 10286 20175 39906 40143 84200 333 20230 59001;EQDQ01+000042SCOTLCQ02  00002PRCP06
0183825860999992003091318004-05200-039300FM-12+021199999V0200901N001512200019N0200001N1+03501+01381101001ADDAA106000091GF104991041011008001001001MA1999999101382MD1999999-0031REMSYN070AAXX  13184 82586 32598 40903 10350 20138 30138 40100 84100 333 59003;EQDQ01+101383APOSP Q02  00002PRCP06
0186825860999992003091412004-05200-039300FM-12+021199999V0200501N003612200019N0200001N1+02881+02051101361ADDAA106000091GF104991041011008001001001KA1240N+02491MA1999999098991MD1999999-0071REMSYN076AAXX  14124 82586 32598 40507 10288 20205 39899 40136 84100 333 20249 59007;EQDQ01  00002PRCP06
0167825860999992003091418004-05200-039300FM-12+021199999V0200501N001512200019N0200001N1+03561+01531100971ADDAA106000091GF104991041011008001001001MA1999999098631MD1999999-0031REMSYN070AAXX  14184 82586 32598 40503 10356 20153 39863 40097 84100 333 59003;EQDQ01  00002PRCP06
0208825860999992003091500004-05200-039300FM-12+021199999V0200501N005112200019N0010001N1+02741+02101101081ADDAA106000091GA1001+999999999GF100991001001999999001001KA1240M+03611MA1999999098721MD1999999-0011REMSYN082AAXX  15004 82586 32994 00510 10274 20210 39872 40108 333 10361 29058 55104 59001;EQDQ01  00002PRCP06
0186825860999992003091512004-05200-039300FM-12+021199999V0200501N003110075019N0200001N1+02821+02021101251ADDAA106000091GF106991061021008001001001KA1240N+02481MA1999999098891MD1999999-0101REMSYN076AAXX  15124 82586 32598 60506 10282 20202 39889 40125 86200 333 20248 59010;EQDQ01  00002PRCP06
0167825860999992003091618004-05200-039300FM-12+021199999V0201401N003112200019N0200001N1+03531+01281100901ADDAA106000091GF104991041011008001001001MA1999999098561MD1999999-0011REMSYN070AAXX  16184 82586 32598 41406 10353 20128 39856 40090 84100 333 59001;EQDQ01  00002PRCP06
0208825860999992003091700004-05200-039300FM-12+021199999V0200501N003112200019N0010001N1+02701+02171101081ADDAA106000091GA1001+999999999GF100991001001999999001001KA1240M+03631MA1999999098721MD1999999+0041REMSYN082AAXX  17004 82586 32994 00506 10270 20217 39872 40108 333 10363 29058 55102 58004;EQDQ01  00002PRCP06
0186825860999992003091712004-05200-039300FM-12+021199999V0200901N003110075019N0200001N1+02701+02031101351ADDAA106000091GF106991061041008001001001KA1240N+02421MA1999999098981MD1999999+0041REMSYN076AAXX  17124 82586 32598 60906 10270 20203 39898 40135 86400 333 20242 58004;EQDQ01  00002PRCP06
0167825860999992003091718004-05200-039300FM-12+021199999V0200501N001510075019N0200001N1+03361+01461100961ADDAA106000091GF105991051011008001001001MA1999999099601MD1999999+0041REMSYN070AAXX  17184 82586 32598 50503 10336 20146 39960 40096 85100 333 58004;EQDQ01  00002PRCP06
0208825860999992003091800004-05200-039300FM-12+021199999V0203601N002112200019N0010001N1+02721+01821101051ADDAA106000091GA1001+999999999GF100991001001999999001001KA1240M+03511MA1999999098691MD1999999+0091REMSYN082AAXX  18004 82586 32994 03604 10272 20182 39869 40105 333 10351 29054 55082 58009;EQDQ01  00002PRCP06
0186825860999992003091812004-05200-039300FM-12+021199999V0200901N004112200019N0200001N1+02821+01861101231ADDAA106000091GF102991021011008001001001KA1240N+02301MA1999999098861MD1999999-0121REMSYN076AAXX  18124 82586 32598 20908 10282 20186 39886 40123 82100 333 20230 59012;EQDQ01  00002PRCP06
0167825860999992003091818004-05200-039300FM-12+021199999V0201401N002612200019N0200001N1+03521+01391100861ADDAA106000091GF103991031021008001001001MA1999999098521MD1999999-0081REMSYN070AAXX  18184 82586 32598 31405 10352 20139 39852 40086 83200 333 59008;EQDQ01  00002PRCP06
0208825860999992003091900004-05200-039300FM-12+021199999V0200501N006712200019N0010001N1+02741+02121100991ADDAA106000091GA1001+999999999GF100991001001999999001001KA1240M+03601MA1999999098631MD1999999-0061REMSYN082AAXX  19004 82586 32994 00513 10274 20212 39863 40099 333 10360 29055 55102 59006;EQDQ01  00002PRCP06
0186825860999992003091912004-05200-039300FM-12+021199999V0200901N004612200019N0200001N1+02801+01901101181ADDAA106000091GF104991041021008001001001KA1240N+02301MA1999999098821MD1999999-0041REMSYN076AAXX  19124 82586 32598 40909 10280 20190 39882 40118 84200 333 20230 59004;EQDQ01  00002PRCP06
0167825860999992003091918004-05200-039300FM-12+021199999V0201401N003112200019N0200001N1+03521+00891100761ADDAA106000091GF101991011011008001001001MA1999999098421MD1999999-0101REMSYN070AAXX  19184 82586 32598 11406 10352 20089 39842 40076 81100 333 59010;EQDQ01  00002PRCP06
0208825860999992003092000004-05200-039300FM-12+021199999V0200501N006212200019N0010001N1+02731+02001100981ADDAA106000091GA1001+999999999GF100991001001999999001001KA1240M+03631MA1999999098621MD1999999-0011REMSYN082AAXX  20004 82586 32994 00512 10273 20200 39862 40098 333 10363 29052 55106 59001;EQDQ01  00002PRCP06
0202825860999992003092012004-05200-039300FM-12+021199999V0200901N002112200019N0200001N1+03801+01911101181ADDAA106000091GF101991999041008001001001KA1240N+02341MA1999999098821MD1999999+0001REMSYN076AAXX  20124 82586 32598 10904 10380 20191 39882 40118 86400 333 20234 58000;EQDQ01+000062SCOTLCQ02  00002PRCP06
0167825860999992003092018004-05200-039300FM-12+021199999V0201401N003112200019N0200001N1+03461+01341100811ADDAA106000091GF104991041011008001001001MA1999999098471MD1999999+0051REMSYN070AAXX  20184 82586 32598 41406 10346 20134 39847 40081 84100 333 58005;EQDQ01  00002PRCP06
0186825860999992003092112004-05200-039300FM-12+021199999V0200901N001512200019N0200001N1+02801+01601101291ADDAA106000091GF102991021021008001001001KA1240N+02301MA1999999098921MD1999999+0101REMSYN076AAXX  21124 82586 32598 20903 10280 20160 39892 40129 82200 333 20230 58010;EQDQ01  00002PRCP06
0167825860999992003092118004-05200-039300FM-12+021199999V0201401N003112200019N0200001N1+03401+00991100951ADDAA106000091GF101991011021999999001021MA1999999098591MD1999999+0121REMSYN070AAXX  21184 82586 32998 11406 10340 20099 39859 40095 81202 333 58012;EQDQ01  00002PRCP06
0208825860999992003092200004-05200-039300FM-12+021199999V0200501N003112200019N0010001N1+02741+01841101101ADDAA106000091GA1001+999999999GF100991001001999999001001KA1240M+03511MA1999999098741MD1999999+0051REMSYN082AAXX  22004 82586 32594 00506 10274 20184 39874 40110 333 10351 29047 55104 58005;EQDQ01  00002PRCP06
0186825860999992003092212004-05200-039300FM-12+021199999V0201401N005112200019N0200001N1+03861+01651101161ADDAA106000091GF102991021021008001001001KA1240N+02321MA1999999098801MD1999999-0121REMSYN076AAXX  22124 82586 32598 21410 10386 20165 39880 40116 82200 333 20232 59012;EQDQ01  00002PRCP06
0177825860999992003092218004-05200-039300FM-12+021199999V0200901N004612200019N0200001N1+03581+01081100801ADDAA106000091GA1001+999999999GF100991001001999999001001MA1999999098461MD1999999-0131REMSYN064AAXX  22184 82586 32998 00909 10358 20108 39846 40080 333 59013;EQDQ01  00002PRCP06
0208825860999992003092400004-05200-039300FM-12+021199999V02099999999992200019N0010001N1+02741+01951100981ADDAA106000091GA1001+999999999GF100991001001999999001001KA1240M+03611MA1999999098621MD1999999+0001REMSYN082AAXX  24004 82586 32994 036// 10274 20195 39862 40098 333 10361 29052 55100 58000;EQDQ01  00002PRCP06
0186825860999992003092412004-05200-039300FM-12+021199999V0200901N005112200019N0200001N1+02841+01881101211ADDAA106000091GF102991021011008001001001KA1240N+02261MA1999999098851MD1999999+0071REMSYN076AAXX  24124 82586 32598 20910 10284 20188 39885 40121 82100 333 20226 58007;EQDQ01  00002PRCP06
0199825860999992003092418004-05200-039300FM-12+021199999V0201001N020612200019N0200001N1+03481+01471999999ADDAA106000091GF104991041011008001001001MA1999999098511MD1999999+0061REMSYN070AAXX  24184 82586 32598 41040 10348 20147 39851 40805 84100 333 58006;EQDQ01+108053APOSLPQ02  00002PRCP06Q03 108053APOSLP
0208825860999992003092500004-05200-039300FM-12+021199999V0200501N004112200019N0010001N1+02741+01811100951ADDAA106000091GA1001+999999999GF100991001001999999001001KA1240M+03531MA1999999098591MD1999999-0031REMSYN082AAXX  25004 82586 32994 00508 10274 20181 39859 40095 333 10353 29050 55105 59003;EQDQ01  00002PRCP06
0186825860999992003092512004-05200-039300FM-12+021199999V0200901N004110075019N0200001N1+03781+01911101191ADDAA106000091GF107991071041008001001001KA1240N+02221MA1999999098831MD1999999-0021REMSYN076AAXX  25124 82586 32598 70908 10378 20191 39883 40119 87400 333 20222 59002;EQDQ01  00002PRCP06
0183825860999992003092518004-05200-039300FM-12+021199999V0200901N001512200019N0200001N1+03381+01481100911ADDAA106000091GF104991041021008001001001MA1999999095852MD1999999+0041REMSYN070AAXX  25184 82586 32598 40903 10338 20148 39585 40091 84200 333 58004;EQDQ01+095853APOSP Q02  00002PRCP06
0186825860999992003092612004-05200-039300FM-12+021199999V0200501N005110075019N0200001N1+02641+01981101151ADDAA106000091GF107991071041008001001001KA1240N+02341MA1999999098771MD1999999-0061REMSYN076AAXX  26124 82586 32598 70510 10264 20198 39877 40115 87400 333 20234 59006;EQDQ01  00002PRCP06
0167825860999992003092618004-05200-039300FM-12+021199999V0200901N002112200019N0200001N1+03361+01261100861ADDAA106000091GF104991041011008001001001MA1999999098521MD1999999-0031REMSYN070AAXX  26184 82586 32598 40904 10336 20126 39852 40086 84100 333 59003;EQDQ01  00002PRCP06
0208825860999992003092700004-05200-039300FM-12+021199999V0203601N005112200019N0010001N1+02741+02041101001ADDAA106000091GA1001+999999999GF100991001001999999001001KA1240M+03491MA1999999098641MD1999999+0011REMSYN082AAXX  27004 82586 32994 03610 10274 20204 39864 40100 333 10349 29058 55069 58001;EQDQ01  00002PRCP06
0186825860999992003092712004-05200-039300FM-12+021199999V0200501N005110075019N0200001N1+02761+01971101111ADDAA106000091GF106991061041008001001001KA1240N+02341MA1999999098751MD1999999-0021REMSYN076AAXX  27124 82586 32598 60510 10276 20197 39875 40111 86400 333 20234 59002;EQDQ01  00002PRCP06
0167825860999992003092718004-05200-039300FM-12+021199999V0200501N005112200019N0200001N1+03501+01581100691ADDAA106000091GF103991031021008001001001MA1999999098351MD1999999-0171REMSYN070AAXX  27184 82586 32598 30510 10350 20158 39835 40069 83200 333 59017;EQDQ01  00002PRCP06
0208825860999992003092800004-05200-039300FM-12+021199999V02099999999992200019N0010001N1+02761+02041100861ADDAA106000091GA1001+999999999GF100991001001999999001001KA1240M+03591MA1999999098501MD1999999-0141REMSYN082AAXX  28004 82586 32994 036// 10276 20204 39850 40086 333 10359 29056 55099 59014;EQDQ01  00002PRCP06
0186825860999992003092812004-05200-039300FM-12+021199999V0200901N004110075019N0200001N1+02701+02061101131ADDAA106000091GF106991061041008001001001KA1240N+02331MA1999999098771MD1999999+0021REMSYN076AAXX  28124 82586 32598 60908 10270 20206 39877 40113 86400 333 20233 58002;EQDQ01  00002PRCP06
0177825860999992003092818004-05200-039300FM-12+021199999V0200501N003112200019N0200001N1+03621+01181100761ADDAA106000091GA1001+999999999GF100991001001999999001001MA1999999098431MD1999999+0081REMSYN064AAXX  28184 82586 32998 00506 10362 20118 39843 40076 333 58008;EQDQ01  00002PRCP06
0208825860999992003092900004-05200-039300FM-12+021199999V0203601N002112200019N0010001N1+02841+01791100911ADDAA106000091GA1001+999999999GF100991001001999999001001KA1240M+03701MA1999999098551MD1999999+0051REMSYN082AAXX  29004 82586 32994 03604 10284 20179 39855 40091 333 10370 29049 55104 58005;EQDQ01  00002PRCP06
0186825860999992003092912004-05200-039300FM-12+021199999V0200501N003110075019N0200001N1+02781+01931101191ADDAA106000091GF106991061041008001001001KA1240N+02421MA1999999098831MD1999999+0061REMSYN076AAXX  29124 82586 32598 60506 10278 20193 39883 40119 86400 333 20242 58006;EQDQ01  00002PRCP06
0167825860999992003092918004-05200-039300FM-12+021199999V0200901N005112200019N0200001N1+03561+01371100801ADDAA106000091GF101991011011008001001001MA1999999098761MD1999999+0031REMSYN070AAXX  29184 82586 32598 10910 10356 20137 39876 40080 81100 333 58003;EQDQ01  00002PRCP06
0208825860999992003093000004-05200-039300FM-12+021199999V0200501N005112200019N0010001N1+03701+02131101021ADDAA106000091GA1001+999999999GF100991001001999999001001KA1240M+03651MA1999999098661MD1999999+0111REMSYN082AAXX  30004 82586 32994 00510 10370 20213 39866 40102 333 10365 29057 55096 58011;EQDQ01  00002PRCP06
0186825860999992003093012004-05200-039300FM-12+021199999V0200901N003612200019N0200001N1+02921+02011101271ADDAA106000091GF104991041021008001001001KA1240N+02401MA1999999098841MD1999999+0011REMSYN076AAXX  30124 82586 32598 40907 10292 20201 39884 40127 84200 333 20240 58001;EQDQ01  00002PRCP06
0167825860999992003093018004-05200-039300FM-12+021199999V0200901N005112200019N0200001N1+03541+01411100801ADDAA106000091GF105991021011008001001041MA1999999098461MD1999999+0001REMSYN070AAXX  30184 82586 32598 50910 10354 20141 39846 40080 82104 333 58000;EQDQ01  00002PRCP06
0208825860999992003100100004-05200-039300FM-12+021199999V0200501N005112200019N0010001N1+02721+02051100991ADDAA106000091GA1001+999999999GF100991001001999999001001KA1240M+03631MA1999999098631MD1999999-0031REMSYN082AAXX  01004 82586 32994 00510 10272 20205 39863 40099 333 10363 29055 55101 59003;EQDQ01  00002PRCP06
0186825860999992003100112004-05200-039300FM-12+021199999V0200901N005712200019N0200001N1+02881+01801101201ADDAA106000091GF101991011011008001001001KA1240N+02341MA1999999098841MD1999999+0001REMSYN076AAXX  01124 82586 32598 10911 10288 20180 39884 40120 81100 333 20234 58000;EQDQ01  00002PRCP06
0167825860999992003100118004-05200-039300FM-12+021199999V0200901N003112200019N0200001N1+03561+01311100771ADDAA106000091GF101991011011008001001001MA1999999098431MD1999999-0031REMSYN070AAXX  01184 82586 32598 10906 10356 20131 39843 40077 81100 333 59003;EQDQ01  00002PRCP06
0208825860999992003100200004-05200-039300FM-12+021199999V0200501N004112200019N0010001N1+02661+01771100951ADDAA106000091GA1001+999999999GF100991001001999999001001KA1240M+03611MA1999999098591MD1999999-0041REMSYN082AAXX  02004 82586 32994 00508 10266 20177 39859 40095 333 10361 29049 55106 59004;EQDQ01  00002PRCP06
0186825860999992003100212004-05200-039300FM-12+021199999V0200901N002612200019N0200001N1+02841+01881101101ADDAA106000091GF104991041011008001001001KA1240N+02421MA1999999098741MD1999999-0101REMSYN076AAXX  02124 82586 32598 40905 10284 20188 39874 40110 84100 333 20242 59010;EQDQ01  00002PRCP06
0167825860999992003100218004-05200-039300FM-12+021199999V0200901N003112200019N0200001N1+03481+01301100761ADDAA106000091GF103991031021008001001001MA1999999098421MD1999999-0011REMSYN070AAXX  02184 82586 32598 30906 10348 20130 39842 40076 83200 333 59001;EQDQ01  00002PRCP06
0208825860999992003100300004-05200-039300FM-12+021199999V0200501N006712200019N0010001N1+02701+02031100931ADDAA106000091GA1001+999999999GF100991001001999999001001KA1240M+03551MA1999999098571MD1999999-0021REMSYN082AAXX  03004 82586 32994 00513 10270 20203 39857 40093 333 10355 29054 55101 59002;EQDQ01  00002PRCP06
0186825860999992003100312004-05200-039300FM-12+021199999V0200501N003112200019N0200001N1+02881+01801101221ADDAA106000091GF104991041011008001001001KA1240N+02241MA1999999098861MD1999999+0121REMSYN076AAXX  03124 82586 32598 40506 10288 20180 39886 40122 84100 333 20224 58012;EQDQ01  00002PRCP06
0167825860999992003100318004-05200-039300FM-12+021199999V0200501N013912200019N0200001N1+03421+01311100901ADDAA106000091GF103991031021008001001001MA1999999098551MD1999999+0131REMSYN070AAXX  03184 82586 32598 30527 10342 20131 39855 40090 83200 333 58013;EQDQ01  00002PRCP06
0208825860999992003100400004-05200-039300FM-12+021199999V0200501N003612200019N0010001N1+02741+01511101061ADDAA106000091GA1001+999999999GF100991001001999999001001KA1240M+03551MA1999999098701MD1999999+0131REMSYN082AAXX  04004 82586 32994 00507 10274 20151 39870 40106 333 10355 29044 55099 58013;EQDQ01  00002PRCP06
0186825860999992003100412004-05200-039300FM-12+021199999V0200901N002112200019N0200001N1+02741+02101101231ADDAA106000091GF103991031021008001001001KA1240N+02301MA1999999098871MD1999999+0011REMSYN076AAXX  04124 82586 32598 30904 10274 20210 39887 40123 83200 333 20230 58001;EQDQ01  00002PRCP06
0167825860999992003100418004-05200-039300FM-12+021199999V0201401N002612200019N0200001N1+03461+01341100911ADDAA106000091GF104991041021008001001001MA1999999098551MD1999999+0001REMSYN070AAXX  04184 82586 32598 41405 10346 20134 39855 40091 84200 333 58000;EQDQ01  00002PRCP06
0208825860999992003100500004-05200-039300FM-12+021199999V0203601N003112200019N0010001N1+02791+01981101031ADDAA106000091GA1001+999999999GF100991001001999999001001KA1240M+03531MA1999999098671MD1999999-0031REMSYN082AAXX  05004 82586 32994 03606 10279 20198 39867 40103 333 10353 29055 55103 59003;EQDQ01  00002PRCP06
0186825860999992003100512004-05200-039300FM-12+021199999V0201401N003112200019N0200001N1+02801+01921101111ADDAA106000091GF102991021011008001001001KA1240N+02331MA1999999098751MD1999999-0121REMSYN076AAXX  05124 82586 32598 21406 10280 20192 39875 40111 82100 333 20233 59012;EQDQ01  00002PRCP06
0183825860999992003100518004-05200-039300FM-12+021199999V0200901N002112200019N0200001N1+03531+01391100821ADDAA106000091GF102991999021008001001001MA1999999098481MD1999999-0071REMSYN070AAXX  05184 82586 32598 20904 10353 20139 39848 40082 83200 333 59007;EQDQ01+000032SCOTLCQ02  00002PRCP06
0208825860999992003100600004-05200-039300FM-12+021199999V0203601N003112200019N0010001N1+02661+02001100921ADDAA106000091GA1001+999999999GF100991001001999999001001KA1240M+03611MA1999999098561MD1999999-0111REMSYN082AAXX  06004 82586 32994 03606 10266 20200 39856 40092 333 10361 29055 55104 59011;EQDQ01  00002PRCP06
0186825860999992003100612004-05200-039300FM-12+021199999V0200901N025712200019N0200001N1+02841+01761101061ADDAA106000091GF104991041011008001001001KA1240N+02341MA1999999098701MD1999999-0051REMSYN076AAXX  06124 82586 32598 40950 10284 20176 39870 40106 84100 333 20234 59005;EQDQ01  00002PRCP06
0167825860999992003100618004-05200-039300FM-12+021199999V0200901N003112200019N0200001N1+03531+01281100771ADDAA106000091GF103991031011008001001001MA1999999098431MD1999999-0051REMSYN070AAXX  06184 82586 32598 30906 10353 20128 39843 40077 83100 333 59005;EQDQ01  00002PRCP06
0208825860999992003100700004-05200-039300FM-12+021199999V0200501N005112200019N0010001N1+02081+02021100961ADDAA106000091GA1001+999999999GF100991001001999999001001KA1240M+03631MA1999999098601MD1999999+0081REMSYN082AAXX  07004 82586 32994 00510 10208 20202 39860 40096 333 10363 29053 55106 58008;EQDQ01  00002PRCP06
0186825860999992003100712004-05200-039300FM-12+021199999V0200901N001012200019N0200001N1+02821+01861101231ADDAA106000091GF103991031011008001001001KA1240N+02491MA1999999098861MD1999999+0041REMSYN076AAXX  07124 82586 32598 30902 10282 20186 39886 40123 83100 333 20249 58004;EQDQ01  00002PRCP06
0167825860999992003100718004-05200-039300FM-12+021199999V0201401N002612200019N0200001N1+03521+01601100811ADDAA106000091GF103991031011008001001001MA1999999098471MD1999999+0041REMSYN070AAXX  07184 82586 32598 31405 10352 20160 39847 40081 83100 333 58004;EQDQ01  00002PRCP06
0208825860999992003100800004-05200-039300FM-12+021199999V0200501N005112200019N0010001N1+02681+02041100981ADDAA106000091GA1001+999999999GF100991001001999999001001KA1240M+03611MA1999999098621MD1999999+0021REMSYN082AAXX  08004 82586 32994 00510 10268 20204 39862 40098 333 10361 29056 55105 58002;EQDQ01  00002PRCP06
0202825860999992003100812004-05200-039300FM-12+021199999V02099999999992200019N0200001N1+02841+01881101181ADDAA106000091GF104991041011008001001001KA1240N+99999MA1999999098821MD1999999-0041REMSYN076AAXX  08124 82586 32598 414// 10284 20188 39882 40118 84100 333 20293 59004;EQDQ01  00002PRCP06Q02 +02932ATMN  
0167825860999992003100818004-05200-039300FM-12+021199999V0201401N003112200019N0200001N1+03521+01391100771ADDAA106000091GF101991011011008001001001MA1999999098431MD1999999-0041REMSYN070AAXX  08184 82586 32598 11406 10352 20139 39843 40077 81100 333 59004;EQDQ01  00002PRCP06
0209825860999992003100900004-05200-039300FM-12+021199999V0200901N006712200019N0010001N1+02621+01621100951ADDAA106000091GA1001+999999999GF100991001001999999001001KA1240M+03631MA1999999098561REMSYN081AAXX  09004 82586 32994 00913 10262 20162 39856 0092 333 10363 29055 55107 59002;EQDQ01+999990APOSLPQ02  00002PRCP06
0186825860999992003100912004-05200-039300FM-12+021199999V02099999999990075019N0200001N1+02741+01841101191ADDAA106000091GF106991061041008001001001KA1240N+02321MA1999999098821MD1999999+0001REMSYN076AAXX  09124 82586 32598 618// 10274 20184 39882 40119 86400 333 20232 58000;EQDQ01  00002PRCP06
0167825860999992003100918004-05200-039300FM-12+021199999V02099999999992200019N0200001N1+03441+01431100811ADDAA106000091GF103991031011008001001001MA1999999098471MD1999999+0041REMSYN070AAXX  09184 82586 32598 314// 10344 20143 39847 40081 83100 333 58004;EQDQ01  00002PRCP06
0224825860999992003101000004-05200-039300FM-12+021199999V0200501N003112200019N0010001N1+03661+03071101031ADDAA106000091GA1001+999999999GF100991001001999999001001KA1240M+99999MA1999999098671MD1999999+0111REMSYN082AAXX  10004 82586 32994 00506 10366 20307 39867 40103 333 10353 29057 55107 58011;EQDQ01  00002PRCP06Q02 +03532ATMX  
0186825860999992003101012004-05200-039300FM-12+021199999V0201401N002112200019N0200001N1+02701+02111101011ADDAA106000091GF104991041011008001001001KA1240N+02201MA1999999098651MD1999999-0171REMSYN076AAXX  10124 82586 32598 41404 10270 20211 39865 40101 84100 333 20220 59017;EQDQ01  00002PRCP06
0167825860999992003101018004-05200-039300FM-12+021199999V02099999999992200019N0200001N1+03481+01751100781ADDAA106000091GF103991031011008001001001MA1999999098441MD1999999-0031REMSYN070AAXX  10184 82586 32598 318// 10348 20175 39844 40078 83100 333 59003;EQDQ01  00002PRCP06
0208825860999992003101100004-05200-039300FM-12+021199999V0200501N005112200019N0010001N1+02701+02241100951ADDAA106000091GA1001+999999999GF100991001001999999001001KA1240M+03611MA1999999098591MD1999999-0081REMSYN082AAXX  11004 82586 32994 00510 10270 20224 39859 40095 333 10361 29064 55102 59008;EQDQ01  00002PRCP06
0186825860999992003101112004-05200-039300FM-12+021199999V0201401N005112200019N0200001N1+02841+01791101151ADDAA106000091GF102991021011008001001001KA1240N+02201MA1999999098791MD1999999+0141REMSYN076AAXX  11124 82586 32598 21410 10284 20179 39879 40115 82100 333 20220 58014;EQDQ01  00002PRCP06
0177825860999992003101118004-05200-039300FM-12+021199999V0201401N003112200019N0010001N1+03541+01351100801ADDAA106000091GA1001+999999999GF100991001001999999001001MA1999999098461MD1999999+0021REMSYN064AAXX  11184 82586 32994 01406 10354 20135 39846 40080 333 58002;EQDQ01  00002PRCP06
0208825860999992003101200004-05200-039300FM-12+021199999V0200501N004612200019N0010001N1+02821+01861100931ADDAA106000091GA1001+999999999GF100991001001999999001001KA1240M+03651MA1999999098571MD1999999-0021REMSYN082AAXX  12004 82586 32994 00509 10282 20186 39857 40093 333 10365 29048 55099 59002;EQDQ01  00002PRCP06
0186825860999992003101212004-05200-039300FM-12+021199999V0200901N003112200019N0200001N1+02881+01861101101ADDAA106000091GF101991011011008001001001KA1240N+02321MA1999999098741MD1999999-0051REMSYN076AAXX  12124 82586 32598 10906 10288 20186 39874 40110 81100 333 20232 59005;EQDQ01  00002PRCP06
0167825860999992003101218004-05200-039300FM-12+021199999V0200501N003112200019N0200001N1+03661+01141100751ADDAA106000091GF102991021011008001001001MA1999999098411MD1999999-0051REMSYN070AAXX  12184 82586 32598 20506 10366 20114 39841 40075 82100 333 59005;EQDQ01  00002PRCP06
0186825860999992003101312004-05200-039300FM-12+021199999V0201401N003110075019N0200001N1+02861+02091101071ADDAA106000091GF106991061041008001001001KA1240N+02321MA1999999098711MD1999999-0031REMSYN076AAXX  13124 82586 32598 61406 10286 20209 39871 40107 86400 333 20232 59003;EQDQ01  00002PRCP06
0167825860999992003101318004-05200-039300FM-12+021199999V0201401N003112200019N0200001N1+03481+01841100791ADDAA106000091GF104991041021008001001001MA1999999098451MD1999999+0041REMSYN070AAXX  13184 82586 32598 41406 10348 20184 39845 40079 84200 333 58004;EQDQ01  00002PRCP06
0208825860999992003101400004-05200-039300FM-12+021199999V0200501N005112200019N0010001N1+02741+02171100931ADDAA106000091GA1001+999999999GF100991001001999999001001KA1240M+03591MA1999999098571MD1999999+0001REMSYN082AAXX  14004 82586 32994 00510 10274 20217 39857 40093 333 10359 29061 55091 58000;EQDQ01  00002PRCP06
0186825860999992003101412004-05200-039300FM-12+021199999V0200901N001510075019N0200001N1+02721+02051101111ADDAA106000091GF106991061041008001001001KA1240N+02421MA1999999098751MD1999999+0041REMSYN076AAXX  14124 82586 32598 60903 10272 20205 39875 40111 86400 333 20242 58004;EQDQ01  00002PRCP06
0167825860999992003101418004-05200-039300FM-12+021199999V0200501N001512200019N0200001N1+03401+01721100821ADDAA106000091GF104991041021008001001001MA1999999098481MD1999999+0031REMSYN070AAXX  14184 82586 32598 40503 10340 20172 39848 40082 84200 333 58003;EQDQ01  00002PRCP06
0208825860999992003101500004-05200-039300FM-12+021199999V02099999999992200019N0010001N1+02801+02181100931ADDAA106000091GA1001+999999999GF100991001001999999001001KA1240M+03571MA1999999098571MD1999999+0001REMSYN082AAXX  15004 82586 32994 005// 10280 20218 39857 40093 333 10357 29061 55055 58000;EQDQ01  00002PRCP06
0186825860999992003101512004-05200-039300FM-12+021199999V0200901N003110075019N0200001N1+02901+02271101171ADDAA106000091GF106991061041008001001001KA1240N+02401MA1999999098811MD1999999+0061REMSYN076AAXX  15124 82586 32598 60906 10290 20227 30881 40117 86400 333 20240 58006;EQDQ01  00002PRCP06
0167825860999992003101518004-05200-039300FM-12+021199999V0201401N002612200019N0200001N1+03341+01581100871ADDAA106000091GF104991041021008001001001MA1999999098531MD1999999+0051REMSYN070AAXX  15184 82586 32598 41405 10334 20158 39853 40087 84200 333 58005;EQDQ01  00002PRCP06
0208825860999992003101600004-05200-039300FM-12+021199999V0203601N003112200019N0010001N1+02661+02141101021ADDAA106000091GA1001+999999999GF100991001001999999001001KA1240M+03541MA1999999098661MD1999999+0091REMSYN082AAXX  16004 82586 32994 03606 10266 20214 39866 40102 333 10354 29063 55104 58009;EQDQ01  00002PRCP06
0167825860999992003101618004-05200-039300FM-12+021199999V0201401N004612200019N0200001N1+03521+01281100801ADDAA106000091GF101991011011008001001001MA1999999098461MD1999999-0071REMSYN070AAXX  16184 82586 32598 11409 10352 20128 39846 40080 81100 333 59007;EQDQ01  00002PRCP06
0208825860999992003101700004-05200-039300FM-12+021199999V0203601N005112200019N0010001N1+02701+02121101021ADDAA106000091GA1001+999999999GF100991001001999999001001KA1240M+03651MA1999999098631MD1999999-0031REMSYN082AAXX  17004 82586 32994 03610 10270 20212 39863 40102 333 10365 29055 55110 59003;EQDQ01  00002PRCP06
0186825860999992003101712004-05200-039300FM-12+021199999V0200901N003110075019N0200001N1+02781+02061101191ADDAA106000091GF106991061041008001001001KA1240N+02351MA1999999098831MD1999999-0041REMSYN076AAXX  17124 82586 32598 60906 10278 20206 39883 40119 86400 333 20235 59004;EQDQ01  00002PRCP06
0167825860999992003101718004-05200-039300FM-12+021199999V0200901N001512200019N0200001N1+03481+01611100791ADDAA106000091GF104991041011008001001001MA1999999098481MD1999999-0011REMSYN070AAXX  17184 82586 32598 40903 10348 20161 39848 40079 84100 333 59001;EQDQ01  00002PRCP06
0208825860999992003101800004-05200-039300FM-12+021199999V0200501N001512200019N0010001N1+02721+02281101031ADDAA106000091GA1001+999999999GF100991001001999999001001KA1240M+03551MA1999999098671MD1999999+0041REMSYN082AAXX  18004 82586 32994 00503 10272 20228 39867 40103 333 10355 29063 55084 58004;EQDQ01  00002PRCP06
0186825860999992003101812004-05200-039300FM-12+021199999V0200501N003110075019N0200001N1+02781+02061101181ADDAA106000091GF107991071041008001001001KA1240N+02341MA1999999098821MD1999999-0011REMSYN076AAXX  18124 82586 32598 70506 10278 20206 39882 40118 87400 333 20234 59001;EQDQ01  00002PRCP06
0167825860999992003101818004-05200-039300FM-12+021199999V0200501N002110075019N0200001N1+03201+01821100931ADDAA106000091GF106991061021008001001001MA1999999098571MD1999999+0121REMSYN070AAXX  18184 82586 32598 60504 10320 20182 39857 40093 86200 333 58012;EQDQ01  00002PRCP06
0208825860999992003101900004-05200-039300FM-12+021199999V0203601N003112200019N0010001N1+02761+01971101001ADDAA106000091GA1001+999999999GF100991001001999999001001KA1240M+03331MA1999999098641MD1999999-0031REMSYN082AAXX  19004 82586 32994 03606 10276 20197 39864 40100 333 10333 29058 55058 59003;EQDQ01  00002PRCP06
0186825860999992003101912004-05200-039300FM-12+021199999V0201401N001510075019N0200001N1+02841+02121101161ADDAA106000091GF106991061041008001001001KA1240N+02331MA1999999098801MD1999999-0021REMSYN076AAXX  19124 82586 32598 61403 10284 20212 39880 40116 86400 333 20233 59002;EQDQ01  00002PRCP06
0167825860999992003101918004-05200-039300FM-12+021199999V0200501N001512200019N0200001N1+03561+01681100911ADDAA106000091GF104991041011008001001001MA1999999098451MD1999999-0121REMSYN070AAXX  19184 82586 32598 40503 10356 20168 39845 40091 84100 333 59012;EQDQ01  00002PRCP06
0208825860999992003102000004-05200-039300FM-12+021199999V02099999999992200019N0010001N1+02681+02041101031ADDAA106000091GA1001+999999999GF100991001001999999001001KA1240M+03651MA1999999098671MD1999999+0031REMSYN082AAXX  20004 82586 32994 036// 10268 20204 39867 40103 333 10365 29059 55095 58003;EQDQ01  00002PRCP06
0186825860999992003102012004-05200-039300FM-12+021199999V02099999999992200019N0200001N1+02821+01891101181ADDAA106000091GF102991021011008001001001KA1240N+02381MA1999999098821MD1999999+0021REMSYN076AAXX  20124 82586 32598 209// 10282 20189 39882 40118 82100 333 20238 58002;EQDQ01  00002PRCP06
0167825860999992003102018004-05200-039300FM-12+021199999V0200501N003112200019N0200001N1+03541+01351100811ADDAA106000091GF101991011011008001001001MA1999999098471MD1999999+0021REMSYN070AAXX  20184 82586 32598 10506 10354 20135 39847 40081 81100 333 58002;EQDQ01  00002PRCP06
0208825860999992003102100004-05200-039300FM-12+021199999V0203601N005112200019N0010001N1+03681+02021101111ADDAA106000091GA1001+999999999GF100991001001999999001001KA1240M+03651MA1999999098751MD1999999+0081REMSYN082AAXX  21004 82586 32994 03610 10368 20202 39875 40111 333 10365 29055 55109 58008;EQDQ01  00002PRCP06
0186825860999992003102112004-05200-039300FM-12+021199999V02099999999992200019N0200001N1+02821+01861101141ADDAA106000091GF101991011011008001001001KA1240N+02481MA1999999098781MD1999999-0041REMSYN076AAXX  21124 82586 32598 109// 10282 20186 39878 40114 81100 333 20248 59004;EQDQ01  00002PRCP06
0167825860999992003102118004-05200-039300FM-12+021199999V02099999999999999999N0010001N1+03541+01411100721ADDAA106000091GF106991001001999999001051MA1999999098381MD1999999-0091REMSYN070AAXX  21184 82586 32994 609// 10354 20141 39838 40072 80005 333 59009;EQDQ01  00002PRCP06
0208825860999992003102200004-05200-039300FM-12+021199999V02099999999992200019N0010001N1+02781+02231100871ADDAA106000091GA1001+999999999GF100991001001999999001001KA1240M+03611MA1999999098521MD1999999-0231REMSYN082AAXX  22004 82586 32994 005// 10278 20223 39852 40087 333 10361 29057 55099 59023;EQDQ01  00002PRCP06
0186825860999992003102212004-05200-039300FM-12+021199999V02099999999992200019N0200001N1+02881+01971101161ADDAA106000091GF103991031011008001001001KA1240N+02401MA1999999098801MD1999999+0021REMSYN076AAXX  22124 82586 32598 309// 10288 20197 39880 40116 83100 333 20240 58002;EQDQ01  00002PRCP06
0167825860999992003102218004-05200-039300FM-12+021199999V0200901N003119999999N0200001N1+03501+01381100761ADDAA106000091GF105991001001999999001041MA1999999098481MD1999999+0041REMSYN070AAXX  22184 82586 32998 50906 10350 20138 39848 40076 80004 333 58004;EQDQ01  00002PRCP06
0208825860999992003102300004-05200-039300FM-12+021199999V02099999999992200019N0010001N1+02701+01931100981ADDAA106000091GA1001+999999999GF100991001001999999001001KA1240M+03691MA1999999098621MD1999999+0101REMSYN082AAXX  23004 82586 32994 036// 10270 20193 39862 40098 333 10369 29053 55102 58010;EQDQ01  00002PRCP06
0186825860999992003102312004-05200-039300FM-12+021199999V02099999999992200019N0200001N1+02921+02091101171ADDAA106000091GF104991041021008001001001KA1240N+02401MA1999999098811MD1999999+0011REMSYN076AAXX  23124 82586 32598 409// 10292 20209 39881 40117 84200 333 20240 58001;EQDQ01  00002PRCP06
0167825860999992003102318004-05200-039300FM-12+021199999V0200501N003110450019N0200001N1+03541+01621100861ADDAA106000091GF106991031011008001021001MA1999999098521MD1999999+0101REMSYN070AAXX  23184 82586 32598 60506 10354 20162 39852 40086 83120 333 58010;EQDQ01  00002PRCP06
0208825860999992003102400004-05200-039300FM-12+021199999V0203601N005112200019N0010001N1+02741+01951101081ADDAA106000091GA1001+999999999GF100991001001999999001001KA1240M+03631MA1999999098721MD1999999+0101REMSYN082AAXX  24004 82586 32994 03610 10274 20195 39872 40108 333 10363 29054 55098 58010;EQDQ01  00002PRCP06
0186825860999992003102412004-05200-039300FM-12+021199999V0203601N003110075019N0200001N1+02861+02111101221ADDAA106000091GF105991051011008001001001KA1240N+02401MA1999999098861MD1999999+0051REMSYN076AAXX  24124 82586 32598 53606 10286 20211 39886 40122 85100 333 20240 58005;EQDQ01  00002PRCP06
0167825860999992003102418004-05200-039300FM-12+021199999V0200501N004112200019N0200001N1+03681+01641100921ADDAA106000091GF102991021011008001001001MA1999999098581MD1999999+0061REMSYN070AAXX  24184 82586 32598 20508 10368 20164 39858 40092 82100 333 58006;EQDQ01  00002PRCP06
0208825860999992003102500004-05200-039300FM-12+021199999V0203601N006212200019N0010001N1+02841+01881101131ADDAA106000091GA1001+999999999GF100991001001999999001001KA1240M+03691MA1999999098771MD1999999+0051REMSYN082AAXX  25004 82586 32994 03612 10284 20188 39877 40113 333 10369 29052 55109 58005;EQDQ01  00002PRCP06
0186825860999992003102512004-05200-039300FM-12+021199999V0200501N003110075019N0200001N1+02781+02061101181ADDAA106000091GF106991061041008001001001KA1240N+02421MA1999999098821MD1999999-0041REMSYN076AAXX  25124 82586 32598 60506 10278 20206 39882 40118 86400 333 20242 59004;EQDQ01  00002PRCP06
0167825860999992003102518004-05200-039300FM-12+021199999V0200501N005112200019N0200001N1+03561+01371100771ADDAA106000091GF102991021011008001001001MA1999999098431MD1999999-0151REMSYN070AAXX  25184 82586 32598 20510 10356 20137 39843 40077 82100 333 59015;EQDQ01  00002PRCP06
0208825860999992003102600004-05200-039300FM-12+021199999V0203601N003112200019N0010001N1+02681+02161100931ADDAA106000091GA1001+999999999GF100991001001999999001001KA1240M+03651MA1999999098571MD1999999-0201REMSYN082AAXX  26004 82586 32994 03606 10268 20216 39857 40093 333 10365 29010 55095 59020;EQDQ01  00002PRCP06
0186825860999992003102612004-05200-039300FM-12+021199999V0200501N003112200019N0200001N1+02881+01771101011ADDAA106000091GF101991011011008001001001KA1240N+02421MA1999999098651MD1999999-0171REMSYN076AAXX  26124 82586 32598 10506 10288 20177 39865 40101 81100 333 20242 59017;EQDQ01  00002PRCP06
0177825860999992003102618004-05200-039300FM-12+021199999V0201401N003112200019N0200001N1+03581+01081100611ADDAA106000091GA1001+999999999GF100991001001999999001001MA1999999098281MD1999999-0151REMSYN064AAXX  26184 82586 32998 01406 10358 20108 39828 40061 333 59015;EQDQ01  00002PRCP06
0208825860999992003102700004-05200-039300FM-12+021199999V0203601N005112200019N0010001N1+02741+02101100801ADDAA106000091GA1001+999999999GF100991001001999999001001KA1240M+03691MA1999999098451MD1999999-0121REMSYN082AAXX  27004 82586 32994 03610 10274 20210 39845 40080 333 10369 29052 55104 59012;EQDQ01  00002PRCP06
0186825860999992003102712004-05200-039300FM-12+021199999V0200501N003112200019N0200001N1+02881+01741100931ADDAA106000091GF101991011011008001001001KA1240N+02301MA1999999098571MD1999999-0081REMSYN076AAXX  27124 82586 32598 10506 10288 20174 39857 40093 81100 333 20230 59008;EQDQ01  00002PRCP06
0167825860999992003102718004-05200-039300FM-12+021199999V0200501N002612200019N0200001N1+03541+01621100671ADDAA106000091GF102991021021008001001001MA1999999098231MD1999999+0051REMSYN070AAXX  27184 82586 32598 20505 10354 20162 39823 40067 82200 333 58005;EQDQ01  00002PRCP06
0208825860999992003102800004-05200-039300FM-12+021199999V0203601N005112200019N0010001N1+02641+02071100911ADDAA106000091GA1001+999999999GF100991001001999999001001KA1240M+03571MA1999999098551MD1999999+0101REMSYN082AAXX  28004 82586 32994 03610 10264 20207 39855 40091 333 10357 29056 55104 58010;EQDQ01  00002PRCP06
0186825860999992003102812004-05200-039300FM-12+021199999V0200501N004112200019N0200001N1+02801+02001101131ADDAA106000091GF104991041021008001001001KA1240N+02441MA1999999098761MD1999999+0191REMSYN076AAXX  28124 82586 32598 40508 10280 20200 39876 40113 84200 333 20244 58019;EQDQ01  00002PRCP06
0167825860999992003102818004-05200-039300FM-12+021199999V0200901N002612200019N0200001N1+03401+01721100811ADDAA106000091GF104991041021008001001001MA1999999098471MD1999999+0141REMSYN070AAXX  28184 82586 32598 40905 10340 20172 39847 40081 84200 333 58014;EQDQ01  00002PRCP06
0208825860999992003102900004-05200-039300FM-12+021199999V0203601N004612200019N0010001N1+02781+01731100931ADDAA106000091GA1001+999999999GF100991001001999999001001KA1240M+03511MA1999999098571MD1999999+0021REMSYN082AAXX  29004 82586 32994 03609 10278 20173 39857 40093 333 10351 29051 55102 58002;EQDQ01  00002PRCP06
0186825860999992003102912004-05200-039300FM-12+021199999V0200501N003110075019N0200001N1+02841+02121101121ADDAA106000091GF105991051021008001001001KA1240N+02441MA1999999098761MD1999999+0001REMSYN076AAXX  29124 82586 32598 50506 10284 20212 39876 40112 85200 333 20244 58000;EQDQ01  00002PRCP06
0199825860999992003102918004-05200-039300FM-12+021199999V0200901N003112200019N0200001N1+03541+01621100711ADDAA106000091GF104991041021008001001001MA1999999999999MD1999999-0101REMSYN070AAXX  29184 82586 32598 40906 10354 20162 36837 40071 84200 333 59010;EQDQ01+068373APOSP Q02  00002PRCP06Q03 068373APOSP 
0208825860999992003103000004-05200-039300FM-12+021199999V0203601N005112200019N0010001N1+02741+02171100921ADDAA106000091GA1001+999999999GF100991001001999999001001KA1240M+03631MA1999999098561MD1999999-0011REMSYN082AAXX  30004 82586 32994 03610 10274 20217 39856 40092 333 10363 29060 55111 59001;EQDQ01  00002PRCP06
0186825860999992003103012004-05200-039300FM-12+021199999V0201401N003112200019N0200001N1+02921+01801101051ADDAA106000091GF103991031011008001001001KA1240N+02501MA1999999098691MD1999999-0071REMSYN076AAXX  30124 82586 32598 31406 10292 20180 39869 40105 83100 333 20250 59007;EQDQ01  00002PRCP06
0167825860999992003103018004-05200-039300FM-12+021199999V0201401N002112200019N0200001N1+03541+01621100611ADDAA106000091GF102991021011008001001001MA1999999098281MD1999999-0111REMSYN070AAXX  30184 82586 32598 21404 10354 20162 39828 40061 82100 333 59011;EQDQ01  00002PRCP06
0208825860999992003103100004-05200-039300FM-12+021199999V02099999999992200019N0010001N1+02781+02131100871ADDAA106000091GA1001+999999999GF100991001001999999001001KA1240M+03671MA1999999098521MD1999999-0041REMSYN082AAXX  31004 82586 32994 036// 10278 20213 39852 40087 333 10367 29055 55105 59004;EQDQ01  00002PRCP06
0186825860999992003103112004-05200-039300FM-12+021199999V0200901N003110075019N0200001N1+02881+02131100951ADDAA106000091GF106991061021008001001001KA1240N+02501MA1999999098591MD1999999-0101REMSYN076AAXX  31124 82586 32598 60906 10288 20213 39859 40095 86200 333 20250 59010;EQDQ01  00002PRCP06
0167825860999992003103118004-05200-039300FM-12+021199999V0201401N003112200019N0200001N1+03561+01731100531ADDAA106000091GF103991031021008001001001MA1999999098211MD1999999-0071REMSYN070AAXX  31184 82586 32598 31406 10356 20173 39821 40053 83200 333 59007;EQDQ01  00002PRCP06
0208825860999992003110100004-05200-039300FM-12+021199999V0203601N002612200019N0010001N1+02671+02331100841ADDAA106000091GA1001+999999999GF100991001001999999001001KA1240M+03651MA1999999098491MD1999999-0031REMSYN082AAXX  01004 82586 32994 03605 10267 20233 39849 40084 333 10365 29066 55100 59003;EQDQ01  00002PRCP06
0186825860999992003110112004-05200-039300FM-12+021199999V0200501N003110075019N0200001N1+02841+02121100971ADDAA106000091GF108991081071008001999999KA1240N+02561MA1999999098611MD1999999+0021REMSYN076AAXX  01124 82586 32598 80506 10284 20212 39861 40097 887// 333 20256 58002;EQDQ01  00002PRCP06
0167825860999992003110118004-05200-039300FM-12+021199999V0203601N002610450019N0200001N1+03281+02001100591ADDAA106000091GF108991041041008001021999MA1999999098521MD1999999+0041REMSYN070AAXX  01184 82586 32598 83605 10328 20200 39852 40059 8442/ 333 58004;EQDQ01  00002PRCP06
0198825860999992003110200004-05200-039300FM-12+021199999V0203601N006710075019N0010001N1+02761+02021101031ADDAA106000091GF106991061041008001001001KA1240M+03411MA1999999098671MD1999999+0181REMSYN088AAXX  02004 82586 32594 63613 10276 20202 39867 40103 86400 333 10341 29060 55021 58018;EQDQ01  00002PRCP06
0186825860999992003110212004-05200-039300FM-12+021199999V0200501N003610075019N0200001N1+02681+02241101071ADDAA106000091GF108991081071008001999999KA1240N+02321MA1999999098711MD1999999+0101REMSYN076AAXX  02124 82586 32598 80507 10268 20224 39871 40107 887// 333 20232 58010;EQDQ01  00002PRCP06
0167825860999992003110218004-05200-039300FM-12+021199999V0200501N003110075019N0200001N1+03301+02121100811ADDAA106000091GF106991061041008001001001MA1999999098461MD1999999+0211REMSYN070AAXX  02184 82586 32598 60506 10330 20212 39846 40081 86400 333 58021;EQDQ01  00002PRCP06
0224825860999992003110300004-05200-039300FM-12+021199999V0203601N006712200019N0010001N1+03641+02201100881ADDAA106000091GA1001+999999999GF100991001001999999001001KA1240M+99999MA1999999098521MD1999999-0151REMSYN082AAXX  03004 82586 32994 03613 10364 20220 39852 40088 333 10345 29070 55040 59015;EQDQ01  00002PRCP06Q02 +03452ATMX  
0186825860999992003110312004-05200-039300FM-12+021199999V0200501N002610075019N0200001N1+02821+02021101241ADDAA106000091GF106991061041008001001001KA1240N+02441MA1999999098871MD1999999+0161REMSYN076AAXX  03124 82586 32598 60505 10282 20202 39887 40124 86400 333 20244 58016;EQDQ01  00002PRCP06
0167825860999992003110318004-05200-039300FM-12+021199999V0200501N003612200019N0200001N1+03681+01351100871ADDAA106000091GF101991011011008001001001MA1999999098531MD1999999+0071REMSYN070AAXX  03184 82586 32598 10507 10368 20135 39853 40087 81100 333 58007;EQDQ01  00002PRCP06
0208825860999992003110400004-05200-039300FM-12+021199999V0200501N005112200019N0010001N1+02781+01851101101ADDAA106000091GA1001+999999999GF100991001001999999001001KA1240M+03751MA1999999098741MD1999999+0221REMSYN082AAXX  04004 82586 32994 00510 10278 20185 39874 40110 333 10375 29051 55105 58022;EQDQ01  00002PRCP06
0186825860999992003110412004-05200-039300FM-12+021199999V0200501N004610075019N0200001N1+02701+02111101161ADDAA106000091GF108991081071008001999999KA1240N+02521MA1999999098801MD1999999-0071REMSYN076AAXX  04124 82586 32598 80509 10270 20211 39880 40116 887// 333 20252 59007;EQDQ01  00002PRCP06
0167825860999992003110418004-05200-039300FM-12+021199999V0200501N001510450019N0200001N1+03561+01641100851ADDAA106000091GF106991031021008001021001MA1999999098511MD1999999-0021REMSYN070AAXX  04184 82586 32598 60503 10356 20164 39851 40085 83220 333 59002;EQDQ01  00002PRCP06
0198825860999992003110500004-05200-039300FM-12+021199999V0203601N002119999999N0010001N1+02701+01911101161ADDAA106000091GF106991001001999999001041KA1240M+03641MA1999999098791MD1999999+0051REMSYN088AAXX  05004 82586 32994 63604 10270 20191 39879 40116 80004 333 10364 29057 55066 58005;EQDQ01  00002PRCP06
0202825860999992003110512004-05200-039300FM-12+021199999V0200901N002610075019N0200001N1+03881+02181101131ADDAA106000091GF106991999021008001001001KA1240N+02381MA1999999098771MD1999999-0031REMSYN076AAXX  05124 82586 32598 60905 10388 20218 39877 40113 85200 333 20238 59003;EQDQ01+000052SCOTLCQ02  00002PRCP06
0183825860999992003110518004-05200-039300FM-12+021199999V0203601N002612200019N0200001N1+03661+01721100871ADDAA106000091GF103991999011008001001001MA1999999098531MD1999999+0021REMSYN070AAXX  05184 82586 32598 33605 10366 20172 39853 40087 82100 333 58002;EQDQ01+000022SCOTLCQ02  00002PRCP06
0208825860999992003110600004-05200-039300FM-12+021199999V0200501N005112200019N0010001N1+02941+02071101021ADDAA106000091GA1001+999999999GF100991001001999999001001KA1240M+03691MA1999999098671MD1999999-0121REMSYN082AAXX  06004 82586 32994 00510 10294 20207 39867 40102 333 10369 29053 55107 59012;EQDQ01  00002PRCP06
0186825860999992003110612004-05200-039300FM-12+021199999V0200501N003610075019N0200001N1+02821+02241101181ADDAA106000091GF108991081071008001999999KA1240N+02481MA1999999098831MD1999999+0061REMSYN076AAXX  06124 82586 32598 80507 10282 20224 39883 40118 887// 333 20248 58006;EQDQ01  00002PRCP06
0167825860999992003110618004-05200-039300FM-12+021199999V0200901N003112200019N0200001N1+03541+01711100811ADDAA106000091GF102991021021008001001001MA1999999098471MD1999999-0061REMSYN070AAXX  06184 82586 32598 20906 10354 20171 39847 40081 82200 333 59006;EQDQ01  00002PRCP06
0208825860999992003110700004-05200-039300FM-12+021199999V0200501N005112200019N0010001N1+02801+02001101011ADDAA106000091GA1001+999999999GF100991001001999999001001KA1240M+03651MA1999999098651MD1999999-0021REMSYN082AAXX  07004 82586 32994 00510 10280 20200 39865 40101 333 10365 29057 55080 59002;EQDQ01  00002PRCP06
0186825860999992003110712004-05200-039300FM-12+021199999V0200501N001510075019N0200001N1+02701+02261101001ADDAA106000091GF105991051021008001001001KA1240N+02441MA1999999098641MD1999999-0191REMSYN076AAXX  07124 82586 32598 50503 10270 20226 39864 40100 85200 333 20244 59019;EQDQ01  00002PRCP06
0167825860999992003110718004-05200-039300FM-12+021199999V02099999999992200019N0200001N1+03601+01721100691ADDAA106000091GF103991031021008001001001MA1999999098351MD1999999-0121REMSYN070AAXX  07184 82586 32598 305// 10360 20172 39835 40069 83200 333 59012;EQDQ01  00002PRCP06
0208825860999992003110800004-05200-039300FM-12+021199999V0203601N002612200019N0010001N1+02681+02111100991ADDAA106000091GA1001+999999999GF100991001001999999001001KA1240M+03651MA1999999098531MD1999999-0121REMSYN082AAXX  08004 82586 32994 03605 10268 20211 39853 40099 333 10365 29063 55070 59012;EQDQ01  00002PRCP06
0190825860999992003110812004-05200-039300FM-12+021199999V0200501N004610075019N0200001N1+02881+01941101161ADDAY151061AY221061GF106991061021008001001001KA1240N+02451MA1999999098801MD1999999+0161MW1031REMSYN088AAXX  08124 82586 21598 60509 10288 20194 39880 40116 70352 86200 333 20245 58016 69924;
0167825860999992003110818004-05200-039300FM-12+021199999V0203101N004112200019N0200001N1+03461+01551100851ADDAA106000091GF106991041021008001001041MA1999999098511MD1999999+0161REMSYN070AAXX  08184 82586 32598 63108 10346 20155 39851 40085 84204 333 58016;EQDQ01  00002PRCP06
0208825860999992003110900004-05200-039300FM-12+021199999V0203601N004112200019N0010001N1+02781+01731101011ADDAA106000091GA1001+999999999GF100991001001999999001001KA1240M+03541MA1999999098651MD1999999+0121REMSYN082AAXX  09004 82586 32994 03608 10278 20173 39865 40101 333 10354 29049 55098 58012;EQDQ01  00002PRCP06
0186825860999992003110912004-05200-039300FM-12+021199999V0200901N005110075019N0200001N1+02861+02091101181ADDAA106000091GF106991061041008001001001KA1240N+02421MA1999999098821MD1999999+0021REMSYN076AAXX  09124 82586 32598 60910 10286 20209 39882 40118 86400 333 20242 58002;EQDQ01  00002PRCP06
0167825860999992003110918004-05200-039300FM-12+021199999V0200501N001512200019N0200001N1+03641+01651100771ADDAA106000091GF103991031011008001001001MA1999999098431MD1999999+0081REMSYN070AAXX  09184 82586 32598 30503 10364 20165 39843 40077 83100 333 58008;EQDQ01  00002PRCP06
0198825860999992003111000004-05200-039300FM-12+021199999V0203601N004119999999N0010001N1+02781+01731100971ADDAA106000091GF106991001001999999001041KA1240M+03701MA1999999098611MD1999999-0041REMSYN088AAXX  10004 82586 32994 63608 10278 20173 39861 40097 80004 333 10370 29058 55102 59004;EQDQ01  00002PRCP06
0186825860999992003111012004-05200-039300FM-12+021199999V0200501N003110450019N0200001N1+02871+01921101151ADDAA106000091GF106991031011008001021001KA1240N+02351MA1999999098791MD1999999-0031REMSYN076AAXX  10124 82586 32598 60506 10287 20192 39879 40115 83120 333 20235 59003;EQDQ01  00002PRCP06
0167825860999992003111018004-05200-039300FM-12+021199999V0201401N003612200019N0200001N1+03461+01291100811ADDAA106000091GF106991031021008001001041MA1999999098471MD1999999+0041REMSYN070AAXX  10184 82586 32598 61407 10346 20129 39847 40081 83204 333 58004;EQDQ01  00002PRCP06
0214825860999992003111100004-05200-039300FM-12+021199999V0203601N002612200019N0010001N1+02741+02071100951ADDAA106000091GF101991999041008001001001KA1240M+03691MA1999999098591MD1999999-0021REMSYN088AAXX  11004 82586 32594 13605 10274 20207 39859 40095 86400 333 10369 29055 55071 59002;EQDQ01+000062SCOTLCQ02  00002PRCP06
0202825860999992003111112004-05200-039300FM-12+021199999V0200501N005112200019N0200001N1+02941+01851101081ADDAA106000091GF104991041011008001001001KA1240N+99999MA1999999098721MD1999999-0071REMSYN076AAXX  11124 82586 32598 40510 10294 20185 39872 40108 84100 333 20301 59007;EQDQ01  00002PRCP06Q02 +03012ATMN  
0167825860999992003111118004-05200-039300FM-12+021199999V0200901N001510075019N0200001N1+03541+01971100741ADDAA106000091GF105991051021008001001001MA1999999098401MD1999999-0071REMSYN070AAXX  11184 82586 32598 50903 10354 20197 39840 40074 85200 333 59007;EQDQ01  00002PRCP06
0208825860999992003111200004-05200-039300FM-12+021199999V0203601N001512200019N0010001N1+02741+01841100981ADDAA106000091GA1001+999999999GF100991001001999999001001KA1240M+03691MA1999999098621MD1999999+0031REMSYN082AAXX  12004 82586 32994 03603 10274 20184 39862 40098 333 10369 29052 55106 58003;EQDQ01  00002PRCP06
0186825860999992003111212004-05200-039300FM-12+021199999V0200901N000510075019N0200001N1+03921+01981101151ADDAA106000091GF105991051021008001001001KA1240N+02441MA1999999098791MD1999999+0071REMSYN076AAXX  12124 82586 32598 50901 10392 20198 30879 40115 85200 333 20244 58007;EQDQ01  00002PRCP06
0183825860999992003111218004-05200-039300FM-12+021199999V0200901N003112200019N0200001N1+03521+01341100851ADDAA106000091GF103991999021008001001001MA1999999098511MD1999999+0111REMSYN070AAXX  12184 82586 32598 30906 10352 20134 39851 40085 84200 333 58011;EQDQ01+000042SCOTLCQ02  00002PRCP06
0208825860999992003111300004-05200-039300FM-12+021199999V0203601N005112200019N0010001N1+02741+01951101091ADDAA106000091GA1001+999999999GF100991001001999999001001KA1240M+03591MA1999999098731MD1999999+0111REMSYN082AAXX  13004 82586 32994 03610 10274 20195 39873 40109 333 10359 29052 55097 58011;EQDQ01  00002PRCP06
0202825860999992003111312004-05200-039300FM-12+021199999V0203601N003119999999N0200001N1+02841+02171101221ADDAA106000091GF105991999011008001001001KA1240N+02461MA1999999098861MD1999999+0071REMSYN076AAXX  13124 82586 32598 53606 10284 20217 39886 40122 84100 333 20246 58007;EQDQ01+000042SCOTLCQ02  00002PRCP06
0183825860999992003111318004-05200-039300FM-12+021199999V0203601N005112200019N0200001N1+03541+01971100921ADDAA106000091GF104991999011008001001001MA1999999098581MD1999999+0071REMSYN070AAXX  13184 82586 32598 43610 10354 20197 39858 40092 83100 333 58007;EQDQ01+000032SCOTLCQ02  00002PRCP06
0208825860999992003111400004-05200-039300FM-12+021199999V0203601N004112200019N0010001N1+02641+02271101111ADDAA106000091GA1001+999999999GF100991001001999999001001KA1240M+03651MA1999999098751MD1999999+0021REMSYN082AAXX  14004 82586 32994 03608 10264 20227 39875 40111 333 10365 29067 55109 58002;EQDQ01  00002PRCP06
0186825860999992003111412004-05200-039300FM-12+021199999V0200501N004612200019N0200001N1+02841+02041101161ADDAA106000091GF103991011021008001001041KA1240N+02441MA1999999098801MD1999999-0061REMSYN076AAXX  14124 82586 32598 30509 10284 20204 39880 40116 81204 333 20244 59006;EQDQ01  00002PRCP06
0167825860999992003111418004-05200-039300FM-12+021199999V0200501N005112200019N0200001N1+03661+01271100821ADDAA106000091GF102991011021008001001041MA1999999098481MD1999999-0101REMSYN070AAXX  14184 82586 32598 20510 10366 20127 39848 40082 81204 333 59010;EQDQ01  00002PRCP06
0208825860999992003111500004-05200-039300FM-12+021199999V0200501N004112200019N0010001N1+02781+01731101001ADDAA106000091GA1001+999999999GF100991001001999999001001KA1240M+03691MA1999999098641MD1999999-0111REMSYN082AAXX  15004 82586 32994 00508 10278 20173 39864 40100 333 10369 29049 55111 59011;EQDQ01  00002PRCP06
0140825860999992003111512004-05200-039300FM-12+021199999V0201401N003119999999N0200001N1+02841+02121999999ADDAA106000091GF106991999999008001999999REMSYN072AAXX  15124 82586 32598 61406 10284 20212 20244 39879 40115 59001 86200;EQDQ01  00002PRCP06
0167825860999992003111518004-05200-039300FM-12+021199999V0200501N004612200019N0200001N1+03701+01551100811ADDAA106000091GF104991031001008001041021MA1999999098471MD1999999-0011REMSYN070AAXX  15184 82586 32598 40509 10370 20155 39847 40081 83042 333 59001;EQDQ01  00002PRCP06
0208825860999992003111600004-05200-039300FM-12+021199999V0200501N005112200019N0010001N1+02821+02021100971ADDAA106000091GA1001+999999999GF100991001001999999001001KA1240M+03771MA1999999098611MD1999999-0031REMSYN082AAXX  16004 82586 32594 00510 10282 20202 39861 40097 333 10377 29085 55095 59003;EQDQ01  00002PRCP06
0186825860999992003111612004-05200-039300FM-12+021199999V0200901N004612200019N0200001N1+02961+01991101251ADDAA106000091GF104991041021008001001001KA1240N+02421MA1999999098791MD1999999+0001REMSYN076AAXX  16124 82586 32598 40909 10296 20199 39879 40125 84200 333 20242 58000;EQDQ01  00002PRCP06
0167825860999992003111618004-05200-039300FM-12+021199999V0200501N005112200019N0200001N1+03561+01681100791ADDAA106000091GF104991041021008001001001MA1999999098451MD1999999-0021REMSYN070AAXX  16184 82586 32598 40510 10356 20168 39845 40079 84200 333 59002;EQDQ01  00002PRCP06
0208825860999992003111700004-05200-039300FM-12+021199999V0203601N004612200019N0010001N1+02781+02181100951ADDAA106000091GA1001+999999999GF100991001001999999001001KA1240M+03671MA1999999098591MD1999999+0021REMSYN082AAXX  17004 82586 32994 03609 10278 20218 39859 40095 333 10367 29057 55107 58002;EQDQ01  00002PRCP06
0186825860999992003111712004-05200-039300FM-12+021199999V0200901N002612200019N0200001N1+03021+02131101061ADDAA106000091GF104991041021008001001001KA1240N+02501MA1999999098711MD1999999-0081REMSYN076AAXX  17124 82586 32598 40905 10302 20213 39871 40106 84200 333 20250 59008;EQDQ01  00002PRCP06
0167825860999992003111718004-05200-039300FM-12+021199999V0200901N005112200019N0200001N1+03621+01641100731ADDAA106000091GF103991031021008001001001MA1999999098391MD1999999-0061REMSYN070AAXX  17184 82586 32598 30910 10362 20164 39839 40073 83200 333 59006;EQDQ01  00002PRCP06
0208825860999992003111800004-05200-039300FM-12+021199999V0200501N004612200019N0010001N1+02821+02171100911ADDAA106000091GA1001+999999999GF100991001001999999001001KA1240M+03711MA1999999098561MD1999999-0031REMSYN082AAXX  18004 82586 32994 00509 10282 20217 39856 40091 333 10371 29057 55108 59003;EQDQ01  00002PRCP06
0186825860999992003111812004-05200-039300FM-12+021199999V0200501N003612200019N0200001N1+03041+01941101061ADDAA106000091GF102991021021008001001001KA1240N+02421MA1999999098721MD1999999+0011REMSYN076AAXX  18124 82586 32598 20507 10304 20194 39872 40106 82200 333 20242 58001;EQDQ01  00002PRCP06
0183825860999992003111818004-05200-039300FM-12+021199999V0200901N003112200019N0200001N1+03621+01691100621ADDAA106000091GF103991999021008001001001MA1999999098301MD1999999-0091REMSYN070AAXX  18184 82586 32598 30906 10362 20169 39830 40062 82200 333 59009;EQDQ01+000022SCOTLCQ02  00002PRCP06
0208825860999992003111900004-05200-039300FM-12+021199999V0203101N030822200019N0010001N1+02821+02381100811ADDAA106000091GA1001+999999999GF100991001001999999001001KA1240M+03741MA1999999098471MD1999999-0091REMSYN082AAXX  19004 82586 32994 03160 10282 20238 39847 40081 333 10374 29060 55112 59009;EQDQ01  00002PRCP06
0186825860999992003111912004-05200-039300FM-12+021199999V0201401N004112200019N0200001N1+02891+02081101071ADDAA106000091GF104991041021008001001001KA1240N+02521MA1999999098711MD1999999-0011REMSYN076AAXX  19124 82586 32598 41408 10289 20208 39871 40107 84200 333 20252 59001;EQDQ01  00002PRCP06
0167825860999992003111918004-05200-039300FM-12+021199999V0201401N005112200019N0200001N1+02461+01551100661ADDAA106000091GF101991011021008001001001MA1999999098331MD1999999+0031REMSYN070AAXX  19184 82586 32598 11410 10246 20155 39833 40066 81200 333 58003;EQDQ01  00002PRCP06
0208825860999992003112000004-05200-039300FM-12+021199999V0203601N004112200019N0010001N1+03161+02021100871ADDAA106000091GA1001+999999999GF100991001001999999001001KA1240M+03601MA1999999098531MD1999999+0061REMSYN082AAXX  20004 82586 32994 03608 10316 20202 39853 40087 333 10360 29049 55/// 58006;EQDQ01  00002PRCP06
0202825860999992003112012004-05200-039300FM-12+021199999V0200501N001512200019N0200001N1+02841+02121101111ADDAA106000091GF104991041021008001001001KA1240N+99999MA1999999098761MD1999999+0051REMSYN076AAXX  20124 82586 32598 40503 10284 20212 39876 40111 84200 333 20291 58005;EQDQ01  00002PRCP06Q02 +02912ATMN  
0167825860999992003112018004-05200-039300FM-12+021199999V02099999999992200019N0200001N1+03341+01831100831ADDAA106000091GF103991031021008001001001MA1999999098481MD1999999+0151REMSYN070AAXX  20184 82586 32598 314// 10334 20183 39848 40083 83200 333 58015;EQDQ01  00002PRCP06
0208825860999992003112100004-05200-039300FM-12+021199999V0203601N005112200019N0010001N1+03121+02081100911ADDAA106000091GA1001+999999999GF100991001001999999001001KA1240M+03531MA1999999098571MD1999999+0041REMSYN082AAXX  21004 82586 32994 03610 10312 20208 39857 40091 333 10353 29054 55/// 58004;EQDQ01  00002PRCP06
0186825860999992003112112004-05200-039300FM-12+021199999V0201401N001010075019N0200001N1+02841+02221101171ADDAA106000091GF106991061041008001001001KA1240N+02341MA1999999098821MD1999999+0061REMSYN076AAXX  21124 82586 32598 61402 10284 20222 39882 40117 86400 333 20234 58006;EQDQ01  00002PRCP06
0167825860999992003112118004-05200-039300FM-12+021199999V02099999999992200019N0200001N1+03321+01931100751ADDAA106000091GF103991031011008001001001MA1999999098411MD1999999-0071REMSYN070AAXX  21184 82586 32598 3//// 10332 20193 39841 40075 83100 333 59007;EQDQ01  00002PRCP06
0208825860999992003112200004-05200-039300FM-12+021199999V02099999999992200019N0010001N1+03141+02001100961ADDAA106000091GA1001+999999999GF100991001001999999001001KA1240M+03531MA1999999098621MD1999999+0051REMSYN082AAXX  22004 82586 32994 0//// 10314 20200 39862 40096 333 10353 29054 55/// 58005;EQDQ01  00002PRCP06
0186825860999992003112212004-05200-039300FM-12+021199999V0201401N005112200019N0200001N1+02961+01811100961ADDAA106000091GF102991021011008001001001KA1240N+02701MA1999999098651MD1999999-0171REMSYN076AAXX  22124 82586 32598 21410 10296 20181 39865 40096 82100 333 20270 59017;EQDQ01  00002PRCP06
0167825860999992003112218004-05200-039300FM-12+021199999V0200901N004112200019N0200001N1+03621+01741100561ADDAA106000091GF104991041021008001001001MA1999999098231MD1999999-0181REMSYN070AAXX  22184 82586 32598 40908 10362 20174 39823 40056 84200 333 59018;EQDQ01  00002PRCP06
0208825860999992003112300004-05200-039300FM-12+021199999V0200501N006212200019N0010001N1+02681+02181100721ADDAA106000091GA1001+999999999GF100991001001999999001001KA1240M+03701MA1999999098371MD1999999-0251REMSYN082AAXX  23004 82586 32994 00512 10268 20218 39837 40072 333 10370 29058 55109 59025;EQDQ01  00002PRCP06
0186825860999992003112312004-05200-039300FM-12+021199999V0201401N005712200019N0200001N1+02941+02081100951ADDAA106000091GF102991021011008001001001KA1240N+02441MA1999999098591MD1999999-0061REMSYN076AAXX  23124 82586 32598 21411 10294 20208 39859 40095 82100 333 20244 59006;EQDQ01  00002PRCP06
0167825860999992003112318004-05200-039300FM-12+021199999V0201401N002612200019N0200001N1+03521+01741100551ADDAA106000091GF104991041011008001001001MA1999999098221MD1999999-0011REMSYN070AAXX  23184 82586 32598 41405 10352 20174 39822 40055 84100 333 59001;EQDQ01  00002PRCP06
0208825860999992003112400004-05200-039300FM-12+021199999V0200901N004112200019N0010001N1+02821+02381100711ADDAA106000091GA1001+999999999GF100991001001999999001001KA1240M+03611MA1999999098411MD1999999+0041REMSYN082AAXX  24004 82586 32994 00908 10282 20238 39841 40071 333 10361 29062 55099 58004;EQDQ01  00002PRCP06
0202825860999992003112412004-05200-039300FM-12+021199999V0201401N005119999999N0200001N1+02881+02101100921ADDAA106000091GF106991999011008001001001KA1240N+02361MA1999999098561MD1999999-0041REMSYN076AAXX  24124 82586 32598 61410 10288 20210 39856 40092 82100 333 20236 59004;EQDQ01+000022SCOTLCQ02  00002PRCP06
0167825860999992003112418004-05200-039300FM-12+021199999V0200901N004112200019N0200001N1+03521+01601100601ADDAA106000091GF103991031011008001001001MA1999999098271MD1999999+0051REMSYN070AAXX  24184 82586 32598 30908 10352 20160 39827 40060 83100 333 58005;EQDQ01  00002PRCP06
0208825860999992003112500004-05200-039300FM-12+021199999V0200501N008212200019N0010001N1+02721+02151100761ADDAA106000091GA1001+999999999GF100991001001999999001001KA1240M+03611MA1999999098421MD1999999+0011REMSYN082AAXX  25004 82586 32994 00516 10272 20215 39842 40076 333 10361 29059 55101 58001;EQDQ01  00002PRCP06
0186825860999992003112512004-05200-039300FM-12+021199999V0201401N006712200019N0200001N1+02871+02141101071ADDAA106000091GF104991041011008001001001KA1240N+02401MA1999999098711MD1999999+0151REMSYN076AAXX  25124 82586 32598 41413 10287 20214 39871 40107 84100 333 20240 58015;EQDQ01  00002PRCP06
0167825860999992003112518004-05200-039300FM-12+021199999V0200901N001512200019N0200001N1+03501+01811100711ADDAA106000091GF103991021011008001001041MA1999999098371MD1999999+0101REMSYN070AAXX  25184 82586 32598 30903 10350 20181 39837 40071 82104 333 58010;EQDQ01  00002PRCP06
0208825860999992003112600004-05200-039300FM-12+021199999V0200501N006712200019N0010001N1+02701+02431100881ADDAA106000091GA1001+999999999GF100991001001999999001001KA1240M+03611MA1999999098531MD1999999+0111REMSYN082AAXX  26004 82586 32994 00513 10270 20243 39853 40088 333 10361 29068 55110 58011;EQDQ01  00002PRCP06
0186825860999992003112612004-05200-039300FM-12+021199999V0200901N005110075019N0200001N1+02761+02281101091ADDAA106000091GF106991061041008001001001KA1240N+02461MA1999999098731MD1999999+0021REMSYN076AAXX  26124 82586 32598 60910 10276 20228 39873 40109 86400 333 20246 58002;EQDQ01  00002PRCP06
0167825860999992003112618004-05200-039300FM-12+021199999V0201401N005112200019N0200001N1+03841+01961100781ADDAA106000091GF104991041021008001001001MA1999999098441MD1999999+0071REMSYN070AAXX  26184 82586 32598 41410 10384 20196 39844 40078 84200 333 58007;EQDQ01  00002PRCP06
0186825860999992003112712004-05200-039300FM-12+021199999V0200901N005110075019N0200001N1+02861+02191101021ADDAA106000091GF105991051021008001001001KA1240N+02421MA1999999098661MD1999999-0071REMSYN076AAXX  27124 82586 32598 50910 10286 20219 39866 40102 85200 333 20242 59007;EQDQ01  00002PRCP06
0167825860999992003112718004-05200-039300FM-12+021199999V0200901N004112200019N0200001N1+03421+02091100761ADDAA106000091GF102991021011008001001001MA1999999098421MD1999999-0021REMSYN070AAXX  27184 82586 32598 20908 10342 20209 39842 40076 82100 333 59002;EQDQ01  00002PRCP06
0208825860999992003112800004-05200-039300FM-12+021199999V0200501N005712200019N0010001N1+02681+02351100761ADDAA106000091GA1001+999999999GF100991001001999999001001KA1240M+03531MA1999999098401MD1999999-0151REMSYN082AAXX  28004 82586 32994 00511 10268 20235 39840 40076 333 10353 29069 55111 59015;EQDQ01  00002PRCP06
0186825860999992003112812004-05200-039300FM-12+021199999V0200501N005112200019N0200001N1+02781+02401100931ADDAA106000091GF104991041021008001001001KA1240N+02421MA1999999098571MD1999999-0091REMSYN076AAXX  28124 82586 32598 40510 10278 20240 39857 40093 84200 333 20242 59009;EQDQ01  00002PRCP06
0167825860999992003112818004-05200-039300FM-12+021199999V0201401N004112200019N0200001N1+03481+02001100491ADDAA106000091GF102991021011008001001001MA1999999098161MD1999999-0261REMSYN070AAXX  28184 82586 32598 21408 10348 20200 39816 40049 82100 333 59026;EQDQ01  00002PRCP06
0208825860999992003112900004-05200-039300FM-12+021199999V0200501N006712200019N0010001N1+02781+01981100611ADDAA106000091GA1001+999999999GF100991001001999999001001KA1240M+03551MA1999999098261MD1999999-0141REMSYN082AAXX  29004 82586 32994 00513 10278 20198 39826 40061 333 10355 29062 55100 59014;EQDQ01  00002PRCP06
0186825860999992003112912004-05200-039300FM-12+021199999V0200901N005710075019N0200001N1+02841+02421100861ADDAA106000091GF106991061041008001001001KA1240N+02241MA1999999098511MD1999999-0061REMSYN076AAXX  29124 82586 32598 60911 10284 20242 39851 40086 86400 333 20224 59006;EQDQ01  00002PRCP06
0167825860999992003112918004-05200-039300FM-12+021199999V0201401N003610450019N0200001N1+03441+02021100561ADDAA106000091GF105991021051008001021001MA1999999098231MD1999999+0071REMSYN070AAXX  29184 82586 32598 51407 10344 20202 39823 40056 82520 333 58007;EQDQ01  00002PRCP06
0208825860999992003113000004-05200-039300FM-12+021199999V0200501N006712200019N0010001N1+02741+02071100681ADDAA106000091GA1001+999999999GF100991001001999999001001KA1240M+03591MA1999999098331MD1999999+0071REMSYN082AAXX  30004 82586 32994 00513 10274 20207 39833 40068 333 10359 29064 55107 58007;EQDQ01  00002PRCP06
0186825860999992003113012004-05200-039300FM-12+021199999V0201401N004110075019N0200001N1+02641+02291100941ADDAA106000091GF106991061021008001001001KA1240N+02341MA1999999098581MD1999999+0071REMSYN076AAXX  30124 82586 32598 61408 10264 20229 39858 40094 86200 333 20234 58007;EQDQ01  00002PRCP06
0167825860999992003113018004-05200-039300FM-12+021199999V0201401N004112200019N0200001N1+03441+01961100671ADDAA106000091GF104991041021008001001001MA1999999098331MD1999999+0101REMSYN070AAXX  30184 82586 32598 41408 10344 20196 39833 40067 84200 333 58010;EQDQ01  00002PRCP06
0208825860999992003120100004-05200-039300FM-12+021199999V0200501N006712200019N0010001N1+02761+02421100771ADDAA106000091GA1001+999999999GF100991001001999999001001KA1240M+03541MA1999999098411MD1999999+0081REMSYN082AAXX  01004 82586 32994 00513 10276 20242 39841 40077 333 10354 29072 55107 58008;EQDQ01  00002PRCP06
0186825860999992003120112004-05200-039300FM-12+021199999V0200901N025710075019N0200001N1+02891+02321100981ADDAA106000091GF105991051041008001001001KA1240N+02501MA1999999098621MD1999999+0041REMSYN076AAXX  01124 82586 32598 50950 10289 20232 39862 40098 85400 333 20250 58004;EQDQ01  00002PRCP06
0167825860999992003120118004-05200-039300FM-12+021199999V0201401N004112200019N0200001N1+03441+01921100851ADDAA106000091GF104991041021008001001001MA1999999098821MD1999999-0051REMSYN070AAXX  01184 82586 32598 41408 10344 20192 39882 40085 84200 333 59005;EQDQ01  00002PRCP06
0208825860999992003120200004-05200-039300FM-12+021199999V0200501N008212200019N0010001N1+02761+02421100741ADDAA106000091GA1001+999999999GF100991001001999999001001KA1240M+03671MA1999999098391MD1999999+0061REMSYN082AAXX  02004 82586 32994 00516 10276 20242 39839 40074 333 10367 29069 55107 58006;EQDQ01  00002PRCP06
0186825860999992003120212004-05200-039300FM-12+021199999V0200901N005710075019N0200001N1+02801+02521100931ADDAA106000091GF108991081071008001999999KA1240N+02401MA1999999098571MD1999999-0051REMSYN076AAXX  02124 82586 32598 80911 10280 20252 39857 40093 887// 333 20240 59005;EQDQ01  00002PRCP06
0167825860999992003120218004-05200-039300FM-12+021199999V0201801N002612200019N0200001N1+03481+02321100601ADDAA106000091GF104991041021008001001001MA1999999098271MD1999999-0011REMSYN070AAXX  02184 82586 32598 41805 10348 20232 39827 40060 84200 333 59001;EQDQ01  00002PRCP06
0198825860999992003120300004-05200-039300FM-12+021199999V0200501N005119999999N0010001N1+02701+02331100781ADDAA106000091GF106991061041999999001001KA1240M+03611MA1999999098421MD1999999+0031REMSYN088AAXX  03004 82586 32994 60510 10270 20233 39842 40078 86400 333 10361 29074 55071 58003;EQDQ01  00002PRCP06
0190825860999992003120312004-05200-039300FM-12+021199999V0200901N005110075019N0200001N1+02701+02371100991ADDAY151061AY221061GF107991071041008001001001KA1240N+02141MA1999999098631MD1999999+0061MW1031REMSYN088AAXX  03124 82586 21598 70910 10270 20237 39863 40099 70352 87400 333 20214 58006 69934;
0167825860999992003120318004-05200-039300FM-12+021199999V0201401N004112200019N0200001N1+03501+01861100611ADDAA106000091GF104991041011008001001001MA1999999098271MD1999999+0001REMSYN070AAXX  03184 82586 32598 41408 10350 20186 39827 40061 84100 333 58000;EQDQ01  00002PRCP06
0208825860999992003120400004-05200-039300FM-12+021199999V0200501N005112200019N0010001N1+02741+02071100731ADDAA106000091GA1001+999999999GF100991001001999999001001KA1240M+03611MA1999999098371MD1999999-0051REMSYN082AAXX  04004 82586 32994 00510 10274 20207 39837 40073 333 10361 29064 55088 59005;EQDQ01  00002PRCP06
0186825860999992003120412004-05200-039300FM-12+021199999V0200501N003110075019N0200001N1+02821+02271100981ADDAA106000091GF106991061041008001001001KA1240N+02181MA1999999098621MD1999999-0011REMSYN076AAXX  04124 82586 32598 60506 10282 20227 39862 40098 86400 333 20218 59001;EQDQ01  00002PRCP06
0167825860999992003120418004-05200-039300FM-12+021199999V0200901N004112200019N0200001N1+03621+01741100611ADDAA106000091GF102991021011008001001001MA1999999098281MD1999999+0011REMSYN070AAXX  04184 82586 32598 20908 10362 20174 39828 40061 82100 333 58001;EQDQ01  00002PRCP06
0208825860999992003120500004-05200-039300FM-12+021199999V0200501N006712200019N0010001N1+02811+02251100781ADDAA106000091GA1001+999999999GF100991001001999999001001KA1240M+03711MA1999999098431MD1999999+0061REMSYN082AAXX  05004 82586 32994 00513 10281 20225 39843 40078 333 10371 29062 55108 58006;EQDQ01  00002PRCP06
0190825860999992003120512004-05200-039300FM-12+021199999V0200901N005110075019N0200001N1+02781+02711101001ADDAY151061AY221061GF108991081071008001999999KA1240N+02301MA1999999098641MD1999999+0021MW1031REMSYN088AAXX  05124 82586 21598 80910 10278 20271 39864 40100 70352 887// 333 20230 58002 69914;
0167825860999992003120518004-05200-039300FM-12+021199999V0200901N003110075019N0200001N1+03481+01751100621ADDAA106000091GF106991061041008001001001MA1999999098291MD1999999+0011REMSYN070AAXX  05184 82586 32598 60906 10348 20175 39829 40062 86400 333 58001;EQDQ01  00002PRCP06
0198825860999992003120600004-05200-039300FM-12+021199999V0200501N007212200019N0010001N1+02721+02341100831ADDAA106000091GF102991021001012501051001KA1240M+03611MA1999999098471MD1999999+0041REMSYN088AAXX  06004 82586 32694 20514 10272 20234 39847 40083 82050 333 10361 29074 55077 58004;EQDQ01  00002PRCP06
0186825860999992003120612004-05200-039300FM-12+021199999V0201401N004110075019N0200001N1+02781+02361100911ADDAA106000091GF106991061041008001001001KA1240N+02401MA1999999098551MD1999999-0091REMSYN076AAXX  06124 82586 32598 61408 10278 20236 39855 40091 86400 333 20240 59009;EQDQ01  00002PRCP06
0183825860999992003120618004-05200-039300FM-12+021199999V0201401N005712200019N0040001N1+03641+01981100651ADDAA106000091GF103991999011008001001001MA1999999098331MD1999999+0041REMSYN070AAXX  06184 82586 32596 31411 10364 20198 39833 40065 84100 333 58004;EQDQ01+000042SCOTLCQ02  00002PRCP06
0208825860999992003120700004-05200-039300FM-12+021199999V0200501N006712200019N0010001N1+02761+02211100771ADDAA106000091GA1001+999999999GF100991001001999999001001KA1240M+03711MA1999999098411MD1999999-0061REMSYN082AAXX  07004 82586 32994 00513 10276 20221 39841 40077 333 10371 29065 55108 59006;EQDQ01  00002PRCP06
0186825860999992003120712004-05200-039300FM-12+021199999V0200501N004110075019N0200001N1+02721+02451101081ADDAA106000091GF106991061041008001001001KA1240N+02351MA1999999098721MD1999999+0171REMSYN076AAXX  07124 82586 32598 60508 10272 20245 39872 40108 86400 333 20235 58017;EQDQ01  00002PRCP06
0167825860999992003120718004-05200-039300FM-12+021199999V0200901N004112200019N0200001N1+03581+01931100761ADDAA106000091GF104991041021008001001001MA1999999098421MD1999999+0091REMSYN070AAXX  07184 82586 32598 40908 10358 20193 39842 40076 84200 333 58009;EQDQ01  00002PRCP06
0208825860999992003120800004-05200-039300FM-12+021199999V0200501N006712200019N0010001N1+02961+02181100821ADDAA106000091GA1001+999999999GF100991001001999999001001KA1240M+03711MA1999999098471MD1999999+0061REMSYN082AAXX  08004 82586 32994 00513 10296 20218 39847 40082 333 10371 29063 55102 58006;EQDQ01  00002PRCP06
0167825860999992003120818004-05200-039300FM-12+021199999V0201401N003110075019N0200001N1+03561+01911100781ADDAA106000091GF105991051021008001001001MA1999999098441MD1999999+0021REMSYN070AAXX  08184 82586 32598 51406 10356 20191 39844 40078 85200 333 58002;EQDQ01  00002PRCP06
0208825860999992003120900004-05200-039300FM-12+021199999V0200501N008712200019N0010001N1+02721+02521100911ADDAA106000091GA1001+999999999GF100991001001999999001001KA1240M+03701MA1999999098551MD1999999+0081REMSYN082AAXX  09004 82586 32594 00517 10272 20252 39855 40091 333 10370 29074 55097 58008;EQDQ01  00002PRCP06
0186825860999992003120912004-05200-039300FM-12+021199999V0200501N006712200019N0200001N1+03841+02291101091ADDAA106000091GF104991041021008001001001KA1240N+02451MA1999999098731MD1999999-0071REMSYN076AAXX  09124 82586 32598 40513 10384 20229 39873 40109 84200 333 20245 59007;EQDQ01  00002PRCP06
0167825860999992003120918004-05200-039300FM-12+021199999V0201401N005112200019N0200001N1+03491+01921100791ADDAA106000091GF104991041021008001001001MA1999999098451MD1999999+0011REMSYN070AAXX  09184 82586 32598 41410 10349 20192 39845 40079 84200 333 58001;EQDQ01  00002PRCP06
0208825860999992003121000004-05200-039300FM-12+021199999V0200501N008212200019N0010001N1+02741+02471100911ADDAA106000091GA1001+999999999GF100991001001999999001001KA1240M+03631MA1999999098561MD1999999+0011REMSYN082AAXX  10004 82586 32994 00516 10274 20247 39856 40091 333 10363 29071 55109 58001;EQDQ01  00002PRCP06
0186825860999992003121012004-05200-039300FM-12+021199999V0200901N006712200019N0200001N1+02981+02151101051ADDAA106000091GF102991021011008001001001KA1240N+02501MA1999999098691MD1999999-0041REMSYN076AAXX  10124 82586 32598 20913 10298 20215 39869 40105 82100 333 20250 59004;EQDQ01  00002PRCP06
0167825860999992003121018004-05200-039300FM-12+021199999V0201401N007712200019N0200001N1+03541+01851100751ADDAA106000091GF102991021011008001001001MA1999999098411MD1999999-0041REMSYN070AAXX  10184 82586 32598 21415 10354 20185 39841 40075 82100 333 59004;EQDQ01  00002PRCP06
0198825860999992003121100004-05200-039300FM-12+021199999V0200501N006719999999N0010001N1+02751+02401100861ADDAA106000091GF105991001001999999001041KA1240M+03571MA1999999098521MD1999999-0041REMSYN088AAXX  11004 82586 32994 50513 10275 20240 39852 40086 80004 333 10357 29066 55112 59004;EQDQ01  00002PRCP06
0186825860999992003121112004-05200-039300FM-12+021199999V0201401N003610075019N0200001N1+02781+02581101111ADDAA106000091GF106991061041008001001001KA1240N+02351MA1999999098751MD1999999+0061REMSYN076AAXX  11124 82586 32598 61407 10278 20258 39875 40111 86400 333 20235 58006;EQDQ01  00002PRCP06
0167825860999992003121118004-05200-039300FM-12+021199999V0201801N003610075019N0200001N1+03481+02181100761ADDAA106000091GF106991061041008001001001MA1999999098421MD1999999+0011REMSYN070AAXX  11184 82586 32598 61807 10348 20218 39842 40076 86400 333 58001;EQDQ01  00002PRCP06
0198825860999992003121200004-05200-039300FM-12+021199999V0200501N006712200019N0200001N1+02881+02141100811ADDAA106000091GF104991041041008001001001KA1240M+03591MA1999999098461MD1999999-0061REMSYN088AAXX  12004 82586 32598 40513 10288 20214 39846 40081 84400 333 10359 29075 55068 59006;EQDQ01  00002PRCP06
0186825860999992003121212004-05200-039300FM-12+021199999V0201401N003610075019N0200001N1+02761+02541100981ADDAA106000091GF106991061041008001001001KA1240N+02301MA1999999098621MD1999999-0131REMSYN076AAXX  12124 82586 32598 61407 10276 20254 39862 40098 86400 333 20230 59013;EQDQ01  00002PRCP06
0167825860999992003121218004-05200-039300FM-12+021199999V0201801N003110075019N0200001N1+03381+02091100761ADDAA106000091GF107991071041008001001001MA1999999098421MD1999999+0001REMSYN070AAXX  12184 82586 32598 71806 10338 20209 39842 40076 87400 333 58000;EQDQ01  00002PRCP06
0208825860999992003121400004-05200-039300FM-12+021199999V0200901N006712200019N0010001N1+02781+02441100751ADDAA106000091GA1001+999999999GF100991001001999999001001KA1240M+03611MA1999999098411MD1999999-0071REMSYN082AAXX  14004 82586 32994 00913 10278 20244 39841 40075 333 10361 29073 55109 59007;EQDQ01  00002PRCP06
0190825860999992003121412004-05200-039300FM-12+021199999V0200901N004610075019N0200001N1+02681+02611101041ADDAY151061AY221061GF106991061041008001001001KA1240N+02351MA1999999098681MD1999999+0071MW1031REMSYN088AAXX  14124 82586 21598 60909 10268 20261 39868 40104 70352 86400 333 20235 58007 69984;
0167825860999992003121418004-05200-039300FM-12+021199999V0201401N002112200019N0200001N1+03441+01881100711ADDAA106000091GF104991031021008001001041MA1999999098371MD1999999-0021REMSYN070AAXX  14184 82586 32598 41404 10344 20188 39837 40071 83204 333 59002;EQDQ01  00002PRCP06
0208825860999992003121500004-05200-039300FM-12+021199999V02099999999992200019N0010001N1+02761+02191100831ADDAA106000091GA1001+999999999GF100991001001999999001001KA1240M+03551MA1999999098471MD1999999+0061REMSYN082AAXX  15004 82586 32994 0//// 10276 20219 39847 40083 333 10355 29070 55084 58006;EQDQ01  00002PRCP06
0186825860999992003121512004-05200-039300FM-12+021199999V02099999999990075019N0200001N1+02781+02421101071ADDAA106000091GF107991071041008001001001KA1240N+02381MA1999999098961MD1999999+0031REMSYN076AAXX  15124 82586 32598 709// 10278 20242 39896 40107 87400 333 20238 58003;EQDQ01  00002PRCP06
0167825860999992003121518004-05200-039300FM-12+021199999V02099999999990075019N0200001N1+03501+02091100741ADDAA106000091GF106991061041008001001001MA1999999098401MD1999999+0031REMSYN070AAXX  15184 82586 32598 614// 10350 20209 39840 40074 86400 333 58003;EQDQ01  00002PRCP06
0208825860999992003121600004-05200-039300FM-12+021199999V0200501N006212200019N0010001N1+02681+02541100931ADDAA106000091GA1001+999999999GF100991001001999999001001KA1240M+03551MA1999999098571MD1999999+0101REMSYN082AAXX  16004 82586 32994 00512 10268 20254 39857 40093 333 10355 29077 55074 58010;EQDQ01  00002PRCP06
0190825860999992003121612004-05200-039300FM-12+021199999V0200901N005110075019N0200001N1+02621+02621101151ADDAY161061AY221061GF107991071071008001001001KA1240N+02301MA1999999098771MD1999999+0061MW1031REMSYN088AAXX  16124 82586 21598 70910 10262 20262 39877 40115 70362 87700 333 20230 58006 60204;
0167825860999992003121618004-05200-039300FM-12+021199999V0200901N002110075019N0200001N1+03261+02271100871ADDAA106000091GF106991061041008001001001MA1999999098521MD1999999+0121REMSYN070AAXX  16184 82586 32598 60904 10326 20227 39852 40087 86400 333 58012;EQDQ01  00002PRCP06
0208825860999992003121700004-05200-039300FM-12+021199999V0200501N004612200019N0010001N1+02701+02371100901ADDAA106000091GA1001+999999999GF100991001001999999001001KA1240M+03391MA1999999098541MD1999999-0031REMSYN082AAXX  17004 82586 32994 00509 10270 20237 39854 40090 333 10339 29080 55063 59003;EQDQ01  00002PRCP06
0190825860999992003121712004-05200-039300FM-12+021199999V0200901N005110075019N0200001N1+02681+02481101051ADDAY151061AY251061GF106991061041008001001001KA1240N+02251MA1999999098691MD1999999-0081MW1031REMSYN088AAXX  17124 82586 21598 60910 10268 20248 39869 40105 70355 86400 333 20225 59008 69964;
0167825860999992003121718004-05200-039300FM-12+021199999V0201401N001510075019N0200001N1+03361+02041100811ADDAA106000091GF106991061021008001001001MA1999999098461MD1999999-0061REMSYN070AAXX  17184 82586 32598 61403 10336 20204 39846 40081 86200 333 59006;EQDQ01  00002PRCP06
0202825860999992003121800004-05200-039300FM-12+021199999V0200501N007710075019N0010001N1+02611+02461100891ADDAY161061AY221061GF106991061041008001001001KA1240M+03451MA1999999098531MD1999999-0011MW1031REMSYN100AAXX  18004 82586 21594 60515 10261 20246 39853 40089 70362 86400 333 10345 29080 55084 59001 60011;
0209825860999992003121812004-05200-039300FM-12+021199999V02099999999990075019N0200001N1+02521+02501101151ADDAY101061AY251061GF108991081071008001999999KA1240N+02251MA1999999098771MD1999999+0081MW1031REMSYN088AAXX  18124 82586 21598 809// 10252 20250 39877 40115 70375 887// 333 20225 58008 60044;EQDQ01+000072PSTWM1
0208825860999992003121900004-05200-039300FM-12+021199999V0200501N005112200019N0010001N1+02741+02451101041ADDAA106000091GA1001+999999999GF100991001001999999001001KA1240M+03401MA1999999098671MD1999999+0141REMSYN082AAXX  19004 82586 32994 00510 10274 20245 39867 40104 333 10340 29080 55054 58014;EQDQ01  00002PRCP06
0186825860999992003121912004-05200-039300FM-12+021199999V0200901N004110075019N0200001N1+02581+02561101441ADDAA106000091GF108991081071008001999999KA1240N+02251MA1999999098761MD1999999-0011REMSYN076AAXX  19124 82586 32598 80908 10258 20256 39876 40144 887// 333 20225 59001;EQDQ01  00002PRCP06
0167825860999992003121918004-05200-039300FM-12+021199999V0201401N003610450019N0200001N1+03491+02001100841ADDAA106000091GF106991031021008001051001MA1999999098501MD1999999-0011REMSYN070AAXX  19184 82586 32598 61407 10349 20200 39850 40084 83250 333 59001;EQDQ01  00002PRCP06
0208825860999992003122000004-05200-039300FM-12+021199999V0200501N006712200019N0010001N1+02671+02331101071ADDAA106000091GA1001+999999999GF100991001001999999001001KA1240M+03571MA1999999098701MD1999999+0031REMSYN082AAXX  20004 82586 32994 00513 10267 20233 39870 40107 333 10357 29076 55086 58003;EQDQ01  00002PRCP06
0186825860999992003122012004-05200-039300FM-12+021199999V0201401N002612200019N0200001N1+02781+02211101181ADDAA106000091GF103991021001008001051011KA1240N+02351MA1999999098811MD1999999+0051REMSYN076AAXX  20124 82586 32598 31405 10278 20221 39881 40118 82051 333 20235 58005;EQDQ01  00002PRCP06
0167825860999992003122018004-05200-039300FM-12+021199999V0201801N004610075019N0200001N1+03561+01781100821ADDAA106000091GF106991061021008001001001MA1999999098481MD1999999-0021REMSYN070AAXX  20184 82586 32598 61809 10356 20178 39848 40082 86200 333 59002;EQDQ01  00002PRCP06
0198825860999992003122100004-05200-039300FM-12+021199999V0200901N008212200019N0010001N1+02761+02671101021ADDAA106000091GF104991041021008001001001KA1240M+03701MA1999999098661MD1999999-0041REMSYN088AAXX  21004 82586 32594 40916 10276 20267 39866 40102 84200 333 10370 29075 55103 59004;EQDQ01  00002PRCP06
0186825860999992003122112004-05200-039300FM-12+021199999V02099999999990075019N0200001N1+02701+02431101191ADDAA106000091GF106991061041008001001001KA1240N+02301MA1999999098831MD1999999+0021REMSYN076AAXX  21124 82586 32598 618// 10270 20243 39883 40119 86400 333 20230 58002;EQDQ01  00002PRCP06
0208825860999992003122200004-05200-039300FM-12+021199999V0200501N005112200019N0010001N1+02801+02381100891ADDAA106000091GA1001+999999999GF100991001001999999001001KA1240M+03531MA1999999098531MD1999999-0131REMSYN082AAXX  22004 82586 32994 00510 10280 20238 39853 40089 333 10353 29072 55083 59013;EQDQ01  00002PRCP06
0186825860999992003122212004-05200-039300FM-12+021199999V0201401N005110075019N0200001N1+02781+02441101081ADDAA106000091GF105991051021008001001001KA1240N+02401MA1999999098721MD1999999-0111REMSYN076AAXX  22124 82586 32598 51410 10278 20244 39872 40108 85200 333 20240 59011;EQDQ01  00002PRCP06
0167825860999992003122218004-05200-039300FM-12+021199999V0200501N003112200019N0200001N1+03541+01801100831ADDAA106000091GF102991021021008001001001MA1999999098491MD1999999-0011REMSYN070AAXX  22184 82586 32598 20506 10354 20180 39849 40083 82200 333 59001;EQDQ01  00002PRCP06
0208825860999992003122300004-05200-039300FM-12+021199999V0200501N007712200019N0010001N1+02751+02191100851ADDAA106000091GA1001+999999999GF100991001001999999001001KA1240M+03641MA1999999098491MD1999999-0041REMSYN082AAXX  23004 82586 32994 00515 10275 20219 39849 40085 333 10364 29075 55105 59004;EQDQ01  00002PRCP06
0186825860999992003122312004-05200-039300FM-12+021199999V0201401N004610075019N0200001N1+02541+02541101031ADDAA106000091GF106991061041008001001001KA1240N+02281MA1999999098661MD1999999-0061REMSYN076AAXX  23124 82586 32598 61409 10254 20254 39866 40103 86400 333 20228 59006;EQDQ01  00002PRCP06
0167825860999992003122318004-05200-039300FM-12+021199999V0201401N003110075019N0200001N1+03551+02011100731ADDAA106000091GF105991051021008001001001MA1999999098391MD1999999-0101REMSYN070AAXX  23184 82586 32598 51406 10355 20201 39839 40073 85200 333 59010;EQDQ01  00002PRCP06
0208825860999992003122400004-05200-039300FM-12+021199999V0200501N006712200019N0010001N1+02741+02301100781ADDAA106000091GA1001+999999999GF100991001001999999001001KA1240M+03611MA1999999098421MD1999999-0071REMSYN082AAXX  24004 82586 32994 00513 10274 20230 39842 40078 333 10361 29074 55085 59007;EQDQ01  00002PRCP06
0186825860999992003122412004-05200-039300FM-12+021199999V02099999999990075019N0200001N1+02751+02471100981ADDAA106000091GF106991061041008001001001KA1240N+02341MA1999999098621MD1999999-0041REMSYN076AAXX  24124 82586 32598 609// 10275 20247 39862 40098 86400 333 20234 59004;EQDQ01  00002PRCP06
0167825860999992003122418004-05200-039300FM-12+021199999V0200901N002612200019N0200001N1+03501+01811100741ADDAA106000091GF102991021011008001001001MA1999999098401MD1999999+0011REMSYN070AAXX  24184 82586 32598 20905 10350 20181 39840 40074 82100 333 58001;EQDQ01  00002PRCP06
0186825860999992003122512004-05200-039300FM-12+021199999V0201401N005710075019N0200001N1+02861+02421101011ADDAA106000091GF105991051021008001001001KA1240N+02401MA1999999098651MD1999999+0031REMSYN076AAXX  25124 82586 32598 51411 10286 20242 39865 40101 85200 333 20240 58003;EQDQ01  00002PRCP06
0186825860999992003122612004-05200-039300FM-12+021199999V0201401N003610075019N0200001N1+02741+02381100991ADDAA106000091GF106991061041008001001001KA1240N+02421MA1999999098631MD1999999-0021REMSYN076AAXX  26124 82586 32598 61407 10274 20238 39863 40099 86400 333 20242 59002;EQDQ01  00002PRCP06
0167825860999992003122618004-05200-039300FM-12+021199999V0201401N005112200019N0200001N1+03481+02221100581ADDAA106000091GF104991041011008001001001MA1999999098251MD1999999-0131REMSYN070AAXX  26184 82586 32598 41410 10348 20222 39825 40058 84100 333 59013;EQDQ01  00002PRCP06
0208825860999992003122700004-05200-039300FM-12+021199999V0200901N008212200019N0010001N1+02801+02521100681ADDAA106000091GA1001+999999999GF100991001001999999001001KA1240M+03611MA1999999098321MD1999999-0081REMSYN082AAXX  27004 82586 32994 00916 10280 20252 39832 40068 333 10361 29075 55107 59008;EQDQ01  00002PRCP06
0186825860999992003122712004-05200-039300FM-12+021199999V0201801N004110075019N0200001N1+02781+02561100921ADDAA106000091GF105991051021008001001001KA1240N+02501MA1999999098561MD1999999-0071REMSYN076AAXX  27124 82586 32598 51808 10278 20256 39856 40092 85200 333 20250 59007;EQDQ01  00002PRCP06
0167825860999992003122718004-05200-039300FM-12+021199999V0201401N003110075019N0200001N1+03541+02131100551ADDAA106000091GF105991051021008001001001MA1999999098201MD1999999-0051REMSYN070AAXX  27184 82586 32598 51406 10354 20213 39820 40055 85200 333 59005;EQDQ01  00002PRCP06
0208825860999992003122800004-05200-039300FM-12+021199999V0200501N008212200019N0010001N1+02801+02461100701ADDAA106000091GA1001+999999999GF100991001001999999001001KA1240M+03631MA1999999098351MD1999999+0031REMSYN082AAXX  28004 82586 32994 00516 10280 20246 39835 40070 333 10363 29074 55114 58003;EQDQ01  00002PRCP06
0186825860999992003122812004-05200-039300FM-12+021199999V0201401N005710075019N0200001N1+02901+02561100831ADDAA106000091GF106991061041008001001001KA1240N+02551MA1999999098481MD1999999-0081REMSYN076AAXX  28124 82586 32598 61411 10290 20256 39848 40083 86400 333 20255 59008;EQDQ01  00002PRCP06
0167825860999992003122818004-05200-039300FM-12+021199999V0201401N002610075019N0200001N1+03461+02361100541ADDAA106000091GF106991061041008001001001MA1999999098221MD1999999+0021REMSYN070AAXX  28184 82586 32598 61405 10346 20236 39822 40054 86400 333 58002;EQDQ01  00002PRCP06
0202825860999992003122900004-05200-039300FM-12+021199999V0200901N007710075019N0010001N1+02741+02721100751ADDAY151061AY221061GF106991061051008001001001KA1240M+03561MA1999999098351MD1999999+0031MW1031REMSYN100AAXX  29004 82586 21594 60915 10274 20272 39835 40075 70352 86500 333 10356 29083 55079 58003 69921;
0162825860999992003122912004-05200-039300FM-12+021199999V02099999999990075019N0200001N1+02761+02601100881ADDGF106991061041008001001001KA1240N+02451MA1999999098521MD1999999+0041REMSYN082AAXX  29124 82586 22598 618// 10276 20260 39852 40088 86400 333 20245 58004 69924;
0167825860999992003122918004-05200-039300FM-12+021199999V0200901N005710075019N0200001N1+02781+02691100721ADDAA106000091GF108991081071008001999999MA1999999098361MD1999999+0141REMSYN070AAXX  29184 82586 32598 80911 10278 20269 39836 40072 887// 333 58014;EQDQ01  00002PRCP06
0202825860999992003123000004-05200-039300FM-12+021199999V02099999999990075019N0010001N1+02761+02581100831ADDAY151061AY221061GF106991061031008001001001KA1240M+03451MA1999999098471MD1999999+0091MW1131REMSYN100AAXX  30004 82586 21594 614// 10276 20258 39847 40083 71352 86300 333 10345 29092 55054 58009 69941;
0162825860999992003123012004-05200-039300FM-12+021199999V02099999999990075019N0200001N1+02881+02621100941ADDGF106991061041008001001001KA1240N+02381MA1999999098581MD1999999+0061REMSYN082AAXX  30124 82586 22598 614// 10288 20262 39858 40094 86400 333 20238 58006 69944;
0167825860999992003123018004-05200-039300FM-12+021199999V0201401N003110075019N0200001N1+03441+02251100631ADDAA106000091GF106991061041008001001001MA1999999098291MD1999999-0071REMSYN070AAXX  30184 82586 32598 61406 10344 20225 39829 40063 86400 333 59007;EQDQ01  00002PRCP06
0208825860999992003123100004-05200-039300FM-12+021199999V0200501N005712200019N0010001N1+02901+02721100781ADDAA106000091GA1001+999999999GF100991001001999999001001KA1240M+03631MA1999999098441MD1999999-0031REMSYN082AAXX  31004 82586 32994 00511 10290 20272 39844 40078 333 10363 29079 55071 59003;EQDQ01  00002PRCP06
0186825860999992003123112004-05200-039300FM-12+021199999V0201401N005112200019N0200001N1+03001+02291100941ADDAA106000091GF102991021011008001001001KA1240N+02401MA1999999098581MD1999999+0001REMSYN076AAXX  31124 82586 32598 21410 10300 20229 39858 40094 82100 333 20240 58000;EQDQ01  00002PRCP06
