0202826780999992003010100004-06770-043020FM-12+013899999V0201401N000512200019N0020001N1+02521+02431101401ADDAY161061AY291061GF104991041021008001001001KA1240M+03311MA1999999099821MD1999999+0121MW1021REMSYN100AAXX  01004 82678 21595 41401 10252 20243 39982 40140 70269 84200 333 10331 29082 55053 58012 60171;
0162826780999992003010112004-06770-043020FM-12+013899999V0203201N000510075019N0040001N1+02661+02241101521ADDGF108991071051008001031999KA1240N+02361MA1999999099941MD1999999+0061REMSYN082AAXX  01124 82678 22596 83201 10266 20224 39994 40152 8753/ 333 20236 58006 60174;
0167826780999992003010118004-06770-043020FM-12+013899999V0200501N001510075019N0040001N1+03081+02371101231ADDAA106000091GF108991061051008001021999MA1999999099661MD1999999+0031REMSYN070AAXX  01184 82678 32596 80503 10308 20237 39966 40123 8652/ 333 58003;EQDQ01  00002PRCP06
0202826780999992003010200004-06770-043020FM-12+013899999V0202301N000512200019N0002001N1+02621+02461101291ADDAY161061AY221061GF104991041051008001001001KA1240M+03111MA1999999099711MD1999999-0111MW1011REMSYN100AAXX  02004 82678 21592 42301 10262 20246 39971 40129 70162 84500 333 10311 29082 55025 59011 60031;
0162826780999992003010212004-06770-043020FM-12+013899999V0209999C000010450019N0040001N1+02801+02421101551ADDGF105991031051008001031999KA1240N+02341MA1999999099971MD1999999+0031REMSYN082AAXX  02124 82678 22596 50000 10280 20242 39997 40155 8353/ 333 20234 58003 60034;
0167826780999992003010218004-06770-043020FM-12+013899999V0203601N000512200019N0040001N1+03401+02311101031ADDAA106000091GF104991031021008001001021MA1999999099471MD1999999-0191REMSYN070AAXX  02184 82678 32596 43601 10340 20231 39947 40103 83202 333 59019;EQDQ01  00002PRCP06
0198826780999992003010300004-06770-043020FM-12+013899999V0209999C000010075019N0002001N1+02821+02481101131ADDAA106000091GF105991051051008001001001KA1240M+03521MA1999999099561MD1999999-0151REMSYN088AAXX  03004 82678 32592 50000 10282 20248 39956 40113 85500 333 10352 29074 55087 59015;EQDQ01  00002PRCP06
0186826780999992003010312004-06770-043020FM-12+013899999V0203201N002110120019N0040001N1+02811+02271101461ADDAA106000091GF106991051081008001031001KA1240N+02471MA1999999099891MD1999999-0081REMSYN076AAXX  03124 82678 32596 63204 10281 20227 39989 40146 85830 333 20247 59008;EQDQ01  00002PRCP06
0167826780999992003010318004-06770-043020FM-12+013899999V0200501N000512200019N0040001N1+03341+02151101111ADDAA106000091GF104991041021008001001001MA1999999099551MD1999999+0081REMSYN070AAXX  03184 82678 32596 40501 10334 20215 39955 40111 84200 333 58008;EQDQ01  00002PRCP06
0208826780999992003010400004-06770-043020FM-12+013899999V0209999C000012200019N0002001N1+02871+02311101141ADDAA106000091GA1001+999999999GF100991001001999999001001KA1240M+03501MA1999999099581MD1999999+0021REMSYN082AAXX  04004 82678 32992 00000 10287 20231 39958 40114 333 10350 29067 55095 58002;EQDQ01  00002PRCP06
0186826780999992003010412004-06770-043020FM-12+013899999V0200501N000512200019N0040001N1+02821+02281101431ADDAA106000091GF102991021011008001001001KA1240N+02461MA1999999099861MD1999999-0031REMSYN076AAXX  04124 82678 32596 20501 10282 20228 39986 40143 82100 333 20246 59003;EQDQ01  00002PRCP06
0167826780999992003010418004-06770-043020FM-12+013899999V0203601N001010075019N0040001N1+03441+02111101011ADDAA106000091GF105991051021008001001001MA1999999099461MD1999999-0061REMSYN070AAXX  04184 82678 32596 53602 10344 20211 39946 40101 85200 333 59006;EQDQ01  00002PRCP06
0208826780999992003010500004-06770-043020FM-12+013899999V0209999C000012200019N0002001N1+02901+02431101061ADDAA106000091GA1001+999999999GF100991001001999999001001KA1240M+03551MA1999999099501MD1999999-0081REMSYN082AAXX  05004 82678 32992 00000 10290 20243 39950 40106 333 10355 29067 55105 59008;EQDQ01  00002PRCP06
0186826780999992003010512004-06770-043020FM-12+013899999V0200501N001012200019N0040001N1+02901+02341101461ADDAA106000091GF105991031021008001001011KA1240N+02461MA1999999099891MD1999999+0031REMSYN076AAXX  05124 82678 32596 50502 10290 20234 39989 40146 83201 333 20246 58003;EQDQ01  00002PRCP06
0167826780999992003010518004-06770-043020FM-12+013899999V0200501N001012200019N0040001N1+03441+02001101061ADDAA106000091GF103991021011008001001011MA1999999099501MD1999999+0041REMSYN070AAXX  05184 82678 32596 30502 10344 20200 39950 40106 82101 333 58004;EQDQ01  00002PRCP06
0208826780999992003010600004-06770-043020FM-12+013899999V0209999C000012200019N0002001N1+02961+02351101201ADDAA106000091GA1001+999999999GF100991001001999999001001KA1240M+03581MA1999999099641MD1999999+0141REMSYN082AAXX  06004 82678 32992 00000 10296 20235 39964 40120 333 10358 29063 55104 58014;EQDQ01  00002PRCP06
0186826780999992003010612004-06770-043020FM-12+013899999V0203601N000511050019N0040001N1+02861+02281101531ADDAA106000091GF108991041021008001001021KA1240N+02431MA1999999099961MD1999999+0071REMSYN076AAXX  06124 82678 32596 83601 10286 20228 39996 40153 84202 333 20243 58007;EQDQ01  00002PRCP06
0167826780999992003010618004-06770-043020FM-12+013899999V0200501N001010075019N0040001N1+03481+02251101021ADDAA106000091GF105991051021008001001001MA1999999099461MD1999999-0041REMSYN070AAXX  06184 82678 32596 50502 10348 20225 39946 40102 85200 333 59004;EQDQ01  00002PRCP06
0198826780999992003010700004-06770-043020FM-12+013899999V0202301N000512200019N0002001N1+02941+02451101161ADDAA106000091GF101991011001017501031001KA1240M+03601MA1999999099601MD1999999-0041REMSYN088AAXX  07004 82678 32792 12301 10294 20245 39960 40116 81030 333 10360 29068 55096 59004;EQDQ01  00002PRCP06
0186826780999992003010712004-06770-043020FM-12+013899999V0200501N001010075019N0040001N1+02701+02301101621ADDAA106000091GF108991071051008001031999KA1240N+02481MA1999999100051MD1999999+0091REMSYN076AAXX  07124 82678 32596 80502 10270 20230 30005 40162 8753/ 333 20248 58009;EQDQ01  00002PRCP06
0167826780999992003010718004-06770-043020FM-12+013899999V0203601N001012200019N0040001N1+03441+02211101131ADDAA106000091GF105991041021008001001011MA1999999099581MD1999999+0121REMSYN070AAXX  07184 82678 32596 53602 10344 20221 39958 40113 84201 333 58012;EQDQ01  00002PRCP06
0208826780999992003010800004-06770-043020FM-12+013899999V0201801N000512200019N0002001N1+02901+02391101211ADDAA106000091GA1001+999999999GF100991001001999999001001KA1240M+03541MA1999999099641MD1999999+0041REMSYN082AAXX  08004 82678 32992 01801 10290 20239 39964 40121 333 10354 29069 55060 58004;EQDQ01  00002PRCP06
0167826780999992003010818004-06770-043020FM-12+013899999V0200501N001012200019N0040001N1+03481+02321101171ADDAA106000091GF104991031021008001001011MA1999999099621MD1999999+0041REMSYN070AAXX  08184 82678 32596 40502 10348 20232 39962 40117 83201 333 58004;EQDQ01  00002PRCP06
0208826780999992003010900004-06770-043020FM-12+013899999V0209999C000012200019N0002001N1+02901+02481101281ADDAA106000091GA1001+999999999GF100991001001999999001001KA1240M+03561MA1999999099721MD1999999+0081REMSYN082AAXX  09004 82678 32992 00000 10290 20248 39972 40128 333 10356 29070 55077 58008;EQDQ01  00002PRCP06
0214826780999992003010912004-06770-043020FM-12+013899999V0209999C000010075019N0040001N1+02621+02331101711ADDAA106000091AY121061AY221061GF108991081051008001999999KA1240N+02541MA1999999100131MD1999999+0211MW1291REMSYN082AAXX  09124 82678 31596 80000 10262 20233 30013 40171 72922 885// 333 20254 58021;EQDQ01  00002PRCP06
0171826780999992003010918004-06770-043020FM-12+013899999V0201401N001010450019N0040001N1+03201+02551101321ADDAY161061AY221061GF105991031021008001031011MA1999999099761MD1999999+0141MW1021REMSYN082AAXX  09184 82678 21596 51402 10320 20255 39976 40132 70262 83231 333 58014 60101;
0208826780999992003011000004-06770-043020FM-12+013899999V0209999C000012200019N0002001N1+02861+02521101471ADDAA106000091GA1001+999999999GF100991001001999999001001KA1240M+03411MA1999999099891MD1999999+0171REMSYN082AAXX  10004 82678 32992 00000 10286 20252 39989 40147 333 10341 29079 55050 58017;EQDQ01  00002PRCP06
0162826780999992003011012004-06770-043020FM-12+013899999V0203201N001510075019N0040001N1+02761+02381101651ADDGF108991061021008001001011KA1240N+02331MA1999999100071MD1999999-0061REMSYN082AAXX  10124 82678 22596 83203 10276 20238 30007 40165 86201 333 20233 59006 60104;
0183826780999992003011018004-06770-043020FM-12+013899999V0202301N000512200019N0040001N1+03241+02331101201ADDAA106000091GF104991999021008001001001MA1999999099641MD1999999-0121REMSYN070AAXX  10184 82678 32596 42301 10324 20233 39964 40120 83200 333 59012;EQDQ01+000032SCOTLCQ02  00002PRCP06
0208826780999992003011100004-06770-043020FM-12+013899999V0202301N000512200019N0002001N1+02821+02541101251ADDAA106000091GA1001+999999999GF100991001001999999001001KA1240M+03351MA1999999099681MD1999999-0211REMSYN082AAXX  11004 82678 32992 02301 10282 20254 39968 40125 333 10335 29077 55083 59021;EQDQ01  00002PRCP06
0202826780999992003011112004-06770-043020FM-12+013899999V0200501N002110075019N0040001N1+02701+02281101651ADDAA106000091GF108991999021008001001001KA1240N+02421MA1999999100071MD1999999+0001REMSYN076AAXX  11124 82678 32596 80504 10270 20228 30007 40165 85200 333 20242 58000;EQDQ01+000052SCOTLCQ02  00002PRCP06
0190826780999992003011118004-06770-043020FM-12+013899999V0202701N001519999999N0040001N1+03241+02311101281ADDAY161061AY221061GF106991999021008001001001MA1999999099711MD1999999+0071MW1021REMSYN082AAXX  11184 82678 21596 62703 10324 20231 39971 40128 70262 84200 333 58007 69911;EQDQ01+000042SCOTLC
0198826780999992003011200004-06770-043020FM-12+013899999V0202301N000512200019N0002001N1+02811+02361101321ADDAA106000091GF101991001001999999001011KA1240M+03401MA1999999099751MD1999999+0071REMSYN088AAXX  12004 82678 32992 12301 10281 20236 39975 40132 80001 333 10340 29072 55070 58007;EQDQ01  00002PRCP06
0181826780999992003011212004-06770-043020FM-12+013899999V0203201N001512200019N0040001N1+02841+02241101571ADDGF103991999011008001001001KA1240N+02321MA1999999100001MD1999999-0071REMSYN082AAXX  12124 82678 22596 33203 10284 20224 30000 40157 82100 333 20232 59007 69914;EQDQ01+000022SCOTLC
0167826780999992003011218004-06770-043020FM-12+013899999V0202301N001012200019N0040001N1+03521+02031101091ADDAA106000091GF103991021021008001001011MA1999999099531MD1999999-0181REMSYN070AAXX  12184 82678 32596 32302 10352 20203 39953 40109 82201 333 59018;EQDQ01  00002PRCP06
0208826780999992003011300004-06770-043020FM-12+013899999V0209999C000012200019N0002001N1+02881+02251101191ADDAA106000091GA1001+999999999GF100991001001999999001001KA1240M+03641MA1999999099631MD1999999-0121REMSYN082AAXX  13004 82678 32992 00000 10288 20225 39963 40119 333 10364 29062 55107 59012;EQDQ01  00002PRCP06
0140826780999992003011312004-06770-043020FM-12+013899999V0202701N003119999999N0040001N1+02881+02281999999ADDAA106000091GF108991999999008001999999REMSYN072AAXX  13124 82678 32596 82706 10288 20228 20242 39995 40152 59005 85201;EQDQ01  00002PRCP06
0149826780999992003011318004-06770-043020FM-12+013899999V0200501N001510450019N0040001N1+03221+02341101071ADDAA106000091GF108991041021008001031011MA1999999099511REMSYN066AAXX  13184 82678 32596 80503 10322 20234 39951 40107 59002 84231;EQDQ01  00002PRCP06
0198826780999992003011400004-06770-043020FM-12+013899999V0209999C000012200019N0002001N1+02721+02321101221ADDAA106000091GF105991031021008001001011KA1240M+03661MA1999999099651MD1999999+0021REMSYN088AAXX  14004 82678 32592 50000 10272 20232 39965 40122 83201 333 10366 29072 55039 58002;EQDQ01  00002PRCP06
0190826780999992003011412004-06770-043020FM-12+013899999V0202701N000510075019N0040001N1+02521+02401101601ADDAY161061AY261061GF108991081051008001999999KA1240N+02371MA1999999100001MD1999999+0051MW1021REMSYN088AAXX  14124 82678 21596 82701 10252 20240 30000 40160 70266 885// 333 20237 58005 60104;
0171826780999992003011418004-06770-043020FM-12+013899999V0201401N002110075019N0040001N1+02801+02361101321ADDAY121061AY261061GF108991051051008001021999MA1999999099741MD1999999+0231MW1021REMSYN082AAXX  14184 82678 21596 81404 10280 20236 39974 40132 70226 8552/ 333 58023 60011;
0214826780999992003011500004-06770-043020FM-12+013899999V0201801N001012200019N0002001N1+02551+02381101371ADDAA106000091GF103991999001017501031001KA1240M+02891MA1999999099781MD1999999+0131REMSYN088AAXX  15004 82678 32792 31802 10255 20238 39978 40137 82030 333 10289 29088 55000 58013;EQDQ01+000022SCOTLCQ02  00002PRCP06
0162826780999992003011512004-06770-043020FM-12+013899999V0200501N001010120019N0040001N1+02701+02371101661ADDGF108991051081008001031011KA1240N+02321MA1999999100071MD1999999+0071REMSYN082AAXX  15124 82678 22596 80502 10270 20237 30007 40166 85831 333 20232 58007 60014;
0167826780999992003011518004-06770-043020FM-12+013899999V0201401N001010075019N0040001N1+03261+02351101281ADDAA106000091GF105991051021008001001001MA1999999099711MD1999999-0031REMSYN070AAXX  15184 82678 32596 51402 10326 20235 39971 40128 85200 333 59003;EQDQ01  00002PRCP06
0214826780999992003011600004-06770-043020FM-12+013899999V0201801N000512200019N0020001N1+02741+02501101421ADDAA106000091GF102991001001999999001011KA1240M+03341MA1999999099841MD1999999+0061REMSYN088AAXX  16004 82678 32595 21801 10274 20250 39984 40142 80001 333 10334 29079 55089 58006;EQDQ01+008002SCOLCBQ02  00002PRCP06
0186826780999992003011612004-06770-043020FM-12+013899999V0203601N001512200019N0040001N1+02741+02301101691ADDAA106000091GF105991031021008001001011KA1240N+02321MA1999999100111MD1999999+0041REMSYN076AAXX  16124 82678 32596 53603 10274 20230 30011 40169 83201 333 20232 58004;EQDQ01  00002PRCP06
0183826780999992003011618004-06770-043020FM-12+013899999V0202701N001012200019N0040001N1+03401+02211101211ADDAA106000091GF104991999021008001001001MA1999999099651MD1999999-0061REMSYN070AAXX  16184 82678 32596 42702 10340 20221 39965 40121 82200 333 59006;EQDQ01+000022SCOTLCQ02  00002PRCP06
0208826780999992003011700004-06770-043020FM-12+013899999V0209999C000012200019N0002001N1+02841+02421101281ADDAA106000091GA1001+999999999GF100991001001999999001001KA1240M+03531MA1999999099711MD1999999-0131REMSYN082AAXX  17004 82678 32992 00000 10284 20242 39971 40128 333 10353 29071 55085 59013;EQDQ01  00002PRCP06
0186826780999992003011712004-06770-043020FM-12+013899999V0203201N001510075019N0040001N1+02681+02201101611ADDAA106000091GF108991051021008001001011KA1240N+02381MA1999999100031MD1999999-0081REMSYN076AAXX  17124 82678 32596 83203 10268 20220 30003 40161 85201 333 20238 59008;EQDQ01  00002PRCP06
0167826780999992003011718004-06770-043020FM-12+013899999V0201801N001011050019N0040001N1+03321+02291101481ADDAA106000091GF105991031021008001001031MA1999999099911MD1999999+0261REMSYN070AAXX  17184 82678 32596 51802 10332 20229 39991 40148 83203 333 58026;EQDQ01  00002PRCP06
0208826780999992003011800004-06770-043020FM-12+013899999V0209999C000012200019N0002001N1+02741+02581101371ADDAA106000091GA1001+999999999GF100991001001999999001001KA1240M+03421MA1999999099791MD1999999+0081REMSYN082AAXX  18004 82678 32992 00000 10274 20258 39979 40137 333 10342 29078 55063 58008;EQDQ01  00002PRCP06
0202826780999992003011812004-06770-043020FM-12+013899999V0203601N002610075019N0040001N1+02871+02231101551ADDAA106000091GF108991999021008001001001KA1240N+02421MA1999999099981MD1999999-0051REMSYN076AAXX  18124 82678 32596 83605 10287 20223 39998 40155 85200 333 20242 59005;EQDQ01+000052SCOTLCQ02  00002PRCP06
0190826780999992003011818004-06770-043020FM-12+013899999V0201801N001510120019N0040001N1+03171+02291101251ADDAY161061AY221061GF108991999081008001001001MA1999999099681MD1999999+0071MW1171REMSYN082AAXX  18184 82678 21596 81803 10317 20229 39968 40125 71762 85800 333 58007 69931;EQDQ01+000052SCOTLC
0214826780999992003011900004-06770-043020FM-12+013899999V0202301N001019999999N0020001N1+02631+02391101361ADDAA106000091GF108991999021008001001001KA1240M+03291MA1999999099791MD1999999+0001REMSYN088AAXX  19004 82678 32595 82302 10263 20239 39979 40136 83200 333 10329 29076 55032 58000;EQDQ01+000032SCOTLCQ02  00002PRCP06
0209826780999992003011912004-06770-043020FM-12+013899999V0201401N002610075019N0040001N1+02221+02141101841ADDAY161061AY261061GF108991999061008001051021KA1240N+02131MA1999999100241MD1999999+0261MW1611REMSYN088AAXX  19124 82678 21596 81405 10222 20214 30024 40184 76166 88652 333 20213 58026 60264;EQDQ01+000082SCOTLC
0171826780999992003011918004-06770-043020FM-12+013899999V0200901N000510075019N0040001N1+02281+02231101571ADDAY101061AY201061GF108991071071008001999999MA1999999099961MD1999999+0281MW1611REMSYN082AAXX  19184 82678 21596 80901 10228 20223 39996 40157 76100 877// 333 58028 60451;
0179826780999992003012000004-06770-043020FM-12+013899999V0200501N001010075019N0002001N1+02341+02261101741ADDAA106000021GF108991051021008001999999KA1240M+02711MA1999999100131MD1999999+0341REMSYN088AAXX  20004 82678 32592 80502 10234 20226 30013 40174 852// 333 10271 29096 55000 58034;
0162826780999992003012012004-06770-043020FM-12+013899999V0200501N001010075019N0040001N1+02421+02321101621ADDGF108991081051008001999999KA1240N+02161MA1999999100021MD1999999-0221REMSYN082AAXX  20124 82678 22596 80502 10242 20232 30002 40162 885// 333 20216 59022 60454;
0167826780999992003012018004-06770-043020FM-12+013899999V0209999C000011050019N0040001N1+03121+02361101181ADDAA106000091GF105991031021008001001021MA1999999099611MD1999999-0351REMSYN070AAXX  20184 82678 32596 50000 10312 20236 39961 40118 83202 333 59035;EQDQ01  00002PRCP06
0152826780999992003012100004-06770-043020FM-12+013899999V0209999C000012200019N0002001N1+02561+02351999999ADDAA106000091GF104991999999008001999999REMSYN084AAXX  21004 82678 32592 40000 10256 20235 10333 29084 39972 40134 55058 59038 82501;EQDQ01  00002PRCP06
0140826780999992003012112004-06770-043020FM-12+013899999V0200501N001512200019N0040001N1+02641+02181999999ADDAA106000091GF104991999999008001999999REMSYN072AAXX  21124 82678 32596 40503 10264 20218 20232 39994 40153 59008 82201;EQDQ01  00002PRCP06
0149826780999992003012118004-06770-043020FM-12+013899999V0202301N001012200019N0040001N1+03221+02261100921ADDAA106000091GF103991021021008001001021MA1999999099361REMSYN066AAXX  21184 82678 32596 32302 10322 20226 39936 40092 59025 82202;EQDQ01  00002PRCP06
0208826780999992003012200004-06770-043020FM-12+013899999V0209999C000012200019N0002001N1+02781+02361101271ADDAA106000091GA1001+999999999GF100991001001999999001001KA1240M+03341MA1999999099691MD1999999-0061REMSYN082AAXX  22004 82678 32992 00000 10278 20236 39969 40127 333 10334 29072 55092 59006;EQDQ01  00002PRCP06
0128826780999992003012212004-06770-043020FM-12+013899999V0201401N001019999999N0040001N1+02231+02151999999ADDGF108991999999008001999999REMSYN090AAXX  22124 82678 21596 81402 10223 20215 10556 20212 30004 40163 58010 60564 75166 8572/;
0171826780999992003012218004-06770-043020FM-12+013899999V0201401N001010450019N0040001N1+02661+02271101301ADDAY121061AY261061GF108991041051008001021999MA1999999099711MD1999999+0351MW1021REMSYN082AAXX  22184 82678 21596 81402 10266 20227 39971 40130 70226 8452/ 333 58035 69911;
0198826780999992003012300004-06770-043020FM-12+013899999V0209999C000010120019N0002001N1+02511+02381101421ADDAA106000091GF108991081081008001999999KA1240M+02841MA1999999099821MD1999999+0131REMSYN088AAXX  23004 82678 32592 80000 10251 20238 39982 40142 888// 333 10284 29090 55000 58013;EQDQ01  00002PRCP06
0190826780999992003012312004-06770-043020FM-12+013899999V0200501N002110075019N0040001N1+02281+02141101691ADDAY121061AY221061GF108991081071008001999999KA1240N+02201MA1999999100091MD1999999+0051MW1631REMSYN088AAXX  23124 82678 21596 80504 10228 20214 30009 40169 76322 887// 333 20220 58005 60064;
0171826780999992003012318004-06770-043020FM-12+013899999V0203201N001010120019N0040001N1+02961+02281101371ADDAY121061AY261061GF108991061081008001021021MA1999999099791MD1999999+0081MW1021REMSYN082AAXX  23184 82678 21596 83202 10296 20228 39979 40137 70226 86822 333 58008 69981;
0168826780999992003012400004-06770-043020FM-12+013899999V0200901N000519999999N0002001N1+02601+02441999999ADDAA106000091GF108991999999008001999999KA1240M+03021REMSYN087AAXX  24004 82678 32592 80901 10260 20244 3998 40158 8641/ 333 10302 29085 55014 58016;EQDQ01  00002PRCP06
0162826780999992003012412004-06770-043020FM-12+013899999V0200901N001011050019N0040001N1+02721+02151101661ADDGF105991021031008001021011KA1240N+02211MA1999999100071MD1999999-0021REMSYN082AAXX  24124 82678 22596 50902 10272 20215 30007 40166 82321 333 20221 59002 69984;
0167826780999992003012418004-06770-043020FM-12+013899999V0200901N001010075019N0040001N1+03201+02151101251ADDAA106000091GF108991081051008001999999MA1999999099681MD1999999-0111REMSYN070AAXX  24184 82678 32596 80902 10320 20215 39968 40125 885// 333 59011;EQDQ01  00002PRCP06
0208826780999992003012500004-06770-043020FM-12+013899999V0209999C000012200019N0020001N1+02541+02401101431ADDAA106000091GA1001+999999999GF100991001001999999001001KA1240M+03251MA1999999099851MD1999999-0131REMSYN082AAXX  25004 82678 32595 00000 10254 20240 39985 40143 333 10325 29077 55070 59013;EQDQ01  00002PRCP06
0186826780999992003012512004-06770-043020FM-12+013899999V0200901N000512200019N0040001N1+02801+02251101561ADDAA106000091GF103991011011008001001011KA1240N+02221MA1999999099981MD1999999-0091REMSYN076AAXX  25124 82678 32596 30901 10280 20225 39998 40156 81101 333 20222 59009;EQDQ01  00002PRCP06
0167826780999992003012518004-06770-043020FM-12+013899999V0201401N001010075019N0040001N1+03241+02191101081ADDAA106000091GF108991051021008001001011MA1999999099511MD1999999-0171REMSYN070AAXX  25184 82678 32596 81402 10324 20219 39951 40108 85201 333 59017;EQDQ01  00002PRCP06
0208826780999992003012600004-06770-043020FM-12+013899999V0209999C000012200019N0002001N1+02721+02391101241ADDAA106000091GA1001+999999999GF100991001001999999001001KA1240M+03351MA1999999099671MD1999999-0181REMSYN082AAXX  26004 82678 32992 00000 10272 20239 39967 40124 333 10335 29072 55091 59018;EQDQ01  00002PRCP06
0186826780999992003012612004-06770-043020FM-12+013899999V0200901N002610075019N0040001N1+02661+02351101441ADDAA106000091GF108991051051008001999999KA1240N+02301MA1999999099831MD1999999-0121REMSYN076AAXX  26124 82678 32596 80905 10266 20235 39983 40144 855// 333 20230 59012;EQDQ01  00002PRCP06
0183826780999992003012618004-06770-043020FM-12+013899999V0200901N001019999999N0040001N1+03321+02041100951ADDAA106000091GF105991999021008001001001MA1999999099391MD1999999-0121REMSYN070AAXX  26184 82678 32596 50902 10332 20204 39939 40095 83200 333 59012;EQDQ01+000032SCOTLCQ02  00002PRCP06
0162826780999992003012700004-06770-043020FM-12+013899999V0209999C000012200019N0002001N1+02741+02341999999ADDAA106000091GA1001+999999999GF100991001001999999001001REMSYN078AAXX  27004 82678 32992 00000 10274 20234 10339 29072 39946 40103 55078 59021;EQDQ01  00002PRCP06
0186826780999992003012712004-06770-043020FM-12+013899999V0200501N001010450019N0040001N1+02381+02211101381ADDAA106000091GF108991041051008001021999KA1240N+02301MA1999999099791MD1999999-0071REMSYN076AAXX  27124 82678 32596 80502 10238 20221 39979 40138 8452/ 333 20230 59007;EQDQ01  00002PRCP06
0167826780999992003012718004-06770-043020FM-12+013899999V0203601N001010450019N0040001N1+03041+02201101061ADDAA106000091GF108991041081008001021011MA1999999099491MD1999999+0101REMSYN070AAXX  27184 82678 32596 83602 10304 20220 39949 40106 84821 333 58010;EQDQ01  00002PRCP06
0198826780999992003012800004-06770-043020FM-12+013899999V0209999C000010450019N0002001N1+02721+02321101341ADDAA106000091GF106991041081008001021001KA1240M+03151MA1999999099751MD1999999+0291REMSYN088AAXX  28004 82678 32592 60000 10272 20232 39975 40134 84820 333 10315 29077 55035 58029;EQDQ01  00002PRCP06
0190826780999992003012812004-06770-043020FM-12+013899999V0201801N000510075019N0040001N1+02331+02181101701ADDAY161061AY261061GF108991061071008001021999KA1240N+02191MA1999999100101MD1999999+0311MW1531REMSYN088AAXX  28124 82678 21596 81801 10233 20218 30010 40170 75366 8672/ 333 20219 58031 60034;
0148826780999992003012818004-06770-043020FM-12+013899999V0200501N002110450019N0040001N1+02911+02201101371ADDAA106000021GF108991021021008001031021MA1999999099791MD1999999+0301REMSYN070AAXX  28184 82678 32596 80504 10291 20220 39979 40137 82232 333 58030;
0162826780999992003012900004-06770-043020FM-12+013899999V0201401N000512200019N0002001N1+02501+02321999999ADDAA106000091GA1001+999999999GF100991001001999999001001REMSYN078AAXX  29004 82678 32992 01401 10250 20232 10301 29084 39994 40154 55008 58019;EQDQ01  00002PRCP06
0186826780999992003012912004-06770-043020FM-12+013899999V0200501N001512200019N0040001N1+02741+02321101561ADDAA106000091GF105991021021008001031091KA1240N+02241MA1999999099971MD1999999-0131REMSYN076AAXX  29124 82678 32596 50503 10274 20232 39997 40156 82239 333 20224 59013;EQDQ01  00002PRCP06
0167826780999992003012918004-06770-043020FM-12+013899999V0203601N001510450019N0040001N1+03241+02281101091ADDAA106000091GF107991041021008001031011MA1999999099521MD1999999-0271REMSYN070AAXX  29184 82678 32596 73603 10324 20228 39952 40109 84231 333 59027;EQDQ01  00002PRCP06
0226826780999992003013000004-06770-043020FM-12+013899999V0201801N000510075019N0002001N1+02511+02171101221ADDAA106000091AY121061AY221061GF108991081041008001999999KA1240M+03381MA1999999099641MD1999999-0301MW1171REMSYN094AAXX  30004 82678 31592 81801 10251 20217 39964 40122 71722 884// 333 10338 29075 55093 59030;EQDQ01  00002PRCP06
0190826780999992003013012004-06770-043020FM-12+013899999V0201401N001010450019N0040001N1+02601+02331101501ADDAY161061AY221061GF108991041021008001031001KA1240N+02211MA1999999099911MD1999999-0061MW1021REMSYN088AAXX  30124 82678 21596 81402 10260 20233 39991 40150 70262 84230 333 20221 59006 60244;
0171826780999992003013018004-06770-043020FM-12+013899999V0200501N001010075019N0040001N1+03201+02331100991ADDAY161061AY221061GF108991081051008001999999MA1999999099421MD1999999-0101MW1021REMSYN082AAXX  30184 82678 21596 80502 10320 20233 39942 40099 70262 885// 333 59010 60061;
0134826780999992003013100004-06770-043020FM-12+013899999V0200501N001019999999N0002001N1+02341+02291999999ADDGF108991999999008001999999REMSYN096AAXX  31004 82678 21592 80502 10234 20229 10326 29085 39963 40122 55040 59001 60111 76162 885//;
0190826780999992003013112004-06770-043020FM-12+013899999V0200501N001010075019N0040001N1+02461+02321101541ADDAY161061AY211061GF108991081051008001999999KA1240N+02241MA1999999099941MD1999999+0031MW1021REMSYN088AAXX  31124 82678 21596 80502 10246 20232 39994 40154 70261 885// 333 20224 58003 60174;
0171826780999992003013118004-06770-043020FM-12+013899999V0200901N001012200019N0040001N1+03121+02221101021ADDAY161061AY221061GF104991021021008001001021MA1999999099451MD1999999+0031MW1611REMSYN082AAXX  31184 82678 21596 40902 10312 20222 39945 40102 76162 82202 333 58003 60031;
0189826780999992003020100004-06770-043020FM-12+013899999V0209999C000012200019N0002001N1+02601+02391101101ADDAA106000021GA1001+999999999GF100991001001999999001001KA1240M+03221MA1999999099501MD1999999-0131REMSYN082AAXX  01004 82678 32992 00000 10260 20239 39950 40110 333 10322 29082 55058 59013;
0122826780999992003020112004-06770-043020FM-12+013899999V0200501N001019999999N0040001N1+02581+02331999999ADDGF108991999999008001999999REMSYN084AAXX  01124 82678 22596 80502 10258 20233 10028 20214 39997 40156 58003 60034 86200;
0163826780999992003020118004-06770-043020FM-12+013899999V0200901N001510075019N0040001N1+03141+02211101211ADDAA106000091GF108991081051008001999999MA1999999099641MD1810191+9999REMSYN066AAXX  01184 82678 32596 80903 10314 20221 39964 40121 58019 885//;EQDQ01  00002PRCP06
0134826780999992003020200004-06770-043020FM-12+013899999V0209999C000019999999N0002001N1+02601+02501999999ADDGF108991999999008001999999REMSYN096AAXX  02004 82678 21592 80000 10260 20250 10321 29083 39975 40133 55021 58025 69941 70261 86200;
0122826780999992003020212004-06770-043020FM-12+013899999V0201401N001019999999N0040001N1+02661+02161999999ADDGF108991999999008001999999REMSYN084AAXX  02124 82678 22596 81402 10266 20216 10004 20238 30000 40159 58003 69944 85530;
0163826780999992003020218004-06770-043020FM-12+013899999V0201401N003110075019N0040001N1+02881+02131101331ADDAA106000091GF108991081051008001999999MA1999999099751MD1810111+9999REMSYN066AAXX  02184 82678 32596 81406 10288 20213 39975 40133 58011 885//;EQDQ01  00002PRCP06
0208826780999992003020300004-06770-043020FM-12+013899999V0209999C000012200019N0002001N1+02581+02081101461ADDAA106000091GA1001+999999999GF100991001001999999001001KA1240M+03041MA1999999099871MD1999999+0121REMSYN082AAXX  03004 82678 32992 00000 10258 20208 39987 40146 333 10304 29072 55027 58012;EQDQ01  00002PRCP06
0186826780999992003020312004-06770-043020FM-12+013899999V0200901N001010075019N0040001N1+02641+02331101651ADDAA106000091GF108991081051008001999999KA1240N+02361MA1999999100061MD1999999+0061REMSYN076AAXX  03124 82678 32596 80902 10264 20233 30006 40165 885// 333 20236 58006;EQDQ01  00002PRCP06
0167826780999992003020318004-06770-043020FM-12+013899999V0201401N003110450019N0040001N1+03231+02201101251ADDAA106000091GF108991041081008001031021MA1999999099681MD1999999-0071REMSYN070AAXX  03184 82678 32596 81406 10323 20220 39968 40125 84832 333 59007;EQDQ01  00002PRCP06
0208826780999992003020400004-06770-043020FM-12+013899999V0201801N001012200019N0002001N1+02701+02281101331ADDAA106000091GA1001+999999999GF100991001001999999001001KA1240M+03281MA1999999099751MD1999999-0121REMSYN082AAXX  04004 82678 32992 01802 10270 20228 39975 40133 333 10328 29074 55060 59012;EQDQ01  00002PRCP06
0186826780999992003020412004-06770-043020FM-12+013899999V0200901N001510450019N0040001N1+02781+02231101451ADDAA106000091GF108991031051008001021021KA1240N+02311MA1999999099871MD1999999-0191REMSYN076AAXX  04124 82678 32596 80903 10278 20223 39987 40145 83522 333 20231 59019;EQDQ01  00002PRCP06
0167826780999992003020418004-06770-043020FM-12+013899999V0201401N003110450019N0040001N1+03301+02121101091ADDAA106000091GF108991031021008001021021MA1999999099531MD1999999-0151REMSYN070AAXX  04184 82678 32596 81406 10330 20212 39953 40109 83222 333 59015;EQDQ01  00002PRCP06
0198826780999992003020500004-06770-043020FM-12+013899999V0201801N000510075019N0002001N1+02721+02481101161ADDAA106000091GF105991051041008001001001KA1240M+03351MA1999999099591MD1999999-0161REMSYN088AAXX  05004 82678 32592 51801 10272 20248 39959 40116 85400 333 10335 29074 55070 59016;EQDQ01  00002PRCP06
0190826780999992003020512004-06770-043020FM-12+013899999V0202301N001010075019N0040001N1+02541+02441101471ADDAY161061AY211061GF108991051051008001021011KA1240N+02341MA1999999099891MD1999999+0021MW1021REMSYN088AAXX  05124 82678 21596 82302 10254 20244 39989 40147 70261 85521 333 20234 58002 69944;
0167826780999992003020518004-06770-043020FM-12+013899999V0200901N001512200019N0040001N1+03281+02321101031ADDAA106000091GF104991021021008001001011MA1999999099471MD1999999-0061REMSYN070AAXX  05184 82678 32596 40903 10328 20232 39947 40103 82201 333 59006;EQDQ01  00002PRCP06
0198826780999992003020600004-06770-043020FM-12+013899999V0200501N001510075019N0002001N1+02601+02271101251ADDAA106000091GF108991081051008001999999KA1240M+03331MA1999999099661MD1999999+0071REMSYN088AAXX  06004 82678 32592 80503 10260 20227 39966 40125 885// 333 10333 29079 55067 58007;EQDQ01  00002PRCP06
0190826780999992003020612004-06770-043020FM-12+013899999V0203601N001510075019N0040001N1+02521+02331101641ADDAY151061AY261061GF108991081051008001999999KA1240N+02241MA1999999100051MD1999999+0161MW1021REMSYN088AAXX  06124 82678 21596 83603 10252 20233 30005 40164 70256 885// 333 20224 58016 69944;
0167826780999992003020618004-06770-043020FM-12+013899999V0200901N001510075019N0040001N1+03281+02161101161ADDAA106000091GF108991051051008001031001MA1999999099591MD1999999+0121REMSYN070AAXX  06184 82678 32596 80903 10328 20216 39959 40116 85530 333 58012;EQDQ01  00002PRCP06
0208826780999992003020700004-06770-043020FM-12+013899999V0209999C000012200019N0002001N1+02721+02471101221ADDAA106000091GA1001+999999999GF100991001001999999001001KA1240M+03331MA1999999099641MD1999999-0021REMSYN082AAXX  07004 82678 32992 00000 10272 20247 39964 40122 333 10333 29078 55069 59002;EQDQ01  00002PRCP06
0186826780999992003020712004-06770-043020FM-12+013899999V0203601N000511050019N0040001N1+02781+02341101491ADDAA106000091GF106991031011008001001021KA1240N+02321MA1999999099911MD1999999-0141REMSYN076AAXX  07124 82678 32596 63601 10278 20234 39991 40149 83102 333 20232 59014;EQDQ01  00002PRCP06
0167826780999992003020718004-06770-043020FM-12+013899999V0200901N001511050019N0040001N1+03361+02171101081ADDAA106000091GF106991041021008001001021MA1999999099521MD1999999-0071REMSYN070AAXX  07184 82678 32596 60903 10336 20217 39952 40108 84202 333 59007;EQDQ01  00002PRCP06
0198826780999992003020800004-06770-043020FM-12+013899999V0209999C000010150019N0040001N1+02801+02501101071ADDAA106000091GF105991051001017501031001KA1240M+03411MA1999999099501MD1999999-0141REMSYN088AAXX  08004 82678 32796 50000 10280 20250 39950 40107 85030 333 10341 29074 55093 59014;EQDQ01  00002PRCP06
0186826780999992003020812004-06770-043020FM-12+013899999V0200901N003110450019N0040001N1+02881+02081101431ADDAA106000091GF107991011011008001031021KA1240N+02341MA1999999099861MD1999999-0051REMSYN076AAXX  08124 82678 32596 70906 10288 20208 39986 40143 81132 333 20234 59005;EQDQ01  00002PRCP06
0167826780999992003020818004-06770-043020FM-12+013899999V0201401N001512200019N0040001N1+03421+01911101121ADDAA106000091GF105991031011008001001011MA1999999099561MD1999999+0041REMSYN070AAXX  08184 82678 32596 51403 10342 20191 39956 40112 83101 333 58004;EQDQ01  00002PRCP06
0208826780999992003020900004-06770-043020FM-12+013899999V0209999C000012200019N0002001N1+02721+02281101081ADDAA106000091GA1001+999999999GF100991001001999999001001KA1240M+03511MA1999999099511MD1999999-0011REMSYN082AAXX  09004 82678 32992 00000 10272 20228 39951 40108 333 10351 29064 55110 59001;EQDQ01  00002PRCP06
0186826780999992003020912004-06770-043020FM-12+013899999V0203201N000510075019N0040001N1+02581+02311101471ADDAA106000091GF107991071051008001001001KA1240N+02201MA1999999099891MD1999999+0031REMSYN076AAXX  09124 82678 32596 73201 10258 20231 39989 40147 87500 333 20220 58003;EQDQ01  00002PRCP06
0167826780999992003020918004-06770-043020FM-12+013899999V0203601N001510075019N0040001N1+03141+02431101111ADDAA106000091GF108991051051008001031001MA1999999099541MD1999999-0021REMSYN070AAXX  09184 82678 32596 83603 10314 20243 39954 40111 85530 333 59002;EQDQ01  00002PRCP06
0198826780999992003021000004-06770-043020FM-12+013899999V0209999C000012200019N0002001N1+02641+02311101151ADDAA106000091GF103991021021008001001011KA1240M+03341MA1999999099571MD1999999+0061REMSYN088AAXX  10004 82678 32592 30000 10264 20231 39957 40115 82201 333 10334 29079 55054 58006;EQDQ01  00002PRCP06
0186826780999992003021012004-06770-043020FM-12+013899999V0200501N001010075019N0040001N1+02621+02291101481ADDAA106000091GF108991081051008001999999KA1240N+02331MA1999999099901MD1999999+0011REMSYN076AAXX  10124 82678 32596 80502 10262 20229 39990 40148 885// 333 20233 58001;EQDQ01  00002PRCP06
0167826780999992003021018004-06770-043020FM-12+013899999V0201401N001010075019N0040001N1+02941+02311101241ADDAA106000091GF108991081051008001999999MA1999999099661MD1999999+0121REMSYN070AAXX  10184 82678 32596 81402 10294 20231 39966 40124 885// 333 58012;EQDQ01  00002PRCP06
0198826780999992003021100004-06770-043020FM-12+013899999V0209999C000012200019N0002001N1+02601+02401101301ADDAA106000091GF103991011021008001001011KA1240M+03021MA1999999099721MD1999999+0151REMSYN088AAXX  11004 82678 32592 30000 10260 20240 39972 40130 81201 333 10302 29082 55000 58015;EQDQ01  00002PRCP06
0186826780999992003021112004-06770-043020FM-12+013899999V0200901N000510075019N0040001N1+02701+02261101441ADDAA106000091GF106991061021008001001001KA1240N+02281MA1999999099861MD1999999-0041REMSYN076AAXX  11124 82678 32596 60901 10270 20226 39986 40144 86200 333 20228 59004;EQDQ01  00002PRCP06
0167826780999992003021118004-06770-043020FM-12+013899999V0203601N000510075019N0040001N1+03221+02321101031ADDAA106000091GF107991051051008001031021MA1999999099461MD1999999-0201REMSYN070AAXX  11184 82678 32596 73601 10322 20232 39946 40103 85532 333 59020;EQDQ01  00002PRCP06
0198826780999992003021200004-06770-043020FM-12+013899999V0209999C000010075019N0002001N1+02661+02371101221ADDAA106000091GF108991081051008001999999KA1240M+03291MA1999999099651MD1999999-0071REMSYN088AAXX  12004 82678 32592 80000 10266 20237 39965 40122 885// 333 10329 29076 55082 59007;EQDQ01  00002PRCP06
0190826780999992003021212004-06770-043020FM-12+013899999V0209999C000010075019N0040001N1+02461+02301101561ADDAY161061AY221061GF108991081051008001999999KA1240N+02341MA1999999099971MD1999999+0111MW1031REMSYN088AAXX  12124 82678 21596 80000 10246 20230 39997 40156 70362 885// 333 20234 58011 60304;
0167826780999992003021218004-06770-043020FM-12+013899999V0201401N004110075019N0040001N1+02701+02301101351ADDAA106000091GF108991071051008001061999MA1999999099761MD1999999+0301REMSYN070AAXX  12184 82678 32596 81408 10270 20230 39976 40135 8756/ 333 58030;EQDQ01  00002PRCP06
0198826780999992003021300004-06770-043020FM-12+013899999V0209999C000010075019N0002001N1+02401+02261101411ADDAA106000091GF108991051051008001031999KA1240M+02951MA1999999099821MD1999999+0171REMSYN088AAXX  13004 82678 32592 80000 10240 20226 39982 40141 8553/ 333 10295 29088 55008 58017;EQDQ01  00002PRCP06
0186826780999992003021312004-06770-043020FM-12+013899999V0209999C000010075019N0040001N1+02461+02171101581ADDAA106000091GF108991051051008001031001KA1240N+02201MA1999999099981MD1999999-0011REMSYN076AAXX  13124 82678 32596 80000 10246 20217 39998 40158 85530 333 20220 59001;EQDQ01  00002PRCP06
0167826780999992003021318004-06770-043020FM-12+013899999V0209999C000010075019N0040001N1+03001+02291101201ADDAA106000091GF108991061051008001061999MA1999999099621MD1999999-0141REMSYN070AAXX  13184 82678 32596 80000 10300 20229 39962 40120 8656/ 333 59014;EQDQ01  00002PRCP06
0198826780999992003021400004-06770-043020FM-12+013899999V0200901N002610075019N0002001N1+02541+02251101441ADDAA106000091GF108991081051008001999999KA1240M+03051MA1999999099851MD1999999+0031REMSYN088AAXX  14004 82678 32592 80905 10254 20225 39985 40144 885// 333 10305 29080 55025 58003;EQDQ01  00002PRCP06
0186826780999992003021412004-06770-043020FM-12+013899999V0200901N001010075019N0040001N1+02641+02271101471ADDAA106000091GF108991061051008001031001KA1240N+02231MA1999999099881MD1999999-0101REMSYN076AAXX  14124 82678 32596 80902 10264 20227 39988 40147 86530 333 20223 59010;EQDQ01  00002PRCP06
0167826780999992003021418004-06770-043020FM-12+013899999V0203601N001010075019N0040001N1+03061+02451101081ADDAA106000091GF108991081051008001999999MA1999999099511MD1999999-0111REMSYN070AAXX  14184 82678 32596 83602 10306 20245 39951 40108 885// 333 59011;EQDQ01  00002PRCP06
0202826780999992003021500004-06770-043020FM-12+013899999V0209999C000010075019N0002001N1+02461+02411101211ADDAY161061AY221061GF108991081051008001999999KA1240M+03131MA1999999099631MD1999999-0221MW1021REMSYN100AAXX  15004 82678 21592 80000 10246 20241 39963 40121 70262 885// 333 10313 29086 55033 59022 60161;
0162826780999992003021512004-06770-043020FM-12+013899999V0200901N000510075019N0040001N1+02561+02381101311ADDGF108991071051008001021999KA1240N+02301MA1999999099721MD1999999-0161REMSYN082AAXX  15124 82678 22596 80901 10256 20238 39972 40131 8752/ 333 20230 59016 60164;
0167826780999992003021518004-06770-043020FM-12+013899999V0203601N001010075019N0040001N1+02821+02381100991ADDAA106000091GF108991051051008001071999MA1999999099411MD1999999-0101REMSYN070AAXX  15184 82678 32596 83602 10282 20238 39941 40099 8557/ 333 59010;EQDQ01  00002PRCP06
0162826780999992003021612004-06770-043020FM-12+013899999V0200901N000510075019N0040001N1+02521+02291101311ADDGF107991071051008001001001KA1240N+02341MA1999999099721MD1999999+0001REMSYN082AAXX  16124 82678 22596 70901 10252 20229 39972 40131 87500 333 20234 58000 69934;
0190826780999992003021712004-06770-043020FM-12+013899999V0202701N001010075019N0040001N1+02301+02221101611ADDAY161061AY211061GF108991081051008001999999KA1240N+02261MA1999999100011MD1999999+0291MW1021REMSYN088AAXX  17124 82678 21596 82702 10230 20222 30001 40161 70261 885// 333 20226 58029 60064;
0171826780999992003021718004-06770-043020FM-12+013899999V0201401N001010075019N0040001N1+02481+02271101241ADDAY161061AY221061GF108991081051008001999999MA1999999099651MD1999999+0231MW1611REMSYN082AAXX  17184 82678 21596 81402 10248 20227 39965 40124 76162 885// 333 58023 60021;
0179826780999992003021800004-06770-043020FM-12+013899999V0209999C000010075019N0002001N1+02421+02371101401ADDAA106000021GF108991051051008001031999KA1240M+02631MA1999999099801MD1999999+0411REMSYN088AAXX  18004 82678 32592 80000 10242 20237 39980 40140 8553/ 333 10263 29094 55000 58041;
0162826780999992003021812004-06770-043020FM-12+013899999V0200901N001010075019N0040001N1+02661+02371101491ADDGF108991051051008001031001KA1240N+02261MA1999999099901MD1999999-0111REMSYN082AAXX  18124 82678 22596 80902 10266 20237 39990 40149 85530 333 20226 59011 60024;
0167826780999992003021818004-06770-043020FM-12+013899999V0201401N001011050019N0040001N1+03221+02321101051ADDAA106000091GF105991031021008001001021MA1999999099491MD1999999-0161REMSYN070AAXX  18184 82678 32596 51402 10322 20232 39949 40105 83202 333 59016;EQDQ01  00002PRCP06
0202826780999992003021900004-06770-043020FM-12+013899999V0201401N001010075019N0040001N1+02541+02451101381ADDAY161061AY211061GF108991051051008001031999KA1240M+03321MA1999999099801MD1999999+0001MW1021REMSYN100AAXX  19004 82678 21596 81402 10254 20245 39980 40138 70261 8553/ 333 10332 29083 55074 58000 60031;
0162826780999992003021912004-06770-043020FM-12+013899999V0200901N000510075019N0040001N1+02561+02311101491ADDGF108991071051008001061999KA1240N+02181MA1999999099901MD1999999+0001REMSYN082AAXX  19124 82678 22596 80901 10256 20231 39990 40149 8756/ 333 20218 58000 60034;
0167826780999992003021918004-06770-043020FM-12+013899999V0201401N000510075019N0040001N1+03061+02351101241ADDAA106000091GF107991051051008001031001MA1999999099661MD1999999+0171REMSYN070AAXX  19184 82678 32596 71401 10306 20235 39966 40124 85530 333 58017;EQDQ01  00002PRCP06
0198826780999992003022000004-06770-043020FM-12+013899999V0209999C000012200019N0020001N1+02701+02501101201ADDAA106000091GF104991041051008001001001KA1240M+03211MA1999999099621MD1999999-0181REMSYN088AAXX  20004 82678 32595 40000 10270 20250 39962 40120 84500 333 10321 29082 55059 59018;EQDQ01  00002PRCP06
0186826780999992003022012004-06770-043020FM-12+013899999V0203601N000510075019N0040001N1+02501+02291101511ADDAA106000091GF108991061051008001071999KA1240N+02241MA1999999099921MD1999999+0021REMSYN076AAXX  20124 82678 32596 83601 10250 20229 39992 40151 8657/ 333 20224 58002;EQDQ01  00002PRCP06
0167826780999992003022018004-06770-043020FM-12+013899999V0200501N000510075019N0040001N1+03161+02391101101ADDAA106000091GF105991051051008001001001MA1999999099531MD1999999-0131REMSYN070AAXX  20184 82678 32596 50501 10316 20239 39953 40110 85500 333 59013;EQDQ01  00002PRCP06
0198826780999992003022100004-06770-043020FM-12+013899999V0209999C000010075019N0002001N1+02481+02251101241ADDAA106000091GF108991061051008001021999KA1240M+03211MA1999999099651MD1999999+0031REMSYN088AAXX  21004 82678 32592 80000 10248 20225 39965 40124 8652/ 333 10321 29082 55048 58003;EQDQ01  00002PRCP06
0186826780999992003022112004-06770-043020FM-12+013899999V0209999C000010075019N0040001N1+02441+02211101601ADDAA106000091GF108991051051008001071001KA1240N+02261MA1999999099941MD1999999+0021REMSYN076AAXX  21124 82678 32596 80000 10244 20221 39994 40160 85570 333 20226 58002;EQDQ01  00002PRCP06
0183826780999992003022118004-06770-043020FM-12+013899999V0202701N001010075019N0040001N1+02881+02541101191ADDAA106000091GF108991999021008001001001MA1999999099611MD1999999+0081REMSYN070AAXX  21184 82678 32596 82702 10288 20254 39961 40119 86200 333 58008;EQDQ01+000062SCOTLCQ02  00002PRCP06
0208826780999992003022200004-06770-043020FM-12+013899999V0209999C000012200019N0002001N1+02581+02381101311ADDAA106000091GA1001+999999999GF100991001001999999001001KA1240M+02991MA1999999099721MD1999999+0071REMSYN082AAXX  22004 82678 32992 00000 10258 20238 39972 40131 333 10299 29087 55011 58007;EQDQ01  00002PRCP06
0186826780999992003022212004-06770-043020FM-12+013899999V0200501N000510150019N0040001N1+02621+02251101431ADDAA106000091GF107991051001017501031021KA1240N+02281MA1999999099851MD1999999-0091REMSYN076AAXX  22124 82678 32796 70501 10262 20225 39985 40143 85032 333 20228 59009;EQDQ01  00002PRCP06
0208826780999992003022300004-06770-043020FM-12+013899999V0209999C000012200019N0002001N1+02701+02371101411ADDAA106000091GA1001+999999999GF100991001001999999001001KA1240M+03331MA1999999099831MD1999999+0111REMSYN082AAXX  23004 82678 32992 00000 10270 20237 39983 40141 333 10333 29077 55070 58011;EQDQ01  00002PRCP06
0209826780999992003022312004-06770-043020FM-12+013899999V0209999C000019999999N0040001N1+02341+02291101701ADDAY161061AY221061GF105991999051008001091999KA1240N+02321MA1999999100101MD1999999+0251MW1611REMSYN088AAXX  23124 82678 21596 50000 10234 20229 30010 40170 76162 8959/ 333 20232 58025 60244;EQDQ01+000092SCOTLC
0198826780999992003022400004-06770-043020FM-12+013899999V0209999C000010075019N0002001N1+02581+02421101421ADDAA106000091GF108991061051008001021999KA1240M+03011MA1999999099831MD1999999+0001REMSYN088AAXX  24004 82678 32592 80000 10258 20242 39983 40142 8652/ 333 10301 29088 55016 58000;EQDQ01  00002PRCP06
0162826780999992003022412004-06770-043020FM-12+013899999V0209999C000010075019N0040001N1+02581+02371101691ADDGF108991061051008001021001KA1240N+02281MA1999999100111MD1999999+0011REMSYN082AAXX  24124 82678 22596 80000 10258 20237 30011 40169 86520 333 20228 58001 60064;
0198826780999992003022500004-06770-043020FM-12+013899999V0203601N001010075019N0002001N1+02581+02331101351ADDAA106000091GF108991081051008001999999KA1240M+03091MA1999999099771MD1999999-0061REMSYN088AAXX  25004 82678 32592 83602 10258 20233 39977 40135 885// 333 10309 29085 55043 59006;EQDQ01  00002PRCP06
0209826780999992003022512004-06770-043020FM-12+013899999V0200501N001010075019N0040001N1+02601+02331101591ADDAY161061AY211061GF108991999021008001001001KA1240N+02341MA1999999100001MD1999999-0111MW1011REMSYN088AAXX  25124 82678 21596 80502 10260 20233 30000 40159 70161 86200 333 20234 59011 60064;EQDQ01+000062SCOTLC
0149826780999992003022518004-06770-043020FM-12+013899999V0203601N001010450019N0040001N1+03161+02371101071ADDAA106000091GF108991041051008001071011MA1999999099501REMSYN066AAXX  25184 82678 32596 83602 10316 20237 39950 40107 59015 84571;EQDQ01  00002PRCP06
0208826780999992003022600004-06770-043020FM-12+013899999V0209999C000012200019N0002001N1+02581+02381101181ADDAA106000091GA1001+999999999GF100991001001999999001001KA1240M+03241MA1999999099601MD1999999-0171REMSYN082AAXX  26004 82678 32992 00000 10258 20238 39960 40118 333 10324 29082 55056 59017;EQDQ01  00002PRCP06
0190826780999992003022612004-06770-043020FM-12+013899999V0200901N001010075019N0040001N1+02441+02341101511ADDAY161061AY211061GF108991081051008001999999KA1240N+02331MA1999999099921MD1999999-0081MW1611REMSYN088AAXX  26124 82678 21596 80902 10244 20234 39992 40151 76161 885// 333 20233 59008 60094;
0171826780999992003022618004-06770-043020FM-12+013899999V0201401N001510075019N0040001N1+02641+02331101211ADDAY161061AY221061GF108991081051008001999999MA1999999099631MD1999999+0131MW1611REMSYN082AAXX  26184 82678 21596 81403 10264 20233 39963 40121 76162 885// 333 58013 69941;
0179826780999992003022700004-06770-043020FM-12+013899999V0209999C000010075019N0002001N1+02481+02341101281ADDAA106000021GF108991081051008001999999KA1240M+02731MA1999999099691MD1999999+0091REMSYN088AAXX  27004 82678 32592 80000 10248 20234 39969 40128 885// 333 10273 29090 55000 58009;
0162826780999992003022712004-06770-043020FM-12+013899999V0201401N001010075019N0040001N1+02621+02411101371ADDGF107991051051008001031001KA1240N+02201MA1999999099781MD1999999-0141REMSYN082AAXX  27124 82678 22596 71402 10262 20241 39978 40137 85530 333 20220 59014 69944;
0171826780999992003022718004-06770-043020FM-12+013899999V0201401N001010075019N0040001N1+03001+02551101081ADDAY161061AY221061GF108991061051008001021999MA1999999099311MD1999999-0121MW1911REMSYN082AAXX  27184 82678 21596 81402 10300 20255 39931 40108 79162 8652/ 333 59012 60011;
0202826780999992003022800004-06770-043020FM-12+013899999V0200501N000510075019N0002001N1+02521+02421101141ADDAY161061AY221061GF105991051051008001001001KA1240M+03211MA1999999099561MD1999999-0131MW1011REMSYN100AAXX  28004 82678 21592 50501 10252 20242 39956 40114 70162 85500 333 10321 29088 55058 59013 60041;
0162826780999992003022812004-06770-043020FM-12+013899999V0200901N000510450019N0040001N1+02701+02371101471ADDGF107991041051008001031021KA1240N+02281MA1999999099881MD1999999+0101REMSYN082AAXX  28124 82678 22596 70901 10270 20237 39988 40147 84532 333 20228 58010 60054;
0134826780999992003030100004-06770-043020FM-12+013899999V0209999C000019999999N0002001N1+02581+02381999999ADDGF108991999999008001999999REMSYN096AAXX  01004 82678 21592 80000 10258 20238 10311 29087 39967 40125 55026 58011 60161 70362 86200;
0209826780999992003030112004-06770-043020FM-12+013899999V0203201N001019999999N0040001N1+02601+02291101421ADDAY161061AY221061GF105991999021008001001001KA1240N+02241MA1999999099841MD1999999-0041MW1011REMSYN088AAXX  01124 82678 21596 53202 10260 20229 39984 40142 70162 83200 333 20224 59004 60274;EQDQ01+000032SCOTLC
0191826780999992003030118004-06770-043020FM-12+013899999V0202701N001012200019N0040001N1+03081+02471101101ADDAY161061AY221061GF104991999021008001021001MD1999999+0041MW1031REMSYN082AAXX  01184 82678 21596 42702 10308 20247 33995 40110 70362 88220 333 58004 60011;EQDQ01+000082SCOTLCQ02+039951APOSP 
0152826780999992003030200004-06770-043020FM-12+013899999V0201401N002619999999N0040001N1+02601+02061999999ADDAA106000091GF108991999999008001999999REMSYN084AAXX  02004 82678 32596 81405 10260 20206 10329 29074 39981 40139 55054 58014 885//;EQDQ01  00002PRCP06
0190826780999992003030212004-06770-043020FM-12+013899999V0209999C000012200019N0040001N1+02621+02351101361ADDAY161061AY211061GF105991031021008001001011KA1240N+02221MA1999999099781MD1999999-0061MW1011REMSYN088AAXX  02124 82678 21596 50000 10262 20235 39978 40136 70161 83201 333 20222 59006 60024;
0167826780999992003030218004-06770-043020FM-12+013899999V0209999C000010075019N0040001N1+03201+02271100961ADDAA106000091GF105991051021008001001001MA1999999099391MD1999999-0141REMSYN070AAXX  02184 82678 32596 50000 10320 20227 39939 40096 85200 333 59014;EQDQ01  00002PRCP06
0208826780999992003030300004-06770-043020FM-12+013899999V0209999C000012200019N0002001N1+02581+02311101091ADDAA106000091GA1001+999999999GF100991001001999999001001KA1240M+03331MA1999999099491MD1999999-0321REMSYN082AAXX  03004 82678 32992 00000 10258 20231 39949 40109 333 10333 29078 55095 59032;EQDQ01  00002PRCP06
0186826780999992003030312004-06770-043020FM-12+013899999V0201401N011310450019N0040001N1+02661+02331101431ADDAA106000091GF106991041051008001031001KA1240N+02321MA1999999099851MD1999999+0071REMSYN076AAXX  03124 82678 32596 61422 10266 20233 39985 40143 84530 333 20232 58007;EQDQ01  00002PRCP06
0167826780999992003030318004-06770-043020FM-12+013899999V0201401N001512200019N0040001N1+03301+02211100981ADDAA106000091GF106991041051008001001011MA1999999099421MD1999999+0031REMSYN070AAXX  03184 82678 32596 61403 10330 20221 39942 40098 84501 333 58003;EQDQ01  00002PRCP06
0208826780999992003030400004-06770-043020FM-12+013899999V0209999C000012200019N0002001N1+02681+02451101101ADDAA106000091GA1001+999999999GF100991001001999999001001KA1240M+03331MA1999999099521MD1999999+0031REMSYN082AAXX  04004 82678 32992 00000 10268 20245 39952 40110 333 10333 29077 55091 58003;EQDQ01  00002PRCP06
0186826780999992003030412004-06770-043020FM-12+013899999V0203601N000510075019N0040001N1+02521+02291101531ADDAA106000091GF107991061051008001061001KA1240N+02181MA1999999099941MD1999999+0091REMSYN076AAXX  04124 82678 32596 73601 10252 20229 39994 40153 86560 333 20218 58009;EQDQ01  00002PRCP06
0167826780999992003030418004-06770-043020FM-12+013899999V0200901N000510075019N0040001N1+03161+02391101101ADDAA106000091GF107991061051008001001011MA1999999099531MD1999999+0111REMSYN070AAXX  04184 82678 32596 70901 10316 20239 39953 40110 86501 333 58011;EQDQ01  00002PRCP06
0221826780999992003030500004-06770-043020FM-12+013899999V0200501N001010075019N0040001N1+02521+02431101241ADDAY161061AY291061GF108991999061008001001001KA1240M+03211MA1999999099651MD1999999+0131MW1031REMSYN100AAXX  05004 82678 21596 80502 10252 20243 39965 40124 70369 85600 333 10321 29085 55048 58013 60091;EQDQ01+000052SCOTLC
0190826780999992003030512004-06770-043020FM-12+013899999V0202701N001010075019N0040001N1+02641+02421101491ADDAY161061AY221061GF108991051051008001031011KA1240N+02311MA1999999099901MD1999999-0041MW1021REMSYN088AAXX  05124 82678 21596 82702 10264 20242 39990 40149 70262 85531 333 20231 59004 60094;
0167826780999992003030518004-06770-043020FM-12+013899999V0201401N001511050019N0040001N1+03241+02281100981ADDAA106000091GF105991031021008001001021MA1999999099411MD1999999-0121REMSYN070AAXX  05184 82678 32596 51403 10324 20228 39941 40098 83202 333 59012;EQDQ01  00002PRCP06
0214826780999992003030600004-06770-043020FM-12+013899999V0203601N001012200019N0002001N1+02521+02191101241ADDAA106000091GF104991999021008001001001KA1240M+03331MA1999999099661MD1999999+0011REMSYN088AAXX  06004 82678 32592 43602 10252 20219 39966 40124 83200 333 10333 29077 55054 58001;EQDQ01+000032SCOTLCQ02  00002PRCP06
0186826780999992003030612004-06770-043020FM-12+013899999V0201401N001010075019N0040001N1+02641+02231101401ADDAA106000091GF108991051051008001001011KA1240N+02251MA1999999099841MD1999999+0061REMSYN076AAXX  06124 82678 32596 81402 10264 20223 39984 40140 85501 333 20225 58006;EQDQ01  00002PRCP06
0167826780999992003030618004-06770-043020FM-12+013899999V0201401N001010075019N0040001N1+03161+02371100991ADDAA106000091GF108991061051008001001021MA1999999099421MD1999999+0011REMSYN070AAXX  06184 82678 32596 81402 10316 20237 39942 40099 86502 333 58001;EQDQ01  00002PRCP06
0198826780999992003030700004-06770-043020FM-12+013899999V0209999C000012200019N0002001N1+02401+02231101331ADDAA106000091GF103991021051008001021001KA1240M+03231MA1999999099741MD1999999+0081REMSYN088AAXX  07004 82678 32592 30000 10240 20223 39974 40133 82520 333 10323 29080 55049 58008;EQDQ01  00002PRCP06
0186826780999992003030712004-06770-043020FM-12+013899999V0200901N000511050019N0040001N1+02681+02331101411ADDAA106000091GF105991021011008001031011KA1240N+02281MA1999999099821MD1999999-0021REMSYN076AAXX  07124 82678 32596 50901 10268 20233 39982 40141 82131 333 20228 59002;EQDQ01  00002PRCP06
0167826780999992003030718004-06770-043020FM-12+013899999V0203601N001010075019N0040001N1+03201+02241101081ADDAA106000091GF105991051021008001001001MA1999999099511MD1999999+0091REMSYN070AAXX  07184 82678 32596 53602 10320 20224 39951 40108 85200 333 58009;EQDQ01  00002PRCP06
0198826780999992003030800004-06770-043020FM-12+013899999V0209999C000010075019N0002001N1+02641+02231101221ADDAA106000091GF105991051051008001001001KA1240M+03261MA1999999099641MD1999999-0101REMSYN088AAXX  08004 82678 32592 50000 10264 20223 39964 40122 85500 333 10326 29074 55093 59010;EQDQ01  00002PRCP06
0186826780999992003030812004-06770-043020FM-12+013899999V0200501N000510075019N0040001N1+02601+02291101501ADDAA106000091GF107991061051008001031001KA1240N+02241MA1999999099911MD1999999+0091REMSYN076AAXX  08124 82678 32596 70501 10260 20229 39991 40150 86530 333 20224 58009;EQDQ01  00002PRCP06
0208826780999992003030900004-06770-043020FM-12+013899999V0209999C000012200019N0002001N1+02721+02281101141ADDAA106000091GA1001+999999999GF100991001001999999001001KA1240M+03311MA1999999099561MD1999999-0081REMSYN082AAXX  09004 82678 32992 00000 10272 20228 39956 40114 333 10331 29075 55082 59008;EQDQ01  00002PRCP06
0202826780999992003030912004-06770-043020FM-12+013899999V0203601N001019999999N0040001N1+02721+02371101421ADDAA106000091GF106991999021017501001001KA1240N+02261MA1999999099871MD1999999-0041REMSYN076AAXX  09124 82678 32796 63602 10272 20237 39987 40142 83200 333 20226 59004;EQDQ01+000032SCOTLCQ02  00002PRCP06
0167826780999992003030918004-06770-043020FM-12+013899999V0203601N002110075019N0040001N1+03301+02271101091ADDAA106000091GF105991051021008001001001MA1999999099531MD1999999-0041REMSYN070AAXX  09184 82678 32596 53604 10330 20227 39953 40109 85200 333 59004;EQDQ01  00002PRCP06
0208826780999992003031000004-06770-043020FM-12+013899999V0203201N000512200019N0020001N1+02781+02251101241ADDAA106000091GA1001+999999999GF100991001001999999001001KA1240M+03361MA1999999099671MD1999999+0111REMSYN082AAXX  10004 82678 32995 03201 10278 20225 39967 40124 333 10336 29070 55090 58011;EQDQ01  00002PRCP06
0186826780999992003031012004-06770-043020FM-12+013899999V0203201N001510075019N0040001N1+02621+02311101481ADDAA106000091GF106991061051008001001001KA1240N+02301MA1999999099901MD1999999+0061REMSYN076AAXX  10124 82678 32596 63203 10262 20231 39990 40148 86500 333 20230 58006;EQDQ01  00002PRCP06
0167826780999992003031018004-06770-043020FM-12+013899999V0203201N000511050019N0040001N1+03251+02251101001ADDAA106000091GF105991021021008001041011MA1999999099441MD1999999-0091REMSYN070AAXX  10184 82678 32596 53201 10325 20225 39944 40100 82241 333 59009;EQDQ01  00002PRCP06
0202826780999992003031100004-06770-043020FM-12+013899999V0200901N000510075019N0002001N1+02541+02491101251ADDAY161061AY221061GF108991061051008001031999KA1240M+03311MA1999999099671MD1999999+0001MW1031REMSYN100AAXX  11004 82678 21592 80901 10254 20249 39967 40125 70362 8653/ 333 10331 29083 55065 58000 60051;
0162826780999992003031112004-06770-043020FM-12+013899999V0200501N001010075019N0040001N1+02541+02361101521ADDGF108991081051008001001001KA1240N+02261MA1999999099931MD1999999+0001REMSYN082AAXX  11124 82678 22596 80502 10254 20236 39993 40152 88500 333 20226 58000 60054;
0167826780999992003031118004-06770-043020FM-12+013899999V0203201N001012200019N0040001N1+03041+02401101061ADDAA106000091GF104991021021008001001011MA1999999099491MD1999999+0051REMSYN070AAXX  11184 82678 32596 43202 10304 20240 39949 40106 82201 333 58005;EQDQ01  00002PRCP06
0214826780999992003031200004-06770-043020FM-12+013899999V0209999C000012200019N0002001N1+02741+02451101191ADDAA106000091GF104991999021008001001001KA1240M+03291MA1999999099611MD1999999-0061REMSYN088AAXX  12004 82678 32592 40000 10274 20245 39961 40119 82200 333 10329 29081 55045 59006;EQDQ01+000022SCOTLCQ02  00002PRCP06
0172826780999992003031212004-06770-043020FM-12+013899999V0203601N001010075019N0040001N1+02621+02311101531ADDAA106000091GF108991081051008001999999KA1240N+02401MA1999999099951REMSYN076AAXX  12124 82678 32596 83602 10262 20231 39995 40153 885// 333 20240 58248;EQDQ01  00002PRCP06
0167826780999992003031218004-06770-043020FM-12+013899999V0203601N000510450019N0040001N1+03181+02361101101ADDAA106000091GF108991031051008001031011MA1999999099531MD1999999+0041REMSYN070AAXX  12184 82678 32596 83601 10318 20236 39953 40110 83531 333 58004;EQDQ01  00002PRCP06
0208826780999992003031300004-06770-043020FM-12+013899999V0209999C000012200019N0002001N1+02661+02441101141ADDAA106000091GA1001+999999999GF100991001001999999001001KA1240M+03241MA1999999099561MD1999999-0051REMSYN082AAXX  13004 82678 32992 00000 10266 20244 39956 40114 333 10324 29080 55070 59005;EQDQ01  00002PRCP06
0186826780999992003031312004-06770-043020FM-12+013899999V0200501N001010075019N0040001N1+02861+02391101401ADDAA106000091GF107991071051008001001001KA1240N+02401MA1999999099831MD1999999-0121REMSYN076AAXX  13124 82678 32596 70502 10286 20239 39983 40140 87500 333 20240 59012;EQDQ01  00002PRCP06
0167826780999992003031318004-06770-043020FM-12+013899999V0203601N001011050019N0040001N1+03341+02311100971ADDAA106000091GF105991031021008001001021MA1999999099411MD1999999-0121REMSYN070AAXX  13184 82678 32596 53602 10334 20231 39941 40097 83202 333 59012;EQDQ01  00002PRCP06
0214826780999992003031400004-06770-043020FM-12+013899999V0201401N000510075019N0002001N1+02741+02451101141ADDAA106000091GF106991999021008001001001KA1240M+03411MA1999999099571MD1999999+0011REMSYN088AAXX  14004 82678 32592 61401 10274 20245 39957 40114 85200 333 10341 29075 55093 58001;EQDQ01+000052SCOTLCQ02  00002PRCP06
0190826780999992003031412004-06770-043020FM-12+013899999V0200901N000510075019N0040001N1+02571+02401101541ADDAY161061AY261061GF108991081051008001999999KA1240N+02421MA1999999099961MD1999999+0131MW1021REMSYN088AAXX  14124 82678 21596 80901 10257 20240 39996 40154 70266 885// 333 20242 58013 60074;
0171826780999992003031418004-06770-043020FM-12+013899999V0203201N001010450019N0040001N1+02681+02391101141ADDAY161061AY221061GF106991021011008001031021MA1999999099561MD1999999+0151MW1011REMSYN082AAXX  14184 82678 21596 63202 10268 20239 39956 40114 70162 82132 333 58015 60061;
0198826780999992003031500004-06770-043020FM-12+013899999V0201801N001010075019N0002001N1+02421+02231101201ADDAA106000091GF108991061051008001031999KA1240M+02911MA1999999099611MD1999999+0041REMSYN088AAXX  15004 82678 32592 81802 10242 20223 39961 40120 8653/ 333 10291 29088 55028 58004;EQDQ01  00002PRCP06
0190826780999992003031512004-06770-043020FM-12+013899999V0200901N000510075019N0040001N1+02471+02271101681ADDAY161061AY221061GF108991071051008001021999KA1240N+02231MA1999999100081MD1999999+0121MW1021REMSYN088AAXX  15124 82678 21596 80901 10247 20227 30008 40168 70262 8752/ 333 20223 58012 60054;
0171826780999992003031518004-06770-043020FM-12+013899999V0202301N001510120019N0040001N1+03031+02411101111ADDAY121061AY221061GF108991061081008001011021MA1999999099531MD1999999-0031MW1601REMSYN082AAXX  15184 82678 21596 82303 10303 20241 39953 40111 76022 86812 333 59003 69941;
0202826780999992003031600004-06770-043020FM-12+013899999V0209999C000010075019N0002001N1+02361+02281101371ADDAY161061AY291061GF108991081051008001999999KA1240M+03091MA1999999099771MD1999999+0161MW1021REMSYN100AAXX  16004 82678 21592 80000 10236 20228 39977 40137 70269 885// 333 10309 29086 55024 58016 69931;
0190826780999992003031612004-06770-043020FM-12+013899999V0201401N001010075019N0040001N1+02261+02181101671ADDAY161061AY221061GF108991061051008001999999KA1240N+02181MA1999999100061MD1999999-0021MW1911REMSYN088AAXX  16124 82678 21596 81402 10226 20218 30006 40167 79162 865// 333 20218 59002 60124;
0171826780999992003031618004-06770-043020FM-12+013899999V0203201N001012200019N0040001N1+02861+02311101231ADDAY161061AY221061GF103991021021008001001011MA1999999099651MD1999999-0121MW1011REMSYN082AAXX  16184 82678 21596 33202 10286 20231 39965 40123 70162 82201 333 59012 60011;
0198826780999992003031700004-06770-043020FM-12+013899999V0202701N001012200019N0002001N1+02581+02371101481ADDAA106000091GF104991001001999999001021KA1240M+03111MA1999999099881MD1999999+0111REMSYN088AAXX  17004 82678 32992 42702 10258 20237 39988 40148 80002 333 10311 29086 55043 58011;EQDQ01  00002PRCP06
0190826780999992003031712004-06770-043020FM-12+013899999V0200901N001010075019N0040001N1+02641+02161101601ADDAY161061AY221061GF108991051051008001021001KA1240N+02181MA1999999100011MD1999999-0051MW1021REMSYN088AAXX  17124 82678 21596 80902 10264 20216 30001 40160 70262 85520 333 20218 59005 60094;
0167826780999992003031718004-06770-043020FM-12+013899999V0201401N001010450019N0040001N1+02921+02241101131ADDAA106000091GF105991031011008001031021MA1999999099551MD1999999-0101REMSYN070AAXX  17184 82678 32596 51402 10292 20224 39955 40113 83132 333 59010;EQDQ01  00002PRCP06
0208826780999992003031800004-06770-043020FM-12+013899999V0209999C000012200019N0002001N1+02501+02401101321ADDAA106000091GA1001+999999999GF100991001001999999001001KA1240M+03071MA1999999099731MD1999999-0051REMSYN082AAXX  18004 82678 32992 00000 10250 20240 39973 40132 333 10307 29082 55039 59005;EQDQ01  00002PRCP06
0190826780999992003031812004-06770-043020FM-12+013899999V0200501N001010075019N0040001N1+02541+02381101531ADDAY161061AY211061GF108991051051008001031011KA1240N+02281MA1999999099941MD1999999-0071MW1021REMSYN088AAXX  18124 82678 21596 80502 10254 20238 39994 40153 70261 85531 333 20228 59007 60024;
0167826780999992003031818004-06770-043020FM-12+013899999V0200501N001012200019N0040001N1+03181+02191101041ADDAA106000091GF104991021021008001001021MA1999999099471MD1999999-0081REMSYN070AAXX  18184 82678 32596 40502 10318 20219 39947 40104 82202 333 59008;EQDQ01  00002PRCP06
0190826780999992003031912004-06770-043020FM-12+013899999V0200901N001010075019N0040001N1+02481+02341101591ADDAY161061AY221061GF108991081051008001999999KA1240N+02361MA1999999100001MD1999999+0061MW1031REMSYN088AAXX  19124 82678 21596 80902 10248 20234 30000 40159 70362 885// 333 20236 58006 60034;
0167826780999992003031918004-06770-043020FM-12+013899999V0200501N000510075019N0040001N1+02961+02451101281ADDAA106000091GF108991071051008001001021MA1999999099701MD1999999+0231REMSYN070AAXX  19184 82678 32596 80501 10296 20245 39970 40128 87502 333 58023;EQDQ01  00002PRCP06
0198826780999992003032000004-06770-043020FM-12+013899999V0202301N001010450019N0002001N1+02601+02401101451ADDAA106000091GF108991041051008001031021KA1240M+03091MA1999999099861MD1999999+0051REMSYN088AAXX  20004 82678 32592 82302 10260 20240 39986 40145 84532 333 10309 29086 55030 58005;EQDQ01  00002PRCP06
0186826780999992003032012004-06770-043020FM-12+013899999V0201401N001010075019N0040001N1+02471+02281101781ADDAA106000091GF108991081051008001999999KA1240N+02271MA1999999100191MD1999999+0191REMSYN076AAXX  20124 82678 32596 81402 10247 20228 30019 40178 885// 333 20227 58019;EQDQ01  00002PRCP06
0167826780999992003032018004-06770-043020FM-12+013899999V0200501N000510075019N0040001N1+02701+02301101391ADDAA106000091GF108991071051008001021999MA1999999099801MD1999999+0101REMSYN070AAXX  20184 82678 32596 80501 10270 20230 39980 40139 8752/ 333 58010;EQDQ01  00002PRCP06
0198826780999992003032100004-06770-043020FM-12+013899999V0200501N000511050019N0002001N1+02501+02311101611ADDAA106000091GF105991031001017501031021KA1240M+02851MA1999999100021MD1999999+0161REMSYN088AAXX  21004 82678 32792 50501 10250 20231 30002 40161 83032 333 10285 29017 55005 58016;EQDQ01  00002PRCP06
0186826780999992003032112004-06770-043020FM-12+013899999V0200501N001510075019N0040001N1+02701+02301101611ADDAA106000091GF105991051021008001001001KA1240N+02281MA1999999100021MD1999999-0171REMSYN076AAXX  21124 82678 32596 50503 10270 20230 30002 40161 85200 333 20228 59017;EQDQ01  00002PRCP06
0167826780999992003032118004-06770-043020FM-12+013899999V0200501N001511050019N0040001N1+03251+02221101011ADDAA106000091GF105991031021008001001021MA1999999099441MD1999999-0361REMSYN070AAXX  21184 82678 32596 50503 10325 20222 39944 40101 83202 333 59036;EQDQ01  00002PRCP06
0186826780999992003032812004-06770-043020FM-12+013899999V0200901N001510075019N0040001N1+02741+02401101551ADDAA106000091GF108991051041008001011011KA1240N+02331MA1999999099971MD1999999+0071REMSYN076AAXX  28124 82678 32596 80903 10274 20240 39997 40155 85411 333 20233 58007;EQDQ01  00002PRCP06
0167826780999992003032818004-06770-043020FM-12+013899999V0201401N003112200019N0040001N1+03301+02211101171ADDAA106000091GF106991041021008001001011MA1999999099601MD1999999+0041REMSYN070AAXX  28184 82678 32596 61406 10330 20221 39960 40117 84201 333 58004;EQDQ01  00002PRCP06
0202826780999992003032912004-06770-043020FM-12+013899999V0209999C000010075019N0040001N1+02761+02381101481ADDAA106000091GF108991999021008001001001KA1240N+02401MA1999999099901MD1999999-0071REMSYN076AAXX  29124 82678 32596 80000 10276 20238 39990 40148 85200 333 20240 59007;EQDQ01+000052SCOTLCQ02  00002PRCP06
0183826780999992003032918004-06770-043020FM-12+013899999V0203201N001010075019N0040001N1+03161+02321101061ADDAA106000091GF108991999021008001001001MA1999999099491MD1999999-0111REMSYN070AAXX  29184 82678 32596 83202 10316 20232 39949 40106 85200 333 59011;EQDQ01+000052SCOTLCQ02  00002PRCP06
0208826780999992003033000004-06770-043020FM-12+013899999V0209999C000012200019N0002001N1+02661+02501101331ADDAA106000091GA1001+999999999GF100991001001999999001001KA1240M+03231MA1999999099751MD1999999-0021REMSYN082AAXX  30004 82678 32992 00000 10266 20250 39975 40133 333 10323 29081 55058 59002;EQDQ01  00002PRCP06
0186826780999992003033012004-06770-043020FM-12+013899999V0201401N001010075019N0040001N1+02601+02251101491ADDAA106000091GF108991051021008001001011KA1240N+02251MA1999999099911MD1999999+0011REMSYN076AAXX  30124 82678 32596 81402 10260 20225 39991 40149 85201 333 20225 58001;EQDQ01  00002PRCP06
0202826780999992003033100004-06770-043020FM-12+013899999V0209999C000010075019N0002001N1+02501+02361101201ADDAY161061AY211061GF108991081051008001999999KA1240M+03421MA1999999099621MD1999999-0131MW1021REMSYN100AAXX  31004 82678 21592 80000 10250 20236 39962 40120 70261 885// 333 10342 29080 55065 59013 60021;
0190826780999992003033112004-06770-043020FM-12+013899999V0200501N000510075019N0040001N1+02521+02381101391ADDAY161061AY221061GF108991061051008001021999KA1240N+02301MA1999999099801MD1999999-0111MW1611REMSYN088AAXX  31124 82678 21596 80501 10252 20238 39980 40139 76162 8652/ 333 20230 59011 60054;
0171826780999992003033118004-06770-043020FM-12+013899999V0200901N000510075019N0040001N1+03001+02371100971ADDAY161061AY221061GF108991051051008001071021MA1999999099401MD1999999+0011MW1021REMSYN082AAXX  31184 82678 21596 80901 10300 20237 39940 40097 70262 85572 333 58001 69931;
0202826780999992003040100004-06770-043020FM-12+013899999V0209999C000010075019N0002001N1+02621+02461101231ADDAY161061AY221061GF105991051051008001001001KA1240M+03081MA1999999099651MD1999999+0031MW1011REMSYN100AAXX  01004 82678 21592 50000 10262 20246 39965 40123 70162 85500 333 10308 29086 55011 58003 60051;
0162826780999992003040112004-06770-043020FM-12+013899999V0200901N000510075019N0040001N1+02601+02391101551ADDGF108991071051008001031999KA1240N+02381MA1999999099961MD1999999+0161REMSYN082AAXX  01124 82678 22596 80901 10260 20239 39996 40155 8753/ 333 20238 58016 60064;
0171826780999992003040118004-06770-043020FM-12+013899999V0200501N003110075019N0040001N1+02961+02421101121ADDAY161061AY291061GF108991061051008001021999MA1999999099551MD1999999+0151MW1031REMSYN082AAXX  01184 82678 21596 80506 10296 20242 39955 40112 70369 8652/ 333 58015 60011;
0202826780999992003040200004-06770-043020FM-12+013899999V0202301N000510075019N0002001N1+02461+02411101361ADDAY161061AY221061GF108991061051008001021999KA1240M+03111MA1999999099771MD1999999+0121MW1021REMSYN100AAXX  02004 82678 21592 82301 10246 20241 39977 40136 70262 8652/ 333 10311 29089 55026 58012 69921;
0162826780999992003040212004-06770-043020FM-12+013899999V0201401N001010075019N0040001N1+02571+02351101681ADDGF108991051071008001021011KA1240N+02311MA1999999100081MD1999999+0121REMSYN082AAXX  02124 82678 22596 81402 10257 20235 30008 40168 85721 333 20231 58012 60024;
0167826780999992003040218004-06770-043020FM-12+013899999V0201401N001510450019N0040001N1+03201+02271101181ADDAA106000091GF106991041051008001031021MA1999999099611MD1999999+0061REMSYN070AAXX  02184 82678 32596 61403 10320 20227 39961 40118 84532 333 58006;EQDQ01  00002PRCP06
0208826780999992003040300004-06770-043020FM-12+013899999V0201401N000512200019N0020001N1+02641+02421101411ADDAA106000091GA1001+999999999GF100991001001999999001001KA1240M+03261MA1999999099851MD1999999+0061REMSYN082AAXX  03004 82678 32695 01401 10264 20242 39985 40141 333 10326 29080 55066 58006;EQDQ01  00002PRCP06
0186826780999992003040312004-06770-043020FM-12+013899999V0200901N001012200019N0040001N1+02871+02351101461ADDAA106000091GF105991031021008001001011KA1240N+02381MA1999999099881MD1999999-0201REMSYN076AAXX  03124 82678 32596 50902 10287 20235 39988 40146 83201 333 20238 59020;EQDQ01  00002PRCP06
0167826780999992003040318004-06770-043020FM-12+013899999V0201401N001510450019N0040001N1+03281+02291101001ADDAA106000091GF107991041081008001021011MA1999999099441MD1999999-0171REMSYN070AAXX  03184 82678 32596 71403 10328 20229 39944 40100 84821 333 59017;EQDQ01  00002PRCP06
0198826780999992003040400004-06770-043020FM-12+013899999V0200501N001012200019N0002001N1+02621+02371101241ADDAA106000091GF103991031041008001001001KA1240M+03341MA1999999099671MD1999999-0161REMSYN088AAXX  04004 82678 32592 30502 10262 20237 39967 40124 83400 333 10334 29076 55095 59016;EQDQ01  00002PRCP06
0196826780999992003040412004-06770-043020FM-12+013899999V0209999C000012200019N0040001N1+02901+02431101401ADDAA106000091GA1001+999999999GF100991001001999999001001KA1240N+02361MA1999999099831MD1999999-0051REMSYN070AAXX  04124 82678 32796 00000 10290 20243 39983 40140 333 20236 59005;EQDQ01  00002PRCP06
0167826780999992003040418004-06770-043020FM-12+013899999V0201401N001512200019N0040001N1+03341+02281100911ADDAA106000091GF104991021021008001001011MA1999999099351MD1999999-0091REMSYN070AAXX  04184 82678 32596 41403 10334 20228 39935 40091 82201 333 59009;EQDQ01  00002PRCP06
0208826780999992003040500004-06770-043020FM-12+013899999V0209999C000012200019N0002001N1+02661+02431101121ADDAA106000091GA1001+999999999GF100991001001999999001001KA1240M+03421MA1999999099551MD1999999-0121REMSYN082AAXX  05004 82678 32992 00000 10266 20243 39955 40112 333 10342 29076 55103 59012;EQDQ01  00002PRCP06
0186826780999992003040512004-06770-043020FM-12+013899999V0203601N001512200019N0040001N1+02721+02321101531ADDAA106000091GF104991031021008001001011KA1240N+02321MA1999999099951MD1999999+0121REMSYN076AAXX  05124 82678 32596 43603 10272 20232 39995 40153 83201 333 20232 58012;EQDQ01  00002PRCP06
0167826780999992003040518004-06770-043020FM-12+013899999V0200501N001011050019N0040001N1+03321+02321101031ADDAA106000091GF105991041021008001001021MA1999999099471MD1999999+0121REMSYN070AAXX  05184 82678 32596 50502 10332 20232 39947 40103 84202 333 58012;EQDQ01  00002PRCP06
0186826780999992003040612004-06770-043020FM-12+013899999V0203201N001010075019N0040001N1+02721+02371101431ADDAA106000091GF106991061021008001001001KA1240N+02401MA1999999099851MD1999999-0101REMSYN076AAXX  06124 82678 32596 63202 10272 20237 39985 40143 86200 333 20240 59010;EQDQ01  00002PRCP06
0171826780999992003040618004-06770-043020FM-12+013899999V0203601N000510075019N0040001N1+03201+02331100971ADDAY161061AY221061GF105991051051008001001001MA1999999099411MD1999999-0061MW1011REMSYN082AAXX  06184 82678 21596 53601 10320 20233 39941 40097 70162 85500 333 59006 60101;
0208826780999992003040700004-06770-043020FM-12+013899999V0209999C000012200019N0002001N1+02721+02391101201ADDAA106000091GA1001+999999999GF100991001001999999001001KA1240M+03311MA1999999099631MD1999999-0011REMSYN082AAXX  07004 82678 32992 00000 10272 20239 39963 40120 333 10331 29076 55056 59001;EQDQ01  00002PRCP06
0162826780999992003040712004-06770-043020FM-12+013899999V0203601N000510075019N0040001N1+02621+02371101371ADDGF107991071051008001001001KA1240N+02381MA1999999099791MD1999999-0061REMSYN082AAXX  07124 82678 22596 73601 10262 20237 39979 40137 87500 333 20238 59006 60104;
0208826780999992003040718004-06770-043020FM-12+013899999V0203601N000519999999N0040001N1+03161+02321999999ADDAY101061AY221061GF106991999001008001011011MA1999999099301MW1451REMSYN082AAXX  07184 82678 21596 63601 10316 20232 39930 40262 74502 89011 333 59921 69921;EQDQ01+000092SCOTLCQ02+102623APOSLPQ03 102623APOSLP
0198826780999992003040800004-06770-043020FM-12+013899999V0209999C000010450019N0002001N1+02761+02541101101ADDAA106000091GF106991031051008001031001KA1240M+03291MA1999999099531MD1999999-0101REMSYN088AAXX  08004 82678 32592 60000 10276 20254 39953 40110 83530 333 10329 29081 55055 59010;EQDQ01  00002PRCP06
0190826780999992003040812004-06770-043020FM-12+013899999V0203601N001010075019N0040001N1+02631+02371101411ADDAY161061AY221061GF108991081051008001999999KA1240N+02421MA1999999099831MD1999999+0041MW1021REMSYN088AAXX  08124 82678 21596 83602 10263 20237 39983 40141 70262 885// 333 20242 58004 69954;
0167826780999992003040818004-06770-043020FM-12+013899999V0201801N001510120019N0040001N1+03101+02411100921ADDAA106000091GF108991061081008001001021MA1999999099361MD1999999+0061REMSYN070AAXX  08184 82678 32596 81803 10310 20241 39936 40092 86802 333 58006;EQDQ01  00002PRCP06
0202826780999992003040900004-06770-043020FM-12+013899999V0201401N000510450019N0002001N1+02541+02381101301ADDAY121061AY261061GF106991021031008001031021KA1240M+03191MA1999999099721MD1999999+0191MW1021REMSYN100AAXX  09004 82678 21592 61401 10254 20238 39972 40130 70226 82332 333 10319 29084 55032 58019 60011;
0162826780999992003040912004-06770-043020FM-12+013899999V0200501N001510075019N0040001N1+02651+02331101531ADDGF108991051041008001031021KA1240N+02281MA1999999099941MD1999999+0111REMSYN082AAXX  09124 82678 22596 80503 10265 20233 39994 40153 85432 333 20228 58011 60014;
0167826780999992003040918004-06770-043020FM-12+013899999V0200501N001010075019N0040001N1+03221+02291101061ADDAA106000091GF108991061021008001001011MA1999999099491MD1999999+0131REMSYN070AAXX  09184 82678 32596 80502 10322 20229 39949 40106 86201 333 58013;EQDQ01  00002PRCP06
0221826780999992003041000004-06770-043020FM-12+013899999V0201401N001519999999N0002001N1+02361+02221101491ADDAY161061AY221061GF106991999051008001001001KA1240M+03321MA1999999099901MD1999999+0181MW1291REMSYN100AAXX  10004 82678 21592 61403 10236 20222 39990 40149 72962 84500 333 10332 29081 55069 58018 60101;EQDQ01+000042SCOTLC
0162826780999992003041012004-06770-043020FM-12+013899999V0209999C000011050019N0040001N1+02601+02391101671ADDGF105991031031008001001021KA1240N+02161MA1999999100071MD1999999+0131REMSYN082AAXX  10124 82678 22596 50000 10260 20239 30007 40167 83302 333 20216 58013 60104;
0167826780999992003041018004-06770-043020FM-12+013899999V0201401N001511050019N0040001N1+03201+02271101171ADDAA106000091GF105991041021008001001021MA1999999099601MD1999999+0111REMSYN070AAXX  10184 82678 32596 51403 10320 20227 39960 40117 84202 333 58011;EQDQ01  00002PRCP06
0214826780999992003041100004-06770-043020FM-12+013899999V0209999C000019999999N0040001N1+02661+02131101371ADDAA106000091GF105991999051008001001001KA1240M+03331MA1999999099791MD1999999-0111REMSYN088AAXX  11004 82678 32596 50000 10266 20213 39979 40137 84500 333 10333 29080 55081 59011;EQDQ01+000042SCOTLCQ02  00002PRCP06
0186826780999992003041112004-06770-043020FM-12+013899999V0209999C000010075019N0040001N1+02781+02361101591ADDAA106000091GF108991051051008001001011KA1240N+02341MA1999999100011MD1999999-0061REMSYN076AAXX  11124 82678 32596 80000 10278 20236 30001 40159 85501 333 20234 59006;EQDQ01  00002PRCP06
0167826780999992003041118004-06770-043020FM-12+013899999V0200501N001011050019N0040001N1+03301+02331101121ADDAA106000091GF108991041021008001001021MA1999999099551MD1999999-0051REMSYN070AAXX  11184 82678 32596 80502 10330 20233 39955 40112 84202 333 59005;EQDQ01  00002PRCP06
0208826780999992003041200004-06770-043020FM-12+013899999V0209999C000012200019N0002001N1+02661+02431101351ADDAA106000091GA1001+999999999GF100991001001999999001001KA1240M+03361MA1999999099771MD1999999-0021REMSYN082AAXX  12004 82678 32992 00000 10266 20243 39977 40135 333 10336 29077 55076 59002;EQDQ01  00002PRCP06
0183826780999992003041218004-06770-043020FM-12+013899999V0200501N000519999999N0040001N1+03381+02351101171ADDAA106000091GF106991999021008001001001MA1999999099611MD1999999+0061REMSYN070AAXX  12184 82678 32596 60501 10338 20235 39961 40117 84200 333 58006;EQDQ01+000042SCOTLCQ02  00002PRCP06
0198826780999992003041300004-06770-043020FM-12+013899999V0200501N000519999999N0002001N1+02681+02461101431ADDAA106000091GF106991001001999999001021KA1240M+03491MA1999999099851MD1999999+0081REMSYN088AAXX  13004 82678 32992 60501 10268 20246 39985 40143 80002 333 10349 29077 55091 58008;EQDQ01  00002PRCP06
0167826780999992003041318004-06770-043020FM-12+013899999V0201801N000510075019N0040001N1+03241+02361101271ADDAA106000091GF107991051051008001001021MA1999999099701MD1999999+0091REMSYN070AAXX  13184 82678 32596 71801 10324 20236 39970 40127 85502 333 58009;EQDQ01  00002PRCP06
0198826780999992003041400004-06770-043020FM-12+013899999V0200501N001012200019N0002001N1+02721+02451101561ADDAA106000091GF104991031051008001001011KA1240M+03391MA1999999099981MD1999999+0131REMSYN088AAXX  14004 82678 32592 40502 10272 20245 39998 40156 83501 333 10339 29077 55080 58013;EQDQ01  00002PRCP06
0190826780999992003041412004-06770-043020FM-12+013899999V0200901N001510075019N0040001N1+02661+02391101801ADDAY161061AY261061GF108991081071008001999999KA1240N+02231MA1999999100221MD1999999+0111MW1021REMSYN088AAXX  14124 82678 21596 80903 10266 20239 30022 40180 70266 887// 333 20223 58011 60524;
0190826780999992003041512004-06770-043020FM-12+013899999V0201401N003110120019N0040001N1+02621+02311101651ADDAY141061AY221061GF108991051081008001021021KA1240N+02331MA1999999100061MD1999999-0161MW1621REMSYN088AAXX  15124 82678 21596 81406 10262 20231 30006 40165 76242 85822 333 20233 59016 69924;
0148826780999992003041518004-06770-043020FM-12+013899999V0200901N002610450019N0040001N1+03321+02231101171ADDAA106000021GF106991031021008001011011MA1999999099601MD1999999-0151REMSYN070AAXX  15184 82678 32596 60905 10332 20223 39960 40117 83211 333 59015;
0198826780999992003041600004-06770-043020FM-12+013899999V0209999C000012200019N0002001N1+02521+02361101421ADDAA106000091GF104991001001999999001021KA1240M+03311MA1999999099831MD1999999-0131REMSYN088AAXX  16004 82678 32992 40000 10252 20236 39983 40142 80002 333 10331 29080 55078 59013;EQDQ01  00002PRCP06
0190826780999992003041612004-06770-043020FM-12+013899999V0209999C000010075019N0040001N1+02421+02391101681ADDAY161061AY211061GF108991081071008001999999KA1240N+02221MA1999999100081MD1999999+0021MW1021REMSYN088AAXX  16124 82678 21596 80000 10242 20239 30008 40168 70261 887// 333 20222 58002 69984;
0167826780999992003041618004-06770-043020FM-12+013899999V0201401N001512200019N0040001N1+03241+02191101101ADDAA106000091GF103991021021008001001011MA1999999099531MD1999999-0071REMSYN070AAXX  16184 82678 32596 31403 10324 20219 39953 40110 82201 333 59007;EQDQ01  00002PRCP06
0208826780999992003041700004-06770-043020FM-12+013899999V0209999C000012200019N0002001N1+02581+02381101341ADDAA106000091GA1001+999999999GF100991001001999999001001KA1240M+03321MA1999999099751MD1999999-0081REMSYN082AAXX  17004 82678 32592 00000 10258 20238 39975 40134 333 10332 29082 55078 59008;EQDQ01  00002PRCP06
0186826780999992003041712004-06770-043020FM-12+013899999V0209999C000010075019N0040001N1+02621+02291101681ADDAA106000091GF108991051031008001001021KA1240N+02321MA1999999100091MD1999999+0011REMSYN076AAXX  17124 82678 32596 80000 10262 20229 30009 40168 85302 333 20232 58001;EQDQ01  00002PRCP06
0208826780999992003041800004-06770-043020FM-12+013899999V0209999C000012200019N0002001N1+02601+02331101271ADDAA106000091GA1001+999999999GF100991001001999999001001KA1240M+03291MA1999999099691MD1999999-0061REMSYN082AAXX  18004 82678 32992 00000 10260 20233 39969 40127 333 10329 29077 55089 59006;EQDQ01  00002PRCP06
0186826780999992003041812004-06770-043020FM-12+013899999V0202701N001010450019N0040001N1+02681+02391101551ADDAA106000091GF106991041051008001031001KA1240N+02221MA1999999099971MD1999999-0121REMSYN076AAXX  18124 82678 32596 62702 10268 20239 39997 40155 84530 333 20222 59012;EQDQ01  00002PRCP06
0167826780999992003041818004-06770-043020FM-12+013899999V0200901N001510075019N0040001N1+03261+02181101201ADDAA106000091GF105991051021008001001001MA1999999099631MD1999999+0041REMSYN070AAXX  18184 82678 32596 50903 10326 20218 39963 40120 85200 333 58004;EQDQ01  00002PRCP06
0208826780999992003041900004-06770-043020FM-12+013899999V0200901N000512200019N0002001N1+02541+02381101351ADDAA106000091GA1001+999999999GF100991001001999999001001KA1240M+03301MA1999999099771MD1999999+0081REMSYN082AAXX  19004 82678 32992 00901 10254 20238 39977 40135 333 10330 29080 55093 58008;EQDQ01  00002PRCP06
0186826780999992003041912004-06770-043020FM-12+013899999V0200901N002610450019N0040001N1+02821+02151101581ADDAA106000091GF105991031051008001031011KA1240N+02201MA1999999100001MD1999999+0031REMSYN076AAXX  19124 82678 32596 50905 10282 20215 30000 40158 83531 333 20220 58003;EQDQ01  00002PRCP06
0167826780999992003041918004-06770-043020FM-12+013899999V0201401N001512200019N0040001N1+03261+02151101251ADDAA106000091GF103991031021008001001001MA1999999099681MD1999999+0051REMSYN070AAXX  19184 82678 32596 31403 10326 20215 39968 40125 83200 333 58005;EQDQ01  00002PRCP06
0208826780999992003042000004-06770-043020FM-12+013899999V0209999C000012200019N0002001N1+02541+02291101291ADDAA106000091GA1001+999999999GF100991001001999999001001KA1240M+03291MA1999999099751MD1999999-0021REMSYN082AAXX  20004 82678 32992 00000 10254 20229 39975 40129 333 10329 29073 55102 59002;EQDQ01  00002PRCP06
0186826780999992003042012004-06770-043020FM-12+013899999V0201401N000511050019N0040001N1+02681+02241101531ADDAA106000091GF105991021021008001031011KA1240N+02121MA1999999099941MD1999999-0061REMSYN076AAXX  20124 82678 32596 51401 10268 20224 39994 40153 82231 333 20212 59006;EQDQ01  00002PRCP06
0167826780999992003042018004-06770-043020FM-12+013899999V0200901N001512200019N0040001N1+03181+02161101041ADDAA106000091GF105991041021008001001011MA1999999099461MD1999999-0221REMSYN070AAXX  20184 82678 32596 50903 10318 20216 39946 40104 84201 333 59022;EQDQ01  00002PRCP06
0208826780999992003042100004-06770-043020FM-12+013899999V0200901N000512200019N0002001N1+02621+02351101141ADDAA106000091GA1001+999999999GF100991001001999999001001KA1240M+03331MA1999999099561MD1999999-0191REMSYN082AAXX  21004 82678 32992 00901 10262 20235 39956 40114 333 10333 29076 55100 59019;EQDQ01  00002PRCP06
0186826780999992003042112004-06770-043020FM-12+013899999V0200901N004111050019N0040001N1+02881+01941101441ADDAA106000091GF105991021011008001031011KA1240N+02221MA1999999099861MD1999999-0011REMSYN076AAXX  21124 82678 32596 50908 10288 20194 39986 40144 82131 333 20222 59001;EQDQ01  00002PRCP06
0167826780999992003042118004-06770-043020FM-12+013899999V0201401N003612200019N0040001N1+03261+02081101101ADDAA106000091GF104991031021008001001011MA1999999099531MD1999999+0071REMSYN070AAXX  21184 82678 32596 41407 10326 20208 39953 40110 83201 333 58007;EQDQ01  00002PRCP06
0208826780999992003042200004-06770-043020FM-12+013899999V0209999C000012200019N0002001N1+02621+02371101231ADDAA106000091GA1001+999999999GF100991001001999999001001KA1240M+03331MA1999999099661MD1999999+0101REMSYN082AAXX  22004 82678 32992 00000 10262 20237 39966 40123 333 10333 29070 55108 58010;EQDQ01  00002PRCP06
0196826780999992003042212004-06770-043020FM-12+013899999V0201401N002112200019N0040001N1+02841+01961101471ADDAA106000091GA1001+999999999GF100991001001999999001001KA1240N+02341MA1999999099891MD1999999+0031REMSYN070AAXX  22124 82678 32996 01404 10284 20196 39989 40147 333 20234 58003;EQDQ01  00002PRCP06
0167826780999992003042218004-06770-043020FM-12+013899999V0201401N001510075019N0040001N1+03161+02201101171ADDAA106000091GF108991051021008001001021MA1999999099601MD1999999+0071REMSYN070AAXX  22184 82678 32596 81403 10316 20220 39960 40117 85202 333 58007;EQDQ01  00002PRCP06
0208826780999992003042300004-06770-043020FM-12+013899999V0209999C000012200019N0002001N1+02641+02311101361ADDAA106000091GA1001+999999999GF100991001001999999001001KA1240M+03221MA1999999099791MD1999999+0131REMSYN082AAXX  23004 82678 32992 00000 10264 20231 39979 40136 333 10322 29070 55105 58013;EQDQ01  00002PRCP06
0186826780999992003042312004-06770-043020FM-12+013899999V0201401N005112200019N0040001N1+02841+01791101471ADDAA106000091GF103991021011008001001011KA1240N+02321MA1999999099891MD1999999+0001REMSYN076AAXX  23124 82678 32596 31410 10284 20179 39989 40147 82101 333 20232 58000;EQDQ01  00002PRCP06
0167826780999992003042318004-06770-043020FM-12+013899999V0201401N001511050019N0040001N1+03221+02141101141ADDAA106000091GF105991031021008001001021MA1999999099571MD1999999-0031REMSYN070AAXX  23184 82678 32596 51403 10322 20214 39957 40114 83202 333 59003;EQDQ01  00002PRCP06
0208826780999992003042400004-06770-043020FM-12+013899999V0201401N001012200019N0002001N1+02701+02171101331ADDAA106000091GA1001+999999999GF100991001001999999001001KA1240M+03381MA1999999099761MD1999999-0031REMSYN082AAXX  24004 82678 32992 01402 10270 20217 39976 40133 333 10338 29063 55104 59003;EQDQ01  00002PRCP06
0186826780999992003042412004-06770-043020FM-12+013899999V0201401N003110450019N0040001N1+02861+02111101521ADDAA106000091GF107991031051008001031011KA1240N+02321MA1999999099951MD1999999+0061REMSYN076AAXX  24124 82678 32596 71406 10286 20211 39995 40152 83531 333 20232 58006;EQDQ01  00002PRCP06
0167826780999992003042418004-06770-043020FM-12+013899999V0201401N002611050019N0040001N1+03301+02121101191ADDAA106000091GF105991031021008001001021MA1999999099621MD1999999+0051REMSYN070AAXX  24184 82678 32596 51405 10330 20212 39962 40119 83202 333 58005;EQDQ01  00002PRCP06
0208826780999992003042500004-06770-043020FM-12+013899999V0209999C000012200019N0002001N1+02621+02231101241ADDAA106000091GA1001+999999999GF100991001001999999001001KA1240M+03371MA1999999099671MD1999999-0091REMSYN082AAXX  25004 82678 32992 00000 10262 20223 39967 40124 333 10337 29068 55102 59009;EQDQ01  00002PRCP06
0186826780999992003042512004-06770-043020FM-12+013899999V0200901N003112200019N0040001N1+02861+01981101501ADDAA106000091GF102991011001017501031011KA1240N+02221MA1999999099921MD1999999-0031REMSYN076AAXX  25124 82678 32796 20906 10286 20198 39992 40150 81031 333 20222 59003;EQDQ01  00002PRCP06
0167826780999992003042518004-06770-043020FM-12+013899999V0201401N003110450019N0040001N1+03261+02021101191ADDAA106000091GF107991031011008001031021MA1999999099621MD1999999+0001REMSYN070AAXX  25184 82678 32596 71406 10326 20202 39962 40119 83132 333 58000;EQDQ01  00002PRCP06
0208826780999992003042600004-06770-043020FM-12+013899999V0209999C000012200019N0002001N1+02701+02261101371ADDAA106000091GA1001+999999999GF100991001001999999001001KA1240M+03311MA1999999099801MD1999999+0131REMSYN082AAXX  26004 82678 32992 00000 10270 20226 39980 40137 333 10331 29065 55071 58013;EQDQ01  00002PRCP06
0202826780999992003042612004-06770-043020FM-12+013899999V0203601N001019999999N0040001N1+02691+02221101611ADDAA106000091GF108991999021017501001001KA1240N+02231MA1999999100031MD1999999+0111REMSYN076AAXX  26124 82678 32796 83602 10269 20222 30003 40161 84200 333 20223 58011;EQDQ01+000042SCOTLCQ02  00002PRCP06
0183826780999992003042618004-06770-043020FM-12+013899999V0201401N001519999999N0040001N1+03261+02151101291ADDAA106000091GF106991999021008001001001MA1999999099721MD1999999+0101REMSYN070AAXX  26184 82678 32596 61403 10326 20215 39972 40129 83200 333 58010;EQDQ01+000032SCOTLCQ02  00002PRCP06
0214826780999992003042700004-06770-043020FM-12+013899999V0200501N001519999999N0002001N1+02501+02251101661ADDAA106000091GF108991999021008001001001KA1240M+03351MA1999999100071MD1999999+0271REMSYN088AAXX  27004 82678 32592 80503 10250 20225 30007 40166 84200 333 10335 29075 55073 58027;EQDQ01+000042SCOTLCQ02  00002PRCP06
0186826780999992003042712004-06770-043020FM-12+013899999V0202301N001010450019N0040001N1+02781+02361101691ADDAA106000091GF106991031021008001031001KA1240N+02321MA1999999100101MD1999999+0071REMSYN076AAXX  27124 82678 32596 62302 10278 20236 30010 40169 83230 333 20232 58007;EQDQ01  00002PRCP06
0167826780999992003042718004-06770-043020FM-12+013899999V0203601N001010450019N0040001N1+03001+02371101211ADDAA106000091GF108991041021008001021021MA1999999099631MD1999999-0091REMSYN070AAXX  27184 82678 32596 83602 10300 20237 39963 40121 84222 333 59009;EQDQ01  00002PRCP06
0198826780999992003042800004-06770-043020FM-12+013899999V0209999C000010075019N0002001N1+02671+02431101451ADDAA106000091GF108991081041008001999999KA1240M+03301MA1999999099871MD1999999-0201REMSYN088AAXX  28004 82678 32592 80000 10267 20243 39987 40145 884// 333 10330 29080 55046 59020;EQDQ01  00002PRCP06
0186826780999992003042812004-06770-043020FM-12+013899999V0209999C000010450019N0040001N1+02641+02271101471ADDAA106000091GF108991041021008001031011KA1240N+02341MA1999999099891MD1999999-0211REMSYN076AAXX  28124 82678 32596 80000 10264 20227 39989 40147 84231 333 20234 59021;EQDQ01  00002PRCP06
0163826780999992003042818004-06770-043020FM-12+013899999V0201401N001011050019N0040001N1+03221+02261101161ADDAA106000091GF105991031021008001001021MA1999999099591MD1810061+9999REMSYN066AAXX  28184 82678 32596 51402 10322 20226 39959 40116 58006 83202;EQDQ01  00002PRCP06
0214826780999992003042900004-06770-043020FM-12+013899999V0200501N001519999999N0005001N1+02621+02251101431ADDAA106000091GF105991999021008001001001KA1240M+03431MA1999999099851MD1999999-0021REMSYN088AAXX  29004 82678 32593 50503 10262 20225 39985 40143 86200 333 10343 29072 55077 59002;EQDQ01+000062SCOTLCQ02  00002PRCP06
0186826780999992003042912004-06770-043020FM-12+013899999V0209999C000012200019N0040001N1+02721+02281101661ADDAA106000091GF105991041021008001001011KA1240N+02281MA1999999100071MD1999999+0181REMSYN076AAXX  29124 82678 32596 50000 10272 20228 30007 40166 84201 333 20228 58018;EQDQ01  00002PRCP06
0171826780999992003042918004-06770-043020FM-12+013899999V0201401N001510075019N0040001N1+03261+02211101101ADDAY161061AY221061GF108991061051008001001031MA1999999099531MD1999999+0041MW1021REMSYN082AAXX  29184 82678 21596 81403 10326 20221 39953 40110 70262 86503 333 58004 69921;
0190826780999992003043012004-06770-043020FM-12+013899999V0209999C000010075019N0040001N1+02721+02471101691ADDAY161061AY221061GF107991071051008001001001KA1240N+02291MA1999999100111MD1999999+0041MW1031REMSYN088AAXX  30124 82678 21596 70000 10272 20247 30011 40169 70362 87500 333 20229 58004 60054;
0167826780999992003043018004-06770-043020FM-12+013899999V0200901N001510075019N0040001N1+03321+02171101231ADDAA106000091GF105991051021008001001001MA1999999099661MD1999999+0131REMSYN070AAXX  30184 82678 32596 50903 10332 20217 39966 40123 85200 333 58013;EQDQ01  00002PRCP06
0208826780999992003050100004-06770-043020FM-12+013899999V0209999C000012200019N0002001N1+02621+02411101371ADDAA106000091GA1001+999999999GF100991001001999999001001KA1240M+03401MA1999999099791MD1999999-0041REMSYN082AAXX  01004 82678 32992 00000 10262 20241 39979 40137 333 10340 29078 55088 59004;EQDQ01  00002PRCP06
0186826780999992003050112004-06770-043020FM-12+013899999V0203601N000512200019N0040001N1+02701+02171101701ADDAA106000091GF104991021051008001031001KA1240N+02291MA1999999100111MD1999999+0001REMSYN076AAXX  01124 82678 32596 43601 10270 20217 30011 40170 82530 333 20229 58000;EQDQ01  00002PRCP06
0171826780999992003050118004-06770-043020FM-12+013899999V0202701N000510075019N0040001N1+03281+02131101211ADDAY161061AY221061GF105991051051008001001001MA1999999099641MD1999999-0021MW1021REMSYN082AAXX  01184 82678 21596 52701 10328 20213 39964 40121 70262 85500 333 59002 60031;
0208826780999992003050200004-06770-043020FM-12+013899999V0200501N001012200019N0002001N1+02601+02351101421ADDAA106000091GA1001+999999999GF100991001001999999001001KA1240M+03401MA1999999099841MD1999999+0051REMSYN082AAXX  02004 82678 32592 00502 10260 20235 39984 40142 333 10340 29074 55071 58005;EQDQ01  00002PRCP06
0181826780999992003050212004-06770-043020FM-12+013899999V0200501N001012200019N0040001N1+02811+02361101591ADDGF103991999011008001001001KA1240N+02151MA1999999100011MD1999999-0101REMSYN082AAXX  02124 82678 22596 30502 10281 20236 30001 40159 82100 333 20215 59010 60034;EQDQ01+000022SCOTLC
0183826780999992003050218004-06770-043020FM-12+013899999V0203201N001510075019N0040001N1+03361+02241101081ADDAA106000091GF106991999021008001001001MA1999999099511MD1999999-0131REMSYN070AAXX  02184 82678 32596 63203 10336 20224 39951 40108 85200 333 59013;EQDQ01+000052SCOTLCQ02  00002PRCP06
0208826780999992003050300004-06770-043020FM-12+013899999V0200501N001012200019N0002001N1+02581+02211101321ADDAA106000091GA1001+999999999GF100991001001999999001001KA1240M+03461MA1999999099741MD1999999-0101REMSYN082AAXX  03004 82678 32992 00502 10258 20221 39974 40132 333 10346 29072 55096 59010;EQDQ01  00002PRCP06
0186826780999992003050312004-06770-043020FM-12+013899999V0203201N002610450019N0040001N1+02801+02341101531ADDAA106000091GF107991041081008001031001KA1240N+02331MA1999999099951MD1999999-0061REMSYN076AAXX  03124 82678 32596 73205 10280 20234 39995 40153 84830 333 20233 59006;EQDQ01  00002PRCP06
0167826780999992003050318004-06770-043020FM-12+013899999V0202301N003110120019N0040001N1+03201+02381101011ADDAA106000091GF107991051081008001031021MA1999999099431MD1999999-0061REMSYN070AAXX  03184 82678 32596 72306 10320 20238 39943 40101 85832 333 59006;EQDQ01  00002PRCP06
0208826780999992003050400004-06770-043020FM-12+013899999V0200901N000512200019N0002001N1+02541+02251101291ADDAA106000091GA1001+999999999GF100991001001999999001001KA1240M+03391MA1999999099711MD1999999-0031REMSYN082AAXX  04004 82678 32992 00901 10254 20225 39971 40129 333 10339 29076 55084 59003;EQDQ01  00002PRCP06
0209826780999992003050412004-06770-043020FM-12+013899999V0201401N001510075019N0040001N1+02281+02201101721ADDAY161061AY211061GF108991999021008001001001KA1240N+02181MA1999999100111MD1999999+0161MW1021REMSYN088AAXX  04124 82678 21596 81403 10228 20220 30011 40172 70261 86200 333 20218 58016 60134;EQDQ01+000062SCOTLC
0183826780999992003050418004-06770-043020FM-12+013899999V0201401N001512200019N0040001N1+03061+02081101141ADDAA106000091GF104991999021008001001001MA1999999099571MD1999999+0121REMSYN070AAXX  04184 82678 32596 41403 10306 20208 39957 40114 83200 333 58012;EQDQ01+000032SCOTLCQ02  00002PRCP06
0208826780999992003050500004-06770-043020FM-12+013899999V0209999C000012200019N0002001N1+02561+02361101481ADDAA106000091GA1001+999999999GF100991001001999999001001KA1240M+03131MA1999999099881MD1999999+0171REMSYN082AAXX  05004 82678 32992 00000 10256 20236 39988 40148 333 10313 29082 55046 58017;EQDQ01  00002PRCP06
0186826780999992003050512004-06770-043020FM-12+013899999V0201401N001510075019N0040001N1+02701+02261101691ADDAA106000091GF108991051031008001001021KA1240N+02391MA1999999100101MD1999999-0011REMSYN076AAXX  05124 82678 32596 81403 10270 20226 30010 40169 85302 333 20239 59001;EQDQ01  00002PRCP06
0171826780999992003050518004-06770-043020FM-12+013899999V0202301N000511050019N0040001N1+02781+02481101171ADDAY161061AY221061GF105991031021008001001021MA1999999099591MD1999999+0021MW1031REMSYN082AAXX  05184 82678 21596 52301 10278 20248 39959 40117 70362 83202 333 58002 69971;
0202826780999992003050600004-06770-043020FM-12+013899999V0209999C000010075019N0002001N1+02481+02381101431ADDAY161061AY211061GF108991081051008001999999KA1240M+03131MA1999999099851MD1999999-0031MW1021REMSYN100AAXX  06004 82678 21592 80000 10248 20238 39985 40143 70261 885// 333 10313 29087 55052 59003 69981;
0190826780999992003050612004-06770-043020FM-12+013899999V0200901N000519999999N0040001N1+02641+02331101611ADDAY161061AY221061GF108991051999008001999999KA1240N+02321MA1999999100021MD1999999-0081MW1031REMSYN088AAXX  06124 82678 21596 80901 10264 20233 30002 40161 70362 85/// 333 20232 59008 60094;
0167826780999992003050618004-06770-043020FM-12+013899999V0200901N001010450019N0040001N1+03001+02191101241ADDAA106000091GF107991041051008001031001MA1999999099661MD1999999+0071REMSYN070AAXX  06184 82678 32596 70902 10300 20219 39966 40124 84530 333 58007;EQDQ01  00002PRCP06
0208826780999992003050700004-06770-043020FM-12+013899999V0209999C000012200019N0002001N1+02501+02311101311ADDAA106000091GA1001+999999999GF100991001001999999001001KA1240M+03111MA1999999099721MD1999999-0131REMSYN082AAXX  07004 82678 32992 00000 10250 20231 39972 40131 333 10311 29081 55059 59013;EQDQ01  00002PRCP06
0186826780999992003050712004-06770-043020FM-12+013899999V0200501N000512200019N0040001N1+02661+02311101511ADDAA106000091GF102991011011008001001021KA1240N+02081MA1999999099921MD1999999-0101REMSYN076AAXX  07124 82678 32596 20501 10266 20231 39992 40151 81102 333 20208 59010;EQDQ01  00002PRCP06
0167826780999992003050718004-06770-043020FM-12+013899999V0202701N000510075019N0040001N1+03221+02081101181ADDAA106000091GF105991051051008001001001MA1999999099611MD1999999-0051REMSYN070AAXX  07184 82678 32596 52701 10322 20208 39961 40118 85500 333 59005;EQDQ01  00002PRCP06
0208826780999992003050800004-06770-043020FM-12+013899999V0209999C000012200019N0002001N1+02581+02331101331ADDAA106000091GA1001+999999999GF100991001001999999001001KA1240M+03291MA1999999099751MD1999999+0061REMSYN082AAXX  08004 82678 32992 00000 10258 20233 39975 40133 333 10329 29076 55094 58006;EQDQ01  00002PRCP06
0186826780999992003050812004-06770-043020FM-12+013899999V0202701N000512200019N0040001N1+02781+02301101511ADDAA106000091GF103991001001999999001011KA1240N+02161MA1999999099931MD1999999+0011REMSYN076AAXX  08124 82678 32996 32701 10278 20230 39993 40151 80001 333 20216 58001;EQDQ01  00002PRCP06
0167826780999992003050818004-06770-043020FM-12+013899999V0200901N003112200019N0040001N1+03361+02071101111ADDAA106000091GF106991031021008001001011MA1999999099541MD1999999-0071REMSYN070AAXX  08184 82678 32596 60906 10336 20207 39954 40111 83201 333 59007;EQDQ01  00002PRCP06
0208826780999992003050900004-06770-043020FM-12+013899999V0209999C000012200019N0002001N1+02641+02371101381ADDAA106000091GA1001+999999999GF100991001001999999001001KA1240M+03491MA1999999099811MD1999999+0061REMSYN082AAXX  09004 82678 32992 00000 10264 20237 39981 40138 333 10349 29073 55105 58006;EQDQ01  00002PRCP06
0186826780999992003050912004-06770-043020FM-12+013899999V0200501N001011050019N0040001N1+02801+02341101671ADDAA106000091GF105991021021008001041011KA1240N+02201MA1999999100091MD1999999+0161REMSYN076AAXX  09124 82678 32596 50502 10280 20234 30009 40167 82241 333 20220 58016;EQDQ01  00002PRCP06
0167826780999992003050918004-06770-043020FM-12+013899999V0200501N000512200019N0040001N1+03361+02141101131ADDAA106000091GF106991041021008001001011MA1999999099561MD1999999+0021REMSYN070AAXX  09184 82678 32596 60501 10336 20214 39956 40113 84201 333 58002;EQDQ01  00002PRCP06
0208826780999992003051000004-06770-043020FM-12+013899999V0202301N001012200019N0002001N1+02581+02211101401ADDAA106000091GA1001+999999999GF100991001001999999001001KA1240M+03481MA1999999099821MD1999999+0011REMSYN082AAXX  10004 82678 32992 02302 10258 20221 39982 40140 333 10348 29071 55101 58001;EQDQ01  00002PRCP06
0202826780999992003051012004-06770-043020FM-12+013899999V0200901N002119999999N0040001N1+02701+02371101651ADDAA106000091GF106991999021012501001001KA1240N+02301MA1999999100061MD1999999-0031REMSYN076AAXX  10124 82678 32696 60904 10270 20237 30006 40165 84200 333 20230 59003;EQDQ01+000042SCOTLCQ02  00002PRCP06
0183826780999992003051018004-06770-043020FM-12+013899999V0203601N001519999999N0040001N1+03341+02251101221ADDAA106000091GF105991999021008001001001MA1999999099651MD1999999+0091REMSYN070AAXX  10184 82678 32596 53603 10334 20225 39965 40122 83200 333 58009;EQDQ01+000032SCOTLCQ02  00002PRCP06
0212826780999992003051100004-06770-043020FM-12+013899999V0209999C000012200019N0002001N1+02441+02281101581ADDAY161061AY281061GA1001+999999999GF100991001001999999001001KA1240M+03431MA1999999099991MD1999999+0171MW1021REMSYN094AAXX  11004 82678 21992 00000 10244 20228 39999 40158 70268 333 10343 29079 55063 58017 69921;
0162826780999992003051112004-06770-043020FM-12+013899999V0201401N001512200019N0040001N1+02801+02081101821ADDGF103991031001008001001011KA1240N+02121MA1999999100231MD1999999+0171REMSYN082AAXX  11124 82678 22596 31403 10280 20208 30023 40182 83001 333 20212 58017 69924;
0167826780999992003051118004-06770-043020FM-12+013899999V0201401N002112200019N0040001N1+03261+02181101381ADDAA106000091GF104991021021008001001011MA1999999099841MD1999999+0151REMSYN070AAXX  11184 82678 32596 41404 10326 20218 39984 40138 82201 333 58015;EQDQ01  00002PRCP06
0208826780999992003051200004-06770-043020FM-12+013899999V0201401N001512200019N0002001N1+02661+02141101591ADDAA106000091GA1001+999999999GF100991001001999999001001KA1240M+03331MA1999999100011MD1999999-0051REMSYN082AAXX  12004 82678 32992 01403 10266 20214 30001 40159 333 10333 29066 55097 59005;EQDQ01  00002PRCP06
0186826780999992003051212004-06770-043020FM-12+013899999V0201401N005112200019N0040001N1+02761+02021101741ADDAA106000091GF102991021011008001001001KA1240N+02411MA1999999100161MD1999999-0071REMSYN076AAXX  12124 82678 32596 21410 10276 20202 30016 40174 82100 333 20241 59007;EQDQ01  00002PRCP06
0167826780999992003051218004-06770-043020FM-12+013899999V0201401N003111050019N0040001N1+03221+01981101401ADDAA106000091GF105991041051008001001021MA1999999099831MD1999999+0031REMSYN070AAXX  12184 82678 32596 51406 10322 20198 39983 40140 84502 333 58003;EQDQ01  00002PRCP06
0198826780999992003051300004-06770-043020FM-12+013899999V0201401N002619999999N0002001N1+02681+02201101551ADDAA106000091GF105991001001999999001021KA1240M+03311MA1999999099971MD1999999-0041REMSYN088AAXX  13004 82678 32992 51405 10268 20220 39997 40155 80002 333 10331 29066 55104 59004;EQDQ01  00002PRCP06
0186826780999992003051312004-06770-043020FM-12+013899999V0201401N004110075019N0040001N1+02761+02121101691ADDAA106000091GF105991051011008001001001KA1240N+02341MA1999999100111MD1999999-0051REMSYN076AAXX  13124 82678 32596 51408 10276 20212 30011 40169 85100 333 20234 59005;EQDQ01  00002PRCP06
0167826780999992003051318004-06770-043020FM-12+013899999V0201401N001510075019N0040001N1+03121+02171101301ADDAA106000091GF106991061051008001001001MA1999999099731MD1999999-0101REMSYN070AAXX  13184 82678 32596 61403 10312 20217 39973 40130 86500 333 59010;EQDQ01  00002PRCP06
0208826780999992003051400004-06770-043020FM-12+013899999V0209999C000012200019N0002001N1+02521+02191101461ADDAA106000091GA1001+999999999GF100991001001999999001001KA1240M+03291MA1999999099881MD1999999-0091REMSYN082AAXX  14004 82678 32992 00000 10252 20219 39988 40146 333 10329 29072 55091 59009;EQDQ01  00002PRCP06
0196826780999992003051412004-06770-043020FM-12+013899999V0200901N003612200019N0040001N1+02971+02071101581ADDAA106000091GA1001+999999999GF100991001001999999001001KA1240N+02101MA1999999100001MD1999999-0111REMSYN070AAXX  14124 82678 32996 00907 10297 20207 30000 40158 333 20210 59011;EQDQ01  00002PRCP06
0167826780999992003051418004-06770-043020FM-12+013899999V0200901N002610450019N0040001N1+03321+02001101141ADDAA106000091GF105991041021008001031001MA1999999099571MD1999999-0161REMSYN070AAXX  14184 82678 32596 50905 10332 20200 39957 40114 84230 333 59016;EQDQ01  00002PRCP06
0208826780999992003051500004-06770-043020FM-12+013899999V0209999C000012200019N0002001N1+02581+02191101391ADDAA106000091GA1001+999999999GF100991001001999999001001KA1240M+03431MA1999999099821MD1999999-0061REMSYN082AAXX  15004 82678 32992 00000 10258 20219 39982 40139 333 10343 29066 55102 59006;EQDQ01  00002PRCP06
0186826780999992003051512004-06770-043020FM-12+013899999V0202401N005112200019N0200001N1+02801+01841101631ADDAA106000091GF102991011001017501031011KA1240N+02101MA1999999100051MD1999999+0051REMSYN076AAXX  15124 82678 32798 22410 10280 20184 30005 40163 81031 333 20210 58005;EQDQ01  00002PRCP06
0167826780999992003051518004-06770-043020FM-12+013899999V0201401N003112200019N0040001N1+03301+02091101191ADDAA106000091GF104991021021008001001011MA1999999099631MD1999999+0061REMSYN070AAXX  15184 82678 32596 41406 10330 20209 39963 40119 82201 333 58006;EQDQ01  00002PRCP06
0198826780999992003051600004-06770-043020FM-12+013899999V0201801N000512200019N0002001N1+02561+02021101421ADDAA106000091GF101991011001017501031001KA1240M+03391MA1999999099841MD1999999+0021REMSYN088AAXX  16004 82678 32792 11801 10256 20202 39984 40142 81030 333 10339 29062 55106 58002;EQDQ01  00002PRCP06
0202826780999992003051612004-06770-043020FM-12+013899999V0201401N050422200019N0040001N1+02741+01921101651ADDAA106000091GF103991021021008001001011KA1240N+02311MA1999999100061MD1999999+0011REMSYN076AAXX  16124 82678 32596 31498 10274 20192 30006 40165 82201 333 20231 58001;EQDQ01+005043WOSPD Q02  00002PRCP06
0167826780999992003051618004-06770-043020FM-12+013899999V0200901N004610450019N0040001N1+03261+01801101141ADDAA106000091GF106991031021008001031011MA1999999099581MD1999999-0051REMSYN070AAXX  16184 82678 32596 60909 10326 20180 39958 40114 83231 333 59005;EQDQ01  00002PRCP06
0198826780999992003051700004-06770-043020FM-12+013899999V0201401N001012200019N0002001N1+02701+02131101341ADDAA106000091GF105991031031008001001011KA1240M+03361MA1999999099761MD1999999-0081REMSYN088AAXX  17004 82678 32592 51402 10270 20213 39976 40134 83301 333 10336 29061 55092 59008;EQDQ01  00002PRCP06
0186826780999992003051712004-06770-043020FM-12+013899999V0201401N005712200019N0040001N1+02741+01951102591ADDAA106000091GF103991021011008001001011KA1240N+02261MA1999999099901MD1999999-0161REMSYN076AAXX  17124 82678 32596 31411 10274 20195 39990 40259 82101 333 20226 59016;EQDQ01  00002PRCP06
0199826780999992003051718004-06770-043020FM-12+013899999V0201401N003112200019N0040001N1+03201+01821101122ADDAA106000091GF104991999031008001021001MA1999999099551MD1999999-0031REMSYN070AAXX  17184 82678 32596 41406 10320 20182 39955 40112 86320 333 59003;EQDQ01+000062SCOTLCQ02+101123APOSLPQ03  00002PRCP06
0208826780999992003051800004-06770-043020FM-12+013899999V0201401N001012200019N0040001N1+02641+01901101301ADDAA106000091GA1001+999999999GF100991001001999999001001KA1240M+03291MA1999999099721MD1999999-0041REMSYN082AAXX  18004 82678 32596 01402 10264 20190 39972 40130 333 10329 29058 55107 59004;EQDQ01  00002PRCP06
0186826780999992003051812004-06770-043020FM-12+013899999V0201401N003112200019N0040001N1+02761+02041101471ADDAA106000091GF103991021011008001031001KA1240N+02201MA1999999099891MD1999999-0011REMSYN076AAXX  18124 82678 32596 31406 10276 20204 39989 40147 82130 333 20220 59001;EQDQ01  00002PRCP06
0208826780999992003051900004-06770-043020FM-12+013899999V0201801N000512200019N0002001N1+02641+02031101221ADDAA106000091GA1001+999999999GF100991001001999999001001KA1240M+03411MA1999999099651MD1999999-0071REMSYN082AAXX  19004 82678 32992 01801 10264 20203 39965 40122 333 10341 29061 55107 59007;EQDQ01  00002PRCP06
0202826780999992003051912004-06770-043020FM-12+013899999V0200901N003112200019N0040001N1+02701+01911101561ADDAA106000091GF103991011011008001031021KA1240N+99999MA1999999099981MD1999999+0091REMSYN076AAXX  19124 82678 32596 30906 10270 20191 39998 40156 81132 333 20282 58009;EQDQ01  00002PRCP06Q02 +02822ATMN  
0167826780999992003051918004-06770-043020FM-12+013899999V0200901N003110450019N0040001N1+03201+01961101171ADDAA106000091GF108991041081008001021021MA1999999099601MD1999999+0031REMSYN070AAXX  19184 82678 32596 80906 10320 20196 39960 40117 84822 333 58003;EQDQ01  00002PRCP06
0198826780999992003052000004-06770-043020FM-12+013899999V0209999C000010075019N0002001N1+02861+02231101361ADDAA106000091GF107991061051008001031001KA1240M+03291MA1999999099791MD1999999+0141REMSYN088AAXX  20004 82678 32592 70000 10286 20223 39979 40136 86530 333 10329 29062 55071 58014;EQDQ01  00002PRCP06
0186826780999992003052012004-06770-043020FM-12+013899999V0200901N003610450019N0040001N1+02841+02071101621ADDAA106000091GF107991041021008001031021KA1240N+02401MA1999999100021MD1999999+0071REMSYN076AAXX  20124 82678 32596 70907 10284 20207 30002 40162 84232 333 20240 58007;EQDQ01  00002PRCP06
0167826780999992003052018004-06770-043020FM-12+013899999V0200901N003110075019N0040001N1+03381+01951101201ADDAA106000091GF106991061021008001001001MA1999999099651MD1999999+0051REMSYN070AAXX  20184 82678 32596 60906 10338 20195 39965 40120 86200 333 58005;EQDQ01  00002PRCP06
0214826780999992003052100004-06770-043020FM-12+013899999V0201401N002612200019N0002001N1+02811+02031101491ADDAA106000091GF101991999011008001001001KA1240M+03461MA1999999099921MD1999999+0131REMSYN088AAXX  21004 82678 32592 11405 10281 20203 39992 40149 82100 333 10346 29058 55083 58013;EQDQ01+000022SCOTLCQ02  00002PRCP06
0190826780999992003052112004-06770-043020FM-12+013899999V0200901N003112200019N0040001N1+02861+02061101571ADDAY121061AY261061GF101991011011008001001001KA1240N+02321MA1999999100001MD1999999-0051MW1021REMSYN088AAXX  21124 82678 21596 10906 10286 20206 30000 40157 70226 81100 333 20232 59005 69954;
0167826780999992003052118004-06770-043020FM-12+013899999V0200901N003112200019N0040001N1+03251+01931101211ADDAA106000091GF104991041021008001001001MA1999999099641MD1999999-0011REMSYN070AAXX  21184 82678 32596 40906 10325 20193 39964 40121 84200 333 59001;EQDQ01  00002PRCP06
0208826780999992003052200004-06770-043020FM-12+013899999V0209999C000012200019N0002001N1+02601+02061101381ADDAA106000091GA1001+999999999GF100991001001999999001001KA1240M+03401MA1999999099811MD1999999-0111REMSYN082AAXX  22004 82678 32992 00000 10260 20206 39981 40138 333 10340 29063 55101 59011;EQDQ01  00002PRCP06
0196826780999992003052212004-06770-043020FM-12+013899999V0200901N002112200019N0040001N1+02901+02101101631ADDAA106000091GA1001+999999999GF100991001001999999001001KA1240N+02311MA1999999100051MD1999999+0051REMSYN070AAXX  22124 82678 32996 00904 10290 20210 30005 40163 333 20231 58005;EQDQ01  00002PRCP06
0167826780999992003052218004-06770-043020FM-12+013899999V0201401N001512200019N0040001N1+03381+02121101151ADDAA106000091GF104991031021008001001011MA1999999099631MD1999999-0011REMSYN070AAXX  22184 82678 32596 41403 10338 20212 39963 40115 83201 333 59001;EQDQ01  00002PRCP06
0208826780999992003052300004-06770-043020FM-12+013899999V0209999C000012200019N0020001N1+02721+02171101481ADDAA106000091GA1001+999999999GF100991001001999999001001KA1240M+03551MA1999999099911MD1999999+0101REMSYN082AAXX  23004 82678 32595 00000 10272 20217 39991 40148 333 10355 29064 55083 58010;EQDQ01  00002PRCP06
0196826780999992003052312004-06770-043020FM-12+013899999V0201401N001012200019N0040001N1+02941+01941101551ADDAA106000091GA1001+999999999GF100991001001999999001001KA1240N+02191MA1999999099981MD1999999-0071REMSYN070AAXX  23124 82678 32996 01402 10294 20194 39998 40155 333 20219 59007;EQDQ01  00002PRCP06
0167826780999992003052318004-06770-043020FM-12+013899999V0200901N001510075019N0040001N1+03441+01921101131ADDAA106000091GF105991051021008001001001MA1999999099571MD1999999-0061REMSYN070AAXX  23184 82678 32596 50903 10344 20192 39957 40113 85200 333 59006;EQDQ01  00002PRCP06
0198826780999992003052400004-06770-043020FM-12+013899999V0209999C000012200019N0002001N1+02781+02181101281ADDAA106000091GF102991021001017501031001KA1240M+03631MA1999999099711MD1999999-0201REMSYN088AAXX  24004 82678 32792 20000 10278 20218 39971 40128 82030 333 10363 29059 55106 59020;EQDQ01  00002PRCP06
0186826780999992003052412004-06770-043020FM-12+013899999V0200501N001010075019N0040001N1+02801+02221101421ADDAA106000091GF108991051031008001001011KA1240N+02441MA1999999099851MD1999999-0131REMSYN076AAXX  24124 82678 32596 80502 10280 20222 39985 40142 85301 333 20244 59013;EQDQ01  00002PRCP06
0183826780999992003052418004-06770-043020FM-12+013899999V0200501N001519999999N0040001N1+03621+02041100891ADDAA106000091GF105991999021008001001001MA1999999099341MD1999999-0231REMSYN070AAXX  24184 82678 32596 50503 10362 20204 39934 40089 84200 333 59023;EQDQ01+000042SCOTLCQ02  00002PRCP06
0208826780999992003052500004-06770-043020FM-12+013899999V0209999C000012200019N0002001N1+02801+02221101131ADDAA106000091GA1001+999999999GF100991001001999999001001KA1240M+03641MA1999999099561MD1999999-0151REMSYN082AAXX  25004 82678 32992 00000 10280 20222 39956 40113 333 10364 29063 55064 59015;EQDQ01  00002PRCP06
0186826780999992003052512004-06770-043020FM-12+013899999V0200501N000511050019N0040001N1+02721+02341101371ADDAA106000091GF105991031001017501031021KA1240N+02341MA1999999099801MD1999999-0051REMSYN076AAXX  25124 82678 32796 50501 10272 20234 39980 40137 83032 333 20234 59005;EQDQ01  00002PRCP06
0167826780999992003052518004-06770-043020FM-12+013899999V0200901N002610075019N0040001N1+03161+02291101061ADDAA106000091GF108991051051008001071021MA1999999099491MD1999999+0151REMSYN070AAXX  25184 82678 32596 80905 10316 20229 39949 40106 85572 333 58015;EQDQ01  00002PRCP06
0208826780999992003052600004-06770-043020FM-12+013899999V0209999C000012200019N0002001N1+02781+02361101091ADDAA106000091GA1001+999999999GF100991001001999999001001KA1240M+03511MA1999999099531MD1999999-0031REMSYN082AAXX  26004 82678 32992 00000 10278 20236 39953 40109 333 10351 29072 55086 59003;EQDQ01  00002PRCP06
0186826780999992003052612004-06770-043020FM-12+013899999V0200501N001510450019N0040001N1+02941+02361101531ADDAA106000091GF108991021021008001011011KA1240N+02321MA1999999099961MD1999999+0161REMSYN076AAXX  26124 82678 32596 80503 10294 20236 39996 40153 82211 333 20232 58016;EQDQ01  00002PRCP06
0167826780999992003052618004-06770-043020FM-12+013899999V0203601N002112200019N0040001N1+03531+02111101081ADDAA106000091GF106991041021008001001011MA1999999099521MD1999999+0031REMSYN070AAXX  26184 82678 32596 63604 10353 20211 39952 40108 84201 333 58003;EQDQ01  00002PRCP06
0214826780999992003052700004-06770-043020FM-12+013899999V0202301N001019999999N0002001N1+02841+02261101461ADDAA106000091GF106991999011008001001001KA1240M+03611MA1999999099891MD1999999+0361REMSYN088AAXX  27004 82678 32592 62302 10284 20226 39989 40146 82100 333 10361 29064 55081 58036;EQDQ01+000022SCOTLCQ02  00002PRCP06
0190826780999992003052712004-06770-043020FM-12+013899999V0201401N001010075019N0040001N1+02361+02281101861ADDAY161061AY261061GF108991061071008001021999KA1240N+02261MA1999999100271MD1999999+0311MW1611REMSYN088AAXX  27124 82678 21596 81402 10236 20228 30027 40186 76166 8672/ 333 20226 58031 60644;
0143826780999992003052718004-06770-043020FM-12+013899999V0201401N001011050019N0040001N1+02901+02221101421ADDGF105991031021008001001021MA1999999099841MD1999999+0321REMSYN076AAXX  27184 82678 22596 51402 10290 20222 39984 40142 83202 333 58032 60021;
0198826780999992003052800004-06770-043020FM-12+013899999V0200901N000512200019N0002001N1+02541+02381101661ADDAA106000091GF103991031001017501011001KA1240M+03041MA1999999100061MD1999999+0171REMSYN088AAXX  28004 82678 32792 30901 10254 20238 30006 40166 83010 333 10304 29086 55032 58017;EQDQ01  00002PRCP06
0162826780999992003052812004-06770-043020FM-12+013899999V0200901N001512200019N0040001N1+02721+02281101791ADDGF104991021021008001001011KA1240N+02741MA1999999100201MD1999999-0071REMSYN082AAXX  28124 82678 22596 40903 10272 20228 30020 40179 82201 333 20274 59007 60024;
0167826780999992003052818004-06770-043020FM-12+013899999V0209999C000011050019N0040001N1+03241+02191101371ADDAA106000091GF105991031021008001001021MA1999999099801MD1999999-0041REMSYN070AAXX  28184 82678 32596 50000 10324 20219 39980 40137 83202 333 59004;EQDQ01  00002PRCP06
0208826780999992003052900004-06770-043020FM-12+013899999V0209999C000012200019N0040001N1+02601+02351101531ADDAA106000091GA1001+999999999GF100991001001999999001001KA1240M+03341MA1999999099951MD1999999-0111REMSYN082AAXX  29004 82678 32596 00000 10260 20235 39995 40153 333 10334 29076 55076 59011;EQDQ01  00002PRCP06
0186826780999992003052912004-06770-043020FM-12+013899999V0200901N003112200019N0040001N1+02881+02181101731ADDAA106000091GF104991021031008001001011KA1240N+02311MA1999999100151MD1999999-0051REMSYN076AAXX  29124 82678 32596 40906 10288 20218 30015 40173 82301 333 20231 59005;EQDQ01  00002PRCP06
0167826780999992003052918004-06770-043020FM-12+013899999V0201401N001511050019N0040001N1+03261+02111101301ADDAA106000091GF105991031021008001001021MA1999999099731MD1999999-0071REMSYN070AAXX  29184 82678 32596 51403 10326 20211 39973 40130 83202 333 59007;EQDQ01  00002PRCP06
0208826780999992003053000004-06770-043020FM-12+013899999V0209999C000012200019N0002001N1+02601+02351101461ADDAA106000091GA1001+999999999GF100991001001999999001001KA1240M+03331MA1999999099881MD1999999-0071REMSYN082AAXX  30004 82678 32992 00000 10260 20235 39988 40146 333 10333 29072 55095 59007;EQDQ01  00002PRCP06
0186826780999992003053012004-06770-043020FM-12+013899999V0200901N003112200019N0040001N1+02661+01951101731ADDAA106000091GF102991011011008001001011KA1240N+02221MA1999999100141MD1999999-0011REMSYN076AAXX  30124 82678 32596 20906 10266 20195 30014 40173 81101 333 20222 59001;EQDQ01  00002PRCP06
0167826780999992003053018004-06770-043020FM-12+013899999V0201401N002610075019N0040001N1+03201+02061101291ADDAA106000091GF105991051051008001001001MA1999999099721MD1999999-0011REMSYN070AAXX  30184 82678 32596 51405 10320 20206 39972 40129 85500 333 59001;EQDQ01  00002PRCP06
0208826780999992003053100004-06770-043020FM-12+013899999V0209999C000012200019N0002001N1+02621+02351101521ADDAA106000091GA1001+999999999GF100991001001999999001001KA1240M+03291MA1999999099941MD1999999+0061REMSYN082AAXX  31004 82678 32992 00000 10262 20235 39994 40152 333 10329 29072 55097 58006;EQDQ01  00002PRCP06
0186826780999992003053112004-06770-043020FM-12+013899999V0200901N004110450019N0040001N1+02721+01981101751ADDAA106000091GF106991011011008001031001KA1240N+02321MA1999999100161MD1999999+0021REMSYN076AAXX  31124 82678 32596 60908 10272 20198 30016 40175 81130 333 20232 58002;EQDQ01  00002PRCP06
0167826780999992003053118004-06770-043020FM-12+013899999V0200901N002610075019N0040001N1+03241+01961101381ADDAA106000091GF105991051021008001001001MA1999999099811MD1999999+0091REMSYN070AAXX  31184 82678 32596 50905 10324 20196 39981 40138 85200 333 58009;EQDQ01  00002PRCP06
0198826780999992003060100004-06770-043020FM-12+013899999V0202301N000510075019N0002001N1+02661+02241101541ADDAA106000091GF106991061051008001001001KA1240M+03301MA1999999099961MD1999999+0021REMSYN088AAXX  01004 82678 32592 62301 10266 20224 39996 40154 86500 333 10330 29067 55087 58002;EQDQ01  00002PRCP06
0186826780999992003060112004-06770-043020FM-12+013899999V0200901N004610450019N0040001N1+02801+02061101781ADDAA106000091GF106991041051008001031001KA1240N+02401MA1999999100201MD1999999+0041REMSYN076AAXX  01124 82678 32596 60909 10280 20206 30020 40178 84530 333 20240 58004;EQDQ01  00002PRCP06
0183826780999992003060118004-06770-043020FM-12+013899999V0201401N001512200019N0040001N1+03261+01981101331ADDAA106000091GF104991999021008001001001MA1999999099761MD1999999-0051REMSYN070AAXX  01184 82678 32596 41403 10326 20198 39976 40133 83200 333 59005;EQDQ01+000032SCOTLCQ02  00002PRCP06
0208826780999992003060200004-06770-043020FM-12+013899999V0202301N000512200019N0002001N1+02601+02141101551ADDAA106000091GA1001+999999999GF100991001001999999001001KA1240M+03311MA1999999099971MD1999999+0011REMSYN082AAXX  02004 82678 32992 02301 10260 20214 39997 40155 333 10331 29066 55096 58001;EQDQ01  00002PRCP06
0167826780999992003060218004-06770-043020FM-12+013899999V0200901N003110075019N0040001N1+03301+01951101231ADDAA106000091GF105991051011008001001001MA1999999099661MD1999999-0101REMSYN070AAXX  02184 82678 32596 50906 10330 20195 39966 40123 85100 333 59010;EQDQ01  00002PRCP06
0198826780999992003060300004-06770-043020FM-12+013899999V0209999C000012200019N0002001N1+02681+02201101371ADDAA106000091GF102991021001017501031001KA1240M+03331MA1999999099791MD1999999-0181REMSYN088AAXX  03004 82678 32792 20000 10268 20220 39979 40137 82030 333 10333 29065 55106 59018;EQDQ01  00002PRCP06
0196826780999992003060312004-06770-043020FM-12+013899999V0200901N002612200019N0040001N1+02781+02061101621ADDAA106000091GA1001+999999999GF100991001001999999001001KA1240N+01131MA1999999100041MD1999999-0021REMSYN070AAXX  03124 82678 32596 00905 10278 20206 30004 40162 333 20113 59002;EQDQ01  00002PRCP06
0167826780999992003060318004-06770-043020FM-12+013899999V0200501N001512200019N0040001N1+03341+01951101141ADDAA106000091GF104991021021008001001021MA1999999099571MD1999999-0091REMSYN070AAXX  03184 82678 32596 40503 10334 20195 39957 40114 82202 333 59009;EQDQ01  00002PRCP06
0198826780999992003060400004-06770-043020FM-12+013899999V0209999C000012200019N0002001N1+02741+02121101371ADDAA106000091GF103991031021008001001001KA1240M+03421MA1999999099791MD1999999+0001REMSYN088AAXX  04004 82678 32592 30000 10274 20212 39979 40137 83200 333 10342 29062 55106 58000;EQDQ01  00002PRCP06
0196826780999992003060412004-06770-043020FM-12+013899999V0201401N003112200019N0040001N1+02821+02071101641ADDAA106000091GA1001+999999999GF100991001001999999001001KA1240N+02361MA1999999100061MD1999999+0021REMSYN070AAXX  04124 82678 32596 01406 10282 20207 30006 40164 333 20236 58002;EQDQ01  00002PRCP06
0167826780999992003060418004-06770-043020FM-12+013899999V0201401N001511050019N0040001N1+03281+02071101201ADDAA106000091GF105991021011008001031021MA1999999099631MD1999999+0061REMSYN070AAXX  04184 82678 32596 51403 10328 20207 39963 40120 82132 333 58006;EQDQ01  00002PRCP06
0208826780999992003060500004-06770-043020FM-12+013899999V0209999C000012200019N0002001N1+02521+02191101321ADDAA106000091GA1001+999999999GF100991001001999999001001KA1240M+03431MA1999999099741MD1999999-0041REMSYN082AAXX  05004 82678 32992 00000 10252 20219 39974 40132 333 10343 29069 55061 59004;EQDQ01  00002PRCP06
0186826780999992003060512004-06770-043020FM-12+013899999V0200901N003112200019N0040001N1+02821+02051101631ADDAA106000091GF103991021001017501031021KA1240N+02101MA1999999100051MD1999999-0011REMSYN076AAXX  05124 82678 32796 30906 10282 20205 30005 40163 82032 333 20210 59001;EQDQ01  00002PRCP06
0167826780999992003060518004-06770-043020FM-12+013899999V0201401N003110075019N0040001N1+03281+02001101281ADDAA106000091GF105991051021008001001001MA1999999099701MD1999999+0071REMSYN070AAXX  05184 82678 32596 51406 10328 20200 39970 40128 85200 333 58007;EQDQ01  00002PRCP06
0198826780999992003060600004-06770-043020FM-12+013899999V0209999C000010075019N0040001N1+02621+02211101421ADDAA106000091GF105991051021008001001001KA1240M+03311MA1999999099841MD1999999+0101REMSYN088AAXX  06004 82678 32596 50000 10262 20221 39984 40142 85200 333 10331 29066 55106 58010;EQDQ01  00002PRCP06
0186826780999992003060612004-06770-043020FM-12+013899999V0200501N003112200019N0040001N1+02811+01841101661ADDAA106000091GF101991001001999999001011KA1240N+02341MA1999999100081MD1999999+0031REMSYN076AAXX  06124 82678 32996 10506 10281 20184 30008 40166 80001 333 20234 58003;EQDQ01  00002PRCP06
0167826780999992003060618004-06770-043020FM-12+013899999V0200901N003112200019N0040001N1+03341+01751101161ADDAA106000091GF104991021011008001001011MA1999999099601MD1999999-0101REMSYN070AAXX  06184 82678 32596 40906 10334 20175 39960 40116 82101 333 59010;EQDQ01  00002PRCP06
0208826780999992003060700004-06770-043020FM-12+013899999V0209999C000012200019N0002001N1+02561+02061101431ADDAA106000091GA1001+999999999GF100991001001999999001001KA1240M+03381MA1999999099851MD1999999+0011REMSYN082AAXX  07004 82678 32992 00000 10256 20206 39985 40143 333 10338 29061 55104 58001;EQDQ01  00002PRCP06
0186826780999992003060712004-06770-043020FM-12+013899999V0201401N003112200019N0040001N1+02801+01901101661ADDAA106000091GF102991021001999999011001KA1240N+02061MA1999999100081MD1999999+0001REMSYN076AAXX  07124 82678 32996 21406 10280 20190 30008 40166 82010 333 20206 58000;EQDQ01  00002PRCP06
0183826780999992003060718004-06770-043020FM-12+013899999V0201801N002112200019N0040001N1+03411+01591101141ADDAA106000091GF104991999011008001001001MA1999999099571MD1999999-0031REMSYN070AAXX  07184 82678 32596 41804 10341 20159 39957 40114 82100 333 59003;EQDQ01+000022SCOTLCQ02  00002PRCP06
0208826780999992003060800004-06770-043020FM-12+013899999V0209999C000012200019N0002001N1+02541+01891101321ADDAA106000091GA1001+999999999GF100991001001999999001001KA1240M+03421MA1999999099741MD1999999-0111REMSYN082AAXX  08004 82678 32992 00000 10254 20189 39974 40132 333 10342 29056 55105 59011;EQDQ01  00002PRCP06
0186826780999992003060812004-06770-043020FM-12+013899999V0200901N003612200019N0040001N1+02761+01861101591ADDAA106000091GF103991001001999999001011KA1240N+02081MA1999999100011MD1999999-0071REMSYN076AAXX  08124 82678 32996 30907 10276 20186 30001 40159 80001 333 20208 59007;EQDQ01  00002PRCP06
0167826780999992003060818004-06770-043020FM-12+013899999V0201401N002610450019N0040001N1+03321+01651101181ADDAA106000091GF106991031011008001011011MA1999999099611MD1999999+0041REMSYN070AAXX  08184 82678 32596 61405 10332 20165 39961 40118 83111 333 58004;EQDQ01  00002PRCP06
0208826780999992003060900004-06770-043020FM-12+013899999V0200501N001012200019N0002001N1+02401+01931101491ADDAA106000091GA1001+999999999GF100991001001999999001001KA1240M+03411MA1999999099901MD1999999+0161REMSYN082AAXX  09004 82678 32992 00502 10240 20193 39990 40149 333 10341 29061 55105 58016;EQDQ01  00002PRCP06
0186826780999992003060912004-06770-043020FM-12+013899999V0200901N003112200019N0040001N1+02741+01811101621ADDAA106000091GF102991011011008001001011KA1240N+02161MA1999999100031MD1999999+0021REMSYN076AAXX  09124 82678 32596 20906 10274 20181 30003 40162 81101 333 20216 58002;EQDQ01  00002PRCP06
0167826780999992003060918004-06770-043020FM-12+013899999V0201401N001512200019N0040001N1+03281+01621101301ADDAA106000091GF104991031021008001001011MA1999999099731MD1999999+0121REMSYN070AAXX  09184 82678 32596 41403 10328 20162 39973 40130 83201 333 58012;EQDQ01  00002PRCP06
0224826780999992003061000004-06770-043020FM-12+013899999V0209999C000012200019N0020001N1+02881+01731101801ADDAA106000091GA1001+999999999GF100991001001999999001001KA1240M+99999MA1999999099931MD1999999+0031REMSYN082AAXX  10004 82678 32795 00000 10288 20173 39993 40180 333 10233 29043 55104 58003;EQDQ01  00002PRCP06Q02 +02332ATMX  
0221826780999992003061012004-06770-043020FM-12+013899999V0201401N004112200019N0040001N1+01941+00121103361ADDAA106000091GA1001+999999999GF100991001001999999001001KA1240N+01961MA1999999101701MD1999999+0091ME1101019REMSYN070AAXX  10124 82678 32596 01408 10194 20012 30170 41101 333 20196 58009;EQDQ01+999990APOSLPQ02  00002PRCP06
0198826780999992003061100004-06770-043020FM-12+013899999V0209999C000012200019N0002001N1+02801+02031101461ADDAA106000091GF103991021001008001031011KA1240M+03421MA1999999099881MD1999999-0051REMSYN088AAXX  11004 82678 32592 30000 10280 20203 39988 40146 82031 333 10342 29059 55095 59005;EQDQ01  00002PRCP06
0186826780999992003061112004-06770-043020FM-12+013899999V0200901N004110450019N0040001N1+02801+01981101571ADDAA106000091GF105991031051008001031021KA1240N+02321MA1999999100001MD1999999-0121REMSYN076AAXX  11124 82678 32596 50908 10280 20198 30000 40157 83532 333 20232 59012;EQDQ01  00002PRCP06
0167826780999992003061118004-06770-043020FM-12+013899999V0200901N003110450019N0040001N1+03341+01871101241ADDAA106000091GF105991031011008001031021MA1999999099671MD1999999-0041REMSYN070AAXX  11184 82678 32596 50906 10334 20187 39967 40124 83132 333 59004;EQDQ01  00002PRCP06
0198826780999992003061200004-06770-043020FM-12+013899999V0209999C000010150019N0002001N1+02801+02061101331ADDAA106000091GF105991051021017501001001KA1240M+03411MA1999999099761MD1999999-0121REMSYN088AAXX  12004 82678 32792 50000 10280 20206 39976 40133 85200 333 10341 29058 55084 59012;EQDQ01  00002PRCP06
0186826780999992003061212004-06770-043020FM-12+013899999V0200901N004112200019N0040001N1+02801+02061101511ADDAA106000091GF102991011001017501031011KA1240N+02301MA1999999099941MD1999999-0061REMSYN076AAXX  12124 82678 32796 20908 10280 20206 39994 40151 81031 333 20230 59006;EQDQ01  00002PRCP06
0167826780999992003061218004-06770-043020FM-12+013899999V0200901N001510075019N0040001N1+03341+01951101041ADDAA106000091GF105991051021008001001001MA1999999099481MD1999999-0191REMSYN070AAXX  12184 82678 32596 50903 10334 20195 39948 40104 85200 333 59019;EQDQ01  00002PRCP06
0198826780999992003061300004-06770-043020FM-12+013899999V0209999C000011050019N0002001N1+02801+02081101201ADDAA106000091GF105991041001017501031021KA1240M+03461MA1999999099631MD1999999-0131REMSYN088AAXX  13004 82678 32792 50000 10280 20208 39963 40120 84032 333 10346 29060 55099 59013;EQDQ01  00002PRCP06
0186826780999992003061312004-06770-043020FM-12+013899999V0200901N003112200019N0040001N1+02811+01841101441ADDAA106000091GF102991001001999999001011KA1240N+02501MA1999999099871MD1999999-0071REMSYN076AAXX  13124 82678 32996 20906 10281 20184 39987 40144 80001 333 20250 59007;EQDQ01  00002PRCP06
0167826780999992003061318004-06770-043020FM-12+013899999V0201401N002612200019N0040001N1+03481+01751100941ADDAA106000091GF102991021011008001001001MA1999999099391MD1999999-0091REMSYN070AAXX  13184 82678 32596 21405 10348 20175 39939 40094 82100 333 59009;EQDQ01  00002PRCP06
0208826780999992003061400004-06770-043020FM-12+013899999V0201401N000512200019N0002001N1+02681+01971101301ADDAA106000091GA1001+999999999GF100991001001999999001001KA1240M+03531MA1999999099731MD1999999+0101REMSYN082AAXX  14004 82678 32992 01401 10268 20197 39973 40130 333 10353 29056 55104 58010;EQDQ01  00002PRCP06
0186826780999992003061412004-06770-043020FM-12+013899999V0201401N004619999999N0040001N1+02731+01771101611ADDAA106000091GF106991001001999999001011KA1240N+02211MA1999999100031MD1999999+0161REMSYN076AAXX  14124 82678 32996 61409 10273 20177 30003 40161 80001 333 20221 58016;EQDQ01  00002PRCP06
0167826780999992003061418004-06770-043020FM-12+013899999V0202301N002112200019N0040001N1+03361+01651101121ADDAA106000091GF106991011011008001001011MA1999999099561MD1999999+0171REMSYN070AAXX  14184 82678 32596 62304 10336 20165 39956 40112 81101 333 58017;EQDQ01  00002PRCP06
0198826780999992003061500004-06770-043020FM-12+013899999V0201801N001019999999N0002001N1+02511+01771101341ADDAA106000091GF106991001001999999001011KA1240M+03411MA1999999099761MD1999999+0031REMSYN088AAXX  15004 82678 32992 61802 10251 20177 39976 40134 80001 333 10341 29055 55104 58003;EQDQ01  00002PRCP06
0186826780999992003061512004-06770-043020FM-12+013899999V0201401N002612200019N0040001N1+02801+01631101601ADDAA106000091GF104991031011008001001011KA1240N+02101MA1999999100021MD1999999-0011REMSYN076AAXX  15124 82678 32596 41405 10280 20163 30002 40160 83101 333 20210 59001;EQDQ01  00002PRCP06
0167826780999992003061518004-06770-043020FM-12+013899999V0209999C000012200019N0040001N1+03341+01871101221ADDAA106000091GF104991021021008001031001MA1999999099651MD1999999+0091REMSYN070AAXX  15184 82678 32596 40000 10334 20187 39965 40122 82230 333 58009;EQDQ01  00002PRCP06
0208826780999992003061600004-06770-043020FM-12+013899999V0209999C000012200019N0002001N1+02641+01851101381ADDAA106000091GA1001+999999999GF100991001001999999001001KA1240M+03431MA1999999099801MD1999999-0041REMSYN082AAXX  16004 82678 32992 00000 10264 20185 39980 40138 333 10343 29054 55102 59004;EQDQ01  00002PRCP06
0186826780999992003061612004-06770-043020FM-12+013899999V0200901N003610075019N0040001N1+02801+02001101631ADDAA106000091GF108991061031008001001011KA1240N+02461MA1999999100051MD1999999+0031REMSYN076AAXX  16124 82678 32596 80907 10280 20200 30005 40163 86301 333 20246 58003;EQDQ01  00002PRCP06
0167826780999992003061618004-06770-043020FM-12+013899999V0200901N001510450019N0040001N1+03201+02241101281ADDAA106000091GF108991041051008001031021MA1999999099711MD1999999+0071REMSYN070AAXX  16184 82678 32596 80903 10320 20224 39971 40128 84532 333 58007;EQDQ01  00002PRCP06
0198826780999992003061700004-06770-043020FM-12+013899999V0200901N001512200019N0002001N1+02821+01891101461ADDAA106000091GF103991021011008001001011KA1240M+03271MA1999999099891MD1999999-0091REMSYN088AAXX  17004 82678 32592 30903 10282 20189 39989 40146 82101 333 10327 29058 55033 59009;EQDQ01  00002PRCP06
0186826780999992003061712004-06770-043020FM-12+013899999V0201401N005112200019N0040001N1+02801+01531101651ADDAA106000091GF104991031001017501031021KA1240N+02481MA1999999100071MD1999999+0021REMSYN076AAXX  17124 82678 32796 41410 10280 20153 30007 40165 83032 333 20248 58002;EQDQ01  00002PRCP06
0167826780999992003061718004-06770-043020FM-12+013899999V0200901N003110450019N0040001N1+03241+01711101271ADDAA106000091GF108991041051008001031021MA1999999099701MD1999999-0011REMSYN070AAXX  17184 82678 32596 80906 10324 20171 39970 40127 84532 333 59001;EQDQ01  00002PRCP06
0198826780999992003061800004-06770-043020FM-12+013899999V0209999C000010075019N0002001N1+02691+02021101401ADDAA106000091GF106991061041008001001001KA1240M+03311MA1999999099831MD1999999-0061REMSYN088AAXX  18004 82678 32592 60000 10269 20202 39983 40140 86400 333 10331 29055 55038 59006;EQDQ01  00002PRCP06
0186826780999992003061812004-06770-043020FM-12+013899999V0200901N003112200019N0040001N1+02801+01811101661ADDAA106000091GF101991011001017501031001KA1240N+02281MA1999999100081MD1999999+0011REMSYN076AAXX  18124 82678 32796 10906 10280 20181 30008 40166 81030 333 20228 58001;EQDQ01  00002PRCP06
0167826780999992003061818004-06770-043020FM-12+013899999V0200901N001510075019N0040001N1+03381+01831101301ADDAA106000091GF105991051021008001001001MA1999999099731MD1999999+0031REMSYN070AAXX  18184 82678 32596 50903 10338 20183 39973 40130 85200 333 58003;EQDQ01  00002PRCP06
0208826780999992003061900004-06770-043020FM-12+013899999V0209999C000012200019N0002001N1+02681+01941101401ADDAA106000091GA1001+999999999GF100991001001999999001001KA1240M+03431MA1999999099831MD1999999+0001REMSYN082AAXX  19004 82678 32992 00000 10268 20194 39983 40140 333 10343 29056 55103 58000;EQDQ01  00002PRCP06
0196826780999992003061912004-06770-043020FM-12+013899999V0200901N003112200019N0040001N1+02821+02071101661ADDAA106000091GA1001+999999999GF100991001001999999001001KA1240N+02101MA1999999100081MD1999999+0001REMSYN070AAXX  19124 82678 32996 00906 10282 20207 30008 40166 333 20210 58000;EQDQ01  00002PRCP06
0167826780999992003061918004-06770-043020FM-12+013899999V0201401N001512200019N0040001N1+03441+01961101241ADDAA106000091GF104991041011008001001001MA1999999099671MD1999999-0061REMSYN070AAXX  19184 82678 32596 41403 10344 20196 39967 40124 84100 333 59006;EQDQ01  00002PRCP06
0208826780999992003062000004-06770-043020FM-12+013899999V0202301N001012200019N0002001N1+02681+01971101461ADDAA106000091GA1001+999999999GF100991001001999999001001KA1240M+03531MA1999999099881MD1999999+0051REMSYN082AAXX  20004 82678 32992 02302 10268 20197 39988 40146 333 10353 29059 55103 58005;EQDQ01  00002PRCP06
0186826780999992003062012004-06770-043020FM-12+013899999V0200901N003612200019N0040001N1+02871+01841101721ADDAA106000091GF104991021051008001031011KA1240N+02341MA1999999100141MD1999999+0061REMSYN076AAXX  20124 82678 32596 40907 10287 20184 30014 40172 82531 333 20234 58006;EQDQ01  00002PRCP06
0167826780999992003062018004-06770-043020FM-12+013899999V0200901N001010075019N0040001N1+03441+01881101221ADDAA106000091GF106991051021008001031001MA1999999099661MD1999999-0011REMSYN070AAXX  20184 82678 32596 60902 10344 20188 39966 40122 85230 333 59001;EQDQ01  00002PRCP06
0208826780999992003062100004-06770-043020FM-12+013899999V0209999C000012200019N0002001N1+02721+02051101441ADDAA106000091GA1001+999999999GF100991001001999999001001KA1240M+03551MA1999999099871MD1999999-0011REMSYN082AAXX  21004 82678 32992 00000 10272 20205 39987 40144 333 10355 29057 55069 59001;EQDQ01  00002PRCP06
0190826780999992003062112004-06770-043020FM-12+013899999V0209999C000010075019N0040001N1+02621+02291101771ADDAY161061AY211061GF108991061071008001031011KA1240N+02421MA1999999100181MD1999999+0041MW1021REMSYN088AAXX  21124 82678 21596 80000 10262 20229 30018 40177 70261 86731 333 20242 58004 69954;
0171826780999992003062118004-06770-043020FM-12+013899999V0203201N001510075019N0040001N1+03121+02331101311ADDAY161061AY211061GF108991051071008001021001MA1999999099741MD1999999+0081MW1021REMSYN082AAXX  21184 82678 21596 83203 10312 20233 39974 40131 70261 85720 333 58008 69921;
0208826780999992003062200004-06770-043020FM-12+013899999V0209999C000012200019N0002001N1+02501+02161101461ADDAA106000091GA1001+999999999GF100991001001999999001001KA1240M+03331MA1999999099871MD1999999+0001REMSYN082AAXX  22004 82678 32992 00000 10250 20216 39987 40146 333 10333 29077 55026 58000;EQDQ01  00002PRCP06
0172826780999992003062212004-06770-043020FM-12+013899999V0203601N001512200019N0040001N1+02861+02281101641ADDGA1001+999999999GF100991001001999999001001KA1240N+02201MA1999999100061MD1999999-0121REMSYN076AAXX  22124 82678 22996 03603 10286 20228 30006 40164 333 20220 59012 69924;
0186826780999992003062312004-06770-043020FM-12+013899999V0200901N001512200019N0040001N1+02781+02111101641ADDAA106000091GF104991011011008001031021KA1240N+02201MA1999999100061MD1999999+0001REMSYN076AAXX  23124 82678 32596 40903 10278 20211 30006 40164 81132 333 20220 58000;EQDQ01  00002PRCP06
0167826780999992003062318004-06770-043020FM-12+013899999V0200901N003111050019N0040001N1+03381+01871101191ADDAA106000091GF105991021011008001001021MA1999999099631MD1999999+0081REMSYN070AAXX  23184 82678 32596 50906 10338 20187 39963 40119 82102 333 58008;EQDQ01  00002PRCP06
0208826780999992003062400004-06770-043020FM-12+013899999V0209999C000012200019N0020001N1+02621+01911101411ADDAA106000091GA1001+999999999GF100991001001999999001001KA1240M+03521MA1999999099831MD1999999+0051REMSYN082AAXX  24004 82678 32595 00000 10262 20191 39983 40141 333 10352 29060 55097 58005;EQDQ01  00002PRCP06
0196826780999992003062412004-06770-043020FM-12+013899999V0200901N003112200019N0040001N1+02821+01831101751ADDAA106000091GA1001+999999999GF100991001001999999001001KA1240N+02001MA1999999100171MD1999999+0111REMSYN070AAXX  24124 82678 32996 00906 10282 20183 30017 40175 333 20200 58011;EQDQ01  00002PRCP06
0167826780999992003062418004-06770-043020FM-12+013899999V0201401N002612200019N0040001N1+03481+01791101351ADDAA106000091GF104991031011008001001021MA1999999099781MD1999999+0151REMSYN070AAXX  24184 82678 32596 41405 10348 20179 39978 40135 83102 333 58015;EQDQ01  00002PRCP06
0208826780999992003062500004-06770-043020FM-12+013899999V0209999C000012200019N0002001N1+02621+01621101541ADDAA106000091GA1001+999999999GF100991001001999999001001KA1240M+03551MA1999999099961MD1999999+0131REMSYN082AAXX  25004 82678 32992 00000 10262 20162 39996 40154 333 10355 29050 55105 58013;EQDQ01  00002PRCP06
0186826780999992003062512004-06770-043020FM-12+013899999V0200901N004112200019N0040001N1+02801+02031101831ADDAA106000091GF101991011011008001001001KA1240N+02161MA1999999100251MD1999999+0081REMSYN076AAXX  25124 82678 32596 10908 10280 20203 30025 40183 81100 333 20216 58008;EQDQ01  00002PRCP06
0167826780999992003062518004-06770-043020FM-12+013899999V0200901N001512200019N0040001N1+03441+01841101231ADDAA106000091GF104991041021008001001001MA1999999099661MD1999999-0121REMSYN070AAXX  25184 82678 32596 40903 10344 20184 39966 40123 84200 333 59012;EQDQ01  00002PRCP06
0208826780999992003062600004-06770-043020FM-12+013899999V0201401N000512200019N0002001N1+02691+01941101491ADDAA106000091GA1001+999999999GF100991001001999999001001KA1240M+03531MA1999999099911MD1999999-0051REMSYN082AAXX  26004 82678 32992 01401 10269 20194 39991 40149 333 10353 29058 55102 59005;EQDQ01  00002PRCP06
0202826780999992003062612004-06770-043020FM-12+013899999V0200901N003612200019N0040001N1+02711+01861101761ADDAA106000091GF101991999011017501031001KA1240N+02021MA1999999100171MD1999999-0081REMSYN076AAXX  26124 82678 32796 10907 10271 20186 30017 40176 80130 333 20202 59008;EQDQ01+000002SCOTLCQ02  00002PRCP06
0167826780999992003062618004-06770-043020FM-12+013899999V0200901N004610075019N0040001N1+03351+01911101231ADDAA106000091GF105991051021008001001001MA1999999099661MD1999999+0001REMSYN070AAXX  26184 82678 32596 50909 10335 20191 39966 40123 85200 333 58000;EQDQ01  00002PRCP06
0198826780999992003062700004-06770-043020FM-12+013899999V0201401N002112200019N0002001N1+02841+01631101461ADDAA106000091GF101991001001999999001021KA1240M+03491MA1999999099891MD1999999-0021REMSYN088AAXX  27004 82678 32992 11404 10284 20163 39989 40146 80002 333 10349 29050 55083 59002;EQDQ01  00002PRCP06
0196826780999992003062712004-06770-043020FM-12+013899999V0200901N003112200019N0040001N1+02661+01871101701ADDAA106000091GA1001+999999999GF100991001001999999001001KA1240N+02311MA1999999100121MD1999999-0051REMSYN070AAXX  27124 82678 32996 00906 10266 20187 30012 40170 333 20231 59005;EQDQ01  00002PRCP06
0177826780999992003062718004-06770-043020FM-12+013899999V0200901N000512200019N0040001N1+03381+01831101251ADDAA106000091GA1001+999999999GF100991001001999999001001MA1999999099691MD1999999+0031REMSYN064AAXX  27184 82678 32996 00901 10338 20183 39969 40125 333 58003;EQDQ01  00002PRCP06
0208826780999992003062800004-06770-043020FM-12+013899999V0209999C000012200019N0002001N1+02361+01591101401ADDAA106000091GA1001+999999999GF100991001001999999001001KA1240M+03431MA1999999099811MD1999999-0081REMSYN082AAXX  28004 82678 32992 00000 10236 20159 39981 40140 333 10343 29056 55105 59008;EQDQ01  00002PRCP06
0186826780999992003062812004-06770-043020FM-12+013899999V0201401N004612200019N0040001N1+02681+01191101741ADDAA106000091GF102991011011008001001011KA1240N+01811MA1999999100141MD1999999+0021REMSYN076AAXX  28124 82678 32596 21409 10268 20119 30014 40174 81101 333 20181 58002;EQDQ01  00002PRCP06
0167826780999992003062818004-06770-043020FM-12+013899999V0200901N001512200019N0040001N1+03321+02101101341ADDAA106000091GF104991031021008001001011MA1999999099751MD1999999+0061REMSYN070AAXX  28184 82678 32596 40903 10332 20210 39975 40134 83201 333 58006;EQDQ01  00002PRCP06
0208826780999992003062900004-06770-043020FM-12+013899999V0209999C000012200019N0002001N1+02521+01821101571ADDAA106000091GA1001+999999999GF100991001001999999001001KA1240M+03341MA1999999099981MD1999999+0171REMSYN082AAXX  29004 82678 32992 00000 10252 20182 39998 40157 333 10334 29061 55101 58017;EQDQ01  00002PRCP06
0196826780999992003062912004-06770-043020FM-12+013899999V0200901N002612200019N0040001N1+02701+01861101661ADDAA106000091GA1001+999999999GF100991001001999999001001KA1240N+02201MA1999999100071MD1999999-0071REMSYN070AAXX  29124 82678 32996 00905 10270 20186 30007 40166 333 20220 59007;EQDQ01  00002PRCP06
0167826780999992003062918004-06770-043020FM-12+013899999V0200901N001010075019N0040001N1+03361+01691101221ADDAA106000091GF105991051021008001001001MA1999999099651MD1999999-0101REMSYN070AAXX  29184 82678 32596 50902 10336 20169 39965 40122 85200 333 59010;EQDQ01  00002PRCP06
0208826780999992003063000004-06770-043020FM-12+013899999V0209999C000012200019N0002001N1+02601+01991101371ADDAA106000091GA1001+999999999GF100991001001999999001001KA1240M+03451MA1999999099791MD1999999-0191REMSYN082AAXX  30004 82678 32992 00000 10260 20199 39979 40137 333 10345 29059 55097 59019;EQDQ01  00002PRCP06
0196826780999992003063012004-06770-043020FM-12+013899999V0200901N003112200019N0040001N1+02741+02021101701ADDAA106000091GA1001+999999999GF100991001001999999001001KA1240N+01921MA1999999100111MD1999999+0041REMSYN070AAXX  30124 82678 32996 00906 10274 20202 30011 40170 333 20192 58004;EQDQ01  00002PRCP06
0167826780999992003063018004-06770-043020FM-12+013899999V0200901N001510075019N0040001N1+03421+01911101311ADDAA106000091GF105991051021008001001001MA1999999099751MD1999999+0101REMSYN070AAXX  30184 82678 32596 50903 10342 20191 39975 40131 85200 333 58010;EQDQ01  00002PRCP06
0208826780999992003070100004-06770-043020FM-12+013899999V0209999C000012200019N0002001N1+02681+01971101431ADDAA106000091GA1001+999999999GF100991001001999999001001KA1240M+03531MA1999999099851MD1999999+0061REMSYN082AAXX  01004 82678 32992 00000 10268 20197 39985 40143 333 10353 29059 55101 58006;EQDQ01  00002PRCP06
0186826780999992003070112004-06770-043020FM-12+013899999V0201401N005112200019N0040001N1+02661+01711101861ADDAA106000091GF102991011001017501031021KA1240N+02161MA1999999100271MD1999999+0161REMSYN076AAXX  01124 82678 32796 21410 10266 20171 30027 40186 81032 333 20216 58016;EQDQ01  00002PRCP06
0167826780999992003070118004-06770-043020FM-12+013899999V0200901N003111050019N0040001N1+03361+01731101351ADDAA106000091GF106991031011008001001021MA1999999099791MD1999999+0041REMSYN070AAXX  01184 82678 32596 60906 10336 20173 39979 40135 83102 333 58004;EQDQ01  00002PRCP06
0208826780999992003070200004-06770-043020FM-12+013899999V0201401N003112200019N0002001N1+02861+01581101651ADDAA106000091GA1001+999999999GF100991001001999999001001KA1240M+03461MA1999999100071MD1999999+0221REMSYN082AAXX  02004 82678 32992 01406 10286 20158 30007 40165 333 10346 29046 55081 58022;EQDQ01  00002PRCP06
0186826780999992003070212004-06770-043020FM-12+013899999V0200901N003112200019N0040001N1+02611+01381101881ADDAA106000091GF106991041001017501031011KA1240N+02341MA1999999100301MD1999999+0031REMSYN076AAXX  02124 82678 32796 60906 10261 20138 30030 40188 84031 333 20234 58003;EQDQ01  00002PRCP06
0167826780999992003070218004-06770-043020FM-12+013899999V0201401N003112200019N0040001N1+03381+01481101331ADDAA106000091GF103991011011008001001011MA1999999099771MD1999999-0021REMSYN070AAXX  02184 82678 32596 31406 10338 20148 39977 40133 81101 333 59002;EQDQ01  00002PRCP06
0208826780999992003070300004-06770-043020FM-12+013899999V0209999C000012200019N0002001N1+02621+01621101511ADDAA106000091GA1001+999999999GF100991001001999999001001KA1240M+03451MA1999999099921MD1999999-0151REMSYN082AAXX  03004 82678 32992 00000 10262 20162 39992 40151 333 10345 29047 55090 59015;EQDQ01  00002PRCP06
0196826780999992003070312004-06770-043020FM-12+013899999V0201401N003112200019N0040001N1+02841+01791101761ADDAA106000091GA1001+999999999GF100991001001999999001001KA1240N+02331MA1999999100181MD1999999-0121REMSYN070AAXX  03124 82678 32996 01406 10284 20179 30018 40176 333 20233 59012;EQDQ01  00002PRCP06
0167826780999992003070318004-06770-043020FM-12+013899999V0201401N001512200019N0040001N1+03401+01811101311ADDAA106000091GF104991031021008001001021MA1999999099751MD1999999-0021REMSYN070AAXX  03184 82678 32596 41403 10340 20181 39975 40131 83202 333 59002;EQDQ01  00002PRCP06
0208826780999992003070400004-06770-043020FM-12+013899999V0209999C000012200019N0002001N1+02701+01861101471ADDAA106000091GA1001+999999999GF100991001001999999001001KA1240M+03521MA1999999099891MD1999999-0031REMSYN082AAXX  04004 82678 32992 00000 10270 20186 39989 40147 333 10352 29053 55089 59003;EQDQ01  00002PRCP06
0196826780999992003070412004-06770-043020FM-12+013899999V0201401N003112200019N0040001N1+02801+02031101631ADDAA106000091GA1001+999999999GF100991001001999999001001KA1240N+02241MA1999999100051MD1999999-0131REMSYN070AAXX  04124 82678 32996 01406 10280 20203 30005 40163 333 20224 59013;EQDQ01  00002PRCP06
0167826780999992003070418004-06770-043020FM-12+013899999V0201401N001512200019N0040001N1+03521+02111101161ADDAA106000091GF104991021011008001001011MA1999999099611MD1999999-0141REMSYN070AAXX  04184 82678 32596 41403 10352 20211 39961 40116 82101 333 59014;EQDQ01  00002PRCP06
0208826780999992003070500004-06770-043020FM-12+013899999V0209999C000012200019N0002001N1+02681+01841101301ADDAA106000091GA1001+999999999GF100991001001999999001001KA1240M+03541MA1999999099731MD1999999-0161REMSYN082AAXX  05004 82678 32992 00000 10268 20184 39973 40130 333 10354 29057 55105 59016;EQDQ01  00002PRCP06
0196826780999992003070512004-06770-043020FM-12+013899999V0200901N004112200019N0040001N1+02641+01631101541ADDAA106000091GA1001+999999999GF100991001001999999001001KA1240N+02261MA1999999099961MD1999999-0091REMSYN070AAXX  05124 82678 32996 00908 10264 20163 39996 40154 333 20226 59009;EQDQ01  00002PRCP06
0167826780999992003070518004-06770-043020FM-12+013899999V0201401N001512200019N0040001N1+03421+01651101101ADDAA106000091GF102991001001999999001011MA1999999099551MD1999999-0061REMSYN070AAXX  05184 82678 32996 21403 10342 20165 39955 40110 80001 333 59006;EQDQ01  00002PRCP06
0208826780999992003070600004-06770-043020FM-12+013899999V0201401N000512200019N0002001N1+02641+01601101261ADDAA106000091GA1001+999999999GF100991001001999999001001KA1240M+03501MA1999999099681MD1999999-0051REMSYN082AAXX  06004 82678 32992 01401 10264 20160 39968 40126 333 10350 29049 55104 59005;EQDQ01  00002PRCP06
0196826780999992003070612004-06770-043020FM-12+013899999V0200901N001512200019N0040001N1+02681+01511101551ADDAA106000091GA1001+999999999GF100991001001999999001001KA1240N+01821MA1999999099971MD1999999+0011REMSYN070AAXX  06124 82678 32996 00903 10268 20151 39997 40155 333 20182 58001;EQDQ01  00002PRCP06
0177826780999992003070618004-06770-043020FM-12+013899999V0201401N001512200019N0040001N1+03401+01401101201ADDAA106000091GA1001+999999999GF100991001001999999001001MA1999999099621MD1999999+0071REMSYN064AAXX  06184 82678 32996 01403 10340 20140 39962 40120 333 58007;EQDQ01  00002PRCP06
0208826780999992003070700004-06770-043020FM-12+013899999V0209999C000012200019N0002001N1+02451+01201101341ADDAA106000091GA1001+999999999GF100991001001999999001001KA1240M+03451MA1999999099751MD1999999+0071REMSYN082AAXX  07004 82678 32992 00000 10245 20120 39975 40134 333 10345 29042 55104 58007;EQDQ01  00002PRCP06
0186826780999992003070712004-06770-043020FM-12+013899999V0200901N003112200019N0040001N1+02821+01741101661ADDAA106000091GF101991011001017501031001KA1240N+01921MA1999999100071MD1999999+0101REMSYN076AAXX  07124 82678 32796 10906 10282 20174 30007 40166 81030 333 20192 58010;EQDQ01  00002PRCP06
0167826780999992003070718004-06770-043020FM-12+013899999V0201401N002612200019N0040001N1+03401+01681101241ADDAA106000091GF104991041021008001001001MA1999999099661MD1999999+0041REMSYN070AAXX  07184 82678 32596 41405 10340 20168 39966 40124 84200 333 58004;EQDQ01  00002PRCP06
0198826780999992003070800004-06770-043020FM-12+013899999V0209999C000012200019N0040001N1+02661+01921101341ADDAA106000091GF103991031021008001001001KA1240M+03501MA1999999099771MD1999999+0021REMSYN088AAXX  08004 82678 32596 30000 10266 20192 39977 40134 83200 333 10350 29054 55101 58002;EQDQ01  00002PRCP06
0196826780999992003070812004-06770-043020FM-12+013899999V0200901N005112200019N0040001N1+02801+01531101701ADDAA106000091GA1001+999999999GF100991001001999999001001KA1240N+02021MA1999999100121MD1999999+0051REMSYN070AAXX  08124 82678 32996 00910 10280 20153 30012 40170 333 20202 58005;EQDQ01  00002PRCP06
0167826780999992003070818004-06770-043020FM-12+013899999V0201401N003112200019N0040001N1+03451+01431101191ADDAA106000091GF101991011011008001001001MA1999999099621MD1999999-0041REMSYN070AAXX  08184 82678 32596 11406 10345 20143 39962 40119 81100 333 59004;EQDQ01  00002PRCP06
0208826780999992003070900004-06770-043020FM-12+013899999V0201401N001012200019N0002001N1+02721+01651101361ADDAA106000091GA1001+999999999GF100991001001999999001001KA1240M+03531MA1999999099791MD1999999+0021REMSYN082AAXX  09004 82678 32992 01402 10272 20165 39979 40136 333 10353 29045 55104 58002;EQDQ01  00002PRCP06
0196826780999992003070912004-06770-043020FM-12+013899999V0200901N003112200019N0040001N1+02761+01491101661ADDAA106000091GA1001+999999999GF100991001001999999001001KA1240N+01921MA1999999100081MD1999999-0041REMSYN070AAXX  09124 82678 32996 00906 10276 20149 30008 40166 333 20192 59004;EQDQ01  00002PRCP06
0167826780999992003070918004-06767-043017FM-12+013899999V0201401N001512200019N0040001N1+03421+01741101221ADDAA106000091GF103991031011008001001001MA1999999099651MD1999999+0021REMSYN070AAXX  09184 82678 32596 31403 10342 20174 39965 40122 83100 333 58002;EQDQ01  00002PRCP06
0208826780999992003071000004-06767-043017FM-12+013899999V0209999C000012200019N0002001N1+02481+01621101481ADDAA106000091GA1001+999999999GF100991001001999999001001KA1240M+03441MA1999999099891MD1999999+0101REMSYN082AAXX  10004 82678 32992 00000 10248 20162 39989 40148 333 10344 29050 55105 58010;EQDQ01  00002PRCP06
0196826780999992003071012004-06767-043017FM-12+013899999V0200901N005112200019N0040001N1+02861+01481101691ADDAA106000091GA1001+999999999GF100991001001999999001001KA1240N+01891MA1999999100101MD1999999+0021REMSYN070AAXX  10124 82678 32996 00910 10286 20148 30010 40169 333 20189 58002;EQDQ01  00002PRCP06
0177826780999992003071018004-06767-043017FM-12+013899999V0209999C000012200019N0040001N1+03521+01501101241ADDAA106000091GA1001+999999999GF100991001001999999001001MA1999999099661MD1999999+0011REMSYN064AAXX  10184 82678 32996 00000 10352 20150 39966 40124 333 58001;EQDQ01  00002PRCP06
0208826780999992003071100004-06767-043017FM-12+013899999V0209999C000012200019N0002001N1+02501+01391101431ADDAA106000091GA1001+999999999GF100991001001999999001001KA1240M+03541MA1999999099851MD1999999-0041REMSYN082AAXX  11004 82678 32992 00000 10250 20139 39985 40143 333 10354 29043 55105 59004;EQDQ01  00002PRCP06
0196826780999992003071112004-06767-043017FM-12+013899999V0200901N003112200019N0040001N1+02801+01811101751ADDAA106000091GA1001+999999999GF100991001001999999001001KA1240N+01811MA1999999100161MD1999999+0061REMSYN070AAXX  11124 82678 32996 00906 10280 20181 30016 40175 333 20181 58006;EQDQ01  00002PRCP06
0167826780999992003071118004-06767-043017FM-12+013899999V0201401N004110075019N0040001N1+03421+01611101271ADDAA106000091GF105991051021008001001001MA1999999099691MD1999999+0031REMSYN070AAXX  11184 82678 32596 51408 10342 20161 39969 40127 85200 333 58003;EQDQ01  00002PRCP06
0198826780999992003071200004-06767-043017FM-12+013899999V0209999C000012200019N0002001N1+02581+01641101381ADDAA106000091GF102991001001999999001011KA1240M+03541MA1999999099801MD1999999-0051REMSYN088AAXX  12004 82678 32992 20000 10258 20164 39980 40138 80001 333 10354 29050 55104 59005;EQDQ01  00002PRCP06
0234826780999992003071212004-06767-043017FM-12+013899999V0200201N043222200019N0040001N1+02121+00261101851ADDAA106000091GF101991999051008001031001KA1240N+02141MA1999999999999MD1999999+0101REMSYN076AAXX  12124 82678 32596 10284 10212 20026 30185 40185 86530 333 20214 58010;EQDQ01+004323WOSPD Q02+000062SCOTLCQ03  00002PRCP06Q04 101853APOSP 
0183826780999992003071218004-06767-043017FM-12+013899999V0200901N003110075019N0040001N1+03341+01911101371ADDAA106000091GF106991061051008001001001MA1999999099802MD1999999+0121REMSYN070AAXX  12184 82678 32596 60906 10334 20191 39980 40137 86500 333 58012;EQDQ01+099803APOSP Q02  00002PRCP06
0198826780999992003071300004-06767-043017FM-12+013899999V0200901N002610075019N0002001N1+02521+01911101791ADDAA106000091GF108991081051008001999999KA1240M+03411MA1999999100211MD1999999+0411REMSYN088AAXX  13004 82678 32592 80905 10252 20191 30021 40179 885// 333 10341 29062 55054 58041;EQDQ01  00002PRCP06
0196826780999992003071312004-06767-043017FM-12+013899999V0200901N005112200019N0040001N1+02681+01731101921ADDAA106000091GA1001+999999999GF100991001001999999001001KA1240N+02321MA1999999100331MD1999999+0071REMSYN070AAXX  13124 82678 32996 00910 10268 20173 30033 40192 333 20232 58007;EQDQ01  00002PRCP06
0167826780999992003071318004-06767-043017FM-12+013899999V0200901N003112200019N0040001N1+03281+01781101411ADDAA106000091GF104991021021008001001011MA1999999099851MD1999999+0041REMSYN070AAXX  13184 82678 32596 40906 10328 20178 39985 40141 82201 333 58004;EQDQ01  00002PRCP06
0198826780999992003071400004-06767-043017FM-12+013899999V0209999C000012200019N0002001N1+02581+01691101751ADDAA106000091GF103991021011008001001011KA1240M+03351MA1999999100161MD1999999-0051REMSYN088AAXX  14004 82678 32592 30000 10258 20169 30016 40175 82101 333 10335 29053 55105 59005;EQDQ01  00002PRCP06
0196826780999992003071412004-06767-043017FM-12+013899999V0201401N004612200019N0040001N1+02651+01631101921ADDAA106000091GA1001+999999999GF100991001001999999001001KA1240N+02151MA1999999100331MD1999999+0001REMSYN070AAXX  14124 82678 32996 01409 10265 20163 30033 40192 333 20215 58000;EQDQ01  00002PRCP06
0167826780999992003071418004-06767-043017FM-12+013899999V0201401N004112200019N0040001N1+03351+01671101441ADDAA106000091GF104991031021008001001011MA1999999099871MD1999999+0021REMSYN070AAXX  14184 82678 32596 41408 10335 20167 39987 40144 83201 333 58002;EQDQ01  00002PRCP06
0208826780999992003071500004-06767-043017FM-12+013899999V0201401N001512200019N0002001N1+02741+01411101631ADDAA106000091GA1001+999999999GF100991001001999999001001KA1240M+03411MA1999999100051MD1999999-0111REMSYN082AAXX  15004 82678 32992 01403 10274 20141 30005 40163 333 10341 29045 55106 59011;EQDQ01  00002PRCP06
0196826780999992003071512004-06767-043017FM-12+013899999V0200901N005112200019N0040001N1+02621+01701101901ADDAA106000091GA1001+999999999GF100991001001999999001001KA1240N+02181MA1999999100311MD1999999-0021REMSYN070AAXX  15124 82678 32996 00910 10262 20170 30031 40190 333 20218 59002;EQDQ01  00002PRCP06
0167826780999992003071518004-06767-043017FM-12+013899999V0200901N005112200019N0040001N1+03361+01601101451ADDAA106000091GF101991011011008001001001MA1999999099881MD1999999+0011REMSYN070AAXX  15184 82678 32596 10910 10336 20160 39988 40145 81100 333 58001;EQDQ01  00002PRCP06
0208826780999992003071600004-06767-043017FM-12+013899999V0201401N001012200019N0002001N1+02761+01561101581ADDAA106000091GA1001+999999999GF100991001001999999001001KA1240M+03411MA1999999100001MD1999999-0051REMSYN082AAXX  16004 82678 32992 01402 10276 20156 30000 40158 333 10341 29047 55106 59005;EQDQ01  00002PRCP06
0196826780999992003071612004-06767-043017FM-12+013899999V0200901N005112200019N0040001N1+02641+01801101901ADDAA106000091GA1001+999999999GF100991001001999999001001KA1240N+02261MA1999999100311MD1999999+0001REMSYN070AAXX  16124 82678 32996 00910 10264 20180 30031 40190 333 20226 58000;EQDQ01  00002PRCP06
0167826780999992003071618004-06767-043017FM-12+013899999V0200901N004112200019N0040001N1+03401+01641101551ADDAA106000091GF102991021011008001001001MA1999999099981MD1999999+0101REMSYN070AAXX  16184 82678 32596 20908 10340 20164 39998 40155 82100 333 58010;EQDQ01  00002PRCP06
0208826780999992003071700004-06767-043017FM-12+013899999V0201401N001512200019N0002001N1+02841+01601101721ADDAA106000091GA1001+999999999GF100991001001999999001001KA1240M+03451MA1999999100141MD1999999+0141REMSYN082AAXX  17004 82678 32992 01403 10284 20160 30014 40172 333 10345 29047 55100 58014;EQDQ01  00002PRCP06
0186826780999992003071712004-06767-043017FM-12+013899999V0201401N004612200019N0040001N1+02771+01751102001ADDAA106000091GF103991021011008001031001KA1240N+02271MA1999999100421MD1999999+0111REMSYN076AAXX  17124 82678 32596 31409 10277 20175 30042 40200 82130 333 20227 58011;EQDQ01  00002PRCP06
0167826780999992003071718004-06767-043017FM-12+013899999V0200901N003110075019N0040001N1+03321+01431101551ADDAA106000091GF106991051021008001001011MA1999999099981MD1999999+0001REMSYN070AAXX  17184 82678 32596 60906 10332 20143 39998 40155 85201 333 58000;EQDQ01  00002PRCP06
0208826780999992003071800004-06767-043017FM-12+013899999V0201401N001012200019N0002001N1+02861+01551101741ADDAA106000091GA1001+999999999GF100991001001999999001001KA1240M+03481MA1999999100161MD1999999+0021REMSYN082AAXX  18004 82678 32992 01402 10286 20155 30016 40174 333 10348 29044 55104 58002;EQDQ01  00002PRCP06
0186826780999992003071812004-06767-043017FM-12+013899999V0200901N004112200019N0040001N1+02681+01671102121ADDAA106000091GF103991031011008001001001KA1240N+02311MA1999999100541MD1999999+0121REMSYN076AAXX  18124 82678 32596 30908 10268 20167 30054 40212 83100 333 20231 58012;EQDQ01  00002PRCP06
0167826780999992003071818004-06767-043017FM-12+013899999V0200901N003112200019N0040001N1+03461+01231101581ADDAA106000091GF101991011011008001001001MA1999999100011MD1999999+0031REMSYN070AAXX  18184 82678 32596 10906 10346 20123 30001 40158 81100 333 58003;EQDQ01  00002PRCP06
0208826780999992003071900004-06767-043017FM-12+013899999V0209999C000012200019N0002001N1+02651+01251101741ADDAA106000091GA1001+999999999GF100991001001999999001001KA1240M+03541MA1999999100151MD1999999-0011REMSYN082AAXX  19004 82678 32992 00000 10265 20125 30015 40174 333 10354 29041 55107 59001;EQDQ01  00002PRCP06
0186826780999992003071912004-06767-043017FM-12+013899999V0201401N004110075019N0040001N1+02601+01871102111ADDAA106000091GF105991051011008001001001KA1240N+02241MA1999999100521MD1999999-0021REMSYN076AAXX  19124 82678 32596 51408 10260 20187 30052 40211 85100 333 20224 59002;EQDQ01  00002PRCP06
0167826780999992003071918004-06767-043017FM-12+013899999V0201401N001512200019N0040001N1+03481+01571101611ADDAA106000091GF104991041011008001001001MA1999999100051MD1999999+0041REMSYN070AAXX  19184 82678 32596 41403 10348 20157 30005 40161 84100 333 58004;EQDQ01  00002PRCP06
0208826780999992003072000004-06767-043017FM-12+013899999V0201401N004112200019N0002001N1+02981+02041101731ADDAA106000091GA1001+999999999GF100991001001999999001001KA1240M+03571MA1999999100151MD1999999+0001REMSYN082AAXX  20004 82678 32592 01408 10298 20204 30015 40173 333 10357 29052 55105 58000;EQDQ01  00002PRCP06
0196826780999992003072012004-06767-043017FM-12+013899999V0200901N005112200019N0040001N1+02701+01721101941ADDAA106000091GA1001+999999999GF100991001001999999001001KA1240N+02301MA1999999100361MD1999999-0161REMSYN070AAXX  20124 82678 32996 00910 10270 20172 30036 40194 333 20230 59016;EQDQ01  00002PRCP06
0167826780999992003072018004-06767-043017FM-12+013899999V0201401N003112200019N0040001N1+03421+01701101451ADDAA106000091GF103991031011008001001001MA1999999099891MD1999999-0161REMSYN070AAXX  20184 82678 32596 31406 10342 20170 39989 40145 83100 333 59016;EQDQ01  00002PRCP06
0208826780999992003072100004-06767-043017FM-12+013899999V0200901N004112200019N0002001N1+02941+01441101651ADDAA106000091GA1001+999999999GF100991001001999999001001KA1240M+03491MA1999999100071MD1999999-0081REMSYN082AAXX  21004 82678 32992 00908 10294 20144 30007 40165 333 10349 29043 55105 59008;EQDQ01  00002PRCP06
0196826780999992003072112004-06767-043017FM-12+013899999V0201401N003612200019N0040001N1+02681+01451101941ADDAA106000091GA1001+999999999GF100991001001999999001001KA1240N+02261MA1999999100361MD1999999+0001REMSYN070AAXX  21124 82678 32996 01407 10268 20145 30036 40194 333 20226 58000;EQDQ01  00002PRCP06
0177826780999992003072118004-06767-043017FM-12+013899999V0201401N002612200019N0040001N1+03401+01401101431ADDAA106000091GA1001+999999999GF100991001001999999001001MA1999999099871MD1999999-0021REMSYN064AAXX  21184 82678 32996 01405 10340 20140 39987 40143 333 59002;EQDQ01  00002PRCP06
0208826780999992003072200004-06767-043017FM-12+013899999V0201401N000512200019N0002001N1+02621+01431101631ADDAA106000091GA1001+999999999GF100991001001999999001001KA1240M+03491MA1999999100051MD1999999-0021REMSYN082AAXX  22004 82678 32992 01401 10262 20143 30005 40163 333 10349 29043 55106 59002;EQDQ01  00002PRCP06
0196826780999992003072212004-06767-043017FM-12+013899999V0200901N004112200019N0040001N1+02771+01721101871ADDAA106000091GA1001+999999999GF100991001001999999001001KA1240N+02261MA1999999100281MD1999999-0081REMSYN070AAXX  22124 82678 32996 00908 10277 20172 30028 40187 333 20226 59008;EQDQ01  00002PRCP06
0167826780999992003072218004-06767-043017FM-12+013899999V0200901N003612200019N0040001N1+03441+01531101391ADDAA106000091GF104991041011008001001001MA1999999099831MD1999999-0041REMSYN070AAXX  22184 82678 32596 40907 10344 20153 39983 40139 84100 333 59004;EQDQ01  00002PRCP06
0208826780999992003072300004-06767-043017FM-12+013899999V0201401N001512200019N0002001N1+02921+01381101591ADDAA106000091GA1001+999999999GF100991001001999999001001KA1240M+03521MA1999999100021MD1999999-0031REMSYN082AAXX  23004 82678 32992 01403 10292 20138 30002 40159 333 10352 29041 55102 59003;EQDQ01  00002PRCP06
0196826780999992003072312004-06767-043017FM-12+013899999V0200901N005112200019N0040001N1+02641+01481101901ADDAA106000091GA1001+999999999GF100991001001999999001001KA1240N+02301MA1999999100321MD1999999+0041REMSYN070AAXX  23124 82678 32996 00910 10264 20148 30032 40190 333 20230 58004;EQDQ01  00002PRCP06
0177826780999992003072318004-06767-043017FM-12+013899999V0200901N001512200019N0040001N1+03301+01681101461ADDAA106000091GA1001+999999999GF100991001001999999001001MA1999999099891MD1999999+0061REMSYN064AAXX  23184 82678 32996 00903 10330 20168 39989 40146 333 58006;EQDQ01  00002PRCP06
0198826780999992003072400004-06767-043017FM-12+013899999V0200901N001510075019N0002001N1+02831+01411101631ADDAA106000091GF106991061051008001001001KA1240M+03371MA1999999100051MD1999999+0031REMSYN088AAXX  24004 82678 32592 60903 10283 20141 30005 40163 86500 333 10337 29043 55106 58003;EQDQ01  00002PRCP06
0196826780999992003072412004-06767-043017FM-12+013899999V0200901N005112200019N0040001N1+02761+01661101801ADDAA106000091GA1001+999999999GF100991001001999999001001KA1240N+02341MA1999999100221MD1999999-0101REMSYN070AAXX  24124 82678 32996 00910 10276 20166 30022 40180 333 20234 59010;EQDQ01  00002PRCP06
0167826780999992003072418004-06767-043017FM-12+013899999V0201401N003110075019N0040001N1+03381+01621101381ADDAA106000091GF105991051011008001001001MA1999999099821MD1999999-0071REMSYN070AAXX  24184 82678 32596 51406 10338 20162 39982 40138 85100 333 59007;EQDQ01  00002PRCP06
0208826780999992003072500004-06767-043017FM-12+013899999V0201401N002112200019N0002001N1+02881+01531101521ADDAA106000091GA1001+999999999GF100991001001999999001001KA1240M+03511MA1999999099951MD1999999-0101REMSYN082AAXX  25004 82678 32992 01404 10288 20153 39995 40152 333 10351 29044 55106 59010;EQDQ01  00002PRCP06
0196826780999992003072512004-06767-043017FM-12+013899999V0201401N004612200019N0040001N1+02831+01771101841ADDAA106000091GA1001+999999999GF100991001001999999001001KA1240N+02361MA1999999100261MD1999999+0041REMSYN070AAXX  25124 82678 32996 01409 10283 20177 30026 40184 333 20236 58004;EQDQ01  00002PRCP06
0167826780999992003072518004-06767-043017FM-12+013899999V0200901N003610075019N0040001N1+03501+01581101331ADDAA106000091GF105991051021008001001001MA1999999099771MD1999999-0051REMSYN070AAXX  25184 82678 32596 50907 10350 20158 39977 40133 85200 333 59005;EQDQ01  00002PRCP06
0208826780999992003072600004-06767-043017FM-12+013899999V0201401N003112200019N0002001N1+03051+01781101671ADDAA106000091GA1001+999999999GF100991001001999999001001KA1240M+03621MA1999999100101MD1999999+0151REMSYN082AAXX  26004 82678 32992 01406 10305 20178 30010 40167 333 10362 29040 55100 58015;EQDQ01  00002PRCP06
0196826780999992003072612004-06767-043017FM-12+013899999V0201401N004612200019N0040001N1+02801+01751101901ADDAA106000091GA1001+999999999GF100991001001999999001001KA1240N+02401MA1999999100331MD1999999+0071REMSYN070AAXX  26124 82678 32996 01409 10280 20175 30033 40190 333 20240 58007;EQDQ01  00002PRCP06
0167826780999992003072618004-06767-043017FM-12+013899999V0201401N002610075019N0040001N1+03461+01641101401ADDAA106000091GF105991051021008001001001MA1999999099841MD1999999+0071REMSYN070AAXX  26184 82678 32596 51405 10346 20164 39984 40140 85200 333 58007;EQDQ01  00002PRCP06
0208826780999992003072700004-06767-043017FM-12+013899999V0201401N001012200019N0002001N1+02981+01511101641ADDAA106000091GA1001+999999999GF100991001001999999001001KA1240M+03591MA1999999100071MD1999999-0031REMSYN082AAXX  27004 82678 32992 01402 10298 20151 30007 40164 333 10359 29042 55100 59003;EQDQ01  00002PRCP06
0196826780999992003072712004-06767-043017FM-12+013899999V0200901N004112200019N0040001N1+02701+01471101861ADDAA106000091GA1001+999999999GF100991001001999999001001KA1240N+02401MA1999999100281MD1999999-0051REMSYN070AAXX  27124 82678 32996 00908 10270 20147 30028 40186 333 20240 59005;EQDQ01  00002PRCP06
0177826780999992003072718004-06767-043017FM-12+013899999V0201401N004112200019N0040001N1+03401+01641101391ADDAA106000091GA1001+999999999GF100991001001999999001001MA1999999099831MD1999999-0011REMSYN064AAXX  27184 82678 32996 01408 10340 20164 39983 40139 333 59001;EQDQ01  00002PRCP06
0208826780999992003072800004-06767-043017FM-12+013899999V0200901N003112200019N0002001N1+02981+01401101581ADDAA106000091GA1001+999999999GF100991001001999999001001KA1240M+03491MA1999999100011MD1999999-0061REMSYN082AAXX  28004 82678 32992 00906 10298 20140 30001 40158 333 10349 29040 55106 59006;EQDQ01  00002PRCP06
0186826780999992003072812004-06767-043017FM-12+013899999V0200901N005712200019N0040001N1+02721+01521101851ADDAA106000091GF103991011001017501031021KA1240N+02361MA1999999100271MD1999999-0011REMSYN076AAXX  28124 82678 32796 30911 10272 20152 30027 40185 81032 333 20236 59001;EQDQ01  00002PRCP06
0167826780999992003072818004-06767-043017FM-12+013899999V0201401N004112200019N0040001N1+03421+01411101411ADDAA106000091GF106991021001017501031041MA1999999099851MD1999999+0021REMSYN070AAXX  28184 82678 32796 61408 10342 20141 39985 40141 82034 333 58002;EQDQ01  00002PRCP06
0208826780999992003072900004-06767-043017FM-12+013899999V0201401N000512200019N0002001N1+02821+01441101611ADDAA106000091GA1001+999999999GF100991001001999999001001KA1240M+03511MA1999999100031MD1999999+0021REMSYN082AAXX  29004 82678 32992 01401 10282 20144 30003 40161 333 10351 29041 55103 58002;EQDQ01  00002PRCP06
0186826780999992003072912004-06767-043017FM-12+013899999V0201401N003611050019N0040001N1+02731+01651101971ADDAA106000091GF105991011011008001031021KA1240N+02321MA1999999100391MD1999999+0121REMSYN076AAXX  29124 82678 32596 51407 10273 20165 30039 40197 81132 333 20232 58012;EQDQ01  00002PRCP06
0167826780999992003072918004-06767-043017FM-12+013899999V0200901N003110450019N0040001N1+03441+01431101421ADDAA106000091GF108991031021008001011011MA1999999099861MD1999999+0011REMSYN070AAXX  29184 82678 32596 80906 10344 20143 39986 40142 83211 333 58001;EQDQ01  00002PRCP06
0208826780999992003073000004-06767-043017FM-12+013899999V0201401N002112200019N0020001N1+02981+01441101621ADDAA106000091GA1001+999999999GF100991001001999999001001KA1240M+03541MA1999999100051MD1999999+0021REMSYN082AAXX  30004 82678 32595 01404 10298 20144 30005 40162 333 10354 29040 55099 58002;EQDQ01  00002PRCP06
0186826780999992003073012004-06767-043017FM-12+013899999V0200901N004612200019N0040001N1+02741+01671101951ADDAA106000091GF103991021001017501031011KA1240N+02351MA1999999100371MD1999999-0021REMSYN076AAXX  30124 82678 32796 30909 10274 20167 30037 40195 82031 333 20235 59002;EQDQ01  00002PRCP06
0167826780999992003073018004-06767-043017FM-12+013899999V0202301N001510075019N0040001N1+03461+01501101401ADDAA106000091GF105991051021008001001001MA1999999099841MD1999999-0021REMSYN070AAXX  30184 82678 32596 52303 10346 20150 39984 40140 85200 333 59002;EQDQ01  00002PRCP06
0186826780999992003073112004-06767-043017FM-12+013899999V0200901N002612200019N0040001N1+02701+01751101781ADDAA106000091GF102991021001017501031001KA1240N+02181MA1999999100201MD1999999-0171REMSYN076AAXX  31124 82678 32796 20905 10270 20175 30020 40178 82030 333 20218 59017;EQDQ01  00002PRCP06
0167826780999992003073118004-06767-043017FM-12+013899999V0202701N001010075019N0040001N1+03481+01571101331ADDAA106000091GF105991051011008001001001MA1999999099761MD1999999-0081REMSYN070AAXX  31184 82678 32596 52702 10348 20157 39976 40133 85100 333 59008;EQDQ01  00002PRCP06
0198826780999992003080100004-06767-043017FM-12+013899999V0209999C000012200019N0002001N1+02721+01651101411ADDAA106000091GF102991021001017501031001KA1240M+03591MA1999999099831MD1999999-0151REMSYN088AAXX  01004 82678 32792 20000 10272 20165 39983 40141 82030 333 10359 29048 55095 59015;EQDQ01  00002PRCP06
0186826780999992003080112004-06767-043017FM-12+013899999V0200901N003112200019N0040001N1+02741+01541101731ADDAA106000091GF102991001001999999001011KA1240N+02061MA1999999100151MD1999999-0051REMSYN076AAXX  01124 82678 32996 20906 10274 20154 30015 40173 80001 333 20206 59005;EQDQ01  00002PRCP06
0167826780999992003080118004-06767-043017FM-12+013899999V0200501N002612200019N0040001N1+03501+01431101321ADDAA106000091GF103991021011008001001011MA1999999099721MD1999999-0041REMSYN070AAXX  01184 82678 32596 30505 10350 20143 39972 40132 82101 333 59004;EQDQ01  00002PRCP06
0208826780999992003080200004-06767-043017FM-12+013899999V0209999C000012200019N0002001N1+02821+01481101421ADDAA106000091GA1001+999999999GF100991001001999999001001KA1240M+03601MA1999999099851MD1999999+0021REMSYN082AAXX  02004 82678 32992 00000 10282 20148 39985 40142 333 10360 29041 55103 58002;EQDQ01  00002PRCP06
0186826780999992003080212004-06767-043017FM-12+013899999V0200901N004612200019N0040001N1+02861+01521101801ADDAA106000091GF103991011021008001031011KA1240N+02431MA1999999100231MD1999999+0081REMSYN076AAXX  02124 82678 32596 30909 10286 20152 30023 40180 81231 333 20243 58008;EQDQ01  00002PRCP06
0167826780999992003080218004-06767-043017FM-12+013899999V0200901N003112200019N0040001N1+03601+01291101351ADDAA106000091GF104991041011008001001001MA1999999099801MD1999999+0081REMSYN070AAXX  02184 82678 32596 40906 10360 20129 39980 40135 84100 333 58008;EQDQ01  00002PRCP06
0208826780999992003080300004-06767-043017FM-12+013899999V0200901N001012200019N0002001N1+03031+01261101561ADDAA106000091GA1001+999999999GF100991001001999999001001KA1240M+03701MA1999999100001MD1999999+0151REMSYN082AAXX  03004 82678 32992 00902 10303 20126 30000 40156 333 10370 29034 55094 58015;EQDQ01  00002PRCP06
0196826780999992003080312004-06767-043017FM-12+013899999V0200901N004612200019N0040001N1+02801+01631101791ADDAA106000091GA1001+999999999GF100991001001999999001001KA1240N+02341MA1999999100221MD1999999-0011REMSYN070AAXX  03124 82678 32996 00909 10280 20163 30022 40179 333 20234 59001;EQDQ01  00002PRCP06
0167826780999992003080318004-06767-043017FM-12+013899999V0201401N001512200019N0040001N1+03521+01281101361ADDAA106000091GF102991021011008001001001MA1999999099811MD1999999+0011REMSYN070AAXX  03184 82678 32596 21403 10352 20128 39981 40136 82100 333 58001;EQDQ01  00002PRCP06
0198826780999992003080400004-06767-043017FM-12+013899999V0201401N001010150019N0002001N1+02861+01251101541ADDAA106000091GF105991051001017501031001KA1240M+03611MA1999999099971MD1999999-0031REMSYN088AAXX  04004 82678 32792 51402 10286 20125 39997 40154 85030 333 10361 29037 55104 59003;EQDQ01  00002PRCP06
0196826780999992003080412004-06767-043017FM-12+013899999V0201401N003112200019N0040001N1+02801+01751101641ADDAA106000091GA1001+999999999GF100991001001999999001001KA1240N+02411MA1999999100071MD1999999-0151REMSYN070AAXX  04124 82678 32996 01406 10280 20175 30007 40164 333 20241 59015;EQDQ01  00002PRCP06
0167826780999992003080418004-06767-043017FM-12+013899999V0201401N004112200019N0040001N1+03501+01581101221ADDAA106000091GF104991041011008001001001MA1999999099661MD1999999-0151REMSYN070AAXX  04184 82678 32596 41408 10350 20158 39966 40122 84100 333 59015;EQDQ01  00002PRCP06
0208826780999992003080500004-06767-043017FM-12+013899999V0200901N003112200019N0002001N1+03001+01411101391ADDAA106000091GA1001+999999999GF100991001001999999001001KA1240M+03541MA1999999099831MD1999999-0141REMSYN082AAXX  05004 82678 32992 00906 10300 20141 39983 40139 333 10354 29040 55104 59014;EQDQ01  00002PRCP06
0196826780999992003080512004-06767-043017FM-12+013899999V0200901N004112200019N0040001N1+02781+01551101641ADDAA106000091GA1001+999999999GF100991001001999999001001KA1240N+02361MA1999999100071MD1999999+0001REMSYN070AAXX  05124 82678 32996 00908 10278 20155 30007 40164 333 20236 58000;EQDQ01  00002PRCP06
0177826780999992003080518004-06767-043017FM-12+013899999V0200901N002612200019N0040001N1+03521+01431101181ADDAA106000091GA1001+999999999GF100991001001999999001001MA1999999099631MD1999999-0031REMSYN064AAXX  05184 82678 32996 00905 10352 20143 39963 40118 333 59003;EQDQ01  00002PRCP06
0208826780999992003080600004-06767-043017FM-12+013899999V0201401N001512200019N0002001N1+03001+01371101371ADDAA106000091GA1001+999999999GF100991001001999999001001KA1240M+03571MA1999999099811MD1999999-0021REMSYN082AAXX  06004 82678 32992 01403 10300 20137 39981 40137 333 10357 29038 55108 59002;EQDQ01  00002PRCP06
0196826780999992003080612004-06767-043017FM-12+013899999V0200901N003612200019N0040001N1+02921+01571101731ADDAA106000091GA1001+999999999GF100991001001999999001001KA1240N+02481MA1999999100161MD1999999+0091REMSYN070AAXX  06124 82678 32996 00907 10292 20157 30016 40173 333 20248 58009;EQDQ01  00002PRCP06
0167826780999992003080618004-06767-043017FM-12+013899999V0202301N002612200019N0040001N1+03631+01301101191ADDAA106000091GF102991021011008001001001MA1999999099641MD1999999+0011REMSYN070AAXX  06184 82678 32596 22305 10363 20130 39964 40119 82100 333 58001;EQDQ01  00002PRCP06
0208826780999992003080700004-06767-043017FM-12+013899999V0201401N000512200019N0002001N1+02791+01331101411ADDAA106000091GA1001+999999999GF100991001001999999001001KA1240M+03701MA1999999099841MD1999999+0031REMSYN082AAXX  07004 82678 32992 01401 10279 20133 39984 40141 333 10370 29038 55103 58003;EQDQ01  00002PRCP06
0196826780999992003080712004-06767-043017FM-12+013899999V0200901N004112200019N0002001N1+02821+01681101711ADDAA106000091GA1001+999999999GF100991001001999999001001KA1240N+02461MA1999999100131MD1999999-0031REMSYN070AAXX  07124 82678 32992 00908 10282 20168 30013 40171 333 20246 59003;EQDQ01  00002PRCP06
0167826780999992003080718004-06767-043017FM-12+013899999V0200901N002112200019N0040001N1+03521+01281101211ADDAA106000091GF104991041011008001001001MA1999999099661MD1999999+0021REMSYN070AAXX  07184 82678 32596 40904 10352 20128 39966 40121 84100 333 58002;EQDQ01  00002PRCP06
0198826780999992003080800004-06767-043017FM-12+013899999V0209999C000012200019N0002001N1+02891+01531101421ADDAA106000091GF104991041001017501031001KA1240M+03651MA1999999099851MD1999999+0011REMSYN088AAXX  08004 82678 32792 40000 10289 20153 39985 40142 84030 333 10365 29041 55099 58001;EQDQ01  00002PRCP06
0196826780999992003080812004-06767-043017FM-12+013899999V0200901N004112200019N0040001N1+02861+01681101681ADDAA106000091GA1001+999999999GF100991001001999999001001KA1240N+02301MA1999999100111MD1999999-0021REMSYN070AAXX  08124 82678 32996 00908 10286 20168 30011 40168 333 20230 59002;EQDQ01  00002PRCP06
0167826780999992003080818004-06767-043017FM-12+013899999V0201401N003110075019N0040001N1+03641+01381101021ADDAA106000091GF105991051011008001001001MA1999999099471MD1999999-0191REMSYN070AAXX  08184 82678 32596 51406 10364 20138 39947 40102 85100 333 59019;EQDQ01  00002PRCP06
0198826780999992003080900004-06767-043017FM-12+013899999V0209999C000012200019N0002001N1+02961+01571101261ADDAA106000091GF102991021011017501001001KA1240M+03701MA1999999099701MD1999999-0151REMSYN088AAXX  09004 82678 32792 20000 10296 20157 39970 40126 82100 333 10370 29040 55108 59015;EQDQ01  00002PRCP06
0186826780999992003080912004-06767-043017FM-12+013899999V0200901N003112200019N0040001N1+02881+01751101741ADDAA106000091GF102991021001017501031001KA1240N+02561MA1999999100171MD1999999+0061REMSYN076AAXX  09124 82678 32796 20906 10288 20175 30017 40174 82030 333 20256 58006;EQDQ01  00002PRCP06
0167826780999992003080918004-06767-043017FM-12+013899999V0201401N002612200019N0040001N1+03661+01461101161ADDAA106000091GF102991021011008001001001MA1999999099621MD1999999+0151REMSYN070AAXX  09184 82678 32596 21405 10366 20146 39962 40116 82100 333 58015;EQDQ01  00002PRCP06
0198826780999992003081000004-06767-043017FM-12+013899999V0209999C000012200019N0002001N1+02801+01601101371ADDAA106000091GF102991021001017501031001KA1240M+03741MA1999999099801MD1999999+0101REMSYN088AAXX  10004 82678 32792 20000 10280 20160 39980 40137 82030 333 10374 29043 55107 58010;EQDQ01  00002PRCP06
0186826780999992003081012004-06767-043017FM-12+013899999V0200901N003612200019N0500001N1+02841+01741101851ADDAA106000091GF102991021011008001001001KA1240N+02321MA1999999100241MD1999999+0101REMSYN076AAXX  10124 82678 32599 20907 10284 20174 30024 40185 82100 333 20232 58010;EQDQ01  00002PRCP06
0167826780999992003081018004-06767-043017FM-12+013899999V0201401N002112200019N0040001N1+03601+01411101271ADDAA106000091GF103991031011008001001001MA1999999099721MD1999999+0101REMSYN070AAXX  10184 82678 32596 31404 10360 20141 39972 40127 83100 333 58010;EQDQ01  00002PRCP06
0208826780999992003081100004-06767-043017FM-12+013899999V0209999C000012200019N0002001N1+02841+01631101451ADDAA106000091GA1001+999999999GF100991001001999999001001KA1240M+03681MA1999999099881MD1999999+0081REMSYN082AAXX  11004 82678 32992 00000 10284 20163 39988 40145 333 10368 29044 55107 58008;EQDQ01  00002PRCP06
0196826780999992003081112004-06767-043017FM-12+013899999V0200901N002612200019N0040001N1+03001+01681101701ADDAA106000091GA1001+999999999GF100991001001999999001001KA1240N+02211MA1999999100131MD1999999-0141REMSYN070AAXX  11124 82678 32996 00905 10300 20168 30013 40170 333 20221 59014;EQDQ01  00002PRCP06
0167826780999992003081118004-06767-043017FM-12+013899999V0200901N001010075019N0040001N1+03541+01521101221ADDAA106000091GF105991051021008001001001MA1999999099661MD1999999-0061REMSYN070AAXX  11184 82678 32596 50902 10354 20152 39966 40122 85200 333 59006;EQDQ01  00002PRCP06
0198826780999992003081200004-06767-043017FM-12+013899999V0201401N000510450019N0002001N1+03041+01571101561ADDAA106000091GF105991041051008001031001KA1240M+03631MA1999999099761MD1999999-0121REMSYN088AAXX  12004 82678 32592 51401 10304 20157 39976 40156 84530 333 10363 29039 55104 59012;EQDQ01  00002PRCP06
0196826780999992003081212004-06767-043017FM-12+013899999V0200901N004112200019N0040001N1+03001+01781101731ADDAA106000091GA1001+999999999GF100991001001999999001001KA1240N+02581MA1999999100171MD1999999+0041REMSYN070AAXX  12124 82678 32996 00908 10300 20178 30017 40173 333 20258 58004;EQDQ01  00002PRCP06
0167826780999992003081218004-06767-043017FM-12+013899999V0200901N002610075019N0040001N1+03531+01701101201ADDAA106000091GF105991051021008001001001MA1999999099651MD1999999-0011REMSYN070AAXX  12184 82678 32596 50905 10353 20170 39965 40120 85200 333 59001;EQDQ01  00002PRCP06
0198826780999992003081300004-06767-043017FM-12+013899999V0209999C000012200019N0002001N1+02941+01721101421ADDAA106000091GF102991011011999999031001KA1240M+03671MA1999999099861MD1999999+0101REMSYN088AAXX  13004 82678 32992 20000 10294 20172 39986 40142 81130 333 10367 29044 55103 58010;EQDQ01  00002PRCP06
0186826780999992003081312004-06767-043017FM-12+013899999V0200901N002612200019N0040001N1+02941+01761101801ADDAA106000091GF103991021011008001031001KA1240N+02581MA1999999100231MD1999999+0061REMSYN076AAXX  13124 82678 32596 30905 10294 20176 30023 40180 82130 333 20258 58006;EQDQ01  00002PRCP06
0167826780999992003081318004-06767-043017FM-12+013899999V0200901N001510075019N0040001N1+03581+01551101261ADDAA106000091GF106991051021008001001011MA1999999099711MD1999999+0061REMSYN070AAXX  13184 82678 32596 60903 10358 20155 39971 40126 85201 333 58006;EQDQ01  00002PRCP06
0208826780999992003081400004-06767-043017FM-12+013899999V0209999C000012200019N0002001N1+02921+01711101341ADDAA106000091GA1001+999999999GF100991001001999999001001KA1240M+03631MA1999999099781MD1999999-0081REMSYN082AAXX  14004 82678 32992 00000 10292 20171 39978 40134 333 10363 29044 55106 59008;EQDQ01  00002PRCP06
0196826780999992003081412004-06767-043017FM-12+013899999V0200901N003612200019N0040001N1+02881+01461101871ADDAA106000091GA1001+999999999GF100991001001999999001001KA1240N+02421MA1999999100301MD1999999+0071REMSYN070AAXX  14124 82678 32996 00907 10288 20146 30030 40187 333 20242 58007;EQDQ01  00002PRCP06
0167826780999992003081418004-06767-043017FM-12+013899999V0201401N002112200019N0040001N1+03601+01351101271ADDAA106000091GF104991041011008001001001MA1999999099721MD1999999+0011REMSYN070AAXX  14184 82678 32596 41404 10360 20135 39972 40127 84100 333 58001;EQDQ01  00002PRCP06
0214826780999992003081500004-06767-043017FM-12+013899999V0201801N000519999999N0020001N1+02811+01501101381ADDAA106000091GF105991999011008001001001KA1240M+03681MA1999999099811MD1999999+0031REMSYN088AAXX  15004 82678 32595 51801 10281 20150 39981 40138 82100 333 10368 29040 55101 58003;EQDQ01+000022SCOTLCQ02  00002PRCP06
0186826780999992003081512004-06767-043017FM-12+013899999V0203601N001512200019N0040001N1+03001+01491101721ADDAA106000091GF102991001001999999001011KA1240N+02301MA1999999100151MD1999999-0151REMSYN076AAXX  15124 82678 32996 23603 10300 20149 30015 40172 80001 333 20230 59015;EQDQ01  00002PRCP06
0167826780999992003081518004-06767-043017FM-12+013899999V0202701N001510450019N0040001N1+03611+01411101201ADDAA106000091GF106991021021008001011011MA1999999099641MD1999999-0081REMSYN070AAXX  15184 82678 32596 62703 10361 20141 39964 40120 82211 333 59008;EQDQ01  00002PRCP06
0208826780999992003081600004-06767-043017FM-12+013899999V0200901N000512200019N0002001N1+03031+01471101351ADDAA106000091GA1001+999999999GF100991001001999999001001KA1240M+03701MA1999999099791MD1999999-0021REMSYN082AAXX  16004 82678 32992 00901 10303 20147 39979 40135 333 10370 29036 55097 59002;EQDQ01  00002PRCP06
0186826780999992003081612004-06767-043017FM-12+013899999V0203601N001012200019N0040001N1+02821+02151101621ADDAA106000091GF102991011011008001031001KA1240N+02401MA1999999100051MD1999999-0101REMSYN076AAXX  16124 82678 32596 23602 10282 20215 30005 40162 81130 333 20240 59010;EQDQ01  00002PRCP06
0202826780999992003081700004-06767-043017FM-12+013899999V0202701N001012200019N0002001N1+02861+02061101381ADDAY161061AY221061GF101991011041008001001001KA1240M+03771MA1999999099811MD1999999+0021MW1021REMSYN100AAXX  17004 82678 21592 12702 10286 20206 39981 40138 70262 81400 333 10377 29056 55091 58002 69941;
0162826780999992003081712004-06767-043017FM-12+013899999V0203601N000510075019N0040001N1+02761+02141101741ADDGF106991061021008001001001KA1240N+02301MA1999999100161MD1999999+0111REMSYN082AAXX  17124 82678 22596 63601 10276 20214 30016 40174 86200 333 20230 58011 69944;
0167826780999992003081718004-06767-043017FM-12+013899999V0202701N001010075019N0040001N1+03501+01901101291ADDAA106000091GF105991051021008001001001MA1999999099731MD1999999+0131REMSYN070AAXX  17184 82678 32596 52702 10350 20190 39973 40129 85200 333 58013;EQDQ01  00002PRCP06
0208826780999992003081800004-06767-043017FM-12+013899999V0202301N000512200019N0002001N1+03061+01871101271ADDAA106000091GA1001+999999999GF100991001001999999001001KA1240M+03601MA1999999099711MD1999999-0101REMSYN082AAXX  18004 82678 32992 02301 10306 20187 39971 40127 333 10360 29052 55100 59010;EQDQ01  00002PRCP06
0186826780999992003081812004-06767-043017FM-12+013899999V0203201N001010450019N0040001N1+02861+02161101801ADDAA106000091GF106991021011008001031001KA1240N+02491MA1999999100231MD1999999+0071REMSYN076AAXX  18124 82678 32596 63202 10286 20216 30023 40180 82130 333 20249 58007;EQDQ01  00002PRCP06
0167826780999992003081818004-06767-043017FM-12+013899999V0200501N001010075019N0040001N1+03441+01961101331ADDAA106000091GF107991051051008001031021MA1999999099771MD1999999+0041REMSYN070AAXX  18184 82678 32596 70502 10344 20196 39977 40133 85532 333 58004;EQDQ01  00002PRCP06
0230826780999992003081900004-06767-043017FM-12+013899999V0203601N002610075019N0002001N1+03001+02111101561ADDAA106000091GF107991071051008001001001KA1240M+03511MA1999999099991MD1999999+0291REMSYN088AAXX  19004 82678 32592 73605 10300 20211 33000 40156 87500 333 10351 29056 55052 58029;EQDQ01+030001APOSP Q02+999990APOSP Q03  00002PRCP06
0186826780999992003081912004-06767-043017FM-12+013899999V0200901N005112200019N0040001N1+02901+01361102021ADDAA106000091GF108991021001017501011011KA1240N+02501MA1999999100451MD1999999+0221REMSYN076AAXX  19124 82678 32796 80910 10290 20136 30045 40202 82011 333 20250 58022;EQDQ01  00002PRCP06
0167826780999992003081918004-06767-043017FM-12+013899999V0201401N005110450019N0040001N1+03521+01391101471ADDAA106000091GF106991021011008001021011MA1999999099921MD1999999+0151REMSYN070AAXX  19184 82678 32596 61410 10352 20139 39992 40147 82121 333 58015;EQDQ01  00002PRCP06
0208826780999992003082000004-06767-043017FM-12+013899999V0200901N001012200019N0002001N1+02931+01341101681ADDAA106000091GA1001+999999999GF100991001001999999001001KA1240M+03631MA1999999100111MD1999999+0111REMSYN082AAXX  20004 82678 32992 00902 10293 20134 30011 40168 333 10363 29036 55105 58011;EQDQ01  00002PRCP06
0186826780999992003082012004-06767-043017FM-12+013899999V0200901N005112200019N0040001N1+02871+01781101901ADDAA106000091GF106991031021008001001041KA1240N+02301MA1999999100331MD1999999-0121REMSYN076AAXX  20124 82678 32596 60910 10287 20178 30033 40190 83204 333 20230 59012;EQDQ01  00002PRCP06
0167826780999992003082018004-06767-043017FM-12+013899999V0200901N004110450019N0040001N1+03331+01521101341ADDAA106000091GF106991031011008001021041MA1999999099781MD1999999-0141REMSYN070AAXX  20184 82678 32596 60908 10333 20152 39978 40134 83124 333 59014;EQDQ01  00002PRCP06
0208826780999992003082100004-06767-043017FM-12+013899999V0201401N001512200019N0002001N1+02921+01421101601ADDAA106000091GA1001+999999999GF100991001001999999001001KA1240M+03451MA1999999100031MD1999999-0081REMSYN082AAXX  21004 82678 32992 01403 10292 20142 30003 40160 333 10345 29042 55107 59008;EQDQ01  00002PRCP06
0196826780999992003082112004-06767-043017FM-12+013899999V0200901N004112200019N0040001N1+02821+01711101741ADDAA106000091GA1001+999999999GF100991001001999999001001KA1240N+02441MA1999999100171MD1999999-0161REMSYN070AAXX  21124 82678 32996 00908 10282 20171 30017 40174 333 20244 59016;EQDQ01  00002PRCP06
0167826780999992003082118004-06767-043017FM-12+013899999V0200901N001512200019N0040001N1+03541+01461101121ADDAA106000091GF104991021021008001001011MA1999999099571MD1999999-0211REMSYN070AAXX  21184 82678 32596 40903 10354 20146 39957 40112 82201 333 59021;EQDQ01  00002PRCP06
0208826780999992003082200004-06767-043017FM-12+013899999V0201401N001512200019N0002001N1+02961+01341101401ADDAA106000091GA1001+999999999GF100991001001999999001001KA1240M+03591MA1999999099841MD1999999-0191REMSYN082AAXX  22004 82678 32992 01403 10296 20134 39984 40140 333 10359 29038 55109 59019;EQDQ01  00002PRCP06
0196826780999992003082212004-06767-043017FM-12+013899999V0201401N005112200019N0040001N1+02801+01391101781ADDAA106000091GA1001+999999999GF100991001001999999001001KA1240N+02361MA1999999100211MD1999999+0041REMSYN070AAXX  22124 82678 32996 01410 10280 20139 30021 40178 333 20236 58004;EQDQ01  00002PRCP06
0167826780999992003082218004-06767-043017FM-12+013899999V0200901N002112200019N0040001N1+03541+01521101091ADDAA106000091GF103991021011008001001011MA1999999099541MD1999999-0031REMSYN070AAXX  22184 82678 32596 30904 10354 20152 39954 40109 82101 333 59003;EQDQ01  00002PRCP06
0208826780999992003082300004-06767-043017FM-12+013899999V0209999C000012200019N0002001N1+02881+01391101401ADDAA106000091GA1001+999999999GF100991001001999999001001KA1240M+03591MA1999999099831MD1999999-0011REMSYN082AAXX  23004 82678 32992 00000 10288 20139 39983 40140 333 10359 29038 55106 59001;EQDQ01  00002PRCP06
0186826780999992003082312004-06767-043017FM-12+013899999V0200901N003112200019N0040001N1+03061+01581101771ADDAA106000091GF103991011011008001001011KA1240N+02081MA1999999100201MD1999999-0011REMSYN076AAXX  23124 82678 32596 30906 10306 20158 30020 40177 81101 333 20208 59001;EQDQ01  00002PRCP06
0183826780999992003082318004-06767-043017FM-12+013899999V0200901N003110075019N0040001N1+03561+01481101171ADDAA106000091GF107991999021008001001001MA1999999099621MD1999999+0081REMSYN070AAXX  23184 82678 32596 70906 10356 20148 39962 40117 86200 333 58008;EQDQ01+000062SCOTLCQ02  00002PRCP06
0208826780999992003082400004-06767-043017FM-12+013899999V0201401N000512200019N0002001N1+02841+01351101281ADDAA106000091GA1001+999999999GF100991001001999999001001KA1240M+03601MA1999999099721MD1999999-0011REMSYN082AAXX  24004 82678 32992 01401 10284 20135 39972 40128 333 10360 29038 55105 59001;EQDQ01  00002PRCP06
0196826780999992003082412004-06767-043017FM-12+013899999V0200901N002612200019N0040001N1+02901+01551101701ADDAA106000091GA1001+999999999GF100991001001999999001001KA1240N+02521MA1999999100131MD1999999-0071REMSYN070AAXX  24124 82678 32996 00905 10290 20155 30013 40170 333 20252 59007;EQDQ01  00002PRCP06
0167826780999992003082418004-06767-043017FM-12+013899999V0201401N003112200019N0040001N1+03601+01521101091ADDAA106000091GF101991011011999999001001MA1999999099551MD1999999-0071REMSYN070AAXX  24184 82678 32996 11406 10360 20152 39955 40109 81100 333 59007;EQDQ01  00002PRCP06
0208826780999992003082500004-06767-043017FM-12+013899999V0209999C000012200019N0002001N1+02841+01431101301ADDAA106000091GA1001+999999999GF100991001001999999001001KA1240M+03701MA1999999099731MD1999999+0011REMSYN082AAXX  25004 82678 32992 00000 10284 20143 39973 40130 333 10370 29039 55108 58001;EQDQ01  00002PRCP06
0196826780999992003082512004-06767-043017FM-12+013899999V0200901N003112200019N0040001N1+02981+01731101711ADDAA106000091GA1001+999999999GF100991001001999999001001KA1240N+02271MA1999999100141MD1999999+0011REMSYN070AAXX  25124 82678 32996 00906 10298 20173 30014 40171 333 20227 58001;EQDQ01  00002PRCP06
0167826780999992003082518004-06767-043017FM-12+013899999V0201801N002112200019N0040001N1+03741+01141101101ADDAA106000091GF103991031011008001001001MA1999999099551MD1999999+0001REMSYN070AAXX  25184 82678 32596 31804 10374 20114 39955 40110 83100 333 58000;EQDQ01  00002PRCP06
0208826780999992003082600004-06767-043017FM-12+013899999V0209999C000012200019N0002001N1+02921+01501101301ADDAA106000091GA1001+999999999GF100991001001999999001001KA1240M+03811MA1999999099741MD1999999+0011REMSYN082AAXX  26004 82678 32992 00000 10292 20150 39974 40130 333 10381 29038 55109 58001;EQDQ01  00002PRCP06
0186826780999992003082612004-06767-043017FM-12+013899999V0200501N001512200019N0040001N1+02921+01831101571ADDAA106000091GF101991011011008001001001KA1240N+02101MA1999999100001MD1999999-0141REMSYN076AAXX  26124 82678 32596 10503 10292 20183 30000 40157 81100 333 20210 59014;EQDQ01  00002PRCP06
0167826780999992003082618004-06767-043017FM-12+013899999V0200901N003112200019N0040001N1+03781+01371100951ADDAA106000091GF103991021011008001001011MA1999999099401MD1999999-0151REMSYN070AAXX  26184 82678 32596 30906 10378 20137 39940 40095 82101 333 59015;EQDQ01  00002PRCP06
0208826780999992003082700004-06767-043017FM-12+013899999V0200901N001512200019N0002001N1+03071+01381101201ADDAA106000091GA1001+999999999GF100991001001999999001001KA1240M+03861MA1999999099651MD1999999-0091REMSYN082AAXX  27004 82678 32992 00903 10307 20138 39965 40120 333 10386 29037 55109 59009;EQDQ01  00002PRCP06
0186826780999992003082712004-06767-043017FM-12+013899999V0200501N001512200019N0040001N1+03081+02101101691ADDAA106000091GF103991021021008001001011KA1240N+02581MA1999999100131MD1999999+0131REMSYN076AAXX  27124 82678 32596 30503 10308 20210 30013 40169 82201 333 20258 58013;EQDQ01  00002PRCP06
0167826780999992003082718004-06767-043017FM-12+013899999V0200901N001012200019N0040001N1+03741+01641101081ADDAA106000091GF104991031021008001001021MA1999999099541MD1999999+0141REMSYN070AAXX  27184 82678 32596 40902 10374 20164 39954 40108 83202 333 58014;EQDQ01  00002PRCP06
0198826780999992003082800004-06767-043017FM-12+013899999V0200501N002610075019N0002001N1+03061+01801101361ADDAA106000091GF108991081071008001999999KA1240M+03851MA1999999099811MD1999999+0161REMSYN088AAXX  28004 82678 32592 80505 10306 20180 39981 40136 887// 333 10385 29045 55109 58016;EQDQ01  00002PRCP06
0186826780999992003082812004-06767-043017FM-12+013899999V0200501N003112200019N0040001N1+03021+02071101771ADDAA106000091GF104991021021008001031011KA1240N+02601MA1999999100211MD1999999+0081REMSYN076AAXX  28124 82678 32596 40506 10302 20207 30021 40177 82231 333 20260 58008;EQDQ01  00002PRCP06
0167826780999992003082818004-06767-043017FM-12+013899999V0202301N001512200019N0040001N1+03581+01931101171ADDAA106000091GF104991031021008001001021MA1999999099631MD1999999+0091REMSYN070AAXX  28184 82678 32596 42303 10358 20193 39963 40117 83202 333 58009;EQDQ01  00002PRCP06
0198826780999992003082900004-06767-043017FM-12+013899999V0209999C000019999999N0002001N1+02901+01871101401ADDAA106000091GF108991081001017501001031KA1240M+03911MA1999999099841MD1999999+0031REMSYN088AAXX  29004 82678 32792 80000 10290 20187 39984 40140 88003 333 10391 29051 55093 58003;EQDQ01  00002PRCP06
0186826780999992003082912004-06767-043017FM-12+013899999V0202701N001012200019N0040001N1+02941+02031101781ADDAA106000091GF104991021001017501031021KA1240N+02421MA1999999100211MD1999999+0001REMSYN076AAXX  29124 82678 32796 42702 10294 20203 30021 40178 82032 333 20242 58000;EQDQ01  00002PRCP06
0167826780999992003082918004-06767-043017FM-12+013899999V0201401N001010075019N0040001N1+03601+01771101251ADDAA106000091GF105991051021008001001001MA1999999099701MD1999999+0071REMSYN070AAXX  29184 82678 32596 51402 10360 20177 39970 40125 85200 333 58007;EQDQ01  00002PRCP06
0208826780999992003083000004-06767-043017FM-12+013899999V0209999C000012200019N0002001N1+03001+01781101251ADDAA106000091GA1001+999999999GF100991001001999999001001KA1240M+03701MA1999999099691MD1999999-0151REMSYN082AAXX  30004 82678 32992 00000 10300 20178 39969 40125 333 10370 29047 55104 59015;EQDQ01  00002PRCP06
0209826780999992003083012004-06767-043017FM-12+013899999V0203201N001019999999N0040001N1+02801+02251101801ADDAY161061AY221061GF106991999011008001001001KA1240N+02341MA1999999100231MD1999999+0021MW1021REMSYN088AAXX  30124 82678 21596 63202 10280 20225 30023 40180 70262 82100 333 20234 58002 60074;EQDQ01+000022SCOTLC
0183826780999992003083018004-06767-043017FM-12+013899999V0203201N002110075019N0040001N1+03351+02091101321ADDAA106000091GF108991999011008001001001MA1999999099761MD1999999+0061REMSYN070AAXX  30184 82678 32596 83204 10335 20209 39976 40132 85100 333 58006;EQDQ01+000052SCOTLCQ02  00002PRCP06
0198826780999992003083100004-06767-043017FM-12+013899999V0209999C000012200019N0002001N1+02981+02091101431ADDAA106000091GF103991031051999999001001KA1240M+03551MA1999999099861MD1999999+0171REMSYN088AAXX  31004 82678 32992 30000 10298 20209 39986 40143 83500 333 10355 29060 55079 58017;EQDQ01  00002PRCP06
0186826780999992003083112004-06767-043017FM-12+013899999V0200901N002610450019N0040001N1+03001+01641101921ADDAA106000091GF106991031051008001031021KA1240N+02501MA1999999100351MD1999999+0121REMSYN076AAXX  31124 82678 32596 60905 10300 20164 30035 40192 83532 333 20250 58012;EQDQ01  00002PRCP06
0167826780999992003083118004-06767-043017FM-12+013899999V0203601N001510075019N0040001N1+03501+01771101381ADDAA106000091GF106991061021008001001001MA1999999099831MD1999999+0071REMSYN070AAXX  31184 82678 32596 63603 10350 20177 39983 40138 86200 333 58007;EQDQ01  00002PRCP06
0198826780999992003090100004-06767-043017FM-12+013899999V0209999C000012200019N0002001N1+02901+01751101471ADDAA106000091GF103991031001017501031001KA1240M+03611MA1999999099911MD1999999+0051REMSYN088AAXX  01004 82678 32792 30000 10290 20175 39991 40147 83030 333 10361 29045 55087 58005;EQDQ01  00002PRCP06
0186826780999992003090112004-06767-043017FM-12+013899999V0200901N004612200019N0040001N1+02981+01551101891ADDAA106000091GF103991001001999999001041KA1240N+02241MA1999999100321MD1999999-0031REMSYN076AAXX  01124 82678 32996 30909 10298 20155 30032 40189 80004 333 20224 59003;EQDQ01  00002PRCP06
0167826780999992003090118004-06767-043017FM-12+013899999V0200901N003112200019N0040001N1+03691+01091101321ADDAA106000091GF104991041011008001001001MA1999999099771MD1999999-0061REMSYN070AAXX  01184 82678 32596 40906 10369 20109 39977 40132 84100 333 59006;EQDQ01  00002PRCP06
0208826780999992003090200004-06767-043017FM-12+013899999V0201401N001012200019N0002001N1+02961+01711101441ADDAA106000091GA1001+999999999GF100991001001999999001001KA1240M+03701MA1999999099881MD1999999-0031REMSYN082AAXX  02004 82678 32992 01402 10296 20171 39988 40144 333 10370 29039 55110 59003;EQDQ01  00002PRCP06
0202826780999992003090212004-06767-043017FM-12+013899999V0201401N003110075019N0020001N1+02601+01741101751ADDAA106000091GF106991061061008001001001KA1240N+02331MA1999999999999MD1999999+0011REMSYN076AAXX  02124 82678 32595 61406 10260 20174 39724 40175 86600 333 20233 58001;EQDQ01  00002PRCP06Q02 097243APOSP 
0183826780999992003090218004-06767-043017FM-12+013899999V0200901N001511050019N0040001N1+03621+01641101391ADDAA106000091GF105991031021008001001021MA1999999099842MD1999999+0071REMSYN070AAXX  02184 82678 32596 50903 10362 20164 39984 40139 83202 333 58007;EQDQ01+099843APOSP Q02  00002PRCP06
0208826780999992003090300004-06767-043017FM-12+013899999V0209999C000012200019N0002001N1+03061+01421101491ADDAA106000091GA1001+999999999GF100991001001999999001001KA1240M+03661MA1999999099931MD1999999+0031REMSYN082AAXX  03004 82678 32992 00000 10306 20142 39993 40149 333 10366 29038 55099 58003;EQDQ01  00002PRCP06
0196826780999992003090312004-06767-043017FM-12+013899999V0200901N002112200019N0002001N1+02921+01711101901ADDAA106000091GA1001+999999999GF100991001001999999001001KA1240N+02501MA1999999100331MD1999999-0031REMSYN070AAXX  03124 82678 32992 00904 10292 20171 30033 40190 333 20250 59003;EQDQ01  00002PRCP06
0167826780999992003090318004-06767-043017FM-12+013899999V0201401N001512200019N0040001N1+03621+01591101361ADDAA106000091GF104991021011008001001041MA1999999099811MD1999999-0031REMSYN070AAXX  03184 82678 32596 41403 10362 20159 39981 40136 82104 333 59003;EQDQ01  00002PRCP06
0208826780999992003090400004-06767-043017FM-12+013899999V0200901N001512200019N0002001N1+03161+01471101601ADDAA106000091GA1001+999999999GF100991001001999999001001KA1240M+03711MA1999999100041MD1999999+0111REMSYN082AAXX  04004 82678 32992 00903 10316 20147 30004 40160 333 10371 29038 55100 58011;EQDQ01  00002PRCP06
0196826780999992003090412004-06767-043017FM-12+013899999V0200901N003112200019N0040001N1+02901+01521101971ADDAA106000091GA1001+999999999GF100991001001999999001001KA1240N+02621MA1999999099421MD1999999+0091REMSYN070AAXX  04124 82678 32996 00906 10290 20152 39942 40197 333 20262 58009;EQDQ01  00002PRCP06
0167826780999992003090418004-06767-043017FM-12+013899999V0200901N003112200019N0040001N1+03701+01431101321ADDAA106000091GF105991041021008001001011MA1999999099781MD1999999-0031REMSYN070AAXX  04184 82678 32596 50906 10370 20143 39978 40132 84201 333 59003;EQDQ01  00002PRCP06
0208826780999992003090500004-06767-043017FM-12+013899999V0200901N004112200019N0002001N1+03161+01711101561ADDAA106000091GA1001+999999999GF100991001001999999001001KA1240M+03781MA1999999100111MD1999999+0071REMSYN082AAXX  05004 82678 32992 00908 10316 20171 30011 40156 333 10378 29038 55106 58007;EQDQ01  00002PRCP06
0196826780999992003090512004-06767-043017FM-12+013899999V0200901N004612200019N0040001N1+02841+01461101971ADDAA106000091GA1001+999999999GF100991001001999999001001KA1240N+02581MA1999999100411MD1999999-0011REMSYN070AAXX  05124 82678 32996 00909 10284 20146 30041 40197 333 20258 59001;EQDQ01  00002PRCP06
0167826780999992003090518004-06767-043017FM-12+013899999V0201401N003110075019N0040001N1+03441+01671101451ADDAA106000091GF107991051021008001001021MA1999999099901MD1999999+0121REMSYN070AAXX  05184 82678 32596 71406 10344 20167 39990 40145 85202 333 58012;EQDQ01  00002PRCP06
0198826780999992003090600004-06767-043017FM-12+013899999V0200901N001510150019N0002001N1+03061+01551101581ADDAA106000091GF105991051001017501031001KA1240M+03601MA1999999100021MD1999999-0091REMSYN088AAXX  06004 82678 32792 50903 10306 20155 30002 40158 85030 333 10360 29040 55095 59009;EQDQ01  00002PRCP06
0186826780999992003090612004-06767-043017FM-12+013899999V0200901N005712200019N0040001N1+02851+01631101871ADDAA106000091GF103991031011008001001001KA1240N+02441MA1999999100301MD1999999-0111REMSYN076AAXX  06124 82678 32596 30911 10285 20163 30030 40187 83100 333 20244 59011;EQDQ01  00002PRCP06
0167826780999992003090618004-06767-043017FM-12+013899999V0200901N004112200019N0040001N1+03501+01481101151ADDAA106000091GF104991041011008001001001MA1999999099601MD1999999-0301REMSYN070AAXX  06184 82678 32596 40908 10350 20148 39960 40115 84100 333 59030;EQDQ01  00002PRCP06
0208826780999992003090700004-06767-043017FM-12+013899999V0201401N001512200019N0002001N1+03031+01431101421ADDAA106000091GA1001+999999999GF100991001001999999001001KA1240M+03611MA1999999099861MD1999999-0161REMSYN082AAXX  07004 82678 32992 01403 10303 20143 39986 40142 333 10361 29038 55104 59016;EQDQ01  00002PRCP06
0186826780999992003090712004-06767-043017FM-12+013899999V0201401N003112200019N0040001N1+02861+01681101821ADDAA106000091GF103991031011008001001001KA1240N+02421MA1999999100251MD1999999-0051REMSYN076AAXX  07124 82678 32596 31406 10286 20168 30025 40182 83100 333 20242 59005;EQDQ01  00002PRCP06
0167826780999992003090718004-06767-043017FM-12+013899999V0200501N002612200019N0040001N1+03551+01301101171ADDAA106000091GF105991041011008001001011MA1999999099621MD1999999+0021REMSYN070AAXX  07184 82678 32596 50505 10355 20130 39962 40117 84101 333 58002;EQDQ01  00002PRCP06
0208826780999992003090800004-06767-043017FM-12+013899999V0201401N003112200019N0002001N1+03081+01441101431ADDAA106000091GA1001+999999999GF100991001001999999001001KA1240M+03661MA1999999099871MD1999999+0011REMSYN082AAXX  08004 82678 32992 01406 10308 20144 39987 40143 333 10366 29037 55106 58001;EQDQ01  00002PRCP06
0196826780999992003090812004-06767-043017FM-12+013899999V0201401N004112200019N0040001N1+02801+01661101821ADDAA106000091GA1001+999999999GF100991001001999999001001KA1240N+02441MA1999999100251MD1999999+0001REMSYN070AAXX  08124 82678 32996 01408 10280 20166 30025 40182 333 20244 58000;EQDQ01  00002PRCP06
0208826780999992003090900004-06767-043017FM-12+013899999V0209999C000012200019N0002001N1+02901+01281101421ADDAA106000091GA1001+999999999GF100991001001999999001001KA1240M+03641MA1999999099851MD1999999-0021REMSYN082AAXX  09004 82678 32992 00000 10290 20128 39985 40142 333 10364 29039 55105 59002;EQDQ01  00002PRCP06
0186826780999992003090912004-06767-043017FM-12+013899999V0200901N002610450019N0040001N1+02801+01811101851ADDAA106000091GF108991031021008001031011KA1240N+02541MA1999999100271MD1999999+0021REMSYN076AAXX  09124 82678 32596 80905 10280 20181 30027 40185 83231 333 20254 58002;EQDQ01  00002PRCP06
0208826780999992003091000004-06767-043017FM-12+013899999V0201401N001512200019N0002001N1+03121+01521101461ADDAA106000091GA1001+999999999GF100991001001999999001001KA1240M+03621MA1999999099901MD1999999+0051REMSYN082AAXX  10004 82678 32992 01403 10312 20152 39990 40146 333 10362 29041 55087 58005;EQDQ01  00002PRCP06
0186826780999992003091012004-06767-043017FM-12+013899999V0200901N004112200019N0040001N1+03021+01921101711ADDAA106000091GF101991011001017501031001KA1240N+02601MA1999999100151MD1999999-0121REMSYN076AAXX  10124 82678 32796 10908 10302 20192 30015 40171 81030 333 20260 59012;EQDQ01  00002PRCP06
0167826780999992003091018004-06767-043017FM-12+013899999V0201401N003110075019N0040001N1+03661+01621101171ADDAA106000091GF105991051021008001001001MA1999999099641MD1999999+0001REMSYN070AAXX  10184 82678 32596 51406 10366 20162 39964 40117 85200 333 58000;EQDQ01  00002PRCP06
0208826780999992003091100004-06767-043017FM-12+013899999V0209999C000012200019N0002001N1+03041+01531101321ADDAA106000091GA1001+999999999GF100991001001999999001001KA1240M+03781MA1999999099771MD1999999-0131REMSYN082AAXX  11004 82678 32992 00000 10304 20153 39977 40132 333 10378 29040 55103 59013;EQDQ01  00002PRCP06
0196826780999992003091112004-06767-043017FM-12+013899999V0200901N003112200019N0040001N1+03141+01771101561ADDAA106000091GA1001+999999999GF100991001001999999001001KA1240N+02601MA1999999100011MD1999999-0141REMSYN070AAXX  11124 82678 32996 00906 10314 20177 30001 40156 333 20260 59014;EQDQ01  00002PRCP06
0167826780999992003091118004-06767-043017FM-12+013899999V0201401N001010075019N0040001N1+03801+01521100991ADDAA106000091GF105991051011008001001001MA1999999099461MD1999999-0181REMSYN070AAXX  11184 82678 32596 51402 10380 20152 39946 40099 85100 333 59018;EQDQ01  00002PRCP06
0198826780999992003091200004-06767-043017FM-12+013899999V0200901N000512200019N0002001N1+03301+01411101171ADDAA106000091GF101991011001017501031001KA1240M+03901MA1999999099631MD1999999-0141REMSYN088AAXX  12004 82678 32792 10901 10330 20141 39963 40117 81030 333 10390 29034 55108 59014;EQDQ01  00002PRCP06
0186826780999992003091212004-06767-043017FM-12+013899999V0200501N001512200019N0040001N1+03271+01681101671ADDAA106000091GF102991011011008001031001KA1240N+02681MA1999999100131MD1999999+0121REMSYN076AAXX  12124 82678 32596 20503 10327 20168 30013 40167 81130 333 20268 58012;EQDQ01  00002PRCP06
0186826780999992003091312004-06767-043017FM-12+013899999V0200501N003612200019N0040001N1+03181+01731101751ADDAA106000091GF104991041011008001001001KA1240N+02751MA1999999100201MD1999999+0071REMSYN076AAXX  13124 82678 32596 40507 10318 20173 30020 40175 84100 333 20275 58007;EQDQ01  00002PRCP06
0167826780999992003091318004-06767-043017FM-12+013899999V0200901N001510075019N0040001N1+03701+01551101171ADDAA106000091GF105991051021008001001001MA1999999099631MD1999999+0021REMSYN070AAXX  13184 82678 32596 50903 10370 20155 39963 40117 85200 333 58002;EQDQ01  00002PRCP06
0196826780999992003091412004-06767-043017FM-12+013899999V0200501N001512200019N0040001N1+03221+01651101701ADDAA106000091GA1001+999999999GF100991001001999999001001KA1240N+02641MA1999999100151MD1999999-0051REMSYN070AAXX  14124 82678 32996 00503 10322 20165 30015 40170 333 20264 59005;EQDQ01  00002PRCP06
0167826780999992003091418004-06767-043017FM-12+013899999V0200501N001012200019N0040001N1+03781+01831101111ADDAA106000091GF104991031021008001001021MA1999999099571MD1999999-0061REMSYN070AAXX  14184 82678 32596 40502 10378 20183 39957 40111 83202 333 59006;EQDQ01  00002PRCP06
0208826780999992003091500004-06767-043017FM-12+013899999V0209999C000012200019N0002001N1+03001+01681101241ADDAA106000091GA1001+999999999GF100991001001999999001001KA1240M+03821MA1999999099691MD1999999-0121REMSYN082AAXX  15004 82678 32992 00000 10300 20168 39969 40124 333 10382 29040 55087 59012;EQDQ01  00002PRCP06
0196826780999992003091512004-06767-043017FM-12+013899999V0200901N001512200019N0040001N1+03221+01691101621ADDAA106000091GA1001+999999999GF100991001001999999001001KA1240N+02441MA1999999100061MD1999999-0091REMSYN070AAXX  15124 82678 32996 00903 10322 20169 30006 40162 333 20244 59009;EQDQ01  00002PRCP06
0177826780999992003091618004-06767-043017FM-12+013899999V0202301N001512200019N0040001N1+03641+01381101081ADDAA106000091GA1001+999999999GF100991001001999999001001MA1999999099541MD1999999+0011REMSYN064AAXX  16184 82678 32996 02303 10364 20138 39954 40108 333 58001;EQDQ01  00002PRCP06
0208826780999992003091700004-06767-043017FM-12+013899999V0209999C000012200019N0002001N1+02921+01501101331ADDAA106000091GA1001+999999999GF100991001001999999001001KA1240M+03881MA1999999099771MD1999999+0031REMSYN082AAXX  17004 82678 32992 00000 10292 20150 39977 40133 333 10388 29038 55095 58003;EQDQ01  00002PRCP06
0186826780999992003091712004-06767-043017FM-12+013899999V0200901N003112200019N0040001N1+03191+01441101601ADDAA106000091GF102991011011008001001011KA1240N+02541MA1999999100041MD1999999-0141REMSYN076AAXX  17124 82678 32596 20906 10319 20144 30004 40160 81101 333 20254 59014;EQDQ01  00002PRCP06
0167826780999992003091718004-06767-043017FM-12+013899999V0200901N002610075019N0040001N1+03681+01581101161ADDAA106000091GF106991051021008001001011MA1999999099621MD1999999+0091REMSYN070AAXX  17184 82678 32596 60905 10368 20158 39962 40116 85201 333 58009;EQDQ01  00002PRCP06
0208826780999992003091800004-06767-043017FM-12+013899999V0201401N001512200019N0002001N1+03221+01431101191ADDAA106000091GA1001+999999999GF100991001001999999001001KA1240M+03741MA1999999099651MD1999999-0121REMSYN082AAXX  18004 82678 32992 01403 10322 20143 39965 40119 333 10374 29033 55108 59012;EQDQ01  00002PRCP06
0186826780999992003091812004-06767-043017FM-12+013899999V0200501N002612200019N0040001N1+03241+01361101461ADDAA106000091GF102991011011008001001011KA1240N+02681MA1999999099921MD1999999-0121REMSYN076AAXX  18124 82678 32596 20505 10324 20136 39992 40146 81101 333 20268 59012;EQDQ01  00002PRCP06
0167826780999992003091818004-06767-043017FM-12+013899999V0201401N003612200019N0040001N1+03781+01441100901ADDAA106000091GF105991041021008001001011MA1999999099371MD1999999-0251REMSYN070AAXX  18184 82678 32596 51407 10378 20144 39937 40090 84201 333 59025;EQDQ01  00002PRCP06
0208826780999992003091900004-06767-043017FM-12+013899999V0201401N001512200019N0002001N1+03271+01281101061ADDAA106000091GA1001+999999999GF100991001001999999001001KA1240M+03901MA1999999099521MD1999999-0131REMSYN082AAXX  19004 82678 32992 01403 10327 20128 39952 40106 333 10390 29029 55100 59013;EQDQ01  00002PRCP06
0186826780999992003091912004-06767-043017FM-12+013899999V0200901N002612200019N0040001N1+03241+01581101421ADDAA106000091GF108991021011008001001011KA1240N+02801MA1999999099881MD1999999-0041REMSYN076AAXX  19124 82678 32596 80905 10324 20158 39988 40142 82101 333 20280 59004;EQDQ01  00002PRCP06
0167826780999992003091918004-06767-043017FM-12+013899999V0201401N003612200019N0040001N1+03841+01151100781ADDAA106000091GF106991021011008001001011MA1999999099261MD1999999-0111REMSYN070AAXX  19184 82678 32596 61407 10384 20115 39926 40078 82101 333 59011;EQDQ01  00002PRCP06
0208826780999992003092000004-06767-043017FM-12+013899999V0201401N002612200019N0002001N1+03321+01381101051ADDAA106000091GA1001+999999999GF100991001001999999001001KA1240M+03901MA1999999099521MD1999999+0001REMSYN082AAXX  20004 82678 32992 01405 10332 20138 39952 40105 333 10390 29030 55107 58000;EQDQ01  00002PRCP06
0186826780999992003092012004-06767-043017FM-12+013899999V0200901N002612200019N0040001N1+03021+01551101551ADDAA106000091GF103991021011008001001011KA1240N+02581MA1999999100001MD1999999+0121REMSYN076AAXX  20124 82678 32596 30905 10302 20155 30000 40155 82101 333 20258 58012;EQDQ01  00002PRCP06
0167826780999992003092018004-06767-043017FM-12+013899999V0201401N003612200019N0040001N1+03761+01361101041ADDAA106000091GF103991021021008001001011MA1999999099501MD1999999+0241REMSYN070AAXX  20184 82678 32596 31407 10376 20136 39950 40104 82201 333 58024;EQDQ01  00002PRCP06
0196826780999992003092112004-06767-043017FM-12+013899999V0200901N004112200019N0040001N1+03041+01491101621ADDAA106000091GA1001+999999999GF100991001001999999001001KA1240N+02621MA1999999100071MD1999999+0071REMSYN070AAXX  21124 82678 32996 00908 10304 20149 30007 40162 333 20262 58007;EQDQ01  00002PRCP06
0183826780999992003092118004-06767-043017FM-12+013899999V0201401N001012200019N0040001N1+03761+01151101051ADDAA106000091GF103991999011008001001001MA1999999099521MD1999999+0021REMSYN070AAXX  21184 82678 32596 31402 10376 20115 39952 40105 82100 333 58002;EQDQ01+000022SCOTLCQ02  00002PRCP06
0208826780999992003092200004-06767-043017FM-12+013899999V0209999C000012200019N0020001N1+02881+01461101291ADDAA106000091GA1001+999999999GF100991001001999999001001KA1240M+03881MA1999999099731MD1999999+0041REMSYN082AAXX  22004 82678 32995 00000 10288 20146 39973 40129 333 10388 29036 55101 58004;EQDQ01  00002PRCP06
0196826780999992003092212004-06767-043017FM-12+013899999V0200901N003112200019N0040001N1+02981+01761101611ADDAA106000091GA1001+999999999GF100991001001999999001001KA1240N+02461MA1999999100051MD1999999-0021REMSYN070AAXX  22124 82678 32996 00906 10298 20176 30005 40161 333 20246 59002;EQDQ01  00002PRCP06
0167826780999992003092218004-06767-043017FM-12+013899999V0201401N003112200019N0040001N1+03721+01321100991ADDAA106000091GF102991011011008001001011MA1999999099451MD1999999-0071REMSYN070AAXX  22184 82678 32596 21406 10372 20132 39945 40099 81101 333 59007;EQDQ01  00002PRCP06
0208826780999992003092400004-06767-043017FM-12+013899999V0209999C000012200019N0002001N1+02961+01571101051ADDAA106000091GA1001+999999999GF100991001001999999001001KA1240M+03801MA1999999099501MD1999999-0171REMSYN082AAXX  24004 82678 32992 00000 10296 20157 39950 40105 333 10380 29038 55101 59017;EQDQ01  00002PRCP06
0196826780999992003092412004-06767-043017FM-12+013899999V0201401N003112200019N0040001N1+03111+01241101531ADDAA106000091GA1001+999999999GF100991001001999999001001KA1240N+02401MA1999999099971MD1999999+0001REMSYN070AAXX  24124 82678 32996 01406 10311 20124 39997 40153 333 20240 58000;EQDQ01  00002PRCP06
0167826780999992003092418004-06767-043017FM-12+013899999V0202301N001012200019N0040001N1+03761+01361100921ADDAA106000091GF103991021011008001001011MA1999999099381MD1999999-0021REMSYN070AAXX  24184 82678 32596 32302 10376 20136 39938 40092 82101 333 59002;EQDQ01  00002PRCP06
0208826780999992003092500004-06767-043017FM-12+013899999V0200901N000512200019N0002001N1+03051+01091101021ADDAA106000091GA1001+999999999GF100991001001999999001001KA1240M+03841MA1999999099471MD1999999-0031REMSYN082AAXX  25004 82678 32992 00901 10305 20109 39947 40102 333 10384 29029 55109 59003;EQDQ01  00002PRCP06
0186826780999992003092512004-06767-043017FM-12+013899999V0203201N001512200019N0040001N1+03101+01871101411ADDAA106000091GF101991011011008001001001KA1240N+02281MA1999999099861MD1999999-0111REMSYN076AAXX  25124 82678 32596 13203 10310 20187 39986 40141 81100 333 20228 59011;EQDQ01  00002PRCP06
0167826780999992003092518004-06767-043017FM-12+013899999V0201401N002612200019N0040001N1+03861+01001100861ADDAA106000091GF102991021011008001001001MA1999999099321MD1999999-0061REMSYN070AAXX  25184 82678 32596 21405 10386 20100 39932 40086 82100 333 59006;EQDQ01  00002PRCP06
0196826780999992003092612004-06767-043017FM-12+013899999V0200501N001012200019N0040001N1+03081+02161101391ADDAA106000091GA1001+999999999GF100991001001999999001001KA1240N+02521MA1999999099841MD1999999-0021REMSYN070AAXX  26124 82678 32996 00502 10308 20216 39984 40139 333 20252 59002;EQDQ01  00002PRCP06
0183826780999992003092618004-06767-043017FM-12+013899999V0201401N001512200019N0040001N1+03881+01541100082ADDAA106000091GF103991031011008001001011MA1999999099271MD1999999-0051REMSYN070AAXX  26184 82678 32596 31403 10388 20154 39927 40008 83101 333 59005;EQDQ01+100083APOSLPQ02  00002PRCP06
0208826780999992003092700004-06767-043017FM-12+013899999V0209999C000012200019N0002001N1+03101+01421100941ADDAA106000091GA1001+999999999GF100991001001999999001001KA1240M+03961MA1999999099401MD1999999-0091REMSYN082AAXX  27004 82678 32992 00000 10310 20142 39940 40094 333 10396 29039 55106 59009;EQDQ01  00002PRCP06
0186826780999992003092712004-06767-043017FM-12+013899999V0203601N001010450019N0040001N1+02961+02181101441ADDAA106000091GF105991031011008001031001KA1240N+02621MA1999999099881MD1999999+0041REMSYN076AAXX  27124 82678 32596 53602 10296 20218 39988 40144 83130 333 20262 58004;EQDQ01  00002PRCP06
0167826780999992003092718004-06767-043017FM-12+013899999V0203201N001010450019N0040001N1+03781+02101100661ADDAA106000091GF106991021021008001031011MA1999999099141MD1999999-0131REMSYN070AAXX  27184 82678 32596 63202 10378 20210 39914 40066 82231 333 59013;EQDQ01  00002PRCP06
0208826780999992003092800004-06767-043017FM-12+013899999V0209999C000012200019N0002001N1+03241+01711100801ADDAA106000091GA1001+999999999GF100991001001999999001001KA1240M+03881MA1999999099261MD1999999-0141REMSYN082AAXX  28004 82678 32992 00000 10324 20171 39926 40080 333 10388 29045 55098 59014;EQDQ01  00002PRCP06
0186826780999992003092812004-06767-043017FM-12+013899999V0203601N001010075019N0040001N1+02801+01921101421ADDAA106000091GF108991061051008001031021KA1240N+02571MA1999999099861MD1999999-0021REMSYN076AAXX  28124 82678 32596 83602 10280 20192 39986 40142 86532 333 20257 59002;EQDQ01  00002PRCP06
0167826780999992003092818004-06767-043017FM-12+013899999V0202301N001010075019N0040001N1+03701+01851100841ADDAA106000091GF105991051021008001001001MA1999999099301MD1999999+0161REMSYN070AAXX  28184 82678 32596 52302 10370 20185 39930 40084 85200 333 58016;EQDQ01  00002PRCP06
0198826780999992003092900004-06767-043017FM-12+013899999V0209999C000012200019N0002001N1+03241+01861101011ADDAA106000091GF103991031051008001001001KA1240M+03901MA1999999099461MD1999999+0201REMSYN088AAXX  29004 82678 32592 30000 10324 20186 39946 40101 83500 333 10390 29045 55081 58020;EQDQ01  00002PRCP06
0190826780999992003092912004-06767-043017FM-12+013899999V0203601N000510075019N0040001N1+03041+02061101441ADDAY161061AY221061GF107991051051008001031021KA1240N+02581MA1999999099891MD1999999+0031MW1021REMSYN088AAXX  29124 82678 21596 73601 10304 20206 39989 40144 70262 85532 333 20258 58003 69954;
0167826780999992003092918004-06767-043017FM-12+013899999V0203601N001010075019N0040001N1+03761+01811100901ADDAA106000091GF105991051021008001001001MA1999999099371MD1999999+0071REMSYN070AAXX  29184 82678 32596 53602 10376 20181 39937 40090 85200 333 58007;EQDQ01  00002PRCP06
0198826780999992003093000004-06767-043017FM-12+013899999V0209999C000012200019N0002001N1+03261+01881100961ADDAA106000091GF102991021001017501031001KA1240M+03901MA1999999099421MD1999999-0041REMSYN088AAXX  30004 82678 32792 20000 10326 20188 39942 40096 82030 333 10390 29044 55091 59004;EQDQ01  00002PRCP06
0186826780999992003093012004-06767-043017FM-12+013899999V0200501N002110450019N0040001N1+02951+02081101531ADDAA106000091GF108991041021008001021011KA1240N+02611MA1999999099981MD1999999+0091REMSYN076AAXX  30124 82678 32596 80504 10295 20208 39998 40153 84221 333 20261 58009;EQDQ01  00002PRCP06
0167826780999992003093018004-06767-043017FM-12+013899999V0202301N001010450019N0040001N1+03681+01931101021ADDAA106000091GF108991041021008001031011MA1999999099481MD1999999+0111REMSYN070AAXX  30184 82678 32596 82302 10368 20193 39948 40102 84231 333 58011;EQDQ01  00002PRCP06
0198826780999992003100100004-06767-043017FM-12+013899999V0209999C000019999999N0002001N1+03081+01851101071ADDAA106000091GF108991001001999999001011KA1240M+03751MA1999999099521MD1999999+0101REMSYN088AAXX  01004 82678 32992 80000 10308 20185 39952 40107 80001 333 10375 29048 55055 58010;EQDQ01  00002PRCP06
0186826780999992003100112004-06767-043017FM-12+013899999V0200501N002110450019N0040001N1+03101+02121101441ADDAA106000091GF108991041081008001021011KA1240N+02681MA1999999099891MD1999999-0091REMSYN076AAXX  01124 82678 32596 80504 10310 20212 39989 40144 84821 333 20268 59009;EQDQ01  00002PRCP06
0167826780999992003100118004-06767-043017FM-12+013899999V0200501N001010450019N0040001N1+03541+01711100901ADDAA106000091GF108991031021008001021011MA1999999099351MD1999999-0131REMSYN070AAXX  01184 82678 32596 80502 10354 20171 39935 40090 83221 333 59013;EQDQ01  00002PRCP06
0198826780999992003100200004-06767-043017FM-12+013899999V0202301N000512200019N0002001N1+03121+01891101051ADDAA106000091GF104991001001999999001011KA1240M+03741MA1999999099501MD1999999-0021REMSYN088AAXX  02004 82678 32992 42301 10312 20189 39950 40105 80001 333 10374 29047 55051 59002;EQDQ01  00002PRCP06
0186826780999992003100212004-06767-043017FM-12+013899999V0201401N001512200019N0040001N1+03201+01821101401ADDAA106000091GF104991021021008001031001KA1240N+02591MA1999999099851MD1999999-0041REMSYN076AAXX  02124 82678 32596 41403 10320 20182 39985 40140 82230 333 20259 59004;EQDQ01  00002PRCP06
0167826780999992003100218004-06767-043017FM-12+013899999V0201401N001510450019N0040001N1+03661+01671100811ADDAA106000091GF105991031021008001021011MA1999999099271MD1999999+0081REMSYN070AAXX  02184 82678 32596 51403 10366 20167 39927 40081 83221 333 58008;EQDQ01  00002PRCP06
0208826780999992003100300004-06767-043017FM-12+013899999V0201401N001512200019N0002001N1+03321+01431101001ADDAA106000091GA1001+999999999GF100991001001999999001001KA1240M+03771MA1999999099461MD1999999-0041REMSYN082AAXX  03004 82678 32992 01403 10332 20143 39946 40100 333 10377 29035 55104 59004;EQDQ01  00002PRCP06
0186826780999992003100312004-06767-043017FM-12+013899999V0203601N002612200019N0040001N1+03121+01711101511ADDAA106000091GF105991031021008001001011KA1240N+03121MA1999999099961MD1999999+0111REMSYN076AAXX  03124 82678 32596 53605 10312 20171 39996 40151 83201 333 20312 58011;EQDQ01  00002PRCP06
0167826780999992003100318004-06767-043017FM-12+013899999V0200901N002610450019N0040001N1+03601+01721100911ADDAA106000091GF105991041021008001021011MA1999999099371MD1999999+0101REMSYN070AAXX  03184 82678 32596 50905 10360 20172 39937 40091 84221 333 58010;EQDQ01  00002PRCP06
0198826780999992003100400004-06767-043017FM-12+013899999V0201401N003112200019N0002001N1+03201+01591101151ADDAA106000091GF102991001001999999001011KA1240M+03701MA1999999099611MD1999999+0151REMSYN088AAXX  04004 82678 32992 21406 10320 20159 39961 40115 80001 333 10370 29038 55086 58015;EQDQ01  00002PRCP06
0186826780999992003100412004-06767-043017FM-12+013899999V0200501N003612200019N0040001N1+03081+01561101561ADDAA106000091GF102991011011008001001011KA1240N+02381MA1999999100011MD1999999+0051REMSYN076AAXX  04124 82678 32596 20507 10308 20156 30001 40156 81101 333 20238 58005;EQDQ01  00002PRCP06
0167826780999992003100418004-06767-043017FM-12+013899999V0200901N003112200019N0040001N1+03681+01641101051ADDAA106000091GF105991031021008001001011MA1999999099501MD1999999+0131REMSYN070AAXX  04184 82678 32596 50906 10368 20164 39950 40105 83201 333 58013;EQDQ01  00002PRCP06
0208826780999992003100500004-06767-043017FM-12+013899999V0201401N001512200019N0002001N1+03201+01321101111ADDAA106000091GA1001+999999999GF100991001001999999001001KA1240M+03761MA1999999099571MD1999999+0041REMSYN082AAXX  05004 82678 32992 01403 10320 20132 39957 40111 333 10376 29034 55107 58004;EQDQ01  00002PRCP06
0186826780999992003100512004-06767-043017FM-12+013899999V0200901N004112200019N0040001N1+03081+01681101411ADDAA106000091GF103991011011008001001011KA1240N+02581MA1999999099861MD1999999-0151REMSYN076AAXX  05124 82678 32596 30908 10308 20168 39986 40141 81101 333 20258 59015;EQDQ01  00002PRCP06
0167826780999992003100518004-06767-043017FM-12+013899999V0201401N003111050019N0040001N1+03781+01611100811ADDAA106000091GF105991031011008001001021MA1999999099261MD1999999-0141REMSYN070AAXX  05184 82678 32596 51406 10378 20161 39926 40081 83102 333 59014;EQDQ01  00002PRCP06
0208826780999992003100600004-06767-043017FM-12+013899999V0209999C000012200019N0002001N1+03201+01551100931ADDAA106000091GA1001+999999999GF100991001001999999001001KA1240M+03881MA1999999099371MD1999999-0201REMSYN082AAXX  06004 82678 32992 00000 10320 20155 39937 40093 333 10388 29036 55107 59020;EQDQ01  00002PRCP06
0186826780999992003100612004-06767-043017FM-12+013899999V0200901N003612200019N0040001N1+03211+01511101371ADDAA106000091GF108991011001017501031011KA1240N+02491MA1999999099831MD1999999-0031REMSYN076AAXX  06124 82678 32796 80907 10321 20151 39983 40137 81031 333 20249 59003;EQDQ01  00002PRCP06
0167826780999992003100618004-06767-043017FM-12+013899999V0202701N001510450019N0040001N1+03801+01391100741ADDAA106000091GF108991021011008001011011MA1999999099201MD1999999-0061REMSYN070AAXX  06184 82678 32596 82703 10380 20139 39920 40074 82111 333 59006;EQDQ01  00002PRCP06
0198826780999992003100700004-06767-043017FM-12+013899999V0209999C000012200019N0002001N1+03141+01451100951ADDAA106000091GF102991021001999999031001KA1240M+03881MA1999999099411MD1999999+0041REMSYN088AAXX  07004 82678 32992 20000 10314 20145 39941 40095 82030 333 10388 29033 55104 58004;EQDQ01  00002PRCP06
0186826780999992003100712004-06767-043017FM-12+013899999V0200901N002112200019N0040001N1+03281+01861101461ADDAA106000091GF108991021011008001001011KA1240N+02461MA1999999099911MD1999999+0081REMSYN076AAXX  07124 82678 32596 80904 10328 20186 39991 40146 82101 333 20246 58008;EQDQ01  00002PRCP06
0167826780999992003100718004-06767-043017FM-12+013899999V0201801N002112200019N0040001N1+03841+01421100841ADDAA106000091GF106991041021008001001011MA1999999099311MD1999999+0111REMSYN070AAXX  07184 82678 32596 61804 10384 20142 39931 40084 84201 333 58011;EQDQ01  00002PRCP06
0198826780999992003100800004-06767-043017FM-12+013899999V0201401N001512200019N0002001N1+03331+01331101051ADDAA106000091GF102991011001017501031011KA1240M+03961MA1999999099521MD1999999+0111REMSYN088AAXX  08004 82678 32792 21403 10333 20133 39952 40105 81031 333 10396 29032 55102 58011;EQDQ01  00002PRCP06
0186826780999992003100812004-06767-043017FM-12+013899999V0209999C000012200019N0040001N1+03181+01911101391ADDAA106000091GF103991021021008001001011KA1240N+02541MA1999999099851MD1999999-0061REMSYN076AAXX  08124 82678 32596 30000 10318 20191 39985 40139 82201 333 20254 59006;EQDQ01  00002PRCP06
0167826780999992003100818004-06767-043017FM-12+013899999V0200501N001512200019N0040001N1+03821+01651100871ADDAA106000091GF102991011011008001001011MA1999999099341MD1999999+0031REMSYN070AAXX  08184 82678 32596 20503 10382 20165 39934 40087 81101 333 58003;EQDQ01  00002PRCP06
0208826780999992003100900004-06767-043017FM-12+013899999V0201401N001512200019N0002001N1+03281+01441101131ADDAA106000091GA1001+999999999GF100991001001999999001001KA1240M+03881MA1999999099591MD1999999+0071REMSYN082AAXX  09004 82678 32992 01403 10328 20144 39959 40113 333 10388 29035 55107 58007;EQDQ01  00002PRCP06
0186826780999992003100912004-06767-043017FM-12+013899999V0200501N003112200019N0040001N1+03141+01661101421ADDAA106000091GF102991011011008001001011KA1240N+02541MA1999999099871MD1999999+0021REMSYN076AAXX  09124 82678 32596 20506 10314 20166 39987 40142 81101 333 20254 58002;EQDQ01  00002PRCP06
0167826780999992003100918004-06767-043017FM-12+013899999V0200901N003112200019N0040001N1+03801+01391100791ADDAA106000091GF103991021021008001001011MA1999999099261MD1999999-0081REMSYN070AAXX  09184 82678 32596 30906 10380 20139 39926 40079 82201 333 59008;EQDQ01  00002PRCP06
0208826780999992003101000004-06767-043017FM-12+013899999V0201401N001512200019N0002001N1+03241+00991101041ADDAA106000091GA1001+999999999GF100991001001999999001001KA1240M+03841MA1999999099501MD1999999-0091REMSYN082AAXX  10004 82678 32992 01403 10324 20099 39950 40104 333 10384 29029 55098 59009;EQDQ01  00002PRCP06
0186826780999992003101012004-06767-043017FM-12+013899999V0200501N004119999999N0040001N1+03211+01631101331ADDAA106000091GF108991001001999999001011KA1240N+02361MA1999999099811MD1999999-0061REMSYN076AAXX  10124 82678 32996 80508 10321 20163 39981 40133 80001 333 20236 59006;EQDQ01  00002PRCP06
0167826780999992003101018004-06767-043017FM-12+013899999V0200901N003112200019N0040001N1+03761+01481100791ADDAA106000091GF106991031021008001001011MA1999999099271MD1999999+0011REMSYN070AAXX  10184 82678 32596 60906 10376 20148 39927 40079 83201 333 58001;EQDQ01  00002PRCP06
0198826780999992003101100004-06767-043017FM-12+013899999V0201401N001012200019N0002001N1+03011+01491100931ADDAA106000091GF104991011011008001031011KA1240M+03861MA1999999099381MD1999999-0121REMSYN088AAXX  11004 82678 32592 41402 10301 20149 39938 40093 81131 333 10386 29036 55102 59012;EQDQ01  00002PRCP06
0186826780999992003101112004-06767-043017FM-12+013899999V0200901N001519999999N0040001N1+03221+01431101441ADDAA106000091GF105991001001999999001021KA1240N+02501MA1999999099891MD1999999+0081REMSYN076AAXX  11124 82678 32996 50903 10322 20143 39989 40144 80002 333 20250 58008;EQDQ01  00002PRCP06
0167826780999992003101118004-06767-043017FM-12+013899999V0201401N001010075019N0040001N1+03941+01271100901ADDAA106000091GF105991051021008001001001MA1999999099361MD1999999+0091REMSYN070AAXX  11184 82678 32596 51402 10394 20127 39936 40090 85200 333 58009;EQDQ01  00002PRCP06
0198826780999992003101200004-06767-043017FM-12+013899999V0209999C000011050019N0002001N1+03081+01561100981ADDAA106000091GF106991041001017501031021KA1240M+04001MA1999999099441MD1999999+0061REMSYN088AAXX  12004 82678 32792 60000 10308 20156 39944 40098 84032 333 10400 29034 55101 58006;EQDQ01  00002PRCP06
0186826780999992003101212004-06767-043017FM-12+013899999V0200501N001012200019N0040001N1+03141+02131101361ADDAA106000091GF105991031021008001001011KA1240N+02631MA1999999099811MD1999999-0081REMSYN076AAXX  12124 82678 32596 50502 10314 20213 39981 40136 83201 333 20263 59008;EQDQ01  00002PRCP06
0167826780999992003101218004-06767-043017FM-12+013899999V0202701N001512200019N0040001N1+03701+01711100851ADDAA106000091GF106991041021008001001011MA1999999099311MD1999999-0051REMSYN070AAXX  12184 82678 32596 62703 10370 20171 39931 40085 84201 333 59005;EQDQ01  00002PRCP06
0198826780999992003101300004-06767-043017FM-12+013899999V0201801N001012200019N0002001N1+03231+01801101051ADDAA106000091GF105991021001017501011011KA1240M+03841MA1999999099511MD1999999+0071REMSYN088AAXX  13004 82678 32792 51802 10323 20180 39951 40105 82011 333 10384 29043 55103 58007;EQDQ01  00002PRCP06
0190826780999992003101312004-06767-043017FM-12+013899999V0200501N001510075019N0040001N1+02361+02111101491ADDAY161061AY221061GF108991051061008001021999KA1240N+02311MA1999999099921MD1999999+0111MW1021REMSYN088AAXX  13124 82678 21596 80503 10236 20211 39992 40149 70262 8562/ 333 20231 58011 60274;
0167826780999992003101318004-06767-043017FM-12+013899999V0202701N003610075019N0040001N1+02661+02221101191ADDAA106000091GF108991051051008001021999MA1999999099621MD1999999+0311REMSYN070AAXX  13184 82678 32596 82707 10266 20222 39962 40119 8552/ 333 58031;EQDQ01  00002PRCP06
0198826780999992003101400004-06767-043017FM-12+013899999V0202301N000510075019N0002001N1+02501+02171101301ADDAA106000091GF108991061051008001021999KA1240M+03221MA1999999099711MD1999999+0201REMSYN088AAXX  14004 82678 32592 82301 10250 20217 39971 40130 8652/ 333 10322 29082 55000 58020;EQDQ01  00002PRCP06
0186826780999992003101412004-06767-043017FM-12+013899999V0200901N002112200019N0040001N1+03021+01861101551ADDAA106000091GF104991021021008001001011KA1240N+02261MA1999999099971MD1999999+0051REMSYN076AAXX  14124 82678 32596 40904 10302 20186 39997 40155 82201 333 20226 58005;EQDQ01  00002PRCP06
0167826780999992003101418004-06767-043017FM-12+013899999V0200901N001511050019N0040001N1+03621+01861101001ADDAA106000091GF105991041021008001001021MA1999999099451MD1999999-0171REMSYN070AAXX  14184 82678 32596 50903 10362 20186 39945 40100 84202 333 59017;EQDQ01  00002PRCP06
0208826780999992003101500004-06767-043017FM-12+013899999V0209999C000012200019N0002001N1+02801+02061101111ADDAA106000091GA1001+999999999GF100991001001999999001001KA1240M+03741MA1999999099551MD1999999-0161REMSYN082AAXX  15004 82678 32992 00000 10280 20206 39955 40111 333 10374 29054 55097 59016;EQDQ01  00002PRCP06
0186826780999992003101512004-06767-043017FM-12+013899999V0201401N001511050019N0040001N1+03021+01921101621ADDAA106000091GF106991031021008001001021KA1240N+02321MA1999999100051MD1999999+0081REMSYN076AAXX  15124 82678 32596 61403 10302 20192 30005 40162 83202 333 20232 58008;EQDQ01  00002PRCP06
0167826780999992003101518004-06767-043017FM-12+013899999V0201401N001011050019N0040001N1+03561+01781101071ADDAA106000091GF106991041021008001001021MA1999999099521MD1999999+0071REMSYN070AAXX  15184 82678 32596 61402 10356 20178 39952 40107 84202 333 58007;EQDQ01  00002PRCP06
0208826780999992003101600004-06767-043017FM-12+013899999V0201401N001012200019N0002001N1+03201+01671101291ADDAA106000091GA1001+999999999GF100991001001999999001001KA1240M+03621MA1999999099741MD1999999+0191REMSYN082AAXX  16004 82678 32992 01402 10320 20167 39974 40129 333 10362 29042 55084 58019;EQDQ01  00002PRCP06
0167826780999992003101618004-06767-043017FM-12+013899999V0201401N001510075019N0040001N1+03621+01691101061ADDAA106000091GF106991051021008001001011MA1999999099521MD1999999+0001REMSYN070AAXX  16184 82678 32596 61403 10362 20169 39952 40106 85201 333 58000;EQDQ01  00002PRCP06
0208826780999992003101700004-06767-043017FM-12+013899999V0201401N004112200019N0002001N1+03161+01671101271ADDAA106000091GA1001+999999999GF100991001001999999001001KA1240M+03701MA1999999099711MD1999999-0031REMSYN082AAXX  17004 82678 32992 01408 10316 20167 39971 40127 333 10370 29042 55099 59003;EQDQ01  00002PRCP06
0186826780999992003101712004-06767-043017FM-12+013899999V0200901N000512200019N0040001N1+02941+01761101531ADDAA106000091GF103991021011008001001021KA1240N+02541MA1999999099971MD1999999-0141REMSYN076AAXX  17124 82678 32596 30901 10294 20176 39997 40153 82102 333 20254 59014;EQDQ01  00002PRCP06
0167826780999992003101718004-06767-043017FM-12+013899999V0201401N002112200019N0040001N1+03521+01831100961ADDAA106000091GF104991031021008001001011MA1999999099421MD1999999-0101REMSYN070AAXX  17184 82678 32596 41404 10352 20183 39942 40096 83201 333 59010;EQDQ01  00002PRCP06
0198826780999992003101800004-06767-043017FM-12+013899999V0201401N000512200019N0002001N1+03161+01671101111ADDAA106000091GF103991031001008001031001KA1240M+03701MA1999999099561MD1999999-0151REMSYN088AAXX  18004 82678 32592 31401 10316 20167 39956 40111 83030 333 10370 29042 55107 59015;EQDQ01  00002PRCP06
0186826780999992003101812004-06767-043017FM-12+013899999V0200901N003619999999N0040001N1+03001+01841101501ADDAA106000091GF106991999021008001001001KA1240N+02641MA1999999099951MD1999999-0021REMSYN076AAXX  18124 82678 32596 60907 10300 20184 39995 40150 84200 333 20264 59002;EQDQ01  00002PRCP06
0167826780999992003101818004-06767-043017FM-12+013899999V0200501N002110075019N0040001N1+03641+01651100951ADDAA106000091GF106991999021008001001001MA1999999099411MD1999999-0011REMSYN070AAXX  18184 82678 32596 60504 10364 20165 39941 40095 85200 333 59001;EQDQ01  00002PRCP06
0198826780999992003101900004-06767-043017FM-12+013899999V0201401N002112200019N0002001N1+03281+01581101161ADDAA106000091GF102991011041008001001021KA1240M+03761MA1999999099621MD1999999+0061REMSYN088AAXX  19004 82678 32592 21404 10328 20158 39962 40116 81402 333 10376 29038 55106 58006;EQDQ01  00002PRCP06
0186826780999992003101912004-06767-043017FM-12+013899999V0200901N003612200019N0040001N1+03141+01841101481ADDAA106000091GF103991001001999999001011KA1240N+02771MA1999999099931MD1999999-0021REMSYN076AAXX  19124 82678 32996 30907 10314 20184 39993 40148 80001 333 20277 59002;EQDQ01  00002PRCP06
0167826780999992003101918004-06767-043017FM-12+013899999V0200901N002612200019N0040001N1+03861+01441100841ADDAA106000091GF104991041021008001001001MA1999999099321MD1999999-0091REMSYN070AAXX  19184 82678 32596 40905 10386 20144 39932 40084 84200 333 59009;EQDQ01  00002PRCP06
0208826780999992003102000004-06767-043017FM-12+013899999V0201401N001512200019N0002001N1+03381+01331101061ADDAA106000091GA1001+999999999GF100991001001999999001001KA1240M+03941MA1999999099521MD1999999-0101REMSYN082AAXX  20004 82678 32992 01403 10338 20133 39952 40106 333 10394 29032 55115 59010;EQDQ01  00002PRCP06
0186826780999992003102012004-06767-043017FM-12+013899999V0200901N003112200019N0040001N1+03241+01891101461ADDAA106000091GF103991021021008001001011KA1240N+02761MA1999999099921MD1999999-0011REMSYN076AAXX  20124 82678 32596 30906 10324 20189 39992 40146 82201 333 20276 59001;EQDQ01  00002PRCP06
0167826780999992003102018004-06767-043017FM-12+013899999V0200901N001512200019N0040001N1+03781+01831100911ADDAA106000091GF104991031021008001001021MA1999999099381MD1999999+0061REMSYN070AAXX  20184 82678 32596 40903 10378 20183 39938 40091 83202 333 58006;EQDQ01  00002PRCP06
0198826780999992003102100004-06767-043017FM-12+013899999V0200901N001012200019N0002001N1+03401+01641101061ADDAA106000091GF103991021041008001001011KA1240M+03911MA1999999099531MD1999999+0011REMSYN088AAXX  21004 82678 32592 30902 10340 20164 39953 40106 82401 333 10391 29037 55102 58001;EQDQ01  00002PRCP06
0186826780999992003102112004-06767-043017FM-12+013899999V0200901N002612200019N0040001N1+03281+02031101341ADDAA106000091GF104991021021008001031011KA1240N+03021MA1999999099811MD1999999-0111REMSYN076AAXX  21124 82678 32596 40905 10328 20203 39981 40134 82231 333 20302 59011;EQDQ01  00002PRCP06
0167826780999992003102118004-06767-043017FM-12+013899999V0201401N001511050019N0040001N1+03781+02011100731ADDAA106000091GF105991041021008001001021MA1999999099211MD1999999-0171REMSYN070AAXX  21184 82678 32596 51403 10378 20201 39921 40073 84202 333 59017;EQDQ01  00002PRCP06
0208826780999992003102200004-06767-043017FM-12+013899999V0209999C000012200019N0002001N1+03301+01841100981ADDAA106000091GA1001+999999999GF100991001001999999001001KA1240M+03841MA1999999099451MD1999999-0081REMSYN082AAXX  22004 82678 32992 00000 10330 20184 39945 40098 333 10384 29042 55094 59008;EQDQ01  00002PRCP06
0186826780999992003102212004-06767-043017FM-12+013899999V0200501N002110450019N0040001N1+03171+02141101371ADDAA106000091GF106991021021008001021011KA1240N+02711MA1999999099831MD1999999+0021REMSYN076AAXX  22124 82678 32596 60504 10317 20214 39983 40137 82221 333 20271 58002;EQDQ01  00002PRCP06
0167826780999992003102218004-06767-043017FM-12+013899999V0200501N002110450019N0040001N1+03801+01691100761ADDAA106000091GF108991041021008001011021MA1999999099241MD1999999+0031REMSYN070AAXX  22184 82678 32596 80504 10380 20169 39924 40076 84212 333 58003;EQDQ01  00002PRCP06
0208826780999992003102300004-06767-043017FM-12+013899999V0209999C000012200019N0002001N1+03261+01601100981ADDAA106000091GA1001+999999999GF100991001001999999001001KA1240M+03901MA1999999099441MD1999999-0011REMSYN082AAXX  23004 82678 32992 00000 10326 20160 39944 40098 333 10390 29040 55095 59001;EQDQ01  00002PRCP06
0186826780999992003102312004-06767-043017FM-12+013899999V0200501N001019999999N0040001N1+03121+01991101541ADDAA106000091GF106991001001999999001021KA1240N+02501MA1999999099991MD1999999+0161REMSYN076AAXX  23124 82678 32996 60502 10312 20199 39999 40154 80002 333 20250 58016;EQDQ01  00002PRCP06
0167826780999992003102318004-06767-043017FM-12+013899999V0200501N001511050019N0040001N1+03741+01461101051ADDAA106000091GF107991031051008001001021MA1999999099511MD1999999+0271REMSYN070AAXX  23184 82678 32596 70503 10374 20146 39951 40105 83502 333 58027;EQDQ01  00002PRCP06
0208826780999992003102400004-06767-043017FM-12+013899999V0202301N000512200019N0002001N1+03201+01671101111ADDAA106000091GA1001+999999999GF100991001001999999001001KA1240M+03861MA1999999099571MD1999999+0131REMSYN082AAXX  24004 82678 32992 02301 10320 20167 39957 40111 333 10386 29039 55068 58013;EQDQ01  00002PRCP06
0186826780999992003102412004-06767-043017FM-12+013899999V0200501N002610450019N0040001N1+03131+02081101571ADDAA106000091GF106991041021008001021011KA1240N+02561MA1999999100021MD1999999+0031REMSYN076AAXX  24124 82678 32596 60505 10313 20208 30002 40157 84221 333 20256 58003;EQDQ01  00002PRCP06
0167826780999992003102418004-06767-043017FM-12+013899999V0200501N002110075019N0040001N1+03701+01551101001ADDAA106000091GF106991051021008001021001MA1999999099471MD1999999-0041REMSYN070AAXX  24184 82678 32596 60504 10370 20155 39947 40100 85220 333 59004;EQDQ01  00002PRCP06
0198826780999992003102500004-06767-043017FM-12+013899999V0202701N001512200019N0002001N1+03141+01771101301ADDAA106000091GF103991021041008001001011KA1240M+03881MA1999999099751MD1999999+0181REMSYN088AAXX  25004 82678 32592 32703 10314 20177 39975 40130 82401 333 10388 29042 55099 58018;EQDQ01  00002PRCP06
0190826780999992003102512004-06767-043017FM-12+013899999V0200501N000510450019N0040001N1+03081+02041101571ADDAY161061AY221061GF105991031011008001031001KA1240N+02521MA1999999100021MD1999999+0001MW1021REMSYN088AAXX  25124 82678 21596 50501 10308 20204 30002 40157 70262 83130 333 20252 58000 69934;
0167826780999992003102518004-06767-043017FM-12+013899999V0200901N000510075019N0040001N1+03621+01751100991ADDAA106000091GF105991051051008001001001MA1999999099451MD1999999-0021REMSYN070AAXX  25184 82678 32596 50901 10362 20175 39945 40099 85500 333 59002;EQDQ01  00002PRCP06
0193826780999992003102600004-06767-043017FM-12+013899999V0201401N001012200019N0002001N1+03281+01821100991ADDAA106000091GA1001+999999999GF100991001001999999001001KA1240M+03801MA1999999099451REMSYN081AAXX  26004 82678 32992 01402 10328 20182 39945 40099 333 10380 2943 55097 59030;EQDQ01  00002PRCP06
0186826780999992003102612004-06767-043017FM-12+013899999V0200901N003112200019N0040001N1+03221+01651101291ADDAA106000091GF101991011011008001001001KA1240N+02711MA1999999099751MD1999999-0271REMSYN076AAXX  26124 82678 32596 10906 10322 20165 39975 40129 81100 333 20271 59027;EQDQ01  00002PRCP06
0167826780999992003102618004-06767-043017FM-12+013899999V0200901N002610075019N0040001N1+03701+01551100791ADDAA106000091GF105991051021008001001001MA1999999099261MD1999999-0191REMSYN070AAXX  26184 82678 32596 50905 10370 20155 39926 40079 85200 333 59019;EQDQ01  00002PRCP06
0208826780999992003102700004-06767-043017FM-12+013899999V0201401N001512200019N0002001N1+03231+01241100881ADDAA106000091GA1001+999999999GF100991001001999999001001KA1240M+03801MA1999999099341MD1999999-0111REMSYN082AAXX  27004 82678 32992 01403 10323 20124 39934 40088 333 10380 29032 55103 59011;EQDQ01  00002PRCP06
0186826780999992003102712004-06767-043017FM-12+013899999V0200501N001511050019N0040001N1+03081+02041101241ADDAA106000091GF105991031021008001001021KA1240N+02521MA1999999099691MD1999999-0061REMSYN076AAXX  27124 82678 32596 50503 10308 20204 39969 40124 83202 333 20252 59006;EQDQ01  00002PRCP06
0167826780999992003102718004-06767-043017FM-12+013899999V0201401N001512200019N0040001N1+03741+01641100721ADDAA106000091GF104991031021008001001011MA1999999099191MD1999999-0071REMSYN070AAXX  27184 82678 32596 41403 10374 20164 39919 40072 83201 333 59007;EQDQ01  00002PRCP06
0208826780999992003102800004-06767-043017FM-12+013899999V0209999C000012200019N0002001N1+03001+01761100921ADDAA106000091GA1001+999999999GF100991001001999999001001KA1240M+03811MA1999999099371MD1999999+0031REMSYN082AAXX  28004 82678 32992 00000 10300 20176 39937 40092 333 10381 29041 55097 58003;EQDQ01  00002PRCP06
0186826780999992003102812004-06767-043017FM-12+013899999V0202701N001010075019N0040001N1+02961+02071101461ADDAA106000091GF106991061051008001001001KA1240N+02501MA1999999099901MD1999999+0211REMSYN076AAXX  28124 82678 32596 62702 10296 20207 39990 40146 86500 333 20250 58021;EQDQ01  00002PRCP06
0167826780999992003102818004-06767-043017FM-12+013899999V0200901N002610075019N0040001N1+03561+01821101061ADDAA106000091GF106991051051008001001011MA1999999099521MD1999999+0331REMSYN070AAXX  28184 82678 32596 60905 10356 20182 39952 40106 85501 333 58033;EQDQ01  00002PRCP06
0208826780999992003102900004-06767-043017FM-12+013899999V0209999C000012200019N0002001N1+02941+01821101201ADDAA106000091GA1001+999999999GF100991001001999999001001KA1240M+03701MA1999999099641MD1999999+0271REMSYN082AAXX  29004 82678 32992 00000 10294 20182 39964 40120 333 10370 29049 55082 58027;EQDQ01  00002PRCP06
0186826780999992003102912004-06767-043017FM-12+013899999V0200501N004112200019N0040001N1+03241+01671101431ADDAA106000091GF102991021011008001001001KA1240N+02661MA1999999099881MD1999999-0021REMSYN076AAXX  29124 82678 32596 20508 10324 20167 39988 40143 82100 333 20266 59002;EQDQ01  00002PRCP06
0167826780999992003102918004-06767-043017FM-12+013899999V0201401N001512200019N0040001N1+03821+01651100941ADDAA106000091GF105991041021008001001011MA1999999099411MD1999999-0111REMSYN070AAXX  29184 82678 32596 51403 10382 20165 39941 40094 84201 333 59011;EQDQ01  00002PRCP06
0198826780999992003103000004-06767-043017FM-12+013899999V0201401N002612200019N0002001N1+03301+01551101091ADDAA106000091GF102991021001017501031001KA1240M+03901MA1999999099551MD1999999-0091REMSYN088AAXX  30004 82678 32792 21405 10330 20155 39955 40109 82030 333 10390 29034 55109 59009;EQDQ01  00002PRCP06
0186826780999992003103012004-06767-043017FM-12+013899999V0200501N003112200019N0040001N1+03191+01801101321ADDAA106000091GF106991041021008001001011KA1240N+02811MA1999999099781MD1999999-0101REMSYN076AAXX  30124 82678 32596 60506 10319 20180 39978 40132 84201 333 20281 59010;EQDQ01  00002PRCP06
0167826780999992003103018004-06767-043017FM-12+013899999V0200901N002112200019N0040001N1+03711+01711100721ADDAA106000091GF105991031021008001001011MA1999999099201MD1999999-0211REMSYN070AAXX  30184 82678 32596 50904 10371 20171 39920 40072 83201 333 59021;EQDQ01  00002PRCP06
0198826780999992003103100004-06767-043017FM-12+013899999V0209999C000012200019N0002001N1+03101+01871100861ADDAA106000091GF101991001001999999001011KA1240M+03841MA1999999099321MD1999999-0231REMSYN088AAXX  31004 82678 32992 10000 10310 20187 39932 40086 80001 333 10384 29043 55106 59023;EQDQ01  00002PRCP06
0186826780999992003103112004-06767-043017FM-12+013899999V0200501N001010450019N0040001N1+03181+02011101251ADDAA106000091GF108991041021008001011011KA1240N+02501MA1999999099701MD1999999-0081REMSYN076AAXX  31124 82678 32596 80502 10318 20201 39970 40125 84211 333 20250 59008;EQDQ01  00002PRCP06
0167826780999992003103118004-06767-043017FM-12+013899999V0200501N001510075019N0040001N1+03731+01671100711ADDAA106000091GF108991051021008001011011MA1999999099171MD1999999-0031REMSYN070AAXX  31184 82678 32596 80503 10373 20167 39917 40071 85211 333 59003;EQDQ01  00002PRCP06
0198826780999992003110100004-06767-043017FM-12+013899999V0209999C000012200019N0002001N1+03211+01861100891ADDAA106000091GF103991031001017501031001KA1240M+03901MA1999999099351MD1999999-0031REMSYN088AAXX  01004 82678 32792 30000 10321 20186 39935 40089 83030 333 10390 29042 55095 59003;EQDQ01  00002PRCP06
0186826780999992003110112004-06767-043017FM-12+013899999V0203601N001510075019N0040001N1+02681+02131101501ADDAA106000091GF108991081071008001999999KA1240N+02321MA1999999099941MD1999999+0241REMSYN076AAXX  01124 82678 32596 83603 10268 20213 39994 40150 887// 333 20232 58024;EQDQ01  00002PRCP06
0167826780999992003110118004-06767-043017FM-12+013899999V0202701N000510075019N0040001N1+03301+02091101091ADDAA106000091GF108991051021008001031011MA1999999099521MD1999999+0351REMSYN070AAXX  01184 82678 32596 82701 10330 20209 39952 40109 85231 333 58035;EQDQ01  00002PRCP06
0208826780999992003110200004-06767-043017FM-12+013899999V0209999C000012200019N0002001N1+02981+02091101161ADDAA106000091GA1001+999999999GF100991001001999999001001KA1240M+03531MA1999999099601MD1999999+0311REMSYN082AAXX  02004 82678 32992 00000 10298 20209 39960 40116 333 10353 29060 55034 58031;EQDQ01  00002PRCP06
0186826780999992003110212004-06767-043017FM-12+013899999V0200901N001510450019N0040001N1+02961+02181101331ADDAA106000091GF108991041021008001031011KA1240N+02531MA1999999099771MD1999999-0171REMSYN076AAXX  02124 82678 32596 80903 10296 20218 39977 40133 84231 333 20253 59017;EQDQ01  00002PRCP06
0167826780999992003110218004-06767-043017FM-12+013899999V0202701N001511050019N0040001N1+03621+02311100921ADDAA106000091GF105991021021008001001021MA1999999099381MD1999999-0141REMSYN070AAXX  02184 82678 32596 52703 10362 20231 39938 40092 82202 333 59014;EQDQ01  00002PRCP06
0198826780999992003110300004-06767-043017FM-12+013899999V0209999C000012200019N0002001N1+03101+02121100991ADDAA106000091GF103991021011008001001011KA1240M+03721MA1999999099441MD1999999-0161REMSYN088AAXX  03004 82678 32592 30000 10310 20212 39944 40099 82101 333 10372 29054 55062 59016;EQDQ01  00002PRCP06
0190826780999992003110312004-06767-043017FM-12+013899999V0203601N000510075019N0040001N1+02761+02251101391ADDAY161061AY221061GF108991081051008001999999KA1240N+02481MA1999999099831MD1999999+0061MW1031REMSYN088AAXX  03124 82678 21596 83601 10276 20225 39983 40139 70362 885// 333 20248 58006 60044;
0167826780999992003110318004-06767-043017FM-12+013899999V0203201N001010075019N0040001N1+03541+01761100911ADDAA106000091GF106991051051008001001021MA1999999099361MD1999999-0021REMSYN070AAXX  03184 82678 32596 63202 10354 20176 39936 40091 85502 333 59002;EQDQ01  00002PRCP06
0198826780999992003110400004-06767-043017FM-12+013899999V0209999C000011050019N0002001N1+03101+02151101121ADDAA106000091GF105991021001017501031021KA1240M+03641MA1999999099561MD1999999+0121REMSYN088AAXX  04004 82678 32792 50000 10310 20215 39956 40112 82032 333 10364 29056 55057 58012;EQDQ01  00002PRCP06
0207826780999992003110412004-06767-043017FM-12+013899999V0200901N001510075019N0040001N1+02281+02161101531ADDAA124035091AY161061AY261061GF108991061051008001021999KA1240N+02241MA1999999099951MD1999999+0121MW1631REMSYN094AAXX  04124 82678 21596 80903 10228 20216 39995 40153 76366 8652/ 333 20224 58012 60354 10352;
0171826780999992003110418004-06767-043017FM-12+013899999V0201401N001510075019N0040001N1+02541+02251101421ADDAY161061AY261061GF108991081051008001999999MA1999999099831MD1999999+0471MW1021REMSYN082AAXX  04184 82678 21596 81403 10254 20225 39983 40142 70266 885// 333 58047 60171;
0198826780999992003110500004-06767-043017FM-12+013899999V0201801N000510450019N0002001N1+02381+02191101601ADDAA106000091GF107991041051008001031001KA1240M+03091MA1999999100001MD1999999-0441REMSYN088AAXX  05004 82678 32592 71801 10238 20219 30000 40160 84530 333 10309 29089 55000 59044;EQDQ01  00002PRCP06
0162826780999992003110512004-06767-043017FM-12+013899999V0201401N002610075019N0040001N1+02621+02141101641ADDGF108991061051008001021999KA1240N+02221MA1999999100051MD1999999+0101REMSYN082AAXX  05124 82678 22596 81405 10262 20214 30005 40164 8652/ 333 20222 58010 60174;
0167826780999992003110518004-06767-043017FM-12+013899999V0203201N001510075019N0040001N1+03301+02091101071ADDAA106000091GF105991051021008001001001MA1999999099501MD1999999-0331REMSYN070AAXX  05184 82678 32596 53203 10330 20209 39950 40107 85200 333 59033;EQDQ01  00002PRCP06
0226826780999992003110600004-06767-043017FM-12+013899999V0200501N005710120019N0002001N1+02761+01971101361ADDAA106000091AY121061AY221061GF108991061081008001021999KA1240M+03451MA1999999099781MD1999999-0221MW1291REMSYN094AAXX  06004 82678 31592 80511 10276 20197 39978 40136 72922 8682/ 333 10345 29062 55059 59022;EQDQ01  00002PRCP06
0190826780999992003110612004-06767-043017FM-12+013899999V0200501N001010450019N0040001N1+02521+02091101601ADDAY151061AY221061GF106991021041008001031011KA1240N+02261MA1999999100021MD1999999-0031MW1021REMSYN088AAXX  06124 82678 21596 60502 10252 20209 30002 40160 70252 82431 333 20226 59003 60074;
0167826780999992003110618004-06767-043017FM-12+013899999V0200901N001010450019N0040001N1+03331+02041101061ADDAA106000091GF105991031031008001031021MA1999999099481MD1999999-0021REMSYN070AAXX  06184 82678 32596 50902 10333 20204 39948 40106 83332 333 59002;EQDQ01  00002PRCP06
0198826780999992003110700004-06767-043017FM-12+013899999V0209999C000012200019N0002001N1+02801+02341101211ADDAA106000091GF103991031001017501031001KA1240M+03411MA1999999099631MD1999999-0151REMSYN088AAXX  07004 82678 32792 30000 10280 20234 39963 40121 83030 333 10341 29069 55083 59015;EQDQ01  00002PRCP06
0186826780999992003110712004-06767-043017FM-12+013899999V0200901N001512200019N0200001N1+03021+02181101291ADDAA106000091GF102991011011008001001011KA1240N+02361MA1999999099731MD1999999-0291REMSYN076AAXX  07124 82678 32598 20903 10302 20218 39973 40129 81101 333 20236 59029;EQDQ01  00002PRCP06
0167826780999992003110718004-06767-043017FM-12+013899999V0203601N001512200019N0040001N1+03581+02161100771ADDAA106000091GF103991021021008001001011MA1999999099221MD1999999-0261REMSYN070AAXX  07184 82678 32596 33603 10358 20216 39922 40077 82201 333 59026;EQDQ01  00002PRCP06
0208826780999992003110800004-06767-043017FM-12+013899999V0209999C000012200019N0002001N1+02961+02131100911ADDAA106000091GA1001+999999999GF100991001001999999001001KA1240M+03711MA1999999099361MD1999999-0271REMSYN082AAXX  08004 82678 32992 00000 10296 20213 39936 40091 333 10371 29057 55095 59027;EQDQ01  00002PRCP06
0225826780999992003110812004-06767-043017FM-12+013899999V0203601N001010075019N0040001N1+02561+02331101571ADDAY151061AY221061GF108991081071008001999999KA1240N+02341MA1999999099981MD1999999+0261MW1021REMSYN088AAXX  08124 82678 21596 83602 10256 20233 33999 40157 70252 887// 333 20234 58026 60014;EQDQ01+039991APOSP Q02+999990APOSP 
0167826780999992003110818004-06767-043017FM-12+013899999V0203601N001510450019N0040001N1+03001+02171101101ADDAA106000091GF108991041031008001031021MA1999999099521MD1999999+0301REMSYN070AAXX  08184 82678 32596 83603 10300 20217 39952 40110 84332 333 58030;EQDQ01  00002PRCP06
0198826780999992003110900004-06767-043017FM-12+013899999V0209999C000012200019N0002001N1+02721+02191101201ADDAA106000091GF103991021001008001031011KA1240M+03181MA1999999099621MD1999999+0261REMSYN088AAXX  09004 82678 32592 30000 10272 20219 39962 40120 82031 333 10318 29074 55024 58026;EQDQ01  00002PRCP06
0186826780999992003110912004-06767-043017FM-12+013899999V0200501N000510450019N0040001N1+02821+02201101401ADDAA106000091GF105991041051008001031001KA1240N+02441MA1999999099831MD1999999-0161REMSYN076AAXX  09124 82678 32596 50501 10282 20220 39983 40140 84530 333 20244 59016;EQDQ01  00002PRCP06
0167826780999992003110918004-06767-043017FM-12+013899999V0203601N001011050019N0040001N1+03441+01801100901ADDAA106000091GF106991041021008001001021MA1999999099351MD1999999-0171REMSYN070AAXX  09184 82678 32596 63602 10344 20180 39935 40090 84202 333 59017;EQDQ01  00002PRCP06
0198826780999992003111000004-06767-043017FM-12+013899999V0201801N001510075019N0002001N1+03101+02151101051ADDAA106000091GF108991061051008001031999KA1240M+03581MA1999999099491MD1999999-0131REMSYN088AAXX  10004 82678 32592 81803 10310 20215 39949 40105 8653/ 333 10358 29055 55083 59013;EQDQ01  00002PRCP06
0186826780999992003111012004-06767-043017FM-12+013899999V0202701N000510450019N0040001N1+02861+02261101391ADDAA106000091GF107991041051008001031001KA1240N+02521MA1999999099831MD1999999+0001REMSYN076AAXX  10124 82678 32596 72701 10286 20226 39983 40139 84530 333 20252 58000;EQDQ01  00002PRCP06
0167826780999992003111018004-06767-043017FM-12+013899999V0203601N001511050019N0040001N1+03551+01931100831ADDAA106000091GF105991021021008001001021MA1999999099301MD1999999-0051REMSYN070AAXX  10184 82678 32596 53603 10355 20193 39930 40083 82202 333 59005;EQDQ01  00002PRCP06
0198826780999992003111100004-06767-043017FM-12+013899999V0209999C000010450019N0002001N1+03021+02131100991ADDAA106000091GF107991041051008001031021KA1240M+03601MA1999999099441MD1999999-0051REMSYN088AAXX  11004 82678 32592 70000 10302 20213 39944 40099 84532 333 10360 29057 55085 59005;EQDQ01  00002PRCP06
0186826780999992003111112004-06767-043017FM-12+013899999V0200501N002610450019N0040001N1+03081+02211101271ADDAA106000091GF106991041021008001011011KA1240N+02601MA1999999099721MD1999999-0111REMSYN076AAXX  11124 82678 32596 60505 10308 20221 39972 40127 84211 333 20260 59011;EQDQ01  00002PRCP06
0167826780999992003111118004-06767-043017FM-12+013899999V0203601N001511050019N0040001N1+03521+02031100841ADDAA106000091GF105991041021008001001021MA1999999099301MD1999999+0001REMSYN070AAXX  11184 82678 32596 53603 10352 20203 39930 40084 84202 333 58000;EQDQ01  00002PRCP06
0198826780999992003111200004-06767-043017FM-12+013899999V0201401N000519999999N0002001N1+02981+02151101001ADDAA106000091GF105991001001999999001011KA1240M+03641MA1999999099451MD1999999+0011REMSYN088AAXX  12004 82678 32992 51401 10298 20215 39945 40100 80001 333 10364 29056 55108 58001;EQDQ01  00002PRCP06
0186826780999992003111212004-06767-043017FM-12+013899999V0200901N001511050019N0040001N1+02911+02101101381ADDAA106000091GF105991021021008001031011KA1240N+02501MA1999999099821MD1999999+0101REMSYN076AAXX  12124 82678 32596 50903 10291 20210 39982 40138 82231 333 20250 58010;EQDQ01  00002PRCP06
0167826780999992003111218004-06767-043017FM-12+013899999V0200501N003110450019N0040001N1+03561+01821100981ADDAA106000091GF106991031081008001031011MA1999999099431MD1999999+0131REMSYN070AAXX  12184 82678 32596 60506 10356 20182 39943 40098 83831 333 58013;EQDQ01  00002PRCP06
0198826780999992003111300004-06767-043017FM-12+013899999V0209999C000012200019N0002001N1+02921+02091101101ADDAA106000091GF103991001001999999001021KA1240M+03631MA1999999099541MD1999999+0091REMSYN088AAXX  13004 82678 32992 30000 10292 20209 39954 40110 80002 333 10363 29055 55090 58009;EQDQ01  00002PRCP06
0186826780999992003111312004-06767-043017FM-12+013899999V0200501N002110450019N0040001N1+03101+02231101461ADDAA106000091GF105991031021008001031011KA1240N+02681MA1999999099901MD1999999+0081REMSYN076AAXX  13124 82678 32596 50504 10310 20223 39990 40146 83231 333 20268 58008;EQDQ01  00002PRCP06
0167826780999992003111318004-06767-043017FM-12+013899999V0203601N001512200019N0040001N1+03601+01941101041ADDAA106000091GF104991031081008001001031MA1999999099501MD1999999+0071REMSYN070AAXX  13184 82678 32596 43603 10360 20194 39950 40104 83803 333 58007;EQDQ01  00002PRCP06
0208826780999992003111400004-06767-043017FM-12+013899999V0209999C000012200019N0200001N1+03101+02031101131ADDAA106000091GA1001+999999999GF100991001001999999001001KA1240M+03711MA1999999099581MD1999999+0041REMSYN082AAXX  14004 82678 32998 00000 10310 20203 39958 40113 333 10371 29051 55106 58004;EQDQ01  00002PRCP06
0190826780999992003111412004-06767-043017FM-12+013899999V0200501N002110450019N0040001N1+02901+02221101411ADDAY151061AY221061GF105991031021008001031021KA1240N+02461MA1999999099851MD1999999-0051MW1021REMSYN088AAXX  14124 82678 21596 50504 10290 20222 39985 40141 70252 83232 333 20246 59005 60014;
0167826780999992003111418004-06767-043017FM-12+013899999V0200901N001012200019N0040001N1+03561+01911100931ADDAA106000091GF103991021021008001001011MA1999999099391MD1999999-0111REMSYN070AAXX  14184 82678 32596 30902 10356 20191 39939 40093 82201 333 59011;EQDQ01  00002PRCP06
0208826780999992003111500004-06767-043017FM-12+013899999V0209999C000012200019N0002001N1+02981+02121101141ADDAA106000091GA1001+999999999GF100991001001999999001001KA1240M+03731MA1999999099581MD1999999+0001REMSYN082AAXX  15004 82678 32992 00000 10298 20212 39958 40114 333 10373 29056 55101 58000;EQDQ01  00002PRCP06
0140826780999992003111512004-06767-043017FM-12+013899999V0203601N001012200019N0040001N1+03041+02151999999ADDAA106000091GF102991999999999999999999REMSYN072AAXX  15124 82678 32996 23602 10304 20215 20244 39981 40137 59004 80002;EQDQ01  00002PRCP06
0167826780999992003111518004-06767-043017FM-12+013899999V0200901N001512200019N0040001N1+03661+01771100901ADDAA106000091GF104991021011008001001021MA1999999099361MD1999999-0031REMSYN070AAXX  15184 82678 32596 40903 10366 20177 39936 40090 82102 333 59003;EQDQ01  00002PRCP06
0214826780999992003111600004-06767-043017FM-12+013899999V0201401N003112200019N0002001N1+03241+01781101021ADDAA106000091GF104991041021017501001001KA1240M+99999MA1999999099481MD1999999-0101REMSYN088AAXX  16004 82678 32792 41406 10324 20178 39948 40102 84200 333 11037 29044 55108 59010;EQDQ01  00002PRCP06Q02 -00372ATMX  
0186826780999992003111612004-06767-043017FM-12+013899999V0200901N003112200019N0040001N1+03121+01891101291ADDAA106000091GF102991011011008001001011KA1240N+02381MA1999999099751MD1999999-0061REMSYN076AAXX  16124 82678 32596 20906 10312 20189 39975 40129 81101 333 20238 59006;EQDQ01  00002PRCP06
0167826780999992003111618004-06767-043017FM-12+013899999V0201401N001010075019N0040001N1+03721+01821100861ADDAA106000091GF105991051011008001001001MA1999999099321MD1999999-0041REMSYN070AAXX  16184 82678 32596 51402 10372 20182 39932 40086 85100 333 59004;EQDQ01  00002PRCP06
0208826780999992003111700004-06767-043017FM-12+013899999V0200501N001012200019N0002001N1+03021+01891100871ADDAA106000091GA1001+999999999GF100991001001999999001001KA1240M+03771MA1999999099321MD1999999-0161REMSYN082AAXX  17004 82678 32992 00502 10302 20189 39932 40087 333 10377 29046 55106 59016;EQDQ01  00002PRCP06
0186826780999992003111712004-06767-043017FM-12+013899999V0202701N001010075019N0040001N1+02981+02281101391ADDAA106000091GF108991051021008001011011KA1240N+02591MA1999999099831MD1999999+0081REMSYN076AAXX  17124 82678 32596 82702 10298 20228 39983 40139 85211 333 20259 58008;EQDQ01  00002PRCP06
0167826780999992003111718004-06767-043017FM-12+013899999V0201801N002610450019N0040001N1+03661+01821100801ADDAA106000091GF108991041021008001011011MA1999999099261MD1999999-0061REMSYN070AAXX  17184 82678 32596 81805 10366 20182 39926 40080 84211 333 59006;EQDQ01  00002PRCP06
0198826780999992003111800004-06767-043017FM-12+013899999V0200901N000512200019N0002001N1+03021+02021100971ADDAA106000091GF102991001001999999001011KA1240M+03741MA1999999099421MD1999999-0101REMSYN088AAXX  18004 82678 32992 20901 10302 20202 39942 40097 80001 333 10374 29052 55094 59010;EQDQ01  00002PRCP06
0186826780999992003111812004-06767-043017FM-12+013899999V0200501N002112200019N0040001N1+03201+02061101291ADDAA106000091GF103991031021008001001001KA1240N+02491MA1999999099741MD1999999-0091REMSYN076AAXX  18124 82678 32596 30504 10320 20206 39974 40129 83200 333 20249 59009;EQDQ01  00002PRCP06
0167826780999992003111818004-06767-043017FM-12+013899999V0201401N002110075019N0040001N1+03731+01721100701ADDAA106000091GF105991051021008001001001MA1999999099171MD1999999-0091REMSYN070AAXX  18184 82678 32596 51404 10373 20172 39917 40070 85200 333 59009;EQDQ01  00002PRCP06
0198826780999992003111900004-06767-043017FM-12+013899999V0200901N000512200019N0002001N1+03121+01991100911ADDAA106000091GF102991001001999999001021KA1240M+03831MA1999999099371MD1999999-0051REMSYN088AAXX  19004 82678 32992 20901 10312 20199 39937 40091 80002 333 10383 29046 55111 59005;EQDQ01  00002PRCP06
0186826780999992003111912004-06767-043017FM-12+013899999V0200501N001510075019N0040001N1+03001+02191101291ADDAA106000091GF108991051031008001001011KA1240N+02611MA1999999099741MD1999999+0001REMSYN076AAXX  19124 82678 32596 80503 10300 20219 39974 40129 85301 333 20261 58000;EQDQ01  00002PRCP06
0167826780999992003111918004-06767-043017FM-12+013899999V0202701N000511050019N0040001N1+03621+02081100741ADDAA106000091GF105991031021008001001021MA1999999099201MD1999999+0031REMSYN070AAXX  19184 82678 32596 52701 10362 20208 39920 40074 83202 333 58003;EQDQ01  00002PRCP06
0208826780999992003112000004-06767-043017FM-12+013899999V0209999C000012200019N0002001N1+03101+02151100921ADDAA106000091GA1001+999999999GF100991001001999999001001KA1240M+03641MA1999999099371MD1999999+0001REMSYN082AAXX  20004 82678 32992 00000 10310 20215 39937 40092 333 10364 29054 55091 58000;EQDQ01  00002PRCP06
0186826780999992003112012004-06767-043017FM-12+013899999V0200501N001510075019N0040001N1+02781+02251101391ADDAA106000091GF108991051071008001001031KA1240N+02571MA1999999099831MD1999999+0091REMSYN076AAXX  20124 82678 32596 80503 10278 20225 39983 40139 85703 333 20257 58009;EQDQ01  00002PRCP06
0171826780999992003112018004-06767-043017FM-12+013899999V0202701N002112200019N0040001N1+03141+02131101041ADDAY151061AY221061GF104991021051008001031011MA1999999099481MD1999999+0281MW1021REMSYN082AAXX  20184 82678 21596 42704 10314 20213 39948 40104 70252 82531 333 58028 69921;
0208826780999992003112100004-06767-043017FM-12+013899999V0202301N001012200019N0002001N1+02721+02281101151ADDAA106000091GA1001+999999999GF100991001001999999001001KA1240M+03341MA1999999099581MD1999999+0211REMSYN082AAXX  21004 82678 32992 02302 10272 20228 39958 40115 333 10334 29070 55042 58021;EQDQ01  00002PRCP06
0162826780999992003112112004-06767-043017FM-12+013899999V0200501N000512200019N0040001N1+03021+02241101411ADDGF105991041051008001001011KA1240N+02381MA1999999099841MD1999999+0011REMSYN082AAXX  21124 82678 22596 50501 10302 20224 39984 40141 84501 333 20238 58001 69924;
0167826780999992003112118004-06767-043017FM-12+013899999V0200901N001510075019N0040001N1+03661+01771100811ADDAA106000091GF105991051021008001001001MA1999999099261MD1999999-0221REMSYN070AAXX  21184 82678 32596 50903 10366 20177 39926 40081 85200 333 59022;EQDQ01  00002PRCP06
0208826780999992003112200004-06767-043017FM-12+013899999V0209999C000012200019N0002001N1+03061+02111100991ADDAA106000091GA1001+999999999GF100991001001999999001001KA1240M+03801MA1999999099381MD1999999-0201REMSYN082AAXX  22004 82678 32992 00000 10306 20211 39938 40099 333 10380 29052 55112 59020;EQDQ01  00002PRCP06
0202826780999992003112212004-06767-043017FM-12+013899999V0200901N004612200019N0040001N1+03201+01891101281ADDAA106000091GF104991999011008001001001KA1240N+02831MA1999999099731MD1999999-0111REMSYN076AAXX  22124 82678 32596 40909 10320 20189 39973 40128 82100 333 20283 59011;EQDQ01+000022SCOTLCQ02  00002PRCP06
0183826780999992003112218004-06767-043017FM-12+013899999V0201401N002619999999N0040001N1+03701+01711100791ADDAA106000091GF105991999021008001001001MA1999999099261MD1999999+0001REMSYN070AAXX  22184 82678 32596 51405 10370 20171 39926 40079 83200 333 58000;EQDQ01+000032SCOTLCQ02  00002PRCP06
0208826780999992003112300004-06767-043017FM-12+013899999V0209999C000012200019N0002001N1+03161+01961100921ADDAA106000091GA1001+999999999GF100991001001999999001001KA1240M+03761MA1999999099381MD1999999+0001REMSYN082AAXX  23004 82678 32992 00000 10316 20196 39938 40092 333 10376 29044 55098 58000;EQDQ01  00002PRCP06
0186826780999992003112312004-06767-043017FM-12+013899999V0200901N004112200019N0040001N1+03161+01671101251ADDAA106000091GF105991021001017501031011KA1240N+02641MA1999999099701MD1999999-0031REMSYN076AAXX  23124 82678 32796 50908 10316 20167 39970 40125 82031 333 20264 59003;EQDQ01  00002PRCP06
0167826780999992003112318004-06767-043017FM-12+013899999V0200501N001510450019N0040001N1+03531+01701100781ADDAA106000091GF108991041021008001011011MA1999999099241MD1999999-0021REMSYN070AAXX  23184 82678 32596 80503 10353 20170 39924 40078 84211 333 59002;EQDQ01  00002PRCP06
0198826780999992003112400004-06767-043017FM-12+013899999V0201401N000512200019N0002001N1+02961+01871100961ADDAA106000091GF103991001001999999001011KA1240M+03671MA1999999099411MD1999999+0031REMSYN088AAXX  24004 82678 32992 31401 10296 20187 39941 40096 80001 333 10367 29045 55096 58003;EQDQ01  00002PRCP06
0186826780999992003112412004-06767-043017FM-12+013899999V0203601N001510075019N0040001N1+03091+02011101241ADDAA106000091GF105991051041008001001001KA1240N+02391MA1999999099681MD1999999-0021REMSYN076AAXX  24124 82678 32596 53603 10309 20201 39968 40124 85400 333 20239 59002;EQDQ01  00002PRCP06
0167826780999992003112418004-06767-043017FM-12+013899999V0203601N002110450019N0040001N1+03761+01951100771ADDAA106000091GF106991041031008001031011MA1999999099241MD1999999+0001REMSYN070AAXX  24184 82678 32596 63604 10376 20195 39924 40077 84331 333 58000;EQDQ01  00002PRCP06
0198826780999992003112500004-06767-043017FM-12+013899999V0200901N003110075019N0002001N1+03041+01881100971ADDAA106000091GF108991061051008001021999KA1240M+03881MA1999999099421MD1999999+0011REMSYN088AAXX  25004 82678 32592 80906 10304 20188 39942 40097 8652/ 333 10388 29047 55104 58001;EQDQ01  00002PRCP06
0162826780999992003112512004-06767-043017FM-12+013899999V0200501N002110075019N0040001N1+02901+02321101431ADDGF108991051051008001001011KA1240N+02491MA1999999099871MD1999999+0191REMSYN082AAXX  25124 82678 22596 80504 10290 20232 39987 40143 85501 333 20249 58019 69944;
0167826780999992003112518004-06767-043017FM-12+013899999V0201401N001511050019N0040001N1+03581+02051100931ADDAA106000091GF105991031021008001001021MA1999999099381MD1999999+0141REMSYN070AAXX  25184 82678 32596 51403 10358 20205 39938 40093 83202 333 58014;EQDQ01  00002PRCP06
0208826780999992003112600004-06767-043017FM-12+013899999V0209999C000012200019N0002001N1+03081+02161101011ADDAA106000091GA1001+999999999GF100991001001999999001001KA1240M+03681MA1999999099461MD1999999+0041REMSYN082AAXX  26004 82678 32992 00000 10308 20216 39946 40101 333 10368 29057 55094 58004;EQDQ01  00002PRCP06
0190826780999992003112612004-06767-043017FM-12+013899999V0200501N001512200019N0040001N1+03021+02391101391ADDAY161061AY221061GF104991021011008001001011KA1240N+02441MA1999999099841MD1999999-0031MW1021REMSYN088AAXX  26124 82678 21596 40503 10302 20239 39984 40139 70262 82101 333 20244 59003 60054;
0167826780999992003112618004-06767-043017FM-12+013899999V0201401N002610075019N0040001N1+03641+02061100941ADDAA106000091GF108991051021008001001021MA1999999099401MD1999999+0021REMSYN070AAXX  26184 82678 32596 81405 10364 20206 39940 40094 85202 333 58002;EQDQ01  00002PRCP06
0208826780999992003112700004-06767-043017FM-12+013899999V0209999C000012200019N0002001N1+03101+02091101051ADDAA106000091GA1001+999999999GF100991001001999999001001KA1240M+03721MA1999999099501MD1999999+0041REMSYN082AAXX  27004 82678 32992 00000 10310 20209 39950 40105 333 10372 29055 55082 58004;EQDQ01  00002PRCP06
0186826780999992003112712004-06767-043017FM-12+013899999V0203601N000510075019N0040001N1+03141+02181101211ADDAA106000091GF105991051011008001001001KA1240N+02721MA1999999099661MD1999999-0181REMSYN076AAXX  27124 82678 32596 53601 10314 20218 39966 40121 85100 333 20272 59018;EQDQ01  00002PRCP06
0167826780999992003112718004-06767-043017FM-12+013899999V0200501N000510075019N0040001N1+03701+01761100701ADDAA106000091GF106991061021008001001001MA1999999099171MD1999999-0231REMSYN070AAXX  27184 82678 32596 60501 10370 20176 39917 40070 86200 333 59023;EQDQ01  00002PRCP06
0198826780999992003112800004-06767-043017FM-12+013899999V0209999C000012200019N0002001N1+03081+01981100821ADDAA106000091GF103991031001017501031001KA1240M+03881MA1999999099281MD1999999-0221REMSYN088AAXX  28004 82678 32792 30000 10308 20198 39928 40082 83030 333 10388 29048 55092 59022;EQDQ01  00002PRCP06
0186826780999992003112812004-06767-043017FM-12+013899999V0200501N000512200019N0040001N1+02981+02121101171ADDAA106000091GF103991011011008001031011KA1240N+02521MA1999999099621MD1999999-0041REMSYN076AAXX  28124 82678 32596 30501 10298 20212 39962 40117 81131 333 20252 59004;EQDQ01  00002PRCP06
0167826780999992003112818004-06767-043017FM-12+013899999V0202701N000510075019N0040001N1+03621+01781100661ADDAA106000091GF105991051021008001001001MA1999999099121MD1999999-0051REMSYN070AAXX  28184 82678 32596 52701 10362 20178 39912 40066 85200 333 59005;EQDQ01  00002PRCP06
0208826780999992003112900004-06767-043017FM-12+013899999V0209999C000012200019N0002001N1+03081+02131100711ADDAA106000091GA1001+999999999GF100991001001999999001001KA1240M+03731MA1999999099171MD1999999-0111REMSYN082AAXX  29004 82678 32992 00000 10308 20213 39917 40071 333 10373 29052 55104 59011;EQDQ01  00002PRCP06
0190826780999992003112912004-06767-043017FM-12+013899999V0203201N001510075019N0040001N1+02721+02411101251ADDAY161061AY281061GF108991081071008001999999KA1240N+02381MA1999999099691MD1999999+0071MW1021REMSYN088AAXX  29124 82678 21596 83203 10272 20241 39969 40125 70268 887// 333 20238 58007 60124;
0167826780999992003112918004-06767-043017FM-12+013899999V0202701N001012200019N0040001N1+03201+02211100921ADDAA106000091GF106991041021008001001011MA1999999099361MD1999999+0241REMSYN070AAXX  29184 82678 32596 62702 10320 20221 39936 40092 84201 333 58024;EQDQ01  00002PRCP06
0208826780999992003113000004-06767-043017FM-12+013899999V0202301N000512200019N0002001N1+02821+02241100931ADDAA106000091GA1001+999999999GF100991001001999999001001KA1240M+03371MA1999999099361MD1999999+0191REMSYN082AAXX  30004 82678 32992 02301 10282 20224 39936 40093 333 10337 29070 55049 58019;EQDQ01  00002PRCP06
0202826780999992003113012004-06767-043017FM-12+013899999V0202301N001010075019N0040001N1+02941+02291101261ADDAA106000091GF108991999011008001001001KA1240N+02451MA1999999099701MD1999999+0011REMSYN076AAXX  30124 82678 32596 82302 10294 20229 39970 40126 85100 333 20245 58001;EQDQ01+000052SCOTLCQ02  00002PRCP06
0195826780999992003113018004-06767-043017FM-12+013899999V0200501N002110120019N0040001N1+03441+02141100841ADDAA106000091AY121061AY221061GF108991061081008001021011MA1999999099271MD1999999-0071MW1291REMSYN076AAXX  30184 82678 31596 80504 10344 20214 39927 40084 72922 86821 333 59007;EQDQ01  00002PRCP06
0208826780999992003120100004-06767-043017FM-12+013899999V0203201N000512200019N0002001N1+02861+02211100961ADDAA106000091GA1001+999999999GF100991001001999999001001KA1240M+03581MA1999999099401MD1999999+0041REMSYN082AAXX  01004 82678 32992 03201 10286 20221 39940 40096 333 10358 29062 55091 58004;EQDQ01  00002PRCP06
0162826780999992003120112004-06767-043017FM-12+013899999V0203601N001010075019N0040001N1+03021+02211101311ADDGF108991081071008001999999KA1240N+02521MA1999999099751MD1999999+0041REMSYN082AAXX  01124 82678 22596 83602 10302 20221 39975 40131 887// 333 20252 58004 69914;
0167826780999992003120118004-06767-043017FM-12+013899999V0200501N001512200019N0040001N1+03481+02091100791ADDAA106000091GF105991031021008001001011MA1999999099251MD1999999-0041REMSYN070AAXX  01184 82678 32596 50503 10348 20209 39925 40079 83201 333 59004;EQDQ01  00002PRCP06
0208826780999992003120200004-06767-043017FM-12+013899999V0209999C000012200019N0040001N1+02961+02281100941ADDAA106000091GA1001+999999999GF100991001001999999001001KA1240M+03641MA1999999099391MD1999999-0011REMSYN082AAXX  02004 82678 32996 00000 10296 20228 39939 40094 333 10364 29060 55103 59001;EQDQ01  00002PRCP06
0186826780999992003120212004-06767-043017FM-12+013899999V0203201N001010450019N0040001N1+02861+02281101271ADDAA106000091GF108991041051008001021011KA1240N+02461MA1999999099711MD1999999-0041REMSYN076AAXX  02124 82678 32596 83202 10286 20228 39971 40127 84521 333 20246 59004;EQDQ01  00002PRCP06
0167826780999992003120218004-06767-043017FM-12+013899999V0200501N000510075019N0040001N1+03421+02161100811ADDAA106000091GF108991051021008001001021MA1999999099261MD1999999+0011REMSYN070AAXX  02184 82678 32596 80501 10342 20216 39926 40081 85202 333 58001;EQDQ01  00002PRCP06
0208826780999992003120300004-06767-043017FM-12+013899999V0202301N001012200019N0002001N1+02861+02391100901ADDAA106000091GA1001+999999999GF100991001001999999001001KA1240M+03571MA1999999099341MD1999999-0051REMSYN082AAXX  03004 82678 32992 02302 10286 20239 39934 40090 333 10357 29068 55050 59005;EQDQ01  00002PRCP06
0186826780999992003120312004-06767-043017FM-12+013899999V0202701N001010075019N0040001N1+02761+02211101201ADDAA106000091GF108991081051008001999999KA1240N+02401MA1999999099731MD1999999+0021REMSYN076AAXX  03124 82678 32596 82702 10276 20221 39973 40120 885// 333 20240 58002;EQDQ01  00002PRCP06
0167826780999992003120318004-06767-043017FM-12+013899999V0203601N000512200019N0040001N1+03501+01941100831ADDAA106000091GF105991041021008001001011MA1999999099281MD1999999+0021REMSYN070AAXX  03184 82678 32596 53601 10350 20194 39928 40083 84201 333 58002;EQDQ01  00002PRCP06
0198826780999992003120400004-06767-043017FM-12+013899999V0202301N000512200019N0002001N1+03081+02211100921ADDAA106000091GF104991031051008001031001KA1240M+03631MA1999999099361MD1999999+0021REMSYN088AAXX  04004 82678 32592 42301 10308 20221 39936 40092 83530 333 10363 29058 55049 58002;EQDQ01  00002PRCP06
0190826780999992003120412004-06767-043017FM-12+013899999V0202701N000510075019N0040001N1+02861+02351101281ADDAY161061AY221061GF107991051051008001001021KA1240N+02401MA1999999099721MD1999999-0011MW1021REMSYN088AAXX  04124 82678 21596 72701 10286 20235 39972 40128 70262 85502 333 20240 59001 60104;
0167826780999992003120418004-06767-043017FM-12+013899999V0203601N001010075019N0040001N1+03821+02131100911ADDAA106000091GF105991051051008001001001MA1999999099361MD1999999+0081REMSYN070AAXX  04184 82678 32596 53602 10382 20213 39936 40091 85500 333 58008;EQDQ01  00002PRCP06
0208826780999992003120500004-06767-043017FM-12+013899999V0209999C000012200019N0002001N1+02941+02361100921ADDAA106000091GA1001+999999999GF100991001001999999001001KA1240M+03491MA1999999099361MD1999999+0001REMSYN082AAXX  05004 82678 32992 00000 10294 20236 39936 40092 333 10349 29066 55072 58000;EQDQ01  00002PRCP06
0186826780999992003120512004-06767-043017FM-12+013899999V0203601N002110075019N0040001N1+02761+02301101341ADDAA106000091GF108991061051008001021999KA1240N+02441MA1999999099771MD1999999+0051REMSYN076AAXX  05124 82678 32596 83604 10276 20230 39977 40134 8652/ 333 20244 58005;EQDQ01  00002PRCP06
0167826780999992003120518004-06767-043017FM-12+013899999V0203601N001010450019N0040001N1+03341+02191100891ADDAA106000091GF108991041021008001011999MA1999999099341MD1999999-0021REMSYN070AAXX  05184 82678 32596 83602 10334 20219 39934 40089 8421/ 333 59002;EQDQ01  00002PRCP06
0198826780999992003120600004-06767-043017FM-12+013899999V0202701N001512200019N0002001N1+02911+02301101081ADDAA106000091GF108991021001017501011011KA1240M+03451MA1999999099521MD1999999+0161REMSYN088AAXX  06004 82678 32792 82703 10291 20230 39952 40108 82011 333 10345 29067 55048 58016;EQDQ01  00002PRCP06
0202826780999992003120612004-06767-043017FM-12+013899999V0203601N001510075019N0040001N1+02811+02221101371ADDAA106000091GF108991999021008001001001KA1240N+02441MA1999999099801MD1999999+0031REMSYN076AAXX  06124 82678 32596 83603 10281 20222 39980 40137 86200 333 20244 58003;EQDQ01+000062SCOTLCQ02  00002PRCP06
0183826780999992003120618004-06767-043017FM-12+013899999V0200901N001519999999N0040001N1+03531+01961100891ADDAA106000091GF106991999021008001001001MA1999999099341MD1999999+0001REMSYN070AAXX  06184 82678 32596 60903 10353 20196 39934 40089 83200 333 58000;EQDQ01+000032SCOTLCQ02  00002PRCP06
0198826780999992003120700004-06767-043017FM-12+013899999V0201401N001012200019N0002001N1+02921+02291101001ADDAA106000091GF103991021001017501031011KA1240M+03591MA1999999099441MD1999999-0081REMSYN088AAXX  07004 82678 32792 31402 10292 20229 39944 40100 82031 333 10359 29062 55087 59008;EQDQ01  00002PRCP06
0186826780999992003120712004-06767-043017FM-12+013899999V0200501N002110075019N0040001N1+02781+02211101401ADDAA106000091GF108991081071008001999999KA1240N+02541MA1999999099831MD1999999+0031REMSYN076AAXX  07124 82678 32596 80504 10278 20221 39983 40140 887// 333 20254 58003;EQDQ01  00002PRCP06
0171826780999992003120718004-06767-043017FM-12+013899999V0202301N001010075019N0040001N1+02881+02211101181ADDAY161061AY281061GF108991081071008001999999MA1999999099611MD1999999+0271MW1021REMSYN082AAXX  07184 82678 21596 82302 10288 20221 39961 40118 70268 887// 333 58027 69921;
0198826780999992003120800004-06767-043017FM-12+013899999V0202301N000512200019N0002001N1+02521+02291101041ADDAA106000091GF104991031051008001001011KA1240M+02941MA1999999099731MD1999999+0291REMSYN088AAXX  08004 82678 32592 42301 10252 20229 39973 40104 83501 333 10294 29076 55012 58029;EQDQ01  00002PRCP06
0167826780999992003120818004-06767-043017FM-12+013899999V0202701N001012200019N0040001N1+03521+02221101071ADDAA106000091GF104991021021008001001021MA1999999099511MD1999999-0101REMSYN070AAXX  08184 82678 32596 42702 10352 20222 39951 40107 82202 333 59010;EQDQ01  00002PRCP06
0208826780999992003120900004-06767-043017FM-12+013899999V0209999C000012200019N0002001N1+02961+02181101121ADDAA106000091GA1001+999999999GF100991001001999999001001KA1240M+03601MA1999999099561MD1999999-0171REMSYN082AAXX  09004 82678 32992 00000 10296 20218 39956 40112 333 10360 29060 55093 59017;EQDQ01  00002PRCP06
0190826780999992003120912004-06767-043017FM-12+013899999V0200801N000510075019N0040001N1+02641+02251101661ADDAY161061AY221061GF107991051051008001031011KA1240N+02441MA1999999100081MD1999999+0071MW1021REMSYN088AAXX  09124 82678 21596 70801 10264 20225 30008 40166 70262 85531 333 20244 58007 69944;
0167826780999992003120918004-06767-043017FM-12+013899999V0200901N001010075019N0040001N1+03561+01991101151ADDAA106000091GF105991051051008001001001MA1999999099601MD1999999+0091REMSYN070AAXX  09184 82678 32596 50902 10356 20199 39960 40115 85500 333 58009;EQDQ01  00002PRCP06
0198826780999992003121000004-06767-043017FM-12+013899999V0202301N001010450019N0002001N1+03081+02241101171ADDAA106000091GF105991041051008001031001KA1240M+03631MA1999999099611MD1999999+0051REMSYN088AAXX  10004 82678 32592 52302 10308 20224 39961 40117 84530 333 10363 29060 55083 58005;EQDQ01  00002PRCP06
0190826780999992003121012004-06767-043017FM-12+013899999V0200501N000510075019N0040001N1+02881+02371101431ADDAY161061AY221061GF106991051051008001031001KA1240N+02341MA1999999099871MD1999999-0211MW1031REMSYN088AAXX  10124 82678 21596 60501 10288 20237 39987 40143 70362 85530 333 20234 59021 60064;
0167826780999992003121018004-06767-043017FM-12+013899999V0202701N000510075019N0040001N1+03481+02111101031ADDAA106000091GF105991051021008001001001MA1999999099471MD1999999-0131REMSYN070AAXX  10184 82678 32596 52701 10348 20211 39947 40103 85200 333 59013;EQDQ01  00002PRCP06
0214826780999992003121100004-06767-043017FM-12+013899999V0209999C000010075019N0002001N1+03021+02311101061ADDAA106000091GF107991999051008001001001KA1240M+03601MA1999999099501MD1999999-0111REMSYN088AAXX  11004 82678 32592 70000 10302 20231 39950 40106 86500 333 10360 29063 55085 59011;EQDQ01+000062SCOTLCQ02  00002PRCP06
0186826780999992003121112004-06767-043017FM-12+013899999V0200901N002112200019N0040001N1+02981+02201101511ADDAA106000091GF105991031021008001001011KA1240N+02601MA1999999099951MD1999999+0081REMSYN076AAXX  11124 82678 32596 50904 10298 20220 39995 40151 83201 333 20260 58008;EQDQ01  00002PRCP06
0167826780999992003121118004-06767-043017FM-12+013899999V0200901N003610450019N0040001N1+03661+01571100971ADDAA106000091GF106991031021008001021011MA1999999099431MD1999999-0041REMSYN070AAXX  11184 82678 32596 60907 10366 20157 39943 40097 83221 333 59004;EQDQ01  00002PRCP06
0214826780999992003121200004-06767-043017FM-12+013899999V0201401N001019999999N0002001N1+02991+01981101111ADDAA106000091GF108991999021008001001001KA1240M+03761MA1999999099561MD1999999+0061REMSYN088AAXX  12004 82678 32592 81402 10299 20198 39956 40111 83200 333 10376 29050 55098 58006;EQDQ01+000032SCOTLCQ02  00002PRCP06
0186826780999992003121212004-06767-043017FM-12+013899999V0202701N001010075019N0040001N1+02791+02181101501ADDAA106000091GF108991051051008001021011KA1240N+02541MA1999999099931MD1999999-0021REMSYN076AAXX  12124 82678 32596 82702 10279 20218 39993 40150 85521 333 20254 59002;EQDQ01  00002PRCP06
0167826780999992003121218004-06767-043017FM-12+013899999V0203201N002110450019N0040001N1+03541+01931100971ADDAA106000091GF108991041081008001021011MA1999999099421MD1999999-0011REMSYN070AAXX  12184 82678 32596 83204 10354 20193 39942 40097 84821 333 59001;EQDQ01  00002PRCP06
0208826780999992003121400004-06767-043017FM-12+013899999V0209999C000012200019N0002001N1+02921+02221100931ADDAA106000091GA1001+999999999GF100991001001999999001001KA1240M+03571MA1999999099371MD1999999-0111REMSYN082AAXX  14004 82678 32992 00000 10292 20222 39937 40093 333 10357 29063 55062 59011;EQDQ01  00002PRCP06
0190826780999992003121412004-06767-043017FM-12+013899999V0201801N001010075019N0020001N1+02501+02381101501ADDAY161061AY221061GF108991061051008001021001KA1240N+02421MA1999999099921MD1999999+0021MW1921REMSYN088AAXX  14124 82678 21595 81802 10250 20238 39992 40150 79262 86520 333 20242 58002 60104;
0171826780999992003121418004-06767-043017FM-12+013899999V0209999C000010450019N0040001N1+02761+02281101231ADDAY161061AY221061GF108991041051008001071021MA1999999099651MD1999999+0231MW1021REMSYN082AAXX  14184 82678 21596 80000 10276 20228 39965 40123 70262 84572 333 58023 60071;
0208826780999992003121500004-06767-043017FM-12+013899999V0209999C000012200019N0002001N1+02581+02421101151ADDAA106000091GA1001+999999999GF100991001001999999001001KA1240M+02911MA1999999099571MD1999999+0201REMSYN082AAXX  15004 82678 32992 00000 10258 20242 39957 40115 333 10291 29088 55000 58020;EQDQ01  00002PRCP06
0190826780999992003121512004-06767-043017FM-12+013899999V0209999C000010450019N0040001N1+02741+02321101541ADDAY161061AY221061GF105991041051008001031001KA1240N+02261MA1999999099961MD1999999+0041MW1011REMSYN088AAXX  15124 82678 21596 50000 10274 20232 39996 40154 70162 84530 333 20226 58004 60154;
0167826780999992003121518004-06767-043017FM-12+013899999V0203601N000510075019N0040001N1+03341+02021101081ADDAA106000091GF105991051051008001001001MA1999999099511MD1999999-0141REMSYN070AAXX  15184 82678 32596 53601 10334 20202 39951 40108 85500 333 59014;EQDQ01  00002PRCP06
0198826780999992003121600004-06767-043017FM-12+013899999V0209999C000012200019N0002001N1+02841+02311101171ADDAA106000091GF104991041051008001001001KA1240M+03511MA1999999099601MD1999999+0031REMSYN088AAXX  16004 82678 32592 40000 10284 20231 39960 40117 84500 333 10351 29068 55088 58003;EQDQ01  00002PRCP06
0190826780999992003121612004-06767-043017FM-12+013899999V0203601N000510075019N0040001N1+02421+02281101601ADDAY161061AY291061GF107991051051008001071001KA1240N+02341MA1999999100021MD1999999+0061MW1291REMSYN088AAXX  16124 82678 21596 73601 10242 20228 30002 40160 72969 85570 333 20234 58006 60104;
0167826780999992003121618004-06767-043017FM-12+013899999V0200501N001011050019N0040001N1+03261+02271101191ADDAA106000091GF105991041051008001001021MA1999999099631MD1999999+0121REMSYN070AAXX  16184 82678 32596 50502 10326 20227 39963 40119 84502 333 58012;EQDQ01  00002PRCP06
0208826780999992003121700004-06767-043017FM-12+013899999V0209999C000012200019N0002001N1+02721+02341101251ADDAA106000091GA1001+999999999GF100991001001999999001001KA1240M+03331MA1999999099661MD1999999+0061REMSYN082AAXX  17004 82678 32992 00000 10272 20234 39966 40125 333 10333 29077 55078 58006;EQDQ01  00002PRCP06
0186826780999992003121712004-06767-043017FM-12+013899999V0203601N001510075019N0040001N1+02711+02241101521ADDAA106000091GF108991081051008001999999KA1240N+02401MA1999999099941MD1999999-0081REMSYN076AAXX  17124 82678 32596 83603 10271 20224 39994 40152 885// 333 20240 59008;EQDQ01  00002PRCP06
0171826780999992003121718004-06767-043017FM-12+013899999V0200901N001510450019N0040001N1+02901+02431101241ADDAY161061AY221061GF108991041021008001011021MA1999999099661MD1999999+0031MW1021REMSYN082AAXX  17184 82678 21596 80903 10290 20243 39966 40124 70262 84212 333 58003 60041;
0208826780999992003121800004-06767-043017FM-12+013899999V0202301N001012200019N0002001N1+02611+02351101271ADDAA106000091GA1001+999999999GF100991001001999999001001KA1240M+02991MA1999999099691MD1999999+0031REMSYN082AAXX  18004 82678 32992 02302 10261 20235 39969 40127 333 10299 29081 55038 58003;EQDQ01  00002PRCP06
0190826780999992003121812004-06767-043017FM-12+013899999V0200501N000510120019N0040001N1+02601+02331101581ADDAY121061AY221061GF108991051081008001031011KA1240N+02301MA1999999099991MD1999999+0051MW1581REMSYN088AAXX  18124 82678 21596 80501 10260 20233 39999 40158 75822 85831 333 20230 58005 60054;
0208826780999992003121900004-06767-043017FM-12+013899999V0200901N000512200019N0002001N1+02631+02411101331ADDAA106000091GA1001+999999999GF100991001001999999001001KA1240M+03211MA1999999099751MD1999999+0061REMSYN082AAXX  19004 82678 32992 00901 10263 20241 39975 40133 333 10321 29083 55040 58006;EQDQ01  00002PRCP06
0186826780999992003121912004-06767-043017FM-12+013899999V0202701N000511050019N0040001N1+02701+02131101641ADDAA106000091GF105991031021008001001021KA1240N+02261MA1999999100061MD1999999+0071REMSYN076AAXX  19124 82678 32596 52701 10270 20213 30006 40164 83202 333 20226 58007;EQDQ01  00002PRCP06
0167826780999992003121918004-06767-043017FM-12+013899999V0200901N000512200019N0040001N1+03421+01981101241ADDAA106000091GF104991041011008001001001MA1999999099671MD1999999+0061REMSYN070AAXX  19184 82678 32596 40901 10342 20198 39967 40124 84100 333 58006;EQDQ01  00002PRCP06
0202826780999992003122000004-06767-043017FM-12+013899999V0209999C000010075019N0002001N1+02541+02251101501ADDAY151061AY291061GF108991061051008001021999KA1240M+03571MA1999999099911MD1999999+0161MW1031REMSYN100AAXX  20004 82678 21592 80000 10254 20225 39991 40150 70359 8652/ 333 10357 29070 55105 58016 69951;
0190826780999992003122012004-06767-043017FM-12+013899999V0200501N000512200019N0040001N1+02861+02231101691ADDAY151061AY211061GF103991031011008001001001KA1240N+02421MA1999999100111MD1999999+0051MW1011REMSYN088AAXX  20124 82678 21596 30501 10286 20223 30011 40169 70151 83100 333 20242 58005 69964;
0167826780999992003122018004-06767-043017FM-12+013899999V0203601N001012200019N0040001N1+03441+02111101181ADDAA106000091GF104991041021008001001001MA1999999099621MD1999999-0051REMSYN070AAXX  20184 82678 32596 43602 10344 20211 39962 40118 84200 333 59005;EQDQ01  00002PRCP06
0208826780999992003122100004-06767-043017FM-12+013899999V0209999C000012200019N0002001N1+02821+02291101271ADDAA106000091GA1001+999999999GF100991001001999999001001KA1240M+03531MA1999999099701MD1999999-0211REMSYN082AAXX  21004 82678 32992 00000 10282 20229 39970 40127 333 10353 29065 55097 59021;EQDQ01  00002PRCP06
0186826780999992003122112004-06767-043017FM-12+013899999V0202701N001510075019N0040001N1+02741+02261101671ADDAA106000091GF108991061051008001021999KA1240N+02431MA1999999100091MD1999999-0021REMSYN076AAXX  21124 82678 32596 82703 10274 20226 30009 40167 8652/ 333 20243 59002;EQDQ01  00002PRCP06
0208826780999992003122200004-06767-043017FM-12+013899999V0209999C000012200019N0002001N1+02861+02371101171ADDAA106000091GA1001+999999999GF100991001001999999001001KA1240M+03551MA1999999099601MD1999999-0101REMSYN082AAXX  22004 82678 32992 00000 10286 20237 39960 40117 333 10355 29067 55085 59010;EQDQ01  00002PRCP06
0186826780999992003122212004-06767-043017FM-12+013899999V0203601N001010075019N0040001N1+02701+02261101531ADDAA106000091GF108991081051008001999999KA1240N+02461MA1999999099961MD1999999-0131REMSYN076AAXX  22124 82678 32596 83602 10270 20226 39996 40153 885// 333 20246 59013;EQDQ01  00002PRCP06
0167826780999992003122218004-06767-043017FM-12+013899999V0201801N001011050019N0040001N1+03281+02131101071ADDAA106000091GF106991031011008001001021MA1999999099511MD1999999-0161REMSYN070AAXX  22184 82678 32596 61802 10328 20213 39951 40107 83102 333 59016;EQDQ01  00002PRCP06
0208826780999992003122300004-06767-043017FM-12+013899999V0209999C000012200019N0002001N1+02881+02371101001ADDAA106000091GA1001+999999999GF100991001001999999001001KA1240M+03461MA1999999099441MD1999999-0161REMSYN082AAXX  23004 82678 32992 00000 10288 20237 39944 40100 333 10346 29069 55064 59016;EQDQ01  00002PRCP06
0186826780999992003122312004-06767-043017FM-12+013899999V0200501N001010075019N0040001N1+02741+02321101431ADDAA106000091GF108991061051008001021999KA1240N+02401MA1999999099861MD1999999-0101REMSYN076AAXX  23124 82678 32596 80502 10274 20232 39986 40143 8652/ 333 20240 59010;EQDQ01  00002PRCP06
0167826780999992003122318004-06767-043017FM-12+013899999V0202301N001010450019N0040001N1+03421+02091100921ADDAA106000091GF106991041021008001031011MA1999999099361MD1999999-0151REMSYN070AAXX  23184 82678 32596 62302 10342 20209 39936 40092 84231 333 59015;EQDQ01  00002PRCP06
0208826780999992003122400004-06767-043017FM-12+013899999V0202701N000512200019N0002001N1+02921+02291100971ADDAA106000091GA1001+999999999GF100991001001999999001001KA1240M+03551MA1999999099411MD1999999-0031REMSYN082AAXX  24004 82678 32992 02701 10292 20229 39941 40097 333 10355 29066 55069 59003;EQDQ01  00002PRCP06
0186826780999992003122412004-06767-043017FM-12+013899999V0203601N001510075019N0040001N1+02841+02261101351ADDAA106000091GF107991051051008001001011KA1240N+02421MA1999999099791MD1999999-0071REMSYN076AAXX  24124 82678 32596 73603 10284 20226 39979 40135 85501 333 20242 59007;EQDQ01  00002PRCP06
0167826780999992003122418004-06767-043017FM-12+013899999V0200901N001512200019N0040001N1+03401+02041101021ADDAA106000091GF106991041021008001001011MA1999999099761MD1999999+0101REMSYN070AAXX  24184 82678 32596 60903 10340 20204 39976 40102 84201 333 58010;EQDQ01  00002PRCP06
0208826780999992003122500004-06767-043017FM-12+013899999V0202301N000512200019N0002001N1+02901+02271101041ADDAA106000091GA1001+999999999GF100991001001999999001001KA1240M+03551MA1999999099481MD1999999+0071REMSYN082AAXX  25004 82678 32992 02301 10290 20227 39948 40104 333 10355 29064 55096 58007;EQDQ01  00002PRCP06
0186826780999992003122512004-06767-043017FM-12+013899999V0209999C000010075019N0040001N1+02741+02211101401ADDAA106000091GF108991061071008001001011KA1240N+02511MA1999999099831MD1999999+0041REMSYN076AAXX  25124 82678 32596 80000 10274 20221 39983 40140 86701 333 20251 58004;EQDQ01  00002PRCP06
0167826780999992003122518004-06767-043017FM-12+013899999V0200501N001512200019N0040001N1+03481+02131100991ADDAA106000091GF103991021021008001001011MA1999999099441MD1999999-0021REMSYN070AAXX  25184 82678 32596 30503 10348 20213 39944 40099 82201 333 59002;EQDQ01  00002PRCP06
0186826780999992003122612004-06767-043017FM-12+013899999V0200501N001510075019N0040001N1+02921+02321101351ADDAA106000091GF108991061051008001001011KA1240N+02611MA1999999099791MD1999999-0041REMSYN076AAXX  26124 82678 32596 80503 10292 20232 39979 40135 86501 333 20261 59004;EQDQ01  00002PRCP06
0167826780999992003122618004-06767-043017FM-12+013899999V0200501N003610075019N0040001N1+03001+02031100931ADDAA106000091GF108991081071008001999999MA1999999099371MD1999999-0071REMSYN070AAXX  26184 82678 32596 80507 10300 20203 39937 40093 887// 333 59007;EQDQ01  00002PRCP06
0208826780999992003122700004-06767-043017FM-12+013899999V0209999C000012200019N0002001N1+02621+02251100991ADDAA106000091GA1001+999999999GF100991001001999999001001KA1240M+03381MA1999999099421MD1999999-0031REMSYN082AAXX  27004 82678 32992 00000 10262 20225 39942 40099 333 10338 29072 55063 59003;EQDQ01  00002PRCP06
0186826780999992003122712004-06767-043017FM-12+013899999V0203601N000510075019N0040001N1+02661+02271101281ADDAA106000091GF108991051051008001999999KA1240N+02321MA1999999099681MD1999999-0111REMSYN076AAXX  27124 82678 32596 83601 10266 20227 39968 40128 855// 333 20232 59011;EQDQ01  00002PRCP06
0183826780999992003122718004-06767-043017FM-12+013899999V0203201N001019999999N0040001N1+03221+02111100821ADDAA106000091GF106991999021008001001001MA1999999099261MD1999999-0111REMSYN070AAXX  27184 82678 32596 63202 10322 20211 39926 40082 84200 333 59011;EQDQ01+000042SCOTLCQ02  00002PRCP06
0208826780999992003122800004-06767-043017FM-12+013899999V0209999C000012200019N0002001N1+02881+02301100841ADDAA106000091GA1001+999999999GF100991001001999999001001KA1240M+03271MA1999999099271MD1999999-0151REMSYN082AAXX  28004 82678 32992 00000 10288 20230 39927 40084 333 10327 29068 55038 59015;EQDQ01  00002PRCP06
0202826780999992003122812004-06767-043017FM-12+013899999V0202701N000510075019N0040001N1+02781+02251101171ADDAA106000091GF108991999021008001001001KA1240N+02521MA1999999099611MD1999999-0071REMSYN076AAXX  28124 82678 32596 82701 10278 20225 39961 40117 86200 333 20252 59007;EQDQ01+000062SCOTLCQ02  00002PRCP06
0183826780999992003122818004-06767-043017FM-12+013899999V0202701N001010075019N0040001N1+02621+02161100951ADDAA106000091GF108991999021008001001001MA1999999099371MD1999999+0111REMSYN070AAXX  28184 82678 32596 82702 10262 20216 39937 40095 85200 333 58011;EQDQ01+000052SCOTLCQ02  00002PRCP06
0214826780999992003122900004-06767-043017FM-12+013899999V0209999C000010075019N0002001N1+02521+02311100941ADDAA106000091GF108991999021008001001001KA1240M+03031MA1999999099371MD1999999+0101REMSYN088AAXX  29004 82678 32592 80000 10252 20231 39937 40094 86200 333 10303 29081 55003 58010;EQDQ01+000062SCOTLCQ02  00002PRCP06
0190826780999992003122912004-06767-043017FM-12+013899999V0200901N001010075019N0040001N1+02461+02301101441ADDAY121061AY221061GF108991081051008001999999KA1240N+02331MA1999999099851MD1999999+0241MW1581REMSYN088AAXX  29124 82678 21596 80902 10246 20230 39985 40144 75822 885// 333 20233 58024 69914;
0171826780999992003122918004-06767-043017FM-12+013899999V0200901N001510075019N0040001N1+02691+01941101081ADDAY161061AY221061GF108991061051008001021999MA1999999099501MD1999999+0131MW1021REMSYN082AAXX  29184 82678 21596 80903 10269 20194 39950 40108 70262 8652/ 333 58013 60031;
0198826780999992003123000004-06767-043017FM-12+013899999V0201801N000510075019N0002001N1+02421+02131101291ADDAA106000091GF108991051051008001021999KA1240M+02771MA1999999099701MD1999999+0331REMSYN088AAXX  30004 82678 32592 81801 10242 20213 39970 40129 8552/ 333 10277 29081 55000 58033;EQDQ01  00002PRCP06
0162826780999992003123012004-06767-043017FM-12+013899999V0201401N002610120019N0040001N1+02641+02161101341ADDGF108991081001012501021999KA1240N+02261MA1999999099751MD1999999-0101REMSYN082AAXX  30124 82678 22696 81405 10264 20216 39975 40134 8802/ 333 20226 59010 60034;
0167826780999992003123018004-06767-043017FM-12+013899999V0201401N001510450019N0040001N1+03131+02141101031ADDAA106000091GF108991041081008001021021MA1999999099461MD1999999-0041REMSYN070AAXX  30184 82678 32596 81403 10313 20214 39946 40103 84822 333 59004;EQDQ01  00002PRCP06
0198826780999992003123100004-06767-043017FM-12+013899999V0201801N000510450019N0002001N1+02741+02451101221ADDAA106000091GF107991031051008001021021KA1240M+03251MA1999999099651MD1999999-0051REMSYN088AAXX  31004 82678 32592 71801 10274 20245 39965 40122 83522 333 10325 29075 55007 59005;EQDQ01  00002PRCP06
0186826780999992003123112004-06767-043017FM-12+013899999V0200901N002112200019N0040001N1+03021+02071101301ADDAA106000091GF105991031011008001001011KA1240N+02381MA1999999099741MD1999999-0011REMSYN076AAXX  31124 82678 32596 50904 10302 20207 39974 40130 83101 333 20238 59001;EQDQ01  00002PRCP06
0167826780999992003123118004-06767-043017FM-12+013899999V0200901N001511050019N0040001N1+03381+01791101031ADDAA106000091GF107991041051008001001021MA1999999099471MD1999999+0011REMSYN070AAXX  31184 82678 32596 70903 10338 20179 39947 40103 84502 333 58001;EQDQ01  00002PRCP06
