0212827650999992003010100004-07330-047470FM-12+021299999V0209999C000010024019N0100001N1+02411+02331101551ADDAY161061AY221061GA1091+999999999GF109991091999999999999999KA1240M+03471MA1999999099141MD1999999+0001MW1001REMSYN094AAXX  01004 82765 21/97 90000 10241 20233 39914 40155 70062 333 10347 29084 55064 58000 60201;
0190827650999992003010112004-07330-047470FM-12+021299999V0203601N001010042019N0200001N1+02451+02351101731ADDAY161061AY221061GF108991061051004501021999KA1240N+02371MA1999999099311MD1999999+0021MW1031REMSYN088AAXX  01124 82765 21498 83602 10245 20235 39931 40173 70362 8652/ 333 20237 58002 60204;
0167827650999992003010118004-07330-047470FM-12+021299999V0203501N001510450019N0200001N1+03141+02531101211ADDAA106000091GF106991041021008001061041MA1999999098831MD1999999+0001REMSYN070AAXX  01184 82765 32598 63503 10314 20253 39883 40121 84264 333 58000;EQDQ01  00002PRCP06
0212827650999992003010200004-07330-047470FM-12+021299999V0203201N001510024019N0100001N1+02421+02301101591ADDAY161061AY221061GA1091+999999999GF109991091999999999999999KA1240M+03311MA1999999099171MD1999999+0031MW1001REMSYN094AAXX  02004 82765 21/97 93203 10242 20230 39917 40159 70062 333 10331 29088 55042 58003 69951;
0171827650999992003010218004-07330-047470FM-12+021299999V0202201N001510450019N0200001N1+02661+02411101221ADDAY161061AY221061GF106991041031008001031001MA1999999098821MD1999999-0011MW1291REMSYN082AAXX  02184 82765 21598 62203 10266 20241 39882 40122 72962 84330 333 59001 60031;
0208827650999992003010300004-07330-047470FM-12+021299999V0209999C000010024019N0100001N1+02581+02491101391ADDAA106000091GA1091+999999999GF109991091999999999999999KA1240M+03111MA1999999098981MD1999999-0191REMSYN082AAXX  03004 82765 32/97 90000 10258 20249 39898 40139 333 10311 29092 55035 59019;EQDQ01  00002PRCP06
0162827650999992003010312004-07330-047470FM-12+021299999V0200501N001510450019N0200001N1+02601+02461101601ADDGF106991041081008001041001KA1240N+02331MA1999999099201MD1999999-0061REMSYN082AAXX  03124 82765 22598 60503 10260 20246 39920 40160 84840 333 20233 59006 60034;
0167827650999992003010318004-07330-047470FM-12+021299999V0200401N001010450019N0200001N1+03221+02431101201ADDAA106000091GF105991031021008001041001MA1999999098831MD1999999+0011REMSYN070AAXX  03184 82765 32598 50402 10322 20243 39883 40120 83240 333 58001;EQDQ01  00002PRCP06
0208827650999992003010400004-07330-047470FM-12+021299999V0209999C000012200019N0200001N1+02861+02601101341ADDAA106000091GA1001+999999999GF100991001001999999001001KA1240M+03321MA1999999098961MD1999999-0021REMSYN082AAXX  04004 82765 32998 00000 10286 20260 39896 40134 333 10332 29082 55076 59002;EQDQ01  00002PRCP06
0186827650999992003010412004-07330-047470FM-12+021299999V0201601N000512200019N0200001N1+02741+02501101591ADDAA106000091GF103991021021008001041001KA1240N+02371MA1999999099211MD1999999+0011REMSYN076AAXX  04124 82765 32598 31601 10274 20250 39921 40159 82240 333 20237 58001;EQDQ01  00002PRCP06
0167827650999992003010418004-07330-047470FM-12+021299999V0202401N001010075019N0200001N1+03341+02371101211ADDAA106000091GF106991061021008001001001MA1999999098841MD1999999+0011REMSYN070AAXX  04184 82765 32598 62402 10334 20237 39884 40121 86200 333 58001;EQDQ01  00002PRCP06
0168827650999992003010512004-07330-047470FM-12+021299999V0200901N001510120019N0200001N1+02621+02481101631ADDGF108991061081008001021999KA1240N+02331MA1999999099251MD1999999+0041REMSYN088AAXX  05124 82765 21598 80903 10262 20248 39925 40163 7//55 8682/ 333 20233 58004 60024;
0167827650999992003010518004-07330-047470FM-12+021299999V0200501N001510450019N0200001N1+03281+02431101171ADDAA106000091GF105991041021008001041001MA1999999098821MD1999999-0021REMSYN070AAXX  05184 82765 32598 50503 10328 20243 39882 40117 84240 333 59002;EQDQ01  00002PRCP06
0208827650999992003010600004-07330-047470FM-12+021299999V0209999C000012200019N0200001N1+02961+02701101441ADDAA106000091GA1001+999999999GF100991001001999999001001KA1240M+03381MA1999999099061MD1999999+0051REMSYN082AAXX  06004 82765 32998 00000 10296 20270 39906 40144 333 10338 29081 55055 58005;EQDQ01  00002PRCP06
0186827650999992003010612004-07330-047470FM-12+021299999V0202501N001010450019N0200001N1+02761+02481101591ADDAA106000091GF106991041021008001031001KA1240N+02441MA1999999099211MD1999999-0041REMSYN076AAXX  06124 82765 32598 62502 10276 20248 39921 40159 84230 333 20244 59004;EQDQ01  00002PRCP06
0167827650999992003010618004-07330-047470FM-12+021299999V0203201N001010075019N0200001N1+03291+02481101131ADDAA106000091GF107991051021008001031011MA1999999098761MD1999999-0061REMSYN070AAXX  06184 82765 32598 73202 10329 20248 39876 40113 85231 333 59006;EQDQ01  00002PRCP06
0208827650999992003010700004-07330-047470FM-12+021299999V0202501N001019999999N0200001N1+02741+02501101371ADDAA106000091GA1091+999999999GF109991091999999999999999KA1240M+03351MA1999999098991MD1999999-0071REMSYN082AAXX  07004 82765 32/98 92502 10274 20250 39899 40137 333 10335 29080 55067 59007;EQDQ01  00002PRCP06
0186827650999992003010712004-07330-047470FM-12+021299999V0203201N003110075019N0200001N1+02771+02421101641ADDAA106000091GF107991051021008001031001KA1240N+02421MA1999999099251MD1999999+0041REMSYN076AAXX  07124 82765 32598 73206 10277 20242 39925 40164 85230 333 20242 58004;EQDQ01  00002PRCP06
0167827650999992003010718004-07330-047470FM-12+021299999V0200701N002612200019N0200001N1+03131+02431101211ADDAA106000091GF104991031011008001031001MA1999999098811MD1999999+0051REMSYN070AAXX  07184 82765 32598 40705 10313 20243 39881 40121 83130 333 58005;EQDQ01  00002PRCP06
0208827650999992003010800004-07330-047470FM-12+021299999V0203201N001012200019N0200001N1+02891+02581101271ADDAA106000091GA1001+999999999GF100991001001999999001001KA1240M+03271MA1999999098901MD1999999+0091REMSYN082AAXX  08004 82765 32998 03202 10289 20258 39890 40127 333 10327 29079 55059 58009;EQDQ01  00002PRCP06
0171827650999992003010818004-07330-047470FM-12+021299999V0200701N001010450019N0200001N1+03241+02441101291ADDAY161061AY261061GF105991031021008001051011MA1999999098931MD1999999+0121MW1021REMSYN082AAXX  08184 82765 21598 50702 10324 20244 39893 40129 70266 83251 333 58012 60041;
0208827650999992003010900004-07330-047470FM-12+021299999V0209999C000012200019N0200001N1+02971+02641101411ADDAA106000091GA1001+999999999GF100991001001999999001001KA1240M+03401MA1999999099041MD1999999+0141REMSYN082AAXX  09004 82765 32998 00000 10297 20264 39904 40141 333 10340 29078 55073 58014;EQDQ01  00002PRCP06
0162827650999992003010912004-07330-047470FM-12+021299999V0200901N002610075019N0200001N1+02761+02501101641ADDGF107991071031008001001001KA1240N+02451MA1999999099261MD1999999+0121REMSYN082AAXX  09124 82765 22598 70905 10276 20250 39926 40164 87300 333 20245 58012 60044;
0167827650999992003010918004-07330-047470FM-12+021299999V0200901N001010075019N0200001N1+03211+02481101401ADDAA106000091GF108991051021008001011999MA1999999099031MD1999999+0101REMSYN070AAXX  09184 82765 32598 80902 10321 20248 39903 40140 8521/ 333 58010;EQDQ01  00002PRCP06
0212827650999992003011000004-07330-047470FM-12+021299999V0209999C000012200019N0200001N1+02531+02381101581ADDAY161061AY221061GA1001+999999999GF100991001001999999001001KA1240M+03301MA1999999099181MD1999999+0141MW1001REMSYN094AAXX  10004 82765 21998 00000 10253 20238 39918 40158 70062 333 10330 29084 55034 58014 60021;
0162827650999992003011012004-07330-047470FM-12+021299999V0202201N000510120019N0200001N1+02491+02361101771ADDGF107991071081008001001001KA1240N+02301MA1999999099351MD1999999+0091REMSYN082AAXX  10124 82765 22598 72201 10249 20236 39935 40177 87800 333 20230 58009 60024;
0167827650999992003011018004-07330-047470FM-12+021299999V0200901N002610450019N0200001N1+03251+02421101261ADDAA106000091GF105991031031008001061041MA1999999098881MD1999999-0151REMSYN070AAXX  10184 82765 32598 50905 10325 20242 39888 40126 83364 333 59015;EQDQ01  00002PRCP06
0208827650999992003011100004-07330-047470FM-12+021299999V0209999C000012200019N0200001N1+02961+02641101371ADDAA106000091GA1001+999999999GF100991001001999999001001KA1240M+03451MA1999999098981MD1999999-0201REMSYN082AAXX  11004 82765 32998 00000 10296 20264 39898 40137 333 10345 29080 55088 59020;EQDQ01  00002PRCP06
0186827650999992003011112004-07330-047470FM-12+021299999V0200501N004112200019N0200001N1+02761+02301101711ADDAA106000091GF104991031011008001001041KA1240N+02441MA1999999099331MD1999999-0021REMSYN076AAXX  11124 82765 32598 40508 10276 20230 39933 40171 83104 333 20244 59002;EQDQ01  00002PRCP06
0171827650999992003011118004-07330-047470FM-12+021299999V0202901N002110075019N0100001N1+03081+02441101351ADDAY161061AY221061GF107991071031008001001001MA1999999098971MD1999999+0091MW1601REMSYN082AAXX  11184 82765 21597 72904 10308 20244 39897 40135 76062 87300 333 58009 60011;
0202827650999992003011200004-07330-047470FM-12+021299999V0200501N002612200019N0200001N1+02641+02331101471ADDAY161061AY221061GF103991031001008001061001KA1240M+03281MA1999999099081MD1999999+0101MW1011REMSYN100AAXX  12004 82765 21598 30505 10264 20233 39908 40147 70162 83060 333 10328 29078 55057 58010 60191;
0162827650999992003011212004-07330-047470FM-12+021299999V0200601N000512200019N0200001N1+02641+02391101761ADDGF102991021011008001001001KA1240N+02291MA1999999099361MD1999999+0031REMSYN082AAXX  12124 82765 22598 20601 10264 20239 39936 40176 82100 333 20229 58003 60204;
0183827650999992003011218004-07330-047470FM-12+021299999V0203201N001519999999N0200001N1+03341+02371101261ADDAA106000091GF106991999021008001001001MA1999999098891MD1999999-0081REMSYN070AAXX  12184 82765 32598 63203 10334 20237 39889 40126 87200 333 59008;EQDQ01+000072SCOTLCQ02  00002PRCP06
0208827650999992003011300004-07330-047470FM-12+021299999V0201101N001012200019N0200001N1+03021+02531101311ADDAA106000091GA1001+999999999GF100991001001999999001001KA1240M+03521MA1999999098941MD1999999-0141REMSYN082AAXX  13004 82765 32998 01102 10302 20253 39894 40131 333 10352 29073 55101 59014;EQDQ01  00002PRCP06
0186827650999992003011312004-07330-047470FM-12+021299999V0200901N000510450019N0200001N1+02741+02431101531ADDAA106000091GF105991041021008001041001KA1240N+02351MA1999999099161MD1999999-0201REMSYN076AAXX  13124 82765 32598 50901 10274 20243 39916 40153 84240 333 20235 59020;EQDQ01  00002PRCP06
0167827650999992003011318004-07330-047470FM-12+021299999V0203601N001510075019N0200001N1+03281+02371101171ADDAA106000091GF105991051021008001001001MA1999999098811MD1999999-0081REMSYN070AAXX  13184 82765 32598 53603 10328 20237 39881 40117 85200 333 59008;EQDQ01  00002PRCP06
0198827650999992003011400004-07330-047470FM-12+021299999V0200601N000510450019N0200001N1+02921+02561101301ADDAA106000091GF107991031081008001041001KA1240M+03281MA1999999098931MD1999999-0011REMSYN088AAXX  14004 82765 32598 70601 10292 20256 39893 40130 83840 333 10328 29076 55092 59001;EQDQ01  00002PRCP06
0168827650999992003011412004-07330-047470FM-12+021299999V0200501N001510120019N0200001N1+02441+02231101641ADDGF107991061081008001041001KA1240N+02231MA1999999099251MD1999999+0091REMSYN088AAXX  14124 82765 21598 70503 10244 20223 39925 40164 7//66 86840 333 20223 58009 60374;
0149827650999992003011418004-07330-047470FM-12+021299999V0200501N001010075019N0200001N1+03061+02381101311ADDGF106991051021008001041001MA1999999098921MD1999999+0111REMSYN082AAXX  14184 82765 21598 60502 10306 20238 39892 40131 7//55 85240 333 58011 69941;
0202827650999992003011500004-07330-047470FM-12+021299999V0203601N001510075019N0200001N1+02361+02311101411ADDAY161061AY261061GF108991071051008001021999KA1240M+03121MA1999999099191MD1999999+0261MW1511REMSYN100AAXX  15004 82765 21598 83603 10236 20231 39919 40141 75166 8752/ 333 10312 29087 55028 58026 60301;
0190827650999992003011512004-07330-047470FM-12+021299999V0200701N000510450019N0200001N1+02501+02361101791ADDAY111061AY211061GF107991031021008001031001KA1240N+02311MA1999999099371MD1999999+0121MW1011REMSYN088AAXX  15124 82765 21598 70701 10250 20236 39937 40179 70111 83230 333 20231 58012 60314;
0167827650999992003011518004-07330-047470FM-12+021299999V0200501N001010450019N0200001N1+03061+02301101421ADDAA106000091GF105991031021008001041001MA1999999099031MD1999999+0111REMSYN070AAXX  15184 82765 32598 50502 10306 20230 39903 40142 83240 333 58011;EQDQ01  00002PRCP06
0198827650999992003011600004-07330-047470FM-12+021299999V0209999C000012200019N0200001N1+02671+02481101511ADDAA106000091GF103991011011008001041001KA1240M+03151MA1999999099111MD1999999+0081REMSYN088AAXX  16004 82765 32598 30000 10267 20248 39911 40151 81140 333 10315 29083 55034 58008;EQDQ01  00002PRCP06
0162827650999992003011612004-07330-047470FM-12+021299999V0201101N001010450019N0200001N1+02671+02481101731ADDGF105991031021008001031001KA1240N+02441MA1999999099331MD1999999+0041REMSYN082AAXX  16124 82765 22598 51102 10267 20248 39933 40173 83230 333 20244 58004 69944;
0167827650999992003011618004-07330-047470FM-12+021299999V0200701N001510450019N0200001N1+03181+02361101321ADDAA106000091GF105991031021008001041001MA1999999098951MD1999999-0081REMSYN070AAXX  16184 82765 32598 50703 10318 20236 39895 40132 83240 333 59008;EQDQ01  00002PRCP06
0198827650999992003011700004-07330-047470FM-12+021299999V0209999C000012200019N0200001N1+02861+02541101371ADDAA106000091GF104991041001012501031001KA1240M+03241MA1999999098991MD1999999-0121REMSYN088AAXX  17004 82765 32698 40000 10286 20254 39899 40137 84030 333 10324 29079 55082 59012;EQDQ01  00002PRCP06
0186827650999992003011712004-07330-047470FM-12+021299999V0200701N000510450019N0200001N1+02681+02391101671ADDAA106000091GF105991021011008001051001KA1240N+02461MA1999999099281MD1999999-0051REMSYN076AAXX  17124 82765 32598 50701 10268 20239 39928 40167 82150 333 20246 59005;EQDQ01  00002PRCP06
0167827650999992003011718004-07330-047470FM-12+021299999V0203601N001510450019N0200001N1+03121+02281101321ADDAA106000091GF107991041011008001041001MA1999999098931MD1999999+0021REMSYN070AAXX  17184 82765 32598 73603 10312 20228 39893 40132 84140 333 58002;EQDQ01  00002PRCP06
0186827650999992003011812004-07330-047470FM-12+021299999V0201601N001010450019N0200001N1+02741+02451101581ADDAA106000091GF107991041031008001041001KA1240N+02411MA1999999099201MD1999999+0081REMSYN076AAXX  18124 82765 32598 71602 10274 20245 39920 40158 84340 333 20241 58008;EQDQ01  00002PRCP06
0167827650999992003011818004-07330-047470FM-12+021299999V0203601N002610450019N0200001N1+03191+02151101321ADDAA106000091GF106991031011008001041001MA1999999098951MD1999999+0021REMSYN070AAXX  18184 82765 32598 63605 10319 20215 39895 40132 83140 333 58002;EQDQ01  00002PRCP06
0198827650999992003011900004-07330-047470FM-12+021299999V0202901N000510120019N0200001N1+02681+02391101571ADDAA106000091GF108991081081008001999999KA1240M+03241MA1999999099181MD1999999+0061REMSYN088AAXX  19004 82765 32598 82901 10268 20239 39918 40157 888// 333 10324 29076 55063 58006;EQDQ01  00002PRCP06
0190827650999992003011912004-07330-047470FM-12+021299999V0202301N001010042019N0040001N1+02381+02361101891ADDAY161061AY261061GF108991081071004501999999KA1240N+02331MA1999999099471MD1999999+0271MW1211REMSYN088AAXX  19124 82765 21496 82302 10238 20236 39947 40189 72166 887// 333 20233 58027 60194;
0176827650999992003011918004-07330-047470FM-12+021299999V0203201N002610042019N0100001N1+02541+02381101581ADDAA106000021AY121061AY221061GF108991071071004501041999MA1999999099171MD1999999+0221MW1201REMSYN076AAXX  19184 82765 31497 83205 10254 20238 39917 40158 72022 8774/ 333 58022;
0189827650999992003012000004-07330-047470FM-12+021299999V0200901N001019999999N0200001N1+02561+02421101641ADDAA106000021GA1091+999999999GF109991091999999999999999KA1240M+02751MA1999999099231MD1999999+0051REMSYN082AAXX  20004 82765 32/98 90902 10256 20242 39923 40164 333 10275 29093 55006 58005;
0162827650999992003012012004-07330-047470FM-12+021299999V0200501N001010450019N0200001N1+02591+02401101671ADDGF107991041011008001031001KA1240N+02381MA1999999099261MD1999999-0211REMSYN082AAXX  20124 82765 22598 70502 10259 20240 39926 40167 84130 333 20238 59021 69924;
0168827650999992003012112004-07330-047470FM-12+021299999V0202301N001510120019N0200001N1+02421+02331101631ADDGF108991061081008001021999KA1240N+02391MA1999999099211MD1999999-0051REMSYN088AAXX  21124 82765 21598 82303 10242 20233 39921 40163 7//55 8682/ 333 20239 59005 60064;
0149827650999992003012118004-07330-047470FM-12+021299999V0203601N002610120019N0200001N1+02661+02351101281ADDGF106991051081008001021001MA1999999098881MD1999999+0011REMSYN082AAXX  21184 82765 21598 63605 10266 20235 39888 40128 7//66 85820 333 58001 60111;
0198827650999992003012200004-07330-047470FM-12+021299999V0209999C000010120019N0200001N1+02561+02441101511ADDAA106000091GF108991061081008001021999KA1240M+02701MA1999999099101MD1999999-0011REMSYN088AAXX  22004 82765 32598 80000 10256 20244 39910 40151 8682/ 333 10270 29091 55019 59001;EQDQ01  00002PRCP06
0168827650999992003012212004-07330-047470FM-12+021299999V0202701N001510120019N0200001N1+02461+02341101711ADDGF107991051081008001041001KA1240N+02351MA1999999099291MD1999999+0081REMSYN088AAXX  22124 82765 21598 72703 10246 20234 39929 40171 7//55 85840 333 20235 58008 60114;
0167827650999992003012218004-07330-047470FM-12+021299999V0202701N001510450019N0200001N1+02961+02381101201ADDAA106000091GF106991041021008001041001MA1999999098821MD1999999-0061REMSYN070AAXX  22184 82765 32598 62703 10296 20238 39882 40120 84240 333 59006;EQDQ01  00002PRCP06
0180827650999992003012300004-07330-047470FM-12+021299999V0201401N001510120019N0200001N1+02461+02411101521ADDGF108991061081008001021999KA1240M+03121MA1999999099101MD1999999+0001REMSYN100AAXX  23004 82765 21598 81403 10246 20241 39910 40152 7//55 8682/ 333 10312 29089 55039 58000 60021;
0162827650999992003012312004-07330-047470FM-12+021299999V0201101N000510120019N0200001N1+02601+02371101701ADDGF106991051081008001041001KA1240N+02371MA1999999099291MD1999999+0001REMSYN082AAXX  23124 82765 22598 61101 10260 20237 39929 40170 85840 333 20237 58000 60024;
0149827650999992003012318004-07330-047470FM-12+021299999V0202301N001510120019N0200001N1+02461+02271101511ADDGF108991061081008001021999MA1999999099091MD1999999+0271REMSYN082AAXX  23184 82765 21598 82303 10246 20227 39909 40151 7//66 8682/ 333 58027 60091;
0180827650999992003012400004-07330-047470FM-12+021299999V0209999C000010120019N0200001N1+02281+02261101731ADDGF108991061081008001021999KA1240M+03161MA1999999099211MD1999999+0211REMSYN100AAXX  24004 82765 21598 80000 10228 20226 39921 40173 7//65 8682/ 333 10316 29093 55041 58021 60031;
0162827650999992003012412004-07330-047470FM-12+021299999V0203601N001510450019N0200001N1+02441+02231101841ADDGF105991031031008001011001KA1240N+02181MA1999999099411MD1999999+0121REMSYN082AAXX  24124 82765 22598 53603 10244 20223 39941 40184 83310 333 20218 58012 60124;
0167827650999992003012418004-07330-047470FM-12+021299999V0201401N001012200019N0200001N1+03021+02461101331ADDAA106000091GF104991031021008001031001MA1999999098931MD1999999+0161REMSYN070AAXX  24184 82765 32598 41402 10302 20246 39893 40133 83230 333 58016;EQDQ01  00002PRCP06
0184827650999992003012500004-07330-047470FM-12+021299999V0202301N002112200019N0200001N1+02681+02351101311ADDGA1001+999999999GF100991001001999999001001KA1240M+03191MA1999999098911MD1999999-0041REMSYN088AAXX  25004 82765 22998 02304 10268 20235 39891 40131 333 10319 29081 55080 59004 69941;
0162827650999992003012512004-07330-047470FM-12+021299999V0200901N001512200019N0200001N1+02721+02451101621ADDGF102991021011008001001001KA1240N+02361MA1999999099231MD1999999-0181REMSYN082AAXX  25124 82765 22598 20903 10272 20245 39923 40162 82100 333 20236 59018 69944;
0167827650999992003012518004-07330-047470FM-12+021299999V0203601N000510450019N0200001N1+03291+02341101101ADDAA106000091GF105991041021008001031001MA1999999098741MD1999999-0191REMSYN070AAXX  25184 82765 32598 53601 10329 20234 39874 40110 84230 333 59019;EQDQ01  00002PRCP06
0184827650999992003012600004-07330-047470FM-12+021299999V0202501N000519999999N0200001N1+02561+02421101261ADDGA1091+999999999GF109991091999999999999999KA1240M+03441MA1999999098871MD1999999-0041REMSYN088AAXX  26004 82765 22/98 92501 10256 20242 39887 40126 333 10344 29081 55086 59004 60021;
0162827650999992003012612004-07330-047470FM-12+021299999V0209999C000019999999N0200001N1+02601+02421101441ADDGF105991051001012501041001KA1240N+02321MA1999999099041MD1999999-0191REMSYN082AAXX  26124 82765 22698 50000 10260 20242 39904 40144 85040 333 20232 59019 60024;
0171827650999992003012618004-07330-047470FM-12+021299999V0200701N002110075019N0100001N1+02491+02171101171ADDAY161061AY261061GF108991081071008001999999MA1999999098761MD1999999+0021MW1161REMSYN082AAXX  26184 82765 21597 80704 10249 20217 39876 40117 71666 887// 333 58002 60051;
0208827650999992003012700004-07330-047470FM-12+021299999V0200901N001019999999N0200001N1+02581+02461101161ADDAA106000091GA1091+999999999GF109991091999999999999999KA1240M+03211MA1999999098771MD1999999-0101REMSYN082AAXX  27004 82765 32/98 90902 10258 20246 39877 40116 333 10321 29089 55055 59010;EQDQ01  00002PRCP06
0162827650999992003012712004-07330-047470FM-12+021299999V0203601N002610075019N0200001N1+02671+02371101461ADDGF107991051021008001011001KA1240N+02351MA1999999099061MD1999999+0021REMSYN082AAXX  27124 82765 22598 73605 10267 20237 39906 40146 85210 333 20235 58002 60054;
0167827650999992003012718004-07330-047470FM-12+021299999V0200501N002610075019N0200001N1+03131+02281101051ADDAA106000091GF107991051021008001011001MA1999999098671MD1999999-0091REMSYN070AAXX  27184 82765 32598 70505 10313 20228 39867 40105 85210 333 59009;EQDQ01  00002PRCP06
0210827650999992003012800004-07330-047470FM-12+021299999V0200501N001510450019N0200001N1+02741+02301101401ADDAA106000091GF106991031021008001011001KA1240M+03261MA1999999099031MD1999999-0031MW1131REMSYN094AAXX  28004 82765 31598 60503 10274 20230 39903 40140 713// 83210 333 10326 29075 55076 59003;EQDQ01  00002PRCP06
0186827650999992003012812004-07330-047470FM-12+021299999V0203601N001510120019N0200001N1+02571+02271101661ADDAA106000091GF107991071081008001001001KA1240N+02401MA1999999099261MD1999999+0201REMSYN076AAXX  28124 82765 32598 73603 10257 20227 39926 40166 87800 333 20240 58020;EQDQ01  00002PRCP06
0171827650999992003012818004-07330-047470FM-12+021299999V0209999C000010450019N0200001N1+03071+02431101241ADDAY161061AY221061GF105991031031008001061041MA1999999098861MD1999999+0191MW1031REMSYN082AAXX  28184 82765 21598 50000 10307 20243 39886 40124 70362 83364 333 58019 60021;
0202827650999992003012900004-07330-047470FM-12+021299999V0200601N000510042019N0040001N1+02381+02291101591ADDAY161061AY261061GF108991081071004501999999KA1240M+03221MA1999999099181MD1999999+0151MW1551REMSYN100AAXX  29004 82765 21496 80601 10238 20229 39918 40159 75566 887// 333 10322 29086 55040 58015 60161;
0190827650999992003012912004-07330-047470FM-12+021299999V0200901N000510450019N0200001N1+02501+02321101711ADDAY161061AY221061GF107991041021008001031001KA1240N+02361MA1999999099291MD1999999+0031MW1031REMSYN088AAXX  29124 82765 21598 70901 10250 20232 39929 40171 70362 84230 333 20236 58003 60194;
0167827650999992003012918004-07330-047470FM-12+021299999V0202401N001512200019N0200001N1+03141+02401101191ADDAA106000091GF105991031021008001001041MA1999999098811MD1999999-0051REMSYN070AAXX  29184 82765 32598 52403 10314 20240 39881 40119 83204 333 59005;EQDQ01  00002PRCP06
0212827650999992003013000004-07330-047470FM-12+021299999V0201101N000510024019N0100001N1+02591+02491101331ADDAY161061AY221061GA1091+999999999GF109991091999999999999999KA1240M+03221MA1999999098931MD1999999-0251MW1021REMSYN094AAXX  30004 82765 21/97 91101 10259 20249 39893 40133 70262 333 10322 29086 55059 59025 60271;
0162827650999992003013012004-07330-047470FM-12+021299999V0202701N000510120019N0200001N1+02561+02421101611ADDGF108991061081008001041001KA1240N+02431MA1999999099211MD1999999-0081REMSYN082AAXX  30124 82765 22598 82701 10256 20242 39921 40161 86840 333 20243 59008 60274;
0149827650999992003013018004-07330-047470FM-12+021299999V0209999C000010075019N0200001N1+02221+02121101481ADDGF108991061051008001021999MA1999999099061MD1999999+0151REMSYN082AAXX  30184 82765 21598 80000 10222 20212 39906 40148 7//66 8652/ 333 58015 60631;
0198827650999992003013100004-07330-047470FM-12+021299999V0209999C000010120019N0200001N1+02241+02171101461ADDAA106000091GF107991051081008001021001KA1240M+02621MA1999999099041MD1999999+0111REMSYN088AAXX  31004 82765 32598 70000 10224 20217 39904 40146 85820 333 10262 29094 55000 58011;EQDQ01  00002PRCP06
0162827650999992003013112004-07330-047470FM-12+021299999V0200901N000510075019N0200001N1+02261+02231101631ADDGF108991061051008001021999KA1240N+02171MA1999999099191MD1999999-0021REMSYN082AAXX  31124 82765 22598 80901 10226 20223 39919 40163 8652/ 333 20217 59002 60634;
0167827650999992003013118004-07330-047470FM-12+021299999V0201801N001510075019N0200001N1+02861+02441101171ADDAA106000091GF107991051021008001041001MA1999999098771MD1999999-0291REMSYN070AAXX  31184 82765 32598 71803 10286 20244 39877 40117 85240 333 59029;EQDQ01  00002PRCP06
0198827650999992003020100004-07330-047470FM-12+021299999V0200401N000510450019N0200001N1+02681+02481101251ADDAA106000091GF106991041021008001041001KA1240M+03021MA1999999098851MD1999999-0191REMSYN088AAXX  01004 82765 32598 60401 10268 20248 39885 40125 84240 333 10302 29088 55039 59019;EQDQ01  00002PRCP06
0168827650999992003020112004-07330-047470FM-12+021299999V0201601N001510075019N0200001N1+02301+02181101631ADDGF107991051021008001041001KA1240N+02031MA1999999099221MD1999999+0031REMSYN088AAXX  01124 82765 21598 71603 10230 20218 39922 40163 7//66 85240 333 20203 58003 60284;
0167827650999992003020118004-07330-047470FM-12+021299999V0202701N001010450019N0200001N1+03081+02561101201ADDAA106000091GF106991041021008001041001MA1999999098831MD1999999+0061REMSYN070AAXX  01184 82765 32598 62702 10308 20256 39883 40120 84240 333 58006;EQDQ01  00002PRCP06
0180827650999992003020200004-07330-047470FM-12+021299999V0200901N000510075019N0200001N1+02361+02311101441ADDGF108991061051008001021999KA1240M+03141MA1999999099021MD1999999+0171REMSYN100AAXX  02004 82765 21598 80901 10236 20231 39902 40144 7//66 8652/ 333 10314 29090 55037 58017 60311;
0190827650999992003020212004-07330-047470FM-12+021299999V0202701N001010450019N0200001N1+02441+02351101641ADDAY161061AY261061GF106991031011008001031001KA1240N+02311MA1999999099221MD1999999+0001MW1011REMSYN088AAXX  02124 82765 21598 62702 10244 20235 39922 40164 70166 83130 333 20231 58000 60314;
0167827650999992003020218004-07330-047470FM-12+021299999V0201101N001510450019N0200001N1+03061+02351101311ADDAA106000091GF105991031021008001051001MA1999999098921MD1999999+0091REMSYN070AAXX  02184 82765 32598 51103 10306 20235 39892 40131 83250 333 58009;EQDQ01  00002PRCP06
0208827650999992003020300004-07330-047470FM-12+021299999V0200901N001512200019N0200001N1+02661+02371101431ADDAA106000091GA1001+999999999GF100991001001999999001001KA1240M+03181MA1999999099031MD1999999+0011REMSYN082AAXX  03004 82765 32998 00903 10266 20237 39903 40143 333 10318 29082 55045 58001;EQDQ01  00002PRCP06
0186827650999992003020312004-07330-047470FM-12+021299999V0201801N001519999999N0200001N1+02521+02341101601ADDAA106000091GF106991061001012501051001KA1240N+02391MA1999999099221MD1999999+0001REMSYN076AAXX  03124 82765 32698 61803 10252 20234 39922 40160 86050 333 20239 58000;EQDQ01  00002PRCP06
0167827650999992003020318004-07330-047470FM-12+021299999V0201401N002110450019N0200001N1+03171+02371101291ADDAA106000091GF105991041021008001031001MA1999999098941MD1999999+0021REMSYN070AAXX  03184 82765 32598 51404 10317 20237 39894 40129 84230 333 58002;EQDQ01  00002PRCP06
0208827650999992003020400004-07330-047470FM-12+021299999V0200901N001012200019N0200001N1+02861+02461101331ADDAA106000091GA1001+999999999GF100991001001999999001001KA1240M+03311MA1999999098941MD1999999-0091REMSYN082AAXX  04004 82765 32998 00902 10286 20246 39894 40133 333 10331 29078 55070 59009;EQDQ01  00002PRCP06
0186827650999992003020412004-07330-047470FM-12+021299999V0201801N001512200019N0200001N1+02741+02401101481ADDAA106000091GF104991021001012501061041KA1240N+02371MA1999999099101MD1999999-0121REMSYN076AAXX  04124 82765 32698 41803 10274 20240 39910 40148 82064 333 20237 59012;EQDQ01  00002PRCP06
0167827650999992003020418004-07330-047470FM-12+021299999V0201801N003110450019N0200001N1+03261+02351101151ADDAA106000091GF105991031021008001061011MA1999999098791MD1999999-0151REMSYN070AAXX  04184 82765 32598 51806 10326 20235 39879 40115 83261 333 59015;EQDQ01  00002PRCP06
0186827650999992003020512004-07330-047470FM-12+021299999V0200501N001010075019N0200001N1+02671+02371101551ADDAA106000091GF107991071021008001001001KA1240N+02421MA1999999099171MD1999999+0071REMSYN076AAXX  05124 82765 32598 70502 10267 20237 39917 40155 87200 333 20242 58007;EQDQ01  00002PRCP06
0167827650999992003020518004-07330-047470FM-12+021299999V0201701N002110450019N0200001N1+03261+02441101151ADDAA106000091GF105991031021008001011041MA1999999098781MD1999999-0011REMSYN070AAXX  05184 82765 32598 51704 10326 20244 39878 40115 83214 333 59001;EQDQ01  00002PRCP06
0212827650999992003020600004-07330-047470FM-12+021299999V0209999C000010024019N0100001N1+02481+02411101331ADDAY191061AY261061GA1091+999999999GF109991091999999999999999KA1240M+03401MA1999999098931MD1999999+0101MW1021REMSYN094AAXX  06004 82765 21/97 90000 10248 20241 39893 40133 70296 333 10340 29084 55073 58010 60201;
0162827650999992003020612004-07330-047470FM-12+021299999V0200501N004110450019N0200001N1+02671+02311101631ADDGF106991041081008001021041KA1240N+02411MA1999999099231MD1999999+0061REMSYN082AAXX  06124 82765 22598 60508 10267 20231 39923 40163 84824 333 20241 58006 60204;
0195827650999992003020618004-07330-047470FM-12+021299999V0200501N004110075019N0100001N1+02961+02351101251ADDAA106000091AY191061AY221061GF107991051031008001021041MA1999999098871MD1999999+0091MW1171REMSYN076AAXX  06184 82765 31597 70508 10296 20235 39887 40125 71792 85324 333 58009;EQDQ01  00002PRCP06
0202827650999992003020700004-07330-047470FM-12+021299999V0209999C000010150019N0200001N1+02771+02561101281ADDAY161061AY221061GF108991081001017501011999KA1240M+03201MA1999999098891MD1999999-0041MW1021REMSYN100AAXX  07004 82765 21798 80000 10277 20256 39889 40128 70262 8801/ 333 10320 29082 55079 59004 69981;
0162827650999992003020712004-07330-047470FM-12+021299999V0201301N001010450019N0200001N1+02761+02421101491ADDGF106991041011008001011041KA1240N+02371MA1999999099101MD1999999-0131REMSYN082AAXX  07124 82765 22598 61302 10276 20242 39910 40149 84114 333 20237 59013 69984;
0167827650999992003020718004-07330-047470FM-12+021299999V0201801N001510450019N0200001N1+03231+02581101211ADDAA106000091GF107991041021008001021001MA1999999098841MD1999999-0031REMSYN070AAXX  07184 82765 32598 71803 10323 20258 39884 40121 84220 333 59003;EQDQ01  00002PRCP06
0226827650999992003020800004-07330-047470FM-12+021299999V0200701N001510450019N0200001N1+02931+02661101271ADDAA106000091AY121061AY221061GF108991041021008001011999KA1240M+03421MA1999999098901MD1999999+0011MW1131REMSYN094AAXX  08004 82765 31598 80703 10293 20266 39890 40127 71322 8421/ 333 10342 29081 55076 58001;EQDQ01  00002PRCP06
0186827650999992003020812004-07330-047470FM-12+021299999V0202301N001510450019N0200001N1+02721+02471101601ADDAA106000091GF106991041021008001041001KA1240N+02451MA1999999099221MD1999999+0121REMSYN076AAXX  08124 82765 32598 62303 10272 20247 39922 40160 84240 333 20245 58012;EQDQ01  00002PRCP06
0167827650999992003020818004-07330-047470FM-12+021299999V0201101N001510075019N0200001N1+03281+02561101231ADDAA106000091GF106991051021008001041001MA1999999098861MD1999999+0021REMSYN070AAXX  08184 82765 32598 61103 10328 20256 39886 40123 85240 333 58002;EQDQ01  00002PRCP06
0208827650999992003020900004-07330-047470FM-12+021299999V0200501N001012200019N0200001N1+03001+02721101271ADDAA106000091GA1001+999999999GF100991001001999999001001KA1240M+03361MA1999999098871MD1999999-0031REMSYN082AAXX  09004 82765 32998 00502 10300 20272 39887 40127 333 10336 29080 55078 59003;EQDQ01  00002PRCP06
0186827650999992003020912004-07330-047470FM-12+021299999V0203601N001010450019N0200001N1+02821+02401101501ADDAA106000091GF106991041011008001041001KA1240N+02481MA1999999099131MD1999999-0091REMSYN076AAXX  09124 82765 32598 63602 10282 20240 39913 40150 84140 333 20248 59009;EQDQ01  00002PRCP06
0167827650999992003020918004-07330-047470FM-12+021299999V0203601N001510120019N0200001N1+02921+02341101281ADDAA106000091GF108991061081008001021999MA1999999098891MD1999999+0031REMSYN070AAXX  09184 82765 32598 83603 10292 20234 39889 40128 8682/ 333 58003;EQDQ01  00002PRCP06
0198827650999992003021000004-07330-047470FM-12+021299999V0200801N001010075019N0200001N1+02661+02221101291ADDAA106000091GF108991061021008001041999KA1240M+03281MA1999999098911MD1999999+0041REMSYN088AAXX  10004 82765 32598 80802 10266 20222 39891 40129 8624/ 333 10328 29076 55053 58004;EQDQ01  00002PRCP06
0186827650999992003021012004-07330-047470FM-12+021299999V0203501N002112200019N0200001N1+02681+02371101551ADDAA106000091GF103991031011008001001001KA1240N+02411MA1999999099151MD1999999+0021REMSYN076AAXX  10124 82765 32598 33504 10268 20237 39915 40155 83100 333 20241 58002;EQDQ01  00002PRCP06
0167827650999992003021018004-07330-047470FM-12+021299999V0200501N001510450019N0200001N1+03161+02321101121ADDAA106000091GF106991041021008001041001MA1999999098751MD1999999-0141REMSYN070AAXX  10184 82765 32598 60503 10316 20232 39875 40112 84240 333 59014;EQDQ01  00002PRCP06
0198827650999992003021100004-07330-047470FM-12+021299999V0200801N001510120019N0200001N1+02561+02331101401ADDAA106000091GF108991061081008001021999KA1240M+03291MA1999999099001MD1999999+0091REMSYN088AAXX  11004 82765 32598 80803 10256 20233 39900 40140 8682/ 333 10329 29079 55069 58009;EQDQ01  00002PRCP06
0186827650999992003021112004-07330-047470FM-12+021299999V0200701N001010075019N0200001N1+02681+02391101551ADDAA106000091GF107991051051008001041999KA1240N+02321MA1999999099151MD1999999+0001REMSYN076AAXX  11124 82765 32598 70702 10268 20239 39915 40155 8554/ 333 20232 58000;EQDQ01  00002PRCP06
0171827650999992003021118004-07330-047470FM-12+021299999V0202701N001010450019N0200001N1+03081+02401101021ADDAY161061AY261061GF105991031051008001031001MA1999999098681MD1999999-0071MW1021REMSYN082AAXX  11184 82765 21598 52702 10308 20240 39868 40102 70266 83530 333 59007 60021;
0212827650999992003021200004-07330-047470FM-12+021299999V0202501N001510024019N0100001N1+02681+02521101341ADDAY121061AY221061GA1091+999999999GF109991091999999999999999KA1240M+03271MA1999999098951MD1999999-0051MW1211REMSYN094AAXX  12004 82765 21/97 92503 10268 20252 39895 40134 72122 333 10327 29083 55067 59005 69951;
0190827650999992003021212004-07330-047470FM-12+021299999V0200701N001510450019N0040001N1+02201+02121101781ADDAY161061AY261061GF108991041071004501021999KA1240N+02161MA1999999099341MD1999999+0191MW1531REMSYN088AAXX  12124 82765 21496 80703 10220 20212 39934 40178 75366 8472/ 333 20216 58019 60644;
0171827650999992003021218004-07330-047470FM-12+021299999V0203601N002110450019N0100001N1+02321+02201101541ADDAY151061AY251061GF108991041071004501021999MA1999999099101MD1999999+0421MW1531REMSYN082AAXX  12184 82765 21497 83604 10232 20220 39910 40154 75355 8472/ 333 58042 60061;
0184827650999992003021300004-07330-047470FM-12+021299999V0209999C000010024019N0100001N1+02301+02251101501ADDGA1091+999999999GF109991091999999999999999KA1240M+02671MA1999999099061MD1999999+0111REMSYN088AAXX  13004 82765 22/97 90000 10230 20225 39906 40150 333 10267 29095 55000 58011 60021;
0162827650999992003021312004-07330-047470FM-12+021299999V0209999C000010450019N0200001N1+02521+02311101651ADDGF106991021021008001051011KA1240N+02211MA1999999099231MD1999999-0111REMSYN082AAXX  13124 82765 22598 60000 10252 20231 39923 40165 82251 333 20221 59011 60094;
0167827650999992003021318004-07330-047470FM-12+021299999V0202501N001510075019N0200001N1+03121+02511101151ADDAA106000091GF105991051021008001001001MA1999999098761MD1999999-0341REMSYN070AAXX  13184 82765 32598 52503 10312 20251 39876 40115 85200 333 59034;EQDQ01  00002PRCP06
0202827650999992003021400004-07330-047470FM-12+021299999V0200701N001010450019N0100001N1+02481+02341101381ADDAY151061AY251061GF105991031041008001011999KA1240M+03241MA1999999098971MD1999999-0091MW1031REMSYN100AAXX  14004 82765 21597 50702 10248 20234 39897 40138 70355 8341/ 333 10324 29084 55072 59009 69921;
0162827650999992003021412004-07330-047470FM-12+021299999V0200901N000510120019N0200001N1+02601+02371101561ADDGF108991061081008001021999KA1240N+02391MA1999999099151MD1999999-0081REMSYN082AAXX  14124 82765 22598 80901 10260 20237 39915 40156 8682/ 333 20239 59008 69924;
0167827650999992003021418004-07330-047470FM-12+021299999V0203201N001510450019N0200001N1+02981+02471101201ADDAA106000091GF106991041021008001041001MA1999999098821MD1999999+0061REMSYN070AAXX  14184 82765 32598 63203 10298 20247 39882 40120 84240 333 58006;EQDQ01  00002PRCP06
0202827650999992003021500004-07330-047470FM-12+021299999V0200901N001510120019N0200001N1+02441+02341101321ADDAY161061AY251061GF108991061081008001021999KA1240M+03021MA1999999098911MD1999999-0061MW1001REMSYN100AAXX  15004 82765 21598 80903 10244 20234 39891 40132 70065 8682/ 333 10302 29087 55016 59006 60011;
0162827650999992003021512004-07330-047470FM-12+021299999V0202001N001010120019N0200001N1+02501+02361101511ADDGF108991061081008001021999KA1240N+02331MA1999999099101MD1999999-0051REMSYN082AAXX  15124 82765 22598 82002 10250 20236 39910 40151 8682/ 333 20233 59005 60014;
0167827650999992003021518004-07330-047470FM-12+021299999V0203201N003110075019N0200001N1+03101+02391101031ADDAA106000091GF106991051021008001041001MA1999999098671MD1999999-0151REMSYN070AAXX  15184 82765 32598 63206 10310 20239 39867 40103 85240 333 59015;EQDQ01  00002PRCP06
0202827650999992003021600004-07330-047470FM-12+021299999V0201801N008710120019N0200001N1+02421+02251101401ADDAY161061AY261061GF108991061081008001021999KA1240M+03201MA1999999098991MD1999999+0081MW1001REMSYN100AAXX  16004 82765 21598 81817 10242 20225 39899 40140 70066 8682/ 333 10320 29084 55046 58008 60091;
0190827650999992003021612004-07330-047470FM-12+021299999V0202301N002110120019N0200001N1+02361+02301101611ADDAY151061AY251061GF108991061081008001021999KA1240N+02271MA1999999099191MD1999999+0091MW1001REMSYN088AAXX  16124 82765 21598 82304 10236 20230 39919 40161 70055 8682/ 333 20227 58009 60104;
0167827650999992003021618004-07330-047470FM-12+021299999V0202301N002110450019N0200001N1+02941+02431101171ADDAA106000091GF106991041021008001041001MA1999999098781MD1999999+0111REMSYN070AAXX  16184 82765 32598 62304 10294 20243 39878 40117 84240 333 58011;EQDQ01  00002PRCP06
0190827650999992003021712004-07330-047470FM-12+021299999V0209999C000010120019N0200001N1+02411+02321101661ADDAY161061AY221061GF108991061081008001021999KA1240N+02261MA1999999099251MD1999999+0061MW1011REMSYN088AAXX  17124 82765 21598 80000 10241 20232 39925 40166 70162 8682/ 333 20226 58006 60804;
0167827650999992003021718004-07330-047470FM-12+021299999V0200701N001512200019N0200001N1+03041+02541101221ADDAA106000091GF104991031021008001041001MA1999999098831MD1999999+0051REMSYN070AAXX  17184 82765 32598 40703 10304 20254 39883 40122 83240 333 58005;EQDQ01  00002PRCP06
0198827650999992003021800004-07330-047470FM-12+021299999V0209999C000012200019N0200001N1+02861+02581101441ADDAA106000091GF103991031001012501051001KA1240M+03241MA1999999099001MD1999999+0071REMSYN088AAXX  18004 82765 32698 30000 10286 20258 39900 40144 83050 333 10324 29082 55069 58007;EQDQ01  00002PRCP06
0190827650999992003021812004-07330-047470FM-12+021299999V0202901N001510120019N0200001N1+02421+02351101511ADDAY161061AY221061GF108991061081008001021999KA1240N+02321MA1999999099111MD1999999-0141MW1011REMSYN088AAXX  18124 82765 21598 82903 10242 20235 39911 40151 70162 8682/ 333 20232 59014 60154;
0167827650999992003021818004-07330-047470FM-12+021299999V0202701N002610450019N0200001N1+03081+02521101111ADDAA106000091GF105991031021008001041001MA1999999098791MD1999999-0041REMSYN070AAXX  18184 82765 32598 52705 10308 20252 39879 40111 83240 333 59004;EQDQ01  00002PRCP06
0212827650999992003021900004-07330-047470FM-12+021299999V0209999C000019999999N0200001N1+02621+02441101421ADDAY151061AY251061GA1091+999999999GF109991091999999999999999KA1240M+03181MA1999999099011MD1999999+0011MW1021REMSYN094AAXX  19004 82765 21/98 90000 10262 20244 39901 40142 70255 333 10318 29087 55053 58001 69941;
0190827650999992003021912004-07330-047470FM-12+021299999V0202901N001010042019N0040001N1+02421+02331101701ADDAY161061AY221061GF108991061071004501041999KA1240N+02411MA1999999099281MD1999999+0171MW1611REMSYN088AAXX  19124 82765 21496 82902 10242 20233 39928 40170 76162 8674/ 333 20241 58017 60154;
0171827650999992003021918004-07330-047470FM-12+021299999V0201801N002110042019N0200001N1+03041+02431101271ADDAY161061AY221061GF108991071071004501041999MA1999999098891MD1999999+0101MW1501REMSYN082AAXX  19184 82765 21498 81804 10304 20243 39889 40127 75062 8774/ 333 58010 60011;
0212827650999992003022000004-07330-047470FM-12+021299999V0209999C000010024019N0100001N1+02761+02581101391ADDAY101061AY201061GA1091+999999999GF109991091999999999999999KA1240M+03141MA1999999098991MD1999999-0021MW1021REMSYN094AAXX  20004 82765 21/97 90000 10276 20258 39899 40139 70200 333 10314 29086 55045 59002 69921;
0190827650999992003022012004-07330-047470FM-12+021299999V0202501N002110090019N0040001N1+02441+02301101671ADDAY121061AY221061GF108991061081004501021999KA1240N+02421MA1999999099261MD1999999+0021MW1031REMSYN088AAXX  20124 82765 21496 82504 10244 20230 39926 40167 70322 8682/ 333 20242 58002 69924;
0171827650999992003022018004-07330-047470FM-12+021299999V0200801N002110075019N0200001N1+02541+02381101331ADDAY161061AY241061GF107991051051008001041999MA1999999098921MD1999999+0031MW1021REMSYN082AAXX  20184 82765 21598 70804 10254 20238 39892 40133 70264 8554/ 333 58003 60081;
0208827650999992003022100004-07330-047470FM-12+021299999V0209999C000019999999N0200001N1+02581+02481101361ADDAA106000091GA1091+999999999GF109991091999999999999999KA1240M+02791MA1999999098951MD1999999+0041REMSYN082AAXX  21004 82765 32/98 90000 10258 20248 39895 40136 333 10279 29093 55010 58004;EQDQ01  00002PRCP06
0162827650999992003022112004-07330-047470FM-12+021299999V0200901N001510450019N0200001N1+02441+02421101591ADDGF107991041021008001031001KA1240N+02351MA1999999099181MD1999999-0081REMSYN082AAXX  21124 82765 22598 70903 10244 20242 39918 40159 84230 333 20235 59008 60084;
0167827650999992003022118004-07330-047470FM-12+021299999V0201801N001510120019N0200001N1+02601+02331101341ADDAA106000091GF108991061081008001021999MA1999999098931MD1999999+0011REMSYN070AAXX  21184 82765 32598 81803 10260 20233 39893 40134 8682/ 333 58001;EQDQ01  00002PRCP06
0208827650999992003022200004-07330-047470FM-12+021299999V0209999C000012200019N0200001N1+02441+02351101501ADDAA106000091GA1001+999999999GF100991001001999999001001KA1240M+02891MA1999999099081MD1999999+0131REMSYN082AAXX  22004 82765 32998 00000 10244 20235 39908 40150 333 10289 29093 55011 58013;EQDQ01  00002PRCP06
0224827650999992003022212004-07330-047470FM-12+021299999V0209999C000010024019N0040001N1+02381+02291101551ADDAA106000091AY121061AY241061GA1091+999999999GF109991091999999999999999KA1240N+02311MA1999999099131MD1999999+0001MW1471REMSYN076AAXX  22124 82765 31/96 90000 10238 20229 39913 40155 74724 333 20231 58000;EQDQ01  00002PRCP06
0171827650999992003022218004-07330-047470FM-12+021299999V0200701N001510042019N0040001N1+02501+02361101311ADDAY121061AY221061GF108991061071004501041999MA1999999098891MD1999999-0041MW1631REMSYN082AAXX  22184 82765 21496 80703 10250 20236 39889 40131 76322 8674/ 333 59004 60161;
0212827650999992003022300004-07330-047470FM-12+021299999V0209999C000010024019N0100001N1+02401+02311101601ADDAY121061AY251061GA1091+999999999GF109991091999999999999999KA1240M+02981MA1999999099181MD1999999+0101MW1521REMSYN094AAXX  23004 82765 21/97 90000 10240 20231 39918 40160 75225 333 10298 29093 55016 58010 60021;
0190827650999992003022312004-07330-047470FM-12+021299999V0200901N000510120019N0200001N1+02401+02311101831ADDAY161061AY221061GF108991061081008001021999KA1240N+02251MA1999999099401MD1999999+0271MW1031REMSYN088AAXX  23124 82765 21598 80901 10240 20231 39940 40183 70362 8682/ 333 20225 58027 60384;
0208827650999992003022400004-07330-047470FM-12+021299999V0202301N001019999999N0200001N1+02601+02391101681ADDAA106000091GA1091+999999999GF109991091999999999999999KA1240M+02941MA1999999099261MD1999999+0081REMSYN082AAXX  24004 82765 32/98 92302 10260 20239 39926 40168 333 10294 29089 55023 58008;EQDQ01  00002PRCP06
0186827650999992003022412004-07330-047470FM-12+021299999V0203201N001510120019N0200001N1+02521+02331101841ADDAA106000091GF107991051081008001021999KA1240N+02421MA1999999099431MD1999999+0031REMSYN076AAXX  24124 82765 32598 73203 10252 20233 39943 40184 8582/ 333 20242 58003;EQDQ01  00002PRCP06
0212827650999992003022500004-07330-047470FM-12+021299999V0209999C000019999999N0200001N1+02481+02411101601ADDAY161061AY261061GA1091+999999999GF109991091999999999999999KA1240M+03021MA1999999099271MD1999999+0011MW1001REMSYN094AAXX  25004 82765 21/98 90000 10248 20241 39927 40160 70066 333 10302 29092 55013 58001 69931;
0190827650999992003022512004-07330-047470FM-12+021299999V0202501N002610450019N0040001N1+02401+02331101701ADDAY161061AY251061GF108991041071004501021999KA1240N+02371MA1999999099281MD1999999-0151MW1631REMSYN088AAXX  25124 82765 21496 82505 10240 20233 39928 40170 76365 8472/ 333 20237 59015 60224;
0171827650999992003022518004-07330-047470FM-12+021299999V0201401N001010120019N0200001N1+02391+02211101381ADDAY161061AY221061GF108991051081008001021999MA1999999098961MD1999999-0191MW1021REMSYN082AAXX  25184 82765 21598 81402 10239 20221 39896 40138 70262 8582/ 333 59019 60031;
0226827650999992003022600004-07330-047470FM-12+021299999V0209999C000012200019N0200001N1+02431+02351101431ADDAA106000091AY121061AY221061GF104991041021008001001001KA1240M+02611MA1999999099011MD1999999-0261MW1131REMSYN094AAXX  26004 82765 31598 40000 10243 20235 39901 40143 71322 84200 333 10261 29094 55002 59026;EQDQ01  00002PRCP06
0190827650999992003022612004-07330-047470FM-12+021299999V0201101N001510120019N0200001N1+02441+02351101561ADDAY151061AY221061GF107991071081008001001001KA1240N+02231MA1999999099141MD1999999-0141MW1011REMSYN088AAXX  26124 82765 21598 71103 10244 20235 39914 40156 70152 87800 333 20223 59014 60034;
0167827650999992003022618004-07330-047470FM-12+021299999V0201701N005110450019N0200001N1+02701+02221101271ADDAA106000091GF106991031021008001061041MA1999999098861MD1999999-0101REMSYN070AAXX  26184 82765 32598 61710 10270 20222 39886 40127 83264 333 59010;EQDQ01  00002PRCP06
0208827650999992003022700004-07330-047470FM-12+021299999V0201401N000510024019N0100001N1+02451+02341101421ADDAA106000091GA1091+999999999GF109991091999999999999999KA1240M+02851MA1999999099011MD1999999+0001REMSYN082AAXX  27004 82765 32/97 91401 10245 20234 39901 40142 333 10285 29090 55024 58000;EQDQ01  00002PRCP06
0186827650999992003022712004-07330-047470FM-12+021299999V0209999C000010450019N0200001N1+02551+02361101591ADDAA106000091GF106991041021008001031091KA1240N+02291MA1999999099181MD1999999+0041REMSYN076AAXX  27124 82765 32598 60000 10255 20236 39918 40159 84239 333 20229 58004;EQDQ01  00002PRCP06
0171827650999992003022718004-07330-047470FM-12+021299999V0200101N002110075019N0020001N1+02901+02391101261ADDAY151061AY221061GF107991051021008001021001MA1999999098861MD1999999+0001MW1291REMSYN082AAXX  27184 82765 21595 70104 10290 20239 39886 40126 72952 85220 333 58000 69911;
0212827650999992003022800004-07330-047470FM-12+021299999V0209999C000010024019N0100001N1+02451+02341101441ADDAY161061AY221061GA1091+999999999GF109991091999999999999999KA1240M+03221MA1999999099031MD1999999+0021MW1131REMSYN094AAXX  28004 82765 21/97 90000 10245 20234 39903 40144 71362 333 10322 29088 55055 58002 60061;
0190827650999992003022812004-07330-047470FM-12+021299999V0203501N002110450019N0200001N1+02491+02341101711ADDAY151061AY221061GF108991041081008001011999KA1240N+02361MA1999999099291MD1999999+0111MW1031REMSYN088AAXX  28124 82765 21598 83504 10249 20234 39929 40171 70352 8481/ 333 20236 58011 60064;
0167827650999992003022818004-07330-047470FM-12+021299999V0200501N002610450019N0200001N1+03131+02381101161ADDAA106000091GF106991031021008001061041MA1999999098781MD1999999-0081REMSYN070AAXX  28184 82765 32598 60505 10313 20238 39878 40116 83264 333 59008;EQDQ01  00002PRCP06
0236827650999992003030100004-07330-047470FM-12+021299999V0209999C000010024019N0100001N1+02751+02741101371ADDAA106000091AY121061AY221061GA1091+999999999GF109991091999999999999999KA1240M+03241MA1999999098971MD1999999-0061MW1131REMSYN088AAXX  01004 82765 31/97 90000 10275 20274 39897 40137 71322 333 10324 29082 55039 59006;EQDQ01  00002PRCP06
0190827650999992003030112004-07330-047470FM-12+021299999V0202301N001510450019N0200001N1+02461+02281101591ADDAY151061AY221061GF108991031011008001011999KA1240N+02351MA1999999099191MD1999999-0101MW1021REMSYN088AAXX  01124 82765 21598 82303 10246 20228 39919 40159 70252 8311/ 333 20235 59010 60044;
0167827650999992003030118004-07330-047470FM-12+021299999V0200901N001510450019N0200001N1+03061+02381101221ADDAA106000091GF106991031021008001041011MA1999999098841MD1999999+0101REMSYN070AAXX  01184 82765 32598 60903 10306 20238 39884 40122 83241 333 58010;EQDQ01  00002PRCP06
0212827650999992003030200004-07330-047470FM-12+021299999V0201801N001010024019N0100001N1+02581+02371101491ADDAY161061AY221061GA1091+999999999GF109991091999999999999999KA1240M+03121MA1999999099081MD1999999+0111MW1001REMSYN094AAXX  02004 82765 21/97 91802 10258 20237 39908 40149 70062 333 10312 29083 55024 58011 60041;
0162827650999992003030212004-07330-047470FM-12+021299999V0201801N000510450019N0200001N1+02671+02411101431ADDGF105991021011008001031001KA1240N+02301MA1999999099031MD1999999-0161REMSYN082AAXX  02124 82765 22598 51801 10267 20241 39903 40143 82130 333 20230 59016 60044;
0195827650999992003030218004-07330-047470FM-12+021299999V0203401N001510450019N0200001N1+02691+02411101601ADDAA106000091AY191061AY201061GF107991041021008001041001MA1999999098661MD1999999-0181MW1031REMSYN076AAXX  02184 82765 31598 73403 10269 20241 39866 40160 70390 84240 333 59018;EQDQ01  00002PRCP06
0208827650999992003030300004-07330-047470FM-12+021299999V0209999C000019999999N0200001N1+02661+02521101141ADDAA106000091GA1091+999999999GF109991091999999999999999KA1240M+03211MA1999999098761MD1999999-0321REMSYN082AAXX  03004 82765 32/98 90000 10266 20252 39876 40114 333 10321 29089 55057 59032;EQDQ01  00002PRCP06
0186827650999992003030312004-07330-047470FM-12+021299999V0209999C000010450019N0200001N1+02461+02321101611ADDAA106000091GF107991041051008001011999KA1240N+02381MA1999999099171MD1999999+0141REMSYN076AAXX  03124 82765 32598 70000 10246 20232 39917 40161 8451/ 333 20238 58014;EQDQ01  00002PRCP06
0167827650999992003030318004-07330-047470FM-12+021299999V0209999C000010450019N0200001N1+03161+02421101101ADDAA106000091GF105991031021008001031011MA1999999098731MD1999999+0071REMSYN070AAXX  03184 82765 32598 50000 10316 20242 39873 40110 83231 333 58007;EQDQ01  00002PRCP06
0208827650999992003030400004-07330-047470FM-12+021299999V0200701N002112200019N0200001N1+02781+02521101171ADDAA106000091GA1001+999999999GF100991001001999999001001KA1240M+03331MA1999999098781MD1999999+0021REMSYN082AAXX  04004 82765 32998 00704 10278 20252 39878 40117 333 10333 29082 55063 58002;EQDQ01  00002PRCP06
0186827650999992003030412004-07330-047470FM-12+021299999V0203601N003610450019N0200001N1+02701+02371101601ADDAA106000091GF106991031021008001061041KA1240N+02451MA1999999099211MD1999999+0041REMSYN076AAXX  04124 82765 32598 63607 10270 20237 39921 40160 83264 333 20245 58004;EQDQ01  00002PRCP06
0171827650999992003030418004-07330-047470FM-12+021299999V0202301N001510450019N0200001N1+02521+02311101351ADDAY191061AY261061GF108991031031008001021999MA1999999098941MD1999999-0211MW1951REMSYN082AAXX  04184 82765 21598 82303 10252 20231 39894 40135 79596 8332/ 333 59021 60101;
0179827650999992003030500004-07330-047470FM-12+021299999V0200501N001512200019N0200001N1+02481+02381101401ADDAA106000021GF102991011021008001041001KA1240M+02741MA1999999099001MD1999999+0221REMSYN088AAXX  05004 82765 32598 20503 10248 20238 39900 40140 81240 333 10274 29089 55039 58022;
0162827650999992003030512004-07330-047470FM-12+021299999V0202701N000510450019N0200001N1+02571+02331101601ADDGF106991041021008001061001KA1240N+02401MA1999999099191MD1999999-0021REMSYN082AAXX  05124 82765 22598 62701 10257 20233 39919 40160 84260 333 20240 59002 60104;
0167827650999992003030518004-07330-047470FM-12+021299999V0201801N001510450019N0200001N1+03131+02411101131ADDAA106000091GF105991031031008001011001MA1999999098751MD1999999-0191REMSYN070AAXX  05184 82765 32598 51803 10313 20241 39875 40113 83310 333 59019;EQDQ01  00002PRCP06
0208827650999992003030600004-07330-047470FM-12+021299999V0209999C000019999999N0200001N1+02571+02251101291ADDAA106000091GA1091+999999999GF109991091999999999999999KA1240M+03291MA1999999098891MD1999999-0111REMSYN082AAXX  06004 82765 32/98 90000 10257 20225 39889 40129 333 10329 29080 55080 59011;EQDQ01  00002PRCP06
0186827650999992003030612004-07330-047470FM-12+021299999V0209999C000010120019N0200001N1+02561+02231101541ADDAA106000091GF107991051081008001011001KA1240N+02361MA1999999099131MD1999999-0061REMSYN076AAXX  06124 82765 32598 70000 10256 20223 39913 40154 85810 333 20236 59006;EQDQ01  00002PRCP06
0167827650999992003030618004-07330-047470FM-12+021299999V0202701N001010075019N0200001N1+03151+02451101141ADDAA106000091GF107991051021008001011001MA1999999098761MD1999999+0011REMSYN070AAXX  06184 82765 32598 72702 10315 20245 39876 40114 85210 333 58001;EQDQ01  00002PRCP06
0212827650999992003030700004-07330-047470FM-12+021299999V0202301N001010024019N0100001N1+02341+02241101501ADDAY161061AY221061GA1091+999999999GF109991091999999999999999KA1240M+03271MA1999999099081MD1999999+0191MW1131REMSYN094AAXX  07004 82765 21/97 92302 10234 20224 39908 40150 71362 333 10327 29084 55047 58019 60101;
0190827650999992003030712004-07330-047470FM-12+021299999V0202301N000510120019N0200001N1+02441+02271101591ADDAY151061AY251061GF107991051081008001041001KA1240N+02251MA1999999099171MD1999999+0041MW1001REMSYN088AAXX  07124 82765 21598 72301 10244 20227 39917 40159 70055 85840 333 20225 58004 60104;
0176827650999992003030718004-07330-047470FM-12+021299999V0200901N001510450019N0200001N1+03101+02391101261ADDAA106000021AY101061AY201061GF106991031031008001041001MA1999999098871MD1999999+0111MW1991REMSYN076AAXX  07184 82765 31598 60903 10310 20239 39887 40126 79900 83340 333 58011;
0179827650999992003030800004-07330-047470FM-12+021299999V0201801N001512200019N0200001N1+02641+02411101381ADDAA106000021GF102991021011008001041001KA1240M+03221MA1999999098981MD1999999-0101REMSYN088AAXX  08004 82765 32598 21803 10264 20241 39898 40138 82140 333 10322 29082 55077 59010;
0186827650999992003030812004-07330-047470FM-12+021299999V0203601N002110120019N0200001N1+02541+02251101681ADDAA106000091GF106991061081008001001001KA1240N+02391MA1999999099271MD1999999+0101REMSYN076AAXX  08124 82765 32598 63604 10254 20225 39927 40168 86800 333 20239 58010;EQDQ01  00002PRCP06
0199827650999992003030900004-07330-047470FM-12+021299999V0201401N000512200019N0200001N1+02641+02481101381ADDAA106000091GF104991021011008001041001KA1240M+03001MD1999999+0001REMSYN088AAXX  09004 82765 32598 41401 10264 20248 33989 40138 82140 333 10300 29086 55037 58000;EQDQ01+039891APOSP Q02  00002PRCP06
0162827650999992003030912004-07330-047470FM-12+021299999V0203601N001012200019N0200001N1+02721+02471101611ADDGF103991031021008001001001KA1240N+02331MA1999999099221MD1999999-0051REMSYN082AAXX  09124 82765 22598 33602 10272 20247 39922 40161 83200 333 20233 59005 60034;
0176827650999992003030918004-07330-047470FM-12+021299999V0203201N001510450019N0200001N1+03161+02451101151ADDAA106000021AY101061AY201061GF106991021031008001041001MA1999999098771MD1999999-0241MW1991REMSYN076AAXX  09184 82765 31598 63203 10316 20245 39877 40115 79900 82340 333 59024;
0202827650999992003031000004-07330-047470FM-12+021299999V0200501N000512200019N0200001N1+02561+02441101391ADDAY161061AY261061GF103991021021008001041001KA1240M+03281MA1999999099001MD1999999+0021MW1001REMSYN100AAXX  10004 82765 21598 30501 10256 20244 39900 40139 70066 82240 333 10328 29084 55074 58002 60051;
0162827650999992003031012004-07330-047470FM-12+021299999V0209999C000010450019N0200001N1+02621+02481101581ADDGF105991041021008001031001KA1240N+02361MA1999999099181MD1999999-0041REMSYN082AAXX  10124 82765 22598 50000 10262 20248 39918 40158 84230 333 20236 59004 60054;
0167827650999992003031018004-07330-047470FM-12+021299999V0202701N000510075019N0200001N1+03031+02571101161ADDAA106000091GF106991061041008001001001MA1999999098781MD1999999+0011REMSYN070AAXX  10184 82765 32598 62701 10303 20257 39878 40116 86400 333 58001;EQDQ01  00002PRCP06
0198827650999992003031100004-07330-047470FM-12+021299999V0209999C000012200019N0200001N1+02801+02621101271ADDAA106000091GF103991031001012501011001KA1240M+03161MA1999999098881MD1999999-0121REMSYN088AAXX  11004 82765 32698 30000 10280 20262 39888 40127 83010 333 10316 29087 55069 59012;EQDQ01  00002PRCP06
0186827650999992003031112004-07330-047470FM-12+021299999V0200501N001510120019N0200001N1+02571+02311101581ADDAA106000091GF107991051081008001011001KA1240N+02391MA1999999099191MD1999999+0011REMSYN076AAXX  11124 82765 32598 70503 10257 20231 39919 40158 85810 333 20239 58001;EQDQ01  00002PRCP06
0171827650999992003031118004-07330-047470FM-12+021299999V0202601N001010450019N0200001N1+02961+02531101141ADDAY161061AY221061GF107991041021008001011001MA1999999098761MD1999999-0021MW1031REMSYN082AAXX  11184 82765 21598 72602 10296 20253 39876 40114 70362 84210 333 59002 60081;
0236827650999992003031200004-07330-047470FM-12+021299999V0201401N001010024019N0100001N1+02761+02601101251ADDAA106000091AY121061AY221061GA1091+999999999GF109991091999999999999999KA1240M+03171MA1999999098861MD1999999-0021MW1131REMSYN088AAXX  12004 82765 31/97 91402 10276 20260 39886 40125 71322 333 10317 29086 55024 59002;EQDQ01  00002PRCP06
0162827650999992003031212004-07330-047470FM-12+021299999V0209999C000010120019N0200001N1+02601+02421101561ADDGF107991051081008001031001KA1240N+02401MA1999999099171MD1999999-0021REMSYN082AAXX  12124 82765 22598 70000 10260 20242 39917 40156 85830 333 20240 59002 60084;
0167827650999992003031218004-07330-047470FM-12+021299999V0200701N003110450019N0200001N1+03121+02331101131ADDAA106000091GF106991031031008001021041MA1999999098751MD1999999-0011REMSYN070AAXX  12184 82765 32598 60706 10312 20233 39875 40113 83324 333 59001;EQDQ01  00002PRCP06
0198827650999992003031300004-07330-047470FM-12+021299999V0201801N000510150019N0200001N1+02631+02421101281ADDAA106000091GF106991061001017501011001KA1240M+03251MA1999999098881MD1999999+0021REMSYN088AAXX  13004 82765 32798 61801 10263 20242 39888 40128 86010 333 10325 29083 55051 58002;EQDQ01  00002PRCP06
0186827650999992003031312004-07330-047470FM-12+021299999V0200501N001510042019N0200001N1+02491+02341101651ADDAA106000091GF108991051071004501021999KA1240N+02421MA1999999099241MD1999999+0071REMSYN076AAXX  13124 82765 32498 80503 10249 20234 39924 40165 8572/ 333 20242 58007;EQDQ01  00002PRCP06
0171827650999992003031318004-07330-047470FM-12+021299999V0202301N002610450019N0200001N1+02571+02381101201ADDAY161061AY221061GF107991041031008001021001MA1999999098801MD1999999+0051MW1021REMSYN082AAXX  13184 82765 21598 72305 10257 20238 39880 40120 70262 84320 333 58005 60121;
0198827650999992003031400004-07330-047470FM-12+021299999V0202301N001010450019N0200001N1+02541+02451101341ADDAA106000091GF108991041071008001021999KA1240M+02771MA1999999098931MD1999999+0051REMSYN088AAXX  14004 82765 32598 82302 10254 20245 39893 40134 8472/ 333 10277 29093 55005 58005;EQDQ01  00002PRCP06
0162827650999992003031412004-07330-047470FM-12+021299999V0202001N001510090019N0200001N1+02431+02331101561ADDGF107991071081004501001001KA1240N+02371MA1999999099151MD1999999-0091REMSYN082AAXX  14124 82765 22498 72003 10243 20233 39915 40156 87800 333 20237 59009 60124;
0171827650999992003031418004-07330-047470FM-12+021299999V0201101N001010090019N0100001N1+02321+02201101271ADDAY161061AY251061GF108991051081004501021999MA1999999098851MD1999999+0051MW1201REMSYN082AAXX  14184 82765 21497 81102 10232 20220 39885 40127 72065 8582/ 333 58005 60081;
0202827650999992003031500004-07330-047470FM-12+021299999V0209999C000010042019N0100001N1+02351+02271101401ADDAY161061AY221061GF108991051071004501021999KA1240M+02971MA1999999098981MD1999999+0051MW1031REMSYN100AAXX  15004 82765 21497 80000 10235 20227 39898 40140 70362 8572/ 333 10297 29095 55010 58005 69921;
0190827650999992003031512004-07330-047470FM-12+021299999V0209999C000010075019N0200001N1+02431+02351101771ADDAY151061AY221061GF106991061021008001001001KA1240N+02311MA1999999099341MD1999999+0191MW1011REMSYN088AAXX  15124 82765 21598 60000 10243 20235 39934 40177 70152 86200 333 20231 58019 60084;
0202827650999992003031600004-07330-047470FM-12+021299999V0209999C000010120019N0200001N1+02461+02391101561ADDAY151061AY221061GF108991051081008001011999KA1240M+02981MA1999999099141MD1999999+0161MW1031REMSYN100AAXX  16004 82765 21598 80000 10246 20239 39914 40156 70352 8581/ 333 10298 29094 55030 58016 69911;
0181827650999992003031612004-07330-047470FM-12+021299999V0203201N002110075019N0200001N1+02521+02291101711ADDGF108991999061008001081021KA1240N+02311MA1999999099391MD1999999+0051REMSYN082AAXX  16124 82765 22598 83204 10252 20229 39939 40171 88682 333 20231 58005 60054;EQDQ01+000082SCOTLC
0171827650999992003031618004-07330-047470FM-12+021299999V0201801N000510075019N0200001N1+02361+02221101631ADDAY161061AY261061GF108991061051008001021999MA1999999099201MD1999999+0341MW1611REMSYN082AAXX  16184 82765 21598 81801 10236 20222 39920 40163 76166 8652/ 333 58034 60081;
0202827650999992003031700004-07330-047470FM-12+021299999V0209999C000010450019N0200001N1+02321+02241101581ADDAY151061AY251061GF105991041021008001041001KA1240M+02841MA1999999099161MD1999999+0021MW1001REMSYN100AAXX  17004 82765 21598 50000 10232 20224 39916 40158 70055 84240 333 10284 29092 55001 58002 69921;
0162827650999992003031712004-07330-047470FM-12+021299999V0202501N001010120019N0200001N1+02381+02361101671ADDGF108991061081008001041999KA1240N+02251MA1999999099241MD1999999-0151REMSYN082AAXX  17124 82765 22598 82502 10238 20236 39924 40167 8684/ 333 20225 59015 60084;
0167827650999992003031718004-07330-047470FM-12+021299999V0202301N001010075019N0200001N1+03121+02381101131ADDAA106000091GF106991051021008001041001MA1999999098751MD1999999-0451REMSYN070AAXX  17184 82765 32598 62302 10312 20238 39875 40113 85240 333 59045;EQDQ01  00002PRCP06
0202827650999992003031800004-07330-047470FM-12+021299999V0202701N001012200019N0200001N1+02381+02331101431ADDAY161061AY261061GF103991021011008001041001KA1240M+03161MA1999999099011MD1999999-0151MW1001REMSYN100AAXX  18004 82765 21598 32702 10238 20233 39901 40143 70066 82140 333 10316 29089 55046 59015 60181;
0190827650999992003031812004-07330-047470FM-12+021299999V0200501N000510120019N0200001N1+02501+02361101591ADDAY161061AY261061GF108991061081008001021999KA1240N+02271MA1999999099171MD1999999-0071MW1001REMSYN088AAXX  18124 82765 21598 80501 10250 20236 39917 40159 70066 8682/ 333 20227 59007 60244;
0167827650999992003031818004-07330-047470FM-12+021299999V0203501N001510450019N0200001N1+03061+02451101151ADDAA106000091GF106991041021008001041001MA1999999098761MD1999999+0011REMSYN070AAXX  18184 82765 32598 63503 10306 20245 39876 40115 84240 333 58001;EQDQ01  00002PRCP06
0198827650999992003032000004-07330-047470FM-12+021299999V0203601N000510450019N0200001N1+02461+02321101661ADDAA106000091GF108991041081008001011999KA1240M+02811MA1999999099241MD1999999+0141REMSYN088AAXX  20004 82765 32598 83601 10246 20232 39924 40166 8481/ 333 10281 29090 55010 58014;EQDQ01  00002PRCP06
0186827650999992003032012004-07330-047470FM-12+021299999V0209999C000010450019N0200001N1+02361+02261101881ADDAA106000091GF106991031081008001031001KA1240N+02291MA1999999099451MD1999999+0011REMSYN076AAXX  20124 82765 32598 60000 10236 20226 39945 40188 83830 333 20229 58001;EQDQ01  00002PRCP06
0167827650999992003032018004-07330-047470FM-12+021299999V0202701N001010450019N0200001N1+03041+02451101391ADDAA106000091GF106991031031008001061041MA1999999099001MD1999999-0211REMSYN070AAXX  20184 82765 32598 62702 10304 20245 39900 40139 83364 333 59021;EQDQ01  00002PRCP06
0208827650999992003032100004-07330-047470FM-12+021299999V0209999C000019999999N0200001N1+02811+02541101581ADDAA106000091GA1091+999999999GF109991091999999999999999KA1240M+03221MA1999999099181MD1999999-0061REMSYN082AAXX  21004 82765 32/98 90000 10281 20254 39918 40158 333 10322 29084 55070 59006;EQDQ01  00002PRCP06
0186827650999992003032112004-07330-047470FM-12+021299999V0200901N001512200019N0200001N1+02831+02441101521ADDAA106000091GF103991031011008001001001KA1240N+02421MA1999999099141MD1999999-0311REMSYN076AAXX  21124 82765 32598 30903 10283 20244 39914 40152 83100 333 20242 59031;EQDQ01  00002PRCP06
0167827650999992003032118004-07330-047470FM-12+021299999V0200901N003610450019N0200001N1+03031+02261101071ADDAA106000091GF106991041031008001021001MA1999999098691MD1999999-0311REMSYN070AAXX  21184 82765 32598 60907 10303 20226 39869 40107 84320 333 59031;EQDQ01  00002PRCP06
0186827650999992003032812004-07330-047470FM-12+021299999V0209999C000010450019N0200001N1+02661+02411101671ADDAA106000091GF106991021011008001031001KA1240N+02321MA1999999099261MD1999999+0061REMSYN076AAXX  28124 82765 32598 60000 10266 20241 39926 40167 82130 333 20232 58006;EQDQ01  00002PRCP06
0167827650999992003032818004-07330-047470FM-12+021299999V0203601N002110450019N0200001N1+03021+02551101281ADDAA106000091GF106991031021008001041001MA1999999098891MD1999999+0071REMSYN070AAXX  28184 82765 32598 63604 10302 20255 39889 40128 83240 333 58007;EQDQ01  00002PRCP06
0212827650999992003032900004-07330-047470FM-12+021299999V0209999C000010024019N0100001N1+02601+02511101411ADDAY161061AY261061GA1091+999999999GF109991091999999999999999KA1240M+03171MA1999999099021MD1999999-0081MW1511REMSYN094AAXX  29004 82765 21/97 90000 10260 20251 39902 40141 75166 333 10317 29088 55059 59008 60091;
0162827650999992003032912004-07330-047470FM-12+021299999V0202701N002110450019N0200001N1+02531+02491101671ADDGF107991031031008001061001KA1240N+02421MA1999999099261MD1999999+0001REMSYN082AAXX  29124 82765 22598 72704 10253 20249 39926 40167 83360 333 20242 58000 60094;
0171827650999992003032918004-07330-047470FM-12+021299999V0202701N002110450019N0200001N1+02891+02481101261ADDAY161061AY261061GF105991031021008001031011MA1999999098871MD1999999-0021MW1001REMSYN082AAXX  29184 82765 21598 52704 10289 20248 39887 40126 70066 83231 333 59002 60191;
0208827650999992003033000004-07330-047470FM-12+021299999V0209999C000012200019N0200001N1+02681+02521101401ADDAA106000091GA1001+999999999GF100991001001999999001001KA1240M+03141MA1999999099001MD1999999-0021REMSYN082AAXX  30004 82765 32998 00000 10268 20252 39900 40140 333 10314 29089 55037 59002;EQDQ01  00002PRCP06
0162827650999992003033012004-07330-047470FM-12+021299999V0202701N000510450019N0200001N1+02531+02421101611ADDGF106991031021008001031011KA1240N+02371MA1999999099211MD1999999+0051REMSYN082AAXX  30124 82765 22598 62701 10253 20242 39921 40161 83231 333 20237 58005 60194;
0167827650999992003033018004-07330-047470FM-12+021299999V0202501N002110450019N0200001N1+03181+02471101061ADDAA106000091GF105991031021008001031011MA1999999098681MD1999999-0191REMSYN070AAXX  30184 82765 32598 52504 10318 20247 39868 40106 83231 333 59019;EQDQ01  00002PRCP06
0208827650999992003033100004-07330-047470FM-12+021299999V0200701N001012200019N0200001N1+02681+02251101261ADDAA106000091GA1001+999999999GF100991001001999999001001KA1240M+03321MA1999999098861MD1999999-0141REMSYN082AAXX  31004 82765 32998 00702 10268 20225 39886 40126 333 10332 29083 55077 59014;EQDQ01  00002PRCP06
0190827650999992003033112004-07330-047470FM-12+021299999V0209999C000010042019N0200001N1+02341+02241101621ADDAY161061AY221061GF108991051071004501021999KA1240N+02261MA1999999099211MD1999999+0001MW1031REMSYN088AAXX  31124 82765 21498 80000 10234 20224 39921 40162 70362 8572/ 333 20226 58000 60024;
0167827650999992003033118004-07330-047470FM-12+021299999V0203201N001510450019N0200001N1+02891+02441101131ADDAA106000091GF107991041081008001011001MA1999999098741MD1999999+0061REMSYN070AAXX  31184 82765 32598 73203 10289 20244 39874 40113 84810 333 58006;EQDQ01  00002PRCP06
0202827650999992003040100004-07330-047470FM-12+021299999V0201101N001010450019N0200001N1+02641+02501101511ADDAY151061AY251061GF105991031031008001041001KA1240M+03021MA1999999099101MD1999999+0141MW1131REMSYN100AAXX  01004 82765 21598 51102 10264 20250 39910 40151 71355 83340 333 10302 29089 55026 58014 69931;
0162827650999992003040112004-07330-047470FM-12+021299999V0201101N001010120019N0200001N1+02651+02421101671ADDGF107991051081008001011001KA1240N+02401MA1999999099271MD1999999+0061REMSYN082AAXX  01124 82765 22598 71102 10265 20242 39927 40167 85810 333 20240 58006 69934;
0171827650999992003040118004-07330-047470FM-12+021299999V0202001N001510450019N0200001N1+03071+02401101141ADDAY161061AY221061GF106991041031008001021041MA1999999098761MD1999999+0021MW1031REMSYN082AAXX  01184 82765 21598 62003 10307 20240 39876 40114 70362 84324 333 58002 60011;
0190827650999992003040212004-07330-047470FM-12+021299999V0209999C000010450019N0200001N1+02451+02311101741ADDAY161061AY221061GF107991041081008001031001KA1240N+02311MA1999999099331MD1999999+0061MW1011REMSYN088AAXX  02124 82765 21598 70000 10245 20231 39933 40174 70162 84830 333 20231 58006 60284;
0171827650999992003040218004-07330-047470FM-12+021299999V0202501N001510450019N0200001N1+02481+02361101401ADDAY161061AY221061GF107991041031008001021001MA1999999098981MD1999999+0221MW1021REMSYN082AAXX  02184 82765 21598 72503 10248 20236 39898 40140 70262 84320 333 58022 60221;
0162827650999992003040312004-07330-047470FM-12+021299999V0209999C000010120019N0200001N1+02501+02321101611ADDGF107991051081008001041001KA1240N+02271MA1999999099201MD1999999-0131REMSYN082AAXX  03124 82765 22598 70000 10250 20232 39920 40161 85840 333 20227 59013 60224;
0167827650999992003040318004-07330-047470FM-12+021299999V0202001N001510450019N0200001N1+03081+02441101191ADDAA106000091GF106991041021008001041001MA1999999098801MD1999999-0181REMSYN070AAXX  03184 82765 32598 62003 10308 20244 39880 40119 84240 333 59018;EQDQ01  00002PRCP06
0198827650999992003040400004-07330-047470FM-12+021299999V0201101N000512200019N0200001N1+02781+02521101331ADDAA106000091GF102991011011008001041001KA1240M+03221MA1999999098941MD1999999-0211REMSYN088AAXX  04004 82765 32598 21101 10278 20252 39894 40133 81140 333 10322 29083 55052 59021;EQDQ01  00002PRCP06
0186827650999992003040412004-07330-047470FM-12+021299999V0209999C000012200019N0200001N1+02721+02451101521ADDAA106000091GF103991021011008001041001KA1240N+02471MA1999999099131MD1999999-0071REMSYN076AAXX  04124 82765 32598 30000 10272 20245 39913 40152 82140 333 20247 59007;EQDQ01  00002PRCP06
0171827650999992003040418004-07330-047470FM-12+021299999V0201101N001010120019N0200001N1+02681+02521101081ADDAY191061AY261061GF108991071081008001021999MA1999999098691MD1999999+0111MW1001REMSYN082AAXX  04184 82765 21598 81102 10268 20252 39869 40108 70096 8782/ 333 58011 60081;
0208827650999992003040500004-07330-047470FM-12+021299999V0209999C000012200019N0200001N1+02501+02471101291ADDAA106000091GA1001+999999999GF100991001001999999001001KA1240M+03321MA1999999098901MD1999999-0041REMSYN082AAXX  05004 82765 32998 00000 10250 20247 39890 40129 333 10332 29092 55049 59004;EQDQ01  00002PRCP06
0162827650999992003040512004-07330-047470FM-12+021299999V0203201N001010450019N0200001N1+02701+02461101621ADDGF106991041081008001041001KA1240N+02411MA1999999099221MD1999999+0091REMSYN082AAXX  05124 82765 22598 63202 10270 20246 39922 40162 84840 333 20241 58009 60084;
0167827650999992003040518004-07330-047470FM-12+021299999V0200701N001010450019N0200001N1+03161+02521101221ADDAA106000091GF106991041021008001041001MA1999999098851MD1999999+0161REMSYN070AAXX  05184 82765 32598 60702 10316 20252 39885 40122 84240 333 58016;EQDQ01  00002PRCP06
0208827650999992003040600004-07330-047470FM-12+021299999V0209999C000012200019N0200001N1+02841+02641101441ADDAA106000091GA1001+999999999GF100991001001999999001001KA1240M+03221MA1999999099061MD1999999+0161REMSYN082AAXX  06004 82765 32998 00000 10284 20264 39906 40144 333 10322 29084 55061 58016;EQDQ01  00002PRCP06
0190827650999992003040612004-07330-047470FM-12+021299999V0209999C000010120019N0200001N1+02561+02471101661ADDAY151061AY251061GF108991061081008001021999KA1240N+02491MA1999999099251MD1999999+0041MW1001REMSYN088AAXX  06124 82765 21598 80000 10256 20247 39925 40166 70055 8682/ 333 20249 58004 69924;
0171827650999992003040618004-07330-047470FM-12+021299999V0202001N001510120019N0200001N1+02601+02421101341ADDAY161061AY261061GF108991071081008001021999MA1999999098941MD1999999+0091MW1001REMSYN082AAXX  06184 82765 21598 82003 10260 20242 39894 40134 70066 8782/ 333 58009 60051;
0198827650999992003040700004-07330-047470FM-12+021299999V0200901N000510450019N0200001N1+02541+02451101481ADDAA106000091GF105991031021008001041001KA1240M+02991MA1999999099071MD1999999+0011REMSYN088AAXX  07004 82765 32598 50901 10254 20245 39907 40148 83240 333 10299 29094 55007 58001;EQDQ01  00002PRCP06
0162827650999992003040712004-07330-047470FM-12+021299999V0200701N001510450019N0200001N1+02671+02431101441ADDGF106991041021008001031001KA1240N+02391MA1999999099041MD1999999-0221REMSYN082AAXX  07124 82765 22598 60703 10267 20243 39904 40144 84230 333 20239 59022 60054;
0167827650999992003040718004-07330-047470FM-12+021299999V0200701N003110450019N0200001N1+03101+02411101001ADDAA106000091GF105991031021008001041001MA1999999098631MD1999999-0311REMSYN070AAXX  07184 82765 32598 50706 10310 20241 39863 40100 83240 333 59031;EQDQ01  00002PRCP06
0208827650999992003040800004-07330-047470FM-12+021299999V0200201N000512200019N0200001N1+02641+02481101261ADDAA106000091GA1001+999999999GF100991001001999999001001KA1240M+03211MA1999999098871MD1999999-0201REMSYN082AAXX  08004 82765 32998 00201 10264 20248 39887 40126 333 10321 29084 55072 59020;EQDQ01  00002PRCP06
0186827650999992003040812004-07330-047470FM-12+021299999V0203601N001510450019N0200001N1+02671+02411101471ADDAA106000091GF105991041021008001031001KA1240N+02341MA1999999099071MD1999999+0031REMSYN076AAXX  08124 82765 32598 53603 10267 20241 39907 40147 84230 333 20234 58003;EQDQ01  00002PRCP06
0167827650999992003040818004-07330-047470FM-12+021299999V0203601N002111050019N0200001N1+03011+02441100991ADDAA106000091GF105991021021008001041011MA1999999098611MD1999999+0021REMSYN070AAXX  08184 82765 32598 53604 10301 20244 39861 40099 82241 333 58002;EQDQ01  00002PRCP06
0208827650999992003040900004-07330-047470FM-12+021299999V0209999C000019999999N0200001N1+02641+02501101241ADDAA106000091GA1091+999999999GF109991091999999999999999KA1240M+03121MA1999999098851MD1999999+0021REMSYN082AAXX  09004 82765 32/98 90000 10264 20250 39885 40124 333 10312 29085 55080 58002;EQDQ01  00002PRCP06
0190827650999992003040912004-07330-047470FM-12+021299999V0201401N001510450019N0200001N1+02531+02361101651ADDAY161061AY221061GF107991041021008001061001KA1240N+02261MA1999999099251MD1999999+0181MW1011REMSYN088AAXX  09124 82765 21598 71403 10253 20236 39925 40165 70162 84260 333 20226 58018 60254;
0167827650999992003040918004-07330-047470FM-12+021299999V0203601N002110450019N0200001N1+03071+02431101191ADDAA106000091GF106991031021008001011041MA1999999098801MD1999999+0191REMSYN070AAXX  09184 82765 32598 63604 10307 20243 39880 40119 83214 333 58019;EQDQ01  00002PRCP06
0190827650999992003041012004-07330-047470FM-12+021299999V0209999C000010450019N0200001N1+02711+02431101631ADDAY161061AY211061GF106991041011008001061041KA1240N+02341MA1999999099231MD1999999-0021MW1011REMSYN088AAXX  10124 82765 21598 60000 10271 20243 39923 40163 70161 84164 333 20234 59002 60014;
0171827650999992003041018004-07330-047470FM-12+021299999V0201801N001510450019N0200001N1+02661+02331101331ADDAY161061AY221061GF107991041021008001021001MA1999999098921MD1999999+0121MW1031REMSYN082AAXX  10184 82765 21598 71803 10266 20233 39892 40133 70362 84220 333 58012 60011;
0212827650999992003041100004-07330-047470FM-12+021299999V0209999C000010024019N0100001N1+02611+02531101371ADDAY151061AY221061GA1091+999999999GF109991091999999999999999KA1240M+03231MA1999999098981MD1999999-0111MW1001REMSYN094AAXX  11004 82765 21/97 90000 10261 20253 39898 40137 70052 333 10323 29090 55068 59011 69911;
0162827650999992003041112004-07330-047470FM-12+021299999V0200701N003112200019N0200001N1+02741+02451101581ADDGF102991011011008001061001KA1240N+02331MA1999999099191MD1999999-0041REMSYN082AAXX  11124 82765 22598 20706 10274 20245 39919 40158 81160 333 20233 59004 60024;
0167827650999992003041118004-07330-047470FM-12+021299999V0201101N002612200019N0200001N1+03141+02321101181ADDAA106000091GF104991021091008001051041MA1999999098801MD1999999-0121REMSYN070AAXX  11184 82765 32598 41105 10314 20232 39880 40118 82954 333 59012;EQDQ01  00002PRCP06
0186827650999992003041212004-07330-047470FM-12+021299999V0202301N000510120019N0200001N1+02701+02451101721ADDAA106000091GF108991061081008001041999KA1240N+02411MA1999999099331MD1999999+0141REMSYN076AAXX  12124 82765 32598 82301 10270 20245 39933 40172 8684/ 333 20241 58014;EQDQ01  00002PRCP06
0171827650999992003041218004-07330-047470FM-12+021299999V0203601N000510075019N0200001N1+03021+02361101331ADDAY151061AY251061GF106991051021008001041001MA1999999098941MD1999999+0141MW1001REMSYN082AAXX  12184 82765 21598 63601 10302 20236 39894 40133 70055 85240 333 58014 69921;
0198827650999992003041300004-07330-047470FM-12+021299999V0200501N000512200019N0200001N1+02641+02391101551ADDAA106000091GF102991011011008001041001KA1240M+03341MA1999999099161MD1999999+0151REMSYN088AAXX  13004 82765 32598 20501 10264 20239 39916 40155 81140 333 10334 29082 55063 58015;EQDQ01  00002PRCP06
0162827650999992003041312004-07330-047470FM-12+021299999V0202501N000510450019N0200001N1+02741+02481101841ADDGF105991031021008001041001KA1240N+02451MA1999999099441MD1999999+0111REMSYN082AAXX  13124 82765 22598 52501 10274 20248 39944 40184 83240 333 20245 58011 69924;
0171827650999992003041318004-07330-047470FM-12+021299999V0202301N001510450019N0200001N1+03221+02651101281ADDAY161061AY261061GF106991041021008001041001MA1999999098911MD1999999-0031MW1001REMSYN082AAXX  13184 82765 21598 62303 10322 20265 39891 40128 70066 84240 333 59003 60141;
0202827650999992003041400004-07330-047470FM-12+021299999V0201801N001510120019N0200001N1+02541+02441101761ADDAY161061AY261061GF108991061081008001021999KA1240M+03361MA1999999099361MD1999999+0201MW1001REMSYN100AAXX  14004 82765 21598 81803 10254 20244 39936 40176 70066 8682/ 333 10336 29086 55060 58020 60171;
0162827650999992003041412004-07330-047470FM-12+021299999V0203601N001510450019N0200001N1+02641+02411101881ADDGF107991041051008001011999KA1240N+02461MA1999999099471MD1999999+0031REMSYN082AAXX  14124 82765 22598 73603 10264 20241 39947 40188 8451/ 333 20246 58003 60304;
0162827650999992003041512004-07330-047470FM-12+021299999V0201801N001010120019N0200001N1+02401+02281101791ADDGF108991061081008001011999KA1240N+02311MA1999999099361MD1999999-0111REMSYN082AAXX  15124 82765 22598 81802 10240 20228 39936 40179 8681/ 333 20231 59011 60024;
0167827650999992003041518004-07330-047470FM-12+021299999V0202501N001512200019N0200001N1+03071+02521101321ADDAA106000091GF104991021011008001031011MA1999999098931MD1999999-0161REMSYN070AAXX  15184 82765 32598 42503 10307 20252 39893 40132 82131 333 59016;EQDQ01  00002PRCP06
0198827650999992003041600004-07330-047470FM-12+021299999V0209999C000010450019N0200001N1+02661+02391101481ADDAA106000091GF106991041031008001031001KA1240M+03251MA1999999099071MD1999999-0321REMSYN088AAXX  16004 82765 32598 60000 10266 20239 39907 40148 84330 333 10325 29084 55079 59032;EQDQ01  00002PRCP06
0186827650999992003041612004-07330-047470FM-12+021299999V0209999C000011050019N0200001N1+02721+02411101551ADDAA106000091GF105991011011008001061041KA1240N+02361MA1999999099161MD1999999-0201REMSYN076AAXX  16124 82765 32598 50000 10272 20241 39916 40155 81164 333 20236 59020;EQDQ01  00002PRCP06
0167827650999992003041618004-07330-047470FM-12+021299999V0200901N001510450019N0200001N1+03171+02681101131ADDAA106000091GF107991041021008001051001MA1999999098751MD1999999-0181REMSYN070AAXX  16184 82765 32598 70903 10317 20268 39875 40113 84250 333 59018;EQDQ01  00002PRCP06
0202827650999992003041700004-07330-047470FM-12+021299999V0209999C000010450019N0200001N1+02561+02421101481ADDAY151061AY251061GF105991031021008001041001KA1240M+03221MA1999999099081MD1999999+0011MW1001REMSYN100AAXX  17004 82765 21598 50000 10256 20242 39908 40148 70055 83240 333 10322 29083 55072 58001 69961;
0162827650999992003041712004-07330-047470FM-12+021299999V0209999C000010450019N0200001N1+02681+02431101711ADDGF105991021021008001031001KA1240N+02351MA1999999099301MD1999999+0141REMSYN082AAXX  17124 82765 22598 50000 10268 20243 39930 40171 82230 333 20235 58014 69964;
0167827650999992003041718004-07330-047470FM-12+021299999V0201801N002110450019N0200001N1+03141+02501101251ADDAA106000091GF106991041031008001041001MA1999999098871MD1999999+0121REMSYN070AAXX  17184 82765 32598 61804 10314 20250 39887 40125 84340 333 58012;EQDQ01  00002PRCP06
0202827650999992003041800004-07330-047470FM-12+021299999V0201101N002610075019N0200001N1+02681+02451101381ADDAY151061AY251061GF108991061071008001021999KA1240M+03201MA1999999098991MD1999999-0091MW1031REMSYN100AAXX  18004 82765 21598 81105 10268 20245 39899 40138 70355 8672/ 333 10320 29082 55094 59009 69911;
0162827650999992003041812004-07330-047470FM-12+021299999V0200701N000512200019N0200001N1+02841+02441101631ADDGF102991021011008001001001KA1240N+02411MA1999999099241MD1999999-0061REMSYN082AAXX  18124 82765 22598 20701 10284 20244 39924 40163 82100 333 20241 59006 69914;
0167827650999992003041818004-07330-047470FM-12+021299999V0200501N001512200019N0200001N1+03201+02511101261ADDAA106000091GF104991021021008001041001MA1999999098881MD1999999+0011REMSYN070AAXX  18184 82765 32598 40503 10320 20251 39888 40126 82240 333 58001;EQDQ01  00002PRCP06
0208827650999992003041900004-07330-047470FM-12+021299999V0200501N000512200019N0200001N1+02841+02601101361ADDAA106000091GA1001+999999999GF100991001001999999001001KA1240M+03361MA1999999098991MD1999999+0001REMSYN082AAXX  19004 82765 32998 00501 10284 20260 39899 40136 333 10336 29080 55088 58000;EQDQ01  00002PRCP06
0162827650999992003041912004-07330-047470FM-12+021299999V0209999C000012200019N0200001N1+02741+02481101681ADDGF102991021011008001001001KA1240N+02351MA1999999099291MD1999999+0051REMSYN082AAXX  19124 82765 22598 20000 10274 20248 39929 40168 82100 333 20235 58005 60024;
0167827650999992003041918004-07330-047470FM-12+021299999V0201801N001010075019N0200001N1+03281+02341101311ADDAA106000091GF105991051021008001001001MA1999999098931MD1999999+0051REMSYN070AAXX  19184 82765 32598 51802 10328 20234 39893 40131 85200 333 58005;EQDQ01  00002PRCP06
0208827650999992003042000004-07330-047470FM-12+021299999V0200701N000512200019N0200001N1+02601+02421101371ADDAA106000091GA1001+999999999GF100991001001999999001001KA1240M+03361MA1999999098981MD1999999-0011REMSYN082AAXX  20004 82765 32998 00701 10260 20242 39898 40137 333 10336 29081 55106 59001;EQDQ01  00002PRCP06
0196827650999992003042012004-07330-047470FM-12+021299999V0209999C000012200019N0200001N1+02741+02431101501ADDAA106000091GA1001+999999999GF100991001001999999001001KA1240N+02291MA1999999099101MD1999999-0191REMSYN070AAXX  20124 82765 32998 00000 10274 20243 39910 40150 333 20229 59019;EQDQ01  00002PRCP06
0167827650999992003042018004-07330-047470FM-12+021299999V0201401N002112200019N0200001N1+03281+03281101071ADDAA106000091GF103991021011008001041001MA1999999098701MD1999999-0231REMSYN070AAXX  20184 82765 32598 31404 10328 20328 39870 40107 82140 333 59023;EQDQ01  00002PRCP06
0208827650999992003042100004-07330-047470FM-12+021299999V0200901N001012200019N0200001N1+02841+02521101191ADDAA106000091GA1001+999999999GF100991001001999999001001KA1240M+03361MA1999999098821MD1999999-0161REMSYN082AAXX  21004 82765 32998 00902 10284 20252 39882 40119 333 10336 29076 55109 59016;EQDQ01  00002PRCP06
0186827650999992003042112004-07330-047470FM-12+021299999V0209999C000012200019N0200001N1+02751+02341101461ADDAA106000091GF103991021001022501011041KA1240N+02331MA1999999099081MD1999999-0021REMSYN076AAXX  21124 82765 32898 30000 10275 20234 39908 40146 82014 333 20233 59002;EQDQ01  00002PRCP06
0167827650999992003042118004-07330-047470FM-12+021299999V0201101N003112200019N0200001N1+03241+02281101081ADDAA106000091GF104991021021008001061041MA1999999098711MD1999999+0011REMSYN070AAXX  21184 82765 32598 41106 10324 20228 39871 40108 82264 333 58001;EQDQ01  00002PRCP06
0208827650999992003042200004-07330-047470FM-12+021299999V0209999C000012200019N0200001N1+02861+02541101241ADDAA106000091GA1001+999999999GF100991001001999999001001KA1240M+03351MA1999999098861MD1999999+0041REMSYN082AAXX  22004 82765 32998 00000 10286 20254 39886 40124 333 10335 29076 55105 58004;EQDQ01  00002PRCP06
0196827650999992003042212004-07330-047470FM-12+021299999V0201801N001512200019N0200001N1+02681+02391101481ADDAA106000091GA1001+999999999GF100991001001999999001001KA1240N+02371MA1999999099091MD1999999+0011REMSYN070AAXX  22124 82765 32998 01803 10268 20239 39909 40148 333 20237 58001;EQDQ01  00002PRCP06
0167827650999992003042218004-07330-047470FM-12+021299999V0201801N001512200019N0200001N1+03291+02231101111ADDAA106000091GF103991031021008001001001MA1999999098741MD1999999+0031REMSYN070AAXX  22184 82765 32598 31803 10329 20223 39874 40111 83200 333 58003;EQDQ01  00002PRCP06
0208827650999992003042300004-07330-047470FM-12+021299999V0200901N001512200019N0200001N1+02801+02341101361ADDAA106000091GA1001+999999999GF100991001001999999001001KA1240M+03401MA1999999098981MD1999999+0121REMSYN082AAXX  23004 82765 32998 00903 10280 20234 39898 40136 333 10340 29072 55104 58012;EQDQ01  00002PRCP06
0186827650999992003042312004-07330-047470FM-12+021299999V0201401N001010150019N0200001N1+02671+02201101551ADDAA106000091GF106991061001017501011001KA1240N+02221MA1999999099161MD1999999+0071REMSYN076AAXX  23124 82765 32798 61402 10267 20220 39916 40155 86010 333 20222 58007;EQDQ01  00002PRCP06
0167827650999992003042318004-07330-047470FM-12+021299999V0201101N001510450019N0200001N1+03061+02221101271ADDAA106000091GF107991021011008001011001MA1999999098881MD1999999+0141REMSYN070AAXX  23184 82765 32598 71103 10306 20222 39888 40127 82110 333 58014;EQDQ01  00002PRCP06
0208827650999992003042400004-07330-047470FM-12+021299999V0201101N001012200019N0200001N1+02701+02451101401ADDAA106000091GA1001+999999999GF100991001001999999001001KA1240M+03221MA1999999099011MD1999999+0031REMSYN082AAXX  24004 82765 32998 01102 10270 20245 39901 40140 333 10322 29077 55061 58003;EQDQ01  00002PRCP06
0186827650999992003042412004-07330-047470FM-12+021299999V0201401N000510450019N0200001N1+02321+02201101681ADDAA106000091GF107991041051008001061001KA1240N+02151MA1999999099261MD1999999+0101REMSYN076AAXX  24124 82765 32598 71401 10232 20220 39926 40168 84560 333 20215 58010;EQDQ01  00002PRCP06
0167827650999992003042418004-07330-047470FM-12+021299999V0201801N001510450019N0200001N1+03061+02401101291ADDAA106000091GF106991021021008001061001MA1999999098891MD1999999+0011REMSYN070AAXX  24184 82765 32598 61803 10306 20240 39889 40129 82260 333 58001;EQDQ01  00002PRCP06
0208827650999992003042500004-07330-047470FM-12+021299999V0209999C000012200019N0200001N1+02661+02431101371ADDAA106000091GA1001+999999999GF100991001001999999001001KA1240M+03141MA1999999098961MD1999999-0051REMSYN082AAXX  25004 82765 32998 00000 10266 20243 39896 40137 333 10314 29083 55026 59005;EQDQ01  00002PRCP06
0196827650999992003042512004-07330-047470FM-12+021299999V0209999C000012200019N0200001N1+02541+02251101611ADDAA106000091GA1001+999999999GF100991001001999999001001KA1240N+02111MA1999999099211MD1999999+0051REMSYN070AAXX  25124 82765 32998 00000 10254 20225 39921 40161 333 20211 58005;EQDQ01  00002PRCP06
0167827650999992003042518004-07330-047470FM-12+021299999V0201801N001512200019N0200001N1+03201+02241101191ADDAA106000091GF104991031021008001001021MA1999999098801MD1999999+0091REMSYN070AAXX  25184 82765 32598 41803 10320 20224 39880 40119 83202 333 58009;EQDQ01  00002PRCP06
0208827650999992003042600004-07330-047470FM-12+021299999V0200901N000512200019N0200001N1+02801+02311101451ADDAA106000091GA1001+999999999GF100991001001999999001001KA1240M+03301MA1999999099061MD1999999+0101REMSYN082AAXX  26004 82765 32998 00901 10280 20231 39906 40145 333 10330 29072 55104 58010;EQDQ01  00002PRCP06
0186827650999992003042612004-07330-047470FM-12+021299999V0200201N001510450019N0200001N1+02701+02371101731ADDAA106000091GF106991021011008001031001KA1240N+02361MA1999999099341MD1999999+0131REMSYN076AAXX  26124 82765 32598 60203 10270 20237 39934 40173 82130 333 20236 58013;EQDQ01  00002PRCP06
0167827650999992003042618004-07330-047470FM-12+021299999V0201401N001010450019N0200001N1+03261+02441101411ADDAA106000091GF105991031021008001041001MA1999999099031MD1999999+0231REMSYN070AAXX  26184 82765 32598 51402 10326 20244 39903 40141 83240 333 58023;EQDQ01  00002PRCP06
0208827650999992003042700004-07330-047470FM-12+021299999V0209999C000012200019N0200001N1+02821+02541101621ADDAA106000091GA1001+999999999GF100991001001999999001001KA1240M+03331MA1999999099331MD1999999+0171REMSYN082AAXX  27004 82765 32998 00000 10282 20254 39933 40162 333 10333 29078 55063 58017;EQDQ01  00002PRCP06
0186827650999992003042712004-07330-047470FM-12+021299999V0203601N001010450019N0200001N1+02671+02371101841ADDAA106000091GF106991041021008001011041KA1240N+02481MA1999999099451MD1999999+0111REMSYN076AAXX  27124 82765 32598 63602 10267 20237 39945 40184 84214 333 20248 58011;EQDQ01  00002PRCP06
0167827650999992003042718004-07330-047470FM-12+021299999V0202701N001010075019N0200001N1+02971+02531101351ADDAA106000091GF107991051031008001021001MA1999999098961MD1999999-0071REMSYN070AAXX  27184 82765 32598 72702 10297 20253 39896 40135 85320 333 59007;EQDQ01  00002PRCP06
0212827650999992003042800004-07330-047470FM-12+021299999V0200201N000510024019N0100001N1+02651+02461101541ADDAY151061AY221061GA1091+999999999GF109991091999999999999999KA1240M+03251MA1999999099141MD1999999-0091MW1131REMSYN094AAXX  28004 82765 21/97 90201 10265 20246 39914 40154 71352 333 10325 29086 55043 59009 69921;
0190827650999992003042812004-07330-047470FM-12+021299999V0200501N001510090019N0200001N1+02491+02321101701ADDAY121061AY221061GF108991051081004501021999KA1240N+02321MA1999999099291MD1999999-0161MW1031REMSYN088AAXX  28124 82765 21498 80503 10249 20232 39929 40170 70322 8582/ 333 20232 59016 60054;
0167827650999992003042818004-07330-047470FM-12+021299999V0200701N001510450019N0200001N1+02961+02491101341ADDAA106000091GF108991041021008001011999MA1999999098951MD1999999-0011REMSYN070AAXX  28184 82765 32598 80703 10296 20249 39895 40134 8421/ 333 59001;EQDQ01  00002PRCP06
0186827650999992003042912004-07330-047470FM-12+021299999V0209999C000012200019N0200001N1+02661+02391101691ADDAA106000091GF105991021011012501031091KA1240N+02411MA1999999099291MD1999999+0001REMSYN076AAXX  29124 82765 32698 50000 10266 20239 39929 40169 82139 333 20241 58000;EQDQ01  00002PRCP06
0171827650999992003042918004-07330-047470FM-12+021299999V0203601N001510450019N0200001N1+02551+02381101351ADDAY161061AY221061GF107991041031008001021041MA1999999098941MD1999999-0011MW1031REMSYN082AAXX  29184 82765 21598 73603 10255 20238 39894 40135 70362 84324 333 59001 60191;
0208827650999992003043000004-07330-047470FM-12+021299999V0209999C000019999999N0200001N1+02491+02411101471ADDAA106000091GA1091+999999999GF109991091999999999999999KA1240M+03241MA1999999099071MD1999999+0001REMSYN082AAXX  30004 82765 32/98 90000 10249 20241 39907 40147 333 10324 29092 55046 58000;EQDQ01  00002PRCP06
0162827650999992003043012004-07330-047470FM-12+021299999V0200701N000512200019N0200001N1+02721+02471101721ADDGF103991031011008001001001KA1240N+02331MA1999999099311MD1999999+0021REMSYN082AAXX  30124 82765 22598 30701 10272 20247 39931 40172 83100 333 20233 58002 60194;
0167827650999992003043018004-07330-047470FM-12+021299999V0200901N002110450019N0200001N1+02991+02331101281ADDAA106000091GF105991021021008001041001MA1999999098891MD1999999-0051REMSYN070AAXX  30184 82765 32598 50904 10299 20233 39889 40128 82240 333 59005;EQDQ01  00002PRCP06
0208827650999992003050100004-07330-047470FM-12+021299999V0209999C000012200019N0200001N1+02661+02521101481ADDAA106000091GA1001+999999999GF100991001001999999001001KA1240M+03221MA1999999099091MD1999999+0021REMSYN082AAXX  01004 82765 32998 00000 10266 20252 39909 40148 333 10322 29087 55099 58002;EQDQ01  00002PRCP06
0186827650999992003050112004-07330-047470FM-12+021299999V0200501N002610120019N0200001N1+02661+02481101971ADDAA106000091GF107991061081008001041001KA1240N+02391MA1999999099371MD1999999+0061REMSYN076AAXX  01124 82765 32598 70505 10266 20248 39937 40197 86840 333 20239 58006;EQDQ01  00002PRCP06
0167827650999992003050118004-07330-047470FM-12+021299999V0200501N002612200019N0200001N1+03261+02411101311ADDAA106000091GF104991031011008001041001MA1999999098931MD1999999+0041REMSYN070AAXX  01184 82765 32598 40505 10326 20241 39893 40131 83140 333 58004;EQDQ01  00002PRCP06
0208827650999992003050200004-07330-047470FM-12+021299999V0202301N001012200019N0200001N1+02821+02481101601ADDAA106000091GA1001+999999999GF100991001001999999001001KA1240M+03321MA1999999099211MD1999999+0121REMSYN082AAXX  02004 82765 32998 02302 10282 20248 39921 40160 333 10332 29079 55092 58012;EQDQ01  00002PRCP06
0186827650999992003050212004-07330-047470FM-12+021299999V0203401N002112200019N0200001N1+02721+02411101681ADDAA106000091GF103991021011008001041001KA1240N+02351MA1999999099291MD1999999-0081REMSYN076AAXX  02124 82765 32598 33404 10272 20241 39929 40168 82140 333 20235 59008;EQDQ01  00002PRCP06
0167827650999992003050218004-07330-047470FM-12+021299999V0202501N001010450019N0200001N1+03341+01441101241ADDAA106000091GF105991031021008001041001MA1999999098871MD1999999-0061REMSYN070AAXX  02184 82765 32598 52502 10334 20144 39887 40124 83240 333 59006;EQDQ01  00002PRCP06
0208827650999992003050300004-07330-047470FM-12+021299999V0200701N001012200019N0200001N1+02661+02461101391ADDAA106000091GA1001+999999999GF100991001001999999001001KA1240M+03441MA1999999099001MD1999999-0211REMSYN082AAXX  03004 82765 32998 00702 10266 20246 39900 40139 333 10344 29080 55093 59021;EQDQ01  00002PRCP06
0186827650999992003050312004-07330-047470FM-12+021299999V0203601N002110450019N0200001N1+02701+02371101611ADDAA106000091GF105991041021008001061001KA1240N+02471MA1999999099221MD1999999+0071REMSYN076AAXX  03124 82765 32598 53604 10270 20237 39922 40161 84260 333 20247 58007;EQDQ01  00002PRCP06
0167827650999992003050318004-07330-047470FM-12+021299999V0203501N001510075019N0200001N1+03301+02391101121ADDAA106000091GF106991051021008001041001MA1999999098761MD1999999-0111REMSYN070AAXX  03184 82765 32598 63503 10330 20239 39876 40112 85240 333 59011;EQDQ01  00002PRCP06
0212827650999992003050400004-07330-047470FM-12+021299999V0209999C000019999999N0200001N1+02621+02461101471ADDAY161061AY221061GA1091+999999999GF109991091999999999999999KA1240M+03351MA1999999099071MD1999999+0071MW1001REMSYN094AAXX  04004 82765 21/98 90000 10262 20246 39907 40147 70062 333 10335 29081 55065 58007 60071;
0190827650999992003050412004-07330-047470FM-12+021299999V0200901N001510042019N0040001N1+02321+02251101781ADDAY161061AY221061GF108991061071004501041999KA1240N+02321MA1999999099361MD1999999+0141MW1551REMSYN088AAXX  04124 82765 21496 80903 10232 20225 39936 40178 75562 8674/ 333 20232 58014 60844;
0171827650999992003050418004-07330-047470FM-12+021299999V0203201N001510450019N0200001N1+02571+02371101311ADDAY151061AY251061GF105991031051008001031001MA1999999098901MD1999999+0141MW1011REMSYN082AAXX  04184 82765 21598 53203 10257 20237 39890 40131 70155 83530 333 58014 60051;
0208827650999992003050500004-07330-047470FM-12+021299999V0209999C000019999999N0200001N1+02461+02431101521ADDAA106000091GA1091+999999999GF109991091999999999999999KA1240M+02681MA1999999099101MD1999999+0071REMSYN082AAXX  05004 82765 32/98 90000 10246 20243 39910 40152 333 10268 29092 55007 58007;EQDQ01  00002PRCP06
0162827650999992003050512004-07330-047470FM-12+021299999V0200501N001512200019N0200001N1+02621+02411101881ADDGF104991031011008001041001KA1240N+02231MA1999999099341MD1999999-0021REMSYN082AAXX  05124 82765 22598 40503 10262 20241 39934 40188 83140 333 20223 59002 60054;
0171827650999992003050518004-07330-047470FM-12+021299999V0200901N001510450019N0200001N1+02941+02471101231ADDAY161061AY251061GF106991031021008001041001MA1999999098841MD1999999-0061MW1001REMSYN082AAXX  05184 82765 21598 60903 10294 20247 39884 40123 70065 83240 333 59006 60021;
0208827650999992003050600004-07330-047470FM-12+021299999V0209999C000012200019N0200001N1+02621+02501101461ADDAA106000091GA1001+999999999GF100991001001999999001001KA1240M+03101MA1999999099061MD1999999-0041REMSYN082AAXX  06004 82765 32998 00000 10262 20250 39906 40146 333 10310 29088 55070 59004;EQDQ01  00002PRCP06
0190827650999992003050612004-07330-047470FM-12+021299999V0209999C000010120019N0200001N1+02461+02371101731ADDAY151061AY251061GF107991061081008001041001KA1240N+02351MA1999999099321MD1999999-0021MW1001REMSYN088AAXX  06124 82765 21598 70000 10246 20237 39932 40173 70055 86840 333 20235 59002 60024;
0167827650999992003050618004-07330-047470FM-12+021299999V0201801N000510450019N0200001N1+02921+02341101201ADDAA106000091GF106991041021008001041001MA1999999098811MD1999999-0081REMSYN070AAXX  06184 82765 32598 61801 10292 20234 39881 40120 84240 333 59008;EQDQ01  00002PRCP06
0202827650999992003050700004-07330-047470FM-12+021299999V0209999C000012200019N0200001N1+02481+02351101421ADDAY161061AY261061GF104991031081008001041001KA1240M+03101MA1999999099011MD1999999-0051MW1001REMSYN100AAXX  07004 82765 21598 40000 10248 20235 39901 40142 70066 83840 333 10310 29089 55033 59005 60041;
0162827650999992003050712004-07330-047470FM-12+021299999V0209999C000012200019N0200001N1+02701+02461101601ADDGF104991041011008001001001KA1240N+02311MA1999999099201MD1999999-0121REMSYN082AAXX  07124 82765 22598 40000 10270 20246 39920 40160 84100 333 20231 59012 60044;
0167827650999992003050718004-07330-047470FM-12+021299999V0202901N001510450019N0200001N1+03161+02391101241ADDAA106000091GF106991041021008001041001MA1999999098861MD1999999+0051REMSYN070AAXX  07184 82765 32598 62903 10316 20239 39886 40124 84240 333 58005;EQDQ01  00002PRCP06
0202827650999992003050800004-07330-047470FM-12+021299999V0203401N000512200019N0200001N1+02541+02401101561ADDAY151061AY251061GF103991021021008001041001KA1240M+03301MA1999999099161MD1999999-0121MW1001REMSYN100AAXX  08004 82765 21598 33401 10254 20240 39916 40156 70055 82240 333 10330 29084 55085 59012 60021;
0162827650999992003050812004-07330-047470FM-12+021299999V0209999C000010120019N0200001N1+02561+02421101721ADDGF106991051081008001041001KA1240N+02351MA1999999099311MD1999999+0111REMSYN082AAXX  08124 82765 22598 60000 10256 20242 39931 40172 85840 333 20235 58011 60024;
0167827650999992003050818004-07330-047470FM-12+021299999V0202501N001510450019N0200001N1+03161+02391101311ADDAA106000091GF106991041021008001041001MA1999999098931MD1999999+0071REMSYN070AAXX  08184 82765 32598 62503 10316 20239 39893 40131 84240 333 58007;EQDQ01  00002PRCP06
0208827650999992003050900004-07330-047470FM-12+021299999V0209999C000012200019N0200001N1+02821+02601101521ADDAA106000091GA1001+999999999GF100991001001999999001001KA1240M+03261MA1999999099161MD1999999+0001REMSYN082AAXX  09004 82765 32998 00000 10282 20260 39916 40152 333 10326 29083 55088 58000;EQDQ01  00002PRCP06
0190827650999992003050912004-07330-047470FM-12+021299999V0202901N000512200019N0200001N1+02541+02381101741ADDAY121061AY221061GF104991041001012501041001KA1240N+02261MA1999999099641MD1999999+0031MW1011REMSYN088AAXX  09124 82765 21698 42901 10254 20238 39964 40174 70122 84040 333 20226 58003 60614;
0167827650999992003050918004-07330-047470FM-12+021299999V0203601N002112200019N0200001N1+03021+02311101261ADDAA106000091GF104991021021008001041001MA1999999098871MD1999999-0061REMSYN070AAXX  09184 82765 32598 43604 10302 20231 39887 40126 82240 333 59006;EQDQ01  00002PRCP06
0198827650999992003051000004-07330-047470FM-12+021299999V0209999C000012200019N0200001N1+02641+02441101571ADDAA106000091GF103991021001012501031011KA1240M+03241MA1999999099171MD1999999+0011REMSYN088AAXX  10004 82765 32698 30000 10264 20244 39917 40157 82031 333 10324 29083 55076 58001;EQDQ01  00002PRCP06
0167827650999992003051018004-07330-047470FM-12+021299999V0200701N002110450019N0200001N1+03081+02401101361ADDAA106000091GF107991041011008001061001MA1999999098971MD1999999+0101REMSYN070AAXX  10184 82765 32598 70704 10308 20240 39897 40136 84160 333 58010;EQDQ01  00002PRCP06
0198827650999992003051100004-07330-047470FM-12+021299999V0209999C000019999999N0200001N1+02721+02561101571ADDAA106000091GF108991081001012501011001KA1240M+03141MA1999999099181MD1999999+0011REMSYN088AAXX  11004 82765 32698 80000 10272 20256 39918 40157 88010 333 10314 29084 55050 58001;EQDQ01  00002PRCP06
0186827650999992003051112004-07330-047470FM-12+021299999V0201401N001512200019N0200001N1+02661+02431101831ADDAA106000091GF102991021011008001001001KA1240N+02311MA1999999099431MD1999999+0061REMSYN076AAXX  11124 82765 32598 21403 10266 20243 39943 40183 82100 333 20231 58006;EQDQ01  00002PRCP06
0167827650999992003051118004-07330-047470FM-12+021299999V0201101N002612200019N0200001N1+03181+02331101431ADDAA106000091GF104991041011008001001001MA1999999099051MD1999999+0081REMSYN070AAXX  11184 82765 32598 41105 10318 20233 39905 40143 84100 333 58008;EQDQ01  00002PRCP06
0208827650999992003051200004-07330-047470FM-12+021299999V0200901N000512200019N0200001N1+02661+02461101591ADDAA106000091GA1001+999999999GF100991001001999999001001KA1240M+03281MA1999999099191MD1999999+0011REMSYN082AAXX  12004 82765 32998 00901 10266 20246 39919 40159 333 10328 29081 55106 58001;EQDQ01  00002PRCP06
0186827650999992003051212004-07330-047470FM-12+021299999V0201401N000510450019N0200001N1+02561+02361101871ADDAA106000091GF106991041011008001041001KA1240N+02431MA1999999099461MD1999999+0031REMSYN076AAXX  12124 82765 32598 61401 10256 20236 39946 40187 84140 333 20243 58003;EQDQ01  00002PRCP06
0167827650999992003051218004-07330-047470FM-12+021299999V0201401N001510450019N0200001N1+03161+02231101451ADDAA106000091GF105991031011008001041001MA1999999099071MD1999999+0021REMSYN070AAXX  12184 82765 32598 51403 10316 20223 39907 40145 83140 333 58002;EQDQ01  00002PRCP06
0198827650999992003051300004-07330-047470FM-12+021299999V0201401N001012200019N0200001N1+02821+02521101621ADDAA106000091GF103991031011008001001001KA1240M+03241MA1999999099231MD1999999+0041REMSYN088AAXX  13004 82765 32598 31402 10282 20252 39923 40162 83100 333 10324 29079 55078 58004;EQDQ01  00002PRCP06
0186827650999992003051312004-07330-047470FM-12+021299999V0209999C000010120019N0200001N1+02601+02351101781ADDAA106000091GF107991061081008001041001KA1240N+02451MA1999999099381MD1999999-0081REMSYN076AAXX  13124 82765 32598 70000 10260 20235 39938 40178 86840 333 20245 59008;EQDQ01  00002PRCP06
0167827650999992003051318004-07330-047470FM-12+021299999V0201401N002112200019N0200001N1+03261+02301101321ADDAA106000091GF103991021021008001041001MA1999999098951MD1999999-0121REMSYN070AAXX  13184 82765 32598 31404 10326 20230 39895 40132 82240 333 59012;EQDQ01  00002PRCP06
0200827650999992003051412004-07330-047470FM-12+021299999V0201801N000512200019N0200001N1+02621+02481101671ADDAY161061AY261061GA1001+999999999GF100991001001999999001001KA1240N+02391MA1999999099281MD1999999-0101MW1001REMSYN082AAXX  14124 82765 21998 01801 10262 20248 39928 40167 70066 333 20239 59010 60034;
0167827650999992003051418004-07330-047470FM-12+021299999V0201801N003112200019N0200001N1+03241+02331101271ADDAA106000091GF103991031011008001001001MA1999999098891MD1999999-0061REMSYN070AAXX  14184 82765 32598 31806 10324 20233 39889 40127 83100 333 59006;EQDQ01  00002PRCP06
0196827650999992003051512004-07330-047470FM-12+021299999V0201801N001012200019N0200001N1+02701+02371101581ADDAA106000091GA1001+999999999GF100991001001999999001001KA1240N+02361MA1999999099201MD1999999+0081REMSYN070AAXX  15124 82765 32998 01802 10270 20237 39920 40158 333 20236 58008;EQDQ01  00002PRCP06
0167827650999992003051518004-07330-047470FM-12+021299999V0201801N002112200019N0200001N1+03181+02161101341ADDAA106000091GF102991021011008001001001MA1999999098961MD1999999+0071REMSYN070AAXX  15184 82765 32598 21804 10318 20216 39896 40134 82100 333 58007;EQDQ01  00002PRCP06
0208827650999992003051600004-07330-047470FM-12+021299999V0200901N000512200019N0200001N1+02821+02411101421ADDAA106000091GA1001+999999999GF100991001001999999001001KA1240M+03301MA1999999099041MD1999999+0031REMSYN082AAXX  16004 82765 32998 00901 10282 20241 39904 40142 333 10330 29076 55109 58003;EQDQ01  00002PRCP06
0186827650999992003051612004-07330-047470FM-12+021299999V0201401N002112200019N0200001N1+02641+02201101601ADDAA106000091GF103991021001012501041011KA1240N+02301MA1999999099211MD1999999+0011REMSYN076AAXX  16124 82765 32698 31404 10264 20220 39921 40160 82041 333 20230 58001;EQDQ01  00002PRCP06
0167827650999992003051618004-07330-047470FM-12+021299999V0201101N002612200019N0200001N1+03181+02191101241ADDAA106000091GF103991031011008001001001MA1999999098861MD1999999+0001REMSYN070AAXX  16184 82765 32598 31105 10318 20219 39886 40124 83100 333 59000;EQDQ01  00002PRCP06
0208827650999992003051700004-07330-047470FM-12+021299999V0201401N000512200019N0200001N1+02721+02321101411ADDAA106000091GA1001+999999999GF100991001001999999001001KA1240M+03301MA1999999099021MD1999999+0021REMSYN082AAXX  17004 82765 32998 01401 10272 20232 39902 40141 333 10330 29072 55105 58002;EQDQ01  00002PRCP06
0196827650999992003051712004-07330-047470FM-12+021299999V0201401N001512200019N0200001N1+02641+02091101491ADDAA106000091GA1001+999999999GF100991001001999999001001KA1240N+02181MA1999999099101MD1999999-0111REMSYN070AAXX  17124 82765 32998 01403 10264 20209 39910 40149 333 20218 59011;EQDQ01  00002PRCP06
0167827650999992003051718004-07330-047470FM-12+021299999V0201401N002612200019N0200001N1+03141+02101101181ADDAA106000091GF103991031011008001001001MA1999999098791MD1999999+0071REMSYN070AAXX  17184 82765 32598 31405 10314 20210 39879 40118 83100 333 58007;EQDQ01  00002PRCP06
0208827650999992003051800004-07330-047470FM-12+021299999V0209999C000012200019N0200001N1+02741+02451101381ADDAA106000091GA1001+999999999GF100991001001999999001001KA1240M+03281MA1999999098991MD1999999-0031REMSYN082AAXX  18004 82765 32998 00000 10274 20245 39899 40138 333 10328 29073 55105 59003;EQDQ01  00002PRCP06
0196827650999992003051812004-07330-047470FM-12+021299999V0201401N001512200019N0200001N1+02641+02161101661ADDAA106000091GA1001+999999999GF100991001001999999001001KA1240N+02171MA1999999099261MD1999999+0161REMSYN070AAXX  18124 82765 32998 01403 10264 20216 39926 40166 333 20217 58016;EQDQ01  00002PRCP06
0183827650999992003051818004-07330-047470FM-12+021299999V0201401N002112200019N0200001N1+03161+02201101281ADDAA106000091GF104991999011008001001001MA1999999098891MD1999999+0131REMSYN070AAXX  18184 82765 32598 41404 10316 20220 39889 40128 85100 333 58013;EQDQ01+000052SCOTLCQ02  00002PRCP06
0208827650999992003051900004-07330-047470FM-12+021299999V0209999C000012200019N0200001N1+02741+02431101471ADDAA106000091GA1001+999999999GF100991001001999999001001KA1240M+03281MA1999999099081MD1999999+0091REMSYN082AAXX  19004 82765 32998 00000 10274 20243 39908 40147 333 10328 29075 55105 58009;EQDQ01  00002PRCP06
0196827650999992003051912004-07330-047470FM-12+021299999V0200901N003112200019N0200001N1+02661+02111101571ADDAA106000091GA1001+999999999GF100991001001999999001001KA1240N+02251MA1999999099181MD1999999-0081REMSYN070AAXX  19124 82765 32998 00906 10266 20211 39918 40157 333 20225 59008;EQDQ01  00002PRCP06
0167827650999992003051918004-07330-047470FM-12+021299999V0201601N001012200019N0200001N1+03221+02051101231ADDAA106000091GF101991011011008001001001MA1999999098851MD1999999-0021REMSYN070AAXX  19184 82765 32598 11602 10322 20205 39885 40123 81100 333 59002;EQDQ01  00002PRCP06
0208827650999992003052000004-07330-047470FM-12+021299999V0209999C000012200019N0200001N1+02781+02421101461ADDAA106000091GA1001+999999999GF100991001001999999001001KA1240M+03341MA1999999099071MD1999999-0011REMSYN082AAXX  20004 82765 32998 00000 10278 20242 39907 40146 333 10334 29072 55108 59001;EQDQ01  00002PRCP06
0186827650999992003052012004-07330-047470FM-12+021299999V0201101N001010075019N0200001N1+02601+02401101681ADDAA106000091GF106991061011008001001001KA1240N+02471MA1999999099281MD1999999-0101REMSYN076AAXX  20124 82765 32598 61102 10260 20240 39928 40168 86100 333 20247 59010;EQDQ01  00002PRCP06
0167827650999992003052018004-07330-047470FM-12+021299999V0201401N001510120019N0200001N1+03201+02381101321ADDAA106000091GF107991051081008001041001MA1999999098951MD1999999+0101REMSYN070AAXX  20184 82765 32598 71403 10320 20238 39895 40132 85840 333 58010;EQDQ01  00002PRCP06
0208827650999992003052100004-07330-047470FM-12+021299999V0201601N001512200019N0200001N1+02761+02421101531ADDAA106000091GA1001+999999999GF100991001001999999001001KA1240M+03301MA1999999099141MD1999999+0071REMSYN082AAXX  21004 82765 32998 01603 10276 20242 39914 40153 333 10330 29079 55052 58007;EQDQ01  00002PRCP06
0186827650999992003052112004-07330-047470FM-12+021299999V0209999C000012200019N0200001N1+02741+02281101611ADDAA106000091GF103991031001012501031001KA1240N+02321MA1999999099221MD1999999+0061REMSYN076AAXX  21124 82765 32698 30000 10274 20228 39922 40161 83030 333 20232 58006;EQDQ01  00002PRCP06
0167827650999992003052118004-07330-047470FM-12+021299999V0201401N002112200019N0200001N1+03291+02131101221ADDAA106000091GF104991041011008001001001MA1999999098841MD1999999-0111REMSYN070AAXX  21184 82765 32598 41404 10329 20213 39884 40122 84100 333 59011;EQDQ01  00002PRCP06
0208827650999992003052200004-07330-047470FM-12+021299999V0209999C000012200019N0200001N1+02851+02481101411ADDAA106000091GA1001+999999999GF100991001001999999001001KA1240M+03371MA1999999099031MD1999999-0111REMSYN082AAXX  22004 82765 32998 00000 10285 20248 39903 40141 333 10337 29071 55109 59011;EQDQ01  00002PRCP06
0186827650999992003052212004-07330-047470FM-12+021299999V0200901N001510450019N0200001N1+02751+02361101711ADDAA106000091GF105991031021008001031001KA1240N+02391MA1999999099321MD1999999+0101REMSYN076AAXX  22124 82765 32598 50903 10275 20236 39932 40171 83230 333 20239 58010;EQDQ01  00002PRCP06
0167827650999992003052218004-07330-047470FM-12+021299999V0201101N001512200019N0200001N1+03341+02281101231ADDAA106000091GF104991041021008001001001MA1999999098861MD1999999+0021REMSYN070AAXX  22184 82765 32598 41103 10334 20228 39886 40123 84200 333 58002;EQDQ01  00002PRCP06
0208827650999992003052300004-07330-047470FM-12+021299999V0200901N000512200019N0200001N1+02881+02481101501ADDAA106000091GA1001+999999999GF100991001001999999001001KA1240M+03471MA1999999099121MD1999999+0091REMSYN082AAXX  23004 82765 32998 00901 10288 20248 39912 40150 333 10347 29072 55106 58009;EQDQ01  00002PRCP06
0196827650999992003052312004-07330-047470FM-12+021299999V0201101N001512200019N0200001N1+02781+02341101631ADDAA106000091GA1001+999999999GF100991001001999999001001KA1240N+02311MA1999999099251MD1999999-0071REMSYN070AAXX  23124 82765 32998 01103 10278 20234 39925 40163 333 20231 59007;EQDQ01  00002PRCP06
0167827650999992003052318004-07330-047470FM-12+021299999V0200901N001512200019N0200001N1+03391+02381101211ADDAA106000091GF104991041011008001001001MA1999999098841MD1999999+0021REMSYN070AAXX  23184 82765 32598 40903 10339 20238 39884 40121 84100 333 58002;EQDQ01  00002PRCP06
0208827650999992003052400004-07330-047470FM-12+021299999V0209999C000012200019N0200001N1+02941+02581101411ADDAA106000091GA1001+999999999GF100991001001999999001001KA1240M+03521MA1999999099041MD1999999-0081REMSYN082AAXX  24004 82765 32998 00000 10294 20258 39904 40141 333 10352 29074 55099 59008;EQDQ01  00002PRCP06
0186827650999992003052412004-07330-047470FM-12+021299999V0201401N000510450019N0200001N1+02741+02451101531ADDAA106000091GF106991021011008001041001KA1240N+02371MA1999999099151MD1999999-0101REMSYN076AAXX  24124 82765 32598 61401 10274 20245 39915 40153 82140 333 20237 59010;EQDQ01  00002PRCP06
0167827650999992003052418004-07330-047470FM-12+021299999V0201801N000510450019N0200001N1+03321+02381101071ADDAA106000091GF106991031081008001041001MA1999999098701MD1999999-0141REMSYN070AAXX  24184 82765 32598 61801 10332 20238 39870 40107 83840 333 59014;EQDQ01  00002PRCP06
0236827650999992003052500004-07330-047470FM-12+021299999V0209999C000012200019N0200001N1+02741+02381101271ADDAA106000091AY191061AY291061GA1001+999999999GF100991001001999999001001KA1240M+03461MA1999999098891MD1999999-0151MW1001REMSYN088AAXX  25004 82765 31998 00000 10274 20238 39889 40127 70099 333 10346 29076 55088 59015;EQDQ01  00002PRCP06
0186827650999992003052512004-07330-047470FM-12+021299999V0209999C000010450019N0200001N1+02741+02451101561ADDAA106000091GF105991021011008001041001KA1240N+02391MA1999999099171MD1999999+0021REMSYN076AAXX  25124 82765 32598 50000 10274 20245 39917 40156 82140 333 20239 58002;EQDQ01  00002PRCP06
0167827650999992003052518004-07330-047470FM-12+021299999V0200701N001510450019N0200001N1+03241+02421101141ADDAA106000091GF106991031021008001041001MA1999999098771MD1999999+0071REMSYN070AAXX  25184 82765 32598 60703 10324 20242 39877 40114 83240 333 58007;EQDQ01  00002PRCP06
0226827650999992003052600004-07330-047470FM-12+021299999V0209999C000012200019N0200001N1+02801+02521101301ADDAA106000091AY101061AY201061GF101991011011008001001001KA1240M+03421MA1999999098921MD1999999+0031MW1131REMSYN094AAXX  26004 82765 31598 10000 10280 20252 39892 40130 71300 81100 333 10342 29079 55086 58003;EQDQ01  00002PRCP06
0186827650999992003052612004-07330-047470FM-12+021299999V0202301N001010450019N0200001N1+02641+02411101691ADDAA106000091GF106991031011008001041001KA1240N+02411MA1999999099291MD1999999+0121REMSYN076AAXX  26124 82765 32598 62302 10264 20241 39929 40169 83140 333 20241 58012;EQDQ01  00002PRCP06
0176827650999992003052618004-07330-047470FM-12+021299999V0202301N002610450019N0200001N1+03201+02431101191ADDAA106000021AY101061AY201061GF106991011031008001041001MA1999999098821MD1999999+0051MW1991REMSYN076AAXX  26184 82765 31598 62305 10320 20243 39882 40119 79900 81340 333 58005;
0202827650999992003052700004-07330-047470FM-12+021299999V0209999C000010075019N0200001N1+02481+02411101641ADDAY151061AY251061GF108991061051008001021999KA1240M+03361MA1999999099231MD1999999+0311MW1511REMSYN100AAXX  27004 82765 21598 80000 10248 20241 39923 40164 75155 8652/ 333 10336 29086 55072 58031 60021;
0190827650999992003052712004-07330-047470FM-12+021299999V0200501N001019999999N0200001N1+02561+02441101831ADDAY101061AY201061GF105991051001012501031001KA1240N+02331MA1999999099411MD1999999+0121MW1021REMSYN088AAXX  27124 82765 21698 50502 10256 20244 39941 40183 70200 85030 333 20233 58012 60024;
0171827650999992003052718004-07330-047470FM-12+021299999V0203301N001010120019N0200001N1+02421+02301101591ADDAY161061AY221061GF107991051081008001041001MA1999999099171MD1999999+0351MW1031REMSYN082AAXX  27184 82765 21598 73302 10242 20230 39917 40159 70362 85840 333 58035 60441;
0208827650999992003052800004-07330-047470FM-12+021299999V0209999C000019999999N0200001N1+02421+02281101811ADDAA106000091GA1091+999999999GF109991091999999999999999KA1240M+02811MA1999999099391MD1999999+0161REMSYN082AAXX  28004 82765 32/98 90000 10242 20228 39939 40181 333 10281 29092 55015 58016;EQDQ01  00002PRCP06
0162827650999992003052812004-07330-047470FM-12+021299999V0201401N001510120019N0200001N1+02411+02301101981ADDGF108991061081008001011001KA1240N+02281MA1999999099551MD1999999+0141REMSYN082AAXX  28124 82765 22598 81403 10241 20230 39955 40198 86810 333 20228 58014 60444;
0167827650999992003052818004-07330-047470FM-12+021299999V0200501N000510075019N0200001N1+03021+02441101561ADDAA106000091GF105991051021008001001001MA1999999099161MD1999999+0011REMSYN070AAXX  28184 82765 32598 50501 10302 20244 39916 40156 85200 333 58001;EQDQ01  00002PRCP06
0208827650999992003052900004-07330-047470FM-12+021299999V0209999C000012200019N0200001N1+02741+02481101611ADDAA106000091GA1001+999999999GF100991001001999999001001KA1240M+03181MA1999999099211MD1999999-0181REMSYN082AAXX  29004 82765 32998 00000 10274 20248 39921 40161 333 10318 29084 55072 59018;EQDQ01  00002PRCP06
0186827650999992003052912004-07330-047470FM-12+021299999V0201801N001012200019N0200001N1+02661+02411101781ADDAA106000091GF103991031001008001031001KA1240N+02331MA1999999099381MD1999999-0171REMSYN076AAXX  29124 82765 32598 31802 10266 20241 39938 40178 83030 333 20233 59017;EQDQ01  00002PRCP06
0167827650999992003052918004-07330-047470FM-12+021299999V0202301N001510075019N0200001N1+03231+02401101331ADDAA106000091GF105991051021008001001001MA1999999098951MD1999999-0211REMSYN070AAXX  29184 82765 32598 52303 10323 20240 39895 40133 85200 333 59021;EQDQ01  00002PRCP06
0198827650999992003053000004-07330-047470FM-12+021299999V0200501N000512200019N0200001N1+02801+02601101601ADDAA106000091GF102991011011008001041001KA1240M+03321MA1999999099211MD1999999+0001REMSYN088AAXX  30004 82765 32598 20501 10280 20260 39921 40160 81140 333 10332 29082 55096 58000;EQDQ01  00002PRCP06
0190827650999992003053012004-07330-047470FM-12+021299999V0201401N001010450019N0200001N1+02601+02371101821ADDAY151061AY251061GF106991041021008001041001KA1240N+02451MA1999999099431MD1999999+0051MW1001REMSYN088AAXX  30124 82765 21598 61402 10260 20237 39943 40182 70055 84240 333 20245 58005 69914;
0078827650999992003053018004-07330-047470FM-12+021299999V02099999999999999999N9999999N1+99999+99999999999REMSYN069AAXX  30184 82765 3298 51403 10318 20222 39896 40134 84130 333 58001;
0208827650999992003053100004-07330-047470FM-12+021299999V0209999C000012200019N0200001N1+02821+02561101561ADDAA106000091GA1001+999999999GF100991001001999999001001KA1240M+03281MA1999999099171MD1999999-0041REMSYN082AAXX  31004 82765 32998 00000 10282 20256 39917 40156 333 10328 29079 55082 59004;EQDQ01  00002PRCP06
0186827650999992003053112004-07330-047470FM-12+021299999V0200501N000512200019N0200001N1+02661+02351101881ADDAA106000091GF104991031021008001041001KA1240N+02431MA1999999099481MD1999999+0051REMSYN076AAXX  31124 82765 32598 40501 10266 20235 39948 40188 83240 333 20243 58005;EQDQ01  00002PRCP06
0167827650999992003053118004-07330-047470FM-12+021299999V0201801N001510450019N0200001N1+03061+02381101501ADDAA106000091GF107991031081008001041001MA1999999099121MD1999999+0161REMSYN070AAXX  31184 82765 32598 71803 10306 20238 39912 40150 83840 333 58016;EQDQ01  00002PRCP06
0198827650999992003060100004-07330-047470FM-12+021299999V0209999C000010120019N0200001N1+02801+02601101671ADDAA106000091GF108991081081008001999999KA1240M+03141MA1999999099281MD1999999+0111REMSYN088AAXX  01004 82765 32598 80000 10280 20260 39928 40167 888// 333 10314 29080 55045 58011;EQDQ01  00002PRCP06
0186827650999992003060112004-07330-047470FM-12+021299999V0201101N002110450019N0200001N1+02901+02371101781ADDAA106000091GF106991041021008001041001KA1240N+02511MA1999999099401MD1999999-0081REMSYN076AAXX  01124 82765 32598 61104 10290 20237 39940 40178 84240 333 20251 59008;EQDQ01  00002PRCP06
0167827650999992003060118004-07330-047470FM-12+021299999V0201101N002610450019N0200001N1+03181+02221101401ADDAA106000091GF105991041021008001041001MA1999999099031MD1999999-0091REMSYN070AAXX  01184 82765 32598 51105 10318 20222 39903 40140 84240 333 59009;EQDQ01  00002PRCP06
0208827650999992003060200004-07330-047470FM-12+021299999V0209999C000012200019N0200001N1+02781+02461101591ADDAA106000091GA1001+999999999GF100991001001999999001001KA1240M+03281MA1999999099211MD1999999-0071REMSYN082AAXX  02004 82765 32998 00000 10278 20246 39921 40159 333 10328 29074 55103 59007;EQDQ01  00002PRCP06
0186827650999992003060212004-07330-047470FM-12+021299999V0201401N001519999999N0200001N1+02761+02361101721ADDAA106000091GF105991051001008001031001KA1240N+02331MA1999999099331MD1999999-0071REMSYN076AAXX  02124 82765 32598 51403 10276 20236 39933 40172 85030 333 20233 59007;EQDQ01  00002PRCP06
0167827650999992003060218004-07330-047470FM-12+021299999V0201101N003110450019N0200001N1+03261+02151101301ADDAA106000091GF106991041021008001041001MA1999999098921MD1999999-0181REMSYN070AAXX  02184 82765 32598 61106 10326 20215 39892 40130 84240 333 59018;EQDQ01  00002PRCP06
0208827650999992003060300004-07330-047470FM-12+021299999V0209999C000012200019N0200001N1+02761+02481101471ADDAA106000091GA1001+999999999GF100991001001999999001001KA1240M+03361MA1999999099081MD1999999-0131REMSYN082AAXX  03004 82765 32998 00000 10276 20248 39908 40147 333 10336 29075 55097 59013;EQDQ01  00002PRCP06
0186827650999992003060312004-07330-047470FM-12+021299999V0201401N001512200019N0200001N1+02641+02251101671ADDAA106000091GF103991011011008001061011KA1240N+02241MA1999999099271MD1999999-0061REMSYN076AAXX  03124 82765 32598 31403 10264 20225 39927 40167 81161 333 20224 59006;EQDQ01  00002PRCP06
0167827650999992003060318004-07330-047470FM-12+021299999V0201401N001510450019N0200001N1+03221+02201101261ADDAA106000091GF105991031011008001061011MA1999999098871MD1999999-0051REMSYN070AAXX  03184 82765 32598 51403 10322 20220 39887 40126 83161 333 59005;EQDQ01  00002PRCP06
0208827650999992003060400004-07330-047470FM-12+021299999V0200901N000519999999N0200001N1+02741+02431101391ADDAA106000091GA1091+999999999GF109991091999999999999999KA1240M+03331MA1999999099001MD1999999+0081REMSYN082AAXX  04004 82765 32/98 90901 10274 20243 39900 40139 333 10333 29075 55102 58008;EQDQ01  00002PRCP06
0196827650999992003060412004-07330-047470FM-12+021299999V0201101N000512200019N0200001N1+02601+02251101701ADDAA106000091GA1001+999999999GF100991001001999999001001KA1240N+02191MA1999999099301MD1999999+0031REMSYN070AAXX  04124 82765 32998 01101 10260 20225 39930 40170 333 20219 58003;EQDQ01  00002PRCP06
0167827650999992003060418004-07330-047470FM-12+021299999V0201101N000512200019N0200001N1+03281+02291101331ADDAA106000091GF103991031011008001001001MA1999999098941MD1999999+0071REMSYN070AAXX  04184 82765 32598 31101 10328 20229 39894 40133 83100 333 58007;EQDQ01  00002PRCP06
0208827650999992003060500004-07330-047470FM-12+021299999V0209999C000012200019N0200001N1+02781+02421101331ADDAA106000091GA1001+999999999GF100991001001999999001001KA1240M+03401MA1999999098941MD1999999-0061REMSYN082AAXX  05004 82765 32998 00000 10278 20242 39894 40133 333 10340 29075 55107 59006;EQDQ01  00002PRCP06
0186827650999992003060512004-07330-047470FM-12+021299999V0209999C000012200019N0200001N1+02511+02311101671ADDAA106000091GF105991031001017501061041KA1240N+02201MA1999999099271MD1999999-0031REMSYN076AAXX  05124 82765 32798 50000 10251 20231 39927 40167 83064 333 20220 59003;EQDQ01  00002PRCP06
0167827650999992003060518004-07330-047470FM-12+021299999V0201601N002112200019N0200001N1+03251+02161101311ADDAA106000091GF104991031021008001051001MA1999999098921MD1999999-0021REMSYN070AAXX  05184 82765 32598 41604 10325 20216 39892 40131 83250 333 59002;EQDQ01  00002PRCP06
0208827650999992003060600004-07330-047470FM-12+021299999V0209999C000012200019N0200001N1+02801+02401101491ADDAA106000091GA1001+999999999GF100991001001999999001001KA1240M+03371MA1999999099091MD1999999+0151REMSYN082AAXX  06004 82765 32998 00000 10280 20240 39909 40149 333 10337 29075 55106 58015;EQDQ01  00002PRCP06
0186827650999992003060612004-07330-047470FM-12+021299999V0200701N001512200019N0200001N1+02641+02231101711ADDAA106000091GF103991011011012501031041KA1240N+02231MA1999999099311MD1999999+0041REMSYN076AAXX  06124 82765 32698 30703 10264 20223 39931 40171 81134 333 20223 58004;EQDQ01  00002PRCP06
0167827650999992003060618004-07330-047470FM-12+021299999V0201401N001510450019N0200001N1+03251+02161101271ADDAA106000091GF106991031011008001011041MA1999999098891MD1999999-0031REMSYN070AAXX  06184 82765 32598 61403 10325 20216 39889 40127 83114 333 59003;EQDQ01  00002PRCP06
0208827650999992003060700004-07330-047470FM-12+021299999V0209999C000012200019N0200001N1+02791+02401101541ADDAA106000091GA1001+999999999GF100991001001999999001001KA1240M+03381MA1999999099151MD1999999+0061REMSYN082AAXX  07004 82765 32998 00000 10279 20240 39915 40154 333 10338 29073 55097 58006;EQDQ01  00002PRCP06
0186827650999992003060712004-07330-047470FM-12+021299999V0201601N001012200019N0200001N1+02671+02221101661ADDAA106000091GF103991011021012501051041KA1240N+02151MA1999999099271MD1999999-0041REMSYN076AAXX  07124 82765 32698 31602 10267 20222 39927 40166 81254 333 20215 59004;EQDQ01  00002PRCP06
0167827650999992003060718004-07330-047470FM-12+021299999V0201801N002612200019N0200001N1+03261+02151101291ADDAA106000091GF104991021021008001051041MA1999999098901MD1999999-0011REMSYN070AAXX  07184 82765 32598 41805 10326 20215 39890 40129 82254 333 59001;EQDQ01  00002PRCP06
0208827650999992003060800004-07330-047470FM-12+021299999V0200901N000512200019N0200001N1+02721+02391101481ADDAA106000091GA1001+999999999GF100991001001999999001001KA1240M+03391MA1999999099091MD1999999-0061REMSYN082AAXX  08004 82765 32998 00901 10272 20239 39909 40148 333 10339 29073 55100 59006;EQDQ01  00002PRCP06
0186827650999992003060812004-07330-047470FM-12+021299999V0209999C000012200019N0200001N1+02561+02171101661ADDAA106000091GF101991011011008001001001KA1240N+02011MA1999999099261MD1999999-0011REMSYN076AAXX  08124 82765 32598 10000 10256 20217 39926 40166 81100 333 20201 59001;EQDQ01  00002PRCP06
0198827650999992003060900004-07330-047470FM-12+021299999V0209999C000012200019N0200001N1+02721+02321101571ADDAA106000091GF102991021011008001001001KA1240M+03341MA1999999099171MD1999999+0081REMSYN088AAXX  09004 82765 32598 20000 10272 20232 39917 40157 82100 333 10334 29071 55107 58008;EQDQ01  00002PRCP06
0186827650999992003060912004-07330-047470FM-12+021299999V0201401N001012200019N0200001N1+02441+02011101711ADDAA106000091GF102991011011008001001041KA1240N+01971MA1999999099301MD1999999+0041REMSYN076AAXX  09124 82765 32598 21402 10244 20201 39930 40171 81104 333 20197 58004;EQDQ01  00002PRCP06
0167827650999992003060918004-07330-047470FM-12+021299999V0201401N002112200019N0200001N1+03281+01961101361ADDAA106000091GF102991021011008001001001MA1999999098961MD1999999+0031REMSYN070AAXX  09184 82765 32598 21404 10328 20196 39896 40136 82100 333 58003;EQDQ01  00002PRCP06
0208827650999992003061000004-07330-047470FM-12+021299999V0200901N000512200019N0200001N1+02721+02321101581ADDAA106000091GA1001+999999999GF100991001001999999001001KA1240M+03381MA1999999099181MD1999999+0011REMSYN082AAXX  10004 82765 32998 00901 10272 20232 39918 40158 333 10338 29070 55105 58001;EQDQ01  00002PRCP06
0186827650999992003061012004-07330-047470FM-12+021299999V0201601N000512200019N0200001N1+02461+02031101801ADDAA106000091GF102991011011008001001041KA1240N+02031MA1999999099391MD1999999+0091REMSYN076AAXX  10124 82765 32598 21601 10246 20203 39939 40180 81104 333 20203 58009;EQDQ01  00002PRCP06
0208827650999992003061100004-07330-047470FM-12+021299999V0209999C000012200019N0200001N1+02601+02211102661ADDAA106000091GA1001+999999999GF100991001001999999001001KA1240M+03301MA1999999099251MD1999999+0071REMSYN082AAXX  11004 82765 32998 00000 10260 20221 39925 40266 333 10330 29070 55106 58007;EQDQ01  00002PRCP06
0186827650999992003061112004-07330-047470FM-12+021299999V0200901N000512200019N0200001N1+02521+02051101671ADDAA106000091GF102991011001017501051041KA1240N+02011MA1999999099261MD1999999-0131REMSYN076AAXX  11124 82765 32798 20901 10252 20205 39926 40167 81054 333 20201 59013;EQDQ01  00002PRCP06
0167827650999992003061118004-07330-047470FM-12+021299999V0201101N002612200019N0200001N1+03301+02121101351ADDAA106000091GF104991041011008001001001MA1999999098961MD1999999-0081REMSYN070AAXX  11184 82765 32598 41105 10330 20212 39896 40135 84100 333 59008;EQDQ01  00002PRCP06
0208827650999992003061200004-07330-047470FM-12+021299999V0209999C000012200019N0200001N1+02821+02461101481ADDAA106000091GA1001+999999999GF100991001001999999001001KA1240M+03421MA1999999099081MD1999999-0171REMSYN082AAXX  12004 82765 32998 00000 10282 20246 39908 40148 333 10342 29072 55106 59017;EQDQ01  00002PRCP06
0186827650999992003061212004-07330-047470FM-12+021299999V0200501N000510450019N0200001N1+02541+02191101631ADDAA106000091GF106991031011008001051001KA1240N+02161MA1999999099241MD1999999+0021REMSYN076AAXX  12124 82765 32598 60501 10254 20219 39924 40163 83150 333 20216 58002;EQDQ01  00002PRCP06
0167827650999992003061218004-07330-047470FM-12+021299999V0201801N002110075019N0200001N1+03341+02021101131ADDAA106000091GF105991051021008001001001MA1999999098751MD1999999+0211REMSYN070AAXX  12184 82765 32598 51804 10334 20202 39875 40113 85200 333 58021;EQDQ01  00002PRCP06
0208827650999992003061300004-07330-047470FM-12+021299999V0209999C000012200019N0200001N1+02821+02401101361ADDAA106000091GA1001+999999999GF100991001001999999001001KA1240M+03471MA1999999098971MD1999999-0111REMSYN082AAXX  13004 82765 32998 00000 10282 20240 39897 40136 333 10347 29070 55097 59011;EQDQ01  00002PRCP06
0196827650999992003061312004-07330-047470FM-12+021299999V0200901N001012200019N0200001N1+02621+02051101421ADDAA106000091GA1001+999999999GF100991001001999999001001KA1240N+02121MA1999999099031MD1999999-0211REMSYN070AAXX  13124 82765 32998 00902 10262 20205 39903 40142 333 20212 59021;EQDQ01  00002PRCP06
0167827650999992003061318004-07330-047470FM-12+021299999V0201401N002110075019N0200001N1+03361+02171101051ADDAA106000091GF105991051011008001001001MA1999999098671MD1999999-0081REMSYN070AAXX  13184 82765 32598 51404 10336 20217 39867 40105 85100 333 59008;EQDQ01  00002PRCP06
0198827650999992003061400004-07330-047470FM-12+021299999V0209999C000012200019N0200001N1+02881+02371101371ADDAA106000091GF103991031001008001031001KA1240M+03481MA1999999098991MD1999999+0021REMSYN088AAXX  14004 82765 32598 30000 10288 20237 39899 40137 83030 333 10348 29067 55103 58002;EQDQ01  00002PRCP06
0186827650999992003061412004-07330-047470FM-12+021299999V0201401N001012200019N0200001N1+02561+02151101621ADDAA106000091GF102991011001017501011041KA1240N+02261MA1999999099231MD1999999+0201REMSYN076AAXX  14124 82765 32798 21402 10256 20215 39923 40162 81014 333 20226 58020;EQDQ01  00002PRCP06
0167827650999992003061418004-07330-047470FM-12+021299999V0201601N001512200019N0200001N1+03261+02021101221ADDAA106000091GF103991021001017501011041MA1999999098841MD1999999+0171REMSYN070AAXX  14184 82765 32798 31603 10326 20202 39884 40122 82014 333 58017;EQDQ01  00002PRCP06
0198827650999992003061500004-07330-047470FM-12+021299999V0200901N000510150019N0200001N1+02741+02341101421ADDAA106000091GF108991081001017501011999KA1240M+03441MA1999999099031MD1999999+0041REMSYN088AAXX  15004 82765 32798 80901 10274 20234 39903 40142 8801/ 333 10344 29071 55095 58004;EQDQ01  00002PRCP06
0186827650999992003061512004-07330-047470FM-12+021299999V0201601N000512200019N0200001N1+02531+02151101671ADDAA106000091GF102991011001017501011041KA1240N+02101MA1999999099271MD1999999+0041REMSYN076AAXX  15124 82765 32798 21601 10253 20215 39927 40167 81014 333 20210 58004;EQDQ01  00002PRCP06
0167827650999992003061518004-07330-047470FM-12+021299999V0201601N002612200019N0200001N1+03281+02001101301ADDAA106000091GF103991011011012501061041MA1999999098911MD1999999-0121REMSYN070AAXX  15184 82765 32698 31605 10328 20200 39891 40130 81164 333 59012;EQDQ01  00002PRCP06
0208827650999992003061600004-07330-047470FM-12+021299999V0209999C000012200019N0200001N1+02661+02221101531ADDAA106000091GA1001+999999999GF100991001001999999001001KA1240M+03451MA1999999099131MD1999999+0101REMSYN082AAXX  16004 82765 32998 00000 10266 20222 39913 40153 333 10345 29070 55106 58010;EQDQ01  00002PRCP06
0186827650999992003061612004-07330-047470FM-12+021299999V0201801N001512200019N0200001N1+02391+02011101731ADDAA106000091GF103991011011008001031041KA1240N+01951MA1999999099311MD1999999+0041REMSYN076AAXX  16124 82765 32598 31803 10239 20201 39931 40173 81134 333 20195 58004;EQDQ01  00002PRCP06
0167827650999992003061618004-07330-047470FM-12+021299999V0201601N002112200019N0200001N1+03291+02071101331ADDAA106000091GF105991031021008001001041MA1999999098931MD1999999+0021REMSYN070AAXX  16184 82765 32598 51604 10329 20207 39893 40133 83204 333 58002;EQDQ01  00002PRCP06
0198827650999992003061700004-07330-047470FM-12+021299999V0200901N001012200019N0200001N1+02701+02301101521ADDAA106000091GF101991011011008001001001KA1240M+03421MA1999999099121MD1999999-0011REMSYN088AAXX  17004 82765 32598 10902 10270 20230 39912 40152 81100 333 10342 29072 55102 59001;EQDQ01  00002PRCP06
0186827650999992003061712004-07330-047470FM-12+021299999V0201401N003612200019N0200001N1+02701+02261101691ADDAA106000091GF103991021011008001041001KA1240N+02391MA1999999099291MD1999999-0021REMSYN076AAXX  17124 82765 32598 31407 10270 20226 39929 40169 82140 333 20239 59002;EQDQ01  00002PRCP06
0183827650999992003061718004-07330-047470FM-12+021299999V0201101N001519999999N0200001N1+03261+02021101321ADDAA106000091GF106991999011008001001001MA1999999098961MD1999999+0031REMSYN070AAXX  17184 82765 32598 61103 10326 20202 39896 40132 83100 333 58003;EQDQ01+000032SCOTLCQ02  00002PRCP06
0198827650999992003061800004-07330-047470FM-12+021299999V0200701N000512200019N0200001N1+02741+02301101501ADDAA106000091GF102991021011008001001001KA1240M+03401MA1999999099111MD1999999-0011REMSYN088AAXX  18004 82765 32598 20701 10274 20230 39911 40150 82100 333 10340 29070 55091 59001;EQDQ01  00002PRCP06
0186827650999992003061812004-07330-047470FM-12+021299999V0209999C000010120019N0200001N1+02521+02231101781ADDAA106000091GF107991061081008001041001KA1240N+02331MA1999999099381MD1999999+0091REMSYN076AAXX  18124 82765 32598 70000 10252 20223 39938 40178 86840 333 20233 58009;EQDQ01  00002PRCP06
0167827650999992003061818004-07330-047470FM-12+021299999V0201601N001512200019N0200001N1+03301+02121101431ADDAA106000091GF104991041011008001001001MA1999999099051MD1999999+0091REMSYN070AAXX  18184 82765 32598 41603 10330 20212 39905 40143 84100 333 58009;EQDQ01  00002PRCP06
0208827650999992003061900004-07330-047470FM-12+021299999V0200701N001012200019N0200001N1+02721+02321101551ADDAA106000091GA1001+999999999GF100991001001999999001001KA1240M+03461MA1999999099151MD1999999+0041REMSYN082AAXX  19004 82765 32598 00702 10272 20232 39915 40155 333 10346 29073 55080 58004;EQDQ01  00002PRCP06
0196827650999992003061912004-07330-047470FM-12+021299999V0201401N000512200019N0200001N1+02561+02131101731ADDAA106000091GA1001+999999999GF100991001001999999001001KA1240N+02091MA1999999099341MD1999999-0041REMSYN070AAXX  19124 82765 32998 01401 10256 20213 39934 40173 333 20209 59004;EQDQ01  00002PRCP06
0167827650999992003061918004-07330-047470FM-12+021299999V0200701N002612200019N0200001N1+03401+01891101381ADDAA106000091GF103991031011008001001001MA1999999099001MD1999999-0051REMSYN070AAXX  19184 82765 32598 30705 10340 20189 39900 40138 83100 333 59005;EQDQ01  00002PRCP06
0208827650999992003062000004-07330-047470FM-12+021299999V0200901N000512200019N0200001N1+02801+02311101631ADDAA106000091GA1001+999999999GF100991001001999999001001KA1240M+03501MA1999999099211MD1999999+0061REMSYN082AAXX  20004 82765 32998 00901 10280 20231 39921 40163 333 10350 29067 55103 58006;EQDQ01  00002PRCP06
0196827650999992003062012004-07330-047470FM-12+021299999V0200901N000512200019N0200001N1+02571+02061101401ADDAA106000091GA1001+999999999GF100991001001999999001001KA1240N+02101MA1999999099301MD1999999+0041REMSYN070AAXX  20124 82765 32998 00901 10257 20206 39930 40140 333 20210 58004;EQDQ01  00002PRCP06
0167827650999992003062018004-07330-047470FM-12+021299999V0201801N001510450019N0200001N1+03341+02021101351ADDAA106000091GF106991041021008001031001MA1999999098961MD1999999-0041REMSYN070AAXX  20184 82765 32598 61803 10334 20202 39896 40135 84230 333 59004;EQDQ01  00002PRCP06
0186827650999992003062112004-07330-047470FM-12+021299999V0209999C000010075019N0200001N1+02541+02151101811ADDAA106000091GF105991051031008001001001KA1240N+02231MA1999999099401MD1999999+0101REMSYN076AAXX  21124 82765 32598 50000 10254 20215 39940 40181 85300 333 20223 58010;EQDQ01  00002PRCP06
0171827650999992003062118004-07330-047470FM-12+021299999V0200501N002112200019N0200001N1+03071+02211101391ADDAY151061AY201061GF104991021021008001031001MA1999999099001MD1999999+0041MW1021REMSYN082AAXX  21184 82765 21598 40504 10307 20221 39900 40139 70250 82230 333 58004 60051;
0208827650999992003062200004-07330-047470FM-12+021299999V0200901N001012200019N0200001N1+02641+02371101551ADDAA106000091GA1001+999999999GF100991001001999999001001KA1240M+03261MA1999999099151MD1999999+0021REMSYN082AAXX  22004 82765 32998 00902 10264 20237 39915 40155 333 10326 29077 55085 58002;EQDQ01  00002PRCP06
0162827650999992003062212004-07330-047470FM-12+021299999V0201401N001012200019N0200001N1+02561+02331101711ADDGF104991041001012501031001KA1240N+02231MA1999999099301MD1999999+0101REMSYN082AAXX  22124 82765 22698 41402 10256 20233 39930 40171 84030 333 20223 58010 60054;
0190827650999992003062312004-07330-047470FM-12+021299999V0201401N001010120019N0200001N1+02491+02401101671ADDAY161061AY221061GF107991071081008001001001KA1240N+02401MA1999999099271MD1999999-0041MW1031REMSYN088AAXX  23124 82765 21598 71402 10249 20240 39927 40167 70362 87800 333 20240 59004 60024;
0171827650999992003062318004-07330-047470FM-12+021299999V0202301N002610042019N0100001N1+02461+02301101481ADDAY161061AY221061GF108991051021004501021999MA1999999099061MD1999999+0221MW1611REMSYN082AAXX  23184 82765 21497 82305 10246 20230 39906 40148 76162 8522/ 333 58022 60081;
0212827650999992003062400004-07330-047470FM-12+021299999V0209999C000012200019N0200001N1+02391+02311101641ADDAY161061AY221061GA1001+999999999GF100991001001999999001001KA1240M+02801MA1999999099221MD1999999+0181MW1001REMSYN094AAXX  24004 82765 21998 00000 10239 20231 39922 40164 70062 333 10280 29094 55014 58018 60021;
0190827650999992003062412004-07330-047470FM-12+021299999V0200501N000510075019N0200001N1+02361+02281101931ADDAY151061AY221061GF107991051021008001031001KA1240N+02261MA1999999099501MD1999999+0231MW1031REMSYN088AAXX  24124 82765 21598 70501 10236 20228 39950 40193 70352 85230 333 20226 58023 60104;
0167827650999992003062418004-07330-047470FM-12+021299999V0201101N002612200019N0200001N1+03161+02081101491ADDAA106000091GF104991021011008001011041MA1999999099101MD1999999+0041REMSYN070AAXX  24184 82765 32598 41105 10316 20208 39910 40149 82114 333 58004;EQDQ01  00002PRCP06
0208827650999992003062500004-07330-047470FM-12+021299999V0209999C000012200019N0200001N1+02721+02501101631ADDAA106000091GA1001+999999999GF100991001001999999001001KA1240M+03341MA1999999099221MD1999999+0001REMSYN082AAXX  25004 82765 32998 00000 10272 20250 39922 40163 333 10334 29081 55068 58000;EQDQ01  00002PRCP06
0186827650999992003062512004-07330-047470FM-12+021299999V0201801N001012200019N0200001N1+02461+02111101901ADDAA106000091GF103991011011008001061041KA1240N+02141MA1999999099491MD1999999-0011REMSYN076AAXX  25124 82765 32598 31802 10246 20211 39949 40190 81164 333 20214 59001;EQDQ01  00002PRCP06
0167827650999992003062518004-07330-047470FM-12+021299999V0200901N005112200019N0200001N1+03311+02091101421ADDAA106000091GF104991021021008001051041MA1999999099031MD1999999-0071REMSYN070AAXX  25184 82765 32598 40910 10331 20209 39903 40142 82254 333 59007;EQDQ01  00002PRCP06
0208827650999992003062600004-07330-047470FM-12+021299999V0201101N001012200019N0200001N1+02801+02311101551ADDAA106000091GA1001+999999999GF100991001001999999001001KA1240M+03441MA1999999099151MD1999999-0071REMSYN082AAXX  26004 82765 32998 01102 10280 20231 39915 40155 333 10344 29070 55101 59007;EQDQ01  00002PRCP06
0186827650999992003062612004-07330-047470FM-12+021299999V0201401N000512200019N0200001N1+02541+02151101791ADDAA106000091GF103991031021008001001001KA1240N+02231MA1999999099391MD1999999-0101REMSYN076AAXX  26124 82765 32598 31401 10254 20215 39939 40179 83200 333 20223 59010;EQDQ01  00002PRCP06
0167827650999992003062618004-07330-047470FM-12+021299999V0200901N002112200019N0200001N1+03301+02021101351ADDAA106000091GF104991041021008001001001MA1999999098971MD1999999-0061REMSYN070AAXX  26184 82765 32598 40904 10330 20202 39897 40135 84200 333 59006;EQDQ01  00002PRCP06
0208827650999992003062700004-07330-047470FM-12+021299999V0209999C000012200019N0200001N1+02781+02341101491ADDAA106000091GA1001+999999999GF100991001001999999001001KA1240M+03441MA1999999099091MD1999999-0061REMSYN082AAXX  27004 82765 32998 00000 10278 20234 39909 40149 333 10344 29070 55102 59006;EQDQ01  00002PRCP06
0196827650999992003062712004-07330-047470FM-12+021299999V0200901N001012200019N0200001N1+02721+02191101721ADDAA106000091GA1001+999999999GF100991001001999999001001KA1240N+02281MA1999999099331MD1999999+0061REMSYN070AAXX  27124 82765 32998 00902 10272 20219 39933 40172 333 20228 58006;EQDQ01  00002PRCP06
0167827650999992003062718004-07330-047470FM-12+021299999V0201801N001512200019N0200001N1+03281+02001101311ADDAA106000091GF103991031011008001001001MA1999999098931MD1999999+0041REMSYN070AAXX  27184 82765 32598 31803 10328 20200 39893 40131 83100 333 58004;EQDQ01  00002PRCP06
0208827650999992003062800004-07330-047470FM-12+021299999V0201101N000512200019N0200001N1+02741+02241101541ADDAA106000091GA1001+999999999GF100991001001999999001001KA1240M+03401MA1999999099151MD1999999+0061REMSYN082AAXX  28004 82765 32998 01101 10274 20224 39915 40154 333 10340 29067 55108 58006;EQDQ01  00002PRCP06
0196827650999992003062812004-07330-047470FM-12+021299999V0201401N000512200019N0200001N1+02561+02081101891ADDAA106000091GA1001+999999999GF100991001001999999001001KA1240N+02161MA1999999099481MD1999999+0151REMSYN070AAXX  28124 82765 32998 01401 10256 20208 39948 40189 333 20216 58015;EQDQ01  00002PRCP06
0167827650999992003062818004-07330-047470FM-12+021299999V0200901N002112200019N0200001N1+03241+01581101441ADDAA106000091GF102991021011008001001001MA1999999099051MD1999999+0121REMSYN070AAXX  28184 82765 32598 20904 10324 20158 39905 40144 82100 333 58012;EQDQ01  00002PRCP06
0208827650999992003062900004-07330-047470FM-12+021299999V0209999C000012200019N0200001N1+02641+02091101641ADDAA106000091GA1001+999999999GF100991001001999999001001KA1240M+03361MA1999999099241MD1999999+0091REMSYN082AAXX  29004 82765 32998 00000 10264 20209 39924 40164 333 10336 29064 55105 58009;EQDQ01  00002PRCP06
0196827650999992003062912004-07330-047470FM-12+021299999V0209999C000012200019N0200001N1+02351+01781101861ADDAA106000091GA1001+999999999GF100991001001999999001001KA1240N+01801MA1999999099441MD1999999-0041REMSYN070AAXX  29124 82765 32998 00000 10235 20178 39944 40186 333 20180 59004;EQDQ01  00002PRCP06
0167827650999992003062918004-07330-047470FM-12+021299999V0201401N001512200019N0200001N1+03221+01881101451ADDAA106000091GF103991031011008001001001MA1999999099041MD1999999-0011REMSYN070AAXX  29184 82765 32598 31403 10322 20188 39904 40145 83100 333 59001;EQDQ01  00002PRCP06
0208827650999992003063000004-07330-047470FM-12+021299999V0209999C000012200019N0200001N1+02681+02201101631ADDAA106000091GA1001+999999999GF100991001001999999001001KA1240M+03391MA1999999099221MD1999999-0021REMSYN082AAXX  30004 82765 32998 00000 10268 20220 39922 40163 333 10339 29066 55106 59002;EQDQ01  00002PRCP06
0196827650999992003063012004-07330-047470FM-12+021299999V0202301N001012200019N0200001N1+02381+01911101861ADDAA106000091GA1001+999999999GF100991001001999999001001KA1240N+01961MA1999999099451MD1999999+0061REMSYN070AAXX  30124 82765 32998 02302 10238 20191 39945 40186 333 20196 58006;EQDQ01  00002PRCP06
0167827650999992003063018004-07330-047470FM-12+021299999V0201801N001012200019N0200001N1+03291+01861101421ADDAA106000091GF104991041021008001001001MA1999999099021MD1999999-0021REMSYN070AAXX  30184 82765 32598 41802 10329 20186 39902 40142 84200 333 59002;EQDQ01  00002PRCP06
0208827650999992003070100004-07330-047470FM-12+021299999V0201401N001012200019N0200001N1+02701+02151101631ADDAA106000091GA1001+999999999GF100991001001999999001001KA1240M+03441MA1999999099221MD1999999+0001REMSYN082AAXX  01004 82765 32998 01402 10270 20215 39922 40163 333 10344 29066 55100 58000;EQDQ01  00002PRCP06
0186827650999992003070112004-07330-047470FM-12+021299999V0201401N002612200019N0200001N1+02471+01851101861ADDAA106000091GF102991021011008001001001KA1240N+01961MA1999999099451MD1999999+0001REMSYN076AAXX  01124 82765 32598 21405 10247 20185 39945 40186 82100 333 20196 58000;EQDQ01  00002PRCP06
0167827650999992003070118004-07330-047470FM-12+021299999V0201101N002612200019N0200001N1+03281+01861101501ADDAA106000091GF104991041021008001001001MA1999999099101MD1999999+0081REMSYN070AAXX  01184 82765 32598 41105 10328 20186 39910 40150 84200 333 58008;EQDQ01  00002PRCP06
0186827650999992003070212004-07330-047470FM-12+021299999V0201401N001019999999N0200001N1+02401+02281101981ADDAA106000091GF106991061001008001031001KA1240N+02131MA1999999099481MD1999999+0031REMSYN076AAXX  02124 82765 32598 61402 10240 20228 39948 40198 86030 333 20213 58003;EQDQ01  00002PRCP06
0167827650999992003070218004-07330-047470FM-12+021299999V0201801N002112200019N0200001N1+03241+01931101451ADDAA106000091GF104991041011008001001001MA1999999099061MD1999999-0041REMSYN070AAXX  02184 82765 32598 41804 10324 20193 39906 40145 84100 333 59004;EQDQ01  00002PRCP06
0208827650999992003070300004-07330-047470FM-12+021299999V0209999C000012200019N0200001N1+02791+02271101671ADDAA106000091GA1001+999999999GF100991001001999999001001KA1240M+03391MA1999999099261MD1999999+0011REMSYN082AAXX  03004 82765 32998 00000 10279 20227 39926 40167 333 10339 29072 55095 58001;EQDQ01  00002PRCP06
0196827650999992003070312004-07330-047470FM-12+021299999V0209999C000012200019N0200001N1+02571+02081101811ADDAA106000091GA1001+999999999GF100991001001999999001001KA1240N+02111MA1999999099411MD1999999+0071REMSYN070AAXX  03124 82765 32998 00000 10257 20208 39941 40181 333 20211 58007;EQDQ01  00002PRCP06
0167827650999992003070318004-07330-047470FM-12+021299999V0200901N001510075019N0200001N1+03341+01981101411ADDAA106000091GF105991051021008001001001MA1999999099021MD1999999+0041REMSYN070AAXX  03184 82765 32598 50903 10334 20198 39902 40141 85200 333 58004;EQDQ01  00002PRCP06
0208827650999992003070400004-07330-047470FM-12+021299999V0209999C000012200019N0200001N1+02781+02181101531ADDAA106000091GA1001+999999999GF100991001001999999001001KA1240M+03481MA1999999099141MD1999999-0121REMSYN082AAXX  04004 82765 32998 00000 10278 20218 39914 40153 333 10348 29065 55100 59012;EQDQ01  00002PRCP06
0186827650999992003070412004-07330-047470FM-12+021299999V0209999C000019999999N0200001N1+02501+01911101741ADDAA106000091GF106991061001012501051001KA1240N+02001MA1999999099341MD1999999-0071REMSYN076AAXX  04124 82765 32698 60000 10250 20191 39934 40174 86050 333 20200 59007;EQDQ01  00002PRCP06
0167827650999992003070418004-07330-047470FM-12+021299999V0201101N002112200019N0200001N1+03321+02231101271ADDAA106000091GF104991041021008001001001MA1999999098881MD1999999-0141REMSYN070AAXX  04184 82765 32598 41104 10332 20223 39888 40127 84200 333 59014;EQDQ01  00002PRCP06
0208827650999992003070500004-07330-047470FM-12+021299999V0201801N000512200019N0200001N1+02781+02211101381ADDAA106000091GA1001+999999999GF100991001001999999001001KA1240M+03481MA1999999098991MD1999999-0151REMSYN082AAXX  05004 82765 32998 01801 10278 20221 39899 40138 333 10348 29066 55096 59015;EQDQ01  00002PRCP06
0186827650999992003070512004-07330-047470FM-12+021299999V0201101N001512200019N0200001N1+02571+02041101621ADDAA106000091GF103991021011008001001041KA1240N+02021MA1999999099231MD1999999-0111REMSYN076AAXX  05124 82765 32598 31103 10257 20204 39923 40162 82104 333 20202 59011;EQDQ01  00002PRCP06
0167827650999992003070518004-07330-047470FM-12+021299999V0201401N002112200019N0200001N1+03341+01981101221ADDAA106000091GF104991041011008001001001MA1999999098851MD1999999-0031REMSYN070AAXX  05184 82765 32598 41404 10334 20198 39885 40122 84100 333 59003;EQDQ01  00002PRCP06
0208827650999992003070600004-07330-047470FM-12+021299999V0201101N001512200019N0200001N1+02651+02031101401ADDAA106000091GA1001+999999999GF100991001001999999001001KA1240M+03501MA1999999099001MD1999999+0011REMSYN082AAXX  06004 82765 32998 01103 10265 20203 39900 40140 333 10350 29064 55103 58001;EQDQ01  00002PRCP06
0196827650999992003070612004-07330-047470FM-12+021299999V0201101N001012200019N0200001N1+02421+01861101631ADDAA106000091GA1001+999999999GF100991001001999999001001KA1240N+02001MA1999999099221MD1999999+0011REMSYN070AAXX  06124 82765 32998 01102 10242 20186 39922 40163 333 20200 58001;EQDQ01  00002PRCP06
0167827650999992003070618004-07330-047470FM-12+021299999V0200901N001512200019N0200001N1+03361+01601101221ADDAA106000091GF102991021011008001001001MA1999999098841MD1999999-0011REMSYN070AAXX  06184 82765 32598 20903 10336 20160 39884 40122 82100 333 59001;EQDQ01  00002PRCP06
0208827650999992003070700004-07330-047470FM-12+021299999V0200901N001512200019N0200001N1+02621+01911101481ADDAA106000091GA1001+999999999GF100991001001999999001001KA1240M+03481MA1999999099071MD1999999+0071REMSYN082AAXX  07004 82765 32998 00903 10262 20191 39907 40148 333 10348 29060 55105 58007;EQDQ01  00002PRCP06
0196827650999992003070712004-07330-047470FM-12+021299999V0209999C000012200019N0200001N1+02301+01771101751ADDAA106000091GA1001+999999999GF100991001001999999001001KA1240N+01791MA1999999099331MD1999999+0111REMSYN070AAXX  07124 82765 32998 00000 10230 20177 39933 40175 333 20179 58011;EQDQ01  00002PRCP06
0177827650999992003070718004-07330-047470FM-12+021299999V0200901N001512200019N0200001N1+03471+01641101261ADDAA106000091GA1001+999999999GF100991001001999999001001MA1999999098881MD1999999+0041REMSYN064AAXX  07184 82765 32998 00903 10347 20164 39888 40126 333 58004;EQDQ01  00002PRCP06
0208827650999992003070800004-07330-047470FM-12+021299999V0200901N001512200019N0200001N1+02671+01971101381ADDAA106000091GA1001+999999999GF100991001001999999001001KA1240M+03171MA1999999098971MD1999999-0101REMSYN082AAXX  08004 82765 32998 00903 10267 20197 39897 40138 333 10317 29059 55107 59010;EQDQ01  00002PRCP06
0186827650999992003070812004-07330-047470FM-12+021299999V0201801N001512200019N0200001N1+02441+01921101741ADDAA106000091GF103991031011008001001001KA1240N+02051MA1999999099331MD1999999+0001REMSYN076AAXX  08124 82765 32598 31803 10244 20192 39933 40174 83100 333 20205 58000;EQDQ01  00002PRCP06
0167827650999992003070818004-07330-047470FM-12+021299999V0201101N002110075019N0200001N1+03331+01911101341ADDAA106000091GF105991051021008001001001MA1999999098951MD1999999+0071REMSYN070AAXX  08184 82765 32598 51104 10333 20191 39895 40134 85200 333 58007;EQDQ01  00002PRCP06
0196827650999992003070912004-07330-047470FM-12+021299999V0201401N001012200019N0200001N1+02491+01941101691ADDAA106000091GA1001+999999999GF100991001001999999001001KA1240N+02011MA1999999099281MD1999999-0051REMSYN070AAXX  09124 82765 32998 01402 10249 20194 39928 40169 333 20201 59005;EQDQ01  00002PRCP06
0208827650999992003071000004-07333-047467FM-12+021299999V0201101N000512200019N0200001N1+02751+02141101471ADDAA106000091GA1001+999999999GF100991001001999999001001KA1240M+03481MA1999999099071MD1999999+0021REMSYN082AAXX  10004 82765 32998 01101 10275 20214 39907 40147 333 10348 29063 55108 58002;EQDQ01  00002PRCP06
0196827650999992003071012004-07333-047467FM-12+021299999V0200901N001512200019N0200001N1+02571+01901101681ADDAA106000091GA1001+999999999GF100991001001999999001001KA1240N+01931MA1999999099281MD1999999+0001REMSYN070AAXX  10124 82765 32998 00903 10257 20190 39928 40168 333 20193 58000;EQDQ01  00002PRCP06
0167827650999992003071018004-07333-047467FM-12+021299999V0201801N002112200019N0200001N1+03401+01851101281ADDAA106000091GF102991021011008001001001MA1999999098891MD1999999-0101REMSYN070AAXX  10184 82765 32598 21804 10340 20185 39889 40128 82100 333 59010;EQDQ01  00002PRCP06
0198827650999992003071100004-07333-047467FM-12+021299999V0209999C000012200019N0200001N1+02741+02101101541ADDAA106000091GF102991021001012501031001KA1240M+03521MA1999999099141MD1999999+0071REMSYN088AAXX  11004 82765 32698 20000 10274 20210 39914 40154 82030 333 10352 29060 55107 58007;EQDQ01  00002PRCP06
0196827650999992003071112004-07333-047467FM-12+021299999V0201601N000512200019N0200001N1+02271+01841101811ADDAA106000091GA1001+999999999GF100991001001999999001001KA1240N+01791MA1999999099391MD1999999+0111REMSYN070AAXX  11124 82765 32998 01601 10227 20184 39939 40181 333 20179 58011;EQDQ01  00002PRCP06
0167827650999992003071118004-07333-047467FM-12+021299999V0200901N001512200019N0200001N1+03411+01811101381ADDAA106000091GF103991021011008001011001MA1999999098981MD1999999+0091REMSYN070AAXX  11184 82765 32598 30903 10341 20181 39898 40138 82110 333 58009;EQDQ01  00002PRCP06
0198827650999992003071200004-07333-047467FM-12+021299999V0209999C000012200019N0200001N1+02731+02031101621ADDAA106000091GF103991031001017501011001KA1240M+03581MA1999999099211MD1999999+0011REMSYN088AAXX  12004 82765 32798 30000 10273 20203 39921 40162 83010 333 10358 29065 55010 58001;EQDQ01  00002PRCP06
0186827650999992003071212004-07333-047467FM-12+021299999V0202001N001512200019N0200001N1+02501+01871101921ADDAA106000091GF103991021011012501031001KA1240N+01981MA1999999099511MD1999999+0121REMSYN076AAXX  12124 82765 32698 32003 10250 20187 39951 40192 82130 333 20198 58012;EQDQ01  00002PRCP06
0167827650999992003071218004-07333-047467FM-12+021299999V0201401N003112200019N0200001N1+03421+01831101431ADDAA106000091GF104991041021008001001001MA1999999099041MD1999999+0061REMSYN070AAXX  12184 82765 32598 41406 10342 20183 39904 40143 84200 333 58006;EQDQ01  00002PRCP06
0196827650999992003071312004-07333-047467FM-12+021299999V0201401N004112200019N0200001N1+02731+01931101841ADDAA106000091GA1001+999999999GF100991001001999999001001KA1240N+02271MA1999999099451MD1999999-0061REMSYN070AAXX  13124 82765 32998 01408 10273 20193 39945 40184 333 20227 59006;EQDQ01  00002PRCP06
0167827650999992003071318004-07333-047467FM-12+021299999V0201801N003112200019N0200001N1+03271+01881101491ADDAA106000091GF104991041021008001001001MA1999999099111MD1999999+0071REMSYN070AAXX  13184 82765 32598 41806 10327 20188 39911 40149 84200 333 58007;EQDQ01  00002PRCP06
0208827650999992003071400004-07333-047467FM-12+021299999V0201101N001012200019N0200001N1+02781+02111101771ADDAA106000091GA1001+999999999GF100991001001999999001001KA1240M+03431MA1999999099381MD1999999+0141REMSYN082AAXX  14004 82765 32998 01102 10278 20211 39938 40177 333 10343 29060 55107 58014;EQDQ01  00002PRCP06
0196827650999992003071412004-07333-047467FM-12+021299999V0200901N002112200019N0200001N1+02601+01761101911ADDAA106000091GA1001+999999999GF100991001001999999001001KA1240N+02071MA1999999099511MD1999999+0061REMSYN070AAXX  14124 82765 32998 00904 10260 20176 39951 40191 333 20207 58006;EQDQ01  00002PRCP06
0167827650999992003071418004-07333-047467FM-12+021299999V0201801N002112200019N0200001N1+03261+01561101581ADDAA106000091GF103991031011008001001001MA1999999099181MD1999999+0071REMSYN070AAXX  14184 82765 32598 31804 10326 20156 39918 40158 83100 333 58007;EQDQ01  00002PRCP06
0208827650999992003071500004-07333-047467FM-12+021299999V0200901N001012200019N0200001N1+02581+01801101681ADDAA106000091GA1001+999999999GF100991001001999999001001KA1240M+03381MA1999999099271MD1999999-0111REMSYN082AAXX  15004 82765 32998 00902 10258 20180 39927 40168 333 10338 29055 55106 59011;EQDQ01  00002PRCP06
0196827650999992003071512004-07333-047467FM-12+021299999V0201101N002112200019N0200001N1+02501+01671101891ADDAA106000091GA1001+999999999GF100991001001999999001001KA1240N+01891MA1999999099471MD1999999-0041REMSYN070AAXX  15124 82765 32998 01104 10250 20167 39947 40189 333 20189 59004;EQDQ01  00002PRCP06
0177827650999992003071518004-07333-047467FM-12+021299999V0201101N001512200019N0200001N1+03321+01781101461ADDAA106000091GA1001+999999999GF100991001001999999001001MA1999999099061MD1999999-0121REMSYN064AAXX  15184 82765 32998 01103 10332 20178 39906 40146 333 59012;EQDQ01  00002PRCP06
0208827650999992003071600004-07333-047467FM-12+021299999V0201101N000512200019N0200001N1+02761+02071101651ADDAA106000091GA1001+999999999GF100991001001999999001001KA1240M+03451MA1999999099251MD1999999+0021REMSYN082AAXX  16004 82765 32998 01101 10276 20207 39925 40165 333 10345 29058 55109 58002;EQDQ01  00002PRCP06
0196827650999992003071612004-07333-047467FM-12+021299999V0201401N001512200019N0200001N1+02601+01841101921ADDAA106000091GA1001+999999999GF100991001001999999001001KA1240N+02081MA1999999099521MD1999999+0051REMSYN070AAXX  16124 82765 32998 01403 10260 20184 39952 40192 333 20208 58005;EQDQ01  00002PRCP06
0167827650999992003071618004-07333-047467FM-12+021299999V0201401N002112200019N0200001N1+03371+01831101581ADDAA106000091GF103991031011008001001001MA1999999099191MD1999999+0131REMSYN070AAXX  16184 82765 32598 31404 10337 20183 39919 40158 83100 333 58013;EQDQ01  00002PRCP06
0208827650999992003071700004-07333-047467FM-12+021299999V0201101N001512200019N0200001N1+02841+02091101781ADDAA106000091GA1001+999999999GF100991001001999999001001KA1240M+03501MA1999999099381MD1999999+0131REMSYN082AAXX  17004 82765 32998 01103 10284 20209 39938 40178 333 10350 29058 55109 58013;EQDQ01  00002PRCP06
0186827650999992003071712004-07333-047467FM-12+021299999V0201401N005112200019N0200001N1+02511+01821102041ADDAA106000091GF102991011001017501041041KA1240N+02111MA1999999099641MD1999999+0121REMSYN076AAXX  17124 82765 32798 21410 10251 20182 39964 40204 81044 333 20211 58012;EQDQ01  00002PRCP06
0167827650999992003071718004-07333-047467FM-12+021299999V0201401N003610075019N0200001N1+03311+01841101621ADDAA106000091GF105991051021008001001001MA1999999099241MD1999999+0051REMSYN070AAXX  17184 82765 32598 51407 10331 20184 39924 40162 85200 333 58005;EQDQ01  00002PRCP06
0208827650999992003071800004-07333-047467FM-12+021299999V0201401N001012200019N0200001N1+02811+02131101871ADDAA106000091GA1001+999999999GF100991001001999999001001KA1240M+03501MA1999999099461MD1999999+0081REMSYN082AAXX  18004 82765 32998 01402 10281 20213 39946 40187 333 10350 29060 55107 58008;EQDQ01  00002PRCP06
0196827650999992003071812004-07333-047467FM-12+021299999V0201401N005112200019N0200001N1+02661+01901102131ADDAA106000091GA1001+999999999GF100991001001999999001001KA1240N+02171MA1999999099731MD1999999+0091REMSYN070AAXX  18124 82765 32998 01410 10266 20190 39973 40213 333 20217 58009;EQDQ01  00002PRCP06
0167827650999992003071818004-07333-047467FM-12+021299999V0200901N002612200019N0200001N1+03311+01841101731ADDAA106000091GF104991041021008001001001MA1999999099341MD1999999+0101REMSYN070AAXX  18184 82765 32598 40905 10331 20184 39934 40173 84200 333 58010;EQDQ01  00002PRCP06
0208827650999992003071900004-07333-047467FM-12+021299999V0201101N000512200019N0200001N1+02701+02081101901ADDAA106000091GA1001+999999999GF100991001001999999001001KA1240M+03461MA1999999099501MD1999999+0041REMSYN082AAXX  19004 82765 32998 01101 10270 20208 39950 40190 333 10346 29061 55109 58004;EQDQ01  00002PRCP06
0196827650999992003071912004-07333-047467FM-12+021299999V0201401N002112200019N0200001N1+02551+01861102161ADDAA106000091GA1001+999999999GF100991001001999999001001KA1240N+01971MA1999999099741MD1999999+0011REMSYN070AAXX  19124 82765 32998 01404 10255 20186 39974 40216 333 20197 58001;EQDQ01  00002PRCP06
0167827650999992003071918004-07333-047467FM-12+021299999V0201801N003112200019N0200001N1+03361+01731101721ADDAA106000091GF102991021011008001001001MA1999999099331MD1999999-0011REMSYN070AAXX  19184 82765 32598 21806 10336 20173 39933 40172 82100 333 59001;EQDQ01  00002PRCP06
0208827650999992003072000004-07333-047467FM-12+021299999V0209999C000012200019N0200001N1+02741+02121101821ADDAA106000091GA1001+999999999GF100991001001999999001001KA1240M+03501MA1999999099421MD1999999-0081REMSYN082AAXX  20004 82765 32998 00000 10274 20212 39942 40182 333 10350 29060 55109 59008;EQDQ01  00002PRCP06
0196827650999992003072012004-07333-047467FM-12+021299999V0201101N002612200019N0200001N1+02601+01841101961ADDAA106000091GA1001+999999999GF100991001001999999001001KA1240N+01981MA1999999099551MD1999999-0191REMSYN070AAXX  20124 82765 32998 01105 10260 20184 39955 40196 333 20198 59019;EQDQ01  00002PRCP06
0167827650999992003072018004-07333-047467FM-12+021299999V0201801N002612200019N0200001N1+03351+01801101531ADDAA106000091GF104991041021008001001001MA1999999099141MD1999999-0191REMSYN070AAXX  20184 82765 32598 41805 10335 20180 39914 40153 84200 333 59019;EQDQ01  00002PRCP06
0196827650999992003072112004-07333-047467FM-12+021299999V0200901N003112200019N0200001N1+02571+01721101971ADDAA106000091GA1001+999999999GF100991001001999999001001KA1240N+01981MA1999999099561MD1999999+0011REMSYN070AAXX  21124 82765 32998 00906 10257 20172 39956 40197 333 20198 58001;EQDQ01  00002PRCP06
0177827650999992003072118004-07333-047467FM-12+021299999V0201401N001512200019N0200001N1+03301+01681101531ADDAA106000091GA1001+999999999GF100991001001999999001001MA1999999099131MD1999999+0011REMSYN064AAXX  21184 82765 32998 01403 10330 20168 39913 40153 333 58001;EQDQ01  00002PRCP06
0196827650999992003072212004-07333-047467FM-12+021299999V0201101N001012200019N0200001N1+02371+01611101981ADDAA106000091GA1001+999999999GF100991001001999999001001KA1240N+01791MA1999999099561MD1999999+0001REMSYN070AAXX  22124 82765 32998 01102 10237 20161 39956 40198 333 20179 58000;EQDQ01  00002PRCP06
0177827650999992003072218004-07333-047467FM-12+021299999V0200901N002112200019N0200001N1+03371+01621101471ADDAA106000091GA1001+999999999GF100991001001999999001001MA1999999099071MD1999999-0061REMSYN064AAXX  22184 82765 32998 00904 10337 20162 39907 40147 333 59006;EQDQ01  00002PRCP06
0208827650999992003072300004-07333-047467FM-12+021299999V0209999C000012200019N0200001N1+02801+02031101641ADDAA106000091GA1001+999999999GF100991001001999999001001KA1240M+03501MA1999999099241MD1999999-0081REMSYN082AAXX  23004 82765 32998 00000 10280 20203 39924 40164 333 10350 29056 55110 59008;EQDQ01  00002PRCP06
0196827650999992003072312004-07333-047467FM-12+021299999V0201101N005712200019N0200001N1+02551+01601101911ADDAA106000091GA1001+999999999GF100991001001999999001001KA1240N+02011MA1999999099511MD1999999-0051REMSYN070AAXX  23124 82765 32998 01111 10255 20160 39951 40191 333 20201 59005;EQDQ01  00002PRCP06
0177827650999992003072318004-07333-047467FM-12+021299999V0201801N003112200019N0200001N1+03311+01641101441ADDAA106000091GA1001+999999999GF100991001001999999001001MA1999999099051MD1999999-0021REMSYN064AAXX  23184 82765 32998 01806 10331 20164 39905 40144 333 59002;EQDQ01  00002PRCP06
0208827650999992003072400004-07333-047467FM-12+021299999V0201101N001012200019N0200001N1+02701+01991101731ADDAA106000091GA1001+999999999GF100991001001999999001001KA1240M+03461MA1999999099321MD1999999+0081REMSYN082AAXX  24004 82765 32998 01102 10270 20199 39932 40173 333 10346 29056 55109 58008;EQDQ01  00002PRCP06
0196827650999992003072412004-07333-047467FM-12+021299999V0201101N002612200019N0200001N1+02521+01631101881ADDAA106000091GA1001+999999999GF100991001001999999001001KA1240N+01911MA1999999099471MD1999999-0041REMSYN070AAXX  24124 82765 32998 01105 10252 20163 39947 40188 333 20191 59004;EQDQ01  00002PRCP06
0167827650999992003072418004-07333-047467FM-12+021299999V0201401N001512200019N0200001N1+03311+01681101431ADDAA106000091GF102991021011012501001001MA1999999099041MD1999999-0011REMSYN070AAXX  24184 82765 32698 21403 10331 20168 39904 40143 82100 333 59001;EQDQ01  00002PRCP06
0208827650999992003072500004-07333-047467FM-12+021299999V0201101N001512200019N0200001N1+02721+01981101711ADDAA106000091GA1001+999999999GF100991001001999999001001KA1240M+03461MA1999999099301MD1999999-0021REMSYN082AAXX  25004 82765 32998 01103 10272 20198 39930 40171 333 10346 29056 55108 59002;EQDQ01  00002PRCP06
0196827650999992003072512004-07333-047467FM-12+021299999V0201601N001012200019N0200001N1+02251+01901101911ADDAA106000091GA1001+999999999GF100991001001999999001001KA1240N+01951MA1999999099491MD1999999+0021REMSYN070AAXX  25124 82765 32998 01602 10225 20190 39949 40191 333 20195 58002;EQDQ01  00002PRCP06
0167827650999992003072518004-07333-047467FM-12+021299999V0201101N002610075019N0200001N1+03371+01931101501ADDAA106000091GF105991051011008001001001MA1999999099101MD1999999+0061REMSYN070AAXX  25184 82765 32598 51105 10337 20193 39910 40150 85100 333 58006;EQDQ01  00002PRCP06
0196827650999992003072612004-07333-047467FM-12+021299999V0201401N004612200019N0200001N1+02651+01771101951ADDAA106000091GA1001+999999999GF100991001001999999001001KA1240N+02191MA1999999099551MD1999999+0061REMSYN070AAXX  26124 82765 32998 01409 10265 20177 39955 40195 333 20219 58006;EQDQ01  00002PRCP06
0177827650999992003072618004-07333-047467FM-12+021299999V0201801N001012200019N0200001N1+03461+01861101511ADDAA106000091GA1001+999999999GF100991001001999999001001MA1999999099131MD1999999+0031REMSYN064AAXX  26184 82765 32998 01802 10346 20186 39913 40151 333 58003;EQDQ01  00002PRCP06
0208827650999992003072700004-07333-047467FM-12+021299999V0201801N000512200019N0200001N1+02921+02171101611ADDAA106000091GA1001+999999999GF100991001001999999001001KA1240M+03551MA1999999099231MD1999999-0071REMSYN082AAXX  27004 82765 32998 01801 10292 20217 39923 40161 333 10355 29056 55109 59007;EQDQ01  00002PRCP06
0196827650999992003072712004-07333-047467FM-12+021299999V0200901N001512200019N0200001N1+02671+01811101861ADDAA106000091GA1001+999999999GF100991001001999999001001KA1240N+02051MA1999999099471MD1999999-0081REMSYN070AAXX  27124 82765 32998 00903 10267 20181 39947 40186 333 20205 59008;EQDQ01  00002PRCP06
0167827650999992003072718004-07333-047467FM-12+021299999V0200901N002112200019N0200001N1+03421+01871101381ADDAA106000091GF103991031011008001001001MA1999999099001MD1999999+0131REMSYN070AAXX  27184 82765 32598 30904 10342 20187 39900 40138 83100 333 58013;EQDQ01  00002PRCP06
0208827650999992003072800004-07333-047467FM-12+021299999V0201801N001512200019N0200001N1+02891+02231101631ADDAA106000091GA1001+999999999GF100991001001999999001001KA1240M+03571MA1999999099251MD1999999+0021REMSYN082AAXX  28004 82765 32998 01803 10289 20223 39925 40163 333 10357 29058 55109 58002;EQDQ01  00002PRCP06
0196827650999992003072812004-07333-047467FM-12+021299999V0201101N002612200019N0200001N1+02631+01581101821ADDAA106000091GA1001+999999999GF100991001001999999001001KA1240N+02091MA1999999099431MD1999999+0041REMSYN070AAXX  28124 82765 32998 01105 10263 20158 39943 40182 333 20209 58004;EQDQ01  00002PRCP06
0167827650999992003072818004-07333-047467FM-12+021299999V0200901N001512200019N0200001N1+03371+01711101421ADDAA106000091GF103991031001012501031001MA1999999099031MD1999999+0031REMSYN070AAXX  28184 82765 32698 30903 10337 20171 39903 40142 83030 333 58003;EQDQ01  00002PRCP06
0208827650999992003072900004-07333-047467FM-12+021299999V0201101N001012200019N0200001N1+02771+02131101641ADDAA106000091GA1001+999999999GF100991001001999999001001KA1240M+03521MA1999999099251MD1999999+0001REMSYN082AAXX  29004 82765 32998 01102 10277 20213 39925 40164 333 10352 29056 55108 58000;EQDQ01  00002PRCP06
0196827650999992003072912004-07333-047467FM-12+021299999V0201101N004112200019N0200001N1+02501+01671101971ADDAA106000091GA1001+999999999GF100991001001999999001001KA1240N+01971MA1999999099561MD1999999+0131REMSYN070AAXX  29124 82765 32998 01108 10250 20167 39956 40197 333 20197 58013;EQDQ01  00002PRCP06
0167827650999992003072918004-07333-047467FM-12+021299999V0201401N003112200019N0200001N1+03371+01691101491ADDAA106000091GF104991031011008001001041MA1999999099101MD1999999+0071REMSYN070AAXX  29184 82765 32598 41406 10337 20169 39910 40149 83104 333 58007;EQDQ01  00002PRCP06
0208827650999992003073000004-07333-047467FM-12+021299999V0201401N001012200019N0200001N1+02851+02121101741ADDAA106000091GA1001+999999999GF100991001001999999001001KA1240M+03601MA1999999099341MD1999999+0091REMSYN082AAXX  30004 82765 32998 01402 10285 20212 39934 40174 333 10360 29057 55109 58009;EQDQ01  00002PRCP06
0196827650999992003073012004-07333-047467FM-12+021299999V0200901N002112200019N0200001N1+02641+01851101961ADDAA106000091GA1001+999999999GF100991001001999999001001KA1240N+02011MA1999999099561MD1999999+0001REMSYN070AAXX  30124 82765 32998 00904 10264 20185 39956 40196 333 20201 58000;EQDQ01  00002PRCP06
0167827650999992003073018004-07333-047467FM-12+021299999V0201401N003110075019N0200001N1+03471+01861101481ADDAA106000091GF105991051011008001001001MA1999999099091MD1999999+0011REMSYN070AAXX  30184 82765 32598 51406 10347 20186 39909 40148 85100 333 58001;EQDQ01  00002PRCP06
0208827650999992003073100004-07333-047467FM-12+021299999V0201101N001512200019N0200001N1+02891+02101101611ADDAA106000091GA1001+999999999GF100991001001999999001001KA1240M+03621MA1999999099221MD1999999-0121REMSYN082AAXX  31004 82765 32998 01103 10289 20210 39922 40161 333 10362 29057 55084 59012;EQDQ01  00002PRCP06
0186827650999992003073112004-07333-047467FM-12+021299999V0209999C000010150019N0200001N1+02461+02031101791ADDAA106000091GF105991051001017501031001KA1240N+02301MA1999999099391MD1999999-0171REMSYN076AAXX  31124 82765 32798 50000 10246 20203 39939 40179 85030 333 20230 59017;EQDQ01  00002PRCP06
0208827650999992003080100004-07333-047467FM-12+021299999V0200901N001512200019N0200001N1+02861+02031101521ADDAA106000091GA1001+999999999GF100991001001999999001001KA1240M+03561MA1999999099121MD1999999-0101REMSYN082AAXX  01004 82765 32998 00903 10286 20203 39912 40152 333 10356 29062 55064 59010;EQDQ01  00002PRCP06
0196827650999992003080112004-07333-047467FM-12+021299999V0209999C000012200019N0200001N1+02521+01841101761ADDAA106000091GA1001+999999999GF100991001001999999001001KA1240N+02041MA1999999099361MD1999999+0031REMSYN070AAXX  01124 82765 32998 00000 10252 20184 39936 40176 333 20204 58003;EQDQ01  00002PRCP06
0208827650999992003080200004-07333-047467FM-12+021299999V0200901N001012200019N0200001N1+02821+01941101511ADDAA106000091GA1001+999999999GF100991001001999999001001KA1240M+03631MA1999999099111MD1999999+0011REMSYN082AAXX  02004 82765 32998 00902 10282 20194 39911 40151 333 10363 29055 55104 58001;EQDQ01  00002PRCP06
0196827650999992003080212004-07333-047467FM-12+021299999V0201401N001012200019N0200001N1+02611+01741101801ADDAA106000091GA1001+999999999GF100991001001999999001001KA1240N+02021MA1999999099401MD1999999+0041REMSYN070AAXX  02124 82765 32998 01402 10261 20174 39940 40180 333 20202 58004;EQDQ01  00002PRCP06
0167827650999992003080218004-07333-047467FM-12+021299999V0201801N002110075019N0200001N1+03491+01661101981ADDAA106000091GF105991051011008001001001MA1999999099051MD1999999+0111REMSYN070AAXX  02184 82765 32598 51804 10349 20166 39905 40198 85100 333 58011;EQDQ01  00002PRCP06
0208827650999992003080300004-07333-047467FM-12+021299999V0209999C000012200019N0200001N1+02901+02021101601ADDAA106000091GA1001+999999999GF100991001001999999001001KA1240M+03671MA1999999099211MD1999999+0101REMSYN082AAXX  03004 82765 32998 00000 10290 20202 39921 40160 333 10367 29053 55108 58010;EQDQ01  00002PRCP06
0212827650999992003080312004-07333-047467FM-12+021299999V0200901N002112200019N0200001N1+01671+01641101841ADDAA106000091GA1001+999999999GF100991001001999999001001KA1240N+99999MA1999999099451MD1999999+0051REMSYN070AAXX  03124 82765 32998 00904 10167 20164 39945 40184 333 20195 58005;EQDQ01  00002PRCP06Q02 +01952ATMN  
0183827650999992003080318004-07333-047467FM-12+021299999V0201101N001510075019N0200001N1+03432+01761101441ADDAA106000091GF106991061021008001001001MA1999999099071MD1999999+0021REMSYN070AAXX  03184 82765 32598 61103 10343 20176 39907 40144 86200 333 58002;EQDQ01+003433ATOT  Q02  00002PRCP06
0208827650999992003080400004-07333-047467FM-12+021299999V0201101N001012200019N0200001N1+02821+02051102591ADDAA106000091GA1001+999999999GF100991001001999999001001KA1240M+03601MA1999999099201MD1999999+0011REMSYN082AAXX  04004 82765 32998 01102 10282 20205 39920 40259 333 10360 29054 55097 58001;EQDQ01  00002PRCP06
0196827650999992003080412004-07333-047467FM-12+021299999V0200901N001512200019N0200001N1+02671+01621101731ADDAA106000091GA1001+999999999GF100991001001999999001001KA1240N+02031MA1999999099341MD1999999-0111REMSYN070AAXX  04124 82765 32998 00903 10267 20162 39934 40173 333 20203 59011;EQDQ01  00002PRCP06
0167827650999992003080418004-07333-047467FM-12+021299999V0200501N002112200019N0200001N1+03441+01841101451ADDAA106000091GF103991031011008001001001MA1999999099071MD1999999+0001REMSYN070AAXX  04184 82765 32598 30504 10344 20184 39907 40145 83100 333 58000;EQDQ01  00002PRCP06
0198827650999992003080500004-07333-047467FM-12+021299999V0201101N001012200019N0200001N1+02911+02071101461ADDAA106000091GF104991041001012501031001KA1240M+03661MA1999999099081MD1999999-0121REMSYN088AAXX  05004 82765 32698 41102 10291 20207 39908 40146 84030 333 10366 29053 55107 59012;EQDQ01  00002PRCP06
0196827650999992003080512004-07333-047467FM-12+021299999V0201101N001512200019N0200001N1+02611+01821101731ADDAA106000091GA1001+999999999GF100991001001999999001001KA1240N+02051MA1999999099341MD1999999+0001REMSYN070AAXX  05124 82765 32998 01103 10261 20182 39934 40173 333 20205 58000;EQDQ01  00002PRCP06
0177827650999992003080518004-07333-047467FM-12+021299999V0200901N002612200019N0200001N1+03481+01841101271ADDAA106000091GA1001+999999999GF100991001001999999001001MA1999999098901MD1999999-0171REMSYN064AAXX  05184 82765 32998 00905 10348 20184 39890 40127 333 59017;EQDQ01  00002PRCP06
0198827650999992003080600004-07333-047467FM-12+021299999V0200701N001512200019N0200001N1+02971+02021101491ADDAA106000091GF103991031011012501001001KA1240M+03721MA1999999099111MD1999999+0031REMSYN088AAXX  06004 82765 32698 30703 10297 20202 39911 40149 83100 333 10372 29054 55108 58003;EQDQ01  00002PRCP06
0167827650999992003080618004-07333-047467FM-12+021299999V0200901N002612200019N0200001N1+03401+01771101321ADDAA106000091GF104991041021008001001001MA1999999098951MD1999999+0051REMSYN070AAXX  06184 82765 32598 40905 10340 20177 39895 40132 84200 333 58005;EQDQ01  00002PRCP06
0198827650999992003080700004-07333-047467FM-12+021299999V0209999C000012200019N0200001N1+02891+02051101491ADDAA106000091GF103991031011012501001001KA1240M+03651MA1999999099111MD1999999+0001REMSYN088AAXX  07004 82765 32698 30000 10289 20205 39911 40149 83100 333 10365 29056 55106 58000;EQDQ01  00002PRCP06
0186827650999992003080712004-07333-047467FM-12+021299999V0201101N001512200019N0200001N1+02761+01861101721ADDAA106000091GF102991021011008001001001KA1240N+02141MA1999999099331MD1999999-0061REMSYN076AAXX  07124 82765 32598 21103 10276 20186 39933 40172 82100 333 20214 59006;EQDQ01  00002PRCP06
0167827650999992003080718004-07333-047467FM-12+021299999V0201101N002112200019N0200001N1+03491+01611101321ADDAA106000091GF104991041021008001001001MA1999999098941MD1999999-0011REMSYN070AAXX  07184 82765 32598 41104 10349 20161 39894 40132 84200 333 59001;EQDQ01  00002PRCP06
0198827650999992003080800004-07333-047467FM-12+021299999V0200901N001512200019N0200001N1+02951+01911101461ADDAA106000091GF102991021001017501031001KA1240M+03681MA1999999099081MD1999999-0031REMSYN088AAXX  08004 82765 32798 20903 10295 20191 39908 40146 82030 333 10368 29050 55100 59003;EQDQ01  00002PRCP06
0186827650999992003080812004-07333-047467FM-12+021299999V0200701N002112200019N0200001N1+02761+01691101631ADDAA106000091GF102991001001999999001041KA1240N+02131MA1999999099251MD1999999-0081REMSYN076AAXX  08124 82765 32998 20704 10276 20169 39925 40163 80004 333 20213 59008;EQDQ01  00002PRCP06
0167827650999992003080818004-07333-047467FM-12+021299999V0201601N002612200019N0200001N1+03541+01671101191ADDAA106000091GF103991021011008001001041MA1999999098821MD1999999-0121REMSYN070AAXX  08184 82765 32598 31605 10354 20167 39882 40119 82104 333 59012;EQDQ01  00002PRCP06
0208827650999992003080900004-07333-047467FM-12+021299999V0200901N000512200019N0200001N1+03001+02001101401ADDAA106000091GA1001+999999999GF100991001001999999001001KA1240M+03761MA1999999099031MD1999999-0051REMSYN082AAXX  09004 82765 32998 00901 10300 20200 39903 40140 333 10376 29049 55108 59005;EQDQ01  00002PRCP06
0186827650999992003080912004-07333-047467FM-12+021299999V0201601N000512200019N0200001N1+02291+01881101851ADDAA106000091GF103991021021008001061001KA1240N+02161MA1999999099451MD1999999+0201REMSYN076AAXX  09124 82765 32598 31601 10229 20188 39945 40185 82260 333 20216 58020;EQDQ01  00002PRCP06
0167827650999992003080918004-07333-047467FM-12+021299999V0200901N001512200019N0200001N1+03551+01671101381ADDAA106000091GF104991041011008001001001MA1999999099011MD1999999+0191REMSYN070AAXX  09184 82765 32598 40903 10355 20167 39901 40138 84100 333 58019;EQDQ01  00002PRCP06
0208827650999992003081000004-07333-047467FM-12+021299999V0209999C000012200019N0200001N1+02941+01971101551ADDAA106000091GA1001+999999999GF100991001001999999001001KA1240M+03741MA1999999099151MD1999999+0121REMSYN082AAXX  10004 82765 32998 00000 10294 20197 39915 40155 333 10374 29056 55085 58012;EQDQ01  00002PRCP06
0212827650999992003081012004-07333-047467FM-12+021299999V0209999C000012200019N0200001N1+02461+01851101821ADDAA106000091GA1001+999999999GF100991001001999999001001KA1240N+99999MA1999999099421MD1999999+0031REMSYN070AAXX  10124 82765 32998 00000 10246 20185 39942 40182 333 20289 58003;EQDQ01  00002PRCP06Q02 +02892ATMN  
0167827650999992003081018004-07333-047467FM-12+021299999V0201401N001010075019N0200001N1+03621+01781101291ADDAA106000091GF106991061021008001001001MA1999999098961MD1999999-0051REMSYN070AAXX  10184 82765 32598 61402 10362 20178 39896 40129 86200 333 59005;EQDQ01  00002PRCP06
0208827650999992003081100004-07333-047467FM-12+021299999V0209999C000012200019N0200001N1+02961+02101101521ADDAA106000091GA1001+999999999GF100991001001999999001001KA1240M+03771MA1999999099131MD1999999+0021REMSYN082AAXX  11004 82765 32998 00000 10296 20210 39913 40152 333 10377 29056 55106 58002;EQDQ01  00002PRCP06
0196827650999992003081112004-07333-047467FM-12+021299999V0209999C000012200019N0200001N1+02661+01951101711ADDAA106000091GA1001+999999999GF100991001001999999001001KA1240N+02171MA1999999099321MD1999999-0101REMSYN070AAXX  11124 82765 32998 00000 10266 20195 39932 40171 333 20217 59010;EQDQ01  00002PRCP06
0167827650999992003081118004-07333-047467FM-12+021299999V0200701N002110075019N0200001N1+03551+01931101291ADDAA106000091GF105991051021008001001001MA1999999098921MD1999999-0041REMSYN070AAXX  11184 82765 32598 50704 10355 20193 39892 40129 85200 333 59004;EQDQ01  00002PRCP06
0208827650999992003081200004-07333-047467FM-12+021299999V0209999C000012200019N0200001N1+03021+02291101461ADDAA106000091GA1001+999999999GF100991001001999999001001KA1240M+03701MA1999999099081MD1999999-0051REMSYN082AAXX  12004 82765 32998 00000 10302 20229 39908 40146 333 10370 29058 55096 59005;EQDQ01  00002PRCP06
0186827650999992003081212004-07333-047467FM-12+021299999V0200701N003112200019N0200001N1+02611+01941101751ADDAA106000091GF104991041011012501001001KA1240N+02331MA1999999099361MD1999999+0041REMSYN076AAXX  12124 82765 32698 40706 10261 20194 39936 40175 84100 333 20233 58004;EQDQ01  00002PRCP06
0167827650999992003081218004-07333-047467FM-12+021299999V0201801N001510075019N0200001N1+03481+02071101301ADDAA106000091GF106991051021008001001011MA1999999098931MD1999999+0011REMSYN070AAXX  12184 82765 32598 61803 10348 20207 39893 40130 85201 333 58001;EQDQ01  00002PRCP06
0208827650999992003081300004-07333-047467FM-12+021299999V0209999C000012200019N0200001N1+03021+02341101471ADDAA106000091GA1001+999999999GF100991001001999999001001KA1240M+03651MA1999999099091MD1999999+0011REMSYN082AAXX  13004 82765 32998 00000 10302 20234 39909 40147 333 10365 29061 55100 58001;EQDQ01  00002PRCP06
0186827650999992003081312004-07333-047467FM-12+021299999V0200701N004110450019N0200001N1+02671+02141101911ADDAA106000091GF105991031021008001031001KA1240N+02411MA1999999099521MD1999999+0161REMSYN076AAXX  13124 82765 32598 50708 10267 20214 39952 40191 83230 333 20241 58016;EQDQ01  00002PRCP06
0167827650999992003081318004-07333-047467FM-12+021299999V0201101N002610450019N0200001N1+03381+01981101391ADDAA106000091GF106991031021008001031091MA1999999099021MD1999999+0091REMSYN070AAXX  13184 82765 32598 61105 10338 20198 39902 40139 83239 333 58009;EQDQ01  00002PRCP06
0198827650999992003081400004-07333-047467FM-12+021299999V0209999C000012200019N0200001N1+02911+02321101551ADDAA106000091GF102991001001999999001061KA1240M+03601MA1999999099171MD1999999+0081REMSYN088AAXX  14004 82765 32998 20000 10291 20232 39917 40155 80006 333 10360 29065 55072 58008;EQDQ01  00002PRCP06
0186827650999992003081412004-07333-047467FM-12+021299999V0200901N001510450019N0200001N1+02641+02091101901ADDAA106000091GF106991041041008001031001KA1240N+02161MA1999999099511MD1999999+0011REMSYN076AAXX  14124 82765 32598 60903 10264 20209 39951 40190 84430 333 20216 58001;EQDQ01  00002PRCP06
0167827650999992003081418004-07333-047467FM-12+021299999V0200901N001510075019N0200001N1+03351+02141101431ADDAA106000091GF106991051021008001001011MA1999999099051MD1999999+0031REMSYN070AAXX  14184 82765 32598 60903 10335 20214 39905 40143 85201 333 58003;EQDQ01  00002PRCP06
0198827650999992003081500004-07333-047467FM-12+021299999V0209999C000012200019N0200001N1+02881+02371101551ADDAA106000091GF101991001001999999001011KA1240M+03581MA1999999099161MD1999999+0011REMSYN088AAXX  15004 82765 32998 10000 10288 20237 39916 40155 80001 333 10358 29068 55079 58001;EQDQ01  00002PRCP06
0186827650999992003081512004-07333-047467FM-12+021299999V0200901N001512200019N0200001N1+02641+02031101841ADDAA106000091GF106991041041008001001011KA1240N+02131MA1999999099451MD1999999-0061REMSYN076AAXX  15124 82765 32598 60903 10264 20203 39945 40184 84401 333 20213 59006;EQDQ01  00002PRCP06
0167827650999992003081518004-07333-047467FM-12+021299999V0203601N002110450019N0200001N1+03461+02021101371ADDAA106000091GF106991041021008001041001MA1999999098991MD1999999-0061REMSYN070AAXX  15184 82765 32598 63604 10346 20202 39899 40137 84240 333 59006;EQDQ01  00002PRCP06
0208827650999992003081600004-07333-047467FM-12+021299999V0209999C000012200019N0200001N1+02941+02331101541ADDAA106000091GA1001+999999999GF100991001001999999001001KA1240M+03621MA1999999099161MD1999999+0001REMSYN082AAXX  16004 82765 32998 00000 10294 20233 39916 40154 333 10362 29063 55092 58000;EQDQ01  00002PRCP06
0196827650999992003081612004-07333-047467FM-12+021299999V0203501N001512200019N0200001N1+02741+02171101731ADDAA106000091GA1001+999999999GF100991001001999999001001KA1240N+02331MA1999999099351MD1999999-0101REMSYN070AAXX  16124 82765 32998 03503 10274 20217 39935 40173 333 20233 59010;EQDQ01  00002PRCP06
0212827650999992003081700004-07333-047467FM-12+021299999V0203201N001512200019N0200001N1+02781+02401101531ADDAY101061AY251061GA1001+999999999GF100991001001999999001001KA1240M+03581MA1999999099141MD1999999+0021MW1001REMSYN094AAXX  17004 82765 21998 03203 10278 20240 39914 40153 70005 333 10358 29068 55073 58002 60021;
0162827650999992003081712004-07333-047467FM-12+021299999V0209999C000012200019N0200001N1+02621+02181101861ADDGF104991041001012501031001KA1240N+02351MA1999999099461MD1999999+0111REMSYN082AAXX  17124 82765 22698 40000 10262 20218 39946 40186 84030 333 20235 58011 60024;
0167827650999992003081718004-07333-047467FM-12+021299999V0202301N001510450019N0200001N1+03531+02031101381ADDAA106000091GF106991041021008001061091MA1999999099021MD1999999+0111REMSYN070AAXX  17184 82765 32598 62303 10353 20203 39902 40138 84269 333 58011;EQDQ01  00002PRCP06
0226827650999992003081800004-07333-047467FM-12+021299999V0209999C000010090019N0200001N1+02761+02121101591ADDAA106000091AY121061AY211061GF108991081081004501999999KA1240M+03681MA1999999099201MD1999999+0061MW1131REMSYN094AAXX  18004 82765 31498 80000 10276 20212 39920 40159 71321 888// 333 10368 29064 55083 58006;EQDQ01  00002PRCP06
0190827650999992003081812004-07333-047467FM-12+021299999V0200501N001510450019N0200001N1+02701+02221101931ADDAY161061AY221061GF106991041021008001061001KA1240N+02341MA1999999099531MD1999999+0071MW1031REMSYN088AAXX  18124 82765 21598 60503 10270 20222 39953 40193 70362 84260 333 20234 58007 60014;
0167827650999992003081818004-07333-047467FM-12+021299999V0202701N002610450019N0200001N1+03431+02061101451ADDAA106000091GF106991041021008001021001MA1999999099081MD1999999+0061REMSYN070AAXX  18184 82765 32598 62705 10343 20206 39908 40145 84220 333 58006;EQDQ01  00002PRCP06
0212827650999992003081900004-07333-047467FM-12+021299999V0201401N001519999999N0200001N1+02581+02191101821ADDAY121061AY211061GA1091+999999999GF109991091999999999999999KA1240M+03601MA1999999099421MD1999999+0221MW1001REMSYN094AAXX  19004 82765 21/98 91403 10258 20219 39942 40182 70021 333 10360 29069 55085 58022 69991;
0190827650999992003081912004-07333-047467FM-12+021299999V0200901N001010450019N0200001N1+02441+02271102101ADDAY161061AY221061GF107991041011008001011001KA1240N+02371MA1999999099671MD1999999+0141MW1011REMSYN088AAXX  19124 82765 21598 70902 10244 20227 39967 40210 70162 84110 333 20237 58014 60024;
0167827650999992003081918004-07333-047467FM-12+021299999V0201101N001010075019N0200001N1+03341+01951101521ADDAA106000091GF107991051021008001031001MA1999999099141MD1999999+0061REMSYN070AAXX  19184 82765 32598 71102 10334 20195 39914 40152 85230 333 58006;EQDQ01  00002PRCP06
0208827650999992003082000004-07333-047467FM-12+021299999V0209999C000012200019N0200001N1+02861+02371101711ADDAA106000091GA1001+999999999GF100991001001999999001001KA1240M+03561MA1999999099311MD1999999+0111REMSYN082AAXX  20004 82765 32998 00000 10286 20237 39931 40171 333 10356 29071 55039 58011;EQDQ01  00002PRCP06
0186827650999992003082012004-07333-047467FM-12+021299999V0200901N002619999999N0200001N1+02741+01781101891ADDAA106000091GF106991041001012501061011KA1240N+02271MA1999999099501MD1999999-0171REMSYN076AAXX  20124 82765 32698 60905 10274 20178 39950 40189 84061 333 20227 59017;EQDQ01  00002PRCP06
0167827650999992003082018004-07333-047467FM-12+021299999V0201801N001510450019N0200001N1+03401+01771101421ADDAA106000091GF106991041021008001061001MA1999999099051MD1999999-0091REMSYN070AAXX  20184 82765 32598 61803 10340 20177 39905 40142 84260 333 59009;EQDQ01  00002PRCP06
0208827650999992003082100004-07333-047467FM-12+021299999V0201801N002112200019N0200001N1+02821+01971101781ADDAA106000091GA1001+999999999GF100991001001999999001001KA1240M+03591MA1999999099321MD1999999+0011REMSYN082AAXX  21004 82765 32998 01804 10282 20197 39932 40178 333 10359 29053 55092 58001;EQDQ01  00002PRCP06
0196827650999992003082112004-07333-047467FM-12+021299999V0200901N001012200019N0200001N1+02621+01931101771ADDAA106000091GA1001+999999999GF100991001001999999001001KA1240N+02091MA1999999099371MD1999999-0131REMSYN070AAXX  21124 82765 32998 00902 10262 20193 39937 40177 333 20209 59013;EQDQ01  00002PRCP06
0167827650999992003082118004-07333-047467FM-12+021299999V0200901N001510075019N0200001N1+03481+01751101211ADDAA106000091GF105991051011008001001001MA1999999098841MD1999999-0021REMSYN070AAXX  21184 82765 32598 50903 10348 20175 39884 40121 85100 333 59002;EQDQ01  00002PRCP06
0208827650999992003082200004-07333-047467FM-12+021299999V0201101N000512200019N0200001N1+02961+02131101411ADDAA106000091GA1001+999999999GF100991001001999999001001KA1240M+03621MA1999999099031MD1999999-0291REMSYN082AAXX  22004 82765 32998 01101 10296 20213 39903 40141 333 10362 29056 55103 59029;EQDQ01  00002PRCP06
0186827650999992003082212004-07333-047467FM-12+021299999V0200901N003112200019N0200001N1+02861+01721101831ADDAA106000091GF101991011011008001001001KA1240N+02331MA1999999099431MD1999999+0111REMSYN076AAXX  22124 82765 32598 10906 10286 20172 39943 40183 81100 333 20233 58011;EQDQ01  00002PRCP06
0167827650999992003082218004-07333-047467FM-12+021299999V0201401N002110075019N0200001N1+03541+01891101341ADDAA106000091GF105991051011008001001001MA1999999098981MD1999999+0141REMSYN070AAXX  22184 82765 32598 51404 10354 20189 39898 40134 85100 333 58014;EQDQ01  00002PRCP06
0208827650999992003082300004-07333-047467FM-12+021299999V0201101N001012200019N0200001N1+02921+02091101531ADDAA106000091GA1001+999999999GF100991001001999999001001KA1240M+03621MA1999999099131MD1999999+0101REMSYN082AAXX  23004 82765 32998 01102 10292 20209 39913 40153 333 10362 29052 55102 58010;EQDQ01  00002PRCP06
0186827650999992003082312004-07333-047467FM-12+021299999V0201401N003110075019N0200001N1+02561+01731101801ADDAA106000091GF106991061011008001001001KA1240N+02171MA1999999099411MD1999999-0021REMSYN076AAXX  23124 82765 32598 61406 10256 20173 39941 40180 86100 333 20217 59002;EQDQ01  00002PRCP06
0167827650999992003082318004-07333-047467FM-12+021299999V0201401N002610450019N0200001N1+03621+01641101421ADDAA106000091GF106991041021008001041001MA1999999099051MD1999999+0071REMSYN070AAXX  23184 82765 32598 61405 10362 20164 39905 40142 84240 333 58007;EQDQ01  00002PRCP06
0208827650999992003082400004-07333-047467FM-12+021299999V0201101N000512200019N0200001N1+02961+02101101511ADDAA106000091GA1001+999999999GF100991001001999999001001KA1240M+03761MA1999999099121MD1999999-0011REMSYN082AAXX  24004 82765 32998 01101 10296 20210 39912 40151 333 10376 29053 55089 59001;EQDQ01  00002PRCP06
0186827650999992003082412004-07333-047467FM-12+021299999V0201101N002612200019N0200001N1+02961+02171101751ADDAA106000091GF101991011011008001001001KA1240N+02231MA1999999099381MD1999999-0031REMSYN076AAXX  24124 82765 32598 11105 10296 20217 39938 40175 81100 333 20223 59003;EQDQ01  00002PRCP06
0167827650999992003082418004-07333-047467FM-12+021299999V0201401N001512200019N0200001N1+03641+01941101271ADDAA106000091GF103991031011008001001001MA1999999098921MD1999999-0131REMSYN070AAXX  24184 82765 32598 31403 10364 20194 39892 40127 83100 333 59013;EQDQ01  00002PRCP06
0208827650999992003082500004-07333-047467FM-12+021299999V0209999C000012200019N0200001N1+03061+02251101431ADDAA106000091GA1001+999999999GF100991001001999999001001KA1240M+03761MA1999999099071MD1999999-0051REMSYN082AAXX  25004 82765 32998 00000 10306 20225 39907 40143 333 10376 29053 55099 59005;EQDQ01  00002PRCP06
0186827650999992003082512004-07333-047467FM-12+021299999V0201601N000512200019N0200001N1+02921+01981101771ADDAA106000091GF101991011011008001001001KA1240N+02291MA1999999099401MD1999999+0021REMSYN076AAXX  25124 82765 32598 11601 10292 20198 39940 40177 81100 333 20229 58002;EQDQ01  00002PRCP06
0167827650999992003082518004-07333-047467FM-12+021299999V0201101N001012200019N0200001N1+03661+02001101281ADDAA106000091GF103991031011008001001001MA1999999098931MD1999999+0011REMSYN070AAXX  25184 82765 32598 31102 10366 20200 39893 40128 83100 333 58001;EQDQ01  00002PRCP06
0208827650999992003082600004-07333-047467FM-12+021299999V0209999C000012200019N0200001N1+03221+02401101381ADDAA106000091GA1001+999999999GF100991001001999999001001KA1240M+03841MA1999999099031MD1999999-0041REMSYN082AAXX  26004 82765 32998 00000 10322 20240 39903 40138 333 10384 29055 55104 59004;EQDQ01  00002PRCP06
0186827650999992003082612004-07333-047467FM-12+021299999V0200201N002612200019N0200001N1+02981+02061101591ADDAA106000091GF102991021011008001001001KA1240N+02311MA1999999099241MD1999999-0161REMSYN076AAXX  26124 82765 32598 20205 10298 20206 39924 40159 82100 333 20231 59016;EQDQ01  00002PRCP06
0167827650999992003082618004-07333-047467FM-12+021299999V0200501N001512200019N0200001N1+03601+02221101101ADDAA106000091GF104991041021008001001001MA1999999098741MD1999999-0191REMSYN070AAXX  26184 82765 32598 40503 10360 20222 39874 40110 84200 333 59019;EQDQ01  00002PRCP06
0208827650999992003082700004-07333-047467FM-12+021299999V0200701N003112200019N0200001N1+03061+01961101341ADDAA106000091GA1001+999999999GF100991001001999999001001KA1240M+03821MA1999999098981MD1999999-0051REMSYN082AAXX  27004 82765 32998 00706 10306 20196 39898 40134 333 10382 29052 55100 59005;EQDQ01  00002PRCP06
0186827650999992003082712004-07333-047467FM-12+021299999V0200201N004112200019N0200001N1+03001+02141101751ADDAA106000091GF103991031011008001001001KA1240N+02411MA1999999099391MD1999999+0151REMSYN076AAXX  27124 82765 32598 30208 10300 20214 39939 40175 83100 333 20241 58015;EQDQ01  00002PRCP06
0167827650999992003082718004-07333-047467FM-12+021299999V0200201N001510450019N0200001N1+03481+02221101291ADDAA106000091GF106991041021008001041001MA1999999098931MD1999999+0191REMSYN070AAXX  27184 82765 32598 60203 10348 20222 39893 40129 84240 333 58019;EQDQ01  00002PRCP06
0226827650999992003082800004-07333-047467FM-12+021299999V0202901N001012200019N0200001N1+02721+02261101571ADDAA106000091AY191061AY291061GF104991031081008001021001KA1240M+03541MA1999999099191MD1999999+0211MW1131REMSYN094AAXX  28004 82765 31598 42902 10272 20226 39919 40157 71399 83820 333 10354 29065 55068 58021;EQDQ01  00002PRCP06
0186827650999992003082812004-07333-047467FM-12+021299999V0200501N001010450019N0200001N1+02721+02691101841ADDAA106000091GF106991041021008001041001KA1240N+02371MA1999999099451MD1999999+0061REMSYN076AAXX  28124 82765 32598 60502 10272 20269 39945 40184 84240 333 20237 58006;EQDQ01  00002PRCP06
0176827650999992003082818004-07333-047467FM-12+021299999V0202501N003110450019N0200001N1+03001+02141101501ADDAA106000021AY101061AY201061GF106991021031008001041001MA1999999099111MD1999999+0181MW1991REMSYN076AAXX  28184 82765 31598 62506 10300 20214 39911 40150 79900 82340 333 58018;
0207827650999992003082900004-07333-047467FM-12+021299999V0203201N001510120019N0200001N1+02641+02121101631ADDAA106000021AY191061AY291061GF108991081081008001999999KA1240M+03381MA1999999099241MD1999999+0051MW1001REMSYN094AAXX  29004 82765 31598 83203 10264 20212 39924 40163 70099 888// 333 10338 29070 55055 58005;
0186827650999992003082912004-07333-047467FM-12+021299999V0200201N000512200019N0200001N1+02761+02341101881ADDAA106000091GF104991031021008001041001KA1240N+02411MA1999999099481MD1999999+0031REMSYN076AAXX  29124 82765 32598 40201 10276 20234 39948 40188 83240 333 20241 58003;EQDQ01  00002PRCP06
0171827650999992003082918004-07333-047467FM-12+021299999V0203201N001010450019N0200001N1+03061+02271101441ADDAY191061AY261061GF106991041081008001041001MA1999999099051MD1999999-0061MW1001REMSYN082AAXX  29184 82765 21598 63202 10306 20227 39905 40144 70096 84840 333 59006 60071;
0198827650999992003083000004-07333-047467FM-12+021299999V0209999C000012200019N0200001N1+02701+02451101621ADDAA106000091GF101991011011008001001001KA1240M+03181MA1999999099231MD1999999-0011REMSYN088AAXX  30004 82765 32598 10000 10270 20245 39923 40162 81100 333 10318 29078 55043 59001;EQDQ01  00002PRCP06
0190827650999992003083012004-07333-047467FM-12+021299999V0201401N001510450019N0200001N1+02321+02201101991ADDAY101061AY201061GF107991021031008001041001KA1240N+02311MA1999999099571MD1999999+0091MW1951REMSYN088AAXX  30124 82765 21598 71403 10232 20220 39957 40199 79500 82340 333 20231 58009 60124;
0171827650999992003083018004-07333-047467FM-12+021299999V0200501N003110120019N0200001N1+02901+02151101641ADDAY151061AY251061GF107991061081008001041001MA1999999099241MD1999999+0191MW1001REMSYN082AAXX  30184 82765 21598 70506 10290 20215 39924 40164 70055 86840 333 58019 60021;
0198827650999992003083100004-07333-047467FM-12+021299999V0200501N000512200019N0200001N1+02541+02251101681ADDAA106000091GF104991021081008001041001KA1240M+02961MA1999999099261MD1999999+0031REMSYN088AAXX  31004 82765 32598 40501 10254 20225 39926 40168 82840 333 10296 29081 55011 58003;EQDQ01  00002PRCP06
0162827650999992003083112004-07333-047467FM-12+021299999V0201601N000510120019N0200001N1+02421+02211102091ADDGF108991061081008001041999KA1240N+02371MA1999999099671MD1999999+0101REMSYN082AAXX  31124 82765 22598 81601 10242 20221 39967 40209 8684/ 333 20237 58010 60024;
0167827650999992003083118004-07333-047467FM-12+021299999V0200201N001510120019N0200001N1+02621+02211101741ADDAA106000091GF108991061081008001021999MA1999999099321MD1999999+0081REMSYN070AAXX  31184 82765 32598 80203 10262 20221 39932 40174 8682/ 333 58008;EQDQ01  00002PRCP06
0198827650999992003090100004-07333-047467FM-12+021299999V0203601N001512200019N0200001N1+02461+02321101781ADDAA106000091GF102991021021008001001001KA1240M+02741MA1999999099361MD1999999+0101REMSYN088AAXX  01004 82765 32598 23603 10246 20232 39936 40178 82200 333 10274 29088 55000 58010;EQDQ01  00002PRCP06
0186827650999992003090112004-07333-047467FM-12+021299999V0202501N000512200019N0200001N1+02501+02271102001ADDAA106000091GF103991021011008001041001KA1240N+02151MA1999999099581MD1999999-0091REMSYN076AAXX  01124 82765 32598 32501 10250 20227 39958 40200 82140 333 20215 59009;EQDQ01  00002PRCP06
0167827650999992003090118004-07333-047467FM-12+021299999V0202901N001510450019N0200001N1+03081+02271101601ADDAA106000091GF106991041021008001041001MA1999999099201MD1999999-0121REMSYN070AAXX  01184 82765 32598 62903 10308 20227 39920 40160 84240 333 59012;EQDQ01  00002PRCP06
0198827650999992003090200004-07333-047467FM-12+021299999V0203201N000512200019N0200001N1+02641+02331101631ADDAA106000091GF102991021011008001001001KA1240M+03261MA1999999099231MD1999999-0131REMSYN088AAXX  02004 82765 32598 23201 10264 20233 39923 40163 82100 333 10326 29079 55058 59013;EQDQ01  00002PRCP06
0162827650999992003090212004-07333-047467FM-12+021299999V0201101N001512200019N0200001N1+02821+02521102031ADDGF102991021011008001001001KA1240N+02311MA1999999099631MD1999999+0051REMSYN082AAXX  02124 82765 22598 21103 10282 20252 39963 40203 82100 333 20231 58005 69964;
0167827650999992003090218004-07333-047467FM-12+021299999V0201101N001510450019N0200001N1+03361+02171101501ADDAA106000091GF106991041021008001041001MA1999999099131MD1999999-0071REMSYN070AAXX  02184 82765 32598 61103 10336 20217 39913 40150 84240 333 59007;EQDQ01  00002PRCP06
0198827650999992003090300004-07333-047467FM-12+021299999V0201101N000512200019N0200001N1+02861+02321101621ADDAA106000091GF101991011011008001001001KA1240M+03501MA1999999099241MD1999999+0011REMSYN088AAXX  03004 82765 32598 11101 10286 20232 39924 40162 81100 333 10350 29068 55089 58001;EQDQ01  00002PRCP06
0186827650999992003090312004-07333-047467FM-12+021299999V0202001N001512200019N0200001N1+02641+02001101921ADDAA106000091GF104991021011008001041001KA1240N+02111MA1999999099521MD1999999-0111REMSYN076AAXX  03124 82765 32598 42003 10264 20200 39952 40192 82140 333 20211 59011;EQDQ01  00002PRCP06
0167827650999992003090318004-07333-047467FM-12+021299999V0201101N001512200019N0200001N1+03601+01771101471ADDAA106000091GF104991031011008001041001MA1999999099101MD1999999-0031REMSYN070AAXX  03184 82765 32598 41103 10360 20177 39910 40147 83140 333 59003;EQDQ01  00002PRCP06
0198827650999992003090400004-07333-047467FM-12+021299999V0200701N001512200019N0200001N1+02921+02141101631ADDAA106000091GF101991011011008001001001KA1240M+03681MA1999999099251MD1999999+0011REMSYN088AAXX  04004 82765 32598 10703 10292 20214 39925 40163 81100 333 10368 29057 55097 58001;EQDQ01  00002PRCP06
0186827650999992003090412004-07333-047467FM-12+021299999V0201401N003112200019N0200001N1+02881+01701101921ADDAA106000091GF101991011011008001001001KA1240N+02931MA1999999099541MD1999999+0021REMSYN076AAXX  04124 82765 32598 11406 10288 20170 39954 40192 81100 333 20293 58002;EQDQ01  00002PRCP06
0167827650999992003090418004-07333-047467FM-12+021299999V0201101N001512200019N0500001N1+03461+01781101491ADDAA106000091GF103991021011008001041001MA1999999099121MD1999999+0021REMSYN070AAXX  04184 82765 32599 31103 10346 20178 39912 40149 82140 333 58002;EQDQ01  00002PRCP06
0208827650999992003090500004-07333-047467FM-12+021299999V0201101N001512200019N0200001N1+02961+02101101661ADDAA106000091GA1001+999999999GF100991001001999999001001KA1240M+03641MA1999999099281MD1999999+0031REMSYN082AAXX  05004 82765 32998 01103 10296 20210 39928 40166 333 10364 29052 55099 58003;EQDQ01  00002PRCP06
0186827650999992003090512004-07333-047467FM-12+021299999V0201101N003112200019N0200001N1+02921+01801101941ADDAA106000091GF103991021011008001041001KA1240N+02371MA1999999099561MD1999999+0021REMSYN076AAXX  05124 82765 32598 31106 10292 20180 39956 40194 82140 333 20237 58002;EQDQ01  00002PRCP06
0183827650999992003090518004-07333-047467FM-12+021299999V0201401N003112200019N0200001N1+03601+01711101451ADDAA106000091GF104991999011008001001001MA1999999099071MD1999999-0051REMSYN070AAXX  05184 82765 32598 41406 10360 20171 39907 40145 83100 333 59005;EQDQ01+000032SCOTLCQ02  00002PRCP06
0208827650999992003090600004-07333-047467FM-12+021299999V0201101N001512200019N0200001N1+03001+02051101561ADDAA106000091GA1001+999999999GF100991001001999999001001KA1240M+03741MA1999999099191MD1999999-0091REMSYN082AAXX  06004 82765 32998 01103 10300 20205 39919 40156 333 10374 29050 55103 59009;EQDQ01  00002PRCP06
0196827650999992003090612004-07333-047467FM-12+021299999V0201401N004612200019N0200001N1+02781+01731101801ADDAA106000091GA1001+999999999GF100991001001999999001001KA1240N+02381MA1999999099421MD1999999-0141REMSYN070AAXX  06124 82765 32998 01409 10278 20173 39942 40180 333 20238 59014;EQDQ01  00002PRCP06
0167827650999992003090618004-07333-047467FM-12+021299999V0201801N003112200019N0200001N1+03461+02371101321ADDAA106000091GF104991041021008001001001MA1999999098961MD1999999-0111REMSYN070AAXX  06184 82765 32598 41806 10346 20237 39896 40132 84200 333 59011;EQDQ01  00002PRCP06
0208827650999992003090700004-07333-047467FM-12+021299999V0201401N000512200019N0200001N1+02861+02281101461ADDAA106000091GA1001+999999999GF100991001001999999001001KA1240M+03621MA1999999099081MD1999999-0111REMSYN082AAXX  07004 82765 32998 01401 10286 20228 39908 40146 333 10362 29059 55098 59011;EQDQ01  00002PRCP06
0196827650999992003090712004-07333-047467FM-12+021299999V0201101N004612200019N0200001N1+02791+01911101751ADDAA106000091GA1001+999999999GF100991001001999999001001KA1240N+02501MA1999999099361MD1999999-0061REMSYN070AAXX  07124 82765 32998 01109 10279 20191 39936 40175 333 20250 59006;EQDQ01  00002PRCP06
0167827650999992003090718004-07333-047467FM-12+021299999V0201101N002112200019N0200001N1+03471+01821101251ADDAA106000091GF104991041021008001001001MA1999999098891MD1999999-0071REMSYN070AAXX  07184 82765 32598 41104 10347 20182 39889 40125 84200 333 59007;EQDQ01  00002PRCP06
0186827650999992003090812004-07333-047467FM-12+021299999V0201401N002610075019N0200001N1+02661+01741101711ADDAA106000091GF106991061041008001001001KA1240N+02411MA1999999099321MD1999999+0041REMSYN076AAXX  08124 82765 32598 61405 10266 20174 39932 40171 86400 333 20241 58004;EQDQ01  00002PRCP06
0167827650999992003090818004-07333-047467FM-12+021299999V0200901N002112200019N0200001N1+03541+01801101221ADDAA106000091GF104991041011008001001001MA1999999098861MD1999999+0031REMSYN070AAXX  08184 82765 32598 40904 10354 20180 39886 40122 84100 333 58003;EQDQ01  00002PRCP06
0208827650999992003090900004-07333-047467FM-12+021299999V0201401N001012200019N0200001N1+02941+02001101471ADDAA106000091GA1001+999999999GF100991001001999999001001KA1240M+03661MA1999999099091MD1999999+0031REMSYN082AAXX  09004 82765 32998 01402 10294 20200 39909 40147 333 10366 29051 55098 58003;EQDQ01  00002PRCP06
0196827650999992003090912004-07333-047467FM-12+021299999V0201401N003112200019N0200001N1+02901+01591101701ADDAA106000091GA1001+999999999GF100991001001999999001001KA1240N+02351MA1999999099321MD1999999+0001REMSYN070AAXX  09124 82765 32998 01406 10290 20159 39932 40170 333 20235 58000;EQDQ01  00002PRCP06
0208827650999992003091000004-07333-047467FM-12+021299999V0201101N001012200019N0200001N1+03001+02081101521ADDAA106000091GA1001+999999999GF100991001001999999001001KA1240M+03701MA1999999099151MD1999999+0061REMSYN082AAXX  10004 82765 32998 01102 10300 20208 39915 40152 333 10370 29049 55104 58006;EQDQ01  00002PRCP06
0214827650999992003091012004-07333-047467FM-12+021299999V0201801N001019999999N0100001N1+02761+01911101661ADDAA106000091AY111061AY211061GF105991051001012501031001KA1240N+02251MA1999999099281MD1999999-0041MW1051REMSYN082AAXX  10124 82765 31697 51802 10276 20191 39928 40166 70511 85030 333 20225 59004;EQDQ01  00002PRCP06
0167827650999992003091018004-07333-047467FM-12+021299999V0201801N001512200019N0200001N1+03631+01891101151ADDAA106000091GF104991041021008001001001MA1999999098791MD1999999-0181REMSYN070AAXX  10184 82765 32598 41803 10363 20189 39879 40115 84200 333 59018;EQDQ01  00002PRCP06
0198827650999992003091100004-07333-047467FM-12+021299999V0209999C000012200019N0200001N1+03101+02311101391ADDAA106000091GF102991021001012501031001KA1240M+03841MA1999999099021MD1999999-0131REMSYN088AAXX  11004 82765 32698 20000 10310 20231 39902 40139 82030 333 10384 29055 55095 59013;EQDQ01  00002PRCP06
0214827650999992003091112004-07333-047467FM-12+021299999V0201101N001512200019N0040001N1+02931+02121101571ADDAA106000091AY111061AY211061GF103991031021008001001001KA1240N+02451MA1999999099211MD1999999-0071MW1051REMSYN082AAXX  11124 82765 31596 31103 10293 20212 39921 40157 70511 83200 333 20245 59007;EQDQ01  00002PRCP06
0195827650999992003091118004-07333-047467FM-12+021299999V0201601N001510075019N0100001N1+03631+01921101071ADDAA106000091AY111061AY211061GF105991051021008001001001MA1999999098721MD1999999-0071MW1041REMSYN076AAXX  11184 82765 31597 51603 10363 20192 39872 40107 70411 85200 333 59007;EQDQ01  00002PRCP06
0214827650999992003091212004-07333-047467FM-12+021299999V0200501N003110075019N0100001N1+02811+02121101811ADDAA106000091AY121061AY211061GF106991061021008001001001KA1240N+02641MA1999999099441MD1999999+0231MW1051REMSYN082AAXX  12124 82765 31597 60506 10281 20212 39944 40181 70521 86200 333 20264 58023;EQDQ01  00002PRCP06
0172827650999992003091412004-07333-047467FM-12+021299999V0201101N000512200019N0200001N1+02661+02351101871ADDGA1001+999999999GF100991001001999999001001KA1240N+02301MA1999999099461MD1999999+0001REMSYN076AAXX  14124 82765 22998 01101 10266 20235 39946 40187 333 20230 58000 60044;
0167827650999992003091418004-07333-047467FM-12+021299999V0200701N001010075019N0200001N1+03371+02221101311ADDAA106000091GF105991051021008001001001MA1999999098941MD1999999-0151REMSYN070AAXX  14184 82765 32598 50702 10337 20222 39894 40131 85200 333 59015;EQDQ01  00002PRCP06
0208827650999992003091500004-07333-047467FM-12+021299999V0209999C000012200019N0200001N1+02991+02531101351ADDAA106000091GA1001+999999999GF100991001001999999001001KA1240M+03481MA1999999098971MD1999999-0241REMSYN082AAXX  15004 82765 32998 00000 10299 20253 39897 40135 333 10348 29072 55085 59024;EQDQ01  00002PRCP06
0186827650999992003091512004-07333-047467FM-12+021299999V0200901N002110450019N0200001N1+02781+02161101701ADDAA106000091GF105991031021008001061001KA1240N+02401MA1999999099321MD1999999-0141REMSYN076AAXX  15124 82765 32598 50904 10278 20216 39932 40170 83260 333 20240 59014;EQDQ01  00002PRCP06
0167827650999992003091618004-07333-047467FM-12+021299999V0203601N002110450019N0200001N1+03301+02051101201ADDAA106000091GF105991031021008001031001MA1999999098831MD1999999+0011REMSYN070AAXX  16184 82765 32598 53604 10330 20205 39883 40120 83230 333 58001;EQDQ01  00002PRCP06
0208827650999992003091700004-07333-047467FM-12+021299999V0203601N001519999999N0200001N1+02761+02361101371ADDAA106000091GA1091+999999999GF109991091999999999999999KA1240M+03421MA1999999098991MD1999999+0011REMSYN082AAXX  17004 82765 32/98 93603 10276 20236 39899 40137 333 10342 29071 55045 58001;EQDQ01  00002PRCP06
0214827650999992003091712004-07333-047467FM-12+021299999V0209999C000012200019N0100001N1+02581+02291101721ADDAA106000091AY111061AY211061GF104991021011008001051001KA1240N+02261MA1999999099321MD1999999-0041MW1051REMSYN082AAXX  17124 82765 31597 40000 10258 20229 39932 40172 70511 82150 333 20226 59004;EQDQ01  00002PRCP06
0167827650999992003091718004-07333-047467FM-12+021299999V0200501N003110075019N0200001N1+03431+01941101241ADDAA106000091GF106991061021008001001001MA1999999098871MD1999999+0041REMSYN070AAXX  17184 82765 32598 60506 10343 20194 39887 40124 86200 333 58004;EQDQ01  00002PRCP06
0208827650999992003091800004-07333-047467FM-12+021299999V0209999C000010024019N0100001N1+02961+02351101341ADDAA106000091GA1091+999999999GF109991091999999999999999KA1240M+03561MA1999999098961MD1999999-0031REMSYN082AAXX  18004 82765 32/97 90000 10296 20235 39896 40134 333 10356 29066 55094 59003;EQDQ01  00002PRCP06
0224827650999992003091812004-07333-047467FM-12+021299999V0203601N002112200019N0100001N1+02831+02151101541ADDAA106000091AY111061AY201061GA1001+999999999GF100991001001999999001001KA1240N+02361MA1999999099171MD1999999-0151MW1051REMSYN076AAXX  18124 82765 31997 03604 10283 20215 39917 40154 70510 333 20236 59015;EQDQ01  00002PRCP06
0195827650999992003091818004-07333-047467FM-12+021299999V0200201N003610075019N0200001N1+03601+02031101061ADDAA106000091AY121061AY211061GF105991051021008001001001MA1999999098751MD1999999-0161MW1041REMSYN076AAXX  18184 82765 31598 50207 10360 20203 39875 40106 70421 85200 333 59016;EQDQ01  00002PRCP06
0214827650999992003091912004-07333-047467FM-12+021299999V0200501N004612200019N0100001N1+02941+02141101471ADDAA106000091AY111061AY211061GF103991021011008001061001KA1240N+02511MA1999999099111MD1999999-0061MW1041REMSYN082AAXX  19124 82765 31597 30509 10294 20214 39911 40147 70411 82160 333 20251 59006;EQDQ01  00002PRCP06
0195827650999992003091918004-07333-047467FM-12+021299999V0200701N004110450019N0100001N1+03541+02091100971ADDAA106000091AY121061AY211061GF105991031021008001011001MA1999999098621MD1999999-0091MW1041REMSYN076AAXX  19184 82765 31597 50708 10354 20209 39862 40097 70421 83210 333 59009;EQDQ01  00002PRCP06
0242827650999992003092000004-07333-047467FM-12+021299999V0209999C000010024019N0100001N1+03101+02341101141ADDAA106000091AY121061AY211061GA1091+999999999GF109991091999999999999999KA1240M+03661MA1999999098791MD1999999-0051MW1041REMSYN094AAXX  20004 82765 31/97 90000 10310 20234 39879 40114 70421 8//// 333 10366 29058 55086 59005;EQDQ01  00002PRCP06
0190827650999992003092012004-07333-047467FM-12+021299999V0200701N001010075019N0100001N1+02711+02241101551ADDAY161061AY221061GF108991051011008001021001KA1240N+02521MA1999999099181MD1999999+0071MW1041REMSYN088AAXX  20124 82765 21597 80702 10271 20224 39918 40155 70462 85120 333 20252 58007 60024;
0214827650999992003092112004-07333-047467FM-12+021299999V0200901N001012200019N0100001N1+02791+02091101621ADDAA106000091AY111061AY201061GF104991041001012501041001KA1240N+02301MA1999999099241MD1999999+0061MW1041REMSYN082AAXX  21124 82765 31697 40902 10279 20209 39924 40162 70410 84040 333 20230 58006;EQDQ01  00002PRCP06
0208827650999992003092200004-07333-047467FM-12+021299999V0209999C000012200019N0200001N1+03021+02261101341ADDAA106000091GA1001+999999999GF100991001001999999001001KA1240M+03741MA1999999098971MD1999999+0141REMSYN082AAXX  22004 82765 32998 00000 10302 20226 39897 40134 333 10374 29056 55097 58014;EQDQ01  00002PRCP06
0230827650999992003092212004-07333-047467FM-12+021299999V0200901N002619999999N0100001N1+02761+01781101601ADDAA106000091AY101061AY201061GF100991001001999999001001KA1240N+02231MA1999999099231MD1999999+0011MW1041REMSYN082AAXX  22124 82765 31997 70905 10276 20178 39923 40160 70400 80000 333 20223 58001;EQDQ01+000072SCOTCVQ02  00002PRCP06
0167827650999992003092218004-07333-047467FM-12+021299999V0200901N001512200019N0200001N1+03621+01741101131ADDAA106000091GF102991021011008001001001MA1999999098771MD1999999+0001REMSYN070AAXX  22184 82765 32598 20903 10362 20174 39877 40113 82100 333 58000;EQDQ01  00002PRCP06
0208827650999992003092400004-07333-047467FM-12+021299999V0203401N000512200019N0200001N1+03061+02401101281ADDAA106000091GA1001+999999999GF100991001001999999001001KA1240M+03721MA1999999098921MD1999999-0011REMSYN082AAXX  24004 82765 32998 03401 10306 20240 39892 40128 333 10372 29058 55064 59001;EQDQ01  00002PRCP06
0230827650999992003092412004-07333-047467FM-12+021299999V0200701N003112200019N0100001N1+02941+02261101531ADDAA106000091AY101061AY201061GF102991999081008001041001KA1240N+02371MA1999999099171MD1999999+0001MW1041REMSYN082AAXX  24124 82765 31597 20706 10294 20226 39917 40153 70400 85840 333 20237 58000;EQDQ01+000052SCOTLCQ02  00002PRCP06
0195827650999992003092418004-07333-047467FM-12+021299999V0200701N002112200019N0100001N1+03501+02231101121ADDAA106000091AY101061AY201061GF104991021011008001041001MA1999999098761MD1999999+0011MW1041REMSYN076AAXX  24184 82765 31597 40704 10350 20223 39876 40112 70400 82140 333 58001;EQDQ01  00002PRCP06
0186827650999992003092512004-07333-047467FM-12+021299999V0200201N002612200019N0200001N1+02981+02171101541ADDAA106000091GF102991011011008001041001KA1240N+02511MA1999999099181MD1999999+0011REMSYN076AAXX  25124 82765 32598 20205 10298 20217 39918 40154 81140 333 20251 58001;EQDQ01  00002PRCP06
0195827650999992003092518004-07333-047467FM-12+021299999V0200201N001010450019N0100001N1+03541+02201101061ADDAA106000091AY101061AY201061GF106991031011008001041001MA1999999098711MD1999999-0051MW1041REMSYN076AAXX  25184 82765 31597 60202 10354 20220 39871 40106 70400 83140 333 59005;EQDQ01  00002PRCP06
0208827650999992003092600004-07333-047467FM-12+021299999V0200201N001012200019N0200001N1+03041+02201101221ADDAA106000091GA1001+999999999GF100991001001999999001001KA1240M+03661MA1999999098861MD1999999+0031REMSYN082AAXX  26004 82765 32998 00202 10304 20220 39886 40122 333 10366 29057 55088 58003;EQDQ01  00002PRCP06
0214827650999992003092612004-07333-047467FM-12+021299999V0200201N003112200019N0100001N1+02921+02221101451ADDAA106000091AY101061AY201061GF102991021011008001001001KA1240N+02451MA1999999099091MD1999999-0091MW1041REMSYN082AAXX  26124 82765 31597 20206 10292 20222 39909 40145 70400 82100 333 20245 59009;EQDQ01  00002PRCP06
0195827650999992003092618004-07333-047467FM-12+021299999V0200201N002610450019N0100001N1+03521+02181101031ADDAA106000091AY101061AY201061GF106991041021008001041001MA1999999098681MD1999999-0031MW1041REMSYN076AAXX  26184 82765 31597 60205 10352 20218 39868 40103 70400 84240 333 59003;EQDQ01  00002PRCP06
0236827650999992003092700004-07333-047467FM-12+021299999V0200201N001012200019N0100001N1+02961+02261101161ADDAA106000091AY101061AY201061GA1001+999999999GF100991001001999999001001KA1240M+03641MA1999999098801MD1999999-0061MW1041REMSYN088AAXX  27004 82765 31597 00202 10296 20226 39880 40116 70400 333 10364 29061 55091 59006;EQDQ01  00002PRCP06
0214827650999992003092712004-07333-047467FM-12+021299999V0200501N002610120019N0100001N1+02941+02261101461ADDAA106000091AY101061AY201061GF108991061081008001041999KA1240N+02531MA1999999099091MD1999999+0001MW1041REMSYN082AAXX  27124 82765 31597 80505 10294 20226 39909 40146 70400 8684/ 333 20253 58000;EQDQ01  00002PRCP06
0195827650999992003092718004-07333-047467FM-12+021299999V0200201N003110450019N0100001N1+03341+02221100971ADDAA106000091AY101061AY201061GF106991031021008001041001MA1999999098621MD1999999-0061MW1041REMSYN076AAXX  27184 82765 31597 60206 10334 20222 39862 40097 70400 83240 333 59006;EQDQ01  00002PRCP06
0236827650999992003092800004-07333-047467FM-12+021299999V0202701N001012200019N0100001N1+02861+02441101151ADDAA106000091AY101061AY201061GA1001+999999999GF100991001001999999001001KA1240M+03361MA1999999098791MD1999999-0011MW1041REMSYN088AAXX  28004 82765 31997 02702 10286 20244 39879 40115 70400 333 10336 29069 55064 59001;EQDQ01  00002PRCP06
0214827650999992003092812004-07333-047467FM-12+021299999V0201101N000510450019N0040001N1+02781+02321101621ADDAA106000091AY101061AY201061GF105991041011008001041001KA1240N+02451MA1999999099241MD1999999+0151MW1041REMSYN082AAXX  28124 82765 31596 51101 10278 20232 39924 40162 70400 84140 333 20245 58015;EQDQ01  00002PRCP06
0195827650999992003092818004-07333-047467FM-12+021299999V0202901N001010120019N0040001N1+03481+02221101061ADDAA106000091AY101061AY201061GF106991051081008001041001MA1999999098701MD1999999+0081MW1041REMSYN076AAXX  28184 82765 31596 62902 10348 20222 39870 40106 70400 85840 333 58008;EQDQ01  00002PRCP06
0202827650999992003092900004-07333-047467FM-12+021299999V0200501N001010120019N0100001N1+02541+02191101291ADDAY191061AY261061GF108991061081008001041999KA1240M+03561MA1999999098901MD1999999+0111MW1041REMSYN100AAXX  29004 82765 21597 80502 10254 20219 39890 40129 70496 8684/ 333 10356 29071 55056 58011 60041;
0190827650999992003092912004-07333-047467FM-12+021299999V0201101N001510450019N0100001N1+02861+02281101541ADDAY101061AY201061GF106991041081008001041001KA1240N+02391MA1999999099151MD1999999+0091MW1041REMSYN088AAXX  29124 82765 21597 61103 10286 20228 39915 40154 70400 84840 333 20239 58009 60044;
0195827650999992003092918004-07333-047467FM-12+021299999V0200201N000510450019N0100001N1+03601+02321101001ADDAA106000091AY101061AY201061GF106991041021008001041001MA1999999098651MD1999999-0051MW1041REMSYN076AAXX  29184 82765 31597 60201 10360 20232 39865 40100 70400 84240 333 59005;EQDQ01  00002PRCP06
0226827650999992003093000004-07333-047467FM-12+021299999V0201101N000512200019N0100001N1+02981+02371101281ADDAA106000091AY101061AY201061GF104991031011008001041001KA1240M+03701MA1999999098921MD1999999+0021MW1041REMSYN094AAXX  30004 82765 31597 41101 10298 20237 39892 40128 70400 83140 333 10370 29065 55071 58002;EQDQ01  00002PRCP06
0190827650999992003093012004-07333-047467FM-12+021299999V0209999C000010120019N0100001N1+02581+02381101651ADDAY161061AY251061GF108991061081008001021999KA1240N+02451MA1999999099261MD1999999+0111MW1041REMSYN088AAXX  30124 82765 21597 80000 10258 20238 39926 40165 70465 8682/ 333 20245 58011 60034;
0195827650999992003093018004-07333-047467FM-12+021299999V0202301N003110120019N0100001N1+02961+02311101351ADDAA106000091AY101061AY201061GF107991051081008001021001MA1999999098961MD1999999-0311MW1041REMSYN076AAXX  30184 82765 31597 72306 10296 20231 39896 40135 70400 85820 333 59031;EQDQ01  00002PRCP06
0226827650999992003100100004-07333-047467FM-12+021299999V0201601N000510120019N0100001N1+02541+02311101501ADDAA106000091AY101061AY201061GF107991051081008001041001KA1240M+03261MA1999999099091MD1999999+0171MW1041REMSYN094AAXX  01004 82765 31597 71601 10254 20231 39909 40150 70400 85840 333 10326 29083 55021 58017;EQDQ01  00002PRCP06
0214827650999992003100112004-07333-047467FM-12+021299999V0202301N002610450019N0100001N1+02511+02251101621ADDAA106000091AY121061AY211061GF106991041021008001031001KA1240N+02371MA1999999099211MD1999999-0051MW1041REMSYN082AAXX  01124 82765 31597 62305 10251 20225 39921 40162 70421 84230 333 20237 59005;EQDQ01  00002PRCP06
0195827650999992003100118004-07333-047467FM-12+021299999V0201101N002110450019N0100001N1+03301+02271101121ADDAA106000091AY121061AY221061GF106991041021008001061001MA1999999098751MD1999999-0211MW1041REMSYN076AAXX  01184 82765 31597 61104 10330 20227 39875 40112 70422 84260 333 59021;EQDQ01  00002PRCP06
0202827650999992003100200004-07333-047467FM-12+021299999V0209999C000010150019N0200001N1+02561+02361101241ADDAY161061AY221061GF108991081001017501011999KA1240M+03531MA1999999098841MD1999999-0251MW1021REMSYN100AAXX  02004 82765 21798 80000 10256 20236 39884 40124 70262 8801/ 333 10353 29080 55057 59025 60091;
0162827650999992003100212004-07333-047467FM-12+021299999V0200201N001010120019N0200001N1+02721+02411101491ADDGF107991051081008001041001KA1240N+02411MA1999999099091MD1999999-0121REMSYN082AAXX  02124 82765 22598 70202 10272 20241 39909 40149 85840 333 20241 59012 60094;
0167827650999992003100218004-07333-047467FM-12+021299999V02099999999990450019N0200001N1+03321+02231100981ADDAA106000091GF106991041021008001041001MA1999999098621MD1999999-0131REMSYN070AAXX  02184 82765 32598 6//// 10332 20223 39862 40098 84240 333 59013;EQDQ01  00002PRCP06
0198827650999992003100300004-07333-047467FM-12+021299999V02099999999992200019N0200001N1+02881+02441101141ADDAA106000091GF103991021011008001041001KA1240M+03441MA1999999098771MD1999999-0071REMSYN088AAXX  03004 82765 32598 3//// 10288 20244 39877 40114 82140 333 10344 29072 55053 59007;EQDQ01  00002PRCP06
0190827650999992003100312004-07333-047467FM-12+021299999V02099999999990120019N0200001N1+02561+02381101011ADDAY151061AY251061GF108991061081008001021999KA1240N+02591MA1999999099221MD1999999+0131MW1001REMSYN088AAXX  03124 82765 21598 8//// 10256 20238 39922 40101 70055 8682/ 333 20259 58013 69914;
0195827650999992003100318004-07333-047467FM-12+021299999V0201601N002610120019N0100001N1+03021+02361101231ADDAA106000091AY101061AY201061GF108991061081008001021999MA1999999098861MD1999999+0241MW1041REMSYN076AAXX  03184 82765 31597 81605 10302 20236 39886 40123 70400 8682/ 333 58024;EQDQ01  00002PRCP06
0226827650999992003100400004-07333-047467FM-12+021299999V0201401N000510120019N0100001N1+02741+02451101381ADDAA106000091AY101061AY201061GF108991061081008001021999KA1240M+03181MA1999999098991MD1999999+0221MW1041REMSYN094AAXX  04004 82765 31597 81401 10274 20245 39899 40138 70400 8682/ 333 10318 29082 55005 58022;EQDQ01  00002PRCP06
0186827650999992003100412004-07333-047467FM-12+021299999V0209999C000010450019N0200001N1+02761+02441101591ADDAA106000091GF106991041011008001041001KA1240N+02371MA1999999099201MD1999999+0021REMSYN076AAXX  04124 82765 32598 60000 10276 20244 39920 40159 84140 333 20237 58002;EQDQ01  00002PRCP06
0167827650999992003100418004-07333-047467FM-12+021299999V02099999999990450019N0200001N1+03541+01971101091ADDAA106000091GF106991041021008001041001MA1999999098731MD1999999-0131REMSYN070AAXX  04184 82765 32598 6//// 10354 20197 39873 40109 84240 333 59013;EQDQ01  00002PRCP06
0208827650999992003100500004-07333-047467FM-12+021299999V0209999C000012200019N0200001N1+03041+02311101221ADDAA106000091GA1001+999999999GF100991001001999999001001KA1240M+03661MA1999999098861MD1999999-0131REMSYN082AAXX  05004 82765 32998 00000 10304 20231 39886 40122 333 10366 29063 55076 59013;EQDQ01  00002PRCP06
0214827650999992003100512004-07333-047467FM-12+021299999V0203201N001512200019N0040001N1+02861+02111101431ADDAA106000091AY101061AY201061GF102991021011008001001001KA1240N+02361MA1999999099071MD1999999-0131MW1041REMSYN082AAXX  05124 82765 31596 23203 10286 20211 39907 40143 70400 82100 333 20236 59013;EQDQ01  00002PRCP06
0226827650999992003100600004-07333-047467FM-12+021299999V0209999C000012200019N0100001N1+03021+02291101111ADDAA106000091AY101061AY201061GF102991011011008001041001KA1240M+03701MA1999999098751MD1999999-0111MW1041REMSYN094AAXX  06004 82765 31597 20000 10302 20229 39875 40111 70400 81140 333 10370 29042 55090 59011;EQDQ01  00002PRCP06
0224827650999992003100612004-07333-047467FM-12+021299999V0203501N001510024019N0040001N1+02941+02031101351ADDAA106000091AY101061AY201061GA1091+999999999GF109991091999999999999999KA1240N+02281MA1999999098991MD1999999-0081MW1041REMSYN076AAXX  06124 82765 31/96 93503 10294 20203 39899 40135 70400 333 20228 59008;EQDQ01  00002PRCP06
0195827650999992003100618004-07333-047467FM-12+021299999V0200501N001010075019N0040001N1+03601+01991100891ADDAA106000091AY101061AY201061GF105991051021008001001001MA1999999098541MD1999999-0061MW1041REMSYN076AAXX  06184 82765 31596 50502 10360 20199 39854 40089 70400 85200 333 59006;EQDQ01  00002PRCP06
0198827650999992003100700004-07333-047467FM-12+021299999V0209999C000012200019N0200001N1+03041+02091101071ADDAA106000091GF103991031001012501031001KA1240M+03771MA1999999098721MD1999999+0031REMSYN088AAXX  07004 82765 32698 30000 10304 20209 39872 40107 83030 333 10377 29053 55093 58003;EQDQ01  00002PRCP06
0190827650999992003100712004-07333-047467FM-12+021299999V0203201N001510075019N0100001N1+02721+02281101691ADDAY121061AY221061GF108991081071008001999999KA1240N+02591MA1999999099311MD1999999+0321MW1211REMSYN088AAXX  07124 82765 21597 83203 10272 20228 39931 40169 72122 887// 333 20259 58032 60114;
0176827650999992003100718004-07333-047467FM-12+021299999V0209999C000010450019N0100001N1+03241+02361101091ADDAA106000021AY121061AY201061GF107991041021008001041001MA1999999098731MD1999999+0191MW1041REMSYN076AAXX  07184 82765 31597 70000 10324 20236 39873 40109 70420 84240 333 58019;
0208827650999992003100800004-07333-047467FM-12+021299999V0209999C000012200019N0200001N1+02841+02441101271ADDAA106000091GA1001+999999999GF100991001001999999001001KA1240M+03421MA1999999098891MD1999999+0171REMSYN082AAXX  08004 82765 32998 00000 10284 20244 39889 40127 333 10342 29073 55056 58017;EQDQ01  00002PRCP06
0214827650999992003100812004-07333-047467FM-12+021299999V0201401N001010120019N0020001N1+02561+02291101551ADDAA106000091AY121061AY221061GF108991051081008001011999KA1240N+02381MA1999999099161MD1999999-0151MW1051REMSYN082AAXX  08124 82765 31595 81402 10256 20229 39916 40155 70522 8581/ 333 20238 59015;EQDQ01  00002PRCP06
0171827650999992003100818004-07333-047467FM-12+021299999V0203201N002610450019N0100001N1+02731+02301101171ADDAY151061AY221061GF106991031021008001011001MA1999999098771MD1999999+0041MW1051REMSYN082AAXX  08184 82765 21597 63205 10273 20230 39877 40117 70552 83210 333 58004 69911;
0198827650999992003100900004-07333-047467FM-12+021299999V0209999C000010150019N0200001N1+02561+02361101281ADDAA106000091GF108991081001017501011999KA1240M+02891MA1999999098881MD1999999-0011REMSYN088AAXX  09004 82765 32798 80000 10256 20236 39888 40128 8801/ 333 10289 29085 55015 59001;EQDQ01  00002PRCP06
0162827650999992003100912004-07333-047467FM-12+021299999V0203201N001010450019N0200001N1+02641+02351101501ADDGF106991041031008001011001KA1240N+02341MA1999999099101MD1999999-0061REMSYN082AAXX  09124 82765 22598 63202 10264 20235 39910 40150 84310 333 20234 59006 69914;
0167827650999992003100918004-07333-047467FM-12+021299999V0202701N002110075019N0200001N1+03361+02211100991ADDAA106000091GF107991071021008001001001MA1999999098621MD1999999-0141REMSYN070AAXX  09184 82765 32598 72704 10336 20221 39862 40099 87200 333 59014;EQDQ01  00002PRCP06
0208827650999992003101000004-07333-047467FM-12+021299999V0209999C000012200019N0200001N1+02971+02641101121ADDAA106000091GA1001+999999999GF100991001001999999001001KA1240M+03511MA1999999098751MD1999999-0131REMSYN082AAXX  10004 82765 32998 00000 10297 20264 39875 40112 333 10351 29075 55073 59013;EQDQ01  00002PRCP06
0224827650999992003101012004-07333-047467FM-12+021299999V0203201N001010012019N0020001N1+02651+02181101521ADDAA106000091AY141061AY211061GA1091+999999999GF109991091999999999999999KA1240N+02451MA1999999099141MD1999999+0041MW1051REMSYN076AAXX  10124 82765 31/95 93202 10265 20218 39914 40152 70541 333 20245 58004;EQDQ01  00002PRCP06
0195827650999992003101018004-07333-047467FM-12+021299999V0200501N003110075019N0020001N1+03441+02001101031ADDAA106000091AY141061AY221061GF105991051021008001001001MA1999999098671MD1999999+0051MW1051REMSYN076AAXX  10184 82765 31595 50506 10344 20200 39867 40103 70542 85200 333 58005;EQDQ01  00002PRCP06
0198827650999992003101100004-07333-047467FM-12+021299999V0209999C000010150019N0200001N1+03051+02481101121ADDAA106000091GF106991061001017501011001KA1240M+03541MA1999999098751MD1999999+0001REMSYN088AAXX  11004 82765 32798 60000 10305 20248 39875 40112 86010 333 10354 29066 55066 58000;EQDQ01  00002PRCP06
0214827650999992003101112004-07333-047467FM-12+021299999V0201101N001010120019N0040001N1+02761+02361101641ADDAA106000091AY101061AY201061GF108991061081008001021999KA1240N+02451MA1999999099261MD1999999+0121MW1041REMSYN082AAXX  11124 82765 31596 81102 10276 20236 39926 40164 70400 8682/ 333 20245 58012;EQDQ01  00002PRCP06
0195827650999992003101118004-07333-047467FM-12+021299999V0200501N002110450019N0040001N1+03481+02181101081ADDAA106000091AY101061AY201061GF106991041011008001041001MA1999999098721MD1999999+0051MW1041REMSYN076AAXX  11184 82765 31596 60504 10348 20218 39872 40108 70400 84140 333 58005;EQDQ01  00002PRCP06
0236827650999992003101200004-07333-047467FM-12+021299999V0202701N002612200019N0040001N1+03081+02521101271ADDAA106000091AY101061AY201061GA1001+999999999GF100991001001999999001001KA1240M+03541MA1999999098901MD1999999+0151MW1041REMSYN088AAXX  12004 82765 31996 02705 10308 20252 39890 40127 70400 333 10354 29067 55076 58015;EQDQ01  00002PRCP06
0224827650999992003101212004-07333-047467FM-12+021299999V0203201N001010012019N0020001N1+02861+02281101421ADDAA106000091AY101061AY201061GA1091+999999999GF109991091999999999999999KA1240N+02531MA1999999099061MD1999999-0201MW1041REMSYN076AAXX  12124 82765 31/95 93202 10286 20228 39906 40142 70400 333 20253 59020;EQDQ01  00002PRCP06
0205827650999992003101218004-07333-047467FM-12+021299999V0203201N001010012019N0020001N1+03361+02301100941ADDAA106000091AY101061AY201061GA1091+999999999GF109991091999999999999999MA1999999098591MD1999999-0131MW1041REMSYN070AAXX  12184 82765 31/95 93202 10336 20230 39859 40094 70400 333 59013;EQDQ01  00002PRCP06
0202827650999992003101300004-07333-047467FM-12+021299999V0202301N003110075019N0040001N1+02441+02351101411ADDAY191061AY261061GF108991061051008001021999KA1240M+03541MA1999999099021MD1999999+0121MW1041REMSYN100AAXX  13004 82765 21596 82306 10244 20235 39902 40141 70496 8652/ 333 10354 29079 55066 58012 60151;
0162827650999992003101312004-07333-047467FM-12+021299999V0201401N001510075019N0200001N1+02521+02251101491ADDGF107991051021008001031001KA1240N+02331MA1999999099081MD1999999+0021REMSYN082AAXX  13124 82765 22598 71403 10252 20225 39908 40149 85230 333 20233 58002 60154;
0171827650999992003101318004-07333-047467FM-12+021299999V0201401N001010450019N0100001N1+03141+02381101151ADDAY101061AY201061GF105991031021008001041001MA1999999098771MD1999999+0181MW1041REMSYN082AAXX  13184 82765 21597 51402 10314 20238 39877 40115 70400 83240 333 58018 60061;
0212827650999992003101400004-07333-047467FM-12+021299999V0201401N000519999999N0200001N1+02301+02231101611ADDAY161061AY261061GA1091+999999999GF109991091999999999999999KA1240M+03281MA1999999099191MD1999999+0171MW1001REMSYN094AAXX  14004 82765 21/98 91401 10230 20223 39919 40161 70066 333 10328 29085 55072 58017 60181;
0190827650999992003101412004-07333-047467FM-12+021299999V0209999C000010450019N0100001N1+02361+02201101761ADDAY151061AY221061GF108991041081004501021999KA1240N+02261MA1999999099281MD1999999+0201MW1031REMSYN088AAXX  14124 82765 21497 80000 10236 20220 39928 40176 70352 8482/ 333 20226 58020 60184;
0167827650999992003101418004-07333-047467FM-12+021299999V0201101N000512200019N0200001N1+03071+02271101281ADDAA106000091GF104991031031008001061001MA1999999098891MD1999999+0121REMSYN070AAXX  14184 82765 32598 41101 10307 20227 39889 40128 83360 333 58012;EQDQ01  00002PRCP06
0208827650999992003101500004-07333-047467FM-12+021299999V0202001N001010024019N0100001N1+02691+02351101391ADDAA106000091GA1091+999999999GF109991091999999999999999KA1240M+03261MA1999999098981MD1999999-0211REMSYN082AAXX  15004 82765 32/97 92002 10269 20235 39898 40139 333 10326 29080 55039 59021;EQDQ01  00002PRCP06
0167827650999992003101518004-07333-047467FM-12+021299999V0200201N001010450019N0200001N1+03221+02291101231ADDAA106000091GF107991041081008001021001MA1999999098861MD1999999-0031REMSYN070AAXX  15184 82765 32598 70202 10322 20229 39886 40123 84820 333 59003;EQDQ01  00002PRCP06
0202827650999992003101600004-07333-047467FM-12+021299999V0202701N001010120019N0200001N1+02441+02301101581ADDAY151061AY251061GF108991061081008001021999KA1240M+03361MA1999999099171MD1999999+0191MW1001REMSYN100AAXX  16004 82765 21598 82702 10244 20230 39917 40158 70055 8682/ 333 10336 29082 55040 58019 69941;
0167827650999992003101618004-07333-047467FM-12+021299999V0200901N002610075019N0200001N1+03291+02131101131ADDAA106000091GF107991051021008001011001MA1999999098761MD1999999-0101REMSYN070AAXX  16184 82765 32598 70905 10329 20213 39876 40113 85210 333 59010;EQDQ01  00002PRCP06
0208827650999992003101700004-07333-047467FM-12+021299999V0209999C000019999999N0200001N1+02991+02401101291ADDAA106000091GA1091+999999999GF109991091999999999999999KA1240M+03451MA1999999098921MD1999999-0101REMSYN082AAXX  17004 82765 32/98 90000 10299 20240 39892 40129 333 10345 29068 55053 59010;EQDQ01  00002PRCP06
0186827650999992003101712004-07333-047467FM-12+021299999V0201101N003110075019N0200001N1+02861+02231101461ADDAA106000091GF107991051011008001041001KA1240N+02651MA1999999099091MD1999999-0051REMSYN076AAXX  17124 82765 32598 71106 10286 20223 39909 40146 85140 333 20265 59005;EQDQ01  00002PRCP06
0198827650999992003101800004-07333-047467FM-12+021299999V0203601N001012200019N0200001N1+02761+02441101301ADDAA106000091GF102991011021008001041001KA1240M+03361MA1999999098921MD1999999+0001REMSYN088AAXX  18004 82765 32598 23602 10276 20244 39892 40130 81240 333 10336 29076 55029 58000;EQDQ01  00002PRCP06
0186827650999992003101812004-07333-047467FM-12+021299999V0200501N002610075019N0200001N1+02681+02391101611ADDAA106000091GF106991051021008001041001KA1240N+02411MA1999999099221MD1999999+0131REMSYN076AAXX  18124 82765 32598 60505 10268 20239 39922 40161 85240 333 20241 58013;EQDQ01  00002PRCP06
0167827650999992003101818004-07333-047467FM-12+021299999V0200501N001510450019N0200001N1+03361+02271101171ADDAA106000091GF106991041021008001041001MA1999999098801MD1999999+0021REMSYN070AAXX  18184 82765 32598 60503 10336 20227 39880 40117 84240 333 58002;EQDQ01  00002PRCP06
0208827650999992003101900004-07333-047467FM-12+021299999V0209999C000012200019N0200001N1+02761+02481101371ADDAA106000091GA1001+999999999GF100991001001999999001001KA1240M+03441MA1999999098981MD1999999+0061REMSYN082AAXX  19004 82765 32998 00000 10276 20248 39898 40137 333 10344 29077 55061 58006;EQDQ01  00002PRCP06
0162827650999992003101912004-07333-047467FM-12+021299999V0200201N001012200019N0200001N1+02981+02331101591ADDGF102991011011008001041001KA1240N+02351MA1999999099221MD1999999+0001REMSYN082AAXX  19124 82765 22598 20202 10298 20233 39922 40159 81140 333 20235 58000 69914;
0167827650999992003101918004-07333-047467FM-12+021299999V0200501N002612200019N0200001N1+03641+02021101041ADDAA106000091GF104991031021008001041001MA1999999098691MD1999999-0111REMSYN070AAXX  19184 82765 32598 40505 10364 20202 39869 40104 83240 333 59011;EQDQ01  00002PRCP06
0214827650999992003102000004-07333-047467FM-12+021299999V0202901N000512200019N0200001N1+03121+02411101201ADDAA106000091GF102991999011008001011041KA1240M+03761MA1999999098851MD1999999-0131REMSYN088AAXX  20004 82765 32598 22901 10312 20241 39885 40120 88114 333 10376 29060 55107 59013;EQDQ01+000082SCOTLCQ02  00002PRCP06
0214827650999992003102012004-07333-047467FM-12+021299999V0203601N001510450019N0100001N1+02891+02351101561ADDAA106000091AY121061AY221061GF106991041031008001011001KA1240N+02561MA1999999099201MD1999999-0021MW1051REMSYN082AAXX  20124 82765 31597 63603 10289 20235 39920 40156 70522 84310 333 20256 59002;EQDQ01  00002PRCP06
0195827650999992003102018004-07333-047467FM-12+021299999V0200501N001510075019N0100001N1+03471+02331101031ADDAA106000091AY121061AY221061GF106991061031008001001001MA1999999098681MD1999999-0011MW1051REMSYN076AAXX  20184 82765 31597 60503 10347 20233 39868 40103 70522 86300 333 59001;EQDQ01  00002PRCP06
0226827650999992003102100004-07333-047467FM-12+021299999V0203201N001012200019N0100001N1+03101+02441101151ADDAA106000091AY101061AY201061GF103991021011008001041001KA1240M+03661MA1999999098801MD1999999-0051MW1041REMSYN094AAXX  21004 82765 31597 33202 10310 20244 39880 40115 70400 82140 333 10366 29065 55092 59005;EQDQ01  00002PRCP06
0214827650999992003102112004-07333-047467FM-12+021299999V0203601N002110120019N0100001N1+02941+02331101501ADDAA106000091AY121061AY221061GF107991051081008001011001KA1240N+02681MA1999999099141MD1999999-0061MW1051REMSYN082AAXX  21124 82765 31597 73604 10294 20233 39914 40150 70522 85810 333 20268 59006;EQDQ01  00002PRCP06
0195827650999992003102118004-07333-047467FM-12+021299999V0200501N001010450019N0100001N1+03461+02261100941ADDAA106000091AY121061AY221061GF106991041031008001061001MA1999999098601MD1999999-0081MW1051REMSYN076AAXX  21184 82765 31597 60502 10346 20226 39860 40094 70522 84360 333 59008;EQDQ01  00002PRCP06
0236827650999992003102200004-07333-047467FM-12+021299999V0203201N001510024019N0100001N1+03031+02261101121ADDAA106000091AY121061AY221061GA1091+999999999GF109991091999999999999999KA1240M+03031MA1999999098771MD1999999-0031MW1041REMSYN088AAXX  22004 82765 31/97 93203 10303 20226 39877 40112 70422 333 10303 29062 55078 59003;EQDQ01  00002PRCP06
0214827650999992003102212004-07333-047467FM-12+021299999V0202301N001012200019N0100001N1+02841+02401101481ADDAA106000091AY111061AY211061GF103991031001017501031001KA1240N+02591MA1999999099111MD1999999-0031MW1051REMSYN082AAXX  22124 82765 31797 32302 10284 20240 39911 40148 70511 83030 333 20259 59003;EQDQ01  00002PRCP06
0167827650999992003102218004-07333-047467FM-12+021299999V0203601N001510450019N0200001N1+03401+02341100991ADDAA106000091GF106991041031008001051001MA1999999098641MD1999999+0041REMSYN070AAXX  22184 82765 32598 63603 10340 20234 39864 40099 84350 333 58004;EQDQ01  00002PRCP06
0208827650999992003102300004-07333-047467FM-12+021299999V0209999C000019999999N0200001N1+03041+02591101191ADDAA106000091GA1091+999999999GF109991091999999999999999KA1240M+03531MA1999999098831MD1999999+0061REMSYN082AAXX  23004 82765 32/98 90000 10304 20259 39883 40119 333 10353 29071 55069 58006;EQDQ01  00002PRCP06
0214827650999992003102312004-07333-047467FM-12+021299999V0201401N001010120019N0040001N1+02611+02291101591ADDAA106000091AY121061AY221061GF108991051081008001021999KA1240N+02521MA1999999099211MD1999999+0101MW1051REMSYN082AAXX  23124 82765 31596 81402 10261 20229 39921 40159 70522 8582/ 333 20252 58010;EQDQ01  00002PRCP06
0171827650999992003102318004-07333-047467FM-12+021299999V0201401N003110120019N0100001N1+02751+02401101411ADDAY161061AY221061GF108991051081008001021999MA1999999099011MD1999999+0371MW1171REMSYN082AAXX  23184 82765 21597 81406 10275 20240 39901 40141 71762 8582/ 333 58037 60011;
0208827650999992003102400004-07333-047467FM-12+021299999V0201801N001010024019N0100001N1+02311+02141101601ADDAA106000091GA1091+999999999GF109991091999999999999999KA1240M+03171MA1999999099181MD1999999+0351REMSYN082AAXX  24004 82765 32/97 91802 10231 20214 39918 40160 333 10317 29087 55015 58035;EQDQ01  00002PRCP06
0162827650999992003102412004-07333-047467FM-12+021299999V0200501N001510120019N0200001N1+02441+02271101901ADDGF108991061081008001999999KA1240N+02231MA1999999099461MD1999999+0251REMSYN082AAXX  24124 82765 22598 80503 10244 20227 39946 40190 868// 333 20223 58025 60014;
0167827650999992003102418004-07333-047467FM-12+021299999V0201401N001510120019N0200001N1+03141+02381101441ADDAA106000091GF108991051081008001021999MA1999999099051MD1999999+0041REMSYN070AAXX  24184 82765 32598 81403 10314 20238 39905 40144 8582/ 333 58004;EQDQ01  00002PRCP06
0198827650999992003102500004-07333-047467FM-12+021299999V0201801N000510120019N0200001N1+02701+02451101581ADDAA106000091GF106991051081008001021001KA1240M+03241MA1999999099201MD1999999+0021REMSYN088AAXX  25004 82765 32598 61801 10270 20245 39920 40158 85820 333 10324 29054 55078 58002;EQDQ01  00002PRCP06
0186827650999992003102512004-07333-047467FM-12+021299999V0203601N002610450019N0200001N1+02821+02311101691ADDAA106000091GF106991041081008001041001KA1240N+02451MA1999999099301MD1999999-0161REMSYN076AAXX  25124 82765 32598 63605 10282 20231 39930 40169 84840 333 20245 59016;EQDQ01  00002PRCP06
0195827650999992003102518004-07333-047467FM-12+021299999V0201801N001512200019N0100001N1+03321+02321101131ADDAA106000091AY101061AY201061GF104991031021008001041001MA1999999098761MD1999999-0291MW1041REMSYN076AAXX  25184 82765 31597 41803 10332 20232 39876 40113 70400 83240 333 59029;EQDQ01  00002PRCP06
0208827650999992003102600004-07333-047467FM-12+021299999V0203201N000512200019N0200001N1+02741+02381101251ADDAA106000091GA1001+999999999GF100991001001999999001001KA1240M+03441MA1999999098871MD1999999-0331REMSYN082AAXX  26004 82765 32998 03201 10274 20238 39887 40125 333 10344 29073 55097 59033;EQDQ01  00002PRCP06
0186827650999992003102612004-07333-047467FM-12+021299999V0200901N001510120019N0200001N1+02661+02391101361ADDAA106000091GF107991051081008001041001KA1240N+02511MA1999999098971MD1999999-0331REMSYN076AAXX  26124 82765 32598 70903 10266 20239 39897 40136 85840 333 20251 59033;EQDQ01  00002PRCP06
0171827650999992003102618004-07333-047467FM-12+021299999V0200501N001510120019N0200001N1+02781+02211101131ADDAY191061AY261061GF107991061081008001041001MA1999999098741MD1999999-0021MW1001REMSYN082AAXX  26184 82765 21598 70503 10278 20221 39874 40113 70096 86840 333 59002 60181;
0190827650999992003102712004-07333-047467FM-12+021299999V0203201N000510450019N0040001N1+02631+02351101421ADDAY141061AY221061GF107991041021008001011001KA1240N+02381MA1999999099021MD1999999+0051MW1051REMSYN088AAXX  27124 82765 21596 73201 10263 20235 39902 40142 70542 84210 333 20238 58005 60184;
0171827650999992003102718004-07333-047467FM-12+021299999V0203601N001510450019N0040001N1+03071+02401100981ADDAY161061AY221061GF107991041021008001011001MA1999999098601MD1999999-0141MW1051REMSYN082AAXX  27184 82765 21596 73603 10307 20240 39860 40098 70562 84210 333 59014 69921;
0226827650999992003102800004-07333-047467FM-12+021299999V0203601N000510075019N0100001N1+02861+02501101161ADDAA106000091AY101061AY201061GF107991051021008001011001KA1240M+03321MA1999999098781MD1999999-0011MW1041REMSYN094AAXX  28004 82765 31597 73601 10286 20250 39878 40116 70400 85210 333 10332 29079 55050 59001;EQDQ01  00002PRCP06
0190827650999992003102812004-07333-047467FM-12+021299999V0203601N000510120019N0040001N1+02461+02341101471ADDAY161061AY241061GF108991051081008001021999KA1240N+02371MA1999999099071MD1999999+0051MW1101REMSYN088AAXX  28124 82765 21596 83601 10246 20234 39907 40147 71064 8582/ 333 20237 58005 60224;
0171827650999992003102818004-07333-047467FM-12+021299999V0209999C000010120019N0040001N1+02551+02381101211ADDAY161061AY241061GF108991051081008001021999MA1999999098811MD1999999+0211MW1101REMSYN082AAXX  28184 82765 21596 80000 10255 20238 39881 40121 71064 8582/ 333 58021 60011;
0208827650999992003102900004-07333-047467FM-12+021299999V0209999C000019999999N0200001N1+02461+02371101321ADDAA106000091GA1091+999999999GF109991091999999999999999KA1240M+02881MA1999999098911MD1999999+0131REMSYN082AAXX  29004 82765 32/98 90000 10246 20237 39891 40132 333 10288 29094 55004 58013;EQDQ01  00002PRCP06
0190827650999992003102912004-07333-047467FM-12+021299999V0209999C000010120019N0040001N1+02581+02441101541ADDAY101061AY201061GF106991051081008001041001KA1240N+02291MA1999999099131MD1999999+0061MW1041REMSYN088AAXX  29124 82765 21596 60000 10258 20244 39913 40154 70400 85840 333 20229 58006 60014;
0195827650999992003102918004-07333-047467FM-12+021299999V0200501N002110450019N0040001N1+03661+02371101021ADDAA106000091AY101061AY201061GF106991041021008001041071MA1999999098651MD1999999-0161MW1041REMSYN076AAXX  29184 82765 31596 60504 10366 20237 39865 40102 70400 84247 333 59016;EQDQ01  00002PRCP06
0226827650999992003103000004-07333-047467FM-12+021299999V0200501N000512200019N0100001N1+02941+02601101191ADDAA106000091AY101061AY201061GF102991011011008001041001KA1240M+03461MA1999999098811MD1999999-0101MW1041REMSYN094AAXX  30004 82765 31597 20501 10294 20260 39881 40119 70400 81140 333 10346 29079 55089 59010;EQDQ01  00002PRCP06
0214827650999992003103012004-07333-047467FM-12+021299999V0203601N001510120019N0040001N1+02781+02401101511ADDAA106000091AY101061AY201061GF107991051081008001021001KA1240N+02471MA1999999099141MD1999999+0011MW1041REMSYN082AAXX  30124 82765 31596 73603 10278 20240 39914 40151 70400 85820 333 20247 58001;EQDQ01  00002PRCP06
0195827650999992003103018004-07333-047467FM-12+021299999V0201801N000510120019N0040001N1+03241+02421101051ADDAA106000091AY101061AY201061GF108991061081008001021999MA1999999098681MD1999999+0031MW1041REMSYN076AAXX  30184 82765 31596 81801 10324 20242 39868 40105 70400 8682/ 333 58003;EQDQ01  00002PRCP06
0226827650999992003103100004-07333-047467FM-12+021299999V0201801N002110450019N0100001N1+02661+02391101201ADDAA106000091AY101061AY201061GF105991041081008001021001KA1240M+03321MA1999999098821MD1999999+0011MW1041REMSYN094AAXX  31004 82765 31597 51804 10266 20239 39882 40120 70400 84820 333 10332 29078 55039 58001;EQDQ01  00002PRCP06
0214827650999992003103112004-07333-047467FM-12+021299999V0209999C000012200019N0100001N1+02641+02391101461ADDAA106000091AY101061AY201061GF103991021021008001041001KA1240N+02391MA1999999099061MD1999999-0081MW1041REMSYN082AAXX  31124 82765 31597 30000 10264 20239 39906 40146 70400 82240 333 20239 59008;EQDQ01  00002PRCP06
0176827650999992003103118004-07333-047467FM-12+021299999V0200501N002110450019N0100001N1+02841+02311101031ADDAA106000021AY101061AY201061GF106991031031008001041001MA1999999098641MD1999999-0041MW1961REMSYN076AAXX  31184 82765 31597 60504 10284 20231 39864 40103 79600 83340 333 59004;
0207827650999992003110100004-07333-047467FM-12+021299999V0203601N000510120019N0100001N1+02501+02361101211ADDAA106000021AY101061AY201061GF107991051081008001021001KA1240M+03421MA1999999098821MD1999999+0001MW1041REMSYN094AAXX  01004 82765 31597 73601 10250 20236 39882 40121 70400 85820 333 10342 29086 55047 58000;
0214827650999992003110112004-07333-047467FM-12+021299999V0203201N001010450019N0040001N1+02601+02351101511ADDAA106000091AY141061AY221061GF107991041081008001011001KA1240N+02381MA1999999099101MD1999999+0041MW1051REMSYN082AAXX  01124 82765 31596 73202 10260 20235 39910 40151 70542 84810 333 20238 58004;EQDQ01  00002PRCP06
0195827650999992003110118004-07333-047467FM-12+021299999V0201801N002110120019N0040001N1+02491+02271101401ADDAA106000091AY141061AY221061GF108991051081008001021999MA1999999098981MD1999999+0341MW1101REMSYN076AAXX  01184 82765 31596 81804 10249 20227 39898 40140 71042 8582/ 333 58034;EQDQ01  00002PRCP06
0236827650999992003110200004-07333-047467FM-12+021299999V0201101N000510024019N0100001N1+02301+02201101411ADDAA106000091AY121061AY221061GA1091+999999999GF109991091999999999999999KA1240M+03091MA1999999099001MD1999999+0181MW1001REMSYN088AAXX  02004 82765 31/97 91101 10230 20220 39900 40141 70022 333 10309 29090 55007 58018;EQDQ01  00002PRCP06
0186827650999992003110212004-07333-047467FM-12+021299999V0202301N001010450019N0200001N1+02341+02171101601ADDAA106000091GF108991041071004501021999KA1240N+02201MA1999999099171MD1999999+0071REMSYN076AAXX  02124 82765 32498 82302 10234 20217 39917 40160 8472/ 333 20220 58007;EQDQ01  00002PRCP06
0167827650999992003110218004-07333-047467FM-12+021299999V0202301N002112200019N0200001N1+03231+02261101051ADDAA106000091GF104991021091008001061041MA1999999098661MD1999999-0321REMSYN070AAXX  02184 82765 32598 42304 10323 20226 39866 40105 82964 333 59032;EQDQ01  00002PRCP06
0226827650999992003110300004-07333-047467FM-12+021299999V0209999C000010450019N0200001N1+02921+02431101251ADDAA106000091AY121061AY221061GF105991031021008001011001KA1240M+03391MA1999999098861MD1999999-0141MW1131REMSYN094AAXX  03004 82765 31598 50000 10292 20243 39886 40125 71322 83210 333 10339 29074 55081 59014;EQDQ01  00002PRCP06
0190827650999992003110312004-07333-047467FM-12+021299999V0200501N002610450019N0100001N1+02641+02311101451ADDAY121061AY221061GF107991041071008001021001KA1240N+02411MA1999999099071MD1999999-0101MW1631REMSYN088AAXX  03124 82765 21597 70505 10264 20231 39907 40145 76322 84720 333 20241 59010 60024;
0171827650999992003110318004-07333-047467FM-12+021299999V0203201N000510450019N0200001N1+03301+02301100921ADDAY161061AY221061GF106991041031008001011001MA1999999098561MD1999999-0101MW1031REMSYN082AAXX  03184 82765 21598 63201 10330 20230 39856 40092 70362 84310 333 59010 69931;
0207827650999992003110400004-07333-047467FM-12+021299999V0203601N004110120019N0200001N1+02641+02231101381ADDAA106000021AY151061AY211061GF108991061081008001021999KA1240M+03421MA1999999098991MD1999999+0131MW1951REMSYN094AAXX  04004 82765 31598 83608 10264 20223 39899 40138 79551 8682/ 333 10342 29074 55046 58013;
0190827650999992003110412004-07333-047467FM-12+021299999V0200501N001510120019N0200001N1+02521+02341101431ADDAY151061AY261061GF108991061081008001021999KA1240N+02311MA1999999099031MD1999999-0041MW1001REMSYN088AAXX  04124 82765 21598 80503 10252 20234 39903 40143 70056 8682/ 333 20231 59004 60024;
0176827650999992003110418004-07333-047467FM-12+021299999V0203601N003110120019N0200001N1+02541+02191101241ADDAA106000021AY191061AY291061GF108991061081008001021999MA1999999098831MD1999999+0271MW1511REMSYN076AAXX  04184 82765 31598 83606 10254 20219 39883 40124 75199 8682/ 333 58027;
0202827650999992003110500004-07333-047467FM-12+021299999V0209999C000010120019N0200001N1+02411+02191101621ADDAY121061AY221061GF108991081081008001999999KA1240M+03041MA1999999099201MD1999999+0211MW1031REMSYN100AAXX  05004 82765 21598 80000 10241 20219 39920 40162 70322 888// 333 10304 29087 55006 58021 60011;
0162827650999992003110512004-07333-047467FM-12+021299999V0200501N000510120019N0200001N1+02521+02341101711ADDGF107991051081008001021001KA1240N+02351MA1999999099291MD1999999+0261REMSYN082AAXX  05124 82765 22598 70501 10252 20234 39929 40171 85820 333 20235 58026 60014;
0167827650999992003110518004-07333-047467FM-12+021299999V0200501N002110120019N0200001N1+03061+02351101181ADDAA106000091GF107991061081008001021001MA1999999098801MD1999999-0031REMSYN070AAXX  05184 82765 32598 70504 10306 20235 39880 40118 86820 333 59003;EQDQ01  00002PRCP06
0202827650999992003110600004-07333-047467FM-12+021299999V0209999C000010120019N0200001N1+02361+02311101521ADDAY191061AY261061GF108991061081008001021999KA1240M+03221MA1999999099101MD1999999-0101MW1001REMSYN100AAXX  06004 82765 21598 80000 10236 20231 39910 40152 70096 8682/ 333 10322 29087 55036 59010 60141;
0162827650999992003110612004-07333-047467FM-12+021299999V0200701N001510450019N0200001N1+02521+02341101681ADDGF105991041081008001041001KA1240N+02311MA1999999099261MD1999999-0031REMSYN082AAXX  06124 82765 22598 50703 10252 20234 39926 40168 84840 333 20231 59003 60144;
0195827650999992003110618004-07333-047467FM-12+021299999V0202301N001012200019N0200001N1+03121+02411101151ADDAA106000091AY101061AY201061GF103991011031008001041001MA1999999098761MD1999999-0041MW1291REMSYN076AAXX  06184 82765 31598 32302 10312 20241 39876 40115 72900 81340 333 59004;EQDQ01  00002PRCP06
0198827650999992003110700004-07333-047467FM-12+021299999V0201801N000512200019N0200001N1+02661+02431101331ADDAA106000091GF102991011011008001041001KA1240M+03301MA1999999098931MD1999999-0171REMSYN088AAXX  07004 82765 32598 21801 10266 20243 39893 40133 81140 333 10330 29082 55080 59017;EQDQ01  00002PRCP06
0186827650999992003110712004-07333-047467FM-12+021299999V0201401N001012200019N0200001N1+02821+02441101351ADDAA106000091GF104991011011008001011041KA1240N+02401MA1999999098971MD1999999-0291REMSYN076AAXX  07124 82765 32598 41402 10282 20244 39897 40135 81114 333 20240 59029;EQDQ01  00002PRCP06
0167827650999992003110718004-07333-047467FM-12+021299999V0201401N001010450019N0200001N1+03351+02371100921ADDAA106000091GF107991041031008001011041MA1999999098561MD1999999-0201REMSYN070AAXX  07184 82765 32598 71402 10335 20237 39856 40092 84314 333 59020;EQDQ01  00002PRCP06
0186827650999992003110812004-07333-047467FM-12+021299999V0209999C000010450019N0200001N1+02711+02261101431ADDAA106000091GF107991041081008001011001KA1240N+02451MA1999999099051MD1999999+0081REMSYN076AAXX  08124 82765 32598 70000 10271 20226 39905 40143 84810 333 20245 58008;EQDQ01  00002PRCP06
0167827650999992003110818004-07333-047467FM-12+021299999V0200901N001510450019N0200001N1+02831+02311101231ADDAA106000091GF108991031081008001021999MA1999999098851MD1999999+0291REMSYN070AAXX  08184 82765 32598 80903 10283 20231 39885 40123 8382/ 333 58029;EQDQ01  00002PRCP06
0226827650999992003110900004-07333-047467FM-12+021299999V0201801N001010450019N0200001N1+02631+02421101441ADDAA106000091AY121061AY221061GF108991031081008001021999KA1240M+02981MA1999999099051MD1999999+0401MW1131REMSYN094AAXX  09004 82765 31598 81802 10263 20242 39905 40144 71322 8382/ 333 10298 29082 55015 58040;EQDQ01  00002PRCP06
0186827650999992003110912004-07333-047467FM-12+021299999V0203601N003110450019N0200001N1+02661+02311101501ADDAA106000091GF108991041081008001021999KA1240N+02411MA1999999099101MD1999999+0051REMSYN076AAXX  09124 82765 32598 83606 10266 20231 39910 40150 8482/ 333 20241 58005;EQDQ01  00002PRCP06
0167827650999992003110918004-07333-047467FM-12+021299999V0202701N001510450019N0200001N1+03041+02331101111ADDAA106000091GF108991041031008001011999MA1999999098731MD1999999-0121REMSYN070AAXX  09184 82765 32598 82703 10304 20233 39873 40111 8431/ 333 59012;EQDQ01  00002PRCP06
0202827650999992003111000004-07333-047467FM-12+021299999V0200901N001010450019N0200001N1+02341+02181101471ADDAY161061AY221061GF108991041071008001021999KA1240M+03261MA1999999099061MD1999999+0011MW1031REMSYN100AAXX  10004 82765 21598 80902 10234 20218 39906 40147 70362 8472/ 333 10326 29082 55051 58001 60171;
0162827650999992003111012004-07333-047467FM-12+021299999V0201601N001010120019N0200001N1+02421+02301101641ADDGF108991061081008001021999KA1240N+02291MA1999999099221MD1999999+0121REMSYN082AAXX  10124 82765 22598 81602 10242 20230 39922 40164 8682/ 333 20229 58012 60174;
0167827650999992003111018004-07333-047467FM-12+021299999V0200901N002110120019N0200001N1+02901+02321101241ADDAA106000091GF107991051081008001021001MA1999999098841MD1999999+0111REMSYN070AAXX  10184 82765 32598 70904 10290 20232 39884 40124 85820 333 58011;EQDQ01  00002PRCP06
0198827650999992003111100004-07333-047467FM-12+021299999V0209999C000010120019N0200001N1+02621+02481101411ADDAA106000091GF107991051081008001021001KA1240M+03041MA1999999099001MD1999999-0061REMSYN088AAXX  11004 82765 32598 70000 10262 20248 39900 40141 85820 333 10304 29087 55030 59006;EQDQ01  00002PRCP06
0186827650999992003111112004-07333-047467FM-12+021299999V0209999C000012200019N0200001N1+02701+02371101421ADDAA106000091GF104991031011008001041001KA1240N+02371MA1999999099031MD1999999-0191REMSYN076AAXX  11124 82765 32598 40000 10270 20237 39903 40142 83140 333 20237 59019;EQDQ01  00002PRCP06
0202827650999992003111200004-07333-047467FM-12+021299999V0203201N001010075019N0200001N1+02441+02211101201ADDAY161061AY221061GF108991051071008001021999KA1240M+03551MA1999999098801MD1999999-0201MW1131REMSYN100AAXX  12004 82765 21598 83202 10244 20221 39880 40120 71362 8572/ 333 10355 29078 55106 59020 60081;
0162827650999992003111212004-07333-047467FM-12+021299999V0209999C000010450019N0200001N1+02861+02441101501ADDGF105991041011008001041001KA1240N+02391MA1999999099101MD1999999+0071REMSYN082AAXX  12124 82765 22598 50000 10286 20244 39910 40150 84140 333 20239 58007 60074;
0167827650999992003111218004-07333-047467FM-12+021299999V0200701N001010450019N0200001N1+03281+02401101081ADDAA106000091GF106991041021008001041001MA1999999098711MD1999999+0071REMSYN070AAXX  12184 82765 32598 60702 10328 20240 39871 40108 84240 333 58007;EQDQ01  00002PRCP06
0198827650999992003111300004-07333-047467FM-12+021299999V0209999C000012200019N0200001N1+02921+02621101211ADDAA106000091GF102991021011008001001001KA1240M+03421MA1999999098851MD1999999+0051REMSYN088AAXX  13004 82765 32598 20000 10292 20262 39885 40121 82100 333 10342 29076 55080 58005;EQDQ01  00002PRCP06
0214827650999992003111312004-07333-047467FM-12+021299999V0203201N001512200019N0020001N1+02921+02361101521ADDAA106000091AY121061AY211061GF104991041021008001001001KA1240N+02451MA1999999099151MD1999999+0051MW1051REMSYN082AAXX  13124 82765 31595 43203 10292 20236 39915 40152 70521 84200 333 20245 58005;EQDQ01  00002PRCP06
0211827650999992003111318004-07333-047467FM-12+021299999V0203601N003119999999N0100001N1+03371+02331101141ADDAA106000091AY121061AY221061GF106991999031008001001001MA1999999098781MD1999999+0071MW1051REMSYN076AAXX  13184 82765 31597 63606 10337 20233 39878 40114 70522 84300 333 58007;EQDQ01+000042SCOTLCQ02  00002PRCP06
0208827650999992003111400004-07333-047467FM-12+021299999V0209999C000010024019N0100001N1+02721+02451101271ADDAA106000091GA1091+999999999GF109991091999999999999999KA1240M+03441MA1999999098891MD1999999+0041REMSYN082AAXX  14004 82765 32/97 90000 10272 20245 39889 40127 333 10344 29074 55079 58004;EQDQ01  00002PRCP06
0214827650999992003111412004-07333-047467FM-12+021299999V0203201N002110450019N0020001N1+02611+02371101531ADDAA106000091AY121061AY221061GF108991041071004501021999KA1240N+02471MA1999999099131MD1999999-0021MW1101REMSYN082AAXX  14124 82765 31495 83204 10261 20237 39913 40153 71022 8472/ 333 20247 59002;EQDQ01  00002PRCP06
0195827650999992003111418004-07333-047467FM-12+021299999V0203201N001010450019N0020001N1+03161+02391101171ADDAA106000091AY121061AY211061GF107991041021008001011001MA1999999098801MD1999999+0021MW1051REMSYN076AAXX  14184 82765 31595 73202 10316 20239 39880 40117 70521 84210 333 58002;EQDQ01  00002PRCP06
0185827650999992003111512004-07333-047467FM-12+021299999V0209999C000010450019N0040001N1+02751+02431101501ADDAA106000091AY121061AY221061GF105991031081008001011001MA1999999099121MW1101REMSYN080AAXX  15124 82765 31596 50000 10275 20243 39912 40150 71022 83810 3320245 59001;EQDQ01  00002PRCP06
0195827650999992003111518004-07333-047467FM-12+021299999V0203601N004110075019N0100001N1+03301+02421101101ADDAA106000091AY121061AY211061GF107991051031008001011001MA1999999098741MD1999999-0061MW1171REMSYN076AAXX  15184 82765 31597 73608 10330 20242 39874 40110 71721 85310 333 59006;EQDQ01  00002PRCP06
0208827650999992003111600004-07333-047467FM-12+021299999V0209999C000019999999N0200001N1+02591+02331101311ADDAA106000091GA1091+999999999GF109991091999999999999999KA1240M+03421MA1999999098921MD1999999-0051REMSYN082AAXX  16004 82765 32/98 90000 10259 20233 39892 40131 333 10342 29079 55054 59005;EQDQ01  00002PRCP06
0186827650999992003111612004-07333-047467FM-12+021299999V0200901N001010450019N0200001N1+02741+02391101501ADDAA106000091GF105991031021008001041001KA1240N+02371MA1999999099101MD1999999-0021REMSYN076AAXX  16124 82765 32598 50902 10274 20239 39910 40150 83240 333 20237 59002;EQDQ01  00002PRCP06
0195827650999992003111618004-07333-047467FM-12+021299999V0202701N002110450019N0200001N1+03161+02451101081ADDAA106000091AY191061AY291061GF106991041081008001041001MA1999999098701MD1999999-0041MW1001REMSYN076AAXX  16184 82765 31598 62704 10316 20245 39870 40108 70099 84840 333 59004;EQDQ01  00002PRCP06
0198827650999992003111700004-07333-047467FM-12+021299999V0200501N001510120019N0200001N1+02681+02331101221ADDAA106000091GF106991051081008001041001KA1240M+03421MA1999999098841MD1999999-0081REMSYN088AAXX  17004 82765 32598 60503 10268 20233 39884 40122 85840 333 10342 29077 55061 59008;EQDQ01  00002PRCP06
0186827650999992003111712004-07333-047467FM-12+021299999V0200901N000510120019N0200001N1+02641+02391101571ADDAA106000091GF108991061081008001021999KA1240N+02431MA1999999099171MD1999999+0071REMSYN076AAXX  17124 82765 32598 80901 10264 20239 39917 40157 8682/ 333 20243 58007;EQDQ01  00002PRCP06
0167827650999992003111718004-07333-047467FM-12+021299999V0209999C000010120019N0200001N1+03101+02601101091ADDAA106000091GF107991051081008001021001MA1999999098721MD1999999+0021REMSYN070AAXX  17184 82765 32598 70000 10310 20260 39872 40109 85820 333 58002;EQDQ01  00002PRCP06
0198827650999992003111800004-07333-047467FM-12+021299999V0201101N001510450019N0200001N1+02821+02561101321ADDAA106000091GF106991041081008001041001KA1240M+03181MA1999999098941MD1999999+0101REMSYN088AAXX  18004 82765 32598 61103 10282 20256 39894 40132 84840 333 10318 29081 55019 58010;EQDQ01  00002PRCP06
0186827650999992003111812004-07333-047467FM-12+021299999V0202301N001510075019N0200001N1+02761+02361101521ADDAA106000091GF106991051011008001041001KA1240N+02331MA1999999099141MD1999999-0031REMSYN076AAXX  18124 82765 32598 62303 10276 20236 39914 40152 85140 333 20233 59003;EQDQ01  00002PRCP06
0198827650999992003111900004-07333-047467FM-12+021299999V0203601N001012200019N0200001N1+02611+02331101151ADDAA106000091GF102991021011008001001001KA1240M+03241MA1999999098771MD1999999-0171REMSYN088AAXX  19004 82765 32598 23602 10261 20233 39877 40115 82100 333 10324 29078 55092 59017;EQDQ01  00002PRCP06
0186827650999992003111912004-07333-047467FM-12+021299999V0209999C000010450019N0200001N1+02471+02271101381ADDAA106000091GF108991041071008001021999KA1240N+02341MA1999999098981MD1999999-0161REMSYN076AAXX  19124 82765 32598 80000 10247 20227 39898 40138 8472/ 333 20234 59016;EQDQ01  00002PRCP06
0167827650999992003111918004-07333-047467FM-12+021299999V0202701N001010450019N0200001N1+02801+02361101111ADDAA106000091GF108991031081008001021999MA1999999098721MD1999999+0061REMSYN070AAXX  19184 82765 32598 82702 10280 20236 39872 40111 8382/ 333 58006;EQDQ01  00002PRCP06
0208827650999992003112000004-07333-047467FM-12+021299999V0202701N001019999999N0200001N1+02551+02361101221ADDAA106000091GA1091+999999999GF109991091999999999999999KA1240M+02891MA1999999098821MD1999999+0051REMSYN082AAXX  20004 82765 32/98 92702 10255 20236 39882 40122 333 10289 29086 55005 58005;EQDQ01  00002PRCP06
0186827650999992003112012004-07333-047467FM-12+021299999V0200901N001010075019N0200001N1+02581+02381101531ADDAA106000091GF107991071071008001001001KA1240N+02401MA1999999099121MD1999999+0141REMSYN076AAXX  20124 82765 32598 70902 10258 20238 39912 40153 87700 333 20240 58014;EQDQ01  00002PRCP06
0171827650999992003112018004-07333-047467FM-12+021299999V0209999C000010450019N0200001N1+02871+02331101161ADDAY161061AY221061GF107991041031008001021001MA1999999098771MD1999999+0051MW1031REMSYN082AAXX  20184 82765 21598 70000 10287 20233 39877 40116 70362 84320 333 58005 69921;
0212827650999992003112100004-07333-047467FM-12+021299999V0202901N001010024019N0100001N1+02391+02281101391ADDAY161061AY221061GA1091+999999999GF109991091999999999999999KA1240M+03211MA1999999098981MD1999999+0161MW1001REMSYN094AAXX  21004 82765 21/97 92902 10239 20228 39898 40139 70062 333 10321 29088 55040 58016 60111;
0190827650999992003112112004-07333-047467FM-12+021299999V0201801N001512200019N0200001N1+02641+02331101451ADDAY151061AY221061GF104991041011008001001001KA1240N+02331MA1999999099041MD1999999-0081MW1021REMSYN088AAXX  21124 82765 21598 41803 10264 20233 39904 40145 70252 84100 333 20233 59008 60114;
0167827650999992003112118004-07333-047467FM-12+021299999V0203601N003110450019N0200001N1+03241+02361101071ADDAA106000091GF105991041021008001061001MA1999999098691MD1999999-0081REMSYN070AAXX  21184 82765 32598 53606 10324 20236 39869 40107 84260 333 59008;EQDQ01  00002PRCP06
0208827650999992003112200004-07333-047467FM-12+021299999V0209999C000012200019N0200001N1+02891+02521101131ADDAA106000091GA1001+999999999GF100991001001999999001001KA1240M+03381MA1999999098751MD1999999-0231REMSYN082AAXX  22004 82765 32998 00000 10289 20252 39875 40113 333 10338 29016 55101 59023;EQDQ01  00002PRCP06
0186827650999992003112212004-07333-047467FM-12+021299999V0200701N001510450019N0200001N1+02861+02501101411ADDAA106000091GF106991041021008001041001KA1240N+02451MA1999999099041MD1999999+0001REMSYN076AAXX  22124 82765 32598 60703 10286 20250 39904 40141 84240 333 20245 58000;EQDQ01  00002PRCP06
0167827650999992003112218004-07333-047467FM-12+021299999V0200501N003112200019N0200001N1+03321+02261101021ADDAA106000091GF103991021021008001041001MA1999999098661MD1999999-0031REMSYN070AAXX  22184 82765 32598 30506 10332 20226 39866 40102 82240 333 59003;EQDQ01  00002PRCP06
0208827650999992003112300004-07333-047467FM-12+021299999V0200501N000512200019N0200001N1+02981+02621101121ADDAA106000091GA1001+999999999GF100991001001999999001001KA1240M+03401MA1999999098761MD1999999+0011REMSYN082AAXX  23004 82765 32998 00501 10298 20262 39876 40112 333 10340 29074 55095 58001;EQDQ01  00002PRCP06
0190827650999992003112312004-07333-047467FM-12+021299999V0200701N001010075019N0200001N1+02221+02121101551ADDAY191061AY291061GF108991071051008001021999KA1240N+02231MA1999999099151MD1999999+0111MW1961REMSYN088AAXX  23124 82765 21598 80702 10222 20212 39915 40155 79699 8752/ 333 20223 58011 60194;
0147827650999992003112318004-07333-047467FM-12+021299999V0200701N001519999999N0200001N1+02481+02321101191ADDGF108991999999008001999999MA1999999098811MD1999999+0151REMSYN080AAXX  23184 82765 21598 80703 10248 20232 39881 40119 700 8682/ 333 58015 69931;
0198827650999992003112400004-07333-047467FM-12+021299999V0201801N001012200019N0200001N1+02441+02351101381ADDAA106000091GF102991021011008001001001KA1240M+02941MA1999999098961MD1999999+0201REMSYN088AAXX  24004 82765 32598 21802 10244 20235 39896 40138 82100 333 10294 29094 55000 58020;EQDQ01  00002PRCP06
0162827650999992003112412004-07333-047467FM-12+021299999V0201101N000510120019N0200001N1+02481+02341101501ADDGF107991061081008001041001KA1240N+02211MA1999999099081MD1999999-0071REMSYN082AAXX  24124 82765 22598 71101 10248 20234 39908 40150 86840 333 20221 59007 69934;
0167827650999992003112418004-07333-047467FM-12+021299999V0200901N005110120019N0200001N1+02941+02291101141ADDAA106000091GF107991051081008001041001MA1999999098741MD1999999-0071REMSYN070AAXX  24184 82765 32598 70910 10294 20229 39874 40114 85840 333 59007;EQDQ01  00002PRCP06
0168827650999992003112500004-07333-047467FM-12+021299999V0209999C000012200019N0200001N1+02661+02461999999ADDAA106000091GF102991999999008001999999KA1240M+03241REMSYN087AAXX  25004 82765 32598 20000 10266 20246 3988 40119 82100 333 10324 29084 55056 59016;EQDQ01  00002PRCP06
0186827650999992003112512004-07333-047467FM-12+021299999V0203601N002610450019N0200001N1+02711+02371101531ADDAA106000091GF106991031021008001011001KA1240N+02451MA1999999099141MD1999999+0061REMSYN076AAXX  25124 82765 32598 63605 10271 20237 39914 40153 83210 333 20245 58006;EQDQ01  00002PRCP06
0167827650999992003112518004-07333-047467FM-12+021299999V0202701N002110450019N0200001N1+02971+02381101281ADDAA106000091GF107991041021008001011001MA1999999098891MD1999999+0151REMSYN070AAXX  25184 82765 32598 72704 10297 20238 39889 40128 84210 333 58015;EQDQ01  00002PRCP06
0208827650999992003112600004-07333-047467FM-12+021299999V0201801N000519999999N0200001N1+02511+02361101361ADDAA106000091GA1091+999999999GF109991091999999999999999KA1240M+03051MA1999999098961MD1999999+0161REMSYN082AAXX  26004 82765 32/98 91801 10251 20236 39896 40136 333 10305 29084 55024 58016;EQDQ01  00002PRCP06
0186827650999992003112612004-07333-047467FM-12+021299999V0200901N002110450019N0200001N1+02431+02261101611ADDAA106000091GF107991041051008001011001KA1240N+02311MA1999999099191MD1999999+0051REMSYN076AAXX  26124 82765 32598 70904 10243 20226 39919 40161 84510 333 20231 58005;EQDQ01  00002PRCP06
0167827650999992003112618004-07333-047467FM-12+021299999V0202301N001510450019N0200001N1+03171+02451101201ADDAA106000091GF106991031031008001061041MA1999999098821MD1999999-0071REMSYN070AAXX  26184 82765 32598 62303 10317 20245 39882 40120 83364 333 59007;EQDQ01  00002PRCP06
0208827650999992003112700004-07333-047467FM-12+021299999V0202901N001012200019N0200001N1+02931+02581101251ADDAA106000091GA1001+999999999GF100991001001999999001001KA1240M+03401MA1999999098861MD1999999-0101REMSYN082AAXX  27004 82765 32998 02902 10293 20258 39886 40125 333 10340 29080 55068 59010;EQDQ01  00002PRCP06
0186827650999992003112712004-07333-047467FM-12+021299999V0201401N001010450019N0200001N1+02691+02451101421ADDAA106000091GF106991041081008001011001KA1240N+02441MA1999999099041MD1999999-0151REMSYN076AAXX  27124 82765 32598 61402 10269 20245 39904 40142 84810 333 20244 59015;EQDQ01  00002PRCP06
0195827650999992003112718004-07333-047467FM-12+021299999V0203601N003110450019N0200001N1+03171+02391101011ADDAA106000091AY121061AY221061GF107991041021008001021001MA1999999098641MD1999999-0181MW1051REMSYN076AAXX  27184 82765 31598 73606 10317 20239 39864 40101 70522 84220 333 59018;EQDQ01  00002PRCP06
0208827650999992003112800004-07333-047467FM-12+021299999V0201401N001010024019N0100001N1+02751+02431101161ADDAA106000091GA1091+999999999GF109991091999999999999999KA1240M+03221MA1999999098781MD1999999-0081REMSYN082AAXX  28004 82765 32/97 91402 10275 20243 39878 40116 333 10322 29079 55044 59008;EQDQ01  00002PRCP06
0186827650999992003112812004-07333-047467FM-12+021299999V0201101N001010120019N0200001N1+02641+02391101281ADDAA106000091GF108991061081008001021999KA1240N+02491MA1999999098891MD1999999-0151REMSYN076AAXX  28124 82765 32598 81102 10264 20239 39889 40128 8682/ 333 20249 59015;EQDQ01  00002PRCP06
0167827650999992003112818004-07333-047467FM-12+021299999V0201801N002110120019N0200001N1+02661+02391101081ADDAA106000091GF108991071081008001021999MA1999999098681MD1999999+0041REMSYN070AAXX  28184 82765 32598 81804 10266 20239 39868 40108 8782/ 333 58004;EQDQ01  00002PRCP06
0198827650999992003112900004-07333-047467FM-12+021299999V0209999C000010120019N0200001N1+02531+02381101101ADDAA106000091GF108991081081008001999999KA1240M+03291MA1999999098711MD1999999-0071REMSYN088AAXX  29004 82765 32598 80000 10253 20238 39871 40110 888// 333 10329 29089 55003 59007;EQDQ01  00002PRCP06
0186827650999992003112912004-07333-047467FM-12+021299999V0201801N001012200019N0200001N1+02601+02251101291ADDAA106000091GF103991011011008001011081KA1240N+02341MA1999999098891MD1999999+0001REMSYN076AAXX  29124 82765 32598 31802 10260 20225 39889 40129 81118 333 20234 58000;EQDQ01  00002PRCP06
0171827650999992003112918004-07333-047467FM-12+021299999V0201101N001010450019N0200001N1+02401+02241101061ADDAY191061AY261061GF107991041081008001021001MA1999999098651MD1999999-0031MW1001REMSYN082AAXX  29184 82765 21598 71102 10240 20224 39865 40106 70096 84820 333 59003 60291;
0202827650999992003113000004-07333-047467FM-12+021299999V0200701N000512200019N0200001N1+02461+02261101191ADDAY151061AY251061GF103991011011008001011081KA1240M+03201MA1999999098811MD1999999+0101MW1001REMSYN100AAXX  30004 82765 21598 30701 10246 20226 39881 40119 70055 81118 333 10320 29090 55053 58010 69911;
0162827650999992003113012004-07333-047467FM-12+021299999V0209999C000010450019N0200001N1+02621+02391101421ADDGF106991041011008001041001KA1240N+02271MA1999999099021MD1999999+0131REMSYN082AAXX  30124 82765 22598 60000 10262 20239 39902 40142 84140 333 20227 58013 60294;
0171827650999992003113018004-07333-047467FM-12+021299999V0209999C000010120019N0200001N1+02461+02231101071ADDAY191061AY261061GF108991051081008001021999MA1999999098701MD1999999+0051MW1001REMSYN082AAXX  30184 82765 21598 80000 10246 20223 39870 40107 70096 8582/ 333 58005 60141;
0190827650999992003120112004-07333-047467FM-12+021299999V0209999C000010042019N0200001N1+02471+02391101451ADDAY161061AY221061GF108991051071004501021999KA1240N+02401MA1999999099041MD1999999+0021MW1031REMSYN088AAXX  01124 82765 21498 80000 10247 20239 39904 40145 70362 8572/ 333 20240 58002 60314;
0171827650999992003120118004-07333-047467FM-12+021299999V0203601N000510450019N0040001N1+02371+02251101141ADDAY161061AY221061GF108991041051008001021999MA1999999098731MD1999999+0031MW1101REMSYN082AAXX  01184 82765 21596 83601 10237 20225 39873 40114 71062 8452/ 333 58003 60141;
0198827650999992003120200004-07333-047467FM-12+021299999V0209999C000012200019N0200001N1+02401+02371101291ADDAA106000091GF102991011011008001041001KA1240M+02661MA1999999098881MD1999999+0071REMSYN088AAXX  02004 82765 32598 20000 10240 20237 39888 40129 81140 333 10266 29097 55000 58007;EQDQ01  00002PRCP06
0190827650999992003120212004-07333-047467FM-12+021299999V0201401N001510042019N0040001N1+02401+02281101421ADDAY121061AY221061GF108991081071004501999999KA1240N+02311MA1999999099001MD1999999-0041MW1101REMSYN088AAXX  02124 82765 21496 81403 10240 20228 39900 40142 71022 887// 333 20231 59004 60144;
0195827650999992003120218004-07333-047467FM-12+021299999V0202301N001010450019N0040001N1+03001+02441101031ADDAA106000091AY121061AY211061GF105991031031008001061001MA1999999098651MD1999999-0081MW1101REMSYN076AAXX  02184 82765 31596 52302 10300 20244 39865 40103 71021 83360 333 59008;EQDQ01  00002PRCP06
0198827650999992003120300004-07333-047467FM-12+021299999V0209999C000010150019N0200001N1+02731+02471101131ADDAA106000091GF108991081001017501011999KA1240M+03211MA1999999098731MD1999999-0151REMSYN088AAXX  03004 82765 32798 80000 10273 20247 39873 40113 8801/ 333 10321 29084 55051 59015;EQDQ01  00002PRCP06
0190827650999992003120312004-07333-047467FM-12+021299999V0203201N001510090019N0040001N1+02471+02321101451ADDAY161061AY221061GF107991051081004501021001KA1240N+02311MA1999999099051MD1999999+0051MW1101REMSYN088AAXX  03124 82765 21496 73203 10247 20232 39905 40145 71062 85820 333 20231 58005 69934;
0167827650999992003120318004-07333-047467FM-12+021299999V0200201N001010450019N0200001N1+03091+02351101021ADDAA106000091GF106991041021008001011001MA1999999098641MD1999999-0011REMSYN070AAXX  03184 82765 32598 60202 10309 20235 39864 40102 84210 333 59001;EQDQ01  00002PRCP06
0198827650999992003120400004-07333-047467FM-12+021299999V0201801N001510150019N0200001N1+02581+02401101331ADDAA106000091GF108991081001017501011999KA1240M+03211MA1999999098921MD1999999+0191REMSYN088AAXX  04004 82765 32798 81803 10258 20240 39892 40133 8801/ 333 10321 29084 55029 58019;EQDQ01  00002PRCP06
0186827650999992003120412004-07333-047467FM-12+021299999V0201601N001010120019N0200001N1+02641+02351101511ADDAA106000091GF106991061081008001001001KA1240N+02331MA1999999099111MD1999999+0061REMSYN076AAXX  04124 82765 32598 61602 10264 20235 39911 40151 86800 333 20233 58006;EQDQ01  00002PRCP06
0167827650999992003120418004-07333-047467FM-12+021299999V0201101N000512200019N0200001N1+03361+02451101051ADDAA106000091GF103991021011008001041001MA1999999098681MD1999999+0041REMSYN070AAXX  04184 82765 32598 31101 10336 20245 39868 40105 82140 333 58004;EQDQ01  00002PRCP06
0226827650999992003120500004-07333-047467FM-12+021299999V0200501N001012200019N0200001N1+02661+02351101141ADDAA106000091AY191061AY291061GF102991021011008001001001KA1240M+03501MA1999999098751MD1999999-0171MW1001REMSYN094AAXX  05004 82765 31598 20502 10266 20235 39875 40114 70099 82100 333 10350 29070 55092 59017;EQDQ01  00002PRCP06
0186827650999992003120512004-07333-047467FM-12+021299999V0200501N001010450019N0200001N1+02601+02401101371ADDAA106000091GF106991041081008001041001KA1240N+02451MA1999999098981MD1999999-0131REMSYN076AAXX  05124 82765 32598 60502 10260 20240 39898 40137 84840 333 20245 59013;EQDQ01  00002PRCP06
0195827650999992003120518004-07333-047467FM-12+021299999V0202301N001510120019N0200001N1+02881+02501101131ADDAA106000091AY191061AY291061GF106991051081008001041001MA1999999098741MD1999999+0061MW1001REMSYN076AAXX  05184 82765 31598 62303 10288 20250 39874 40113 70099 85840 333 58006;EQDQ01  00002PRCP06
0202827650999992003120600004-07333-047467FM-12+021299999V0203601N000510450019N0200001N1+02461+02321101271ADDAY151061AY251061GF108991011081008001021999KA1240M+02961MA1999999098871MD1999999+0121MW1001REMSYN100AAXX  06004 82765 21598 83601 10246 20232 39887 40127 70055 8182/ 333 10296 29088 55018 58012 69941;
0162827650999992003120612004-07333-047467FM-12+021299999V0200501N001010450019N0200001N1+02521+02401101551ADDGF107991041081008001041001KA1240N+02331MA1999999099141MD1999999+0161REMSYN082AAXX  06124 82765 22598 70502 10252 20240 39914 40155 84840 333 20233 58016 69944;
0167827650999992003120618004-07333-047467FM-12+021299999V0200501N001010450019N0200001N1+03221+02451101091ADDAA106000091GF105991041011008001041001MA1999999098711MD1999999-0031REMSYN070AAXX  06184 82765 32598 50502 10322 20245 39871 40109 84140 333 59003;EQDQ01  00002PRCP06
0202827650999992003120700004-07333-047467FM-12+021299999V0202301N001510120019N0200001N1+02861+02501101331ADDAY151061AY251061GF107991061081008001041001KA1240M+03321MA1999999098891MD1999999+0031MW1131REMSYN100AAXX  07004 82765 21598 72303 10286 20250 39889 40133 71355 86840 333 10332 29080 55078 58003 69911;
0190827650999992003120712004-07333-047467FM-12+021299999V0203601N000510450019N0200001N1+02381+02211101641ADDAY191061AY261061GF106991041081008001041001KA1240N+02111MA1999999099241MD1999999+0101MW1001REMSYN088AAXX  07124 82765 21598 63601 10238 20221 39924 40164 70096 84840 333 20211 58010 60484;
0171827650999992003120718004-07333-047467FM-12+021299999V0200201N000510450019N0200001N1+02801+02461101201ADDAY151061AY251061GF108991031011008001021999MA1999999098841MD1999999+0131MW1001REMSYN082AAXX  07184 82765 21598 80201 10280 20246 39884 40120 70055 8312/ 333 58013 69911;
0198827650999992003120800004-07333-047467FM-12+021299999V0201401N001010120019N0200001N1+02581+02441101481ADDAA106000091GF108991051081008001021999KA1240M+02881MA1999999099071MD1999999+0181REMSYN088AAXX  08004 82765 32598 81402 10258 20244 39907 40148 8582/ 333 10288 29089 55024 58018;EQDQ01  00002PRCP06
0162827650999992003120812004-07333-047467FM-12+021299999V0200901N000512200019N0200001N1+02601+02461101581ADDGF104991021011008001041001KA1240N+02351MA1999999099181MD1999999-0061REMSYN082AAXX  08124 82765 22598 40901 10260 20246 39918 40158 82140 333 20235 59006 69914;
0167827650999992003120818004-07333-047467FM-12+021299999V0203601N001510450019N0200001N1+03301+02451101171ADDAA106000091GF105991031021008001041001MA1999999098801MD1999999-0041REMSYN070AAXX  08184 82765 32598 53603 10330 20245 39880 40117 83240 333 59004;EQDQ01  00002PRCP06
0208827650999992003120900004-07333-047467FM-12+021299999V0209999C000012200019N0200001N1+02841+02581101401ADDAA106000091GA1001+999999999GF100991001001999999001001KA1240M+03341MA1999999099011MD1999999-0061REMSYN082AAXX  09004 82765 32998 00000 10284 20258 39901 40140 333 10334 29081 55073 59006;EQDQ01  00002PRCP06
0186827650999992003120912004-07333-047467FM-12+021299999V0209999C000010120019N0200001N1+02701+02501101761ADDAA106000091GF107991061081008001041001KA1240N+02371MA1999999099371MD1999999+0191REMSYN076AAXX  09124 82765 32598 70000 10270 20250 39937 40176 86840 333 20237 58019;EQDQ01  00002PRCP06
0167827650999992003120918004-07333-047467FM-12+021299999V0200501N000510450019N0200001N1+03061+02541101321ADDAA106000091GF108991031081008001021999MA1999999098991MD1999999+0191REMSYN070AAXX  09184 82765 32598 80501 10306 20254 39899 40132 8382/ 333 58019;EQDQ01  00002PRCP06
0208827650999992003121000004-07333-047467FM-12+021299999V0201801N000512200019N0200001N1+02741+02481101431ADDAA106000091GA1001+999999999GF100991001001999999001001KA1240M+03121MA1999999099041MD1999999+0031REMSYN082AAXX  10004 82765 32998 01801 10274 20248 39904 40143 333 10312 29084 55025 58003;EQDQ01  00002PRCP06
0214827650999992003121012004-07333-047467FM-12+021299999V0201401N001010042019N0100001N1+02441+02321101541ADDAA106000091AY121061AY221061GF108991081071004501999999KA1240N+02361MA1999999099141MD1999999-0231MW1101REMSYN082AAXX  10124 82765 31497 81402 10244 20232 39914 40154 71022 887// 333 20236 59023;EQDQ01  00002PRCP06
0171827650999992003121018004-07333-047467FM-12+021299999V0201401N005710042019N0040001N1+02821+02501101241ADDAY121061AY221061GF108991051071004501021999MA1999999098851MD1999999-0141MW1641REMSYN082AAXX  10184 82765 21496 81411 10282 20250 39885 40124 76422 8572/ 333 59014 60061;
0202827650999992003121100004-07333-047467FM-12+021299999V0209999C000012200019N0200001N1+02701+02591101271ADDAY161061AY221061GF104991041021008001001001KA1240M+03321MA1999999098871MD1999999-0171MW1131REMSYN100AAXX  11004 82765 21598 40000 10270 20259 39887 40127 71362 84200 333 10332 29091 55057 59017 60071;
0190827650999992003121112004-07333-047467FM-12+021299999V0203601N001510042019N0100001N1+02261+02161101631ADDAY161061AY221061GF108991051071004501021999KA1240N+02191MA1999999099221MD1999999+0081MW1501REMSYN088AAXX  11124 82765 21497 83603 10226 20216 39922 40163 75062 8572/ 333 20219 58008 60194;
0176827650999992003121118004-07333-047467FM-12+021299999V0202301N001510450019N0100001N1+02811+02461101381ADDAA106000021AY121061AY221061GF108991031081008001011999MA1999999098971MD1999999+0121MW1101REMSYN076AAXX  11184 82765 31597 82303 10281 20246 39897 40138 71022 8381/ 333 58012;
0186827650999992003121212004-07333-047467FM-12+021299999V0200501N001010450019N0200001N1+02571+02351101611ADDAA106000091GF107991041081008001021001KA1240N+02291MA1999999099211MD1999999-0011REMSYN076AAXX  12124 82765 32598 70502 10257 20235 39921 40161 84820 333 20229 59001;EQDQ01  00002PRCP06
0167827650999992003121218004-07333-047467FM-12+021299999V0200501N001510075019N0200001N1+02951+02471101291ADDAA106000091GF107991051021008001021001MA1999999098891MD1999999-0081REMSYN070AAXX  12184 82765 32598 70503 10295 20247 39889 40129 85220 333 59008;EQDQ01  00002PRCP06
0208827650999992003121400004-07333-047467FM-12+021299999V0203601N001019999999N0200001N1+02801+02501101261ADDAA106000091GA1091+999999999GF109991091999999999999999KA1240M+03201MA1999999098871MD1999999-0031REMSYN082AAXX  14004 82765 32/98 93602 10280 20250 39887 40126 333 10320 29083 55/// 59003;EQDQ01  00002PRCP06
0162827650999992003121412004-07333-047467FM-12+021299999V0200901N001510120019N0200001N1+02601+02351101591ADDGF107991071081008001001001KA1240N+02411MA1999999099201MD1999999+0161REMSYN082AAXX  14124 82765 22598 70903 10260 20235 39920 40159 87800 333 20241 58016 69914;
0167827650999992003121418004-07333-047467FM-12+021299999V0201101N001012200019N0200001N1+03171+02421101141ADDAA106000091GF104991031021008001061001MA1999999098771MD1999999+0041REMSYN070AAXX  14184 82765 32598 41102 10317 20242 39877 40114 83260 333 58004;EQDQ01  00002PRCP06
0208827650999992003121500004-07333-047467FM-12+021299999V0209999C000012200019N0200001N1+02871+02541101351ADDAA106000091GA1001+999999999GF100991001001999999001001KA1240M+03381MA1999999098971MD1999999+0101REMSYN082AAXX  15004 82765 32998 00000 10287 20254 39897 40135 333 10338 29078 55/// 58010;EQDQ01  00002PRCP06
0186827650999992003121512004-07333-047467FM-12+021299999V0209999C000010075019N0200001N1+02701+02451101551ADDAA106000091GF106991061031008001001001KA1240N+02471MA1999999099171MD1999999-0041REMSYN076AAXX  15124 82765 32598 60000 10270 20245 39917 40155 86300 333 20247 59004;EQDQ01  00002PRCP06
0167827650999992003121518004-07333-047467FM-12+021299999V0202001N002110450019N0200001N1+03181+02411101131ADDAA106000091GF106991041031008001011001MA1999999098761MD1999999-0011REMSYN070AAXX  15184 82765 32598 62004 10318 20241 39876 40113 84310 333 59001;EQDQ01  00002PRCP06
0236827650999992003121600004-07333-047467FM-12+021299999V0209999C000012200019N0200001N1+02781+02581101361ADDAA106000091AY101061AY201061GA1001+999999999GF100991001001999999001001KA1240M+03281MA1999999098981MD1999999+0111MW1131REMSYN088AAXX  16004 82765 31998 00000 10278 20258 39898 40136 71300 333 10328 29082 55/// 58011;EQDQ01  00002PRCP06
0186827650999992003121612004-07333-047467FM-12+021299999V0202701N001510120019N0200001N1+02581+02291101631ADDAA106000091GF107991051081008001021001KA1240N+02401MA1999999099241MD1999999+0041REMSYN076AAXX  16124 82765 32598 72703 10258 20229 39924 40163 85820 333 20240 58004;EQDQ01  00002PRCP06
0176827650999992003121618004-07333-047467FM-12+021299999V0200201N001010450019N0200001N1+03121+02431101301ADDAA106000021AY101061AY201061GF108991021031008001041071MA1999999098921MD1999999+0151MW1961REMSYN076AAXX  16184 82765 31598 80202 10312 20243 39892 40130 79600 82347 333 58015;
0217827650999992003121700004-07333-047467FM-12+021299999V0209999C000012200019N0200001N1+02401+02241101511ADDAA106000021AY101061AY201061GA1001+999999999GF100991001001999999001001KA1240M+03201MA1999999099121MD1999999+0151MW1131REMSYN088AAXX  17004 82765 31998 00000 10240 20224 39912 40151 71300 333 10320 29083 55/// 58015;
0186827650999992003121712004-07333-047467FM-12+021299999V0201601N000510450019N0200001N1+02451+02131101651ADDAA106000091GF106991041081008001041001KA1240N+02171MA1999999099231MD1999999-0011REMSYN076AAXX  17124 82765 32598 61601 10245 20213 39923 40165 84840 333 20217 59001;EQDQ01  00002PRCP06
0167827650999992003121718004-07333-047467FM-12+021299999V0202301N001512200019N0200001N1+03241+02361101231ADDAA106000091GF104991021021008001041001MA1999999098841MD1999999-0081REMSYN070AAXX  17184 82765 32598 42303 10324 20236 39884 40123 82240 333 59008;EQDQ01  00002PRCP06
0226827650999992003121800004-07333-047467FM-12+021299999V0203601N001012200019N0200001N1+02701+02221101431ADDAA106000091AY101061AY201061GF102991011011008001041001KA1240M+03441MA1999999099021MD1999999-0101MW1131REMSYN094AAXX  18004 82765 31598 23602 10270 20222 39902 40143 71300 81140 333 10344 29073 55/// 59010;EQDQ01  00002PRCP06
0186827650999992003121812004-07333-047467FM-12+021299999V0209999C000012200019N0200001N1+02521+02341101601ADDAA106000091GF104991021011008001041001KA1240N+02331MA1999999099201MD1999999-0031REMSYN076AAXX  18124 82765 32598 40000 10252 20234 39920 40160 82140 333 20233 59003;EQDQ01  00002PRCP06
0202827650999992003121900004-07333-047467FM-12+021299999V0209999C000012200019N0200001N1+02221+02121101521ADDAY191061AY261061GF104991021011008001011001KA1240M+03121MA1999999099091MD1999999+0071MW1001REMSYN100AAXX  19004 82765 21598 40000 10222 20212 39909 40152 70096 82110 333 10312 29085 55/// 58007 60211;
0162827650999992003121912004-07333-047467FM-12+021299999V0209999C000012200019N0200001N1+02401+02301101841ADDGF103991031061004501001001KA1240N+02181MA1999999099401MD1999999+0151REMSYN082AAXX  19124 82765 22498 30000 10240 20230 39940 40184 83600 333 20218 58015 60214;
0167827650999992003121918004-07333-047467FM-12+021299999V0203601N001510075019N0200001N1+03041+02591101411ADDAA106000091GF106991061021008001001001MA1999999099011MD1999999+0011REMSYN070AAXX  19184 82765 32598 63603 10304 20259 39901 40141 86200 333 58001;EQDQ01  00002PRCP06
0242827650999992003122000004-07333-047467FM-12+021299999V0209999C000012200019N0200001N1+02821+02621101551ADDAA106000091AY111061AY211061GF103991031021008001001001KA1240M+03201MA1999999099912MD1999999+0061MW1131REMSYN094AAXX  20004 82765 31598 30000 10282 20262 30991 40155 71311 83200 333 10320 29087 55/// 58006;EQDQ01+099913APOSP Q02  00002PRCP06
0186827650999992003122012004-07333-047467FM-12+021299999V0200901N000510075019N0200001N1+02521+02291101821ADDAA106000091GF107991061021008001011001KA1240N+02311MA1999999099421MD1999999+0021REMSYN076AAXX  20124 82765 32598 70901 10252 20229 39942 40182 86210 333 20231 58002;EQDQ01  00002PRCP06
0171827650999992003122018004-07333-047467FM-12+021299999V0203201N001510450019N0200001N1+02881+02371101431ADDAY191061AY261061GF106991041021008001011001MA1999999099031MD1999999+0021MW1171REMSYN082AAXX  20184 82765 21598 63203 10288 20237 39903 40143 71796 84210 333 58002 60061;
0208827650999992003122100004-07333-047467FM-12+021299999V0209999C000010024019N0100001N1+02661+02521101541ADDAA106000091GA1091+999999999GF109991091999999999999999KA1240M+03001MA1999999099161MD1999999+0011REMSYN082AAXX  21004 82765 32/97 90000 10266 20252 39916 40154 333 10300 29086 55/// 58001;EQDQ01  00002PRCP06
0162827650999992003122112004-07333-047467FM-12+021299999V0203601N001010120019N0200001N1+02661+02351101791ADDGF107991061081008001021001KA1240N+02331MA1999999099391MD1999999+0241REMSYN082AAXX  21124 82765 22598 73602 10266 20235 39939 40179 86820 333 20233 58024 60064;
0186827650999992003122212004-07333-047467FM-12+021299999V0203201N001510120019N0200001N1+02621+02411101571ADDAA106000091GF107991051081008001011001KA1240N+02391MA1999999099181MD1999999-0211REMSYN076AAXX  22124 82765 32598 73203 10262 20241 39918 40157 85810 333 20239 59021;EQDQ01  00002PRCP06
0167827650999992003122218004-07333-047467FM-12+021299999V0200501N001510450019N0200001N1+03241+02441101131ADDAA106000091GF105991041021008001041001MA1999999098761MD1999999-0261REMSYN070AAXX  22184 82765 32598 50503 10324 20244 39876 40113 84240 333 59026;EQDQ01  00002PRCP06
0190827650999992003122312004-07333-047467FM-12+021299999V0209999C000010120019N0200001N1+02621+02411101481ADDAY101061AY201061GF107991051081008001021001KA1240N+02431MA1999999099091MD1999999-0091MW1581REMSYN088AAXX  23124 82765 21598 70000 10262 20241 39909 40148 75800 85820 333 20243 59009 69994;
0171827650999992003122318004-07333-047467FM-12+021299999V0200501N001010120019N0200001N1+03081+02521101071ADDAY151061AY251061GF106991051081008001021001MA1999999098691MD1999999-0071MW1001REMSYN082AAXX  23184 82765 21598 60502 10308 20252 39869 40107 70055 85820 333 59007 69921;
0162827650999992003122412004-07333-047467FM-12+021299999V0201401N001012200019N0200001N1+02461+02321101521ADDGF103991021021008001041001KA1240N+02351MA1999999099111MD1999999+0021REMSYN082AAXX  24124 82765 22598 31402 10246 20232 39911 40152 82240 333 20235 58002 69924;
0190827650999992003122418004-07333-047467FM-12+021299999V0209999C000010450019N0200001N1+02501+02401101331ADDAY161061AY201061GF107991021081008001021001MA1999999098911MD1999999+0221MW1001REMSYN082AAXX  24184 82765 21598 71400 10250 20240 39891 40133 70067 82820 333 58022 60051;EQDQ01+000072PSTWM2
0208827650999992003122500004-07333-047467FM-12+021299999V0209999C000012200019N0200001N1+02381+02331101431ADDAA106000091GA1001+999999999GF100991001001999999001001KA1240M+03161MA1999999099021MD1999999+0101REMSYN082AAXX  25004 82765 32998 00000 10238 20233 39902 40143 333 10316 29095 55/// 58010;EQDQ01  00002PRCP06
0162827650999992003122512004-07333-047467FM-12+021299999V0200901N001010450019N0200001N1+02501+02321101591ADDGF106991041081008001041001KA1240N+02291MA1999999099171MD1999999+0061REMSYN082AAXX  25124 82765 22598 60902 10250 20232 39917 40159 84840 333 20229 58006 60054;
0137827650999992003122518004-07333-047467FM-12+021299999V0200201N002619999999N0200001N1+03041+99999999999ADDAA106000091GF105991999999008001999999REMSYN069AAXX  25184 82765 32598 50205 10304 2028 39879 40118 83240 333 59012;EQDQ01  00002PRCP06
0186827650999992003122612004-07333-047467FM-12+021299999V0203401N001010450019N0200001N1+02721+02471101451ADDAA106000091GF105991041021008001041001KA1240N+02531MA1999999099061MD1999999-0111REMSYN076AAXX  26124 82765 32598 53402 10272 20247 39906 40145 84240 333 20253 59011;EQDQ01  00002PRCP06
0167827650999992003122618004-07333-047467FM-12+021299999V0202701N002119999999N0200001N1+03121+02411100951ADDAA106000091GF108991031021999999021999MA1999999098581MD1999999-0211REMSYN070AAXX  26184 82765 32/98 82704 10312 20241 39858 40095 8322/ 333 59021;EQDQ01  00002PRCP06
0212827650999992003122700004-07333-047467FM-12+021299999V0201801N000510024019N0100001N1+02261+02211101351ADDAY191061AY261061GA1091+999999999GF109991091999999999999999KA1240M+03221MA1999999098941MD1999999+0051MW1001REMSYN094AAXX  27004 82765 21/97 91801 10226 20221 39894 40135 70096 333 10322 29087 55/// 58005 60451;
0162827650999992003122712004-07333-047467FM-12+021299999V0203601N000510090019N0200001N1+02461+02341101401ADDGF106991061081004501001001KA1240N+02291MA1999999098981MD1999999-0081REMSYN082AAXX  27124 82765 22498 63601 10246 20234 39898 40140 86800 333 20229 59008 60454;
0195827650999992003122718004-07333-047467FM-12+021299999V0202701N003110450019N0200001N1+02901+02431101021ADDAA106000091AY121061AY221061GF107991031041004501071001MA1999999098631MD1999999+0051MW1171REMSYN076AAXX  27184 82765 31498 72706 10290 20243 39863 40102 71722 83470 333 58005;EQDQ01  00002PRCP06
0225827650999992003122800004-07333-047467FM-12+021299999V0203601N001512200019N0100001N1+02201+02131101421ADDAY191061AY261061GA1001+999999999GF100991001001999999001001KA1240M+02961MA1999999099001MD1999999+0061REMSYN094AAXX  28004 82765 21/97 03603 10220 20213 39900 40142 76396 333 10296 29090 55/// 58006 60211;EQDQ01+000632PRSWM1
0190827650999992003122812004-07333-047467FM-12+021299999V0209999C000010042019N0100001N1+02251+02161101551ADDAY161061AY221061GF108991081071004501999999KA1240N+02181MA1999999099111MD1999999+0131MW1031REMSYN088AAXX  28124 82765 21497 80000 10225 20216 39911 40155 70362 887// 333 20218 58013 60284;
0171827650999992003122818004-07333-047467FM-12+021299999V0203201N001010120019N0200001N1+02701+02351101131ADDAY151061AY221061GF107991051081008001031001MA1999999098721MD1999999+0091MW1011REMSYN082AAXX  28184 82765 21598 73202 10270 20235 39872 40113 70152 85830 333 58009 69911;
0208827650999992003122900004-07333-047467FM-12+021299999V0200901N001010024019N0100001N1+02551+02381101201ADDAA106000091GA1091+999999999GF109991091999999999999999KA1240M+02981MA1999999098791MD1999999-0211REMSYN082AAXX  29004 82765 32/97 90902 10255 20238 39879 40120 333 10298 29090 55/// 59021;EQDQ01  00002PRCP06
0190827650999992003122912004-07333-047467FM-12+021299999V0209999C000010042019N0040001N1+02351+02221101501ADDAY121061AY221061GF108991071071004501061999KA1240N+02301MA1999999099081MD1999999-0031MW1631REMSYN088AAXX  29124 82765 21496 80000 10235 20222 39908 40150 76322 8776/ 333 20230 59003 60254;
0171827650999992003122918004-07333-047467FM-12+021299999V0200901N004110042019N0020001N1+02551+02291101141ADDAY161061AY221061GF108991081071004501999999MA1999999098731MD1999999+0011MW1631REMSYN082AAXX  29184 82765 21495 80908 10255 20229 39873 40114 76362 887// 333 58001 60251;
0212827650999992003123000004-07333-047467FM-12+021299999V0200901N001010024019N0100001N1+02331+02271101381ADDAY161061AY221061GA1091+999999999GF109991091999999999999999KA1240M+03071MA1999999098961MD1999999+0171MW1001REMSYN094AAXX  30004 82765 21/97 90902 10233 20227 39896 40138 70062 333 10307 29093 55/// 58017 60181;
0162827650999992003123012004-07333-047467FM-12+021299999V0202701N001510450019N0200001N1+02371+02261101471ADDGF107991041081004501061001KA1240N+02221MA1999999099051MD1999999-0031REMSYN082AAXX  30124 82765 22498 72703 10237 20226 39905 40147 84860 333 20222 59003 60504;
0167827650999992003123018004-07333-047467FM-12+021299999V0201401N002610450019N0200001N1+03061+02351101121ADDAA106000091GF107991041011008001031091MA1999999098731MD1999999+0001REMSYN070AAXX  30184 82765 32598 71405 10306 20235 39873 40112 84139 333 58000;EQDQ01  00002PRCP06
0198827650999992003123100004-07333-047467FM-12+021299999V0200901N001012200019N0200001N1+02751+02481101311ADDAA106000091GF104991041001017501031001KA1240M+03151MA1999999098911MD1999999-0051REMSYN088AAXX  31004 82765 32798 40902 10275 20248 39891 40131 84030 333 10315 29083 55/// 59005;EQDQ01  00002PRCP06
0186827650999992003123112004-07333-047467FM-12+021299999V0209999C000012200019N0200001N1+02801+02421101491ADDAA106000091GF102991021011008001001001KA1240N+02331MA1999999099101MD1999999+0051REMSYN076AAXX  31124 82765 32598 20000 10280 20242 39910 40149 82100 333 20233 58005;EQDQ01  00002PRCP06
0167827650999992003123118004-07333-047467FM-12+021299999V0201101N001010450019N0200001N1+03381+02351101071ADDAA106000091GF105991041021008001041001MA1999999098711MD1999999-0021REMSYN070AAXX  31184 82765 32598 51102 10338 20235 39871 40107 84240 333 59002;EQDQ01  00002PRCP06
