0198827840999992003010100004-07320-039300FM-12+040999999V0201801N002110120019N0020001N1+02561+02151101341ADDAA106000091GF108991081081008001999999KA1240M+03421MA1999999096691MD1999999-0051REMSYN088AAXX  01004 82784 32595 81804 10256 20215 39669 40134 888// 333 10342 29064 55082 59005;EQDQ01  00002PRCP06
0186827840999992003010112004-07320-039300FM-12+040999999V0200501N001510075019N0200001N1+02651+01951101491ADDAA106000091GF107991071021008001001001KA1240N+02401MA1999999096831MD1999999+0141REMSYN076AAXX  01124 82784 32598 70503 10265 20195 39683 40149 87200 333 20240 58014;EQDQ01  00002PRCP06
0167827840999992003010118004-07320-039300FM-12+040999999V0203201N001012200019N0200001N1+03271+01981101021ADDAA106000091GF103991031021008001001001MA1999999096401MD1999999+0021REMSYN070AAXX  01184 82784 32598 33202 10327 20198 39640 40102 83200 333 58002;EQDQ01  00002PRCP06
0208827840999992003010200004-07320-039300FM-12+040999999V0202701N001512200019N0020001N1+02741+01731101241ADDAA106000091GA1001+999999999GF100991001001999999001001KA1240M+03201MA1999999096601MD1999999-0091REMSYN082AAXX  02004 82784 32995 02703 10274 20173 39660 40124 333 10320 29055 55074 59009;EQDQ01  00002PRCP06
0186827840999992003010212004-07320-039300FM-12+040999999V0200501N001510075019N0200001N1+02571+01971101521ADDAA106000091GF107991071021008001001001KA1240N+02571MA1999999096861MD1999999+0031REMSYN076AAXX  02124 82784 32598 70503 10257 20197 39686 40152 87200 333 20257 58003;EQDQ01  00002PRCP06
0167827840999992003010218004-07320-039300FM-12+040999999V0200501N001512200019N0200001N1+03321+01701100981ADDAA106000091GF103991031021008001001001MA1999999096361MD1999999-0041REMSYN070AAXX  02184 82784 32598 30503 10332 20170 39636 40098 83200 333 59004;EQDQ01  00002PRCP06
0208827840999992003010300004-07320-039300FM-12+040999999V0209999C000012200019N0020001N1+02731+01791101071ADDAA106000091GA1001+999999999GF100991001001999999001001KA1240M+03411MA1999999096431MD1999999-0171REMSYN082AAXX  03004 82784 32995 00000 10273 20179 39643 40107 333 10341 29055 55075 59017;EQDQ01  00002PRCP06
0186827840999992003010312004-07320-039300FM-12+040999999V0200901N001512200019N0200001N1+02601+01821101481ADDAA106000091GF102991021011008001001001KA1240N+02081MA1999999096821MD1999999-0041REMSYN076AAXX  03124 82784 32598 20903 10260 20182 39682 40148 82100 333 20208 59004;EQDQ01  00002PRCP06
0167827840999992003010318004-07320-039300FM-12+040999999V0201401N002112200019N0200001N1+03481+01361100931ADDAA106000091GF101991011011008001001001MA1999999096321MD1999999-0041REMSYN070AAXX  03184 82784 32598 11404 10348 20136 39632 40093 81100 333 59004;EQDQ01  00002PRCP06
0208827840999992003010400004-07320-039300FM-12+040999999V0201801N000512200019N0020001N1+02621+01401101121ADDAA106000091GA1001+999999999GF100991001001999999001001KA1240M+03531MA1999999096471MD1999999+0041REMSYN082AAXX  04004 82784 32995 01801 10262 20140 39647 40112 333 10353 29046 55115 58004;EQDQ01  00002PRCP06
0186827840999992003010412004-07320-039300FM-12+040999999V0200901N003112200019N0200001N1+02771+01731101491ADDAA106000091GF101991011011008001001001KA1240N+02051MA1999999096841MD1999999+0021REMSYN076AAXX  04124 82784 32598 10906 10277 20173 39684 40149 81100 333 20205 58002;EQDQ01  00002PRCP06
0167827840999992003010418004-07320-039300FM-12+040999999V0200501N003612200019N0200001N1+03571+01211100921ADDAA106000091GF101991011011008001001001MA1999999096311MD1999999-0011REMSYN070AAXX  04184 82784 32598 10507 10357 20121 39631 40092 81100 333 59001;EQDQ01  00002PRCP06
0208827840999992003010500004-07320-039300FM-12+040999999V0203601N000512200019N0020001N1+02651+01251101161ADDAA106000091GA1001+999999999GF100991001001999999001001KA1240M+03641MA1999999096521MD1999999+0051REMSYN082AAXX  05004 82784 32995 03601 10265 20125 39652 40116 333 10364 29040 55115 58005;EQDQ01  00002PRCP06
0186827840999992003010512004-07320-039300FM-12+040999999V0200501N001519999999N0200001N1+02741+01971101381ADDAA106000091GF108991081999008001999999KA1240N+02321MA1999999096731MD1999999-0011REMSYN076AAXX  05124 82784 32598 80503 10274 20197 39673 40138 88/// 333 20232 59001;EQDQ01  00002PRCP06
0167827840999992003010518004-07320-039300FM-12+040999999V0201401N002112200019N0200001N1+03521+01651100911ADDAA106000091GF102991021021008001001001MA1999999096311MD1999999+0001REMSYN070AAXX  05184 82784 32598 21404 10352 20165 39631 40091 82200 333 58000;EQDQ01  00002PRCP06
0208827840999992003010600004-07320-039300FM-12+040999999V0201801N000512200019N0020001N1+02731+01491101151ADDAA106000091GA1001+999999999GF100991001001999999001001KA1240M+03611MA1999999096521MD1999999+0001REMSYN082AAXX  06004 82784 32995 01801 10273 20149 39652 40115 333 10361 29048 55105 58000;EQDQ01  00002PRCP06
0186827840999992003010612004-07320-039300FM-12+040999999V0203201N001512200019N0200001N1+02791+01931101471ADDAA106000091GF103991031021008001001001KA1240N+02151MA1999999096821MD1999999+0091REMSYN076AAXX  06124 82784 32598 33203 10279 20193 39682 40147 83200 333 20215 58009;EQDQ01  00002PRCP06
0167827840999992003010618004-07320-039300FM-12+040999999V0201401N002112200019N0200001N1+03591+01501100831ADDAA106000091GF102991021021008001001001MA1999999096241MD1999999-0071REMSYN070AAXX  06184 82784 32598 21404 10359 20150 39624 40083 82200 333 59007;EQDQ01  00002PRCP06
0198827840999992003010700004-07320-039300FM-12+040999999V0209999C000012200019N0020001N1+02851+01571101091ADDAA106000091GF101991011011008001001001KA1240M+03701MA1999999096461MD1999999-0061REMSYN088AAXX  07004 82784 32595 10000 10285 20157 39646 40109 81100 333 10370 29045 55116 59006;EQDQ01  00002PRCP06
0202827840999992003010712004-07320-039300FM-12+040999999V0200501N003110075019N0200001N1+02751+01911101531ADDAA106000091GF105991051021008001001001KA1240N+02331MA1999999999999MD1999999+0061REMSYN076AAXX  07124 82784 32598 50506 10275 20191 36388 40153 85200 333 20233 58006;EQDQ01  00002PRCP06Q02 063883APOSP 
0183827840999992003010718004-07320-039300FM-12+040999999V0202301N001012200019N0200001N1+03461+01731100951ADDAA106000091GF103991031021008001001001MA1999999096352MD1999999+0111REMSYN070AAXX  07184 82784 32598 32302 10346 20173 39635 40095 83200 333 58011;EQDQ01+096353APOSP Q02  00002PRCP06
0208827840999992003010800004-07320-039300FM-12+040999999V0209999C000012200019N0020001N1+02771+01721101091ADDAA106000091GA1001+999999999GF100991001001999999001001KA1240M+03561MA1999999096461MD1999999+0001REMSYN082AAXX  08004 82784 32995 00000 10277 20172 39646 40109 333 10356 29050 55091 58000;EQDQ01  00002PRCP06
0167827840999992003010818004-07320-039300FM-12+040999999V0201401N001512200019N0200001N1+03511+01791101001ADDAA106000091GF103991031021008001001001MA1999999096401MD1999999+0051REMSYN070AAXX  08184 82784 32598 31403 10351 20179 39640 40100 83200 333 58005;EQDQ01  00002PRCP06
0198827840999992003010900004-07320-039300FM-12+040999999V0203601N000512200019N0200001N1+03031+01801101241ADDAA106000091GF101991011011008001001001KA1240M+03601MA1999999096621MD1999999+0161REMSYN088AAXX  09004 82784 32598 13601 10303 20180 39662 40124 81100 333 10360 29049 55083 58016;EQDQ01  00002PRCP06
0186827840999992003010912004-07320-039300FM-12+040999999V0203201N002110120019N0200001N1+02711+02001101601ADDAA106000091GF107991071081008001001001KA1240N+02561MA1999999096951MD1999999+0061REMSYN076AAXX  09124 82784 32598 73204 10271 20200 39695 40160 87800 333 20256 58006;EQDQ01  00002PRCP06
0167827840999992003010918004-07320-039300FM-12+040999999V0200501N001512200019N0200001N1+03451+01631101131ADDAA106000091GF103991031021008001001001MA1999999096521MD1999999+0121REMSYN070AAXX  09184 82784 32598 30503 10345 20163 39652 40113 83200 333 58012;EQDQ01  00002PRCP06
0198827840999992003011000004-07320-039300FM-12+040999999V0201401N001012200019N0020001N1+03011+01681101311ADDAA106000091GF101991011081008001001001KA1240M+03591MA1999999096681MD1999999+0061REMSYN088AAXX  10004 82784 32595 11402 10301 20168 39668 40131 81800 333 10359 29047 55074 58006;EQDQ01  00002PRCP06
0186827840999992003011012004-07320-039300FM-12+040999999V0200901N002110075019N0200001N1+02691+01921101631ADDAA106000091GF106991061021008001001001KA1240N+02431MA1999999096981MD1999999+0031REMSYN076AAXX  10124 82784 32598 60904 10269 20192 39698 40163 86200 333 20243 58003;EQDQ01  00002PRCP06
0167827840999992003011018004-07320-039300FM-12+040999999V0201401N001512200019N0200001N1+03421+01411101051ADDAA106000091GF104991041021008001001001MA1999999096441MD1999999-0081REMSYN070AAXX  10184 82784 32598 41403 10342 20141 39644 40105 84200 333 59008;EQDQ01  00002PRCP06
0198827840999992003011100004-07320-039300FM-12+040999999V0209999C000012200019N0020001N1+02881+01601101221ADDAA106000091GF104991041011008001001001KA1240M+03551MA1999999096591MD1999999-0091REMSYN088AAXX  11004 82784 32595 40000 10288 20160 39659 40122 84100 333 10355 29046 55093 59009;EQDQ01  00002PRCP06
0202827840999992003011112004-07320-039300FM-12+040999999V0200501N001519999999N0200001N1+02711+01951101631ADDAA106000091GF105991999021008001001001KA1240N+02281MA1999999096981MD1999999+0001REMSYN076AAXX  11124 82784 32598 50503 10271 20195 39698 40163 84200 333 20228 58000;EQDQ01+000042SCOTLCQ02  00002PRCP06
0167827840999992003011118004-07320-039300FM-12+040999999V0203201N002110450019N0200001N1+03401+01351101101ADDAA106000091GF106991021021008001021001MA1999999096481MD1999999+0041REMSYN070AAXX  11184 82784 32598 63204 10340 20135 39648 40110 82220 333 58004;EQDQ01  00002PRCP06
0208827840999992003011200004-07320-039300FM-12+040999999V0209999C000012200019N0020001N1+02641+01421101201ADDAA106000091GA1001+999999999GF100991001001999999001001KA1240M+03551MA1999999096561MD1999999-0031REMSYN082AAXX  12004 82784 32995 00000 10264 20142 39656 40120 333 10355 29046 55098 59003;EQDQ01  00002PRCP06
0196827840999992003011212004-07320-039300FM-12+040999999V0203601N001512200019N0200001N1+02781+01821101501ADDAA106000091GA1001+999999999GF100991001001999999001001KA1240N+02021MA1999999096851MD1999999-0131REMSYN070AAXX  12124 82784 32998 03603 10278 20182 39685 40150 333 20202 59013;EQDQ01  00002PRCP06
0167827840999992003011218004-07320-039300FM-12+040999999V0201401N001012200019N0200001N1+03571+01551100901ADDAA106000091GF103991031021008001001001MA1999999096291MD1999999-0191REMSYN070AAXX  12184 82784 32598 31402 10357 20155 39629 40090 83200 333 59019;EQDQ01  00002PRCP06
0208827840999992003011300004-07320-039300FM-12+040999999V0203601N000512200019N0020001N1+02841+01501101091ADDAA106000091GA1001+999999999GF100991001001999999001001KA1240M+03661MA1999999096461MD1999999-0101REMSYN082AAXX  13004 82784 32995 03601 10284 20150 39646 40109 333 10366 29044 55112 59010;EQDQ01  00002PRCP06
0157827840999992003011312004-07320-039300FM-12+040999999V0203201N001519999999N0200001N1+02701+01941999999ADDAA106000091GF106991999999008001999999REMSYN089AAXX  13124 82784 32598 63203 10270 20194 10294 20185 20241 3506 39889 40142 58004 83100;EQDQ01  00002PRCP06
0149827840999992003011318004-07320-039300FM-12+040999999V0200501N003112200019N0200001N1+03521+01551100821ADDAA106000091GF103991021021008001021001MA1999999096231REMSYN066AAXX  13184 82784 32598 30506 10352 20155 39623 40082 59006 82220;EQDQ01  00002PRCP06
0208827840999992003011400004-07320-039300FM-12+040999999V0209999C000012200019N0020001N1+02861+01551101041ADDAA106000091GA1001+999999999GF100991001001999999001001KA1240M+03571MA1999999096421MD1999999-0041REMSYN082AAXX  14004 82784 32995 00000 10286 20155 39642 40104 333 10357 29046 55087 59004;EQDQ01  00002PRCP06
0186827840999992003011412004-07320-039300FM-12+040999999V0200501N002610075019N0200001N1+02691+01701101501ADDAA106000091GF105991051021008001001001KA1240N+02391MA1999999096851MD1999999+0041REMSYN076AAXX  14124 82784 32598 50505 10269 20170 39685 40150 85200 333 20239 58004;EQDQ01  00002PRCP06
0167827840999992003011418004-07320-039300FM-12+040999999V0200501N003110075019N0200001N1+03401+01501101021ADDAA106000091GF106991061021008001001001MA1999999096411MD1999999+0181REMSYN070AAXX  14184 82784 32598 60506 10340 20150 39641 40102 86200 333 58018;EQDQ01  00002PRCP06
0208827840999992003011500004-07320-039300FM-12+040999999V0201401N001012200019N0020001N1+02831+01581101201ADDAA106000091GA1001+999999999GF100991001001999999001001KA1240M+03481MA1999999096561MD1999999+0141REMSYN082AAXX  15004 82784 32995 01402 10283 20158 39656 40120 333 10348 29045 55107 58014;EQDQ01  00002PRCP06
0186827840999992003011512004-07320-039300FM-12+040999999V0200501N003112200019N0200001N1+02721+01791101591ADDAA106000091GF103991031021008001001001KA1240N+02311MA1999999096941MD1999999+0091REMSYN076AAXX  15124 82784 32598 30506 10272 20179 39694 40159 83200 333 20231 58009;EQDQ01  00002PRCP06
0167827840999992003011518004-07320-039300FM-12+040999999V0202301N001012200019N0200001N1+03441+01431101021ADDAA106000091GF104991021021008001021001MA1999999096411MD1999999+0001REMSYN070AAXX  15184 82784 32598 42302 10344 20143 39641 40102 82220 333 58000;EQDQ01  00002PRCP06
0208827840999992003011600004-07320-039300FM-12+040999999V0201801N000512200019N0020001N1+02841+01271101261ADDAA106000091GA1001+999999999GF100991001001999999001001KA1240M+03571MA1999999096631MD1999999+0071REMSYN082AAXX  16004 82784 32995 01801 10284 20127 39663 40126 333 10357 29041 55097 58007;EQDQ01  00002PRCP06
0202827840999992003011612004-07320-039300FM-12+040999999V0200501N003119999999N0200001N1+02681+01861101671ADDAA106000091GF106991999021008001001001KA1240N+02301MA1999999097011MD1999999+0071REMSYN076AAXX  16124 82784 32598 60506 10268 20186 39701 40167 84200 333 20230 58007;EQDQ01+000042SCOTLCQ02  00002PRCP06
0167827840999992003011618004-07320-039300FM-12+040999999V0200501N001012200019N0200001N1+03411+01541101081ADDAA106000091GF103991031011008001001001MA1999999096461MD1999999+0051REMSYN070AAXX  16184 82784 32598 30502 10341 20154 39646 40108 83100 333 58005;EQDQ01  00002PRCP06
0198827840999992003011700004-07320-039300FM-12+040999999V0202301N000512200019N0020001N1+02881+01421101231ADDAA106000091GF101991011011008001001001KA1240M+03571MA1999999096601MD1999999-0031REMSYN088AAXX  17004 82784 32595 12301 10288 20142 39660 40123 81100 333 10357 29044 55113 59003;EQDQ01  00002PRCP06
0186827840999992003011712004-07320-039300FM-12+040999999V0200501N001510075019N0200001N1+02651+01981101491ADDAA106000091GF107991071021008001001001KA1240N+02421MA1999999096841MD1999999-0171REMSYN076AAXX  17124 82784 32598 70503 10265 20198 39684 40149 87200 333 20242 59017;EQDQ01  00002PRCP06
0167827840999992003011718004-07320-039300FM-12+040999999V0203201N002110450019N0200001N1+03521+01601100931ADDAA106000091GF106991031021008001021001MA1999999096341MD1999999-0121REMSYN070AAXX  17184 82784 32598 63204 10352 20160 39634 40093 83220 333 59012;EQDQ01  00002PRCP06
0198827840999992003011800004-07320-039300FM-12+040999999V0201801N000512200019N0020001N1+02921+01531101231ADDAA106000091GF103991031001017501011001KA1240M+03711MA1999999096601MD1999999+0001REMSYN088AAXX  18004 82784 32795 31801 10292 20153 39660 40123 83010 333 10371 29046 55067 58000;EQDQ01  00002PRCP06
0202827840999992003011812004-07320-039300FM-12+040999999V0200501N002119999999N0200001N1+02771+01881101481ADDAA106000091GF106991999011008001001001KA1240N+02471MA1999999096841MD1999999+0001REMSYN076AAXX  18124 82784 32598 60504 10277 20188 39684 40148 81100 333 20247 58000;EQDQ01+000012SCOTLCQ02  00002PRCP06
0167827840999992003011818004-07320-039300FM-12+040999999V0200501N001512200019N0200001N1+03341+01671101031ADDAA106000091GF106991011021008001001061MA1999999096421MD1999999+0081REMSYN070AAXX  18184 82784 32598 60503 10334 20167 39642 40103 81206 333 58008;EQDQ01  00002PRCP06
0198827840999992003011900004-07320-039300FM-12+040999999V0201801N001012200019N0020001N1+02771+01731101151ADDAA106000091GF104991021021008001001061KA1240M+03421MA1999999096521MD1999999-0081REMSYN088AAXX  19004 82784 32595 41802 10277 20173 39652 40115 82206 333 10342 29050 55056 59008;EQDQ01  00002PRCP06
0190827840999992003011912004-07320-039300FM-12+040999999V0202701N001510075019N0040001N1+02281+02181101601ADDAY191061AY261061GF108991081071008001999999KA1240N+02161MA1999999096921MD1999999+0081MW1611REMSYN088AAXX  19124 82784 21596 82703 10228 20218 39692 40160 76196 887// 333 20216 58008 60804;
0167827840999992003011918004-07320-039300FM-12+040999999V0202701N001510075019N0200001N1+02831+02121101221ADDAA106000021GF106991999021008001001001MA1999999096561MD1999999+0141REMSYN070AAXX  19184 82784 32598 62703 10283 20212 39656 40122 85200 333 58014;EQDQ01+000052SCOTLC
0214827840999992003012000004-07320-039300FM-12+040999999V0203201N001019999999N0020001N1+02561+02151101421ADDAA106000091GF108991999011008001001001KA1240M+03031MA1999999096741MD1999999+0221REMSYN088AAXX  20004 82784 32595 83202 10256 20215 39674 40142 81100 333 10303 29079 55032 58022;EQDQ01+000012SCOTLCQ02  00002PRCP06
0190827840999992003012012004-07320-039300FM-12+040999999V0201801N000510075019N0040001N1+02131+02091101681ADDAY191061AY261061GF108991081071008001999999KA1240N+01921MA1999999096981MD1999999+0061MW1611REMSYN088AAXX  20124 82784 21596 81801 10213 20209 39698 40168 76196 887// 333 20192 58006 60614;
0171827840999992003012018004-07320-039300FM-12+040999999V0200501N002110075019N0200001N1+02751+02071101171ADDAY161061AY221061GF106991061071008001001001MA1999999096521MD1999999-0041MW1211REMSYN082AAXX  20184 82784 21598 60504 10275 20207 39652 40117 72162 86700 333 59004 60011;
0133827840999992003012100004-07320-039300FM-12+040999999V0201801N000519999999N0020001N1+02411+02171999999ADDAA106000021GF105991999999008001999999REMSYN084AAXX  21004 82784 32595 51801 10241 20217 10282 29084 39663 40132 55014 59011 85700;
0140827840999992003012112004-07320-039300FM-12+040999999V0203601N001519999999N0200001N1+02561+02171999999ADDAA106000091GF106991999999008001999999REMSYN072AAXX  21124 82784 32598 63603 10256 20217 20213 39674 40141 59024 86800;EQDQ01  00002PRCP06
0149827840999992003012118004-07320-039300FM-12+040999999V0203201N002110450019N0200001N1+02721+02031100911ADDAA106000091GF106991041081008001021001MA1999999096261REMSYN066AAXX  21184 82784 32598 63204 10272 20203 39626 40091 59026 84820;EQDQ01  00002PRCP06
0198827840999992003012200004-07320-039300FM-12+040999999V0200901N001012200019N0020001N1+02521+02211101231ADDAA106000091GF102991021041008001001001KA1240M+03091MA1999999096511MD1999999-0061REMSYN088AAXX  22004 82784 32595 20902 10252 20221 39651 40123 82400 333 10309 29078 55072 59006;EQDQ01  00002PRCP06
0128827840999992003012212004-07320-039300FM-12+040999999V0201801N000519999999N0200001N1+02471+02131999999ADDGF108991999999008001999999REMSYN090AAXX  22124 82784 21598 81801 10247 20213 10031 20217 39676 40143 58002 60034 72190 888//;
0167827840999992003012218004-07320-039300FM-12+040999999V0201401N001510075019N0200001N1+02971+01921101091ADDAA106000091GF108991081071008001999999MA1999999096451MD1999999+0191REMSYN070AAXX  22184 82784 32598 81403 10297 20192 39645 40109 887// 333 58019;EQDQ01  00002PRCP06
0198827840999992003012300004-07320-039300FM-12+040999999V0209999C000012200019N0020001N1+02571+02211101231ADDAA106000091GF102991021011008001001001KA1240M+03011MA1999999096571MD1999999+0001REMSYN088AAXX  23004 82784 32595 20000 10257 20221 39657 40123 82100 333 10301 29074 55012 58000;EQDQ01  00002PRCP06
0190827840999992003012312004-07320-039300FM-12+040999999V0201401N002110450019N0200001N1+02721+02101101491ADDAY101061AY201061GF106991041021008001021001KA1240N+02201MA1999999096831MD1999999+0071MW1211REMSYN088AAXX  23124 82784 21598 61404 10272 20210 39683 40149 72100 84220 333 20220 58007 60144;
0148827840999992003012318004-07320-039300FM-12+040999999V0200501N003112200019N0200001N1+03171+01841101161ADDAA106000021GF106991031021008001001061MA1999999096491MD1999999+0041REMSYN070AAXX  23184 82784 32598 60506 10317 20184 39649 40116 83206 333 58004;
0190827840999992003012412004-07320-039300FM-12+040999999V0201801N000510450019N0200001N1+02221+02031101551ADDAY101061AY201061GF106991011011008001021091KA1240N+02071MA1999999096861MD1999999+0031MW1211REMSYN088AAXX  24124 82784 21598 61801 10222 20203 39686 40155 72100 81129 333 20207 58003 60454;
0148827840999992003012418004-07320-039300FM-12+040999999V0200501N003610075019N0200001N1+02551+01971101191ADDAA106000021GF107991061071008001021001MA1999999096511MD1999999+0021REMSYN070AAXX  24184 82784 32598 70507 10255 20197 39651 40119 86720 333 58002;
0198827840999992003012500004-07320-039300FM-12+040999999V0200901N001512200019N0020001N1+02411+02031101601ADDAA106000091GF104991041021008001001001KA1240M+03191MA1999999096901MD1999999+0121REMSYN088AAXX  25004 82784 32595 40903 10241 20203 39690 40160 84200 333 10319 29080 55051 58012;EQDQ01  00002PRCP06
0186827840999992003012512004-07320-039300FM-12+040999999V0200901N000510075019N0200001N1+02431+02051101531ADDAA106000091GF107991071071008001001001KA1240N+02071MA1999999096851MD1999999-0011REMSYN076AAXX  25124 82784 32598 70901 10243 20205 39685 40153 87700 333 20207 59001;EQDQ01  00002PRCP06
0167827840999992003012518004-07320-039300FM-12+040999999V0201401N001512200019N0200001N1+03111+01991101021ADDAA106000091GF103991021021008001031001MA1999999096371MD1999999-0141REMSYN070AAXX  25184 82784 32598 31403 10311 20199 39637 40102 82230 333 59014;EQDQ01  00002PRCP06
0162827840999992003012600004-07320-039300FM-12+040999999V0209999C000012200019N0020001N1+02521+02091999999ADDAA106000091GA1001+999999999GF100991001001999999001001REMSYN078AAXX  26004 82784 32995 00000 10252 20209 10319 29071 39658 40124 55060 59032;EQDQ01  00002PRCP06
0128827840999992003012612004-07320-039300FM-12+040999999V0201401N001019999999N0040001N1+02521+02191999999ADDGF108991999999008001999999REMSYN090AAXX  26124 82784 21596 81402 10252 20219 10032 20224 39668 40135 59017 60034 70261 82100;
0183827840999992003012618004-07320-039300FM-12+040999999V0209999C000010075019N0200001N1+03151+01921100871ADDAA106000091GF107991999021008001001001MA1999999096251MD1999999-0121REMSYN070AAXX  26184 82784 32598 70000 10315 20192 39625 40087 85200 333 59012;EQDQ01+000052SCOTLCQ02  00002PRCP06
0152827840999992003012700004-07320-039300FM-12+040999999V0202301N000512200019N0020001N1+02481+02191999999ADDAA106000091GF103991999999008001999999REMSYN084AAXX  27004 82784 32595 32301 10248 20219 10322 29074 39638 40103 55063 59020 83700;EQDQ01  00002PRCP06
0190827840999992003012712004-07320-039300FM-12+040999999V0201801N003110075019N0200001N1+02311+02131101361ADDAY101061AY201061GF108991081071008001999999KA1240N+02281MA1999999096681MD1999999+0001MW1631REMSYN088AAXX  27124 82784 21598 81806 10231 20213 39668 40136 76300 887// 333 20228 58000 60384;
0171827840999992003012718004-07320-039300FM-12+040999999V0203601N002110075019N0200001N1+02711+02261101071ADDAY161061AY221061GF108991061071008001031999MA1999999096421MD1999999+0171MW1211REMSYN082AAXX  27184 82784 21598 83604 10271 20226 39642 40107 72162 8673/ 333 58017 60051;
0179827840999992003012800004-07320-039300FM-12+040999999V0200501N002110120019N0020001N1+02301+02071101431ADDAA106000021GF108991081081008001999999KA1240M+02811MA1999999096741MD1999999+0361REMSYN088AAXX  28004 82784 32595 80504 10230 20207 39674 40143 888// 333 10281 29085 55001 58036;
0190827840999992003012812004-07320-039300FM-12+040999999V0201401N002110075019N0200001N1+02261+02141101561ADDAY161061AY221061GF108991071071008001021999KA1240N+02171MA1999999096861MD1999999+0181MW1021REMSYN088AAXX  28124 82784 21598 81404 10226 20214 39686 40156 70262 8772/ 333 20217 58018 60104;
0167827840999992003012818004-07320-039300FM-12+040999999V0200901N001510075019N0200001N1+02771+02111101291ADDAA106000091GF107991071071008001001001MA1999999096631MD1999999+0211REMSYN070AAXX  28184 82784 32598 70903 10277 20211 39663 40129 87700 333 58021;EQDQ01  00002PRCP06
0152827840999992003012900004-07320-039300FM-12+040999999V0201801N001019999999N0020001N1+02441+02151999999ADDAA106000091GF106991999999008001999999REMSYN084AAXX  29004 82784 32595 61802 10244 20215 10283 29082 39681 40150 55004 58007 86700;EQDQ01  00002PRCP06
0186827840999992003012912004-07320-039300FM-12+040999999V0200501N003110075019N0200001N1+02671+02021101471ADDAA106000091GF107991051021008001031091KA1240N+02201MA1999999096801MD1999999-0061REMSYN076AAXX  29124 82784 32598 70506 10267 20202 39680 40147 85239 333 20220 59006;EQDQ01  00002PRCP06
0167827840999992003012918004-07320-039300FM-12+040999999V0201401N001512200019N0200001N1+03021+01991100991ADDAA106000091GF104991021021008001021001MA1999999096351MD1999999-0281REMSYN070AAXX  29184 82784 32598 41403 10302 20199 39635 40099 82220 333 59028;EQDQ01  00002PRCP06
0202827840999992003013000004-07320-039300FM-12+040999999V0203601N001512200019N0020001N1+02361+02071101361ADDAY111061AY211061GF103991031071008001001001KA1240M+03201MA1999999096691MD1999999-0121MW1201REMSYN100AAXX  30004 82784 21595 33603 10236 20207 39669 40136 72011 83700 333 10320 29072 55075 59012 69911;
0190827840999992003013012004-07320-039300FM-12+040999999V0201401N001510075019N0200001N1+02681+02111101331ADDAY161061AY211061GF108991071021008001031999KA1240N+02181MA1999999096661MD1999999-0141MW1021REMSYN088AAXX  30124 82784 21598 81403 10268 20211 39666 40133 70261 8723/ 333 20218 59014 60094;
0167827840999992003013018004-07320-039300FM-12+040999999V0201401N002110450019N0200001N1+03111+02021100921ADDAA106000091GF105991031021008001021001MA1999999096291MD1999999-0061REMSYN070AAXX  30184 82784 32598 51404 10311 20202 39629 40092 83220 333 59006;EQDQ01  00002PRCP06
0152827840999992003013100004-07320-039300FM-12+040999999V0209999C000012200019N0020001N1+02511+02231999999ADDAA106000091GF102991999999008001999999REMSYN084AAXX  31004 82784 32595 20000 10251 20223 10318 29073 39634 40102 55085 59031 82700;EQDQ01  00002PRCP06
0167827840999992003013118004-07320-039300FM-12+040999999V0200901N002610120019N0200001N1+02971+01981100971ADDAA106000091GF107991051081008001021001MA1999999096331MD1999999+0021REMSYN070AAXX  31184 82784 32598 70905 10297 20198 39633 40097 85820 333 58002;EQDQ01  00002PRCP06
0198827840999992003020100004-07320-039300FM-12+040999999V0209999C000012200019N0020001N1+02491+01901101261ADDAA106000091GF102991021001017501071001KA1240M+03021MA1999999096601MD1999999+0221REMSYN088AAXX  01004 82784 32795 20000 10249 20190 39660 40126 82070 333 10302 29066 55035 58022;EQDQ01  00002PRCP06
0140827840999992003020112004-07320-039300FM-12+040999999V0200501N001519999999N0200001N1+02451+02011999999ADDAA106000091GF108991999999008001999999REMSYN072AAXX  01124 82784 32598 80503 10245 20201 20219 39679 40146 58019 86800;EQDQ01  00002PRCP06
0163827840999992003020118004-07320-039300FM-12+040999999V0201401N002110450019N0200001N1+02991+01891101161ADDAA106000091GF106991041021008001031001MA1999999096511MD1810181+9999REMSYN066AAXX  01184 82784 32598 61404 10299 20189 39651 40116 58018 84230;EQDQ01  00002PRCP06
0152827840999992003020200004-07320-039300FM-12+040999999V0200901N000512200019N0020001N1+02311+01961999999ADDAA106000091GF102991999999004501999999REMSYN084AAXX  02004 82784 32495 20901 10231 20196 10308 29072 39672 40140 55032 58012 82100;EQDQ01  00002PRCP06
0140827840999992003020212004-07320-039300FM-12+040999999V0200901N001519999999N0200001N1+02591+02041999999ADDAA106000091GF108991999999008001999999REMSYN072AAXX  02124 82784 32598 80903 10259 20204 20206 39680 40148 58001 87200;EQDQ01  00002PRCP06
0197827840999992003020218004-07320-039300FM-12+040999999V0200901N001512200019N0200001N1+03081+01921101161ADDAA106000091GF104991999011008001001001MA1999999096511REMSYN066AAXX  02184 82784 32598 40903 10308 20192 39651 40116 58000 82100;EQDQ01+000022SCOTLCQ02+000082APCTENQ03+000002APC3  Q04  00002PRCP06
0198827840999992003020300004-07320-039300FM-12+040999999V0201401N000512200019N0020001N1+02631+01981101351ADDAA106000091GF104991041071008001001001KA1240M+03161MA1999999096691MD1999999-0031REMSYN088AAXX  03004 82784 32595 41401 10263 20198 39669 40135 84700 333 10316 29064 55082 59003;EQDQ01  00002PRCP06
0186827840999992003020312004-07320-039300FM-12+040999999V0201401N002110450019N0200001N1+02781+01931101481ADDAA106000091GF106991021021008001021001KA1240N+02341MA1999999096831MD1999999+0031REMSYN076AAXX  03124 82784 32598 61404 10278 20193 39683 40148 82220 333 20234 58003;EQDQ01  00002PRCP06
0167827840999992003020318004-07320-039300FM-12+040999999V0201401N002610450019N0200001N1+03101+02001101171ADDAA106000091GF106991041021008001021001MA1999999096541MD1999999+0051REMSYN070AAXX  03184 82784 32598 61405 10310 20200 39654 40117 84220 333 58005;EQDQ01  00002PRCP06
0198827840999992003020400004-07320-039300FM-12+040999999V0201801N001012200019N0020001N1+02601+02011101331ADDAA106000091GF102991021071008001001001KA1240M+03141MA1999999096681MD1999999-0011REMSYN088AAXX  04004 82784 32595 21802 10260 20201 39668 40133 82700 333 10314 29063 55080 59001;EQDQ01  00002PRCP06
0186827840999992003020412004-07320-039300FM-12+040999999V0201401N002610450019N0200001N1+02811+02001101381ADDAA106000091GF105991021021008001021001KA1240N+02191MA1999999096731MD1999999-0101REMSYN076AAXX  04124 82784 32598 51405 10281 20200 39673 40138 82220 333 20219 59010;EQDQ01  00002PRCP06
0167827840999992003020418004-07320-039300FM-12+040999999V0201401N004610450019N0200001N1+03181+01981100991ADDAA106000091GF106991041081008001021001MA1999999096371MD1999999-0171REMSYN070AAXX  04184 82784 32598 61409 10318 20198 39637 40099 84820 333 59017;EQDQ01  00002PRCP06
0198827840999992003020500004-07320-039300FM-12+040999999V0201401N002110075019N0020001N1+02641+02161101251ADDAA106000091GF108991081061008001999999KA1240M+03231MA1999999096611MD1999999-0071REMSYN088AAXX  05004 82784 32595 81404 10264 20216 39661 40125 886// 333 10323 29065 55088 59007;EQDQ01  00002PRCP06
0186827840999992003020512004-07320-039300FM-12+040999999V0201401N000510450019N0200001N1+02561+01971101431ADDAA106000091GF106991011011008001071001KA1240N+02391MA1999999096771MD1999999+0041REMSYN076AAXX  05124 82784 32598 61401 10256 20197 39677 40143 81170 333 20239 58004;EQDQ01  00002PRCP06
0167827840999992003020518004-07320-039300FM-12+040999999V0201401N002610450019N0200001N1+03121+01791101071ADDAA106000091GF106991031021008001031091MA1999999096441MD1999999+0071REMSYN070AAXX  05184 82784 32598 61405 10312 20179 39644 40107 83239 333 58007;EQDQ01  00002PRCP06
0208827840999992003020600004-07320-039300FM-12+040999999V0201801N000512200019N0020001N1+02491+01961101271ADDAA106000091GA1001+999999999GF100991001001999999001001KA1240M+03181MA1999999096611MD1999999+0001REMSYN082AAXX  06004 82784 32995 01801 10249 20196 39661 40127 333 10318 29065 55072 58000;EQDQ01  00002PRCP06
0186827840999992003020612004-07320-039300FM-12+040999999V0200901N002110150019N0200001N1+02711+01791101501ADDAA106000091GF106991061001017501021001KA1240N+02161MA1999999096841MD1999999+0071REMSYN076AAXX  06124 82784 32798 60904 10271 20179 39684 40150 86020 333 20216 58007;EQDQ01  00002PRCP06
0167827840999992003020618004-07320-039300FM-12+040999999V0201401N002110450019N0200001N1+03241+01631101111ADDAA106000091GF106991031021008001021001MA1999999096481MD1999999+0041REMSYN070AAXX  06184 82784 32598 61404 10324 20163 39648 40111 83220 333 58004;EQDQ01  00002PRCP06
0198827840999992003020700004-07320-039300FM-12+040999999V0202301N000512200019N0020001N1+02581+01971101231ADDAA106000091GF103991031041008001001001KA1240M+03141MA1999999096581MD1999999-0031REMSYN088AAXX  07004 82784 32595 32301 10258 20197 39658 40123 83400 333 10314 29085 55090 59003;EQDQ01  00002PRCP06
0190827840999992003020712004-07320-039300FM-12+040999999V0201401N003112200019N0200001N1+02661+02141101421ADDAY111061AY211061GF104991021021008001021001KA1240N+02221MA1999999096761MD1999999-0081MW1211REMSYN088AAXX  07124 82784 21598 41406 10266 20214 39676 40142 72111 82220 333 20222 59008 60104;
0148827840999992003020718004-07320-039300FM-12+040999999V0201401N002112200019N0200001N1+03161+01921101071ADDAA106000021GF104991041021008001001001MA1999999096441MD1999999-0041REMSYN070AAXX  07184 82784 32598 41404 10316 20192 39644 40107 84200 333 59004;
0198827840999992003020800004-07320-039300FM-12+040999999V0201801N000512200019N0020001N1+02551+01881101231ADDAA106000091GF102991021001017501041001KA1240M+03211MA1999999096581MD1999999+0001REMSYN088AAXX  08004 82784 32795 21801 10255 20188 39658 40123 82040 333 10321 29063 55103 58000;EQDQ01  00002PRCP06
0186827840999992003020812004-07320-039300FM-12+040999999V0201401N001012200019N0200001N1+02721+01771101491ADDAA106000091GF101991011011008001001001KA1240N+02141MA1999999096831MD1999999+0071REMSYN076AAXX  08124 82784 32598 11402 10272 20177 39683 40149 81100 333 20214 58007;EQDQ01  00002PRCP06
0167827840999992003020818004-07320-039300FM-12+040999999V0201401N002612200019N0200001N1+03121+01711101121ADDAA106000091GF102991021011008001001001MA1999999096531MD1999999+0091REMSYN070AAXX  08184 82784 32598 21405 10312 20171 39653 40112 82100 333 58009;EQDQ01  00002PRCP06
0186827840999992003020912004-07320-039300FM-12+040999999V0203601N001010120019N0200001N1+02591+01941101451ADDAA106000091GF108991061081008001071051KA1240N+02081MA1999999096781MD1999999-0051REMSYN076AAXX  09124 82784 32598 83602 10259 20194 39678 40145 86875 333 20208 59005;EQDQ01  00002PRCP06
0167827840999992003020918004-07320-039300FM-12+040999999V0200901N001510450019N0200001N1+02951+01811101091ADDAA106000091GF106991011011008001021001MA1999999096441MD1999999-0091REMSYN070AAXX  09184 82784 32598 60903 10295 20181 39644 40109 81120 333 59009;EQDQ01  00002PRCP06
0198827840999992003021000004-07320-039300FM-12+040999999V0201801N000512200019N0020001N1+02371+01951101251ADDAA106000091GF101991011001017501021001KA1240M+03021MA1999999096591MD1999999+0041REMSYN088AAXX  10004 82784 32795 11801 10237 20195 39659 40125 81020 333 10302 29068 55029 58004;EQDQ01  00002PRCP06
0186827840999992003021012004-07320-039300FM-12+040999999V0200901N001011050019N0200001N1+02511+02051101391ADDAA106000091GF105991041021008001001091KA1240N+02021MA1999999096721MD1999999-0061REMSYN076AAXX  10124 82784 32598 50902 10251 20205 39672 40139 84209 333 20202 59006;EQDQ01  00002PRCP06
0167827840999992003021018004-07320-039300FM-12+040999999V0201801N001010120019N0200001N1+03141+01911100941ADDAA106000091GF106991061081008001001001MA1999999096301MD1999999-0141REMSYN070AAXX  10184 82784 32598 61802 10314 20191 39630 40094 86800 333 59014;EQDQ01  00002PRCP06
0198827840999992003021100004-07320-039300FM-12+040999999V0200501N000510450019N0020001N1+02581+01991101131ADDAA106000091GF108991021081008001021999KA1240M+03191MA1999999096481MD1999999-0111REMSYN088AAXX  11004 82784 32595 80501 10258 20199 39648 40113 8282/ 333 10319 29066 55060 59011;EQDQ01  00002PRCP06
0190827840999992003021112004-07320-039300FM-12+040999999V0203601N001010120019N0200001N1+02431+02131101421ADDAY101061AY221061GF106991051081008001001091KA1240N+02251MA1999999096751MD1999999+0031MW1021REMSYN088AAXX  11124 82784 21598 63602 10243 20213 39675 40142 70202 85809 333 20225 58003 69934;
0167827840999992003021118004-07320-039300FM-12+040999999V0200501N003110120019N0200001N1+02921+02141100961ADDAA106000091GF106991061081008001001001MA1999999096321MD1999999+0021REMSYN070AAXX  11184 82784 32598 60506 10292 20214 39632 40096 86800 333 58002;EQDQ01  00002PRCP06
0179827840999992003021200004-07320-039300FM-12+040999999V0209999C000019999999N0020001N1+02421+02321999999ADDGF108991999999008001999999KA1240M+03051MA1999999096621MD1999999+0141REMSYN099AAXX  12004 82784 21595 80000 10242 20232 39662 4029 72152 887// 333 10305 29084 55047 58014 60011;
0194827840999992003021212004-07320-039300FM-12+040999999V0202701N001510075019N0200001N1+02161+02141101591ADDAY161061AY221061GF108991081071008001999999KA1240N+02091MD1999999+0141MW1211REMSYN088AAXX  12124 82784 21598 82703 10216 20214 33968 40159 72162 887// 333 20209 58014 60184;EQDQ01+039681APOSP 
0148827840999992003021218004-07320-039300FM-12+040999999V0200901N001010075019N0200001N1+02551+02111101241ADDAA106000021GF107991051071008001021001MA1999999096571MD1999999+0251REMSYN070AAXX  12184 82784 32598 70902 10255 20211 39657 40124 85720 333 58025;
0198827840999992003021300004-07320-039300FM-12+040999999V0202301N000510450019N0020001N1+02371+02091101391ADDAA106000091GF108991031071008001021999KA1240M+02611MA1999999096701MD1999999+0081REMSYN088AAXX  13004 82784 32595 82301 10237 20209 39670 40139 8372/ 333 10261 29086 55000 58008;EQDQ01  00002PRCP06
0190827840999992003021312004-07320-039300FM-12+040999999V0200901N001010075019N0200001N1+02371+02131101571ADDAY111061AY221061GF106991051071008001001081KA1240N+02151MA1999999096881MD1999999-0011MW1021REMSYN088AAXX  13124 82784 21598 60902 10237 20213 39688 40157 70212 85708 333 20215 59001 60134;
0167827840999992003021318004-07320-039300FM-12+040999999V0200901N001510120019N0200001N1+02771+02131101141ADDAA106000091GF108991061081008001021999MA1999999096481MD1999999-0091REMSYN070AAXX  13184 82784 32598 80903 10277 20213 39648 40114 8682/ 333 59009;EQDQ01  00002PRCP06
0198827840999992003021400004-07320-039300FM-12+040999999V0202701N000510075019N0020001N1+02461+02341101291ADDAA106000091GF107991051071008001031001KA1240M+02921MA1999999096621MD1999999-0081REMSYN088AAXX  14004 82784 32595 72701 10246 20234 39662 40129 85730 333 10292 29028 55014 59008;EQDQ01  00002PRCP06
0187827840999992003021412004-07320-039300FM-12+040999999V0200501N001010075019N0200001N1+02501+02151101391ADDAA106000091GF106991051021008001031001KA1240N+02341MD1999999-0161REMSYN076AAXX  14124 82784 32598 60502 10250 20215 33967 40139 85230 333 20234 59016;EQDQ01+039671APOSP Q02  00002PRCP06
0167827840999992003021418004-07320-039300FM-12+040999999V0203601N001510450019N0200001N1+03091+02071100931ADDAA106000091GF106991021021008001021091MA1999999096331MD1999999-0151REMSYN070AAXX  14184 82784 32598 63603 10309 20207 39633 40093 82229 333 59015;EQDQ01  00002PRCP06
0198827840999992003021500004-07320-039300FM-12+040999999V0202301N000510075019N0020001N1+02501+02071101181ADDAA106000091GF108991061071008001051999KA1240M+03191MA1999999096521MD1999999-0101REMSYN088AAXX  15004 82784 32595 82301 10250 20207 39652 40118 8675/ 333 10319 29072 55051 59010;EQDQ01  00002PRCP06
0186827840999992003021512004-07320-039300FM-12+040999999V0200901N005710075019N0200001N1+02571+02211101291ADDAA106000091GF106991061021008001001001KA1240N+02251MA1999999096631MD1999999-0091REMSYN076AAXX  15124 82784 32598 60911 10257 20221 39663 40129 86200 333 20225 59009;EQDQ01  00002PRCP06
0167827840999992003021518004-07320-039300FM-12+040999999V0203601N000510450019N0200001N1+03071+02051100891ADDAA106000091GF106991031021008001021001MA1999999096261MD1999999-0071REMSYN070AAXX  15184 82784 32598 63601 10307 20205 39626 40089 83220 333 59007;EQDQ01  00002PRCP06
0190827840999992003021612004-07320-039300FM-12+040999999V0200501N002610120019N0200001N1+02581+02251105231ADDAY161061AY221061GF108991061081008001061999KA1240N+02241MA1999999096571MD1999999-0061MW1021REMSYN088AAXX  16124 82784 21598 80505 10258 20225 39657 40523 70262 8686/ 333 20224 59006 69984;
0186827840999992003021712004-07320-039300FM-12+040999999V0202301N001010075019N0200001N1+02551+02111101341ADDAA106000091GF106991061021008001001001KA1240N+02271MA1999999096681MD1999999+0111REMSYN076AAXX  17124 82784 32598 62302 10255 20211 39668 40134 86200 333 20227 58011;EQDQ01  00002PRCP06
0167827840999992003021718004-07320-039300FM-12+040999999V0200501N001510450019N0200001N1+03151+02121100941ADDAA106000091GF106991021021008001021001MA1999999096311MD1999999+0081REMSYN070AAXX  17184 82784 32598 60503 10315 20212 39631 40094 82220 333 58008;EQDQ01  00002PRCP06
0198827840999992003021800004-07320-039300FM-12+040999999V0209999C000010075019N0020001N1+02651+02351101271ADDAA106000091GF107991051071008001001091KA1240M+03221MA1999999096621MD1999999+0141REMSYN088AAXX  18004 82784 32595 70000 10265 20235 39662 40127 85709 333 10322 29074 55055 58014;EQDQ01  00002PRCP06
0209827840999992003021812004-07320-039300FM-12+040999999V0200501N002110450019N0200001N1+02461+02131101421ADDAY121061AY221061GF106991031021008001031091KA1240N+02231MA1999999096751MD1999999+0071MW1241REMSYN088AAXX  18124 82784 21598 60504 10246 20213 39675 40142 72422 83239 333 20223 58007 69934;EQDQ01+000002PRSWM1
0148827840999992003021818004-07320-039300FM-12+040999999V0200501N002110450019N0200001N1+03131+02161100981ADDAA106000021GF106991021021008001021001MA1999999096351MD1999999+0041REMSYN070AAXX  18184 82784 32598 60504 10313 20216 39635 40098 82220 333 58004;
0198827840999992003021900004-07320-039300FM-12+040999999V0201801N001012200019N0020001N1+02641+02231101261ADDAA106000091GF103991031051008001021001KA1240M+03211MA1999999096601MD1999999-0021REMSYN088AAXX  19004 82784 32595 31802 10264 20223 39660 40126 83520 333 10321 29074 55080 59002;EQDQ01  00002PRCP06
0186827840999992003021912004-07320-039300FM-12+040999999V0200501N001510450019N0200001N1+02581+02191101451ADDAA106000091GF105991041021008001021001KA1240N+02351MA1999999096791MD1999999+0041REMSYN076AAXX  19124 82784 32598 50503 10258 20219 39679 40145 84220 333 20235 58004;EQDQ01  00002PRCP06
0167827840999992003021918004-07320-039300FM-12+040999999V0201401N002110450019N0200001N1+03261+01981100971ADDAA106000091GF106991041021008001021001MA1999999096351MD1999999+0001REMSYN070AAXX  19184 82784 32598 61404 10326 20198 39635 40097 84220 333 58000;EQDQ01  00002PRCP06
0198827840999992003022000004-07320-039300FM-12+040999999V0200501N000510075019N0020001N1+02371+02051101411ADDAA106000091GF107991071071008001001001KA1240M+03341MA1999999096741MD1999999+0141REMSYN088AAXX  20004 82784 32595 70501 10237 20205 39674 40141 87700 333 10334 29072 55087 58014;EQDQ01  00002PRCP06
0186827840999992003022012004-07320-039300FM-12+040999999V0201401N001510075019N0200001N1+02741+02171101401ADDAA106000091GF106991061021008001031001KA1240N+02231MA1999999096741MD1999999-0051REMSYN076AAXX  20124 82784 32598 61403 10274 20217 39674 40140 86230 333 20223 59005;EQDQ01  00002PRCP06
0167827840999992003022018004-07320-039300FM-12+040999999V0201401N002610450019N0200001N1+03091+02041101001ADDAA106000091GF106991041081008001021041MA1999999096371MD1999999+0021REMSYN070AAXX  20184 82784 32598 61405 10309 20204 39637 40100 84824 333 58002;EQDQ01  00002PRCP06
0202827840999992003022100004-07320-039300FM-12+040999999V0202701N001010075019N0020001N1+02461+02271101251ADDAY191061AY261061GF108991081071008001999999KA1240M+03171MA1999999096601MD1999999-0141MW1021REMSYN100AAXX  21004 82784 21595 82702 10246 20227 39660 40125 70296 887// 333 10317 29076 55062 59014 60041;
0162827840999992003022112004-07320-039300FM-12+040999999V0200901N000510450019N0100001N1+02401+02211101401ADDGF106991021021008001021001KA1240N+02131MA1999999096731MD1999999-0011REMSYN082AAXX  21124 82784 22597 60901 10240 20221 39673 40140 82220 333 20213 59001 60044;
0184827840999992003022118004-07320-039300FM-12+040999999V0201401N000519999999N0200001N1+02931+01781101081ADDAA106000091GF106991999021008001001001MD1999999+0061REMSYN070AAXX  21184 82784 32598 61401 10293 20178 33964 40108 82200 333 58006;EQDQ01+000022SCOTLCQ02+039641APOSP Q03  00002PRCP06
0198827840999992003022200004-07320-039300FM-12+040999999V0202301N000512200019N0020001N1+02471+01941101231ADDAA106000091GF101991011011008001001001KA1240M+03151MA1999999096561MD1999999-0041REMSYN088AAXX  22004 82784 32595 12301 10247 20194 39656 40123 81100 333 10315 29070 55033 59004;EQDQ01  00002PRCP06
0190827840999992003022212004-07320-039300FM-12+040999999V0203201N000512200019N0200001N1+02481+02251101411ADDAY101061AY201061GF104991021021008001031091KA1240N+02221MA1999999096741MD1999999+0011MW1211REMSYN088AAXX  22124 82784 21598 43201 10248 20225 39674 40141 72100 82239 333 20222 58001 60034;
0208827840999992003022300004-07320-039300FM-12+040999999V0202701N000512200019N0020001N1+02461+02271101311ADDAA106000091GA1001+999999999GF100991001001999999001001KA1240M+03301MA1999999096641MD1999999+0081REMSYN082AAXX  23004 82784 32995 02701 10246 20227 39664 40131 333 10330 29079 55079 58008;EQDQ01  00002PRCP06
0190827840999992003022312004-07320-039300FM-12+040999999V0200501N000510450019N0100001N1+02281+02231101661ADDAY161061AY211061GF108991031071008001021999KA1240N+02221MA1999999096961MD1999999+0221MW1511REMSYN088AAXX  23124 82784 21597 80501 10228 20223 39696 40166 75161 8372/ 333 20222 58022 60134;
0208827840999992003022400004-07320-039300FM-12+040999999V0209999C000012200019N0020001N1+02391+02071101451ADDAA106000091GA1001+999999999GF100991001001999999001001KA1240M+02951MA1999999096761MD1999999+0121REMSYN082AAXX  24004 82784 32995 00000 10239 20207 39676 40145 333 10295 29082 55016 58012;EQDQ01  00002PRCP06
0190827840999992003022412004-07320-039300FM-12+040999999V0200901N001510450019N0200001N1+02511+02231101661ADDAY101061AY201061GF107991031081008001031001KA1240N+02251MA1999999096971MD1999999+0011MW1211REMSYN088AAXX  24124 82784 21598 70903 10251 20223 39697 40166 72100 83830 333 20225 58001 60114;
0198827840999992003022500004-07320-039300FM-12+040999999V0202301N000510120019N0020001N1+02391+02281101501ADDAA106000091GF106991061081008001001001KA1240M+02771MA1999999096821MD1999999+0061REMSYN088AAXX  25004 82784 32595 62301 10239 20228 39682 40150 86800 333 10277 29087 55012 58006;EQDQ01  00002PRCP06
0209827840999992003022512004-07320-039300FM-12+040999999V0202301N001019999999N0200001N1+02541+02151101451ADDAY121061AY221061GF106991999021008001001001KA1240N+02181MA1999999096771MD1999999-0201MW1211REMSYN088AAXX  25124 82784 21598 62302 10254 20215 39677 40145 72122 84200 333 20218 59020 60174;EQDQ01+000042SCOTLC
0167827840999992003022518004-07320-039300FM-12+040999999V0200501N001019999999N0200001N1+03001+02191100991ADDAA106000021GF106991999051008001001001MA1999999096351MD1999999-0261REMSYN070AAXX  25184 82784 32598 60502 10300 20219 39635 40099 84500 333 59026;EQDQ01+000042SCOTLC
0202827840999992003022600004-07320-039300FM-12+040999999V0209999C000012200019N0020001N1+02511+02431101261ADDAY121061AY221061GF104991041071008001001001KA1240M+03071MA1999999096601MD1999999-0221MW1201REMSYN100AAXX  26004 82784 21595 40000 10251 20243 39660 40126 72022 84700 333 10307 29083 55051 59022 69951;
0190827840999992003022612004-07320-039300FM-12+040999999V0209999C000010450019N0200001N1+02371+02151101431ADDAY151061AY221061GF106991021021008001031001KA1240N+02171MA1999999096751MD1999999-0021MW1211REMSYN088AAXX  26124 82784 21598 60000 10237 20215 39675 40143 72152 82230 333 20217 59002 60214;
0148827840999992003022618004-07320-039300FM-12+040999999V0200901N001512200019N0200001N1+03021+02041101021ADDAA106000021GF105991021021008001031091MA1999999096371MD1999999+0021REMSYN070AAXX  26184 82784 32598 50903 10302 20204 39637 40102 82239 333 58002;
0208827840999992003022700004-07320-039300FM-12+040999999V0201801N001012200019N0020001N1+02481+02251101291ADDAA106000091GA1001+999999999GF100991001001999999001001KA1240M+03111MA1999999096621MD1999999+0021REMSYN082AAXX  27004 82784 32995 01802 10248 20225 39662 40129 333 10311 29079 55052 58002;EQDQ01  00002PRCP06
0186827840999992003022712004-07320-039300FM-12+040999999V0200501N001510450019N0200001N1+02591+02211101441ADDAA106000091GF106991041021008001031001KA1240N+02151MA1999999096771MD1999999+0021REMSYN076AAXX  27124 82784 32598 60503 10259 20221 39677 40144 84230 333 20215 58002;EQDQ01  00002PRCP06
0167827840999992003022718004-07320-039300FM-12+040999999V0201401N001510450019N0200001N1+03011+02141101101ADDAA106000091GF105991031021008001021001MA1999999096451MD1999999+0041REMSYN070AAXX  27184 82784 32598 51403 10301 20214 39645 40110 83220 333 58004;EQDQ01  00002PRCP06
0202827840999992003022800004-07320-039300FM-12+040999999V0201801N003610075019N0020001N1+02281+02231101431ADDAY121061AY221061GF108991081071008001999999KA1240M+03161MA1999999096751MD1999999+0131MW1951REMSYN100AAXX  28004 82784 21595 81807 10228 20223 39675 40143 79522 887// 333 10316 29084 55082 58013 60201;
0190827840999992003022812004-07320-039300FM-12+040999999V0201401N001512200019N0200001N1+02711+02191101471ADDAY191061AY261061GF104991021021008001021091KA1240N+02251MA1999999096801MD1999999+0031MW1021REMSYN088AAXX  28124 82784 21598 41403 10271 20219 39680 40147 70296 82229 333 20225 58003 60204;
0167827840999992003022818004-07320-039300FM-12+040999999V0201401N002610450019N0200001N1+03051+02081101041ADDAA106000091GF106991031021008001021001MA1999999096411MD1999999-0041REMSYN070AAXX  28184 82784 32598 61405 10305 20208 39641 40104 83220 333 59004;EQDQ01  00002PRCP06
0209827840999992003030112004-07320-039300FM-12+040999999V0200501N001519999999N0200001N1+02621+02211101381ADDAY101061AY201061GF106991999021008001001001KA1240N+02291MA1999999096721MD1999999-0081MW1211REMSYN088AAXX  01124 82784 21598 60503 10262 20221 39672 40138 72100 84200 333 20229 59008 60054;EQDQ01+000042SCOTLC
0130827840999992003030118004-07320-039300FM-12+040999999V0200901N002110450019N0200001N1+03041+02161100991ADDAA106000021GF106991021021008001021001MA1999999096361REMSYN066AAXX  01184 82784 32598 60904 10304 20216 39636 40099 59005 82220;
0152827840999992003030200004-07320-039300FM-12+040999999V0209999C000019999999N0020001N1+02451+02211999999ADDAA106000091GF105991999999008001999999REMSYN084AAXX  02004 82784 32595 50000 10245 20221 10319 29077 39660 40126 55069 58005 86200;EQDQ01  00002PRCP06
0186827840999992003030212004-07320-039300FM-12+040999999V0201401N001010120019N0200001N1+02621+02211101301ADDAA106000091GF108991081081008001999999KA1240N+02181MA1999999096641MD1999999-0081REMSYN076AAXX  02124 82784 32598 81402 10262 20221 39664 40130 888// 333 20218 59008;EQDQ01  00002PRCP06
0167827840999992003030218004-07320-039300FM-12+040999999V0201401N002612200019N0200001N1+03121+02021100911ADDAA106000091GF102991011021008001001091MA1999999096271MD1999999-0091REMSYN070AAXX  02184 82784 32598 21405 10312 20202 39627 40091 81209 333 59009;EQDQ01  00002PRCP06
0208827840999992003030300004-07320-039300FM-12+040999999V0209999C000012200019N0020001N1+02441+02131101071ADDAA106000091GA1001+999999999GF100991001001999999001001KA1240M+03191MA1999999096421MD1999999-0181REMSYN082AAXX  03004 82784 32995 00000 10244 20213 39642 40107 333 10319 29074 55098 59018;EQDQ01  00002PRCP06
0190827840999992003030312004-07320-039300FM-12+040999999V0201401N002110075019N0200001N1+02561+02251101341ADDAY101061AY201061GF106991061021008001001001KA1240N+02151MA1999999096671MD1999999+0031MW1211REMSYN088AAXX  03124 82784 21598 61404 10256 20225 39667 40134 72100 86200 333 20215 58003 60014;
0148827840999992003030318004-07320-039300FM-12+040999999V0200501N002610450019N0200001N1+03001+02221100981ADDAA106000021GF106991041021008001021001MA1999999096341MD1999999+0071REMSYN070AAXX  03184 82784 32598 60505 10300 20222 39634 40098 84220 333 58007;
0208827840999992003030400004-07320-039300FM-12+040999999V0202701N000512200019N0020001N1+02521+02311101231ADDAA106000091GA1001+999999999GF100991001001999999001001KA1240M+03051MA1999999096571MD1999999+0151REMSYN082AAXX  04004 82784 32995 02701 10252 20231 39657 40123 333 10305 29080 55077 58015;EQDQ01  00002PRCP06
0209827840999992003030412004-07320-039300FM-12+040999999V0200901N001010120019N0100001N1+02331+02201101581ADDAY111061AY201061GF108991081081008001999999KA1240N+99999MA1999999096891MD1999999+0221MW1021REMSYN088AAXX  04124 82784 21597 80902 10233 20220 39689 40158 70210 888// 333 20250 58022 60034;EQDQ01 +02502ATMN  
0167827840999992003030418004-07320-039300FM-12+040999999V0200501N002110450019N0200001N1+03031+02071101071ADDAA106000091GF106991031021008001021001MA1999999096431MD1999999+0091REMSYN070AAXX  04184 82784 32598 60504 10303 20207 39643 40107 83220 333 58009;EQDQ01  00002PRCP06
0198827840999992003030500004-07320-039300FM-12+040999999V0200901N001010075019N0020001N1+02491+02031101391ADDAA106000091GF108991051071008001999999KA1240M+03091MA1999999096711MD1999999+0141REMSYN088AAXX  05004 82784 32595 80902 10249 20203 39671 40139 857// 333 10309 29075 55040 58014;EQDQ01  00002PRCP06
0190827840999992003030512004-07320-039300FM-12+040999999V0201401N001010450019N0200001N1+02551+02331101371ADDAY121061AY221061GF106991041021008001031001KA1240N+02191MA1999999096701MD1999999-0191MW1211REMSYN088AAXX  05124 82784 21598 61402 10255 20233 39670 40137 72122 84230 333 20219 59019 60024;
0171827840999992003030518004-07320-039300FM-12+040999999V0200501N004110075019N0200001N1+02511+02021101061ADDAY161061AY221061GF106991061071008001001001MA1999999096391MD1999999-0041MW1201REMSYN082AAXX  05184 82784 21598 60508 10251 20202 39639 40106 72062 86700 333 59004 69921;
0198827840999992003030600004-07320-039300FM-12+040999999V0202701N000512200019N0020001N1+02521+02251101151ADDAA106000021GF102991999021008001001001KA1240M+03121MA1999999096501MD1999999-0211REMSYN088AAXX  06004 82784 32595 22701 10252 20225 39650 40115 83200 333 10312 29083 55072 59021;EQDQ01+000032SCOTLC
0190827840999992003030612004-07320-039300FM-12+040999999V0200501N001010450019N0200001N1+02431+02191101341ADDAY111061AY211061GF106991021021008001031001KA1240N+02201MA1999999096671MD1999999-0031MW1211REMSYN088AAXX  06124 82784 21598 60502 10243 20219 39667 40134 72111 82230 333 20220 59003 60044;
0148827840999992003030618004-07320-039300FM-12+040999999V0200901N002110450019N0200001N1+02921+02041101011ADDAA106000021GF106991041021008001021001MA1999999096361MD1999999-0031REMSYN070AAXX  06184 82784 32598 60904 10292 20204 39636 40101 84220 333 59003;
0208827840999992003030700004-07320-039300FM-12+040999999V0209999C000012200019N0020001N1+02501+02231101201ADDAA106000091GA1001+999999999GF100991001001999999001001KA1240M+03011MA1999999096541MD1999999+0041REMSYN082AAXX  07004 82784 32995 00000 10250 20223 39654 40120 333 10301 29079 55051 58004;EQDQ01  00002PRCP06
0186827840999992003030712004-07320-039300FM-12+040999999V0201401N001512200019N0200001N1+02691+02041101401ADDAA106000091GF104991011021008001021091KA1240N+02171MA1999999096741MD1999999+0071REMSYN076AAXX  07124 82784 32598 41403 10269 20204 39674 40140 81229 333 20217 58007;EQDQ01  00002PRCP06
0167827840999992003030718004-07320-039300FM-12+040999999V0201401N001512200019N0200001N1+03111+01791101041ADDAA106000091GF103991011021008001021091MA1999999096401MD1999999+0041REMSYN070AAXX  07184 82784 32598 31403 10311 20179 39640 40104 81229 333 58004;EQDQ01  00002PRCP06
0214827840999992003030800004-07320-039300FM-12+040999999V0209999C000012200019N0020001N1+02441+02211101321ADDAA106000091GF101991001001999999001021KA1240M+03191MA1999999096661MD1999999+0121REMSYN088AAXX  08004 82784 32995 10000 10244 20221 39666 40132 81002 333 10319 29072 55101 58012;EQDQ01+000012SCOTLCQ02  00002PRCP06
0186827840999992003030812004-07320-039300FM-12+040999999V0200501N001512200019N0200001N1+02541+02091101471ADDAA106000091GF103991021021008001031001KA1240N+02101MA1999999096801MD1999999+0061REMSYN076AAXX  08124 82784 32598 30503 10254 20209 39680 40147 82230 333 20210 58006;EQDQ01  00002PRCP06
0208827840999992003030900004-07320-039300FM-12+040999999V0209999C000012200019N0020001N1+02421+02071101261ADDAA106000091GA1001+999999999GF100991001001999999001001KA1240M+03101MA1999999096601MD1999999-0061REMSYN082AAXX  09004 82784 32995 00000 10242 20207 39660 40126 333 10310 29074 55101 59006;EQDQ01  00002PRCP06
0196827840999992003030912004-07320-039300FM-12+040999999V0200901N001012200019N0200001N1+02691+01841101401ADDAA106000091GA1001+999999999GF100991001001999999001001KA1240N+02161MA1999999096741MD1999999-0061REMSYN070AAXX  09124 82784 32998 00902 10269 20184 39674 40140 333 20216 59006;EQDQ01  00002PRCP06
0167827840999992003030918004-07320-039300FM-12+040999999V0200501N002112200019N0200001N1+03121+01921101051ADDAA106000091GF102991011011008001021001MA1999999096411MD1999999-0061REMSYN070AAXX  09184 82784 32598 20504 10312 20192 39641 40105 81120 333 59006;EQDQ01  00002PRCP06
0208827840999992003031000004-07320-039300FM-12+040999999V0201801N000512200019N0020001N1+02401+02031101231ADDAA106000091GA1001+999999999GF100991001001999999001001KA1240M+03171MA1999999096571MD1999999-0031REMSYN082AAXX  10004 82784 32995 01801 10240 20203 39657 40123 333 10317 29067 55113 59003;EQDQ01  00002PRCP06
0190827840999992003031012004-07320-039300FM-12+040999999V0200501N001510075019N0200001N1+02521+02341101391ADDAY101061AY201061GF106991061021008001001001KA1240N+02311MA1999999096721MD1999999-0021MW1211REMSYN088AAXX  10124 82784 21598 60503 10252 20234 39672 40139 72100 86200 333 20231 59002 60024;
0171827840999992003031018004-07320-039300FM-12+040999999V0201401N001512200019N0200001N1+03021+02181100931ADDAY161061AY221061GF102991011021008001021001MA1999999096301MD1999999-0111MW1201REMSYN082AAXX  10184 82784 21598 21403 10302 20218 39630 40093 72062 81220 333 59011 69921;
0179827840999992003031100004-07320-039300FM-12+040999999V0202701N001010120019N0020001N1+02511+02211101131ADDAA106000021GF107991071081008001001001KA1240M+03191MA1999999096471MD1999999-0101REMSYN088AAXX  11004 82784 32595 72702 10251 20221 39647 40113 87800 333 10319 29080 55085 59010;
0190827840999992003031112004-07320-039300FM-12+040999999V0201401N001512200019N0200001N1+02661+02201101341ADDAY121061AY221061GF104991041021008001001001KA1240N+02321MA1999999096681MD1999999-0041MW1211REMSYN088AAXX  11124 82784 21598 41403 10266 20220 39668 40134 72122 84200 333 20232 59004 60014;
0148827840999992003031118004-07320-039300FM-12+040999999V0201401N002112200019N0200001N1+03201+01931100921ADDAA106000021GF103991021021008001021001MA1999999096301MD1999999+0001REMSYN070AAXX  11184 82784 32598 31404 10320 20193 39630 40092 82220 333 58000;
0198827840999992003031200004-07320-039300FM-12+040999999V0209999C000012200019N0020001N1+02641+02231101141ADDAA106000091GF102991021021008001001001KA1240M+03271MA1999999096501MD1999999+0031REMSYN088AAXX  12004 82784 32595 20000 10264 20223 39650 40114 82200 333 10327 29070 55103 58003;EQDQ01  00002PRCP06
0202827840999992003031212004-07320-039300FM-12+040999999V0200501N001519999999N0200001N1+02651+02181101351ADDAA106000091GF105991999021008001001001KA1240N+02341MA1999999096701MD1999999+0021REMSYN076AAXX  12124 82784 32598 50503 10265 20218 39670 40135 87200 333 20234 58002;EQDQ01+000072SCOTLCQ02  00002PRCP06
0179827840999992003031218004-07320-039300FM-12+040999999V0200501N002112200019N0200001N1+03131+01731100991ADDAA106000091GF102991999021008001001001MA1999999096361MD1810061+9999REMSYN066AAXX  12184 82784 32598 20504 10313 20173 39636 40099 58006 81200;EQDQ01+000012SCOTLCQ02  00002PRCP06
0198827840999992003031300004-07320-039300FM-12+040999999V0209999C000010120019N0020001N1+02371+01871101171ADDAA106000091GF106991051081008001071001KA1240M+03191MA1999999096511MD1999999+0011REMSYN088AAXX  13004 82784 32595 60000 10237 20187 39651 40117 85870 333 10319 29067 55095 58001;EQDQ01  00002PRCP06
0186827840999992003031312004-07320-039300FM-12+040999999V0200901N001510075019N0200001N1+02581+02121101391ADDAA106000091GF107991071021008001001001KA1240N+02011MA1999999096721MD1999999+0021REMSYN076AAXX  13124 82784 32598 70903 10258 20212 39672 40139 87200 333 20201 58002;EQDQ01  00002PRCP06
0167827840999992003031318004-07320-039300FM-12+040999999V0203201N002110450019N0200001N1+03121+02111100951ADDAA106000091GF106991041021008001021001MA1999999096311MD1999999-0051REMSYN070AAXX  13184 82784 32598 63204 10312 20211 39631 40095 84220 333 59005;EQDQ01  00002PRCP06
0214827840999992003031400004-07320-039300FM-12+040999999V0201401N000519999999N0200001N1+02591+02211101151ADDAA106000091GF105991999011008001001001KA1240M+03171MA1999999096501MD1999999-0011REMSYN088AAXX  14004 82784 32598 51401 10259 20221 39650 40115 82100 333 10317 29073 55077 59001;EQDQ01+000022SCOTLCQ02  00002PRCP06
0190827840999992003031412004-07320-039300FM-12+040999999V0200901N001010075019N0200001N1+02611+02271101371ADDAY121061AY221061GF107991071021008001001001KA1240N+02321MA1999999096711MD1999999-0011MW1211REMSYN088AAXX  14124 82784 21598 70902 10261 20227 39671 40137 72122 87200 333 20232 59001 60054;
0148827840999992003031418004-07320-039300FM-12+040999999V0200501N001512200019N0200001N1+03091+02101100851ADDAA106000021GF103991031021008001021001MA1999999096231MD1999999-0081REMSYN070AAXX  14184 82784 32598 30503 10309 20210 39623 40085 83220 333 59008;
0198827840999992003031500004-07320-039300FM-12+040999999V0203201N000510120019N0020001N1+02571+02111101121ADDAA106000091GF108991081081008001999999KA1240M+03211MA1999999096471MD1999999-0031REMSYN088AAXX  15004 82784 32595 83201 10257 20211 39647 40112 888// 333 10321 29072 55088 59003;EQDQ01  00002PRCP06
0190827840999992003031512004-07320-039300FM-12+040999999V0201401N001512200019N0200001N1+02651+02271101481ADDAY121061AY221061GF103991031021008001001001KA1240N+02091MA1999999096821MD1999999+0111MW1291REMSYN088AAXX  15124 82784 21598 31403 10265 20227 39682 40148 72922 83200 333 20209 58011 60264;
0167827840999992003031518004-07320-039300FM-12+040999999V0200501N000512200019N0200001N1+03051+02121100951ADDAA106000091GF102991011021008001021001MA1999999096311MD1999999+0081REMSYN070AAXX  15184 82784 32598 20501 10305 20212 39631 40095 81220 333 58008;EQDQ01  00002PRCP06
0198827840999992003031600004-07320-039300FM-12+040999999V0209999C000010450019N0020001N1+02571+02251101231ADDAA106000091GF106991041021008001031001KA1240M+03241MA1999999096581MD1999999+0111REMSYN088AAXX  16004 82784 32595 60000 10257 20225 39658 40123 84230 333 10324 29076 55109 58011;EQDQ01  00002PRCP06
0190827840999992003031612004-07320-039300FM-12+040999999V0202701N000510450019N0040001N1+02491+02111101401ADDAY191061AY261061GF108991021021008001011001KA1240N+02191MA1999999096801MD1999999-0021MW1021REMSYN088AAXX  16124 82784 21596 82701 10249 20211 39680 40140 70296 82210 333 20219 59002 60664;
0183827840999992003031618004-07320-039300FM-12+040999999V0201401N001512200019N0200001N1+03061+02081100991ADDAA106000091GF104991999021008001001001MA1999999096351MD1999999+0041REMSYN070AAXX  16184 82784 32598 41403 10306 20208 39635 40099 82200 333 58004;EQDQ01+000022SCOTLCQ02  00002PRCP06
0190827840999992003031712004-07320-039300FM-12+040999999V0201801N001510075019N0200001N1+02301+02161101531ADDAY191061AY261061GF108991081071008001999999KA1240N+02121MA1999999096851MD1999999+0051MW1021REMSYN088AAXX  17124 82784 21598 81803 10230 20216 39685 40153 70296 887// 333 20212 58005 60474;
0167827840999992003031718004-07320-039300FM-12+040999999V0203201N001512200019N0200001N1+02921+02171100941ADDAA106000091GF104991021021008001021091MA1999999096291MD1999999-0061REMSYN070AAXX  17184 82784 32598 43203 10292 20217 39629 40094 82229 333 59006;EQDQ01  00002PRCP06
0214827840999992003031800004-07320-039300FM-12+040999999V0209999C000019999999N0020001N1+02391+02171101271ADDAA106000091GF108991999051008001001001KA1240M+03021MA1999999096591MD1999999-0041REMSYN088AAXX  18004 82784 32595 80000 10239 20217 39659 40127 84500 333 10302 29083 55036 59004;EQDQ01+000042SCOTLCQ02  00002PRCP06
0190827840999992003031812004-07320-039300FM-12+040999999V0201401N001510075019N0200001N1+02451+02251101441ADDAY151061AY221061GF107991061071008001031001KA1240N+02231MA1999999096761MD1999999-0091MW1021REMSYN088AAXX  18124 82784 21598 71403 10245 20225 39676 40144 70252 86730 333 20223 59009 69934;
0171827840999992003031818004-07320-039300FM-12+040999999V0202301N001010450019N0200001N1+02801+02201101051ADDAY151061AY221061GF106991031021008001021001MA1999999096401MD1999999+0111MW1201REMSYN082AAXX  18184 82784 21598 62302 10280 20220 39640 40105 72052 83220 333 58011 69911;
0190827840999992003031912004-07320-039300FM-12+040999999V0201401N000510075019N0200001N1+02341+02221101621ADDAY161061AY221061GF108991081071008001999999KA1240N+02171MA1999999096931MD1999999+0171MW1021REMSYN088AAXX  19124 82784 21598 81401 10234 20222 39693 40162 70262 887// 333 20217 58017 60264;
0167827840999992003031918004-07320-039300FM-12+040999999V0200501N002610075019N0200001N1+02861+02211101121ADDAA106000091GF106991061071008001001001MA1999999096461MD1999999+0061REMSYN070AAXX  19184 82784 32598 60505 10286 20221 39646 40112 86700 333 58006;EQDQ01  00002PRCP06
0214827840999992003032000004-07320-039300FM-12+040999999V0209999C000010075019N0020001N1+02421+02281101461ADDAA106000091GF108991999021008001001001KA1240M+03021MA1999999096781MD1999999+0161REMSYN088AAXX  20004 82784 32595 80000 10242 20228 39678 40146 85200 333 10302 29086 55042 58016;EQDQ01+000052SCOTLCQ02  00002PRCP06
0190827840999992003032012004-07320-039300FM-12+040999999V0201401N002110450019N0200001N1+02611+02121101551ADDAY121061AY221061GF107991041071008001031001KA1240N+02241MA1999999096871MD1999999-0061MW1291REMSYN088AAXX  20124 82784 21598 71404 10261 20212 39687 40155 72922 84730 333 20224 59006 60024;
0167827840999992003032018004-07320-039300FM-12+040999999V0201401N001510450019N0200001N1+02951+01871101141ADDAA106000091GF106991021021008001021001MA1999999096491MD1999999+0031REMSYN070AAXX  20184 82784 32598 61403 10295 20187 39649 40114 82220 333 58003;EQDQ01  00002PRCP06
0198827840999992003032100004-07320-039300FM-12+040999999V0200901N000510075019N0020001N1+02371+02191101471ADDAA106000091GF108991081071008001999999KA1240M+03051MA1999999096801MD1999999+0021REMSYN088AAXX  21004 82784 32595 80901 10237 20219 39680 40147 887// 333 10305 29077 55077 58002;EQDQ01  00002PRCP06
0190827840999992003032112004-07320-039300FM-12+040999999V0200501N000510075019N0200001N1+02401+02231101551ADDAY121061AY221061GF107991071071008001001001KA1240N+02241MA1999999096861MD1999999-0011MW1201REMSYN088AAXX  21124 82784 21598 70501 10240 20223 39686 40155 72022 87700 333 20224 59001 69934;
0171827840999992003032118004-07320-039300FM-12+040999999V0200501N002610120019N0200001N1+02871+02191101051ADDAY151061AY221061GF107991061081008001021001MA1999999096401MD1999999-0091MW1211REMSYN082AAXX  21184 82784 21598 70505 10287 20219 39640 40105 72152 86820 333 59009 60011;
0186827840999992003032812004-07320-039300FM-12+040999999V0201401N002110075019N0200001N1+02731+02101101491ADDAA106000091GF105991051021008001001001KA1240N+02121MA1999999096821MD1999999+0071REMSYN076AAXX  28124 82784 32598 51404 10273 20210 39682 40149 85200 333 20212 58007;EQDQ01  00002PRCP06
0167827840999992003032818004-07320-039300FM-12+040999999V0201401N002112200019N0200001N1+03101+01971101091ADDAA106000091GF103991011011008001021001MA1999999096451MD1999999+0021REMSYN070AAXX  28184 82784 32598 31404 10310 20197 39645 40109 81120 333 58002;EQDQ01  00002PRCP06
0186827840999992003032912004-07320-039300FM-12+040999999V0201401N001010075019N0200001N1+02591+02151101461ADDAA106000091GF107991071051008001001001KA1240N+02131MA1999999096791MD1999999+0341REMSYN076AAXX  29124 82784 32598 71402 10259 20215 39679 40146 87500 333 20213 58034;EQDQ01  00002PRCP06
0183827840999992003032918004-07320-039300FM-12+040999999V0200901N001512200019N0200001N1+03101+02121100931ADDAA106000091GF104991999021008001001001MA1999999096291MD1999999-0161REMSYN070AAXX  29184 82784 32598 40903 10310 20212 39629 40093 83200 333 59016;EQDQ01+000032SCOTLCQ02  00002PRCP06
0221827840999992003033000004-07320-039300FM-12+040999999V0209999C000012200019N0020001N1+02401+02311101291ADDAY121061AY221061GF102991999021008001001001KA1240M+02401MA1999999096631MD1999999-0021MW1211REMSYN100AAXX  30004 82784 21595 20000 10240 20231 39663 40129 72122 83200 333 10240 29081 55063 59002 60021;EQDQ01+000032SCOTLC
0190827840999992003033012004-07320-039300FM-12+040999999V0200901N001010450019N0200001N1+02621+02141101331ADDAY161061AY211061GF106991021021008001021001KA1240N+02181MA1999999096661MD1999999-0031MW1011REMSYN088AAXX  30124 82784 21598 60902 10262 20214 39666 40133 70161 82220 333 20218 59003 60044;
0190827840999992003033112004-07320-039300FM-12+040999999V0202701N000510075019N0200001N1+02351+02261101391ADDAY191061AY261061GF107991071071008001001001KA1240N+02121MA1999999096711MD1999999+0051MW1211REMSYN088AAXX  31124 82784 21598 72701 10235 20226 39671 40139 72196 87700 333 20212 58005 60224;
0148827840999992003033118004-07320-039300FM-12+040999999V0201401N002110450019N0200001N1+03031+02241100821ADDAA106000021GF105991031021008001021001MA1999999096181MD1999999-0061REMSYN070AAXX  31184 82784 32598 51404 10303 20224 39618 40082 83220 333 59006;
0221827840999992003040100004-07320-039300FM-12+040999999V0201401N001519999999N0020001N1+02371+02211101401ADDAY121061AY221061GF108991999021008001001001KA1240M+03091MA1999999096721MD1999999+0161MW1951REMSYN100AAXX  01004 82784 21595 81403 10237 20221 39672 40140 79522 83200 333 10309 29084 55070 58016 60061;EQDQ01+000032SCOTLC
0190827840999992003040112004-07320-039300FM-12+040999999V0200901N001510075019N0200001N1+02601+02291101491ADDAY191061AY261061GF106991061021008001001001KA1240N+02241MA1999999096821MD1999999+0111MW1211REMSYN088AAXX  01124 82784 21598 60903 10260 20229 39682 40149 72196 86200 333 20224 58011 60084;
0148827840999992003040118004-07320-039300FM-12+040999999V0201401N002610450019N0200001N1+02961+02211101091ADDAA106000021GF106991031081008001021001MA1999999096451MD1999999+0271REMSYN070AAXX  01184 82784 32598 61405 10296 20221 39645 40109 83820 333 58027;
0190827840999992003040212004-07320-039300FM-12+040999999V0200901N001510120019N0200001N1+02541+02251101561ADDAY101061AY201061GF106991051081008001021001KA1240N+02211MA1999999096881MD1999999+0061MW1211REMSYN088AAXX  02124 82784 21598 60903 10254 20225 39688 40156 72100 85820 333 20221 58006 60074;
0148827840999992003040218004-07320-039300FM-12+040999999V0201401N002610450019N0200001N1+03051+01941101091ADDAA106000021GF105991021011008001021001MA1999999096451MD1999999+0001REMSYN070AAXX  02184 82784 32598 51405 10305 20194 39645 40109 82120 333 58000;
0208827840999992003040300004-07320-039300FM-12+040999999V0202301N001512200019N0020001N1+02351+02131101371ADDAA106000091GA1001+999999999GF100991001001999999001001KA1240M+03111MA1999999096701MD1999999-0021REMSYN082AAXX  03004 82784 32995 02303 10235 20213 39670 40137 333 10311 29078 55092 59002;EQDQ01  00002PRCP06
0186827840999992003040312004-07320-039300FM-12+040999999V0201401N001012200019N0200001N1+02751+02191101371ADDAA106000091GF103991021021008001001091KA1240N+02211MA1999999096711MD1999999-0171REMSYN076AAXX  03124 82784 32598 31402 10275 20219 39671 40137 82209 333 20221 59017;EQDQ01  00002PRCP06
0167827840999992003040318004-07320-039300FM-12+040999999V0201401N001511050019N0200001N1+03051+02061100951ADDAA106000091GF105991031021008001001091MA1999999096311MD1999999-0141REMSYN070AAXX  03184 82784 32598 51403 10305 20206 39631 40095 83209 333 59014;EQDQ01  00002PRCP06
0208827840999992003040400004-07320-039300FM-12+040999999V0201801N000512200019N0020001N1+02431+02051101181ADDAA106000091GA1001+999999999GF100991001001999999001001KA1240M+03141MA1999999096531MD1999999-0171REMSYN082AAXX  04004 82784 32995 01801 10243 20205 39653 40118 333 10314 29072 55100 59017;EQDQ01  00002PRCP06
0186827840999992003040412004-07320-039300FM-12+040999999V0201401N002112200019N0200001N1+02751+02041101371ADDAA106000091GF103991031011008001001001KA1240N+02151MA1999999096711MD1999999+0001REMSYN076AAXX  04124 82784 32598 31404 10275 20204 39671 40137 83100 333 20215 58000;EQDQ01  00002PRCP06
0167827840999992003040418004-07320-039300FM-12+040999999V0200901N002612200019N0200001N1+03031+02071100941ADDAA106000091GF102991021021008001001001MA1999999096301MD1999999-0011REMSYN070AAXX  04184 82784 32598 20905 10303 20207 39630 40094 82200 333 59001;EQDQ01  00002PRCP06
0208827840999992003040500004-07320-039300FM-12+040999999V0209999C000012200019N0020001N1+02411+02131101221ADDAA106000091GA1001+999999999GF100991001001999999001001KA1240M+03091MA1999999096571MD1999999+0041REMSYN082AAXX  05004 82784 32995 00000 10241 20213 39657 40122 333 10309 29073 55110 58004;EQDQ01  00002PRCP06
0190827840999992003040512004-07320-039300FM-12+040999999V0200501N001510075019N0200001N1+02601+02231101441ADDAY101061AY201061GF105991051021008001001001KA1240N+02211MA1999999096771MD1999999+0061MW1211REMSYN088AAXX  05124 82784 21598 50503 10260 20223 39677 40144 72100 85200 333 20221 58006 60014;
0148827840999992003040518004-07320-039300FM-12+040999999V0200501N001012200019N0200001N1+03071+02021101051ADDAA106000021GF103991021021008001021001MA1999999096411MD1999999+0111REMSYN070AAXX  05184 82784 32598 30502 10307 20202 39641 40105 82220 333 58011;
0183827840999992003040618004-07320-039300FM-12+040999999V0200501N001519999999N0200001N1+03051+02061100961ADDAA106000091GF105991999021008001001001MA1999999096321MD1999999-0091REMSYN070AAXX  06184 82784 32598 50503 10305 20206 39632 40096 84200 333 59009;EQDQ01+000042SCOTLCQ02  00002PRCP06
0208827840999992003040700004-07320-039300FM-12+040999999V0209999C000012200019N0020001N1+02451+02191101191ADDAA106000091GA1001+999999999GF100991001001999999001001KA1240M+03121MA1999999096531MD1999999-0071REMSYN082AAXX  07004 82784 32995 00000 10245 20219 39653 40119 333 10312 29076 55095 59007;EQDQ01  00002PRCP06
0186827840999992003040712004-07320-039300FM-12+040999999V0203201N001010120019N0200001N1+02541+02211101301ADDAA106000091GF107991071081008001001001KA1240N+02271MA1999999096641MD1999999-0111REMSYN076AAXX  07124 82784 32598 73202 10254 20221 39664 40130 87800 333 20227 59011;EQDQ01  00002PRCP06
0167827840999992003040718004-07320-039300FM-12+040999999V0200501N001512200019N0200001N1+03091+02211100711ADDAA106000091GF104991041021008001001001MA1999999096091MD1999999-0231REMSYN070AAXX  07184 82784 32598 40503 10309 20221 39609 40071 84200 333 59023;EQDQ01  00002PRCP06
0208827840999992003040800004-07320-039300FM-12+040999999V0203601N000512200019N0020001N1+02541+02251101041ADDAA106000091GA1001+999999999GF100991001001999999001001KA1240M+03151MA1999999096391MD1999999-0141REMSYN082AAXX  08004 82784 32995 03601 10254 20225 39639 40104 333 10315 29078 55069 59014;EQDQ01  00002PRCP06
0190827840999992003040812004-07320-039300FM-12+040999999V0200501N001010075019N0200001N1+02411+02331101291ADDAY101061AY201061GF107991071071008001001001KA1240N+02351MA1999999096621MD1999999-0021MW1601REMSYN088AAXX  08124 82784 21598 70502 10241 20233 39662 40129 76000 87700 333 20235 59002 60044;
0148827840999992003040818004-07320-039300FM-12+040999999V0200501N002612200019N0200001N1+02961+02211100861ADDAA106000021GF104991041021008001001001MA1999999096241MD1999999+0151REMSYN070AAXX  08184 82784 32598 40505 10296 20221 39624 40086 84200 333 58015;
0198827840999992003040900004-07320-039300FM-12+040999999V0209999C000012200019N0020001N1+02431+02301101231ADDAA106000091GF101991011001017501021001KA1240M+03011MA1999999096561MD1999999+0171REMSYN088AAXX  09004 82784 32795 10000 10243 20230 39656 40123 81020 333 10301 29086 55051 58017;EQDQ01  00002PRCP06
0186827840999992003040912004-07320-039300FM-12+040999999V0200901N002110450019N0200001N1+02581+02101101441ADDAA106000091GF105991031021008001031001KA1240N+02321MA1999999096771MD1999999+0151REMSYN076AAXX  09124 82784 32598 50904 10258 20210 39677 40144 83230 333 20232 58015;EQDQ01  00002PRCP06
0167827840999992003040918004-07320-039300FM-12+040999999V0200501N002112200019N0200001N1+03001+01881101051ADDAA106000091GF102991021021008001001001MA1999999096421MD1999999+0181REMSYN070AAXX  09184 82784 32598 20504 10300 20188 39642 40105 82200 333 58018;EQDQ01  00002PRCP06
0208827840999992003041000004-07320-039300FM-12+040999999V0209999C000012200019N0020001N1+02291+02071101311ADDAA106000091GA1001+999999999GF100991001001999999001001KA1240M+03051MA1999999096641MD1999999+0081REMSYN082AAXX  10004 82784 32995 00000 10229 20207 39664 40131 333 10305 29076 55104 58008;EQDQ01  00002PRCP06
0186827840999992003041012004-07320-039300FM-12+040999999V0209999C000010450019N0200001N1+02591+02251101541ADDAA106000091GF105991021021008001021001KA1240N+02191MA1999999096861MD1999999+0091REMSYN076AAXX  10124 82784 32598 50000 10259 20225 39686 40154 82220 333 20219 58009;EQDQ01  00002PRCP06
0167827840999992003041018004-07320-039300FM-12+040999999V0200901N002110450019N0200001N1+03001+02191101081ADDAA106000091GF106991031021008001021001MA1999999096441MD1999999+0021REMSYN070AAXX  10184 82784 32598 60904 10300 20219 39644 40108 83220 333 58002;EQDQ01  00002PRCP06
0178827840999992003041100004-07320-039300FM-12+040999999V0209999C000012200019N0020001N1+02441+02251101291ADDAA106000091GF102991021011017501001001KA1240M+03101MA1999999096721REMSYN082AAXX  11004 82784 32795 20000 10244 20225 39672 40129 82100 333 10310 29080 55098;EQDQ01  00002PRCP06
0190827840999992003041112004-07320-039300FM-12+040999999V0200501N002110120019N0200001N1+02481+02191101591ADDAY111061AY211061GF107991071081008001001001KA1240N+02311MA1999999096911MD1999999+0051MW1211REMSYN088AAXX  11124 82784 21598 70504 10248 20219 39691 40159 72111 87800 333 20231 58005 60014;
0148827840999992003041118004-07320-039300FM-12+040999999V0200501N001010450019N0200001N1+02921+02141101121ADDAA106000021GF106991021021008001021001MA1999999096471MD1999999+0031REMSYN070AAXX  11184 82784 32598 60502 10292 20214 39647 40112 82220 333 58003;
0198827840999992003041200004-07320-039300FM-12+040999999V0201801N000512200019N0020001N1+02401+02171101361ADDAA106000091GF102991021001008001021001KA1240M+03011MA1999999096691MD1999999-0031REMSYN088AAXX  12004 82784 32595 21801 10240 20217 39669 40136 82020 333 10301 29080 55039 59003;EQDQ01  00002PRCP06
0183827840999992003041218004-07320-039300FM-12+040999999V0200901N002619999999N0200001N1+03101+02181101151ADDAA106000091GF106991999021008001001001MA1999999096501MD1999999+0031REMSYN070AAXX  12184 82784 32598 60905 10310 20218 39650 40115 84200 333 58003;EQDQ01+000042SCOTLCQ02  00002PRCP06
0208827840999992003041300004-07320-039300FM-12+040999999V0201801N000512200019N0020001N1+02441+02151101461ADDAA106000091GA1001+999999999GF100991001001999999001001KA1240M+03181MA1999999096791MD1999999+0101REMSYN082AAXX  13004 82784 32995 01801 10244 20215 39679 40146 333 10318 29076 55088 58010;EQDQ01  00002PRCP06
0167827840999992003041318004-07320-039300FM-12+040999999V0200901N002610075019N0200001N1+03031+02261101241ADDAA106000091GF105991051021008001001001MA1999999096591MD1999999+0091REMSYN070AAXX  13184 82784 32598 50905 10303 20226 39659 40124 85200 333 58009;EQDQ01  00002PRCP06
0198827840999992003041400004-07320-039300FM-12+040999999V0209999C000012200019N0020001N1+02421+02251101571ADDAA106000091GF102991021001017501021001KA1240M+03121MA1999999096891MD1999999+0101REMSYN088AAXX  14004 82784 32795 20000 10242 20225 39689 40157 82020 333 10312 29089 55073 58010;EQDQ01  00002PRCP06
0190827840999992003041412004-07320-039300FM-12+040999999V0200901N001510075019N0200001N1+02631+02181101681ADDAY111061AY211061GF105991051021008001001001KA1240N+02241MA1999999097001MD1999999-0011MW1951REMSYN088AAXX  14124 82784 21598 50903 10263 20218 39700 40168 79511 85200 333 20224 59001 60424;
0186827840999992003041512004-07320-039300FM-12+040999999V0203201N001012200019N0200001N1+02651+01901101541ADDAA106000091GF103991011011008001021091KA1240N+02101MA1999999096871MD1999999-0131REMSYN076AAXX  15124 82784 32598 33202 10265 20190 39687 40154 81129 333 20210 59013;EQDQ01  00002PRCP06
0167827840999992003041518004-07320-039300FM-12+040999999V0201401N002112200019N0200001N1+03081+01921101091ADDAA106000091GF103991021021008001021001MA1999999096451MD1999999-0111REMSYN070AAXX  15184 82784 32598 31404 10308 20192 39645 40109 82220 333 59011;EQDQ01  00002PRCP06
0198827840999992003041600004-07320-039300FM-12+040999999V0202701N000512200019N0020001N1+02311+02031101311ADDAA106000091GF103991031001017501041001KA1240M+03141MA1999999096651MD1999999-0111REMSYN088AAXX  16004 82784 32795 32701 10231 20203 39665 40131 83040 333 10314 29070 55108 59011;EQDQ01  00002PRCP06
0186827840999992003041612004-07320-039300FM-12+040999999V0203201N000512200019N0200001N1+02591+02171101531ADDAA106000091GF104991041021008001001001KA1240N+02031MA1999999096851MD1999999-0021REMSYN076AAXX  16124 82784 32598 43201 10259 20217 39685 40153 84200 333 20203 59002;EQDQ01  00002PRCP06
0167827840999992003041618004-07320-039300FM-12+040999999V0200501N002612200019N0200001N1+03071+02081101001ADDAA106000091GF102991021021008001001001MA1999999096351MD1999999-0101REMSYN070AAXX  16184 82784 32598 20505 10307 20208 39635 40100 82200 333 59010;EQDQ01  00002PRCP06
0208827840999992003041700004-07320-039300FM-12+040999999V0201801N000512200019N0020001N1+02331+02071101301ADDAA106000091GA1001+999999999GF100991001001999999001001KA1240M+03141MA1999999096631MD1999999-0021REMSYN082AAXX  17004 82784 32995 01801 10233 20207 39663 40130 333 10314 29076 55099 59002;EQDQ01  00002PRCP06
0186827840999992003041712004-07320-039300FM-12+040999999V0201401N001012200019N0200001N1+02631+02051101581ADDAA106000091GF102991021021008001001001KA1240N+01961MA1999999096901MD1999999+0051REMSYN076AAXX  17124 82784 32598 21402 10263 20205 39690 40158 82200 333 20196 58005;EQDQ01  00002PRCP06
0167827840999992003041718004-07320-039300FM-12+040999999V0200501N001512200019N0200001N1+03071+01831101071ADDAA106000091GF102991021021008001001001MA1999999096431MD1999999+0081REMSYN070AAXX  17184 82784 32598 20503 10307 20183 39643 40107 82200 333 58008;EQDQ01  00002PRCP06
0198827840999992003041800004-07320-039300FM-12+040999999V0201801N001512200019N0020001N1+02261+01991101351ADDAA106000091GF101991011011008001001001KA1240M+03161MA1999999096681MD1999999+0051REMSYN088AAXX  18004 82784 32595 11803 10226 20199 39668 40135 81100 333 10316 29072 55108 58005;EQDQ01  00002PRCP06
0186827840999992003041812004-07320-039300FM-12+040999999V0201401N001010075019N0200001N1+02691+02021101481ADDAA106000091GF106991061021008001001001KA1240N+02031MA1999999096801MD1999999-0101REMSYN076AAXX  18124 82784 32598 61402 10269 20202 39680 40148 86200 333 20203 59010;EQDQ01  00002PRCP06
0167827840999992003041818004-07320-039300FM-12+040999999V0201401N001510075019N0200001N1+03031+02161101131ADDAA106000091GF106991061021008001001001MA1999999096481MD1999999+0051REMSYN070AAXX  18184 82784 32598 61403 10303 20216 39648 40113 86200 333 58005;EQDQ01  00002PRCP06
0198827840999992003041900004-07320-039300FM-12+040999999V0209999C000012200019N0020001N1+02441+02211101391ADDAA106000091GF102991021001017501021091KA1240M+03151MA1999999096731MD1999999+0051REMSYN088AAXX  19004 82784 32795 20000 10244 20221 39673 40139 82029 333 10315 29075 55093 58005;EQDQ01  00002PRCP06
0186827840999992003041912004-07320-039300FM-12+040999999V0200901N001512200019N0200001N1+02671+02041101501ADDAA106000091GF102991021021008001001001KA1240N+02111MA1999999096831MD1999999+0031REMSYN076AAXX  19124 82784 32598 20903 10267 20204 39683 40150 82200 333 20211 58003;EQDQ01  00002PRCP06
0167827840999992003041918004-07320-039300FM-12+040999999V0201401N001512200019N0200001N1+03111+01851101131ADDAA106000091GF102991011021008001021001MA1999999096481MD1999999+0001REMSYN070AAXX  19184 82784 32598 21403 10311 20185 39648 40113 81220 333 58000;EQDQ01  00002PRCP06
0198827840999992003042000004-07320-039300FM-12+040999999V0201401N002612200019N0020001N1+02461+01991101361ADDAA106000091GF102991011081008001031001KA1240M+03201MA1999999096701MD1999999-0031REMSYN088AAXX  20004 82784 32595 21405 10246 20199 39670 40136 81830 333 10320 29066 55101 59003;EQDQ01  00002PRCP06
0186827840999992003042012004-07320-039300FM-12+040999999V0202301N001012200019N0200001N1+02631+02051101491ADDAA106000091GF102991021021008001001001KA1240N+02061MA1999999096771MD1999999-0061REMSYN076AAXX  20124 82784 32598 22302 10263 20205 39677 40149 82200 333 20206 59006;EQDQ01  00002PRCP06
0167827840999992003042018004-07320-039300FM-12+040999999V0200901N001512200019N0200001N1+03111+01951101011ADDAA106000091GF103991031021008001001001MA1999999096371MD1999999-0111REMSYN070AAXX  20184 82784 32598 30903 10311 20195 39637 40101 83200 333 59011;EQDQ01  00002PRCP06
0198827840999992003042100004-07320-039300FM-12+040999999V0201801N000512200019N0020001N1+02381+02151101161ADDAA106000091GF102991021001017501021001KA1240M+03161MA1999999096501MD1999999-0201REMSYN088AAXX  21004 82784 32795 21801 10238 20215 39650 40116 82020 333 10316 29074 55106 59020;EQDQ01  00002PRCP06
0186827840999992003042112004-07320-039300FM-12+040999999V0201401N001512200019N0200001N1+02671+01971101411ADDAA106000091GF102991021021008001001001KA1240N+02301MA1999999096741MD1999999-0031REMSYN076AAXX  21124 82784 32598 21403 10267 20197 39674 40141 82200 333 20230 59003;EQDQ01  00002PRCP06
0167827840999992003042118004-07320-039300FM-12+040999999V0201401N003110075019N0200001N1+03071+02051101001ADDAA106000091GF106991061021008001001001MA1999999096371MD1999999+0001REMSYN070AAXX  21184 82784 32598 61406 10307 20205 39637 40100 86200 333 58000;EQDQ01  00002PRCP06
0198827840999992003042200004-07320-039300FM-12+040999999V0201401N003610075019N0020001N1+02701+01881101391ADDAA106000091GF105991051071008001001001KA1240M+03201MA1999999096741MD1999999-0031REMSYN088AAXX  22004 82784 32595 51407 10270 20188 39674 40139 85700 333 10320 29061 55108 59003;EQDQ01  00002PRCP06
0190827840999992003042212004-07320-039300FM-12+040999999V0201401N003110450019N0200001N1+02591+01991101381ADDAY121061AY221061GF106991031021008001031091KA1240N+02161MA1999999096731MD1999999-0011MW1211REMSYN088AAXX  22124 82784 21598 61406 10259 20199 39673 40138 72122 83239 333 20216 59001 60024;
0171827840999992003042218004-07320-039300FM-12+040999999V0200901N002110450019N0200001N1+02841+02221101051ADDAY161061AY221061GF106991031021008001021091MA1999999096401MD1999999+0031MW1201REMSYN082AAXX  22184 82784 21598 60904 10284 20222 39640 40105 72062 83229 333 58003 69941;
0202827840999992003042300004-07320-039300FM-12+040999999V0203601N001010075019N0020001N1+02351+02261101401ADDAY151061AY221061GF105991051071008001001001KA1240M+03051MA1999999096731MD1999999-0011MW1951REMSYN100AAXX  23004 82784 21595 53602 10235 20226 39673 40140 79552 85700 333 10305 29082 55055 59001 60121;
0190827840999992003042312004-07320-039300FM-12+040999999V0201401N002612200019N0200001N1+02631+01911101471ADDAY191061AY261061GF103991011021008001021001KA1240N+01951MA1999999096801MD1999999+0071MW1011REMSYN088AAXX  23124 82784 21598 31405 10263 20191 39680 40147 70196 81220 333 20195 58007 60134;
0167827840999992003042318004-07320-039300FM-12+040999999V0201401N002612200019N0200001N1+02971+02041101051ADDAA106000091GF103991021021008001021001MA1999999096401MD1999999+0001REMSYN070AAXX  23184 82784 32598 31405 10297 20204 39640 40105 82220 333 58000;EQDQ01  00002PRCP06
0198827840999992003042400004-07320-039300FM-12+040999999V0200901N001512200019N0020001N1+02331+02011101331ADDAA106000091GF103991031071008001001001KA1240M+03021MA1999999096661MD1999999-0071REMSYN088AAXX  24004 82784 32595 30903 10233 20201 39666 40133 83700 333 10302 29072 55110 59007;EQDQ01  00002PRCP06
0186827840999992003042412004-07320-039300FM-12+040999999V0201401N002112200019N0200001N1+02711+01741101481ADDAA106000091GF105991031001017501021091KA1240N+02191MA1999999096811MD1999999+0011REMSYN076AAXX  24124 82784 32798 51404 10271 20174 39681 40148 83029 333 20219 58001;EQDQ01  00002PRCP06
0167827840999992003042418004-07320-039300FM-12+040999999V0201401N001012200019N0200001N1+03111+01821101041ADDAA106000091GF102991021021008001021001MA1999999096401MD1999999+0001REMSYN070AAXX  24184 82784 32598 21402 10311 20182 39640 40104 82220 333 58000;EQDQ01  00002PRCP06
0214827840999992003042500004-07320-039300FM-12+040999999V0200901N001012200019N0020001N1+02331+02001101291ADDAA106000091GF101991999011008001001001KA1240M+03181MA1999999096631MD1999999-0031REMSYN088AAXX  25004 82784 32595 10902 10233 20200 39663 40129 82100 333 10318 29066 55100 59003;EQDQ01+000022SCOTLCQ02  00002PRCP06
0186827840999992003042512004-07320-039300FM-12+040999999V0201401N002110450019N0200001N1+02601+01921101471ADDAA106000091GF106991011021008001041001KA1240N+02181MA1999999096791MD1999999-0021REMSYN076AAXX  25124 82784 32598 61404 10260 20192 39679 40147 81240 333 20218 59002;EQDQ01  00002PRCP06
0167827840999992003042518004-07320-039300FM-12+040999999V0200901N002110075019N0200001N1+02991+01831101091ADDAA106000091GF107991071051008001001001MA1999999096451MD1999999+0051REMSYN070AAXX  25184 82784 32598 70904 10299 20183 39645 40109 87500 333 58005;EQDQ01  00002PRCP06
0198827840999992003042600004-07320-039300FM-12+040999999V0209999C000012200019N0020001N1+02431+02151101461ADDAA106000091GF102991021041008001001001KA1240M+03081MA1999999096791MD1999999+0161REMSYN088AAXX  26004 82784 32595 20000 10243 20215 39679 40146 82400 333 10308 29072 55053 58016;EQDQ01  00002PRCP06
0186827840999992003042612004-07320-039300FM-12+040999999V0200901N001012200019N0200001N1+02691+02221101561ADDAA106000091GF104991011021008001021091KA1240N+02051MA1999999096891MD1999999+0101REMSYN076AAXX  26124 82784 32598 40902 10269 20222 39689 40156 81229 333 20205 58010;EQDQ01  00002PRCP06
0167827840999992003042618004-07320-039300FM-12+040999999V0200501N003110120019N0200001N1+03031+02211101181ADDAA106000091GF106991061081008001001001MA1999999096531MD1999999+0081REMSYN070AAXX  26184 82784 32598 60506 10303 20221 39653 40118 86800 333 58008;EQDQ01  00002PRCP06
0202827840999992003042700004-07320-039300FM-12+040999999V0201801N001012200019N0020001N1+02351+02231101511ADDAY121061AY221061GF102991021021008001001001KA1240M+03221MA1999999096841MD1999999+0051MW1201REMSYN100AAXX  27004 82784 21595 21802 10235 20223 39684 40151 72022 82200 333 10322 29082 55085 58005 69951;
0190827840999992003042712004-07320-039300FM-12+040999999V0201401N002110120019N0200001N1+02631+02141101631ADDAY151061AY211061GF107991071081008001001001KA1240N+02281MA1999999096951MD1999999+0061MW1211REMSYN088AAXX  27124 82784 21598 71404 10263 20214 39695 40163 72151 87800 333 20228 58006 60034;
0148827840999992003042718004-07320-039300FM-12+040999999V0201401N001012200019N0200001N1+03061+02111101061ADDAA106000021GF103991021021008001021001MA1999999096421MD1999999-0111REMSYN070AAXX  27184 82784 32598 31402 10306 20211 39642 40106 82220 333 59011;
0202827840999992003042800004-07320-039300FM-12+040999999V0200901N003110075019N0020001N1+02451+02071101631ADDAY111061AY211061GF107991071071008001001001KA1240M+03161MA1999999096951MD1999999+0111MW1201REMSYN100AAXX  28004 82784 21595 70906 10245 20207 39695 40163 72011 87700 333 10316 29073 55078 58011 69911;
0190827840999992003042812004-07320-039300FM-12+040999999V0201401N002112200019N0200001N1+02671+02071101401ADDAY151061AY221061GF102991011021008001021001KA1240N+02171MA1999999096741MD1999999-0211MW1211REMSYN088AAXX  28124 82784 21598 21404 10267 20207 39674 40140 72152 81220 333 20217 59021 60224;
0148827840999992003042818004-07320-039300FM-12+040999999V0200501N001512200019N0200001N1+03071+01831101071ADDAA106000021GF102991021021008001001001MA1999999096431MD1999999+0081REMSYN070AAXX  28184 82784 32598 20503 10307 20183 39643 40107 82200 333 58008;
0208827840999992003042900004-07320-039300FM-12+040999999V0209999C000012200019N0020001N1+02331+02181101381ADDAA106000091GA1001+999999999GF100991001001999999001001KA1240M+03041MA1999999096711MD1999999-0241REMSYN082AAXX  29004 82784 32995 00000 10233 20218 39671 40138 333 10304 29077 55105 59024;EQDQ01  00002PRCP06
0186827840999992003042912004-07320-039300FM-12+040999999V0200501N001510450019N0200001N1+02471+02171101611ADDAA106000091GF105991031021008001021001KA1240N+02121MA1999999096921MD1999999+0181REMSYN076AAXX  29124 82784 32598 50503 10247 20217 39692 40161 83220 333 20212 58018;EQDQ01  00002PRCP06
0167827840999992003042918004-07320-039300FM-12+040999999V0201401N001511050019N0200001N1+03091+02041101141ADDAA106000091GF106991021021008001031061MA1999999096491MD1999999+0061REMSYN070AAXX  29184 82784 32598 61403 10309 20204 39649 40114 82236 333 58006;EQDQ01  00002PRCP06
0208827840999992003043000004-07320-039300FM-12+040999999V0201801N000512200019N0020001N1+02391+02151101451ADDAA106000091GA1001+999999999GF100991001001999999001001KA1240M+03161MA1999999096771MD1999999+0061REMSYN082AAXX  30004 82784 32995 01801 10239 20215 39677 40145 333 10316 29078 55068 58006;EQDQ01  00002PRCP06
0186827840999992003043012004-07320-039300FM-12+040999999V0200901N001510075019N0200001N1+02611+02171101641ADDAA106000091GF105991051021008001001001KA1240N+02121MA1999999096961MD1999999+0041REMSYN076AAXX  30124 82784 32598 50903 10261 20217 39696 40164 85200 333 20212 58004;EQDQ01  00002PRCP06
0199827840999992003043018004-07320-039300FM-12+040999999V0201401N999992200019N0200001N1+03131+02041101131ADDAA106000091GF102991021011008001001001MA1999999096491MD1999999+0001REMSYN070AAXX  30184 82784 32598 21495 10313 20204 39649 40113 82100 333 58000;EQDQ01+004883WOSPD Q02  00002PRCP06Q030004883WOSPD 
0208827840999992003050100004-07320-039300FM-12+040999999V0202701N001012200019N0020001N1+02381+02051101461ADDAA106000091GA1001+999999999GF100991001001999999001001KA1240M+03191MA1999999096791MD1999999+0021REMSYN082AAXX  01004 82784 32995 02702 10238 20205 39679 40146 333 10319 29073 55097 58002;EQDQ01  00002PRCP06
0186827840999992003050112004-07320-039300FM-12+040999999V0200901N002610450019N0200001N1+02631+02161101671ADDAA106000091GF105991041021008001021001KA1240N+02191MA1999999096991MD1999999+0031REMSYN076AAXX  01124 82784 32598 50905 10263 20216 39699 40167 84220 333 20219 58003;EQDQ01  00002PRCP06
0171827840999992003050118004-07320-039300FM-12+040999999V0200901N000510075019N0200001N1+02831+02361101201ADDAY121061AY221061GF106991061021008001001001MA1999999096541MD1999999+0051MW1201REMSYN082AAXX  01184 82784 21598 60901 10283 20236 39654 40120 72022 86200 333 58005 69951;
0189827840999992003050200004-07320-039300FM-12+040999999V0209999C000012200019N0020001N1+02431+02231101431ADDAA106000021GA1001+999999999GF100991001001999999001001KA1240M+03061MA1999999096761MD1999999-0031REMSYN082AAXX  02004 82784 32995 00000 10243 20223 39676 40143 333 10306 29082 55071 59003;
0190827840999992003050212004-07320-039300FM-12+040999999V0203601N001010075019N0200001N1+02551+02271101551ADDAY121061AY221061GF107991071021008001001001KA1240N+02221MA1999999096871MD1999999-0121MW1971REMSYN088AAXX  02124 82784 21598 73602 10255 20227 39687 40155 79722 87200 333 20222 59012 60124;
0167827840999992003050218004-07320-039300FM-12+040999999V0203601N001512200019N0200001N1+02951+02281101061ADDAA106000021GF104991999021008001001001MA1999999096421MD1999999-0121REMSYN070AAXX  02184 82784 32598 43603 10295 20228 39642 40106 83200 333 59012;EQDQ01+000032SCOTLC
0208827840999992003050300004-07320-039300FM-12+040999999V0209999C000012200019N0020001N1+02351+02201101301ADDAA106000091GA1001+999999999GF100991001001999999001001KA1240M+03021MA1999999096631MD1999999-0131REMSYN082AAXX  03004 82784 32995 00000 10235 20220 39663 40130 333 10302 29083 55043 59013;EQDQ01  00002PRCP06
0186827840999992003050312004-07320-039300FM-12+040999999V0203201N001510120019N0200001N1+02451+02321101461ADDAA106000091GF107991071081008001001001KA1240N+02161MA1999999096801MD1999999-0091REMSYN076AAXX  03124 82784 32598 73203 10245 20232 39680 40146 87800 333 20216 59009;EQDQ01  00002PRCP06
0171827840999992003050318004-07320-039300FM-12+040999999V0202301N003610075019N0200001N1+02561+02021101001ADDAY121061AY221061GF107991071071008001001001MA1999999096331MD1999999-0091MW1951REMSYN082AAXX  03184 82784 21598 72307 10256 20202 39633 40100 79522 87700 333 59009 60061;
0202827840999992003050400004-07320-039300FM-12+040999999V0200901N000510075019N0020001N1+02301+02251101371ADDAY191061AY261061GF106991061071008001001001KA1240M+03061MA1999999096691MD1999999+0061MW1201REMSYN100AAXX  04004 82784 21595 60901 10230 20225 39669 40137 72096 86700 333 10306 29090 55041 58006 69951;
0190827840999992003050412004-07320-039300FM-12+040999999V0203601N001510450019N0200001N1+02461+02171101531ADDAY191061AY261061GF106991041021008001021001KA1240N+02281MA1999999096851MD1999999+0071MW1021REMSYN088AAXX  04124 82784 21598 63603 10246 20217 39685 40153 70296 84220 333 20228 58007 60064;
0167827840999992003050418004-07320-039300FM-12+040999999V0203601N001010075019N0200001N1+02801+02181101161ADDAA106000091GF107991071071008001001001MA1999999096511MD1999999+0181REMSYN070AAXX  04184 82784 32598 73602 10280 20218 39651 40116 87700 333 58018;EQDQ01  00002PRCP06
0198827840999992003050500004-07320-039300FM-12+040999999V0201801N002110075019N0020001N1+02461+02071101511ADDAA106000091GF105991051071008001001001KA1240M+02431MA1999999096831MD1999999+0141REMSYN088AAXX  05004 82784 32595 51804 10246 20207 39683 40151 85700 333 10243 29078 55036 58014;EQDQ01  00002PRCP06
0190827840999992003050512004-07320-039300FM-12+040999999V0200901N002110075019N0200001N1+02511+02191101621ADDAY121061AY221061GF106991061021008001001001KA1240N+02261MA1999999096941MD1999999+0091MW1211REMSYN088AAXX  05124 82784 21598 60904 10251 20219 39694 40162 72122 86200 333 20226 58009 60034;
0148827840999992003050518004-07320-039300FM-12+040999999V0201401N002610450019N0200001N1+02941+01971101171ADDAA106000021GF105991031021008001021001MA1999999096521MD1999999+0011REMSYN070AAXX  05184 82784 32598 51405 10294 20197 39652 40117 83220 333 58001;
0208827840999992003050600004-07320-039300FM-12+040999999V0209999C000012200019N0020001N1+02341+02171101401ADDAA106000091GA1001+999999999GF100991001001999999001001KA1240M+03011MA1999999096721MD1999999-0111REMSYN082AAXX  06004 82784 32995 00000 10234 20217 39672 40140 333 10301 29080 55081 59011;EQDQ01  00002PRCP06
0190827840999992003050612004-07320-039300FM-12+040999999V0201401N000510075019N0200001N1+02501+02151101581ADDAY101061AY201061GF105991051021008001001001KA1240N+02061MA1999999096891MD1999999-0051MW1211REMSYN088AAXX  06124 82784 21598 51401 10250 20215 39689 40158 72100 85200 333 20206 59005 60114;
0148827840999992003050618004-07320-039300FM-12+040999999V0200501N002110075019N0200001N1+02901+02071101191ADDAA106000021GF105991051021008001001001MA1999999096541MD1999999+0021REMSYN070AAXX  06184 82784 32598 50504 10290 20207 39654 40119 85200 333 58002;
0208827840999992003050700004-07320-039300FM-12+040999999V0209999C000012200019N0020001N1+02201+02031101301ADDAA106000091GA1001+999999999GF100991001001999999001001KA1240M+02961MA1999999096621MD1999999-0101REMSYN082AAXX  07004 82784 32995 00000 10220 20203 39662 40130 333 10296 29080 55098 59010;EQDQ01  00002PRCP06
0186827840999992003050712004-07320-039300FM-12+040999999V0203201N000510450019N0200001N1+02411+02031101481ADDAA106000091GF105991031021008001031001KA1240N+01911MA1999999096791MD1999999-0101REMSYN076AAXX  07124 82784 32598 53201 10241 20203 39679 40148 83230 333 20191 59010;EQDQ01  00002PRCP06
0167827840999992003050718004-07320-039300FM-12+040999999V0201401N001512200019N0200001N1+03041+01971101061ADDAA106000091GF103991021021008001021001MA1999999096411MD1999999-0131REMSYN070AAXX  07184 82784 32598 31403 10304 20197 39641 40106 82220 333 59013;EQDQ01  00002PRCP06
0208827840999992003050800004-07320-039300FM-12+040999999V0201801N000512200019N0020001N1+02351+02071101311ADDAA106000091GA1001+999999999GF100991001001999999001001KA1240M+03011MA1999999096641MD1999999+0021REMSYN082AAXX  08004 82784 32995 01801 10235 20207 39664 40131 333 10301 29075 55096 58002;EQDQ01  00002PRCP06
0186827840999992003050812004-07320-039300FM-12+040999999V0200501N001012200019N0200001N1+02601+02011101491ADDAA106000091GF102991021021008001001001KA1240N+01971MA1999999096811MD1999999+0021REMSYN076AAXX  08124 82784 32598 20502 10260 20201 39681 40149 82200 333 20197 58002;EQDQ01  00002PRCP06
0167827840999992003050818004-07320-039300FM-12+040999999V0201401N001512200019N0200001N1+03071+01961101051ADDAA106000091GF102991021021008001001001MA1999999096401MD1999999-0011REMSYN070AAXX  08184 82784 32598 21403 10307 20196 39640 40105 82200 333 59001;EQDQ01  00002PRCP06
0208827840999992003050900004-07320-039300FM-12+040999999V0209999C000012200019N0020001N1+02241+01961101411ADDAA106000091GA1001+999999999GF100991001001999999001001KA1240M+03181MA1999999096731MD1999999+0091REMSYN082AAXX  09004 82784 32995 00000 10224 20196 39673 40141 333 10318 29072 55106 58009;EQDQ01  00002PRCP06
0186827840999992003050912004-07320-039300FM-12+040999999V0200501N000512200019N0200001N1+02581+02101101631ADDAA106000091GF104991041021008001001001KA1240N+01951MA1999999096941MD1999999+0131REMSYN076AAXX  09124 82784 32598 40501 10258 20210 39694 40163 84200 333 20195 58013;EQDQ01  00002PRCP06
0167827840999992003050918004-07320-039300FM-12+040999999V0200501N003112200019N0200001N1+03051+02091101141ADDAA106000091GF103991021021008001021001MA1999999096481MD1999999+0081REMSYN070AAXX  09184 82784 32598 30506 10305 20209 39648 40114 82220 333 58008;EQDQ01  00002PRCP06
0198827840999992003051000004-07320-039300FM-12+040999999V0209999C000012200019N0020001N1+02421+02261101431ADDAA106000091GF104991041081008001001001KA1240M+03121MA1999999096761MD1999999+0031REMSYN088AAXX  10004 82784 32595 40000 10242 20226 39676 40143 84800 333 10312 29078 55102 58003;EQDQ01  00002PRCP06
0186827840999992003051012004-07320-039300FM-12+040999999V0200501N001510075019N0200001N1+02491+02251101741ADDAA106000091GF106991061021008001001001KA1240N+02121MA1999999097021MD1999999+0001REMSYN076AAXX  10124 82784 32598 60503 10249 20225 39702 40174 86200 333 20212 58000;EQDQ01  00002PRCP06
0183827840999992003051018004-07320-039300FM-12+040999999V0203201N001512200019N0200001N1+03101+01941101211ADDAA106000091GF102991999021008001001001MA1999999096561MD1999999+0081REMSYN070AAXX  10184 82784 32598 23203 10310 20194 39656 40121 83200 333 58008;EQDQ01+000032SCOTLCQ02  00002PRCP06
0198827840999992003051100004-07320-039300FM-12+040999999V0209999C000012200019N0020001N1+02361+02111101611ADDAA106000091GF101991011011008001001001KA1240M+03141MA1999999096921MD1999999+0161REMSYN088AAXX  11004 82784 32595 10000 10236 20211 39692 40161 81100 333 10314 29077 55092 58016;EQDQ01  00002PRCP06
0186827840999992003051112004-07320-039300FM-12+040999999V0201401N001512200019N0200001N1+02671+02001101731ADDAA106000091GF102991021021008001001001KA1240N+01991MA1999999097051MD1999999+0031REMSYN076AAXX  11124 82784 32598 21403 10267 20200 39705 40173 82200 333 20199 58003;EQDQ01  00002PRCP06
0167827840999992003051118004-07320-039300FM-12+040999999V0201401N003110450019N0200001N1+03061+01991101261ADDAA106000091GF106991041021008001021001MA1999999096611MD1999999+0051REMSYN070AAXX  11184 82784 32598 61406 10306 20199 39661 40126 84220 333 58005;EQDQ01  00002PRCP06
0198827840999992003051200004-07320-039300FM-12+040999999V0201401N002112200019N0020001N1+02541+01981101541ADDAA106000091GF103991031041008001001001KA1240M+03101MA1999999096871MD1999999-0051REMSYN088AAXX  12004 82784 32595 31404 10254 20198 39687 40154 83400 333 10310 29066 55099 59005;EQDQ01  00002PRCP06
0186827840999992003051212004-07320-039300FM-12+040999999V0201401N002110450019N0200001N1+02571+02101101701ADDAA106000091GF106991021021008001031001KA1240N+02211MA1999999097021MD1999999-0031REMSYN076AAXX  12124 82784 32598 61404 10257 20210 39702 40170 82230 333 20221 59003;EQDQ01  00002PRCP06
0167827840999992003051218004-07320-039300FM-12+040999999V0201401N002112200019N0200001N1+02951+02021101301ADDAA106000091GF104991041021008001001001MA1999999096651MD1999999+0041REMSYN070AAXX  12184 82784 32598 41404 10295 20202 39665 40130 84200 333 58004;EQDQ01  00002PRCP06
0198827840999992003051300004-07320-039300FM-12+040999999V0201801N000512200019N0020001N1+02361+01931101541ADDAA106000091GF103991031021999999001001KA1240M+03061MA1999999096861MD1999999-0011REMSYN088AAXX  13004 82784 32995 31801 10236 20193 39686 40154 83200 333 10306 29072 55072 59001;EQDQ01  00002PRCP06
0186827840999992003051312004-07320-039300FM-12+040999999V0201401N001510075019N0200001N1+02531+02021101601ADDAA106000091GF106991061021008001001001KA1240N+02281MA1999999096921MD1999999+0061REMSYN076AAXX  13124 82784 32598 61403 10253 20202 39692 40160 86200 333 20228 58006;EQDQ01  00002PRCP06
0167827840999992003051318004-07320-039300FM-12+040999999V0200901N002112200019N0200001N1+03001+02031101181ADDAA106000091GF104991041021008001001001MA1999999096541MD1999999-0111REMSYN070AAXX  13184 82784 32598 40904 10300 20203 39654 40118 84200 333 59011;EQDQ01  00002PRCP06
0198827840999992003051400004-07320-039300FM-12+040999999V0201801N000510075019N0020001N1+02431+02111101481ADDAA106000091GF106991061071008001001001KA1240M+03111MA1999999096811MD1999999-0051REMSYN088AAXX  14004 82784 32595 61801 10243 20211 39681 40148 86700 333 10311 29074 55078 59005;EQDQ01  00002PRCP06
0186827840999992003051412004-07320-039300FM-12+040999999V0201401N000512200019N0200001N1+02671+01711101581ADDAA106000091GF101991011011008001001001KA1240N+02001MA1999999096911MD1999999-0011REMSYN076AAXX  14124 82784 32598 11401 10267 20171 39691 40158 81100 333 20200 59001;EQDQ01  00002PRCP06
0167827840999992003051418004-07320-039300FM-12+040999999V0200501N001512200019N0200001N1+03031+01751101141ADDAA106000091GF102991011011008001031001MA1999999096501MD1999999-0041REMSYN070AAXX  14184 82784 32598 20503 10303 20175 39650 40114 81130 333 59004;EQDQ01  00002PRCP06
0198827840999992003051500004-07320-039300FM-12+040999999V0201801N001012200019N0020001N1+02141+01661101431ADDAA106000091GF103991031021017501001001KA1240M+03081MA1999999096751MD1999999-0061REMSYN088AAXX  15004 82784 32795 31802 10214 20166 39675 40143 83200 333 10308 29062 55107 59006;EQDQ01  00002PRCP06
0186827840999992003051512004-07320-039300FM-12+040999999V0201401N004612200019N0200001N1+02561+01881101611ADDAA106000091GF103991011021008001001061KA1240N+02121MA1999999096921MD1999999+0011REMSYN076AAXX  15124 82784 32598 31409 10256 20188 39692 40161 81206 333 20212 58001;EQDQ01  00002PRCP06
0167827840999992003051518004-07320-039300FM-12+040999999V0201401N002112200019N0200001N1+02961+01871101191ADDAA106000091GF104991031021008001001051MA1999999096541MD1999999+0041REMSYN070AAXX  15184 82784 32598 41404 10296 20187 39654 40119 83205 333 58004;EQDQ01  00002PRCP06
0214827840999992003051600004-07320-039300FM-12+040999999V0201801N000512200019N0020001N1+02301+01751101391ADDAA106000091GF103991001001999999001091KA1240M+03081MA1999999096721MD1999999-0031REMSYN088AAXX  16004 82784 32995 31801 10230 20175 39672 40139 83009 333 10308 29065 55103 59003;EQDQ01+000032SCOTLCQ02  00002PRCP06
0186827840999992003051612004-07320-039300FM-12+040999999V0201401N002111050019N0200001N1+02621+01881101541ADDAA106000091GF106991021021008001001091KA1240N+02091MA1999999096861MD1999999-0061REMSYN076AAXX  16124 82784 32598 61404 10262 20188 39686 40154 82209 333 20209 59006;EQDQ01  00002PRCP06
0167827840999992003051618004-07320-039300FM-12+040999999V0201401N002610450019N0200001N1+02991+01861101121ADDAA106000091GF106991021021008001051001MA1999999096471MD1999999-0071REMSYN070AAXX  16184 82784 32598 61405 10299 20186 39647 40112 82250 333 59007;EQDQ01  00002PRCP06
0214827840999992003051700004-07320-039300FM-12+040999999V0201801N001512200019N0020001N1+02341+01811101351ADDAA106000091GF104991001001999999001091KA1240M+03041MA1999999096681MD1999999-0041REMSYN088AAXX  17004 82784 32995 41803 10234 20181 39668 40135 84009 333 10304 29065 55080 59004;EQDQ01+000042SCOTLCQ02  00002PRCP06
0186827840999992003051712004-07320-039300FM-12+040999999V0201401N002110450019N0200001N1+02441+01811101481ADDAA106000091GF106991041021008001031001KA1240N+02201MA1999999096801MD1999999-0061REMSYN076AAXX  17124 82784 32598 61404 10244 20181 39680 40148 84230 333 20220 59006;EQDQ01  00002PRCP06
0167827840999992003051718004-07320-039300FM-12+040999999V0201401N002112200019N0200001N1+03021+01621101011ADDAA106000091GF102991021021008001001001MA1999999096371MD1999999-0101REMSYN070AAXX  17184 82784 32598 21404 10302 20162 39637 40101 82200 333 59010;EQDQ01  00002PRCP06
0198827840999992003051800004-07320-039300FM-12+040999999V0201801N001012200019N0020001N1+02241+01901101341ADDAA106000091GF104991031021008001001091KA1240M+03091MA1999999096661MD1999999-0021REMSYN088AAXX  18004 82784 32595 41802 10224 20190 39666 40134 83209 333 10309 29068 55096 59002;EQDQ01  00002PRCP06
0186827840999992003051812004-07320-039300FM-12+040999999V0201401N001510450019N0200001N1+02571+01991101471ADDAA106000091GF106991021011008001021001KA1240N+02131MA1999999096791MD1999999-0011REMSYN076AAXX  18124 82784 32598 61403 10257 20199 39679 40147 82120 333 20213 59001;EQDQ01  00002PRCP06
0183827840999992003051818004-07320-039300FM-12+040999999V0201401N001519999999N0200001N1+03041+01781101071ADDAA106000091GF106991999021008001001001MA1999999096431MD1999999+0061REMSYN070AAXX  18184 82784 32598 61403 10304 20178 39643 40107 83200 333 58006;EQDQ01+000032SCOTLCQ02  00002PRCP06
0198827840999992003051900004-07320-039300FM-12+040999999V0201801N000512200019N0020001N1+02551+01991101391ADDAA106000091GF104991041021008001001001KA1240M+03151MA1999999096731MD1999999+0071REMSYN088AAXX  19004 82784 32595 41801 10255 20199 39673 40139 84200 333 10315 29065 55101 58007;EQDQ01  00002PRCP06
0186827840999992003051912004-07320-039300FM-12+040999999V0201401N001510450019N0200001N1+02531+01951101611ADDAA106000091GF106991041071008001021001KA1240N+02111MA1999999096941MD1999999+0151REMSYN076AAXX  19124 82784 32598 61403 10253 20195 39694 40161 84720 333 20211 58015;EQDQ01  00002PRCP06
0171827840999992003051918004-07320-039300FM-12+040999999V0200901N001010075019N0200001N1+02561+02211101251ADDAY121061AY221061GF108991081071008001999999MA1999999096581MD1999999+0151MW1201REMSYN082AAXX  19184 82784 21598 80902 10256 20221 39658 40125 72022 887// 333 58015 69941;
0202827840999992003052000004-07320-039300FM-12+040999999V0201801N002110075019N0020001N1+02411+02011101471ADDAY151061AY221061GF106991061071008001001001KA1240M+02941MA1999999096791MD1999999+0061MW1201REMSYN100AAXX  20004 82784 21595 61804 10241 20201 39679 40147 72052 86700 333 10294 29077 55016 58006 69921;
0190827840999992003052012004-07320-039300FM-12+040999999V0201401N002112200019N0200001N1+02611+02011101591ADDAY151061AY221061GF104991031021008001021001KA1240N+02041MA1999999096911MD1999999-0031MW1011REMSYN088AAXX  20124 82784 21598 41404 10261 20201 39691 40159 70152 83220 333 20204 59003 69964;
0183827840999992003052018004-07320-039300FM-12+040999999V0201401N002112200019N0200001N1+03041+01911101161ADDAA106000091GF102991999011008001001091MA1999999096511MD1999999-0071REMSYN070AAXX  20184 82784 32598 21404 10304 20191 39651 40116 80109 333 59007;EQDQ01+000002SCOTLCQ02  00002PRCP06
0198827840999992003052100004-07320-039300FM-12+040999999V0200901N000512200019N0020001N1+02501+02001101461ADDAA106000091GF103991031041008001001001KA1240M+03091MA1999999096791MD1999999+0001REMSYN088AAXX  21004 82784 32595 30901 10250 20200 39679 40146 83400 333 10309 29067 55095 58000;EQDQ01  00002PRCP06
0186827840999992003052112004-07320-039300FM-12+040999999V0201801N001512200019N0200001N1+02671+02021101481ADDAA106000091GF104991031021008001021001KA1240N+02251MA1999999096821MD1999999-0091REMSYN076AAXX  21124 82784 32598 41803 10267 20202 39682 40148 83220 333 20225 59009;EQDQ01  00002PRCP06
0167827840999992003052118004-07320-039300FM-12+040999999V0201401N002112200019N0200001N1+03011+02031101141ADDAA106000091GF104991031021008001001051MA1999999096501MD1999999-0011REMSYN070AAXX  21184 82784 32598 41404 10301 20203 39650 40114 83205 333 59001;EQDQ01  00002PRCP06
0208827840999992003052200004-07320-039300FM-12+040999999V0202301N001012200019N0020001N1+02271+01921101401ADDAA106000091GA1001+999999999GF100991001001999999001001KA1240M+03091MA1999999096731MD1999999-0061REMSYN082AAXX  22004 82784 32995 02302 10227 20192 39673 40140 333 10309 29072 55094 59006;EQDQ01  00002PRCP06
0186827840999992003052212004-07320-039300FM-12+040999999V0201401N001510075019N0200001N1+02421+02031101691ADDAA106000091GF107991071021008001001001KA1240N+02011MA1999999096991MD1999999+0171REMSYN076AAXX  22124 82784 32598 71403 10242 20203 39699 40169 87200 333 20201 58017;EQDQ01  00002PRCP06
0167827840999992003052218004-07320-039300FM-12+040999999V0201401N001512200019N0200001N1+03161+01861101211ADDAA106000091GF103991031021008001001001MA1999999096561MD1999999+0061REMSYN070AAXX  22184 82784 32598 31403 10316 20186 39656 40121 83200 333 58006;EQDQ01  00002PRCP06
0198827840999992003052300004-07320-039300FM-12+040999999V0201401N001012200019N0020001N1+02531+02061101511ADDAA106000091GF104991041021008001001001KA1240M+03241MA1999999096831MD1999999+0101REMSYN088AAXX  23004 82784 32595 41402 10253 20206 39683 40151 84200 333 10324 29069 55075 58010;EQDQ01  00002PRCP06
0202827840999992003052312004-07320-039300FM-12+040999999V0200501N001519999999N0200001N1+02621+01961101591ADDAA106000091GF106991999021008001001001KA1240N+02061MA1999999096921MD1999999-0071REMSYN076AAXX  23124 82784 32598 60503 10262 20196 39692 40159 81200 333 20206 59007;EQDQ01+000012SCOTLCQ02  00002PRCP06
0167827840999992003052318004-07320-039300FM-12+040999999V0200501N001512200019N0200001N1+03191+01841101141ADDAA106000091GF102991021021008001001001MA1999999096511MD1999999-0051REMSYN070AAXX  23184 82784 32598 20503 10319 20184 39651 40114 82200 333 59005;EQDQ01  00002PRCP06
0198827840999992003052400004-07320-039300FM-12+040999999V0201801N000512200019N0020001N1+02331+02031101411ADDAA106000091GF101991011011008001001001KA1240M+03261MA1999999096741MD1999999-0091REMSYN088AAXX  24004 82784 32595 11801 10233 20203 39674 40141 81100 333 10326 29070 55105 59009;EQDQ01  00002PRCP06
0186827840999992003052412004-07320-039300FM-12+040999999V0203601N009310075019N0200001N1+02561+02021101551ADDAA106000091GF105991051071008001001001KA1240N+01991MA1999999096871MD1999999-0051REMSYN076AAXX  24124 82784 32598 53618 10256 20202 39687 40155 85700 333 20199 59005;EQDQ01  00002PRCP06
0167827840999992003052418004-07320-039300FM-12+040999999V0203201N001512200019N0200001N1+03201+01991100921ADDAA106000091GF104991011021008001001061MA1999999096291MD1999999-0221REMSYN070AAXX  24184 82784 32598 43203 10320 20199 39629 40092 81206 333 59022;EQDQ01  00002PRCP06
0208827840999992003052500004-07320-039300FM-12+040999999V0201801N000512200019N0020001N1+02371+02011101141ADDAA106000091GA1001+999999999GF100991001001999999001001KA1240M+03261MA1999999096481MD1999999-0261REMSYN082AAXX  25004 82784 32995 01801 10237 20201 39648 40114 333 10326 29070 55099 59026;EQDQ01  00002PRCP06
0202827840999992003052512004-07320-039300FM-12+040999999V0200901N000512200019N0200001N1+02351+02221101501ADDAA106000091GF104991999041008001999999KA1240N+01911MA1999999096811MD1999999-0061REMSYN076AAXX  25124 82784 32598 40901 10235 20222 39681 40150 884// 333 20191 59006;EQDQ01+000082SCOTLCQ02  00002PRCP06
0167827840999992003052518004-07320-039300FM-12+040999999V0200501N002112200019N0200001N1+03111+02051101031ADDAA106000091GF102991011021008001021001MA1999999096381MD1999999+0091REMSYN070AAXX  25184 82784 32598 20504 10311 20205 39638 40103 81220 333 58009;EQDQ01  00002PRCP06
0208827840999992003052600004-07320-039300FM-12+040999999V0209999C000012200019N0020001N1+02321+02031101251ADDAA106000091GA1001+999999999GF100991001001999999001001KA1240M+03161MA1999999096571MD1999999+0091REMSYN082AAXX  26004 82784 32995 00000 10232 20203 39657 40125 333 10316 29078 55077 58009;EQDQ01  00002PRCP06
0186827840999992003052612004-07320-039300FM-12+040999999V0200501N002110075019N0200001N1+02651+02091101511ADDAA106000091GF105991051021008001001001KA1240N+01981MA1999999096841MD1999999+0021REMSYN076AAXX  26124 82784 32598 50504 10265 20209 39684 40151 85200 333 20198 58002;EQDQ01  00002PRCP06
0167827840999992003052618004-07320-039300FM-12+040999999V0202301N001012200019N0200001N1+03231+02011101081ADDAA106000091GF102991021011008001001001MA1999999096441MD1999999+0061REMSYN070AAXX  26184 82784 32598 22302 10323 20201 39644 40108 82100 333 58006;EQDQ01  00002PRCP06
0208827840999992003052700004-07320-039300FM-12+040999999V0209999C000012200019N0020001N1+02491+02151101351ADDAA106000091GA1001+999999999GF100991001001999999001001KA1240M+03291MA1999999096691MD1999999+0121REMSYN082AAXX  27004 82784 32995 00000 10249 20215 39669 40135 333 10329 29071 55100 58012;EQDQ01  00002PRCP06
0190827840999992003052712004-07320-039300FM-12+040999999V0200901N001010075019N0200001N1+02501+02231101791ADDAY101061AY201061GF108991081071008001999999KA1240N+02241MA1999999097101MD1999999+0261MW1291REMSYN088AAXX  27124 82784 21598 80902 10250 20223 39710 40179 72900 887// 333 20224 58026 60174;
0167827840999992003052718004-07320-039300FM-12+040999999V0200501N001512200019N0200001N1+03091+01851101291ADDAA106000091GF102991021021008001001001MA1999999096641MD1999999+0201REMSYN070AAXX  27184 82784 32598 20503 10309 20185 39664 40129 82200 333 58020;EQDQ01  00002PRCP06
0208827840999992003052800004-07320-039300FM-12+040999999V0209999C000012200019N0020001N1+02341+02131101571ADDAA106000091GA1001+999999999GF100991001001999999001001KA1240M+03141MA1999999096881MD1999999+0191REMSYN082AAXX  28004 82784 32995 00000 10234 20213 39688 40157 333 10314 29077 55082 58019;EQDQ01  00002PRCP06
0186827840999992003052812004-07320-039300FM-12+040999999V0202301N000512200019N0200001N1+02461+02131101701ADDAA106000091GF103991031021008001001001KA1240N+02191MA1999999097011MD1999999-0091REMSYN076AAXX  28124 82784 32598 32301 10246 20213 39701 40170 83200 333 20219 59009;EQDQ01  00002PRCP06
0167827840999992003052818004-07320-039300FM-12+040999999V0201801N001012200019N0200001N1+03231+01911101201ADDAA106000091GF102991021021008001001001MA1999999096561MD1999999-0081REMSYN070AAXX  28184 82784 32598 21802 10323 20191 39656 40120 82200 333 59008;EQDQ01  00002PRCP06
0208827840999992003052900004-07320-039300FM-12+040999999V0201801N001012200019N0200001N1+02361+02071101491ADDAA106000091GA1001+999999999GF100991001001999999001001KA1240M+03321MA1999999096811MD1999999-0071REMSYN082AAXX  29004 82784 32598 01802 10236 20207 39681 40149 333 10332 29074 55088 59007;EQDQ01  00002PRCP06
0190827840999992003052912004-07320-039300FM-12+040999999V0200901N001510075019N0200001N1+02391+02151101731ADDAY101061AY201061GF107991071071008001001001KA1240N+02141MA1999999097031MD1999999+0021MW1201REMSYN088AAXX  29124 82784 21598 70903 10239 20215 39703 40173 72000 87700 333 20214 58002 69954;
0148827840999992003052918004-07320-039300FM-12+040999999V0202701N001510450019N0200001N1+02851+02141101261ADDAA106000021GF105991031081008001031001MA1999999096601MD1999999+0041REMSYN070AAXX  29184 82784 32598 52703 10285 20214 39660 40126 83830 333 58004;
0198827840999992003053000004-07320-039300FM-12+040999999V0201401N002112200019N0020001N1+02461+01971101521ADDAA106000091GF102991021071008001001001KA1240M+03041MA1999999096841MD1999999+0031REMSYN088AAXX  30004 82784 32595 21404 10246 20197 39684 40152 82700 333 10304 29075 55012 58003;EQDQ01  00002PRCP06
0186827840999992003053012004-07320-039300FM-12+040999999V0201401N001510120019N0200001N1+02531+01931101711ADDAA106000091GF107991071081008001001001KA1240N+02151MA1999999097031MD1999999+0001REMSYN076AAXX  30124 82784 32598 71403 10253 20193 39703 40171 87800 333 20215 58000;EQDQ01  00002PRCP06
0167827840999992003053018004-07320-039300FM-12+040999999V0203201N001012200019N0200001N1+02931+02111101251ADDAA106000091GF103991021021008001001091MA1999999096591MD1999999-0011REMSYN070AAXX  30184 82784 32598 33202 10293 20211 39659 40125 82209 333 59001;EQDQ01  00002PRCP06
0208827840999992003053100004-07320-039300FM-12+040999999V0201801N000512200019N0020001N1+02491+01901101471ADDAA106000091GA1001+999999999GF100991001001999999001001KA1240M+03041MA1999999096801MD1999999-0041REMSYN082AAXX  31004 82784 32995 01801 10249 20190 39680 40147 333 10304 29068 55051 59004;EQDQ01  00002PRCP06
0202827840999992003053112004-07320-039300FM-12+040999999V0201401N002112200019N0020001N1+02621+01501101761ADDAA106000091GF102991001001999999001091KA1240N+02241MA1999999097081MD1999999+0051REMSYN076AAXX  31124 82784 32995 21404 10262 20150 39708 40176 82009 333 20224 58005;EQDQ01+000022SCOTLCQ02  00002PRCP06
0167827840999992003053118004-07320-039300FM-12+040999999V0200901N002110075019N0200001N1+03111+01791101281ADDAA106000091GF105991051021008001001001MA1999999096641MD1999999+0051REMSYN070AAXX  31184 82784 32598 50904 10311 20179 39664 40128 85200 333 58005;EQDQ01  00002PRCP06
0198827840999992003060100004-07320-039300FM-12+040999999V0203201N000510075019N0020001N1+02481+02111101611ADDAA106000091GF106991061071008001001001KA1240M+03181MA1999999096941MD1999999+0141REMSYN088AAXX  01004 82784 32595 63201 10248 20211 39694 40161 86700 333 10318 29064 55095 58014;EQDQ01  00002PRCP06
0186827840999992003060112004-07320-039300FM-12+040999999V0201401N003112200019N0200001N1+02571+01901101701ADDAA106000091GF102991021011008001001001KA1240N+02261MA1999999097021MD1999999-0061REMSYN076AAXX  01124 82784 32598 21406 10257 20190 39702 40170 82100 333 20226 59006;EQDQ01  00002PRCP06
0167827840999992003060118004-07320-039300FM-12+040999999V0201401N003112200019N0200001N1+02951+02021101271ADDAA106000091GF102991021021008001001001MA1999999096621MD1999999-0021REMSYN070AAXX  01184 82784 32598 21406 10295 20202 39662 40127 82200 333 59002;EQDQ01  00002PRCP06
0208827840999992003060200004-07320-039300FM-12+040999999V0201801N000512200019N0020001N1+02361+01891101531ADDAA106000091GA1001+999999999GF100991001001999999001001KA1240M+03081MA1999999096851MD1999999-0091REMSYN082AAXX  02004 82784 32995 01801 10236 20189 39685 40153 333 10308 29068 55097 59009;EQDQ01  00002PRCP06
0167827840999992003060218004-07320-039300FM-12+040999999V0201401N002612200019N0200001N1+03211+01461101111ADDAA106000091GF102991021011008001001001MA1999999096471MD1999999-0151REMSYN070AAXX  02184 82784 32598 21405 10321 20146 39647 40111 82100 333 59015;EQDQ01  00002PRCP06
0198827840999992003060300004-07320-039300FM-12+040999999V0201801N002112200019N0020001N1+02381+01891101401ADDAA106000091GF102991021021008001001001KA1240M+03261MA1999999096731MD1999999-0121REMSYN088AAXX  03004 82784 32595 21804 10238 20189 39673 40140 82200 333 10326 29064 55106 59012;EQDQ01  00002PRCP06
0186827840999992003060312004-07320-039300FM-12+040999999V0201401N002112200019N0200001N1+02561+01931101581ADDAA106000091GF103991031021008001001001KA1240N+02061MA1999999096901MD1999999-0081REMSYN076AAXX  03124 82784 32598 31404 10256 20193 39690 40158 83200 333 20206 59008;EQDQ01  00002PRCP06
0167827840999992003060318004-07320-039300FM-12+040999999V0201401N002112200019N0200001N1+03171+01801101061ADDAA106000091GF102991021011008001001001MA1999999096431MD1999999-0041REMSYN070AAXX  03184 82784 32598 21404 10317 20180 39643 40106 82100 333 59004;EQDQ01  00002PRCP06
0198827840999992003060400004-07320-039300FM-12+040999999V0201801N001512200019N0020001N1+02571+01851101361ADDAA106000091GF102991021071008001001001KA1240M+03231MA1999999096701MD1999999-0031REMSYN088AAXX  04004 82784 32595 21803 10257 20185 39670 40136 82700 333 10323 29060 55104 59003;EQDQ01  00002PRCP06
0186827840999992003060412004-07320-039300FM-12+040999999V0201401N002612200019N0200001N1+02621+01811101541ADDAA106000091GF104991011021008001001091KA1240N+02361MA1999999096871MD1999999-0031REMSYN076AAXX  04124 82784 32598 41405 10262 20181 39687 40154 81209 333 20236 59003;EQDQ01  00002PRCP06
0167827840999992003060418004-07320-039300FM-12+040999999V0201401N002110075019N0200001N1+03131+01911101131ADDAA106000091GF105991051021008001001001MA1999999096501MD1999999+0071REMSYN070AAXX  04184 82784 32598 51404 10313 20191 39650 40113 85200 333 58007;EQDQ01  00002PRCP06
0198827840999992003060500004-07320-039300FM-12+040999999V0201401N003112200019N0020001N1+02631+01931101391ADDAA106000091GF102991021041008001001001KA1240M+03241MA1999999096731MD1999999+0031REMSYN088AAXX  05004 82784 32595 21406 10263 20193 39673 40139 82400 333 10324 29060 55082 58003;EQDQ01  00002PRCP06
0186827840999992003060512004-07320-039300FM-12+040999999V0200901N002612200019N0200001N1+02591+02011101561ADDAA106000091GF104991041021008001001001KA1240N+02181MA1999999096891MD1999999+0021REMSYN076AAXX  05124 82784 32598 40905 10259 20201 39689 40156 84200 333 20218 58002;EQDQ01  00002PRCP06
0167827840999992003060518004-07320-039300FM-12+040999999V0200501N017012200019N0200001N1+02961+02021101221ADDAA106000091GF104991041021008001001001MA1999999096581MD1999999+0081REMSYN070AAXX  05184 82784 32598 40533 10296 20202 39658 40122 84200 333 58008;EQDQ01  00002PRCP06
0202827840999992003060600004-07320-039300FM-12+040999999V0203601N000510075019N0020001N1+02281+02141101521ADDAY121061AY221061GF106991061071008001001001KA1240M+03011MA1999999096841MD1999999-0031MW1211REMSYN100AAXX  06004 82784 21595 63601 10228 20214 39684 40152 72122 86700 333 10301 29078 55062 59003 60021;
0190827840999992003060612004-07320-039300FM-12+040999999V0201801N003112200019N0200001N1+02501+01721101651ADDAY161061AY221061GF102991011011008001001051KA1240N+02031MA1999999096991MD1999999+0071MW1011REMSYN088AAXX  06124 82784 21598 21806 10250 20172 39699 40165 70162 81105 333 20203 58007 60024;
0167827840999992003060618004-07320-039300FM-12+040999999V0201401N002112200019N0200001N1+03141+01581101181ADDAA106000091GF104991021011008001001091MA1999999096541MD1999999-0041REMSYN070AAXX  06184 82784 32598 41404 10314 20158 39654 40118 82109 333 59004;EQDQ01  00002PRCP06
0198827840999992003060700004-07320-039300FM-12+040999999V0201401N001512200019N0020001N1+02531+01761101471ADDAA106000091GF102991021041008001001001KA1240M+03181MA1999999096801MD1999999-0041REMSYN088AAXX  07004 82784 32595 21403 10253 20176 39680 40147 82400 333 10318 29056 55107 59004;EQDQ01  00002PRCP06
0186827840999992003060712004-07320-039300FM-12+040999999V0201401N002612200019N0200001N1+02561+01901101611ADDAA106000091GF102991021011008001001001KA1240N+02151MA1999999096941MD1999999-0021REMSYN076AAXX  07124 82784 32598 21405 10256 20190 39694 40161 82100 333 20215 59002;EQDQ01  00002PRCP06
0167827840999992003060718004-07320-039300FM-12+040999999V0201801N003112200019N0200001N1+03111+01821101101ADDAA106000091GF103991031011008001001001MA1999999096461MD1999999-0081REMSYN070AAXX  07184 82784 32598 31806 10311 20182 39646 40110 83100 333 59008;EQDQ01  00002PRCP06
0208827840999992003060800004-07320-039300FM-12+040999999V0201401N001512200019N0020001N1+02461+01831101381ADDAA106000091GA1001+999999999GF100991001001999999001001KA1240M+03201MA1999999096711MD1999999-0091REMSYN082AAXX  08004 82784 32995 01403 10246 20183 39671 40138 333 10320 29062 55106 59009;EQDQ01  00002PRCP06
0186827840999992003060812004-07320-039300FM-12+040999999V0201401N003112200019N0200001N1+02551+01751101541ADDAA106000091GF102991011011008001021001KA1240N+02121MA1999999096861MD1999999-0081REMSYN076AAXX  08124 82784 32598 21406 10255 20175 39686 40154 81120 333 20212 59008;EQDQ01  00002PRCP06
0167827840999992003060818004-07320-039300FM-12+040999999V0201401N003112200019N0200001N1+03101+01581101151ADDAA106000091GF103991021011008001001051MA1999999096511MD1999999+0051REMSYN070AAXX  08184 82784 32598 31406 10310 20158 39651 40115 82105 333 58005;EQDQ01  00002PRCP06
0198827840999992003060900004-07320-039300FM-12+040999999V0201801N000512200019N0020001N1+02271+01541101451ADDAA106000091GF102991021011008001001001KA1240M+03161MA1999999096771MD1999999+0061REMSYN088AAXX  09004 82784 32595 21801 10227 20154 39677 40145 82100 333 10316 29057 55106 58006;EQDQ01  00002PRCP06
0186827840999992003060912004-07320-039300FM-12+040999999V0201401N002112200019N0200001N1+02611+01631101581ADDAA106000091GF101991011011008001001001KA1240N+02071MA1999999096901MD1999999+0041REMSYN076AAXX  09124 82784 32598 11404 10261 20163 39690 40158 81100 333 20207 58004;EQDQ01  00002PRCP06
0167827840999992003060918004-07320-039300FM-12+040999999V0201401N003112200019N0200001N1+03151+01471101191ADDAA106000091GF101991011011008001001001MA1999999096551MD1999999+0041REMSYN070AAXX  09184 82784 32598 11406 10315 20147 39655 40119 81100 333 58004;EQDQ01  00002PRCP06
0208827840999992003061000004-07320-039300FM-12+040999999V0201401N004112200019N0020001N1+02501+01821101491ADDAA106000091GA1001+999999999GF100991001001999999001001KA1240M+03201MA1999999096821MD1999999+0051REMSYN082AAXX  10004 82784 32995 01408 10250 20182 39682 40149 333 10320 29056 55107 58005;EQDQ01  00002PRCP06
0186827840999992003061012004-07320-039300FM-12+040999999V0201401N002612200019N0200001N1+02551+01831101661ADDAA106000091GF102991021051008001001001KA1240N+02221MA1999999096981MD1999999+0081REMSYN076AAXX  10124 82784 32598 21405 10255 20183 39698 40166 82500 333 20222 58008;EQDQ01  00002PRCP06
0198827840999992003061100004-07320-039300FM-12+040999999V0201401N002110075019N0020001N1+02531+01911101511ADDAA106000091GF107991071071008001001001KA1240M+03001MA1999999096841MD1999999+0021REMSYN088AAXX  11004 82784 32595 71404 10253 20191 39684 40151 87700 333 10300 29063 55030 58002;EQDQ01  00002PRCP06
0186827840999992003061112004-07320-039300FM-12+040999999V0201401N002110075019N0200001N1+02621+01761101631ADDAA106000091GF106991061051008001001001KA1240N+02221MA1999999096951MD1999999-0031REMSYN076AAXX  11124 82784 32598 61404 10262 20176 39695 40163 86500 333 20222 59003;EQDQ01  00002PRCP06
0198827840999992003061200004-07320-039300FM-12+040999999V0201401N001010075019N0020001N1+02631+01811101411ADDAA106000091GF105991051041008001001001KA1240M+03271MA1999999096751MD1999999-0091REMSYN088AAXX  12004 82784 32595 51402 10263 20181 39675 40141 85400 333 10327 29056 55089 59009;EQDQ01  00002PRCP06
0186827840999992003061212004-07320-039300FM-12+040999999V0201401N001512200019N0200001N1+02601+01991101481ADDAA106000091GF104991041021008001001001KA1240N+02361MA1999999096821MD1999999-0131REMSYN076AAXX  12124 82784 32598 41403 10260 20199 39682 40148 84200 333 20236 59013;EQDQ01  00002PRCP06
0167827840999992003061218004-07320-039300FM-12+040999999V0201401N001512200019N0200001N1+03101+01841101011ADDAA106000091GF102991021021008001001001MA1999999096381MD1999999-0111REMSYN070AAXX  12184 82784 32598 21403 10310 20184 39638 40101 82200 333 59011;EQDQ01  00002PRCP06
0198827840999992003061300004-07320-039300FM-12+040999999V0201401N001010120019N0020001N1+02651+01771101351ADDAA106000091GF106991061081008001001001KA1240M+03201MA1999999096691MD1999999-0061REMSYN088AAXX  13004 82784 32595 61402 10265 20177 39669 40135 86800 333 10320 29058 55082 59006;EQDQ01  00002PRCP06
0186827840999992003061312004-07320-039300FM-12+040999999V0201801N002112200019N0200001N1+02541+01711101421ADDAA106000091GF101991011011008001001001KA1240N+02121MA1999999096761MD1999999-0061REMSYN076AAXX  13124 82784 32598 11804 10254 20171 39676 40142 81100 333 20212 59006;EQDQ01  00002PRCP06
0167827840999992003061318004-07320-039300FM-12+040999999V0201401N003112200019N0200001N1+03181+01531100951ADDAA106000091GF101991011011008001001001MA1999999096321MD1999999-0061REMSYN070AAXX  13184 82784 32598 11406 10318 20153 39632 40095 81100 333 59006;EQDQ01  00002PRCP06
0208827840999992003061400004-07320-039300FM-12+040999999V0201801N001512200019N0020001N1+02561+01351101331ADDAA106000091GA1001+999999999GF100991001001999999001001KA1240M+03251MA1999999096671MD1999999-0021REMSYN082AAXX  14004 82784 32995 01803 10256 20135 39667 40133 333 10325 29048 55105 59002;EQDQ01  00002PRCP06
0186827840999992003061412004-07320-039300FM-12+040999999V0201401N003612200019N0200001N1+02601+01711101561ADDAA106000091GF102991011011008001001041KA1240N+02091MA1999999096891MD1999999+0131REMSYN076AAXX  14124 82784 32598 21407 10260 20171 39689 40156 81104 333 20209 58013;EQDQ01  00002PRCP06
0167827840999992003061418004-07320-039300FM-12+040999999V0201401N002612200019N0200001N1+03211+01461101041ADDAA106000091GF103991011011008001001041MA1999999096411MD1999999+0091REMSYN070AAXX  14184 82784 32598 31405 10321 20146 39641 40104 81104 333 58009;EQDQ01  00002PRCP06
0198827840999992003061500004-07320-039300FM-12+040999999V0201801N001510120019N0020001N1+02731+01731101361ADDAA106000091GF106991061081008001001001KA1240M+03261MA1999999096711MD1999999+0041REMSYN088AAXX  15004 82784 32595 61803 10273 20173 39671 40136 86800 333 10326 29050 55105 58004;EQDQ01  00002PRCP06
0186827840999992003061512004-07320-039300FM-12+040999999V0201401N002110075019N0200001N1+02561+01901101561ADDAA106000091GF106991061051008001001001KA1240N+02281MA1999999096901MD1999999+0011REMSYN076AAXX  15124 82784 32598 61404 10256 20190 39690 40156 86500 333 20228 58001;EQDQ01  00002PRCP06
0167827840999992003061518004-07320-039300FM-12+040999999V0201401N002610120019N0200001N1+02991+01861101181ADDAA106000091GF106991061081008001001001MA1999999096541MD1999999+0131REMSYN070AAXX  15184 82784 32598 61405 10299 20186 39654 40118 86800 333 58013;EQDQ01  00002PRCP06
0214827840999992003061600004-07320-039300FM-12+040999999V0201401N001519999999N0020001N1+02471+01901101571ADDAA106000091GF106991999051008001001001KA1240M+03121MA1999999096891MD1999999+0181REMSYN088AAXX  16004 82784 32595 61403 10247 20190 39689 40157 87500 333 10312 29065 55048 58018;EQDQ01+000072SCOTLCQ02  00002PRCP06
0186827840999992003061612004-07320-039300FM-12+040999999V0201401N003112200019N0200001N1+02421+01791101661ADDAA106000091GF106991041041008001001011KA1240N+02221MA1999999096971MD1999999+0071REMSYN076AAXX  16124 82784 32598 61406 10242 20179 39697 40166 84401 333 20222 58007;EQDQ01  00002PRCP06
0167827840999992003061618004-07320-039300FM-12+040999999V0201801N002110075019N0200001N1+02571+01921101361ADDAA106000091GF107991061071008001001011MA1999999096691MD1999999+0151REMSYN070AAXX  16184 82784 32598 71804 10257 20192 39669 40136 86701 333 58015;EQDQ01  00002PRCP06
0198827840999992003061700004-07320-039300FM-12+040999999V0209999C000010075019N0020001N1+02431+01881101511ADDAA106000091GF106991061071008001001001KA1240M+02761MA1999999096831MD1999999-0061REMSYN088AAXX  17004 82784 32595 60000 10243 20188 39683 40151 86700 333 10276 29070 55014 59006;EQDQ01  00002PRCP06
0186827840999992003061712004-07320-039300FM-12+040999999V0201801N002111050019N0200001N1+02491+01751101621ADDAA106000091GF105991031021008001001091KA1240N+01991MA1999999096941MD1999999-0031REMSYN076AAXX  17124 82784 32598 51804 10249 20175 39694 40162 83209 333 20199 59003;EQDQ01  00002PRCP06
0167827840999992003061718004-07320-039300FM-12+040999999V0201401N003112200019N0200001N1+03031+01621101221ADDAA106000091GF102991021021008001001001MA1999999096571MD1999999-0121REMSYN070AAXX  17184 82784 32598 21406 10303 20162 39657 40122 82200 333 59012;EQDQ01  00002PRCP06
0198827840999992003061800004-07320-039300FM-12+040999999V0200901N001512200019N0020001N1+02381+01751101431ADDAA106000091GF101991011041008001001001KA1240M+03101MA1999999096751MD1999999-0081REMSYN088AAXX  18004 82784 32595 10903 10238 20175 39675 40143 81400 333 10310 29061 55096 59008;EQDQ01  00002PRCP06
0186827840999992003061812004-07320-039300FM-12+040999999V0201401N003112200019N0200001N1+02581+01641101641ADDAA106000091GF101991011041008001001001KA1240N+02201MA1999999096961MD1999999+0021REMSYN076AAXX  18124 82784 32598 11406 10258 20164 39696 40164 81400 333 20220 58002;EQDQ01  00002PRCP06
0167827840999992003061818004-07320-039300FM-12+040999999V0201401N001511050019N0200001N1+03151+01511101281ADDAA106000091GF105991031021008001001091MA1999999096631MD1999999+0061REMSYN070AAXX  18184 82784 32598 51403 10315 20151 39663 40128 83209 333 58006;EQDQ01  00002PRCP06
0198827840999992003061900004-07320-039300FM-12+040999999V0200901N001012200019N0020001N1+02451+01531101491ADDAA106000091GF101991011041008001001001KA1240M+03221MA1999999096821MD1999999+0071REMSYN088AAXX  19004 82784 32595 10902 10245 20153 39682 40149 81400 333 10322 29052 55089 58007;EQDQ01  00002PRCP06
0186827840999992003061912004-07320-039300FM-12+040999999V0200501N001011050019N0200001N1+02611+01571101681ADDAA106000091GF106991021011008001001091KA1240N+02231MA1999999097001MD1999999+0041REMSYN076AAXX  19124 82784 32598 60502 10261 20157 39700 40168 82109 333 20223 58004;EQDQ01  00002PRCP06
0167827840999992003061918004-07320-039300FM-12+040999999V0201401N002111050019N0200001N1+03211+01511101231ADDAA106000091GF106991041071008001001091MA1999999096591MD1999999-0041REMSYN070AAXX  19184 82784 32598 61404 10321 20151 39659 40123 84709 333 59004;EQDQ01  00002PRCP06
0198827840999992003062000004-07320-039300FM-12+040999999V0201801N001010075019N0020001N1+02591+01771101481ADDAA106000091GF106991061071008001001001KA1240M+03321MA1999999096821MD1999999+0001REMSYN088AAXX  20004 82784 32595 61802 10259 20177 39682 40148 86700 333 10332 29053 55067 58000;EQDQ01  00002PRCP06
0186827840999992003062012004-07320-039300FM-12+040999999V0201401N001511050019N0200001N1+02591+01641101651ADDAA106000091GF106991031041008001001091KA1240N+02211MA1999999096981MD1999999-0021REMSYN076AAXX  20124 82784 32598 61403 10259 20164 39698 40165 83409 333 20221 59002;EQDQ01  00002PRCP06
0167827840999992003062018004-07320-039300FM-12+040999999V0209999C000012200019N0200001N1+03181+01691101171ADDAA106000091GF104991041021008001001001MA1999999096541MD1999999-0051REMSYN070AAXX  20184 82784 32598 40000 10318 20169 39654 40117 84200 333 59005;EQDQ01  00002PRCP06
0198827840999992003062100004-07320-039300FM-12+040999999V0203201N001510075019N0020001N1+02611+01841101471ADDAA106000091GF106991061071008001001001KA1240M+03271MA1999999096811MD1999999-0011REMSYN088AAXX  21004 82784 32595 63203 10261 20184 39681 40147 86700 333 10327 29056 55074 59001;EQDQ01  00002PRCP06
0190827840999992003062112004-07320-039300FM-12+040999999V0200901N001510075019N0200001N1+02381+02031101761ADDAY121061AY221061GF107991071071008001001001KA1240N+02161MA1999999097041MD1999999+0091MW1211REMSYN088AAXX  21124 82784 21598 70903 10238 20203 39704 40176 72122 87700 333 20216 58009 60014;
0148827840999992003062118004-07320-039300FM-12+040999999V0203201N001512200019N0200001N1+03131+01941101241ADDAA106000021GF102991021081008001001001MA1999999096591MD1999999+0051REMSYN070AAXX  21184 82784 32598 23203 10313 20194 39659 40124 82800 333 58005;
0198827840999992003062200004-07320-039300FM-12+040999999V0201801N001012200019N0020001N1+02421+01741101441ADDAA106000091GF101991011051008001001001KA1240M+03211MA1999999096761MD1999999-0051REMSYN088AAXX  22004 82784 32595 11802 10242 20174 39676 40144 81500 333 10321 29066 55055 59005;EQDQ01  00002PRCP06
0186827840999992003062212004-07320-039300FM-12+040999999V0202301N001512200019N0200001N1+02691+01671101581ADDAA106000091GF102991011011008001021001KA1240N+02011MA1999999096911MD1999999-0161REMSYN076AAXX  22124 82784 32598 22303 10269 20167 39691 40158 81120 333 20201 59016;EQDQ01  00002PRCP06
0186827840999992003062312004-07320-039300FM-12+040999999V0200501N002112200019N0200001N1+02571+01661101601ADDAA106000091GF102991011011008001001021KA1240N+01931MA1999999096931MD1999999+0021REMSYN076AAXX  23124 82784 32598 20504 10257 20166 39693 40160 81102 333 20193 58002;EQDQ01  00002PRCP06
0167827840999992003062318004-07320-039300FM-12+040999999V0201401N004610450019N0200001N1+03291+01241101191ADDAA106000091GF105991031011008001021001MA1999999096551MD1999999+0091REMSYN070AAXX  23184 82784 32598 51409 10329 20124 39655 40119 83120 333 58009;EQDQ01  00002PRCP06
0198827840999992003062400004-07320-039300FM-12+040999999V0201801N002612200019N0200001N1+02631+01501101501ADDAA106000091GF101991011011008001001001KA1240M+03341MA1999999096841MD1999999+0161REMSYN088AAXX  24004 82784 32598 11805 10263 20150 39684 40150 81100 333 10334 29046 55105 58016;EQDQ01  00002PRCP06
0186827840999992003062412004-07320-039300FM-12+040999999V0201401N003612200019N0200001N1+02601+01841101791ADDAA106000091GF102991021011008001001001KA1240N+02091MA1999999097111MD1999999+0181REMSYN076AAXX  24124 82784 32598 21407 10260 20184 39711 40179 82100 333 20209 58018;EQDQ01  00002PRCP06
0167827840999992003062418004-07320-039300FM-12+040999999V0201401N002112200019N0200001N1+03211+01551101321ADDAA106000091GF102991021011008001001001MA1999999096671MD1999999+0121REMSYN070AAXX  24184 82784 32598 21404 10321 20155 39667 40132 82100 333 58012;EQDQ01  00002PRCP06
0198827840999992003062500004-07320-039300FM-12+040999999V0200901N002112200019N0020001N1+02441+01611101621ADDAA106000091GF102991021011008001001001KA1240M+03321MA1999999096941MD1999999+0101REMSYN088AAXX  25004 82784 32595 20904 10244 20161 39694 40162 82100 333 10332 29055 55107 58010;EQDQ01  00002PRCP06
0186827840999992003062512004-07320-039300FM-12+040999999V0201401N001010075019N0200001N1+02481+01901101801ADDAA106000091GF106991061021008001001001KA1240N+02181MA1999999097111MD1999999+0001REMSYN076AAXX  25124 82784 32598 61402 10248 20190 39711 40180 86200 333 20218 58000;EQDQ01  00002PRCP06
0167827840999992003062518004-07320-039300FM-12+040999999V0201401N003112200019N0200001N1+03211+01371101231ADDAA106000091GF102991021021008001001001MA1999999096591MD1999999-0081REMSYN070AAXX  25184 82784 32598 21406 10321 20137 39659 40123 82200 333 59008;EQDQ01  00002PRCP06
0208827840999992003062600004-07320-039300FM-12+040999999V0209999C000012200019N0020001N1+02471+01381101501ADDAA106000091GA1001+999999999GF100991001001999999001001KA1240M+03261MA1999999096821MD1999999-0121REMSYN082AAXX  26004 82784 32995 00000 10247 20138 39682 40150 333 10326 29051 55078 59012;EQDQ01  00002PRCP06
0186827840999992003062612004-07320-039300FM-12+040999999V0201401N002612200019N0200001N1+02581+01551101711ADDAA106000091GF101991011011008001001001KA1240N+01781MA1999999097031MD1999999-0081REMSYN076AAXX  26124 82784 32598 11405 10258 20155 39703 40171 81100 333 20178 59008;EQDQ01  00002PRCP06
0167827840999992003062618004-07320-039300FM-12+040999999V0201401N001512200019N0200001N1+03081+01441101241ADDAA106000091GF103991031021008001001001MA1999999096581MD1999999-0011REMSYN070AAXX  26184 82784 32598 31403 10308 20144 39658 40124 83200 333 59001;EQDQ01  00002PRCP06
0208827840999992003062700004-07320-039300FM-12+040999999V0201801N002612200019N0020001N1+02471+01251101471ADDAA106000091GA1001+999999999GF100991001001999999001001KA1240M+03201MA1999999096801MD1999999-0021REMSYN082AAXX  27004 82784 32995 01805 10247 20125 39680 40147 333 10320 29046 55105 59002;EQDQ01  00002PRCP06
0186827840999992003062712004-07320-039300FM-12+040999999V0201401N002612200019N0200001N1+02481+01621101701ADDAA106000091GF102991021011008001001001KA1240N+02001MA1999999097011MD1999999-0021REMSYN076AAXX  27124 82784 32598 21405 10248 20162 39701 40170 82100 333 20200 59002;EQDQ01  00002PRCP06
0167827840999992003062718004-07320-039300FM-12+040999999V0201401N002612200019N0200001N1+03071+01381101251ADDAA106000091GF102991021011008001001001MA1999999096601MD1999999+0021REMSYN070AAXX  27184 82784 32598 21405 10307 20138 39660 40125 82100 333 58002;EQDQ01  00002PRCP06
0198827840999992003062800004-07320-039300FM-12+040999999V0200901N001012200019N0020001N1+02391+01481101531ADDAA106000091GF101991011011008001001001KA1240M+03141MA1999999096851MD1999999+0071REMSYN088AAXX  28004 82784 32595 10902 10239 20148 39685 40153 81100 333 10314 29052 55105 58007;EQDQ01  00002PRCP06
0186827840999992003062812004-07320-039300FM-12+040999999V0201401N002112200019N0200001N1+02511+01711101751ADDAA106000091GF102991021011008001001001KA1240N+01931MA1999999097061MD1999999+0051REMSYN076AAXX  28124 82784 32598 21404 10251 20171 39706 40175 82100 333 20193 58005;EQDQ01  00002PRCP06
0167827840999992003062818004-07320-039300FM-12+040999999V0201401N003112200019N0200001N1+03091+01441101261ADDAA106000091GF102991021021008001001001MA1999999096611MD1999999+0011REMSYN070AAXX  28184 82784 32598 21406 10309 20144 39661 40126 82200 333 58001;EQDQ01  00002PRCP06
0208827840999992003062900004-07320-039300FM-12+040999999V0201801N004612200019N0020001N1+02481+01701101591ADDAA106000091GA1001+999999999GF100991001001999999001001KA1240M+03161MA1999999096941MD1999999+0061REMSYN082AAXX  29004 82784 32995 01809 10248 20170 39694 40159 333 10316 29056 55102 58006;EQDQ01  00002PRCP06
0186827840999992003062912004-07320-039300FM-12+040999999V0201401N004112200019N0200001N1+02531+01651101731ADDAA106000091GF102991021011008001001001KA1240N+01961MA1999999097051MD1999999-0011REMSYN076AAXX  29124 82784 32598 21408 10253 20165 39705 40173 82100 333 20196 59001;EQDQ01  00002PRCP06
0167827840999992003062918004-07320-039300FM-12+040999999V0201401N003612200019N0200001N1+03151+01551101271ADDAA106000091GF102991021021008001001001MA1999999096611MD1999999+0001REMSYN070AAXX  29184 82784 32598 21407 10315 20155 39661 40127 82200 333 58000;EQDQ01  00002PRCP06
0208827840999992003063000004-07320-039300FM-12+040999999V0201801N002112200019N0020001N1+02401+01471101511ADDAA106000091GA1001+999999999GF100991001001999999001001KA1240M+03221MA1999999096831MD1999999-0081REMSYN082AAXX  30004 82784 32595 01804 10240 20147 39683 40151 333 10322 29052 55107 59008;EQDQ01  00002PRCP06
0186827840999992003063012004-07320-039300FM-12+040999999V0201401N003110075019N0200001N1+02601+01821101801ADDAA106000091GF105991051021008001001001KA1240N+02071MA1999999097111MD1999999+0061REMSYN076AAXX  30124 82784 32598 51406 10260 20182 39711 40180 85200 333 20207 58006;EQDQ01  00002PRCP06
0167827840999992003063018004-07320-039300FM-12+040999999V0201401N002112200019N0200001N1+03111+01521101351ADDAA106000091GF104991041021008001001001MA1999999096691MD1999999+0081REMSYN070AAXX  30184 82784 32598 41404 10311 20152 39669 40135 84200 333 58008;EQDQ01  00002PRCP06
0198827840999992003070100004-07320-039300FM-12+040999999V0201401N001512200019N0020001N1+02611+01511101581ADDAA106000091GF101991011041008001001001KA1240M+03211MA1999999096911MD1999999+0081REMSYN088AAXX  01004 82784 32595 11403 10261 20151 39691 40158 81400 333 10321 29050 55095 58008;EQDQ01  00002PRCP06
0186827840999992003070112004-07320-039300FM-12+040999999V0201801N002610450019N0200001N1+02541+01631101811ADDAA106000091GF106991021021008001021001KA1240N+02121MA1999999097131MD1999999+0021REMSYN076AAXX  01124 82784 32598 61805 10254 20163 39713 40181 82220 333 20212 58002;EQDQ01  00002PRCP06
0167827840999992003070118004-07320-039300FM-12+040999999V0201401N003112200019N0200001N1+03121+01251101411ADDAA106000091GF105991011021008001021091MA1999999096751MD1999999+0061REMSYN070AAXX  01184 82784 32598 51406 10312 20125 39675 40141 81229 333 58006;EQDQ01  00002PRCP06
0208827840999992003070200004-07320-039300FM-12+040999999V0201401N002112200019N0020001N1+02571+01161101641ADDAA106000091GA1001+999999999GF100991001001999999001001KA1240M+03181MA1999999096961MD1999999+0051REMSYN082AAXX  02004 82784 32995 01404 10257 20116 39696 40164 333 10318 29043 55088 58005;EQDQ01  00002PRCP06
0186827840999992003070212004-07320-039300FM-12+040999999V0201401N004112200019N0200001N1+02511+01631101791ADDAA106000091GF103991031041008001001001KA1240N+02081MA1999999097111MD1999999-0021REMSYN076AAXX  02124 82784 32598 31408 10251 20163 39711 40179 83400 333 20208 59002;EQDQ01  00002PRCP06
0167827840999992003070218004-07320-039300FM-12+040999999V0201401N003110075019N0200001N1+03021+01691101361ADDAA106000091GF106991061021008001001001MA1999999096701MD1999999-0051REMSYN070AAXX  02184 82784 32598 61406 10302 20169 39670 40136 86200 333 59005;EQDQ01  00002PRCP06
0198827840999992003070300004-07320-039300FM-12+040999999V0201801N001012200019N0020001N1+02431+01511101611ADDAA106000091GF101991011011008001001001KA1240M+03111MA1999999096931MD1999999-0031REMSYN088AAXX  03004 82784 32595 11802 10243 20151 39693 40161 81100 333 10311 29054 55081 59003;EQDQ01  00002PRCP06
0186827840999992003070312004-07320-039300FM-12+040999999V0201401N002112200019N0200001N1+02631+01781101711ADDAA106000091GF102991021021008001001001KA1240N+02291MA1999999097031MD1999999-0081REMSYN076AAXX  03124 82784 32598 21404 10263 20178 39703 40171 82200 333 20229 59008;EQDQ01  00002PRCP06
0167827840999992003070318004-07320-039300FM-12+040999999V0201401N001510075019N0200001N1+03061+01661101331ADDAA106000091GF105991051021008001001001MA1999999096681MD1999999-0021REMSYN070AAXX  03184 82784 32598 51403 10306 20166 39668 40133 85200 333 59002;EQDQ01  00002PRCP06
0208827840999992003070400004-07320-039300FM-12+040999999V0201401N001512200019N0020001N1+02491+01701101561ADDAA106000091GA1001+999999999GF100991001001999999001001KA1240M+03161MA1999999096891MD1999999-0041REMSYN082AAXX  04004 82784 32995 01403 10249 20170 39689 40156 333 10316 29057 55072 59004;EQDQ01  00002PRCP06
0186827840999992003070412004-07320-039300FM-12+040999999V0201401N003610075019N0200001N1+02531+01681101751ADDAA106000091GF105991051021008001001001KA1240N+02131MA1999999097061MD1999999+0031REMSYN076AAXX  04124 82784 32598 51407 10253 20168 39706 40175 85200 333 20213 58003;EQDQ01  00002PRCP06
0167827840999992003070418004-07320-039300FM-12+040999999V0201801N004612200019N0200001N1+03131+01541101201ADDAA106000091GF101991011011008001001001MA1999999096551MD1999999-0131REMSYN070AAXX  04184 82784 32598 11809 10313 20154 39655 40120 81100 333 59013;EQDQ01  00002PRCP06
0208827840999992003070500004-07320-039300FM-12+040999999V0201401N002612200019N0020001N1+02551+01381101431ADDAA106000091GA1001+999999999GF100991001001999999001001KA1240M+03191MA1999999096761MD1999999-0131REMSYN082AAXX  05004 82784 32995 01405 10255 20138 39676 40143 333 10319 29048 55107 59013;EQDQ01  00002PRCP06
0186827840999992003070512004-07320-039300FM-12+040999999V0201801N002612200019N0200001N1+02451+01511101501ADDAA106000091GF101991011011008001001001KA1240N+01801MA1999999096911MD1999999-0151REMSYN076AAXX  05124 82784 32598 11805 10245 20151 39691 40150 81100 333 20180 59015;EQDQ01  00002PRCP06
0167827840999992003070518004-07320-039300FM-12+040999999V0201401N002112200019N0200001N1+03191+01101101051ADDAA106000091GF101991011001017501021001MA1999999096481MD1999999-0071REMSYN070AAXX  05184 82784 32798 11404 10319 20110 39648 40105 81020 333 59007;EQDQ01  00002PRCP06
0198827840999992003070600004-07320-039300FM-12+040999999V0201801N004612200019N0010001N1+02541+00801101331ADDAA106000091GF101991011021017501001001KA1240M+03251MA1999999096661MD1999999-0101REMSYN088AAXX  06004 82784 32794 11809 10254 20080 39666 40133 81200 333 10325 29038 55107 59010;EQDQ01  00002PRCP06
0186827840999992003070612004-07320-039300FM-12+040999999V0200501N001012200019N0200001N1+02511+01631101571ADDAA106000091GF101991011011008001001001KA1240N+01771MA1999999096891MD1999999-0021REMSYN076AAXX  06124 82784 32598 10502 10251 20163 39689 40157 81100 333 20177 59002;EQDQ01  00002PRCP06
0167827840999992003070618004-07320-039300FM-12+040999999V0201401N001510450019N0200001N1+03111+01391101151ADDAA106000091GF106991021021008001031001MA1999999096501MD1999999+0021REMSYN070AAXX  06184 82784 32598 61403 10311 20139 39650 40115 82230 333 58002;EQDQ01  00002PRCP06
0214827840999992003070700004-07320-039300FM-12+040999999V0201401N001512200019N0020001N1+02571+01771101471ADDAA106000091GF102991999021008001001001KA1240M+03241MA1999999096801MD1999999+0141REMSYN088AAXX  07004 82784 32595 21403 10257 20177 39680 40147 83200 333 10324 29054 55092 58014;EQDQ01+000032SCOTLCQ02  00002PRCP06
0186827840999992003070712004-07320-039300FM-12+040999999V0200901N001512200019N0200001N1+02531+01651101651ADDAA106000091GF102991021011008001001001KA1240N+01781MA1999999096971MD1999999+0171REMSYN076AAXX  07124 82784 32598 20903 10253 20165 39697 40165 82100 333 20178 58017;EQDQ01  00002PRCP06
0167827840999992003070718004-07320-039300FM-12+040999999V0201401N003112200019N0200001N1+03151+01471101251ADDAA106000091GF102991021021008001001001MA1999999096591MD1999999+0091REMSYN070AAXX  07184 82784 32598 21406 10315 20147 39659 40125 82200 333 58009;EQDQ01  00002PRCP06
0198827840999992003070800004-07320-039300FM-12+040999999V0201801N001512200019N0020001N1+02611+01261101451ADDAA106000091GF102991021041008001001001KA1240M+03221MA1999999096781MD1999999-0021REMSYN088AAXX  08004 82784 32595 21803 10261 20126 39678 40145 82400 333 10322 29045 55107 59002;EQDQ01  00002PRCP06
0186827840999992003070812004-07320-039300FM-12+040999999V0201401N002112200019N0200001N1+02611+01711101691ADDAA106000091GF102991021011008001001001KA1240N+02171MA1999999097021MD1999999+0051REMSYN076AAXX  08124 82784 32598 21404 10261 20171 39702 40169 82100 333 20217 58005;EQDQ01  00002PRCP06
0167827840999992003070818004-07320-039300FM-12+040999999V0200901N002612200019N0200001N1+03091+01601101221ADDAA106000091GF104991041021008001001001MA1999999096571MD1999999-0021REMSYN070AAXX  08184 82784 32598 40905 10309 20160 39657 40122 84200 333 59002;EQDQ01  00002PRCP06
0208827840999992003070900004-07320-039300FM-12+040999999V0201801N002612200019N0020001N1+02441+01301101401ADDAA106000091GA1001+999999999GF100991001001999999001001KA1240M+03221MA1999999096731MD1999999-0051REMSYN082AAXX  09004 82784 32995 01805 10244 20130 39673 40140 333 10322 29049 55078 59005;EQDQ01  00002PRCP06
0196827840999992003070912004-07320-039300FM-12+040999999V0201401N002612200019N0200001N1+02571+01301101621ADDAA106000091GA1001+999999999GF100991001001999999001001KA1240N+01651MA1999999096941MD1999999-0081REMSYN070AAXX  09124 82784 32998 01405 10257 20130 39694 40162 333 20165 59008;EQDQ01  00002PRCP06
0177827840999992003070918004-07317-039300FM-12+040999999V0201801N002112200019N0200001N1+03151+01141101241ADDAA106000091GA1001+999999999GF100991001001999999001001MA1999999096581MD1999999+0011REMSYN064AAXX  09184 82784 32998 01804 10315 20114 39658 40124 333 58001;EQDQ01  00002PRCP06
0208827840999992003071000004-07317-039300FM-12+040999999V0201801N002612200019N0020001N1+02511+01121101491ADDAA106000091GA1001+999999999GF100991001001999999001001KA1240M+03221MA1999999096821MD1999999+0091REMSYN082AAXX  10004 82784 32995 01805 10251 20112 39682 40149 333 10322 29040 55107 58009;EQDQ01  00002PRCP06
0196827840999992003071012004-07317-039300FM-12+040999999V0200501N002112200019N0200001N1+02551+01701101671ADDAA106000091GA1001+999999999GF100991001001999999001001KA1240N+01581MA1999999096991MD1999999+0051REMSYN070AAXX  10124 82784 32998 00504 10255 20170 39699 40167 333 20158 58005;EQDQ01  00002PRCP06
0167827840999992003071018004-07317-039300FM-12+040999999V0200501N002112200019N0200001N1+03231+01101101181ADDAA106000091GF102991021011008001001001MA1999999096531MD1999999-0051REMSYN070AAXX  10184 82784 32598 20504 10323 20110 39653 40118 82100 333 59005;EQDQ01  00002PRCP06
0198827840999992003071100004-07317-039300FM-12+040999999V0201801N001512200019N0020001N1+02541+01511101461ADDAA106000091GF103991031011008001001001KA1240M+03371MA1999999096791MD1999999-0031REMSYN088AAXX  11004 82784 32595 31803 10254 20151 39679 40146 83100 333 10337 29048 55106 59003;EQDQ01  00002PRCP06
0186827840999992003071112004-07317-039300FM-12+040999999V0202701N004610120019N0200001N1+02411+01911101731ADDAA106000091GF107991071081008001001001KA1240N+02191MA1999999097041MD1999999+0051REMSYN076AAXX  11124 82784 32598 72709 10241 20191 39704 40173 87800 333 20219 58005;EQDQ01  00002PRCP06
0167827840999992003071118004-07317-039300FM-12+040999999V0201401N002112200019N0200001N1+03251+01541101161ADDAA106000091GF103991031021008001001091MA1999999096531MD1999999+0001REMSYN070AAXX  11184 82784 32598 31404 10325 20154 39653 40116 83209 333 58000;EQDQ01  00002PRCP06
0237827840999992003071200004-07317-039300FM-12+040999999V0202701N000510075019N0020001N1+02281+02141101451ADDAY111061AY211061GF106991061071008001001001KA1240M+02281MA1999999096731MD1999999+0161MW1211REMSYN100AAXX  12004 82784 21595 62701 10228 20214 33695 40145 72111 86700 333 10228 29074 55069 58016 60051;EQDQ01+036951APOSP Q02+999990APOSP 
0190827840999992003071212004-07317-039300FM-12+040999999V0200901N001010075019N0200001N1+02291+02011101881ADDAY161061AY221061GF106991061071008001001001KA1240N+01981MA1999999097171MD1999999+0131MW1211REMSYN088AAXX  12124 82784 21598 60902 10229 20201 39717 40188 72162 86700 333 20198 58013 60074;
0148827840999992003071218004-07317-039300FM-12+040999999V0201401N002610075019N0200001N1+02721+01741101501ADDAA106000021GF107991071071008001001001MA1999999096811MD1999999+0281REMSYN070AAXX  12184 82784 32598 71405 10272 20174 39681 40150 87700 333 58028;
0198827840999992003071300004-07317-039300FM-12+040999999V0201801N001512200019N0020001N1+02371+01681101771ADDAA106000091GF101991011021008001001001KA1240M+02801MA1999999097071MD1999999+0121REMSYN088AAXX  13004 82784 32595 11803 10237 20168 39707 40177 81200 333 10280 29068 55007 58012;EQDQ01  00002PRCP06
0186827840999992003071312004-07317-039300FM-12+040999999V0201401N005112200019N0200001N1+02541+01651101861ADDAA106000091GF104991041021008001001001KA1240N+02081MA1999999097161MD1999999-0011REMSYN076AAXX  13124 82784 32598 41410 10254 20165 39716 40186 84200 333 20208 59001;EQDQ01  00002PRCP06
0167827840999992003071318004-07317-039300FM-12+040999999V0201401N003610075019N0200001N1+02821+01581101481ADDAA106000091GF107991071021008001001001MA1999999096801MD1999999-0011REMSYN070AAXX  13184 82784 32598 71407 10282 20158 39680 40148 87200 333 59001;EQDQ01  00002PRCP06
0208827840999992003071400004-07317-039300FM-12+040999999V0201801N002112200019N0020001N1+02181+01421101751ADDAA106000091GA1001+999999999GF100991001001999999001001KA1240M+02881MA1999999097071MD1999999+0001REMSYN082AAXX  14004 82784 32995 01804 10218 20142 39707 40175 333 10288 29057 55050 58000;EQDQ01  00002PRCP06
0186827840999992003071412004-07317-039300FM-12+040999999V0201401N003110075019N0200001N1+02551+01591101931ADDAA106000091GF105991051021008001001001KA1240N+01881MA1999999097221MD1999999+0061REMSYN076AAXX  14124 82784 32598 51406 10255 20159 39722 40193 85200 333 20188 58006;EQDQ01  00002PRCP06
0167827840999992003071418004-07317-039300FM-12+040999999V0201401N003112200019N0200001N1+02891+01671101441ADDAA106000091GF104991041021008001001001MA1999999096761MD1999999-0041REMSYN070AAXX  14184 82784 32598 41406 10289 20167 39676 40144 84200 333 59004;EQDQ01  00002PRCP06
0198827840999992003071500004-07317-039300FM-12+040999999V0201801N005112200019N0020001N1+02461+01611101621ADDAA106000091GF101991011011008001001001KA1240M+03081MA1999999096941MD1999999-0131REMSYN088AAXX  15004 82784 32595 11810 10246 20161 39694 40162 81100 333 10308 29055 55086 59013;EQDQ01  00002PRCP06
0186827840999992003071512004-07317-039300FM-12+040999999V0201401N002612200019N0200001N1+02391+01531101861ADDAA106000091GF101991011011008001001001KA1240N+01961MA1999999097161MD1999999-0061REMSYN076AAXX  15124 82784 32598 11405 10239 20153 39716 40186 81100 333 20196 59006;EQDQ01  00002PRCP06
0177827840999992003071518004-07317-039300FM-12+040999999V0201401N003112200019N0200001N1+03151+01321101331ADDAA106000091GA1001+999999999GF100991001001999999001001MA1999999096671MD1999999-0091REMSYN064AAXX  15184 82784 32998 01406 10315 20132 39667 40133 333 59009;EQDQ01  00002PRCP06
0208827840999992003071600004-07317-039300FM-12+040999999V0201801N001512200019N0020001N1+02421+01341101571ADDAA106000091GA1001+999999999GF100991001001999999001001KA1240M+03211MA1999999096891MD1999999-0051REMSYN082AAXX  16004 82784 32995 01803 10242 20134 39689 40157 333 10321 29048 55106 59005;EQDQ01  00002PRCP06
0186827840999992003071612004-07317-039300FM-12+040999999V0201401N006212200019N0200001N1+02541+01631101851ADDAA106000091GF102991021011008001001001KA1240N+02011MA1999999097161MD1999999+0001REMSYN076AAXX  16124 82784 32598 21412 10254 20163 39716 40185 82100 333 20201 58000;EQDQ01  00002PRCP06
0167827840999992003071618004-07317-039300FM-12+040999999V0201401N003110075019N0200001N1+03071+01701101481ADDAA106000091GF105991051021008001001001MA1999999096821MD1999999+0151REMSYN070AAXX  16184 82784 32598 51406 10307 20170 39682 40148 85200 333 58015;EQDQ01  00002PRCP06
0208827840999992003071700004-07317-039300FM-12+040999999V0201401N001512200019N0020001N1+02581+01641101591ADDAA106000091GA1001+999999999GF100991001001999999001001KA1240M+03151MA1999999096921MD1999999+0031REMSYN082AAXX  17004 82784 32995 01403 10258 20164 39692 40159 333 10315 29053 55105 58003;EQDQ01  00002PRCP06
0186827840999992003071712004-07317-039300FM-12+040999999V0201401N002110075019N0200001N1+02491+01731101971ADDAA106000091GF106991051021008001021001KA1240N+01941MA1999999097281MD1999999+0121REMSYN076AAXX  17124 82784 32598 61404 10249 20173 39728 40197 85220 333 20194 58012;EQDQ01  00002PRCP06
0167827840999992003071718004-07317-039300FM-12+040999999V0200901N003110120019N0200001N1+03141+01691101501ADDAA106000091GF106991061021012501001001MA1999999096841MD1999999+0021REMSYN070AAXX  17184 82784 32698 60906 10314 20169 39684 40150 86200 333 58002;EQDQ01  00002PRCP06
0208827840999992003071800004-07317-039300FM-12+040999999V0201801N001012200019N0020001N1+02301+01831101891ADDAA106000091GA1001+999999999GF100991001001999999001001KA1240M+03211MA1999999097191MD1999999+0271REMSYN082AAXX  18004 82784 32995 01802 10230 20183 39719 40189 333 10321 29064 55086 58027;EQDQ01  00002PRCP06
0186827840999992003071812004-07317-039300FM-12+040999999V0201401N002110075019N0200001N1+02391+01711102121ADDAA106000091GF106991061021008001001001KA1240N+02001MA1999999097401MD1999999+0121REMSYN076AAXX  18124 82784 32598 61404 10239 20171 39740 40212 86200 333 20200 58012;EQDQ01  00002PRCP06
0167827840999992003071818004-07317-039300FM-12+040999999V0201401N003612200019N0200001N1+03091+01681101561ADDAA106000091GF101991011011008001001001MA1999999096911MD1999999+0071REMSYN070AAXX  18184 82784 32598 11407 10309 20168 39691 40156 81100 333 58007;EQDQ01  00002PRCP06
0208827840999992003071900004-07317-039300FM-12+040999999V0201801N004612200019N0020001N1+02521+01771101691ADDAA106000091GA1001+999999999GF100991001001999999001001KA1240M+03151MA1999999097001MD1999999-0191REMSYN082AAXX  19004 82784 32995 01809 10252 20177 39700 40169 333 10315 29059 55092 59019;EQDQ01  00002PRCP06
0186827840999992003071912004-07317-039300FM-12+040999999V0201401N002610120019N0200001N1+02611+01681102091ADDAA106000091GF105991051081008001001001KA1240N+02101MA1999999097391MD1999999-0011REMSYN076AAXX  19124 82784 32598 51405 10261 20168 39739 40209 85800 333 20210 59001;EQDQ01  00002PRCP06
0167827840999992003071918004-07317-039300FM-12+040999999V0200901N002110075019N0200001N1+03101+01701101591ADDAA106000091GF105991051021008001001001MA1999999096931MD1999999+0021REMSYN070AAXX  19184 82784 32598 50904 10310 20170 39693 40159 85200 333 58002;EQDQ01  00002PRCP06
0214827840999992003072000004-07317-039300FM-12+040999999V0201801N004619999999N0040001N1+02381+01661101851ADDAA106000091GF106991999021008001001001KA1240M+03271MA1999999097151MD1999999+0161REMSYN088AAXX  20004 82784 32596 61809 10238 20166 39715 40185 83200 333 10327 29057 55075 58016;EQDQ01+000032SCOTLCQ02  00002PRCP06
0196827840999992003072012004-07317-039300FM-12+040999999V0201801N004112200019N0200001N1+02481+01831101901ADDAA106000091GA1001+999999999GF100991001001999999001001KA1240N+02241MA1999999097201MD1999999-0191REMSYN070AAXX  20124 82784 32998 01808 10248 20183 39720 40190 333 20224 59019;EQDQ01  00002PRCP06
0167827840999992003072018004-07317-039300FM-12+040999999V0201801N003612200019N0200001N1+03011+01571101491ADDAA106000091GF101991999999012501999999MA1999999096821MD1999999+0111REMSYN070AAXX  20184 82784 32698 11807 10301 20157 39682 40149 8//// 333 58011;EQDQ01  00002PRCP06
0208827840999992003072100004-07317-039300FM-12+040999999V0201801N005112200019N0020001N1+02291+01811101711ADDAA106000091GA1001+999999999GF100991001001999999001001KA1240M+03131MA1999999097021MD1999999-0151REMSYN082AAXX  21004 82784 32995 01810 10229 20181 39702 40171 333 10313 29065 55106 59015;EQDQ01  00002PRCP06
0186827840999992003072112004-07317-039300FM-12+040999999V0201401N002612200019N0200001N1+02511+01521101891ADDAA106000091GF101991011011008001001001KA1240N+02131MA1999999097191MD1999999-0011REMSYN076AAXX  21124 82784 32598 11405 10251 20152 39719 40189 81100 333 20213 59001;EQDQ01  00002PRCP06
0167827840999992003072118004-07317-039300FM-12+040999999V0201401N003612200019N0200001N1+03131+01541101421ADDAA106000091GF101991011011008001001001MA1999999096761MD1999999-0061REMSYN070AAXX  21184 82784 32598 11407 10313 20154 39676 40142 81100 333 59006;EQDQ01  00002PRCP06
0208827840999992003072200004-07317-039300FM-12+040999999V0201801N005712200019N0020001N1+02481+01541101671ADDAA106000091GA1001+999999999GF100991001001999999001001KA1240M+03211MA1999999096991MD1999999-0031REMSYN082AAXX  22004 82784 32995 01811 10248 20154 39699 40167 333 10321 29051 55107 59003;EQDQ01  00002PRCP06
0186827840999992003072212004-07317-039300FM-12+040999999V0201401N003110075019N0200001N1+02491+01801101901ADDAA106000091GF106991061021008001001001KA1240N+02111MA1999999097211MD1999999+0021REMSYN076AAXX  22124 82784 32598 61406 10249 20180 39721 40190 86200 333 20211 58002;EQDQ01  00002PRCP06
0167827840999992003072218004-07317-039300FM-12+040999999V0201801N005712200019N0200001N1+03001+01711101481ADDAA106000091GF104991041021008001001001MA1999999096821MD1999999+0061REMSYN070AAXX  22184 82784 32598 41811 10300 20171 39682 40148 84200 333 58006;EQDQ01  00002PRCP06
0208827840999992003072300004-07317-039300FM-12+040999999V0201801N002612200019N0020001N1+02331+01501101771ADDAA106000091GA1001+999999999GF100991001001999999001001KA1240M+03091MA1999999097071MD1999999+0081REMSYN082AAXX  23004 82784 32995 01805 10233 20150 39707 40177 333 10309 29058 55086 58008;EQDQ01  00002PRCP06
0186827840999992003072312004-07317-039300FM-12+040999999V0201401N003110075019N0200001N1+02361+01641101861ADDAA106000091GF105991051021008001001001KA1240N+01921MA1999999097151MD1999999-0061REMSYN076AAXX  23124 82784 32598 51406 10236 20164 39715 40186 85200 333 20192 59006;EQDQ01  00002PRCP06
0167827840999992003072318004-07317-039300FM-12+040999999V0201401N003610075019N0200001N1+03031+01691101451ADDAA106000091GF105991051021008001001001MA1999999096781MD1999999-0041REMSYN070AAXX  23184 82784 32598 51407 10303 20169 39678 40145 85200 333 59004;EQDQ01  00002PRCP06
0208827840999992003072400004-07317-039300FM-12+040999999V0201401N000512200019N0020001N1+02471+01551101641ADDAA106000091GA1001+999999999GF100991001001999999001001KA1240M+03151MA1999999096951MD1999999-0121REMSYN082AAXX  24004 82784 32995 01401 10247 20155 39695 40164 333 10315 29056 55077 59012;EQDQ01  00002PRCP06
0186827840999992003072412004-07317-039300FM-12+040999999V0201401N002612200019N0200001N1+02631+01641101731ADDAA106000091GF102991011011008001041001KA1240N+02121MA1999999097051MD1999999-0101REMSYN076AAXX  24124 82784 32598 21405 10263 20164 39705 40173 81140 333 20212 59010;EQDQ01  00002PRCP06
0167827840999992003072418004-07317-039300FM-12+040999999V0201401N002110075019N0200001N1+03111+01641101321ADDAA106000091GF105991051021008001001001MA1999999096671MD1999999-0111REMSYN070AAXX  24184 82784 32598 51404 10311 20164 39667 40132 85200 333 59011;EQDQ01  00002PRCP06
0198827840999992003072500004-07317-039300FM-12+040999999V0201801N003112200019N0020001N1+02541+01511101571ADDAA106000091GF102991021041008001001001KA1240M+03251MA1999999096901MD1999999-0051REMSYN088AAXX  25004 82784 32595 21806 10254 20151 39690 40157 82400 333 10325 29050 55086 59005;EQDQ01  00002PRCP06
0186827840999992003072512004-07317-039300FM-12+040999999V0201401N002610075019N0200001N1+02661+01771101851ADDAA106000091GF106991061041008001001001KA1240N+02251MA1999999097171MD1999999+0121REMSYN076AAXX  25124 82784 32598 61405 10266 20177 39717 40185 86400 333 20225 58012;EQDQ01  00002PRCP06
0167827840999992003072518004-07317-039300FM-12+040999999V0201801N003110075019N0200001N1+03061+01581101421ADDAA106000091GF108991081041008001999999MA1999999096761MD1999999+0091REMSYN070AAXX  25184 82784 32598 81806 10306 20158 39676 40142 884// 333 58009;EQDQ01  00002PRCP06
0214827840999992003072600004-07317-039300FM-12+040999999V0201801N001510075019N0020001N1+02691+01451101711ADDAA106000091GF108991999021008001001001KA1240M+03171MA1999999097051MD1999999+0151REMSYN088AAXX  26004 82784 32595 81803 10269 20145 39705 40171 85200 333 10317 29048 55073 58015;EQDQ01+000052SCOTLCQ02  00002PRCP06
0186827840999992003072612004-07317-039300FM-12+040999999V0201401N002610075019N0200001N1+02461+01811101951ADDAA106000091GF107991071041008001001001KA1240N+02201MA1999999097261MD1999999+0091REMSYN076AAXX  26124 82784 32598 71405 10246 20181 39726 40195 87400 333 20220 58009;EQDQ01  00002PRCP06
0183827840999992003072618004-07317-039300FM-12+040999999V0201401N005112200019N0200001N1+03011+01611101481ADDAA106000091GF104991999021008001001001MA1999999096831MD1999999+0071REMSYN070AAXX  26184 82784 32598 41410 10301 20161 39683 40148 85200 333 58007;EQDQ01+000052SCOTLCQ02  00002PRCP06
0186827840999992003072712004-07317-039300FM-12+040999999V0201401N002610120019N0200001N1+02311+01771101951ADDAA106000091GF108991081081008001999999KA1240N+02121MA1999999097261MD1999999-0011REMSYN076AAXX  27124 82784 32598 81405 10231 20177 39726 40195 888// 333 20212 59001;EQDQ01  00002PRCP06
0167827840999992003072718004-07317-039300FM-12+040999999V0201801N003110075019N0200001N1+02981+01621101491ADDAA106000091GF106991061021008001001001MA1999999096811MD1999999-0021REMSYN070AAXX  27184 82784 32598 61806 10298 20162 39681 40149 86200 333 59002;EQDQ01  00002PRCP06
0208827840999992003072800004-07317-039300FM-12+040999999V0201801N002612200019N0020001N1+02401+01551101681ADDAA106000091GA1001+999999999GF100991001001999999001001KA1240M+03151MA1999999096991MD1999999-0101REMSYN082AAXX  28004 82784 32995 01805 10240 20155 39699 40168 333 10315 29059 55062 59010;EQDQ01  00002PRCP06
0186827840999992003072812004-07317-039300FM-12+040999999V0201401N002612200019N0200001N1+02561+01591101841ADDAA106000091GF102991011021008001001091KA1240N+02021MA1999999097151MD1999999-0101REMSYN076AAXX  28124 82784 32598 21405 10256 20159 39715 40184 81209 333 20202 59010;EQDQ01  00002PRCP06
0167827840999992003072818004-07317-039300FM-12+040999999V0201401N003612200019N0200001N1+03151+01601101361ADDAA106000091GF103991011021008001001091MA1999999096711MD1999999-0101REMSYN070AAXX  28184 82784 32598 31407 10315 20160 39671 40136 81209 333 59010;EQDQ01  00002PRCP06
0208827840999992003072900004-07317-039300FM-12+040999999V0201801N004612200019N0020001N1+02621+01591101601ADDAA106000091GA1001+999999999GF100991001001999999001001KA1240M+03221MA1999999096931MD1999999-0061REMSYN082AAXX  29004 82784 32995 01809 10262 20159 39693 40160 333 10322 29050 55107 59006;EQDQ01  00002PRCP06
0186827840999992003072912004-07317-039300FM-12+040999999V0201401N003110075019N0200001N1+02551+01751101981ADDAA106000091GF105991051021008001001001KA1240N+02191MA1999999097291MD1999999+0141REMSYN076AAXX  29124 82784 32598 51406 10255 20175 39729 40198 85200 333 20219 58014;EQDQ01  00002PRCP06
0167827840999992003072918004-07317-039300FM-12+040999999V0201401N002110075019N0200001N1+03191+01531101421ADDAA106000091GF106991061021008001001001MA1999999096781MD1999999+0071REMSYN070AAXX  29184 82784 32598 61404 10319 20153 39678 40142 86200 333 58007;EQDQ01  00002PRCP06
0208827840999992003073000004-07317-039300FM-12+040999999V0201801N004112200019N0020001N1+02571+01531101681ADDAA106000091GA1001+999999999GF100991001001999999001001KA1240M+03191MA1999999097001MD1999999+0071REMSYN082AAXX  30004 82784 32995 01808 10257 20153 39700 40168 333 10319 29051 55087 58007;EQDQ01  00002PRCP06
0186827840999992003073012004-07317-039300FM-12+040999999V0201401N001512200019N0200001N1+02521+01711101921ADDAA106000091GF104991011011008001001051KA1240N+02051MA1999999097231MD1999999-0061REMSYN076AAXX  30124 82784 32598 41403 10252 20171 39723 40192 81105 333 20205 59006;EQDQ01  00002PRCP06
0167827840999992003073018004-07317-039300FM-12+040999999V0202301N003112200019N0200001N1+03231+01391101401ADDAA106000091GF102991011011008001001091MA1999999096751MD1999999-0031REMSYN070AAXX  30184 82784 32598 22306 10323 20139 39675 40140 81109 333 59003;EQDQ01  00002PRCP06
0196827840999992003073112004-07317-039300FM-12+040999999V0201401N001012200019N0200001N1+02551+01591101821ADDAA106000091GA1001+999999999GF100991001001999999001001KA1240N+02021MA1999999097141MD1999999-0091REMSYN070AAXX  31124 82784 32998 01402 10255 20159 39714 40182 333 20202 59009;EQDQ01  00002PRCP06
0167827840999992003073118004-07317-039300FM-12+040999999V0201801N001010075019N0200001N1+03211+01631101291ADDAA106000091GF106991061021008001001001MA1999999096641MD1999999-0111REMSYN070AAXX  31184 82784 32598 61802 10321 20163 39664 40129 86200 333 59011;EQDQ01  00002PRCP06
0208827840999992003080100004-07317-039300FM-12+040999999V0201801N003112200019N0020001N1+02601+01281101471ADDAA106000091GA1001+999999999GF100991001001999999001001KA1240M+03351MA1999999096811MD1999999-0171REMSYN082AAXX  01004 82784 32995 01806 10260 20128 39681 40147 333 10335 29046 55105 59017;EQDQ01  00002PRCP06
0186827840999992003080112004-07317-039300FM-12+040999999V0201401N003112200019N0200001N1+02591+01661101801ADDAA106000091GF106991011011008001001061KA1240N+02091MA1999999097121MD1999999-0021REMSYN076AAXX  01124 82784 32598 61406 10259 20166 39712 40180 81106 333 20209 59002;EQDQ01  00002PRCP06
0167827840999992003080118004-07317-039300FM-12+040999999V0201401N002112200019N0200001N1+03221+01171101311ADDAA106000091GF104991021011008001001051MA1999999096661MD1999999+0021REMSYN070AAXX  01184 82784 32598 41404 10322 20117 39666 40131 82105 333 58002;EQDQ01  00002PRCP06
0186827840999992003080212004-07317-039300FM-12+040999999V0201801N002112200019N0200001N1+02681+01491101841ADDAA106000091GF101991011011008001001001KA1240N+02121MA1999999097161MD1999999+0041REMSYN076AAXX  02124 82784 32598 11804 10268 20149 39716 40184 81100 333 20212 58004;EQDQ01  00002PRCP06
0167827840999992003080218004-07317-039300FM-12+040999999V0201401N002112200019N0200001N1+03261+01471101421ADDAA106000091GF102991021021008001001001MA1999999096771MD1999999+0111REMSYN070AAXX  02184 82784 32598 21404 10326 20147 39677 40142 82200 333 58011;EQDQ01  00002PRCP06
0208827840999992003080300004-07317-039300FM-12+040999999V0201401N001012200019N0020001N1+02601+01481101691ADDAA106000091GA1001+999999999GF100991001001999999001001KA1240M+03451MA1999999097021MD1999999+0151REMSYN082AAXX  03004 82784 32995 01402 10260 20148 39702 40169 333 10345 29046 55106 58015;EQDQ01  00002PRCP06
0196827840999992003080312004-07317-039300FM-12+040999999V0201401N003612200019N0020001N1+02571+01501101841ADDAA106000091GA1001+999999999GF100991001001999999001001KA1240N+02061MA1999999097161MD1999999+0001REMSYN070AAXX  03124 82784 32995 01407 10257 20150 39716 40184 333 20206 58000;EQDQ01  00002PRCP06
0167827840999992003080318004-07317-039300FM-12+040999999V0201401N004112200019N0200001N1+03201+01511101431ADDAA106000091GF102991021021008001001001MA1999999097031MD1999999+0001REMSYN070AAXX  03184 82784 32598 21408 10320 20151 39703 40143 82200 333 58000;EQDQ01  00002PRCP06
0208827840999992003080400004-07317-039300FM-12+040999999V0201801N002112200019N0020001N1+02461+01521101691ADDAA106000091GA1001+999999999GF100991001001999999001001KA1240M+03251MA1999999097011MD1999999-0011REMSYN082AAXX  04004 82784 32995 01804 10246 20152 39701 40169 333 10325 29050 55108 59001;EQDQ01  00002PRCP06
0186827840999992003080412004-07317-039300FM-12+040999999V0201401N003112200019N0200001N1+02311+01651101851ADDAA106000091GF104991041021008001001001KA1240N+02011MA1999999097151MD1999999-0011REMSYN076AAXX  04124 82784 32598 41406 10231 20165 39715 40185 84200 333 20201 59001;EQDQ01  00002PRCP06
0167827840999992003080418004-07317-039300FM-12+040999999V0201801N004612200019N0200001N1+03121+01481101261ADDAA106000091GF102991021021008001001001MA1999999096611MD1999999+0161REMSYN070AAXX  04184 82784 32598 21809 10312 20148 39661 40126 82200 333 58016;EQDQ01  00002PRCP06
0208827840999992003080500004-07317-039300FM-12+040999999V0201401N002112200019N0040001N1+02441+01601101561ADDAA106000091GA1001+999999999GF100991001001999999001001KA1240M+03171MA1999999096871MD1999999-0141REMSYN082AAXX  05004 82784 32596 01404 10244 20160 39687 40156 333 10317 29055 55100 59014;EQDQ01  00002PRCP06
0186827840999992003080512004-07317-039300FM-12+040999999V0201801N002112200019N0200001N1+02511+01631101771ADDAA106000091GF102991021011008001001001KA1240N+02081MA1999999097081MD1999999-0071REMSYN076AAXX  05124 82784 32598 21804 10251 20163 39708 40177 82100 333 20208 59007;EQDQ01  00002PRCP06
0167827840999992003080518004-07317-039300FM-12+040999999V0201801N004112200019N0200001N1+03181+01691101251ADDAA106000091GF102991021011008001001001MA1999999096611MD1999999+0001REMSYN070AAXX  05184 82784 32598 21808 10318 20169 39661 40125 82100 333 58000;EQDQ01  00002PRCP06
0186827840999992003080612004-07317-039300FM-12+040999999V0201401N002112200019N0200001N1+02651+01631101811ADDAA106000091GF102991021011008001001001KA1240N+02151MA1999999097121MD1999999+0041REMSYN076AAXX  06124 82784 32598 21404 10265 20163 39712 40181 82100 333 20215 58004;EQDQ01  00002PRCP06
0167827840999992003080618004-07317-039300FM-12+040999999V0201801N002610075019N0200001N1+03281+01341101271ADDAA106000091GF106991061021008001001001MA1999999096641MD1999999+0031REMSYN070AAXX  06184 82784 32598 61805 10328 20134 39664 40127 86200 333 58003;EQDQ01  00002PRCP06
0208827840999992003080700004-07317-039300FM-12+040999999V0201801N002112200019N0020001N1+02581+01491101491ADDAA106000091GA1001+999999999GF100991001001999999001001KA1240M+03341MA1999999096831MD1999999-0031REMSYN082AAXX  07004 82784 32995 01804 10258 20149 39683 40149 333 10334 29047 55110 59003;EQDQ01  00002PRCP06
0186827840999992003080712004-07317-039300FM-12+040999999V0201801N002610075019N0200001N1+02401+01771101801ADDAA106000091GF105991051021008001001001KA1240N+02011MA1999999097111MD1999999-0011REMSYN076AAXX  07124 82784 32598 51805 10240 20177 39711 40180 85200 333 20201 59001;EQDQ01  00002PRCP06
0167827840999992003080718004-07317-039300FM-12+040999999V0201401N002112200019N0200001N1+03231+01801101251ADDAA106000091GF103991031021008001001001MA1999999096611MD1999999-0031REMSYN070AAXX  07184 82784 32598 31404 10323 20180 39661 40125 83200 333 59003;EQDQ01  00002PRCP06
0208827840999992003080800004-07317-039300FM-12+040999999V0201801N002112200019N0020001N1+02481+01541101521ADDAA106000091GA1001+999999999GF100991001001999999001001KA1240M+03321MA1999999096841MD1999999+0011REMSYN082AAXX  08004 82784 32995 01804 10248 20154 39684 40152 333 10332 29056 55084 58001;EQDQ01  00002PRCP06
0186827840999992003080812004-07317-039300FM-12+040999999V0200501N001512200019N0200001N1+02611+01681101691ADDAA106000091GF101991011011008001001001KA1240N+01991MA1999999097011MD1999999-0101REMSYN076AAXX  08124 82784 32598 10503 10261 20168 39701 40169 81100 333 20199 59010;EQDQ01  00002PRCP06
0167827840999992003080818004-07317-039300FM-12+040999999V0201801N004110075019N0200001N1+03241+01501101181ADDAA106000091GF105991051011008001001001MA1999999096541MD1999999-0071REMSYN070AAXX  08184 82784 32598 51808 10324 20150 39654 40118 85100 333 59007;EQDQ01  00002PRCP06
0208827840999992003080900004-07317-039300FM-12+040999999V0201401N001512200019N0020001N1+02581+01361101481ADDAA106000091GA1001+999999999GF100991001001999999001001KA1240M+03321MA1999999096821MD1999999-0021REMSYN082AAXX  09004 82784 32995 01403 10258 20136 39682 40148 333 10332 29046 55110 59002;EQDQ01  00002PRCP06
0196827840999992003080912004-07317-039300FM-12+040999999V0201401N002612200019N0200001N1+02661+01391101861ADDAA106000091GA1001+999999999GF100991001001999999001001KA1240N+01921MA1999999097181MD1999999+0171REMSYN070AAXX  09124 82784 32998 01405 10266 20139 39718 40186 333 20192 58017;EQDQ01  00002PRCP06
0167827840999992003080918004-07317-039300FM-12+040999999V0201801N002112200019N0200001N1+03301+01411101291ADDAA106000091GF102991021011008001001001MA1999999096651MD1999999+0111REMSYN070AAXX  09184 82784 32598 21804 10330 20141 39665 40129 82100 333 58011;EQDQ01  00002PRCP06
0208827840999992003081000004-07317-039300FM-12+040999999V0201801N003112200019N0020001N1+02611+01481101551ADDAA106000091GA1001+999999999GF100991001001999999001001KA1240M+03361MA1999999096891MD1999999+0071REMSYN082AAXX  10004 82784 32995 01806 10261 20148 39689 40155 333 10336 29044 55110 58007;EQDQ01  00002PRCP06
0186827840999992003081012004-07317-039300FM-12+040999999V0201401N002110075019N0020001N1+02571+01801101861ADDAA106000091GF106991061021008001001001KA1240N+02161MA1999999097181MD1999999+0001REMSYN076AAXX  10124 82784 32595 61404 10257 20180 39718 40186 86200 333 20216 58000;EQDQ01  00002PRCP06
0167827840999992003081018004-07317-039300FM-12+040999999V0201401N002112200019N0200001N1+03291+01441101321ADDAA106000091GF104991041021012501001001MA1999999096681MD1999999+0031REMSYN070AAXX  10184 82784 32698 41404 10329 20144 39668 40132 84200 333 58003;EQDQ01  00002PRCP06
0186827840999992003081112004-07317-039300FM-12+040999999V0200901N000510075019N0200001N1+02441+01791101881ADDAA106000091GF107991071061008001001001KA1240N+02181MA1999999097191MD1999999+0011REMSYN076AAXX  11124 82784 32598 70901 10244 20179 39719 40188 87600 333 20218 58001;EQDQ01  00002PRCP06
0167827840999992003081118004-07317-039300FM-12+040999999V0201401N003112200019N0200001N1+03321+01431101211ADDAA106000091GF103991031021008001001001MA1999999096581MD1999999-0101REMSYN070AAXX  11184 82784 32598 31406 10332 20143 39658 40121 83200 333 59010;EQDQ01  00002PRCP06
0186827840999992003081212004-07317-039300FM-12+040999999V0201401N002112200019N0200001N1+02651+01691101831ADDAA106000091GF104991041021008001001001KA1240N+02241MA1999999097161MD1999999-0031REMSYN076AAXX  12124 82784 32598 41404 10265 20169 39716 40183 84200 333 20224 59003;EQDQ01  00002PRCP06
0167827840999992003081218004-07317-039300FM-12+040999999V0201801N002610120019N0200001N1+03281+01701101221ADDAA106000091GF106991061021012501001001MA1999999096591MD1999999+0011REMSYN070AAXX  12184 82784 32698 61805 10328 20170 39659 40122 86200 333 58001;EQDQ01  00002PRCP06
0208827840999992003081300004-07317-039300FM-12+040999999V0201401N002112200019N0020001N1+02681+01701101611ADDAA106000091GA1001+999999999GF100991001001999999001001KA1240M+03371MA1999999096961MD1999999+0131REMSYN082AAXX  13004 82784 32995 01404 10268 20170 39696 40161 333 10337 29051 55086 58013;EQDQ01  00002PRCP06
0186827840999992003081312004-07317-039300FM-12+040999999V0201401N002110075019N0200001N1+02541+01731101901ADDAA106000091GF106991061071008001001001KA1240N+02141MA1999999097221MD1999999+0061REMSYN076AAXX  13124 82784 32598 61404 10254 20173 39722 40190 86700 333 20214 58006;EQDQ01  00002PRCP06
0167827840999992003081318004-07317-039300FM-12+040999999V0201401N003112200019N0200001N1+03261+01641101291ADDAA106000091GF102991021011008001001001MA1999999096651MD1999999+0061REMSYN070AAXX  13184 82784 32598 21406 10326 20164 39665 40129 82100 333 58006;EQDQ01  00002PRCP06
0208827840999992003081400004-07317-039300FM-12+040999999V0201801N003612200019N0020001N1+02501+01501101591ADDAA106000091GA1001+999999999GF100991001001999999001001KA1240M+03341MA1999999096911MD1999999-0051REMSYN082AAXX  14004 82784 32995 01807 10250 20150 39691 40159 333 10334 29051 55101 59005;EQDQ01  00002PRCP06
0186827840999992003081412004-07317-039300FM-12+040999999V0201401N002612200019N0200001N1+02541+01571101861ADDAA106000091GF102991011011008001021001KA1240N+02021MA1999999097171MD1999999-0051REMSYN076AAXX  14124 82784 32598 21405 10254 20157 39717 40186 81120 333 20202 59005;EQDQ01  00002PRCP06
0167827840999992003081418004-07317-039300FM-12+040999999V0201801N004612200019N0200001N1+03211+01461101321ADDAA106000091GF102991021011012501001001MA1999999096671MD1999999+0021REMSYN070AAXX  14184 82784 32698 21809 10321 20146 39667 40132 82100 333 58002;EQDQ01  00002PRCP06
0208827840999992003081500004-07317-039300FM-12+040999999V0201801N002112200019N0200001N1+02551+01541101551ADDAA106000091GA1001+999999999GF100991001001999999001001KA1240M+03351MA1999999096881MD1999999-0031REMSYN082AAXX  15004 82784 32998 01804 10255 20154 39688 40155 333 10335 29050 55110 59003;EQDQ01  00002PRCP06
0196827840999992003081512004-07317-039300FM-12+040999999V0201401N002112200019N0200001N1+02671+01591101701ADDAA106000091GA1001+999999999GF100991001001999999001001KA1240N+01921MA1999999097031MD1999999-0141REMSYN070AAXX  15124 82784 32998 01404 10267 20159 39703 40170 333 20192 59014;EQDQ01  00002PRCP06
0167827840999992003081518004-07317-039300FM-12+040999999V0201401N002112200019N0200001N1+03431+01311101171ADDAA106000091GF102991021011008001001001MA1999999096541MD1999999-0131REMSYN070AAXX  15184 82784 32598 21404 10343 20131 39654 40117 82100 333 59013;EQDQ01  00002PRCP06
0208827840999992003081600004-07317-039300FM-12+040999999V0201801N004112200019N0020001N1+02561+01591101451ADDAA106000091GA1001+999999999GF100991001001999999001001KA1240M+03511MA1999999096791MD1999999-0091REMSYN082AAXX  16004 82784 32995 01808 10256 20159 39679 40145 333 10351 29048 55110 59009;EQDQ01  00002PRCP06
0186827840999992003081612004-07317-039300FM-12+040999999V0201801N002110075019N0200001N1+02731+01901101731ADDAA106000091GF106991061021008001001001KA1240N+02111MA1999999097061MD1999999+0031REMSYN076AAXX  16124 82784 32598 61804 10273 20190 39706 40173 86200 333 20211 58003;EQDQ01  00002PRCP06
0198827840999992003081700004-07317-039300FM-12+040999999V0209999C000010075019N0020001N1+02701+01631101411ADDAA106000091GF108991081041008001999999KA1240M+03571MA1999999096761MD1999999-0031REMSYN088AAXX  17004 82784 32595 80000 10270 20163 39676 40141 884// 333 10357 29050 55099 59003;EQDQ01  00002PRCP06
0190827840999992003081712004-07317-039300FM-12+040999999V0202701N000510075019N0200001N1+02431+02111101791ADDAY121061AY221061GF106991061021008001001001KA1240N+02171MA1999999097111MD1999999+0051MW1211REMSYN088AAXX  17124 82784 21598 62701 10243 20211 39711 40179 72122 86200 333 20217 58005 60034;
0148827840999992003081718004-07317-039300FM-12+040999999V0200501N002112200019N0200001N1+03401+01681101221ADDAA106000021GF103991021021008001001091MA1999999096591MD1999999+0121REMSYN070AAXX  17184 82784 32598 30504 10340 20168 39659 40122 82209 333 58012;
0198827840999992003081800004-07317-039300FM-12+040999999V0200901N000512200019N0020001N1+02551+01831101451ADDAA106000091GF101991011011008001001001KA1240M+03471MA1999999096781MD1999999+0021REMSYN088AAXX  18004 82784 32595 10901 10255 20183 39678 40145 81100 333 10347 29062 55086 58002;EQDQ01  00002PRCP06
0186827840999992003081812004-07317-039300FM-12+040999999V0201401N003612200019N0200001N1+02721+02001101861ADDAA106000091GF103991031021008001001001KA1240N+02221MA1999999097181MD1999999+0071REMSYN076AAXX  18124 82784 32598 31407 10272 20200 39718 40186 83200 333 20222 58007;EQDQ01  00002PRCP06
0167827840999992003081818004-07317-039300FM-12+040999999V0201801N002110120019N0200001N1+03391+01661101381ADDAA106000091GF106991061021012501001001MA1999999096751MD1999999+0161REMSYN070AAXX  18184 82784 32698 61804 10339 20166 39675 40138 86200 333 58016;EQDQ01  00002PRCP06
0208827840999992003081900004-07317-039300FM-12+040999999V0201401N002112200019N0020001N1+02731+01391101651ADDAA106000091GA1001+999999999GF100991001001999999001001KA1240M+03471MA1999999096991MD1999999+0211REMSYN082AAXX  19004 82784 32995 01404 10273 20139 39699 40165 333 10347 29046 55090 58021;EQDQ01  00002PRCP06
0186827840999992003081912004-07317-039300FM-12+040999999V0201401N004112200019N0200001N1+02511+01551102101ADDAA106000091GF103991021021008001051001KA1240N+02131MA1999999097411MD1999999+0231REMSYN076AAXX  19124 82784 32598 31408 10251 20155 39741 40210 82250 333 20213 58023;EQDQ01  00002PRCP06
0167827840999992003081918004-07317-039300FM-12+040999999V0201401N004612200019N0200001N1+03281+01441101511ADDAA106000091GF102991011011008001021001MA1999999096861MD1999999+0111REMSYN070AAXX  19184 82784 32598 21409 10328 20144 39686 40151 81120 333 58011;EQDQ01  00002PRCP06
0208827840999992003082000004-07317-039300FM-12+040999999V0201801N002112200019N0020001N1+02551+01331101791ADDAA106000091GA1001+999999999GF100991001001999999001001KA1240M+03331MA1999999097111MD1999999+0121REMSYN082AAXX  20004 82784 32995 01804 10255 20133 39711 40179 333 10333 29046 55110 58012;EQDQ01  00002PRCP06
0186827840999992003082012004-07317-039300FM-12+040999999V0201401N003610075019N0200001N1+02591+01661101911ADDAA106000091GF106991061021008001001001KA1240N+02291MA1999999097221MD1999999-0191REMSYN076AAXX  20124 82784 32598 61407 10259 20166 39722 40191 86200 333 20229 59019;EQDQ01  00002PRCP06
0167827840999992003082018004-07317-039300FM-12+040999999V0201401N004110120019N0200001N1+03211+01421101261ADDAA106000091GF106991061021012501001001MA1999999096631MD1999999-0231REMSYN070AAXX  20184 82784 32698 61408 10321 20142 39663 40126 86200 333 59023;EQDQ01  00002PRCP06
0186827840999992003082112004-07317-039300FM-12+040999999V0201401N003112200019N0200001N1+02671+01441101751ADDAA106000091GF101991011011008001001001KA1240N+02151MA1999999097071MD1999999-0151REMSYN076AAXX  21124 82784 32598 11406 10267 20144 39707 40175 81100 333 20215 59015;EQDQ01  00002PRCP06
0177827840999992003082118004-07317-039300FM-12+040999999V0201401N003112200019N0200001N1+03371+01161101091ADDAA106000091GA1001+999999999GF100991001001999999001001MA1999999096461MD1999999-0171REMSYN064AAXX  21184 82784 32998 01406 10337 20116 39646 40109 333 59017;EQDQ01  00002PRCP06
0208827840999992003082200004-07317-039300FM-12+040999999V0201801N006212200019N0020001N1+02641+01421101431ADDAA106000091GA1001+999999999GF100991001001999999001001KA1240M+03431MA1999999096771MD1999999-0151REMSYN082AAXX  22004 82784 32995 01812 10264 20142 39677 40143 333 10343 29042 55102 59015;EQDQ01  00002PRCP06
0186827840999992003082212004-07317-039300FM-12+040999999V0201401N002612200019N0200001N1+02701+01511101691ADDAA106000091GF102991011011008001001061KA1240N+02081MA1999999097021MD1999999-0051REMSYN076AAXX  22124 82784 32598 21405 10270 20151 39702 40169 81106 333 20208 59005;EQDQ01  00002PRCP06
0167827840999992003082218004-07317-039300FM-12+040999999V0201801N001510120019N0200001N1+03271+01601101171ADDAA106000091GF106991061021012501001001MA1999999096531MD1999999+0071REMSYN070AAXX  22184 82784 32698 61803 10327 20160 39653 40117 86200 333 58007;EQDQ01  00002PRCP06
0208827840999992003082300004-07317-039300FM-12+040999999V0201801N002612200019N0020001N1+02731+01421101451ADDAA106000091GA1001+999999999GF100991001001999999001001KA1240M+03371MA1999999096801MD1999999+0031REMSYN082AAXX  23004 82784 32995 01805 10273 20142 39680 40145 333 10337 29044 55099 58003;EQDQ01  00002PRCP06
0186827840999992003082312004-07317-039300FM-12+040999999V0201401N002612200019N0200001N1+02741+01341101761ADDAA106000091GF101991011021008001001001KA1240N+02131MA1999999097101MD1999999+0081REMSYN076AAXX  23124 82784 32598 11405 10274 20134 39710 40176 81200 333 20213 58008;EQDQ01  00002PRCP06
0167827840999992003082318004-07317-039300FM-12+040999999V0201401N002610075019N0200001N1+03301+01461101251ADDAA106000091GF105991051021008001001001MA1999999096611MD1999999+0081REMSYN070AAXX  23184 82784 32598 51405 10330 20146 39661 40125 85200 333 58008;EQDQ01  00002PRCP06
0198827840999992003082400004-07317-039300FM-12+040999999V0201801N002112200019N0020001N1+02731+01411101581ADDAA106000091GF103991031041008001001001KA1240M+03431MA1999999096931MD1999999+0131REMSYN088AAXX  24004 82784 32595 31804 10273 20141 39693 40158 83400 333 10343 29041 55103 58013;EQDQ01  00002PRCP06
0196827840999992003082412004-07317-039300FM-12+040999999V0201801N002112200019N0200001N1+02691+01391101791ADDAA106000091GA1001+999999999GF100991001001999999001001KA1240N+01921MA1999999097121MD1999999+0021REMSYN070AAXX  24124 82784 32998 01804 10269 20139 39712 40179 333 20192 58002;EQDQ01  00002PRCP06
0167827840999992003082418004-07317-039300FM-12+040999999V0201801N002612200019N0200001N1+03381+01381101121ADDAA106000091GF102991021011012501001001MA1999999096511MD1999999-0101REMSYN070AAXX  24184 82784 32698 21805 10338 20138 39651 40112 82100 333 59010;EQDQ01  00002PRCP06
0224827840999992003082500004-07317-039300FM-12+040999999V0201801N004112200019N0020001N1+02611+01321101431ADDAA106000091GA1001+999999999GF100991001001999999001001KA1240M+03431MA1999999999999MD1999999-0161REMSYN082AAXX  25004 82784 32995 01808 10261 20132 39377 40143 333 10343 29041 55110 59016;EQDQ01  00002PRCP06Q02 093773APOSP 
0186827840999992003082512004-07317-039300FM-12+040999999V0201801N001512200019N0200001N1+02481+01731101761ADDAA106000091GF103991031021008001001001KA1240N+02081MA1999999097081MD1999999-0041REMSYN076AAXX  25124 82784 32598 31803 10248 20173 39708 40176 83200 333 20208 59004;EQDQ01  00002PRCP06
0167827840999992003082518004-07317-039300FM-12+040999999V0201401N002612200019N0200001N1+03411+01501101131ADDAA106000091GF102991021011008001001001MA1999999096501MD1999999-0011REMSYN070AAXX  25184 82784 32598 21405 10341 20150 39650 40113 82100 333 59001;EQDQ01  00002PRCP06
0208827840999992003082600004-07317-039300FM-12+040999999V0201801N001012200019N0020001N1+02441+01331101361ADDAA106000091GA1001+999999999GF100991001001999999001001KA1240M+03491MA1999999096691MD1999999-0081REMSYN082AAXX  26004 82784 32995 01802 10244 20133 39669 40136 333 10349 29049 55088 59008;EQDQ01  00002PRCP06
0186827840999992003082612004-07317-039300FM-12+040999999V0200501N002112200019N0200001N1+02671+01681101681ADDAA106000091GF101991011011008001001001KA1240N+01871MA1999999097001MD1999999-0081REMSYN076AAXX  26124 82784 32598 10504 10267 20168 39700 40168 81100 333 20187 59008;EQDQ01  00002PRCP06
0199827840999992003082618004-07317-039300FM-12+040999999V0201401N002612200019N0200001N1+03471+01401999999ADDAA106000091GF102991021011012501001001MA1999999096381MD1999999-0121REMSYN070AAXX  26184 82784 32698 21405 10347 20140 39638 40010 82100 333 59012;EQDQ01+100103APOSLPQ02  00002PRCP06Q03 100103APOSLP
0208827840999992003082700004-07317-039300FM-12+040999999V0201401N001012200019N0020001N1+02601+01321101351ADDAA106000091GA1001+999999999GF100991001001999999001001KA1240M+03521MA1999999096701MD1999999+0011REMSYN082AAXX  27004 82784 32995 01402 10260 20132 39670 40135 333 10352 29044 55109 58001;EQDQ01  00002PRCP06
0186827840999992003082712004-07317-039300FM-12+040999999V0200901N002110120019N0200001N1+02571+02011101801ADDAA106000091GF107991071081008001001001KA1240N+02221MA1999999097121MD1999999+0121REMSYN076AAXX  27124 82784 32598 70904 10257 20201 39712 40180 87800 333 20222 58012;EQDQ01  00002PRCP06
0167827840999992003082718004-07317-039300FM-12+040999999V0200901N001512200019N0200001N1+03341+01711101191ADDAA106000091GF102991021021008001001001MA1999999096551MD1999999+0171REMSYN070AAXX  27184 82784 32598 20903 10334 20171 39655 40119 82200 333 58017;EQDQ01  00002PRCP06
0208827840999992003082800004-07317-039300FM-12+040999999V0201801N000512200019N0020001N1+02581+01721101501ADDAA106000091GA1001+999999999GF100991001001999999001001KA1240M+03411MA1999999096841MD1999999+0141REMSYN082AAXX  28004 82784 32995 01801 10258 20172 39684 40150 333 10341 29057 55078 58014;EQDQ01  00002PRCP06
0186827840999992003082812004-07317-039300FM-12+040999999V0200901N002110120019N0200001N1+02571+02041101791ADDAA106000091GF107991071081008001001001KA1240N+02391MA1999999097111MD1999999-0011REMSYN076AAXX  28124 82784 32598 70904 10257 20204 39711 40179 87800 333 20239 59001;EQDQ01  00002PRCP06
0167827840999992003082818004-07317-039300FM-12+040999999V0201801N001010120019N0200001N1+03391+01661101151ADDAA106000091GF107991051021012501061001MA1999999096541MD1999999-0011REMSYN070AAXX  28184 82784 32698 71802 10339 20166 39654 40115 85260 333 59001;EQDQ01  00002PRCP06
0208827840999992003082900004-07317-039300FM-12+040999999V0201401N001512200019N0020001N1+02671+01791101461ADDAA106000091GA1001+999999999GF100991001001999999001001KA1240M+03521MA1999999096801MD1999999-0041REMSYN082AAXX  29004 82784 32995 01403 10267 20179 39680 40146 333 10352 29056 55077 59004;EQDQ01  00002PRCP06
0186827840999992003082912004-07317-039300FM-12+040999999V0200901N003112200019N0200001N1+02741+01871101751ADDAA106000091GF104991041021008001001001KA1240N+02341MA1999999097081MD1999999-0031REMSYN076AAXX  29124 82784 32598 40906 10274 20187 39708 40175 84200 333 20234 59003;EQDQ01  00002PRCP06
0167827840999992003082918004-07317-039300FM-12+040999999V0200901N001012200019N0200001N1+03351+01731101161ADDAA106000091GF103991031021008001001001MA1999999096531MD1999999-0011REMSYN070AAXX  29184 82784 32598 30902 10335 20173 39653 40116 83200 333 59001;EQDQ01  00002PRCP06
0208827840999992003083000004-07317-039300FM-12+040999999V0201801N004112200019N0020001N1+02861+01621101391ADDAA106000091GA1001+999999999GF100991001001999999001001KA1240M+03591MA1999999096751MD1999999-0051REMSYN082AAXX  30004 82784 32995 01808 10286 20162 39675 40139 333 10359 29048 55093 59005;EQDQ01  00002PRCP06
0196827840999992003083012004-07317-039300FM-12+040999999V0200901N003112200019N0200001N1+02751+01891101781ADDAA106000091GA1001+999999999GF100991001001999999001001KA1240N+02081MA1999999097121MD1999999+0041REMSYN070AAXX  30124 82784 32598 00906 10275 20189 39712 40178 333 20208 58004;EQDQ01  00002PRCP06
0167827840999992003083018004-07317-039300FM-12+040999999V02099999999990120019N0200001N1+03881+02431101241ADDAA106000091GF106991061021012501001001MA1999999096621MD1999999+0091REMSYN070AAXX  30184 82784 32698 6//// 10388 20243 39662 40124 86200 333 58009;EQDQ01  00002PRCP06
0214827840999992003083100004-07317-039300FM-12+040999999V0201401N001012200019N0200001N1+02841+01501101511ADDAA106000091GF101991999011008001001001KA1240M+03471MA1999999096861MD1999999+0111REMSYN088AAXX  31004 82784 32598 11402 10284 20150 39686 40151 82100 333 10347 29048 55083 58011;EQDQ01+000022SCOTLCQ02  00002PRCP06
0186827840999992003083112004-07317-039300FM-12+040999999V0201401N003112200019N0200001N1+02751+01621101891ADDAA106000091GF103991031021008001021091KA1240N+02251MA1999999097231MD1999999+0111REMSYN076AAXX  31124 82784 32598 31406 10275 20162 39723 40189 83229 333 20225 58011;EQDQ01  00002PRCP06
0167827840999992003083118004-07317-039300FM-12+040999999V0201801N004612200019N0200001N1+03391+01381101321ADDAA106000091GF102991021021008001001001MA1999999096691MD1999999+0071REMSYN070AAXX  31184 82784 32598 21809 10339 20138 39669 40132 82200 333 58007;EQDQ01  00002PRCP06
0208827840999992003090100004-07317-039300FM-12+040999999V0200901N001012200019N0020001N1+02511+01341101591ADDAA106000091GA1001+999999999GF100991001001999999001001KA1240M+03431MA1999999096931MD1999999+0071REMSYN082AAXX  01004 82784 32995 00902 10251 20134 39693 40159 333 10343 29044 55103 58007;EQDQ01  00002PRCP06
0196827840999992003090112004-07317-039300FM-12+040999999V0201801N003112200019N0200001N1+02761+01531101871ADDAA106000091GA1001+999999999GF100991001001999999001001KA1240N+02121MA1999999097191MD1999999-0041REMSYN070AAXX  01124 82784 32998 01806 10276 20153 39719 40187 333 20212 59004;EQDQ01  00002PRCP06
0167827840999992003090118004-07317-039300FM-12+040999999V0201401N002112200019N0200001N1+03401+01641101301ADDAA106000091GF104991041021012501001001MA1999999096661MD1999999-0271REMSYN070AAXX  01184 82784 32698 41404 10340 20164 39666 40130 84200 333 59027;EQDQ01  00002PRCP06
0208827840999992003090200004-07317-039300FM-12+040999999V0201401N001012200019N0020001N1+02651+01771101631ADDAA106000091GA1001+999999999GF100991001001999999001001KA1240M+03491MA1999999096971MD1999999+0041REMSYN082AAXX  02004 82784 32995 01402 10265 20177 39697 40163 333 10349 29050 55111 58004;EQDQ01  00002PRCP06
0186827840999992003090212004-07317-039300FM-12+040999999V0201401N004112200019N0200001N1+02631+01641101941ADDAA106000091GF102991021021008001001001KA1240N+02131MA1999999097261MD1999999+0071REMSYN076AAXX  02124 82784 32598 21408 10263 20164 39726 40194 82200 333 20213 58007;EQDQ01  00002PRCP06
0167827840999992003090218004-07317-039300FM-12+040999999V0201401N003112200019N0200001N1+03281+01581101411ADDAA106000091GF102991021021008001001001MA1999999096771MD1999999+0111REMSYN070AAXX  02184 82784 32598 21406 10328 20158 39677 40141 82200 333 58011;EQDQ01  00002PRCP06
0208827840999992003090300004-07317-039300FM-12+040999999V0201801N003112200019N0020001N1+02711+01601101551ADDAA106000091GA1001+999999999GF100991001001999999001001KA1240M+03371MA1999999096891MD1999999-0081REMSYN082AAXX  03004 82784 32995 01806 10271 20160 39689 40155 333 10337 29048 55104 59008;EQDQ01  00002PRCP06
0186827840999992003090312004-07317-039300FM-12+040999999V0201401N004612200019N0200001N1+02761+01721101911ADDAA106000091GF102991021021008001001001KA1240N+02191MA1999999097241MD1999999-0021REMSYN076AAXX  03124 82784 32598 21409 10276 20172 39724 40191 82200 333 20219 59002;EQDQ01  00002PRCP06
0167827840999992003090318004-07317-039300FM-12+040999999V0201801N002612200019N0200001N1+03311+01311101381ADDAA106000091GF103991031021012501001001MA1999999096741MD1999999-0031REMSYN070AAXX  03184 82784 32698 31805 10331 20131 39674 40138 83200 333 59003;EQDQ01  00002PRCP06
0208827840999992003090400004-07317-039300FM-12+040999999V0201401N003112200019N0020001N1+02721+01561101701ADDAA106000091GA1001+999999999GF100991001001999999001001KA1240M+03371MA1999999097041MD1999999+0151REMSYN082AAXX  04004 82784 32995 01406 10272 20156 39704 40170 333 10337 29045 55107 58015;EQDQ01  00002PRCP06
0186827840999992003090412004-07317-039300FM-12+040999999V0201401N003110075019N0200001N1+02641+01881101991ADDAA106000091GF105991051021008001001001KA1240N+02201MA1999999097311MD1999999+0071REMSYN076AAXX  04124 82784 32598 51406 10264 20188 39731 40199 85200 333 20220 58007;EQDQ01  00002PRCP06
0167827840999992003090418004-07317-039300FM-12+040999999V0201401N003112200019N0200001N1+03071+01931101511ADDAA106000091GF103991031021008001001001MA1999999096851MD1999999+0111REMSYN070AAXX  04184 82784 32598 31406 10307 20193 39685 40151 83200 333 58011;EQDQ01  00002PRCP06
0208827840999992003090500004-07317-039300FM-12+040999999V0201801N003112200019N0020001N1+02541+01811101831ADDAA106000091GA1001+999999999GF100991001001999999001001KA1240M+03851MA1999999097151MD1999999+0111REMSYN082AAXX  05004 82784 32995 01806 10254 20181 39715 40183 333 10385 29060 55076 58011;EQDQ01  00002PRCP06
0186827840999992003090512004-07317-039300FM-12+040999999V0201401N003110075019N0200001N1+02531+01781101961ADDAA106000091GF106991061041008001001001KA1240N+02181MA1999999097271MD1999999-0041REMSYN076AAXX  05124 82784 32598 61406 10253 20178 39727 40196 86400 333 20218 59004;EQDQ01  00002PRCP06
0167827840999992003090518004-07317-039300FM-12+040999999V0201401N003610120019N0200001N1+03101+01701101431ADDAA106000091GF106991061021012501001001MA1999999096791MD1999999-0061REMSYN070AAXX  05184 82784 32698 61407 10310 20170 39679 40143 86200 333 59006;EQDQ01  00002PRCP06
0198827840999992003090600004-07317-039300FM-12+040999999V0201801N003612200019N0200001N1+02511+01671101751ADDAA106000091GF102991021041008001001001KA1240M+03161MA1999999097071MD1999999-0081REMSYN088AAXX  06004 82784 32598 21807 10251 20167 39707 40175 82400 333 10316 29056 55074 59008;EQDQ01  00002PRCP06
0186827840999992003090612004-07317-039300FM-12+040999999V0201401N003112200019N0200001N1+02621+01431101881ADDAA106000091GF101991011011008001001001KA1240N+02051MA1999999097191MD1999999-0081REMSYN076AAXX  06124 82784 32598 11406 10262 20143 39719 40188 81100 333 20205 59008;EQDQ01  00002PRCP06
0167827840999992003090618004-07317-039300FM-12+040999999V0201401N004112200019N0200001N1+03281+01391101231ADDAA106000091GF102991021021008001001001MA1999999096591MD1999999-0201REMSYN070AAXX  06184 82784 32598 21408 10328 20139 39659 40123 82200 333 59020;EQDQ01  00002PRCP06
0208827840999992003090700004-07317-039300FM-12+040999999V0201801N004612200019N0020001N1+02661+01741101511ADDAA106000091GA1001+999999999GF100991001001999999001001KA1240M+03351MA1999999096851MD1999999-0221REMSYN082AAXX  07004 82784 32995 01809 10266 20174 39685 40151 333 10335 29048 55106 59022;EQDQ01  00002PRCP06
0186827840999992003090712004-07317-039300FM-12+040999999V0201801N003112200019N0200001N1+02711+01831101761ADDAA106000091GF103991031011008001001001KA1240N+02711MA1999999097091MD1999999-0101REMSYN076AAXX  07124 82784 32598 31806 10271 20183 39709 40176 83100 333 20271 59010;EQDQ01  00002PRCP06
0167827840999992003090718004-07317-039300FM-12+040999999V0201801N003612200019N0200001N1+03241+01311101141ADDAA106000091GF104991041021012501001001MA1999999096551MD1999999-0041REMSYN070AAXX  07184 82784 32698 41807 10324 20131 39655 40114 84200 333 59004;EQDQ01  00002PRCP06
0208827840999992003090800004-07317-039300FM-12+040999999V0201801N003612200019N0200001N1+02591+01611101541ADDAA106000091GA1001+999999999GF100991001001999999001001KA1240M+03291MA1999999096881MD1999999+0031REMSYN082AAXX  08004 82784 32998 01807 10259 20161 39688 40154 333 10329 29050 55093 58003;EQDQ01  00002PRCP06
0196827840999992003090812004-07317-039300FM-12+040999999V0201801N001012200019N0200001N1+02681+01581101781ADDAA106000091GA1001+999999999GF100991001001999999001001KA1240N+02071MA1999999097111MD1999999+0021REMSYN070AAXX  08124 82784 32998 01802 10268 20158 39711 40178 333 20207 58002;EQDQ01  00002PRCP06
0198827840999992003090900004-07317-039300FM-12+040999999V0201401N003112200019N0020001N1+02651+01771101581ADDAA106000091GF101991011041008001001001KA1240M+03391MA1999999096921MD1999999+0041REMSYN088AAXX  09004 82784 32595 11406 10265 20177 39692 40158 81400 333 10339 29051 55106 58004;EQDQ01  00002PRCP06
0186827840999992003090912004-07317-039300FM-12+040999999V0201401N002112200019N0200001N1+02671+01681101831ADDAA106000091GF102991021011008001001001KA1240N+02011MA1999999097151MD1999999+0041REMSYN076AAXX  09124 82784 32598 21404 10267 20168 39715 40183 82100 333 20201 58004;EQDQ01  00002PRCP06
0198827840999992003091000004-07317-039300FM-12+040999999V0201801N003112200019N0020001N1+02731+01621101531ADDAA106000091GF101991011011008001001001KA1240M+03531MA1999999096871MD1999999-0051REMSYN088AAXX  10004 82784 32595 11806 10273 20162 39687 40153 81100 333 10353 29047 55099 59005;EQDQ01  00002PRCP06
0186827840999992003091012004-07317-039300FM-12+040999999V0201401N003612200019N0200001N1+02761+01661101731ADDAA106000091GF101991011011008001001001KA1240N+02101MA1999999097071MD1999999-0081REMSYN076AAXX  10124 82784 32598 11407 10276 20166 39707 40173 81100 333 20210 59008;EQDQ01  00002PRCP06
0167827840999992003091018004-07317-039300FM-12+040999999V0201401N002612200019N0200001N1+03491+01411101101ADDAA106000091GF103991031021008001001001MA1999999096481MD1999999-0051REMSYN070AAXX  10184 82784 32598 31405 10349 20141 39648 40110 83200 333 59005;EQDQ01  00002PRCP06
0196827840999992003091112004-07317-039300FM-12+040999999V0201401N003612200019N0200001N1+02831+01411101651ADDAA106000091GA1001+999999999GF100991001001999999001001KA1240N+02031MA1999999097001MD1999999-0071REMSYN070AAXX  11124 82784 32998 01407 10283 20141 39700 40165 333 20203 59007;EQDQ01  00002PRCP06
0167827840999992003091118004-07317-039300FM-12+040999999V0201801N003112200019N0200001N1+03531+01701100981ADDAA106000091GF101991011011012501001001MA1999999096361MD1999999-0121REMSYN070AAXX  11184 82784 32698 11806 10353 20170 39636 40098 81100 333 59012;EQDQ01  00002PRCP06
0198827840999992003091200004-07317-039300FM-12+040999999V0201401N001012200019N0020001N1+02771+01591101381ADDAA106000091GF101991011011008001001001KA1240M+03571MA1999999096741MD1999999-0061REMSYN088AAXX  12004 82784 32595 11402 10277 20159 39674 40138 81100 333 10357 29044 55109 59006;EQDQ01  00002PRCP06
0186827840999992003091212004-07317-039300FM-12+040999999V0201401N003112200019N0200001N1+02761+01831101831ADDAA106000091GF103991031021008001001001KA1240N+02201MA1999999097161MD1999999+0161REMSYN076AAXX  12124 82784 32598 31406 10276 20183 39716 40183 83200 333 20220 58016;EQDQ01  00002PRCP06
0186827840999992003091312004-07317-039300FM-12+040999999V0201401N002610075019N0200001N1+02811+01811101801ADDAA106000091GF106991061021008001001001KA1240N+02391MA1999999097141MD1999999-0021REMSYN076AAXX  13124 82784 32598 61405 10281 20181 39714 40180 86200 333 20239 59002;EQDQ01  00002PRCP06
0167827840999992003091318004-07317-039300FM-12+040999999V0201801N002610120019N0200001N1+03431+01701101201ADDAA106000091GF106991061021012501001001MA1999999096581MD1999999+0001REMSYN070AAXX  13184 82784 32698 61805 10343 20170 39658 40120 86200 333 58000;EQDQ01  00002PRCP06
0186827840999992003091412004-07317-039300FM-12+040999999V0201401N002110075019N0200001N1+02591+01901101791ADDAA106000091GF108991081041008001999999KA1240N+02261MA1999999097121MD1999999-0021REMSYN076AAXX  14124 82784 32598 81404 10259 20190 39712 40179 884// 333 20226 59002;EQDQ01  00002PRCP06
0167827840999992003091418004-07317-039300FM-12+040999999V0201401N002112200019N0200001N1+03291+01861101231ADDAA106000091GF102991021021008001001001MA1999999096591MD1999999+0011REMSYN070AAXX  14184 82784 32598 21404 10329 20186 39659 40123 82200 333 58001;EQDQ01  00002PRCP06
0208827840999992003091500004-07317-039300FM-12+040999999V0201801N001012200019N0020001N1+02691+01611101351ADDAA106000091GA1001+999999999GF100991001001999999001001KA1240M+03361MA1999999096701MD1999999-0091REMSYN082AAXX  15004 82784 32995 01802 10269 20161 39670 40135 333 10336 29053 55055 59009;EQDQ01  00002PRCP06
0186827840999992003091512004-07317-039300FM-12+040999999V0201401N002612200019N0200001N1+02761+01831101681ADDAA106000091GF102991021021008001001001KA1240N+02111MA1999999097021MD1999999-0101REMSYN076AAXX  15124 82784 32598 21405 10276 20183 39702 40168 82200 333 20211 59010;EQDQ01  00002PRCP06
0167827840999992003091618004-07317-039300FM-12+040999999V0201401N002112200019N0200001N1+03351+01511101121ADDAA106000091GF102991021011008001001001MA1999999096491MD1999999-0031REMSYN070AAXX  16184 82784 32598 21404 10335 20151 39649 40112 82100 333 59003;EQDQ01  00002PRCP06
0198827840999992003091700004-07317-039300FM-12+040999999V0201401N001512200019N0020001N1+02651+01451101331ADDAA106000091GF101991011011008001001001KA1240M+03471MA1999999096671MD1999999-0041REMSYN088AAXX  17004 82784 32595 11403 10265 20145 39667 40133 81100 333 10347 29046 55111 59004;EQDQ01  00002PRCP06
0186827840999992003091712004-07317-039300FM-12+040999999V0201801N002110075019N0200001N1+02551+01881101741ADDAA106000091GF107991071021008001001001KA1240N+02141MA1999999097061MD1999999-0011REMSYN076AAXX  17124 82784 32598 71804 10255 20188 39706 40174 87200 333 20214 59001;EQDQ01  00002PRCP06
0167827840999992003091718004-07317-039300FM-12+040999999V0201401N002110120019N0200001N1+02291+01701101221ADDAA106000091GF106991061021012501001001MA1999999096571MD1999999+0081REMSYN070AAXX  17184 82784 32698 61404 10229 20170 39657 40122 86200 333 58008;EQDQ01  00002PRCP06
0198827840999992003091800004-07317-039300FM-12+040999999V0201801N001012200019N0020001N1+02791+01581101321ADDAA106000091GF102991021041008001001001KA1240M+03411MA1999999096671MD1999999+0001REMSYN088AAXX  18004 82784 32595 21802 10279 20158 39667 40132 82400 333 10341 29050 55074 58000;EQDQ01  00002PRCP06
0186827840999992003091812004-07317-039300FM-12+040999999V0200901N002112200019N0200001N1+02831+01831101571ADDAA106000091GF102991021011008001001001KA1240N+02011MA1999999096921MD1999999-0141REMSYN076AAXX  18124 82784 32598 20904 10283 20183 39692 40157 82100 333 20201 59014;EQDQ01  00002PRCP06
0167827840999992003091818004-07317-039300FM-12+040999999V0201401N003112200019N0200001N1+03451+01581101011ADDAA106000091GF103991031021008001001001MA1999999096401MD1999999-0171REMSYN070AAXX  18184 82784 32598 31406 10345 20158 39640 40101 83200 333 59017;EQDQ01  00002PRCP06
0208827840999992003091900004-07317-039300FM-12+040999999V0201801N004112200019N0020001N1+02871+01681101231ADDAA106000091GA1001+999999999GF100991001001999999001001KA1240M+03521MA1999999096601MD1999999-0071REMSYN082AAXX  19004 82784 32995 01808 10287 20168 39660 40123 333 10352 29046 55111 59007;EQDQ01  00002PRCP06
0186827840999992003091912004-07317-039300FM-12+040999999V0201401N003112200019N0200001N1+02801+01721101521ADDAA106000091GF101991011011008001001001KA1240N+02221MA1999999096881MD1999999-0041REMSYN076AAXX  19124 82784 32598 11406 10280 20172 39688 40152 81100 333 20222 59004;EQDQ01  00002PRCP06
0177827840999992003091918004-07317-039300FM-12+040999999V0201401N003112200019N0200001N1+03571+01481100861ADDAA106000091GA1001+999999999GF100991001001999999001001MA1999999096261MD1999999-0141REMSYN064AAXX  19184 82784 32998 01406 10357 20148 39626 40086 333 59014;EQDQ01  00002PRCP06
0208827840999992003092000004-07317-039300FM-12+040999999V0201801N004112200019N0020001N1+02831+01291101211ADDAA106000091GA1001+999999999GF100991001001999999001001KA1240M+03621MA1999999096581MD1999999-0021REMSYN082AAXX  20004 82784 32995 01808 10283 20129 39658 40121 333 10362 29040 55109 59002;EQDQ01  00002PRCP06
0186827840999992003092012004-07317-039300FM-12+040999999V0201401N003110075019N0200001N1+02651+01951101591ADDAA106000091GF106991061021008001001001KA1240N+02261MA1999999096941MD1999999+0061REMSYN076AAXX  20124 82784 32598 61406 10265 20195 39694 40159 86200 333 20226 58006;EQDQ01  00002PRCP06
0167827840999992003092018004-07317-039300FM-12+040999999V0201401N003112200019N0200001N1+03041+01941101171ADDAA106000091GF103991031021008001001001MA1999999096531MD1999999+0271REMSYN070AAXX  20184 82784 32598 31406 10304 20194 39653 40117 83200 333 58027;EQDQ01  00002PRCP06
0186827840999992003092112004-07317-039300FM-12+040999999V0201401N002110075019N0200001N1+02601+01711101721ADDAA106000091GF105991051021008001001001KA1240N+02061MA1999999097051MD1999999+0111REMSYN076AAXX  21124 82784 32598 51404 10260 20171 39705 40172 85200 333 20206 58011;EQDQ01  00002PRCP06
0167827840999992003092118004-07317-039300FM-12+040999999V0200901N001512200019N0200001N1+03411+00861101121ADDAA106000091GF102991021001017501011001MA1999999096491MD1999999-0021REMSYN070AAXX  21184 82784 32798 20903 10341 20086 39649 40112 82010 333 59002;EQDQ01  00002PRCP06
0198827840999992003092200004-07317-039300FM-12+040999999V0201801N002112200019N0020001N1+02591+01191101441ADDAA106000091GF101991011011008001001001KA1240M+03461MA1999999096781MD1999999-0011REMSYN088AAXX  22004 82784 32595 11804 10259 20119 39678 40144 81100 333 10346 29041 55108 59001;EQDQ01  00002PRCP06
0196827840999992003092212004-07317-039300FM-12+040999999V0201801N003112200019N0200001N1+02711+01941101621ADDAA106000091GA1001+999999999GF100991001001999999001001KA1240N+02201MA1999999096951MD1999999-0101REMSYN070AAXX  22124 82784 32998 01806 10271 20194 39695 40162 333 20220 59010;EQDQ01  00002PRCP06
0167827840999992003092218004-07317-039300FM-12+040999999V0201801N004612200019N0200001N1+03291+01621101061ADDAA106000091GF104991041011008001001001MA1999999096431MD1999999-0061REMSYN070AAXX  22184 82784 32598 41809 10329 20162 39643 40106 84100 333 59006;EQDQ01  00002PRCP06
0208827840999992003092400004-07317-039300FM-12+040999999V0201801N002112200019N0020001N1+02701+01301101391ADDAA106000091GA1001+999999999GF100991001001999999001001KA1240M+03411MA1999999096741MD1999999+0011REMSYN082AAXX  24004 82784 32995 01804 10270 20130 39674 40139 333 10341 29046 55110 58001;EQDQ01  00002PRCP06
0186827840999992003092412004-07317-039300FM-12+040999999V0201401N002112200019N0200001N1+02691+01671101561ADDAA106000091GF103991031021008001001001KA1240N+02011MA1999999096901MD1999999-0041REMSYN076AAXX  24124 82784 32598 31404 10269 20167 39690 40156 83200 333 20201 59004;EQDQ01  00002PRCP06
0167827840999992003092418004-07317-039300FM-12+040999999V0200901N002112200019N0200001N1+03331+01381101031ADDAA106000091GF103991021011008001031001MA1999999096401MD1999999+0031REMSYN070AAXX  24184 82784 32598 30904 10333 20138 39640 40103 82130 333 58003;EQDQ01  00002PRCP06
0208827840999992003092500004-07317-039300FM-12+040999999V0201801N002112200019N0020001N1+02541+01231101191ADDAA106000091GA1001+999999999GF100991001001999999001001KA1240M+03391MA1999999096541MD1999999-0201REMSYN082AAXX  25004 82784 32995 01804 10254 20123 39654 40119 333 10339 29043 55110 59020;EQDQ01  00002PRCP06
0186827840999992003092512004-07317-039300FM-12+040999999V0201401N002112200019N0020001N1+02711+01991101501ADDAA106000091GF104991041011008001001001KA1240N+01831MA1999999096841MD1999999-0061REMSYN076AAXX  25124 82784 32595 41404 10271 20199 39684 40150 84100 333 20183 59006;EQDQ01  00002PRCP06
0167827840999992003092518004-07317-039300FM-12+040999999V0200501N003112200019N0200001N1+03461+01901100941ADDAA106000091GF103991031021008001001001MA1999999096311MD1999999-0091REMSYN070AAXX  25184 82784 32598 30506 10346 20190 39631 40094 83200 333 59009;EQDQ01  00002PRCP06
0186827840999992003092612004-07317-039300FM-12+040999999V0200901N002610075019N0200001N1+02741+01971101461ADDAA106000091GF106991061021008001001001KA1240N+02171MA1999999096801MD1999999-0041REMSYN076AAXX  26124 82784 32598 60905 10274 20197 39680 40146 86200 333 20217 59004;EQDQ01  00002PRCP06
0167827840999992003092618004-07317-039300FM-12+040999999V0200501N002112200019N0200001N1+03551+01531100841ADDAA106000091GF105991021021008001001061MA1999999096231MD1999999-0081REMSYN070AAXX  26184 82784 32598 50504 10355 20153 39623 40084 82206 333 59008;EQDQ01  00002PRCP06
0208827840999992003092700004-07317-039300FM-12+040999999V0201801N001512200019N0020001N1+02801+01531101161ADDAA106000091GA1001+999999999GF100991001001999999001001KA1240M+03611MA1999999096531MD1999999-0101REMSYN082AAXX  27004 82784 32995 01803 10280 20153 39653 40116 333 10361 29046 55085 59010;EQDQ01  00002PRCP06
0186827840999992003092712004-07317-039300FM-12+040999999V0200901N002110075019N0200001N1+99999+99999101421ADDAA106000091GF108991081041008001999999KA1240N+02121MA1999999096771MD1999999-0031REMSYN076AAXX  27124 82784 32598 80904 1//// 20186 39677 40142 884// 333 20212 59003;EQDQ01  00002PRCP06
0167827840999992003092718004-07317-039300FM-12+040999999V0200901N002612200019N0200001N1+03521+01501100711ADDAA106000091GF102991021021008001001001MA1999999096121MD1999999-0111REMSYN070AAXX  27184 82784 32598 20905 10352 20150 39612 40071 82200 333 59011;EQDQ01  00002PRCP06
0208827840999992003092800004-07317-039300FM-12+040999999V0209999C000012200019N0020001N1+02801+01561101011ADDAA106000091GA1001+999999999GF100991001001999999001001KA1240M+03601MA1999999096381MD1999999-0151REMSYN082AAXX  28004 82784 32995 00000 10280 20156 39638 40101 333 10360 29046 55090 59015;EQDQ01  00002PRCP06
0186827840999992003092812004-07317-039300FM-12+040999999V0200501N001512200019N0200001N1+02811+01841101411ADDAA106000091GF101991011011008001001001KA1240N+01981MA1999999096771MD1999999+0001REMSYN076AAXX  28124 82784 32598 10503 10281 20184 39677 40141 81100 333 20198 58000;EQDQ01  00002PRCP06
0167827840999992003092818004-07317-039300FM-12+040999999V0200501N002612200019N0200001N1+03691+01351100771ADDAA106000091GF102991011011008001001051MA1999999096171MD1999999+0051REMSYN070AAXX  28184 82784 32598 20505 10369 20135 39617 40077 81105 333 58005;EQDQ01  00002PRCP06
0208827840999992003092900004-07317-039300FM-12+040999999V0209999C000012200019N0020001N1+02761+01161101101ADDAA106000091GA1001+999999999GF100991001001999999001001KA1240M+03741MA1999999096471MD1999999+0091REMSYN082AAXX  29004 82784 32995 00000 10276 20116 39647 40110 333 10374 29039 55110 58009;EQDQ01  00002PRCP06
0186827840999992003092912004-07317-039300FM-12+040999999V0200501N002612200019N0200001N1+02681+01921101561ADDAA106000091GF103991031021008001001001KA1240N+02081MA1999999096901MD1999999+0131REMSYN076AAXX  29124 82784 32598 30505 10268 20192 39690 40156 83200 333 20208 58013;EQDQ01  00002PRCP06
0177827840999992003092918004-07317-039300FM-12+040999999V0201401N002112200019N0200001N1+03471+01341100951ADDAA106000091GA1001+999999999GF100991001001999999001001MA1999999096331MD1999999+0161REMSYN064AAXX  29184 82784 32598 01404 10347 20134 39633 40095 333 58016;EQDQ01  00002PRCP06
0208827840999992003093000004-07317-039300FM-12+040999999V0202701N000512200019N0020001N1+02681+01351101191ADDAA106000091GA1001+999999999GF100991001001999999001001KA1240M+03521MA1999999096551MD1999999+0081REMSYN082AAXX  30004 82784 32995 02701 10268 20135 39655 40119 333 10352 29045 55095 58008;EQDQ01  00002PRCP06
0186827840999992003093012004-07317-039300FM-12+040999999V0201401N003112200019N0200001N1+02801+01751101561ADDAA106000091GF102991021011008001001001KA1240N+02271MA1999999096911MD1999999+0011REMSYN076AAXX  30124 82784 32598 21406 10280 20175 39691 40156 82100 333 20227 58001;EQDQ01  00002PRCP06
0167827840999992003093018004-07317-039300FM-12+040999999V0201401N002612200019N0200001N1+03491+01571100991ADDAA106000091GF102991011021008001001091MA1999999096371MD1999999+0041REMSYN070AAXX  30184 82784 32598 21405 10349 20157 39637 40099 81209 333 58004;EQDQ01  00002PRCP06
0198827840999992003100100004-07317-039300FM-12+040999999V0203201N000512200019N0020001N1+02681+01281101201ADDAA106000091GF102991021011008001001001KA1240M+03571MA1999999096561MD1999999+0011REMSYN088AAXX  01004 82784 32595 23201 10268 20128 39656 40120 82100 333 10357 29042 55106 58001;EQDQ01  00002PRCP06
0186827840999992003100112004-07317-039300FM-12+040999999V0200501N001512200019N0200001N1+02781+01731101501ADDAA106000091GF102991011011008001021001KA1240N+02031MA1999999096851MD1999999-0061REMSYN076AAXX  01124 82784 32598 20503 10278 20173 39685 40150 81120 333 20203 59006;EQDQ01  00002PRCP06
0167827840999992003100118004-07317-039300FM-12+040999999V0200901N001512200019N0200001N1+03511+01141100861ADDAA106000091GF102991021011008001001001MA1999999096271MD1999999-0121REMSYN070AAXX  01184 82784 32598 20903 10351 20114 39627 40086 82100 333 59012;EQDQ01  00002PRCP06
0208827840999992003100200004-07317-039300FM-12+040999999V0201401N001012200019N0020001N1+02971+01401101171ADDAA106000091GA1001+999999999GF100991001001999999001001KA1240M+03591MA1999999096551MD1999999-0011REMSYN082AAXX  02004 82784 32595 01402 10297 20140 39655 40117 333 10359 29038 55104 59001;EQDQ01  00002PRCP06
0186827840999992003100212004-07317-039300FM-12+040999999V0201401N003112200019N0200001N1+02791+01631101471ADDAA106000091GF103991031021008001001001KA1240N+02341MA1999999096841MD1999999-0011REMSYN076AAXX  02124 82784 32598 31406 10279 20163 39684 40147 83200 333 20234 59001;EQDQ01  00002PRCP06
0167827840999992003100218004-07317-039300FM-12+040999999V0201401N003112200019N0200001N1+03431+01701100881ADDAA106000091GF104991041021008001001001MA1999999096281MD1999999+0011REMSYN070AAXX  02184 82784 32598 41406 10343 20170 39628 40088 84200 333 58001;EQDQ01  00002PRCP06
0198827840999992003100300004-07317-039300FM-12+040999999V0201801N003110075019N0020001N1+02941+01401101071ADDAA106000091GF106991061041008001001001KA1240M+03511MA1999999096451MD1999999-0101REMSYN088AAXX  03004 82784 32595 61806 10294 20140 39645 40107 86400 333 10351 29041 55010 59010;EQDQ01  00002PRCP06
0186827840999992003100312004-07317-039300FM-12+040999999V0200901N003112200019N0200001N1+02801+01601101631ADDAA106000091GF103991031021008001001001KA1240N+02301MA1999999096981MD1999999+0141REMSYN076AAXX  03124 82784 32598 30906 10280 20160 39698 40163 83200 333 20230 58014;EQDQ01  00002PRCP06
0167827840999992003100318004-07317-039300FM-12+040999999V0201801N004111050019N0200001N1+03371+01381101081ADDAA106000091GF106991041021008001001051MA1999999096461MD1999999+0181REMSYN070AAXX  03184 82784 32598 61808 10337 20138 39646 40108 84205 333 58018;EQDQ01  00002PRCP06
0198827840999992003100400004-07317-039300FM-12+040999999V0209999C000010120019N0020001N1+02811+01241101341ADDAA106000091GF108991081081008001999999KA1240M+03451MA1999999096701MD1999999+0251REMSYN088AAXX  04004 82784 32595 80000 10281 20124 39670 40134 888// 333 10345 29038 55093 58025;EQDQ01  00002PRCP06
0186827840999992003100412004-07317-039300FM-12+040999999V0201401N002610075019N0200001N1+02671+01741101661ADDAA106000091GF105991051021008001001001KA1240N+02271MA1999999097001MD1999999+0021REMSYN076AAXX  04124 82784 32598 51405 10267 20174 39700 40166 85200 333 20227 58002;EQDQ01  00002PRCP06
0167827840999992003100418004-07317-039300FM-12+040999999V0201401N002610075019N0200001N1+03401+01351101051ADDAA106000091GF105991051021008001001001MA1999999096441MD1999999-0021REMSYN070AAXX  04184 82784 32598 51405 10340 20135 39644 40105 85200 333 59002;EQDQ01  00002PRCP06
0198827840999992003100500004-07317-039300FM-12+040999999V0201401N003112200019N0020001N1+02671+01331101311ADDAA106000091GF103991031011008001001001KA1240M+02981MA1999999096661MD1999999-0041REMSYN088AAXX  05004 82784 32595 31406 10267 20133 39666 40131 83100 333 10298 29044 55093 59004;EQDQ01  00002PRCP06
0186827840999992003100512004-07317-039300FM-12+040999999V0201401N002612200019N0200001N1+02781+01701101461ADDAA106000091GF102991021011008001001001KA1240N+02311MA1999999096811MD1999999-0191REMSYN076AAXX  05124 82784 32598 21405 10278 20170 39681 40146 82100 333 20231 59019;EQDQ01  00002PRCP06
0183827840999992003100518004-07317-039300FM-12+040999999V0200901N002612200019N0200001N1+03481+01361100811ADDAA106000091GF102991999021008001001001MA1999999096211MD1999999-0231REMSYN070AAXX  05184 82784 32598 20905 10348 20136 39621 40081 83200 333 59023;EQDQ01+000032SCOTLCQ02  00002PRCP06
0198827840999992003100600004-07317-039300FM-12+040999999V0200901N001012200019N0020001N1+02801+01281101151ADDAA106000091GF102991021001017501031001KA1240M+03541MA1999999096521MD1999999-0141REMSYN088AAXX  06004 82784 32795 20902 10280 20128 39652 40115 82030 333 10354 29040 55105 59014;EQDQ01  00002PRCP06
0186827840999992003100612004-07317-039300FM-12+040999999V0200901N002112200019N0200001N1+02761+01721101431ADDAA106000091GF101991011011008001001001KA1240N+02281MA1999999096791MD1999999-0021REMSYN076AAXX  06124 82784 32598 10904 10276 20172 39679 40143 81100 333 20228 59002;EQDQ01  00002PRCP06
0167827840999992003100618004-07317-039300FM-12+040999999V0201401N003112200019N0200001N1+03371+01711100831ADDAA106000091GF103991031021008001001001MA1999999096221MD1999999+0011REMSYN070AAXX  06184 82784 32598 31406 10337 20171 39622 40083 83200 333 58001;EQDQ01  00002PRCP06
0198827840999992003100700004-07317-039300FM-12+040999999V0201401N000510120019N0020001N1+03021+01301101131ADDAA106000091GF108991081081008001999999KA1240M+03521MA1999999096511MD1999999-0011REMSYN088AAXX  07004 82784 32595 81401 10302 20130 39651 40113 888// 333 10352 29040 55105 59001;EQDQ01  00002PRCP06
0186827840999992003100712004-07317-039300FM-12+040999999V0200901N003112200019N0200001N1+02851+01701101541ADDAA106000091GF102991011011008001001051KA1240N+02271MA1999999096911MD1999999+0121REMSYN076AAXX  07124 82784 32598 20906 10285 20170 39691 40154 81105 333 20227 58012;EQDQ01  00002PRCP06
0167827840999992003100718004-07317-039300FM-12+040999999V0200501N001012200019N0200001N1+03481+01411100861ADDAA106000091GF103991031021008001001001MA1999999096261MD1999999+0041REMSYN070AAXX  07184 82784 32598 30502 10348 20141 39626 40086 83200 333 58004;EQDQ01  00002PRCP06
0198827840999992003100800004-07317-039300FM-12+040999999V0201801N005112200019N0020001N1+03021+01301101141ADDAA106000091GF102991021081008001001001KA1240M+03671MA1999999096531MD1999999+0021REMSYN088AAXX  08004 82784 32595 21810 10302 20130 39653 40114 82800 333 10367 29037 55109 58002;EQDQ01  00002PRCP06
0186827840999992003100812004-07317-039300FM-12+040999999V0201401N002112200019N0200001N1+02731+01701101501ADDAA106000091GF102991021011008001001001KA1240N+02211MA1999999096861MD1999999-0051REMSYN076AAXX  08124 82784 32598 21404 10273 20170 39686 40150 82100 333 20221 59005;EQDQ01  00002PRCP06
0167827840999992003100818004-07317-039300FM-12+040999999V0201401N003112200019N0200001N1+03501+01631100861ADDAA106000091GF102991021011008001001001MA1999999096261MD1999999+0001REMSYN070AAXX  08184 82784 32598 21406 10350 20163 39626 40086 82100 333 58000;EQDQ01  00002PRCP06
0198827840999992003100900004-07317-039300FM-12+040999999V0209999C000010450019N0020001N1+02791+01201101211ADDAA106000091GF106991041081008001031001KA1240M+03351MA1999999096571MD1999999+0041REMSYN088AAXX  09004 82784 32595 60000 10279 20120 39657 40121 84830 333 10335 29040 55107 58004;EQDQ01  00002PRCP06
0186827840999992003100912004-07317-039300FM-12+040999999V0201401N002612200019N0200001N1+02831+01681101531ADDAA106000091GF103991031021008001001001KA1240N+02071MA1999999096881MD1999999+0021REMSYN076AAXX  09124 82784 32598 31405 10283 20168 39688 40153 83200 333 20207 58002;EQDQ01  00002PRCP06
0167827840999992003100918004-07317-039300FM-12+040999999V0200901N003110075019N0200001N1+03321+01481100921ADDAA106000091GF106991061021008001001001MA1999999096291MD1999999+0031REMSYN070AAXX  09184 82784 32598 60906 10332 20148 39629 40092 86200 333 58003;EQDQ01  00002PRCP06
0198827840999992003101000004-07317-039300FM-12+040999999V0201401N002112200019N0020001N1+02711+01521101261ADDAA106000091GF102991021021008001001001KA1240M+03421MA1999999096621MD1999999+0051REMSYN088AAXX  10004 82784 32595 21404 10271 20152 39662 40126 82200 333 10342 29045 55109 58005;EQDQ01  00002PRCP06
0186827840999992003101012004-07317-039300FM-12+040999999V0200901N002112200019N0200001N1+02831+01611101411ADDAA106000091GF102991021011008001021001KA1240N+02261MA1999999096761MD1999999-0121REMSYN076AAXX  10124 82784 32598 20904 10283 20161 39676 40141 82120 333 20226 59012;EQDQ01  00002PRCP06
0167827840999992003101018004-07317-039300FM-12+040999999V0200501N003110450019N0200001N1+03531+01521100811ADDAA106000091GF105991021011008001021001MA1999999096221MD1999999-0071REMSYN070AAXX  10184 82784 32598 50506 10353 20152 39622 40081 82120 333 59007;EQDQ01  00002PRCP06
0198827840999992003101100004-07317-039300FM-12+040999999V0200501N001012200019N0020001N1+02761+01351101121ADDAA106000091GF102991021041008001061001KA1240M+03591MA1999999096491MD1999999-0131REMSYN088AAXX  11004 82784 32595 20502 10276 20135 39649 40112 82460 333 10359 29040 55112 59013;EQDQ01  00002PRCP06
0196827840999992003101112004-07317-039300FM-12+040999999V0201401N001512200019N0200001N1+02911+01601101461ADDAA106000091GA1001+999999999GF100991001001999999001001KA1240N+02071MA1999999096821MD1999999+0061REMSYN070AAXX  11124 82784 32998 01403 10291 20160 39682 40146 333 20207 58006;EQDQ01  00002PRCP06
0177827840999992003101118004-07317-039300FM-12+040999999V0201401N002112200019N0200001N1+03571+01081100921ADDAA106000091GA1001+999999999GF100991001001999999001001MA1999999096621MD1999999+0101REMSYN064AAXX  11184 82784 32998 01404 10357 20108 39662 40092 333 58010;EQDQ01  00002PRCP06
0208827840999992003101200004-07317-039300FM-12+040999999V0209999C000012200019N0020001N1+02741+01101101131ADDAA106000091GA1001+999999999GF100991001001999999001001KA1240M+03611MA1999999096501MD1999999+0011REMSYN082AAXX  12004 82784 32995 00000 10274 20110 39650 40113 333 10361 29035 55110 58001;EQDQ01  00002PRCP06
0196827840999992003101212004-07317-039300FM-12+040999999V0200501N001012200019N0200001N1+02931+01511101301ADDAA106000091GA1001+999999999GF100991001001999999001001KA1240N+01991MA1999999096671MD1999999-0151REMSYN070AAXX  12124 82784 32998 00502 10293 20151 39667 40130 333 20199 59015;EQDQ01  00002PRCP06
0167827840999992003101218004-07317-039300FM-12+040999999V0202301N001012200019N0200001N1+03711+01771100751ADDAA106000091GF103991031021008001001001MA1999999096151MD1999999-0171REMSYN070AAXX  12184 82784 32598 32302 10371 20177 39615 40075 83200 333 59017;EQDQ01  00002PRCP06
0198827840999992003101300004-07317-039300FM-12+040999999V0200901N001512200019N0020001N1+02811+01111101101ADDAA106000091GF101991011001017501031001KA1240M+03801MA1999999096481MD1999999-0021REMSYN088AAXX  13004 82784 32795 10903 10281 20111 39648 40110 81030 333 10380 29036 55099 59002;EQDQ01  00002PRCP06
0186827840999992003101312004-07317-039300FM-12+040999999V0200501N002110075019N0200001N1+02671+01901101371ADDAA106000091GF105991051021008001001001KA1240N+02221MA1999999096731MD1999999+0061REMSYN076AAXX  13124 82784 32598 50504 10267 20190 39673 40137 85200 333 20222 58006;EQDQ01  00002PRCP06
0167827840999992003101318004-07317-039300FM-12+040999999V0201401N002110075019N0200001N1+03591+01411100801ADDAA106000091GF106991061021008001001001MA1999999096201MD1999999+0051REMSYN070AAXX  13184 82784 32598 61404 10359 20141 39620 40080 86200 333 58005;EQDQ01  00002PRCP06
0208827840999992003101400004-07317-039300FM-12+040999999V0201401N002612200019N0020001N1+02991+01371101111ADDAA106000091GA1001+999999999GF100991001001999999001001KA1240M+03661MA1999999096491MD1999999+0011REMSYN082AAXX  14004 82784 32995 01405 10299 20137 39649 40111 333 10366 29041 55078 58001;EQDQ01  00002PRCP06
0202827840999992003101412004-07317-039300FM-12+040999999V0201401N002112200019N0200001N1+02821+01371101461ADDAA106000091GF101991001001999999001041KA1240N+02231MA1999999096831MD1999999+0101REMSYN076AAXX  14124 82784 32998 11404 10282 20137 39683 40146 81004 333 20223 58010;EQDQ01+000012SCOTLCQ02  00002PRCP06
0167827840999992003101418004-07317-039300FM-12+040999999V0201401N003112200019N0200001N1+03521+01391100901ADDAA106000091GF101991011011008001001001MA1999999096301MD1999999+0101REMSYN070AAXX  14184 82784 32598 11406 10352 20139 39630 40090 81100 333 58010;EQDQ01  00002PRCP06
0208827840999992003101500004-07317-039300FM-12+040999999V0201801N003112200019N0020001N1+02901+01441101221ADDAA106000091GA1001+999999999GF100991001001999999001001KA1240M+03601MA1999999096591MD1999999+0101REMSYN082AAXX  15004 82784 32995 01806 10290 20144 39659 40122 333 10360 29038 55110 58010;EQDQ01  00002PRCP06
0186827840999992003101512004-07317-039300FM-12+040999999V0201401N002112200019N0200001N1+02851+01731101511ADDAA106000091GF102991011011008001001041KA1240N+02211MA1999999096871MD1999999+0041REMSYN076AAXX  15124 82784 32598 21404 10285 20173 39687 40151 81104 333 20221 58004;EQDQ01  00002PRCP06
0167827840999992003101518004-07317-039300FM-12+040999999V0201801N003612200019N0200001N1+03511+01341100941ADDAA106000091GF102991021011008001001001MA1999999096341MD1999999+0041REMSYN070AAXX  15184 82784 32598 21807 10351 20134 39634 40094 82100 333 58004;EQDQ01  00002PRCP06
0208827840999992003101600004-07317-039300FM-12+040999999V0201801N009312200019N0020001N1+02801+01841101321ADDAA106000091GA1001+999999999GF100991001001999999001001KA1240M+03571MA1999999096681MD1999999+0091REMSYN082AAXX  16004 82784 32995 01818 10280 20184 39668 40132 333 10357 29048 55113 58009;EQDQ01  00002PRCP06
0167827840999992003101618004-07317-039300FM-12+040999999V0201401N003112200019N0200001N1+03401+01851101021ADDAA106000091GF103991031021008001001001MA1999999096401MD1999999+0061REMSYN070AAXX  16184 82784 32598 31406 10340 20185 39640 40102 83200 333 58006;EQDQ01  00002PRCP06
0208827840999992003101700004-07317-039300FM-12+040999999V0201401N005112200019N0020001N1+02651+01721101421ADDAA106000091GA1001+999999999GF100991001001999999001001KA1240M+03501MA1999999096771MD1999999+0091REMSYN082AAXX  17004 82784 32995 01410 10265 20172 39677 40142 333 10350 29052 55108 58009;EQDQ01  00002PRCP06
0186827840999992003101712004-07317-039300FM-12+040999999V0201401N003610075019N0200001N1+02751+01891101591ADDAA106000091GF106991061021008001001001KA1240N+02291MA1999999096931MD1999999-0101REMSYN076AAXX  17124 82784 32598 61407 10275 20189 39693 40159 86200 333 20229 59010;EQDQ01  00002PRCP06
0167827840999992003101718004-07317-039300FM-12+040999999V0201401N002119999999N0200001N1+03011+02081101131ADDAA106000091GF105991041021999999001091MA1999999096491MD1999999+0091REMSYN070AAXX  17184 82784 32998 51404 10301 20208 39649 40113 84209 333 58009;EQDQ01  00002PRCP06
0208827840999992003101800004-07317-039300FM-12+040999999V0201801N002612200019N0020001N1+02601+01871101371ADDAA106000091GA1001+999999999GF100991001001999999001001KA1240M+03191MA1999999096721MD1999999+0051REMSYN082AAXX  18004 82784 32995 01805 10260 20187 39672 40137 333 10319 29066 55103 58005;EQDQ01  00002PRCP06
0186827840999992003101812004-07317-039300FM-12+040999999V0201401N002110075019N0200001N1+02611+01871101601ADDAA106000091GF106991061021008001001001KA1240N+02221MA1999999096831MD1999999+0001REMSYN076AAXX  18124 82784 32598 61404 10261 20187 39683 40160 86200 333 20222 58000;EQDQ01  00002PRCP06
0167827840999992003101818004-07317-039300FM-12+040999999V0201401N002110075019N0200001N1+03151+01921101111ADDAA106000091GF106991061041008001001001MA1999999096471MD1999999-0021REMSYN070AAXX  18184 82784 32598 61404 10315 20192 39647 40111 86400 333 59002;EQDQ01  00002PRCP06
0198827840999992003101900004-07317-039300FM-12+040999999V0201401N003112200019N0020001N1+02771+01791101371ADDAA106000091GF101991011001017501021001KA1240M+03321MA1999999096721MD1999999+0001REMSYN088AAXX  19004 82784 32795 11406 10277 20179 39672 40137 81020 333 10332 29056 55066 58000;EQDQ01  00002PRCP06
0186827840999992003101912004-07317-039300FM-12+040999999V0201401N004110120019N0200001N1+02801+01871101581ADDAA106000091GF108991061081008001001041KA1240N+02311MA1999999096931MD1999999+0001REMSYN076AAXX  19124 82784 32598 81408 10280 20187 39693 40158 86804 333 20231 58000;EQDQ01  00002PRCP06
0167827840999992003101918004-07317-039300FM-12+040999999V0201801N003111050019N0200001N1+03311+02041101011ADDAA106000091GF107991041021008001001091MA1999999096391MD1999999+0081REMSYN070AAXX  19184 82784 32598 71806 10331 20204 39639 40101 84209 333 58008;EQDQ01  00002PRCP06
0208827840999992003102000004-07317-039300FM-12+040999999V0201801N002112200019N0020001N1+02791+01981101351ADDAA106000091GA1001+999999999GF100991001001999999001001KA1240M+03471MA1999999096711MD1999999-0011REMSYN082AAXX  20004 82784 32995 01804 10279 20198 39671 40135 333 10347 29056 55095 59001;EQDQ01  00002PRCP06
0186827840999992003102012004-07317-039300FM-12+040999999V0201401N001510075019N0200001N1+02731+01811101531ADDAA106000091GF106991061021008001001001KA1240N+02491MA1999999096881MD1999999-0051REMSYN076AAXX  20124 82784 32598 61403 10273 20181 39688 40153 86200 333 20249 59005;EQDQ01  00002PRCP06
0167827840999992003102018004-07317-039300FM-12+040999999V0200901N003112200019N0200001N1+03391+01771100961ADDAA106000091GF103991031021008001001001MA1999999096351MD1999999-0041REMSYN070AAXX  20184 82784 32598 30906 10339 20177 39635 40096 83200 333 59004;EQDQ01  00002PRCP06
0208827840999992003102100004-07317-039300FM-12+040999999V0201401N003612200019N0020001N1+02891+01941101201ADDAA106000091GA1001+999999999GF100991001001999999001001KA1240M+03551MA1999999096571MD1999999-0141REMSYN082AAXX  21004 82784 32595 01407 10289 20194 39657 40120 333 10355 29052 55085 59014;EQDQ01  00002PRCP06
0186827840999992003102112004-07317-039300FM-12+040999999V0200501N003110150019N0200001N1+02761+01591101461ADDAA106000091GF106991061001017501021001KA1240N+02091MA1999999096821MD1999999-0061REMSYN076AAXX  21124 82784 32798 60506 10276 20159 39682 40146 86020 333 20209 59006;EQDQ01  00002PRCP06
0167827840999992003102118004-07317-039300FM-12+040999999V0200501N003119999999N0200001N1+03511+01451100741ADDAA106000091GF108991081001008001001051MA1999999096141MD1999999-0211REMSYN070AAXX  21184 82784 32598 80506 10351 20145 39614 40074 88005 333 59021;EQDQ01  00002PRCP06
0208827840999992003102200004-07317-039300FM-12+040999999V0201401N001512200019N0020001N1+02841+01701101061ADDAA106000091GA1001+999999999GF100991001001999999001001KA1240M+03651MA1999999096441MD1999999-0131REMSYN082AAXX  22004 82784 32995 01403 10284 20170 39644 40106 333 10365 29044 55108 59013;EQDQ01  00002PRCP06
0186827840999992003102212004-07317-039300FM-12+040999999V0200501N002112200019N0200001N1+02811+01661101451ADDAA106000091GF102991021001017501021001KA1240N+02171MA1999999096811MD1999999-0011REMSYN076AAXX  22124 82784 32798 20504 10281 20166 39681 40145 82020 333 20217 59001;EQDQ01  00002PRCP06
0167827840999992003102218004-07317-039300FM-12+040999999V0200501N003110075019N0200001N1+03511+01221100881ADDAA106000091GF106991061021008001021001MA1999999096271MD1999999+0131REMSYN070AAXX  22184 82784 32598 60506 10351 20122 39627 40088 86220 333 58013;EQDQ01  00002PRCP06
0186827840999992003102312004-07317-039300FM-12+040999999V0200501N001512200019N0200001N1+02791+02111101521ADDAA106000091GF103991011021008001021001KA1240N+02381MA1999999096871MD1999999+0061REMSYN076AAXX  23124 82784 32598 30503 10279 20211 39687 40152 81220 333 20238 58006;EQDQ01  00002PRCP06
0167827840999992003102318004-07317-039300FM-12+040999999V0200501N002112200019N0200001N1+03471+01691100941ADDAA106000091GF102991021011008001001001MA1999999096341MD1999999+0071REMSYN070AAXX  23184 82784 32598 20504 10347 20169 39634 40094 82100 333 58007;EQDQ01  00002PRCP06
0208827840999992003102400004-07317-039300FM-12+040999999V0209999C000012200019N0020001N1+02751+02261101311ADDAA106000091GA1001+999999999GF100991001001999999001001KA1240M+03641MA1999999096671MD1999999+0191REMSYN082AAXX  24004 82784 32995 00000 10275 20226 39667 40131 333 10364 29063 55103 58019;EQDQ01  00002PRCP06
0186827840999992003102412004-07317-039300FM-12+040999999V0200501N002110075019N0200001N1+02731+02071101611ADDAA106000091GF106991061021008001001001KA1240N+02461MA1999999096951MD1999999+0081REMSYN076AAXX  24124 82784 32598 60504 10273 20207 39695 40161 86200 333 20246 58008;EQDQ01  00002PRCP06
0167827840999992003102418004-07317-039300FM-12+040999999V0201401N003112200019N0200001N1+03581+01601101011ADDAA106000091GF103991031021008001001001MA1999999096411MD1999999+0071REMSYN070AAXX  24184 82784 32598 31406 10358 20160 39641 40101 83200 333 58007;EQDQ01  00002PRCP06
0202827840999992003102500004-07317-039300FM-12+040999999V0201801N003110075019N0020001N1+02801+01871101401ADDAY151061AY211061GF106991061011008001001001KA1240M+03961MA1999999096751MD1999999+0081MW1511REMSYN100AAXX  25004 82784 21595 61806 10280 20187 39675 40140 75151 86100 333 10396 29053 55097 58008 69931;
0162827840999992003102512004-07317-039300FM-12+040999999V0201801N003110120019N0200001N1+02701+01831101561ADDGF108991081081008001001001KA1240N+02261MA1999999096911MD1999999-0041REMSYN082AAXX  25124 82784 22598 81806 10270 20183 39691 40156 88800 333 20226 59004 69934;
0167827840999992003102518004-07317-039300FM-12+040999999V0201401N003110075019N0200001N1+03361+01561100931ADDAA106000091GF107991051021008001031001MA1999999096311MD1999999-0101REMSYN070AAXX  25184 82784 32598 71406 10336 20156 39631 40093 85230 333 59010;EQDQ01  00002PRCP06
0208827840999992003102600004-07317-039300FM-12+040999999V0201401N003112200019N0020001N1+02871+01621101141ADDAA106000091GA1001+999999999GF100991001001999999001001KA1240M+03531MA1999999096511MD1999999-0241REMSYN082AAXX  26004 82784 32995 01406 10287 20162 39651 40114 333 10353 29047 55080 59024;EQDQ01  00002PRCP06
0196827840999992003102612004-07317-039300FM-12+040999999V0201401N003612200019N0200001N1+02791+01601101301ADDAA106000091GA1001+999999999GF100991001001999999001001KA1240N+02181MA1999999096671MD1999999-0241REMSYN070AAXX  26124 82784 32998 01407 10279 20160 39667 40130 333 20218 59024;EQDQ01  00002PRCP06
0167827840999992003102618004-07317-039300FM-12+040999999V0201401N003612200019N0200001N1+03471+01231100741ADDAA106000091GF101991011011008001001001MA1999999096141MD1999999-0171REMSYN070AAXX  26184 82784 32598 11407 10347 20123 39614 40074 81100 333 59017;EQDQ01  00002PRCP06
0208827840999992003102700004-07317-039300FM-12+040999999V0201401N003112200019N0020001N1+02801+01431101041ADDAA106000091GA1001+999999999GF100991001001999999001001KA1240M+03581MA1999999096421MD1999999-0091REMSYN082AAXX  27004 82784 32995 01406 10280 20143 39642 40104 333 10358 29040 55112 59009;EQDQ01  00002PRCP06
0186827840999992003102712004-07317-039300FM-12+040999999V0200501N002612200019N0200001N1+02751+01721101231ADDAA106000091GF103991031021008001001001KA1240N+02051MA1999999096591MD1999999-0081REMSYN076AAXX  27124 82784 32598 30505 10275 20172 39659 40123 83200 333 20205 59008;EQDQ01  00002PRCP06
0167827840999992003102718004-07317-039300FM-12+040999999V0201801N002612200019N0200001N1+03401+01771100791ADDAA106000091GF103991031011008001001001MA1999999096191MD1999999+0051REMSYN070AAXX  27184 82784 32598 31805 10340 20177 39619 40079 83100 333 58005;EQDQ01  00002PRCP06
0208827840999992003102800004-07317-039300FM-12+040999999V0201801N002112200019N0020001N1+02951+01961101051ADDAA106000091GA1001+999999999GF100991001001999999001001KA1240M+03521MA1999999096431MD1999999+0011REMSYN082AAXX  28004 82784 32995 01804 10295 20196 39643 40105 333 10352 29050 55114 58001;EQDQ01  00002PRCP06
0186827840999992003102812004-07317-039300FM-12+040999999V0201401N002610450019N0200001N1+02771+01671101421ADDAA106000091GF105991031021008001041001KA1240N+02351MA1999999096781MD1999999+0191REMSYN076AAXX  28124 82784 32598 51405 10277 20167 39678 40142 83240 333 20235 58019;EQDQ01  00002PRCP06
0167827840999992003102818004-07317-039300FM-12+040999999V0201401N003612200019N0200001N1+03271+01561100971ADDAA106000091GF103991031021008001001001MA1999999096351MD1999999+0161REMSYN070AAXX  28184 82784 32598 31407 10327 20156 39635 40097 83200 333 58016;EQDQ01  00002PRCP06
0208827840999992003102900004-07317-039300FM-12+040999999V0200901N000512200019N0020001N1+02631+01641101201ADDAA106000091GA1001+999999999GF100991001001999999001001KA1240M+03431MA1999999096561MD1999999+0131REMSYN082AAXX  29004 82784 32995 00901 10263 20164 39656 40120 333 10343 29049 55082 58013;EQDQ01  00002PRCP06
0186827840999992003102912004-07317-039300FM-12+040999999V0201401N001510075019N0200001N1+02831+01831101431ADDAA106000091GF106991061021008001001001KA1240N+02341MA1999999096781MD1999999+0001REMSYN076AAXX  29124 82784 32598 61403 10283 20183 39678 40143 86200 333 20234 58000;EQDQ01  00002PRCP06
0167827840999992003102918004-07317-039300FM-12+040999999V0200901N003110075019N0200001N1+03411+01541100871ADDAA106000091GF107991071021008001001001MA1999999096271MD1999999+0081REMSYN070AAXX  29184 82784 32598 70906 10341 20154 39627 40087 87200 333 58008;EQDQ01  00002PRCP06
0198827840999992003103000004-07317-039300FM-12+040999999V0200501N001510120019N0020001N1+02971+02041101101ADDAA106000091GF105991051081008001001001KA1240M+03581MA1999999096481MD1999999+0081REMSYN088AAXX  30004 82784 32595 50503 10297 20204 39648 40110 85800 333 10358 29050 55081 58008;EQDQ01  00002PRCP06
0186827840999992003103012004-07317-039300FM-12+040999999V0201801N002110075019N0200001N1+02741+01921101351ADDAA106000091GF106991061021008001001001KA1240N+02431MA1999999096721MD1999999-0061REMSYN076AAXX  30124 82784 32598 61804 10274 20192 39672 40135 86200 333 20243 59006;EQDQ01  00002PRCP06
0167827840999992003103018004-07317-039300FM-12+040999999V0200901N003112200019N0200001N1+03391+01811100791ADDAA106000091GF102991021021008001001001MA1999999096191MD1999999-0081REMSYN070AAXX  30184 82784 32598 20906 10339 20181 39619 40079 82200 333 59008;EQDQ01  00002PRCP06
0198827840999992003103100004-07317-039300FM-12+040999999V0200501N001510120019N0020001N1+02721+01821101041ADDAA106000091GF105991051081008001001001KA1240M+03521MA1999999096411MD1999999+0071REMSYN088AAXX  31004 82784 32595 50503 10272 20182 39641 40104 85800 333 10352 29054 55076 58007;EQDQ01  00002PRCP06
0186827840999992003103112004-07317-039300FM-12+040999999V0201401N002111050019N0200001N1+02861+01811101231ADDAA106000091GF105991011011008001001051KA1240N+02191MA1999999096601MD1999999-0121REMSYN076AAXX  31124 82784 32598 51404 10286 20181 39660 40123 81105 333 20219 59012;EQDQ01  00002PRCP06
0167827840999992003103118004-07317-039300FM-12+040999999V0201801N002611050019N0200001N1+03571+01651100631ADDAA106000091GF108991021011008001001051MA1999999096041MD1999999-0151REMSYN070AAXX  31184 82784 32598 81805 10357 20165 39604 40063 82105 333 59015;EQDQ01  00002PRCP06
0198827840999992003110100004-07317-039300FM-12+040999999V0200501N002112200019N0020001N1+03021+01991100961ADDAA106000091GF104991041051008001001001KA1240M+03711MA1999999096351MD1999999-0061REMSYN088AAXX  01004 82784 32595 40504 10302 20199 39635 40096 84500 333 10371 29048 55102 59006;EQDQ01  00002PRCP06
0207827840999992003110112004-07317-039300FM-12+040999999V0200501N001010075019N0200001N1+02571+01991101301ADDAA124000791AY111061AY211061GF107991071041008001001001KA1240N+02301MA1999999096661MD1999999+0061MW1201REMSYN094AAXX  01124 82784 21598 70502 10257 20199 39666 40130 72011 87400 333 20230 58006 69974 10007;
0148827840999992003110118004-07317-039300FM-12+040999999V0200501N001510075019N0200001N1+03301+02051100821ADDAA106000021GF108991081051008001999999MA1999999096221MD1999999+0181REMSYN070AAXX  01184 82784 32598 80503 10330 20205 39622 40082 885// 333 58018;
0198827840999992003110200004-07317-039300FM-12+040999999V0201801N001010075019N0020001N1+02791+02271101111ADDAA106000091GF106991061041008001001001KA1240M+03421MA1999999096471MD1999999+0121REMSYN088AAXX  02004 82784 32595 61802 10279 20227 39647 40111 86400 333 10342 29066 55040 58012;EQDQ01  00002PRCP06
0186827840999992003110212004-07317-039300FM-12+040999999V0200501N001510075019N0020001N1+02501+02051101341ADDAA106000091GF108991081071008001999999KA1240N+02461MA1999999096691MD1999999+0031REMSYN076AAXX  02124 82784 32595 80503 10250 20205 39669 40134 887// 333 20246 58003;EQDQ01  00002PRCP06
0167827840999992003110218004-07317-039300FM-12+040999999V0200501N002112200019N0020001N1+03291+02291100751ADDAA106000091GF103991031021008001001001MA1999999096151MD1999999-0071REMSYN070AAXX  02184 82784 32595 30504 10329 20229 39615 40075 83200 333 59007;EQDQ01  00002PRCP06
0208827840999992003110300004-07317-039300FM-12+040999999V0209999C000012200019N0020001N1+02751+02401100981ADDAA106000091GA1001+999999999GF100991001001999999001001KA1240M+03411MA1999999096341MD1999999-0131REMSYN082AAXX  03004 82784 32995 00000 10275 20240 39634 40098 333 10341 29074 55060 59013;EQDQ01  00002PRCP06
0186827840999992003110312004-07317-039300FM-12+040999999V0200501N001510075019N0200001N1+02561+02061101281ADDAA106000091GF108991081041008001999999KA1240N+02441MA1999999096631MD1999999-0061REMSYN076AAXX  03124 82784 32598 80503 10256 20206 39663 40128 884// 333 20244 59006;EQDQ01  00002PRCP06
0167827840999992003110318004-07317-039300FM-12+040999999V0203201N001510075019N0200001N1+03351+02111100641ADDAA106000091GF105991051021008001001001MA1999999096051MD1999999-0101REMSYN070AAXX  03184 82784 32598 53203 10335 20211 39605 40064 85200 333 59010;EQDQ01  00002PRCP06
0208827840999992003110400004-07317-039300FM-12+040999999V0209999C000012200019N0020001N1+02801+02131100921ADDAA106000091GA1001+999999999GF100991001001999999001001KA1240M+03531MA1999999096291MD1999999-0051REMSYN082AAXX  04004 82784 32995 00000 10280 20213 39629 40092 333 10353 29064 55068 59005;EQDQ01  00002PRCP06
0186827840999992003110412004-07317-039300FM-12+040999999V0200501N002610075019N0200001N1+02691+02041101241ADDAA106000091GF107991071021008001001001KA1240N+02431MA1999999096601MD1999999-0031REMSYN076AAXX  04124 82784 32598 70505 10269 20204 39660 40124 87200 333 20243 59003;EQDQ01  00002PRCP06
0167827840999992003110418004-07317-039300FM-12+040999999V0200501N002110075019N0200001N1+03401+01681100811ADDAA106000091GF108991081041008001001001MA1999999096211MD1999999+0161REMSYN070AAXX  04184 82784 32598 80504 10340 20168 39621 40081 88400 333 58016;EQDQ01  00002PRCP06
0198827840999992003110500004-07317-039300FM-12+040999999V0201801N001510075019N0020001N1+02691+02221101281ADDAA106000091GF108991081071008001999999KA1240M+03541MA1999999096641MD1999999+0351REMSYN088AAXX  05004 82784 32595 81803 10269 20222 39664 40128 887// 333 10354 29064 55050 58035;EQDQ01  00002PRCP06
0186827840999992003110512004-07317-039300FM-12+040999999V0200901N001010075019N0200001N1+02701+02171101491ADDAA106000091GF105991051021008001001001KA1240N+02381MA1999999096841MD1999999+0241REMSYN076AAXX  05124 82784 32598 50902 10270 20217 39684 40149 85200 333 20238 58024;EQDQ01  00002PRCP06
0167827840999992003110518004-07317-039300FM-12+040999999V0201401N001510450019N0200001N1+03171+02161100951ADDAA106000091GF106991031021008001031001MA1999999096331MD1999999+0121REMSYN070AAXX  05184 82784 32598 61403 10317 20216 39633 40095 83230 333 58012;EQDQ01  00002PRCP06
0198827840999992003110600004-07317-039300FM-12+040999999V0201801N002112200019N0020001N1+02701+02061101311ADDAA106000091GF102991021041008001001001KA1240M+03361MA1999999096661MD1999999+0021REMSYN088AAXX  06004 82784 32595 21804 10270 20206 39666 40131 82400 333 10336 29066 55077 58002;EQDQ01  00002PRCP06
0186827840999992003110612004-07317-039300FM-12+040999999V0201401N002610120019N0200001N1+02791+02061101441ADDAA106000091GF107991071081008001001001KA1240N+02281MA1999999096791MD1999999-0051REMSYN076AAXX  06124 82784 32598 71405 10279 20206 39679 40144 87800 333 20228 59005;EQDQ01  00002PRCP06
0167827840999992003110618004-07317-039300FM-12+040999999V0201801N002610075019N0200001N1+03411+02041100811ADDAA106000091GF106991061021008001001001MA1999999096211MD1999999-0121REMSYN070AAXX  06184 82784 32598 61805 10341 20204 39621 40081 86200 333 59012;EQDQ01  00002PRCP06
0202827840999992003110700004-07317-039300FM-12+040999999V0203601N002110012019N0020001N1+02401+02331101381ADDAY121061AY221061GF108991081071001501999999KA1240M+03511MA1999999096721MD1999999+0061MW1951REMSYN100AAXX  07004 82784 21295 83604 10240 20233 39672 40138 79522 887// 333 10351 29075 55077 58006 60251;
0190827840999992003110712004-07317-039300FM-12+040999999V0200901N002110075019N0200001N1+02801+02181101241ADDAY191061AY261061GF106991061021008001001001KA1240N+02241MA1999999096591MD1999999-0201MW1211REMSYN088AAXX  07124 82784 21598 60904 10280 20218 39659 40124 72196 86200 333 20224 59020 60284;
0148827840999992003110718004-07317-039300FM-12+040999999V0201401N002612200019N0200001N1+03391+02111100701ADDAA106000021GF103991031021008001001001MA1999999096101MD1999999-0111REMSYN070AAXX  07184 82784 32598 31405 10339 20211 39610 40070 83200 333 59011;
0198827840999992003110800004-07317-039300FM-12+040999999V0201401N001010120019N0020001N1+02941+02191100951ADDAA106000091GF108991081081008001999999KA1240M+03501MA1999999096341MD1999999+0381REMSYN088AAXX  08004 82784 32595 81402 10294 20219 39634 40095 888// 333 10350 29061 55086 58038;EQDQ01  00002PRCP06
0190827840999992003110812004-07317-039300FM-12+040999999V0200501N002110075019N0200001N1+02621+02121101401ADDAY161061AY221061GF106991061021008001001001KA1240N+02221MA1999999096761MD1999999+0171MW1021REMSYN088AAXX  08124 82784 21598 60504 10262 20212 39676 40140 70262 86200 333 20222 58017 60064;
0167827840999992003110818004-07317-039300FM-12+040999999V0200501N001510075019N0200001N1+03281+02101100921ADDAA106000091GF107991051021008001031091MA1999999096301MD1999999+0201REMSYN070AAXX  08184 82784 32598 70503 10328 20210 39630 40092 85239 333 58020;EQDQ01  00002PRCP06
0208827840999992003110900004-07317-039300FM-12+040999999V02099999999992200019N0020001N1+02711+02391101111ADDAA106000091GA1001+999999999GF100991001001999999001001KA1240M+03411MA1999999096471MD1999999+0131REMSYN082AAXX  09004 82784 32995 0//// 10271 20239 39647 40111 333 10341 29072 55090 58013;EQDQ01  00002PRCP06
0186827840999992003110912004-07317-039300FM-12+040999999V0203601N001010075019N0200001N1+02651+02091101391ADDAA106000091GF105991051021008001001001KA1240N+02441MA1999999096741MD1999999-0021REMSYN076AAXX  09124 82784 32598 53602 10265 20209 39674 40139 85200 333 20244 59002;EQDQ01  00002PRCP06
0167827840999992003110918004-07317-039300FM-12+040999999V0201401N002112200019N0200001N1+03391+01721100831ADDAA106000091GF104991041021008001001001MA1999999096231MD1999999-0071REMSYN070AAXX  09184 82784 32598 41404 10339 20172 39623 40083 84200 333 59007;EQDQ01  00002PRCP06
0198827840999992003111000004-07317-039300FM-12+040999999V0200501N000512200019N0020001N1+02711+02031101141ADDAA106000091GF101991011001017501021001KA1240M+03511MA1999999096501MD1999999+0031REMSYN088AAXX  10004 82784 32795 10501 10271 20203 39650 40114 81020 333 10351 29060 55099 58003;EQDQ01  00002PRCP06
0186827840999992003111012004-07317-039300FM-12+040999999V0201401N001512200019N0020001N1+02811+01721101361ADDAA106000091GF103991031001017501021001KA1240N+02321MA1999999096721MD1999999-0021REMSYN076AAXX  10124 82784 32795 31403 10281 20172 39672 40136 83020 333 20232 59002;EQDQ01  00002PRCP06
0167827840999992003111018004-07317-039300FM-12+040999999V0200501N002112200019N0200001N1+03541+01521100731ADDAA106000091GF102991021021008001001051MA1999999096141MD1999999+0091REMSYN070AAXX  10184 82784 32598 20504 10354 20152 39614 40073 82205 333 58009;EQDQ01  00002PRCP06
0208827840999992003111100004-07317-039300FM-12+040999999V0203601N001512200019N0020001N1+02761+01801101031ADDAA106000091GA1001+999999999GF100991001001999999001001KA1240M+03651MA1999999096411MD1999999-0091REMSYN082AAXX  11004 82784 32995 03603 10276 20180 39641 40103 333 10365 29048 55112 59009;EQDQ01  00002PRCP06
0186827840999992003111112004-07317-039300FM-12+040999999V0201401N002112200019N0200001N1+02821+01771101331ADDAA106000091GF103991021011008001021001KA1240N+02441MA1999999096691MD1999999-0031REMSYN076AAXX  11124 82784 32598 31404 10282 20177 39669 40133 82120 333 20244 59003;EQDQ01  00002PRCP06
0167827840999992003111118004-07317-039300FM-12+040999999V0201401N004612200019N0200001N1+03511+01601100721ADDAA106000091GF103991011011008001021001MA1999999096131MD1999999-0011REMSYN070AAXX  11184 82784 32598 31409 10351 20160 39613 40072 81120 333 59001;EQDQ01  00002PRCP06
0198827840999992003111200004-07317-039300FM-12+040999999V0201801N003612200019N0020001N1+02961+01711101031ADDAA106000091GF102991021021008001001001KA1240M+03611MA1999999096421MD1999999+0011REMSYN088AAXX  12004 82784 32595 21807 10296 20171 39642 40103 82200 333 10361 29045 55103 58001;EQDQ01  00002PRCP06
0190827840999992003111212004-07317-039300FM-12+040999999V0201401N002110075019N0200001N1+02721+01901101411ADDAY111061AY211061GF106991061021008001001001KA1240N+02391MA1999999096771MD1999999+0081MW1201REMSYN088AAXX  12124 82784 21598 61404 10272 20190 39677 40141 72011 86200 333 20239 58008 69934;
0148827840999992003111218004-07317-039300FM-12+040999999V0200501N001510075019N0200001N1+03371+01951100891ADDAA106000021GF106991061021008001001001MA1999999096291MD1999999+0161REMSYN070AAXX  12184 82784 32598 60503 10337 20195 39629 40089 86200 333 58016;
0198827840999992003111300004-07317-039300FM-12+040999999V0201801N002610075019N0020001N1+02971+01951101201ADDAA106000091GF105991051071008001001001KA1240M+03501MA1999999096571MD1999999+0151REMSYN088AAXX  13004 82784 32595 51805 10297 20195 39657 40120 85700 333 10350 29053 55083 58015;EQDQ01  00002PRCP06
0186827840999992003111312004-07317-039300FM-12+040999999V0201401N002112200019N0200001N1+02791+02151101451ADDAA106000091GF103991031021008001001001KA1240N+02461MA1999999096821MD1999999+0051REMSYN076AAXX  13124 82784 32598 31404 10279 20215 39682 40145 83200 333 20246 58005;EQDQ01  00002PRCP06
0167827840999992003111318004-07317-039300FM-12+040999999V0200501N002112200019N0200001N1+03461+02021100961ADDAA106000091GF103991031021008001001001MA1999999096361MD1999999+0071REMSYN070AAXX  13184 82784 32598 30504 10346 20202 39636 40096 83200 333 58007;EQDQ01  00002PRCP06
0208827840999992003111400004-07317-039300FM-12+040999999V0201801N000512200019N0020001N1+02861+02141101181ADDAA106000091GA1001+999999999GF100991001001999999001001KA1240M+03571MA1999999096551MD1999999-0021REMSYN082AAXX  14004 82784 32995 01801 10286 20214 39655 40118 333 10357 29060 55090 59002;EQDQ01  00002PRCP06
0186827840999992003111412004-07317-039300FM-12+040999999V0200501N002612200019N0200001N1+02731+01951101431ADDAA106000091GF102991021021008001001001KA1240N+02431MA1999999096791MD1999999-0031REMSYN076AAXX  14124 82784 32598 20505 10273 20195 39679 40143 82200 333 20243 59003;EQDQ01  00002PRCP06
0177827840999992003111418004-07317-039300FM-12+040999999V0201401N001512200019N0200001N1+03561+01311100831ADDAA106000091GA1001+999999999GF100991001001999999001001MA1999999096241MD1999999-0121REMSYN064AAXX  14184 82784 32998 01403 10356 20131 39624 40083 333 59012;EQDQ01  00002PRCP06
0208827840999992003111500004-07317-039300FM-12+040999999V0201801N001012200019N0020001N1+02731+02051101151ADDAA106000091GA1001+999999999GF100991001001999999001001KA1240M+03661MA1999999096521MD1999999-0031REMSYN082AAXX  15004 82784 32995 01802 10273 20205 39652 40115 333 10366 29055 55094 59003;EQDQ01  00002PRCP06
0140827840999992003111512004-07317-039300FM-12+040999999V0201401N001512200019N0200001N1+02831+01891999999ADDAA106000091GF101991999999008001999999REMSYN072AAXX  15124 82784 32598 11403 10283 20189 20219 39671 40135 59008 81100;EQDQ01  00002PRCP06
0167827840999992003111518004-07317-039300FM-12+040999999V0201401N003112200019N0200001N1+03651+01381100831ADDAA106000091GF104991041021008001001001MA1999999096231MD1999999-0011REMSYN070AAXX  15184 82784 32598 41406 10365 20138 39623 40083 84200 333 59001;EQDQ01  00002PRCP06
0208827840999992003111600004-07317-039300FM-12+040999999V0201401N002112200019N0010001N1+03041+01751101181ADDAA106000091GA1001+999999999GF100991001001999999001001KA1240M+03761MA1999999096531MD1999999+0011REMSYN082AAXX  16004 82784 32594 01404 10304 20175 39653 40118 333 10376 29044 55115 58001;EQDQ01  00002PRCP06
0186827840999992003111612004-07317-039300FM-12+040999999V0201401N003110075019N0200001N1+02781+01731101411ADDAA106000091GF106991061021008001001001KA1240N+02391MA1999999096781MD1999999-0071REMSYN076AAXX  16124 82784 32598 61406 10278 20173 39678 40141 86200 333 20239 59007;EQDQ01  00002PRCP06
0167827840999992003111618004-07317-039300FM-12+040999999V0201401N003110075019N0200001N1+03491+01881100821ADDAA106000091GF106991061021008001001001MA1999999096221MD1999999-0011REMSYN070AAXX  16184 82784 32598 61406 10349 20188 39622 40082 86200 333 59001;EQDQ01  00002PRCP06
0221827840999992003111700004-07317-039300FM-12+040999999V0201401N001010075019N0020001N1+02931+02271101031ADDAY151061AY221061GF107991999021008001001001KA1240M+03611MA1999999096421MD1999999-0111MW1021REMSYN100AAXX  17004 82784 21595 71402 10293 20227 39642 40103 70252 86200 333 10361 29057 55092 59011 60011;EQDQ01+000062SCOTLC
0190827840999992003111712004-07317-039300FM-12+040999999V0200901N002112200019N0200001N1+02911+01921101321ADDAY161061AY221061GF104991031021008001021001KA1240N+02501MA1999999096691MD1999999-0091MW1011REMSYN088AAXX  17124 82784 21598 40904 10291 20192 39669 40132 70162 83220 333 20250 59009 60014;
0167827840999992003111718004-07317-039300FM-12+040999999V0201401N003112200019N0200001N1+03411+01721100801ADDAA106000091GF103991021021008001021001MA1999999096201MD1999999-0021REMSYN070AAXX  17184 82784 32598 31406 10341 20172 39620 40080 82220 333 59002;EQDQ01  00002PRCP06
0198827840999992003111800004-07317-039300FM-12+040999999V0201401N003112200019N0020001N1+02931+01811101061ADDAA106000091GF102991021041008001001001KA1240M+03571MA1999999096451MD1999999+0031REMSYN088AAXX  18004 82784 32595 21406 10293 20181 39645 40106 82400 333 10357 29050 55101 58003;EQDQ01  00002PRCP06
0186827840999992003111812004-07317-039300FM-12+040999999V0201401N003112200019N0200001N1+02861+01721101331ADDAA106000091GF102991021011008001001001KA1240N+02421MA1999999096701MD1999999+0011REMSYN076AAXX  18124 82784 32598 21406 10286 20172 39670 40133 82100 333 20242 58001;EQDQ01  00002PRCP06
0167827840999992003111818004-07317-039300FM-12+040999999V0201401N002112200019N0200001N1+03481+01611100721ADDAA106000091GF101991011011008001001001MA1999999096131MD1999999-0071REMSYN070AAXX  18184 82784 32598 11404 10348 20161 39613 40072 81100 333 59007;EQDQ01  00002PRCP06
0208827840999992003111900004-07317-039300FM-12+040999999V0201801N002612200019N0020001N1+02791+02061100951ADDAA106000091GA1001+999999999GF100991001001999999001001KA1240M+03591MA1999999096331MD1999999-0121REMSYN082AAXX  19004 82784 32995 01805 10279 20206 39633 40095 333 10359 29053 55113 59012;EQDQ01  00002PRCP06
0186827840999992003111912004-07317-039300FM-12+040999999V0201401N003112200019N0200001N1+02841+01851101281ADDAA106000091GF101991011011008001001001KA1240N+02321MA1999999096651MD1999999-0051REMSYN076AAXX  19124 82784 32598 11406 10284 20185 39665 40128 81100 333 20232 59005;EQDQ01  00002PRCP06
0167827840999992003111918004-07317-039300FM-12+040999999V0200901N003612200019N0200001N1+03511+01451100671ADDAA106000091GF102991021011008001021001MA1999999096081MD1999999-0051REMSYN070AAXX  19184 82784 32598 20907 10351 20145 39608 40067 82120 333 59005;EQDQ01  00002PRCP06
0208827840999992003112000004-07317-039300FM-12+040999999V0209999C000012200019N0020001N1+02821+01941100931ADDAA106000091GA1001+999999999GF100991001001999999001001KA1240M+03621MA1999999096321MD1999999-0011REMSYN082AAXX  20004 82784 32995 00000 10282 20194 39632 40093 333 10362 29050 55116 59001;EQDQ01  00002PRCP06
0186827840999992003112012004-07317-039300FM-12+040999999V0200901N002612200019N0200001N1+02871+01581101331ADDAA106000091GF103991031001008001021001KA1240N+02461MA1999999096701MD1999999+0051REMSYN076AAXX  20124 82784 32598 30905 10287 20158 39670 40133 83020 333 20246 58005;EQDQ01  00002PRCP06
0167827840999992003112018004-07317-039300FM-12+040999999V0200501N003112200019N0200001N1+03491+01471100821ADDAA106000091GF103991031021008001001001MA1999999096231MD1999999+0151REMSYN070AAXX  20184 82784 32598 30506 10349 20147 39623 40082 83200 333 58015;EQDQ01  00002PRCP06
0198827840999992003112100004-07317-039300FM-12+040999999V0203601N000512200019N0020001N1+02831+02311101121ADDAA106000091GF103991031041008001001001KA1240M+03631MA1999999096501MD1999999+0181REMSYN088AAXX  21004 82784 32595 33601 10283 20231 39650 40112 83400 333 10363 29056 55112 58018;EQDQ01  00002PRCP06
0186827840999992003112112004-07317-039300FM-12+040999999V0200501N002610075019N0200001N1+02531+02001101391ADDAA106000091GF107991071021008001001001KA1240N+02531MA1999999096751MD1999999+0051REMSYN076AAXX  21124 82784 32598 70505 10253 20200 39675 40139 87200 333 20253 58005;EQDQ01  00002PRCP06
0167827840999992003112118004-07317-039300FM-12+040999999V0200501N002112200019N0200001N1+03501+01771100761ADDAA106000091GF104991041021008001001001MA1999999096161MD1999999-0071REMSYN070AAXX  21184 82784 32598 40504 10350 20177 39616 40076 84200 333 59007;EQDQ01  00002PRCP06
0208827840999992003112200004-07317-039300FM-12+040999999V0201801N003612200019N0020001N1+03021+01691101031ADDAA106000091GA1001+999999999GF100991001001999999001001KA1240M+03651MA1999999096421MD1999999-0081REMSYN082AAXX  22004 82784 32995 01807 10302 20169 39642 40103 333 10365 29047 55085 59008;EQDQ01  00002PRCP06
0186827840999992003112212004-07317-039300FM-12+040999999V0201401N003112200019N0200001N1+02901+02021101251ADDAA106000091GF103991031021008001001001KA1240N+02461MA1999999096641MD1999999+0111REMSYN076AAXX  22124 82784 32598 31406 10290 20202 39664 40125 83200 333 20246 58011;EQDQ01  00002PRCP06
0167827840999992003112218004-07317-039300FM-12+040999999V0201801N002610075019N0200001N1+03411+02111100711ADDAA106000091GF105991051021008001001001MA1999999096121MD1999999-0041REMSYN070AAXX  22184 82784 32598 51805 10341 20211 39612 40071 85200 333 59004;EQDQ01  00002PRCP06
0208827840999992003112300004-07317-039300FM-12+040999999V0200901N002612200019N0020001N1+02981+01891100971ADDAA106000091GA1001+999999999GF100991001001999999001001KA1240M+03571MA1999999096361MD1999999+0241REMSYN082AAXX  23004 82784 32995 00905 10298 20189 39636 40097 333 10357 29052 55112 58024;EQDQ01  00002PRCP06
0186827840999992003112312004-07317-039300FM-12+040999999V0201401N002612200019N0200001N1+02911+01671101281ADDAA106000091GF101991011011008001001001KA1240N+02001MA1999999096661MD1999999+0021REMSYN076AAXX  23124 82784 32598 11405 10291 20167 39666 40128 81100 333 20200 58002;EQDQ01  00002PRCP06
0167827840999992003112318004-07317-039300FM-12+040999999V0201801N003110450019N0200001N1+03421+01651100711ADDAA106000091GF105991041021008001021001MA1999999096111MD1999999-0011REMSYN070AAXX  23184 82784 32598 51806 10342 20165 39611 40071 84220 333 59001;EQDQ01  00002PRCP06
0198827840999992003112400004-07317-039300FM-12+040999999V0201801N004612200019N0020001N1+02991+01681100991ADDAA106000091GF102991021041008001001001KA1240M+03551MA1999999096381MD1999999+0021REMSYN088AAXX  24004 82784 32595 21809 10299 20168 39638 40099 82400 333 10355 29043 55109 58002;EQDQ01  00002PRCP06
0186827840999992003112412004-07317-039300FM-12+040999999V0201401N003112200019N0200001N1+02891+01731101231ADDAA106000091GF103991031021008001001001KA1240N+02431MA1999999096611MD1999999-0051REMSYN076AAXX  24124 82784 32598 31406 10289 20173 39661 40123 83200 333 20243 59005;EQDQ01  00002PRCP06
0167827840999992003112418004-07317-039300FM-12+040999999V0201801N002110075019N0200001N1+03461+01901100871ADDAA106000091GF105991051021008001001001MA1999999096261MD1999999+0151REMSYN070AAXX  24184 82784 32598 51804 10346 20190 39626 40087 85200 333 58015;EQDQ01  00002PRCP06
0198827840999992003112500004-07317-039300FM-12+040999999V0201801N002110075019N0020001N1+03101+01841100971ADDAA106000091GF108991081041008001999999KA1240M+03581MA1999999096371MD1999999+0011REMSYN088AAXX  25004 82784 32595 81804 10310 20184 39637 40097 884// 333 10358 29046 55107 58001;EQDQ01  00002PRCP06
0186827840999992003112512004-07317-039300FM-12+040999999V0200501N003112200019N0200001N1+02861+01781101371ADDAA106000091GF103991021021008001021001KA1240N+02431MA1999999096751MD1999999+0141REMSYN076AAXX  25124 82784 32598 30506 10286 20178 39675 40137 82220 333 20243 58014;EQDQ01  00002PRCP06
0167827840999992003112518004-07317-039300FM-12+040999999V0200501N001512200019N0200001N1+03551+01481100831ADDAA106000091GF104991031021008001021001MA1999999096241MD1999999-0021REMSYN070AAXX  25184 82784 32598 40503 10355 20148 39624 40083 83220 333 59002;EQDQ01  00002PRCP06
0208827840999992003112600004-07317-039300FM-12+040999999V0201801N000512200019N0020001N1+02841+02071101131ADDAA106000091GA1001+999999999GF100991001001999999001001KA1240M+03651MA1999999096511MD1999999-0141REMSYN082AAXX  26004 82784 32995 01801 10284 20207 39651 40113 333 10365 29052 55112 59014;EQDQ01  00002PRCP06
0190827840999992003112612004-07317-039300FM-12+040999999V0200501N002612200019N0200001N1+02801+01871101451ADDAY101061AY201061GF104991031021008001021001KA1240N+02431MA1999999096811MD1999999+0061MW1201REMSYN088AAXX  26124 82784 21598 40505 10280 20187 39681 40145 72000 83220 333 20243 58006 69994;
0148827840999992003112618004-07317-039300FM-12+040999999V0200501N003110075019N0200001N1+03521+01651100921ADDAA106000021GF105991051011008001001001MA1999999096321MD1999999+0081REMSYN070AAXX  26184 82784 32598 50506 10352 20165 39632 40092 85100 333 58008;
0186827840999992003112712004-07317-039300FM-12+040999999V0201401N003110075019N0200001N1+02801+01901101331ADDAA106000091GF105991051021008001001001KA1240N+02441MA1999999096701MD1999999-0111REMSYN076AAXX  27124 82784 32598 51406 10280 20190 39670 40133 85200 333 20244 59011;EQDQ01  00002PRCP06
0167827840999992003112718004-07317-039300FM-12+040999999V0200501N003112200019N0200001N1+03421+01611100711ADDAA106000091GF103991031021008001001001MA1999999096121MD1999999-0201REMSYN070AAXX  27184 82784 32598 30506 10342 20161 39612 40071 83200 333 59020;EQDQ01  00002PRCP06
0198827840999992003112800004-07317-039300FM-12+040999999V0201801N000512200019N0020001N1+02861+02031100931ADDAA106000091GF104991041041008001001001KA1240M+03571MA1999999096321MD1999999-0201REMSYN088AAXX  28004 82784 32595 41801 10286 20203 39632 40093 84400 333 10357 29054 55094 59020;EQDQ01  00002PRCP06
0186827840999992003112812004-07317-039300FM-12+040999999V0200501N003110075019N0200001N1+02651+01931101231ADDAA106000091GF106991061021008001001001KA1240N+02391MA1999999096591MD1999999-0111REMSYN076AAXX  28124 82784 32598 60506 10265 20193 39659 40123 86200 333 20239 59011;EQDQ01  00002PRCP06
0167827840999992003112818004-07317-039300FM-12+040999999V0200501N001510075019N0200001N1+03371+01791100611ADDAA106000091GF106991061021008001001001MA1999999096021MD1999999-0101REMSYN070AAXX  28184 82784 32598 60503 10337 20179 39602 40061 86200 333 59010;EQDQ01  00002PRCP06
0208827840999992003112900004-07317-039300FM-12+040999999V0200901N000512200019N0020001N1+02741+02211100821ADDAA106000091GA1001+999999999GF100991001001999999001001KA1240M+03461MA1999999096201MD1999999-0121REMSYN082AAXX  29004 82784 32995 00901 10274 20221 39620 40082 333 10346 29062 55085 59012;EQDQ01  00002PRCP06
0186827840999992003112912004-07317-039300FM-12+040999999V0200501N004110075019N0200001N1+02811+01841101161ADDAA106000091GF105991051021008001001001KA1240N+02401MA1999999096531MD1999999-0061REMSYN076AAXX  29124 82784 32598 50508 10281 20184 39653 40116 85200 333 20240 59006;EQDQ01  00002PRCP06
0167827840999992003112918004-07317-039300FM-12+040999999V0200501N001012200019N0200001N1+03401+01891100621ADDAA106000091GF103991031021008001001001MA1999999096031MD1999999+0011REMSYN070AAXX  29184 82784 32598 30502 10340 20189 39603 40062 83200 333 58001;EQDQ01  00002PRCP06
0198827840999992003113000004-07317-039300FM-12+040999999V0201401N001010075019N0020001N1+03001+02031100911ADDAA106000091GF108991081041008001999999KA1240M+03561MA1999999096301MD1999999+0101REMSYN088AAXX  30004 82784 32595 81402 10300 20203 39630 40091 884// 333 10356 29052 55092 58010;EQDQ01  00002PRCP06
0190827840999992003113012004-07317-039300FM-12+040999999V0200501N002112200019N0200001N1+02801+01921101211ADDAY151061AY211061GF102991021011008001001001KA1240N+02321MA1999999096591MD1999999+0061MW1021REMSYN088AAXX  30124 82784 21598 20504 10280 20192 39659 40121 70251 82100 333 20232 58006 69924;
0167827840999992003113018004-07317-039300FM-12+040999999V0201401N001512200019N0200001N1+03481+01961100691ADDAA106000091GF103991031011008001001001MA1999999096101MD1999999+0071REMSYN070AAXX  30184 82784 32598 31403 10348 20196 39610 40069 83100 333 58007;EQDQ01  00002PRCP06
0214827840999992003120100004-07317-039300FM-12+040999999V0201801N001019999999N0020001N1+02801+02081100961ADDAA106000091GF108991999021008001001001KA1240M+03601MA1999999096341MD1999999+0041REMSYN088AAXX  01004 82784 32595 81802 10280 20208 39634 40096 84200 333 10360 29058 55105 58004;EQDQ01+000042SCOTLCQ02  00002PRCP06
0186827840999992003120112004-07317-039300FM-12+040999999V0200501N002110075019N0200001N1+02811+01901101301ADDAA106000091GF105991051021008001021001KA1240N+02501MA1999999096661MD1999999+0071REMSYN076AAXX  01124 82784 32598 50504 10281 20190 39666 40130 85220 333 20250 58007;EQDQ01  00002PRCP06
0167827840999992003120118004-07317-039300FM-12+040999999V0203601N002612200019N0200001N1+03491+01841100761ADDAA106000091GF104991031021008001001091MA1999999096171MD1999999+0071REMSYN070AAXX  01184 82784 32598 43605 10349 20184 39617 40076 83209 333 58007;EQDQ01  00002PRCP06
0198827840999992003120200004-07317-039300FM-12+040999999V0209999C000010075019N0020001N1+03071+02431100851ADDAA106000091GF108991081041008001999999KA1240M+03631MA1999999096251MD1999999-0091REMSYN088AAXX  02004 82784 32595 80000 10307 20243 39625 40085 884// 333 10363 29058 55101 59009;EQDQ01  00002PRCP06
0186827840999992003120212004-07317-039300FM-12+040999999V0200901N003110075019N0200001N1+02761+02041101221ADDAA106000091GF106991061041008001001001KA1240N+02551MA1999999096601MD1999999-0061REMSYN076AAXX  02124 82784 32598 60906 10276 20204 39660 40122 86400 333 20255 59006;EQDQ01  00002PRCP06
0167827840999992003120218004-07317-039300FM-12+040999999V0200501N002612200019N0200001N1+03431+01871100691ADDAA106000091GF103991021021008001021001MA1999999096101MD1999999-0071REMSYN070AAXX  02184 82784 32598 30505 10343 20187 39610 40069 82220 333 59007;EQDQ01  00002PRCP06
0208827840999992003120300004-07317-039300FM-12+040999999V0203601N000512200019N0020001N1+02921+02141100901ADDAA106000091GA1001+999999999GF100991001001999999001001KA1240M+03531MA1999999096291MD1999999-0061REMSYN082AAXX  03004 82784 32995 03601 10292 20214 39629 40090 333 10353 29058 55089 59006;EQDQ01  00002PRCP06
0186827840999992003120312004-07317-039300FM-12+040999999V0200501N002610075019N0200001N1+02711+02051101231ADDAA106000091GF107991071021008001001001KA1240N+02491MA1999999096601MD1999999+0001REMSYN076AAXX  03124 82784 32598 70505 10271 20205 39660 40123 87200 333 20249 58000;EQDQ01  00002PRCP06
0167827840999992003120318004-07317-039300FM-12+040999999V0203601N002112200019N0200001N1+03541+01891100621ADDAA106000091GF104991041021008001001001MA1999999096041MD1999999+0061REMSYN070AAXX  03184 82784 32598 43604 10354 20189 39604 40062 84200 333 58006;EQDQ01  00002PRCP06
0198827840999992003120400004-07317-039300FM-12+040999999V0201801N001012200019N0020001N1+03031+02071100861ADDAA106000091GF101991011041008001001001KA1240M+03641MA1999999096251MD1999999-0041REMSYN088AAXX  04004 82784 32595 11802 10303 20207 39625 40086 81400 333 10364 29055 55088 59004;EQDQ01  00002PRCP06
0186827840999992003120412004-07317-039300FM-12+040999999V0200501N002612200019N0200001N1+02781+02091101231ADDAA106000091GF102991021021008001001001KA1240N+02351MA1999999096611MD1999999+0011REMSYN076AAXX  04124 82784 32598 20505 10278 20209 39661 40123 82200 333 20235 58001;EQDQ01  00002PRCP06
0167827840999992003120418004-07317-039300FM-12+040999999V0200501N002112200019N0200001N1+03591+01021100651ADDAA106000091GF103991031021008001001001MA1999999096071MD1999999+0031REMSYN070AAXX  04184 82784 32598 30504 10359 20102 39607 40065 83200 333 58003;EQDQ01  00002PRCP06
0198827840999992003120500004-07317-039300FM-12+040999999V0202701N001510120019N0020001N1+03181+02281100891ADDAA106000091GF107991071081008001001001KA1240M+03751MA1999999096291MD1999999+0041REMSYN088AAXX  05004 82784 32595 72703 10318 20228 39629 40089 87800 333 10375 29055 55106 58004;EQDQ01  00002PRCP06
0186827840999992003120512004-07317-039300FM-12+040999999V0200501N002110075019N0200001N1+02701+02011101271ADDAA106000091GF107991071041008001001001KA1240N+02551MA1999999096651MD1999999+0041REMSYN076AAXX  05124 82784 32598 70504 10270 20201 39665 40127 87400 333 20255 58004;EQDQ01  00002PRCP06
0167827840999992003120518004-07317-039300FM-12+040999999V0203601N003112200019N0200001N1+03311+01851100781ADDAA106000091GF104991041021008001001001MA1999999096171MD1999999+0101REMSYN070AAXX  05184 82784 32598 43606 10331 20185 39617 40078 84200 333 58010;EQDQ01  00002PRCP06
0208827840999992003120600004-07317-039300FM-12+040999999V0209999C000012200019N0020001N1+02831+02241101021ADDAA106000091GA1001+999999999GF100991001001999999001001KA1240M+03491MA1999999096391MD1999999+0101REMSYN082AAXX  06004 82784 32995 00000 10283 20224 39639 40102 333 10349 29062 55072 58010;EQDQ01  00002PRCP06
0186827840999992003120612004-07317-039300FM-12+040999999V0200901N003110075019N0200001N1+02761+01941101371ADDAA106000091GF106991061021008001001001KA1240N+02471MA1999999096731MD1999999+0081REMSYN076AAXX  06124 82784 32598 60906 10276 20194 39673 40137 86200 333 20247 58008;EQDQ01  00002PRCP06
0167827840999992003120618004-07317-039300FM-12+040999999V0201401N001510075019N0200001N1+03501+02051100771ADDAA106000091GF105991051021008001001001MA1999999096181MD1999999+0011REMSYN070AAXX  06184 82784 32598 51403 10350 20205 39618 40077 85200 333 58001;EQDQ01  00002PRCP06
0208827840999992003120700004-07317-039300FM-12+040999999V0209999C000012200019N0020001N1+02881+02031100951ADDAA106000091GA1001+999999999GF100991001001999999001001KA1240M+03651MA1999999096331MD1999999-0061REMSYN082AAXX  07004 82784 32995 00000 10288 20203 39633 40095 333 10365 29056 55093 59006;EQDQ01  00002PRCP06
0186827840999992003120712004-07317-039300FM-12+040999999V0200501N003110075019N0200001N1+02681+01921101431ADDAA106000091GF107991071041008001001001KA1240N+02371MA1999999096791MD1999999+0061REMSYN076AAXX  07124 82784 32598 70506 10268 20192 39679 40143 87400 333 20237 58006;EQDQ01  00002PRCP06
0167827840999992003120718004-07317-039300FM-12+040999999V0203601N002612200019N0200001N1+03491+01661100851ADDAA106000091GF104991041021008001001001MA1999999096251MD1999999+0071REMSYN070AAXX  07184 82784 32598 43605 10349 20166 39625 40085 84200 333 58007;EQDQ01  00002PRCP06
0208827840999992003120800004-07317-039300FM-12+040999999V0209999C000012200019N0020001N1+02801+02081101101ADDAA106000091GA1001+999999999GF100991001001999999001001KA1240M+03621MA1999999096471MD1999999+0141REMSYN082AAXX  08004 82784 32995 00000 10280 20208 39647 40110 333 10362 29057 55086 58014;EQDQ01  00002PRCP06
0186827840999992003120812004-07317-039300FM-12+040999999V0200501N001519999999N0200001N1+02921+02121101391ADDAA106000091GF105991999021008001001001KA1240N+02301MA1999999096751MD1999999-0041REMSYN076AAXX  08124 82784 32598 50503 10292 20212 39675 40139 83200 333 20230 59004;EQDQ01  00002PRCP06
0167827840999992003120818004-07317-039300FM-12+040999999V0200501N002119999999N0200001N1+03611+01941100851ADDAA106000091GF105991999021008001001001MA1999999096251MD1999999+0001REMSYN070AAXX  08184 82784 32598 50504 10361 20194 39625 40085 83200 333 58000;EQDQ01  00002PRCP06
0198827840999992003120900004-07317-039300FM-12+040999999V0201801N003119999999N0200001N1+03191+01781101121ADDAA106000091GF105991999041008001001001KA1240M+03741MA1999999096521MD1999999+0051REMSYN088AAXX  09004 82784 32598 51806 10319 20178 39652 40112 83400 333 10374 29046 55099 58005;EQDQ01  00002PRCP06
0196827840999992003120912004-07317-039300FM-12+040999999V0200501N001512200019N0200001N1+02811+01831101441ADDAA106000091GA1001+999999999GF100991001001999999001001KA1240N+02241MA1999999096821MD1999999+0071REMSYN070AAXX  09124 82784 32998 00503 10281 20183 39682 40144 333 20224 58007;EQDQ01  00002PRCP06
0167827840999992003120918004-07317-039300FM-12+040999999V0201801N001012200019N0200001N1+03601+01861100951ADDAA106000091GF102991021011008001001001MA1999999096351MD1999999+0101REMSYN070AAXX  09184 82784 32598 21802 10360 20186 39635 40095 82100 333 58010;EQDQ01  00002PRCP06
0198827840999992003121000004-07317-039300FM-12+040999999V0200901N001012200019N0020001N1+03131+02211101151ADDAA106000091GF102991021001017501061001KA1240M+03761MA1999999096541MD1999999+0021REMSYN088AAXX  10004 82784 32795 20902 10313 20221 39654 40115 82060 333 10376 29052 55114 58002;EQDQ01  00002PRCP06
0186827840999992003121012004-07317-039300FM-12+040999999V0200501N001510075019N0200001N1+02731+02051101431ADDAA106000091GF105991051021008001001001KA1240N+02411MA1999999096801MD1999999-0021REMSYN076AAXX  10124 82784 32598 50503 10273 20205 39680 40143 85200 333 20241 59002;EQDQ01  00002PRCP06
0167827840999992003121018004-07317-039300FM-12+040999999V0201401N002612200019N0200001N1+03541+01571100871ADDAA106000091GF102991021021008001001001MA1999999096281MD1999999-0071REMSYN070AAXX  10184 82784 32598 21405 10354 20157 39628 40087 82200 333 59007;EQDQ01  00002PRCP06
0214827840999992003121100004-07317-039300FM-12+040999999V0201801N001012200019N0020001N1+02921+01951101191ADDAA106000091GF101991999031017501001001KA1240M+03681MA1999999096561MD1999999+0021REMSYN088AAXX  11004 82784 32795 11802 10292 20195 39656 40119 82300 333 10368 29052 55093 58002;EQDQ01+000022SCOTLCQ02  00002PRCP06
0186827840999992003121112004-07317-039300FM-12+040999999V0200501N001510075019N0200001N1+02771+02111101541ADDAA106000091GF107991071021008001001001KA1240N+02391MA1999999096901MD1999999+0101REMSYN076AAXX  11124 82784 32598 70503 10277 20211 39690 40154 87200 333 20239 58010;EQDQ01  00002PRCP06
0167827840999992003121118004-07317-039300FM-12+040999999V0201401N002610075019N0200001N1+03481+01791100911ADDAA106000091GF107991071021008001001001MA1999999096301MD1999999+0021REMSYN070AAXX  11184 82784 32598 71405 10348 20179 39630 40091 87200 333 58002;EQDQ01  00002PRCP06
0214827840999992003121200004-07317-039300FM-12+040999999V0201401N002110075019N0040001N1+03151+01751101071ADDAA106000091GF106991999021008001001001KA1240M+03641MA1999999096461MD1999999-0101REMSYN088AAXX  12004 82784 32596 61404 10315 20175 39646 40107 85200 333 10364 29048 55087 59010;EQDQ01+000052SCOTLCQ02  00002PRCP06
0186827840999992003121212004-07317-039300FM-12+040999999V0200501N002110450019N0200001N1+02771+01881101391ADDAA106000091GF106991021021008001021001KA1240N+02291MA1999999096761MD1999999-0141REMSYN076AAXX  12124 82784 32598 60504 10277 20188 39676 40139 82220 333 20229 59014;EQDQ01  00002PRCP06
0167827840999992003121218004-07317-039300FM-12+040999999V0201401N003110450019N0200001N1+03311+01521101001ADDAA106000091GF106991041021008001021001MA1999999096381MD1999999+0081REMSYN070AAXX  12184 82784 32598 61406 10331 20152 39638 40100 84220 333 58008;EQDQ01  00002PRCP06
0198827840999992003121400004-07317-039300FM-12+040999999V0201401N002110075019N0020001N1+02991+01941101011ADDAA106000091GF108991081071008001999999KA1240M+03591MA1999999096401MD1999999-0121REMSYN088AAXX  14004 82784 32595 81404 10299 20194 39640 40101 887// 333 10359 29048 55098 59012;EQDQ01  00002PRCP06
0190827840999992003121412004-07317-039300FM-12+040999999V0200501N001010075019N0200001N1+02651+02161101431ADDAY121061AY221061GF107991071041008001001001KA1240N+02371MA1999999096791MD1999999+0111MW1211REMSYN088AAXX  14124 82784 21598 70502 10265 20216 39679 40143 72122 87400 333 20237 58011 60024;
0148827840999992003121418004-07317-039300FM-12+040999999V0202701N001010450019N0200001N1+03451+02141100861ADDAA106000021GF105991041021008001021001MA1999999096261MD1999999+0111REMSYN070AAXX  14184 82784 32598 52702 10345 20214 39626 40086 84220 333 58011;
0202827840999992003121500004-07317-039300FM-12+040999999V0202701N002612200019N0020001N1+02461+02051101161ADDAY121061AY221061GF102991021001017501041001KA1240M+03591MA1999999096511MD1999999+0111MW1921REMSYN100AAXX  15004 82784 21795 22705 10246 20205 39651 40116 79222 82040 333 10359 29070 55077 58011 60061;
0190827840999992003121512004-07317-039300FM-12+040999999V0202301N001010075019N0200001N1+02281+02051101591ADDAY191061AY261061GF108991081071008001999999KA1240N+02201MA1999999096901MD1999999+0111MW1021REMSYN088AAXX  15124 82784 21598 82302 10228 20205 39690 40159 70296 887// 333 20220 58011 60304;
0183827840999992003121518004-07317-039300FM-12+040999999V0203201N000519999999N0200001N1+03121+02361100921ADDAA106000091GF107991999071008001001001MA1999999096301MD1999999+0041REMSYN070AAXX  15184 82784 32598 73201 10312 20236 39630 40092 88700 333 58004;EQDQ01+000082SCOTLCQ02  00002PRCP06
0208827840999992003121600004-07317-039300FM-12+040999999V0201801N000512200019N0020001N1+02731+02431101151ADDAA106000091GA1001+999999999GF100991001001999999001001KA1240M+03351MA1999999096491MD1999999-0021REMSYN082AAXX  16004 82784 32995 01801 10273 20243 39649 40115 333 10335 29080 55057 59002;EQDQ01  00002PRCP06
0190827840999992003121612004-07317-039300FM-12+040999999V0203601N001510120019N0200001N1+02451+02251101531ADDAY101061AY201061GF108991081081008001999999KA1240N+02221MA1999999096861MD1999999-0041MW1211REMSYN088AAXX  16124 82784 21598 83603 10245 20225 39686 40153 72100 888// 333 20222 59004 60244;
0171827840999992003121618004-07317-039300FM-12+040999999V0200901N001012200019N0200001N1+03181+02281101011ADDAY161061AY221061GF104991041021008001001001MA1999999096381MD1999999+0071MW1211REMSYN082AAXX  16184 82784 21598 40902 10318 20228 39638 40101 72162 84200 333 58007 60081;
0189827840999992003121700004-07317-039300FM-12+040999999V0209999C000012200019N0020001N1+02651+02441101211ADDAA106000021GA1001+999999999GF100991001001999999001001KA1240M+03311MA1999999096551MD1999999+0061REMSYN082AAXX  17004 82784 32995 00000 10265 20244 39655 40121 333 10331 29082 55062 58006;
0186827840999992003121712004-07317-039300FM-12+040999999V0200501N000510075019N0200001N1+02541+02131101421ADDAA106000091GF108991081071008001999999KA1240N+02361MA1999999096761MD1999999+0101REMSYN076AAXX  17124 82784 32598 80501 10254 20213 39676 40142 887// 333 20236 58010;EQDQ01  00002PRCP06
0167827840999992003121718004-07317-039300FM-12+040999999V0203601N001510075019N0200001N1+03211+02031101041ADDAA106000091GF106991061021008001001001MA1999999096421MD1999999+0041REMSYN070AAXX  17184 82784 32598 63603 10321 20203 39642 40104 86200 333 58004;EQDQ01  00002PRCP06
0208827840999992003121800004-07317-039300FM-12+040999999V0202301N001012200019N0020001N1+02641+02311101141ADDAA106000091GA1001+999999999GF100991001001999999001001KA1240M+03341MA1999999096481MD1999999-0071REMSYN082AAXX  18004 82784 32995 02302 10264 20231 39648 40114 333 10334 29073 55077 59007;EQDQ01  00002PRCP06
0186827840999992003121812004-07317-039300FM-12+040999999V0200501N002110120019N0200001N1+02651+01981101541ADDAA106000091GF107991071081008001001001KA1240N+02411MA1999999096881MD1999999+0121REMSYN076AAXX  18124 82784 32598 70504 10265 20198 39688 40154 87800 333 20241 58012;EQDQ01  00002PRCP06
0198827840999992003121900004-07317-039300FM-12+040999999V0200901N001012200019N0020001N1+02601+01821101321ADDAA106000091GF101991011001017501021001KA1240M+03251MA1999999096671MD1999999+0191REMSYN088AAXX  19004 82784 32795 10902 10260 20182 39667 40132 81020 333 10325 29060 55054 58019;EQDQ01  00002PRCP06
0186827840999992003121912004-07317-039300FM-12+040999999V0201401N001010075019N0200001N1+02691+02131101581ADDAA106000091GF106991061031008001001001KA1240N+02391MA1999999096921MD1999999+0041REMSYN076AAXX  19124 82784 32598 61402 10269 20213 39692 40158 86300 333 20239 58004;EQDQ01  00002PRCP06
0167827840999992003121918004-07317-039300FM-12+040999999V0200901N002610075019N0200001N1+03331+01711101081ADDAA106000091GF106991061041008001001001MA1999999096471MD1999999+0001REMSYN070AAXX  19184 82784 32598 60905 10333 20171 39647 40108 86400 333 58000;EQDQ01  00002PRCP06
0198827840999992003122000004-07317-039300FM-12+040999999V0203601N003110075019N0020001N1+02791+02031101461ADDAA106000091GF108991081061008001999999KA1240M+03481MA1999999096811MD1999999+0141REMSYN088AAXX  20004 82784 32595 83606 10279 20203 39681 40146 886// 333 10348 29059 55045 58014;EQDQ01  00002PRCP06
0186827840999992003122012004-07317-039300FM-12+040999999V0201401N003112200019N0200001N1+02781+01881101601ADDAA106000091GF101991011011008001001001KA1240N+02231MA1999999096951MD1999999+0031REMSYN076AAXX  20124 82784 32598 11406 10278 20188 39695 40160 81100 333 20223 58003;EQDQ01  00002PRCP06
0167827840999992003122018004-07317-039300FM-12+040999999V0201401N002112200019N0200001N1+03411+01771101031ADDAA106000091GF103991031021008001001001MA1999999096421MD1999999-0051REMSYN070AAXX  20184 82784 32598 31404 10341 20177 39642 40103 83200 333 59005;EQDQ01  00002PRCP06
0198827840999992003122100004-07317-039300FM-12+040999999V0200501N000512200019N0020001N1+02921+01981101321ADDAA106000091GF101991011021008001001001KA1240M+03571MA1999999096691MD1999999-0121REMSYN088AAXX  21004 82784 32595 10501 10292 20198 39669 40132 81200 333 10357 29052 55116 59012;EQDQ01  00002PRCP06
0186827840999992003122112004-07317-039300FM-12+040999999V0200501N001510075019N0200001N1+02661+02091101621ADDAA106000091GF107991071021008001001001KA1240N+02451MA1999999096971MD1999999+0021REMSYN076AAXX  21124 82784 32598 70503 10266 20209 39697 40162 87200 333 20245 58002;EQDQ01  00002PRCP06
0208827840999992003122200004-07317-039300FM-12+040999999V0202301N000512200019N0020001N1+02821+02101101171ADDAA106000091GA1001+999999999GF100991001001999999001001KA1240M+03591MA1999999096541MD1999999-0151REMSYN082AAXX  22004 82784 32995 02301 10282 20210 39654 40117 333 10359 29058 55092 59015;EQDQ01  00002PRCP06
0186827840999992003122212004-07317-039300FM-12+040999999V0200501N002110075019N0200001N1+02761+02091101421ADDAA106000091GF106991061021008001001001KA1240N+02301MA1999999096781MD1999999-0191REMSYN076AAXX  22124 82784 32598 60504 10276 20209 39678 40142 86200 333 20230 59019;EQDQ01  00002PRCP06
0167827840999992003122218004-07317-039300FM-12+040999999V0200501N003610075019N0200001N1+03531+01761100871ADDAA106000091GF105991051021008001001001MA1999999096271MD1999999-0051REMSYN070AAXX  22184 82784 32598 50507 10353 20176 39627 40087 85200 333 59005;EQDQ01  00002PRCP06
0208827840999992003122300004-07317-039300FM-12+040999999V0200901N000512200019N0020001N1+02841+02091101021ADDAA106000091GA1001+999999999GF100991001001999999001001KA1240M+03671MA1999999096401MD1999999-0141REMSYN082AAXX  23004 82784 32995 00901 10284 20209 39640 40102 333 10367 29058 55107 59014;EQDQ01  00002PRCP06
0186827840999992003122312004-07317-039300FM-12+040999999V0200901N001510075019N0200001N1+02661+02041101411ADDAA106000091GF108991081021008001999999KA1240N+02301MA1999999096761MD1999999-0021REMSYN076AAXX  23124 82784 32598 80903 10266 20204 39676 40141 882// 333 20230 59002;EQDQ01  00002PRCP06
0167827840999992003122318004-07317-039300FM-12+040999999V0203601N001510450019N0200001N1+03491+01611100781ADDAA106000091GF105991041011008001031001MA1999999096181MD1999999-0091REMSYN070AAXX  23184 82784 32598 53603 10349 20161 39618 40078 84130 333 59009;EQDQ01  00002PRCP06
0208827840999992003122400004-07317-039300FM-12+040999999V0203601N000512200019N0020001N1+02821+02121100941ADDAA106000091GA1001+999999999GF100991001001999999001001KA1240M+03591MA1999999096321MD1999999-0081REMSYN082AAXX  24004 82784 32995 03601 10282 20212 39632 40094 333 10359 29058 55083 59008;EQDQ01  00002PRCP06
0186827840999992003122412004-07317-039300FM-12+040999999V0200501N003112200019N0200001N1+02791+01921101341ADDAA106000091GF104991041021008001001001KA1240N+02391MA1999999096701MD1999999-0061REMSYN076AAXX  24124 82784 32598 40506 10279 20192 39670 40134 84200 333 20239 59006;EQDQ01  00002PRCP06
0167827840999992003122418004-07317-039300FM-12+040999999V0200501N001512200019N0200001N1+03421+01741100861ADDAA106000091GF103991021021008001021001MA1999999096261MD1999999+0081REMSYN070AAXX  24184 82784 32598 30503 10342 20174 39626 40086 82220 333 58008;EQDQ01  00002PRCP06
0208827840999992003122500004-07317-039300FM-12+040999999V0201801N002112200019N0020001N1+02821+02021101051ADDAA106000091GA1001+999999999GF100991001001999999001001KA1240M+03551MA1999999096431MD1999999+0111REMSYN082AAXX  25004 82784 32995 01804 10282 20202 39643 40105 333 10355 29055 55111 58011;EQDQ01  00002PRCP06
0186827840999992003122512004-07317-039300FM-12+040999999V0200901N002612200019N0200001N1+02841+01821101331ADDAA106000091GF102991021021008001001001KA1240N+02421MA1999999096701MD1999999+0001REMSYN076AAXX  25124 82784 32598 20905 10284 20182 39670 40133 82200 333 20242 58000;EQDQ01  00002PRCP06
0167827840999992003122518004-07317-039300FM-12+040999999V0200901N002610075019N0200001N1+03461+01731100841ADDAA106000091GF106991061021008001001001MA1999999096251MD1999999-0011REMSYN070AAXX  25184 82784 32598 60905 10346 20173 39625 40084 86200 333 59001;EQDQ01  00002PRCP06
0190827840999992003122612004-07317-039300FM-12+040999999V0200501N001510075019N0200001N1+02801+01871101261ADDAY121061AY221061GF105991051021008001001001KA1240N+02291MA1999999096641MD1999999-0061MW1201REMSYN088AAXX  26124 82784 21598 50503 10280 20187 39664 40126 72022 85200 333 20229 59006 69954;
0148827840999992003122618004-07317-039300FM-12+040999999V0201401N003112200019N0200001N1+03451+01671100741ADDAA106000021GF103991031021008001001001MA1999999096141MD1999999-0111REMSYN070AAXX  26184 82784 32598 31406 10345 20167 39614 40074 83200 333 59011;
0198827840999992003122700004-07317-039300FM-12+040999999V0201801N001512200019N0020001N1+02851+01991100891ADDAA106000091GF102991021011008001001001KA1240M+03571MA1999999096271MD1999999-0131REMSYN088AAXX  27004 82784 32595 21803 10285 20199 39627 40089 82100 333 10357 29053 55108 59013;EQDQ01  00002PRCP06
0190827840999992003122712004-07317-039300FM-12+040999999V0200501N002610075019N0200001N1+02691+02021101231ADDAY161061AY221061GF106991061021008001001001KA1240N+02391MA1999999096591MD1999999-0051MW1021REMSYN088AAXX  27124 82784 21598 60505 10269 20202 39659 40123 70262 86200 333 20239 59005 69944;
0183827840999992003122718004-07317-039300FM-12+040999999V0200501N001519999999N0200001N1+03421+01701100601ADDAA106000091GF106991999021008001001001MA1999999096021MD1999999-0121REMSYN070AAXX  27184 82784 32598 60503 10342 20170 39602 40060 83200 333 59012;EQDQ01+000032SCOTLCQ02  00002PRCP06
0208827840999992003122800004-07317-039300FM-12+040999999V0200901N000512200019N0020001N1+02931+01971100891ADDAA106000091GA1001+999999999GF100991001001999999001001KA1240M+03571MA1999999096271MD1999999+0001REMSYN082AAXX  28004 82784 32995 00901 10293 20197 39627 40089 333 10357 29054 55087 58000;EQDQ01  00002PRCP06
0209827840999992003122812004-07317-039300FM-12+040999999V0201401N001019999999N0200001N1+02721+02151101141ADDAY101061AY201061GF106991999021008001001001KA1240N+02241MA1999999096511MD1999999-0081MW1211REMSYN088AAXX  28124 82784 21598 61402 10272 20215 39651 40114 72100 83200 333 20224 59008 60104;EQDQ01+000032SCOTLC
0148827840999992003122818004-07317-039300FM-12+040999999V0203201N002110120019N0200001N1+03171+02161100651ADDAA106000021GF108991081081008001999999MA1999999096041MD1999999+0021REMSYN070AAXX  28184 82784 32598 83204 10317 20216 39604 40065 888// 333 58002;
0221827840999992003122900004-07317-039300FM-12+040999999V0202301N001510075019N0020001N1+02301+02271101181ADDAY121061AY221061GF108991999051008001001001KA1240M+03351MA1999999096521MD1999999+0251MW1921REMSYN100AAXX  29004 82784 21595 82303 10230 20227 39652 40118 79222 86500 333 10335 29080 55064 58025 60111;EQDQ01+000062SCOTLC
0190827840999992003122912004-07317-039300FM-12+040999999V0200901N002610075019N0200001N1+02541+02131101271ADDAY191061AY261061GF108991081071008001999999KA1240N+02301MA1999999096601MD1999999+0091MW1021REMSYN088AAXX  29124 82784 21598 80905 10254 20213 39660 40127 70296 887// 333 20230 58009 60114;
0167827840999992003122918004-07317-039300FM-12+040999999V0200501N002110075019N0200001N1+02941+01941100971ADDAA106000091GF108991081071008001999999MA1999999096331MD1999999-0291REMSYN070AAXX  29184 82784 32598 80504 10294 20194 39633 40097 887// 333 59029;EQDQ01  00002PRCP06
0208827840999992003123000004-07317-039300FM-12+040999999V0200901N000512200019N0020001N1+02561+02061101151ADDAA106000091GA1001+999999999GF100991001001999999001001KA1240M+03041MA1999999096501MD1999999-0021REMSYN082AAXX  30004 82784 32995 00901 10256 20206 39650 40115 333 10304 29070 55003 59002;EQDQ01  00002PRCP06
0186827840999992003123012004-07317-039300FM-12+040999999V0200901N003110450019N0200001N1+02691+01921101341ADDAA106000091GF107991021021008001071091KA1240N+02291MA1999999096681MD1999999+0081REMSYN076AAXX  30124 82784 32598 70906 10269 20192 39668 40134 82279 333 20229 58008;EQDQ01  00002PRCP06
0167827840999992003123018004-07317-039300FM-12+040999999V0200901N002110450019N0200001N1+03321+01821100821ADDAA106000091GF106991031081008001051091MA1999999096211MD1999999-0121REMSYN070AAXX  30184 82784 32598 60904 10332 20182 39621 40082 83859 333 59012;EQDQ01  00002PRCP06
0198827840999992003123100004-07317-039300FM-12+040999999V0201401N002110075019N0020001N1+02981+02091101171ADDAA106000091GF107991051041008001021001KA1240M+03421MA1999999096551MD1999999+0051REMSYN088AAXX  31004 82784 32595 71404 10298 20209 39655 40117 85420 333 10342 29056 55061 58005;EQDQ01  00002PRCP06
0186827840999992003123112004-07317-039300FM-12+040999999V0200501N002619999999N0200001N1+02791+01721101271ADDAA106000091GF106991061001008001001051KA1240N+02311MA1999999096651MD1999999-0031REMSYN076AAXX  31124 82784 32598 60505 10279 20172 39665 40127 86005 333 20231 59003;EQDQ01  00002PRCP06
0167827840999992003123118004-07317-039300FM-12+040999999V0200501N003119999999N0200001N1+03471+01501100771ADDAA106000091GF107991071001008001001051MA1999999096111MD1999999-0101REMSYN070AAXX  31184 82784 32598 70506 10347 20150 39611 40077 87005 333 59010;EQDQ01  00002PRCP06
