0208827950999992003010100004-07220-035880FM-12+0560SBKG V0200901N004112200019N0020001N1+02331+01871101501ADDAA106000091GA1001+999999999GF100991001001999999001001KA1240M+03201MA1999999095371MD1999999+0031REMSYN082AAXX  01004 82795 32995 00908 10233 20187 39537 40150 333 10320 29064 55094 58003;EQDQ01  00002PRCP06
0186827950999992003010112004-07220-035880FM-12+0560SBKG V0200901N004110075019N0100001N1+02561+01931101601ADDAA106000091GF106991061021008001001001KA1240N+02071MA1999999095461MD1999999+0041REMSYN076AAXX  01124 82795 32597 60908 10256 20193 39546 40160 86200 333 20207 58004;EQDQ01  00002PRCP06
0167827950999992003010118004-07220-035880FM-12+0560SBKG V0200901N003612200019N0100001N1+03131+01661101141ADDAA106000091GF103991031011008001001001MA1999999095071MD1999999-0041REMSYN070AAXX  01184 82795 32597 30907 10313 20166 39507 40114 83100 333 59004;EQDQ01  00002PRCP06
0208827950999992003010200004-07220-035880FM-12+0560SBKG V0200901N004112200019N0010001N1+02301+01981101491ADDAA106000091GA1001+999999999GF100991001001999999001001KA1240M+03201MA1999999095351MD1999999-0021REMSYN082AAXX  02004 82795 32994 00908 10230 20198 39535 40149 333 10320 29068 55097 59002;EQDQ01  00002PRCP06
0186827950999992003010212004-07220-035880FM-12+0560SBKG V0200901N004112200019N0100001N1+02611+02011101601ADDAA106000091GF104991041021008001001001KA1240N+02131MA1999999095461MD1999999+0001REMSYN076AAXX  02124 82795 32597 40908 10261 20201 39546 40160 84200 333 20213 58000;EQDQ01  00002PRCP06
0177827950999992003010218004-07220-035880FM-12+0560SBKG V0200901N005112200019N0100001N1+03201+01421101051ADDAA106000091GA1001+999999999GF100991001001999999001001MA1999999095001MD1999999-0071REMSYN064AAXX  02184 82795 32997 00910 10320 20142 39500 40105 333 59007;EQDQ01  00002PRCP06
0208827950999992003010300004-07220-035880FM-12+0560SBKG V0200901N003112200019N0010001N1+02251+01881101441ADDAA106000091GA1001+999999999GF100991001001999999001001KA1240M+03281MA1999999095301MD1999999-0051REMSYN082AAXX  03004 82795 32994 00906 10225 20188 39530 40144 333 10328 29066 55106 59005;EQDQ01  00002PRCP06
0186827950999992003010312004-07220-035880FM-12+0560SBKG V0200901N004612200019N0100001N1+02531+01761101471ADDAA106000091GF103991031011008001001001KA1240N+02081MA1999999095331MD1999999-0131REMSYN076AAXX  03124 82795 32597 30909 10253 20176 39533 40147 83100 333 20208 59013;EQDQ01  00002PRCP06
0167827950999992003010318004-07220-035880FM-12+0560SBKG V0200901N002612200019N0100001N1+03191+01371101031ADDAA106000091GF101991011011008001001001MA1999999094981MD1999999-0021REMSYN070AAXX  03184 82795 32597 10905 10319 20137 39498 40103 81100 333 59002;EQDQ01  00002PRCP06
0208827950999992003010400004-07220-035880FM-12+0560SBKG V0200901N004112200019N0010001N1+02321+01871101381ADDAA106000091GA1001+999999999GF100991001001999999001001KA1240M+03271MA1999999095241MD1999999-0061REMSYN082AAXX  04004 82795 32994 00908 10232 20187 39524 40138 333 10327 29062 55107 59006;EQDQ01  00002PRCP06
0186827950999992003010412004-07220-035880FM-12+0560SBKG V0200901N003610075019N0100001N1+02621+01881101521ADDAA106000091GF105991051021008001001001KA1240N+02051MA1999999095391MD1999999+0061REMSYN076AAXX  04124 82795 32597 50907 10262 20188 39539 40152 85200 333 20205 58006;EQDQ01  00002PRCP06
0167827950999992003010418004-07220-035880FM-12+0560SBKG V0200901N003112200019N0100001N1+03281+01661101051ADDAA106000091GF101991011011008001001001MA1999999095011MD1999999+0031REMSYN070AAXX  04184 82795 32597 10906 10328 20166 39501 40105 81100 333 58003;EQDQ01  00002PRCP06
0198827950999992003010500004-07220-035880FM-12+0560SBKG V0200901N004612200019N0020001N1+02371+01991101391ADDAA106000091GF104991041021008001001001KA1240M+03301MA1999999095281MD1999999+0041REMSYN088AAXX  05004 82795 32595 40909 10237 20199 39528 40139 84200 333 10330 29065 55109 58004;EQDQ01  00002PRCP06
0186827950999992003010512004-07220-035880FM-12+0560SBKG V0200901N002110075019N0100001N1+02571+01941101401ADDAA106000091GF106991061021008001001001KA1240N+02171MA1999999095281MD1999999-0111REMSYN076AAXX  05124 82795 32597 60904 10257 20194 39528 40140 86200 333 20217 59011;EQDQ01  00002PRCP06
0167827950999992003010518004-07220-035880FM-12+0560SBKG V0200901N002612200019N0100001N1+03211+01671100991ADDAA106000091GF101991011011008001001001MA1999999094971MD1999999-0041REMSYN070AAXX  05184 82795 32597 10905 10321 20167 39497 40099 81100 333 59004;EQDQ01  00002PRCP06
0198827950999992003010600004-07220-035880FM-12+0560SBKG V0200901N004112200019N0010001N1+02361+01971101391ADDAA106000091GF103991031021008001001001KA1240M+03311MA1999999095371MD1999999-0011REMSYN088AAXX  06004 82795 32594 30908 10236 20197 39537 40139 83200 333 10331 29066 55101 59001;EQDQ01  00002PRCP06
0186827950999992003010612004-07220-035880FM-12+0560SBKG V0200901N004110075019N0100001N1+02701+01961101471ADDAA106000091GF106991061021008001001001KA1240N+02131MA1999999095351MD1999999+0071REMSYN076AAXX  06124 82795 32597 60908 10270 20196 39535 40147 86200 333 20213 58007;EQDQ01  00002PRCP06
0167827950999992003010618004-07220-035880FM-12+0560SBKG V0200501N003110075019N0100001N1+03201+01591100931ADDAA106000091GF106991061021008001001001MA1999999094891MD1999999-0081REMSYN070AAXX  06184 82795 32597 60506 10320 20159 39489 40093 86200 333 59008;EQDQ01  00002PRCP06
0198827950999992003010700004-07220-035880FM-12+0560SBKG V0201401N004610075019N0010001N1+02381+02051101311ADDAA106000091GF106991061021008001001001KA1240M+03361MA1999999095221MD1999999-0051REMSYN088AAXX  07004 82795 32594 61409 10238 20205 39522 40131 86200 333 10336 29066 55107 59005;EQDQ01  00002PRCP06
0186827950999992003010712004-07220-035880FM-12+0560SBKG V0200501N002612200019N0100001N1+02711+01991101451ADDAA106000091GF103991031011008001001001KA1240N+02171MA1999999095351MD1999999+0001REMSYN076AAXX  07124 82795 32597 30505 10271 20199 39535 40145 83100 333 20217 58000;EQDQ01  00002PRCP06
0167827950999992003010718004-07220-035880FM-12+0560SBKG V0200501N003112200019N0100001N1+03341+01351100971ADDAA106000091GF104991041011008001001001MA1999999094971MD1999999+0081REMSYN070AAXX  07184 82795 32597 40506 10334 20135 39497 40097 84100 333 58008;EQDQ01  00002PRCP06
0198827950999992003010800004-07220-035880FM-12+0560SBKG V0200901N005112200019N0010001N1+02371+02071101361ADDAA106000091GF104991041021008001001001KA1240M+03411MA1999999095261MD1999999+0041REMSYN088AAXX  08004 82795 32594 40910 10237 20207 39526 40136 84200 333 10341 29065 55112 58004;EQDQ01  00002PRCP06
0167827950999992003010818004-07220-035880FM-12+0560SBKG V0200901N002110075019N0100001N1+03281+01891101121ADDAA106000091GF106991051021008001021001MA1999999095061MD1999999+0091REMSYN070AAXX  08184 82795 32597 60904 10328 20189 39506 40112 85220 333 58009;EQDQ01  00002PRCP06
0198827950999992003010900004-07220-035880FM-12+0560SBKG V0200901N005112200019N0010001N1+02391+02091101501ADDAA106000091GF102991021021008001001001KA1240M+03301MA1999999095401MD1999999+0141REMSYN088AAXX  09004 82795 32594 20910 10239 20209 39540 40150 82200 333 10330 29068 55109 58014;EQDQ01  00002PRCP06
0186827950999992003010912004-07220-035880FM-12+0560SBKG V0200901N003110075019N0100001N1+02621+01961101681ADDAA106000091GF106991061021008001001001KA1240N+02221MA1999999095551MD1999999+0151REMSYN076AAXX  09124 82795 32597 60906 10262 20196 39555 40168 86200 333 20222 58015;EQDQ01  00002PRCP06
0167827950999992003010918004-07220-035880FM-12+0560SBKG V0200901N003110075019N0100001N1+03061+01621101301ADDAA106000091GF106991061021008001001001MA1999999095241MD1999999+0181REMSYN070AAXX  09184 82795 32597 60906 10306 20162 39524 40130 86200 333 58018;EQDQ01  00002PRCP06
0198827950999992003011000004-07220-035880FM-12+0560SBKG V0200901N005112200019N0010001N1+02371+02031101611ADDAA106000091GF102991021021008001001001KA1240M+03131MA1999999095491MD1999999+0091REMSYN088AAXX  10004 82795 32594 20910 10237 20203 39549 40161 82200 333 10313 29068 55094 58009;EQDQ01  00002PRCP06
0186827950999992003011012004-07220-035880FM-12+0560SBKG V0200901N003610075019N0100001N1+02571+01921101651ADDAA106000091GF106991061021008001001001KA1240N+02141MA1999999095511MD1999999-0041REMSYN076AAXX  10124 82795 32597 60907 10257 20192 39551 40165 86200 333 20214 59004;EQDQ01  00002PRCP06
0167827950999992003011018004-07220-035880FM-12+0560SBKG V0200901N002610075019N0100001N1+03041+01781101181ADDAA106000091GF105991051021008001001001MA1999999095111MD1999999-0131REMSYN070AAXX  10184 82795 32597 50905 10304 20178 39511 40118 85200 333 59013;EQDQ01  00002PRCP06
0198827950999992003011100004-07220-035880FM-12+0560SBKG V0200901N005112200019N0010001N1+02321+01981101491ADDAA106000091GF102991021021008001001001KA1240M+03151MA1999999095361MD1999999-0131REMSYN088AAXX  11004 82795 32594 20910 10232 20198 39536 40149 82200 333 10315 29069 55093 59013;EQDQ01  00002PRCP06
0202827950999992003011112004-07220-035880FM-12+0560SBKG V0200901N003112200019N0100001N1+02621+01811101651ADDAA106000091GF104991999021008001001001KA1240N+02111MA1999999095511MD1999999+0001REMSYN076AAXX  11124 82795 32597 40906 10262 20181 39551 40165 83200 333 20211 58000;EQDQ01+000032SCOTLCQ02  00002PRCP06
0167827950999992003011118004-07220-035880FM-12+0560SBKG V0200501N002112200019N0100001N1+03261+01421101121ADDAA106000091GF102991011011008001001011MA1999999095081MD1999999-0031REMSYN070AAXX  11184 82795 32597 20504 10326 20142 39508 40112 81101 333 59003;EQDQ01  00002PRCP06
0208827950999992003011200004-07220-035880FM-12+0560SBKG V0200901N004612200019N0010001N1+02441+01861101411ADDAA106000091GA1001+999999999GF100991001001999999001001KA1240M+03281MA1999999095301MD1999999-0061REMSYN082AAXX  12004 82795 32994 00909 10244 20186 39530 40141 333 10328 29058 55103 59006;EQDQ01  00002PRCP06
0186827950999992003011212004-07220-035880FM-12+0560SBKG V0200901N002612200019N0100001N1+02701+01941101501ADDAA106000091GF104991041021008001001001KA1240N+02151MA1999999095401MD1999999-0111REMSYN076AAXX  12124 82795 32597 40905 10270 20194 39540 40150 84200 333 20215 59011;EQDQ01  00002PRCP06
0167827950999992003011218004-07220-035880FM-12+0560SBKG V0200901N004112200019N0100001N1+03231+01731101011ADDAA106000091GF102991021011008001001001MA1999999094971MD1999999-0111REMSYN070AAXX  12184 82795 32597 20908 10323 20173 39497 40101 82100 333 59011;EQDQ01  00002PRCP06
0208827950999992003011300004-07220-035880FM-12+0560SBKG V0200901N005112200019N0010001N1+02301+02131101301ADDAA106000091GA1001+999999999GF100991001001999999001001KA1240M+03321MA1999999095201MD1999999-0101REMSYN082AAXX  13004 82795 32994 00910 10230 20213 39520 40130 333 10332 29068 55100 59010;EQDQ01  00002PRCP06
0140827950999992003011312004-07220-035880FM-12+0560SBKG V0200901N002112200019N0100001N1+02591+01791999999ADDAA106000091GF104991999999008001999999REMSYN072AAXX  13124 82795 32597 40904 10259 20179 20208 39536 40149 59004 82201;EQDQ01  00002PRCP06
0149827950999992003011318004-07220-035880FM-12+0560SBKG V0200901N004110075019N0100001N1+03131+01681101021ADDAA106000091GF105991051021008001001001MA1999999094961REMSYN066AAXX  13184 82795 32597 50908 10313 20168 39496 40102 59001 85200;EQDQ01  00002PRCP06
0208827950999992003011400004-07220-035880FM-12+0560SBKG V0200901N004112200019N0010001N1+02301+01961101281ADDAA106000091GA1001+999999999GF100991001001999999001001KA1240M+03211MA1999999095161MD1999999-0041REMSYN082AAXX  14004 82795 32994 00908 10230 20196 39516 40128 333 10321 29066 55108 59004;EQDQ01  00002PRCP06
0186827950999992003011412004-07220-035880FM-12+0560SBKG V0200901N004612200019N0100001N1+02601+01741101511ADDAA106000091GF104991041011008001001001KA1240N+02101MA1999999095381MD1999999+0021REMSYN076AAXX  14124 82795 32597 40909 10260 20174 39538 40151 84100 333 20210 58002;EQDQ01  00002PRCP06
0167827950999992003011418004-07220-035880FM-12+0560SBKG V0200501N003612200019N0100001N1+03091+01481101161ADDAA106000091GF105991031021008001001041MA1999999095091MD1999999+0131REMSYN070AAXX  14184 82795 32597 50507 10309 20148 39509 40116 83204 333 58013;EQDQ01  00002PRCP06
0208827950999992003011500004-07220-035880FM-12+0560SBKG V0200901N004612200019N0010001N1+02321+01811101431ADDAA106000091GA1001+999999999GF100991001001999999001001KA1240M+03211MA1999999095311MD1999999+0151REMSYN082AAXX  15004 82795 32994 00909 10232 20181 39531 40143 333 10321 29061 55109 58015;EQDQ01  00002PRCP06
0186827950999992003011512004-07220-035880FM-12+0560SBKG V0200901N004612200019N0100001N1+02591+01791101561ADDAA106000091GF102991021011008001001001KA1240N+02021MA1999999095421MD1999999+0041REMSYN076AAXX  15124 82795 32597 20909 10259 20179 39542 40156 82100 333 20202 58004;EQDQ01  00002PRCP06
0167827950999992003011518004-07220-035880FM-12+0560SBKG V0200501N004112200019N0100001N1+03281+01441101101ADDAA106000091GF102991021011008001001001MA1999999095041MD1999999-0051REMSYN070AAXX  15184 82795 32597 20508 10328 20144 39504 40110 82100 333 59005;EQDQ01  00002PRCP06
0208827950999992003011600004-07220-035880FM-12+0560SBKG V0200901N005112200019N0010001N1+02371+01871101561ADDAA106000091GA1001+999999999GF100991001001999999001001KA1240M+03321MA1999999095431MD1999999+0121REMSYN082AAXX  16004 82795 32994 00910 10237 20187 39543 40156 333 10332 29060 55111 58012;EQDQ01  00002PRCP06
0186827950999992003011612004-07220-035880FM-12+0560SBKG V0201401N004112200019N0100001N1+02611+01631101591ADDAA106000091GF104991041021008001001001KA1240N+02121MA1999999095471MD1999999+0051REMSYN076AAXX  16124 82795 32597 41408 10261 20163 39547 40159 84200 333 20212 58005;EQDQ01  00002PRCP06
0167827950999992003011618004-07220-035880FM-12+0560SBKG V0201401N004112200019N0100001N1+03281+01621101041ADDAA106000091GF106991031021008001001041MA1999999095001MD1999999-0041REMSYN070AAXX  16184 82795 32597 61408 10328 20162 39500 40104 83204 333 59004;EQDQ01  00002PRCP06
0208827950999992003011700004-07220-035880FM-12+0560SBKG V0200901N006212200019N0010001N1+02371+01951101471ADDAA106000091GA1001+999999999GF100991001001999999001001KA1240M+03401MA1999999095351MD1999999-0051REMSYN082AAXX  17004 82795 32994 00912 10237 20195 39535 40147 333 10340 29062 55102 59005;EQDQ01  00002PRCP06
0186827950999992003011712004-07220-035880FM-12+0560SBKG V0200501N001012200019N0100001N1+02571+01801101471ADDAA106000091GF106991031021008001001011KA1240N+02151MA1999999095341MD1999999-0131REMSYN076AAXX  17124 82795 32597 60502 10257 20180 39534 40147 83201 333 20215 59013;EQDQ01  00002PRCP06
0167827950999992003011718004-07220-035880FM-12+0560SBKG V0201401N002112200019N0100001N1+03131+01771101051ADDAA106000091GF107991041021008001001041MA1999999095001MD1999999+0001REMSYN070AAXX  17184 82795 32597 71404 10313 20177 39500 40105 84204 333 58000;EQDQ01  00002PRCP06
0198827950999992003011800004-07220-035880FM-12+0560SBKG V0200901N004612200019N0010001N1+02431+01951101471ADDAA106000091GF103991011011008001001021KA1240M+03251MA1999999095351MD1999999+0001REMSYN088AAXX  18004 82795 32594 30909 10243 20195 39535 40147 81102 333 10325 29064 55097 58000;EQDQ01  00002PRCP06
0186827950999992003011812004-07220-035880FM-12+0560SBKG V0200901N003112200019N0100001N1+02671+02091101421ADDAA106000091GF104991041011008001001001KA1240N+02231MA1999999095321MD1999999-0021REMSYN076AAXX  18124 82795 32597 40906 10267 20209 39532 40142 84100 333 20223 59002;EQDQ01  00002PRCP06
0183827950999992003011818004-07220-035880FM-12+0560SBKG V0201401N004112200019N0100001N1+03191+01931101031ADDAA106000091GF104991999021008001001001MA1999999095011MD1999999+0011REMSYN070AAXX  18184 82795 32597 41408 10319 20193 39501 40103 82200 333 58001;EQDQ01+000022SCOTLCQ02  00002PRCP06
0221827950999992003011900004-07220-035880FM-12+0560SBKG V0200901N004610075019N0005001N1+02351+02191101511ADDAY121061AY211061GF108991999031008001001001KA1240M+03351MA1999999095391MD1999999+0051MW1601REMSYN100AAXX  19004 82795 21593 80909 10235 20219 39539 40151 76021 86300 333 10335 29074 55094 58005 69911;EQDQ01+000062SCOTLC
0209827950999992003011912004-07220-035880FM-12+0560SBKG V0200901N003110120019N0100001N1+02371+02131101561ADDAY161061AY221061GF108991999081008001071999KA1240N+02131MA1999999095401MD1999999+0081MW1021REMSYN088AAXX  19124 82795 21597 80906 10237 20213 39540 40156 70262 8887/ 333 20213 58008 60114;EQDQ01+000082SCOTLC
0183827950999992003011918004-07220-035880FM-12+0560SBKG V0200901N002119999999N0100001N1+03031+01891101121ADDAA106000091GF106991999021008001001001MA1999999095051MD1999999+0041REMSYN070AAXX  19184 82795 32597 60904 10303 20189 39505 40112 83200 333 58004;EQDQ01+000032SCOTLCQ02  00002PRCP06
0242827950999992003012000004-07220-035880FM-12+0560SBKG V0200901N004110075019N0010001N1+02351+02111101561ADDAA106000091AY121061AY221061GF107991999031008001001001KA1240M+03051MA1999999095401MD1999999+0011MW1131REMSYN094AAXX  20004 82795 31594 70908 10235 20211 39540 40156 71322 85300 333 10305 29077 55056 58001;EQDQ01+000052SCOTLCQ02  00002PRCP06
0186827950999992003012012004-07220-035880FM-12+0560SBKG V0200901N000512200019N0100001N1+02561+02061101511ADDAA106000091GF106991031021008001001011KA1240N+02251MA1999999095381MD1999999-0081REMSYN076AAXX  20124 82795 32597 60901 10256 20206 39538 40151 83201 333 20225 59008;EQDQ01  00002PRCP06
0167827950999992003012018004-07220-035880FM-12+0560SBKG V0201401N003110450019N0100001N1+03101+01701101141ADDAA106000091GF107991031041008001021041MA1999999094991MD1999999-0061REMSYN070AAXX  20184 82795 32597 71406 10310 20170 39499 40114 83424 333 59006;EQDQ01  00002PRCP06
0158827950999992003012100004-07220-035880FM-12+0560SBKG V0200901N003619999999N0010001N1+02431+02111999999ADDAA106000091GF106991999999008001999999REMSYN090AAXX  21004 82795 31594 60907 10243 20211 10318 29071 39522 40132 55079 59018 71322 86300;EQDQ01  00002PRCP06
0140827950999992003012112004-07220-035880FM-12+0560SBKG V0201401N001512200019N0100001N1+02631+01651999999ADDAA106000091GF104991999999008001999999REMSYN072AAXX  21124 82795 32597 41403 10263 20165 20224 39522 40132 59016 84200;EQDQ01  00002PRCP06
0149827950999992003012118004-07220-035880FM-12+0560SBKG V0201401N006710450019N0100001N1+03051+01851100831ADDAA106000091GF107991031041008001011041MA1999999094791REMSYN066AAXX  21184 82795 32597 71413 10305 20185 39479 40083 59020 83414;EQDQ01  00002PRCP06
0198827950999992003012200004-07220-035880FM-12+0560SBKG V0200901N004110075019N0010001N1+02401+02071101371ADDAA106000091GF106991051021008001001011KA1240M+03181MA1999999095191MD1999999-0031REMSYN088AAXX  22004 82795 32594 60908 10240 20207 39519 40137 85201 333 10318 29071 55100 59003;EQDQ01  00002PRCP06
0128827950999992003012212004-07220-035880FM-12+0560SBKG V0200901N003619999999N0100001N1+02421+02111999999ADDGF106991999999008001999999REMSYN090AAXX  22124 82795 21597 60907 10242 20211 10056 20201 39523 40136 58001 60064 70262 86600;
0171827950999992003012218004-07220-035880FM-12+0560SBKG V0200901N005110450019N0100001N1+02721+02121101011ADDAY121061AY221061GF107991031041008001041011MA1999999095011MD1999999+0221MW1211REMSYN082AAXX  22184 82795 21597 70910 10272 20212 39501 40101 72122 83441 333 58022 69971;
0198827950999992003012300004-07220-035880FM-12+0560SBKG V0200901N005119999999N0020001N1+02401+02071101431ADDAA106000021GF107991999021008001001001KA1240M+03061MA1999999095291MD1999999+0101REMSYN088AAXX  23004 82795 32595 70910 10240 20207 39529 40143 84200 333 10306 29079 55056 58010;EQDQ01+000042SCOTLC
0190827950999992003012312004-07220-035880FM-12+0560SBKG V0200901N003110075019N0100001N1+02431+02051101631ADDAY161061AY221061GF106991061061008001001001KA1240N+02081MA1999999095481MD1999999+0251MW1211REMSYN088AAXX  23124 82795 21597 60906 10243 20205 39548 40163 72162 86600 333 20208 58025 60034;
0156827950999992003012318004-07220-035880FM-12+0560SBKG V0200901N003610450019N0100001N1+02791+02081101061ADDAY121061AY221061GF107991031081008001061061MA1999999095111MW1201REMSYN081AAXX  23184 82795 21597 70907 10279 20208 39511 40106 72022 83866 33 58010 69931;
0179827950999992003012400004-07220-035880FM-12+0560SBKG V0200901N004110075019N0010001N1+02401+02131101591ADDAA106000021GF106991061021008001001001KA1240M+02991MA1999999095441MD1999999+0151REMSYN088AAXX  24004 82795 32594 60908 10240 20213 39544 40159 86200 333 10299 29079 55061 58015;
0162827950999992003012412004-07220-035880FM-12+0560SBKG V0201401N003110075019N0100001N1+02411+01971101561ADDGF108991081071008001999999KA1240N+02241MA1999999095421MD1999999-0061REMSYN082AAXX  24124 82795 22597 81406 10241 20197 39542 40156 887// 333 20224 59006 69934;
0195827950999992003012418004-07220-035880FM-12+0560SBKG V0200501N005719999999N0040001N1+02481+02071101261ADDAA106000091AY121061AY221061GF108991081999008001999999MA1999999095121MD1999999+0111MW1161REMSYN076AAXX  24184 82795 31596 80511 10248 20207 39512 40126 71622 88/// 333 58011;EQDQ01  00002PRCP06
0202827950999992003012500004-07220-035880FM-12+0560SBKG V0200901N002110075019N0010001N1+02301+02161101511ADDAY161061AY221061GF107991071021008001001001KA1240M+02991MA1999999095351MD1999999-0091MW1021REMSYN100AAXX  25004 82795 21594 70904 10230 20216 39535 40151 70262 87200 333 10299 29085 55023 59009 69931;
0162827950999992003012512004-07220-035880FM-12+0560SBKG V0201801N003110075019N0100001N1+02501+02031101491ADDGF106991061021008001001001KA1240N+02201MA1999999095351MD1999999-0071REMSYN082AAXX  25124 82795 22597 61806 10250 20203 39535 40149 86200 333 20220 59007 69934;
0167827950999992003012518004-07220-035880FM-12+0560SBKG V0201401N004110450019N0100001N1+03051+01851100911ADDAA106000091GF105991031021008001061001MA1999999094871MD1999999-0251REMSYN070AAXX  25184 82795 32597 51408 10305 20185 39487 40091 83260 333 59025;EQDQ01  00002PRCP06
0202827950999992003012600004-07220-035880FM-12+0560SBKG V0200901N003110075019N0010001N1+02331+02291101351ADDAY161061AY221061GF108991061031008001051999KA1240M+03151MA1999999095281MD1999999-0131MW1211REMSYN100AAXX  26004 82795 21594 80906 10233 20229 39528 40135 72162 8635/ 333 10315 29080 55068 59013 69961;
0181827950999992003012612004-07220-035880FM-12+0560SBKG V0201401N003119999999N0100001N1+02621+01981101291ADDGF105991999021008001001001KA1240N+02161MA1999999095171MD1999999-0181REMSYN082AAXX  26124 82795 22597 51406 10262 20198 39517 40129 84200 333 20216 59018 69964;EQDQ01+000042SCOTLC
0165827950999992003012618004-07220-035880FM-12+0560SBKG V0200901N002112200019N0100001N1+03031+01761100851ADDAA106000091GF104991999021008001001001MA1999999094801REMSYN066AAXX  26184 82795 32597 40904 10303 20176 39480 40085 59007 83200;EQDQ01+000032SCOTLCQ02  00002PRCP06
0152827950999992003012700004-07220-035880FM-12+0560SBKG V0200901N005719999999N0010001N1+02381+02091999999ADDAA106000091GF106991999999008001999999REMSYN084AAXX  27004 82795 32594 60911 10238 20209 10312 29071 39507 40117 55085 59015 86200;EQDQ01  00002PRCP06
0190827950999992003012712004-07220-035880FM-12+0560SBKG V0200901N004110075019N0100001N1+02411+02151101331ADDAY161061AY221061GF106991061061008001001001KA1240N+02231MA1999999095201MD1999999+0031MW1501REMSYN088AAXX  27124 82795 21597 60908 10241 20215 39520 40133 75062 86600 333 20223 58003 69914;
0148827950999992003012718004-07220-035880FM-12+0560SBKG V0200901N005710450019N0100001N1+02701+02111101051ADDAA106000021GF108991041081008001061999MA1999999094951MD1999999+0151REMSYN070AAXX  27184 82795 32597 80911 10270 20211 39495 40105 8486/ 333 58015;
0198827950999992003012800004-07220-035880FM-12+0560SBKG V0200501N003110075019N0010001N1+02221+01991101471ADDAA106000091GF107991071061008001001001KA1240M+03071MA1999999095311MD1999999+0241REMSYN088AAXX  28004 82795 32594 70506 10222 20199 39531 40147 87600 333 10307 29082 55062 58024;EQDQ01  00002PRCP06
0186827950999992003012812004-07220-035880FM-12+0560SBKG V0200901N002619999999N0100001N1+02561+01701101491ADDAA106000091GF107991071001008001071001KA1240N+02131MA1999999095351MD1999999+0151REMSYN076AAXX  28124 82795 32597 70905 10256 20170 39535 40149 87070 333 20213 58015;EQDQ01  00002PRCP06
0167827950999992003012818004-07220-035880FM-12+0560SBKG V0200901N003610450019N0100001N1+02861+01921101211ADDAA106000091GF108991041061008001081999MA1999999095141MD1999999+0191REMSYN070AAXX  28184 82795 32597 80907 10286 20192 39514 40121 8468/ 333 58019;EQDQ01  00002PRCP06
0152827950999992003012900004-07220-035880FM-12+0560SBKG V0200901N002619999999N0010001N1+02391+02031999999ADDAA106000091GF106991999999008001999999REMSYN084AAXX  29004 82795 32594 60905 10239 20203 10293 29069 39540 40153 55031 58009 82200;EQDQ01  00002PRCP06
0190827950999992003012912004-07220-035880FM-12+0560SBKG V0200901N002610075019N0100001N1+02421+02051101531ADDAY161061AY221061GF106991061021008001001001KA1240N+02221MA1999999095391MD1999999+0041MW1021REMSYN088AAXX  29124 82795 21597 60905 10242 20205 39539 40153 70262 86200 333 20222 58004 69944;
0195827950999992003012918004-07220-035880FM-12+0560SBKG V0200501N006210450019N0100001N1+02801+02001101091ADDAA106000091AY121061AY221061GF107991031041008001061001MA1999999094991MD1999999-0151MW1171REMSYN076AAXX  29184 82795 31597 70512 10280 20200 39499 40109 71722 83460 333 59015;EQDQ01  00002PRCP06
0198827950999992003013000004-07220-035880FM-12+0560SBKG V0201401N003610075019N0010001N1+02391+02171101471ADDAA106000091GF107991051021008001041001KA1240M+03021MA1999999095261MD1999999-0141REMSYN088AAXX  30004 82795 32594 71407 10239 20217 39526 40147 85240 333 10302 29079 55078 59014;EQDQ01  00002PRCP06
0190827950999992003013012004-07220-035880FM-12+0560SBKG V0201401N004610075019N0100001N1+02531+02131101351ADDAY161061AY221061GF106991061061008001001001KA1240N+02231MA1999999095191MD1999999-0201MW1021REMSYN088AAXX  30124 82795 21597 61409 10253 20213 39519 40135 70262 86600 333 20223 59020 60024;
0167827950999992003013018004-07220-035880FM-12+0560SBKG V0201401N004610450019N0100001N1+02961+01501101191ADDAA106000091GF108991031031008001041999MA1999999094981MD1999999-0011REMSYN070AAXX  30184 82795 32597 81409 10296 20150 39498 40119 8334/ 333 59001;EQDQ01  00002PRCP06
0152827950999992003013100004-07220-035880FM-12+0560SBKG V0201401N004612200019N0010001N1+02321+02051999999ADDAA106000091GF103991999999008001999999REMSYN084AAXX  31004 82795 32594 31409 10232 20205 10302 29072 39513 40126 55054 59013 83200;EQDQ01  00002PRCP06
0190827950999992003013112004-07220-035880FM-12+0560SBKG V0200901N003110075019N0100001N1+02641+01831101331ADDAY161061AY221061GF108991051071008001011999KA1240N+02141MA1999999095871MD1999999-0021MW1021REMSYN088AAXX  31124 82795 21597 80906 10264 20183 39587 40133 70262 8571/ 333 20214 59002 60014;
0183827950999992003013118004-07220-035880FM-12+0560SBKG V0201401N003110450019N0100001N1+02741+02071101081ADDAA106000091GF107991031041008001011051MA1999999094972MD1999999-0041REMSYN070AAXX  31184 82795 32597 71406 10274 20207 39497 40108 83415 333 59004;EQDQ01+094973APOSP Q02  00002PRCP06
0202827950999992003020100004-07220-035880FM-12+0560SBKG V0200901N003610075019N0010001N1+02251+02141101371ADDAY161061AY221061GF108991081071008001999999KA1240M+02631MA1999999095211MD1999999+0081MW1021REMSYN100AAXX  01004 82795 21594 80907 10225 20214 39521 40137 70262 887// 333 10263 29084 55001 58008 69941;
0128827950999992003020112004-07220-035880FM-12+0560SBKG V0201401N003119999999N0100001N1+02331+02251999999ADDGF107991999999008001999999REMSYN090AAXX  01124 82795 21597 71406 10233 20225 10005 20216 39526 40142 58009 69954 70255 84400;
0197827950999992003020118004-07220-035880FM-12+0560SBKG V0201401N002619999999N0100001N1+02381+02131101401ADDAA106011991AY161061AY221061GF108991999021008001001001MA1999999095221MD1810281+9999MW1021REMSYN078AAXX  01184 82795 21597 81405 10238 20213 39522 40140 58028 60121 70262 83200;EQDQ01+000032SCOTLC
0152827950999992003020200004-07220-035880FM-12+0560SBKG V0201401N003619999999N0010001N1+02231+02131999999ADDAA106000091GF107991999999008001999999REMSYN084AAXX  02004 82795 32594 71407 10223 20213 10251 29095 39538 40159 55004 58003 82100;EQDQ01  00002PRCP06
0128827950999992003020212004-07220-035880FM-12+0560SBKG V0201401N002619999999N0020001N1+02361+02071999999ADDGF107991999999008001999999REMSYN090AAXX  02124 82795 21595 71405 10236 20207 10123 20213 39536 40150 58010 60124 70251 85200;
0197827950999992003020218004-07220-035880FM-12+0560SBKG V0201401N003119999999N0100001N1+02831+02121101321ADDAA106000091GF106991999021008001001001MA1999999095221REMSYN066AAXX  02184 82795 32597 61406 10283 20212 39522 40132 58000 83200;EQDQ01+000032SCOTLCQ02+000082APCTENQ03+000002APC3  Q04  00002PRCP06
0198827950999992003020300004-07220-035880FM-12+0560SBKG V0201401N003110075019N0010001N1+02331+02161101481ADDAA106000091GF105991051061008001001001KA1240M+02901MA1999999095331MD1999999-0051REMSYN088AAXX  03004 82795 32594 51406 10233 20216 39533 40148 85600 333 10290 29079 55071 59005;EQDQ01  00002PRCP06
0162827950999992003020312004-07220-035880FM-12+0560SBKG V0201401N003110075019N0100001N1+02531+02061101491ADDGF105991051021008001001001KA1240N+02201MA1999999095451MD1999999+0091REMSYN082AAXX  03124 82795 22597 51406 10253 20206 39545 40149 85200 333 20220 58009 69944;
0171827950999992003020318004-07220-035880FM-12+0560SBKG V0201401N004110450019N0100001N1+02921+01861101201ADDAY151061AY221061GF106991021041008001041011MA1999999095101MD1999999-0121MW1021REMSYN082AAXX  03184 82795 21597 61408 10292 20186 39510 40120 70252 82441 333 59012 69911;
0202827950999992003020400004-07220-035880FM-12+0560SBKG V0200901N003110120019N0010001N1+02321+02131101481ADDAY161061AY221061GF107991071081008001001001KA1240M+02961MA1999999095341MD1999999+0011MW1021REMSYN100AAXX  04004 82795 21594 70906 10232 20213 39534 40148 70262 87800 333 10296 29077 55073 58001 69931;
0190827950999992003020412004-07220-035880FM-12+0560SBKG V0201401N003610075019N0100001N1+02271+02211101451ADDAY161061AY221061GF108991051071008001021999KA1240N+02181MA1999999095291MD1999999-0161MW1021REMSYN088AAXX  04124 82795 21597 81407 10227 20221 39529 40145 70262 8572/ 333 20218 59016 60054;
0171827950999992003020418004-07220-035880FM-12+0560SBKG V0201401N006710075019N0100001N1+02431+02171101221ADDAY151061AY221061GF108991081071008001999999MA1999999095071MD1999999-0031MW1151REMSYN082AAXX  04184 82795 21597 81413 10243 20217 39507 40122 71552 887// 333 59003 69971;
0202827950999992003020500004-07220-035880FM-12+0560SBKG V0201401N004610042019N0002001N1+02161+02111101461ADDAY161061AY221061GF108991081071004501999999KA1240M+02671MA1999999095271MD1999999-0071MW1611REMSYN100AAXX  05004 82795 21492 81409 10216 20211 39527 40146 76162 887// 333 10267 29094 55022 59007 60121;
0190827950999992003020512004-07220-035880FM-12+0560SBKG V0201401N004110075019N0100001N1+02451+02151101441ADDAY161061AY221061GF106991061061008001001001KA1240N+02111MA1999999095281MD1999999-0011MW1021REMSYN088AAXX  05124 82795 21597 61408 10245 20215 39528 40144 70262 86600 333 20211 59001 60144;
0167827950999992003020518004-07220-035880FM-12+0560SBKG V0201401N004111050019N0100001N1+02921+01891101171ADDAA106000091GF106991021041008001001021MA1999999095071MD1999999+0001REMSYN070AAXX  05184 82795 32597 61408 10292 20189 39507 40117 82402 333 58000;EQDQ01  00002PRCP06
0198827950999992003020600004-07220-035880FM-12+0560SBKG V0201401N004612200019N0010001N1+02351+01951101431ADDAA106000091GF103991031021008001001001KA1240M+02971MA1999999095291MD1999999+0021REMSYN088AAXX  06004 82795 32594 31409 10235 20195 39529 40143 83200 333 10297 29073 55089 58002;EQDQ01  00002PRCP06
0186827950999992003020612004-07220-035880FM-12+0560SBKG V0201801N003110075019N0100001N1+02501+02111101991ADDAA106000091GF106991061021008001001001KA1240N+02121MA1999999095351MD1999999+0071REMSYN076AAXX  06124 82795 32597 61806 10250 20211 39535 40199 86200 333 20212 58007;EQDQ01  00002PRCP06
0167827950999992003020618004-07220-035880FM-12+0560SBKG V0201401N005111050019N0100001N1+02931+02011101251ADDAA106000091GF106991031031008001001031MA1999999095151MD1999999+0081REMSYN070AAXX  06184 82795 32597 61410 10293 20201 39515 40125 83303 333 58008;EQDQ01  00002PRCP06
0198827950999992003020700004-07220-035880FM-12+0560SBKG V0201401N003610075019N0010001N1+02371+02151101471ADDAA106000091GF107991071021008001001001KA1240M+02991MA1999999095341MD1999999+0051REMSYN088AAXX  07004 82795 32594 71407 10237 20215 39534 40147 87200 333 10299 29078 55091 58005;EQDQ01  00002PRCP06
0186827950999992003020712004-07220-035880FM-12+0560SBKG V0201801N004612200019N0100001N1+02561+01931101461ADDAA106000091GF105991031021008001001011KA1240N+02151MA1999999095331MD1999999-0021REMSYN076AAXX  07124 82795 32597 51809 10256 20193 39533 40146 83201 333 20215 59002;EQDQ01  00002PRCP06
0167827950999992003020718004-07220-035880FM-12+0560SBKG V0201401N006210075019N0100001N1+03011+01811101091ADDAA106000091GF105991051021008001001001MA1999999095011MD1999999-0141REMSYN070AAXX  07184 82795 32597 51412 10301 20181 39501 40109 85200 333 59014;EQDQ01  00002PRCP06
0198827950999992003020800004-07220-035880FM-12+0560SBKG V0201401N005110075019N0010001N1+02311+02071101451ADDAA106000091GF106991061021008001001001KA1240M+03041MA1999999095311MD1999999-0031REMSYN088AAXX  08004 82795 32594 61410 10231 20207 39531 40145 86200 333 10304 29072 55100 59003;EQDQ01  00002PRCP06
0186827950999992003020812004-07220-035880FM-12+0560SBKG V0201401N004612200019N0100001N1+02511+01981101431ADDAA106000091GF106991041021008001001041KA1240N+02081MA1999999095291MD1999999-0041REMSYN076AAXX  08124 82795 32597 61409 10251 20198 39529 40143 84204 333 20208 59004;EQDQ01  00002PRCP06
0167827950999992003020818004-07220-035880FM-12+0560SBKG V0201401N003111050019N0100001N1+02771+01931101211ADDAA106000091GF107991031021008001001071MA1999999095101MD1999999+0091REMSYN070AAXX  08184 82795 32597 71406 10277 20193 39510 40121 83207 333 58009;EQDQ01  00002PRCP06
0198827950999992003020900004-07220-035880FM-12+0560SBKG V0201401N003610075019N0010001N1+02321+02051101421ADDAA106000091GF106991061021008001001001KA1240M+02791MA1999999095281MD1999999-0031REMSYN088AAXX  09004 82795 32594 61407 10232 20205 39528 40142 86200 333 10279 29076 55024 59003;EQDQ01  00002PRCP06
0186827950999992003020912004-07220-035880FM-12+0560SBKG V0201401N002110075019N0100001N1+02411+01971101441ADDAA106000091GF106991061021008001001001KA1240N+02081MA1999999095291MD1999999+0001REMSYN076AAXX  09124 82795 32597 61404 10241 20197 39529 40144 86200 333 20208 58000;EQDQ01  00002PRCP06
0167827950999992003020918004-07220-035880FM-12+0560SBKG V0201401N002612200019N0100001N1+03091+01881101011ADDAA106000091GF104991031021008001001011MA1999999094931MD1999999-0171REMSYN070AAXX  09184 82795 32597 41405 10309 20188 39493 40101 83201 333 59017;EQDQ01  00002PRCP06
0198827950999992003021000004-07220-035880FM-12+0560SBKG V0201401N003612200019N0010001N1+02331+02001101321ADDAA106000091GF102991011011008001001011KA1240M+03101MA1999999095181MD1999999-0101REMSYN088AAXX  10004 82795 32594 21407 10233 20200 39518 40132 81101 333 10310 29072 55094 59010;EQDQ01  00002PRCP06
0186827950999992003021012004-07220-035880FM-12+0560SBKG V0201401N003112200019N0100001N1+02581+01901101321ADDAA106000091GF106991041021008001001011KA1240N+02111MA1999999095201MD1999999-0091REMSYN076AAXX  10124 82795 32597 61406 10258 20190 39520 40132 84201 333 20211 59009;EQDQ01  00002PRCP06
0167827950999992003021018004-07220-035880FM-12+0560SBKG V0201401N003112200019N0100001N1+02931+01891101091ADDAA106000091GF106991021021008001001011MA1999999095001MD1999999+0071REMSYN070AAXX  10184 82795 32597 61406 10293 20189 39500 40109 82201 333 58007;EQDQ01  00002PRCP06
0198827950999992003021100004-07220-035880FM-12+0560SBKG V0200901N002610075019N0010001N1+02351+01911101381ADDAA106000091GF106991061021008001001001KA1240M+03041MA1999999095261MD1999999+0081REMSYN088AAXX  11004 82795 32594 60905 10235 20191 39526 40138 86200 333 10304 29068 55091 58008;EQDQ01  00002PRCP06
0186827950999992003021112004-07220-035880FM-12+0560SBKG V0201401N005710450019N0100001N1+02561+01881101341ADDAA106000091GF106991031021008001061011KA1240N+02161MA1999999095221MD1999999+0021REMSYN076AAXX  11124 82795 32597 61411 10256 20188 39522 40134 83261 333 20216 58002;EQDQ01  00002PRCP06
0137827950999992003021118004-07220-035880FM-12+0560SBKG V0201401N003119999999N0100001N1+03011+99999999999ADDAA106000091GF106991999999008001999999REMSYN069AAXX  11184 82795 32597 61406 10301 2081 39492 40099 83302 333 59008;EQDQ01  00002PRCP06
0198827950999992003021200004-07220-035880FM-12+0560SBKG V0200901N004612200019N0010001N1+02361+01971101321ADDAA106000091GF104991011021008001041011KA1240M+03051MA1999999095201MD1999999-0061REMSYN088AAXX  12004 82795 32594 40909 10236 20197 39520 40132 81241 333 10305 29068 55071 59006;EQDQ01  00002PRCP06
0186827950999992003021212004-07220-035880FM-12+0560SBKG V0200901N002610075019N0100001N1+02511+02021101501ADDAA106000091GF108991051021008001001071KA1240N+02211MA1999999095371MD1999999+0151REMSYN076AAXX  12124 82795 32597 80905 10251 20202 39537 40150 85207 333 20221 58015;EQDQ01  00002PRCP06
0183827950999992003021218004-07220-035880FM-12+0560SBKG V0201401N004619999999N0100001N1+02741+02021101121ADDAA106000091GF107991999031008001001001MA1999999095021MD1999999+0101REMSYN070AAXX  12184 82795 32597 71409 10274 20202 39502 40112 83300 333 58010;EQDQ01+000032SCOTLCQ02  00002PRCP06
0198827950999992003021300004-07220-035880FM-12+0560SBKG V0200901N003110075019N0010001N1+02361+02051101441ADDAA106000091GF108991051021008001011999KA1240M+02861MA1999999095361MD1999999+0121REMSYN088AAXX  13004 82795 32594 80906 10236 20205 39536 40144 8521/ 333 10286 29076 55032 58012;EQDQ01  00002PRCP06
0186827950999992003021312004-07220-035880FM-12+0560SBKG V0201401N004110075019N0100001N1+02481+02071101511ADDAA106000091GF107991071071008001001001KA1240N+02161MA1999999095371MD1999999+0001REMSYN076AAXX  13124 82795 32597 71408 10248 20207 39537 40151 87700 333 20216 58000;EQDQ01  00002PRCP06
0167827950999992003021318004-07220-035880FM-12+0560SBKG V0201401N004611050019N0100001N1+02931+01821101091ADDAA106000091GF107991031081008001001051MA1999999095011MD1999999-0011REMSYN070AAXX  13184 82795 32597 71409 10293 20182 39501 40109 83805 333 59001;EQDQ01  00002PRCP06
0198827950999992003021400004-07220-035880FM-12+0560SBKG V0201401N004611050019N0010001N1+02351+02051101441ADDAA106000091GF107991041021008001001021KA1240M+03081MA1999999095301MD1999999-0021REMSYN088AAXX  14004 82795 32594 71409 10235 20205 39530 40144 84202 333 10308 29074 55071 59002;EQDQ01  00002PRCP06
0186827950999992003021412004-07220-035880FM-12+0560SBKG V0201401N003111050019N0100001N1+02571+01851101401ADDAA106000091GF106991021011008001041061KA1240N+02081MA1999999095281MD1999999-0091REMSYN076AAXX  14124 82795 32597 61406 10257 20185 39528 40140 82146 333 20208 59009;EQDQ01  00002PRCP06
0139827950999992003021414004-07220-035880FM-15+0560SBKG V0201401N003112200019N0112651N1+02901+01901999999ADDGA1041+006909999GF104991999999999999999999MA1101491999999MW1001REMMET045SBKG 141400Z 14006KT 9999 SCT023 29/19 Q1015;EQDQ01+000000PRSWM2
0167827950999992003021418004-07220-035880FM-12+0560SBKG V0201401N003612200019N0100001N1+03031+01801101021ADDAA106000091GF105991011021008001001041MA1999999094961MD1999999-0071REMSYN070AAXX  14184 82795 32597 51407 10303 20180 39496 40102 81204 333 59007;EQDQ01  00002PRCP06
0198827950999992003021500004-07220-035880FM-12+0560SBKG V0201401N004112200019N0010001N1+02381+01951101331ADDAA106000091GF102991001001999999001011KA1240M+03151MA1999999095211MD1999999-0091REMSYN088AAXX  15004 82795 32994 21408 10238 20195 39521 40133 80001 333 10315 29066 55104 59009;EQDQ01  00002PRCP06
0186827950999992003021512004-07220-035880FM-12+0560SBKG V0201401N003610075019N0100001N1+02451+02051101301ADDAA106000091GF107991071071008001001001KA1240N+02131MA1999999095171MD1999999-0111REMSYN076AAXX  15124 82795 32597 71407 10245 20205 39517 40130 87700 333 20213 59011;EQDQ01  00002PRCP06
0167827950999992003021518004-07220-035880FM-12+0560SBKG V0201401N004611050019N0100001N1+03141+01821100881ADDAA106000091GF106991021011008001061041MA1999999094821MD1999999-0121REMSYN070AAXX  15184 82795 32597 61409 10314 20182 39482 40088 82164 333 59012;EQDQ01  00002PRCP06
0186827950999992003021612004-07220-035880FM-12+0560SBKG V0201401N004612200019N0100001N1+02641+02031101261ADDAA106000091GF106991041021008001001041KA1240N+02061MA1999999095161MD1999999-0011REMSYN076AAXX  16124 82795 32597 61409 10264 20203 39516 40126 84204 333 20206 59001;EQDQ01  00002PRCP06
0186827950999992003021712004-07220-035880FM-12+0560SBKG V0201401N004110450019N0100001N1+02641+02001101311ADDAA106000091GF105991031021008001041001KA1240N+02161MA1999999095211MD1999999+0051REMSYN076AAXX  17124 82795 32597 51408 10264 20200 39521 40131 83240 333 20216 58005;EQDQ01  00002PRCP06
0167827950999992003021718004-07220-035880FM-12+0560SBKG V0201401N004111050019N0100001N1+03211+01751101071ADDAA106000091GF105991011021008001001021MA1999999095021MD1999999+0181REMSYN070AAXX  17184 82795 32597 51408 10321 20175 39502 40107 81202 333 58018;EQDQ01  00002PRCP06
0198827950999992003021800004-07220-035880FM-12+0560SBKG V0200901N004119999999N0010001N1+02381+01911101371ADDAA106000091GF106991001001999999001051KA1240M+03251MA1999999095261MD1999999+0161REMSYN088AAXX  18004 82795 32994 60908 10238 20191 39526 40137 80005 333 10325 29065 55106 58016;EQDQ01  00002PRCP06
0186827950999992003021812004-07220-035880FM-12+0560SBKG V0201401N004112200019N0100001N1+02581+01851101431ADDAA106000091GF105991031021008001001011KA1240N+02121MA1999999095311MD1999999+0101REMSYN076AAXX  18124 82795 32597 51408 10258 20185 39531 40143 83201 333 20212 58010;EQDQ01  00002PRCP06
0167827950999992003021818004-07220-035880FM-12+0560SBKG V0201401N002111050019N0100001N1+03221+01711101031ADDAA106000091GF106991021081008001001051MA1999999094971MD1999999-0051REMSYN070AAXX  18184 82795 32597 61404 10322 20171 39497 40103 82805 333 59005;EQDQ01  00002PRCP06
0198827950999992003021900004-07220-035880FM-12+0560SBKG V0200901N003612200019N0010001N1+02431+01931101461ADDAA106000091GF105991011011008001001041KA1240M+03221MA1999999095341MD1999999+0081REMSYN088AAXX  19004 82795 32594 50907 10243 20193 39534 40146 81104 333 10322 29063 55107 58008;EQDQ01  00002PRCP06
0190827950999992003021912004-07220-035880FM-12+0560SBKG V0201401N002110075019N0100001N1+02641+02141101551ADDAY161061AY221061GF106991061021008001001001KA1240N+02051MA1999999095311MD1999999+0001MW1021REMSYN088AAXX  19124 82795 21597 61404 10264 20214 39531 40155 70262 86200 333 20205 58000 69984;
0167827950999992003021918004-07220-035880FM-12+0560SBKG V0201401N004111050019N0100001N1+03071+01931100981ADDAA106000091GF105991031021008001001021MA1999999095011MD1999999+0041REMSYN070AAXX  19184 82795 32597 51408 10307 20193 39501 40098 83202 333 58004;EQDQ01  00002PRCP06
0198827950999992003022000004-07220-035880FM-12+0560SBKG V0200901N003110075019N0010001N1+02441+02171101391ADDAA106000091GF106991051021008001041001KA1240M+03171MA1999999095291MD1999999-0051REMSYN088AAXX  20004 82795 32594 60906 10244 20217 39529 40139 85240 333 10317 29074 55092 59005;EQDQ01  00002PRCP06
0186827950999992003022012004-07220-035880FM-12+0560SBKG V0201401N003610450019N0100001N1+02591+02121101311ADDAA106000091GF106991041021008001051001KA1240N+02261MA1999999095211MD1999999-0101REMSYN076AAXX  20124 82795 32597 61407 10259 20212 39521 40131 84250 333 20226 59010;EQDQ01  00002PRCP06
0171827950999992003022018004-07220-035880FM-12+0560SBKG V0201401N003110075019N0100001N1+02721+02101101081ADDAY161061AY291061GF106991061071008001001001MA1999999095081MD1999999+0071MW1021REMSYN082AAXX  20184 82795 21597 61406 10272 20210 39508 40108 70269 86700 333 58007 60011;
0198827950999992003022100004-07220-035880FM-12+0560SBKG V0201401N003110075019N0010001N1+02371+01971101331ADDAA106000091GF108991081061008001999999KA1240M+03001MA1999999095211MD1999999-0081REMSYN088AAXX  21004 82795 32594 81406 10237 20197 39521 40133 886// 333 10300 29076 55057 59008;EQDQ01  00002PRCP06
0162827950999992003022112004-07220-035880FM-12+0560SBKG V0201401N002610075019N0100001N1+02531+02001101311ADDGF108991051071008001011001KA1240N+02151MA1999999095191MD1999999-0021REMSYN082AAXX  21124 82795 22597 81405 10253 20200 39519 40131 85710 333 20215 59002 60014;
0211827950999992003022118004-07220-035880FM-12+0560SBKG V0200901N005110075019N0100001N1+02301+02011101281ADDAA106000091AY101061AY201061GF107991999021008001001001MA1999999095101MD1999999+0021MW1141REMSYN076AAXX  21184 82795 31597 70910 10230 20201 39510 40128 71400 85200 333 58002;EQDQ01+000052SCOTLCQ02  00002PRCP06
0198827950999992003022200004-07220-035880FM-12+0560SBKG V0200901N002610450019N0010001N1+02221+02011101341ADDAA106000091GF106991041021008001041001KA1240M+02791MA1999999095211MD1999999+0001REMSYN088AAXX  22004 82795 32594 60905 10222 20201 39521 40134 84240 333 10279 29082 55064 58000;EQDQ01  00002PRCP06
0190827950999992003022212004-07220-035880FM-12+0560SBKG V0201401N003111050019N0100001N1+02611+02061101441ADDAY151061AY221061GF106991031041008001001021KA1240N+02171MA1999999095301MD1999999+0111MW1021REMSYN088AAXX  22124 82795 21597 61406 10261 20206 39530 40144 70252 83402 333 20217 58011 69914;
0198827950999992003022300004-07220-035880FM-12+0560SBKG V0201401N004610450019N0010001N1+02331+02021101451ADDAA106000091GF105991021021008001031001KA1240M+03101MA1999999095331MD1999999+0121REMSYN088AAXX  23004 82795 32594 51409 10233 20202 39533 40145 82230 333 10310 29072 55093 58012;EQDQ01  00002PRCP06
0186827950999992003022312004-07220-035880FM-12+0560SBKG V0201401N004610450019N0100001N1+02581+02041101581ADDAA106000091GF105991031021008001041001KA1240N+02171MA1999999095441MD1999999+0141REMSYN076AAXX  23124 82795 32597 51409 10258 20204 39544 40158 83240 333 20217 58014;EQDQ01  00002PRCP06
0202827950999992003022400004-07220-035880FM-12+0560SBKG V0201401N003110075019N0010001N1+02211+02081101581ADDAY161061AY221061GF108991081071008001999999KA1240M+03101MA1999999095441MD1999999+0111MW1021REMSYN100AAXX  24004 82795 21594 81406 10221 20208 39544 40158 70262 887// 333 10310 29080 55062 58011 60041;
0190827950999992003022412004-07220-035880FM-12+0560SBKG V0201401N003110075019N0100001N1+02341+02051101691ADDAY161061AY221061GF108991071071008001999999KA1240N+02081MA1999999095511MD1999999+0071MW1021REMSYN088AAXX  24124 82795 21597 81406 10234 20205 39551 40169 70262 877// 333 20208 58007 60174;
0171827950999992003022418004-07220-035880FM-12+0560SBKG V0201401N002610120019N0100001N1+02371+02051101511ADDAY161061AY221061GF108991081081008001999999MA1999999095321MD1999999+0161MW1021REMSYN082AAXX  24184 82795 21597 81405 10237 20205 39532 40151 70262 888// 333 58016 60021;
0198827950999992003022500004-07220-035880FM-12+0560SBKG V0200901N002110075019N0010001N1+02211+02081101611ADDAA106000091GF107991071061008001001001KA1240M+02551MA1999999095431MD1999999-0011REMSYN088AAXX  25004 82795 32594 70904 10221 20208 39543 40161 87600 333 10255 29088 55000 59001;EQDQ01  00002PRCP06
0190827950999992003022512004-07220-035880FM-12+0560SBKG V0201801N002110075019N0100001N1+02211+02081101471ADDAY161061AY221061GF106991061061008001001001KA1240N+02131MA1999999095281MD1999999-0231MW1021REMSYN088AAXX  25124 82795 21597 61804 10221 20208 39528 40147 70262 86600 333 20213 59023 60024;
0149827950999992003022518004-07220-035880FM-12+0560SBKG V0201401N005110450019N0100001N1+02731+01981101121ADDAA106000091GF107991031031008001081001MA1999999095001REMSYN066AAXX  25184 82795 32597 71410 10273 20198 39500 40112 59032 83380;EQDQ01  00002PRCP06
0198827950999992003022600004-07220-035880FM-12+0560SBKG V0200901N002610075019N0010001N1+02261+02031101461ADDAA106000091GF106991061021008001001001KA1240M+02831MA1999999095281MD1999999-0151REMSYN088AAXX  26004 82795 32594 60905 10226 20203 39528 40146 86200 333 10283 29082 55040 59015;EQDQ01  00002PRCP06
0186827950999992003022612004-07220-035880FM-12+0560SBKG V0201401N003610450019N0100001N1+02521+01981101341ADDAA106000091GF107991031021008001061021KA1240N+02161MA1999999095211MD1999999-0071REMSYN076AAXX  26124 82795 32597 71407 10252 20198 39521 40134 83262 333 20216 59007;EQDQ01  00002PRCP06
0167827950999992003022618004-07220-035880FM-12+0560SBKG V0201401N003111050019N0100001N1+02881+01861101081ADDAA106000091GF105991011021008001031041MA1999999094991MD1999999-0011REMSYN070AAXX  26184 82795 32597 51406 10288 20186 39499 40108 81234 333 59001;EQDQ01  00002PRCP06
0198827950999992003022700004-07220-035880FM-12+0560SBKG V0200901N004610075019N0010001N1+02351+02071101451ADDAA106000091GF106991061021008001001001KA1240M+02931MA1999999095311MD1999999+0031REMSYN088AAXX  27004 82795 32594 60909 10235 20207 39531 40145 86200 333 10293 29074 55078 58003;EQDQ01  00002PRCP06
0186827950999992003022712004-07220-035880FM-12+0560SBKG V0201401N003610075019N0100001N1+02351+02051101471ADDAA106000091GF108991081071008001999999KA1240N+02081MA1999999095311MD1999999+0101REMSYN076AAXX  27124 82795 32597 81407 10235 20205 39531 40147 887// 333 20208 58010;EQDQ01  00002PRCP06
0171827950999992003022718004-07220-035880FM-12+0560SBKG V0201401N002610450019N0100001N1+02451+02111101321ADDAY161061AY221061GF108991041081008001021001MA1999999095151MD1999999+0161MW1021REMSYN082AAXX  27184 82795 21597 81405 10245 20211 39515 40132 70262 84820 333 58016 60101;
0202827950999992003022800004-07220-035880FM-12+0560SBKG V0200901N003110075019N0010001N1+02231+02171101541ADDAY161061AY221061GF108991081061008001999999KA1240M+02471MA1999999095371MD1999999+0061MW1021REMSYN100AAXX  28004 82795 21594 80906 10223 20217 39537 40154 70262 886// 333 10247 29090 55007 58006 69991;
0162827950999992003022812004-07220-035880FM-12+0560SBKG V0201401N003610075019N0100001N1+02531+02151101531ADDGF106991061021008001001001KA1240N+02181MA1999999095371MD1999999+0061REMSYN082AAXX  28124 82795 22597 61407 10253 20215 39537 40153 86200 333 20218 58006 60114;
0171827950999992003022818004-07220-035880FM-12+0560SBKG V0201401N004610450019N0100001N1+02681+02041101201ADDAY161061AY221061GF106991031041008001021001MA1999999095081MD1999999-0071MW1021REMSYN082AAXX  28184 82795 21597 61409 10268 20204 39508 40120 70262 83420 333 59007 60061;
0183827950999992003030118004-07220-035880FM-12+0560SBKG V0201401N003619999999N0100001N1+02981+02061101031ADDAA106000091GF106991999021008001001001MA1999999097941MD1999999-0141REMSYN070AAXX  01184 82795 32597 61407 10298 20206 39794 40103 82200 333 59014;EQDQ01+000022SCOTLCQ02  00002PRCP06
0152827950999992003030200004-07220-035880FM-12+0560SBKG V0200901N003619999999N0010001N1+02351+02131999999ADDAA106000091GF106991999999008001999999REMSYN084AAXX  02004 82795 32594 60907 10235 20213 10300 29077 39523 40137 55087 59010 83200;EQDQ01  00002PRCP06
0190827950999992003030212004-07220-035880FM-12+0560SBKG V0201401N003110075019N0100001N1+02441+02031101351ADDAY161061AY221061GF106991061021008001001001KA1240N+02141MA1999999095221MD1999999-0131MW1021REMSYN088AAXX  02124 82795 21597 61406 10244 20203 39522 40135 70262 86200 333 20214 59013 60044;
0167827950999992003030218004-07220-035880FM-12+0560SBKG V0201401N002611050019N0100001N1+02881+01891100931ADDAA106000091GF106991021021008001001081MA1999999094861MD1999999-0081REMSYN070AAXX  02184 82795 32597 61405 10288 20189 39486 40093 82208 333 59008;EQDQ01  00002PRCP06
0198827950999992003030300004-07220-035880FM-12+0560SBKG V0200901N004610075019N0010001N1+02361+02111101261ADDAA106000091GF106991061021008001001001KA1240M+02941MA1999999095131MD1999999-0101REMSYN088AAXX  03004 82795 32594 60909 10236 20211 39513 40126 86200 333 10294 29076 55096 59010;EQDQ01  00002PRCP06
0186827950999992003030312004-07220-035880FM-12+0560SBKG V0201401N004612200019N0100001N1+02501+02001101391ADDAA106000091GF106991041021008001001011KA1240N+02131MA1999999095251MD1999999+0031REMSYN076AAXX  03124 82795 32597 61409 10250 20200 39525 40139 84201 333 20213 58003;EQDQ01  00002PRCP06
0167827950999992003030318004-07220-035880FM-12+0560SBKG V0200901N002611050019N0100001N1+02921+01861101031ADDAA106000091GF106991021011008001001051MA1999999094951MD1999999+0091REMSYN070AAXX  03184 82795 32597 60905 10292 20186 39495 40103 82105 333 58009;EQDQ01  00002PRCP06
0198827950999992003030400004-07220-035880FM-12+0560SBKG V0200901N003112200019N0010001N1+02351+02011101351ADDAA106000091GF104991041011008001001001KA1240M+02951MA1999999095221MD1999999+0091REMSYN088AAXX  04004 82795 32594 40906 10235 20201 39522 40135 84100 333 10295 29072 55098 58009;EQDQ01  00002PRCP06
0190827950999992003030412004-07220-035880FM-12+0560SBKG V0201401N002610075019N0100001N1+02421+02111101581ADDAY161061AY221061GF108991081071008001999999KA1240N+02061MA1999999095421MD1999999+0231MW1021REMSYN088AAXX  04124 82795 21597 81405 10242 20211 39542 40158 70262 887// 333 20206 58023 60184;
0171827950999992003030418004-07220-035880FM-12+0560SBKG V0201401N004110450019N0100001N1+02591+02081101241ADDAY161061AY221061GF107991041031008001081001MA1999999095101MD1999999+0051MW1021REMSYN082AAXX  04184 82795 21597 71408 10259 20208 39510 40124 70262 84380 333 58005 69951;
0214827950999992003030500004-07220-035880FM-12+0560SBKG V0200901N003110075019N0010001N1+02321+02161101431ADDAA106000091GF106991999021008001001001KA1240M+02671MA1999999095281MD1999999+0061REMSYN088AAXX  05004 82795 32594 60906 10232 20216 39528 40143 85200 333 10267 29085 55014 58006;EQDQ01+000052SCOTLCQ02  00002PRCP06
0162827950999992003030512004-07220-035880FM-12+0560SBKG V0201401N004110075019N0100001N1+02511+02131101371ADDGF106991061061008001001001KA1240N+02201MA1999999095231MD1999999-0191REMSYN082AAXX  05124 82795 22597 61408 10251 20213 39523 40137 86600 333 20220 59019 69954;
0167827950999992003030518004-07220-035880FM-12+0560SBKG V0201401N005111050019N0100001N1+02841+02011101081ADDAA106000091GF105991031031008001001021MA1999999094921MD1999999-0181REMSYN070AAXX  05184 82795 32597 51410 10284 20201 39492 40108 83302 333 59018;EQDQ01  00002PRCP06
0198827950999992003030600004-07220-035880FM-12+0560SBKG V0200901N003112200019N0010001N1+02291+02091101301ADDAA106000091GF103991031021008001001001KA1240M+02921MA1999999095171MD1999999-0111REMSYN088AAXX  06004 82795 32594 30906 10229 20209 39517 40130 83200 333 10292 29080 55083 59011;EQDQ01  00002PRCP06
0186827950999992003030612004-07220-035880FM-12+0560SBKG V0201401N003612200019N0100001N1+02631+01931101291ADDAA106000091GF107991041021008001001011KA1240N+02151MA1999999095171MD1999999-0061REMSYN076AAXX  06124 82795 32597 71407 10263 20193 39517 40129 84201 333 20215 59006;EQDQ01  00002PRCP06
0167827950999992003030618004-07220-035880FM-12+0560SBKG V0201401N005111050019N0100001N1+02841+01911101031ADDAA106000091GF107991031041008001001051MA1999999094941MD1999999-0041REMSYN070AAXX  06184 82795 32597 71410 10284 20191 39494 40103 83405 333 59004;EQDQ01  00002PRCP06
0198827950999992003030700004-07220-035880FM-12+0560SBKG V0200901N003112200019N0010001N1+02311+02071101291ADDAA106000091GF102991021041008001001001KA1240M+02991MA1999999095171MD1999999+0001REMSYN088AAXX  07004 82795 32594 20906 10231 20207 39517 40129 82400 333 10299 29074 55082 58000;EQDQ01  00002PRCP06
0186827950999992003030712004-07220-035880FM-12+0560SBKG V0201401N005712200019N0100001N1+02521+02111101371ADDAA106000091GF106991041021008001001011KA1240N+02131MA1999999095241MD1999999+0071REMSYN076AAXX  07124 82795 32597 61411 10252 20211 39524 40137 84201 333 20213 58007;EQDQ01  00002PRCP06
0190827950999992003030718004-07220-035880FM-12+0560SBKG V0201401N005119999999N0100001N1+02811+01811101171ADDAY151061AY221061GF105991999081008001001001MA1999999095061MD1999999+0121MW1021REMSYN082AAXX  07184 82795 21597 51410 10281 20181 39506 40117 70252 84800 333 58012 69911;EQDQ01+000042SCOTLC
0198827950999992003030800004-07220-035880FM-12+0560SBKG V0200901N003612200019N0010001N1+02331+02071101411ADDAA106000091GF103991021021008001041001KA1240M+03001MA1999999095271MD1999999+0101REMSYN088AAXX  08004 82795 32594 30907 10233 20207 39527 40141 82240 333 10300 29076 55086 58010;EQDQ01  00002PRCP06
0162827950999992003030812004-07220-035880FM-12+0560SBKG V0201401N004610075019N0100001N1+02521+02071101431ADDGF106991061021008001001001KA1240N+02181MA1999999095291MD1999999+0051REMSYN082AAXX  08124 82795 22597 61409 10252 20207 39529 40143 86200 333 20218 58005 69914;
0198827950999992003030900004-07220-035880FM-12+0560SBKG V0201401N003110075019N0010001N1+02311+01831101461ADDAA106000091GF106991051021008001041001KA1240M+02841MA1999999095321MD1999999+0051REMSYN088AAXX  09004 82795 32594 61406 10231 20183 39532 40146 85240 333 10284 29070 55039 58005;EQDQ01  00002PRCP06
0186827950999992003030912004-07220-035880FM-12+0560SBKG V0201401N003110075019N0100001N1+02601+02061101401ADDAA106000091GF106991061021008001001001KA1240N+02121MA1999999095281MD1999999-0011REMSYN076AAXX  09124 82795 32597 61406 10260 20206 39528 40140 86200 333 20212 59001;EQDQ01  00002PRCP06
0183827950999992003030918004-07220-035880FM-12+0560SBKG V0200901N002619999999N0100001N1+02781+02131101111ADDAA106000091GF106991999021008001001001MA1999999095021MD1999999-0081REMSYN070AAXX  09184 82795 32597 60905 10278 20213 39502 40111 83200 333 59008;EQDQ01+000032SCOTLCQ02  00002PRCP06
0214827950999992003031000004-07220-035880FM-12+0560SBKG V0200901N004619999999N0010001N1+02421+02151101351ADDAA106000091GF106991999021008001001001KA1240M+02861MA1999999095241MD1999999-0081REMSYN088AAXX  10004 82795 32594 60909 10242 20215 39524 40135 83200 333 10286 29078 55074 59008;EQDQ01+000032SCOTLCQ02  00002PRCP06
0186827950999992003031012004-07220-035880FM-12+0560SBKG V0201401N004610075019N0100001N1+02591+02141101371ADDAA106000091GF106991061021008001001001KA1240N+02221MA1999999095261MD1999999-0021REMSYN076AAXX  10124 82795 32597 61409 10259 20214 39526 40137 86200 333 20222 59002;EQDQ01  00002PRCP06
0167827950999992003031018004-07220-035880FM-12+0560SBKG V0201401N003112200019N0100001N1+02951+01941101021ADDAA106000091GF104991041021008001001001MA1999999094941MD1999999-0081REMSYN070AAXX  10184 82795 32597 41406 10295 20194 39494 40102 84200 333 59008;EQDQ01  00002PRCP06
0198827950999992003031100004-07220-035880FM-12+0560SBKG V0200901N002612200019N0010001N1+02361+02091101371ADDAA106000091GF103991031021008001001001KA1240M+03091MA1999999095251MD1999999+0011REMSYN088AAXX  11004 82795 32594 30905 10236 20209 39525 40137 83200 333 10309 29075 55104 58001;EQDQ01  00002PRCP06
0186827950999992003031112004-07220-035880FM-12+0560SBKG V0201401N003612200019N0100001N1+02621+02031101351ADDAA106000091GF106991031021008001001011KA1240N+02111MA1999999095241MD1999999-0021REMSYN076AAXX  11124 82795 32597 61407 10262 20203 39524 40135 83201 333 20211 59002;EQDQ01  00002PRCP06
0167827950999992003031118004-07220-035880FM-12+0560SBKG V0201401N004612200019N0100001N1+02991+01761101151ADDAA106000091GF104991041021008001001001MA1999999095071MD1999999+0131REMSYN070AAXX  11184 82795 32597 41409 10299 20176 39507 40115 84200 333 58013;EQDQ01  00002PRCP06
0198827950999992003031200004-07220-035880FM-12+0560SBKG V0200901N003612200019N0010001N1+02341+02011101331ADDAA106000091GF103991031021008001001001KA1240M+03051MA1999999095211MD1999999-0041REMSYN088AAXX  12004 82795 32594 30907 10234 20201 39521 40133 83200 333 10305 29070 55100 59004;EQDQ01  00002PRCP06
0186827950999992003031212004-07220-035880FM-12+0560SBKG V0201401N003610075019N0100001N1+02571+02081101501ADDAA106000091GF105991051021008001001001KA1240N+02011MA1999999095371MD1999999+0131REMSYN076AAXX  12124 82795 32597 51407 10257 20208 39537 40150 85200 333 20201 58013;EQDQ01  00002PRCP06
0167827950999992003031218004-07220-035880FM-12+0560SBKG V0201401N003110075019N0100001N1+03011+01881101081ADDAA106000091GF105991051031008001001001MA1999999094981MD1999999-0091REMSYN070AAXX  12184 82795 32597 51406 10301 20188 39498 40108 85300 333 59009;EQDQ01  00002PRCP06
0197827950999992003031300004-07220-035880FM-12+0560SBKG V0200901N004112200019N0010001N1+02381+02131101331ADDAA106000091GF102991021021008001001001KA1240M+03041MA1999999095211MD1999999+0001REMSYN087AAXX  13004 8279532594 20908 10238 20213 39521 40133 82200 333 10304 29074 55099 58000;EQDQ01  00002PRCP06
0190827950999992003031312004-07220-035880FM-12+0560SBKG V0201401N004610450019N0100001N1+02631+02071101301ADDAY161061AY221061GF105991041021008001081001KA1240N+02231MA1999999095201MD1999999-0171MW1021REMSYN088AAXX  13124 82795 21597 51409 10263 20207 39520 40130 70262 84280 333 20223 59017 69944;
0167827950999992003031318004-07220-035880FM-12+0560SBKG V0201401N003112200019N0100001N1+03021+01891101301ADDAA106000091GF103991031021008001001001MA1999999094901MD1999999-0081REMSYN070AAXX  13184 82795 32597 31406 10302 20189 39490 40130 83200 333 59008;EQDQ01  00002PRCP06
0198827950999992003031400004-07220-035880FM-12+0560SBKG V0200901N003110075019N0010001N1+02441+02131101261ADDAA106000091GF105991051021008001001001KA1240M+03101MA1999999095171MD1999999-0041REMSYN088AAXX  14004 82795 32594 50906 10244 20213 39517 40126 85200 333 10310 29072 55095 59004;EQDQ01  00002PRCP06
0190827950999992003031412004-07220-035880FM-12+0560SBKG V0201401N003610075019N0100001N1+02681+02111101271ADDAY161061AY221061GF106991061021008001001001KA1240N+02251MA1999999095181MD1999999-0021MW1021REMSYN088AAXX  14124 82795 21597 61407 10268 20211 39518 40127 70262 86200 333 20225 59002 69984;
0171827950999992003031418004-07220-035880FM-12+0560SBKG V0201401N005710450019N0100001N1+02871+01981100971ADDAY151061AY221061GF105991021031008001081001MA1999999094971MD1999999+0001MW1021REMSYN082AAXX  14184 82795 21597 51411 10287 20198 39497 40097 70252 82380 333 58000 69911;
0198827950999992003031500004-07220-035880FM-12+0560SBKG V0200901N003610450019N0010001N1+02411+02111101291ADDAA106000091GF107991041021008001061001KA1240M+03091MA1999999095201MD1999999+0031REMSYN088AAXX  15004 82795 32594 70907 10241 20211 39520 40129 84260 333 10309 29074 55081 58003;EQDQ01  00002PRCP06
0190827950999992003031512004-07220-035880FM-12+0560SBKG V0200901N004110075019N0040001N1+02021+01921101611ADDAY161061AY221061GF108991081071008001999999KA1240N+02021MA1999999095411MD1999999+0231MW1611REMSYN088AAXX  15124 82795 21596 80908 10202 20192 39541 40161 76162 887// 333 20202 58023 60074;
0171827950999992003031518004-07220-035880FM-12+0560SBKG V0200901N003610450019N0100001N1+02701+02171101051ADDAY161061AY221061GF106991031091008001041001MA1999999094921MD1999999+0021MW1151REMSYN082AAXX  15184 82795 21597 60907 10270 20217 39492 40105 71562 83940 333 58002 60021;
0202827950999992003031600004-07220-035880FM-12+0560SBKG V0200901N001510075019N0010001N1+02841+02161101531ADDAY161061AY221061GF108991081071008001999999KA1240M+02831MA1999999095311MD1999999+0111MW1021REMSYN100AAXX  16004 82795 21594 80903 10284 20216 39531 40153 70262 887// 333 10283 29089 55023 58011 60031;
0209827950999992003031612004-07220-035880FM-12+0560SBKG V0200901N001519999999N0100001N1+02541+02041101441ADDAY161061AY221061GF105991999021008001001001KA1240N+02031MA1999999095301MD1999999-0111MW1021REMSYN088AAXX  16124 82795 21597 50903 10254 20204 39530 40144 70262 83200 333 20203 59011 60044;EQDQ01+000032SCOTLC
0183827950999992003031618004-07220-035880FM-12+0560SBKG V0201401N001510075019N0100001N1+02841+01961101061ADDAA106000091GF106991999021008001001001MA1999999094941MD1999999+0041REMSYN070AAXX  16184 82795 32597 61403 10284 20196 39494 40106 85200 333 58004;EQDQ01+000052SCOTLCQ02  00002PRCP06
0198827950999992003031700004-07220-035880FM-12+0560SBKG V0201401N002610075019N0010001N1+02341+02151101481ADDAA106000091GF105991051061008001001001KA1240M+02881MA1999999095351MD1999999+0041REMSYN088AAXX  17004 82795 32594 51405 10234 20215 39535 40148 85600 333 10288 29080 55089 58004;EQDQ01  00002PRCP06
0167827950999992003031718004-07220-035880FM-12+0560SBKG V0201401N004611050019N0100001N1+02811+01951101001ADDAA106000091GF105991021031008001001021MA1999999094871MD1999999+0071REMSYN070AAXX  17184 82795 32597 51409 10281 20195 39487 40100 82302 333 58007;EQDQ01  00002PRCP06
0221827950999992003031800004-07220-035880FM-12+0560SBKG V0200901N002119999999N0002001N1+02241+02071101381ADDAY121061AY221061GF107991999021008001001001KA1240M+02831MA1999999095201MD1999999-0151MW1601REMSYN100AAXX  18004 82795 21592 70904 10224 20207 39520 40138 76022 84200 333 10283 29082 55040 59015 69961;EQDQ01+000042SCOTLC
0162827950999992003031812004-07220-035880FM-12+0560SBKG V0200901N003110075019N0100001N1+02461+02171101391ADDGF106991061061008001001001KA1240N+02151MA1999999095241MD1999999-0091REMSYN082AAXX  18124 82795 22597 60906 10246 20217 39524 40139 86600 333 20215 59009 69964;
0171827950999992003031818004-07220-035880FM-12+0560SBKG V0201401N003610075019N0040001N1+02291+02091101151ADDAY161061AY221061GF108991081071008001999999MA1999999094981MD1999999+0011MW1161REMSYN082AAXX  18184 82795 21596 81407 10229 20209 39498 40115 71662 887// 333 58001 60041;
0171827950999992003031918004-07220-035880FM-12+0560SBKG V0201401N003110450019N0040001N1+02511+02091101271ADDAY121061AY221061GF108991041081008001041999MA1999999095131MD1999999+0151MW1211REMSYN082AAXX  19184 82795 21596 81406 10251 20209 39513 40127 72122 8484/ 333 58015 60081;
0179827950999992003032000004-07220-035880FM-12+0560SBKG V0200501N002610120019N0010001N1+02291+02161101471ADDAA106000021GF108991081081008001999999KA1240M+02631MA1999999095291MD1999999+0021REMSYN088AAXX  20004 82795 32594 80505 10229 20216 39529 40147 888// 333 10263 29089 55014 58002;
0190827950999992003032012004-07220-035880FM-12+0560SBKG V0201401N003610042019N0020001N1+02201+02131101541ADDAY161061AY251061GF108991051071004501021999KA1240N+02151MA1999999095361MD1999999-0051MW1551REMSYN088AAXX  20124 82795 21495 81407 10220 20213 39536 40154 75565 8572/ 333 20215 59005 60124;
0171827950999992003032018004-07220-035880FM-12+0560SBKG V0201401N002110042019N0020001N1+02241+02161101301ADDAY161061AY251061GF108991081071004501999999MA1999999095121MD1999999-0011MW1631REMSYN082AAXX  20184 82795 21495 81404 10224 20216 39512 40130 76365 887// 333 59001 60101;
0202827950999992003032100004-07220-035880FM-12+0560SBKG V0200901N002110075019N0010001N1+02161+02091101561ADDAY161061AY261061GF108991081061008001999999KA1240M+02351MA1999999095351MD1999999+0061MW1021REMSYN100AAXX  21004 82795 21594 80904 10216 20209 39535 40156 70266 886// 333 10235 29096 55000 58006 60041;
0190827950999992003032112004-07220-035880FM-12+0560SBKG V0200901N002610075019N0100001N1+02391+02211101561ADDAY161061AY221061GF106991061061008001001001KA1240N+02081MA1999999095381MD1999999+0021MW1021REMSYN088AAXX  21124 82795 21597 60905 10239 20221 39538 40156 70262 86600 333 20208 58002 60164;
0171827950999992003032118004-07220-035880FM-12+0560SBKG V0201401N003610120019N0100001N1+02551+02251101141ADDAY161061AY221061GF108991081081008001999999MA1999999095001MD1999999-0121MW1021REMSYN082AAXX  21184 82795 21597 81407 10255 20225 39500 40114 70262 888// 333 59012 60041;
0162827950999992003032812004-07220-035880FM-12+0560SBKG V0201401N003610075019N0100001N1+02591+02011101481ADDGF106991061021008001001001KA1240N+02111MA1999999095351MD1999999+0061REMSYN082AAXX  28124 82795 22597 61407 10259 20201 39535 40148 86200 333 20211 58006 60034;
0167827950999992003032818004-07220-035880FM-12+0560SBKG V0201401N001510120019N0100001N1+02881+02051101241ADDAA106000091GF105991051081008001001001MA1999999095141MD1999999+0111REMSYN070AAXX  28184 82795 32597 51403 10288 20205 39514 40124 85800 333 58011;EQDQ01  00002PRCP06
0190827950999992003032912004-07220-035880FM-12+0560SBKG V0201401N003110075019N0100001N1+02521+02211101481ADDAY161061AY221061GF106991061021008001001001KA1240N+02111MA1999999095351MD1999999+0001MW1021REMSYN088AAXX  29124 82795 21597 61406 10252 20221 39535 40148 70262 86200 333 20211 58000 69924;
0167827950999992003032918004-07220-035880FM-12+0560SBKG V0201401N003610450019N0100001N1+02921+02141100991ADDAA106000091GF106991021021008001041051MA1999999094911MD1999999-0231REMSYN070AAXX  29184 82795 32597 61407 10292 20214 39491 40099 82245 333 59023;EQDQ01  00002PRCP06
0242827950999992003033000004-07220-035880FM-12+0560SBKG V0200901N003619999999N0010001N1+02381+02191101331ADDAA106000091AY121061AY221061GF107991999021008001001001KA1240M+03001MA1999999095211MD1999999-0091MW1131REMSYN094AAXX  30004 82795 31594 70907 10238 20219 39521 40133 71322 84200 333 10300 29081 55070 59009;EQDQ01+000042SCOTLCQ02  00002PRCP06
0190827950999992003033012004-07220-035880FM-12+0560SBKG V0201401N003610075019N0100001N1+02561+02111101311ADDAY161061AY221061GF107991071061008001001001KA1240N+02221MA1999999095191MD1999999-0161MW1021REMSYN088AAXX  30124 82795 21597 71407 10256 20211 39519 40131 70262 87600 333 20222 59016 69944;
0198827950999992003033100004-07220-035880FM-12+0560SBKG V0200901N003610075019N0010001N1+02301+02221101271ADDAA106000091GF108991081061008001999999KA1240M+02971MA1999999095141MD1999999-0071REMSYN088AAXX  31004 82795 32594 80907 10230 20222 39514 40127 886// 333 10297 29088 55054 59007;EQDQ01  00002PRCP06
0162827950999992003033112004-07220-035880FM-12+0560SBKG V0201401N004111050019N0100001N1+02521+02131101271ADDGF106991041021008001001031KA1240N+02211MA1999999095141MD1999999-0051REMSYN082AAXX  31124 82795 22597 61408 10252 20213 39514 40127 84203 333 20221 59005 60054;
0190827950999992003033118004-07220-035880FM-12+0560SBKG V0201401N003619999999N0100001N1+02511+02111100971ADDAY151061AY221061GF107991999001008001999999MA1999999094841MD1999999-0031MW1021REMSYN082AAXX  31184 82795 21597 71407 10251 20211 39484 40097 70252 880// 333 59003 69971;EQDQ01+000082SCOTLC
0198827950999992003040100004-07220-035880FM-12+0560SBKG V0200901N002610075019N0010001N1+02311+02201101321ADDAA106000091GF106991061021008001001001KA1240M+02841MA1999999095191MD1999999+0051REMSYN088AAXX  01004 82795 32594 60905 10231 20220 39519 40132 86200 333 10284 29086 55047 58005;EQDQ01  00002PRCP06
0162827950999992003040112004-07220-035880FM-12+0560SBKG V0201401N003111050019N0100001N1+02561+02081101481ADDGF107991031021008001001051KA1240N+02151MA1999999095341MD1999999+0281REMSYN082AAXX  01124 82795 22597 71406 10256 20208 39534 40148 83205 333 20215 58028 69974;
0167827950999992003040118004-07220-035880FM-12+0560SBKG V0201401N003610450019N0100001N1+02821+02001101171ADDAA106000091GF107991041041008001061001MA1999999095061MD1999999+0221REMSYN070AAXX  01184 82795 32597 71407 10282 20200 39506 40117 84460 333 58022;EQDQ01  00002PRCP06
0198827950999992003040200004-07220-035880FM-12+0560SBKG V0200901N002110075019N0010001N1+02351+02171101471ADDAA106000091GF107991071021008001001001KA1240M+02911MA1999999095341MD1999999+0151REMSYN088AAXX  02004 82795 32594 70904 10235 20217 39534 40147 87200 333 10291 29078 55047 58015;EQDQ01  00002PRCP06
0186827950999992003040212004-07220-035880FM-12+0560SBKG V0201401N001512200019N0100001N1+02521+02131101591ADDAA106000091GF106991041021008001001011KA1240N+02151MA1999999095441MD1999999+0101REMSYN076AAXX  02124 82795 32597 61403 10252 20213 39544 40159 84201 333 20215 58010;EQDQ01  00002PRCP06
0167827950999992003040218004-07220-035880FM-12+0560SBKG V0201401N001512200019N0100001N1+02931+02041101121ADDAA106000091GF104991041021008001001001MA1999999095041MD1999999-0021REMSYN070AAXX  02184 82795 32597 41403 10293 20204 39504 40112 84200 333 59002;EQDQ01  00002PRCP06
0198827950999992003040300004-07220-035880FM-12+0560SBKG V0200901N002110075019N0010001N1+02381+02211101411ADDAA106000091GF106991061021008001001001KA1240M+03001MA1999999095291MD1999999+0051REMSYN088AAXX  03004 82795 32594 60904 10238 20221 39529 40141 86200 333 10300 29079 55098 58005;EQDQ01  00002PRCP06
0186827950999992003040312004-07220-035880FM-12+0560SBKG V0201401N003612200019N0100001N1+02571+02011101401ADDAA106000091GF104991041021008001001001KA1240N+02061MA1999999095281MD1999999-0161REMSYN076AAXX  03124 82795 32597 41407 10257 20201 39528 40140 84200 333 20206 59016;EQDQ01  00002PRCP06
0167827950999992003040318004-07220-035880FM-12+0560SBKG V0201401N004112200019N0100001N1+02991+01941100951ADDAA106000091GF103991031021008001001001MA1999999094871MD1999999-0171REMSYN070AAXX  03184 82795 32597 31408 10299 20194 39487 40095 83200 333 59017;EQDQ01  00002PRCP06
0198827950999992003040400004-07220-035880FM-12+0560SBKG V0200901N002110075019N0010001N1+02391+02191101421ADDAA106000091GF106991061021008001001001KA1240M+03051MA1999999095301MD1999999+0011REMSYN088AAXX  04004 82795 32594 60904 10239 20219 39530 40142 86200 333 10305 29075 55109 58001;EQDQ01  00002PRCP06
0190827950999992003040412004-07220-035880FM-12+0560SBKG V0201401N004110075019N0100001N1+02441+02331101341ADDAY161061AY221061GF106991061061008001001001KA1240N+02201MA1999999095211MD1999999-0071MW1021REMSYN088AAXX  04124 82795 21597 61408 10244 20233 39521 40134 70262 86600 333 20220 59007 69954;
0167827950999992003040418004-07220-035880FM-12+0560SBKG V0201401N002612200019N0100001N1+02991+01781101051ADDAA106000091GF102991021021008001001001MA1999999094951MD1999999+0121REMSYN070AAXX  04184 82795 32597 21405 10299 20178 39495 40105 82200 333 58012;EQDQ01  00002PRCP06
0198827950999992003040500004-07220-035880FM-12+0560SBKG V0200901N002110075019N0010001N1+02341+02031101201ADDAA106000091GF106991061021008001001001KA1240M+02331MA1999999095181MD1999999-0121REMSYN088AAXX  05004 82795 32594 60904 10234 20203 39518 40120 86200 333 10233 29076 55084 59012;EQDQ01  00002PRCP06
0186827950999992003040512004-07220-035880FM-12+0560SBKG V0201401N001512200019N0100001N1+02581+01941101421ADDAA106000091GF106991041021008001001061KA1240N+02031MA1999999095301MD1999999+0091REMSYN076AAXX  05124 82795 32597 61403 10258 20194 39530 40142 84206 333 20203 58009;EQDQ01  00002PRCP06
0167827950999992003040518004-07220-035880FM-12+0560SBKG V0201401N004611050019N0100001N1+02741+02071101091ADDAA106000091GF106991031031008001001051MA1999999094961MD1999999-0031REMSYN070AAXX  05184 82795 32597 61409 10274 20207 39496 40109 83305 333 59003;EQDQ01  00002PRCP06
0197827950999992003040612004-07220-035880FM-12+0560SBKG V0201401N003119999999N0100001N1+02641+02051101371ADDAA100199992AA206000092GF106991999999008001999999KA1240N+02301MA1999999095251MD1999999-0051REMSYN076AAXX  06124 82795 32597 61406 10264 20205 39525 40137 62000 333 20230 59005;EQDQ01  00002PRCP06
0167827950999992003040618004-07220-035880FM-12+0560SBKG V0201401N003110075019N0100001N1+03031+01831101541ADDAA106000091GF105991051021008001001001MA1999999094861MD1999999-0101REMSYN070AAXX  06184 82795 32597 51406 10303 20183 39486 40154 85200 333 59010;EQDQ01  00002PRCP06
0221827950999992003040700004-07220-035880FM-12+0560SBKG V0201401N001510075019N0010001N1+02321+02201101281ADDAY151061AY251061GF108991081071008001999999KA1240M+99999MA1999999095161MD1999999-0121MW1021REMSYN100AAXX  07004 82795 21594 81403 10232 20220 39516 40128 70255 887// 333 10222 29079 55067 59012 69921;EQDQ01 +02222ATMX  
0190827950999992003040712004-07220-035880FM-12+0560SBKG V0201401N001510450019N0100001N1+02711+02081101211ADDAY151061AY221061GF106991041021008001031001KA1240N+02181MA1999999095111MD1999999-0141MW1021REMSYN088AAXX  07124 82795 21597 61403 10271 20208 39511 40121 70252 84230 333 20218 59014 69954;
0139827950999992003040715004-07220-035880FM-15+0560SBKG V0201701N003112200019N0112651N1+03101+02201999999ADDGA1041+007509999GF104991999999999999999999MA1101191999999MW1001REMMET045SBKG 071500Z 17006KT 9999 SCT025 31/22 Q1012;EQDQ01+000000PRSWM2
0167827950999992003040718004-07220-035880FM-12+0560SBKG V0200501N002612200019N0100001N1+02911+02021100851ADDAA106000091GF104991041021008001001001MA1999999094781MD1999999-0081REMSYN070AAXX  07184 82795 32597 40505 10291 20202 39478 40085 84200 333 59008;EQDQ01  00002PRCP06
0198827950999992003040800004-07220-035880FM-12+0560SBKG V0201401N002610120019N0010001N1+02381+02171101121ADDAA106000091GF106991061081008001001001KA1240M+03011MA1999999095041MD1999999-0121REMSYN088AAXX  08004 82795 32594 61405 10238 20217 39504 40112 86800 333 10301 29075 55086 59012;EQDQ01  00002PRCP06
0186827950999992003040812004-07220-035880FM-12+0560SBKG V0201401N003610075019N0100001N1+02521+02051101331ADDAA106000091GF106991061051008001001001KA1240N+02181MA1999999095211MD1999999+0101REMSYN076AAXX  08124 82795 32597 61407 10252 20205 39521 40133 86500 333 20218 58010;EQDQ01  00002PRCP06
0167827950999992003040818004-07220-035880FM-12+0560SBKG V0200501N004610075019N0100001N1+02891+02081100921ADDAA106000091GF105991051031008001001001MA1999999094841MD1999999+0061REMSYN070AAXX  08184 82795 32597 50509 10289 20208 39484 40092 85300 333 58006;EQDQ01  00002PRCP06
0198827950999992003040900004-07220-035880FM-12+0560SBKG V0200901N004610075019N0010001N1+02281+02161101291ADDAA106000091GF105991051061008001001001KA1240M+02961MA1999999095161MD1999999+0121REMSYN088AAXX  09004 82795 32594 50909 10228 20216 39516 40129 85600 333 10296 29080 55101 58012;EQDQ01  00002PRCP06
0186827950999992003040912004-07220-035880FM-12+0560SBKG V0201401N003110120019N0100001N1+02471+02131101441ADDAA106000091GF108991081081008001999999KA1240N+02161MA1999999095291MD1999999+0081REMSYN076AAXX  09124 82795 32597 81406 10247 20213 39529 40144 888// 333 20216 58008;EQDQ01  00002PRCP06
0171827950999992003040918004-07220-035880FM-12+0560SBKG V0200901N003610075019N0100001N1+02721+02131101071ADDAY161061AY221061GF106991051041008001001011MA1999999094971MD1999999+0131MW1021REMSYN082AAXX  09184 82795 21597 60907 10272 20213 39497 40107 70262 85401 333 58013 60041;
0202827950999992003041000004-07220-035880FM-12+0560SBKG V0201401N004110075019N0010001N1+02301+02161101821ADDAY151061AY221061GF108991081071008001999999KA1240M+02861MA1999999095311MD1999999+0151MW1021REMSYN100AAXX  10004 82795 21594 81408 10230 20216 39531 40182 70252 887// 333 10286 29081 55064 58015 69951;
0190827950999992003041012004-07220-035880FM-12+0560SBKG V0201401N003110450019N0100001N1+02521+02091101501ADDAY151061AY221061GF106991041041008001021001KA1240N+02161MA1999999095361MD1999999+0071MW1021REMSYN088AAXX  10124 82795 21597 61406 10252 20209 39536 40150 70252 84420 333 20216 58007 60044;
0171827950999992003041018004-07220-035880FM-12+0560SBKG V0200901N004110450019N0100001N1+02731+02101101711ADDAY151061AY221061GF106991031021008001031011MA1999999095011MD1999999+0041MW1021REMSYN082AAXX  10184 82795 21597 60908 10273 20210 39501 40171 70252 83231 333 58004 69941;
0208827950999992003041100004-07220-035880FM-12+0560SBKG V0200501N003112200019N0010001N1+02231+02051101511ADDAA106000091GA1001+999999999GF100991001001999999001001KA1240M+02881MA1999999095351MD1999999+0041REMSYN082AAXX  11004 82795 32594 00506 10223 20205 39535 40151 333 10288 29081 55068 58004;EQDQ01  00002PRCP06
0162827950999992003041112004-07220-035880FM-12+0560SBKG V0200901N003112200019N0100001N1+02561+02021101531ADDGF106991041021008001001011KA1240N+02101MA1999999095391MD1999999+0031REMSYN082AAXX  11124 82795 22597 60906 10256 20202 39539 40153 84201 333 20210 58003 69944;
0167827950999992003041118004-07220-035880FM-12+0560SBKG V0200901N003610450019N0100001N1+02981+01981101111ADDAA106000091GF106991031011008001011011MA1999999095031MD1999999+0021REMSYN070AAXX  11184 82795 32597 60907 10298 20198 39503 40111 83111 333 58002;EQDQ01  00002PRCP06
0214827950999992003041200004-07220-035880FM-12+0560SBKG V0201401N002112200019N0010001N1+02241+02051101491ADDAA106000091GF103991999011008001001001KA1240M+03011MA1999999095351MD1999999+0001REMSYN088AAXX  12004 82795 32594 31404 10224 20205 39535 40149 82100 333 10301 29076 55101 58000;EQDQ01+000022SCOTLCQ02  00002PRCP06
0167827950999992003041218004-07220-035880FM-12+0560SBKG V0201401N004112200019N0100001N1+02951+01901101211ADDAA106000091GF104991041021008001001001MA1999999095131MD1999999+0101REMSYN070AAXX  12184 82795 32597 41408 10295 20190 39513 40121 84200 333 58010;EQDQ01  00002PRCP06
0214827950999992003041300004-07220-035880FM-12+0560SBKG V0201401N004619999999N0010001N1+02321+02201101511ADDAA106000091GF105991999021008001001001KA1240M+03021MA1999999095381MD1999999+0031REMSYN088AAXX  13004 82795 32594 51409 10232 20220 39538 40151 83200 333 10302 29077 55094 58003;EQDQ01+000032SCOTLCQ02  00002PRCP06
0186827950999992003041312004-07220-035880FM-12+0560SBKG V0201401N003112200019N0100001N1+02621+02031101711ADDAA106000091GF106991021031008001001011KA1240N+02201MA1999999095571MD1999999+0071REMSYN076AAXX  13124 82795 32597 61406 10262 20203 39557 40171 82301 333 20220 58007;EQDQ01  00002PRCP06
0167827950999992003041318004-07220-035880FM-12+0560SBKG V0201401N002111050019N0100001N1+02981+01891101291ADDAA106000091GF105991011021008001001021MA1999999095201MD1999999+0071REMSYN070AAXX  13184 82795 32597 51404 10298 20189 39520 40129 81202 333 58007;EQDQ01  00002PRCP06
0214827950999992003041400004-07220-035880FM-12+0560SBKG V0201401N003612200019N0010001N1+03011+02151101651ADDAA106000091GF103991999021008001001001KA1240M+03011MA1999999095511MD1999999+0131REMSYN088AAXX  14004 82795 32594 31407 10301 20215 39551 40165 84200 333 10301 29075 55097 58013;EQDQ01+000042SCOTLCQ02  00002PRCP06
0186827950999992003041412004-07220-035880FM-12+0560SBKG V0201401N004110075019N0100001N1+02611+01991101681ADDAA106000091GF106991061021008001001001KA1240N+02151MA1999999095541MD1999999-0031REMSYN076AAXX  14124 82795 32597 61408 10261 20199 39554 40168 86200 333 20215 59003;EQDQ01  00002PRCP06
0186827950999992003041512004-07220-035880FM-12+0560SBKG V0201401N009310075019N0100001N1+02611+01841101481ADDAA106000091GF105991051021008001001001KA1240N+02131MA1999999095351MD1999999-0191REMSYN076AAXX  15124 82795 32597 51418 10261 20184 39535 40148 85200 333 20213 59019;EQDQ01  00002PRCP06
0167827950999992003041518004-07220-035880FM-12+0560SBKG V0201401N005110075019N0100001N1+03051+01711101031ADDAA106000091GF105991051021008001001001MA1999999094971MD1999999-0201REMSYN070AAXX  15184 82795 32597 51410 10305 20171 39497 40103 85200 333 59020;EQDQ01  00002PRCP06
0208827950999992003041600004-07220-035880FM-12+0560SBKG V0200901N005112200019N0010001N1+02341+01871101391ADDAA106000091GA1001+999999999GF100991001001999999001001KA1240M+03081MA1999999095271MD1999999-0121REMSYN082AAXX  16004 82795 32994 00910 10234 20187 39527 40139 333 10308 29064 55109 59012;EQDQ01  00002PRCP06
0186827950999992003041612004-07220-035880FM-12+0560SBKG V0201401N002612200019N0100001N1+02591+01921101411ADDAA106000091GF101991011011012501001001KA1240N+02121MA1999999095291MD1999999-0061REMSYN076AAXX  16124 82795 32697 11405 10259 20192 39529 40141 81100 333 20212 59006;EQDQ01  00002PRCP06
0167827950999992003041618004-07220-035880FM-12+0560SBKG V0201401N003110075019N0100001N1+03141+01691100991ADDAA106000091GF106991061021008001001001MA1999999094891MD1999999-0081REMSYN070AAXX  16184 82795 32597 61406 10314 20169 39489 40099 86200 333 59008;EQDQ01  00002PRCP06
0208827950999992003041700004-07220-035880FM-12+0560SBKG V0200901N002612200019N0010001N1+02331+01951101391ADDAA106000091GA1001+999999999GF100991001001999999001001KA1240M+03171MA1999999095271MD1999999+0001REMSYN082AAXX  17004 82795 32594 00905 10233 20195 39527 40139 333 10317 29066 55105 58000;EQDQ01  00002PRCP06
0186827950999992003041712004-07220-035880FM-12+0560SBKG V0201801N001510075019N0100001N1+02581+01921101421ADDAA106000091GF105991051021008001001001KA1240N+02051MA1999999095301MD1999999+0011REMSYN076AAXX  17124 82795 32597 51803 10258 20192 39530 40142 85200 333 20205 58001;EQDQ01  00002PRCP06
0198827950999992003041800004-07220-035880FM-12+0560SBKG V0201401N003110075019N0010001N1+02411+01971101091ADDAA106000091GF105991051021008001001001KA1240M+03221MA1999999094971MD1999999+0081REMSYN088AAXX  18004 82795 32594 51406 10241 20197 39497 40109 85200 333 10322 29065 55105 58008;EQDQ01  00002PRCP06
0190827950999992003041812004-07220-035880FM-12+0560SBKG V0201401N002610450019N0100001N1+02371+02151101491ADDAY151061AY221061GF106991041051008001021001KA1240N+02121MA1999999095351MD1999999+0051MW1021REMSYN088AAXX  18124 82795 21597 61405 10237 20215 39535 40149 70252 84520 333 20212 58005 69974;
0195827950999992003041818004-07220-035880FM-12+0560SBKG V0200501N003110075019N0100001N1+02671+02141101111ADDAA106000091AY121061AY221061GF106991061071008001001001MA1999999095061MD1999999+0091MW1151REMSYN076AAXX  18184 82795 31597 60506 10267 20214 39506 40111 71522 86700 333 58009;EQDQ01  00002PRCP06
0202827950999992003041900004-07220-035880FM-12+0560SBKG V0200501N003110075019N0010001N1+02111+02001101551ADDAY151061AY221061GF107991071071008001001001KA1240M+02971MA1999999095411MD1999999+0061MW1021REMSYN100AAXX  19004 82795 21594 70506 10211 20200 39541 40155 70252 87700 333 10297 29087 55067 58006 69921;
0162827950999992003041912004-07220-035880FM-12+0560SBKG V0201401N002610450019N0100001N1+02511+01981101531ADDGF106991021021008001031001KA1240N+02031MA1999999095361MD1999999+0011REMSYN082AAXX  19124 82795 22597 61405 10251 20198 39536 40153 82230 333 20203 58001 69924;
0167827950999992003041918004-07220-035880FM-12+0560SBKG V0201401N004611050019N0100001N1+02831+01771101191ADDAA106000091GF105991031031008001001051MA1999999095071MD1999999+0011REMSYN070AAXX  19184 82795 32597 51409 10283 20177 39507 40119 83305 333 58001;EQDQ01  00002PRCP06
0208827950999992003042000004-07220-035880FM-12+0560SBKG V0201401N002612200019N0010001N1+02281+02051101531ADDAA106000091GA1001+999999999GF100991001001999999001001KA1240M+02981MA1999999095351MD1999999-0061REMSYN082AAXX  20004 82795 32594 01405 10228 20205 39535 40153 333 10298 29075 55073 59006;EQDQ01  00002PRCP06
0190827950999992003042012004-07220-035880FM-12+0560SBKG V0201401N004610450019N0100001N1+02431+02111101471ADDAY161061AY221061GF106991031041008001021001KA1240N+02051MA1999999095321MD1999999-0041MW1021REMSYN088AAXX  20124 82795 21597 61409 10243 20211 39532 40147 70262 83420 333 20205 59004 60044;
0171827950999992003042018004-07220-035880FM-12+0560SBKG V0201401N003110075019N0100001N1+02891+01881101081ADDAY151061AY221061GF105991051031008001001001MA1999999094981MD1999999-0091MW1021REMSYN082AAXX  20184 82795 21597 51406 10289 20188 39498 40108 70252 85300 333 59009 69931;
0208827950999992003042100004-07220-035880FM-12+0560SBKG V0201401N003612200019N0010001N1+02231+02071101401ADDAA106000091GA1001+999999999GF100991001001999999001001KA1240M+02911MA1999999095241MD1999999+0061REMSYN082AAXX  21004 82795 32994 01407 10223 20207 39524 40140 333 10291 29080 55079 58006;EQDQ01  00002PRCP06
0162827950999992003042112004-07220-035880FM-12+0560SBKG V0201401N003610450019N0100001N1+02581+02101101301ADDGF105991031021008001031001KA1240N+02141MA1999999095171MD1999999-0151REMSYN082AAXX  21124 82795 22597 51407 10258 20210 39517 40130 83230 333 20214 59015 69934;
0171827950999992003042118004-07220-035880FM-12+0560SBKG V0201401N005710075019N0100001N1+02411+02241101191ADDAY161061AY221061GF108991081071008001999999MA1999999095031MD1999999+0051MW1021REMSYN082AAXX  21184 82795 21597 81411 10241 20224 39503 40119 70262 887// 333 58005 60031;
0202827950999992003042200004-07220-035880FM-12+0560SBKG V0201401N002610075019N0010001N1+02051+01891101401ADDAY161061AY251061GF108991081071008001999999KA1240M+02781MA1999999095321MD1999999+0081MW1501REMSYN100AAXX  22004 82795 21594 81405 10205 20189 39532 40140 75065 887// 333 10278 29087 55045 58008 60121;
0190827950999992003042212004-07220-035880FM-12+0560SBKG V0201401N003110120019N0100001N1+02281+02161101421ADDAY161061AY251061GF108991081081008001999999KA1240N+02001MA1999999095221MD1999999+0051MW1021REMSYN088AAXX  22124 82795 21597 81406 10228 20216 39522 40142 70265 888// 333 20200 58005 60194;
0171827950999992003042218004-07220-035880FM-12+0560SBKG V0201401N005110075019N0040001N1+02421+02251101101ADDAY161061AY251061GF108991081071008001999999MA1999999095021MD1999999-0011MW1521REMSYN082AAXX  22184 82795 21596 81410 10242 20225 39502 40110 75265 887// 333 59001 60021;
0179827950999992003042300004-07220-035880FM-12+0560SBKG V0201401N003112200019N0010001N1+02141+01901101521ADDAA106000021GF103991031021008001001001KA1240M+02611MA1999999095331MD1999999+0011REMSYN088AAXX  23004 82795 32594 31406 10214 20190 39533 40152 83200 333 10261 29089 55046 58001;
0190827950999992003042312004-07220-035880FM-12+0560SBKG V0201401N005710450019N0100001N1+02441+01971101421ADDAY151061AY221061GF107991041061008001021001KA1240N+01981MA1999999095261MD1999999+0041MW1021REMSYN088AAXX  23124 82795 21597 71411 10244 20197 39526 40142 70252 84620 333 20198 58004 60024;
0167827950999992003042318004-07220-035880FM-12+0560SBKG V0201401N003610450019N0100001N1+02661+02111101111ADDAA106000091GF107991031041008001051001MA1999999094971MD1999999-0051REMSYN070AAXX  23184 82795 32597 71407 10266 20211 39497 40111 83450 333 59005;EQDQ01  00002PRCP06
0208827950999992003042400004-07220-035880FM-12+0560SBKG V0201401N003112200019N0010001N1+02251+02031101311ADDAA106000091GA1001+999999999GF100991001001999999001001KA1240M+02701MA1999999095261MD1999999-0071REMSYN082AAXX  24004 82795 32994 01406 10225 20203 39526 40131 333 10270 29081 55038 59007;EQDQ01  00002PRCP06
0186827950999992003042412004-07220-035880FM-12+0560SBKG V0201401N003110450019N0100001N1+02471+01971101501ADDAA106000091GF105991021021008001031001KA1240N+02031MA1999999095341MD1999999+0081REMSYN076AAXX  24124 82795 32597 51406 10247 20197 39534 40150 82230 333 20203 58008;EQDQ01  00002PRCP06
0167827950999992003042418004-07220-035880FM-12+0560SBKG V0201401N002610450019N0100001N1+02831+01911101081ADDAA106000091GF107991031051008001081001MA1999999094961MD1999999-0011REMSYN070AAXX  24184 82795 32597 71405 10283 20191 39496 40108 83580 333 59001;EQDQ01  00002PRCP06
0208827950999992003042500004-07220-035880FM-12+0560SBKG V0201401N003112200019N0010001N1+02261+02191101441ADDAA106000091GA1001+999999999GF100991001001999999001001KA1240M+02871MA1999999095291MD1999999+0031REMSYN082AAXX  25004 82795 32594 01406 10226 20219 39529 40144 333 10287 29081 55092 58003;EQDQ01  00002PRCP06
0186827950999992003042512004-07220-035880FM-12+0560SBKG V0201401N004610450019N0100001N1+02451+01991101451ADDAA106000091GF107991041041008001051011KA1240N+02141MA1999999095301MD1999999-0041REMSYN076AAXX  25124 82795 32597 71409 10245 20199 39530 40145 84451 333 20214 59004;EQDQ01  00002PRCP06
0167827950999992003042518004-07220-035880FM-12+0560SBKG V0201401N004110450019N0100001N1+02661+02111101191ADDAA106000091GF107991041081008001051001MA1999999095071MD1999999+0111REMSYN070AAXX  25184 82795 32597 71408 10266 20211 39507 40119 84850 333 58011;EQDQ01  00002PRCP06
0198827950999992003042600004-07220-035880FM-12+0560SBKG V0200901N002610075019N0010001N1+02331+02131101561ADDAA106000091GF105991051071008001001001KA1240M+02911MA1999999095421MD1999999+0141REMSYN088AAXX  26004 82795 32594 50905 10233 20213 39542 40156 85700 333 10291 29082 55048 58014;EQDQ01  00002PRCP06
0186827950999992003042612004-07220-035880FM-12+0560SBKG V0201401N002111050019N0100001N1+02591+01991101611ADDAA106000091GF106991031031008001001021KA1240N+02131MA1999999095471MD1999999+0131REMSYN076AAXX  26124 82795 32597 61404 10259 20199 39547 40161 83302 333 20213 58013;EQDQ01  00002PRCP06
0183827950999992003042618004-07220-035880FM-12+0560SBKG V0201401N003119999999N0100001N1+02581+02151101311ADDAA106000091GF107991999081008001001001MA1999999095171MD1999999+0101REMSYN070AAXX  26184 82795 32597 71406 10258 20215 39517 40131 83800 333 58010;EQDQ01+000032SCOTLCQ02  00002PRCP06
0214827950999992003042700004-07220-035880FM-12+0560SBKG V0201401N003119999999N0010001N1+02321+02131101601ADDAA106000091GF105991999021008001001001KA1240M+02761MA1999999095461MD1999999+0041REMSYN088AAXX  27004 82795 32594 51406 10232 20213 39546 40160 86200 333 10276 29082 55039 58004;EQDQ01+000062SCOTLCQ02  00002PRCP06
0190827950999992003042712004-07220-035880FM-12+0560SBKG V0201401N003110075019N0100001N1+02361+02191101621ADDAY161061AY221061GF108991081071008001999999KA1240N+02141MA1999999095461MD1999999-0011MW1021REMSYN088AAXX  27124 82795 21597 81406 10236 20219 39546 40162 70262 887// 333 20214 59001 60014;
0195827950999992003042718004-07220-035880FM-12+0560SBKG V0201401N003610075019N0040001N1+02431+02071101331ADDAA106000091AY121061AY221061GF108991081071008001999999MA1999999095161MD1999999-0011MW1161REMSYN076AAXX  27184 82795 31596 81407 10243 20207 39516 40133 71622 887// 333 59001;EQDQ01  00002PRCP06
0202827950999992003042800004-07220-035880FM-12+0560SBKG V0201401N002610075019N0010001N1+02221+02141101581ADDAY151061AY221061GF105991051021008001001001KA1240M+02571MA1999999095411MD1999999-0011MW1021REMSYN100AAXX  28004 82795 21594 51405 10222 20214 39541 40158 70252 85200 333 10257 29090 55000 59001 69991;
0162827950999992003042812004-07220-035880FM-12+0560SBKG V0201401N002610450019N0100001N1+02411+02031101551ADDGF106991041041008001021001KA1240N+02061MA1999999095381MD1999999-0081REMSYN082AAXX  28124 82795 22597 61405 10241 20203 39538 40155 84420 333 20206 59008 69994;
0167827950999992003042818004-07220-035880FM-12+0560SBKG V0201401N004110075019N0100001N1+02881+02031101081ADDAA106000091GF106991051021008001021001MA1999999094981MD1999999-0181REMSYN070AAXX  28184 82795 32597 61408 10288 20203 39498 40108 85220 333 59018;EQDQ01  00002PRCP06
0198827950999992003042900004-07220-035880FM-12+0560SBKG V0201401N002112200019N0010001N1+02271+02091101501ADDAA106000091GF104991041031008001001001KA1240M+02941MA1999999095341MD1999999-0071REMSYN088AAXX  29004 82795 32594 41404 10227 20209 39534 40150 84300 333 10294 29080 55090 59007;EQDQ01  00002PRCP06
0186827950999992003042912004-07220-035880FM-12+0560SBKG V0201401N002612200019N0100001N1+02501+02001101601ADDAA106000091GF105991041021008001001011KA1240N+02031MA1999999095441MD1999999+0061REMSYN076AAXX  29124 82795 32597 51405 10250 20200 39544 40160 84201 333 20203 58006;EQDQ01  00002PRCP06
0167827950999992003042918004-07220-035880FM-12+0560SBKG V0201401N003110450019N0100001N1+02901+01811101191ADDAA106000091GF106991031021008001061011MA1999999095081MD1999999+0101REMSYN070AAXX  29184 82795 32597 61406 10290 20181 39508 40119 83261 333 58010;EQDQ01  00002PRCP06
0198827950999992003043000004-07220-035880FM-12+0560SBKG V0201401N004612200019N0010001N1+02321+02131101491ADDAA106000091GF104991041061008001001001KA1240M+02961MA1999999095331MD1999999-0011REMSYN088AAXX  30004 82795 32594 41409 10232 20213 39533 40149 84600 333 10296 29076 55101 59001;EQDQ01  00002PRCP06
0186827950999992003043012004-07220-035880FM-12+0560SBKG V0201401N002110075019N0100001N1+02501+02051101621ADDAA106000091GF107991051041008001031001KA1240N+02101MA1999999095471MD1999999+0031REMSYN076AAXX  30124 82795 32597 71404 10250 20205 39547 40162 85430 333 20210 58003;EQDQ01  00002PRCP06
0167827950999992003043018004-07220-035880FM-12+0560SBKG V0200901N004610450019N0100001N1+02661+02171101311ADDAA106000091GF106991041081008001031001MA1999999095171MD1999999+0091REMSYN070AAXX  30184 82795 32597 60909 10266 20217 39517 40131 84830 333 58009;EQDQ01  00002PRCP06
0202827950999992003050100004-07220-035880FM-12+0560SBKG V0200901N003112200019N0010001N1+02231+02171101641ADDAY161061AY221061GF102991021011008001001001KA1240M+02981MA1999999095491MD1999999+0161MW1021REMSYN100AAXX  01004 82795 21594 20906 10223 20217 39549 40164 70262 82100 333 10298 29085 55067 58016 60201;
0190827950999992003050112004-07220-035880FM-12+0560SBKG V0200501N003110450019N0100001N1+02441+02151101621ADDAY161061AY221061GF107991041041008001021001KA1240N+02151MA1999999095461MD1999999-0011MW1021REMSYN088AAXX  01124 82795 21597 70506 10244 20215 39546 40162 70262 84420 333 20215 59001 60194;
0171827950999992003050118004-07220-035880FM-12+0560SBKG V0201401N003610075019N0100001N1+02501+02111101311ADDAY161061AY221061GF107991071071008001001001MA1999999095151MD1999999-0021MW1021REMSYN082AAXX  01184 82795 21597 71407 10250 20211 39515 40131 70262 87700 333 59002 60021;
0202827950999992003050200004-07220-035880FM-12+0560SBKG V0201401N002110075019N0010001N1+02211+02151101551ADDAY151061AY221061GF105991051061008001001001KA1240M+02731MA1999999095381MD1999999-0111MW1021REMSYN100AAXX  02004 82795 21594 51404 10221 20215 39538 40155 70252 85600 333 10273 29088 55026 59011 69931;
0181827950999992003050212004-07220-035880FM-12+0560SBKG V0201401N001510120019N0100001N1+02521+02171101571ADDGF107991999081008001001001KA1240N+02131MA1999999095411MD1999999-0051REMSYN082AAXX  02124 82795 22597 71403 10252 20217 39541 40157 85800 333 20213 59005 60024;EQDQ01+000052SCOTLC
0183827950999992003050218004-07220-035880FM-12+0560SBKG V0200901N003119999999N0100001N1+02771+02161101081ADDAA106000091GF106991999021008001001001MA1999999094981MD1999999-0171REMSYN070AAXX  02184 82795 32597 60906 10277 20216 39498 40108 83200 333 59017;EQDQ01+000032SCOTLCQ02  00002PRCP06
0198827950999992003050300004-07220-035880FM-12+0560SBKG V0200501N003112200019N0010001N1+02231+02151101321ADDAA106000091GF103991031021008001001001KA1240M+02821MA1999999095181MD1999999-0201REMSYN088AAXX  03004 82795 32594 30506 10223 20215 39518 40132 83200 333 10282 29095 55076 59020;EQDQ01  00002PRCP06
0186827950999992003050312004-07220-035880FM-12+0560SBKG V0200501N002111050019N0100001N1+02621+02051101431ADDAA106000091GF107991041041008001001031KA1240N+02141MA1999999095291MD1999999-0121REMSYN076AAXX  03124 82795 32597 70504 10262 20205 39529 40143 84403 333 20214 59012;EQDQ01  00002PRCP06
0167827950999992003050318004-07220-035880FM-12+0560SBKG V0201401N009310450019N0100001N1+02811+02071101021ADDAA106000091GF106991031031008001081001MA1999999094921MD1999999-0061REMSYN070AAXX  03184 82795 32597 61418 10281 20207 39492 40102 83380 333 59006;EQDQ01  00002PRCP06
0198827950999992003050400004-07220-035880FM-12+0560SBKG V0201401N003110075019N0010001N1+02321+02221101431ADDAA106000091GF106991061041008001001001KA1240M+03011MA1999999095291MD1999999+0041REMSYN088AAXX  04004 82795 32594 61406 10232 20222 39529 40143 86400 333 10301 29081 55075 58004;EQDQ01  00002PRCP06
0186827950999992003050412004-07220-035880FM-12+0560SBKG V0201401N002610075019N0100001N1+02551+01931101411ADDAA106000091GF106991061021008001001001KA1240N+02191MA1999999095271MD1999999-0021REMSYN076AAXX  04124 82795 32597 61405 10255 20193 39527 40141 86200 333 20219 59002;EQDQ01  00002PRCP06
0183827950999992003050418004-07220-035880FM-12+0560SBKG V0201401N001519999999N0100001N1+02931+01891101111ADDAA106000091GF106991999021008001001001MA1999999095031MD1999999+0111REMSYN070AAXX  04184 82795 32597 61403 10293 20189 39503 40111 83200 333 58011;EQDQ01+000032SCOTLCQ02  00002PRCP06
0198827950999992003050500004-07220-035880FM-12+0560SBKG V0201401N005110075019N0010001N1+02381+02201101541ADDAA106000091GF106991061021008001001001KA1240M+03001MA1999999095401MD1999999+0111REMSYN088AAXX  05004 82795 32594 61410 10238 20220 39540 40154 86200 333 10300 29077 55071 58011;EQDQ01  00002PRCP06
0190827950999992003050512004-07220-035880FM-12+0560SBKG V0201401N003110450019N0100001N1+02601+02061101661ADDAY161061AY221061GF105991041021008001021001KA1240N+02181MA1999999095431MD1999999+0161MW1021REMSYN088AAXX  05124 82795 21597 51406 10260 20206 39543 40166 70262 84220 333 20218 58016 60044;
0167827950999992003050518004-07220-035880FM-12+0560SBKG V0200901N005110075019N0100001N1+02851+01821101201ADDAA106000091GF105991051021008001001001MA1999999095101MD1999999+0071REMSYN070AAXX  05184 82795 32597 50910 10285 20182 39510 40120 85200 333 58007;EQDQ01  00002PRCP06
0198827950999992003050600004-07220-035880FM-12+0560SBKG V0201401N003112200019N0010001N1+02241+02101101491ADDAA106000091GF103991031021008001001001KA1240M+02901MA1999999095351MD1999999-0151REMSYN088AAXX  06004 82795 32594 31406 10224 20210 39535 40149 83200 333 10290 29072 55095 59015;EQDQ01  00002PRCP06
0186827950999992003050612004-07220-035880FM-12+0560SBKG V0201401N003610450019N0100001N1+02461+01901101531ADDAA106000091GF106991041021008001031001KA1240N+02151MA1999999095371MD1999999-0061REMSYN076AAXX  06124 82795 32597 61407 10246 20190 39537 40153 84230 333 20215 59006;EQDQ01  00002PRCP06
0167827950999992003050618004-07220-035880FM-12+0560SBKG V0200901N002610450019N0100001N1+02811+01871101141ADDAA106000091GF105991031021008001011001MA1999999095041MD1999999-0061REMSYN070AAXX  06184 82795 32597 50905 10281 20187 39504 40114 83210 333 59006;EQDQ01  00002PRCP06
0198827950999992003050700004-07220-035880FM-12+0560SBKG V0200901N001510075019N0010001N1+02311+02131101251ADDAA106000091GF105991051061008001001001KA1240M+02891MA1999999095111MD1999999-0241REMSYN088AAXX  07004 82795 32594 50903 10231 20213 39511 40125 85600 333 10289 29078 55096 59024;EQDQ01  00002PRCP06
0186827950999992003050712004-07220-035880FM-12+0560SBKG V0201401N003110075019N0100001N1+02601+01921101421ADDAA106000091GF105991051021008001001001KA1240N+02121MA1999999095301MD1999999-0071REMSYN076AAXX  07124 82795 32597 51406 10260 20192 39530 40142 85200 333 20212 59007;EQDQ01  00002PRCP06
0167827950999992003050718004-07220-035880FM-12+0560SBKG V0201401N004610075019N0100001N1+02901+01841100991ADDAA106000091GF105991051021008001001001MA1999999094971MD1999999-0071REMSYN070AAXX  07184 82795 32597 51409 10290 20184 39497 40099 85200 333 59007;EQDQ01  00002PRCP06
0208827950999992003050800004-07220-035880FM-12+0560SBKG V0200901N003612200019N0010001N1+02261+01961101371ADDAA106000091GA1001+999999999GF100991001001999999001001KA1240M+02951MA1999999095251MD1999999+0141REMSYN082AAXX  08004 82795 32994 00907 10226 20196 39525 40137 333 10295 29071 55086 58014;EQDQ01  00002PRCP06
0186827950999992003050812004-07220-035880FM-12+0560SBKG V0201401N003110075019N0100001N1+02621+02031101451ADDAA106000091GF105991051021008001001001KA1240N+01931MA1999999095331MD1999999+0031REMSYN076AAXX  08124 82795 32597 51406 10262 20203 39533 40145 85200 333 20193 58003;EQDQ01  00002PRCP06
0167827950999992003050818004-07220-035880FM-12+0560SBKG V0201401N004112200019N0100001N1+02911+01031101011ADDAA106000091GF104991041021008001001001MA1999999094991MD1999999+0021REMSYN070AAXX  08184 82795 32597 41408 10291 20103 39499 40101 84200 333 58002;EQDQ01  00002PRCP06
0214827950999992003050900004-07220-035880FM-12+0560SBKG V0200901N004119999999N0010001N1+02331+02131101451ADDAA106000091GF106991999021008001001001KA1240M+03021MA1999999095331MD1999999+0081REMSYN088AAXX  09004 82795 32594 60908 10233 20213 39533 40145 84200 333 10302 29076 55092 58008;EQDQ01+000042SCOTLCQ02  00002PRCP06
0186827950999992003050912004-07220-035880FM-12+0560SBKG V0201401N003612200019N0100001N1+02591+01991101301ADDAA106000091GF102991021011008001001001KA1240N+02081MA1999999095441MD1999999+0101REMSYN076AAXX  09124 82795 32597 21407 10259 20199 39544 40130 82100 333 20208 58010;EQDQ01  00002PRCP06
0167827950999992003050918004-07220-035880FM-12+0560SBKG V0200901N003110075019N0100001N1+03011+01711101181ADDAA106000091GF105991051021008001001001MA1999999095081MD1999999+0081REMSYN070AAXX  09184 82795 32597 50906 10301 20171 39508 40118 85200 333 58008;EQDQ01  00002PRCP06
0208827950999992003051000004-07220-035880FM-12+0560SBKG V0200901N003112200019N0010001N1+02261+01991101481ADDAA106000091GA1001+999999999GF100991001001999999001001KA1240M+03041MA1999999095341MD1999999+0011REMSYN082AAXX  10004 82795 32994 00906 10226 20199 39534 40148 333 10304 29071 55104 58001;EQDQ01  00002PRCP06
0186827950999992003051012004-07220-035880FM-12+0560SBKG V0201401N002112200019N0100001N1+02531+01911101671ADDAA106000091GF103991031011008001001001KA1240N+02061MA1999999095521MD1999999+0161REMSYN076AAXX  10124 82795 32597 31404 10253 20191 39552 40167 83100 333 20206 58016;EQDQ01  00002PRCP06
0167827950999992003051018004-07220-035880FM-12+0560SBKG V0200901N002612200019N0100001N1+02931+01821101231ADDAA106000091GF102991021011008001001001MA1999999095141MD1999999+0061REMSYN070AAXX  10184 82795 32597 20905 10293 20182 39514 40123 82100 333 58006;EQDQ01  00002PRCP06
0208827950999992003051100004-07220-035880FM-12+0560SBKG V0200901N003612200019N0100001N1+02261+02011101591ADDAA106000091GA1001+999999999GF100991001001999999001001KA1240M+03011MA1999999095441MD1999999+0101REMSYN082AAXX  11004 82795 32997 00907 10226 20201 39544 40159 333 10301 29073 55096 58010;EQDQ01  00002PRCP06
0186827950999992003051112004-07220-035880FM-12+0560SBKG V0201401N003110075019N0100001N1+02461+01971101701ADDAA106000091GF105991051021008001001001KA1240N+02041MA1999999095531MD1999999+0011REMSYN076AAXX  11124 82795 32597 51406 10246 20197 39553 40170 85200 333 20204 58001;EQDQ01  00002PRCP06
0171827950999992003051118004-07220-035880FM-12+0560SBKG V0201401N004112200019N0100001N1+02901+01751101291ADDAY151061AY221061GF103991021021008001061001MA1999999095191MD1999999+0051MW1021REMSYN082AAXX  11184 82795 21597 31408 10290 20175 39519 40129 70252 82260 333 58005 69921;
0198827950999992003051200004-07220-035880FM-12+0560SBKG V0200901N002612200019N0010001N1+02271+02031101671ADDAA106000091GF101991011011008001001001KA1240M+02921MA1999999095511MD1999999+0071REMSYN088AAXX  12004 82795 32594 10905 10227 20203 39551 40167 81100 333 10292 29074 55087 58007;EQDQ01  00002PRCP06
0190827950999992003051212004-07220-035880FM-12+0560SBKG V0201401N004110075019N0100001N1+02401+01991101691ADDAY161061AY221061GF106991061021008001001001KA1240N+02001MA1999999095511MD1999999-0021MW1021REMSYN088AAXX  12124 82795 21597 61408 10240 20199 39551 40169 70262 86200 333 20200 59002 60024;
0171827950999992003051218004-07220-035880FM-12+0560SBKG V0201401N003110075019N0100001N1+02631+01981101371ADDAY151061AY221061GF106991061041008001021001MA1999999095211MD1999999-0021MW1021REMSYN082AAXX  12184 82795 21597 61406 10263 20198 39521 40137 70252 86420 333 59002 69951;
0198827950999992003051300004-07220-035880FM-12+0560SBKG V0200901N002612200019N0010001N1+02261+02091101681ADDAA106000091GF104991021021008001041011KA1240M+02711MA1999999095501MD1999999-0011REMSYN088AAXX  13004 82795 32594 40905 10226 20209 39550 40168 82241 333 10271 29082 55045 59001;EQDQ01  00002PRCP06
0162827950999992003051312004-07220-035880FM-12+0560SBKG V0201401N004610075019N0100001N1+02571+01971101601ADDGF106991061021008001001001KA1240N+02081MA1999999095451MD1999999-0061REMSYN082AAXX  13124 82795 22597 61409 10257 20197 39545 40160 86200 333 20208 59006 69954;
0167827950999992003051318004-07220-035880FM-12+0560SBKG V0201401N004610075019N0100001N1+02851+01881101191ADDAA106000091GF105991051041008001001001MA1999999095131MD1999999-0081REMSYN070AAXX  13184 82795 32597 51409 10285 20188 39513 40119 85400 333 59008;EQDQ01  00002PRCP06
0198827950999992003051400004-07220-035880FM-12+0560SBKG V0200901N002612200019N0010001N1+02211+01901101581ADDAA106000091GF101991011001012501041001KA1240M+03021MA1999999095431MD1999999-0071REMSYN088AAXX  14004 82795 32694 10905 10221 20190 39543 40158 81040 333 10302 29073 55071 59007;EQDQ01  00002PRCP06
0186827950999992003051412004-07220-035880FM-12+0560SBKG V0201401N003110450019N0100001N1+02511+01841101641ADDAA106000091GF106991021021008001061051KA1240N+01901MA1999999095481MD1999999+0031REMSYN076AAXX  14124 82795 32597 61406 10251 20184 39548 40164 82265 333 20190 58003;EQDQ01  00002PRCP06
0167827950999992003051418004-07220-035880FM-12+0560SBKG V0201401N004110450019N0100001N1+02571+02211101341ADDAA106000091GF106991041031008001061001MA1999999095161MD1999999+0031REMSYN070AAXX  14184 82795 32597 61408 10257 20221 39516 40134 84360 333 58003;EQDQ01  00002PRCP06
0214827950999992003051500004-07220-035880FM-12+0560SBKG V0200901N002619999999N0010001N1+02211+02051101561ADDAA106000091GF107991999021008001001001KA1240M+02661MA1999999095401MD1999999-0031REMSYN088AAXX  15004 82795 32594 70905 10221 20205 39540 40156 83200 333 10266 29080 55027 59003;EQDQ01+000032SCOTLCQ02  00002PRCP06
0190827950999992003051512004-07220-035880FM-12+0560SBKG V0201401N003110075019N0100001N1+02241+02031101701ADDAY161061AY221061GF108991051071008001011999KA1240N+02011MA1999999095501MD1999999+0021MW1021REMSYN088AAXX  15124 82795 21597 81406 10224 20203 39550 40170 70262 8571/ 333 20201 58002 60064;
0171827950999992003051518004-07220-035880FM-12+0560SBKG V0201801N004610075019N0100001N1+02341+02131101401ADDAY161061AY221061GF108991081071008001999999MA1999999095201MD1999999+0041MW1021REMSYN082AAXX  15184 82795 21597 81809 10234 20213 39520 40140 70262 887// 333 58004 60011;
0202827950999992003051600004-07220-035880FM-12+0560SBKG V0201401N003110450019N0010001N1+02181+02081101621ADDAY161061AY221061GF108991041071008001081999KA1240M+02461MA1999999095421MD1999999+0021MW1021REMSYN100AAXX  16004 82795 21594 81406 10218 20208 39542 40162 70262 8478/ 333 10246 29091 55003 58002 60031;
0190827950999992003051612004-07220-035880FM-12+0560SBKG V0201401N004610075019N0100001N1+02371+02091101561ADDAY161061AY221061GF106991061061008001001001KA1240N+01991MA1999999095381MD1999999-0121MW1021REMSYN088AAXX  16124 82795 21597 61409 10237 20209 39538 40156 70262 86600 333 20199 59012 60054;
0167827950999992003051618004-07220-035880FM-12+0560SBKG V0201401N004610075019N0100001N1+02641+02001101221ADDAA106000091GF107991051041008001051001MA1999999095071MD1999999-0131REMSYN070AAXX  16184 82795 32597 71409 10264 20200 39507 40122 85450 333 59013;EQDQ01  00002PRCP06
0214827950999992003051700004-07220-035880FM-12+0560SBKG V0201401N002119999999N0010001N1+02221+01971101481ADDAA106000091GF107991999021008001001001KA1240M+02771MA1999999095321MD1999999-0101REMSYN088AAXX  17004 82795 32594 71404 10222 20197 39532 40148 84200 333 10277 29081 55048 59010;EQDQ01+000042SCOTLCQ02  00002PRCP06
0190827950999992003051712004-07220-035880FM-12+0560SBKG V0201401N003610075019N0100001N1+02361+02011101431ADDAY161061AY221061GF107991071071008001001001KA1240N+02021MA1999999095271MD1999999-0111MW1021REMSYN088AAXX  17124 82795 21597 71407 10236 20201 39527 40143 70262 87700 333 20202 59011 69914;
0167827950999992003051718004-07220-035880FM-12+0560SBKG V0201401N004612200019N0100001N1+02701+01691101171ADDAA106000091GF103991021021008001051001MA1999999095031MD1999999-0041REMSYN070AAXX  17184 82795 32597 31409 10270 20169 39503 40117 82250 333 59004;EQDQ01  00002PRCP06
0198827950999992003051800004-07220-035880FM-12+0560SBKG V0201401N003112200019N0010001N1+02211+01951101491ADDAA106000091GF103991011011008001051001KA1240M+02751MA1999999095311MD1999999-0011REMSYN088AAXX  18004 82795 32594 31406 10221 20195 39531 40149 81150 333 10275 29076 55069 59001;EQDQ01  00002PRCP06
0186827950999992003051812004-07220-035880FM-12+0560SBKG V0200901N003610075019N0100001N1+02421+02011101501ADDAA106000091GF106991061061008001001001KA1240N+02031MA1999999095331MD1999999+0061REMSYN076AAXX  18124 82795 32597 60907 10242 20201 39533 40150 86600 333 20203 58006;EQDQ01  00002PRCP06
0171827950999992003051818004-07220-035880FM-12+0560SBKG V0201401N003610450019N0100001N1+02731+01951101171ADDAY161061AY221061GF106991031021008001061001MA1999999095051MD1999999+0021MW1021REMSYN082AAXX  18184 82795 21597 61407 10273 20195 39505 40117 70262 83260 333 58002 69921;
0214827950999992003051900004-07220-035880FM-12+0560SBKG V0201401N003110075019N0010001N1+02311+02051101521ADDAA106000091GF107991999021008001001001KA1240M+02751MA1999999095361MD1999999+0051REMSYN088AAXX  19004 82795 32594 71406 10231 20205 39536 40152 85200 333 10275 29078 55043 58005;EQDQ01+000052SCOTLCQ02  00002PRCP06
0190827950999992003051912004-07220-035880FM-12+0560SBKG V0200901N003610075019N0100001N1+02311+02091101621ADDAY161061AY221061GF106991061061008001001001KA1240N+01991MA1999999095441MD1999999+0111MW1021REMSYN088AAXX  19124 82795 21597 60907 10231 20209 39544 40162 70262 86600 333 20199 58011 60104;
0171827950999992003051918004-07220-035880FM-12+0560SBKG V0201401N004610450019N0100001N1+02471+02091101321ADDAY161061AY221061GF107991031031008001021001MA1999999095151MD1999999+0151MW1021REMSYN082AAXX  19184 82795 21597 71409 10247 20209 39515 40132 70262 83320 333 58015 60021;
0202827950999992003052000004-07220-035880FM-12+0560SBKG V0200901N003110075019N0010001N1+02231+02121101581ADDAY161061AY221061GF107991071061008001001001KA1240M+02561MA1999999095401MD1999999+0041MW1031REMSYN100AAXX  20004 82795 21594 70906 10223 20212 39540 40158 70362 87600 333 10256 29089 55013 58004 69911;
0162827950999992003052012004-07220-035880FM-12+0560SBKG V0201401N002610075019N0100001N1+02331+02031101591ADDGF105991051021008001001001KA1240N+02051MA1999999095411MD1999999-0031REMSYN082AAXX  20124 82795 22597 51405 10233 20203 39541 40159 85200 333 20205 59003 60024;
0167827950999992003052018004-07220-035880FM-12+0560SBKG V0201401N005111050019N0100001N1+02671+02071101271ADDAA106000091GF106991041031008001001031MA1999999095131MD1999999-0021REMSYN070AAXX  20184 82795 32597 61410 10267 20207 39513 40127 84303 333 59002;EQDQ01  00002PRCP06
0198827950999992003052100004-07220-035880FM-12+0560SBKG V0200901N003112200019N0010001N1+02241+02071101611ADDAA106000091GF101991011021008001001001KA1240M+02791MA1999999095431MD1999999+0061REMSYN088AAXX  21004 82795 32594 10906 10224 20207 39543 40161 81200 333 10279 29083 55084 58006;EQDQ01  00002PRCP06
0186827950999992003052112004-07220-035880FM-12+0560SBKG V0201401N003110075019N0100001N1+02441+02011101551ADDAA106000091GF106991061061008001001001KA1240N+02061MA1999999095391MD1999999-0021REMSYN076AAXX  21124 82795 32597 61406 10244 20201 39539 40155 86600 333 20206 59002;EQDQ01  00002PRCP06
0167827950999992003052118004-07220-035880FM-12+0560SBKG V0201401N003112200019N0100001N1+02691+01991101301ADDAA106000091GF106991031031008001001061MA1999999095161MD1999999+0031REMSYN070AAXX  21184 82795 32597 61406 10269 20199 39516 40130 83306 333 58003;EQDQ01  00002PRCP06
0202827950999992003052200004-07220-035880FM-12+0560SBKG V0200901N002610075019N0010001N1+02261+02141101531ADDAY161061AY221061GF107991071061008001001001KA1240M+02721MA1999999095371MD1999999-0061MW1021REMSYN100AAXX  22004 82795 21594 70905 10226 20214 39537 40153 70262 87600 333 10272 29082 55022 59006 69961;
0162827950999992003052212004-07220-035880FM-12+0560SBKG V0201401N004110075019N0100001N1+02361+02051101661ADDGF108991081071008001999999KA1240N+02101MA1999999095481MD1999999+0091REMSYN082AAXX  22124 82795 22597 81408 10236 20205 39548 40166 887// 333 20210 58009 69964;
0171827950999992003052218004-07220-035880FM-12+0560SBKG V0201401N002610450019N0100001N1+02231+02081101501ADDAY161061AY221061GF108991031071008001011001MA1999999095301MD1999999+0141MW1021REMSYN082AAXX  22184 82795 21597 81405 10223 20208 39530 40150 70262 83710 333 58014 60041;
0198827950999992003052300004-07220-035880FM-12+0560SBKG V0200901N004110075019N0020001N1+02231+02101101621ADDAA106000091GF108991081061008001999999KA1240M+02551MA1999999095451MD1999999+0081REMSYN088AAXX  23004 82795 32595 80908 10223 20210 39545 40162 886// 333 10255 29097 55008 58008;EQDQ01  00002PRCP06
0162827950999992003052312004-07220-035880FM-12+0560SBKG V0201401N004612200019N0100001N1+02401+01911101691ADDGF104991041021008001001001KA1240N+02031MA1999999095511MD1999999+0031REMSYN082AAXX  23124 82795 22597 41409 10240 20191 39551 40169 84200 333 20203 58003 60044;
0167827950999992003052318004-07220-035880FM-12+0560SBKG V0209999C000012200019N0100001N1+02771+01991101211ADDAA106000091GF104991041031008001001001MA1999999095181MD1999999-0121REMSYN070AAXX  23184 82795 32597 41400 10277 20199 39518 40121 84300 333 59012;EQDQ01  00002PRCP06
0208827950999992003052400004-07220-035880FM-12+0560SBKG V0200901N002612200019N0010001N1+02211+01921101541ADDAA106000091GA1001+999999999GF100991001001999999001001KA1240M+02831MA1999999095371MD1999999-0081REMSYN082AAXX  24004 82795 32994 00905 10221 20192 39537 40154 333 10283 29076 55097 59008;EQDQ01  00002PRCP06
0186827950999992003052412004-07220-035880FM-12+0560SBKG V0201401N003610450019N0100001N1+02441+02071101581ADDAA106000091GF105991021021008001061001KA1240N+02001MA1999999095411MD1999999-0101REMSYN076AAXX  24124 82795 32597 51407 10244 20207 39541 40158 82260 333 20200 59010;EQDQ01  00002PRCP06
0167827950999992003052418004-07220-035880FM-12+0560SBKG V0201401N002610075019N0100001N1+02791+02011101081ADDAA106000091GF105991051021008001001001MA1999999094961MD1999999-0221REMSYN070AAXX  24184 82795 32597 51405 10279 20201 39496 40108 85200 333 59022;EQDQ01  00002PRCP06
0198827950999992003052500004-07220-035880FM-12+0560SBKG V0201401N003110075019N0010001N1+02211+02101101201ADDAA106000091GF106991061061008001001001KA1240M+02841MA1999999095051MD1999999-0321REMSYN088AAXX  25004 82795 32594 61406 10221 20210 39505 40120 86600 333 10284 29078 55086 59032;EQDQ01  00002PRCP06
0186827950999992003052512004-07220-035880FM-12+0560SBKG V0201401N002112200019N0100001N1+02521+02001101521ADDAA106000091GF104991041021008001001001KA1240N+02151MA1999999095361MD1999999-0051REMSYN076AAXX  25124 82795 32597 41404 10252 20200 39536 40152 84200 333 20215 59005;EQDQ01  00002PRCP06
0167827950999992003052518004-07220-035880FM-12+0560SBKG V0201401N004612200019N0100001N1+02831+01971101241ADDAA106000091GF105991011021008001001011MA1999999095141MD1999999-0181REMSYN070AAXX  25184 82795 32597 51409 10283 20197 39514 40124 81201 333 59018;EQDQ01  00002PRCP06
0198827950999992003052600004-07220-035880FM-12+0560SBKG V0201401N003110075019N0010001N1+02281+02181101391ADDAA106000091GF105991051061008001001001KA1240M+02911MA1999999095251MD1999999+0201REMSYN088AAXX  26004 82795 32594 51406 10228 20218 39525 40139 85600 333 10291 29080 55095 58020;EQDQ01  00002PRCP06
0186827950999992003052612004-07220-035880FM-12+0560SBKG V0201401N004610075019N0100001N1+02541+02011101471ADDAA106000091GF105991051021008001001001KA1240N+02061MA1999999095331MD1999999-0031REMSYN076AAXX  26124 82795 32597 51409 10254 20201 39533 40147 85200 333 20206 59003;EQDQ01  00002PRCP06
0167827950999992003052618004-07220-035880FM-12+0560SBKG V0201401N003612200019N0100001N1+02831+02021101201ADDAA106000091GF104991041021008001001001MA1999999095091MD1999999-0051REMSYN070AAXX  26184 82795 32597 41407 10283 20202 39509 40120 84200 333 59005;EQDQ01  00002PRCP06
0198827950999992003052700004-07220-035880FM-12+0560SBKG V0200901N003610075019N0010001N1+02331+02281101531ADDAA106000091GF106991061021008001001001KA1240M+02941MA1999999095401MD1999999+0151REMSYN088AAXX  27004 82795 32594 60907 10233 20228 39540 40153 86200 333 10294 29082 55085 58015;EQDQ01  00002PRCP06
0186827950999992003052712004-07220-035880FM-12+0560SBKG V0201401N004112200019N0100001N1+02571+02041101701ADDAA106000091GF104991041021008001001001KA1240N+02151MA1999999095561MD1999999+0231REMSYN076AAXX  27124 82795 32597 41408 10257 20204 39556 40170 84200 333 20215 58023;EQDQ01  00002PRCP06
0167827950999992003052718004-07220-035880FM-12+0560SBKG V0201401N003610450019N0100001N1+02821+01861101381ADDAA106000091GF105991031021008001031001MA1999999095261MD1999999+0171REMSYN070AAXX  27184 82795 32597 51407 10282 20186 39526 40138 83230 333 58017;EQDQ01  00002PRCP06
0198827950999992003052800004-07220-035880FM-12+0560SBKG V0200901N003110075019N0010001N1+02281+02111101621ADDAA106000091GF106991061021008001001001KA1240M+02901MA1999999095501MD1999999+0101REMSYN088AAXX  28004 82795 32594 60906 10228 20211 39550 40162 86200 333 10290 29077 55081 58010;EQDQ01  00002PRCP06
0186827950999992003052812004-07220-035880FM-12+0560SBKG V0201401N003112200019N0100001N1+02461+01941101711ADDAA106000091GF104991041021008001001001KA1240N+02141MA1999999095541MD1999999-0021REMSYN076AAXX  28124 82795 32597 41406 10246 20194 39554 40171 84200 333 20214 59002;EQDQ01  00002PRCP06
0167827950999992003052818004-07220-035880FM-12+0560SBKG V0201401N004612200019N0100001N1+02881+01911101231ADDAA106000091GF104991041031008001001001MA1999999095131MD1999999-0131REMSYN070AAXX  28184 82795 32597 41409 10288 20191 39513 40123 84300 333 59013;EQDQ01  00002PRCP06
0198827950999992003052900004-07220-035880FM-12+0560SBKG V0200901N004110075019N0010001N1+02321+02071101641ADDAA106000091GF106991061021008001001001KA1240M+02981MA1999999095491MD1999999-0011REMSYN088AAXX  29004 82795 32594 60908 10232 20207 39549 40164 86200 333 10298 29075 55086 59001;EQDQ01  00002PRCP06
0190827950999992003052912004-07220-035880FM-12+0560SBKG V0201401N003110075019N0100001N1+02491+02031101631ADDAY161061AY221061GF108991081071008001999999KA1240N+02101MA1999999095481MD1999999-0061MW1021REMSYN088AAXX  29124 82795 21597 81406 10249 20203 39548 40163 70262 887// 333 20210 59006 69914;
0167827950999992003052918004-07220-035880FM-12+0560SBKG V0201401N003112200019N0100001N1+02911+01931101221ADDAA106000091GF104991041041008001001001MA1999999095121MD1999999-0011REMSYN070AAXX  29184 82795 32597 41406 10291 20193 39512 40122 84400 333 59001;EQDQ01  00002PRCP06
0198827950999992003053000004-07220-035880FM-12+0560SBKG V0200901N003110075019N0010001N1+02291+02091101611ADDAA106000091GF106991061021008001001001KA1240M+02981MA1999999095461MD1999999-0031REMSYN088AAXX  30004 82795 32594 60906 10229 20209 39546 40161 86200 333 10298 29077 55068 59003;EQDQ01  00002PRCP06
0186827950999992003053012004-07220-035880FM-12+0560SBKG V0201401N003110075019N0100001N1+02411+01911101651ADDAA106000091GF107991071071008001001001KA1240N+02061MA1999999095491MD1999999+0011REMSYN076AAXX  30124 82795 32597 71406 10241 20191 39549 40165 87700 333 20206 58001;EQDQ01  00002PRCP06
0139827950999992003053014004-07220-035880FM-15+0560SBKG V0201501N005110060019N0112651N1+02801+01901999999ADDGA1071+006009999GF107991999999999999999999MA1101691999999MW1001REMMET045SBKG 301400Z 15010KT 9999 BKN020 28/19 Q1017;EQDQ01+000000PRSWM2
0139827950999992003053015004-07220-035880FM-15+0560SBKG V0201601N003112200019N0112651N1+02901+01801999999ADDGA1041+006909999GF104991999999999999999999MA1101691999999MW1001REMMET045SBKG 301500Z 16006KT 9999 SCT023 29/18 Q1017;EQDQ01+000000PRSWM2
0139827950999992003053016004-07220-035880FM-15+0560SBKG V0201501N003112200019N0112651N1+02901+01801999999ADDGA1041+006909999GF104991999999999999999999MA1101591999999MW1001REMMET045SBKG 301600Z 15006KT 9999 SCT023 29/18 Q1016;EQDQ01+000000PRSWM2
0139827950999992003053017004-07220-035880FM-15+0560SBKG V0201701N003112200019N0112651N1+02901+01801999999ADDGA1041+006909999GF104991999999999999999999MA1101491999999MW1001REMMET045SBKG 301700Z 17006KT 9999 SCT023 29/18 Q1015;EQDQ01+000000PRSWM2
0256827950999992003053018004-07220-035880SY-MT+0560SBKG V0201401N004612200019N0100001N1+02931+01601101221ADDAA106000091GA1041+006909999GF104991041021008001001001MA1101391095111MD1999999-0011MW1001REMSYN070AAXX  30184 82795 32597 41409 10293 20160 39511 40122 84200 333 59001;MET045SBKG 301800Z 16006KT 9999 SCT023 29/18 Q1014;EQDQ01+000000PRSWM2Q02  00002PRCP06
0198827950999992003053100004-07220-035880FM-12+0560SBKG V0201401N003610075019N0010001N1+02311+01981101601ADDAA106000091GF106991061021008001001001KA1240M+02991MA1999999095441MD1999999-0021REMSYN088AAXX  31004 82795 32594 61407 10231 20198 39544 40160 86200 333 10299 29070 55084 59002;EQDQ01  00002PRCP06
0186827950999992003053112004-07220-035880FM-12+0560SBKG V0201401N005112200019N0100001N1+02531+01881101721ADDAA106000091GF104991041021008001001001KA1240N+02011MA1999999095561MD1999999+0171REMSYN076AAXX  31124 82795 32597 41410 10253 20188 39556 40172 84200 333 20201 58017;EQDQ01  00002PRCP06
0167827950999992003053118004-07220-035880FM-12+0560SBKG V0201401N002610450019N0100001N1+02761+01771101411ADDAA106000091GF106991031021008001081001MA1999999095271MD1999999+0161REMSYN070AAXX  31184 82795 32597 61405 10276 20177 39527 40141 83280 333 58016;EQDQ01  00002PRCP06
0198827950999992003060100004-07220-035880FM-12+0560SBKG V0200901N003610450019N0010001N1+02191+01941101731ADDAA106000091GF106991041021008001081001KA1240M+02811MA1999999095561MD1999999+0121REMSYN088AAXX  01004 82795 32594 60907 10219 20194 39556 40173 84280 333 10281 29073 55057 58012;EQDQ01  00002PRCP06
0186827950999992003060112004-07220-035880FM-12+0560SBKG V0201401N004112200019N0100001N1+02461+01901101731ADDAA106000091GF103991031011008001001001KA1240N+01901MA1999999095521MD1999999-0041REMSYN076AAXX  01124 82795 32597 31408 10246 20190 39552 40173 83100 333 20190 59004;EQDQ01  00002PRCP06
0167827950999992003060118004-07220-035880FM-12+0560SBKG V0201401N005112200019N0100001N1+02881+01831101351ADDAA106000091GF103991031021008001001001MA1999999095221MD1999999-0051REMSYN070AAXX  01184 82795 32597 31410 10288 20183 39522 40135 83200 333 59005;EQDQ01  00002PRCP06
0214827950999992003060200004-07220-035880FM-12+0560SBKG V0200901N003612200019N0010001N1+02191+01951101701ADDAA106000091GF101991999011008001001001KA1240M+02981MA1999999095521MD1999999-0041REMSYN088AAXX  02004 82795 32594 10907 10219 20195 39552 40170 82100 333 10298 29074 55098 59004;EQDQ01+000022SCOTLCQ02  00002PRCP06
0167827950999992003060218004-07220-035880FM-12+0560SBKG V0201401N003112200019N0100001N1+02901+01691101271ADDAA106000091GF103991021021008001001011MA1999999095151MD1999999-0071REMSYN070AAXX  02184 82795 32597 31406 10290 20169 39515 40127 82201 333 59007;EQDQ01  00002PRCP06
0198827950999992003060300004-07220-035880FM-12+0560SBKG V0200901N003612200019N0010001N1+02221+01991101571ADDAA106000091GF104991031021008001061001KA1240M+02951MA1999999095411MD1999999-0111REMSYN088AAXX  03004 82795 32594 40907 10222 20199 39541 40157 83260 333 10295 29073 55091 59011;EQDQ01  00002PRCP06
0091827950999992003060303004-07220-035880FM-15+0560SBKG V0201501N00311220001CN0099001N1+02101+02001999999ADDMA1101691999999MW1001REMMET039SBKG 030300Z 15006KT CAVOK 21/20 Q1017;EQDQ01+000000PRSWM2
0139827950999992003060309004-07220-035880FM-15+0560SBKG V0201601N002110051019N0112651N1+02101+02001999999ADDGA1071+005109999GF107991999999999999999999MA1101591999999MW1001REMMET045SBKG 030900Z 16004KT 9999 BKN017 21/20 Q1016;EQDQ01+000000PRSWM2
0139827950999992003060310004-07220-035880FM-15+0560SBKG V0201801N003112200019N0112651N1+02201+02001999999ADDGA1021+003909999GF102991999999999999999999MA1101691999999MW1001REMMET045SBKG 031000Z 18006KT 9999 FEW013 22/20 Q1017;EQDQ01+000000PRSWM2
0139827950999992003060311004-07220-035880FM-15+0560SBKG V0201601N003110051019N0112651N1+02301+02001999999ADDGA1071+005109999GF107991999999999999999999MA1101691999999MW1001REMMET045SBKG 031100Z 16006KT 9999 BKN017 23/20 Q1017;EQDQ01+000000PRSWM2
0190827950999992003060312004-07220-035880FM-12+0560SBKG V0201401N003110075019N0100001N1+02291+01981101561ADDAY161061AY221061GF108991051071008001011999KA1240N+02031MA1999999095381MD1999999-0151MW1021REMSYN088AAXX  03124 82795 21597 81406 10229 20198 39538 40156 70262 8571/ 333 20203 59015 69934;
0162827950999992003060316004-07220-035880FM-15+0560SBKG V0201501N004110045019N0112651N1+02601+01901999999ADDGA1041+003009999GA2071+004509999GF107991999999999999999999MA1101591999999MW1001REMMET052SBKG 031600Z 15008KT 9999 SCT010 BKN015 26/19 Q1016;EQDQ01+000000PRSWM2
0183827950999992003060317004-07220-035880FM-15+0560SBKG V0201601N005110045019N0080001N1+02601+02001999999ADDGA1041+003009999GA2071+004509999GF107991999999999999999999MA1101491999999MW1161REMMET057SBKG 031700Z 16010KT 8000 VCSH SCT010 BKN015 26/20 Q1015;EQDQ01+000003PRSWM1Q02    003PRSWM1
0291827950999992003060318004-07220-035880SY-MT+0560SBKG V0201401N004110045019N0040001N1+02461+02051101321ADDAY161061AY221061GA1041+003009999GA2071+004509999GF108991051071008001021999MA1101491095141MD1999999-0011MW1161MW2501REMSYN082AAXX  03184 82795 21596 81408 10246 20205 39514 40132 75062 8572/ 333 59001 60011;MET057SBKG 031800Z 15010KT 8000 VCSH SCT010 BKN015 26/20 Q1015;EQDQ01    003PRSWM1
0200827950999992003060319004-07220-035880FM-15+0560SBKG V0201501N00511003001CN0020001N1+02201+02101999999ADDGA1041+001509999GA2041+003009999GA3071+004509999GF107991999999999999999999MW1101MW2611REMMET067SBKG 031900Z 15010KT 2000 -RA BR SCT005 SCT010 BKN015 22/21 Q10 15;EQDQ01+000003PRSWM1Q02    003PRSWM1
0200827950999992003060320004-07220-035880FM-15+0560SBKG V0201301N00311003001CN0050001N1+02201+02101999999ADDGA1021+001509999GA2041+003009999GA3071+004509999GF107991999999999999999999MW1101MW2611REMMET067SBKG 032000Z 13006KT 5000 -RA BR FEW005 SCT010 BKN015 22/21 Q10 15;EQDQ01+000003PRSWM1Q02    003PRSWM1
0202827950999992003060400004-07220-035880FM-12+0560SBKG V0201401N001510120019N0010001N1+02141+02071101581ADDAY161061AY251061GF108991081081008001999999KA1240M+02551MA1999999095381MD1999999-0031MW1021REMSYN100AAXX  04004 82795 21594 81403 10214 20207 39538 40158 70265 888// 333 10255 29088 55006 59003 60041;
0190827950999992003060412004-07220-035880FM-12+0560SBKG V0200901N003110042019N0040001N1+02181+02081101631ADDAY161061AY251061GF108991051071004501021999KA1240N+02051MA1999999095421MD1999999+0041MW1511REMSYN088AAXX  04124 82795 21496 80906 10218 20208 39542 40163 75165 8572/ 333 20205 58004 60084;
0214827950999992003060413004-07220-035880FM-15+0560SBKG V0201601N003110030019N0015001N1+02201+02101999999ADDGA1041+001509999GA2071+003009999GA3071+004509999GF107991999999999999999999MA1101801999999MW1101MW2611REMMET066SBKG 041300Z 16006KT 1500 -RA BR SCT005 BKN010 BKN015 22/21 Q1018;EQDQ01+000003PRSWM1Q02    003PRSWM1
0171827950999992003060418004-07220-035880FM-12+0560SBKG V0200901N004110042019N0002001N1+02241+02191101391ADDAY161061AY251061GF108991081071004501999999MA1999999095191MD1999999+0051MW1611REMSYN082AAXX  04184 82795 21492 80908 10224 20219 39519 40139 76165 887// 333 58005 60201;
0202827950999992003060500004-07220-035880FM-12+0560SBKG V0201401N002110042019N0002001N1+02091+02031101601ADDAY161061AY261061GF108991081071004501999999KA1240M+02481MA1999999095391MD1999999+0011MW1601REMSYN100AAXX  05004 82795 21492 81404 10209 20203 39539 40160 76066 887// 333 10248 29096 55004 58001 60201;
0190827950999992003060512004-07220-035880FM-12+0560SBKG V0200901N006210075019N0100001N1+02291+02091101651ADDAY161061AY221061GF106991061061008001001001KA1240N+02001MA1999999095391MD1999999-0031MW1021REMSYN088AAXX  05124 82795 21597 60912 10229 20209 39539 40165 70262 86600 333 20200 59003 60444;
0167827950999992003060518004-07220-035880FM-12+0560SBKG V0201401N005110075019N0100001N1+02621+02421101331ADDAA106000091GF106991061021008001001001MA1999999095171MD1999999-0021REMSYN070AAXX  05184 82795 32597 61410 10262 20242 39517 40133 86200 333 59002;EQDQ01  00002PRCP06
0202827950999992003060600004-07220-035880FM-12+0560SBKG V0201401N002610075019N0010001N1+02191+02011101641ADDAY161061AY221061GF106991061021008001001001KA1240M+02641MA1999999095451MD1999999+0031MW1021REMSYN100AAXX  06004 82795 21594 61405 10219 20201 39545 40164 70262 86200 333 10264 29089 55070 58003 69921;
0162827950999992003060612004-07220-035880FM-12+0560SBKG V0201801N003110075019N0100001N1+02351+01931101641ADDGF106991061021008001001001KA1240N+01921MA1999999095451MD1999999+0061REMSYN082AAXX  06124 82795 22597 61806 10235 20193 39545 40164 86200 333 20192 58006 69924;
0167827950999992003060618004-07220-035880FM-12+0560SBKG V0201401N003111050019N0100001N1+02631+01861101241ADDAA106000091GF105991021041008001031041MA1999999095081MD1999999-0091REMSYN070AAXX  06184 82795 32597 51406 10263 20186 39508 40124 82434 333 59009;EQDQ01  00002PRCP06
0202827950999992003060700004-07220-035880FM-12+0560SBKG V0201401N003110075019N0010001N1+02221+02071101591ADDAY161061AY221061GF106991051021008001041001KA1240M+02781MA1999999095411MD1999999-0041MW1021REMSYN100AAXX  07004 82795 21594 61406 10222 20207 39541 40159 70262 85240 333 10278 29081 55092 59004 69921;
0162827950999992003060712004-07220-035880FM-12+0560SBKG V0201401N004110075019N0100001N1+02421+01911101631ADDGF106991061061008001001001KA1240N+02031MA1999999095451MD1999999+0001REMSYN082AAXX  07124 82795 22597 61408 10242 20191 39545 40163 86600 333 20203 58000 69924;
0183827950999992003060718004-07220-035880FM-12+0560SBKG V0201401N005710075019N0100001N1+02511+02001101321ADDAA106000091GF106991999021008001001001MA1999999095161MD1999999+0081REMSYN070AAXX  07184 82795 32597 61411 10251 20200 39516 40132 85200 333 58008;EQDQ01+000052SCOTLCQ02  00002PRCP06
0198827950999992003060800004-07220-035880FM-12+0560SBKG V0201401N002110075019N0010001N1+02151+01971101541ADDAA106000091GF106991061021008001001001KA1240M+02691MA1999999095361MD1999999-0051REMSYN088AAXX  08004 82795 32594 61404 10215 20197 39536 40154 86200 333 10269 29081 55048 59005;EQDQ01  00002PRCP06
0186827950999992003060812004-07220-035880FM-12+0560SBKG V0201401N003610075019N0100001N1+02341+01811101541ADDAA106000091GF106991061021008001001001KA1240N+01861MA1999999095361MD1999999-0091REMSYN076AAXX  08124 82795 32597 61407 10234 20181 39536 40154 86200 333 20186 59009;EQDQ01  00002PRCP06
0167827950999992003060818004-07220-035880FM-12+0560SBKG V0201401N005112200019N0100001N1+02701+01801101321ADDAA106000091GF102991021021008001001001MA1999999095161MD1999999+0001REMSYN070AAXX  08184 82795 32597 21410 10270 20180 39516 40132 82200 333 58000;EQDQ01  00002PRCP06
0198827950999992003060900004-07220-035880FM-12+0560SBKG V0201401N002112200019N0010001N1+02171+01901101681ADDAA106000091GF102991021011008001001001KA1240M+02791MA1999999095431MD1999999+0071REMSYN088AAXX  09004 82795 32594 21404 10217 20190 39543 40168 82100 333 10279 29075 55093 58007;EQDQ01  00002PRCP06
0186827950999992003060912004-07220-035880FM-12+0560SBKG V0201401N004610075019N0100001N1+02321+01891101611ADDAA106000091GF106991061061008001001001KA1240N+01851MA1999999095421MD1999999+0061REMSYN076AAXX  09124 82795 32597 61409 10232 20189 39542 40161 86600 333 20185 58006;EQDQ01  00002PRCP06
0167827950999992003060918004-07220-035880FM-12+0560SBKG V0201401N005110075019N0040001N1+02301+02111101431ADDAA106000091GF108991081071008001999999MA1999999095211MD1999999+0051REMSYN070AAXX  09184 82795 32596 81410 10230 20211 39521 40143 887// 333 58005;EQDQ01  00002PRCP06
0202827950999992003061000004-07220-035880FM-12+0560SBKG V0201401N001010090019N0005001N1+01961+01891101691ADDAY161061AY251061GF108991081081004501999999KA1240M+02601MA1999999095471MD1999999+0041MW1501REMSYN100AAXX  10004 82795 21493 81402 10196 20189 39547 40169 75065 888// 333 10260 29090 55033 58004 60041;
0190827950999992003061012004-07220-035880FM-12+0560SBKG V0201401N003610075019N0100001N1+02261+01991101711ADDAY161061AY221061GF108991081071008001999999KA1240N+01881MA1999999095481MD1999999+0061MW1021REMSYN088AAXX  10124 82795 21597 81407 10226 20199 39548 40171 70262 887// 333 20188 58006 60054;
0202827950999992003061100004-07220-035880FM-12+0560SBKG V0200901N002110075019N0010001N1+02101+02051101671ADDAY161061AY221061GF108991081071008001999999KA1240M+02471MA1999999095451MD1999999-0021MW1021REMSYN100AAXX  11004 82795 21594 80904 10210 20205 39545 40167 70262 887// 333 10247 29090 55001 59002 60021;
0188827950999992003061103004-07220-035880FM-15+0560SBKG V0201501N003110036019N0080001N1+02101+02101999999ADDGA1071+003609999GA2071+027009999GF107991999999999999999999MA1101691999999MW1611REMMET062METAR SBKG 110300Z 15006KT 8000 -RA BKN012 BKN090 21/21 Q1017;EQDQ01+000003PRSWM1Q02    003PRSWM1
0200827950999992003061109004-07220-035880FM-15+0560SBKG V0201601N003110030019N0030001N1+02001+02001999999ADDGA1041+001809999GA2071+003009999GA3071+027009999GF107991999999999999999999MW1101MW2611REMMET067SBKG 110900Z 16006KT 3000 -RA BR SCT006 BKN010 BKN090 20/20 Q10 17;EQDQ01+000003PRSWM1Q02    003PRSWM1
0204827950999992003061110004-07220-035880FM-15+0560SBKG V0201401N004110045019N0050001N1+02101+02001999999ADDGA1041+003009999GA2071+004509999GA3071+027009999GF107991999999999999999999MA1101691999999MW1101REMMET062SBKG 111000Z 14008KT 5000 BR SCT010 BKN015 BKN090 21/20 Q1017;EQDQ01+000003PRSWM1Q02    003PRSWM1
0185827950999992003061111004-07220-035880FM-15+0560SBKG V0201601N00311005101CN0112651N1+02201+02001999999ADDGA1021+004509999GA2041+005109999GA3071+027009999GF107991999999999999999999MA1101801999999MW1001REMMET059SBKG 111100Z 16006KT 9999 FEW015 SCT017 BKN090 22/20 Q1018;EQDQ01+000000PRSWM2
0190827950999992003061112004-07220-035880FM-12+0560SBKG V0201401N003610075019N0100001N1+02281+02091101661ADDAY161061AY221061GF106991061061008001001001KA1240N+01981MA1999999095761MD1999999-0021MW1021REMSYN088AAXX  11124 82795 21597 61407 10228 20209 39576 40166 70262 86600 333 20198 59002 60094;
0162827950999992003061113004-07220-035880FM-15+0560SBKG V0201401N005110060019N0112651N1+02401+02101999999ADDGA1071+006009999GA2071+027009999GF107991999999999999999999MA1101801999999MW1001REMMET052SBKG 111300Z 14010KT 9999 BKN020 BKN090 24/21 Q1018;EQDQ01+000000PRSWM2
0171827950999992003061118004-07220-035880FM-12+0560SBKG V0201401N003110450019N0100001N1+02581+01971101331ADDAY151061AY221061GF105991021031008001031001MA1999999095161MD1999999-0141MW1021REMSYN082AAXX  11184 82795 21597 51406 10258 20197 39516 40133 70252 82330 333 59014 69911;
0198827950999992003061200004-07220-035880FM-12+0560SBKG V0201401N002612200019N0010001N1+02211+02061101601ADDAA106000091GF102991011011008001041001KA1240M+02671MA1999999095421MD1999999-0031REMSYN088AAXX  12004 82795 32594 21405 10221 20206 39542 40160 81140 333 10267 29086 55035 59003;EQDQ01  00002PRCP06
0162827950999992003061209004-07220-035880FM-15+0560SBKG V0201801N002112200019N0112651N1+02101+02001999999ADDGA1041+003609999GA2041+004509999GF104991999999999999999999MA1101491999999MW1001REMMET052SBKG 120900Z 18004KT 9999 SCT012 SCT015 21/20 Q1015;EQDQ01+000000PRSWM2
0183827950999992003061210004-07220-035880FM-15+0560SBKG V0201701N004110045019N0080001N1+02301+02101999999ADDGA1041+003909999GA2071+004509999GF107991999999999999999999MA1101691999999MW1161REMMET057SBKG 121000Z 17008KT 8000 VCSH SCT013 BKN015 23/21 Q1017;EQDQ01+000003PRSWM1Q02    003PRSWM1
0298827950999992003061212004-07220-035880SY-MT+0560SBKG V0201401N004610054019N0100001N1+02321+01981101511ADDGA1041+004509999GA2071+005409999GF108991081071008001999999KA1240N+02071MA1101691095331MD1999999-0131MW1161REMSYN082AAXX  12124 82795 22597 81409 10232 20198 39533 40151 887// 333 20207 59013 69914;MET057SBKG 121200Z 19008KT 5000 VCSH SCT015 BKN018 24/20 Q1017;EQDQ01+000003PRSWM1Q02    003PRSWM1
0167827950999992003061218004-07220-035880FM-12+0560SBKG V0201401N003110450019N0100001N1+02641+01931101151ADDAA106000091GF106991031041008001031001MA1999999095051MD1999999-0111REMSYN070AAXX  12184 82795 32597 61406 10264 20193 39505 40115 83430 333 59011;EQDQ01  00002PRCP06
0208827950999992003061300004-07220-035880FM-12+0560SBKG V0201401N002612200019N0010001N1+02191+01941101491ADDAA106000091GA1001+999999999GF100991001001999999001001KA1240M+02721MA1999999095311MD1999999-0111REMSYN082AAXX  13004 82795 32994 01405 10219 20194 39531 40149 333 10272 29079 55051 59011;EQDQ01  00002PRCP06
0186827950999992003061312004-07220-035880FM-12+0560SBKG V0201801N003610075019N0100001N1+02241+01821101431ADDAA106000091GF106991061021008001001001KA1240N+01921MA1999999095241MD1999999-0091REMSYN076AAXX  13124 82795 32597 61807 10224 20182 39524 40143 86200 333 20192 59009;EQDQ01  00002PRCP06
0167827950999992003061318004-07220-035880FM-12+0560SBKG V0201401N003610450019N0100001N1+02581+01971101171ADDAA106000091GF106991031041008001031001MA1999999095011MD1999999+0011REMSYN070AAXX  13184 82795 32597 61407 10258 20197 39501 40117 83430 333 58001;EQDQ01  00002PRCP06
0214827950999992003061400004-07220-035880FM-12+0560SBKG V0201401N002619999999N0010001N1+02221+01761101561ADDAA106000091GF106991999021008001001001KA1240M+02721MA1999999095361MD1999999+0051REMSYN088AAXX  14004 82795 32594 61405 10222 20176 39536 40156 81200 333 10272 29074 55056 58005;EQDQ01+000012SCOTLCQ02  00002PRCP06
0186827950999992003061412004-07220-035880FM-12+0560SBKG V0201401N003110450019N0100001N1+02251+01921101601ADDAA106000091GF108991041051008001021001KA1240N+02011MA1999999095401MD1999999+0161REMSYN076AAXX  14124 82795 32597 81406 10225 20192 39540 40160 84520 333 20201 58016;EQDQ01  00002PRCP06
0195827950999992003061418004-07220-035880FM-12+0560SBKG V0201401N004610075019N0100001N1+02511+02051101331ADDAA106000091AY121061AY221061GF107991071071008001001001MA1999999095161MD1999999+0151MW1151REMSYN076AAXX  14184 82795 31597 71409 10251 20205 39516 40133 71522 87700 333 58015;EQDQ01  00002PRCP06
0202827950999992003061500004-07220-035880FM-12+0560SBKG V0201401N003110075019N0010001N1+02121+02071101591ADDAY161061AY221061GF108991081071008001999999KA1240M+02531MA1999999095381MD1999999+0021MW1021REMSYN100AAXX  15004 82795 21594 81406 10212 20207 39538 40159 70262 887// 333 10253 29088 55008 58002 60011;
0209827950999992003061512004-07220-035880FM-12+0560SBKG V0202701N049320450019N0040001N1+02251+02041101641ADDAY161061AY261061GF108991031071008001011001KA1240N+01991MA1999999095431MD1999999+0031MW1021REMSYN088AAXX  15124 82795 21596 82796 10225 20204 39543 40164 70266 83710 333 20199 58003 60064;EQDQ01+004933WOSPD 
0190827950999992003061518004-07220-035880FM-12+0560SBKG V0201401N002119999999N0100001N1+02381+02011101651ADDAY161061AY221061GF107991999031008001001001MA1999999095241MD1999999+0081MW1021REMSYN082AAXX  15184 82795 21597 71404 10238 20201 39524 40165 70262 84300 333 58008 60051;EQDQ01+000042SCOTLC
0198827950999992003061600004-07220-035880FM-12+0560SBKG V0201401N001510075019N0010001N1+02131+02071101691ADDAA106000091GF105991051061008001001001KA1240M+02441MA1999999095481MD1999999+0101REMSYN088AAXX  16004 82795 32594 51403 10213 20207 39548 40169 85600 333 10244 29089 55003 58010;EQDQ01  00002PRCP06
0190827950999992003061612004-07220-035880FM-12+0560SBKG V0201801N001010042019N0040001N1+02061+02011101681ADDAY161061AY251061GF108991051071004501021999KA1240N+01961MA1999999095451MD1999999+0021MW1501REMSYN088AAXX  16124 82795 21496 81802 10206 20201 39545 40168 75065 8572/ 333 20196 58002 60164;
0204827950999992003061615004-07220-035880FM-15+0560SBKG V0202101N003110030019N0030001N1+02101+02101999999ADDGA1041+001809999GA2071+003009999GA3081+027009999GF108991999999999999999999MA1101691999999MW1631REMMET062SBKG 161500Z 21006KT 3000 RA SCT006 BKN010 OVC090 21/21 Q1017;EQDQ01+000003PRSWM1Q02    003PRSWM1
0171827950999992003061618004-07220-035880FM-12+0560SBKG V0201401N005110042019N0040001N1+02031+01971101571ADDAY161061AY251061GF108991051071004501021999MA1999999095331MD1999999+0091MW1501REMSYN082AAXX  16184 82795 21496 81410 10203 20197 39533 40157 75065 8572/ 333 58009 60211;
0202827950999992003061700004-07220-035880FM-12+0560SBKG V0200901N001010075019N0010001N1+02041+01971101691ADDAY151061AY251061GF107991051071008001071001KA1240M+02211MA1999999095451MD1999999-0031MW1021REMSYN100AAXX  17004 82795 21594 70902 10204 20197 39545 40169 70255 85770 333 10221 29096 55000 59003 60021;
0190827950999992003061712004-07220-035880FM-12+0560SBKG V0201801N003610075019N0100001N1+02211+01901101621ADDAY161061AY221061GF105991051021008001001001KA1240N+01791MA1999999095401MD1999999-0051MW1021REMSYN088AAXX  17124 82795 21597 51807 10221 20190 39540 40162 70262 85200 333 20179 59005 60224;
0139827950999992003061715004-07220-035880FM-15+0560SBKG V0201501N004112200019N0112651N1+02601+01701999999ADDGA1041+007509999GF104991999999999999999999MA1101691999999MW1001REMMET045SBKG 171500Z 15008KT 9999 SCT025 26/17 Q1017;EQDQ01+000000PRSWM2
0167827950999992003061718004-07220-035880FM-12+0560SBKG V0201401N003112200019N0100001N1+02631+01701101371ADDAA106000091GF103991031021008001001001MA1999999095191MD1999999-0141REMSYN070AAXX  17184 82795 32597 31406 10263 20170 39519 40137 83200 333 59014;EQDQ01  00002PRCP06
0208827950999992003061800004-07220-035880FM-12+0560SBKG V0200901N002112200019N0010001N1+02121+01781101611ADDAA106000091GA1001+999999999GF100991001001999999001001KA1240M+02661MA1999999095401MD1999999-0051REMSYN082AAXX  18004 82795 32994 00904 10212 20178 39540 40161 333 10266 29076 55087 59005;EQDQ01  00002PRCP06
0186827950999992003061812004-07220-035880FM-12+0560SBKG V0201801N002612200019N0100001N1+02251+01801101661ADDAA106000091GF103991031001008001041001KA1240N+01731MA1999999095441MD1999999+0041REMSYN076AAXX  18124 82795 32597 31805 10225 20180 39544 40166 83040 333 20173 58004;EQDQ01  00002PRCP06
0091827950999992003061816004-07220-035880FM-15+0560SBKG V0201301N00361220001CN0099001N1+02601+01501999999ADDMA1101591999999MW1001REMMET039SBKG 181600Z 13007KT CAVOK 26/15 Q1016;EQDQ01+000000PRSWM2
0091827950999992003061817004-07220-035880FM-15+0560SBKG V0201401N00361220001CN0099001N1+02601+01501999999ADDMA1101591999999MW1001REMMET039SBKG 181700Z 14007KT CAVOK 26/15 Q1016;EQDQ01+000000PRSWM2
0167827950999992003061818004-07220-035880FM-12+0560SBKG V0209999C000010450019N0100001N1+02621+01831101401ADDAA106000091GF107991041041008001021001MA1999999095201MD1999999+0081REMSYN070AAXX  18184 82795 32597 71400 10262 20183 39520 40140 84420 333 58008;EQDQ01  00002PRCP06
0214827950999992003061900004-07220-035880FM-12+0560SBKG V0200901N002110075019N0010001N1+02191+02061101641ADDAA106000091GF108991999041008001001001KA1240M+02671MA1999999095441MD1999999+0041REMSYN088AAXX  19004 82795 32594 80904 10219 20206 39544 40164 85400 333 10267 29080 55044 58004;EQDQ01+000052SCOTLCQ02  00002PRCP06
0190827950999992003061912004-07220-035880FM-12+0560SBKG V0201401N003110075019N0100001N1+02211+01991101791ADDAY161061AY221061GF108991081071008001999999KA1240N+01901MA1999999095581MD1999999+0141MW1021REMSYN088AAXX  19124 82795 21597 81406 10221 20199 39558 40179 70262 887// 333 20190 58014 60064;
0167827950999992003061918004-07220-035880FM-12+0560SBKG V0201401N004610450019N0100001N1+02391+01971101541ADDAA106000091GF107991041031008001071001MA1999999095341MD1999999+0071REMSYN070AAXX  19184 82795 32597 71409 10239 20197 39534 40154 84370 333 58007;EQDQ01  00002PRCP06
0230827950999992003062000004-07220-035880FM-12+0560SBKG V0200901N002110450019N0010001N1+02071+02071999999ADDAA106000091GF106991011021008001071021KA1240M+02421MA1999999999999MD1999999+0051REMSYN088AAXX  20004 82795 32594 60904 10207 20207 30187 49549 81272 333 10242 29086 55002 58005;EQDQ01  00002PRCP06Q02 101873APOSP Q03 095493APOSLP
0186827950999992003062012004-07220-035880FM-12+0560SBKG V0201401N004110075019N0100001N1+02361+01891101701ADDAA106000091GF106991061061008001001001KA1240N+01931MA1999999095501MD1999999-0081REMSYN076AAXX  20124 82795 32597 61408 10236 20189 39550 40170 86600 333 20193 59008;EQDQ01  00002PRCP06
0167827950999992003062018004-07220-035880FM-12+0560SBKG V0201401N003110450019N0100001N1+02371+01971101491ADDAA106000091GF106991031031008001041001MA1999999095291MD1999999-0051REMSYN070AAXX  20184 82795 32597 61406 10237 20197 39529 40149 83340 333 59005;EQDQ01  00002PRCP06
0198827950999992003062100004-07220-035880FM-12+0560SBKG V0200901N002110450019N0010001N1+02111+02001101651ADDAA106000091GF107991041021008001061001KA1240M+02571MA1999999095451MD1999999-0041REMSYN088AAXX  21004 82795 32594 70904 10211 20200 39545 40165 84260 333 10257 29085 55056 59004;EQDQ01  00002PRCP06
0190827950999992003062112004-07220-035880FM-12+0560SBKG V0201401N003610042019N0020001N1+02041+01971101871ADDAY161061AY251061GF108991061071004501011001KA1240N+01951MA1999999095621MD1999999+0121MW1501REMSYN088AAXX  21124 82795 21495 81407 10204 20197 39562 40187 75065 86710 333 20195 58012 60014;
0171827950999992003062118004-07220-035880FM-12+0560SBKG V0201401N001510075019N0010001N1+02251+02101101551ADDAY161061AY251061GF107991061031008001081001MA1999999095331MD1999999+0041MW1601REMSYN082AAXX  21184 82795 21594 71403 10225 20210 39533 40155 76065 86380 333 58004 60041;
0198827950999992003062200004-07220-035880FM-12+0560SBKG V0200901N001510075019N0010001N1+02091+02011101671ADDAA106000021GF108991999021008001001001KA1240M+02531MA1999999095431MD1999999-0021REMSYN088AAXX  22004 82795 32594 80903 10209 20201 39543 40167 86200 333 10253 29095 55019 59002;EQDQ01+000062SCOTLC
0162827950999992003062212004-07220-035880FM-12+0560SBKG V0201401N004612200019N0100001N1+02171+01781101721ADDGF104991021011008001001011KA1240N+01741MA1999999095491MD1999999-0131REMSYN082AAXX  22124 82795 22597 41409 10217 20178 39549 40172 82101 333 20174 59013 60044;
0186827950999992003062312004-07220-035880FM-12+0560SBKG V0201401N003612200019N0100001N1+02261+01751101731ADDAA106000091GF104991041011008001001001KA1240N+01761MA1999999095501MD1999999+0011REMSYN076AAXX  23124 82795 32597 41407 10226 20175 39550 40173 84100 333 20176 58001;EQDQ01  00002PRCP06
0167827950999992003062318004-07220-035880FM-12+0560SBKG V0201401N002610075019N0100001N1+02631+01761101471ADDAA106000091GF105991051021008001001001MA1999999095281MD1999999+0091REMSYN070AAXX  23184 82795 32597 51405 10263 20176 39528 40147 85200 333 58009;EQDQ01  00002PRCP06
0198827950999992003062400004-07220-035880FM-12+0560SBKG V0200901N002612200019N0010001N1+02151+01901101721ADDAA106000091GF102991021011008001001001KA1240M+02671MA1999999095521MD1999999+0141REMSYN088AAXX  24004 82795 32594 20905 10215 20190 39552 40172 82100 333 10267 29076 55084 58014;EQDQ01  00002PRCP06
0186827950999992003062412004-07220-035880FM-12+0560SBKG V0201401N003610075019N0100001N1+02221+01971101711ADDAA106000091GF108991081071008001999999KA1240N+01881MA1999999095491MD1999999-0011REMSYN076AAXX  24124 82795 32597 81407 10222 20197 39549 40171 887// 333 20188 59001;EQDQ01  00002PRCP06
0167827950999992003062418004-07220-035880FM-12+0560SBKG V0201401N004112200019N0100001N1+02681+01971101531ADDAA106000091GF103991031031008001001001MA1999999095351MD1999999+0071REMSYN070AAXX  24184 82795 32597 31408 10268 20197 39535 40153 83300 333 58007;EQDQ01  00002PRCP06
0198827950999992003062500004-07220-035880FM-12+0560SBKG V0200901N003110450019N0010001N1+02181+01991101821ADDAA106000091GF106991031021008001051001KA1240M+02711MA1999999095611MD1999999+0091REMSYN088AAXX  25004 82795 32594 60906 10218 20199 39561 40182 83250 333 10271 29082 55077 58009;EQDQ01  00002PRCP06
0186827950999992003062512004-07220-035880FM-12+0560SBKG V0201401N003610075019N0100001N1+02231+01901101831ADDAA106000091GF106991061061008001001001KA1240N+01931MA1999999095621MD1999999+0131REMSYN076AAXX  25124 82795 32597 61407 10223 20190 39562 40183 86600 333 20193 58013;EQDQ01  00002PRCP06
0167827950999992003062518004-07220-035880FM-12+0560SBKG V0201401N004612200019N0100001N1+02631+01781101441ADDAA106000091GF104991041021008001001001MA1999999095261MD1999999-0111REMSYN070AAXX  25184 82795 32597 41409 10263 20178 39526 40144 84200 333 59011;EQDQ01  00002PRCP06
0198827950999992003062600004-07220-035880FM-12+0560SBKG V0201401N003112200019N0010001N1+02081+01821101711ADDAA106000091GF103991031021008001001001KA1240M+02751MA1999999095491MD1999999-0121REMSYN088AAXX  26004 82795 32594 31406 10208 20182 39549 40171 83200 333 10275 29078 55070 59012;EQDQ01  00002PRCP06
0186827950999992003062612004-07220-035880FM-12+0560SBKG V0201401N003610075019N0100001N1+02101+01721101801ADDAA106000091GF108991081071008001999999KA1240N+01711MA1999999095541MD1999999-0081REMSYN076AAXX  26124 82795 32597 81407 10210 20172 39554 40180 887// 333 20171 59008;EQDQ01  00002PRCP06
0171827950999992003062618004-07220-035880FM-12+0560SBKG V0201401N004612200019N0100001N1+02541+01761101501ADDAY151061AY221061GF103991031021008001001001MA1999999095281MD1999999+0021MW1021REMSYN082AAXX  26184 82795 21597 31409 10254 20176 39528 40150 70252 83200 333 58002 69951;
0198827950999992003062700004-07220-035880FM-12+0560SBKG V0201401N002112200019N0010001N1+02011+01681101711ADDAA106000091GF103991031011008001001001KA1240M+02601MA1999999095471MD1999999-0021REMSYN088AAXX  27004 82795 32594 31404 10201 20168 39547 40171 83100 333 10260 29076 55062 59002;EQDQ01  00002PRCP06
0162827950999992003062712004-07220-035880FM-12+0560SBKG V0201401N003112200019N0100001N1+02241+01731101731ADDGF104991041011008001001001KA1240N+01711MA1999999095501MD1999999-0041REMSYN082AAXX  27124 82795 22597 41406 10224 20173 39550 40173 84100 333 20171 59004 69954;
0167827950999992003062718004-07220-035880FM-12+0560SBKG V0201401N002612200019N0100001N1+02641+01581101461ADDAA106000091GF103991031021008001001001MA1999999095261MD1999999-0021REMSYN070AAXX  27184 82795 32597 31405 10264 20158 39526 40146 83200 333 59002;EQDQ01  00002PRCP06
0198827950999992003062800004-07220-035880FM-12+0560SBKG V0201401N002612200019N0010001N1+02071+01641101711ADDAA106000091GF102991021011008001001001KA1240M+02681MA1999999095491MD1999999+0021REMSYN088AAXX  28004 82795 32594 21405 10207 20164 39549 40171 82100 333 10268 29070 55099 58002;EQDQ01  00002PRCP06
0186827950999992003062812004-07220-035880FM-12+0560SBKG V0201401N002112200019N0100001N1+02181+01591101801ADDAA106000091GF101991011011008001001001KA1240N+01691MA1999999095561MD1999999+0061REMSYN076AAXX  28124 82795 32597 11404 10218 20159 39556 40180 81100 333 20169 58006;EQDQ01  00002PRCP06
0167827950999992003062818004-07220-035880FM-12+0560SBKG V0201401N003112200019N0100001N1+02731+01571101401ADDAA106000091GF102991021011008001001001MA1999999095231MD1999999-0031REMSYN070AAXX  28184 82795 32597 21406 10273 20157 39523 40140 82100 333 59003;EQDQ01  00002PRCP06
0198827950999992003062900004-07220-035880FM-12+0560SBKG V0201401N003112200019N0010001N1+02161+01901101751ADDAA106000091GF101991011011008001001001KA1240M+02751MA1999999095531MD1999999+0041REMSYN088AAXX  29004 82795 32594 11406 10216 20190 39553 40175 81100 333 10275 29072 55098 58004;EQDQ01  00002PRCP06
0186827950999992003062912004-07220-035880FM-12+0560SBKG V0201401N002610075019N0100001N1+02111+01971101811ADDAA106000091GF108991081071008001999999KA1240N+01961MA1999999095571MD1999999+0011REMSYN076AAXX  29124 82795 32597 81405 10211 20197 39557 40181 887// 333 20196 58001;EQDQ01  00002PRCP06
0183827950999992003062918004-07220-035880FM-12+0560SBKG V0201401N002619999999N0100001N1+02411+01931101491ADDAA106000091GF108991999021008001001001MA1999999095291MD1999999+0021REMSYN070AAXX  29184 82795 32597 81405 10241 20193 39529 40149 83200 333 58002;EQDQ01+000032SCOTLCQ02  00002PRCP06
0202827950999992003063000004-07220-035880FM-12+0560SBKG V0201401N002610075019N0010001N1+02031+01941101751ADDAY151061AY221061GF108991081071008001999999KA1240M+02471MA1999999095511MD1999999-0021MW1021REMSYN100AAXX  30004 82795 21594 81405 10203 20194 39551 40175 70252 887// 333 10247 29089 55010 59002 60011;
0162827950999992003063012004-07220-035880FM-12+0560SBKG V0201401N005112200019N0100001N1+02251+01781101821ADDGF104991041021008001001001KA1240N+01851MA1999999095601MD1999999+0031REMSYN082AAXX  30124 82795 22597 41410 10225 20178 39560 40182 84200 333 20185 58003 60014;
0167827950999992003063018004-07220-035880FM-12+0560SBKG V0201401N004610120019N0100001N1+02411+01841101611ADDAA106000091GF107991071081008001001001MA1999999095391MD1999999+0101REMSYN070AAXX  30184 82795 32597 71409 10241 20184 39539 40161 87800 333 58010;EQDQ01  00002PRCP06
0198827950999992003070100004-07220-035880FM-12+0560SBKG V0201401N002610075019N0010001N1+02121+01821101831ADDAA106000091GF106991061021008001001001KA1240M+02641MA1999999095611MD1999999+0101REMSYN088AAXX  01004 82795 32594 61405 10212 20182 39561 40183 86200 333 10264 29078 55041 58010;EQDQ01  00002PRCP06
0186827950999992003070112004-07220-035880FM-12+0560SBKG V0201401N004610075019N0100001N1+02291+01831101881ADDAA106000091GF107991061051008001051001KA1240N+01931MA1999999095661MD1999999+0061REMSYN076AAXX  01124 82795 32597 71409 10229 20183 39566 40188 86550 333 20193 58006;EQDQ01  00002PRCP06
0167827950999992003070118004-07220-035880FM-12+0560SBKG V0201401N004610075019N0100001N1+02541+01811101631ADDAA106000091GF105991051031008001001001MA1999999095431MD1999999+0041REMSYN070AAXX  01184 82795 32597 51409 10254 20181 39543 40163 85300 333 58004;EQDQ01  00002PRCP06
0202827950999992003070200004-07220-035880FM-12+0560SBKG V0201401N003110075019N0005001N1+02061+01981101841ADDAY151061AY221061GF108991081071008001999999KA1240M+02681MA1999999095621MD1999999+0011MW1501REMSYN100AAXX  02004 82795 21593 81406 10206 20198 39562 40184 75052 887// 333 10268 29083 55062 58001 69901;
0190827950999992003070212004-07220-035880FM-12+0560SBKG V0201801N004110042019N0020001N1+01991+01931101881ADDAY161061AY251061GF108991061071004501021999KA1240N+01811MA1999999095621MD1999999-0041MW1511REMSYN088AAXX  02124 82795 21495 81808 10199 20193 39562 40188 75165 8672/ 333 20181 59004 60034;
0171827950999992003070218004-07220-035880FM-12+0560SBKG V0201401N003110042019N0040001N1+02141+02091101661ADDAY161061AY221061GF108991051071004501021999MA1999999095401MD1999999-0031MW1161REMSYN082AAXX  02184 82795 21496 81406 10214 20209 39540 40166 71662 8572/ 333 59003 60081;
0218827950999992003070300004-07220-035880FM-12+0560SBKG V0209999C000012200019N0002001N1+03201+02091101381ADDAA106000091GA1001+999999999GF100991001001999999001001KA1240M+03721MA1999999999999MD1999999-0061REMSYN076AAXX  03004 82795 32992 00000 10320 20209 39762 40138 333 10372 55100 59006;EQDQ01  00002PRCP06Q02 097623APOSP 
0190827950999992003070312004-07220-035880FM-12+0560SBKG V0201401N002610075019N0100001N1+02251+01941101821ADDAY161061AY261061GF107991051021008001061001KA1240N+01791MA1999999095571MD1999999-0051MW1011REMSYN088AAXX  03124 82795 21597 71405 10225 20194 39557 40182 70166 85260 333 20179 59005 60164;
0167827950999992003070318004-07220-035880FM-12+0560SBKG V0201401N004610075019N0100001N1+02481+02051101631ADDAA106000091GF105991051031008001001001MA1999999095431MD1999999-0091REMSYN070AAXX  03184 82795 32597 51409 10248 20205 39543 40163 85300 333 59009;EQDQ01  00002PRCP06
0198827950999992003070400004-07220-035880FM-12+0560SBKG V0201401N003610075019N0010001N1+02071+01891101751ADDAA106000091GF107991071051008001001001KA1240M+02601MA1999999095531MD1999999-0061REMSYN088AAXX  04004 82795 32594 71407 10207 20189 39553 40175 87500 333 10260 29085 55039 59006;EQDQ01  00002PRCP06
0186827950999992003070412004-07220-035880FM-12+0560SBKG V0201801N003110075019N0100001N1+02151+01801101781ADDAA106000091GF106991061021008001001001KA1240N+01781MA1999999095541MD1999999-0031REMSYN076AAXX  04124 82795 32597 61806 10215 20180 39554 40178 86200 333 20178 59003;EQDQ01  00002PRCP06
0167827950999992003070418004-07220-035880FM-12+0560SBKG V0201401N003110075019N0100001N1+02421+01841101481ADDAA106000091GF108991051051008001041001MA1999999095261MD1999999-0051REMSYN070AAXX  04184 82795 32597 81406 10242 20184 39526 40148 85540 333 59005;EQDQ01  00002PRCP06
0198827950999992003070500004-07220-035880FM-12+0560SBKG V0201401N001512200019N0010001N1+02001+01761101681ADDAA106000091GF102991021011008001001001KA1240M+02501MA1999999095441MD1999999-0091REMSYN088AAXX  05004 82795 32594 21403 10200 20176 39544 40168 82100 333 10250 29080 55041 59009;EQDQ01  00002PRCP06
0186827950999992003070512004-07220-035880FM-12+0560SBKG V0201401N003112200019N0100001N1+02121+01641101661ADDAA106000091GF103991011011008001001011KA1240N+01611MA1999999095421MD1999999-0121REMSYN076AAXX  05124 82795 32597 31406 10212 20164 39542 40166 81101 333 20161 59012;EQDQ01  00002PRCP06
0183827950999992003070518004-07220-035880FM-12+0560SBKG V0201401N003112200019N0100001N1+02711+01831101411ADDAA106000091GF104991999021008001001001MA1999999095211MD1999999-0051REMSYN070AAXX  05184 82795 32597 41406 10271 20183 39521 40141 83200 333 59005;EQDQ01+000032SCOTLCQ02  00002PRCP06
0198827950999992003070600004-07220-035880FM-12+0560SBKG V0201401N003112200019N0010001N1+02041+01781101591ADDAA106000091GF104991041021008001001001KA1240M+02721MA1999999095351MD1999999-0091REMSYN088AAXX  06004 82795 32594 41406 10204 20178 39535 40159 84200 333 10272 29077 55096 59009;EQDQ01  00002PRCP06
0209827950999992003070612004-07220-035880FM-12+0560SBKG V0201401N003610075019N0040001N1+01961+01891101731ADDAY151061AY221061GF108991999021008001001001KA1240N+01931MA1999999095471MD1999999+0051MW1021REMSYN088AAXX  06124 82795 21596 81407 10196 20189 39547 40173 70252 85200 333 20193 58005 69954;EQDQ01+000052SCOTLC
0167827950999992003070618004-07220-035880FM-12+0560SBKG V0200901N003110075019N0100001N1+02231+01821101161ADDAA106000091GF108991081071008001999999MA1999999095421MD1999999+0211REMSYN070AAXX  06184 82795 32597 80906 10223 20182 39542 40116 887// 333 58021;EQDQ01  00002PRCP06
0221827950999992003070700004-07220-035880FM-12+0560SBKG V0201401N003119999999N0010001N1+02011+01871101741ADDAY151061AY221061GF105991999021008001001001KA1240M+02311MA1999999095471MD1999999+0011MW1021REMSYN100AAXX  07004 82795 21594 51406 10201 20187 39547 40174 70252 83200 333 10231 29089 55000 58001 69941;EQDQ01+000032SCOTLC
0162827950999992003070712004-07220-035880FM-12+0560SBKG V0201401N004610075019N0100001N1+02241+01981101681ADDGF106991061021008001001001KA1240N+01761MA1999999095451MD1999999-0021REMSYN082AAXX  07124 82795 22597 61409 10224 20198 39545 40168 86200 333 20176 59002 69944;
0171827950999992003070718004-07220-035880FM-12+0560SBKG V0201401N003610075019N0100001N1+02511+01981101481ADDAY151061AY221061GF105991051031008001001001MA1999999095261MD1999999-0061MW1021REMSYN082AAXX  07184 82795 21597 51407 10251 20198 39526 40148 70252 85300 333 59006 69911;
0221827950999992003070800004-07220-035880FM-12+0560SBKG V0201401N002110090019N0005001N1+02041+01971101681ADDAY161061AY251061GF108991999081004501071999KA1240M+02561MA1999999095461MD1999999-0611MW1501REMSYN100AAXX  08004 82795 21493 81404 10204 20197 39546 40168 75065 8887/ 333 10256 29088 55060 59061 60011;EQDQ01+000082SCOTLC
0190827950999992003070812004-07220-035880FM-12+0560SBKG V0201401N004610075019N0100001N1+02281+02001101761ADDAY161061AY221061GF107991071071008001001001KA1240N+01881MA1999999095541MD1999999+0091MW1021REMSYN088AAXX  08124 82795 21597 71409 10228 20200 39554 40176 70262 87700 333 20188 58009 60064;
0171827950999992003070818004-07220-035880FM-12+0560SBKG V0201401N003110450019N0100001N1+02341+01981101591ADDAY151061AY221061GF106991021031008001021001MA1999999095371MD1999999+0111MW1021REMSYN082AAXX  08184 82795 21597 61406 10234 20198 39537 40159 70252 82320 333 58011 69951;
0198827950999992003070900004-07220-035880FM-12+0560SBKG V0201401N002610075019N0010001N1+02091+01871101681ADDAA106000091GF106991051021008001061001KA1240M+02521MA1999999095461MD1999999+0001REMSYN088AAXX  09004 82795 32594 61405 10209 20187 39546 40168 85260 333 10252 29085 55038 58000;EQDQ01  00002PRCP06
0162827950999992003070912004-07220-035880FM-12+0560SBKG V0200901N003612200019N0100001N1+02241+01731101721ADDGF104991041021008001001001KA1240N+01681MA1999999095501MD1999999-0041REMSYN082AAXX  09124 82795 22597 40907 10224 20173 39550 40172 84200 333 20168 59004 69954;
0167827950999992003070918004-07217-035883FM-12+0560SBKG V0201401N002612200019N0100001N1+02581+01611101441ADDAA106000091GF101991011011008001001001MA1999999095231MD1999999-0141REMSYN070AAXX  09184 82795 32597 11405 10258 20161 39523 40144 81100 333 59014;EQDQ01  00002PRCP06
0198827950999992003071000004-07217-035883FM-12+0560SBKG V0200901N002112200019N0010001N1+02111+01761101681ADDAA106000091GF102991021011008001001001KA1240M+02631MA1999999095461MD1999999+0001REMSYN088AAXX  10004 82795 32594 20904 10211 20176 39546 40168 82100 333 10263 29072 55098 58000;EQDQ01  00002PRCP06
0186827950999992003071012004-07217-035883FM-12+0560SBKG V0201401N003110075019N0100001N1+02261+01861101731ADDAA106000091GF106991061061008001001001KA1240N+01761MA1999999095511MD1999999+0011REMSYN076AAXX  10124 82795 32597 61406 10226 20186 39551 40173 86600 333 20176 58001;EQDQ01  00002PRCP06
0167827950999992003071018004-07217-035883FM-12+0560SBKG V0201401N003112200019N0100001N1+02621+01831101431ADDAA106000091GF103991031021008001001001MA1999999095241MD1999999+0011REMSYN070AAXX  10184 82795 32597 31406 10262 20183 39524 40143 83200 333 58001;EQDQ01  00002PRCP06
0208827950999992003071100004-07217-035883FM-12+0560SBKG V0200901N003612200019N0010001N1+02111+01891101701ADDAA106000091GA1001+999999999GF100991001001999999001001KA1240M+02701MA1999999095481MD1999999+0021REMSYN082AAXX  11004 82795 32994 00907 10211 20189 39548 40170 333 10270 29078 55062 58002;EQDQ01  00002PRCP06
0190827950999992003071112004-07217-035883FM-12+0560SBKG V0201801N002110042019N0020001N1+02081+02031101791ADDAY161061AY221061GF108991051071004501021999KA1240N+01891MA1999999095541MD1999999+0031MW1501REMSYN088AAXX  11124 82795 21495 81804 10208 20203 39554 40179 75062 8572/ 333 20189 58003 60014;
0171827950999992003071118004-07217-035883FM-12+0560SBKG V0201401N004110042019N0040001N1+02131+02071101541ADDAY161061AY221061GF108991081071004501999999MA1999999095301MD1999999+0061MW1031REMSYN082AAXX  11184 82795 21496 81408 10213 20207 39530 40154 70362 887// 333 58006 60171;
0202827950999992003071200004-07217-035883FM-12+0560SBKG V0201401N001510075019N0010001N1+02021+01971101781ADDAY161061AY221061GF108991081071008001999999KA1240M+02271MA1999999095531MD1999999+0051MW1021REMSYN100AAXX  12004 82795 21594 81403 10202 20197 39553 40178 70262 887// 333 10227 29097 55000 58005 60031;
0190827950999992003071212004-07217-035883FM-12+0560SBKG V0201401N004610075019N0100001N1+02251+02011101901ADDAY161061AY221061GF107991071071008001001001KA1240N+01811MA1999999095661MD1999999+0121MW1021REMSYN088AAXX  12124 82795 21597 71409 10225 20201 39566 40190 70262 87700 333 20181 58012 60254;
0167827950999992003071218004-07217-035883FM-12+0560SBKG V0201401N003612200019N0100001N1+02671+01591101531ADDAA106000091GF102991021011008001001001MA1999999095351MD1999999+0051REMSYN070AAXX  12184 82795 32597 21407 10267 20159 39535 40153 82100 333 58005;EQDQ01  00002PRCP06
0198827950999992003071300004-07217-035883FM-12+0560SBKG V0201401N002610450019N0010001N1+02111+01971101841ADDAA106000091GF107991021021008001011001KA1240M+02691MA1999999095621MD1999999+0091REMSYN088AAXX  13004 82795 32594 71405 10211 20197 39562 40184 82210 333 10269 29080 55066 58009;EQDQ01  00002PRCP06
0190827950999992003071312004-07217-035883FM-12+0560SBKG V0201401N003610075019N0100001N1+02151+02011101931ADDAY161061AY221061GF107991071071008001001001KA1240N+01811MA1999999095691MD1999999+0031MW1021REMSYN088AAXX  13124 82795 21597 71407 10215 20201 39569 40193 70262 87700 333 20181 58003 60054;
0171827950999992003071318004-07217-035883FM-12+0560SBKG V0201401N005110450019N0100001N1+02521+01961101581ADDAY161061AY221061GF106991031021008001041001MA1999999095371MD1999999+0021MW1021REMSYN082AAXX  13184 82795 21597 61410 10252 20196 39537 40158 70262 83240 333 58002 60011;
0198827950999992003071400004-07217-035883FM-12+0560SBKG V0201401N002110075019N0010001N1+02011+01581101891ADDAA106000091GF105991051021008001001001KA1240M+02541MA1999999095631MD1999999+0011REMSYN088AAXX  14004 82795 32594 51404 10201 20158 39563 40189 85200 333 10254 29076 55052 58001;EQDQ01  00002PRCP06
0162827950999992003071412004-07217-035883FM-12+0560SBKG V0201401N003612200019N0100001N1+02241+01711101931ADDGF104991041011008001001001KA1240N+01701MA1999999095691MD1999999+0001REMSYN082AAXX  14124 82795 22597 41407 10224 20171 39569 40193 84100 333 20170 58000 60014;
0183827950999992003071418004-07217-035883FM-12+0560SBKG V0201401N004112200019N0100001N1+02641+01771101531ADDAA106000091GF104991999021008001001001MA1999999095351MD1999999-0021REMSYN070AAXX  14184 82795 32597 41408 10264 20177 39535 40153 85200 333 59002;EQDQ01+000052SCOTLCQ02  00002PRCP06
0208827950999992003071500004-07217-035883FM-12+0560SBKG V0201401N003612200019N0010001N1+02031+01721101861ADDAA106000091GA1001+999999999GF100991001001999999001001KA1240M+02681MA1999999095621MD1999999-0021REMSYN082AAXX  15004 82795 32994 01407 10203 20172 39562 40186 333 10268 29074 55/// 59002;EQDQ01  00002PRCP06
0186827950999992003071512004-07217-035883FM-12+0560SBKG V0201401N005110075019N0100001N1+02191+01761101891ADDAA106000091GF106991061061008001001001KA1240N+01661MA1999999095651MD1999999-0031REMSYN076AAXX  15124 82795 32597 61410 10219 20176 39565 40189 86600 333 20166 59003;EQDQ01  00002PRCP06
0167827950999992003071518004-07217-035883FM-12+0560SBKG V0201401N003112200019N0100001N1+02631+01701101601ADDAA106000091GF104991041021008001001001MA1999999095361MD1999999+0011REMSYN070AAXX  15184 82795 32597 41406 10263 20170 39536 40160 84200 333 58001;EQDQ01  00002PRCP06
0208827950999992003071600004-07217-035883FM-12+0560SBKG V0201401N003112200019N0010001N1+01941+01751101461ADDAA106000091GA1001+999999999GF100991001001999999001001KA1240M+02681MA1999999095601MD1999999+0021REMSYN082AAXX  16004 82795 32994 01406 10194 20175 39560 40146 333 10268 29078 55090 58002;EQDQ01  00002PRCP06
0186827950999992003071612004-07217-035883FM-12+0560SBKG V0201401N004110075019N0100001N1+02171+01741101921ADDAA106000091GF105991051021008001001001KA1240N+01811MA1999999095681MD1999999+0031REMSYN076AAXX  16124 82795 32597 51408 10217 20174 39568 40192 85200 333 20181 58003;EQDQ01  00002PRCP06
0167827950999992003071618004-07217-035883FM-12+0560SBKG V0201401N005112200019N0100001N1+02611+01511101681ADDAA106000091GF103991031011008001001001MA1999999095481MD1999999+0121REMSYN070AAXX  16184 82795 32597 31410 10261 20151 39548 40168 83100 333 58012;EQDQ01  00002PRCP06
0208827950999992003071700004-07217-035883FM-12+0560SBKG V0201401N002612200019N0010001N1+02041+01701101851ADDAA106000091GA1001+999999999GF100991001001999999001001KA1240M+02621MA1999999095611MD1999999+0011REMSYN082AAXX  17004 82795 32994 01405 10204 20170 39561 40185 333 10262 29072 55095 58001;EQDQ01  00002PRCP06
0186827950999992003071712004-07217-035883FM-12+0560SBKG V0201401N005712200019N0100001N1+02231+01741102041ADDAA106000091GF104991041021008001001001KA1240N+01861MA1999999095791MD1999999+0111REMSYN076AAXX  17124 82795 32597 41411 10223 20174 39579 40204 84200 333 20186 58011;EQDQ01  00002PRCP06
0167827950999992003071718004-07217-035883FM-12+0560SBKG V0201401N005112200019N0100001N1+02641+01631101731ADDAA106000091GF104991021021008001001011MA1999999095531MD1999999+0051REMSYN070AAXX  17184 82795 32597 41410 10264 20163 39553 40173 82201 333 58005;EQDQ01  00002PRCP06
0198827950999992003071800004-07217-035883FM-12+0560SBKG V0201401N003110075019N0010001N1+02111+01841102031ADDAA106000091GF105991051061008001001001KA1240M+02701MA1999999095791MD1999999+0181REMSYN088AAXX  18004 82795 32594 51406 10211 20184 39579 40203 85600 333 10270 29074 55093 58018;EQDQ01  00002PRCP06
0186827950999992003071812004-07217-035883FM-12+0560SBKG V0201401N005110075019N0100001N1+02251+01751102041ADDAA106000091GF107991071071008001001001KA1240N+01781MA1999999095801MD1999999+0011REMSYN076AAXX  18124 82795 32597 71410 10225 20175 39580 40204 87700 333 20178 58001;EQDQ01  00002PRCP06
0167827950999992003071818004-07217-035883FM-12+0560SBKG V0201401N006212200019N0100001N1+02671+01681101741ADDAA106000091GF104991041011008001001001MA1999999095531MD1999999+0001REMSYN070AAXX  18184 82795 32597 41412 10267 20168 39553 40174 84100 333 58000;EQDQ01  00002PRCP06
0208827950999992003071900004-07217-035883FM-12+0560SBKG V0201401N001512200019N0010001N1+02021+01811102031ADDAA106000091GA1001+999999999GF100991001001999999001001KA1240M+02681MA1999999095781MD1999999-0011REMSYN082AAXX  19004 82795 32994 01403 10202 20181 39578 40203 333 10268 29076 55088 59001;EQDQ01  00002PRCP06
0190827950999992003071912004-07217-035883FM-12+0560SBKG V0201401N005110042019N0020001N1+02081+01981102091ADDAY161061AY221061GF108991051071004501021999KA1240N+01901MA1999999095831MD1999999+0031MW1511REMSYN088AAXX  19124 82795 21495 81410 10208 20198 39583 40209 75162 8572/ 333 20190 58003 60024;
0171827950999992003071918004-07217-035883FM-12+0560SBKG V0201401N003610075019N0100001N1+02431+01991101831ADDAY161061AY221061GF107991071031008001001001MA1999999095621MD1999999+0091MW1021REMSYN082AAXX  19184 82795 21597 71407 10243 20199 39562 40183 70262 87300 333 58009 60011;
0202827950999992003072000004-07217-035883FM-12+0560SBKG V0201401N003110075019N0010001N1+01941+01821102081ADDAY161061AY221061GF108991081031008001001001KA1240M+02471MA1999999095811MD1999999+0031MW1021REMSYN100AAXX  20004 82795 21594 81406 10194 20182 39581 40208 70262 88300 333 10247 29089 55029 58003 60021;
0162827950999992003072012004-07217-035883FM-12+0560SBKG V0201401N003612200019N0100001N1+02101+01721102011ADDGF101991011011008001001001KA1240N+01711MA1999999095731MD1999999-0101REMSYN082AAXX  20124 82795 22597 11407 10210 20172 39573 40201 81100 333 20171 59010 60034;
0167827950999992003072018004-07217-035883FM-12+0560SBKG V0201401N003110075019N0100001N1+02371+01821101731ADDAA106000091GF106991061021008001001001MA1999999095491MD1999999-0131REMSYN070AAXX  20184 82795 32597 61406 10237 20182 39549 40173 86200 333 59013;EQDQ01  00002PRCP06
0202827950999992003072100004-07217-035883FM-12+0560SBKG V0201401N002610075019N0010001N1+01941+01811102031ADDAY161061AY221061GF108991081071008001999999KA1240M+02491MA1999999095751MD1999999-0061MW1021REMSYN100AAXX  21004 82795 21594 81405 10194 20181 39575 40203 70262 887// 333 10249 29084 55067 59006 69971;
0162827950999992003072112004-07217-035883FM-12+0560SBKG V0201801N003112200019N0100001N1+02171+01761101951ADDGF103991031021008001001001KA1240N+01691MA1999999095691MD1999999-0041REMSYN082AAXX  21124 82795 22597 31806 10217 20176 39569 40195 83200 333 20169 59004 69974;
0167827950999992003072118004-07217-035883FM-12+0560SBKG V0201401N002110450019N0100001N1+02581+01741101681ADDAA106000091GF105991021021008001061001MA1999999095451MD1999999-0041REMSYN070AAXX  21184 82795 32597 51404 10258 20174 39545 40168 82260 333 59004;EQDQ01  00002PRCP06
0198827950999992003072200004-07217-035883FM-12+0560SBKG V0201401N002612200019N0010001N1+02101+01721101891ADDAA106000091GF102991021001012501041001KA1240M+02671MA1999999095661MD1999999-0091REMSYN088AAXX  22004 82795 32694 21405 10210 20172 39566 40189 82040 333 10267 29074 55092 59009;EQDQ01  00002PRCP06
0186827950999992003072212004-07217-035883FM-12+0560SBKG V0201801N002610075019N0100001N1+02241+01901101871ADDAA106000091GF107991071071008001001001KA1240N+01901MA1999999095641MD1999999-0051REMSYN076AAXX  22124 82795 32597 71805 10224 20190 39564 40187 87700 333 20190 59005;EQDQ01  00002PRCP06
0171827950999992003072218004-07217-035883FM-12+0560SBKG V0201401N005110075019N0100001N1+02621+01641101601ADDAY151061AY221061GF105991051031008001001001MA1999999095421MD1999999-0071MW1021REMSYN082AAXX  22184 82795 21597 51410 10262 20164 39542 40160 70252 85300 333 59007 69941;
0198827950999992003072300004-07217-035883FM-12+0560SBKG V0201401N002612200019N0010001N1+02011+01761101911ADDAA106000091GF102991021001012501041001KA1240M+02671MA1999999095671MD1999999+0011REMSYN088AAXX  23004 82795 32694 21405 10201 20176 39567 40191 82040 333 10267 29077 55040 58001;EQDQ01  00002PRCP06
0190827950999992003072312004-07217-035883FM-12+0560SBKG V0201401N005110075019N0100001N1+02281+01831101731ADDAY161061AY221061GF106991061061008001001001KA1240N+01841MA1999999095511MD1999999-0131MW1021REMSYN088AAXX  23124 82795 21597 61410 10228 20183 39551 40173 70262 86600 333 20184 59013 69994;
0171827950999992003072318004-07217-035883FM-12+0560SBKG V0201401N005110075019N0100001N1+02221+02051101671ADDAY151061AY221061GF107991071071008001001001MA1999999095421MD1999999+0001MW1021REMSYN082AAXX  23184 82795 21597 71410 10222 20205 39542 40167 70252 87700 333 58000 69991;
0202827950999992003072400004-07217-035883FM-12+0560SBKG V0201401N001510450019N0010001N1+02101+01861101831ADDAY161061AY221061GF108991031051008001071999KA1240M+02511MA1999999095621MD1999999-0051MW1021REMSYN100AAXX  24004 82795 21594 81403 10210 20186 39562 40183 70262 8357/ 333 10251 29084 55051 59005 69931;
0190827950999992003072412004-07217-035883FM-12+0560SBKG V0201401N003610075019N0020001N1+02111+02041101831ADDAY161061AY221061GF108991051071008001021999KA1240N+01911MA1999999095591MD1999999+0081MW1501REMSYN088AAXX  24124 82795 21595 81407 10211 20204 39559 40183 75062 8572/ 333 20191 58008 60064;
0171827950999992003072418004-07217-035883FM-12+0560SBKG V0201401N003610075019N0020001N1+02111+01981101701ADDAY161061AY221061GF108991081071008001999999MA1999999095441MD1999999+0021MW1511REMSYN082AAXX  24184 82795 21595 81407 10211 20198 39544 40170 75162 887// 333 58002 60061;
0202827950999992003072500004-07217-035883FM-12+0560SBKG V0201401N002610450019N0010001N1+02051+01971101841ADDAY161061AY221061GF107991041071008001071001KA1240M+02371MA1999999095591MD1999999-0031MW1021REMSYN100AAXX  25004 82795 21594 71405 10205 20197 39559 40184 70262 84770 333 10237 29095 55009 59003 69951;
0190827950999992003072512004-07217-035883FM-12+0560SBKG V0201401N003110075019N0100001N1+02301+01941101901ADDAY161061AY221061GF106991061021008001001001KA1240N+01961MA1999999095671MD1999999+0061MW1021REMSYN088AAXX  25124 82795 21597 61406 10230 20194 39567 40190 70262 86200 333 20196 58006 60064;
0167827950999992003072518004-07217-035883FM-12+0560SBKG V0201401N005110450019N0100001N1+02631+01811101571ADDAA106000091GF105991031031008001081001MA1999999095401MD1999999-0041REMSYN070AAXX  25184 82795 32597 51410 10263 20181 39540 40157 83380 333 59004;EQDQ01  00002PRCP06
0198827950999992003072600004-07217-035883FM-12+0560SBKG V0201401N002612200019N0010001N1+02071+01871101911ADDAA106000091GF102991021011008001001001KA1240M+02681MA1999999095681MD1999999+0091REMSYN088AAXX  26004 82795 32594 21405 10207 20187 39568 40191 82100 333 10268 29080 55080 58009;EQDQ01  00002PRCP06
0190827950999992003072612004-07217-035883FM-12+0560SBKG V0201401N003110075019N0100001N1+02251+01941102021ADDAY161061AY221061GF105991051021008001001001KA1240N+01901MA1999999095781MD1999999+0111MW1021REMSYN088AAXX  26124 82795 21597 51406 10225 20194 39578 40202 70262 85200 333 20190 58011 60014;
0167827950999992003072618004-07217-035883FM-12+0560SBKG V0201401N005110450019N0100001N1+02561+01641101691ADDAA106000091GF106991021021008001071001MA1999999095501MD1999999+0101REMSYN070AAXX  26184 82795 32597 61410 10256 20164 39550 40169 82270 333 58010;EQDQ01  00002PRCP06
0214827950999992003072700004-07217-035883FM-12+0560SBKG V0201401N002612200019N0010001N1+02761+01801101951ADDAA106000091GF104991041021008001001001KA1240M+99999MA1999999095721MD1999999+0041REMSYN088AAXX  27004 82795 32594 41405 10276 20180 39572 40195 84200 333 10266 29078 55057 58004;EQDQ01  00002PRCP06Q02 +02662ATMX  
0190827950999992003072712004-07217-035883FM-12+0560SBKG V0201401N004110075019N0100001N1+02171+01741101991ADDAY161061AY221061GF105991051021008001001001KA1240N+01861MA1999999095741MD1999999-0041MW1021REMSYN088AAXX  27124 82795 21597 51408 10217 20174 39574 40199 70262 85200 333 20186 59004 69944;
0183827950999992003072718004-07217-035883FM-12+0560SBKG V0201401N004612200019N0100001N1+02611+01741101581ADDAA106000091GF104991999021008001001001MA1999999095411MD1999999-0091REMSYN070AAXX  27184 82795 32597 41409 10261 20174 39541 40158 83200 333 59009;EQDQ01+000032SCOTLCQ02  00002PRCP06
0198827950999992003072800004-07217-035883FM-12+0560SBKG V0201401N002110450019N0010001N1+02091+01701101911ADDAA106000091GF105991031021008001061001KA1240M+02671MA1999999095671MD1999999-0051REMSYN088AAXX  28004 82795 32594 51404 10209 20170 39567 40191 83260 333 10267 29073 55082 59005;EQDQ01  00002PRCP06
0186827950999992003072812004-07217-035883FM-12+0560SBKG V0201401N003110075019N0100001N1+02151+01861101911ADDAA106000091GF108991081071008001999999KA1240N+01781MA1999999095671MD1999999-0071REMSYN076AAXX  28124 82795 32597 81406 10215 20186 39567 40191 887// 333 20178 59007;EQDQ01  00002PRCP06
0171827950999992003072818004-07217-035883FM-12+0560SBKG V0201401N005710075019N0100001N1+02361+02091101591ADDAY161061AY221061GF108991081071008001999999MA1999999095351MD1999999-0061MW1021REMSYN082AAXX  28184 82795 21597 81411 10236 20209 39535 40159 70262 887// 333 59006 69911;
0202827950999992003072900004-07217-035883FM-12+0560SBKG V0201401N004110042019N0005001N1+02041+01971101981ADDAY161061AY251061GF108991081071004501999999KA1240M+02501MA1999999095671MD1999999+0001MW1601REMSYN100AAXX  29004 82795 21493 81408 10204 20197 39567 40198 76065 887// 333 10250 29090 55026 58000 60021;
0190827950999992003072912004-07217-035883FM-12+0560SBKG V0201401N003110075019N0100001N1+02061+01891102051ADDAY161061AY221061GF108991081071008001999999KA1240N+01861MA1999999095791MD1999999+0121MW1021REMSYN088AAXX  29124 82795 21597 81406 10206 20189 39579 40205 70262 887// 333 20186 58012 60074;
0167827950999992003072918004-07217-035883FM-12+0560SBKG V0201401N003110450019N0100001N1+02351+01851101731ADDAA106000091GF107991021021008001071001MA1999999095501MD1999999+0151REMSYN070AAXX  29184 82795 32597 71406 10235 20185 39550 40173 82270 333 58015;EQDQ01  00002PRCP06
0198827950999992003073000004-07217-035883FM-12+0560SBKG V0201401N003612200019N0010001N1+02001+01701101971ADDAA106000091GF104991041021008001001001KA1240M+02531MA1999999095701MD1999999+0031REMSYN088AAXX  30004 82795 32594 41407 10200 20170 39570 40197 84200 333 10253 29082 55008 58003;EQDQ01  00002PRCP06
0186827950999992003073012004-07217-035883FM-12+0560SBKG V0201401N003110075019N0100001N1+02121+01781102011ADDAA106000091GF107991071071008001001001KA1240N+01651MA1999999095751MD1999999-0041REMSYN076AAXX  30124 82795 32597 71406 10212 20178 39575 40201 87700 333 20165 59004;EQDQ01  00002PRCP06
0167827950999992003073018004-07217-035883FM-12+0560SBKG V0201401N005712200019N0100001N1+02611+01761101591ADDAA106000091GF103991031011008001001001MA1999999095371MD1999999-0131REMSYN070AAXX  30184 82795 32597 31411 10261 20176 39537 40159 83100 333 59013;EQDQ01  00002PRCP06
0186827950999992003073112004-07217-035883FM-12+0560SBKG V0201401N003610075019N0100001N1+02161+01661101851ADDAA106000091GF106991061021008001001001KA1240N+01671MA1999999095601MD1999999-0151REMSYN076AAXX  31124 82795 32597 61407 10216 20166 39560 40185 86200 333 20167 59015;EQDQ01  00002PRCP06
0168827950999992003073118004-07217-035883FM-12+0560SBKG V0201401N005112200019N0100001N1+02601+01741101581ADDAA106000091GF104991041011008001001001MD1999999-0011REMSYN070AAXX  31184 82795 32597 41410 10260 20174 33953 40158 84100 333 59001;EQDQ01+039531APOSP Q02  00002PRCP06
0208827950999992003080100004-07217-035883FM-12+0560SBKG V0200901N003612200019N0010001N1+02001+01721101761ADDAA106000091GA1001+999999999GF100991001001999999001001KA1240M+02631MA1999999095521MD1999999-0111REMSYN082AAXX  01004 82795 32994 00907 10200 20172 39552 40176 333 10263 29075 55073 59011;EQDQ01  00002PRCP06
0186827950999992003080112004-07217-035883FM-12+0560SBKG V0201401N003112200019N0100001N1+02331+01831101821ADDAA106000091GF105991031011008001001011KA1240N+01811MA1999999095601MD1999999+0001REMSYN076AAXX  01124 82795 32597 51406 10233 20183 39560 40182 83101 333 20181 58000;EQDQ01  00002PRCP06
0167827950999992003080118004-07217-035883FM-12+0560SBKG V0201401N003112200019N0100001N1+02791+01721101481ADDAA106000091GF106991041021008001001011MA1999999095321MD1999999-0041REMSYN070AAXX  01184 82795 32597 61406 10279 20172 39532 40148 84201 333 59004;EQDQ01  00002PRCP06
0198827950999992003080200004-07217-035883FM-12+0560SBKG V0200901N003610075019N0010001N1+02131+01971101851ADDAA106000091GF106991061021008001001001KA1240M+02821MA1999999095641MD1999999+0121REMSYN088AAXX  02004 82795 32594 60907 10213 20197 39564 40185 86200 333 10282 29076 55091 58012;EQDQ01  00002PRCP06
0190827950999992003080212004-07217-035883FM-12+0560SBKG V0201401N002610075019N0100001N1+02201+01901101951ADDAY161061AY221061GF108991061071008001021999KA1240N+01931MA1999999095721MD1999999+0121MW1021REMSYN088AAXX  02124 82795 21597 81405 10220 20190 39572 40195 70262 8672/ 333 20193 58012 69994;
0208827950999992003080300004-07217-035883FM-12+0560SBKG V0200901N002612200019N0010001N1+02101+01931101931ADDAA106000091GA1001+999999999GF100991001001999999001001KA1240M+02651MA1999999095701MD1999999+0061REMSYN082AAXX  03004 82795 32994 00905 10210 20193 39570 40193 333 10265 29081 55020 58006;EQDQ01  00002PRCP06
0190827950999992003080312004-07217-035883FM-12+0560SBKG V0201401N004110042019N0040001N1+02041+01851101891ADDAY161061AY221061GF108991051071004501021999KA1240N+01861MA1999999095361MD1999999-0091MW1501REMSYN088AAXX  03124 82795 21496 81408 10204 20185 39536 40189 75062 8572/ 333 20186 59009 69924;
0148827950999992003080318004-07217-035883FM-12+0560SBKG V0201401N005112200019N0100001N1+02561+01641101611ADDAA106000021GF104991041021008001001001MA1999999095411MD1999999-0091REMSYN070AAXX  03184 82795 32597 41410 10256 20164 39541 40161 84200 333 59009;
0208827950999992003080400004-07217-035883FM-12+0560SBKG V0201401N003112200019N0010001N1+02031+01641101921ADDAA106000091GA1001+999999999GF100991001001999999001001KA1240M+02691MA1999999095661MD1999999-0041REMSYN082AAXX  04004 82795 32994 01406 10203 20164 39566 40192 333 10269 29076 55061 59004;EQDQ01  00002PRCP06
0186827950999992003080412004-07217-035883FM-12+0560SBKG V0201401N005712200019N0100001N1+02201+01651101861ADDAA106000091GF105991031021008001001011KA1240N+01711MA1999999095621MD1999999-0011REMSYN076AAXX  04124 82795 32597 51411 10220 20165 39562 40186 83201 333 20171 59001;EQDQ01  00002PRCP06
0167827950999992003080418004-07217-035883FM-12+0560SBKG V0201401N004612200019N0100001N1+02711+01421101491ADDAA106000091GF103991031021008001001001MA1999999095301MD1999999-0111REMSYN070AAXX  04184 82795 32597 31409 10271 20142 39530 40149 83200 333 59011;EQDQ01  00002PRCP06
0198827950999992003080500004-07217-035883FM-12+0560SBKG V0201401N003112200019N0010001N1+02061+01681101801ADDAA106000091GF101991011011008001001001KA1240M+02731MA1999999095561MD1999999-0101REMSYN088AAXX  05004 82795 32594 11406 10206 20168 39556 40180 81100 333 10273 29068 55095 59010;EQDQ01  00002PRCP06
0190827950999992003080512004-07217-035883FM-12+0560SBKG V0201801N003610075019N0100001N1+02331+01781101801ADDAY161061AY221061GF105991051021008001001001KA1240N+01711MA1999999095591MD1999999-0031MW1021REMSYN088AAXX  05124 82795 21597 51807 10233 20178 39559 40180 70262 85200 333 20171 59003 69914;
0167827950999992003080518004-07217-035883FM-12+0560SBKG V0201401N005712200019N0100001N1+02641+01721101481ADDAA106000091GF104991041021008001001001MA1999999095281MD1999999-0051REMSYN070AAXX  05184 82795 32597 41411 10264 20172 39528 40148 84200 333 59005;EQDQ01  00002PRCP06
0198827950999992003080600004-07217-035883FM-12+0560SBKG V0201401N003612200019N0010001N1+02051+01741101831ADDAA106000091GF102991021011008001001001KA1240M+02691MA1999999095621MD1999999+0061REMSYN088AAXX  06004 82795 32594 21407 10205 20174 39562 40183 82100 333 10269 29074 55098 58006;EQDQ01  00002PRCP06
0186827950999992003080612004-07217-035883FM-12+0560SBKG V0201401N004610075019N0100001N1+02311+01981101841ADDAA106000091GF106991061021008001001001KA1240N+01861MA1999999095621MD1999999+0031REMSYN076AAXX  06124 82795 32597 61409 10231 20198 39562 40184 86200 333 20186 58003;EQDQ01  00002PRCP06
0167827950999992003080618004-07217-035883FM-12+0560SBKG V0201401N004612200019N0100001N1+02681+01841101501ADDAA106000091GF104991041021008001001001MA1999999095331MD1999999+0051REMSYN070AAXX  06184 82795 32597 41409 10268 20184 39533 40150 84200 333 58005;EQDQ01  00002PRCP06
0198827950999992003080700004-07217-035883FM-12+0560SBKG V0200901N003112200019N0100001N1+02031+01871101771ADDAA106000091GF102991021011008001001001KA1240M+02751MA1999999095551MD1999999-0071REMSYN088AAXX  07004 82795 32597 20906 10203 20187 39555 40177 82100 333 10275 29081 55082 59007;EQDQ01  00002PRCP06
0186827950999992003080712004-07217-035883FM-12+0560SBKG V0201401N005110075019N0100001N1+02241+01801101901ADDAA106000091GF106991061021008001001001KA1240N+01861MA1999999095661MD1999999+0041REMSYN076AAXX  07124 82795 32597 61410 10224 20180 39566 40190 86200 333 20186 58004;EQDQ01  00002PRCP06
0167827950999992003080718004-07217-035883FM-12+0560SBKG V0201401N003612200019N0100001N1+02701+01781101491ADDAA106000091GF104991041011008001001001MA1999999095311MD1999999-0021REMSYN070AAXX  07184 82795 32597 41407 10270 20178 39531 40149 84100 333 59002;EQDQ01  00002PRCP06
0208827950999992003080800004-07217-035883FM-12+0560SBKG V0201401N004112200019N0010001N1+02081+01741101791ADDAA106000091GA1001+999999999GF100991001001999999001001KA1240M+02761MA1999999095571MD1999999+0021REMSYN082AAXX  08004 82795 32994 01408 10208 20174 39557 40179 333 10276 29074 55075 58002;EQDQ01  00002PRCP06
0186827950999992003080812004-07217-035883FM-12+0560SBKG V0201401N004110075019N0100001N1+02241+01801101811ADDAA106000091GF106991061021008001001001KA1240N+01901MA1999999095591MD1999999-0071REMSYN076AAXX  08124 82795 32597 61408 10224 20180 39559 40181 86200 333 20190 59007;EQDQ01  00002PRCP06
0167827950999992003080818004-07217-035883FM-12+0560SBKG V0201401N004612200019N0100001N1+02641+01771101431ADDAA106000091GF103991031021008001001001MA1999999095271MD1999999-0041REMSYN070AAXX  08184 82795 32597 31409 10264 20177 39527 40143 83200 333 59004;EQDQ01  00002PRCP06
0198827950999992003080900004-07217-035883FM-12+0560SBKG V0201401N003612200019N0010001N1+02041+01761101811ADDAA106000091GF101991011011008001001001KA1240M+02681MA1999999095561MD1999999+0021REMSYN088AAXX  09004 82795 32594 11407 10204 20176 39556 40181 81100 333 10268 29076 55079 58002;EQDQ01  00002PRCP06
0190827950999992003080912004-07217-035883FM-12+0560SBKG V0201401N003610075019N0100001N1+02281+01901101921ADDAY161061AY221061GF106991061061008001001001KA1240N+01851MA1999999095691MD1999999+0101MW1021REMSYN088AAXX  09124 82795 21597 61407 10228 20190 39569 40192 70262 86600 333 20185 58010 60034;
0167827950999992003080918004-07217-035883FM-12+0560SBKG V0200901N004110075019N0100001N1+02611+01871101551ADDAA106000091GF105991051021008001001001MA1999999095351MD1999999+0081REMSYN070AAXX  09184 82795 32597 50908 10261 20187 39535 40155 85200 333 58008;EQDQ01  00002PRCP06
0202827950999992003081000004-07217-035883FM-12+0560SBKG V0201401N004110042019N0005001N1+01961+01911101901ADDAY151061AY221061GF108991081071004501999999KA1240M+02761MA1999999095661MD1999999+0071MW1511REMSYN100AAXX  10004 82795 21493 81408 10196 20191 39566 40190 75152 887// 333 10276 29084 55070 58007 60021;
0162827950999992003081012004-07217-035883FM-12+0560SBKG V0201401N003110075019N0100001N1+02271+01821102001ADDGF105991051021008001001001KA1240N+01771MA1999999095751MD1999999-0061REMSYN082AAXX  10124 82795 22597 51406 10227 20182 39575 40200 85200 333 20177 59006 60024;
0167827950999992003081018004-07217-035883FM-12+0560SBKG V0201401N003612200019N0100001N1+02691+01521101571ADDAA106000091GF103991031021008001001001MA1999999095391MD1999999+0041REMSYN070AAXX  10184 82795 32597 31407 10269 20152 39539 40157 83200 333 58004;EQDQ01  00002PRCP06
0198827950999992003081100004-07217-035883FM-12+0560SBKG V0200901N004112200019N0010001N1+02061+01851101891ADDAA106000091GF101991011011008001001001KA1240M+02771MA1999999095661MD1999999+0001REMSYN088AAXX  11004 82795 32594 10908 10206 20185 39566 40189 81100 333 10277 29075 55077 58000;EQDQ01  00002PRCP06
0186827950999992003081112004-07217-035883FM-12+0560SBKG V0201401N004612200019N0100001N1+02351+01791101521ADDAA106000091GF104991041011008001001001KA1240N+02351MA1999999095701MD1999999-0051REMSYN076AAXX  11124 82795 32597 41409 10235 20179 39570 40152 84100 333 20235 59005;EQDQ01  00002PRCP06
0167827950999992003081118004-07217-035883FM-12+0560SBKG V0201401N003612200019N0100001N1+02811+01561101491ADDAA106000091GF103991031011008001001001MA1999999095311MD1999999-0081REMSYN070AAXX  11184 82795 32597 31407 10281 20156 39531 40149 83100 333 59008;EQDQ01  00002PRCP06
0198827950999992003081200004-07217-035883FM-12+0560SBKG V0200901N001512200019N0010001N1+02111+01801101801ADDAA106000091GF102991021011008001001001KA1240M+02841MA1999999095591MD1999999-0071REMSYN088AAXX  12004 82795 32594 20903 10211 20180 39559 40180 82100 333 10284 29070 55104 59007;EQDQ01  00002PRCP06
0186827950999992003081212004-07217-035883FM-12+0560SBKG V0201401N001512200019N0100001N1+02341+01761101911ADDAA106000091GF102991021011008001001001KA1240N+01731MA1999999095691MD1999999-0011REMSYN076AAXX  12124 82795 32597 21403 10234 20176 39569 40191 82100 333 20173 59001;EQDQ01  00002PRCP06
0167827950999992003081218004-07217-035883FM-12+0560SBKG V0201801N003112200019N0100001N1+02871+01391101461ADDAA106000091GF101991011011008001001001MA1999999095311MD1999999+0001REMSYN070AAXX  12184 82795 32597 11806 10287 20139 39531 40146 81100 333 58000;EQDQ01  00002PRCP06
0208827950999992003081300004-07217-035883FM-12+0560SBKG V0201401N002612200019N0010001N1+02151+01741101811ADDAA106000091GA1001+999999999GF100991001001999999001001KA1240M+02891MA1999999095611MD1999999+0021REMSYN082AAXX  13004 82795 32994 01405 10215 20174 39561 40181 333 10289 29066 55106 58002;EQDQ01  00002PRCP06
0186827950999992003081312004-07217-035883FM-12+0560SBKG V0201401N005710075019N0100001N1+02271+01821101921ADDAA106000091GF105991051021008001001001KA1240N+01741MA1999999095701MD1999999+0011REMSYN076AAXX  13124 82795 32597 51411 10227 20182 39570 40192 85200 333 20174 58001;EQDQ01  00002PRCP06
0167827950999992003081318004-07217-035883FM-12+0560SBKG V0201801N003112200019N0100001N1+02811+01351101491ADDAA106000091GF104991041021008001001001MA1999999095331MD1999999+0021REMSYN070AAXX  13184 82795 32597 41806 10281 20135 39533 40149 84200 333 58002;EQDQ01  00002PRCP06
0198827950999992003081400004-07217-035883FM-12+0560SBKG V0201401N004110450019N0010001N1+02681+01801101831ADDAA106000091GF105991031021008001041001KA1240M+02851MA1999999095621MD1999999+0011REMSYN088AAXX  14004 82795 32594 51408 10268 20180 39562 40183 83240 333 10285 29069 55106 58001;EQDQ01  00002PRCP06
0186827950999992003081412004-07217-035883FM-12+0560SBKG V0201401N003610075019N0100001N1+02301+01791101891ADDAA106000091GF106991061021008001001001KA1240N+01781MA1999999095671MD1999999-0031REMSYN076AAXX  14124 82795 32597 61407 10230 20179 39567 40189 86200 333 20178 59003;EQDQ01  00002PRCP06
0167827950999992003081418004-07217-035883FM-12+0560SBKG V0201401N001512200019N0100001N1+02861+01291101351ADDAA106000091GF102991021011008001001001MA1999999095191MD1999999-0141REMSYN070AAXX  14184 82795 32597 21403 10286 20129 39519 40135 82100 333 59014;EQDQ01  00002PRCP06
0198827950999992003081500004-07217-035883FM-12+0560SBKG V0201401N003112200019N0010001N1+02181+01721101761ADDAA106000091GF102991011011008001041001KA1240M+02911MA1999999095561MD1999999-0061REMSYN088AAXX  15004 82795 32594 21406 10218 20172 39556 40176 81140 333 10291 29065 55094 59006;EQDQ01  00002PRCP06
0190827950999992003081512004-07217-035883FM-12+0560SBKG V0201401N003110075019N0100001N1+02341+01921101641ADDAY161061AY221061GF107991071071008001001001KA1240N+01881MA1999999095541MD1999999-0131MW1021REMSYN088AAXX  15124 82795 21597 71406 10234 20192 39554 40164 70262 87700 333 20188 59013 69934;
0167827950999992003081518004-07217-035883FM-12+0560SBKG V0201401N002612200019N0100001N1+02661+01791101471ADDAA106000091GF103991031011008001001001MA1999999095291MD1999999+0101REMSYN070AAXX  15184 82795 32597 31405 10266 20179 39529 40147 83100 333 58010;EQDQ01  00002PRCP06
0198827950999992003081600004-07217-035883FM-12+0560SBKG V0201401N004110075019N0010001N1+02151+01931101781ADDAA106000091GF105991051021008001001001KA1240M+02721MA1999999095581MD1999999+0021REMSYN088AAXX  16004 82795 32594 51408 10215 20193 39558 40178 85200 333 10272 29076 55068 58002;EQDQ01  00002PRCP06
0209827950999992003081612004-07217-035883FM-12+0560SBKG V0201401N003610075019N0040001N1+02221+01821101771ADDAY161061AY221061GF108991999021008001001001KA1240N+01941MA1999999095571MD1999999+0031MW1501REMSYN088AAXX  16124 82795 21596 81407 10222 20182 39557 40177 75062 85200 333 20194 58003 69984;EQDQ01+000052SCOTLC
0202827950999992003081700004-07217-035883FM-12+0560SBKG V0200901N003610042019N0010001N1+02101+02051101811ADDAY151061AY251061GF108991081071004501999999KA1240M+02341MA1999999095591MD1999999+0011MW1021REMSYN100AAXX  17004 82795 21494 80907 10210 20205 39559 40181 70255 887// 333 10234 29092 55001 58001 60031;
0162827950999992003081712004-07217-035883FM-12+0560SBKG V0201401N003610075019N0100001N1+02211+01951101911ADDGF107991071071008001001001KA1240N+01981MA1999999095681MD1999999+0111REMSYN082AAXX  17124 82795 22597 71407 10221 20195 39568 40191 87700 333 20198 58011 60084;
0167827950999992003081718004-07217-035883FM-12+0560SBKG V0200901N003112200019N0100001N1+02731+01871101501ADDAA106000091GF103991031021008001001001MA1999999095331MD1999999-0011REMSYN070AAXX  17184 82795 32597 30906 10273 20187 39533 40150 83200 333 59001;EQDQ01  00002PRCP06
0198827950999992003081800004-07217-035883FM-12+0560SBKG V0200901N003110075019N0010001N1+02151+02021101771ADDAA106000091GF106991061021008001001001KA1240M+02801MA1999999095551MD1999999-0041REMSYN088AAXX  18004 82795 32594 60906 10215 20202 39555 40177 86200 333 10280 29082 55079 59004;EQDQ01  00002PRCP06
0186827950999992003081812004-07217-035883FM-12+0560SBKG V0201401N003610075019N0100001N1+02321+01831101981ADDAA106000091GF106991061061008001001001KA1240N+01931MA1999999095761MD1999999+0081REMSYN076AAXX  18124 82795 32597 61407 10232 20183 39576 40198 86600 333 20193 58008;EQDQ01  00002PRCP06
0167827950999992003081818004-07217-035883FM-12+0560SBKG V0201401N004110450019N0100001N1+02761+01461101621ADDAA106000091GF107991041021008001021001MA1999999095461MD1999999+0131REMSYN070AAXX  18184 82795 32597 71408 10276 20146 39546 40162 84220 333 58013;EQDQ01  00002PRCP06
0208827950999992003081900004-07217-035883FM-12+0560SBKG V0201401N003112200019N0010001N1+02051+01521101941ADDAA106000091GA1001+999999999GF100991001001999999001001KA1240M+02821MA1999999095711MD1999999+0161REMSYN082AAXX  19004 82795 32994 01406 10205 20152 39571 40194 333 10282 29066 55100 58016;EQDQ01  00002PRCP06
0186827950999992003081912004-07217-035883FM-12+0560SBKG V0201401N004610075019N0100001N1+02331+01721102041ADDAA106000091GF105991051021008001001001KA1240N+01741MA1999999095821MD1999999+0061REMSYN076AAXX  19124 82795 32597 51409 10233 20172 39582 40204 85200 333 20174 58006;EQDQ01  00002PRCP06
0167827950999992003081918004-07217-035883FM-12+0560SBKG V0201401N003110075019N0100001N1+02791+01501101751ADDAA106000091GF106991051021008001011001MA1999999095551MD1999999+0091REMSYN070AAXX  19184 82795 32597 61406 10279 20150 39555 40175 85210 333 58009;EQDQ01  00002PRCP06
0208827950999992003082000004-07217-035883FM-12+0560SBKG V0201401N004112200019N0010001N1+02071+01661102021ADDAA106000091GA1001+999999999GF100991001001999999001001KA1240M+02831MA1999999095801MD1999999+0091REMSYN082AAXX  20004 82795 32994 01408 10207 20166 39580 40202 333 10283 29068 55096 58009;EQDQ01  00002PRCP06
0190827950999992003082012004-07217-035883FM-12+0560SBKG V0201401N004610075019N0100001N1+02201+01841101991ADDAY161061AY221061GF105991051021008001001001KA1240N+01761MA1999999095741MD1999999-0081MW1021REMSYN088AAXX  20124 82795 21597 51409 10220 20184 39574 40199 70262 85200 333 20176 59008 60024;
0167827950999992003082018004-07217-035883FM-12+0560SBKG V0201401N005112200019N0100001N1+02721+01491101531ADDAA106000091GF103991031011008001001001MA1999999095531MD1999999-0201REMSYN070AAXX  20184 82795 32597 31410 10272 20149 39553 40153 83100 333 59020;EQDQ01  00002PRCP06
0208827950999992003082100004-07217-035883FM-12+0560SBKG V0201401N002612200019N0010001N1+02041+01641101871ADDAA106000091GA1001+999999999GF100991001001999999001001KA1240M+02751MA1999999095631MD1999999-0171REMSYN082AAXX  21004 82795 32994 01405 10204 20164 39563 40187 333 10275 29071 55097 59017;EQDQ01  00002PRCP06
0190827950999992003082112004-07217-035883FM-12+0560SBKG V0201401N005712200019N0100001N1+02361+01761101771ADDAY161061AY221061GF104991041011008001001001KA1240N+01781MA1999999095561MD1999999-0181MW1021REMSYN088AAXX  21124 82795 21597 41411 10236 20176 39556 40177 70262 84100 333 20178 59018 69964;
0167827950999992003082118004-07217-035883FM-12+0560SBKG V0201401N004610120019N0100001N1+02551+01861101431ADDAA106000091GF108991081081008001999999MA1999999095231MD1999999-0121REMSYN070AAXX  21184 82795 32597 81409 10255 20186 39523 40143 888// 333 59012;EQDQ01  00002PRCP06
0202827950999992003082200004-07217-035883FM-12+0560SBKG V0201401N003110042019N0005001N1+02021+01951101641ADDAY151061AY221061GF108991081071004501999999KA1240M+02841MA1999999095441MD1999999-0191MW1501REMSYN100AAXX  22004 82795 21493 81406 10202 20195 39544 40164 75052 887// 333 10284 29081 55078 59019 60021;
0190827950999992003082212004-07217-035883FM-12+0560SBKG V0201401N005112200019N0100001N1+02241+01711101811ADDAY161061AY221061GF104991041021008001001001KA1240N+01891MA1999999095571MD1999999+0011MW1021REMSYN088AAXX  22124 82795 21597 41410 10224 20171 39557 40181 70262 84200 333 20189 58001 60084;
0167827950999992003082218004-07217-035883FM-12+0560SBKG V0201401N003112200019N0100001N1+02741+01571101391ADDAA106000091GF104991041021008001001001MA1999999095231MD1999999+0001REMSYN070AAXX  22184 82795 32597 41406 10274 20157 39523 40139 84200 333 58000;EQDQ01  00002PRCP06
0198827950999992003082300004-07217-035883FM-12+0560SBKG V0201401N003110075019N0010001N1+02231+01711101761ADDAA106000091GF106991061021008001001001KA1240M+02771MA1999999095561MD1999999+0121REMSYN088AAXX  23004 82795 32594 61406 10223 20171 39556 40176 86200 333 10277 29067 55094 58012;EQDQ01  00002PRCP06
0190827950999992003082312004-07217-035883FM-12+0560SBKG V0201401N004610021019N0020001N1+02061+02011101881ADDAY161061AY251061GF108991051071002501021999KA1240N+01841MA1999999095641MD1999999+0071MW1611REMSYN088AAXX  23124 82795 21395 81409 10206 20201 39564 40188 76165 8572/ 333 20184 58007 60084;
0190827950999992003082318004-07217-035883FM-12+0560SBKG V0201401N005710090019N0020001N1+02081+02051101671ADDAY161061AY251061GF108991999081004501071999MA1999999095411MD1999999+0181MW1501REMSYN082AAXX  23184 82795 21495 81411 10208 20205 39541 40167 75065 8887/ 333 58018 60061;EQDQ01+000082SCOTLC
0202827950999992003082400004-07217-035883FM-12+0560SBKG V0201401N001510075019N0010001N1+01951+01891101921ADDAY161061AY251061GF108991081071008001999999KA1240M+02381MA1999999095651MD1999999+0091MW1021REMSYN100AAXX  24004 82795 21594 81403 10195 20189 39565 40192 70265 887// 333 10238 29096 55002 58009 60011;
0203827950999992003082412004-07217-035883FM-12+0560SBKG V0201401N003610075019N0100001N1+02231+01861101891ADDAY121061AY261061GF106991061021008001001001KA1240N+01851MA1999999095651MD1999999+0011REMSYN088AAXX  24124 82795 21597 61407 10223 20186 39565 40189 77026 86200 333 20185 58001 60094;EQDQ01+000702PRSWM1
0167827950999992003082418004-07217-035883FM-12+0560SBKG V0201401N002612200019N0100001N1+02671+01531101451ADDAA106000091GF104991041021008001001001MA1999999095271MD1999999-0141REMSYN070AAXX  24184 82795 32597 41405 10267 20153 39527 40145 84200 333 59014;EQDQ01  00002PRCP06
0198827950999992003082500004-07217-035883FM-12+0560SBKG V0200901N002112200019N0010001N1+02021+01781101781ADDAA106000091GF102991021011008001001001KA1240M+02771MA1999999095541MD1999999-0111REMSYN088AAXX  25004 82795 32594 20904 10202 20178 39554 40178 82100 333 10277 29076 55086 59011;EQDQ01  00002PRCP06
0186827950999992003082512004-07217-035883FM-12+0560SBKG V0201401N002612200019N0100001N1+02381+01871101771ADDAA106000091GF104991041021008001001001KA1240N+01731MA1999999095561MD1999999-0091REMSYN076AAXX  25124 82795 32597 41405 10238 20187 39556 40177 84200 333 20173 59009;EQDQ01  00002PRCP06
0167827950999992003082518004-07217-035883FM-12+0560SBKG V0201401N003112200019N0100001N1+02771+01511101371ADDAA106000091GF103991021011008001001011MA1999999095231MD1999999-0041REMSYN070AAXX  25184 82795 32597 31406 10277 20151 39523 40137 82101 333 59004;EQDQ01  00002PRCP06
0198827950999992003082600004-07217-035883FM-12+0560SBKG V0200901N002612200019N0010001N1+02071+01851101701ADDAA106000091GF102991021011008001001001KA1240M+02811MA1999999095501MD1999999-0041REMSYN088AAXX  26004 82795 32594 20905 10207 20185 39550 40170 82100 333 10281 29074 55104 59004;EQDQ01  00002PRCP06
0186827950999992003082612004-07217-035883FM-12+0560SBKG V0201401N003610075019N0100001N1+02361+01871101791ADDAA106000091GF106991061061008001001001KA1240N+01841MA1999999095581MD1999999+0021REMSYN076AAXX  26124 82795 32597 61407 10236 20187 39558 40179 86600 333 20184 58002;EQDQ01  00002PRCP06
0167827950999992003082618004-07217-035883FM-12+0560SBKG V0201401N003110120019N0100001N1+02581+02041101391ADDAA106000091GF107991051081008001031001MA1999999095211MD1999999-0021REMSYN070AAXX  26184 82795 32597 71406 10258 20204 39521 40139 85830 333 59002;EQDQ01  00002PRCP06
0198827950999992003082700004-07217-035883FM-12+0560SBKG V0200901N003110075019N0010001N1+02191+02061101691ADDAA106000091GF107991051021008001061001KA1240M+02691MA1999999095501MD1999999+0001REMSYN088AAXX  27004 82795 32594 70906 10219 20206 39550 40169 85260 333 10269 29082 55065 58000;EQDQ01  00002PRCP06
0190827950999992003082712004-07217-035883FM-12+0560SBKG V0201401N003610075019N0100001N1+02341+02001101801ADDAY161061AY221061GF107991071071008001001001KA1240N+02011MA1999999095621MD1999999+0041MW1021REMSYN088AAXX  27124 82795 21597 71407 10234 20200 39562 40180 70262 87700 333 20201 58004 60024;
0167827950999992003082718004-07217-035883FM-12+0560SBKG V0201401N003610075019N0100001N1+02791+01901101421ADDAA106000091GF105991051021008001001001MA1999999095281MD1999999+0071REMSYN070AAXX  27184 82795 32597 51407 10279 20190 39528 40142 85200 333 58007;EQDQ01  00002PRCP06
0198827950999992003082800004-07217-035883FM-12+0560SBKG V0200901N004110120019N0010001N1+02201+01971101771ADDAA106000091GF107991071081008001001001KA1240M+02891MA1999999095571MD1999999+0071REMSYN088AAXX  28004 82795 32594 70908 10220 20197 39557 40177 87800 333 10289 29078 55083 58007;EQDQ01  00002PRCP06
0190827950999992003082812004-07217-035883FM-12+0560SBKG V0201401N005110075019N0100001N1+02261+02051101861ADDAY161061AY221061GF106991061061008001001001KA1240N+02041MA1999999095641MD1999999+0021MW1021REMSYN088AAXX  28124 82795 21597 61410 10226 20205 39564 40186 70262 86600 333 20204 58002 69914;
0171827950999992003082818004-07217-035883FM-12+0560SBKG V0201401N003110075019N0100001N1+02741+01891101441ADDAY161061AY221061GF106991061041008001001001MA1999999095301MD1999999+0021MW1021REMSYN082AAXX  28184 82795 21597 61406 10274 20189 39530 40144 70262 86400 333 58002 60011;
0198827950999992003082900004-07217-035883FM-12+0560SBKG V0200901N003610075019N0010001N1+02111+01931101751ADDAA106000091GF106991061021008001001001KA1240M+02781MA1999999095551MD1999999-0021REMSYN088AAXX  29004 82795 32594 60907 10211 20193 39555 40175 86200 333 10278 29082 55063 59002;EQDQ01  00002PRCP06
0162827950999992003082912004-07217-035883FM-12+0560SBKG V0201401N003110075019N0100001N1+02331+01851101861ADDGF106991061021008001001001KA1240N+01911MA1999999095641MD1999999+0001REMSYN082AAXX  29124 82795 22597 61406 10233 20185 39564 40186 86200 333 20191 58000 60014;
0167827950999992003082918004-07217-035883FM-12+0560SBKG V0201401N004112200019N0100001N1+02821+01681101441ADDAA106000091GF103991031021008001001001MA1999999095291MD1999999-0011REMSYN070AAXX  29184 82795 32597 31408 10282 20168 39529 40144 83200 333 59001;EQDQ01  00002PRCP06
0208827950999992003083000004-07217-035883FM-12+0560SBKG V0200901N002612200019N0010001N1+02081+01821101741ADDAA106000091GA1001+999999999GF100991001001999999001001KA1240M+02921MA1999999095531MD1999999-0021REMSYN082AAXX  30004 82795 32994 00905 10208 20182 39553 40174 333 10292 29074 55092 59002;EQDQ01  00002PRCP06
0186827950999992003083012004-07217-035883FM-12+0560SBKG V0201401N004110075019N0100001N1+02441+01741101801ADDAA106000091GF105991051021008001001001KA1240N+01941MA1999999095601MD1999999-0041REMSYN076AAXX  30124 82795 32597 51408 10244 20174 39560 40180 85200 333 20194 59004;EQDQ01  00002PRCP06
0167827950999992003083018004-07217-035883FM-12+0560SBKG V0201401N004612200019N0100001N1+02831+01771101551ADDAA106000091GF104991041021008001001001MA1999999095411MD1999999+0121REMSYN070AAXX  30184 82795 32597 41409 10283 20177 39541 40155 84200 333 58012;EQDQ01  00002PRCP06
0198827950999992003083100004-07217-035883FM-12+0560SBKG V0200901N003610075019N0010001N1+02111+01891101851ADDAA106000091GF106991061021008001001001KA1240M+02901MA1999999095651MD1999999+0121REMSYN088AAXX  31004 82795 32594 60907 10211 20189 39565 40185 86200 333 10290 29073 55100 58012;EQDQ01  00002PRCP06
0186827950999992003083112004-07217-035883FM-12+0560SBKG V0201401N003610075019N0100001N1+02431+01911101961ADDAA106000091GF107991071021008001001001KA1240N+01931MA1999999095751MD1999999+0151REMSYN076AAXX  31124 82795 32597 71407 10243 20191 39575 40196 87200 333 20193 58015;EQDQ01  00002PRCP06
0167827950999992003083118004-07217-035883FM-12+0560SBKG V0201401N003112200019N0100001N1+02831+01441101521ADDAA106000091GF102991021011008001001001MA1999999095381MD1999999-0031REMSYN070AAXX  31184 82795 32597 21406 10283 20144 39538 40152 82100 333 59003;EQDQ01  00002PRCP06
0198827950999992003090100004-07217-035883FM-12+0560SBKG V0201401N002612200019N0010001N1+02241+01711101791ADDAA106000091GF102991021011008001001001KA1240M+02881MA1999999095621MD1999999-0031REMSYN088AAXX  01004 82795 32594 21405 10224 20171 39562 40179 82100 333 10288 29065 55090 59003;EQDQ01  00002PRCP06
0190827950999992003090112004-07217-035883FM-12+0560SBKG V0201401N002110075019N0100001N1+02151+02021101761ADDAY161061AY221061GF107991071071008001001001KA1240N+01901MA1999999095761MD1999999+0011MW1021REMSYN088AAXX  01124 82795 21597 71404 10215 20202 39576 40176 70262 87700 333 20190 58001 69914;
0167827950999992003090118004-07217-035883FM-12+0560SBKG V0201401N005110075019N0100001N1+02831+01441101591ADDAA106000091GF105991051021008001001001MA1999999095431MD1999999+0051REMSYN070AAXX  01184 82795 32597 51410 10283 20144 39543 40159 85200 333 58005;EQDQ01  00002PRCP06
0208827950999992003090200004-07217-035883FM-12+0560SBKG V0201401N003612200019N0010001N1+02101+01761101961ADDAA106000091GA1001+999999999GF100991001001999999001001KA1240M+02921MA1999999095721MD1999999+0101REMSYN082AAXX  02004 82795 32994 01407 10210 20176 39572 40196 333 10292 29074 55069 58010;EQDQ01  00002PRCP06
0186827950999992003090212004-07217-035883FM-12+0560SBKG V0201401N004110075019N0100001N1+02361+01911101981ADDAA106000091GF106991061021008001001001KA1240N+01861MA1999999095761MD1999999+0001REMSYN076AAXX  02124 82795 32597 61408 10236 20191 39576 40198 86200 333 20186 58000;EQDQ01  00002PRCP06
0167827950999992003090218004-07217-035883FM-12+0560SBKG V0201401N002610075019N0100001N1+02781+01511101631ADDAA106000091GF105991051021008001001001MA1999999095451MD1999999+0021REMSYN070AAXX  02184 82795 32597 51405 10278 20151 39545 40163 85200 333 58002;EQDQ01  00002PRCP06
0198827950999992003090300004-07217-035883FM-12+0560SBKG V0201401N003112200019N0010001N1+02101+01821101871ADDAA106000091GF101991011011008001001001KA1240M+02831MA1999999095651MD1999999-0071REMSYN088AAXX  03004 82795 32594 11406 10210 20182 39565 40187 81100 333 10283 29073 55101 59007;EQDQ01  00002PRCP06
0186827950999992003090312004-07217-035883FM-12+0560SBKG V0201401N004110075019N0100001N1+02431+01741101971ADDAA106000091GF106991061021008001001001KA1240N+01931MA1999999095761MD1999999+0001REMSYN076AAXX  03124 82795 32597 61408 10243 20174 39576 40197 86200 333 20193 58000;EQDQ01  00002PRCP06
0167827950999992003090318004-07217-035883FM-12+0560SBKG V0201401N004110450019N0100001N1+02841+01531101591ADDAA106000091GF106991041041008001061001MA1999999095451MD1999999+0001REMSYN070AAXX  03184 82795 32597 61408 10284 20153 39545 40159 84460 333 58000;EQDQ01  00002PRCP06
0198827950999992003090400004-07217-035883FM-12+0560SBKG V0201401N002610075019N0010001N1+02251+01781101931ADDAA106000091GF106991061021008001001001KA1240M+02901MA1999999095751MD1999999+0101REMSYN088AAXX  04004 82795 32594 61405 10225 20178 39575 40193 86200 333 10290 29065 55083 58010;EQDQ01  00002PRCP06
0190827950999992003090412004-07217-035883FM-12+0560SBKG V0201401N004610075019N0100001N1+02301+01921102001ADDAY161061AY221061GF106991061061008001001001KA1240N+01931MA1999999095791MD1999999+0031MW1021REMSYN088AAXX  04124 82795 21597 61409 10230 20192 39579 40200 70262 86600 333 20193 58003 60014;
0167827950999992003090418004-07217-035883FM-12+0560SBKG V0201401N005710120019N0100001N1+02561+01851101671ADDAA106000091GF108991051081008001031999MA1999999095481MD1999999+0031REMSYN070AAXX  04184 82795 32597 81411 10256 20185 39548 40167 8583/ 333 58003;EQDQ01  00002PRCP06
0202827950999992003090500004-07217-035883FM-12+0560SBKG V0201401N004110042019N0005001N1+02081+02031102021ADDAY161061AY221061GF108991081071004501999999KA1240M+02811MA1999999095801MD1999999+0051MW1601REMSYN100AAXX  05004 82795 21493 81408 10208 20203 39580 40202 76062 887// 333 10281 29084 55070 58005 60021;
0190827950999992003090512004-07217-035883FM-12+0560SBKG V0201401N005110450019N0100001N1+02411+01991101971ADDAY151061AY221061GF106991041041008001021001KA1240N+01951MA1999999095761MD1999999-0031MW1021REMSYN088AAXX  05124 82795 21597 61410 10241 20199 39576 40197 70252 84420 333 20195 59003 60024;
0171827950999992003090518004-07217-035883FM-12+0560SBKG V0201401N004110075019N0040001N1+02131+01901101791ADDAY161061AY221061GF108991081071008001999999MA1999999095541MD1999999-0061MW1601REMSYN082AAXX  05184 82795 21596 81408 10213 20190 39554 40179 76062 887// 333 59006 60031;
0179827950999992003090600004-07217-035883FM-12+0560SBKG V0201801N002610075019N0010001N1+02041+01911101991ADDAA106000021GF108991081061008001999999KA1240M+02801MA1999999095771MD1999999-0031REMSYN088AAXX  06004 82795 32594 81805 10204 20191 39577 40199 886// 333 10280 29087 55041 59003;
0162827950999992003090612004-07217-035883FM-12+0560SBKG V0201401N003610120019N0100001N1+02281+01731101841ADDGF108991051081008001031999KA1240N+01821MA1999999095581MD1999999+0041REMSYN082AAXX  06124 82795 22597 81407 10228 20173 39558 40184 8583/ 333 20182 58004 60034;
0167827950999992003090618004-07217-035883FM-12+0560SBKG V0201401N005110450019N0100001N1+02621+01701101501ADDAA106000091GF105991021021008001031001MA1999999095311MD1999999-0231REMSYN070AAXX  06184 82795 32597 51410 10262 20170 39531 40150 82230 333 59023;EQDQ01  00002PRCP06
0198827950999992003090700004-07217-035883FM-12+0560SBKG V0201401N001512200019N0010001N1+02121+01821101811ADDAA106000091GF104991041021008001001001KA1240M+02701MA1999999095551MD1999999+0021REMSYN088AAXX  07004 82795 32594 41403 10212 20182 39555 40181 84200 333 10270 29074 55082 58002;EQDQ01  00002PRCP06
0190827950999992003090712004-07217-035883FM-12+0560SBKG V0201401N003610075019N0100001N1+02011+01951101861ADDAY161061AY221061GF108991081071008001999999KA1240N+01891MA1999999095601MD1999999-0021MW1611REMSYN088AAXX  07124 82795 21597 81407 10201 20195 39560 40186 76162 887// 333 20189 59002 60084;
0190827950999992003090718004-07217-035883FM-12+0560SBKG V0201401N003619999999N0100001N1+02401+01821101531ADDAY161061AY221061GF105991999041008001001001MA1999999095331MD1999999+0021MW1021REMSYN082AAXX  07184 82795 21597 51407 10240 20182 39533 40153 70262 84400 333 58002 60051;EQDQ01+000042SCOTLC
0202827950999992003090800004-07217-035883FM-12+0560SBKG V0201401N003110120019N0010001N1+02011+01701101811ADDAY151061AY221061GF106991061081008001001001KA1240M+02461MA1999999095551MD1999999-0041MW1021REMSYN100AAXX  08004 82795 21594 61406 10201 20170 39555 40181 70252 86800 333 10246 29083 55031 59004 69951;
0190827950999992003090812004-07217-035883FM-12+0560SBKG V0201401N003610042019N0020001N1+02031+01951101901ADDAY161061AY251061GF108991051071004501021999KA1240N+01851MA1999999095631MD1999999+0031MW1611REMSYN088AAXX  08124 82795 21495 81407 10203 20195 39563 40190 76165 8572/ 333 20185 58003 60114;
0171827950999992003090818004-07217-035883FM-12+0560SBKG V0201401N003110042019N0040001N1+02281+02091101721ADDAY161061AY221061GF108991051071004501021061MA1999999095461MD1999999+0131MW1021REMSYN082AAXX  08184 82795 21496 81406 10228 20209 39546 40172 70262 85726 333 58013 60031;
0202827950999992003090900004-07217-035883FM-12+0560SBKG V0201401N003110075019N0010001N1+02001+01931101921ADDAY161061AY221061GF107991051061008001051001KA1240M+02891MA1999999095651MD1999999+0061MW1021REMSYN100AAXX  09004 82795 21594 71406 10200 20193 39565 40192 70262 85650 333 10289 29094 55011 58006 60021;
0162827950999992003090912004-07217-035883FM-12+0560SBKG V0201401N003110075019N0100001N1+02161+01861101961ADDGF108991081071008001999999KA1240N+01781MA1999999095701MD1999999+0071REMSYN082AAXX  09124 82795 22597 81406 10216 20186 39570 40196 887// 333 20178 58007 60034;
0208827950999992003091000004-07217-035883FM-12+0560SBKG V0201401N002612200019N0010001N1+02031+01741101891ADDAA106000091GA1001+999999999GF100991001001999999001001KA1240M+02731MA1999999095651MD1999999+0001REMSYN082AAXX  10004 82795 32994 01405 10203 20174 39565 40189 333 10273 29076 55065 58000;EQDQ01  00002PRCP06
0162827950999992003091012004-07217-035883FM-12+0560SBKG V0201401N003610075019N0100001N1+02311+01791101891ADDGF106991061021008001001001KA1240N+01791MA1999999095661MD1999999-0041REMSYN082AAXX  10124 82795 22597 61407 10231 20179 39566 40189 86200 333 20179 59004 69954;
0183827950999992003091018004-07217-035883FM-12+0560SBKG V0201401N004612200019N0100001N1+02691+02021101391ADDAA106000091GF104991999021008001001001MA1999999095231MD1999999-0121REMSYN070AAXX  10184 82795 32597 41409 10269 20202 39523 40139 85200 333 59012;EQDQ01+000052SCOTLCQ02  00002PRCP06
0186827950999992003091112004-07217-035883FM-12+0560SBKG V0201401N003610075019N0100001N1+02331+01851101851ADDAA106000091GF106991061061008001001001KA1240N+01851MA1999999095631MD1999999-0031REMSYN076AAXX  11124 82795 32597 61407 10233 20185 39563 40185 86600 333 20185 59003;EQDQ01  00002PRCP06
0167827950999992003091118004-07217-035883FM-12+0560SBKG V0201401N005110075019N0100001N1+02741+01811101351ADDAA106000091GF106991061021008001001001MA1999999095191MD1999999-0041REMSYN070AAXX  11184 82795 32597 61410 10274 20181 39519 40135 86200 333 59004;EQDQ01  00002PRCP06
0198827950999992003091200004-07217-035883FM-12+0560SBKG V0201401N003110075019N0010001N1+02121+01911101751ADDAA106000091GF106991061021008001001001KA1240M+02761MA1999999095541MD1999999-0071REMSYN088AAXX  12004 82795 32594 61406 10212 20191 39554 40175 86200 333 10276 29077 55094 59007;EQDQ01  00002PRCP06
0190827950999992003091212004-07217-035883FM-12+0560SBKG V0201401N004110075019N0100001N1+02351+01931101831ADDAY161061AY221061GF106991061061008001001001KA1240N+01931MA1999999095621MD1999999-0011MW1021REMSYN088AAXX  12124 82795 21597 61408 10235 20193 39562 40183 70262 86600 333 20193 59001 69934;
0162827950999992003091312004-07217-035883FM-12+0560SBKG V0201401N003610075019N0100001N1+02361+01991101821ADDGF107991071071008001001001KA1240N+01911MA1999999095611MD1999999-0011REMSYN082AAXX  13124 82795 22597 71407 10236 20199 39561 40182 87700 333 20191 59001 60014;
0167827950999992003091318004-07217-035883FM-12+0560SBKG V0201401N004110075019N0100001N1+02391+01971101551ADDAA106000091GF106991061021008001001001MA1999999095341MD1999999-0071REMSYN070AAXX  13184 82795 32597 61408 10239 20197 39534 40155 86200 333 59007;EQDQ01  00002PRCP06
0186827950999992003091412004-07217-035883FM-12+0560SBKG V0201401N004610075019N0100001N1+02431+01841101851ADDAA106000091GF106991061061008001001001KA1240N+01971MA1999999095661MD1999999+0051REMSYN076AAXX  14124 82795 32597 61409 10243 20184 39566 40185 86600 333 20197 58005;EQDQ01  00002PRCP06
0167827950999992003091418004-07217-035883FM-12+0560SBKG V0201401N004612200019N0100001N1+02891+01771101391ADDAA106000091GF103991031021008001001001MA1999999095271MD1999999+0071REMSYN070AAXX  14184 82795 32597 31409 10289 20177 39527 40139 83200 333 58007;EQDQ01  00002PRCP06
0198827950999992003091500004-07217-035883FM-12+0560SBKG V0201401N004610075019N0010001N1+02131+01951101681ADDAA106000091GF106991061021008001001001KA1240M+02951MA1999999095491MD1999999-0131REMSYN088AAXX  15004 82795 32594 61409 10213 20195 39549 40168 86200 333 10295 29075 55093 59013;EQDQ01  00002PRCP06
0186827950999992003091512004-07217-035883FM-12+0560SBKG V0201401N005710075019N0100001N1+02381+01911101821ADDAA106000091GF106991061021008001001001KA1240N+01951MA1999999095621MD1999999-0041REMSYN076AAXX  15124 82795 32597 61411 10238 20191 39562 40182 86200 333 20195 59004;EQDQ01  00002PRCP06
0167827950999992003091618004-07217-035883FM-12+0560SBKG V0201401N003112200019N0100001N1+02521+01791101491ADDAA106000091GF105991041051008001001011MA1999999095291MD1999999+0061REMSYN070AAXX  16184 82795 32597 51406 10252 20179 39529 40149 84501 333 58006;EQDQ01  00002PRCP06
0186827950999992003091712004-07217-035883FM-12+0560SBKG V0201401N005110075019N0100001N1+02521+01771101731ADDAA106000091GF106991061021008001001001KA1240N+01911MA1999999095551MD1999999-0031REMSYN076AAXX  17124 82795 32597 61410 10252 20177 39555 40173 86200 333 20191 59003;EQDQ01  00002PRCP06
0167827950999992003091718004-07217-035883FM-12+0560SBKG V0201401N004112200019N0100001N1+02831+01971101331ADDAA106000091GF101991011011008001001001MA1999999095191MD1999999-0101REMSYN070AAXX  17184 82795 32597 11408 10283 20197 39519 40133 81100 333 59010;EQDQ01  00002PRCP06
0198827950999992003091800004-07217-035883FM-12+0560SBKG V0200901N003612200019N0010001N1+02151+01901101631ADDAA106000091GF101991011011008001001001KA1240M+02961MA1999999095471MD1999999+0031REMSYN088AAXX  18004 82795 32594 10907 10215 20190 39547 40163 81100 333 10296 29073 55103 58003;EQDQ01  00002PRCP06
0186827950999992003091812004-07217-035883FM-12+0560SBKG V0201401N005110075019N0100001N1+02581+01771101701ADDAA106000091GF106991061021008001001001KA1240N+01931MA1999999095531MD1999999-0021REMSYN076AAXX  18124 82795 32597 61410 10258 20177 39553 40170 86200 333 20193 59002;EQDQ01  00002PRCP06
0167827950999992003091818004-07217-035883FM-12+0560SBKG V0201401N004612200019N0100001N1+02961+01741101401ADDAA106000091GF103991031021008001001001MA1999999095281MD1999999+0091REMSYN070AAXX  18184 82795 32597 31409 10296 20174 39528 40140 83200 333 58009;EQDQ01  00002PRCP06
0198827950999992003091900004-07217-035883FM-12+0560SBKG V0201401N004110075019N0010001N1+02211+01901101611ADDAA106000091GF106991061021008001001001KA1240M+03031MA1999999095461MD1999999-0011REMSYN088AAXX  19004 82795 32594 61408 10221 20190 39546 40161 86200 333 10303 29069 55097 59001;EQDQ01  00002PRCP06
0186827950999992003091912004-07217-035883FM-12+0560SBKG V0201401N003610075019N0100001N1+02321+01721101691ADDAA106000091GF106991061021008001001001KA1240N+01841MA1999999095501MD1999999-0031REMSYN076AAXX  19124 82795 32597 61407 10232 20172 39550 40169 86200 333 20184 59003;EQDQ01  00002PRCP06
0167827950999992003091918004-07217-035883FM-12+0560SBKG V0201401N003112200019N0100001N1+02831+01581101311ADDAA106000091GF103991031021008001001001MA1999999095171MD1999999-0111REMSYN070AAXX  19184 82795 32597 31406 10283 20158 39517 40131 83200 333 59011;EQDQ01  00002PRCP06
0198827950999992003092000004-07217-035883FM-12+0560SBKG V0200901N004110075019N0010001N1+02181+01861101611ADDAA106000091GF106991061021008001001001KA1240M+02971MA1999999095431MD1999999-0031REMSYN088AAXX  20004 82795 32594 60908 10218 20186 39543 40161 86200 333 10297 29070 55102 59003;EQDQ01  00002PRCP06
0209827950999992003092012004-07217-035883FM-12+0560SBKG V0201401N006212200019N0100001N1+02471+01881101651ADDAY161061AY221061GF104991999011008001001001KA1240N+01911MA1999999095451MD1999999-0051MW1021REMSYN088AAXX  20124 82795 21597 41412 10247 20188 39545 40165 70262 80100 333 20191 59005 60014;EQDQ01+000002SCOTLC
0167827950999992003092018004-07217-035883FM-12+0560SBKG V0201401N004612200019N0100001N1+02821+01331101331ADDAA106000091GF102991011021008001001011MA1999999095191MD1999999+0021REMSYN070AAXX  20184 82795 32597 21409 10282 20133 39519 40133 81201 333 58002;EQDQ01  00002PRCP06
0186827950999992003092112004-07217-035883FM-12+0560SBKG V0201401N005112200019N0100001N1+02411+01631101751ADDAA106000091GF103991031021008001001001KA1240N+01841MA1999999095551MD1999999+0101REMSYN076AAXX  21124 82795 32597 31410 10241 20163 39555 40175 83200 333 20184 58010;EQDQ01  00002PRCP06
0167827950999992003092118004-07217-035883FM-12+0560SBKG V0201401N003612200019N0100001N1+02761+01531101421ADDAA106000091GF102991011011008001001011MA1999999095261MD1999999+0071REMSYN070AAXX  21184 82795 32597 21407 10276 20153 39526 40142 81101 333 58007;EQDQ01  00002PRCP06
0208827950999992003092200004-07217-035883FM-12+0560SBKG V0201401N003112200019N0010001N1+02161+01701101781ADDAA106000091GA1001+999999999GF100991001001999999001001KA1240M+02821MA1999999095581MD1999999+0041REMSYN082AAXX  22004 82795 32994 01406 10216 20170 39558 40178 333 10282 29065 55100 58004;EQDQ01  00002PRCP06
0186827950999992003092212004-07217-035883FM-12+0560SBKG V0201401N004610075019N0100001N1+02331+01761101731ADDAA106000091GF106991061061008001001001KA1240N+01881MA1999999095531MD1999999-0021REMSYN076AAXX  22124 82795 32597 61409 10233 20176 39553 40173 86600 333 20188 59002;EQDQ01  00002PRCP06
0167827950999992003092218004-07217-035883FM-12+0560SBKG V0201401N005712200019N0100001N1+02731+01681101231ADDAA106000091GF105991021021008001001011MA1999999095091MD1999999-0171REMSYN070AAXX  22184 82795 32597 51411 10273 20168 39509 40123 82201 333 59017;EQDQ01  00002PRCP06
0208827950999992003092400004-07217-035883FM-12+0560SBKG V0201401N003612200019N0010001N1+02111+01641101551ADDAA106000091GA1001+999999999GF100991001001999999001001KA1240M+02931MA1999999095371MD1999999-0131REMSYN082AAXX  24004 82795 32994 01407 10211 20164 39537 40155 333 10293 29064 55098 59013;EQDQ01  00002PRCP06
0186827950999992003092412004-07217-035883FM-12+0560SBKG V0201401N003612200019N0100001N1+02401+01701101661ADDAA106000091GF105991031011008001001011KA1240N+01851MA1999999095471MD1999999-0011REMSYN076AAXX  24124 82795 32597 51407 10240 20170 39547 40166 83101 333 20185 59001;EQDQ01  00002PRCP06
0167827950999992003092418004-07217-035883FM-12+0560SBKG V0200901N002612200019N0100001N1+02901+01551101281ADDAA106000091GF104991041021008001001001MA1999999095141MD1999999+0051REMSYN070AAXX  24184 82795 32597 40905 10290 20155 39514 40128 84200 333 58005;EQDQ01  00002PRCP06
0198827950999992003092500004-07217-035883FM-12+0560SBKG V0200901N003610075019N0010001N1+02121+01881101571ADDAA106000091GF106991061021008001001001KA1240M+02921MA1999999095321MD1999999-0051REMSYN088AAXX  25004 82795 32594 60907 10212 20188 39532 40157 86200 333 10292 29070 55103 59005;EQDQ01  00002PRCP06
0186827950999992003092512004-07217-035883FM-12+0560SBKG V0200901N003610075019N0100001N1+02441+01761101631ADDAA106000091GF105991051021008001001001KA1240N+01931MA1999999095441MD1999999-0031REMSYN076AAXX  25124 82795 32597 50907 10244 20176 39544 40163 85200 333 20193 59003;EQDQ01  00002PRCP06
0167827950999992003092518004-07217-035883FM-12+0560SBKG V0201401N004112200019N0100001N1+02911+01671101171ADDAA106000091GF104991041021008001001001MA1999999095051MD1999999-0111REMSYN070AAXX  25184 82795 32597 41408 10291 20167 39505 40117 84200 333 59011;EQDQ01  00002PRCP06
0186827950999992003092612004-07217-035883FM-12+0560SBKG V0200901N003610075019N0100001N1+02401+01841101561ADDAA106000091GF105991051021008001001001KA1240N+02011MA1999999095391MD1999999-0051REMSYN076AAXX  26124 82795 32597 50907 10240 20184 39539 40156 85200 333 20201 59005;EQDQ01  00002PRCP06
0167827950999992003092618004-07217-035883FM-12+0560SBKG V0201401N003612200019N0100001N1+02841+01731101141ADDAA106000091GF104991041021008001001001MA1999999095021MD1999999-0031REMSYN070AAXX  26184 82795 32597 41407 10284 20173 39502 40114 84200 333 59003;EQDQ01  00002PRCP06
0198827950999992003092700004-07217-035883FM-12+0560SBKG V0200901N003612200019N0010001N1+02151+01931101501ADDAA106000091GF101991011011008001001001KA1240M+02941MA1999999095321MD1999999-0061REMSYN088AAXX  27004 82795 32594 10907 10215 20193 39532 40150 81100 333 10294 29074 55086 59006;EQDQ01  00002PRCP06
0186827950999992003092712004-07217-035883FM-12+0560SBKG V0201401N005112200019N0100001N1+02521+01841101471ADDAA106000091GF104991021011008001001011KA1240N+02031MA1999999095321MD1999999-0071REMSYN076AAXX  27124 82795 32597 41410 10252 20184 39532 40147 82101 333 20203 59007;EQDQ01  00002PRCP06
0167827950999992003092718004-07217-035883FM-12+0560SBKG V0201401N003110075019N0100001N1+02931+01641101021ADDAA106000091GF105991051021008001001001MA1999999094921MD1999999-0101REMSYN070AAXX  27184 82795 32597 51406 10293 20164 39492 40102 85200 333 59010;EQDQ01  00002PRCP06
0198827950999992003092800004-07217-035883FM-12+0560SBKG V0201401N003110075019N0010001N1+02211+01901101351ADDAA106000091GF105991051061008001001001KA1240M+03001MA1999999095211MD1999999-0111REMSYN088AAXX  28004 82795 32594 51406 10221 20190 39521 40135 85600 333 10300 29077 55104 59011;EQDQ01  00002PRCP06
0275827950999992003092812004-07217-035883SY-MT+0560SBKG V0201401N005112200019N0100001N1+02531+01791101411ADDAA106000091GA1041+006009999GF104991041011008001001001KA1240N+02031MA1101691095351MD1999999+0031MW1001REMSYN076AAXX  28124 82795 32597 41410 10253 20179 39535 40141 84100 333 20203 58003;MET045SBKG 281200Z 12008KT 9999 SCT020 26/17 Q1017;EQDQ01+000000PRSWM2Q02  00002PRCP06
0139827950999992003092813004-07217-035883FM-15+0560SBKG V0201201N005112200019N0112651N1+02801+01801999999ADDGA1041+006009999GF104991999999999999999999MA1101691999999MW1001REMMET045SBKG 281300Z 12010KT 9999 SCT020 28/18 Q1017;EQDQ01+000000PRSWM2
0139827950999992003092814004-07217-035883FM-15+0560SBKG V0201301N005112200019N0112651N1+02901+01701999999ADDGA1041+006009999GF104991999999999999999999MA1101691999999MW1001REMMET045SBKG 281400Z 13010KT 9999 SCT020 29/17 Q1017;EQDQ01+000000PRSWM2
0139827950999992003092815004-07217-035883FM-15+0560SBKG V0201301N004112200019N0112651N1+03001+01801999999ADDGA1021+009909999GF102991999999999999999999MA1101491999999MW1001REMMET045SBKG 281500Z 13008KT 9999 FEW033 30/18 Q1015;EQDQ01+000000PRSWM2
0091827950999992003092816004-07217-035883FM-15+0560SBKG V0200901N00311220001CN0099001N1+03101+01701999999ADDMA1101391999999MW1001REMMET039SBKG 281600Z 09006KT CAVOK 31/17 Q1014;EQDQ01+000000PRSWM2
0091827950999992003092817004-07217-035883FM-15+0560SBKG V0201501N00621220001CN0099001N1+03101+01801999999ADDMA1101291999999MW1001REMMET039SBKG 281700Z 15012KT CAVOK 31/18 Q1013;EQDQ01+000000PRSWM2
0177827950999992003092818004-07217-035883FM-12+0560SBKG V0201401N004612200019N0100001N1+03081+01711101041ADDAA106000091GA1001+999999999GF100991001001999999001001MA1999999094941MD1999999+0021REMSYN064AAXX  28184 82795 32597 01409 10308 20171 39494 40104 333 58002;EQDQ01  00002PRCP06
0198827950999992003092900004-07217-035883FM-12+0560SBKG V0201401N003112200019N0010001N1+02191+01901101381ADDAA106000091GF101991011011008001001001KA1240M+03141MA1999999095231MD1999999+0021REMSYN088AAXX  29004 82795 32594 11406 10219 20190 39523 40138 81100 333 10314 29069 55102 58002;EQDQ01  00002PRCP06
0186827950999992003092912004-07217-035883FM-12+0560SBKG V0200901N005110075019N0100001N1+02541+01781101631ADDAA106000091GF105991051021008001001001KA1240N+02081MA1999999095471MD1999999+0121REMSYN076AAXX  29124 82795 32597 50910 10254 20178 39547 40163 85200 333 20208 58012;EQDQ01  00002PRCP06
0167827950999992003092918004-07217-035883FM-12+0560SBKG V0201401N006212200019N0100001N1+03001+01681101191ADDAA106000091GF103991031021008001001001MA1999999095111MD1999999+0171REMSYN070AAXX  29184 82795 32597 31412 10300 20168 39511 40119 83200 333 58017;EQDQ01  00002PRCP06
0208827950999992003093000004-07217-035883FM-12+0560SBKG V0200901N002612200019N0010001N1+02191+01901101571ADDAA106000091GA1001+999999999GF100991001001999999001001KA1240M+03051MA1999999095411MD1999999+0181REMSYN082AAXX  30004 82795 32994 00905 10219 20190 39541 40157 333 10305 29068 55091 58018;EQDQ01  00002PRCP06
0186827950999992003093012004-07217-035883FM-12+0560SBKG V0201401N004610075019N0100001N1+02521+01861101611ADDAA106000091GF105991051021008001001001KA1240N+02051MA1999999095471MD1999999+0001REMSYN076AAXX  30124 82795 32597 51409 10252 20186 39547 40161 85200 333 20205 58000;EQDQ01  00002PRCP06
0139827950999992003093013004-07217-035883FM-15+0560SBKG V0201201N005712200019N0112651N1+02801+01601999999ADDGA1041+006009999GF104991999999999999999999MA1101801999999MW1001REMMET045SBKG 301300Z 12011KT 9999 SCT020 28/16 Q1018;EQDQ01+000000PRSWM2
0139827950999992003093014004-07217-035883FM-15+0560SBKG V0201301N004112200019N0112651N1+02901+01601999999ADDGA1041+007209999GF104991999999999999999999MA1101801999999MW1001REMMET045SBKG 301400Z 13008KT 9999 SCT024 29/16 Q1018;EQDQ01+000000PRSWM2
0167827950999992003093018004-07217-035883FM-12+0560SBKG V0201401N004612200019N0100001N1+02931+01711101261ADDAA106000091GF105991011011008001001011MA1999999095141MD1999999+0001REMSYN070AAXX  30184 82795 32597 51409 10293 20171 39514 40126 81101 333 58000;EQDQ01  00002PRCP06
0198827950999992003100100004-07217-035883FM-12+0560SBKG V0200901N003610075019N0010001N1+02201+01921101621ADDAA106000091GF106991051021008001001011KA1240M+03051MA1999999095461MD1999999+0051REMSYN088AAXX  01004 82795 32594 60907 10220 20192 39546 40162 85201 333 10305 29071 55092 58005;EQDQ01  00002PRCP06
0186827950999992003100112004-07217-035883FM-12+0560SBKG V0201401N005710075019N0100001N1+02531+01731101591ADDAA106000091GF105991051021008001001001KA1240N+02021MA1999999095431MD1999999-0041REMSYN076AAXX  01124 82795 32597 51411 10253 20173 39543 40159 85200 333 20202 59004;EQDQ01  00002PRCP06
0167827950999992003100118004-07217-035883FM-12+0560SBKG V0201401N004612200019N0100001N1+02951+01551101161ADDAA106000091GF102991021021008001001001MA1999999095051MD1999999-0091REMSYN070AAXX  01184 82795 32597 21409 10295 20155 39505 40116 82200 333 59009;EQDQ01  00002PRCP06
0198827950999992003100200004-07217-035883FM-12+0560SBKG V0200901N005110075019N0010001N1+02201+01941101531ADDAA106000091GF106991061021008001001001KA1240M+03041MA1999999095371MD1999999-0091REMSYN088AAXX  02004 82795 32594 60910 10220 20194 39537 40153 86200 333 10304 29068 55098 59009;EQDQ01  00002PRCP06
0186827950999992003100212004-07217-035883FM-12+0560SBKG V0201401N006210075019N0100001N1+02501+01871101611ADDAA106000091GF106991061021008001001001KA1240N+01961MA1999999095451MD1999999+0021REMSYN076AAXX  02124 82795 32597 61412 10250 20187 39545 40161 86200 333 20196 58002;EQDQ01  00002PRCP06
0167827950999992003100218004-07217-035883FM-12+0560SBKG V0201401N006712200019N0100001N1+02881+01671101181ADDAA106000091GF103991031021008001001001MA1999999095061MD1999999+0051REMSYN070AAXX  02184 82795 32597 31413 10288 20167 39506 40118 83200 333 58005;EQDQ01  00002PRCP06
0198827950999992003100300004-07217-035883FM-12+0560SBKG V0200901N003112200019N0010001N1+02141+01951101571ADDAA106000091GF102991021011008001001001KA1240M+02951MA1999999095401MD1999999+0031REMSYN088AAXX  03004 82795 32594 20906 10214 20195 39540 40157 82100 333 10295 29074 55103 58003;EQDQ01  00002PRCP06
0186827950999992003100312004-07217-035883FM-12+0560SBKG V0201401N003610075019N0100001N1+02461+01761101681ADDAA106000091GF105991051021008001001001KA1240N+01951MA1999999095501MD1999999+0051REMSYN076AAXX  03124 82795 32597 51407 10246 20176 39550 40168 85200 333 20195 58005;EQDQ01  00002PRCP06
0167827950999992003100318004-07217-035883FM-12+0560SBKG V0201401N006712200019N0100001N1+02631+01861101401ADDAA106000091GF102991021021008001001001MA1999999095251MD1999999+0191REMSYN070AAXX  03184 82795 32597 21413 10263 20186 39525 40140 82200 333 58019;EQDQ01  00002PRCP06
0198827950999992003100400004-07217-035883FM-12+0560SBKG V0200901N003610075019N0010001N1+02171+01951101681ADDAA106000091GF106991061021008001001001KA1240M+02911MA1999999095501MD1999999+0101REMSYN088AAXX  04004 82795 32594 60907 10217 20195 39550 40168 86200 333 10291 29076 55096 58010;EQDQ01  00002PRCP06
0186827950999992003100412004-07217-035883FM-12+0560SBKG V0201401N004612200019N0100001N1+02531+01741101671ADDAA106000091GF104991041021008001001001KA1240N+01941MA1999999095511MD1999999+0011REMSYN076AAXX  04124 82795 32597 41409 10253 20174 39551 40167 84200 333 20194 58001;EQDQ01  00002PRCP06
0167827950999992003100418004-07217-035883FM-12+0560SBKG V0201401N006710075019N0100001N1+02851+01671101331ADDAA106000091GF105991051031008001001001MA1999999095211MD1999999-0041REMSYN070AAXX  04184 82795 32597 51413 10285 20167 39521 40133 85300 333 59004;EQDQ01  00002PRCP06
0198827950999992003100500004-07217-035883FM-12+0560SBKG V0201401N004612200019N0010001N1+02191+01921101671ADDAA106000091GF104991041011008001001001KA1240M+03011MA1999999095511MD1999999+0011REMSYN088AAXX  05004 82795 32594 41409 10219 20192 39551 40167 84100 333 10301 29075 55098 58001;EQDQ01  00002PRCP06
0186827950999992003100512004-07217-035883FM-12+0560SBKG V0201401N004612200019N0100001N1+02541+01731101551ADDAA106000091GF104991041021008001001001KA1240N+01951MA1999999095391MD1999999-0121REMSYN076AAXX  05124 82795 32597 41409 10254 20173 39539 40155 84200 333 20195 59012;EQDQ01  00002PRCP06
0167827950999992003100518004-07217-035883FM-12+0560SBKG V0201401N004610075019N0100001N1+02911+01481101121ADDAA106000091GF105991051031008001001001MA1999999095001MD1999999+0211REMSYN070AAXX  05184 82795 32597 51409 10291 20148 39500 40112 85300 333 58021;EQDQ01  00002PRCP06
0198827950999992003100600004-07217-035883FM-12+0560SBKG V0201401N004612200019N0010001N1+02141+02041101551ADDAA106000091GF102991021011008001001001KA1240M+03081MA1999999095391MD1999999-0121REMSYN088AAXX  06004 82795 32594 21409 10214 20204 39539 40155 82100 333 10308 29072 55094 59012;EQDQ01  00002PRCP06
0202827950999992003100612004-07217-035883FM-12+0560SBKG V0201401N004619999999N0100001N1+02551+01751101531ADDAA106000091GF105991999021008001001001KA1240N+01931MA1999999095351MD1999999-0041REMSYN076AAXX  06124 82795 32597 51409 10255 20175 39535 40153 84200 333 20193 59004;EQDQ01+000042SCOTLCQ02  00002PRCP06
0167827950999992003100618004-07217-035883FM-12+0560SBKG V0201401N004612200019N0100001N1+02951+01511999999ADDAA106000091GF104991041021008001001001MA1999999095011MD1999999+0011REMSYN070AAXX  06184 82795 32597 41409 10295 20151 39501 44011 84200 333 58001;EQDQ01  00002PRCP06
0198827950999992003100700004-07217-035883FM-12+0560SBKG V0200901N004112200019N0010001N1+02181+01861101471ADDAA106000091GF102991021021008001001001KA1240M+03041MA1999999095321MD1999999-0071REMSYN088AAXX  07004 82795 32594 20908 10218 20186 39532 40147 82200 333 10304 29067 55102 59007;EQDQ01  00002PRCP06
0186827950999992003100712004-07217-035883FM-12+0560SBKG V0201401N005110075019N0100001N1+02591+01791101661ADDAA106000091GF105991051011008001001001KA1240N+02021MA1999999095501MD1999999+0151REMSYN076AAXX  07124 82795 32597 51410 10259 20179 39550 40166 85100 333 20202 58015;EQDQ01  00002PRCP06
0167827950999992003100718004-07217-035883FM-12+0560SBKG V0201401N004112200019N0100001N1+02911+01591101281ADDAA106000091GF105991021011008001001011MA1999999095161MD1999999+0151REMSYN070AAXX  07184 82795 32597 51408 10291 20159 39516 40128 82101 333 58015;EQDQ01  00002PRCP06
0198827950999992003100800004-07217-035883FM-12+0560SBKG V0200901N005112200019N0010001N1+02171+01821101581ADDAA106000091GF102991001001999999001011KA1240M+03051MA1999999095421MD1999999+0101REMSYN088AAXX  08004 82795 32994 20910 10217 20182 39542 40158 80001 333 10305 29066 55094 58010;EQDQ01  00002PRCP06
0186827950999992003100812004-07217-035883FM-12+0560SBKG V0201401N005110075019N0100001N1+02511+01691101611ADDAA106000091GF106991061021008001001001KA1240N+01951MA1999999095451MD1999999-0051REMSYN076AAXX  08124 82795 32597 61410 10251 20169 39545 40161 86200 333 20195 59005;EQDQ01  00002PRCP06
0167827950999992003100818004-07217-035883FM-12+0560SBKG V0201401N006212200019N0100001N1+02871+01441101201ADDAA106000091GF104991041011008001001001MA1999999095061MD1999999-0161REMSYN070AAXX  08184 82795 32597 41412 10287 20144 39506 40120 84100 333 59016;EQDQ01  00002PRCP06
0198827950999992003100900004-07217-035883FM-12+0560SBKG V0201401N002610075019N0010001N1+02201+01821101561ADDAA106000091GF106991061021008001001001KA1240M+03011MA1999999095401MD1999999-0021REMSYN088AAXX  09004 82795 32594 61405 10220 20182 39540 40156 86200 333 10301 29065 55100 59002;EQDQ01  00002PRCP06
0190827950999992003100912004-07217-035883FM-12+0560SBKG V0200901N006210075019N0100001N1+02521+01791101551ADDAY161061AY221061GF106991061021008001001001KA1240N+01951MA1999999095391MD1999999-0061MW1021REMSYN088AAXX  09124 82795 21597 60912 10252 20179 39539 40155 70262 86200 333 20195 59006 60054;
0167827950999992003100918004-07217-035883FM-12+0560SBKG V0201401N003610075019N0100001N1+02731+01771101161ADDAA106000091GF105991051021008001001001MA1999999095051MD1999999-0011REMSYN070AAXX  09184 82795 32597 51407 10273 20177 39505 40116 85200 333 59001;EQDQ01  00002PRCP06
0208827950999992003101000004-07217-035883FM-12+0560SBKG V0200901N004612200019N0010001N1+02131+01881101641ADDAA106000091GA1001+999999999GF100991001001999999001001KA1240M+02921MA1999999095461MD1999999+0061REMSYN082AAXX  10004 82795 32994 00909 10213 20188 39546 40164 333 10292 29072 55092 58006;EQDQ01  00002PRCP06
0186827950999992003101012004-07217-035883FM-12+0560SBKG V0201401N006212200019N0100001N1+02541+01571101531ADDAA106000091GF104991041011008001001001KA1240N+01951MA1999999095361MD1999999-0031REMSYN076AAXX  10124 82795 32597 41412 10254 20157 39536 40153 84100 333 20195 59003;EQDQ01  00002PRCP06
0167827950999992003101018004-07217-035883FM-12+0560SBKG V0201401N003112200019N0100001N1+02991+01661101181ADDAA106000091GF104991041011008001001001MA1999999095081MD1999999+0031REMSYN070AAXX  10184 82795 32597 41406 10299 20166 39508 40118 84100 333 58003;EQDQ01  00002PRCP06
0198827950999992003101100004-07217-035883FM-12+0560SBKG V0200901N003612200019N0010001N1+02161+01841101451ADDAA106000091GF102991021021008001001001KA1240M+03081MA1999999095301MD1999999-0161REMSYN088AAXX  11004 82795 32594 20907 10216 20184 39530 40145 82200 333 10308 29066 55098 59016;EQDQ01  00002PRCP06
0186827950999992003101112004-07217-035883FM-12+0560SBKG V0201401N005110075019N0100001N1+02421+01771101521ADDAA106000091GF106991061021008001001001KA1240N+01901MA1999999095351MD1999999-0011REMSYN076AAXX  11124 82795 32597 61410 10242 20177 39535 40152 86200 333 20190 59001;EQDQ01  00002PRCP06
0167827950999992003101118004-07217-035883FM-12+0560SBKG V0201401N004112200019N0100001N1+02991+01451101191ADDAA106000091GF102991011011008001001011MA1999999095081MD1999999+0071REMSYN070AAXX  11184 82795 32597 21408 10299 20145 39508 40119 81101 333 58007;EQDQ01  00002PRCP06
0198827950999992003101200004-07217-035883FM-12+0560SBKG V0200901N004112200019N0010001N1+02261+01751101531ADDAA106000091GF102991011011008001001011KA1240M+03071MA1999999095371MD1999999+0071REMSYN088AAXX  12004 82795 32594 20908 10226 20175 39537 40153 81101 333 10307 29063 55100 58007;EQDQ01  00002PRCP06
0186827950999992003101212004-07217-035883FM-12+0560SBKG V0201401N005110075019N0100001N1+02601+01891101451ADDAA106000091GF105991051011008001001001KA1240N+01991MA1999999095311MD1999999-0041REMSYN076AAXX  12124 82795 32597 51410 10260 20189 39531 40145 85100 333 20199 59004;EQDQ01  00002PRCP06
0167827950999992003101218004-07217-035883FM-12+0560SBKG V0201401N003612200019N0100001N1+03141+01621101031ADDAA106000091GF102991021011008001001001MA1999999094951MD1999999-0131REMSYN070AAXX  12184 82795 32597 21407 10314 20162 39495 40103 82100 333 59013;EQDQ01  00002PRCP06
0198827950999992003101300004-07217-035883FM-12+0560SBKG V0200901N005110075019N0010001N1+02231+01941101401ADDAA106000091GF106991061021008001001001KA1240M+03191MA1999999095261MD1999999-0111REMSYN088AAXX  13004 82795 32594 60910 10223 20194 39526 40140 86200 333 10319 29068 55100 59011;EQDQ01  00002PRCP06
0190827950999992003101312004-07217-035883FM-12+0560SBKG V0201401N004610075019N0100001N1+02481+01901101491ADDAY161061AY221061GF106991061061008001001001KA1240N+02081MA1999999095331MD1999999+0021MW1021REMSYN088AAXX  13124 82795 21597 61409 10248 20190 39533 40149 70262 86600 333 20208 58002 69914;
0167827950999992003101318004-07217-035883FM-12+0560SBKG V0201401N004112200019N0100001N1+02921+01771101191ADDAA106000091GF103991031011008001001001MA1999999095091MD1999999+0141REMSYN070AAXX  13184 82795 32597 31408 10292 20177 39509 40119 83100 333 58014;EQDQ01  00002PRCP06
0198827950999992003101400004-07217-035883FM-12+0560SBKG V0200901N004112200019N0010001N1+02211+01721101431ADDAA106000091GF101991011001012501061001KA1240M+03051MA1999999095281MD1999999+0021REMSYN088AAXX  14004 82795 32694 10908 10221 20172 39528 40143 81060 333 10305 29067 55077 58002;EQDQ01  00002PRCP06
0186827950999992003101412004-07217-035883FM-12+0560SBKG V0201401N004610075019N0100001N1+02561+01591101511ADDAA106000091GF105991051011008001001001KA1240N+01921MA1999999095351MD1999999+0021REMSYN076AAXX  14124 82795 32597 51409 10256 20159 39535 40151 85100 333 20192 58002;EQDQ01  00002PRCP06
0167827950999992003101418004-07217-035883FM-12+0560SBKG V0201401N004612200019N0100001N1+02921+01801101651ADDAA106000091GF104991041011008001001001MA1999999095001MD1999999-0091REMSYN070AAXX  14184 82795 32597 41409 10292 20180 39500 40165 84100 333 59009;EQDQ01  00002PRCP06
0208827950999992003101500004-07217-035883FM-12+0560SBKG V0201401N003112200019N0010001N1+02181+01721101511ADDAA106000091GA1001+999999999GF100991001001999999001001KA1240M+03101MA1999999095351MD1999999+0071REMSYN082AAXX  15004 82795 32994 01406 10218 20172 39535 40151 333 10310 29064 55091 58007;EQDQ01  00002PRCP06
0186827950999992003101512004-07217-035883FM-12+0560SBKG V0201401N005110075019N0100001N1+02391+01861101671ADDAA106000091GF106991061021008001001001KA1240N+01881MA1999999095481MD1999999+0131REMSYN076AAXX  15124 82795 32597 61410 10239 20186 39548 40167 86200 333 20188 58013;EQDQ01  00002PRCP06
0167827950999992003101518004-07217-035883FM-12+0560SBKG V0201401N003612200019N0100001N1+02991+01271101221ADDAA106000091GF101991011011008001001001MA1999999095111MD1999999+0111REMSYN070AAXX  15184 82795 32597 11407 10299 20127 39511 40122 81100 333 58011;EQDQ01  00002PRCP06
0198827950999992003101600004-07217-035883FM-12+0560SBKG V0200901N004112200019N0010001N1+02131+01721101681ADDAA106000091GF102991021011008001001001KA1240M+03061MA1999999095491MD1999999-0141REMSYN088AAXX  16004 82795 32594 20908 10213 20172 39549 40168 82100 333 10306 29066 55096 59014;EQDQ01  00002PRCP06
0167827950999992003101618004-07217-035883FM-12+0560SBKG V0201401N003110075019N0100001N1+02931+01381101241ADDAA106000091GF105991051021008001001001MA1999999095121MD1999999+0011REMSYN070AAXX  16184 82795 32597 51406 10293 20138 39512 40124 85200 333 58001;EQDQ01  00002PRCP06
0198827950999992003101700004-07217-035883FM-12+0560SBKG V0200901N003612200019N0010001N1+02181+01801101611ADDAA106000091GF102991021011008001001001KA1240M+03051MA1999999095451MD1999999-0041REMSYN088AAXX  17004 82795 32594 20907 10218 20180 39545 40161 82100 333 10305 29064 55109 59004;EQDQ01  00002PRCP06
0186827950999992003101712004-07217-035883FM-12+0560SBKG V0201401N003110120019N0100001N1+02281+01771101681ADDAA106000091GF108991081081008001001001KA1240N+02011MA1999999095481MD1999999-0011REMSYN076AAXX  17124 82795 32597 81406 10228 20177 39548 40168 88800 333 20201 59001;EQDQ01  00002PRCP06
0171827950999992003101718004-07217-035883FM-12+0560SBKG V0200501N004110450019N0100001N1+02291+01881101401ADDAY151061AY221061GF107991041011008001021001MA1999999095201MD1999999+0081MW1021REMSYN082AAXX  17184 82795 21597 70508 10229 20188 39520 40140 70252 84120 333 58008 69911;
0202827950999992003101800004-07217-035883FM-12+0560SBKG V0201401N003610075019N0010001N1+01971+01911101701ADDAY151061AY221061GF108991081071008001999999KA1240M+02581MA1999999095471MD1999999+0021MW1021REMSYN100AAXX  18004 82795 21594 81407 10197 20191 39547 40170 70252 887// 333 10258 29086 55000 58002 69961;
0162827950999992003101812004-07217-035883FM-12+0560SBKG V0201401N004119999999N0100001N1+02471+01761101681ADDGF106991999021008001051021KA1240N+01841MA1999999095481MD1999999+0001REMSYN082AAXX  18124 82795 22597 61408 10247 20176 39548 40168 80252 333 20184 58000 69974;
0167827950999992003101818004-07217-035883FM-12+0560SBKG V0201401N004610075019N0100001N1+02991+01791101231ADDAA106000091GF105991051041008001001001MA1999999095111MD1999999-0091REMSYN070AAXX  18184 82795 32597 51409 10299 20179 39511 40123 85400 333 59009;EQDQ01  00002PRCP06
0198827950999992003101900004-07217-035883FM-12+0560SBKG V0201401N004110075019N0010001N1+02221+01961101531ADDAA106000091GF106991061061008001001001KA1240M+03001MA1999999095471MD1999999+0001REMSYN088AAXX  19004 82795 32594 61408 10222 20196 39547 40153 86600 333 10300 29072 55098 58000;EQDQ01  00002PRCP06
0186827950999992003101912004-07217-035883FM-12+0560SBKG V0201401N005112200019N0100001N1+02651+01661101671ADDAA106000091GF105991031031008001001011KA1240N+02051MA1999999095531MD1999999+0051REMSYN076AAXX  19124 82795 32597 51410 10265 20166 39553 40167 83301 333 20205 58005;EQDQ01  00002PRCP06
0167827950999992003101918004-07217-035883FM-12+0560SBKG V0201401N005712200019N0100001N1+03001+01711101271ADDAA106000091GF105991031021008001001011MA1999999095141MD1999999+0031REMSYN070AAXX  19184 82795 32597 51411 10300 20171 39514 40127 83201 333 58003;EQDQ01  00002PRCP06
0198827950999992003102000004-07217-035883FM-12+0560SBKG V0201401N004610075019N0010001N1+02171+01931101651ADDAA106000091GF105991051061008001001001KA1240M+03021MA1999999095501MD1999999+0031REMSYN088AAXX  20004 82795 32594 51409 10217 20193 39550 40165 85600 333 10302 29069 55100 58003;EQDQ01  00002PRCP06
0186827950999992003102012004-07217-035883FM-12+0560SBKG V0201401N003612200019N0100001N1+02591+01841101601ADDAA106000091GF104991041011008001001001KA1240N+02051MA1999999095441MD1999999-0091REMSYN076AAXX  20124 82795 32597 41407 10259 20184 39544 40160 84100 333 20205 59009;EQDQ01  00002PRCP06
0167827950999992003102018004-07217-035883FM-12+0560SBKG V0201401N005712200019N0100001N1+02991+01591101231ADDAA106000091GF102991021011008001001001MA1999999095121MD1999999-0021REMSYN070AAXX  20184 82795 32597 21411 10299 20159 39512 40123 82100 333 59002;EQDQ01  00002PRCP06
0198827950999992003102100004-07217-035883FM-12+0560SBKG V0201401N004112200019N0010001N1+02211+01881101621ADDAA106000091GF102991021011008001001001KA1240M+03111MA1999999095471MD1999999-0031REMSYN088AAXX  21004 82795 32594 21408 10221 20188 39547 40162 82100 333 10311 29068 55101 59003;EQDQ01  00002PRCP06
0186827950999992003102112004-07217-035883FM-12+0560SBKG V0201401N004612200019N0100001N1+02621+01701101531ADDAA106000091GF104991041021008001001001KA1240N+02001MA1999999095391MD1999999-0051REMSYN076AAXX  21124 82795 32597 41409 10262 20170 39539 40153 84200 333 20200 59005;EQDQ01  00002PRCP06
0167827950999992003102118004-07217-035883FM-12+0560SBKG V0201401N004112200019N0100001N1+02981+01731101041ADDAA106000091GF102991021011008001001001MA1999999094941MD1999999-0081REMSYN070AAXX  21184 82795 32597 21408 10298 20173 39494 40104 82100 333 59008;EQDQ01  00002PRCP06
0198827950999992003102200004-07217-035883FM-12+0560SBKG V0200901N002610075019N0010001N1+02211+01921101401ADDAA106000091GF106991061021008001001001KA1240M+03061MA1999999095261MD1999999-0211REMSYN088AAXX  22004 82795 32594 60905 10221 20192 39526 40140 86200 333 10306 29068 55106 59021;EQDQ01  00002PRCP06
0186827950999992003102212004-07217-035883FM-12+0560SBKG V0201401N004110075019N0100001N1+02571+01741101551ADDAA106000091GF106991061021008001001001KA1240N+02031MA1999999095411MD1999999+0021REMSYN076AAXX  22124 82795 32597 61408 10257 20174 39541 40155 86200 333 20203 58002;EQDQ01  00002PRCP06
0167827950999992003102218004-07217-035883FM-12+0560SBKG V0201401N005112200019N0100001N1+02971+01711101161ADDAA106000091GF103991031021008001001001MA1999999095041MD1999999+0101REMSYN070AAXX  22184 82795 32597 31410 10297 20171 39504 40116 83200 333 58010;EQDQ01  00002PRCP06
0198827950999992003102300004-07217-035883FM-12+0560SBKG V0200901N003610075019N0010001N1+02261+01751101501ADDAA106000091GF105991051021008001001001KA1240M+03041MA1999999095361MD1999999+0101REMSYN088AAXX  23004 82795 32594 50907 10226 20175 39536 40150 85200 333 10304 29063 55097 58010;EQDQ01  00002PRCP06
0186827950999992003102312004-07217-035883FM-12+0560SBKG V0201401N003610075019N0100001N1+02521+01911101621ADDAA106000091GF107991051021008001061001KA1240N+02051MA1999999095471MD1999999+0061REMSYN076AAXX  23124 82795 32597 71407 10252 20191 39547 40162 85260 333 20205 58006;EQDQ01  00002PRCP06
0167827950999992003102318004-07217-035883FM-12+0560SBKG V0201401N003112200019N0100001N1+02871+01921101241ADDAA106000091GF105991021031008001001011MA1999999095121MD1999999+0041REMSYN070AAXX  23184 82795 32597 51406 10287 20192 39512 40124 82301 333 58004;EQDQ01  00002PRCP06
0198827950999992003102400004-07217-035883FM-12+0560SBKG V0200901N004110075019N0010001N1+02291+02031101661ADDAA106000091GF106991051021008001061001KA1240M+03051MA1999999095511MD1999999+0151REMSYN088AAXX  24004 82795 32594 60908 10229 20203 39551 40166 85260 333 10305 29074 55078 58015;EQDQ01  00002PRCP06
0186827950999992003102412004-07217-035883FM-12+0560SBKG V0201401N005110075019N0100001N1+02551+01951101701ADDAA106000091GF107991071021008001001001KA1240N+02111MA1999999095541MD1999999+0071REMSYN076AAXX  24124 82795 32597 71410 10255 20195 39554 40170 87200 333 20211 58007;EQDQ01  00002PRCP06
0167827950999992003102418004-07217-035883FM-12+0560SBKG V0201401N005112200019N0100001N1+03081+01821101211ADDAA106000091GF103991031021008001001001MA1999999095231MD1999999+0111REMSYN070AAXX  24184 82795 32597 31410 10308 20182 39523 40121 83200 333 58011;EQDQ01  00002PRCP06
0202827950999992003102500004-07217-035883FM-12+0560SBKG V0201401N005710075019N0010001N1+02201+02081101771ADDAY151061AY221061GF108991081071008001999999KA1240M+03111MA1999999095601MD1999999+0091MW1501REMSYN100AAXX  25004 82795 21594 81411 10220 20208 39560 40177 75052 887// 333 10311 29076 55092 58009 69971;
0162827950999992003102512004-07217-035883FM-12+0560SBKG V0201401N004610075019N0100001N1+02471+01761101671ADDGF106991061021008001001001KA1240N+01981MA1999999095491MD1999999-0051REMSYN082AAXX  25124 82795 22597 61409 10247 20176 39549 40167 86200 333 20198 59005 69974;
0167827950999992003102518004-07217-035883FM-12+0560SBKG V0201401N007212200019N0100001N1+02971+01691101101ADDAA106000091GF104991031021008001061001MA1999999095121MD1999999-0111REMSYN070AAXX  25184 82795 32597 41414 10297 20169 39512 40110 83260 333 59011;EQDQ01  00002PRCP06
0198827950999992003102600004-07217-035883FM-12+0560SBKG V0201401N004112200019N0010001N1+02171+01781101571ADDAA106000091GF103991031021008001001001KA1240M+02981MA1999999095401MD1999999-0201REMSYN088AAXX  26004 82795 32594 31408 10217 20178 39540 40157 83200 333 10298 29067 55095 59020;EQDQ01  00002PRCP06
0186827950999992003102612004-07217-035883FM-12+0560SBKG V0201401N005112200019N0100001N1+02561+01701101381ADDAA106000091GF106991041021008001001011KA1240N+01911MA1999999095231MD1999999-0261REMSYN076AAXX  26124 82795 32597 61410 10256 20170 39523 40138 84201 333 20191 59026;EQDQ01  00002PRCP06
0167827950999992003102618004-07217-035883FM-12+0560SBKG V0201401N005112200019N0100001N1+02761+01861101011ADDAA106000091GF103991021021008001041001MA1999999094881MD1999999-0291REMSYN070AAXX  26184 82795 32597 31410 10276 20186 39488 40101 82240 333 59029;EQDQ01  00002PRCP06
0198827950999992003102700004-07217-035883FM-12+0560SBKG V0200901N004112200019N0010001N1+02171+01761101331ADDAA106000091GF102991011011008001041001KA1240M+02941MA1999999095191MD1999999-0211REMSYN088AAXX  27004 82795 32594 20908 10217 20176 39519 40133 81140 333 10294 29068 55094 59021;EQDQ01  00002PRCP06
0190827950999992003102712004-07217-035883FM-12+0560SBKG V0201401N004610075019N0100001N1+02281+01811101371ADDAY161061AY221061GF107991071071008001001001KA1240N+01901MA1999999095191MD1999999-0041MW1021REMSYN088AAXX  27124 82795 21597 71409 10228 20181 39519 40137 70262 87700 333 20190 59004 60024;
0167827950999992003102718004-07217-035883FM-12+0560SBKG V0201401N003110450019N0100001N1+02841+01531101081ADDAA106000091GF106991041041008001031001MA1999999094951MD1999999+0071REMSYN070AAXX  27184 82795 32597 61406 10284 20153 39495 40108 84430 333 58007;EQDQ01  00002PRCP06
0208827950999992003102800004-07217-035883FM-12+0560SBKG V0200901N003112200019N0010001N1+02101+01761101431ADDAA106000091GA1001+999999999GF100991001001999999001001KA1240M+02931MA1999999095241MD1999999+0051REMSYN082AAXX  28004 82795 32994 00906 10210 20176 39524 40143 333 10293 29070 55061 58005;EQDQ01  00002PRCP06
0186827950999992003102812004-07217-035883FM-12+0560SBKG V0201401N003112200019N0100001N1+02451+01791101501ADDAA106000091GF105991031021008001001011KA1240N+01951MA1999999095321MD1999999+0131REMSYN076AAXX  28124 82795 32597 51406 10245 20179 39532 40150 83201 333 20195 58013;EQDQ01  00002PRCP06
0167827950999992003102818004-07217-035883FM-12+0560SBKG V0201401N003610450019N0100001N1+02861+01781101161ADDAA106000091GF106991031031008001041001MA1999999095041MD1999999+0041REMSYN070AAXX  28184 82795 32597 61407 10286 20178 39504 40116 83340 333 58004;EQDQ01  00002PRCP06
0198827950999992003102900004-07217-035883FM-12+0560SBKG V0201401N004110075019N0010001N1+02221+01961101511ADDAA106000091GF105991051021008001001001KA1240M+03101MA1999999095351MD1999999+0111REMSYN088AAXX  29004 82795 32594 51408 10222 20196 39535 40151 85200 333 10310 29072 55086 58011;EQDQ01  00002PRCP06
0186827950999992003102912004-07217-035883FM-12+0560SBKG V0201401N003610075019N0100001N1+02561+01901101471ADDAA106000091GF106991061021008001001001KA1240N+02011MA1999999095331MD1999999+0011REMSYN076AAXX  29124 82795 32597 61407 10256 20190 39533 40147 86200 333 20201 58001;EQDQ01  00002PRCP06
0167827950999992003102918004-07217-035883FM-12+0560SBKG V0201401N005112200019N0100001N1+02911+01781101131ADDAA106000091GF103991011021008001001011MA1999999095071MD1999999-0021REMSYN070AAXX  29184 82795 32597 31410 10291 20178 39507 40113 81201 333 59002;EQDQ01  00002PRCP06
0214827950999992003103000004-07217-035883FM-12+0560SBKG V0200901N005710075019N0010001N1+02221+01921101461ADDAA106000091GF107991999021008001001001KA1240M+03061MA1999999095321MD1999999-0031REMSYN088AAXX  30004 82795 32594 70911 10222 20192 39532 40146 85200 333 10306 29071 55100 59003;EQDQ01+000052SCOTLCQ02  00002PRCP06
0186827950999992003103012004-07217-035883FM-12+0560SBKG V0201401N003610075019N0100001N1+02521+01741101441ADDAA106000091GF105991051021008001001001KA1240N+02001MA1999999095291MD1999999-0041REMSYN076AAXX  30124 82795 32597 51407 10252 20174 39529 40144 85200 333 20200 59004;EQDQ01  00002PRCP06
0167827950999992003103018004-07217-035883FM-12+0560SBKG V0201401N004610075019N0100001N1+03021+01801101131ADDAA106000091GF105991051031008001001001MA1999999094921MD1999999-0151REMSYN070AAXX  30184 82795 32597 51409 10302 20180 39492 40113 85300 333 59015;EQDQ01  00002PRCP06
0198827950999992003103100004-07217-035883FM-12+0560SBKG V0200901N005110075019N0010001N1+02271+01961101381ADDAA106000091GF107991071021008001001001KA1240M+03081MA1999999095241MD1999999-0081REMSYN088AAXX  31004 82795 32594 70910 10227 20196 39524 40138 87200 333 10308 29069 55096 59008;EQDQ01  00002PRCP06
0186827950999992003103112004-07217-035883FM-12+0560SBKG V0201401N004610075019N0100001N1+02561+01781101331ADDAA106000091GF106991061061008001001001KA1240N+02021MA1999999095201MD1999999-0091REMSYN076AAXX  31124 82795 32597 61409 10256 20178 39520 40133 86600 333 20202 59009;EQDQ01  00002PRCP06
0167827950999992003103118004-07217-035883FM-12+0560SBKG V0201401N005112200019N0100001N1+02911+01781100951ADDAA106000091GF104991021021008001001011MA1999999094881MD1999999-0051REMSYN070AAXX  31184 82795 32597 41410 10291 20178 39488 40095 82201 333 59005;EQDQ01  00002PRCP06
0198827950999992003110100004-07217-035883FM-12+0560SBKG V0200901N003612200019N0010001N1+02191+01841101331ADDAA106000091GF103991021011008001001011KA1240M+03011MA1999999095191MD1999999-0051REMSYN088AAXX  01004 82795 32594 30907 10219 20184 39519 40133 82101 333 10301 29068 55102 59005;EQDQ01  00002PRCP06
0186827950999992003110112004-07217-035883FM-12+0560SBKG V0201401N003610075019N0100001N1+02561+01801101381ADDAA106000091GF105991051021008001001001KA1240N+02031MA1999999095231MD1999999+0031REMSYN076AAXX  01124 82795 32597 51407 10256 20180 39523 40138 85200 333 20203 58003;EQDQ01  00002PRCP06
0167827950999992003110118004-07217-035883FM-12+0560SBKG V0201401N003610450019N0100001N1+02811+01811101081ADDAA106000091GF107991021021008001041061MA1999999094961MD1999999+0081REMSYN070AAXX  01184 82795 32597 71407 10281 20181 39496 40108 82246 333 58008;EQDQ01  00002PRCP06
0198827950999992003110200004-07217-035883FM-12+0560SBKG V0200901N004611050019N0010001N1+02221+01921101351ADDAA106000091GF106991041021008001001021KA1240M+02901MA1999999095221MD1999999+0031REMSYN088AAXX  02004 82795 32594 60909 10222 20192 39522 40135 84202 333 10290 29071 55053 58003;EQDQ01  00002PRCP06
0186827950999992003110212004-07217-035883FM-12+0560SBKG V0200901N003610075019N0100001N1+02221+01921101491ADDAA106000091GF108991081071008001999999KA1240N+02031MA1999999095301MD1999999+0071REMSYN076AAXX  02124 82795 32597 80907 10222 20192 39530 40149 887// 333 20203 58007;EQDQ01  00002PRCP06
0167827950999992003110218004-07217-035883FM-12+0560SBKG V0200901N002610450019N0100001N1+02841+01881101001ADDAA106000091GF107991041021008001051001MA1999999094901MD1999999-0061REMSYN070AAXX  02184 82795 32597 70905 10284 20188 39490 40100 84250 333 59006;EQDQ01  00002PRCP06
0198827950999992003110300004-07217-035883FM-12+0560SBKG V0200901N004110450019N0100001N1+02201+01901101281ADDAA106000091GF106991031021008001051001KA1240M+02971MA1999999095101MD1999999-0121REMSYN088AAXX  03004 82795 32597 60908 10220 20190 39510 40128 83250 333 10297 29076 55061 59012;EQDQ01  00002PRCP06
0186827950999992003110312004-07217-035883FM-12+0560SBKG V0201401N003612200019N0100001N1+02641+01881101331ADDAA106000091GF104991041021008001001001KA1240N+02051MA1999999095201MD1999999-0101REMSYN076AAXX  03124 82795 32597 41407 10264 20188 39520 40133 84200 333 20205 59010;EQDQ01  00002PRCP06
0167827950999992003110318004-07217-035883FM-12+0560SBKG V0201401N004612200019N0100001N1+03001+01781100931ADDAA106000091GF103991031021008001001001MA1999999094851MD1999999-0051REMSYN070AAXX  03184 82795 32597 31409 10300 20178 39485 40093 83200 333 59005;EQDQ01  00002PRCP06
0198827950999992003110400004-07217-035883FM-12+0560SBKG V0200901N005710075019N0010001N1+02281+02011101181ADDAA106000091GF106991061021008001001001KA1240M+03211MA1999999095071MD1999999-0031REMSYN088AAXX  04004 82795 32594 60911 10228 20201 39507 40118 86200 333 10321 29070 55109 59003;EQDQ01  00002PRCP06
0186827950999992003110412004-07217-035883FM-12+0560SBKG V0200901N003610450019N0010001N1+02541+01811101401ADDAA106000091GF106991041021008001021001KA1240N+02071MA1999999095261MD1999999+0061REMSYN076AAXX  04124 82795 32594 60907 10254 20181 39526 40140 84220 333 20207 58006;EQDQ01  00002PRCP06
0167827950999992003110418004-07217-035883FM-12+0560SBKG V0200501N003612200019N0100001N1+03041+01641101071ADDAA106000091GF105991011021008001001041MA1999999094981MD1999999+0131REMSYN070AAXX  04184 82795 32597 50507 10304 20164 39498 40107 81204 333 58013;EQDQ01  00002PRCP06
0198827950999992003110500004-07217-035883FM-12+0560SBKG V0200901N003610450019N0010001N1+02251+01981101381ADDAA106000091GF105991041021008001041001KA1240M+03131MA1999999095241MD1999999+0171REMSYN088AAXX  05004 82795 32594 50907 10225 20198 39524 40138 84240 333 10313 29069 55099 58017;EQDQ01  00002PRCP06
0186827950999992003110512004-07217-035883FM-12+0560SBKG V0201401N001010075019N0100001N1+02641+01831101491ADDAA106000091GF106991061021008001001001KA1240N+02141MA1999999095361MD1999999+0201REMSYN076AAXX  05124 82795 32597 61402 10264 20183 39536 40149 86200 333 20214 58020;EQDQ01  00002PRCP06
0167827950999992003110518004-07217-035883FM-12+0560SBKG V0201401N003112200019N0100001N1+03231+01571100891ADDAA106000091GF104991041021008001001001MA1999999094831MD1999999-0151REMSYN070AAXX  05184 82795 32597 41406 10323 20157 39483 40089 84200 333 59015;EQDQ01  00002PRCP06
0198827950999992003110600004-07217-035883FM-12+0560SBKG V0200901N004110075019N0010001N1+02301+02031101441ADDAA106000091GF106991061021008001001001KA1240M+03291MA1999999095321MD1999999+0081REMSYN088AAXX  06004 82795 32594 60908 10230 20203 39532 40144 86200 333 10329 29067 55087 58008;EQDQ01  00002PRCP06
0186827950999992003110612004-07217-035883FM-12+0560SBKG V0201401N003110075019N0100001N1+02601+01841101411ADDAA106000091GF105991051021008001001001KA1240N+02051MA1999999095291MD1999999-0071REMSYN076AAXX  06124 82795 32597 51406 10260 20184 39529 40141 85200 333 20205 59007;EQDQ01  00002PRCP06
0167827950999992003110618004-07217-035883FM-12+0560SBKG V0201401N004112200019N0100001N1+03111+01661100971ADDAA106000091GF104991041021008001001001MA1999999094911MD1999999+0081REMSYN070AAXX  06184 82795 32597 41408 10311 20166 39491 40097 84200 333 58008;EQDQ01  00002PRCP06
0208827950999992003110700004-07217-035883FM-12+0560SBKG V0200901N003612200019N0010001N1+02261+01901101361ADDAA106000091GA1001+999999999GF100991001001999999001001KA1240M+03261MA1999999095231MD1999999-0091REMSYN082AAXX  07004 82795 32994 00907 10226 20190 39523 40136 333 10326 29066 55099 59009;EQDQ01  00002PRCP06
0186827950999992003110712004-07217-035883FM-12+0560SBKG V0200501N004610075019N0100001N1+02631+01761101301ADDAA106000091GF105991051021008001001001KA1240N+02131MA1999999095181MD1999999-0111REMSYN076AAXX  07124 82795 32597 50509 10263 20176 39518 40130 85200 333 20213 59011;EQDQ01  00002PRCP06
0167827950999992003110718004-07217-035883FM-12+0560SBKG V0201401N004612200019N0100001N1+03111+01661100921ADDAA106000091GF103991031021008001001001MA1999999094861MD1999999-0051REMSYN070AAXX  07184 82795 32597 31409 10311 20166 39486 40092 83200 333 59005;EQDQ01  00002PRCP06
0198827950999992003110800004-07217-035883FM-12+0560SBKG V0200901N004610075019N0010001N1+02271+01941101291ADDAA106000091GF106991061021008001001001KA1240M+03181MA1999999095171MD1999999-0061REMSYN088AAXX  08004 82795 32594 60909 10227 20194 39517 40129 86200 333 10318 29066 55104 59006;EQDQ01  00002PRCP06
0186827950999992003110812004-07217-035883FM-12+0560SBKG V0201401N003610075019N0100001N1+02621+01761101421ADDAA106000091GF105991051021008001001001KA1240N+02051MA1999999095301MD1999999+0301REMSYN076AAXX  08124 82795 32597 51407 10262 20176 39530 40142 85200 333 20205 58030;EQDQ01  00002PRCP06
0167827950999992003110818004-07217-035883FM-12+0560SBKG V0201401N003612200019N0100001N1+02911+01871101121ADDAA106000091GF103991031021008001001001MA1999999095021MD1999999+0161REMSYN070AAXX  08184 82795 32597 31407 10291 20187 39502 40112 83200 333 58016;EQDQ01  00002PRCP06
0198827950999992003110900004-07217-035883FM-12+0560SBKG V0201401N004110075019N0010001N1+02241+01991101451ADDAA106000091GF105991051061008001001001KA1240M+03121MA1999999095311MD1999999+0141REMSYN088AAXX  09004 82795 32594 51408 10224 20199 39531 40145 85600 333 10312 29071 55096 58014;EQDQ01  00002PRCP06
0186827950999992003110912004-07217-035883FM-12+0560SBKG V0201401N003112200019N0100001N1+02611+01741101481ADDAA106000091GF104991041021008001001001KA1240N+02061MA1999999095341MD1999999+0001REMSYN076AAXX  09124 82795 32597 41406 10261 20174 39534 40148 84200 333 20206 58000;EQDQ01  00002PRCP06
0167827950999992003110918004-07217-035883FM-12+0560SBKG V0201401N005112200019N0100001N1+02991+01571101101ADDAA106000091GF104991041021008001001001MA1999999095011MD1999999-0011REMSYN070AAXX  09184 82795 32597 41410 10299 20157 39501 40110 84200 333 59001;EQDQ01  00002PRCP06
0198827950999992003111000004-07217-035883FM-12+0560SBKG V0201401N003612200019N0010001N1+02191+02041101501ADDAA106000091GF103991031061008001001001KA1240M+03111MA1999999095361MD1999999+0051REMSYN088AAXX  10004 82795 32594 31407 10219 20204 39536 40150 83600 333 10311 29071 55103 58005;EQDQ01  00002PRCP06
0186827950999992003111012004-07217-035883FM-12+0560SBKG V0201401N006210075019N0100001N1+02661+01851101451ADDAA106000091GF106991061021008001001001KA1240N+02051MA1999999095311MD1999999-0031REMSYN076AAXX  10124 82795 32597 61412 10266 20185 39531 40145 86200 333 20205 59003;EQDQ01  00002PRCP06
0167827950999992003111018004-07217-035883FM-12+0560SBKG V0201401N006711050019N0100001N1+02831+01681101141ADDAA106000091GF105991021021008001001031MA1999999095021MD1999999+0011REMSYN070AAXX  10184 82795 32597 51413 10283 20168 39502 40114 82203 333 58001;EQDQ01  00002PRCP06
0198827950999992003111100004-07217-035883FM-12+0560SBKG V0200901N004612200019N0010001N1+02271+01981101351ADDAA106000091GF104991031021008001001011KA1240M+03081MA1999999095231MD1999999-0131REMSYN088AAXX  11004 82795 32594 40909 10227 20198 39523 40135 83201 333 10308 29070 55100 59013;EQDQ01  00002PRCP06
0186827950999992003111112004-07217-035883FM-12+0560SBKG V0201401N005710075019N0100001N1+02611+01821101351ADDAA106000091GF105991051021008001001001KA1240N+02021MA1999999095231MD1999999-0081REMSYN076AAXX  11124 82795 32597 51411 10261 20182 39523 40135 85200 333 20202 59008;EQDQ01  00002PRCP06
0195827950999992003111118004-07217-035883FM-12+0560SBKG V0201401N007210450019N0100001N1+02441+01981101251ADDAA106000091AY121061AY221061GF106991041071008001021001MA1999999095061MD1999999+0041MW1151REMSYN076AAXX  11184 82795 31597 61414 10244 20198 39506 40125 71522 84720 333 58004;EQDQ01  00002PRCP06
0198827950999992003111200004-07217-035883FM-12+0560SBKG V0200901N004612200019N0010001N1+02201+01901101471ADDAA106000091GF104991021021008001041001KA1240M+02981MA1999999095261MD1999999+0031REMSYN088AAXX  12004 82795 32594 40909 10220 20190 39526 40147 82240 333 10298 29075 55081 58003;EQDQ01  00002PRCP06
0190827950999992003111212004-07217-035883FM-12+0560SBKG V0201401N003110450019N0100001N1+02511+01941101551ADDAY151061AY221061GF106991031021008001021001KA1240N+02011MA1999999095391MD1999999+0161MW1021REMSYN088AAXX  12124 82795 21597 61406 10251 20194 39539 40155 70252 83220 333 20201 58016 69994;
0167827950999992003111218004-07217-035883FM-12+0560SBKG V0201401N005112200019N0100001N1+03111+01621101121ADDAA106000091GF104991041031008001001001MA1999999095041MD1999999-0021REMSYN070AAXX  12184 82795 32597 41410 10311 20162 39504 40112 84300 333 59002;EQDQ01  00002PRCP06
0198827950999992003111300004-07217-035883FM-12+0560SBKG V0200901N004110075019N0010001N1+02231+01941101551ADDAA106000091GF105991051021008001001001KA1240M+03131MA1999999095391MD1999999+0131REMSYN088AAXX  13004 82795 32594 50908 10223 20194 39539 40155 85200 333 10313 29070 55086 58013;EQDQ01  00002PRCP06
0186827950999992003111312004-07217-035883FM-12+0560SBKG V0201401N003610075019N0100001N1+02531+01791101601ADDAA106000091GF105991051021008001001001KA1240N+02031MA1999999095441MD1999999+0051REMSYN076AAXX  13124 82795 32597 51407 10253 20179 39544 40160 85200 333 20203 58005;EQDQ01  00002PRCP06
0167827950999992003111318004-07217-035883FM-12+0560SBKG V0200501N003612200019N0100001N1+03011+01911101201ADDAA106000091GF104991041031008001001001MA1999999095141MD1999999+0101REMSYN070AAXX  13184 82795 32597 40507 10301 20191 39514 40120 84300 333 58010;EQDQ01  00002PRCP06
0198827950999992003111400004-07217-035883FM-12+0560SBKG V0200901N004112200019N0010001N1+02211+02011101541ADDAA106000091GF104991041021008001001001KA1240M+03161MA1999999095381MD1999999-0011REMSYN088AAXX  14004 82795 32594 40908 10221 20201 39538 40154 84200 333 10316 29074 55102 59001;EQDQ01  00002PRCP06
0186827950999992003111412004-07217-035883FM-12+0560SBKG V0201401N004112200019N0100001N1+02631+01671101531ADDAA106000091GF102991021011008001001001KA1240N+02031MA1999999095391MD1999999-0061REMSYN076AAXX  14124 82795 32597 21408 10263 20167 39539 40153 82100 333 20203 59006;EQDQ01  00002PRCP06
0167827950999992003111418004-07217-035883FM-12+0560SBKG V0200501N004612200019N0100001N1+03141+01501101101ADDAA106000091GF102991021011008001001001MA1999999095011MD1999999-0051REMSYN070AAXX  14184 82795 32597 20509 10314 20150 39501 40110 82100 333 59005;EQDQ01  00002PRCP06
0198827950999992003111500004-07217-035883FM-12+0560SBKG V0200901N005110075019N0010001N1+02331+02051101461ADDAA106000091GF106991061021008001001001KA1240M+03221MA1999999095331MD1999999-0051REMSYN088AAXX  15004 82795 32594 60910 10233 20205 39533 40146 86200 333 10322 29066 55100 59005;EQDQ01  00002PRCP06
0140827950999992003111512004-07217-035883FM-12+0560SBKG V0201401N004619999999N0100001N1+02611+01741999999ADDAA106000091GF105991999999008001999999REMSYN072AAXX  15124 82795 32597 51409 10261 20174 20213 39535 40148 59004 83201;EQDQ01  00002PRCP06
0167827950999992003111518004-07217-035883FM-12+0560SBKG V0201401N005112200019N0100001N1+03091+01601101121ADDAA106000091GF101991011011008001001001MA1999999095051MD1999999+0041REMSYN070AAXX  15184 82795 32597 11410 10309 20160 39505 40112 81100 333 58004;EQDQ01  00002PRCP06
0214827950999992003111600004-07217-035883FM-12+0560SBKG V0201401N004610075019N0010001N1+02341+01891101461ADDAA106000091GF106991061021008001001001KA1240M+99999MA1999999095331MD1999999+0001REMSYN088AAXX  16004 82795 32594 61409 10234 20189 39533 40146 86200 333 11031 29063 55100 58000;EQDQ01  00002PRCP06Q02 -00312ATMX  
0190827950999992003111612004-07217-035883FM-12+0560SBKG V0201401N004610075019N0100001N1+02561+01881101461ADDAY161061AY221061GF106991061061008001001001KA1240N+02111MA1999999095331MD1999999+0021MW1021REMSYN088AAXX  16124 82795 21597 61409 10256 20188 39533 40146 70262 86600 333 20211 58002 69914;
0167827950999992003111618004-07217-035883FM-12+0560SBKG V0201401N004610075019N0100001N1+03011+01841101091ADDAA106000091GF105991051021008001001001MA1999999095011MD1999999-0041REMSYN070AAXX  16184 82795 32597 51409 10301 20184 39501 40109 85200 333 59004;EQDQ01  00002PRCP06
0198827950999992003111700004-07217-035883FM-12+0560SBKG V0201401N003110075019N0010001N1+02301+01961101431ADDAA106000091GF106991061021008001001001KA1240M+03031MA1999999095291MD1999999-0041REMSYN088AAXX  17004 82795 32594 61406 10230 20196 39529 40143 86200 333 10303 29070 55071 59004;EQDQ01  00002PRCP06
0190827950999992003111712004-07217-035883FM-12+0560SBKG V0201401N004610075019N0100001N1+02571+02061101351ADDAY161061AY221061GF106991051021008001001011KA1240N+02071MA1999999095231MD1999999-0101MW1021REMSYN088AAXX  17124 82795 21597 61409 10257 20206 39523 40135 70262 85201 333 20207 59010 60054;
0167827950999992003111718004-07217-035883FM-12+0560SBKG V0201401N003110075019N0100001N1+03021+01691101011ADDAA106000091GF105991051021008001001001MA1999999094931MD1999999-0081REMSYN070AAXX  17184 82795 32597 51406 10302 20169 39493 40101 85200 333 59008;EQDQ01  00002PRCP06
0198827950999992003111800004-07217-035883FM-12+0560SBKG V0200901N005710075019N0010001N1+02291+01981101351ADDAA106000091GF105991051021008001001001KA1240M+03101MA1999999095221MD1999999-0071REMSYN088AAXX  18004 82795 32594 50911 10229 20198 39522 40135 85200 333 10310 29071 55093 59007;EQDQ01  00002PRCP06
0186827950999992003111812004-07217-035883FM-12+0560SBKG V0201401N004610075019N0100001N1+02581+01851101351ADDAA106000091GF107991051021008001061001KA1240N+02061MA1999999095251MD1999999+0021REMSYN076AAXX  18124 82795 32597 71409 10258 20185 39525 40135 85260 333 20206 58002;EQDQ01  00002PRCP06
0167827950999992003111818004-07217-035883FM-12+0560SBKG V0201401N004612200019N0100001N1+03131+01501100901ADDAA106000091GF103991031021008001001001MA1999999094831MD1999999-0101REMSYN070AAXX  18184 82795 32597 31409 10313 20150 39483 40090 83200 333 59010;EQDQ01  00002PRCP06
0198827950999992003111900004-07217-035883FM-12+0560SBKG V0200901N004112200019N0010001N1+02341+01951101251ADDAA106000091GF102991011011008001041001KA1240M+03161MA1999999095131MD1999999-0091REMSYN088AAXX  19004 82795 32594 20908 10234 20195 39513 40125 81140 333 10316 29065 55081 59009;EQDQ01  00002PRCP06
0190827950999992003111912004-07217-035883FM-12+0560SBKG V0201401N004110075019N0100001N1+02351+01871101231ADDAY161061AY221061GF108991081071008001999999KA1240N+01991MA1999999095141MD1999999-0091MW1021REMSYN088AAXX  19124 82795 21597 81408 10235 20187 39514 40123 70262 887// 333 20199 59009 60024;
0167827950999992003111918004-07217-035883FM-12+0560SBKG V0201401N003612200019N0100001N1+03021+01661100941ADDAA106000091GF104991041021008001001001MA1999999094851MD1999999+0031REMSYN070AAXX  19184 82795 32597 41407 10302 20166 39485 40094 84200 333 58003;EQDQ01  00002PRCP06
0198827950999992003112000004-07217-035883FM-12+0560SBKG V0200901N003612200019N0010001N1+02171+01881101331ADDAA106000091GF103991031041008001001001KA1240M+03091MA1999999095161MD1999999+0031REMSYN088AAXX  20004 82795 32594 30907 10217 20188 39516 40133 83400 333 10309 29071 55076 58003;EQDQ01  00002PRCP06
0186827950999992003112012004-07217-035883FM-12+0560SBKG V0200901N004610075019N0100001N1+02631+01861101441ADDAA106000091GF105991051021008001001001KA1240N+02011MA1999999095301MD1999999+0161REMSYN076AAXX  20124 82795 32597 50909 10263 20186 39530 40144 85200 333 20201 58016;EQDQ01  00002PRCP06
0167827950999992003112018004-07217-035883FM-12+0560SBKG V0201401N003612200019N0100001N1+03011+01751101081ADDAA106000091GF103991031021008001001001MA1999999094991MD1999999+0131REMSYN070AAXX  20184 82795 32597 31407 10301 20175 39499 40108 83200 333 58013;EQDQ01  00002PRCP06
0198827950999992003112100004-07217-035883FM-12+0560SBKG V0200901N005110075019N0010001N1+02301+01961101411ADDAA106000091GF105991051021008001001001KA1240M+03131MA1999999095291MD1999999+0131REMSYN088AAXX  21004 82795 32594 50910 10230 20196 39529 40141 85200 333 10313 29068 55107 58013;EQDQ01  00002PRCP06
0209827950999992003112112004-07217-035883FM-12+0560SBKG V0201401N004612200019N0100001N1+02701+02011101511ADDAY161061AY221061GF103991999021008001001001KA1240N+02101MA1999999095391MD1999999+0091MW1021REMSYN088AAXX  21124 82795 21597 31409 10270 20201 39539 40151 70262 86200 333 20210 58009 69924;EQDQ01+000062SCOTLC
0167827950999992003112118004-07217-035883FM-12+0560SBKG V0201401N006210075019N0100001N1+03111+01801101021ADDAA106000091GF105991051031008001001001MA1999999094961MD1999999-0031REMSYN070AAXX  21184 82795 32597 51412 10311 20180 39496 40102 85300 333 59003;EQDQ01  00002PRCP06
0198827950999992003112200004-07217-035883FM-12+0560SBKG V0201401N006210075019N0010001N1+02301+02031101411ADDAA106000091GF106991061021008001001001KA1240M+03141MA1999999095301MD1999999+0011REMSYN088AAXX  22004 82795 32594 61412 10230 20203 39530 40141 86200 333 10314 29070 55099 58001;EQDQ01  00002PRCP06
0186827950999992003112212004-07217-035883FM-12+0560SBKG V0201401N005710075019N0100001N1+02701+01801101221ADDAA106000091GF105991051021008001001001KA1240N+02071MA1999999095121MD1999999-0171REMSYN076AAXX  22124 82795 32597 51411 10270 20180 39512 40122 85200 333 20207 59017;EQDQ01  00002PRCP06
0167827950999992003112218004-07217-035883FM-12+0560SBKG V0201401N004112200019N0100001N1+02961+01571100961ADDAA106000091GF103991031021008001001001MA1999999094881MD1999999-0081REMSYN070AAXX  22184 82795 32597 31408 10296 20157 39488 40096 83200 333 59008;EQDQ01  00002PRCP06
0198827950999992003112300004-07217-035883FM-12+0560SBKG V0201401N005712200019N0010001N1+02261+01921101341ADDAA106000091GF104991041021008001001001KA1240M+03131MA1999999095221MD1999999-0081REMSYN088AAXX  23004 82795 32594 41411 10226 20192 39522 40134 84200 333 10313 29066 55104 59008;EQDQ01  00002PRCP06
0186827950999992003112312004-07217-035883FM-12+0560SBKG V0201401N005110075019N0100001N1+02561+01851101341ADDAA106000091GF105991051021008001001001KA1240N+02051MA1999999095211MD1999999+0091REMSYN076AAXX  23124 82795 32597 51410 10256 20185 39521 40134 85200 333 20205 58009;EQDQ01  00002PRCP06
0199827950999992003112318004-07217-035883FM-12+0560SBKG V0200901N004612200019N0100001N1+03031+01551100921ADDAA106000091GF102991021011008001001001MA1999999999999MD1999999-0031REMSYN070AAXX  23184 82795 32597 20909 10303 20155 39785 40092 82100 333 59003;EQDQ01+097853APOSP Q02  00002PRCP06Q03 097853APOSP 
0198827950999992003112400004-07217-035883FM-12+0560SBKG V0200901N005110075019N0100001N1+02231+01941101351ADDAA106000091GF106991061021008001001001KA1240M+03111MA1999999095221MD1999999+0001REMSYN088AAXX  24004 82795 32597 60910 10223 20194 39522 40135 86200 333 10311 29068 55106 58000;EQDQ01  00002PRCP06
0186827950999992003112412004-07217-035883FM-12+0560SBKG V0201401N004610075019N0100001N1+02481+01751101361ADDAA106000091GF105991051021008001001001KA1240N+02001MA1999999095221MD1999999+0011REMSYN076AAXX  24124 82795 32597 51409 10248 20175 39522 40136 85200 333 20200 58001;EQDQ01  00002PRCP06
0167827950999992003112418004-07217-035883FM-12+0560SBKG V0201401N003612200019N0100001N1+03031+01471101041ADDAA106000091GF103991031021008001001001MA1999999094951MD1999999+0121REMSYN070AAXX  24184 82795 32597 31407 10303 20147 39495 40104 83200 333 58012;EQDQ01  00002PRCP06
0208827950999992003112500004-07217-035883FM-12+0560SBKG V0200901N004612200019N0010001N1+02191+01841101391ADDAA106000091GA1001+999999999GF100991001001999999001001KA1240M+03171MA1999999095241MD1999999+0021REMSYN082AAXX  25004 82795 32994 00909 10219 20184 39524 40139 333 10317 29066 55108 58002;EQDQ01  00002PRCP06
0186827950999992003112512004-07217-035883FM-12+0560SBKG V0201401N004610075019N0100001N1+02601+01871101521ADDAA106000091GF105991051021008001001001KA1240N+01991MA1999999095381MD1999999+0161REMSYN076AAXX  25124 82795 32597 51409 10260 20187 39538 40152 85200 333 20199 58016;EQDQ01  00002PRCP06
0167827950999992003112518004-07217-035883FM-12+0560SBKG V0201401N005712200019N0100001N1+03041+01641101141ADDAA106000091GF103991031021008001001001MA1999999095031MD1999999+0081REMSYN070AAXX  25184 82795 32597 31411 10304 20164 39503 40114 83200 333 58008;EQDQ01  00002PRCP06
0198827950999992003112600004-07217-035883FM-12+0560SBKG V0200901N008712200019N0010001N1+02211+01971101531ADDAA106000091GF103991031021008001001001KA1240M+03171MA1999999095391MD1999999+0151REMSYN088AAXX  26004 82795 32594 30917 10221 20197 39539 40153 83200 333 10317 29070 55097 58015;EQDQ01  00002PRCP06
0186827950999992003112612004-07217-035883FM-12+0560SBKG V0200901N004610075019N0100001N1+02661+01871101541ADDAA106000091GF105991051011008001001001KA1240N+02081MA1999999095401MD1999999+0021REMSYN076AAXX  26124 82795 32597 50909 10266 20187 39540 40154 85100 333 20208 58002;EQDQ01  00002PRCP06
0167827950999992003112618004-07217-035883FM-12+0560SBKG V0201401N005112200019N0100001N1+03041+01681101251ADDAA106000091GF106991021021008001001041MA1999999095151MD1999999+0121REMSYN070AAXX  26184 82795 32597 61410 10304 20168 39515 40125 82204 333 58012;EQDQ01  00002PRCP06
0186827950999992003112712004-07217-035883FM-12+0560SBKG V0201401N003612200019N0100001N1+02541+01881101471ADDAA106000091GF103991031021008001001001KA1240N+02031MA1999999095321MD1999999-0081REMSYN076AAXX  27124 82795 32597 31407 10254 20188 39532 40147 83200 333 20203 59008;EQDQ01  00002PRCP06
0167827950999992003112718004-07217-035883FM-12+0560SBKG V0201401N003110075019N0100001N1+03081+01521100921ADDAA106000091GF106991051021008001021001MA1999999094851MD1999999-0301REMSYN070AAXX  27184 82795 32597 61406 10308 20152 39485 40092 85220 333 59030;EQDQ01  00002PRCP06
0198827950999992003112800004-07217-035883FM-12+0560SBKG V0200901N004112200019N0010001N1+02231+01881101261ADDAA106000091GF104991041021008001001001KA1240M+03161MA1999999095121MD1999999-0271REMSYN088AAXX  28004 82795 32594 40908 10223 20188 39512 40126 84200 333 10316 29067 55091 59027;EQDQ01  00002PRCP06
0186827950999992003112812004-07217-035883FM-12+0560SBKG V0200901N004112200019N0100001N1+02601+01681101311ADDAA106000091GF103991031011008001001001KA1240N+01981MA1999999095181MD1999999-0141REMSYN076AAXX  28124 82795 32597 30908 10260 20168 39518 40131 83100 333 20198 59014;EQDQ01  00002PRCP06
0167827950999992003112818004-07217-035883FM-12+0560SBKG V0201401N003612200019N0100001N1+03021+01731100831ADDAA106000091GF104991041021008001001001MA1999999094741MD1999999+0101REMSYN070AAXX  28184 82795 32597 41407 10302 20173 39474 40083 84200 333 58010;EQDQ01  00002PRCP06
0198827950999992003112900004-07217-035883FM-12+0560SBKG V0200901N004110075019N0010001N1+02211+01881101111ADDAA106000091GF106991061021008001001001KA1240M+03151MA1999999094991MD1999999-0131REMSYN088AAXX  29004 82795 32594 60908 10221 20188 39499 40111 86200 333 10315 29067 55106 59013;EQDQ01  00002PRCP06
0186827950999992003112912004-07217-035883FM-12+0560SBKG V0201401N003610075019N0100001N1+02601+01741101261ADDAA106000091GF105991051021008001001001KA1240N+02041MA1999999095141MD1999999-0041REMSYN076AAXX  29124 82795 32597 51407 10260 20174 39514 40126 85200 333 20204 59004;EQDQ01  00002PRCP06
0167827950999992003112918004-07217-035883FM-12+0560SBKG V0201401N004612200019N0100001N1+03071+01581100871ADDAA106000091GF103991031021008001001001MA1999999094801MD1999999+0051REMSYN070AAXX  29184 82795 32597 31409 10307 20158 39480 40087 83200 333 58005;EQDQ01  00002PRCP06
0214827950999992003113000004-07217-035883FM-12+0560SBKG V0201401N005712200019N0010001N1+02331+01861101231ADDAA106000091GF102991999011008001001001KA1240M+03161MA1999999095111MD1999999+0121REMSYN088AAXX  30004 82795 32594 21411 10233 20186 39511 40123 83100 333 10316 29065 55100 58012;EQDQ01+000032SCOTLCQ02  00002PRCP06
0202827950999992003113012004-07217-035883FM-12+0560SBKG V0201401N004619999999N0100001N1+02611+01791101351ADDAA106000091GF106991999021008001001001KA1240N+02101MA1999999095221MD1999999+0081REMSYN076AAXX  30124 82795 32597 61409 10261 20179 39522 40135 83200 333 20210 58008;EQDQ01+000032SCOTLCQ02  00002PRCP06
0167827950999992003113018004-07217-035883FM-12+0560SBKG V0201401N003611050019N0100001N1+03021+01501101001ADDAA106000091GF105991011021008001021031MA1999999094981MD1999999+0201REMSYN070AAXX  30184 82795 32597 51407 10302 20150 39498 40100 81223 333 58020;EQDQ01  00002PRCP06
0198827950999992003120100004-07217-035883FM-12+0560SBKG V0201401N003610075019N0010001N1+02281+01801101411ADDAA106000091GF105991051061008001001001KA1240M+03141MA1999999095271MD1999999+0161REMSYN088AAXX  01004 82795 32594 51407 10228 20180 39527 40141 85600 333 10314 29065 55095 58016;EQDQ01  00002PRCP06
0202827950999992003120112004-07217-035883FM-12+0560SBKG V0201401N004112200019N0100001N1+02651+01851101321ADDAA106000091GF104991999011008001001001KA1240N+02131MA1999999095201MD1999999-0021REMSYN076AAXX  01124 82795 32597 41408 10265 20185 39520 40132 80100 333 20213 59002;EQDQ01+000002SCOTLCQ02  00002PRCP06
0167827950999992003120118004-07217-035883FM-12+0560SBKG V0201401N003112200019N0100001N1+03141+01661100891ADDAA106000091GF103991031021008001001001MA1999999094821MD1999999+0161REMSYN070AAXX  01184 82795 32597 31406 10314 20166 39482 40089 83200 333 58016;EQDQ01  00002PRCP06
0198827950999992003120200004-07217-035883FM-12+0560SBKG V0200901N005112200019N0010001N1+02311+01981101191ADDAA106000091GF103991031011008001001001KA1240M+03161MA1999999095081MD1999999-0191REMSYN088AAXX  02004 82795 32594 30910 10231 20198 39508 40119 83100 333 10316 29066 55098 59019;EQDQ01  00002PRCP06
0190827950999992003120212004-07217-035883FM-12+0560SBKG V0200901N003612200019N0100001N1+02501+01981101311ADDAY161061AY221061GF106991041021008001001011KA1240N+02121MA1999999095181MD1999999-0021MW1021REMSYN088AAXX  02124 82795 21597 60907 10250 20198 39518 40131 70262 84201 333 20212 59002 69924;
0167827950999992003120218004-07217-035883FM-12+0560SBKG V0201401N004612200019N0100001N1+03021+01801100921ADDAA106000091GF104991021021008001001011MA1999999094841MD1999999+0031REMSYN070AAXX  02184 82795 32597 41409 10302 20180 39484 40092 82201 333 58003;EQDQ01  00002PRCP06
0198827950999992003120300004-07217-035883FM-12+0560SBKG V0200901N004610075019N0010001N1+02271+01981101191ADDAA106000091GF106991061021008001001001KA1240M+03121MA1999999095051MD1999999+0001REMSYN088AAXX  03004 82795 32594 60909 10227 20198 39505 40119 86200 333 10312 29072 55082 58000;EQDQ01  00002PRCP06
0186827950999992003120312004-07217-035883FM-12+0560SBKG V0200901N002610075019N0100001N1+02521+01891101381ADDAA106000091GF106991061021008001001001KA1240N+02081MA1999999095241MD1999999+0061REMSYN076AAXX  03124 82795 32597 60905 10252 20189 39524 40138 86200 333 20208 58006;EQDQ01  00002PRCP06
0183827950999992003120318004-07217-035883FM-12+0560SBKG V0201401N003612200019N0100001N1+03161+01711100891ADDAA106000091GF104991999021008001001001MA1999999094821MD1999999+0021REMSYN070AAXX  03184 82795 32597 41407 10316 20171 39482 40089 82200 333 58002;EQDQ01+000022SCOTLCQ02  00002PRCP06
0198827950999992003120400004-07217-035883FM-12+0560SBKG V0200901N004612200019N0010001N1+02211+01941101221ADDAA106000091GF102991021021008001001001KA1240M+03211MA1999999095081MD1999999+0031REMSYN088AAXX  04004 82795 32594 20909 10221 20194 39508 40122 82200 333 10321 29070 55094 58003;EQDQ01  00002PRCP06
0186827950999992003120412004-07217-035883FM-12+0560SBKG V0200901N004610075019N0100001N1+02591+01961101351ADDAA106000091GF106991061021008001001001KA1240N+02031MA1999999095221MD1999999-0021REMSYN076AAXX  04124 82795 32597 60909 10259 20196 39522 40135 86200 333 20203 59002;EQDQ01  00002PRCP06
0183827950999992003120418004-07217-035883FM-12+0560SBKG V0201401N003112200019N0100001N1+03231+01521100981ADDAA106000091GF104991999011008001001001MA1999999094921MD1999999+0101REMSYN070AAXX  04184 82795 32597 41406 10323 20152 39492 40098 82100 333 58010;EQDQ01+000022SCOTLCQ02  00002PRCP06
0198827950999992003120500004-07217-035883FM-12+0560SBKG V0200901N005110075019N0010001N1+02301+02011101231ADDAA106000091GF106991061021008001001001KA1240M+03231MA1999999095121MD1999999+0041REMSYN088AAXX  05004 82795 32594 60910 10230 20201 39512 40123 86200 333 10323 29068 55104 58004;EQDQ01  00002PRCP06
0186827950999992003120512004-07217-035883FM-12+0560SBKG V0200901N004112200019N0100001N1+02591+01991101401ADDAA106000091GF104991041021008001001001KA1240N+02131MA1999999095281MD1999999+0061REMSYN076AAXX  05124 82795 32597 40908 10259 20199 39528 40140 84200 333 20213 58006;EQDQ01  00002PRCP06
0167827950999992003120518004-07217-035883FM-12+0560SBKG V0201401N005112200019N0100001N1+03121+01641100951ADDAA106000091GF103991031021008001001001MA1999999094891MD1999999-0041REMSYN070AAXX  05184 82795 32597 31410 10312 20164 39489 40095 83200 333 59004;EQDQ01  00002PRCP06
0198827950999992003120600004-07217-035883FM-12+0560SBKG V0200901N005112200019N0010001N1+02321+02031101291ADDAA106000091GF103991031021008001001001KA1240M+03171MA1999999095171MD1999999+0051REMSYN088AAXX  06004 82795 32594 30910 10232 20203 39517 40129 83200 333 10317 29070 55090 58005;EQDQ01  00002PRCP06
0186827950999992003120612004-07217-035883FM-12+0560SBKG V0200901N005110075019N0100001N1+02691+01861101441ADDAA106000091GF105991051021008001001001KA1240N+02081MA1999999095321MD1999999+0041REMSYN076AAXX  06124 82795 32597 50910 10269 20186 39532 40144 85200 333 20208 58004;EQDQ01  00002PRCP06
0167827950999992003120618004-07217-035883FM-12+0560SBKG V0200901N004612200019N0100001N1+03131+01691100991ADDAA106000091GF102991021011008001001001MA1999999094931MD1999999+0041REMSYN070AAXX  06184 82795 32597 20909 10313 20169 39493 40099 82100 333 58004;EQDQ01  00002PRCP06
0208827950999992003120700004-07217-035883FM-12+0560SBKG V0200901N004612200019N0010001N1+02321+02001101271ADDAA106000091GA1001+999999999GF100991001001999999001001KA1240M+03221MA1999999095171MD1999999+0001REMSYN082AAXX  07004 82795 32994 00909 10232 20200 39517 40127 333 10322 29067 55106 58000;EQDQ01  00002PRCP06
0186827950999992003120712004-07217-035883FM-12+0560SBKG V0200901N004612200019N0100001N1+02601+02011101421ADDAA106000091GF104991041021008001001001KA1240N+02161MA1999999095301MD1999999-0021REMSYN076AAXX  07124 82795 32597 40909 10260 20201 39530 40142 84200 333 20216 59002;EQDQ01  00002PRCP06
0167827950999992003120718004-07217-035883FM-12+0560SBKG V0200901N003112200019N0100001N1+03211+01671101031ADDAA106000091GF102991021011008001001001MA1999999094991MD1999999+0061REMSYN070AAXX  07184 82795 32597 20906 10321 20167 39499 40103 82100 333 58006;EQDQ01  00002PRCP06
0198827950999992003120800004-07217-035883FM-12+0560SBKG V0200901N005110075019N0010001N1+02391+02091101401ADDAA106000091GF106991061021008001001001KA1240M+03271MA1999999095291MD1999999+0121REMSYN088AAXX  08004 82795 32594 60910 10239 20209 39529 40140 86200 333 10327 29069 55098 58012;EQDQ01  00002PRCP06
0186827950999992003120812004-07217-035883FM-12+0560SBKG V0201401N005719999999N0100001N1+02601+02011101531ADDAA106000091GF105991999021008001001001KA1240N+02151MA1999999095391MD1999999+0091REMSYN076AAXX  08124 82795 32597 51411 10260 20201 39539 40153 84200 333 20215 58009;EQDQ01  00002PRCP06
0167827950999992003120818004-07217-035883FM-12+0560SBKG V0201401N006712200019N0100001N1+03011+01611101261ADDAA106000091GF103991031021008001001001MA1999999095171MD1999999+0181REMSYN070AAXX  08184 82795 32597 31413 10301 20161 39517 40126 83200 333 58018;EQDQ01  00002PRCP06
0198827950999992003120900004-07217-035883FM-12+0560SBKG V0201401N005712200019N0010001N1+02301+02001101551ADDAA106000091GF102991021011008001001001KA1240M+03141MA1999999095421MD1999999+0131REMSYN088AAXX  09004 82795 32594 21411 10230 20200 39542 40155 82100 333 10314 29070 55104 58013;EQDQ01  00002PRCP06
0186827950999992003120912004-07217-035883FM-12+0560SBKG V0200901N004610075019N0100001N1+02541+01811101571ADDAA106000091GF105991051021008001001001KA1240N+02061MA1999999095421MD1999999+0031REMSYN076AAXX  09124 82795 32597 50909 10254 20181 39542 40157 85200 333 20206 58003;EQDQ01  00002PRCP06
0167827950999992003120918004-07217-035883FM-12+0560SBKG V0200901N003112200019N0100001N1+03101+01461101221ADDAA106000091GF103991031011008001001001MA1999999095121MD1999999+0051REMSYN070AAXX  09184 82795 32597 30906 10310 20146 39512 40122 83100 333 58005;EQDQ01  00002PRCP06
0208827950999992003121000004-07217-035883FM-12+0560SBKG V0200901N005112200019N0010001N1+02311+01811101591ADDAA106000091GA1001+999999999GF100991001001999999001001KA1240M+03161MA1999999095441MD1999999+0021REMSYN082AAXX  10004 82795 32994 00910 10231 20181 39544 40159 333 10316 29062 55098 58002;EQDQ01  00002PRCP06
0186827950999992003121012004-07217-035883FM-12+0560SBKG V0201401N003610075019N0100001N1+02531+01761101511ADDAA106000091GF105991051021008001001001KA1240N+01951MA1999999095371MD1999999-0051REMSYN076AAXX  10124 82795 32597 51407 10253 20176 39537 40151 85200 333 20195 59005;EQDQ01  00002PRCP06
0167827950999992003121018004-07217-035883FM-12+0560SBKG V0201401N003612200019N0100001N1+03021+01731101271ADDAA106000091GF103991031021008001001001MA1999999095171MD1999999-0051REMSYN070AAXX  10184 82795 32597 31407 10302 20173 39517 40127 83200 333 59005;EQDQ01  00002PRCP06
0198827950999992003121100004-07217-035883FM-12+0560SBKG V0200901N004112200019N0010001N1+02351+01991101471ADDAA106000091GF103991021021008001001011KA1240M+03521MA1999999095341MD1999999-0101REMSYN088AAXX  11004 82795 32594 30908 10235 20199 39534 40147 82201 333 10352 29067 55105 59010;EQDQ01  00002PRCP06
0162827950999992003121108004-07217-035883FM-15+0560SBKG V0201201N002110300019N0112651N1+02201+02101999999ADDGA1041+003009999GA2071+030009999GF107991999999999999999999MA1101691999999MW1001REMMET052SBKG 110800Z 12004KT 9999 SCT010 BKN100 22/21 Q1017;EQDQ01+000000PRSWM2
0139827950999992003121109004-07217-035883FM-15+0560SBKG V0201301N003112200019N0112651N1+02201+02101999999ADDGA1041+003009999GF104991999999999999999999MA1101801999999MW1001REMMET045SBKG 110900Z 13006KT 9999 SCT010 22/21 Q1018;EQDQ01+000000PRSWM2
0139827950999992003121110004-07217-035883FM-15+0560SBKG V0201301N005112200019N0112651N1+02401+02001999999ADDGA1041+004509999GF104991999999999999999999MA1101801999999MW1001REMMET045SBKG 111000Z 13010KT 9999 SCT015 24/20 Q1018;EQDQ01+000000PRSWM2
0186827950999992003121112004-07217-035883FM-12+0560SBKG V0201401N004612200019N0100001N1+02691+01961101551ADDAA106000091GF106991041021008001001011KA1240N+02151MA1999999095431MD1999999+0061REMSYN076AAXX  11124 82795 32597 61409 10269 20196 39543 40155 84201 333 20215 58006;EQDQ01  00002PRCP06
0195827950999992003121118004-07217-035883FM-12+0560SBKG V0201801N005110075019N0100001N1+02441+02011101351ADDAA106000091AY121061AY221061GF107991051071008001021001MA1999999095211MD1999999+0041MW1151REMSYN076AAXX  11184 82795 31597 71810 10244 20201 39521 40135 71522 85720 333 58004;EQDQ01  00002PRCP06
0198827950999992003121200004-07217-035883FM-12+0560SBKG V0201401N004612200019N0010001N1+02281+01961101431ADDAA106000091GF104991021021008001001011KA1240M+03091MA1999999095311MD1999999-0031REMSYN088AAXX  12004 82795 32594 41409 10228 20196 39531 40143 82201 333 10309 29076 55067 59003;EQDQ01  00002PRCP06
0186827950999992003121212004-07217-035883FM-12+0560SBKG V0201401N006210075019N0100001N1+02491+01901101461ADDAA106000091GF107991071071008001001001KA1240N+02101MA1999999095301MD1999999-0131REMSYN076AAXX  12124 82795 32597 71412 10249 20190 39530 40146 87700 333 20210 59013;EQDQ01  00002PRCP06
0167827950999992003121218004-07217-035883FM-12+0560SBKG V0201401N003610075019N0100001N1+02841+01601101161ADDAA106000091GF108991051031008001001061MA1999999095061MD1999999-0151REMSYN070AAXX  12184 82795 32597 81407 10284 20160 39506 40116 85306 333 59015;EQDQ01  00002PRCP06
0198827950999992003121400004-07217-035883FM-12+0560SBKG V0200901N005110075019N0010001N1+02321+01941101311ADDAA106000091GF105991051021008001001001KA1240M+03261MA1999999095191MD1999999-0121REMSYN088AAXX  14004 82795 32594 50910 10232 20194 39519 40131 85200 333 10326 29070 55100 59012;EQDQ01  00002PRCP06
0186827950999992003121412004-07217-035883FM-12+0560SBKG V0200901N004110075019N0020001N1+02641+01931101461ADDAA106000091GF106991061021008001001001KA1240N+02131MA1999999095331MD1999999+0031REMSYN076AAXX  14124 82795 32595 60908 10264 20193 39533 40146 86200 333 20213 58003;EQDQ01  00002PRCP06
0167827950999992003121418004-07217-035883FM-12+0560SBKG V0200901N005712200019N0100001N1+02961+02021101091ADDAA106000091GF104991041021008001001001MA1999999095011MD1999999+0121REMSYN070AAXX  14184 82795 32597 40911 10296 20202 39501 40109 84200 333 58012;EQDQ01  00002PRCP06
0198827950999992003121500004-07217-035883FM-12+0560SBKG V0200901N005110075019N0010001N1+02321+02031101401ADDAA106000091GF106991061021008001001001KA1240M+03171MA1999999095281MD1999999+0091REMSYN088AAXX  15004 82795 32594 60910 10232 20203 39528 40140 86200 333 10317 29072 55088 58009;EQDQ01  00002PRCP06
0186827950999992003121512004-07217-035883FM-12+0560SBKG V0201401N005110075019N0100001N1+02671+01901101511ADDAA106000091GF106991061021008001001001KA1240N+02131MA1999999095391MD1999999+0061REMSYN076AAXX  15124 82795 32597 61410 10267 20190 39539 40151 86200 333 20213 58006;EQDQ01  00002PRCP06
0167827950999992003121518004-07217-035883FM-12+0560SBKG V0201401N003610075019N0100001N1+03131+01791101001ADDAA106000091GF105991051031008001001001MA1999999095021MD1999999+0011REMSYN070AAXX  15184 82795 32597 51407 10313 20179 39502 40100 85300 333 58001;EQDQ01  00002PRCP06
0198827950999992003121600004-07217-035883FM-12+0560SBKG V0200901N004612200019N0010001N1+02331+01931101411ADDAA106000091GF103991031021008001001001KA1240M+03131MA1999999095301MD1999999+0021REMSYN088AAXX  16004 82795 32594 30909 10233 20193 39530 40141 83200 333 10313 29066 55091 58002;EQDQ01  00002PRCP06
0186827950999992003121612004-07217-035883FM-12+0560SBKG V0200901N002612200019N0100001N1+02631+01831101491ADDAA106000091GF104991041011008001001001KA1240N+02081MA1999999095361MD1999999-0031REMSYN076AAXX  16124 82795 32597 40905 10263 20183 39536 40149 84100 333 20208 59003;EQDQ01  00002PRCP06
0167827950999992003121618004-07217-035883FM-12+0560SBKG V0201401N005110450019N0100001N1+02751+01921101171ADDAA106000091GF106991031031008001021001MA1999999095051MD1999999+0031REMSYN070AAXX  16184 82795 32597 61410 10275 20192 39505 40117 83320 333 58003;EQDQ01  00002PRCP06
0198827950999992003121700004-07217-035883FM-12+0560SBKG V0200901N004112200019N0010001N1+02211+01941101451ADDAA106000091GF103991031021008001001001KA1240M+03131MA1999999095311MD1999999+0011REMSYN088AAXX  17004 82795 32594 30908 10221 20194 39531 40145 83200 333 10313 29073 55078 58001;EQDQ01  00002PRCP06
0186827950999992003121712004-07217-035883FM-12+0560SBKG V0200901N003612200019N0100001N1+02531+01911101451ADDAA106000091GF104991041021008001001001KA1240N+02111MA1999999095301MD1999999-0061REMSYN076AAXX  17124 82795 32597 40907 10253 20191 39530 40145 84200 333 20211 59006;EQDQ01  00002PRCP06
0167827950999992003121718004-07217-035883FM-12+0560SBKG V0201401N005110075019N0100001N1+02911+01991101091ADDAA106000091GF105991051031008001001001MA1999999095001MD1999999-0051REMSYN070AAXX  17184 82795 32597 51410 10291 20199 39500 40109 85300 333 59005;EQDQ01  00002PRCP06
0198827950999992003121800004-07217-035883FM-12+0560SBKG V0201401N005110075019N0010001N1+02281+01981101421ADDAA106000091GF105991051021008001001001KA1240M+03181MA1999999095281MD1999999-0031REMSYN088AAXX  18004 82795 32594 51410 10228 20198 39528 40142 85200 333 10318 29073 55087 59003;EQDQ01  00002PRCP06
0190827950999992003121812004-07217-035883FM-12+0560SBKG V0201401N003610075019N0100001N1+02601+01841101531ADDAY161061AY221061GF106991061021008001001001KA1240N+02081MA1999999095401MD1999999+0011MW1021REMSYN088AAXX  18124 82795 21597 61407 10260 20184 39540 40153 70262 86200 333 20208 58001 69934;
0167827950999992003121918004-07217-035883FM-12+0560SBKG V0201401N005111050019N0100001N1+02931+01421101331ADDAA106000091GF105991011031008001001051MA1999999095231MD1999999+0151REMSYN070AAXX  19184 82795 32597 51410 10293 20142 39523 40133 81305 333 58015;EQDQ01  00002PRCP06
0208827950999992003122000004-07217-035883FM-12+0560SBKG V0201401N003112200019N0010001N1+02281+01811101731ADDAA106000091GA1001+999999999GF100991001001999999001001KA1240M+03011MA1999999095591MD1999999+0161REMSYN082AAXX  20004 82795 32994 01406 10228 20181 39559 40173 333 10301 29062 55053 58016;EQDQ01  00002PRCP06
0202827950999992003122012004-07217-035883FM-12+0560SBKG V0201401N004112200019N0100001N1+02581+01821101651ADDAA106000091GF103991999021008001001001KA1240N+01951MA1999999095501MD1999999+0021REMSYN076AAXX  20124 82795 32597 31408 10258 20182 39550 40165 86200 333 20195 58002;EQDQ01+000062SCOTLCQ02  00002PRCP06
0077827950999992003122018004-07217-035883FM-12+0560SBKG V02099999999999999999N9999999N1+99999+99999999999REMSYN068AAXX  20184 82795 32597 619 10294 20169 39516 40128 82304 333 59007;
0208827950999992003122100004-07217-035883FM-12+0560SBKG V0201401N003112200019N0010001N1+02291+02161101991ADDAA106000091GA1001+999999999GF100991001001999999001001KA1240M+03021MA1999999095481MD1999999-0091REMSYN082AAXX  21004 82795 32994 01406 10229 20216 39548 40199 333 10302 29074 55104 59009;EQDQ01  00002PRCP06
0186827950999992003122112004-07217-035883FM-12+0560SBKG V0201401N003612200019N0100001N1+02641+01631101681ADDAA106000091GF103991031031008001001001KA1240N+02021MA1999999095531MD1999999+0031REMSYN076AAXX  21124 82795 32597 31407 10264 20163 39553 40168 83300 333 20202 58003;EQDQ01  00002PRCP06
0208827950999992003122200004-07217-035883FM-12+0560SBKG V0201401N004112200019N0010001N1+02291+01881101521ADDAA106000091GA1001+999999999GF100991001001999999001001KA1240M+03221MA1999999095391MD1999999-0091REMSYN082AAXX  22004 82795 32994 01408 10229 20188 39539 40152 333 10322 29062 55100 59009;EQDQ01  00002PRCP06
0209827950999992003122212004-07217-035883FM-12+0560SBKG V0201401N003610075019N0040001N1+02291+01861101511ADDAY161061AY221061GF108991999071008001011999KA1240N+02081MA1999999095341MD1999999-0191MW1501REMSYN088AAXX  22124 82795 21596 81407 10229 20186 39534 40151 75062 8871/ 333 20208 59019 69914;EQDQ01+000082SCOTLC
0148827950999992003122218004-07217-035883FM-12+0560SBKG V0201401N004612200019N0100001N1+03181+01651101031ADDAA106000021GF104991041021008001001001MA1999999094971MD1999999-0091REMSYN070AAXX  22184 82795 32597 41409 10318 20165 39497 40103 84200 333 59009;
0198827950999992003122300004-07217-035883FM-12+0560SBKG V0200901N004610075019N0010001N1+02371+02111101361ADDAA106000091GF106991061021008001001001KA1240M+03211MA1999999095201MD1999999-0191REMSYN088AAXX  23004 82795 32594 60909 10237 20211 39520 40136 86200 333 10321 29076 55064 59019;EQDQ01  00002PRCP06
0190827950999992003122312004-07217-035883FM-12+0560SBKG V0201401N003110450019N0100001N1+02591+01721101331ADDAY151061AY221061GF105991031031008001041001KA1240N+02141MA1999999095211MD1999999-0131MW1021REMSYN088AAXX  23124 82795 21597 51406 10259 20172 39521 40133 70252 83340 333 20214 59013 69964;
0167827950999992003122318004-07217-035883FM-12+0560SBKG V0201401N005712200019N0100001N1+03041+01661100991ADDAA106000091GF103991031021008001001001MA1999999094921MD1999999-0051REMSYN070AAXX  23184 82795 32597 31411 10304 20166 39492 40099 83200 333 59005;EQDQ01  00002PRCP06
0198827950999992003122400004-07217-035883FM-12+0560SBKG V0200901N004112200019N0010001N1+02261+01991101221ADDAA106000091GF103991031011008001001001KA1240M+02231MA1999999095151MD1999999-0051REMSYN088AAXX  24004 82795 32594 30908 10226 20199 39515 40122 83100 333 10223 29068 55098 59005;EQDQ01  00002PRCP06
0186827950999992003122412004-07217-035883FM-12+0560SBKG V0200901N003610075019N0100001N1+02561+01801101381ADDAA106000091GF105991051021008001001001KA1240N+02081MA1999999095241MD1999999+0031REMSYN076AAXX  24124 82795 32597 50907 10256 20180 39524 40138 85200 333 20208 58003;EQDQ01  00002PRCP06
0167827950999992003122418004-07217-035883FM-12+0560SBKG V0201401N004112200019N0100001N1+03031+01551101061ADDAA106000091GF102991021011008001001001MA1999999094971MD1999999+0051REMSYN070AAXX  24184 82795 32597 21408 10303 20155 39497 40106 82100 333 58005;EQDQ01  00002PRCP06
0198827950999992003122500004-07217-035883FM-12+0560SBKG V0200901N003612200019N0010001N1+02391+01991101351ADDAA106000091GF103991031041008001001001KA1240M+03211MA1999999095231MD1999999+0081REMSYN088AAXX  25004 82795 32594 30907 10239 20199 39523 40135 83400 333 10321 29065 55103 58008;EQDQ01  00002PRCP06
0186827950999992003122512004-07217-035883FM-12+0560SBKG V0201401N003610075019N0100001N1+02601+01991101401ADDAA106000091GF105991051021008001001001KA1240N+02101MA1999999095291MD1999999+0051REMSYN076AAXX  25124 82795 32597 51407 10260 20199 39529 40140 85200 333 20210 58005;EQDQ01  00002PRCP06
0167827950999992003122518004-07217-035883FM-12+0560SBKG V0201401N004112200019N0100001N1+03121+01791101031ADDAA106000091GF103991031021008001001001MA1999999094971MD1999999+0001REMSYN070AAXX  25184 82795 32597 31408 10312 20179 39497 40103 83200 333 58000;EQDQ01  00002PRCP06
0186827950999992003122612004-07217-035883FM-12+0560SBKG V0201401N004110075019N0100001N1+02601+01841101351ADDAA106000091GF106991061021008001001001KA1240N+02101MA1999999095211MD1999999-0081REMSYN076AAXX  26124 82795 32597 61408 10260 20184 39521 40135 86200 333 20210 59008;EQDQ01  00002PRCP06
0167827950999992003122618004-07217-035883FM-12+0560SBKG V0201401N004612200019N0100001N1+03101+01771100951ADDAA106000091GF103991031021008001001001MA1999999095871MD1999999-0101REMSYN070AAXX  26184 82795 32597 31409 10310 20177 39587 40095 83200 333 59010;EQDQ01  00002PRCP06
0198827950999992003122700004-07217-035883FM-12+0560SBKG V0200901N004112200019N0010001N1+02301+01901101211ADDAA106000091GF102991021011008001001001KA1240M+03151MA1999999095101MD1999999-0201REMSYN088AAXX  27004 82795 32594 20908 10230 20190 39510 40121 82100 333 10315 29066 55112 59020;EQDQ01  00002PRCP06
0186827950999992003122712004-07217-035883FM-12+0560SBKG V0201401N004610075019N0100001N1+02601+01791101291ADDAA106000091GF106991061021008001001001KA1240N+02081MA1999999095171MD1999999-0041REMSYN076AAXX  27124 82795 32597 61409 10260 20179 39517 40129 86200 333 20208 59004;EQDQ01  00002PRCP06
0183827950999992003122718004-07217-035883FM-12+0560SBKG V0201401N005112200019N0100001N1+03131+01541100831ADDAA106000091GF104991999021008001001001MA1999999094791MD1999999-0081REMSYN070AAXX  27184 82795 32597 41410 10313 20154 39479 40083 83200 333 59008;EQDQ01+000032SCOTLCQ02  00002PRCP06
0214827950999992003122800004-07217-035883FM-12+0560SBKG V0200901N004112200019N0010001N1+02321+01981101181ADDAA106000091GF104991999021008001001001KA1240M+03241MA1999999095071MD1999999-0031REMSYN088AAXX  28004 82795 32594 40908 10232 20198 39507 40118 83200 333 10324 29065 55089 59003;EQDQ01+000032SCOTLCQ02  00002PRCP06
0190827950999992003122812004-07217-035883FM-12+0560SBKG V0201401N004110075019N0100001N1+02601+02101101281ADDAY161061AY221061GF106991061021008001001001KA1240N+02151MA1999999095161MD1999999-0011MW1021REMSYN088AAXX  28124 82795 21597 61408 10260 20210 39516 40128 70262 86200 333 20215 59001 69924;
0183827950999992003122818004-07217-035883FM-12+0560SBKG V0200901N004119999999N0100001N1+02631+02031100951ADDAA106000091GF106991999021008001001001MA1999999094841MD1999999+0051REMSYN070AAXX  28184 82795 32597 60908 10263 20203 39484 40095 84200 333 58005;EQDQ01+000042SCOTLCQ02  00002PRCP06
0221827950999992003122900004-07217-035883FM-12+0560SBKG V0200901N003610075019N0010001N1+02291+02091101211ADDAY161061AY221061GF107991999021008001001001KA1240M+02951MA1999999095101MD1999999+0031MW1021REMSYN100AAXX  29004 82795 21594 70907 10229 20209 39510 40121 70262 86200 333 10295 29080 55050 58003 69991;EQDQ01+000062SCOTLC
0190827950999992003122912004-07217-035883FM-12+0560SBKG V0201401N005110075019N0100001N1+02411+02031101231ADDAY161061AY221061GF107991071071008001001001KA1240N+02131MA1999999095091MD1999999-0071MW1021REMSYN088AAXX  29124 82795 21597 71410 10241 20203 39509 40123 70262 87700 333 20213 59007 60014;
0167827950999992003122918004-07217-035883FM-12+0560SBKG V0201401N004610450019N0100001N1+02641+02031101051ADDAA106000091GF106991031041008001041051MA1999999094921MD1999999+0081REMSYN070AAXX  29184 82795 32597 61409 10264 20203 39492 40105 83445 333 58008;EQDQ01  00002PRCP06
0198827950999992003123000004-07217-035883FM-12+0560SBKG V0201401N004110450019N0010001N1+02291+02031101311ADDAA106000091GF107991031021008001061061KA1240M+02761MA1999999095241MD1999999+0141REMSYN088AAXX  30004 82795 32594 71408 10229 20203 39524 40131 83266 333 10276 29080 55037 58014;EQDQ01  00002PRCP06
0186827950999992003123012004-07217-035883FM-12+0560SBKG V0201401N005112200019N0100001N1+02541+01951101381ADDAA106000091GF106991041021008001001011KA1240N+02101MA1999999095241MD1999999+0151REMSYN076AAXX  30124 82795 32597 61410 10254 20195 39524 40138 84201 333 20210 58015;EQDQ01  00002PRCP06
0167827950999992003123018004-07217-035883FM-12+0560SBKG V0201401N004610450019N0100001N1+02931+01971101031ADDAA106000091GF106991031021008001061011MA1999999094941MD1999999+0021REMSYN070AAXX  30184 82795 32597 61409 10293 20197 39494 40103 83261 333 58002;EQDQ01  00002PRCP06
0186827950999992003123112004-07217-035883FM-12+0560SBKG V0201401N004110075019N0100001N1+02521+01821101431ADDAA106000091GF106991061021008001001001KA1240N+02061MA1999999095291MD1999999+0051REMSYN076AAXX  31124 82795 32597 61408 10252 20182 39529 40143 86200 333 20206 58005;EQDQ01  00002PRCP06
0167827950999992003123118004-07217-035883FM-12+0560SBKG V0201401N005110075019N0100001N1+02891+01731101031ADDAA106000091GF107991061031008001031001MA1999999094941MD1999999+0001REMSYN070AAXX  31184 82795 32597 71410 10289 20173 39494 40103 86330 333 58000;EQDQ01  00002PRCP06
