0208829830999992003010100004-09380-040480FM-12+037099999V0201401N001512200019N0020001N1+02921+01861101161ADDAA106000091GA1001+999999999GF100991001001999999001001KA1240M+03261MA1999999097041MD1999999+0021REMSYN082AAXX  01004 82983 32995 01403 10292 20186 39704 40116 333 10326 29056 55085 58002;EQDQ01  00002PRCP06
0186829830999992003010112004-09380-040480FM-12+037099999V0200901N003110450019N0020001N1+02761+01911101301ADDAA106000091GF105991041011008001011001KA1240N+02421MA1999999097191MD1999999-0151REMSYN076AAXX  01124 82983 32595 50906 10276 20191 39719 40130 84110 333 20242 59015;EQDQ01  00002PRCP06
0167829830999992003010118004-09380-040480FM-12+037099999V0201801N002610075019N0020001N1+03441+01841100781ADDAA106000091GF105991051011008001001001MA1999999096721MD1999999-0241REMSYN070AAXX  01184 82983 32595 51805 10344 20184 39672 40078 85100 333 59024;EQDQ01  00002PRCP06
0198829830999992003010200004-09380-040480FM-12+037099999V0200501N001510075019N0020001N1+03041+01971101131ADDAA106000091GF105991051021008001001001KA1240M+03521MA1999999096941MD1999999-0101REMSYN088AAXX  02004 82983 32595 50503 10304 20197 39694 40113 85200 333 10352 29051 55111 59010;EQDQ01  00002PRCP06
0190829830999992003010212004-09380-040480FM-12+037099999V0203601N001510450019N0020001N1+02541+02231101311ADDAY161061AY261061GF106991041011008001021001KA1240N+02401MA1999999097201MD1999999+0011MW1031REMSYN088AAXX  02124 82983 21595 63603 10254 20223 39720 40131 70366 84120 333 20240 58001 60104;
0167829830999992003010218004-09380-040480FM-12+037099999V0200901N001512200019N0020001N1+03281+01541100781ADDAA106000091GF103991031011008001021001MA1999999096701MD1999999-0021REMSYN070AAXX  02184 82983 32595 30903 10328 20154 39670 40078 83120 333 59002;EQDQ01  00002PRCP06
0208829830999992003010300004-09380-040480FM-12+037099999V0209999C000012200019N0020001N1+02861+02161100961ADDAA106000091GA1001+999999999GF100991001001999999001001KA1240M+03421MA1999999096841MD1999999-0101REMSYN082AAXX  03004 82983 32995 00000 10286 20216 39684 40096 333 10342 29066 55088 59010;EQDQ01  00002PRCP06
0186829830999992003010312004-09380-040480FM-12+037099999V0200901N003112200019N0020001N1+02841+01991101171ADDAA106000091GF102991021011008001001001KA1240N+02501MA1999999097071MD1999999-0131REMSYN076AAXX  03124 82983 32595 20906 10284 20199 39707 40117 82100 333 20250 59013;EQDQ01  00002PRCP06
0167829830999992003010318004-09380-040480FM-12+037099999V0200501N003112200019N0020001N1+03481+01661100741ADDAA106000091GF102991021011008001001001MA1999999096681MD1999999-0021REMSYN070AAXX  03184 82983 32595 20506 10348 20166 39668 40074 82100 333 59002;EQDQ01  00002PRCP06
0208829830999992003010400004-09380-040480FM-12+037099999V0209999C000012200019N0020001N1+02941+02211100921ADDAA106000091GA1001+999999999GF100991001001999999001001KA1240M+03561MA1999999096831MD1999999-0011REMSYN082AAXX  04004 82983 32995 00000 10294 20221 39683 40092 333 10356 29056 55114 59001;EQDQ01  00002PRCP06
0186829830999992003010412004-09380-040480FM-12+037099999V0200901N003112200019N0020001N1+02761+01911101281ADDAA106000091GF102991021011008001001001KA1240N+02531MA1999999097171MD1999999+0101REMSYN076AAXX  04124 82983 32595 20906 10276 20191 39717 40128 82100 333 20253 58010;EQDQ01  00002PRCP06
0167829830999992003010418004-09380-040480FM-12+037099999V0201801N002612200019N0020001N1+03481+01611100801ADDAA106000091GF104991041021008001001001MA1999999096741MD1999999+0061REMSYN070AAXX  04184 82983 32595 41805 10348 20161 39674 40080 84200 333 58006;EQDQ01  00002PRCP06
0208829830999992003010500004-09380-040480FM-12+037099999V0201801N001512200019N0020001N1+02941+02161100961ADDAA106000091GA1001+999999999GF100991001001999999001001KA1240M+03531MA1999999096871MD1999999+0041REMSYN082AAXX  05004 82983 32995 01803 10294 20216 39687 40096 333 10353 29055 55103 58004;EQDQ01  00002PRCP06
0196829830999992003010512004-09380-040480FM-12+037099999V0200901N003112200019N0020001N1+02761+02021101201ADDAA106000091GA1001+999999999GF100991001001999999001001KA1240N+02471MA1999999097101MD1999999-0071REMSYN070AAXX  05124 82983 32995 00906 10276 20202 39710 40120 333 20247 59007;EQDQ01  00002PRCP06
0167829830999992003010518004-09380-040480FM-12+037099999V0202301N001510075019N0020001N1+03501+01721100761ADDAA106000091GF105991051021008001001001MA1999999096701MD1999999-0041REMSYN070AAXX  05184 82983 32595 52303 10350 20172 39670 40076 85200 333 59004;EQDQ01  00002PRCP06
0208829830999992003010600004-09380-040480FM-12+037099999V0203201N001512200019N0020001N1+03061+02021100981ADDAA106000091GA1001+999999999GF100991001001999999001001KA1240M+03591MA1999999096891MD1999999+0021REMSYN082AAXX  06004 82983 32995 03203 10306 20202 39689 40098 333 10359 29052 55115 58002;EQDQ01  00002PRCP06
0196829830999992003010612004-09380-040480FM-12+037099999V0200901N004112200019N0020001N1+02941+01971101211ADDAA106000091GA1001+999999999GF100991001001999999001001KA1240N+02591MA1999999097141MD1999999+0041REMSYN070AAXX  06124 82983 32995 00908 10294 20197 39714 40121 333 20259 58004;EQDQ01  00002PRCP06
0167829830999992003010618004-09380-040480FM-12+037099999V0201801N001010075019N0020001N1+03681+01741100791ADDAA106000091GF106991061021008001001001MA1999999096661MD1999999-0041REMSYN070AAXX  06184 82983 32595 61802 10368 20174 39666 40079 86200 333 59004;EQDQ01  00002PRCP06
0198829830999992003010700004-09380-040480FM-12+037099999V0203601N001512200019N0020001N1+03241+01821100801ADDAA106000091GF103991031011008001001001KA1240M+03721MA1999999096741MD1999999-0151REMSYN088AAXX  07004 82983 32595 33603 10324 20182 39674 40080 83100 333 10372 29044 55115 59015;EQDQ01  00002PRCP06
0196829830999992003010712004-09380-040480FM-12+037099999V0203601N003112200019N0020001N1+03041+01911101141ADDAA106000091GA1001+999999999GF100991001001999999001001KA1240N+02701MA1999999097081MD1999999-0061REMSYN070AAXX  07124 82983 32995 03606 10304 20191 39708 40114 333 20270 59006;EQDQ01  00002PRCP06
0167829830999992003010718004-09380-040480FM-12+037099999V0202701N003112200019N0020001N1+03561+01951100771ADDAA106000091GF103991031011008001001001MA1999999096691MD1999999+0031REMSYN070AAXX  07184 82983 32595 32706 10356 20195 39669 40077 83100 333 58003;EQDQ01  00002PRCP06
0208829830999992003010800004-09380-040480FM-12+037099999V0202701N001512200019N0020001N1+03041+02031100891ADDAA106000091GA1001+999999999GF100991001001999999001001KA1240M+03621MA1999999096831MD1999999+0091REMSYN082AAXX  08004 82983 32995 02703 10304 20203 39683 40089 333 10362 29050 55110 58009;EQDQ01  00002PRCP06
0167829830999992003010818004-09380-040480FM-12+037099999V0201401N002610075019N0020001N1+03581+01841100821ADDAA106000091GF105991051011008001001001MA1999999096761MD1999999+0071REMSYN070AAXX  08184 82983 32595 51405 10358 20184 39676 40082 85100 333 58007;EQDQ01  00002PRCP06
0202829830999992003010900004-09380-040480FM-12+037099999V0201401N001512200019N0020001N1+02841+02311101061ADDAY121061AY261061GF102991021011008001001001KA1240M+03701MA1999999096971MD1999999+0141MW1011REMSYN100AAXX  09004 82983 21595 21403 10284 20231 39697 40106 70126 82100 333 10370 29061 55109 58014 60031;
0162829830999992003010912004-09380-040480FM-12+037099999V0201401N005112200019N0020001N1+02681+01861101561ADDGF102991021011008001001001KA1240N+02521MA1999999097371MD1999999+0231REMSYN082AAXX  09124 82983 22595 21410 10268 20186 39737 40156 82100 333 20252 58023 60034;
0167829830999992003010918004-09380-040480FM-12+037099999V0201401N003112200019N0020001N1+03461+01551101051ADDAA106000091GF104991041011008001001001MA1999999096981MD1999999+0221REMSYN070AAXX  09184 82983 32595 41406 10346 20155 39698 40105 84100 333 58022;EQDQ01  00002PRCP06
0214829830999992003011000004-09380-040480FM-12+037099999V0200901N003112200019N0020001N1+03101+01461101231ADDAA106000091GF102991999011008001001001KA1240M+03541MA1999999097131MD1999999+0161REMSYN088AAXX  10004 82983 32595 20906 10310 20146 39713 40123 83100 333 10354 29042 55116 58016;EQDQ01+000032SCOTLCQ02  00002PRCP06
0186829830999992003011012004-09380-040480FM-12+037099999V0201401N002610075019N0020001N1+02641+01951101541ADDAA106000091GF106991061021008001001001KA1240N+02431MA1999999097421MD1999999+0051REMSYN076AAXX  10124 82983 32595 61405 10264 20195 39742 40154 86200 333 20243 58005;EQDQ01  00002PRCP06
0167829830999992003011018004-09380-040480FM-12+037099999V0201401N002612200019N0020001N1+03381+01531100961ADDAA106000091GF104991041011008001001001MA1999999096881MD1999999-0101REMSYN070AAXX  10184 82983 32595 41405 10338 20153 39688 40096 84100 333 59010;EQDQ01  00002PRCP06
0208829830999992003011100004-09380-040480FM-12+037099999V0200901N001512200019N0020001N1+03121+01521101021ADDAA106000091GA1001+999999999GF100991001001999999001001KA1240M+03481MA1999999096931MD1999999-0201REMSYN082AAXX  11004 82983 32995 00903 10312 20152 39693 40102 333 10348 29044 55100 59020;EQDQ01  00002PRCP06
0186829830999992003011112004-09380-040480FM-12+037099999V0201401N003110450019N0020001N1+02681+01971101401ADDAA106000091GF107991021011008001021001KA1240N+02481MA1999999097291MD1999999-0131REMSYN076AAXX  11124 82983 32595 71406 10268 20197 39729 40140 82120 333 20248 59013;EQDQ01  00002PRCP06
0167829830999992003011118004-09380-040480FM-12+037099999V0201401N001510450019N0020001N1+03381+01751100931ADDAA106000091GF106991021021008001021001MA1999999096841MD1999999-0041REMSYN070AAXX  11184 82983 32595 61403 10338 20175 39684 40093 82220 333 59004;EQDQ01  00002PRCP06
0224829830999992003011200004-09380-040480FM-12+037099999V0209999C000012200019N0020001N1+03021+01921101001ADDAA106000091GA1001+999999999GF100991001001999999001001KA1240M+03511MA1999999999999MD1999999-0021REMSYN082AAXX  12004 82983 32995 00000 10302 20192 39391 40100 333 10351 29052 55065 59002;EQDQ01  00002PRCP06Q02 093913APOSP 
0186829830999992003011212004-09380-040480FM-12+037099999V0203601N001512200019N0020001N1+02961+01961101261ADDAA106000091GF103991031021008001001001KA1240N+02451MA1999999097181MD1999999-0111REMSYN076AAXX  12124 82983 32595 33603 10296 20196 39718 40126 83200 333 20245 59011;EQDQ01  00002PRCP06
0167829830999992003011218004-09380-040480FM-12+037099999V0202301N002112200019N0020001N1+03661+01571100691ADDAA106000091GF104991041021008001001001MA1999999096631MD1999999-0211REMSYN070AAXX  12184 82983 32595 42304 10366 20157 39663 40069 84200 333 59021;EQDQ01  00002PRCP06
0202829830999992003011400004-09380-040480FM-12+037099999V0202301N001510075019N0020001N1+02561+02001100911ADDAY121061AY261061GF106991061061008001001001KA1240M+03601MA1999999096811MD1999999+0051MW1011REMSYN100AAXX  14004 82983 21595 62303 10256 20200 39681 40091 70126 86600 333 10360 29060 55090 58005 60081;
0162829830999992003011412004-09380-040480FM-12+037099999V0203601N001510075019N0020001N1+02641+02181101261ADDGF107991071021008001001001KA1240N+02501MA1999999097121MD1999999+0071REMSYN082AAXX  14124 82983 22595 73603 10264 20218 39712 40126 87200 333 20250 58007 60084;
0167829830999992003011418004-09380-040480FM-12+037099999V0203601N002612200019N0020001N1+03441+01761100771ADDAA106000091GF104991041011008001001001MA1999999096691MD1999999+0091REMSYN070AAXX  14184 82983 32595 43605 10344 20176 39669 40077 84100 333 58009;EQDQ01  00002PRCP06
0198829830999992003011500004-09380-040480FM-12+037099999V0202701N003112200019N0020001N1+02861+02161100991ADDAA106000091GF102991021011008001001001KA1240M+03521MA1999999096881MD1999999+0071REMSYN088AAXX  15004 82983 32595 22706 10286 20216 39688 40099 82100 333 10352 29060 55092 58007;EQDQ01  00002PRCP06
0186829830999992003011512004-09380-040480FM-12+037099999V0200501N001510075019N0020001N1+02681+02041101411ADDAA106000091GF108991081051008001999999KA1240N+02521MA1999999097291MD1999999+0171REMSYN076AAXX  15124 82983 32595 80503 10268 20204 39729 40141 885// 333 20252 58017;EQDQ01  00002PRCP06
0167829830999992003011518004-09380-040480FM-12+037099999V0202701N001512200019N0020001N1+03421+01911100961ADDAA106000091GF103991021011008001011001MA1999999096881MD1999999+0191REMSYN070AAXX  15184 82983 32595 32703 10342 20191 39688 40096 82110 333 58019;EQDQ01  00002PRCP06
0198829830999992003011600004-09380-040480FM-12+037099999V0203601N001012200019N0020001N1+03001+02051101051ADDAA106000091GF102991021011008001001001KA1240M+03501MA1999999096951MD1999999+0071REMSYN088AAXX  16004 82983 32595 23602 10300 20205 39695 40105 82100 333 10350 29065 55080 58007;EQDQ01  00002PRCP06
0186829830999992003011612004-09380-040480FM-12+037099999V0200501N004112200019N0020001N1+02901+01811101421ADDAA106000091GF102991021011008001001001KA1240N+02571MA1999999097321MD1999999+0031REMSYN076AAXX  16124 82983 32595 20508 10290 20181 39732 40142 82100 333 20257 58003;EQDQ01  00002PRCP06
0167829830999992003011618004-09380-040480FM-12+037099999V0201401N003112200019N0020001N1+03521+01651100911ADDAA106000091GF104991041011008001001001MA1999999096851MD1999999-0031REMSYN070AAXX  16184 82983 32595 41406 10352 20165 39685 40091 84100 333 59003;EQDQ01  00002PRCP06
0198829830999992003011700004-09380-040480FM-12+037099999V0209999C000012200019N0020001N1+03201+01751100991ADDAA106000091GF102991021011008001001001KA1240M+03601MA1999999096931MD1999999-0021REMSYN088AAXX  17004 82983 32595 20000 10320 20175 39693 40099 82100 333 10360 29042 55114 59002;EQDQ01  00002PRCP06
0186829830999992003011712004-09380-040480FM-12+037099999V0200901N003110075019N0020001N1+02801+01781101311ADDAA106000091GF106991061001008001021001KA1240N+02531MA1999999097231MD1999999-0091REMSYN076AAXX  17124 82983 32595 60906 10280 20178 39723 40131 86020 333 20253 59009;EQDQ01  00002PRCP06
0167829830999992003011718004-09380-040480FM-12+037099999V0201401N001510450019N0020001N1+03421+01741100851ADDAA106000091GF106991021011008001021001MA1999999096791MD1999999-0061REMSYN070AAXX  17184 82983 32595 61403 10342 20174 39679 40085 82120 333 59006;EQDQ01  00002PRCP06
0198829830999992003011800004-09380-040480FM-12+037099999V0201401N002110075019N0020001N1+03281+01781101051ADDAA106000091GF107991071021008001001001KA1240M+03551MA1999999096981MD1999999+0051REMSYN088AAXX  18004 82983 32595 71404 10328 20178 39698 40105 87200 333 10355 29043 55100 58005;EQDQ01  00002PRCP06
0186829830999992003011812004-09380-040480FM-12+037099999V0201401N003110075019N0020001N1+02761+02021101241ADDAA106000091GF105991051001008001021001KA1240N+02621MA1999999097161MD1999999-0071REMSYN076AAXX  18124 82983 32595 51406 10276 20202 39716 40124 85020 333 20262 59007;EQDQ01  00002PRCP06
0167829830999992003011818004-09380-040480FM-12+037099999V0200901N002610075019N0500001N1+03501+01961100781ADDAA106000091GF105991051021008001001001MA1999999096741MD1999999-0051REMSYN070AAXX  18184 82983 32599 50905 10350 20196 39674 40078 85200 333 59005;EQDQ01  00002PRCP06
0198829830999992003011900004-09380-040480FM-12+037099999V0201801N002610075019N0020001N1+03101+01771101021ADDAA106000091GF106991061021008001001001KA1240M+03561MA1999999096941MD1999999-0041REMSYN088AAXX  19004 82983 32595 61805 10310 20177 39694 40102 86200 333 10356 29048 55093 59004;EQDQ01  00002PRCP06
0186829830999992003011912004-09380-040480FM-12+037099999V0200901N001510075019N0020001N1+02821+01971101371ADDAA106000091GF107991071051008001001001KA1240N+02601MA1999999097271MD1999999+0111REMSYN076AAXX  19124 82983 32595 70903 10282 20197 39727 40137 87500 333 20260 58011;EQDQ01  00002PRCP06
0167829830999992003011918004-09380-040480FM-12+037099999V0203201N003110450019N0020001N1+03181+02041101111ADDAA106000091GF107991031011008001021001MA1999999096941MD1999999+0201REMSYN070AAXX  19184 82983 32595 73206 10318 20204 39694 40111 83120 333 58020;EQDQ01  00002PRCP06
0198829830999992003012000004-09380-040480FM-12+037099999V0202301N001510075019N0020001N1+02601+02011101371ADDAA106000091GF106991061061008001001001KA1240M+03241MA1999999097231MD1999999+0291REMSYN088AAXX  20004 82983 32595 62303 10260 20201 39723 40137 86600 333 10324 29063 55054 58029;EQDQ01  00002PRCP06
0186829830999992003012012004-09380-040480FM-12+037099999V0200901N002612200019N0020001N1+02581+02061101391ADDAA106000091GF103991021011008001021001KA1240N+02221MA1999999097241MD1999999-0031REMSYN076AAXX  20124 82983 32595 30905 10258 20206 39724 40139 82120 333 20222 59003;EQDQ01  00002PRCP06
0167829830999992003012018004-09380-040480FM-12+037099999V0203601N003110075019N0020001N1+03041+01881100901ADDAA106000091GF106991061021008001001001MA1999999096781MD1999999-0161REMSYN070AAXX  20184 82983 32595 63606 10304 20188 39678 40090 86200 333 59016;EQDQ01  00002PRCP06
0152829830999992003012100004-09380-040480FM-12+037099999V0209999C000019999999N0020001N1+02941+01941999999ADDAA106000091GF105991999999008001999999REMSYN084AAXX  21004 82983 32595 50000 10294 20194 10334 29058 39687 40098 55083 59036 85200;EQDQ01  00002PRCP06
0139829830999992003012112004-09380-040480FM-12+037099999V0201401N002619999999N0020001N1+02761+02041999999ADDAA106000091GF106991999999008001999999REMSYN071AAXX  21124 82983 32595 61405 10276 20204 20260 3971040120 59014 85210;EQDQ01  00002PRCP06
0149829830999992003012118004-09380-040480FM-12+037099999V0201401N003110450019N0020001N1+03301+01911100621ADDAA106000091GF106991031021008001011011MA1999999096551REMSYN066AAXX  21184 82983 32595 61406 10330 20191 39655 40062 59023 83211;EQDQ01  00002PRCP06
0202829830999992003012200004-09380-040480FM-12+037099999V0203601N001510075019N0020001N1+02341+02151101061ADDAY121061AY261061GF105991051021008001001001KA1240M+03481MA1999999096921MD1999999+0051MW1011REMSYN100AAXX  22004 82983 21595 53603 10234 20215 39692 40106 70126 85200 333 10348 29072 55070 58005 60091;
0128829830999992003012212004-09380-040480FM-12+037099999V0200901N001519999999N0020001N1+02441+02091999999ADDGF108991999999008001999999REMSYN090AAXX  22124 82983 21595 80903 10244 20209 10209 20217 39721 40139 58011 60214 70126 885//;
0167829830999992003012218004-09380-040480FM-12+037099999V0203601N001510450019N0020001N1+03021+01891101011ADDAA106000091GF106991031021008001021001MA1999999096891MD1999999+0341REMSYN070AAXX  22184 82983 32595 63603 10302 20189 39689 40101 83220 333 58034;EQDQ01  00002PRCP06
0208829830999992003012300004-09380-040480FM-12+037099999V0202701N001512200019N0020001N1+02701+02221101071ADDAA106000091GA1001+999999999GF100991001001999999001001KA1240M+03151MA1999999096931MD1999999+0011REMSYN082AAXX  23004 82983 32595 02703 10270 20222 39693 40107 333 10315 29070 55031 58001;EQDQ01  00002PRCP06
0186829830999992003012312004-09380-040480FM-12+037099999V0201401N005110075019N0020001N1+02681+02021101471ADDAA106000091GF106991061021008001001001KA1240N+02431MA1999999097331MD1999999+0121REMSYN076AAXX  23124 82983 32595 61410 10268 20202 39733 40147 86200 333 20243 58012;EQDQ01  00002PRCP06
0167829830999992003012318004-09380-040480FM-12+037099999V0200901N001510075019N0020001N1+03341+01831100951ADDAA106000091GF105991051021008001001001MA1999999096861MD1999999-0031REMSYN070AAXX  23184 82983 32595 50903 10334 20183 39686 40095 85200 333 59003;EQDQ01  00002PRCP06
0202829830999992003012400004-09380-040480FM-12+037099999V0200901N001012200019N0020001N1+02501+02171101371ADDAY161061AY221061GF102991021011008001001001KA1240M+03471MA1999999097221MD1999999+0291MW1011REMSYN100AAXX  24004 82983 21595 20902 10250 20217 39722 40137 70162 82100 333 10347 29068 55093 58029 60191;
0190829830999992003012412004-09380-040480FM-12+037099999V0201401N002610075019N0020001N1+02521+02151101531ADDAY161061AY221061GF106991061021008001001001KA1240N+02261MA1999999097361MD1999999+0031MW1011REMSYN088AAXX  24124 82983 21595 61405 10252 20215 39736 40153 70162 86200 333 20226 58003 60284;
0167829830999992003012418004-09380-040480FM-12+037099999V0200901N003112200019N0020001N1+03161+01891101021ADDAA106000091GF104991041021008001001001MA1999999096891MD1999999+0031REMSYN070AAXX  24184 82983 32595 40906 10316 20189 39689 40102 84200 333 58003;EQDQ01  00002PRCP06
0198829830999992003012500004-09380-040480FM-12+037099999V0201801N001512200019N0020001N1+02621+02071101151ADDAA106000091GF101991011011008001001001KA1240M+03341MA1999999097011MD1999999-0211REMSYN088AAXX  25004 82983 32595 11803 10262 20207 39701 40115 81100 333 10334 29068 55090 59021;EQDQ01  00002PRCP06
0190829830999992003012512004-09380-040480FM-12+037099999V0201401N003110075019N0020001N1+02641+01931101421ADDAY121061AY261061GF106991061011008001001001KA1240N+02441MA1999999097281MD1999999-0081MW1011REMSYN088AAXX  25124 82983 21595 61406 10264 20193 39728 40142 70126 86100 333 20244 59008 69964;
0167829830999992003012518004-09380-040480FM-12+037099999V0201401N001512200019N0020001N1+03241+01671100881ADDAA106000091GF103991031011008001001001MA1999999096791MD1999999-0101REMSYN070AAXX  25184 82983 32595 31403 10324 20167 39679 40088 83100 333 59010;EQDQ01  00002PRCP06
0198829830999992003012600004-09380-040480FM-12+037099999V0200501N001512200019N0020001N1+02901+01931100951ADDAA106000091GF102991021011008001001001KA1240M+03361MA1999999096851MD1999999-0161REMSYN088AAXX  26004 82983 32595 20503 10290 20193 39685 40095 82100 333 10336 29054 55107 59016;EQDQ01  00002PRCP06
0186829830999992003012612004-09380-040480FM-12+037099999V0201401N002610075019N0020001N1+02541+01951101271ADDAA106000091GF107991071051008001001001KA1240N+02261MA1999999097141MD1999999-0141REMSYN076AAXX  26124 82983 32595 71405 10254 20195 39714 40127 87500 333 20226 59014;EQDQ01  00002PRCP06
0167829830999992003012618004-09380-040480FM-12+037099999V0201401N001512200019N0020001N1+03141+01731100741ADDAA106000091GF102991021011008001001001MA1999999096661MD1999999-0131REMSYN070AAXX  26184 82983 32595 21403 10314 20173 39666 40074 82100 333 59013;EQDQ01  00002PRCP06
0152829830999992003012700004-09380-040480FM-12+037099999V0200501N001512200019N0020001N1+02921+01831999999ADDAA106000091GF103991999999008001999999REMSYN084AAXX  27004 82983 32595 30503 10292 20183 10334 29054 39670 40084 55104 59015 83200;EQDQ01  00002PRCP06
0190829830999992003012712004-09380-040480FM-12+037099999V0201401N005110075019N0020001N1+02621+01911101201ADDAY111061AY261061GF107991071021008001001001KA1240N+02141MA1999999097081MD1999999-0061MW1031REMSYN088AAXX  27124 82983 21595 71410 10262 20191 39708 40120 70316 87200 333 20214 59006 69984;
0167829830999992003012718004-09380-040480FM-12+037099999V0200501N004110450019N0020001N1+03041+02031100791ADDAA106000091GF107991041011008001021001MA1999999096711MD1999999+0051REMSYN070AAXX  27184 82983 32595 70508 10304 20203 39671 40079 84120 333 58005;EQDQ01  00002PRCP06
0190829830999992003012812004-09380-040480FM-12+037099999V0200901N003110075019N0020001N1+02281+02111101461ADDAY121061AY261061GF108991081051008001999999KA1240N+01801MA1999999097301MD1999999+0221MW1011REMSYN088AAXX  28124 82983 21595 80906 10228 20211 39730 40146 70126 885// 333 20180 58022 60334;
0167829830999992003012818004-09380-040480FM-12+037099999V0201801N001510075019N0020001N1+02741+02191101061ADDAA106000091GF106991061021008001001001MA1999999096931MD1999999+0221REMSYN070AAXX  28184 82983 32595 61803 10274 20219 39693 40106 86200 333 58022;EQDQ01  00002PRCP06
0152829830999992003012900004-09380-040480FM-12+037099999V0200501N001512200019N0020001N1+02621+02231999999ADDAA106000091GF103991999999008001999999REMSYN084AAXX  29004 82983 32595 30503 10262 20223 10287 29080 39717 40134 55012 58024 83200;EQDQ01  00002PRCP06
0186829830999992003012912004-09380-040480FM-12+037099999V0201401N002610075019N0020001N1+02701+02221101371ADDAA106000091GF106991061021008001001001KA1240N+02421MA1999999097231MD1999999-0071REMSYN076AAXX  29124 82983 32595 61405 10270 20222 39723 40137 86200 333 20242 59007;EQDQ01  00002PRCP06
0167829830999992003012918004-09380-040480FM-12+037099999V0201401N002110075019N0020001N1+02961+02181100921ADDAA106000091GF107991071021008001001001MA1999999096801MD1999999-0131REMSYN070AAXX  29184 82983 32595 71404 10296 20218 39680 40092 87200 333 59013;EQDQ01  00002PRCP06
0202829830999992003013000004-09380-040480FM-12+037099999V0200501N002610075019N0020001N1+02161+02111101291ADDAY121061AY261061GF108991081061008001999999KA1240M+03141MA1999999097131MD1999999-0041MW1501REMSYN100AAXX  30004 82983 21595 80505 10216 20211 39713 40129 75026 886// 333 10314 29083 55061 59004 60251;
0190829830999992003013012004-09380-040480FM-12+037099999V0201401N003110075019N0020001N1+02561+02211101351ADDAY161061AY221061GF106991061021008001001001KA1240N+02191MA1999999097171MD1999999-0061MW1011REMSYN088AAXX  30124 82983 21595 61406 10256 20221 39717 40135 70162 86200 333 20219 59006 60304;
0167829830999992003013018004-09380-040480FM-12+037099999V0200901N003610075019N0020001N1+03201+01861100831ADDAA106000091GF106991061021008001001001MA1999999096721MD1999999-0081REMSYN070AAXX  30184 82983 32595 60907 10320 20186 39672 40083 86200 333 59008;EQDQ01  00002PRCP06
0134829830999992003013100004-09380-040480FM-12+037099999V0201401N002612200019N0020001N1+02401+02111999999ADDGF104991999999008001999999REMSYN096AAXX  31004 82983 21595 41405 10240 20211 10330 29074 39691 40106 55093 59022 69921 70125 84200;
0162829830999992003013112004-09380-040480FM-12+037099999V0201401N004110450019N0020001N1+02501+01981101341ADDGF106991021011008001031001KA1240N+02321MA1999999097171MD1999999+0001REMSYN082AAXX  31124 82983 22595 61408 10250 20198 39717 40134 82130 333 20232 58000 69924;
0167829830999992003013118004-09380-040480FM-12+037099999V0200901N004110075019N0020001N1+03201+01711100831ADDAA106000091GF106991061011008001001001MA1999999096731MD1999999+0011REMSYN070AAXX  31184 82983 32595 60908 10320 20171 39673 40083 86100 333 58001;EQDQ01  00002PRCP06
0202829830999992003020100004-09380-040480FM-12+037099999V0200901N002610075019N0020001N1+02541+01761101101ADDAY121061AY251061GF106991061021008001001001KA1240M+03301MA1999999096951MD1999999+0041MW1031REMSYN100AAXX  01004 82983 21595 60905 10254 20176 39695 40110 70325 86200 333 10330 29060 55088 58004 69921;
0122829830999992003020112004-09380-040480FM-12+037099999V0201401N003119999999N0020001N1+02541+02021999999ADDGF107991999999008001999999REMSYN084AAXX  01124 82983 22595 71406 10254 20202 10002 20226 39725 40141 58008 69924 84200;
0179829830999992003020118004-09380-040480FM-12+037099999V0201401N003119999999N0020001N1+03121+01751101031ADDAA106000091GF106991999011008001001001MA1999999096921MD1810191+9999REMSYN066AAXX  01184 82983 32595 61406 10312 20175 39692 40103 58019 82100;EQDQ01+000022SCOTLCQ02  00002PRCP06
0152829830999992003020200004-09380-040480FM-12+037099999V0201401N003119999999N0020001N1+02541+01951999999ADDAA106000091GF105991999999008001999999REMSYN084AAXX  02004 82983 32595 51406 10254 20195 10320 29064 39720 40136 55063 58025 85200;EQDQ01  00002PRCP06
0163829830999992003020218004-09380-040480FM-12+037099999V0201401N003110075019N0020001N1+02961+01841101131ADDAA106000091GF108991081051008001999999MA1999999096991MD1810071+9999REMSYN066AAXX  02184 82983 32595 81406 10296 20184 39699 40113 58007 885//;EQDQ01  00002PRCP06
0165829830999992003020300004-09380-040480FM-12+037099999V0200901N001512200019N0020001N1+02721+01931999999ADDAA106000091GF102991999999008001999999KA1240M+02881MD1999999-0061REMSYN070AAXX  03004 82983 32595 20903 10272 20193 333 10288 29075 55068 59006;EQDQ01  00002PRCP06
0186829830999992003020312004-09380-040480FM-12+037099999V0201401N005110075019N0020001N1+02601+01991101501ADDAA106000091GF106991061021008001001001KA1240N+02341MA1999999097351MD1999999+0061REMSYN076AAXX  03124 82983 32595 61410 10260 20199 39735 40150 86200 333 20234 58006;EQDQ01  00002PRCP06
0167829830999992003020318004-09380-040480FM-12+037099999V0201401N003610450019N0020001N1+03201+01961101091ADDAA106000091GF106991041011008001021001MA1999999096991MD1999999+0001REMSYN070AAXX  03184 82983 32595 61407 10320 20196 39699 40109 84120 333 58000;EQDQ01  00002PRCP06
0198829830999992003020400004-09380-040480FM-12+037099999V0200901N002612200019N0020001N1+02961+01961101161ADDAA106000091GF104991041021008001001001KA1240M+03261MA1999999097061MD1999999-0071REMSYN088AAXX  04004 82983 32595 40905 10296 20196 39706 40116 84200 333 10326 29057 55089 59007;EQDQ01  00002PRCP06
0186829830999992003020412004-09380-040480FM-12+037099999V0201401N005710075019N0020001N1+02681+02041101311ADDAA106000091GF106991051021008001011001KA1240N+02321MA1999999097201MD1999999-0151REMSYN076AAXX  04124 82983 32595 61411 10268 20204 39720 40131 85210 333 20232 59015;EQDQ01  00002PRCP06
0171829830999992003020418004-09380-040480FM-12+037099999V0200901N003110075019N0020001N1+02681+02241101051ADDAY121061AY251061GF106991061021008001001001MA1999999096911MD1999999-0081MW1031REMSYN082AAXX  04184 82983 21595 60906 10268 20224 39691 40105 70325 86200 333 59008 60011;
0198829830999992003020500004-09380-040480FM-12+037099999V0201401N002112200019N0020001N1+02761+02041101101ADDAA106000091GF101991011011008001001001KA1240M+03071MA1999999096971MD1999999-0091REMSYN088AAXX  05004 82983 32595 11404 10276 20204 39697 40110 81100 333 10307 29069 55085 59009;EQDQ01  00002PRCP06
0162829830999992003020512004-09380-040480FM-12+037099999V0201401N004610075019N0020001N1+02561+01951101411ADDGF106991061021008001001001KA1240N+02331MA1999999097271MD1999999+0071REMSYN082AAXX  05124 82983 22595 61409 10256 20195 39727 40141 86200 333 20233 58007 60014;
0167829830999992003020518004-09380-040480FM-12+037099999V0201401N003112200019N0020001N1+03301+01681100951ADDAA106000091GF104991031011008001011001MA1999999096861MD1999999-0051REMSYN070AAXX  05184 82983 32595 41406 10330 20168 39686 40095 83110 333 59005;EQDQ01  00002PRCP06
0208829830999992003020600004-09380-040480FM-12+037099999V0200901N002612200019N0020001N1+02941+01721101071ADDAA106000091GA1001+999999999GF100991001001999999001001KA1240M+03361MA1999999096951MD1999999-0021REMSYN082AAXX  06004 82983 32995 00905 10294 20172 39695 40107 333 10336 29051 55109 59002;EQDQ01  00002PRCP06
0186829830999992003020612004-09380-040480FM-12+037099999V0201401N003112200019N0020001N1+02581+01821101461ADDAA106000091GF102991021011008001001001KA1240N+02341MA1999999097341MD1999999+0071REMSYN076AAXX  06124 82983 32595 21406 10258 20182 39734 40146 82100 333 20234 58007;EQDQ01  00002PRCP06
0167829830999992003020618004-09380-040480FM-12+037099999V0200901N003112200019N0020001N1+03301+01641100971ADDAA106000091GF103991031011008001001001MA1999999096881MD1999999+0021REMSYN070AAXX  06184 82983 32595 30906 10330 20164 39688 40097 83100 333 58002;EQDQ01  00002PRCP06
0198829830999992003020700004-09380-040480FM-12+037099999V0201401N001510075019N0020001N1+03001+01611101011ADDAA106000091GF105991051011008001001001KA1240M+03401MA1999999096921MD1999999-0031REMSYN088AAXX  07004 82983 32595 51403 10300 20161 39692 40101 85100 333 10340 29046 55109 59003;EQDQ01  00002PRCP06
0186829830999992003020712004-09380-040480FM-12+037099999V0201401N004110075019N0020001N1+02661+01901101391ADDAA106000091GF106991061011008001001001KA1240N+02461MA1999999097281MD1999999-0061REMSYN076AAXX  07124 82983 32595 61408 10266 20190 39728 40139 86100 333 20246 59006;EQDQ01  00002PRCP06
0167829830999992003020718004-09380-040480FM-12+037099999V0201401N004110075019N0020001N1+03241+01671100971ADDAA106000091GF105991051011008001001001MA1999999096881MD1999999+0001REMSYN070AAXX  07184 82983 32595 51408 10324 20167 39688 40097 85100 333 58000;EQDQ01  00002PRCP06
0198829830999992003020800004-09380-040480FM-12+037099999V0201401N004112200019N0020001N1+02961+01681101081ADDAA106000091GF103991031011008001001001KA1240M+03381MA1999999096981MD1999999+0061REMSYN088AAXX  08004 82983 32595 31408 10296 20168 39698 40108 83100 333 10338 29048 55091 58006;EQDQ01  00002PRCP06
0186829830999992003020812004-09380-040480FM-12+037099999V0201401N004110075019N0020001N1+02601+01891101401ADDAA106000091GF106991061021008001001001KA1240N+02361MA1999999097291MD1999999+0011REMSYN076AAXX  08124 82983 32595 61408 10260 20189 39729 40140 86200 333 20236 58001;EQDQ01  00002PRCP06
0152829830999992003020818004-09380-040480FM-12+037099999V0201401N003112200019N0020001N1+03341+01631100971ADDAA106000091GF104991041011008001001001MA1999999096881REMSYN069AAXX  08184 82983 32595 41406 10334 20163 39688 40097 84100 33 59000;EQDQ01  00002PRCP06
0198829830999992003020900004-09380-040480FM-12+037099999V0201401N001510075019N0020001N1+03021+01471101001ADDAA106000091GF105991051011008001001001KA1240M+03441MA1999999096911MD1999999-0071REMSYN088AAXX  09004 82983 32595 51403 10302 20147 39691 40100 85100 333 10344 29045 55112 59007;EQDQ01  00002PRCP06
0186829830999992003020912004-09380-040480FM-12+037099999V0201401N003610075019N0020001N1+02561+01851101411ADDAA106000091GF106991061011008001001001KA1240N+02311MA1999999097301MD1999999+0011REMSYN076AAXX  09124 82983 32595 61407 10256 20185 39730 40141 86100 333 20231 58001;EQDQ01  00002PRCP06
0167829830999992003020918004-09380-040480FM-12+037099999V0201401N003612200019N0020001N1+03301+01551100881ADDAA106000091GF103991031011008001001001MA1999999096791MD1999999-0091REMSYN070AAXX  09184 82983 32595 31407 10330 20155 39679 40088 83100 333 59009;EQDQ01  00002PRCP06
0198829830999992003021000004-09380-040480FM-12+037099999V0209999C000012200019N0020001N1+02941+01691101001ADDAA106000091GF102991021011008001001001KA1240M+03381MA1999999096891MD1999999-0021REMSYN088AAXX  10004 82983 32595 20000 10294 20169 39689 40100 82100 333 10338 29048 55101 59002;EQDQ01  00002PRCP06
0186829830999992003021012004-09380-040480FM-12+037099999V0201401N003610450019N0020001N1+02661+01901101271ADDAA106000091GF105991041011008001011001KA1240N+02411MA1999999097161MD1999999-0141REMSYN076AAXX  10124 82983 32595 51407 10266 20190 39716 40127 84110 333 20241 59014;EQDQ01  00002PRCP06
0167829830999992003021018004-09380-040480FM-12+037099999V0200901N001510450019N0020001N1+03281+01821100811ADDAA106000091GF106991041021008001021001MA1999999096731MD1999999-0061REMSYN070AAXX  10184 82983 32595 60903 10328 20182 39673 40081 84220 333 59006;EQDQ01  00002PRCP06
0198829830999992003021100004-09380-040480FM-12+037099999V0200901N001512200019N0020001N1+02931+01951100941ADDAA106000091GF102991021011008001001001KA1240M+03341MA1999999096851MD1999999-0041REMSYN088AAXX  11004 82983 32595 20903 10293 20195 39685 40094 82100 333 10334 29054 55086 59004;EQDQ01  00002PRCP06
0186829830999992003021112004-09380-040480FM-12+037099999V0200901N003612200019N0020001N1+02721+01771101281ADDAA106000091GF103991021011008001001011KA1240N+02481MA1999999097171MD1999999+0011REMSYN076AAXX  11124 82983 32595 30907 10272 20177 39717 40128 82101 333 20248 58001;EQDQ01  00002PRCP06
0167829830999992003021118004-09380-040480FM-12+037099999V0200501N002110450019N0020001N1+03321+01701100751ADDAA106000091GF106991041021008001021001MA1999999096671MD1999999-0061REMSYN070AAXX  11184 82983 32595 60504 10332 20170 39667 40075 84220 333 59006;EQDQ01  00002PRCP06
0198829830999992003021200004-09380-040480FM-12+037099999V0201401N001510075019N0020001N1+03021+01691100961ADDAA106000091GF105991051011008001001001KA1240M+03391MA1999999096871MD1999999+0021REMSYN088AAXX  12004 82983 32595 51403 10302 20169 39687 40096 85100 333 10339 29046 55081 58002;EQDQ01  00002PRCP06
0186829830999992003021212004-09380-040480FM-12+037099999V0201401N004110450019N0020001N1+02641+01901101391ADDAA106000091GF106991031011008001021001KA1240N+02441MA1999999097281MD1999999+0111REMSYN076AAXX  12124 82983 32595 61408 10264 20190 39728 40139 83120 333 20244 58011;EQDQ01  00002PRCP06
0167829830999992003021218004-09380-040480FM-12+037099999V0200501N002610450019N0020001N1+03061+01901100941ADDAA106000091GF108991031011008001021999MA1999999096841MD1999999+0171REMSYN070AAXX  12184 82983 32595 80505 10306 20190 39684 40094 8312/ 333 58017;EQDQ01  00002PRCP06
0198829830999992003021300004-09380-040480FM-12+037099999V0203601N001510075019N0020001N1+02741+02021101121ADDAA106000091GF106991061061008001001001KA1240M+03141MA1999999096991MD1999999+0121REMSYN088AAXX  13004 82983 32595 63603 10274 20202 39699 40112 86600 333 10314 29061 55027 58012;EQDQ01  00002PRCP06
0186829830999992003021312004-09380-040480FM-12+037099999V0201401N003110075019N0020001N1+02561+01951101431ADDAA106000091GF107991071021008001001001KA1240N+02401MA1999999097291MD1999999+0011REMSYN076AAXX  13124 82983 32595 71406 10256 20195 39729 40143 87200 333 20240 58001;EQDQ01  00002PRCP06
0167829830999992003021318004-09380-040480FM-12+037099999V0201401N003110075019N0020001N1+03041+01941100951ADDAA106000091GF106991061021008001001001MA1999999096831MD1999999-0011REMSYN070AAXX  13184 82983 32595 61406 10304 20194 39683 40095 86200 333 59001;EQDQ01  00002PRCP06
0198829830999992003021400004-09380-040480FM-12+037099999V0200901N003110075019N0020001N1+02581+01901101191ADDAA106000091GF106991061011008001001001KA1240M+03141MA1999999097051MD1999999+0061REMSYN088AAXX  14004 82983 32595 60906 10258 20190 39705 40119 86100 333 10314 29063 55027 58006;EQDQ01  00002PRCP06
0186829830999992003021412004-09380-040480FM-12+037099999V0201401N003110075019N0020001N1+02601+02011101311ADDAA106000091GF106991061011008001001001KA1240N+02361MA1999999097161MD1999999-0131REMSYN076AAXX  14124 82983 32595 61406 10260 20201 39716 40131 86100 333 20236 59013;EQDQ01  00002PRCP06
0167829830999992003021418004-09380-040480FM-12+037099999V0201401N003112200019N0020001N1+03301+01801100781ADDAA106000091GF102991021011008001001001MA1999999096701MD1999999-0131REMSYN070AAXX  14184 82983 32595 21406 10330 20180 39670 40078 82100 333 59013;EQDQ01  00002PRCP06
0198829830999992003021500004-09380-040480FM-12+037099999V0200901N001510075019N0020001N1+03041+01681100911ADDAA106000091GF105991051011008001001001KA1240M+03421MA1999999096821MD1999999-0231REMSYN088AAXX  15004 82983 32595 50903 10304 20168 39682 40091 85100 333 10342 29050 55112 59023;EQDQ01  00002PRCP06
0186829830999992003021512004-09380-040480FM-12+037099999V0201401N003610075019N0020001N1+02601+01921101191ADDAA106000091GF107991071021008001001001KA1240N+02391MA1999999097091MD1999999-0071REMSYN076AAXX  15124 82983 32595 71407 10260 20192 39709 40119 87200 333 20239 59007;EQDQ01  00002PRCP06
0167829830999992003021518004-09380-040480FM-12+037099999V0200901N003110450019N0020001N1+03181+01771100761ADDAA106000091GF106991031011008001021001MA1999999096681MD1999999-0021REMSYN070AAXX  15184 82983 32595 60906 10318 20177 39668 40076 83120 333 59002;EQDQ01  00002PRCP06
0171829830999992003021612004-09380-040480FM-12+037099999V0201401N003619999999N0020001N1+02601+02061101191ADDAA106000091GF106991999999008001999999KA1240N+02421MA1999999097091REMSYN075AAXX  16124 82983 32595 61407 10260 20206 39709 40119 8600 333 20242 58000;EQDQ01  00002PRCP06
0186829830999992003021712004-09380-040480FM-12+037099999V0200901N003112200019N0020001N1+02661+01901101271ADDAA106000091GF104991031011008001001011KA1240N+02401MA1999999097161MD1999999+0071REMSYN076AAXX  17124 82983 32595 40906 10266 20190 39716 40127 83101 333 20240 58007;EQDQ01  00002PRCP06
0167829830999992003021718004-09380-040480FM-12+037099999V0200901N002610450019N0020001N1+03301+01761100841ADDAA106000091GF105991031011008001021001MA1999999096751MD1999999+0141REMSYN070AAXX  17184 82983 32595 50905 10330 20176 39675 40084 83120 333 58014;EQDQ01  00002PRCP06
0198829830999992003021800004-09380-040480FM-12+037099999V0203601N001012200019N0020001N1+02961+01841100961ADDAA106000091GF101991011011008001001001KA1240M+03361MA1999999096871MD1999999+0121REMSYN088AAXX  18004 82983 32595 13602 10296 20184 39687 40096 81100 333 10336 29051 55094 58012;EQDQ01  00002PRCP06
0186829830999992003021812004-09380-040480FM-12+037099999V0201401N003110450019N0020001N1+02861+01871101211ADDAA106000091GF106991021011008001011001KA1240N+02501MA1999999097111MD1999999-0051REMSYN076AAXX  18124 82983 32595 61406 10286 20187 39711 40121 82110 333 20250 59005;EQDQ01  00002PRCP06
0167829830999992003021818004-09380-040480FM-12+037099999V0200901N001512200019N0020001N1+03481+01791100751ADDAA106000091GF106991031011008001001011MA1999999096681MD1999999-0071REMSYN070AAXX  18184 82983 32595 60903 10348 20179 39668 40075 83101 333 59007;EQDQ01  00002PRCP06
0202829830999992003021900004-09380-040480FM-12+037099999V0200501N004110075019N0020001N1+02861+01981101001ADDAY101061AY221061GF106991061061008001001001KA1240M+03501MA1999999096911MD1999999+0041MW1511REMSYN100AAXX  19004 82983 21595 60508 10286 20198 39691 40100 75102 86600 333 10350 29052 55107 58004 69941;
0162829830999992003021912004-09380-040480FM-12+037099999V0201401N004110075019N0020001N1+02741+01971101351ADDGF106991061011008001001001KA1240N+02501MA1999999097241MD1999999+0131REMSYN082AAXX  19124 82983 22595 61408 10274 20197 39724 40135 86100 333 20250 58013 69944;
0167829830999992003021918004-09380-040480FM-12+037099999V0200901N002610075019N0020001N1+03501+01861100791ADDAA106000091GF106991061011008001001001MA1999999096731MD1999999+0051REMSYN070AAXX  19184 82983 32595 60905 10350 20186 39673 40079 86100 333 58005;EQDQ01  00002PRCP06
0198829830999992003022000004-09380-040480FM-12+037099999V0200501N001510075019N0020001N1+02581+02041101261ADDAA106000091GF106991061011008001001001KA1240M+03541MA1999999097121MD1999999+0211REMSYN088AAXX  20004 82983 32595 60503 10258 20204 39712 40126 86100 333 10354 29061 55088 58021;EQDQ01  00002PRCP06
0186829830999992003022012004-09380-040480FM-12+037099999V0201401N004110075019N0020001N1+02661+02091101321ADDAA106000091GF108991081021008001999999KA1240N+02521MA1999999097171MD1999999-0071REMSYN076AAXX  20124 82983 32595 81408 10266 20209 39717 40132 882// 333 20252 59007;EQDQ01  00002PRCP06
0171829830999992003022018004-09380-040480FM-12+037099999V0200501N004110450019N0020001N1+03201+01931100881ADDAY151061AY211061GF106991041021008001021001MA1999999096791MD1999999+0061MW1031REMSYN082AAXX  20184 82983 21595 60508 10320 20193 39679 40088 70351 84220 333 58006 69921;
0198829830999992003022100004-09380-040480FM-12+037099999V0200901N002610075019N0020001N1+02561+02021101141ADDAA106000091GF105991051011008001001001KA1240M+03281MA1999999097001MD1999999-0121REMSYN088AAXX  21004 82983 32595 50905 10256 20202 39700 40114 85100 333 10328 29066 55042 59012;EQDQ01  00002PRCP06
0162829830999992003022112004-09380-040480FM-12+037099999V0201401N003610075019N0020001N1+02581+01991101281ADDGF106991061021008001001001KA1240N+02361MA1999999097141MD1999999-0031REMSYN082AAXX  21124 82983 22595 61407 10258 20199 39714 40128 86200 333 20236 59003 69924;
0183829830999992003022118004-09380-040480FM-12+037099999V0201401N001519999999N0020001N1+03161+01891100901ADDAA106000091GF106991999021008001001001MA1999999096801MD1999999+0011REMSYN070AAXX  21184 82983 32595 61403 10316 20189 39680 40090 83200 333 58001;EQDQ01+000032SCOTLCQ02  00002PRCP06
0208829830999992003022200004-09380-040480FM-12+037099999V0200901N003112200019N0020001N1+02821+02051101111ADDAA106000091GA1001+999999999GF100991001001999999001001KA1240M+03221MA1999999096981MD1999999-0021REMSYN082AAXX  22004 82983 32995 00906 10282 20205 39698 40111 333 10322 29061 55083 59002;EQDQ01  00002PRCP06
0186829830999992003022212004-09380-040480FM-12+037099999V0201401N003110075019N0020001N1+02641+02051101331ADDAA106000091GF106991061021008001001001KA1240N+02441MA1999999097211MD1999999+0071REMSYN076AAXX  22124 82983 32595 61406 10264 20205 39721 40133 86200 333 20244 58007;EQDQ01  00002PRCP06
0208829830999992003022300004-09380-040480FM-12+037099999V0201401N002112200019N0020001N1+02941+01911101111ADDAA106000091GA1001+999999999GF100991001001999999001001KA1240M+03341MA1999999097011MD1999999+0031REMSYN082AAXX  23004 82983 32995 01404 10294 20191 39701 40111 333 10334 29056 55072 58003;EQDQ01  00002PRCP06
0186829830999992003022312004-09380-040480FM-12+037099999V0201401N003110450019N0020001N1+02581+01941101571ADDAA106000091GF106991031011008001021001KA1240N+02421MA1999999097441MD1999999+0031REMSYN076AAXX  23124 82983 32595 61406 10258 20194 39744 40157 83120 333 20242 58003;EQDQ01  00002PRCP06
0208829830999992003022400004-09380-040480FM-12+037099999V0200901N001512200019N0020001N1+02941+01621101231ADDAA106000091GA1001+999999999GF100991001001999999001001KA1240M+03341MA1999999097111MD1999999+0101REMSYN082AAXX  24004 82983 32995 00903 10294 20162 39711 40123 333 10334 29048 55065 58010;EQDQ01  00002PRCP06
0186829830999992003022412004-09380-040480FM-12+037099999V0201401N004110075019N0020001N1+02681+02021101541ADDAA106000091GF106991061011008001001001KA1240N+02461MA1999999097421MD1999999-0021REMSYN076AAXX  24124 82983 32595 61408 10268 20202 39742 40154 86100 333 20246 59002;EQDQ01  00002PRCP06
0198829830999992003022500004-09380-040480FM-12+037099999V0200501N004112200019N0020001N1+02541+02291101411ADDAA106000091GF104991041011008001001001KA1240M+03501MA1999999097261MD1999999+0151REMSYN088AAXX  25004 82983 32595 40508 10254 20229 39726 40141 84100 333 10350 29069 55082 58015;EQDQ01  00002PRCP06
0186829830999992003022512004-09380-040480FM-12+037099999V0201401N003110075019N0020001N1+02641+02031101341ADDAA106000091GF106991061021008001001001KA1240N+02221MA1999999097191MD1999999-0231REMSYN076AAXX  25124 82983 32595 61406 10264 20203 39719 40134 86200 333 20222 59023;EQDQ01  00002PRCP06
0149829830999992003022518004-09380-040480FM-12+037099999V0201401N002610075019N0020001N1+03041+01941100921ADDAA106000091GF107991071011008001001001MA1999999096801REMSYN066AAXX  25184 82983 32595 71405 10304 20194 39680 40092 59006 87100;EQDQ01  00002PRCP06
0198829830999992003022600004-09380-040480FM-12+037099999V0200501N003110075019N0020001N1+02661+02071101091ADDAA106000091GF105991051011008001001001KA1240M+03141MA1999999096951MD1999999-0311REMSYN088AAXX  26004 82983 32595 50506 10266 20207 39695 40109 85100 333 10314 29065 55051 59031;EQDQ01  00002PRCP06
0186829830999992003022612004-09380-040480FM-12+037099999V0200901N004112200019N0020001N1+02721+01931101291ADDAA106000091GF104991041011008001001001KA1240N+02461MA1999999097151MD1999999-0041REMSYN076AAXX  26124 82983 32595 40908 10272 20193 39715 40129 84100 333 20246 59004;EQDQ01  00002PRCP06
0167829830999992003022618004-09380-040480FM-12+037099999V0200901N002612200019N0020001N1+03261+01841100821ADDAA106000091GF104991041011008001001001MA1999999096741MD1999999-0061REMSYN070AAXX  26184 82983 32595 40905 10326 20184 39674 40082 84100 333 59006;EQDQ01  00002PRCP06
0224829830999992003022700004-09380-040480FM-12+037099999V0200501N001512200019N0020001N1+02921+01951100981ADDAA106000091GA1001+999999999GF100991001001999999001001KA1240M+03361MA1999999999999MD1999999-0061REMSYN082AAXX  27004 82983 32995 00503 10292 20195 39389 40098 333 10336 29054 55084 59006;EQDQ01  00002PRCP06Q02 093893APOSP 
0186829830999992003022712004-09380-040480FM-12+037099999V0200901N003112200019N0020001N1+02621+01701101301ADDAA106000091GF103991031011008001001001KA1240N+02261MA1999999097181MD1999999+0031REMSYN076AAXX  27124 82983 32595 30906 10262 20170 39718 40130 83100 333 20226 58003;EQDQ01  00002PRCP06
0167829830999992003022718004-09380-040480FM-12+037099999V0200501N002612200019N0020001N1+03441+01481100881ADDAA106000091GF103991011011008001051011MA1999999096791MD1999999+0051REMSYN070AAXX  27184 82983 32595 30505 10344 20148 39679 40088 81151 333 58005;EQDQ01  00002PRCP06
0198829830999992003022800004-09380-040480FM-12+037099999V0200901N001512200019N0020001N1+02981+01791101091ADDAA106000091GF102991021011008001001001KA1240M+03501MA1999999096991MD1999999+0101REMSYN088AAXX  28004 82983 32595 20903 10298 20179 39699 40109 82100 333 10350 29046 55114 58010;EQDQ01  00002PRCP06
0186829830999992003022812004-09380-040480FM-12+037099999V0201401N004112200019N0020001N1+02741+01971101361ADDAA106000091GF104991021011008001021001KA1240N+02521MA1999999097251MD1999999+0071REMSYN076AAXX  28124 82983 32595 41408 10274 20197 39725 40136 82120 333 20252 58007;EQDQ01  00002PRCP06
0167829830999992003022818004-09380-040480FM-12+037099999V0201401N003610450019N0020001N1+03461+01731100771ADDAA106000091GF106991031011008001021011MA1999999096711MD1999999-0081REMSYN070AAXX  28184 82983 32595 61407 10346 20173 39671 40077 83121 333 59008;EQDQ01  00002PRCP06
0202829830999992003030112004-09380-040480FM-12+037099999V0200901N005119999999N0020001N1+02681+01971101321ADDAA106000091GF106991999021008001001001KA1240N+02471MA1999999097201MD1999999-0051REMSYN076AAXX  01124 82983 32595 60910 10268 20197 39720 40132 83200 333 20247 59005;EQDQ01+000032SCOTLCQ02  00002PRCP06
0183829830999992003030118004-09380-040480FM-12+037099999V0200901N003119999999N0020001N1+03301+01721100871ADDAA106000091GF106991999021008001011001MA1999999096781MD1999999+0071REMSYN070AAXX  01184 82983 32595 60906 10330 20172 39678 40087 88210 333 58007;EQDQ01+000082SCOTLCQ02  00002PRCP06
0152829830999992003030200004-09380-040480FM-12+037099999V0203601N001512200019N0020001N1+02961+01871999999ADDAA106000091GF103991999999008001999999REMSYN084AAXX  02004 82983 32595 33603 10296 20187 10336 29052 39695 40105 55030 59008 83100;EQDQ01  00002PRCP06
0186829830999992003030212004-09380-040480FM-12+037099999V0201401N004110075019N0020001N1+02561+01851101251ADDAA106000091GF107991051011008001021001KA1240N+02301MA1999999097131MD1999999-0071REMSYN076AAXX  02124 82983 32595 71408 10256 20185 39713 40125 85120 333 20230 59007;EQDQ01  00002PRCP06
0167829830999992003030218004-09380-040480FM-12+037099999V0200901N004110450019N0020001N1+03321+01571100721ADDAA106000091GF106991041011008001021001MA1999999096641MD1999999-0141REMSYN070AAXX  02184 82983 32595 60908 10332 20157 39664 40072 84120 333 59014;EQDQ01  00002PRCP06
0198829830999992003030300004-09380-040480FM-12+037099999V0200501N001512200019N0020001N1+02901+01691100881ADDAA106000091GF104991041011008001001001KA1240M+03441MA1999999096781MD1999999-0171REMSYN088AAXX  03004 82983 32595 40503 10290 20169 39678 40088 84100 333 10344 29049 55055 59017;EQDQ01  00002PRCP06
0186829830999992003030312004-09380-040480FM-12+037099999V0201401N004110075019N0020001N1+02621+01781101281ADDAA106000091GF106991061011008001001001KA1240N+02261MA1999999097161MD1999999+0031REMSYN076AAXX  03124 82983 32595 61408 10262 20178 39716 40128 86100 333 20226 58003;EQDQ01  00002PRCP06
0167829830999992003030318004-09380-040480FM-12+037099999V0200901N003110075019N0020001N1+03421+01471100761ADDAA106000091GF106991061011008001001001MA1999999096681MD1999999+0041REMSYN070AAXX  03184 82983 32595 60906 10342 20147 39668 40076 86100 333 58004;EQDQ01  00002PRCP06
0198829830999992003030400004-09380-040480FM-12+037099999V0200501N002612200019N0020001N1+03041+01661100971ADDAA106000091GF104991041011008001001001KA1240M+03501MA1999999096881MD1999999+0101REMSYN088AAXX  04004 82983 32595 40505 10304 20166 39688 40097 84100 333 10350 29045 55102 58010;EQDQ01  00002PRCP06
0186829830999992003030412004-09380-040480FM-12+037099999V0201401N003112200019N0020001N1+02721+01851101391ADDAA106000091GF103991021011008001001011KA1240N+02241MA1999999097221MD1999999+0121REMSYN076AAXX  04124 82983 32595 31406 10272 20185 39722 40139 82101 333 20224 58012;EQDQ01  00002PRCP06
0167829830999992003030418004-09380-040480FM-12+037099999V0201401N001510450019N0020001N1+03461+01601100901ADDAA106000091GF106991041011008001021001MA1999999096811MD1999999+0131REMSYN070AAXX  04184 82983 32595 61403 10346 20160 39681 40090 84120 333 58013;EQDQ01  00002PRCP06
0198829830999992003030500004-09380-040480FM-12+037099999V0200901N002612200019N0020001N1+03101+01461100991ADDAA106000091GF103991031011008001001001KA1240M+03501MA1999999096901MD1999999+0021REMSYN088AAXX  05004 82983 32595 30905 10310 20146 39690 40099 83100 333 10350 29042 55102 58002;EQDQ01  00002PRCP06
0186829830999992003030512004-09380-040480FM-12+037099999V0200901N003612200019N0020001N1+02701+01941101281ADDAA106000091GF106991041011008001001011KA1240N+02211MA1999999097171MD1999999-0111REMSYN076AAXX  05124 82983 32595 60907 10270 20194 39717 40128 84101 333 20221 59011;EQDQ01  00002PRCP06
0167829830999992003030518004-09380-040480FM-12+037099999V0200901N003110075019N0020001N1+03441+01531100711ADDAA106000091GF105991051011008001001001MA1999999096651MD1999999-0161REMSYN070AAXX  05184 82983 32595 50906 10344 20153 39665 40071 85100 333 59016;EQDQ01  00002PRCP06
0198829830999992003030600004-09380-040480FM-12+037099999V0200901N001512200019N0020001N1+03161+01601100871ADDAA106000091GF102991021011008001001001KA1240M+03531MA1999999096791MD1999999-0111REMSYN088AAXX  06004 82983 32595 20903 10316 20160 39679 40087 82100 333 10353 29043 55106 59011;EQDQ01  00002PRCP06
0186829830999992003030612004-09380-040480FM-12+037099999V0201401N002610075019N0020001N1+02701+02011101211ADDAA106000091GF107991051021008001021001KA1240N+02521MA1999999097121MD1999999-0051REMSYN076AAXX  06124 82983 32595 71405 10270 20201 39712 40121 85220 333 20252 59005;EQDQ01  00002PRCP06
0167829830999992003030618004-09380-040480FM-12+037099999V0201401N003110450019N0020001N1+03341+01671100731ADDAA106000091GF106991031011008001021001MA1999999096671MD1999999+0021REMSYN070AAXX  06184 82983 32595 61406 10334 20167 39667 40073 83120 333 58002;EQDQ01  00002PRCP06
0208829830999992003030700004-09380-040480FM-12+037099999V0200901N001512200019N0020001N1+02961+01741100931ADDAA106000091GA1001+999999999GF100991001001999999001001KA1240M+03401MA1999999096841MD1999999+0051REMSYN082AAXX  07004 82983 32995 00903 10296 20174 39684 40093 333 10340 29050 55055 58005;EQDQ01  00002PRCP06
0186829830999992003030712004-09380-040480FM-12+037099999V0201401N003110075019N0020001N1+02701+01991101291ADDAA106000091GF106991061021008001001001KA1240N+02461MA1999999097181MD1999999+0061REMSYN076AAXX  07124 82983 32595 61406 10270 20199 39718 40129 86200 333 20246 58006;EQDQ01  00002PRCP06
0167829830999992003030718004-09380-040480FM-12+037099999V0200901N002610450019N0020001N1+03361+01601100801ADDAA106000091GF106991031011008001021001MA1999999096741MD1999999+0071REMSYN070AAXX  07184 82983 32595 60905 10336 20160 39674 40080 83120 333 58007;EQDQ01  00002PRCP06
0198829830999992003030800004-09380-040480FM-12+037099999V0200901N002612200019N0020001N1+03121+01681101001ADDAA106000091GF103991031021008001001001KA1240M+03441MA1999999096911MD1999999+0071REMSYN088AAXX  08004 82983 32595 30905 10312 20168 39691 40100 83200 333 10344 29046 55083 58007;EQDQ01  00002PRCP06
0186829830999992003030812004-09380-040480FM-12+037099999V0201401N002610075019N0020001N1+02801+01951101281ADDAA106000091GF106991061011008001001001KA1240N+02441MA1999999097181MD1999999+0001REMSYN076AAXX  08124 82983 32595 61405 10280 20195 39718 40128 86100 333 20244 58000;EQDQ01  00002PRCP06
0208829830999992003030900004-09380-040480FM-12+037099999V0201401N003112200019N0020001N1+03041+01821100971ADDAA106000091GA1001+999999999GF100991001001999999001001KA1240M+03461MA1999999096881MD1999999-0031REMSYN082AAXX  09004 82983 32995 01406 10304 20182 39688 40097 333 10346 29048 55107 59003;EQDQ01  00002PRCP06
0202829830999992003030912004-09380-040480FM-12+037099999V0201401N004119999999N0020001N1+02681+01781101281ADDAA106000091GF105991999021008001001001KA1240N+02421MA1999999097171MD1999999-0011REMSYN076AAXX  09124 82983 32595 51408 10268 20178 39717 40128 83200 333 20242 59001;EQDQ01+000032SCOTLCQ02  00002PRCP06
0167829830999992003030918004-09380-040480FM-12+037099999V0201401N003112200019N0020001N1+03421+01611100771ADDAA106000091GF103991031021008001001001MA1999999096711MD1999999-0081REMSYN070AAXX  09184 82983 32595 31406 10342 20161 39671 40077 83200 333 59008;EQDQ01  00002PRCP06
0198829830999992003031000004-09380-040480FM-12+037099999V0200901N002610075019N0020001N1+03221+01431100961ADDAA106000091GF106991061021008001001001KA1240M+03541MA1999999096871MD1999999-0011REMSYN088AAXX  10004 82983 32595 60905 10322 20143 39687 40096 86200 333 10354 29040 55112 59001;EQDQ01  00002PRCP06
0186829830999992003031012004-09380-040480FM-12+037099999V0201401N003110075019N0020001N1+02801+02001101251ADDAA106000091GF106991061011008001001001KA1240N+02481MA1999999097171MD1999999+0001REMSYN076AAXX  10124 82983 32595 61406 10280 20200 39717 40125 86100 333 20248 58000;EQDQ01  00002PRCP06
0167829830999992003031018004-09380-040480FM-12+037099999V0200901N004112200019N0020001N1+03501+01631100691ADDAA106000091GF106991041011008001001011MA1999999096631MD1999999-0081REMSYN070AAXX  10184 82983 32595 60908 10350 20163 39663 40069 84101 333 59008;EQDQ01  00002PRCP06
0198829830999992003031100004-09380-040480FM-12+037099999V0200901N002610075019N0020001N1+03221+01731100891ADDAA106000091GF105991051011008001001001KA1240M+03621MA1999999096831MD1999999-0041REMSYN088AAXX  11004 82983 32595 50905 10322 20173 39683 40089 85100 333 10362 29044 55076 59004;EQDQ01  00002PRCP06
0186829830999992003031112004-09380-040480FM-12+037099999V0201401N003110075019N0020001N1+02681+02131101261ADDAA106000091GF106991061021008001001001KA1240N+02621MA1999999097161MD1999999-0011REMSYN076AAXX  11124 82983 32595 61406 10268 20213 39716 40126 86200 333 20262 59001;EQDQ01  00002PRCP06
0167829830999992003031118004-09380-040480FM-12+037099999V0200901N003110075019N0020001N1+03601+01571100701ADDAA106000091GF106991061011008001001001MA1999999096641MD1999999+0011REMSYN070AAXX  11184 82983 32595 60906 10360 20157 39664 40070 86100 333 58001;EQDQ01  00002PRCP06
0198829830999992003031200004-09380-040480FM-12+037099999V0200901N003112200019N0020001N1+03201+01591100921ADDAA106000091GF104991041011008001001001KA1240M+03671MA1999999096841MD1999999+0011REMSYN088AAXX  12004 82983 32595 40906 10320 20159 39684 40092 84100 333 10367 29044 55085 58001;EQDQ01  00002PRCP06
0186829830999992003031212004-09380-040480FM-12+037099999V0201401N003612200019N0020001N1+02721+01771101231ADDAA106000091GF103991031001008001021001KA1240N+02451MA1999999097141MD1999999-0021REMSYN076AAXX  12124 82983 32595 31407 10272 20177 39714 40123 83020 333 20245 59002;EQDQ01  00002PRCP06
0167829830999992003031218004-09380-040480FM-12+037099999V0200901N001012200019N0020001N1+03431+01601100751ADDAA106000091GF104991041011008001001001MA1999999096691MD1999999+0051REMSYN070AAXX  12184 82983 32595 40902 10343 20160 39669 40075 84100 333 58005;EQDQ01  00002PRCP06
0208829830999992003031300004-09380-040480FM-12+037099999V0200901N003112200019N0020001N1+03161+01511100851ADDAA106000091GA1001+999999999GF100991001001999999001001KA1240M+03571MA1999999096771MD1999999-0071REMSYN082AAXX  13004 82983 32995 00906 10316 20151 39677 40085 333 10357 29041 55106 59007;EQDQ01  00002PRCP06
0186829830999992003031312004-09380-040480FM-12+037099999V0201401N003610075019N0020001N1+02881+02031101151ADDAA106000091GF106991061021008001001001KA1240N+02541MA1999999097081MD1999999-0061REMSYN076AAXX  13124 82983 32595 61407 10288 20203 39708 40115 86200 333 20254 59006;EQDQ01  00002PRCP06
0167829830999992003031318004-09380-040480FM-12+037099999V0201401N002611050019N0020001N1+03421+01871100701ADDAA106000091GF105991021011008001021011MA1999999096641MD1999999-0051REMSYN070AAXX  13184 82983 32595 51405 10342 20187 39664 40070 82121 333 59005;EQDQ01  00002PRCP06
0198829830999992003031400004-09380-040480FM-12+037099999V0201801N001510075019N0020001N1+03141+01771100871ADDAA106000091GF105991051011008001001001KA1240M+03501MA1999999096811MD1999999+0041REMSYN088AAXX  14004 82983 32595 51803 10314 20177 39681 40087 85100 333 10350 29047 55092 58004;EQDQ01  00002PRCP06
0186829830999992003031412004-09380-040480FM-12+037099999V0201401N003112200019N0020001N1+02841+01961101171ADDAA106000091GF105991031011008001001011KA1240N+02581MA1999999097101MD1999999+0021REMSYN076AAXX  14124 82983 32595 51406 10284 20196 39710 40117 83101 333 20258 58002;EQDQ01  00002PRCP06
0167829830999992003031418004-09380-040480FM-12+037099999V0200901N003112200019N0020001N1+03561+01681100591ADDAA106000091GF103991031011008001001001MA1999999096541MD1999999-0101REMSYN070AAXX  14184 82983 32595 30906 10356 20168 39654 40059 83100 333 59010;EQDQ01  00002PRCP06
0198829830999992003031500004-09380-040480FM-12+037099999V0201401N002612200019N0020001N1+03201+01631100871ADDAA106000091GF102991021011008001001001KA1240M+03661MA1999999096811MD1999999+0001REMSYN088AAXX  15004 82983 32595 21405 10320 20163 39681 40087 82100 333 10366 29042 55105 58000;EQDQ01  00002PRCP06
0186829830999992003031512004-09380-040480FM-12+037099999V0201401N003110075019N0020001N1+02801+01921101351ADDAA106000091GF106991061011008001001001KA1240N+02601MA1999999097271MD1999999+0171REMSYN076AAXX  15124 82983 32595 61406 10280 20192 39727 40135 86100 333 20260 58017;EQDQ01  00002PRCP06
0167829830999992003031518004-09380-040480FM-12+037099999V0201401N002610450019N0020001N1+03501+01631100691ADDAA106000091GF106991041011008001021001MA1999999096631MD1999999+0091REMSYN070AAXX  15184 82983 32595 61405 10350 20163 39663 40069 84120 333 58009;EQDQ01  00002PRCP06
0162829830999992003031612004-09380-040480FM-12+037099999V0203601N003110075019N0020001N1+02461+01971101501ADDGF106991061021008001001001KA1240N+02381MA1999999097331MD1999999+0061REMSYN082AAXX  16124 82983 22595 63606 10246 20197 39733 40150 86200 333 20238 58006 60094;
0183829830999992003031618004-09380-040480FM-12+037099999V0203601N001519999999N0020001N1+03381+01101100731ADDAA106000091GF106991999011008001001001MA1999999096681MD1999999+0051REMSYN070AAXX  16184 82983 32595 63603 10338 20110 39668 40073 82100 333 58005;EQDQ01+000022SCOTLCQ02  00002PRCP06
0198829830999992003031700004-09380-040480FM-12+037099999V0200501N001510075019N0020001N1+02581+01991101211ADDAA106000091GF105991051011008001001001KA1240M+03501MA1999999097061MD1999999+0021REMSYN088AAXX  17004 82983 32595 50503 10258 20199 39706 40121 85100 333 10350 29060 55074 58002;EQDQ01  00002PRCP06
0167829830999992003031718004-09380-040480FM-12+037099999V0201801N003110450019N0020001N1+03281+01781100681ADDAA106000091GF105991031021008001021011MA1999999096601MD1999999-0081REMSYN070AAXX  17184 82983 32595 51806 10328 20178 39660 40068 83221 333 59008;EQDQ01  00002PRCP06
0198829830999992003031800004-09380-040480FM-12+037099999V0203601N002610075019N0020001N1+03001+01971100921ADDAA106000091GF106991061021008001001001KA1240M+03381MA1999999096831MD1999999-0231REMSYN088AAXX  18004 82983 32595 63605 10300 20197 39683 40092 86200 333 10338 29055 55084 59023;EQDQ01  00002PRCP06
0186829830999992003031812004-09380-040480FM-12+037099999V0201401N002110075019N0020001N1+02761+02041101201ADDAA106000091GF106991051011008001001011KA1240N+02501MA1999999097101MD1999999-0121REMSYN076AAXX  18124 82983 32595 61404 10276 20204 39710 40120 85101 333 20250 59012;EQDQ01  00002PRCP06
0167829830999992003031818004-09380-040480FM-12+037099999V0200901N003110075019N0020001N1+03381+01831100671ADDAA106000091GF105991051021008001001001MA1999999096591MD1999999-0011REMSYN070AAXX  18184 82983 32595 50906 10338 20183 39659 40067 85200 333 59001;EQDQ01  00002PRCP06
0190829830999992003031912004-09380-040480FM-12+037099999V0200901N002610075019N0020001N1+02541+02171101501ADDAY151061AY221061GF107991071021008001001001KA1240N+02301MA1999999097321MD1999999+0221MW1011REMSYN088AAXX  19124 82983 21595 70905 10254 20217 39732 40150 70152 87200 333 20230 58022 60014;
0167829830999992003031918004-09380-040480FM-12+037099999V0201401N005110075019N0020001N1+03101+02091100961ADDAA106000091GF106991061021008001001001MA1999999096841MD1999999+0251REMSYN070AAXX  19184 82983 32595 61410 10310 20209 39684 40096 86200 333 58025;EQDQ01  00002PRCP06
0198829830999992003032000004-09380-040480FM-12+037099999V0201401N002610075019N0020001N1+02701+02201101281ADDAA106000091GF107991071061008001001001KA1240M+03221MA1999999097141MD1999999+0021REMSYN088AAXX  20004 82983 32595 71405 10270 20220 39714 40128 87600 333 10322 29071 55067 58002;EQDQ01  00002PRCP06
0186829830999992003032012004-09380-040480FM-12+037099999V0201401N003110075019N0020001N1+02581+01991101471ADDAA106000091GF107991071021008001001001KA1240N+02401MA1999999097331MD1999999+0011REMSYN076AAXX  20124 82983 32595 71406 10258 20199 39733 40147 87200 333 20240 58001;EQDQ01  00002PRCP06
0167829830999992003032018004-09380-040480FM-12+037099999V0201401N002610450019N0020001N1+03201+01751100941ADDAA106000091GF106991031021008001011011MA1999999096851MD1999999+0011REMSYN070AAXX  20184 82983 32595 61405 10320 20175 39685 40094 83211 333 58001;EQDQ01  00002PRCP06
0198829830999992003032100004-09380-040480FM-12+037099999V0201401N001510075019N0020001N1+02761+02021101551ADDAA106000091GF106991061021008001001001KA1240M+03301MA1999999097111MD1999999-0031REMSYN088AAXX  21004 82983 32595 61403 10276 20202 39711 40155 86200 333 10330 29060 55085 59003;EQDQ01  00002PRCP06
0186829830999992003032112004-09380-040480FM-12+037099999V0201401N003110075019N0020001N1+02661+02071101361ADDAA106000091GF108991081051008001999999KA1240N+02441MA1999999097221MD1999999-0111REMSYN076AAXX  21124 82983 32595 81406 10266 20207 39722 40136 885// 333 20244 59011;EQDQ01  00002PRCP06
0167829830999992003032118004-09380-040480FM-12+037099999V0200901N004110450019N0020001N1+03201+01961100751ADDAA106000091GF106991041021008001011021MA1999999096671MD1999999-0181REMSYN070AAXX  21184 82983 32595 60908 10320 20196 39667 40075 84212 333 59018;EQDQ01  00002PRCP06
0186829830999992003032812004-09380-040480FM-12+037099999V0201401N004110075019N0020001N1+02701+01941101391ADDAA106000091GF106991061011008001001001KA1240N+02421MA1999999097251MD1999999+0071REMSYN076AAXX  28124 82983 32595 61408 10270 20194 39725 40139 86100 333 20242 58007;EQDQ01  00002PRCP06
0167829830999992003032818004-09380-040480FM-12+037099999V0201401N003110075019N0020001N1+03061+02081100971ADDAA106000091GF106991061011008001001001MA1999999096881MD1999999+0011REMSYN070AAXX  28184 82983 32595 61406 10306 20208 39688 40097 86100 333 58001;EQDQ01  00002PRCP06
0198829830999992003032900004-09380-040480FM-12+037099999V0200901N002610075019N0020001N1+02761+02161101191ADDAA106000091GF106991061011008001001001KA1240M+03161MA1999999097071MD1999999+0041REMSYN088AAXX  29004 82983 32595 60905 10276 20216 39707 40119 86100 333 10316 29065 55072 58004;EQDQ01  00002PRCP06
0186829830999992003032912004-09380-040480FM-12+037099999V0201401N003110075019N0020001N1+02661+02071101371ADDAA106000091GF106991061021008001001001KA1240N+02431MA1999999097231MD1999999-0041REMSYN076AAXX  29124 82983 32595 61406 10266 20207 39723 40137 86200 333 20243 59004;EQDQ01  00002PRCP06
0167829830999992003032918004-09380-040480FM-12+037099999V0200901N001512200019N0020001N1+03221+01841100861ADDAA106000091GF104991041021008001001001MA1999999096771MD1999999-0111REMSYN070AAXX  29184 82983 32595 40903 10322 20184 39677 40086 84200 333 59011;EQDQ01  00002PRCP06
0198829830999992003033000004-09380-040480FM-12+037099999V0201401N001512200019N0020001N1+02881+02031101021ADDAA106000091GF104991041011008001001001KA1240M+03281MA1999999096911MD1999999-0161REMSYN088AAXX  30004 82983 32595 41403 10288 20203 39691 40102 84100 333 10328 29058 55094 59016;EQDQ01  00002PRCP06
0186829830999992003033012004-09380-040480FM-12+037099999V0201401N004110450019N0020001N1+02701+01991101191ADDAA106000091GF106991021011008001021001KA1240N+02471MA1999999097091MD1999999-0141REMSYN076AAXX  30124 82983 32595 61408 10270 20199 39709 40119 82120 333 20247 59014;EQDQ01  00002PRCP06
0198829830999992003033100004-09380-040480FM-12+037099999V0201801N001512200019N0020001N1+02841+01911100991ADDAA106000091GF103991031011008001001001KA1240M+03221MA1999999096881MD1999999-0031REMSYN088AAXX  31004 82983 32595 31803 10284 20191 39688 40099 83100 333 10322 29056 55065 59003;EQDQ01  00002PRCP06
0186829830999992003033112004-09380-040480FM-12+037099999V0200901N004610075019N0020001N1+02621+01981101291ADDAA106000091GF106991051021008001001011KA1240N+02401MA1999999097171MD1999999+0081REMSYN076AAXX  31124 82983 32595 60909 10262 20198 39717 40129 85201 333 20240 58008;EQDQ01  00002PRCP06
0167829830999992003033118004-09380-040480FM-12+037099999V0201401N002612200019N0020001N1+03161+01891100761ADDAA106000091GF104991021011008001001021MA1999999096681MD1999999-0011REMSYN070AAXX  31184 82983 32595 41405 10316 20189 39668 40076 82102 333 59001;EQDQ01  00002PRCP06
0198829830999992003040100004-09380-040480FM-12+037099999V0209999C000012200019N0020001N1+02881+02161100971ADDAA106000091GF104991041011008001001001KA1240M+03231MA1999999096861MD1999999-0021REMSYN088AAXX  01004 82983 32595 40000 10288 20216 39686 40097 84100 333 10323 29061 55062 59002;EQDQ01  00002PRCP06
0186829830999992003040112004-09380-040480FM-12+037099999V0201401N003110075019N0020001N1+02681+02021101411ADDAA106000091GF106991061011008001001001KA1240N+02421MA1999999097271MD1999999+0101REMSYN076AAXX  01124 82983 32595 61406 10268 20202 39727 40141 86100 333 20242 58010;EQDQ01  00002PRCP06
0167829830999992003040118004-09380-040480FM-12+037099999V0201401N003110450019N0020001N1+03081+01951100961ADDAA106000091GF106991031011008001011021MA1999999096871MD1999999+0191REMSYN070AAXX  01184 82983 32595 61406 10308 20195 39687 40096 83112 333 58019;EQDQ01  00002PRCP06
0198829830999992003040200004-09380-040480FM-12+037099999V0200501N001512200019N0020001N1+02861+01951101151ADDAA106000091GF104991041021008001001001KA1240M+03121MA1999999097031MD1999999+0171REMSYN088AAXX  02004 82983 32595 40503 10286 20195 39703 40115 84200 333 10312 29058 55053 58017;EQDQ01  00002PRCP06
0186829830999992003040212004-09380-040480FM-12+037099999V0201401N003110075019N0020001N1+02581+01971101441ADDAA106000091GF106991051021008001001011KA1240N+02401MA1999999097301MD1999999+0031REMSYN076AAXX  02124 82983 32595 61406 10258 20197 39730 40144 85201 333 20240 58003;EQDQ01  00002PRCP06
0167829830999992003040218004-09380-040480FM-12+037099999V0200501N002610450019N0020001N1+03041+01941100991ADDAA106000091GF106991021011008001021001MA1999999096881MD1999999+0011REMSYN070AAXX  02184 82983 32595 60505 10304 20194 39688 40099 82120 333 58001;EQDQ01  00002PRCP06
0198829830999992003040300004-09380-040480FM-12+037099999V0203601N002612200019N0020001N1+02761+01971101171ADDAA106000091GF103991031011008001001001KA1240M+03181MA1999999097041MD1999999+0011REMSYN088AAXX  03004 82983 32595 33605 10276 20197 39704 40117 83100 333 10318 29061 55058 58001;EQDQ01  00002PRCP06
0186829830999992003040312004-09380-040480FM-12+037099999V0201401N004110075019N0020001N1+02681+01971101331ADDAA106000091GF106991061011008001001001KA1240N+02421MA1999999097191MD1999999-0111REMSYN076AAXX  03124 82983 32595 61408 10268 20197 39719 40133 86100 333 20242 59011;EQDQ01  00002PRCP06
0167829830999992003040318004-09380-040480FM-12+037099999V0201401N003112200019N0020001N1+03301+01721100801ADDAA106000091GF105991031011008001001011MA1999999096721MD1999999-0161REMSYN070AAXX  03184 82983 32595 51406 10330 20172 39672 40080 83101 333 59016;EQDQ01  00002PRCP06
0198829830999992003040400004-09380-040480FM-12+037099999V0201401N001510075019N0020001N1+02941+01761100971ADDAA106000091GF105991051011008001001001KA1240M+03321MA1999999096881MD1999999-0161REMSYN088AAXX  04004 82983 32595 51403 10294 20176 39688 40097 85100 333 10332 29050 55109 59016;EQDQ01  00002PRCP06
0186829830999992003040412004-09380-040480FM-12+037099999V0201401N004110075019N0020001N1+02721+02001101231ADDAA106000091GF105991051011008001001001KA1240N+02401MA1999999097131MD1999999-0061REMSYN076AAXX  04124 82983 32595 51408 10272 20200 39713 40123 85100 333 20240 59006;EQDQ01  00002PRCP06
0167829830999992003040418004-09380-040480FM-12+037099999V0201401N003110075019N0020001N1+03361+01811100721ADDAA106000091GF105991051011008001001001MA1999999096651MD1999999-0071REMSYN070AAXX  04184 82983 32595 51406 10336 20181 39665 40072 85100 333 59007;EQDQ01  00002PRCP06
0198829830999992003040500004-09380-040480FM-12+037099999V0209999C000012200019N0020001N1+02921+01801100931ADDAA106000091GF104991041011008001001001KA1240M+03441MA1999999096841MD1999999-0041REMSYN088AAXX  05004 82983 32595 40000 10292 20180 39684 40093 84100 333 10344 29052 55112 59004;EQDQ01  00002PRCP06
0186829830999992003040512004-09380-040480FM-12+037099999V0201401N003110075019N0020001N1+02681+02041101281ADDAA106000091GF106991061011008001001001KA1240N+02431MA1999999097171MD1999999+0041REMSYN076AAXX  05124 82983 32595 61406 10268 20204 39717 40128 86100 333 20243 58004;EQDQ01  00002PRCP06
0167829830999992003040518004-09380-040480FM-12+037099999V0201401N002112200019N0020001N1+03341+01801100831ADDAA106000091GF103991031011008001001001MA1999999096751MD1999999+0101REMSYN070AAXX  05184 82983 32595 31404 10334 20180 39675 40083 83100 333 58010;EQDQ01  00002PRCP06
0186829830999992003040612004-09380-040480FM-12+037099999V0200901N002612200019N0020001N1+02841+01881101261ADDAA106000091GF102991011011008001001011KA1240N+02481MA1999999097161MD1999999-0011REMSYN076AAXX  06124 82983 32595 20905 10284 20188 39716 40126 81101 333 20248 59001;EQDQ01  00002PRCP06
0167829830999992003040618004-09380-040480FM-12+037099999V0201401N001512200019N0020001N1+03401+01721100671ADDAA106000091GF104991041011008001001001MA1999999096611MD1999999-0141REMSYN070AAXX  06184 82983 32595 41403 10340 20172 39661 40067 84100 333 59014;EQDQ01  00002PRCP06
0208829830999992003040700004-09380-040480FM-12+037099999V0202701N001512200019N0020001N1+02961+01961100841ADDAA106000091GA1001+999999999GF100991001001999999001001KA1240M+03501MA1999999096751MD1999999-0071REMSYN082AAXX  07004 82983 32995 02703 10296 20196 39675 40084 333 10350 29051 55106 59007;EQDQ01  00002PRCP06
0190829830999992003040712004-09380-040480FM-12+037099999V0201401N001510450019N0020001N1+02361+02111101101ADDAY151061AY261061GF106991041021008001021001KA1240N+02261MA1999999096961MD1999999-0201MW1501REMSYN088AAXX  07124 82983 21595 61403 10236 20211 39696 40110 75056 84220 333 20226 59020 60044;
0148829830999992003040718004-09380-040480FM-12+037099999V0202701N002612200019N0020001N1+03221+02081100521ADDAA106000021GF102991021011008001001001MA1999999096451MD1999999-0161REMSYN070AAXX  07184 82983 32595 22705 10322 20208 39645 40052 82100 333 59016;
0198829830999992003040800004-09380-040480FM-12+037099999V0203201N002610075019N0020001N1+02761+02161100801ADDAA106000091GF106991061021008001001001KA1240M+03301MA1999999096671MD1999999-0081REMSYN088AAXX  08004 82983 32595 63205 10276 20216 39667 40080 86200 333 10330 29069 55078 59008;EQDQ01  00002PRCP06
0190829830999992003040812004-09380-040480FM-12+037099999V0201801N001512200019N0020001N1+02601+02231101091ADDAY151061AY261061GF104991041011008001001001KA1240N+02081MA1999999096961MD1999999+0001MW1031REMSYN088AAXX  08124 82983 21595 41803 10260 20223 39696 40109 70356 84100 333 20208 58000 60294;
0167829830999992003040818004-09380-040480FM-12+037099999V0200501N001512200019N0020001N1+03221+02081100601ADDAA106000091GF106991031011008001001011MA1999999096501MD1999999+0051REMSYN070AAXX  08184 82983 32595 60503 10322 20208 39650 40060 83101 333 58005;EQDQ01  00002PRCP06
0198829830999992003040900004-09380-040480FM-12+037099999V0200901N003110075019N0020001N1+02661+02111100941ADDAA106000091GF106991061021008001001001KA1240M+03321MA1999999096821MD1999999+0151REMSYN088AAXX  09004 82983 32595 60906 10266 20211 39682 40094 86200 333 10332 29069 55077 58015;EQDQ01  00002PRCP06
0190829830999992003040912004-09380-040480FM-12+037099999V0200901N003110075019N0020001N1+02541+02231101261ADDAY151061AY261061GF107991071021008001001001KA1240N+02361MA1999999097121MD1999999+0161MW1031REMSYN088AAXX  09124 82983 21595 70906 10254 20223 39712 40126 70356 87200 333 20236 58016 60114;
0167829830999992003040918004-09380-040480FM-12+037099999V0200501N003112200019N0020001N1+03141+02001100851ADDAA106000091GF102991021011008001001011MA1999999096751MD1999999+0251REMSYN070AAXX  09184 82983 32595 20506 10314 20200 39675 40085 82101 333 58025;EQDQ01  00002PRCP06
0208829830999992003041000004-09380-040480FM-12+037099999V0203601N001512200019N0020001N1+02641+02161101111ADDAA106000091GA1001+999999999GF100991001001999999001001KA1240M+03161MA1999999096971MD1999999+0151REMSYN082AAXX  10004 82983 32995 03603 10264 20216 39697 40111 333 10316 29071 55088 58015;EQDQ01  00002PRCP06
0186829830999992003041012004-09380-040480FM-12+037099999V0201401N002110075019N0020001N1+02701+02031101421ADDAA106000091GF106991061021008001001001KA1240N+02411MA1999999097281MD1999999+0161REMSYN076AAXX  10124 82983 32595 61404 10270 20203 39728 40142 86200 333 20241 58016;EQDQ01  00002PRCP06
0167829830999992003041018004-09380-040480FM-12+037099999V0200901N002112200019N0020001N1+03201+01891100881ADDAA106000091GF103991021011008001001011MA1999999096791MD1999999+0041REMSYN070AAXX  10184 82983 32595 30904 10320 20189 39679 40088 82101 333 58004;EQDQ01  00002PRCP06
0178829830999992003041100004-09380-040480FM-12+037099999V0203601N001012200019N0020001N1+02801+02111101091ADDAA106000091GF103991031021008001001001KA1240M+03301MA1999999096971REMSYN082AAXX  11004 82983 32595 33602 10280 20211 39697 40109 83200 333 10330 29061 55090;EQDQ01  00002PRCP06
0186829830999992003041112004-09380-040480FM-12+037099999V0200901N002610450019N0020001N1+02701+02011101361ADDAA106000091GF105991031011008001021001KA1240N+02441MA1999999097241MD1999999-0041REMSYN076AAXX  11124 82983 32595 50905 10270 20201 39724 40136 83120 333 20244 59004;EQDQ01  00002PRCP06
0167829830999992003041118004-09380-040480FM-12+037099999V0200901N001510450019N0020001N1+03201+01991100891ADDAA106000091GF105991021011008001021001MA1999999096801MD1999999+0011REMSYN070AAXX  11184 82983 32595 50903 10320 20199 39680 40089 82120 333 58001;EQDQ01  00002PRCP06
0214829830999992003041200004-09380-040480FM-12+037099999V0209999C000012200019N0020001N1+02781+02211101121ADDAA106000091GA1001+999999999GF100991001001999999001001KA1240M+03301MA1999999097001MD1999999+0031REMSYN088AAXX  12004 82983 32995 00000 10278 20221 39700 40112 81100 333 10330 29064 55088 58003;EQDQ01  00002PRCP06
0196829830999992003041212004-09380-040480FM-12+037099999V0201401N002612200019N0020001N1+02721+02031101391ADDAA106000091GA1001+999999999GF100991001001999999001001KA1240N+02381MA1999999097271MD1999999+0031REMSYN070AAXX  12124 82983 32995 01405 10272 20203 39727 40139 333 20238 58003;EQDQ01  00002PRCP06
0167829830999992003041218004-09380-040480FM-12+037099999V0200901N003112200019N0020001N1+03361+01971100911ADDAA106000091GF102991021011008001001001MA1999999096821MD1999999+0021REMSYN070AAXX  12184 82983 32595 20906 10336 20197 39682 40091 82100 333 58002;EQDQ01  00002PRCP06
0208829830999992003041300004-09380-040480FM-12+037099999V0200501N001512200019N0020001N1+02861+02161101151ADDAA106000091GA1001+999999999GF100991001001999999001001KA1240M+03491MA1999999097051MD1999999+0051REMSYN082AAXX  13004 82983 32995 00503 10286 20216 39705 40115 333 10349 29060 55108 58005;EQDQ01  00002PRCP06
0167829830999992003041318004-09380-040480FM-12+037099999V0200901N002612200019N0020001N1+03261+01841100981ADDAA106000091GF103991031011008001001001MA1999999096921MD1999999+0101REMSYN070AAXX  13184 82983 32595 30905 10326 20184 39692 40098 83100 333 58010;EQDQ01  00002PRCP06
0198829830999992003041400004-09380-040480FM-12+037099999V0203601N001512200019N0020001N1+02821+02051101301ADDAA106000091GF102991021011008001001001KA1240M+03361MA1999999097181MD1999999+0131REMSYN088AAXX  14004 82983 32595 23603 10282 20205 39718 40130 82100 333 10336 29058 55110 58013;EQDQ01  00002PRCP06
0186829830999992003041412004-09380-040480FM-12+037099999V0201401N003110075019N0020001N1+02681+02021101571ADDAA106000091GF106991061021008001001001KA1240N+02441MA1999999097441MD1999999+0021REMSYN076AAXX  14124 82983 32595 61406 10268 20202 39744 40157 86200 333 20244 58002;EQDQ01  00002PRCP06
0186829830999992003041512004-09380-040480FM-12+037099999V0201401N004110075019N0020001N1+02721+01901101561ADDAA106000091GF105991051011008001001001KA1240N+02381MA1999999097431MD1999999-0011REMSYN076AAXX  15124 82983 32595 51408 10272 20190 39743 40156 85100 333 20238 59001;EQDQ01  00002PRCP06
0167829830999992003041518004-09380-040480FM-12+037099999V0201401N003110075019N0020001N1+03161+01861100941ADDAA106000091GF105991051011008001001001MA1999999096851MD1999999-0081REMSYN070AAXX  15184 82983 32595 51406 10316 20186 39685 40094 85100 333 59008;EQDQ01  00002PRCP06
0198829830999992003041600004-09380-040480FM-12+037099999V0201401N001510075019N0020001N1+02941+01791101081ADDAA106000091GF106991061021008001001001KA1240M+03261MA1999999096981MD1999999-0181REMSYN088AAXX  16004 82983 32595 61403 10294 20179 39698 40108 86200 333 10326 29052 55105 59018;EQDQ01  00002PRCP06
0186829830999992003041612004-09380-040480FM-12+037099999V0200901N003112200019N0020001N1+02741+01841101381ADDAA106000091GF102991021011008001001001KA1240N+02521MA1999999097271MD1999999-0161REMSYN076AAXX  16124 82983 32595 20906 10274 20184 39727 40138 82100 333 20252 59016;EQDQ01  00002PRCP06
0167829830999992003041618004-09380-040480FM-12+037099999V0201401N003110075019N0020001N1+03261+01841100841ADDAA106000091GF105991051021008001001001MA1999999096761MD1999999-0091REMSYN070AAXX  16184 82983 32595 51406 10326 20184 39676 40084 85200 333 59009;EQDQ01  00002PRCP06
0198829830999992003041700004-09380-040480FM-12+037099999V0201801N003112200019N0020001N1+02761+02021101121ADDAA106000091GF104991041021008001001001KA1240M+03321MA1999999097001MD1999999+0021REMSYN088AAXX  17004 82983 32595 41806 10276 20202 39700 40112 84200 333 10332 29057 55108 58002;EQDQ01  00002PRCP06
0186829830999992003041712004-09380-040480FM-12+037099999V0201401N003610075019N0020001N1+02681+02041101461ADDAA106000091GF106991061021008001001001KA1240N+02431MA1999999097321MD1999999+0051REMSYN076AAXX  17124 82983 32595 61407 10268 20204 39732 40146 86200 333 20243 58005;EQDQ01  00002PRCP06
0198829830999992003041800004-09380-040480FM-12+037099999V0201801N003112200019N0020001N1+02881+01831101081ADDAA106000091GF102991021011008001001001KA1240M+03281MA1999999096981MD1999999-0021REMSYN088AAXX  18004 82983 32595 21806 10288 20183 39698 40108 82100 333 10328 29054 55084 59002;EQDQ01  00002PRCP06
0186829830999992003041812004-09380-040480FM-12+037099999V0201401N004110075019N0020001N1+02601+01921101401ADDAA106000091GF105991051011008001001001KA1240N+02351MA1999999097281MD1999999-0041REMSYN076AAXX  18124 82983 32595 51408 10260 20192 39728 40140 85100 333 20235 59004;EQDQ01  00002PRCP06
0167829830999992003041818004-09380-040480FM-12+037099999V0201401N004110075019N0020001N1+03241+01751100991ADDAA106000091GF106991061021008001001001MA1999999096971MD1999999+0061REMSYN070AAXX  18184 82983 32595 61408 10324 20175 39697 40099 86200 333 58006;EQDQ01  00002PRCP06
0198829830999992003041900004-09380-040480FM-12+037099999V0201801N001512200019N0020001N1+02861+01981101191ADDAA106000091GF102991021011008001001001KA1240M+03301MA1999999097071MD1999999+0091REMSYN088AAXX  19004 82983 32595 21803 10286 20198 39707 40119 82100 333 10330 29056 55105 58009;EQDQ01  00002PRCP06
0186829830999992003041912004-09380-040480FM-12+037099999V0201401N005110075019N0020001N1+02561+01801101501ADDAA106000091GF106991061011008001001001KA1240N+02361MA1999999097361MD1999999+0081REMSYN076AAXX  19124 82983 32595 61410 10256 20180 39736 40150 86100 333 20236 58008;EQDQ01  00002PRCP06
0167829830999992003041918004-09380-040480FM-12+037099999V0201401N003112200019N0020001N1+03181+01731101011ADDAA106000091GF103991031011008001001001MA1999999096901MD1999999+0001REMSYN070AAXX  19184 82983 32595 31406 10318 20173 39690 40101 83100 333 58000;EQDQ01  00002PRCP06
0198829830999992003042000004-09380-040480FM-12+037099999V0200901N005110075019N0020001N1+03021+01691101161ADDAA106000091GF106991061021008001001001KA1240M+03301MA1999999097061MD1999999-0011REMSYN088AAXX  20004 82983 32595 60910 10302 20169 39706 40116 86200 333 10330 29049 55112 59001;EQDQ01  00002PRCP06
0186829830999992003042012004-09380-040480FM-12+037099999V0201401N004112200019N0020001N1+02641+01931101321ADDAA106000091GF104991041011008001001001KA1240N+02401MA1999999097211MD1999999+0151REMSYN076AAXX  20124 82983 32595 41408 10264 20193 39721 40132 84100 333 20240 58015;EQDQ01  00002PRCP06
0167829830999992003042018004-09380-040480FM-12+037099999V0201401N003110075019N0020001N1+03221+01691100801ADDAA106000091GF106991061011008001001001MA1999999096721MD1999999-0181REMSYN070AAXX  20184 82983 32595 61406 10322 20169 39672 40080 86100 333 59018;EQDQ01  00002PRCP06
0208829830999992003042100004-09380-040480FM-12+037099999V0201401N003112200019N0020001N1+02781+01821101031ADDAA106000091GA1001+999999999GF100991001001999999001001KA1240M+03361MA1999999096911MD1999999-0151REMSYN082AAXX  21004 82983 32995 01406 10278 20182 39691 40103 333 10336 29054 55110 59015;EQDQ01  00002PRCP06
0186829830999992003042112004-09380-040480FM-12+037099999V0201401N005110075019N0020001N1+02701+01941101321ADDAA106000091GF106991061011008001001001KA1240N+02321MA1999999097201MD1999999-0011REMSYN076AAXX  21124 82983 32595 61410 10270 20194 39720 40132 86100 333 20232 59001;EQDQ01  00002PRCP06
0167829830999992003042118004-09380-040480FM-12+037099999V0201401N003110075019N0020001N1+03241+01751100901ADDAA106000091GF105991051011008001001001MA1999999096811MD1999999+0091REMSYN070AAXX  21184 82983 32595 51406 10324 20175 39681 40090 85100 333 58009;EQDQ01  00002PRCP06
0198829830999992003042200004-09380-040480FM-12+037099999V0201401N005112200019N0020001N1+02881+01831101161ADDAA106000091GF104991041011008001001001KA1240M+03301MA1999999097061MD1999999+0151REMSYN088AAXX  22004 82983 32595 41410 10288 20183 39706 40116 84100 333 10330 29052 55105 58015;EQDQ01  00002PRCP06
0186829830999992003042212004-09380-040480FM-12+037099999V0201401N004110075019N0020001N1+02601+01961101301ADDAA106000091GF106991061011008001001001KA1240N+02321MA1999999097181MD1999999-0021REMSYN076AAXX  22124 82983 32595 61408 10260 20196 39718 40130 86100 333 20232 59002;EQDQ01  00002PRCP06
0167829830999992003042218004-09380-040480FM-12+037099999V0201401N003110075019N0020001N1+03241+01781100891ADDAA106000091GF106991061011008001001001MA1999999096801MD1999999-0011REMSYN070AAXX  22184 82983 32595 61406 10324 20178 39680 40089 86100 333 59001;EQDQ01  00002PRCP06
0198829830999992003042300004-09380-040480FM-12+037099999V0200901N003612200019N0020001N1+02961+01461101161ADDAA106000091GF103991031011008001001001KA1240M+03341MA1999999097061MD1999999+0001REMSYN088AAXX  23004 82983 32595 30907 10296 20146 39706 40116 83100 333 10334 29048 55108 58000;EQDQ01  00002PRCP06
0186829830999992003042312004-09380-040480FM-12+037099999V0201401N003610075019N0020001N1+02461+02031101401ADDAA106000091GF106991061021008001001001KA1240N+02271MA1999999097261MD1999999+0081REMSYN076AAXX  23124 82983 32595 61407 10246 20203 39726 40140 86200 333 20227 58008;EQDQ01  00002PRCP06
0167829830999992003042318004-09380-040480FM-12+037099999V0200901N003110075019N0020001N1+03141+01731100911ADDAA106000091GF106991061021008001001001MA1999999096791MD1999999-0011REMSYN070AAXX  23184 82983 32595 60906 10314 20173 39679 40091 86200 333 59001;EQDQ01  00002PRCP06
0208829830999992003042400004-09380-040480FM-12+037099999V0200901N002612200019N0020001N1+02601+02121101221ADDAA106000091GA1001+999999999GF100991001001999999001001KA1240M+03201MA1999999097081MD1999999+0021REMSYN082AAXX  24004 82983 32995 00905 10260 20212 39708 40122 333 10320 29068 55055 58002;EQDQ01  00002PRCP06
0186829830999992003042412004-09380-040480FM-12+037099999V0201401N003110075019N0020001N1+02601+01921101521ADDAA106000091GF107991071021008001001001KA1240N+02371MA1999999097361MD1999999+0101REMSYN076AAXX  24124 82983 32595 71406 10260 20192 39736 40152 87200 333 20237 58010;EQDQ01  00002PRCP06
0167829830999992003042418004-09380-040480FM-12+037099999V0201401N003110450019N0020001N1+03161+01711100971ADDAA106000091GF106991031021008001021001MA1999999096861MD1999999+0071REMSYN070AAXX  24184 82983 32595 61406 10316 20171 39686 40097 83220 333 58007;EQDQ01  00002PRCP06
0208829830999992003042500004-09380-040480FM-12+037099999V0201801N001512200019N0020001N1+02661+01741101191ADDAA106000091GA1001+999999999GF100991001001999999001001KA1240M+03221MA1999999097051MD1999999-0031REMSYN082AAXX  25004 82983 32995 01803 10266 20174 39705 40119 333 10322 29056 55070 59003;EQDQ01  00002PRCP06
0186829830999992003042512004-09380-040480FM-12+037099999V0201401N005112200019N0020001N1+02561+01731101431ADDAA106000091GF104991041011008001001001KA1240N+02301MA1999999097291MD1999999-0071REMSYN076AAXX  25124 82983 32595 41410 10256 20173 39729 40143 84100 333 20230 59007;EQDQ01  00002PRCP06
0167829830999992003042518004-09380-040480FM-12+037099999V0201401N004110450019N0020001N1+03321+01481100891ADDAA106000091GF106991021011008001011021MA1999999096801MD1999999-0061REMSYN070AAXX  25184 82983 32595 61408 10332 20148 39680 40089 82112 333 59006;EQDQ01  00002PRCP06
0198829830999992003042600004-09380-040480FM-12+037099999V0201401N003112200019N0020001N1+02941+01511101211ADDAA106000091GF102991021011008001001001KA1240M+03361MA1999999097091MD1999999+0041REMSYN088AAXX  26004 82983 32595 21406 10294 20151 39709 40121 82100 333 10336 29045 55105 58004;EQDQ01  00002PRCP06
0186829830999992003042612004-09380-040480FM-12+037099999V0201401N003110075019N0020001N1+02601+01921101921ADDAA106000091GF106991061011008001001001KA1240N+02421MA1999999097391MD1999999+0101REMSYN076AAXX  26124 82983 32595 61406 10260 20192 39739 40192 86100 333 20242 58010;EQDQ01  00002PRCP06
0199829830999992003042618004-09380-040480FM-12+037099999V0201401N003112200019N0020001N1+03261+01721101092ADDAA106000091GF104991999011008001001001MA1999999096991MD1999999+0191REMSYN070AAXX  26184 82983 32595 41406 10326 20172 39699 40109 83100 333 58019;EQDQ01+000032SCOTLCQ02+101093APOSLPQ03  00002PRCP06
0208829830999992003042700004-09380-040480FM-12+037099999V0201801N001512200019N0020001N1+02841+01671101321ADDAA106000091GA1001+999999999GF100991001001999999001001KA1240M+03341MA1999999097181MD1999999+0091REMSYN082AAXX  27004 82983 32995 01803 10284 20167 39718 40132 333 10334 29051 55098 58009;EQDQ01  00002PRCP06
0186829830999992003042712004-09380-040480FM-12+037099999V0201401N004112200019N0020001N1+02681+01781101501ADDAA106000091GF103991021011008001031001KA1240N+02341MA1999999097371MD1999999-0021REMSYN076AAXX  27124 82983 32595 31408 10268 20178 39737 40150 82130 333 20234 59002;EQDQ01  00002PRCP06
0167829830999992003042718004-09380-040480FM-12+037099999V0201401N003112200019N0020001N1+03361+01601100941ADDAA106000091GF103991031011008001001001MA1999999096861MD1999999-0131REMSYN070AAXX  27184 82983 32595 31406 10336 20160 39686 40094 83100 333 59013;EQDQ01  00002PRCP06
0208829830999992003042800004-09380-040480FM-12+037099999V0201401N002612200019N0020001N1+02941+01591101211ADDAA106000091GA1001+999999999GF100991001001999999001001KA1240M+03321MA1999999097111MD1999999-0071REMSYN082AAXX  28004 82983 32995 01405 10294 20159 39711 40121 333 10332 29045 55104 59007;EQDQ01  00002PRCP06
0186829830999992003042812004-09380-040480FM-12+037099999V0201401N003110450019N0020001N1+02501+01941101421ADDAA106000091GF107991021011008001021001KA1240N+02401MA1999999097281MD1999999-0091REMSYN076AAXX  28124 82983 32595 71406 10250 20194 39728 40142 82120 333 20240 59009;EQDQ01  00002PRCP06
0167829830999992003042818004-09380-040480FM-12+037099999V0200901N003110075019N0020001N1+03221+01771100931ADDAA106000091GF106991061021008001001001MA1999999096841MD1999999+0081REMSYN070AAXX  28184 82983 32595 60906 10322 20177 39684 40093 86200 333 58008;EQDQ01  00002PRCP06
0208829830999992003042900004-09380-040480FM-12+037099999V0201401N001512200019N0020001N1+02741+01781101191ADDAA106000091GA1001+999999999GF100991001001999999001001KA1240M+03181MA1999999097051MD1999999-0061REMSYN082AAXX  29004 82983 32995 01403 10274 20178 39705 40119 333 10318 29056 55032 59006;EQDQ01  00002PRCP06
0186829830999992003042912004-09380-040480FM-12+037099999V0200901N003110450019N0020001N1+02621+01911101521ADDAA106000091GF106991011011008001011001KA1240N+02341MA1999999097381MD1999999+0101REMSYN076AAXX  29124 82983 32595 60906 10262 20191 39738 40152 81110 333 20234 58010;EQDQ01  00002PRCP06
0167829830999992003042918004-09380-040480FM-12+037099999V0200901N003110450019N0020001N1+03301+01591100951ADDAA106000091GF105991031011008001011001MA1999999096861MD1999999+0021REMSYN070AAXX  29184 82983 32595 50906 10330 20159 39686 40095 83110 333 58002;EQDQ01  00002PRCP06
0198829830999992003043000004-09380-040480FM-12+037099999V0201401N001512200019N0020001N1+03041+01711101151ADDAA106000091GF103991031011008001001001KA1240M+03401MA1999999097051MD1999999+0001REMSYN088AAXX  30004 82983 32595 31403 10304 20171 39705 40115 83100 333 10340 29048 55105 58000;EQDQ01  00002PRCP06
0186829830999992003043012004-09380-040480FM-12+037099999V0200901N004110075019N0020001N1+02661+01971101551ADDAA106000091GF106991061021008001001001KA1240N+02441MA1999999097431MD1999999+0051REMSYN076AAXX  30124 82983 32595 60908 10266 20197 39743 40155 86200 333 20244 58005;EQDQ01  00002PRCP06
0167829830999992003043018004-09380-040480FM-12+037099999V0201401N002112200019N0020001N1+03401+01721100931ADDAA106000091GF104991041011008001001001MA1999999096871MD1999999+0011REMSYN070AAXX  30184 82983 32595 41404 10340 20172 39687 40093 84100 333 58001;EQDQ01  00002PRCP06
0208829830999992003050100004-09380-040480FM-12+037099999V0201401N002612200019N0020001N1+03041+01641101231ADDAA106000091GA1001+999999999GF100991001001999999001001KA1240M+03501MA1999999097131MD1999999+0081REMSYN082AAXX  01004 82983 32995 01405 10304 20164 39713 40123 333 10350 29047 55083 58008;EQDQ01  00002PRCP06
0186829830999992003050112004-09380-040480FM-12+037099999V0201401N003110075019N0020001N1+02601+01991101551ADDAA106000091GF107991071011008001001001KA1240N+02441MA1999999097431MD1999999+0001REMSYN076AAXX  01124 82983 32595 71406 10260 20199 39743 40155 87100 333 20244 58000;EQDQ01  00002PRCP06
0167829830999992003050118004-09380-040480FM-12+037099999V0201401N001512200019N0020001N1+03321+01701100941ADDAA106000091GF104991041011008001001001MA1999999096851MD1999999-0021REMSYN070AAXX  01184 82983 32595 41403 10332 20170 39685 40094 84100 333 59002;EQDQ01  00002PRCP06
0198829830999992003050200004-09380-040480FM-12+037099999V0201401N001512200019N0020001N1+02861+01751101151ADDAA106000091GF104991041011008001001001KA1240M+03401MA1999999097031MD1999999+0101REMSYN088AAXX  02004 82983 32595 41403 10286 20175 39703 40115 84100 333 10340 29052 55073 58010;EQDQ01  00002PRCP06
0186829830999992003050212004-09380-040480FM-12+037099999V0200901N002610075019N0020001N1+02761+02041101351ADDAA106000091GF105991051011008001001001KA1240N+02581MA1999999097241MD1999999-0191REMSYN076AAXX  02124 82983 32595 50905 10276 20204 39724 40135 85100 333 20258 59019;EQDQ01  00002PRCP06
0167829830999992003050218004-09380-040480FM-12+037099999V0200901N002612200019N0020001N1+03361+01261100781ADDAA106000091GF102991021011008001001001MA1999999096711MD1999999-0141REMSYN070AAXX  02184 82983 32595 20905 10336 20126 39671 40078 82100 333 59014;EQDQ01  00002PRCP06
0208829830999992003050300004-09380-040480FM-12+037099999V0203601N001512200019N0020001N1+02821+01891100931ADDAA106000091GA1001+999999999GF100991001001999999001001KA1240M+03481MA1999999096841MD1999999-0191REMSYN082AAXX  03004 82983 32995 03603 10282 20189 39684 40093 333 10348 29052 55107 59019;EQDQ01  00002PRCP06
0186829830999992003050312004-09380-040480FM-12+037099999V0202701N002612200019N0020001N1+02861+02011101181ADDAA106000091GF102991021011008001001001KA1240N+02321MA1999999097081MD1999999-0161REMSYN076AAXX  03124 82983 32595 22705 10286 20201 39708 40118 82100 333 20232 59016;EQDQ01  00002PRCP06
0167829830999992003050318004-09380-040480FM-12+037099999V0200901N001512200019N0020001N1+03441+01921100611ADDAA106000091GF103991031011008001001001MA1999999096541MD1999999-0171REMSYN070AAXX  03184 82983 32595 30903 10344 20192 39654 40061 83100 333 59017;EQDQ01  00002PRCP06
0198829830999992003050400004-09380-040480FM-12+037099999V0202701N001512200019N0020001N1+02961+01961100901ADDAA106000091GF103991031011008001001001KA1240M+03561MA1999999096811MD1999999-0031REMSYN088AAXX  04004 82983 32595 32703 10296 20196 39681 40090 83100 333 10356 29053 55106 59003;EQDQ01  00002PRCP06
0186829830999992003050412004-09380-040480FM-12+037099999V0203601N001510075019N0020001N1+02381+02091101381ADDAA106000091GF108991081051008001999999KA1240N+02341MA1999999097241MD1999999+0161REMSYN076AAXX  04124 82983 32595 83603 10238 20209 39724 40138 885// 333 20234 58016;EQDQ01  00002PRCP06
0171829830999992003050418004-09380-040480FM-12+037099999V0203201N003110075019N0020001N1+02581+02061101211ADDAY151061AY221061GF107991071021008001001001MA1999999097071MD1999999+0531MW1031REMSYN082AAXX  04184 82983 21595 73206 10258 20206 39707 40121 70352 87200 333 58053 69951;
0198829830999992003050500004-09380-040480FM-12+037099999V0201801N001510075019N0020001N1+02381+02071101431ADDAA106000091GF105991051061008001001001KA1240M+03011MA1999999097281MD1999999+0441REMSYN088AAXX  05004 82983 32595 51803 10238 20207 39728 40143 85600 333 10301 29081 55007 58044;EQDQ01  00002PRCP06
0162829830999992003050512004-09380-040480FM-12+037099999V0201401N002610075019N0020001N1+02501+02051101571ADDGF106991061021008001001001KA1240N+02301MA1999999097391MD1999999+0151REMSYN082AAXX  05124 82983 22595 61405 10250 20205 39739 40157 86200 333 20230 58015 69924;
0167829830999992003050518004-09380-040480FM-12+037099999V0201401N003110075019N0020001N1+03001+01941101121ADDAA106000091GF105991051021008001001001MA1999999096981MD1999999-0091REMSYN070AAXX  05184 82983 32595 51406 10300 20194 39698 40112 85200 333 59009;EQDQ01  00002PRCP06
0198829830999992003050600004-09380-040480FM-12+037099999V0201401N003610075019N0020001N1+02581+01971101341ADDAA106000091GF106991061021008001001001KA1240M+03051MA1999999097181MD1999999-0071REMSYN088AAXX  06004 82983 32595 61407 10258 20197 39718 40134 86200 333 10305 29067 55061 59007;EQDQ01  00002PRCP06
0186829830999992003050612004-09380-040480FM-12+037099999V0201401N003110075019N0020001N1+02581+02041101451ADDAA106000091GF106991061021008001001001KA1240N+02341MA1999999097301MD1999999-0091REMSYN076AAXX  06124 82983 32595 61406 10258 20204 39730 40145 86200 333 20234 59009;EQDQ01  00002PRCP06
0167829830999992003050618004-09380-040480FM-12+037099999V0200501N003110075019N0020001N1+02821+01911101101ADDAA106000091GF106991061021008001001001MA1999999096961MD1999999-0021REMSYN070AAXX  06184 82983 32595 60506 10282 20191 39696 40110 86200 333 59002;EQDQ01  00002PRCP06
0208829830999992003050700004-09380-040480FM-12+037099999V0201801N001512200019N0020001N1+02481+02091101191ADDAA106000091GA1001+999999999GF100991001001999999001001KA1240M+02861MA1999999097051MD1999999-0131REMSYN082AAXX  07004 82983 32995 01803 10248 20209 39705 40119 333 10286 29072 55053 59013;EQDQ01  00002PRCP06
0186829830999992003050712004-09380-040480FM-12+037099999V0200901N003110075019N0020001N1+02521+02001101351ADDAA106000091GF108991081021008001999999KA1240N+02241MA1999999097191MD1999999-0111REMSYN076AAXX  07124 82983 32595 80906 10252 20200 39719 40135 882// 333 20224 59011;EQDQ01  00002PRCP06
0167829830999992003050718004-09380-040480FM-12+037099999V0201401N002612200019N0020001N1+03041+01911100971ADDAA106000091GF104991041011008001001001MA1999999096841MD1999999-0121REMSYN070AAXX  07184 82983 32595 41405 10304 20191 39684 40097 84100 333 59012;EQDQ01  00002PRCP06
0208829830999992003050800004-09380-040480FM-12+037099999V0209999C000012200019N0020001N1+02621+02071101151ADDAA106000091GA1001+999999999GF100991001001999999001001KA1240M+03161MA1999999097011MD1999999-0041REMSYN082AAXX  08004 82983 32995 00000 10262 20207 39701 40115 333 10316 29067 55057 59004;EQDQ01  00002PRCP06
0186829830999992003050812004-09380-040480FM-12+037099999V0201401N003112200019N0020001N1+02641+01951101361ADDAA106000091GF104991041011008001001001KA1240N+02321MA1999999097221MD1999999+0031REMSYN076AAXX  08124 82983 32595 41406 10264 20195 39722 40136 84100 333 20232 58003;EQDQ01  00002PRCP06
0167829830999992003050818004-09380-040480FM-12+037099999V0201401N003110075019N0020001N1+03281+01821100871ADDAA106000091GF105991051011008001001001MA1999999096781MD1999999-0061REMSYN070AAXX  08184 82983 32595 51406 10328 20182 39678 40087 85100 333 59006;EQDQ01  00002PRCP06
0198829830999992003050900004-09380-040480FM-12+037099999V0201401N002610075019N0020001N1+02861+01951101221ADDAA106000091GF105991051011008001001001KA1240M+03361MA1999999097101MD1999999+0091REMSYN088AAXX  09004 82983 32595 51405 10286 20195 39710 40122 85100 333 10336 29052 55105 58009;EQDQ01  00002PRCP06
0196829830999992003050912004-09380-040480FM-12+037099999V0200901N003112200019N0020001N1+02641+01881101521ADDAA106000091GA1001+999999999GF100991001001999999001001KA1240N+02301MA1999999097391MD1999999+0171REMSYN070AAXX  09124 82983 32995 00906 10264 20188 39739 40152 333 20230 58017;EQDQ01  00002PRCP06
0167829830999992003050918004-09380-040480FM-12+037099999V0200901N003112200019N0020001N1+03241+01931100941ADDAA106000091GF103991031011008001001001MA1999999096851MD1999999+0071REMSYN070AAXX  09184 82983 32595 30906 10324 20193 39685 40094 83100 333 58007;EQDQ01  00002PRCP06
0208829830999992003051000004-09380-040480FM-12+037099999V0209999C000012200019N0020001N1+02741+01701101241ADDAA106000091GA1001+999999999GF100991001001999999001001KA1240M+03341MA1999999097111MD1999999+0011REMSYN082AAXX  10004 82983 32995 00000 10274 20170 39711 40124 333 10334 29052 55108 58001;EQDQ01  00002PRCP06
0202829830999992003051012004-09380-040480FM-12+037099999V0200901N004112200019N0020001N1+02501+01871101591ADDAA106000091GF103991999011008001001001KA1240N+02251MA1999999097431MD1999999+0041REMSYN076AAXX  10124 82983 32595 30908 10250 20187 39743 40159 82100 333 20225 58004;EQDQ01+000022SCOTLCQ02  00002PRCP06
0183829830999992003051018004-09380-040480FM-12+037099999V0200901N003119999999N0020001N1+03201+01631101131ADDAA106000091GF105991999011008001001001MA1999999097011MD1999999-0161REMSYN070AAXX  10184 82983 32595 50906 10320 20163 39701 40113 84100 333 59016;EQDQ01+000042SCOTLCQ02  00002PRCP06
0198829830999992003051100004-09380-040480FM-12+037099999V0201401N004112200019N0020001N1+02801+01841101451ADDAA106000091GF102991021011008001001001KA1240M+03241MA1999999097311MD1999999+0201REMSYN088AAXX  11004 82983 32595 21408 10280 20184 39731 40145 82100 333 10324 29055 55103 58020;EQDQ01  00002PRCP06
0186829830999992003051112004-09380-040480FM-12+037099999V0201401N005110075019N0020001N1+02441+01861101741ADDAA106000091GF108991081051008001999999KA1240N+02321MA1999999097571MD1999999+0141REMSYN076AAXX  11124 82983 32595 81410 10244 20186 39757 40174 885// 333 20232 58014;EQDQ01  00002PRCP06
0167829830999992003051118004-09380-040480FM-12+037099999V0201801N004110075019N0020001N1+02741+01871101391ADDAA106000091GF106991061021008001001001MA1999999097231MD1999999+0221REMSYN070AAXX  11184 82983 32595 61808 10274 20187 39723 40139 86200 333 58022;EQDQ01  00002PRCP06
0198829830999992003051200004-09380-040480FM-12+037099999V0201401N002612200019N0020001N1+02501+01981101611ADDAA106000091GF104991041011008001001001KA1240M+02851MA1999999097431MD1999999+0121REMSYN088AAXX  12004 82983 32595 41405 10250 20198 39743 40161 84100 333 10285 29069 55029 58012;EQDQ01  00002PRCP06
0190829830999992003051212004-09380-040480FM-12+037099999V0201401N004610075019N0020001N1+02381+01971101761ADDAY111061AY251061GF107991071051008001001001KA1240N+02181MA1999999097571MD1999999+0001MW1011REMSYN088AAXX  12124 82983 21595 71409 10238 20197 39757 40176 70115 87500 333 20218 58000 69904;
0167829830999992003051218004-09380-040480FM-12+037099999V0201401N003110075019N0020001N1+02781+01981101331ADDAA106000091GF107991071021008001001001MA1999999097171MD1999999-0061REMSYN070AAXX  12184 82983 32595 71406 10278 20198 39717 40133 87200 333 59006;EQDQ01  00002PRCP06
0198829830999992003051300004-09380-040480FM-12+037099999V0201401N003610075019N0020001N1+02441+01971101611ADDAA106000091GF106991061061008001001001KA1240M+02861MA1999999097431MD1999999+0001REMSYN088AAXX  13004 82983 32595 61407 10244 20197 39743 40161 86600 333 10286 29072 55032 58000;EQDQ01  00002PRCP06
0186829830999992003051312004-09380-040480FM-12+037099999V0201401N004110075019N0020001N1+02481+01901101561ADDAA106000091GF107991071021008001001001KA1240N+02281MA1999999097381MD1999999-0191REMSYN076AAXX  13124 82983 32595 71408 10248 20190 39738 40156 87200 333 20228 59019;EQDQ01  00002PRCP06
0167829830999992003051318004-09380-040480FM-12+037099999V0201401N003110075019N0020001N1+02941+01821101171ADDAA106000091GF106991061021008001001001MA1999999097031MD1999999-0141REMSYN070AAXX  13184 82983 32595 61406 10294 20182 39703 40117 86200 333 59014;EQDQ01  00002PRCP06
0198829830999992003051400004-09380-040480FM-12+037099999V0201401N002610075019N0020001N1+02541+02021101461ADDAA106000091GF107991071021008001001001KA1240M+03041MA1999999097301MD1999999-0131REMSYN088AAXX  14004 82983 32595 71405 10254 20202 39730 40146 87200 333 10304 29067 55022 59013;EQDQ01  00002PRCP06
0186829830999992003051412004-09380-040480FM-12+037099999V0201401N004110075019N0020001N1+02481+01981101531ADDAA106000091GF106991061021008001001001KA1240N+02251MA1999999097361MD1999999-0021REMSYN076AAXX  14124 82983 32595 61408 10248 20198 39736 40153 86200 333 20225 59002;EQDQ01  00002PRCP06
0167829830999992003051418004-09380-040480FM-12+037099999V0201401N004112200019N0020001N1+03201+01421101041ADDAA106000091GF102991021011008001001001MA1999999096921MD1999999-0111REMSYN070AAXX  14184 82983 32595 21408 10320 20142 39692 40104 82100 333 59011;EQDQ01  00002PRCP06
0198829830999992003051500004-09380-040480FM-12+037099999V0201401N004112200019N0020001N1+02641+01931101421ADDAA106000091GF101991011011008001001001KA1240M+03241MA1999999097261MD1999999-0041REMSYN088AAXX  15004 82983 32595 11408 10264 20193 39726 40142 81100 333 10324 29060 55081 59004;EQDQ01  00002PRCP06
0186829830999992003051512004-09380-040480FM-12+037099999V0201401N003110075019N0020001N1+02461+01901101581ADDAA106000091GF107991071021008001001001KA1240N+02201MA1999999097421MD1999999+0061REMSYN076AAXX  15124 82983 32595 71406 10246 20190 39742 40158 87200 333 20220 58006;EQDQ01  00002PRCP06
0183829830999992003051518004-09380-040480FM-12+037099999V0201401N004110075019N0020001N1+02981+01591101191ADDAA106000091GF108991999021008001001001MA1999999097051MD1999999+0131REMSYN070AAXX  15184 82983 32595 81408 10298 20159 39705 40119 87200 333 58013;EQDQ01+000072SCOTLCQ02  00002PRCP06
0198829830999992003051600004-09380-040480FM-12+037099999V0201401N004112200019N0020001N1+02581+01871101421ADDAA106000091GF101991011011008001001001KA1240M+03081MA1999999097261MD1999999+0001REMSYN088AAXX  16004 82983 32595 11408 10258 20187 39726 40142 81100 333 10308 29061 55063 58000;EQDQ01  00002PRCP06
0186829830999992003051612004-09380-040480FM-12+037099999V0201401N004110075019N0020001N1+02461+01941101561ADDAA106000091GF106991061021008001001001KA1240N+02201MA1999999097391MD1999999-0031REMSYN076AAXX  16124 82983 32595 61408 10246 20194 39739 40156 86200 333 20220 59003;EQDQ01  00002PRCP06
0167829830999992003051618004-09380-040480FM-12+037099999V0201801N005710075019N0020001N1+02841+01961101141ADDAA106000091GF106991061021008001001001MA1999999097001MD1999999-0051REMSYN070AAXX  16184 82983 32595 61811 10284 20196 39700 40114 86200 333 59005;EQDQ01  00002PRCP06
0202829830999992003051700004-09380-040480FM-12+037099999V0201401N005110075019N0020001N1+02201+01901101501ADDAY121061AY251061GF108991081061008001999999KA1240M+03061MA1999999097321MD1999999+0061MW1031REMSYN100AAXX  17004 82983 21595 81410 10220 20190 39732 40150 70325 886// 333 10306 29074 55074 58006 69941;
0162829830999992003051712004-09380-040480FM-12+037099999V0201401N004110075019N0020001N1+02421+01791101461ADDGF106991061021008001001001KA1240N+02101MA1999999097271MD1999999-0121REMSYN082AAXX  17124 82983 22595 61408 10242 20179 39727 40146 86200 333 20210 59012 69944;
0167829830999992003051718004-09380-040480FM-12+037099999V0201401N004110075019N0020001N1+02741+01841101101ADDAA106000091GF106991061021008001001001MA1999999096941MD1999999-0061REMSYN070AAXX  17184 82983 32595 61408 10274 20184 39694 40110 86200 333 59006;EQDQ01  00002PRCP06
0198829830999992003051800004-09380-040480FM-12+037099999V0200901N004110075019N0020001N1+02481+01921101431ADDAA106000091GF108991081061008001999999KA1240M+02781MA1999999097261MD1999999-0061REMSYN088AAXX  18004 82983 32595 80908 10248 20192 39726 40143 886// 333 10278 29067 55043 59006;EQDQ01  00002PRCP06
0186829830999992003051812004-09380-040480FM-12+037099999V0201401N004110075019N0020001N1+02441+01921101511ADDAA106000091GF106991061021008001001001KA1240N+02171MA1999999097341MD1999999+0071REMSYN076AAXX  18124 82983 32595 61408 10244 20192 39734 40151 86200 333 20217 58007;EQDQ01  00002PRCP06
0167829830999992003051818004-09380-040480FM-12+037099999V0201401N004110075019N0020001N1+03061+01621101071ADDAA106000091GF105991051021008001001001MA1999999096941MD1999999+0001REMSYN070AAXX  18184 82983 32595 51408 10306 20162 39694 40107 85200 333 58000;EQDQ01  00002PRCP06
0198829830999992003051900004-09380-040480FM-12+037099999V0201401N001012200019N0040001N1+02621+01641101391ADDAA106000091GF103991031021008001001001KA1240M+03101MA1999999097351MD1999999-0031REMSYN088AAXX  19004 82983 32596 31402 10262 20164 39735 40139 83200 333 10310 29056 55102 59003;EQDQ01  00002PRCP06
0186829830999992003051912004-09380-040480FM-12+037099999V0201401N004110075019N0020001N1+02521+01841101561ADDAA106000091GF107991071051008001001001KA1240N+02201MA1999999097401MD1999999+0061REMSYN076AAXX  19124 82983 32595 71408 10252 20184 39740 40156 87500 333 20220 58006;EQDQ01  00002PRCP06
0167829830999992003051918004-09380-040480FM-12+037099999V0201401N004110075019N0020001N1+02901+01841101141ADDAA106000091GF106991061011008001001001MA1999999097001MD1999999+0061REMSYN070AAXX  19184 82983 32595 61408 10290 20184 39700 40114 86100 333 58006;EQDQ01  00002PRCP06
0198829830999992003052000004-09380-040480FM-12+037099999V0201401N003110075019N0020001N1+02641+01901101361ADDAA106000091GF106991061021008001001001KA1240M+03001MA1999999097211MD1999999-0021REMSYN088AAXX  20004 82983 32595 61406 10264 20190 39721 40136 86200 333 10300 29062 55059 59002;EQDQ01  00002PRCP06
0186829830999992003052012004-09380-040480FM-12+037099999V0201401N004110075019N0020001N1+02481+01921101561ADDAA106000091GF106991061021008001001001KA1240N+02261MA1999999097401MD1999999+0001REMSYN076AAXX  20124 82983 32595 61408 10248 20192 39740 40156 86200 333 20226 58000;EQDQ01  00002PRCP06
0167829830999992003052018004-09380-040480FM-12+037099999V0201401N004110075019N0020001N1+02841+01821101141ADDAA106000091GF107991071021008001001001MA1999999097001MD1999999+0001REMSYN070AAXX  20184 82983 32595 71408 10284 20182 39700 40114 87200 333 58000;EQDQ01  00002PRCP06
0198829830999992003052100004-09380-040480FM-12+037099999V0201401N002610075019N0020001N1+02541+01911101501ADDAA106000091GF106991061021008001001001KA1240M+02941MA1999999097341MD1999999+0131REMSYN088AAXX  21004 82983 32595 61405 10254 20191 39734 40150 86200 333 10294 29065 55043 58013;EQDQ01  00002PRCP06
0186829830999992003052112004-09380-040480FM-12+037099999V0201401N003110075019N0020001N1+02601+01891101511ADDAA106000091GF106991061021008001001001KA1240N+02261MA1999999097351MD1999999-0051REMSYN076AAXX  21124 82983 32595 61406 10260 20189 39735 40151 86200 333 20226 59005;EQDQ01  00002PRCP06
0167829830999992003052118004-09380-040480FM-12+037099999V0201401N004110075019N0020001N1+03041+01681101111ADDAA106000091GF106991061011008001001001MA1999999096971MD1999999-0031REMSYN070AAXX  21184 82983 32595 61408 10304 20168 39697 40111 86100 333 59003;EQDQ01  00002PRCP06
0198829830999992003052200004-09380-040480FM-12+037099999V0201401N003110075019N0020001N1+02641+01801101371ADDAA106000091GF105991051021008001001001KA1240M+03141MA1999999097221MD1999999-0121REMSYN088AAXX  22004 82983 32595 51406 10264 20180 39722 40137 85200 333 10314 29057 55070 59012;EQDQ01  00002PRCP06
0186829830999992003052212004-09380-040480FM-12+037099999V0201401N004612200019N0020001N1+02621+01931101521ADDAA106000091GF103991031011008001001001KA1240N+02321MA1999999097371MD1999999+0021REMSYN076AAXX  22124 82983 32595 31409 10262 20193 39737 40152 83100 333 20232 58002;EQDQ01  00002PRCP06
0167829830999992003052218004-09380-040480FM-12+037099999V0201401N003610075019N0020001N1+03141+01911101111ADDAA106000091GF105991051021008001001001MA1999999096991MD1999999+0021REMSYN070AAXX  22184 82983 32595 51407 10314 20191 39699 40111 85200 333 58002;EQDQ01  00002PRCP06
0208829830999992003052300004-09380-040480FM-12+037099999V0201401N002112200019N0020001N1+02741+01871101431ADDAA106000091GA1001+999999999GF100991001001999999001001KA1240M+03201MA1999999097291MD1999999+0071REMSYN082AAXX  23004 82983 32995 01404 10274 20187 39729 40143 333 10320 29058 55105 58007;EQDQ01  00002PRCP06
0186829830999992003052312004-09380-040480FM-12+037099999V0201401N002612200019N0020001N1+02541+01881101511ADDAA106000091GF101991011011008001001001KA1240N+02181MA1999999097361MD1999999-0011REMSYN076AAXX  23124 82983 32595 11405 10254 20188 39736 40151 81100 333 20218 59001;EQDQ01  00002PRCP06
0167829830999992003052318004-09380-040480FM-12+037099999V0201401N002612200019N0020001N1+03241+01751101031ADDAA106000091GF103991031011008001001001MA1999999096921MD1999999-0071REMSYN070AAXX  23184 82983 32595 31405 10324 20175 39692 40103 83100 333 59007;EQDQ01  00002PRCP06
0208829830999992003052400004-09380-040480FM-12+037099999V0201401N002612200019N0020001N1+02741+01841101311ADDAA106000091GA1001+999999999GF100991001001999999001001KA1240M+03301MA1999999097171MD1999999-0121REMSYN082AAXX  24004 82983 32995 01405 10274 20184 39717 40131 333 10330 29056 55105 59012;EQDQ01  00002PRCP06
0186829830999992003052412004-09380-040480FM-12+037099999V0201401N002112200019N0020001N1+02441+01951101401ADDAA106000091GF103991031011008001001001KA1240N+02211MA1999999097251MD1999999-0111REMSYN076AAXX  24124 82983 32595 31404 10244 20195 39725 40140 83100 333 20221 59011;EQDQ01  00002PRCP06
0167829830999992003052418004-09380-040480FM-12+037099999V0200901N001512200019N0020001N1+03361+01601100661ADDAA106000091GF102991021011008001001001MA1999999096581MD1999999-0341REMSYN070AAXX  24184 82983 32595 20903 10336 20160 39658 40066 82100 333 59034;EQDQ01  00002PRCP06
0208829830999992003052500004-09380-040480FM-12+037099999V0209999C000012200019N0020001N1+02841+01601100931ADDAA106000091GA1001+999999999GF100991001001999999001001KA1240M+03441MA1999999096811MD1999999-0361REMSYN082AAXX  25004 82983 32995 00000 10284 20160 39681 40093 333 10344 29051 55104 59036;EQDQ01  00002PRCP06
0186829830999992003052512004-09380-040480FM-12+037099999V0200901N002612200019N0020001N1+02761+02041101241ADDAA106000091GF102991011011008001001011KA1240N+02301MA1999999097141MD1999999-0111REMSYN076AAXX  25124 82983 32595 20905 10276 20204 39714 40124 81101 333 20230 59011;EQDQ01  00002PRCP06
0167829830999992003052518004-09380-040480FM-12+037099999V0203601N001512200019N0020001N1+03461+01731100741ADDAA106000091GF106991031011008001001011MA1999999096671MD1999999+0091REMSYN070AAXX  25184 82983 32595 63603 10346 20173 39667 40074 83101 333 58009;EQDQ01  00002PRCP06
0208829830999992003052600004-09380-040480FM-12+037099999V0209999C000012200019N0020001N1+02841+01731100941ADDAA106000091GA1001+999999999GF100991001001999999001001KA1240M+03521MA1999999096851MD1999999+0041REMSYN082AAXX  26004 82983 32995 00000 10284 20173 39685 40094 333 10352 29051 55106 58004;EQDQ01  00002PRCP06
0196829830999992003052612004-09380-040480FM-12+037099999V0200901N002612200019N0020001N1+02881+02031101221ADDAA106000091GA1001+999999999GF100991001001999999001001KA1240N+02401MA1999999097171MD1999999+0031REMSYN070AAXX  26124 82983 32595 00905 10288 20203 39717 40122 333 20240 58003;EQDQ01  00002PRCP06
0167829830999992003052618004-09380-040480FM-12+037099999V0201401N002612200019N0020001N1+03421+01781100831ADDAA106000091GF103991031011008001001001MA1999999096751MD1999999+0081REMSYN070AAXX  26184 82983 32595 31405 10342 20178 39675 40083 83100 333 58008;EQDQ01  00002PRCP06
0208829830999992003052700004-09380-040480FM-12+037099999V0201801N002612200019N0020001N1+02841+02071101201ADDAA106000091GA1001+999999999GF100991001001999999001001KA1240M+03501MA1999999097101MD1999999+0151REMSYN082AAXX  27004 82983 32995 01805 10284 20207 39710 40120 333 10350 29056 55084 58015;EQDQ01  00002PRCP06
0186829830999992003052712004-09380-040480FM-12+037099999V0201401N004110075019N0020001N1+02701+02061101581ADDAA106000091GF107991071051008001001001KA1240N+02501MA1999999097451MD1999999+0281REMSYN076AAXX  27124 82983 32595 71408 10270 20206 39745 40158 87500 333 20250 58028;EQDQ01  00002PRCP06
0167829830999992003052718004-09380-040480FM-12+037099999V0201401N003112200019N0020001N1+03261+01721101091ADDAA106000091GF105991031011008001001011MA1999999096991MD1999999+0241REMSYN070AAXX  27184 82983 32595 51406 10326 20172 39699 40109 83101 333 58024;EQDQ01  00002PRCP06
0208829830999992003052800004-09380-040480FM-12+037099999V0201401N004112200019N0020001N1+02721+02001101451ADDAA106000091GA1001+999999999GF100991001001999999001001KA1240M+03321MA1999999097311MD1999999+0211REMSYN082AAXX  28004 82983 32995 01408 10272 20200 39731 40145 333 10332 29060 55062 58021;EQDQ01  00002PRCP06
0186829830999992003052812004-09380-040480FM-12+037099999V0201401N003610075019N0020001N1+02641+01951101631ADDAA106000091GF105991051011008001001001KA1240N+02431MA1999999097491MD1999999+0041REMSYN076AAXX  28124 82983 32595 51407 10264 20195 39749 40163 85100 333 20243 58004;EQDQ01  00002PRCP06
0167829830999992003052818004-09380-040480FM-12+037099999V0200901N002610075019N0020001N1+03181+01771101161ADDAA106000091GF105991051011008001001001MA1999999097041MD1999999+0051REMSYN070AAXX  28184 82983 32595 50905 10318 20177 39704 40116 85100 333 58005;EQDQ01  00002PRCP06
0208829830999992003052900004-09380-040480FM-12+037099999V0201401N003612200019N0020001N1+02681+02021101411ADDAA106000091GA1001+999999999GF100991001001999999001001KA1240M+03261MA1999999097271MD1999999-0041REMSYN082AAXX  29004 82983 32995 01407 10268 20202 39727 40141 333 10326 29061 55104 59004;EQDQ01  00002PRCP06
0186829830999992003052912004-09380-040480FM-12+037099999V0201401N003610075019N0020001N1+02581+01991101591ADDAA106000091GF106991061021008001001001KA1240N+02381MA1999999097441MD1999999-0051REMSYN076AAXX  29124 82983 32595 61407 10258 20199 39744 40159 86200 333 20238 59005;EQDQ01  00002PRCP06
0167829830999992003052918004-09380-040480FM-12+037099999V0201401N003610075019N0020001N1+02801+01921101351ADDAA106000091GF106991061021008001001001MA1999999097191MD1999999+0151REMSYN070AAXX  29184 82983 32595 61407 10280 20192 39719 40135 86200 333 58015;EQDQ01  00002PRCP06
0198829830999992003053000004-09380-040480FM-12+037099999V0201401N004112200019N0020001N1+02421+01911101571ADDAA106000091GF103991031011008001001001KA1240M+02891MA1999999097401MD1999999+0131REMSYN088AAXX  30004 82983 32595 31408 10242 20191 39740 40157 83100 333 10289 29069 55043 58013;EQDQ01  00002PRCP06
0186829830999992003053012004-09380-040480FM-12+037099999V0201401N005110075019N0020001N1+02361+01951101671ADDAA106000091GF108991081051008001999999KA1240N+02251MA1999999097491MD1999999+0051REMSYN076AAXX  30124 82983 32595 81410 10236 20195 39749 40167 885// 333 20225 58005;EQDQ01  00002PRCP06
0167829830999992003053018004-09380-040480FM-12+037099999V0200901N003110075019N0020001N1+02821+01941101251ADDAA106000091GF106991061021008001001001MA1999999097091MD1999999-0101REMSYN070AAXX  30184 82983 32595 60906 10282 20194 39709 40125 86200 333 59010;EQDQ01  00002PRCP06
0198829830999992003053100004-09380-040480FM-12+037099999V0201801N002610075019N0020001N1+02381+01891101601ADDAA106000091GF106991061061008001001001KA1240M+02941MA1999999097411MD1999999+0011REMSYN088AAXX  31004 82983 32595 61805 10238 20189 39741 40160 86600 333 10294 29071 55025 58001;EQDQ01  00002PRCP06
0186829830999992003053112004-09380-040480FM-12+037099999V0201401N003110075019N0020001N1+02461+01971101751ADDAA106000091GF107991071021008001001001KA1240N+02161MA1999999097561MD1999999+0071REMSYN076AAXX  31124 82983 32595 71406 10246 20197 39756 40175 87200 333 20216 58007;EQDQ01  00002PRCP06
0167829830999992003053118004-09380-040480FM-12+037099999V0201401N003112200019N0020001N1+03061+01771101261ADDAA106000091GF104991041011008001001001MA1999999097121MD1999999+0031REMSYN070AAXX  31184 82983 32595 41406 10306 20177 39712 40126 84100 333 58003;EQDQ01  00002PRCP06
0198829830999992003060100004-09380-040480FM-12+037099999V0201401N004112200019N0020001N1+02461+01971101631ADDAA106000091GF103991031011008001001001KA1240M+03121MA1999999097451MD1999999+0041REMSYN088AAXX  01004 82983 32595 31408 10246 20197 39745 40163 83100 333 10312 29071 55078 58004;EQDQ01  00002PRCP06
0186829830999992003060112004-09380-040480FM-12+037099999V0201401N004110075019N0020001N1+02501+01821101701ADDAA106000091GF106991061011008001001001KA1240N+02201MA1999999097531MD1999999-0031REMSYN076AAXX  01124 82983 32595 61408 10250 20182 39753 40170 86100 333 20220 59003;EQDQ01  00002PRCP06
0208829830999992003060200004-09380-040480FM-12+037099999V0201401N003112200019N0020001N1+02481+01901101541ADDAA106000091GA1001+999999999GF100991001001999999001001KA1240M+02981MA1999999097361MD1999999-0091REMSYN082AAXX  02004 82983 32995 01406 10248 20190 39736 40154 333 10298 29069 55076 59009;EQDQ01  00002PRCP06
0208829830999992003060300004-09380-040480FM-12+037099999V0201401N004112200019N0020001N1+02541+01951101401ADDAA106000091GA1001+999999999GF100991001001999999001001KA1240M+03221MA1999999097231MD1999999-0131REMSYN082AAXX  03004 82983 32995 01408 10254 20195 39723 40140 333 10322 29070 55107 59013;EQDQ01  00002PRCP06
0186829830999992003060312004-09380-040480FM-12+037099999V0201401N005112200019N0020001N1+02481+01851101671ADDAA106000091GF104991041011008001001001KA1240N+02141MA1999999097501MD1999999+0141REMSYN076AAXX  03124 82983 32595 41410 10248 20185 39750 40167 84100 333 20214 58014;EQDQ01  00002PRCP06
0198829830999992003060400004-09380-040480FM-12+037099999V0201401N003112200019N0020001N1+02661+01871101351ADDAA106000091GF103991031021008001001001KA1240M+03241MA1999999097191MD1999999-0191REMSYN088AAXX  04004 82983 32595 31406 10266 20187 39719 40135 83200 333 10324 29070 55104 59019;EQDQ01  00002PRCP06
0202829830999992003060412004-09380-040480FM-12+037099999V0201401N003112200019N0020001N1+02561+01881101551ADDAA106000091GF104991999011008001001001KA1240N+02221MA1999999097391MD1999999-0111REMSYN076AAXX  04124 82983 32595 41406 10256 20188 39739 40155 83100 333 20222 59011;EQDQ01+000032SCOTLCQ02  00002PRCP06
0208829830999992003060500004-09380-040480FM-12+037099999V0201801N004112200019N0020001N1+02601+02061101341ADDAA106000091GA1001+999999999GF100991001001999999001001KA1240M+03221MA1999999097191MD1999999+0001REMSYN082AAXX  05004 82983 32995 01808 10260 20206 39719 40134 333 10322 29070 55108 58000;EQDQ01  00002PRCP06
0186829830999992003060512004-09380-040480FM-12+037099999V0201401N004110075019N0020001N1+02461+01881101561ADDAA106000091GF106991061021008001001001KA1240N+02221MA1999999097401MD1999999+0011REMSYN076AAXX  05124 82983 32595 61408 10246 20188 39740 40156 86200 333 20222 58001;EQDQ01  00002PRCP06
0198829830999992003060600004-09380-040480FM-12+037099999V0201401N004110075019N0020001N1+02441+01901101511ADDAA106000091GF105991051011008001001001KA1240M+03101MA1999999097341MD1999999+0151REMSYN088AAXX  06004 82983 32595 51408 10244 20190 39734 40151 85100 333 10310 29071 55075 58015;EQDQ01  00002PRCP06
0186829830999992003060612004-09380-040480FM-12+037099999V0201401N004110075019N0020001N1+02481+01851101651ADDAA106000091GF106991061011008001001001KA1240N+02141MA1999999097471MD1999999+0071REMSYN076AAXX  06124 82983 32595 61408 10248 20185 39747 40165 86100 333 20214 58007;EQDQ01  00002PRCP06
0198829830999992003060700004-09380-040480FM-12+037099999V0201801N004112200019N0020001N1+02501+01821101461ADDAA106000091GF102991021011008001001001KA1240M+03201MA1999999097301MD1999999-0041REMSYN088AAXX  07004 82983 32595 21808 10250 20182 39730 40146 82100 333 10320 29067 55101 59004;EQDQ01  00002PRCP06
0186829830999992003060712004-09380-040480FM-12+037099999V0201401N004110075019N0020001N1+02521+01841101651ADDAA106000091GF105991051011008001001001KA1240N+02181MA1999999097481MD1999999+0011REMSYN076AAXX  07124 82983 32595 51408 10252 20184 39748 40165 85100 333 20218 58001;EQDQ01  00002PRCP06
0208829830999992003060800004-09380-040480FM-12+037099999V0201401N003112200019N0020001N1+02541+01781101371ADDAA106000091GA1001+999999999GF100991001001999999001001KA1240M+03101MA1999999097211MD1999999-0091REMSYN082AAXX  08004 82983 32995 01406 10254 20178 39721 40137 333 10310 29064 55104 59009;EQDQ01  00002PRCP06
0186829830999992003060812004-09380-040480FM-12+037099999V0201401N004110075019N0020001N1+02261+01771101601ADDAA106000091GF108991081051008001999999KA1240N+02101MA1999999097421MD1999999-0061REMSYN076AAXX  08124 82983 32595 81408 10226 20177 39742 40160 885// 333 20210 59006;EQDQ01  00002PRCP06
0208829830999992003060900004-09380-040480FM-12+037099999V0201401N003112200019N0020001N1+02501+01911101491ADDAA106000091GA1001+999999999GF100991001001999999001001KA1240M+03061MA1999999097311MD1999999+0101REMSYN082AAXX  09004 82983 32995 01406 10250 20191 39731 40149 333 10306 29071 55088 58010;EQDQ01  00002PRCP06
0186829830999992003060912004-09380-040480FM-12+037099999V0201401N004110075019N0020001N1+02461+01881101581ADDAA106000091GF105991051011008001001001KA1240N+02061MA1999999097411MD1999999-0011REMSYN076AAXX  09124 82983 32595 51408 10246 20188 39741 40158 85100 333 20206 59001;EQDQ01  00002PRCP06
0208829830999992003061000004-09380-040480FM-12+037099999V0201401N003112200019N0020001N1+02561+01841101501ADDAA106000091GA1001+999999999GF100991001001999999001001KA1240M+03121MA1999999097341MD1999999+0031REMSYN082AAXX  10004 82983 32995 01406 10256 20184 39734 40150 333 10312 29065 55102 58003;EQDQ01  00002PRCP06
0186829830999992003061012004-09380-040480FM-12+037099999V0201401N004110075019N0020001N1+02461+01831101661ADDAA106000091GF107991071021008001001001KA1240N+02161MA1999999097491MD1999999+0081REMSYN076AAXX  10124 82983 32595 71408 10246 20183 39749 40166 87200 333 20216 58008;EQDQ01  00002PRCP06
0198829830999992003061100004-09380-040480FM-12+037099999V0201401N003110075019N0020001N1+02541+01911101471ADDAA106000091GF105991051021008001001001KA1240M+03041MA1999999097311MD1999999-0031REMSYN088AAXX  11004 82983 32595 51406 10254 20191 39731 40147 85200 333 10304 29068 55073 59003;EQDQ01  00002PRCP06
0186829830999992003061112004-09380-040480FM-12+037099999V0201401N004110075019N0020001N1+02461+01831101621ADDAA106000091GF105991051011008001001001KA1240N+02141MA1999999097451MD1999999-0041REMSYN076AAXX  11124 82983 32595 51408 10246 20183 39745 40162 85100 333 20214 59004;EQDQ01  00002PRCP06
0208829830999992003061200004-09380-040480FM-12+037099999V0201401N002612200019N0020001N1+02521+01771101471ADDAA106000091GA1001+999999999GF100991001001999999001001KA1240M+03061MA1999999097311MD1999999+0001REMSYN082AAXX  12004 82983 32995 01405 10252 20177 39731 40147 333 10306 29065 55105 58000;EQDQ01  00002PRCP06
0186829830999992003061212004-09380-040480FM-12+037099999V0201401N003110075019N0020001N1+02461+01901101471ADDAA106000091GF107991071021008001001001KA1240N+02261MA1999999097311MD1999999-0141REMSYN076AAXX  12124 82983 32595 71406 10246 20190 39731 40147 87200 333 20226 59014;EQDQ01  00002PRCP06
0208829830999992003061300004-09380-040480FM-12+037099999V0201401N003112200019N0020001N1+02421+01821101391ADDAA106000091GA1001+999999999GF100991001001999999001001KA1240M+03001MA1999999097221MD1999999-0091REMSYN082AAXX  13004 82983 32995 01406 10242 20182 39722 40139 333 10300 29069 55071 59009;EQDQ01  00002PRCP06
0186829830999992003061312004-09380-040480FM-12+037099999V0201401N003112200019N0020001N1+02361+01731101471ADDAA106000091GF102991021011008001001001KA1240N+02061MA1999999097291MD1999999-0021REMSYN076AAXX  13124 82983 32595 21406 10236 20173 39729 40147 82100 333 20206 59002;EQDQ01  00002PRCP06
0208829830999992003061400004-09380-040480FM-12+037099999V0201401N002612200019N0020001N1+02541+01601101371ADDAA106000091GA1001+999999999GF100991001001999999001001KA1240M+03041MA1999999097201MD1999999-0021REMSYN082AAXX  14004 82983 32995 01405 10254 20160 39720 40137 333 10304 29060 55107 59002;EQDQ01  00002PRCP06
0186829830999992003061412004-09380-040480FM-12+037099999V0201401N004112200019N0020001N1+02441+01691101581ADDAA106000091GF102991021011008001001001KA1240N+02081MA1999999097411MD1999999+0121REMSYN076AAXX  14124 82983 32595 21408 10244 20169 39741 40158 82100 333 20208 58012;EQDQ01  00002PRCP06
0208829830999992003061500004-09380-040480FM-12+037099999V0201401N002612200019N0020001N1+02541+01601101371ADDAA106000091GA1001+999999999GF100991001001999999001001KA1240M+03121MA1999999097211MD1999999+0011REMSYN082AAXX  15004 82983 32995 01405 10254 20160 39721 40137 333 10312 29058 55095 58001;EQDQ01  00002PRCP06
0186829830999992003061512004-09380-040480FM-12+037099999V0201401N003110075019N0020001N1+02461+01831101601ADDAA106000091GF105991051011008001001001KA1240N+02061MA1999999097431MD1999999+0021REMSYN076AAXX  15124 82983 32595 51406 10246 20183 39743 40160 85100 333 20206 58002;EQDQ01  00002PRCP06
0208829830999992003061600004-09380-040480FM-12+037099999V0201401N002612200019N0020001N1+02581+01821101501ADDAA106000091GA1001+999999999GF100991001001999999001001KA1240M+03041MA1999999097341MD1999999+0131REMSYN082AAXX  16004 82983 32995 01405 10258 20182 39734 40150 333 10304 29065 55072 58013;EQDQ01  00002PRCP06
0186829830999992003061612004-09380-040480FM-12+037099999V0201401N004110075019N0020001N1+02341+01781101641ADDAA106000091GF106991061021008001001001KA1240N+02201MA1999999097461MD1999999+0031REMSYN076AAXX  16124 82983 32595 61408 10234 20178 39746 40164 86200 333 20220 58003;EQDQ01  00002PRCP06
0198829830999992003061700004-09380-040480FM-12+037099999V0201401N002612200019N0020001N1+02461+01581101471ADDAA106000091GF103991031011008001001001KA1240M+03001MA1999999097291MD1999999-0051REMSYN088AAXX  17004 82983 32595 31405 10246 20158 39729 40147 83100 333 10300 29062 55037 59005;EQDQ01  00002PRCP06
0186829830999992003061712004-09380-040480FM-12+037099999V0201401N003112200019N0020001N1+02541+01761101611ADDAA106000091GF104991041011008001001001KA1240N+02101MA1999999097441MD1999999-0021REMSYN076AAXX  17124 82983 32595 41406 10254 20176 39744 40161 84100 333 20210 59002;EQDQ01  00002PRCP06
0198829830999992003061800004-09380-040480FM-12+037099999V0201401N003112200019N0020001N1+02641+01511101351ADDAA106000091GF102991021011008001001001KA1240M+03101MA1999999097201MD1999999-0091REMSYN088AAXX  18004 82983 32595 21406 10264 20151 39720 40135 82100 333 10310 29054 55105 59009;EQDQ01  00002PRCP06
0186829830999992003061812004-09380-040480FM-12+037099999V0201401N004110075019N0020001N1+02381+01751101651ADDAA106000091GF105991051021008001001001KA1240N+02121MA1999999097481MD1999999+0041REMSYN076AAXX  18124 82983 32595 51408 10238 20175 39748 40165 85200 333 20212 58004;EQDQ01  00002PRCP06
0208829830999992003061900004-09380-040480FM-12+037099999V0201401N003112200019N0020001N1+02661+01591101431ADDAA106000091GA1001+999999999GF100991001001999999001001KA1240M+03141MA1999999097271MD1999999+0071REMSYN082AAXX  19004 82983 32995 01406 10266 20159 39727 40143 333 10314 29057 55104 58007;EQDQ01  00002PRCP06
0186829830999992003061912004-09380-040480FM-12+037099999V0201401N003112200019N0020001N1+02481+01831101661ADDAA106000091GF104991041011008001001001KA1240N+02121MA1999999097491MD1999999+0011REMSYN076AAXX  19124 82983 32595 41406 10248 20183 39749 40166 84100 333 20212 58001;EQDQ01  00002PRCP06
0208829830999992003062000004-09380-040480FM-12+037099999V0201401N003112200019N0020001N1+02661+01741101441ADDAA106000091GA1001+999999999GF100991001001999999001001KA1240M+03281MA1999999097291MD1999999+0021REMSYN082AAXX  20004 82983 32995 01406 10266 20174 39729 40144 333 10328 29060 55107 58002;EQDQ01  00002PRCP06
0186829830999992003062012004-09380-040480FM-12+037099999V0201401N003112200019N0020001N1+02461+01811101671ADDAA106000091GF104991041011008001001001KA1240N+02161MA1999999097501MD1999999+0011REMSYN076AAXX  20124 82983 32595 41406 10246 20181 39750 40167 84100 333 20216 58001;EQDQ01  00002PRCP06
0208829830999992003062100004-09380-040480FM-12+037099999V0201401N004112200019N0020001N1+02701+01831101401ADDAA106000091GA1001+999999999GF100991001001999999001001KA1240M+03161MA1999999097251MD1999999-0041REMSYN082AAXX  21004 82983 32995 01408 10270 20183 39725 40140 333 10316 29062 55107 59004;EQDQ01  00002PRCP06
0202829830999992003062112004-09380-040480FM-12+037099999V0201401N003110075019N0020001N1+02441+01861101691ADDAA106000091GF108991999021008001001001KA1240N+02281MA1999999097521MD1999999+0021REMSYN076AAXX  21124 82983 32595 81406 10244 20186 39752 40169 85200 333 20228 58002;EQDQ01+000052SCOTLCQ02  00002PRCP06
0208829830999992003062200004-09380-040480FM-12+037099999V0201401N003112200019N0020001N1+02541+01781101431ADDAA106000091GA1001+999999999GF100991001001999999001001KA1240M+02961MA1999999097271MD1999999+0021REMSYN082AAXX  22004 82983 32995 01406 10254 20178 39727 40143 333 10296 29065 55043 58002;EQDQ01  00002PRCP06
0186829830999992003062212004-09380-040480FM-12+037099999V0201401N003110075019N0020001N1+02441+01861101621ADDAA106000091GF107991071021008001001001KA1240N+02121MA1999999097441MD1999999-0081REMSYN076AAXX  22124 82983 32595 71406 10244 20186 39744 40162 87200 333 20212 59008;EQDQ01  00002PRCP06
0202829830999992003062312004-09380-040480FM-12+037099999V0201401N004112200019N0020001N1+02361+01781101561ADDAA106000091GF103991001001999999001041KA1240N+02041MA1999999097391MD1999999-0051REMSYN076AAXX  23124 82983 32595 31408 10236 20178 39739 40156 80004 333 20204 59005;EQDQ01+008002SCOLCBQ02  00002PRCP06
0208829830999992003062400004-09380-040480FM-12+037099999V0201401N003112200019N0020001N1+02641+01691101551ADDAA106000091GA1001+999999999GF100991001001999999001001KA1240M+03121MA1999999097381MD1999999+0191REMSYN082AAXX  24004 82983 32995 01406 10264 20169 39738 40155 333 10312 29061 55104 58019;EQDQ01  00002PRCP06
0158829830999992003062412004-09380-040480FM-12+037099999V0201401N003112200019N0020001N1+02541+01781101751ADDAA106000091GF101991011011008001001001MA1999999097581REMSYN075AAXX  24124 82983 32595 11406 10254 20178 39758 40175 81100 333 0210 58019;EQDQ01  00002PRCP06
0208829830999992003062500004-09380-040480FM-12+037099999V0201401N005112200019N0020001N1+02441+01851101631ADDAA106000091GA1001+999999999GF100991001001999999001001KA1240M+02981MA1999999097461MD1999999+0081REMSYN082AAXX  25004 82983 32995 01410 10244 20185 39746 40163 333 10298 29068 55082 58008;EQDQ01  00002PRCP06
0186829830999992003062512004-09380-040480FM-12+037099999V0201401N003110075019N0020001N1+02421+01911101771ADDAA106000091GF107991071021008001001001KA1240N+02201MA1999999097581MD1999999+0001REMSYN076AAXX  25124 82983 32595 71406 10242 20191 39758 40177 87200 333 20220 58000;EQDQ01  00002PRCP06
0208829830999992003062600004-09380-040480FM-12+037099999V0201401N003112200019N0020001N1+02561+01801101471ADDAA106000091GA1001+999999999GF100991001001999999001001KA1240M+03141MA1999999097311MD1999999-0151REMSYN082AAXX  26004 82983 32995 01406 10256 20180 39731 40147 333 10314 29066 55059 59015;EQDQ01  00002PRCP06
0186829830999992003062612004-09380-040480FM-12+037099999V0201401N004110450019N0020001N1+02361+01781101771ADDAA106000091GF105991041011008001011001KA1240N+02141MA1999999097521MD1999999-0061REMSYN076AAXX  26124 82983 32595 51408 10236 20178 39752 40177 84110 333 20214 59006;EQDQ01  00002PRCP06
0208829830999992003062700004-09380-040480FM-12+037099999V0201401N003112200019N0020001N1+02341+01761101571ADDAA106000091GA1001+999999999GF100991001001999999001001KA1240M+02921MA1999999097381MD1999999+0071REMSYN082AAXX  27004 82983 32995 01406 10234 20176 39738 40157 333 10292 29070 55067 58007;EQDQ01  00002PRCP06
0186829830999992003062712004-09380-040480FM-12+037099999V0201401N004112200019N0020001N1+02161+01631101771ADDAA106000091GF102991021011008001001001KA1240N+01881MA1999999097551MD1999999+0021REMSYN076AAXX  27124 82983 32595 21408 10216 20163 39755 40177 82100 333 20188 58002;EQDQ01  00002PRCP06
0208829830999992003062800004-09380-040480FM-12+037099999V0201401N004112200019N0020001N1+02321+01741101571ADDAA106000091GA1001+999999999GF100991001001999999001001KA1240M+02961MA1999999097371MD1999999-0011REMSYN082AAXX  28004 82983 32995 01408 10232 20174 39737 40157 333 10296 29071 55106 59001;EQDQ01  00002PRCP06
0186829830999992003062812004-09380-040480FM-12+037099999V0201401N003110075019N0020001N1+02281+01771101811ADDAA106000091GF108991081051008001999999KA1240N+02001MA1999999097601MD1999999+0051REMSYN076AAXX  28124 82983 32595 81406 10228 20177 39760 40181 885// 333 20200 58005;EQDQ01  00002PRCP06
0198829830999992003062900004-09380-040480FM-12+037099999V0201401N003112200019N0020001N1+02321+01701101691ADDAA106000091GF102991021011008001001001KA1240M+02781MA1999999097491MD1999999+0121REMSYN088AAXX  29004 82983 32595 21406 10232 20170 39749 40169 82100 333 10278 29070 55062 58012;EQDQ01  00002PRCP06
0186829830999992003062912004-09380-040480FM-12+037099999V0201401N003112200019N0020001N1+02441+01741101711ADDAA106000091GF104991041011008001001001KA1240N+02101MA1999999097531MD1999999-0071REMSYN076AAXX  29124 82983 32595 41406 10244 20174 39753 40171 84100 333 20210 59007;EQDQ01  00002PRCP06
0208829830999992003063000004-09380-040480FM-12+037099999V0201401N003112200019N0020001N1+02561+01441101471ADDAA106000091GA1001+999999999GF100991001001999999001001KA1240M+03061MA1999999097311MD1999999-0181REMSYN082AAXX  30004 82983 32995 01406 10256 20144 39731 40147 333 10306 29055 55100 59018;EQDQ01  00002PRCP06
0186829830999992003063012004-09380-040480FM-12+037099999V0201401N003112200019N0020001N1+02321+01741101791ADDAA106000091GF103991031011008001001001KA1240N+02081MA1999999097601MD1999999+0071REMSYN076AAXX  30124 82983 32595 31406 10232 20174 39760 40179 83100 333 20208 58007;EQDQ01  00002PRCP06
0198829830999992003070100004-09380-040480FM-12+037099999V0201401N003112200019N0020001N1+02561+01591101401ADDAA106000091GF102991021011008001001001KA1240M+03081MA1999999097421MD1999999+0111REMSYN088AAXX  01004 82983 32595 21406 10256 20159 39742 40140 82100 333 10308 29060 55100 58011;EQDQ01  00002PRCP06
0190829830999992003070112004-09380-040480FM-12+037099999V0201401N004110075019N0020001N1+02141+01741101851ADDAY111061AY221061GF108991081051008001999999KA1240N+02081MA1999999097651MD1999999+0051MW1501REMSYN088AAXX  01124 82983 21595 81408 10214 20174 39765 40185 75012 885// 333 20208 58005 69904;
0208829830999992003070200004-09380-040480FM-12+037099999V0201401N003112200019N0020001N1+02261+01691101751ADDAA106000091GA1001+999999999GF100991001001999999001001KA1240M+02661MA1999999097541MD1999999+0121REMSYN082AAXX  02004 82983 32995 01406 10226 20169 39754 40175 333 10266 29076 55010 58012;EQDQ01  00002PRCP06
0186829830999992003070212004-09380-040480FM-12+037099999V0201401N004110075019N0020001N1+02321+01671101831ADDAA106000091GF105991051011008001001001KA1240N+01941MA1999999097621MD1999999+0031REMSYN076AAXX  02124 82983 32595 51408 10232 20167 39762 40183 85100 333 20194 58003;EQDQ01  00002PRCP06
0090829830999992003070300004-09380-040480FM-12+037099999V02099999999999999999N9999999N1+99999+99999999999REMSYN081AAXX  03004 82983 2995 01406 10246 20171 39741 40159 333 10304 29064 55105 59013;
0186829830999992003070312004-09380-040480FM-12+037099999V0201401N003110075019N0020001N1+02321+01741101761ADDAA106000091GF107991071021008001001001KA1240N+02161MA1999999097571MD1999999-0051REMSYN076AAXX  03124 82983 32595 71406 10232 20174 39757 40176 87200 333 20216 59005;EQDQ01  00002PRCP06
0208829830999992003070400004-09380-040480FM-12+037099999V0201401N003112200019N0020001N1+02561+01641101511ADDAA106000091GA1001+999999999GF100991001001999999001001KA1240M+02981MA1999999097341MD1999999-0071REMSYN082AAXX  04004 82983 32995 01406 10256 20164 39734 40151 333 10298 29061 55081 59007;EQDQ01  00002PRCP06
0186829830999992003070412004-09380-040480FM-12+037099999V0201401N004112200019N0020001N1+02321+01601101741ADDAA106000091GF102991021011008001001001KA1240N+02101MA1999999097551MD1999999-0021REMSYN076AAXX  04124 82983 32595 21408 10232 20160 39755 40174 82100 333 20210 59002;EQDQ01  00002PRCP06
0208829830999992003070500004-09380-040480FM-12+037099999V0201401N003112200019N0020001N1+02441+01331101451ADDAA106000091GA1001+999999999GF100991001001999999001001KA1240M+03001MA1999999097271MD1999999-0071REMSYN082AAXX  05004 82983 32995 01406 10244 20133 39727 40145 333 10300 29055 55106 59007;EQDQ01  00002PRCP06
0196829830999992003070512004-09380-040480FM-12+037099999V0201401N003112200019N0020001N1+02241+01351101611ADDAA106000091GA1001+999999999GF100991001001999999001001KA1240N+01761MA1999999097421MD1999999-0131REMSYN070AAXX  05124 82983 32995 01406 10224 20135 39742 40161 333 20176 59013;EQDQ01  00002PRCP06
0208829830999992003070600004-09380-040480FM-12+037099999V0201401N002612200019N0020001N1+02441+01171101331ADDAA106000091GA1001+999999999GF100991001001999999001001KA1240M+03001MA1999999097151MD1999999-0121REMSYN082AAXX  06004 82983 32995 01405 10244 20117 39715 40133 333 10300 29049 55109 59012;EQDQ01  00002PRCP06
0196829830999992003070612004-09380-040480FM-12+037099999V0201401N003112200019N0020001N1+02281+01491101591ADDAA106000091GA1001+999999999GF100991001001999999001001KA1240N+01861MA1999999097391MD1999999-0031REMSYN070AAXX  06124 82983 32995 01406 10228 20149 39739 40159 333 20186 59003;EQDQ01  00002PRCP06
0198829830999992003070700004-09380-040480FM-12+037099999V0201401N003112200019N0020001N1+02621+01561101341ADDAA106000091GF102991021011008001001001KA1240M+03101MA1999999097171MD1999999+0021REMSYN088AAXX  07004 82983 32595 21406 10262 20156 39717 40134 82100 333 10310 29055 55109 58002;EQDQ01  00002PRCP06
0186829830999992003070712004-09380-040480FM-12+037099999V0201401N004110075019N0020001N1+02281+01771101721ADDAA106000091GF108991081051008001999999KA1240N+02081MA1999999097541MD1999999+0151REMSYN076AAXX  07124 82983 32595 81408 10228 20177 39754 40172 885// 333 20208 58015;EQDQ01  00002PRCP06
0208829830999992003070800004-09380-040480FM-12+037099999V0201401N003112200019N0020001N1+02581+01521101441ADDAA106000091GA1001+999999999GF100991001001999999001001KA1240M+03021MA1999999097271MD1999999+0101REMSYN082AAXX  08004 82983 32995 01406 10258 20152 39727 40144 333 10302 29059 55085 58010;EQDQ01  00002PRCP06
0196829830999992003070812004-09380-040480FM-12+037099999V0201401N004112200019N0020001N1+02341+01621101721ADDAA106000091GA1001+999999999GF100991001001999999001001KA1240N+01961MA1999999097541MD1999999+0001REMSYN070AAXX  08124 82983 32995 01408 10234 20162 39754 40172 333 20196 58000;EQDQ01  00002PRCP06
0208829830999992003070900004-09380-040480FM-12+037099999V0201401N003112200019N0020001N1+02621+01431101381ADDAA106000091GA1001+999999999GF100991001001999999001001KA1240M+03161MA1999999097221MD1999999-0051REMSYN082AAXX  09004 82983 32995 01406 10262 20143 39722 40138 333 10316 29053 55109 59005;EQDQ01  00002PRCP06
0186829830999992003070912004-09380-040480FM-12+037099999V0201401N004112200019N0020001N1+02261+01641101661ADDAA106000091GF103991031011008001001001KA1240N+01921MA1999999097481MD1999999-0061REMSYN076AAXX  09124 82983 32595 31408 10226 20164 39748 40166 83100 333 20192 59006;EQDQ01  00002PRCP06
0208829830999992003071000004-09383-040483FM-12+037099999V0201401N003112200019N0020001N1+02561+01471101491ADDAA106000091GA1001+999999999GF100991001001999999001001KA1240M+03021MA1999999097311MD1999999+0091REMSYN082AAXX  10004 82983 32995 01406 10256 20147 39731 40149 333 10302 29057 55108 58009;EQDQ01  00002PRCP06
0196829830999992003071012004-09383-040483FM-12+037099999V0201401N003112200019N0020001N1+02341+01691101641ADDAA106000091GA1001+999999999GF100991001001999999001001KA1240N+01941MA1999999097461MD1999999-0021REMSYN070AAXX  10124 82983 32995 01406 10234 20169 39746 40164 333 20194 59002;EQDQ01  00002PRCP06
0198829830999992003071100004-09383-040483FM-12+037099999V0201401N003112200019N0020001N1+02701+01781101431ADDAA106000091GF102991021011008001001001KA1240M+03121MA1999999097271MD1999999-0041REMSYN088AAXX  11004 82983 32595 21406 10270 20178 39727 40143 82100 333 10312 29060 55107 59004;EQDQ01  00002PRCP06
0186829830999992003071112004-09383-040483FM-12+037099999V0201401N003110075019N0020001N1+02361+01931101671ADDAA106000091GF108991081051008001999999KA1240N+02261MA1999999097501MD1999999+0041REMSYN076AAXX  11124 82983 32595 81406 10236 20193 39750 40167 885// 333 20226 58004;EQDQ01  00002PRCP06
0198829830999992003071200004-09383-040483FM-12+037099999V0201401N003110075019N0020001N1+02541+01911101541ADDAA106000091GF106991061021008001001001KA1240M+03061MA1999999097361MD1999999+0091REMSYN088AAXX  12004 82983 32595 61406 10254 20191 39736 40154 86200 333 10306 29071 55054 58009;EQDQ01  00002PRCP06
0190829830999992003071212004-09383-040483FM-12+037099999V0201401N004110120019N0020001N1+02181+02011101861ADDAY121061AY251061GF108991081081008001999999KA1240N+02181MA1999999097661MD1999999+0161MW1501REMSYN088AAXX  12124 82983 21595 81408 10218 20201 39766 40186 75025 888// 333 20218 58016 60014;
0198829830999992003071300004-09383-040483FM-12+037099999V0201401N003112200019N0020001N1+02341+01831101811ADDAA106000091GF102991021011008001001001KA1240M+02841MA1999999097591MD1999999+0231REMSYN088AAXX  13004 82983 32595 21406 10234 20183 39759 40181 82100 333 10284 29079 55017 58023;EQDQ01  00002PRCP06
0186829830999992003071312004-09383-040483FM-12+037099999V0201401N004110075019N0020001N1+02181+01801101901ADDAA106000091GF106991061021008001001001KA1240N+02021MA1999999097681MD1999999+0021REMSYN076AAXX  13124 82983 32595 61408 10218 20180 39768 40190 86200 333 20202 58002;EQDQ01  00002PRCP06
0208829830999992003071400004-09383-040483FM-12+037099999V0201401N003112200019N0020001N1+02421+01541101721ADDAA106000091GA1001+999999999GF100991001001999999001001KA1240M+02881MA1999999097521MD1999999-0071REMSYN082AAXX  14004 82983 32995 01406 10242 20154 39752 40172 333 10288 29065 55073 59007;EQDQ01  00002PRCP06
0186829830999992003071412004-09383-040483FM-12+037099999V0200901N004110075019N0020001N1+02301+01791101911ADDAA106000091GF108991081051008001999999KA1240N+02001MA1999999097711MD1999999+0031REMSYN076AAXX  14124 82983 32595 80908 10230 20179 39771 40191 885// 333 20200 58003;EQDQ01  00002PRCP06
0198829830999992003071500004-09383-040483FM-12+037099999V0201801N003112200019N0020001N1+02201+01821101731ADDAA106000091GF101991011011008001001001KA1240M+02941MA1999999097521MD1999999+0001REMSYN088AAXX  15004 82983 32595 11806 10220 20182 39752 40173 81100 333 10294 29077 55051 58000;EQDQ01  00002PRCP06
0186829830999992003071512004-09383-040483FM-12+037099999V0201401N003110075019N0020001N1+02201+01781101861ADDAA106000091GF106991061021008001001001KA1240N+01921MA1999999097641MD1999999-0071REMSYN076AAXX  15124 82983 32595 61406 10220 20178 39764 40186 86200 333 20192 59007;EQDQ01  00002PRCP06
0198829830999992003071600004-09383-040483FM-12+037099999V0201401N003112200019N0020001N1+02241+01821101711ADDAA106000091GF103991031011008001001001KA1240M+02821MA1999999097501MD1999999-0021REMSYN088AAXX  16004 82983 32595 31406 10224 20182 39750 40171 83100 333 10282 29077 55053 59002;EQDQ01  00002PRCP06
0190829830999992003071612004-09383-040483FM-12+037099999V0200901N003110075019N0020001N1+02221+01901101891ADDAY121061AY251061GF106991061021008001001001KA1240N+02111MA1999999097671MD1999999+0031MW1501REMSYN088AAXX  16124 82983 21595 60906 10222 20190 39767 40189 75025 86200 333 20211 58003 69904;
0198829830999992003071700004-09383-040483FM-12+037099999V0201401N004110075019N0020001N1+02281+01831101861ADDAA106000091GF106991061021008001001001KA1240M+02931MA1999999097641MD1999999-0031REMSYN088AAXX  17004 82983 32595 61408 10228 20183 39764 40186 86200 333 10293 29078 55053 59003;EQDQ01  00002PRCP06
0186829830999992003071712004-09383-040483FM-12+037099999V0201401N004110075019N0020001N1+02361+01781101971ADDAA106000091GF105991051011008001001001KA1240N+02081MA1999999097751MD1999999+0081REMSYN076AAXX  17124 82983 32595 51408 10236 20178 39775 40197 85100 333 20208 58008;EQDQ01  00002PRCP06
0198829830999992003071800004-09383-040483FM-12+037099999V0200901N004110075019N0020001N1+02241+01861101951ADDAA106000091GF108991081061008001999999KA1240M+02811MA1999999097741MD1999999+0101REMSYN088AAXX  18004 82983 32595 80908 10224 20186 39774 40195 886// 333 10281 29076 55077 58010;EQDQ01  00002PRCP06
0186829830999992003071812004-09383-040483FM-12+037099999V0201401N005112200019N0020001N1+02201+01671102101ADDAA106000091GF103991031011008001001001KA1240N+01961MA1999999097871MD1999999+0121REMSYN076AAXX  18124 82983 32595 31410 10220 20167 39787 40210 83100 333 20196 58012;EQDQ01  00002PRCP06
0208829830999992003071900004-09383-040483FM-12+037099999V0201401N004112200019N0020001N1+02241+01861101951ADDAA106000091GA1001+999999999GF100991001001999999001001KA1240M+02761MA1999999097731MD1999999-0011REMSYN082AAXX  19004 82983 32995 01408 10224 20186 39773 40195 333 10276 29077 55073 59001;EQDQ01  00002PRCP06
0186829830999992003071912004-09383-040483FM-12+037099999V0201401N004110075019N0020001N1+02401+01861102101ADDAA106000091GF106991061021008001001001KA1240N+02051MA1999999097881MD1999999+0011REMSYN076AAXX  19124 82983 32595 61408 10240 20186 39788 40210 86200 333 20205 58001;EQDQ01  00002PRCP06
0198829830999992003072000004-09383-040483FM-12+037099999V0201401N003112200019N0020001N1+02281+01701102001ADDAA106000091GF102991021011008001001001KA1240M+02791MA1999999097791MD1999999+0061REMSYN088AAXX  20004 82983 32595 21406 10228 20170 39779 40200 82100 333 10279 29071 55053 58006;EQDQ01  00002PRCP06
0186829830999992003072012004-09383-040483FM-12+037099999V0201401N004110075019N0020001N1+02221+01601101981ADDAA106000091GF107991071021008001001001KA1240N+01951MA1999999097761MD1999999-0121REMSYN076AAXX  20124 82983 32595 71408 10222 20160 39776 40198 87200 333 20195 59012;EQDQ01  00002PRCP06
0208829830999992003072100004-09383-040483FM-12+037099999V0201401N003112200019N0020001N1+02321+01531101871ADDAA106000091GA1001+999999999GF100991001001999999001001KA1240M+02641MA1999999097651MD1999999-0141REMSYN082AAXX  21004 82983 32595 01406 10232 20153 39765 40187 333 10264 29063 55033 59014;EQDQ01  00002PRCP06
0186829830999992003072112004-09383-040483FM-12+037099999V0201401N003112200019N0020001N1+02381+01611101941ADDAA106000091GF104991041011008001001001KA1240N+01821MA1999999097741MD1999999-0021REMSYN076AAXX  21124 82983 32595 41406 10238 20161 39774 40194 84100 333 20182 59002;EQDQ01  00002PRCP06
0198829830999992003072200004-09383-040483FM-12+037099999V0201401N002610075019N0020001N1+02461+01711101781ADDAA106000091GF106991061041008001001001KA1240M+02741MA1999999097591MD1999999-0061REMSYN088AAXX  22004 82983 32595 61405 10246 20171 39759 40178 86400 333 10274 29063 55065 59006;EQDQ01  00002PRCP06
0186829830999992003072212004-09383-040483FM-12+037099999V0201401N004110075019N0020001N1+02401+01801101971ADDAA106000091GF106991061021008001001001KA1240N+02121MA1999999097771MD1999999+0031REMSYN076AAXX  22124 82983 32595 61408 10240 20180 39777 40197 86200 333 20212 58003;EQDQ01  00002PRCP06
0208829830999992003072300004-09383-040483FM-12+037099999V0201401N003112200019N0020001N1+02381+01531101771ADDAA106000091GA1001+999999999GF100991001001999999001001KA1240M+02941MA1999999097581MD1999999-0011REMSYN082AAXX  23004 82983 32995 01406 10238 20153 39758 40177 333 10294 29062 55105 59001;EQDQ01  00002PRCP06
0186829830999992003072312004-09383-040483FM-12+037099999V0201401N005112200019N0020001N1+02301+01721101881ADDAA106000091GF103991031011008001001001KA1240N+01991MA1999999097681MD1999999-0091REMSYN076AAXX  23124 82983 32595 31410 10230 20172 39768 40188 83100 333 20199 59009;EQDQ01  00002PRCP06
0214829830999992003072400004-09383-040483FM-12+037099999V0201401N004112200019N0020001N1+02441+01791101761ADDAA106000091GF102991999021008001001001KA1240M+02951MA1999999097551MD1999999-0021REMSYN088AAXX  24004 82983 32595 21408 10244 20179 39755 40176 85200 333 10295 29068 55097 59002;EQDQ01+000052SCOTLCQ02  00002PRCP06
0186829830999992003072412004-09383-040483FM-12+037099999V0201401N004110075019N0020001N1+02241+01821101841ADDAA106000091GF106991061011008001001001KA1240N+02061MA1999999097641MD1999999-0041REMSYN076AAXX  24124 82983 32595 61408 10224 20182 39764 40184 86100 333 20206 59004;EQDQ01  00002PRCP06
0208829830999992003072500004-09383-040483FM-12+037099999V0201401N003112200019N0020001N1+02581+01771101641ADDAA106000091GA1001+999999999GF100991001001999999001001KA1240M+03061MA1999999097461MD1999999-0091REMSYN082AAXX  25004 82983 32995 01406 10258 20177 39746 40164 333 10306 29066 55100 59009;EQDQ01  00002PRCP06
0190829830999992003072512004-09383-040483FM-12+037099999V0201401N004110075019N0020001N1+02301+01921101891ADDAY111061AY221061GF107991071021008001001001KA1240N+02141MA1999999097701MD1999999+0061MW1501REMSYN088AAXX  25124 82983 21595 71408 10230 20192 39770 40189 75012 87200 333 20214 58006 69904;
0208829830999992003072600004-09383-040483FM-12+037099999V0201401N003112200019N0020001N1+02041+01801101821ADDAA106000091GA1001+999999999GF100991001001999999001001KA1240M+02861MA1999999097621MD1999999+0161REMSYN082AAXX  26004 82983 32995 01406 10204 20180 39762 40182 333 10286 29072 55051 58016;EQDQ01  00002PRCP06
0186829830999992003072612004-09383-040483FM-12+037099999V0201401N004110075019N0020001N1+02381+01891102001ADDAA106000091GF106991061021008001001001KA1240N+02141MA1999999097801MD1999999+0101REMSYN076AAXX  26124 82983 32595 61408 10238 20189 39780 40200 86200 333 20214 58010;EQDQ01  00002PRCP06
0208829830999992003072700004-09383-040483FM-12+037099999V0201401N002612200019N0020001N1+02381+01801101841ADDAA106000091GA1001+999999999GF100991001001999999001001KA1240M+02651MA1999999097651MD1999999+0031REMSYN082AAXX  27004 82983 32995 01405 10238 20180 39765 40184 333 10265 29071 55089 58003;EQDQ01  00002PRCP06
0186829830999992003072712004-09383-040483FM-12+037099999V0201401N004110075019N0020001N1+02181+01651101991ADDAA106000091GF107991071021008001001001KA1240N+01991MA1999999097771MD1999999-0031REMSYN076AAXX  27124 82983 32595 71408 10218 20165 39777 40199 87200 333 20199 59003;EQDQ01  00002PRCP06
0208829830999992003072800004-09383-040483FM-12+037099999V0201401N003112200019N0020001N1+02481+01941101701ADDAA106000091GA1001+999999999GF100991001001999999001001KA1240M+02911MA1999999097511MD1999999-0141REMSYN082AAXX  28004 82983 32995 01406 10248 20194 39751 40170 333 10291 29072 55085 59014;EQDQ01  00002PRCP06
0202829830999992003072812004-09383-040483FM-12+037099999V0201401N004119999999N0020001N1+02261+01751101991ADDAA106000091GF105991999011008001001011KA1240N+01951MA1999999097781MD1999999+0011REMSYN076AAXX  28124 82983 32595 51408 10226 20175 39778 40199 80101 333 20195 58001;EQDQ01+000002SCOTLCQ02  00002PRCP06
0208829830999992003072900004-09383-040483FM-12+037099999V0201401N002612200019N0020001N1+02381+01711101731ADDAA106000091GA1001+999999999GF100991001001999999001001KA1240M+02961MA1999999097531MD1999999+0021REMSYN082AAXX  29004 82983 32995 01405 10238 20171 39753 40173 333 10296 29068 55069 58002;EQDQ01  00002PRCP06
0186829830999992003072912004-09383-040483FM-12+037099999V0201401N004112200019N0020001N1+02301+01751102031ADDAA106000091GF106991041021008001001011KA1240N+02061MA1999999097821MD1999999+0041REMSYN076AAXX  29124 82983 32595 61408 10230 20175 39782 40203 84201 333 20206 58004;EQDQ01  00002PRCP06
0208829830999992003073000004-09383-040483FM-12+037099999V0201401N003112200019N0020001N1+02421+01651101861ADDAA106000091GA1001+999999999GF100991001001999999001001KA1240M+02961MA1999999097661MD1999999+0131REMSYN082AAXX  30004 82983 32995 01406 10242 20165 39766 40186 333 10296 29065 55067 58013;EQDQ01  00002PRCP06
0186829830999992003073012004-09383-040483FM-12+037099999V0201401N002612200019N0020001N1+02301+01721101981ADDAA106000091GF102991021011008001001001KA1240N+02001MA1999999097771MD1999999-0051REMSYN076AAXX  30124 82983 32595 21405 10230 20172 39777 40198 82100 333 20200 59005;EQDQ01  00002PRCP06
0186829830999992003073112004-09383-040483FM-12+037099999V0201401N003112200019N0020001N1+02341+01671101841ADDAA106000091GF103991031011008001001001KA1240N+01941MA1999999097651MD1999999-0121REMSYN076AAXX  31124 82983 32595 31406 10234 20167 39765 40184 83100 333 20194 59012;EQDQ01  00002PRCP06
0208829830999992003080100004-09383-040483FM-12+037099999V0201401N002612200019N0020001N1+02521+01581101561ADDAA106000091GA1001+999999999GF100991001001999999001001KA1240M+03061MA1999999097381MD1999999-0131REMSYN082AAXX  01004 82983 32995 01405 10252 20158 39738 40156 333 10306 29059 55100 59013;EQDQ01  00002PRCP06
0186829830999992003080112004-09383-040483FM-12+037099999V0201401N003110075019N0020001N1+02301+01581101891ADDAA106000091GF106991061021008001001001KA1240N+01941MA1999999097701MD1999999+0011REMSYN076AAXX  01124 82983 32595 61406 10230 20158 39770 40189 86200 333 20194 58001;EQDQ01  00002PRCP06
0208829830999992003080200004-09383-040483FM-12+037099999V0201401N002612200019N0020001N1+02581+01491101641ADDAA106000091GA1001+999999999GF100991001001999999001001KA1240M+03061MA1999999097461MD1999999+0081REMSYN082AAXX  02004 82983 32995 01405 10258 20149 39746 40164 333 10306 29055 55103 58008;EQDQ01  00002PRCP06
0186829830999992003080212004-09383-040483FM-12+037099999V0201401N003112200019N0020001N1+02281+01661101921ADDAA106000091GF103991031011008001001001KA1240N+02001MA1999999097731MD1999999+0031REMSYN076AAXX  02124 82983 32595 31406 10228 20166 39773 40192 83100 333 20200 58003;EQDQ01  00002PRCP06
0208829830999992003080300004-09383-040483FM-12+037099999V0201401N002612200019N0020001N1+02561+01591101701ADDAA106000091GA1001+999999999GF100991001001999999001001KA1240M+03081MA1999999097521MD1999999+0061REMSYN082AAXX  03004 82983 32995 01405 10256 20159 39752 40170 333 10308 29059 55109 58006;EQDQ01  00002PRCP06
0186829830999992003080312004-09383-040483FM-12+037099999V0201401N004110075019N0020001N1+02381+01711101931ADDAA106000091GF105991051011008001001001KA1240N+02001MA1999999097741MD1999999+0011REMSYN076AAXX  03124 82983 32595 51408 10238 20171 39774 40193 85100 333 20200 58001;EQDQ01  00002PRCP06
0198829830999992003080400004-09383-040483FM-12+037099999V0201401N005112200019N0020001N1+02401+01821101751ADDAA106000091GF102991021011008001001001KA1240M+02981MA1999999097561MD1999999+0041REMSYN088AAXX  04004 82983 32595 21410 10240 20182 39756 40175 82100 333 10298 29069 55110 58004;EQDQ01  00002PRCP06
0190829830999992003080412004-09383-040483FM-12+037099999V0201401N003110075019N0020001N1+02261+01751101861ADDAY121061AY251061GF106991061021008001001001KA1240N+01981MA1999999097661MD1999999-0081MW1031REMSYN088AAXX  04124 82983 21595 61406 10226 20175 39766 40186 70325 86200 333 20198 59008 69944;
0208829830999992003080500004-09383-040483FM-12+037099999V0201401N004112200019N0020001N1+02361+01621101621ADDAA106000091GA1001+999999999GF100991001001999999001001KA1240M+03081MA1999999097421MD1999999-0141REMSYN082AAXX  05004 82983 32995 01408 10236 20162 39742 40162 333 10308 29069 55091 59014;EQDQ01  00002PRCP06
0186829830999992003080512004-09383-040483FM-12+037099999V0201401N004110075019N0020001N1+02361+01731101791ADDAA106000091GF106991061011008001001001KA1240N+02361MA1999999097591MD1999999-0071REMSYN076AAXX  05124 82983 32595 61408 10236 20173 39759 40179 86100 333 20236 59007;EQDQ01  00002PRCP06
0208829830999992003080600004-09383-040483FM-12+037099999V0201801N003112200019N0020001N1+02521+01631101581ADDAA106000091GA1001+999999999GF100991001001999999001001KA1240M+03041MA1999999097401MD1999999-0021REMSYN082AAXX  06004 82983 32995 01806 10252 20163 39740 40158 333 10304 29061 55102 59002;EQDQ01  00002PRCP06
0084829830999992003080612004-09383-040483FM-12+037099999V02099999999999999999N9999999N1+99999+99999999999REMSYN075AAXX  06124 82983 3595 61406 10244 20176 39765 40183 86100 333 20202 58006;
0208829830999992003080700004-09383-040483FM-12+037099999V0201401N003112200019N0020001N1+02521+01771101601ADDAA106000091GA1001+999999999GF100991001001999999001001KA1240M+03081MA1999999097431MD1999999+0031REMSYN082AAXX  07004 82983 32995 01406 10252 20177 39743 40160 333 10308 29064 55109 58003;EQDQ01  00002PRCP06
0186829830999992003080712004-09383-040483FM-12+037099999V0201401N003112200019N0020001N1+02361+01731101811ADDAA106000091GF102991021011008001001001KA1240N+01901MA1999999097621MD1999999-0031REMSYN076AAXX  07124 82983 32595 21406 10236 20173 39762 40181 82100 333 20190 59003;EQDQ01  00002PRCP06
0208829830999992003080800004-09383-040483FM-12+037099999V0201401N003112200019N0020001N1+02661+01591101481ADDAA106000091GA1001+999999999GF100991001001999999001001KA1240M+03101MA1999999097321MD1999999-0111REMSYN082AAXX  08004 82983 32995 01406 10266 20159 39732 40148 333 10310 29057 55110 59011;EQDQ01  00002PRCP06
0186829830999992003080812004-09383-040483FM-12+037099999V0200901N003112200019N0020001N1+02361+01761101741ADDAA106000091GF102991021011008001001001KA1240N+02221MA1999999097561MD1999999+0131REMSYN076AAXX  08124 82983 32595 20906 10236 20176 39756 40174 82100 333 20222 58013;EQDQ01  00002PRCP06
0208829830999992003080900004-09383-040483FM-12+037099999V0201401N003112200019N0040001N1+02641+01771101151ADDAA106000091GA1001+999999999GF100991001001999999001001KA1240M+03341MA1999999097351MD1999999+0031REMSYN082AAXX  09004 82983 32596 01406 10264 20177 39735 40115 333 10334 29063 55102 58003;EQDQ01  00002PRCP06
0196829830999992003080912004-09383-040483FM-12+037099999V0201401N004112200019N0020001N1+02481+01651101921ADDAA106000091GA1001+999999999GF100991001001999999001001KA1240N+02021MA1999999097741MD1999999+0181REMSYN070AAXX  09124 82983 32995 01408 10248 20165 39774 40192 333 20202 58018;EQDQ01  00002PRCP06
0208829830999992003081000004-09383-040483FM-12+037099999V0201401N004112200019N0020001N1+02581+01821101631ADDAA106000091GA1001+999999999GF100991001001999999001001KA1240M+03181MA1999999097461MD1999999+0111REMSYN082AAXX  10004 82983 32995 01408 10258 20182 39746 40163 333 10318 29062 55110 58011;EQDQ01  00002PRCP06
0186829830999992003081012004-09383-040483FM-12+037099999V0200901N004110075019N0020001N1+02401+01631101841ADDAA106000091GF105991051011008001001001KA1240N+01981MA1999999097661MD1999999-0081REMSYN076AAXX  10124 82983 32595 50908 10240 20163 39766 40184 85100 333 20198 59008;EQDQ01  00002PRCP06
0208829830999992003081100004-09383-040483FM-12+037099999V0201401N003112200019N0020001N1+02561+01701101631ADDAA106000091GA1001+999999999GF100991001001999999001001KA1240M+03201MA1999999097441MD1999999-0221REMSYN082AAXX  11004 82983 32995 01406 10256 20170 39744 40163 333 10320 29060 55108 59022;EQDQ01  00002PRCP06
0186829830999992003081112004-09383-040483FM-12+037099999V0201401N004110075019N0020001N1+03301+01771101771ADDAA106000091GF108991081051008001999999KA1240N+02021MA1999999097581MD1999999-0081REMSYN076AAXX  11124 82983 32595 81408 10330 20177 39758 40177 885// 333 20202 59008;EQDQ01  00002PRCP06
0208829830999992003081200004-09383-040483FM-12+037099999V0201801N003112200019N0020001N1+02541+01781101551ADDAA106000091GA1001+999999999GF100991001001999999001001KA1240M+03021MA1999999097371MD1999999-0071REMSYN082AAXX  12004 82983 32995 01806 10254 20178 39737 40155 333 10302 29066 55063 59007;EQDQ01  00002PRCP06
0186829830999992003081212004-09383-040483FM-12+037099999V0201401N004110075019N0020001N1+02401+01891101831ADDAA106000091GF106991061021008001001001KA1240N+02101MA1999999097641MD1999999+0061REMSYN076AAXX  12124 82983 32595 61408 10240 20189 39764 40183 86200 333 20210 58006;EQDQ01  00002PRCP06
0208829830999992003081300004-09383-040483FM-12+037099999V0201401N002612200019N0020001N1+02681+01761101561ADDAA106000091GA1001+999999999GF100991001001999999001001KA1240M+03181MA1999999097401MD1999999+0031REMSYN082AAXX  13004 82983 32995 01405 10268 20176 39740 40156 333 10318 29062 55094 58003;EQDQ01  00002PRCP06
0186829830999992003081312004-09383-040483FM-12+037099999V0201401N003110075019N0020001N1+02321+01701101911ADDAA106000091GF105991051011008001001001KA1240N+02181MA1999999097731MD1999999+0091REMSYN076AAXX  13124 82983 32595 51406 10232 20170 39773 40191 85100 333 20218 58009;EQDQ01  00002PRCP06
0208829830999992003081400004-09383-040483FM-12+037099999V0201401N003112200019N0020001N1+02641+01631101611ADDAA106000091GA1001+999999999GF100991001001999999001001KA1240M+03201MA1999999097441MD1999999+0041REMSYN082AAXX  14004 82983 32995 01406 10264 20163 39744 40161 333 10320 29059 55107 58004;EQDQ01  00002PRCP06
0186829830999992003081412004-09383-040483FM-12+037099999V0200901N003110075019N0020001N1+02281+01831101861ADDAA106000091GF106991061021008001001001KA1240N+02141MA1999999097671MD1999999+0061REMSYN076AAXX  14124 82983 32595 60906 10228 20183 39767 40186 86200 333 20214 58006;EQDQ01  00002PRCP06
0208829830999992003081500004-09383-040483FM-12+037099999V0201401N004112200019N0020001N1+02481+01901101541ADDAA106000091GA1001+999999999GF100991001001999999001001KA1240M+03101MA1999999097361MD1999999-0081REMSYN082AAXX  15004 82983 32995 01408 10248 20190 39736 40154 333 10310 29072 55079 59008;EQDQ01  00002PRCP06
0186829830999992003081512004-09383-040483FM-12+037099999V0200901N004112200019N0020001N1+02481+01831101771ADDAA106000091GF104991041011008001001001KA1240N+02121MA1999999097591MD1999999-0081REMSYN076AAXX  15124 82983 32595 40908 10248 20183 39759 40177 84100 333 20212 59008;EQDQ01  00002PRCP06
0208829830999992003081600004-09383-040483FM-12+037099999V0201401N002612200019N0020001N1+02721+01591101441ADDAA106000091GA1001+999999999GF100991001001999999001001KA1240M+03241MA1999999097291MD1999999-0071REMSYN082AAXX  16004 82983 32995 01405 10272 20159 39729 40144 333 10324 29056 55086 59007;EQDQ01  00002PRCP06
0186829830999992003081612004-09383-040483FM-12+037099999V0200901N003110075019N0020001N1+02241+01981101661ADDAA106000091GF107991071021008001001001KA1240N+02181MA1999999097491MD1999999+0101REMSYN076AAXX  16124 82983 32595 70906 10224 20198 39749 40166 87200 333 20218 58010;EQDQ01  00002PRCP06
0208829830999992003081700004-09383-040483FM-12+037099999V0201401N002612200019N0020001N1+02801+01871101401ADDAA106000091GA1001+999999999GF100991001001999999001001KA1240M+03261MA1999999097241MD1999999-0251REMSYN082AAXX  17004 82983 32995 01405 10280 20187 39724 40140 333 10326 29066 55072 59025;EQDQ01  00002PRCP06
0186829830999992003081712004-09383-040483FM-12+037099999V0200901N003112200019N0020001N1+02541+01861101641ADDAA106000091GF103991031011008001001001KA1240N+02201MA1999999097491MD1999999+0001REMSYN076AAXX  17124 82983 32595 30906 10254 20186 39749 40164 83100 333 20220 58000;EQDQ01  00002PRCP06
0208829830999992003081800004-09383-040483FM-12+037099999V0201401N003112200019N0020001N1+02941+01881101271ADDAA106000091GA1001+999999999GF100991001001999999001001KA1240M+03501MA1999999097151MD1999999-0091REMSYN082AAXX  18004 82983 32995 01406 10294 20188 39715 40127 333 10350 29057 55106 59009;EQDQ01  00002PRCP06
0186829830999992003081812004-09383-040483FM-12+037099999V0200901N004110075019N0020001N1+02501+01911101821ADDAA106000091GF107991071021008001001001KA1240N+02421MA1999999097671MD1999999+0181REMSYN076AAXX  18124 82983 32595 70908 10250 20191 39767 40182 87200 333 20242 58018;EQDQ01  00002PRCP06
0208829830999992003081900004-09383-040483FM-12+037099999V0201401N003112200019N0020001N1+02641+01691101681ADDAA106000091GA1001+999999999GF100991001001999999001001KA1240M+03201MA1999999097541MD1999999+0391REMSYN082AAXX  19004 82983 32995 01406 10264 20169 39754 40168 333 10320 29061 55078 58039;EQDQ01  00002PRCP06
0186829830999992003081912004-09383-040483FM-12+037099999V0201401N004110075019N0020001N1+02541+01811102041ADDAA106000091GF108991081051008001999999KA1240N+02101MA1999999097871MD1999999+0201REMSYN076AAXX  19124 82983 32595 81408 10254 20181 39787 40204 885// 333 20210 58020;EQDQ01  00002PRCP06
0198829830999992003082000004-09383-040483FM-12+037099999V0201401N005110075019N0020001N1+02381+01871101951ADDAA106000091GF106991061021008001001001KA1240M+03121MA1999999097751MD1999999+0211REMSYN088AAXX  20004 82983 32595 61410 10238 20187 39775 40195 86200 333 10312 29070 55074 58021;EQDQ01  00002PRCP06
0186829830999992003082012004-09383-040483FM-12+037099999V0201401N005110075019N0020001N1+02501+01771101911ADDAA106000091GF106991061021008001001001KA1240N+02161MA1999999097721MD1999999-0151REMSYN076AAXX  20124 82983 32595 61410 10250 20177 39772 40191 86200 333 20216 59015;EQDQ01  00002PRCP06
0198829830999992003082100004-09383-040483FM-12+037099999V0201401N005110075019N0020001N1+02561+01851101671ADDAA106000091GF105991051011008001001001KA1240M+02941MA1999999097501MD1999999-0251REMSYN088AAXX  21004 82983 32595 51410 10256 20185 39750 40167 85100 333 10294 29065 55069 59025;EQDQ01  00002PRCP06
0186829830999992003082112004-09383-040483FM-12+037099999V0201401N004110075019N0020001N1+02201+01841101791ADDAA106000091GF107991071021008001001001KA1240N+02041MA1999999097611MD1999999-0111REMSYN076AAXX  21124 82983 32595 71408 10220 20184 39761 40179 87200 333 20204 59011;EQDQ01  00002PRCP06
0208829830999992003082200004-09383-040483FM-12+037099999V0201401N004112200019N0020001N1+02501+01841101491ADDAA106000091GA1001+999999999GF100991001001999999001001KA1240M+03041MA1999999097311MD1999999-0181REMSYN082AAXX  22004 82983 32995 01408 10250 20184 39731 40149 333 10304 29071 55069 59018;EQDQ01  00002PRCP06
0186829830999992003082212004-09383-040483FM-12+037099999V0200901N004110075019N0020001N1+02401+02071101771ADDAA106000091GF105991051011008001001001KA1240N+02021MA1999999097581MD1999999-0031REMSYN076AAXX  22124 82983 32595 50908 10240 20207 39758 40177 85100 333 20202 59003;EQDQ01  00002PRCP06
0208829830999992003082300004-09383-040483FM-12+037099999V0201401N003112200019N0020001N1+02741+01811101541ADDAA106000091GA1001+999999999GF100991001001999999001001KA1240M+03281MA1999999097361MD1999999+0051REMSYN082AAXX  23004 82983 32995 01406 10274 20181 39736 40154 333 10328 29061 55100 58005;EQDQ01  00002PRCP06
0186829830999992003082312004-09383-040483FM-12+037099999V0200901N005110075019N0020001N1+02461+01901101791ADDAA106000091GF106991061011008001001001KA1240N+02141MA1999999097621MD1999999+0041REMSYN076AAXX  23124 82983 32595 60910 10246 20190 39762 40179 86100 333 20214 58004;EQDQ01  00002PRCP06
0208829830999992003082400004-09383-040483FM-12+037099999V0201401N003112200019N0020001N1+02421+01911101671ADDAA106000091GA1001+999999999GF100991001001999999001001KA1240M+03161MA1999999097491MD1999999+0131REMSYN082AAXX  24004 82983 32995 01406 10242 20191 39749 40167 333 10316 29073 55109 58013;EQDQ01  00002PRCP06
0186829830999992003082412004-09383-040483FM-12+037099999V0200901N003110075019N0020001N1+02421+01621101831ADDAA106000091GF106991061011008001001001KA1240N+01981MA1999999097641MD1999999+0021REMSYN076AAXX  24124 82983 32595 60906 10242 20162 39764 40183 86100 333 20198 58002;EQDQ01  00002PRCP06
0208829830999992003082500004-09383-040483FM-12+037099999V0201401N003112200019N0020001N1+02681+01701101481ADDAA106000091GA1001+999999999GF100991001001999999001001KA1240M+03161MA1999999097321MD1999999-0171REMSYN082AAXX  25004 82983 32995 01406 10268 20170 39732 40148 333 10316 29057 55109 59017;EQDQ01  00002PRCP06
0186829830999992003082512004-09383-040483FM-12+037099999V0200901N003110075019N0020001N1+02461+01941101681ADDAA106000091GF106991061021008001001001KA1240N+02221MA1999999097521MD1999999-0121REMSYN076AAXX  25124 82983 32595 60906 10246 20194 39752 40168 86200 333 20222 59012;EQDQ01  00002PRCP06
0208829830999992003082600004-09383-040483FM-12+037099999V0201401N003112200019N0020001N1+02801+02081101351ADDAA106000091GA1001+999999999GF100991001001999999001001KA1240M+03281MA1999999097211MD1999999-0111REMSYN082AAXX  26004 82983 32995 01406 10280 20208 39721 40135 333 10328 29068 55089 59011;EQDQ01  00002PRCP06
0186829830999992003082612004-09383-040483FM-12+037099999V0200901N003110075019N0020001N1+02401+01931101571ADDAA106000091GF106991061011008001001001KA1240N+02241MA1999999097411MD1999999-0111REMSYN076AAXX  26124 82983 32595 60906 10240 20193 39741 40157 86100 333 20224 59011;EQDQ01  00002PRCP06
0208829830999992003082700004-09383-040483FM-12+037099999V0201401N003112200019N0020001N1+02941+01851101281ADDAA106000091GA1001+999999999GF100991001001999999001001KA1240M+03421MA1999999097141MD1999999-0071REMSYN082AAXX  27004 82983 32995 01406 10294 20185 39714 40128 333 10342 29060 55088 59007;EQDQ01  00002PRCP06
0186829830999992003082712004-09383-040483FM-12+037099999V0200901N003112200019N0020001N1+02661+01791101631ADDAA106000091GF104991041011008001001001KA1240N+02321MA1999999097511MD1999999+0101REMSYN076AAXX  27124 82983 32595 40906 10266 20179 39751 40163 84100 333 20232 58010;EQDQ01  00002PRCP06
0208829830999992003082800004-09383-040483FM-12+037099999V0201401N003112200019N0020001N1+02841+01931101371ADDAA106000091GA1001+999999999GF100991001001999999001001KA1240M+03421MA1999999097251MD1999999+0111REMSYN082AAXX  28004 82983 32995 01406 10284 20193 39725 40137 333 10342 29058 55108 58011;EQDQ01  00002PRCP06
0190829830999992003082812004-09383-040483FM-12+037099999V0200901N003110075019N0020001N1+02201+02121101861ADDAY111061AY221061GF108991081051008001999999KA1240N+02221MA1999999097581MD1999999-0071MW1501REMSYN088AAXX  28124 82983 21595 80906 10220 20212 39758 40186 75012 885// 333 20222 59007 69904;
0208829830999992003082900004-09383-040483FM-12+037099999V0201401N002612200019N0020001N1+02841+01961101391ADDAA106000091GA1001+999999999GF100991001001999999001001KA1240M+03241MA1999999097231MD1999999-0021REMSYN082AAXX  29004 82983 32995 01405 10284 20196 39723 40139 333 10324 29071 55067 59002;EQDQ01  00002PRCP06
0186829830999992003082912004-09383-040483FM-12+037099999V0200901N003112200019N0020001N1+02461+01881101721ADDAA106000091GF103991031011008001001001KA1240N+02181MA1999999097561MD1999999-0021REMSYN076AAXX  29124 82983 32595 30906 10246 20188 39756 40172 83100 333 20218 59002;EQDQ01  00002PRCP06
0208829830999992003083000004-09383-040483FM-12+037099999V0201801N003112200019N0020001N1+02841+01791101421ADDAA106000091GA1001+999999999GF100991001001999999001001KA1240M+03301MA1999999097281MD1999999+0051REMSYN082AAXX  30004 82983 32995 01806 10284 20179 39728 40142 333 10330 29058 55109 58005;EQDQ01  00002PRCP06
0186829830999992003083012004-09383-040483FM-12+037099999V0200901N003110075019N0020001N1+02461+01901101791ADDAA106000091GF105991051011008001001001KA1240N+02161MA1999999097641MD1999999+0081REMSYN076AAXX  30124 82983 32595 50906 10246 20190 39764 40179 85100 333 20216 58008;EQDQ01  00002PRCP06
0208829830999992003083100004-09383-040483FM-12+037099999V0201401N003112200019N0020001N1+02821+01801101581ADDAA106000091GA1001+999999999GF100991001001999999001001KA1240M+03361MA1999999097431MD1999999+0151REMSYN082AAXX  31004 82983 32995 01406 10282 20180 39743 40158 333 10336 29060 55106 58015;EQDQ01  00002PRCP06
0186829830999992003083112004-09383-040483FM-12+037099999V0200901N004112200019N0020001N1+02521+01861101881ADDAA106000091GF104991041011008001001001KA1240N+02181MA1999999097721MD1999999+0081REMSYN076AAXX  31124 82983 32595 40908 10252 20186 39772 40188 84100 333 20218 58008;EQDQ01  00002PRCP06
0208829830999992003090100004-09383-040483FM-12+037099999V0201401N003112200019N0020001N1+02641+01691101591ADDAA106000091GA1001+999999999GF100991001001999999001001KA1240M+03221MA1999999097431MD1999999+0001REMSYN082AAXX  01004 82983 32995 01406 10264 20169 39743 40159 333 10322 29059 55108 58000;EQDQ01  00002PRCP06
0186829830999992003090112004-09383-040483FM-12+037099999V0200901N004112200019N0020001N1+02521+01861101891ADDAA106000091GF102991021011008001001001KA1240N+02121MA1999999097721MD1999999+0001REMSYN076AAXX  01124 82983 32595 20908 10252 20186 39772 40189 82100 333 20212 58000;EQDQ01  00002PRCP06
0167829830999992003090118004-09383-040483FM-12+037099999V0200901N002612200019N0020001N1+03301+01661101351ADDAA106000091GF102991021011008001001001MA1999999097211MD1999999-0051REMSYN070AAXX  01184 82983 32595 20905 10330 20166 39721 40135 82100 333 59005;EQDQ01  00002PRCP06
0208829830999992003090200004-09383-040483FM-12+037099999V0201401N004112200019N0020001N1+02841+01821101581ADDAA106000091GA1001+999999999GF100991001001999999001001KA1240M+03341MA1999999097441MD1999999+0011REMSYN082AAXX  02004 82983 32995 01408 10284 20182 39744 40158 333 10334 29053 55108 58001;EQDQ01  00002PRCP06
0186829830999992003090212004-09383-040483FM-12+037099999V0200901N003112200019N0020001N1+02481+01751101981ADDAA106000091GF104991041011008001001001KA1240N+02161MA1999999097761MD1999999+0041REMSYN076AAXX  02124 82983 32595 40906 10248 20175 39776 40198 84100 333 20216 58004;EQDQ01  00002PRCP06
0167829830999992003090218004-09383-040483FM-12+037099999V0201401N002610075019N0020001N1+03021+02041101471ADDAA106000091GF105991051011008001001001MA1999999097331MD1999999+0121REMSYN070AAXX  02184 82983 32595 51405 10302 20204 39733 40147 85100 333 58012;EQDQ01  00002PRCP06
0208829830999992003090300004-09383-040483FM-12+037099999V0201401N002612200019N0020001N1+02661+01901101631ADDAA106000091GA1001+999999999GF100991001001999999001001KA1240M+03161MA1999999097461MD1999999+0021REMSYN082AAXX  03004 82983 32995 01405 10266 20190 39746 40163 333 10316 29062 55110 58002;EQDQ01  00002PRCP06
0190829830999992003090312004-09383-040483FM-12+037099999V0201401N004110075019N0020001N1+02321+01871101971ADDAY111061AY221061GF108991081051008001999999KA1240N+02221MA1999999097781MD1999999+0061MW1501REMSYN088AAXX  03124 82983 21595 81408 10232 20187 39778 40197 75012 885// 333 20222 58006 69904;
0148829830999992003090318004-09383-040483FM-12+037099999V0201401N004110075019N0020001N1+03021+01961101461ADDAA106000021GF106991061011008001001001MA1999999097301MD1999999-0031REMSYN070AAXX  03184 82983 32595 61408 10302 20196 39730 40146 86100 333 59003;
0208829830999992003090400004-09383-040483FM-12+037099999V0201401N004112200019N0020001N1+02621+01911101771ADDAA106000091GA1001+999999999GF100991001001999999001001KA1240M+03141MA1999999097581MD1999999+0121REMSYN082AAXX  04004 82983 32995 01408 10262 20191 39758 40177 333 10314 29065 55052 58012;EQDQ01  00002PRCP06
0186829830999992003090412004-09383-040483FM-12+037099999V0201401N004110075019N0020001N1+02321+01941102031ADDAA106000091GF108991081051008001999999KA1240N+02101MA1999999097831MD1999999+0051REMSYN076AAXX  04124 82983 32595 81408 10232 20194 39783 40203 885// 333 20210 58005;EQDQ01  00002PRCP06
0167829830999992003090418004-09383-040483FM-12+037099999V0200901N004110075019N0020001N1+02981+02201101531ADDAA106000091GF105991051021008001001001MA1999999097361MD1999999+0061REMSYN070AAXX  04184 82983 32595 50908 10298 20220 39736 40153 85200 333 58006;EQDQ01  00002PRCP06
0198829830999992003090500004-09383-040483FM-12+037099999V0200901N004112200019N0020001N1+02661+02001101861ADDAA106000091GF102991021011008001001001KA1240M+03101MA1999999097681MD1999999+0101REMSYN088AAXX  05004 82983 32595 20908 10266 20200 39768 40186 82100 333 10310 29069 55042 58010;EQDQ01  00002PRCP06
0186829830999992003090512004-09383-040483FM-12+037099999V0201401N005110075019N0020001N1+02521+01961101981ADDAA106000091GF106991061021008001001001KA1240N+02121MA1999999097811MD1999999-0021REMSYN076AAXX  05124 82983 32595 61410 10252 20196 39781 40198 86200 333 20212 59002;EQDQ01  00002PRCP06
0183829830999992003090518004-09383-040483FM-12+037099999V0201401N005119999999N0020001N1+02981+02331101491ADDAA106000091GF106991999021008001001001MA1999999097331MD1999999-0031REMSYN070AAXX  05184 82983 32595 61410 10298 20233 39733 40149 88200 333 59003;EQDQ01+000082SCOTLCQ02  00002PRCP06
0198829830999992003090600004-09383-040483FM-12+037099999V0201401N005110075019N0020001N1+02261+01941101831ADDAA106000091GF106991061011008001001001KA1240M+03061MA1999999097641MD1999999-0041REMSYN088AAXX  06004 82983 32595 61410 10226 20194 39764 40183 86100 333 10306 29076 55082 59004;EQDQ01  00002PRCP06
0190829830999992003090612004-09383-040483FM-12+037099999V0201401N004110075019N0020001N1+02141+01991101971ADDAY111061AY221061GF108991081051008001999999KA1240N+02041MA1999999097731MD1999999-0091MW1501REMSYN088AAXX  06124 82983 21595 81408 10214 20199 39773 40197 75012 885// 333 20204 59009 69904;
0171829830999992003090618004-09383-040483FM-12+037099999V0201801N005110075019N0020001N1+02721+02081101431ADDAY151061AY261061GF106991061021008001001001MA1999999097251MD1999999-0081MW1031REMSYN082AAXX  06184 82983 21595 61810 10272 20208 39725 40143 70356 86200 333 59008 60021;
0198829830999992003090700004-09383-040483FM-12+037099999V0201401N004110075019N0020001N1+02361+02011101621ADDAA106000091GF106991061021008001001001KA1240M+02801MA1999999097501MD1999999-0141REMSYN088AAXX  07004 82983 32595 61408 10236 20201 39750 40162 86200 333 10280 29080 55035 59014;EQDQ01  00002PRCP06
0190829830999992003090712004-09383-040483FM-12+037099999V0201401N005110075019N0020001N1+02261+01921101881ADDAY151061AY261061GF106991061021008001001001KA1240N+01961MA1999999097671MD1999999-0061MW1031REMSYN088AAXX  07124 82983 21595 61410 10226 20192 39767 40188 70356 86200 333 20196 59006 60044;
0167829830999992003090718004-09383-040483FM-12+037099999V0201401N004110075019N0020001N1+02801+02001101411ADDAA106000091GF106991061051008001001001MA1999999097231MD1999999-0021REMSYN070AAXX  07184 82983 32595 61408 10280 20200 39723 40141 86500 333 59002;EQDQ01  00002PRCP06
0198829830999992003090800004-09383-040483FM-12+037099999V0201401N005110075019N0020001N1+02441+01971101681ADDAA106000091GF107991071051008001001001KA1240M+02841MA1999999097491MD1999999-0031REMSYN088AAXX  08004 82983 32595 71410 10244 20197 39749 40168 87500 333 10284 29073 55058 59003;EQDQ01  00002PRCP06
0186829830999992003090812004-09383-040483FM-12+037099999V0201401N003110075019N0020001N1+02221+01841101871ADDAA106000091GF106991061021008001001001KA1240N+01941MA1999999097671MD1999999+0001REMSYN076AAXX  08124 82983 32595 61406 10222 20184 39767 40187 86200 333 20194 58000;EQDQ01  00002PRCP06
0208829830999992003090900004-09383-040483FM-12+037099999V0201401N003112200019N0020001N1+02601+01891101561ADDAA106000091GA1001+999999999GF100991001001999999001001KA1240M+03201MA1999999097381MD1999999-0111REMSYN082AAXX  09004 82983 32995 01406 10260 20189 39738 40156 333 10320 29064 55102 59011;EQDQ01  00002PRCP06
0186829830999992003090912004-09383-040483FM-12+037099999V0200901N003110075019N0020001N1+02301+01961101871ADDAA106000091GF107991071021008001001001KA1240N+02041MA1999999097681MD1999999+0011REMSYN076AAXX  09124 82983 32595 70906 10230 20196 39768 40187 87200 333 20204 58001;EQDQ01  00002PRCP06
0198829830999992003091000004-09383-040483FM-12+037099999V0201401N003112200019N0020001N1+02521+01961101601ADDAA106000091GF103991031011008001001001KA1240M+03181MA1999999097421MD1999999+0041REMSYN088AAXX  10004 82983 32595 31406 10252 20196 39742 40160 83100 333 10318 29068 55064 58004;EQDQ01  00002PRCP06
0186829830999992003091012004-09383-040483FM-12+037099999V0200901N004110075019N0020001N1+02561+01991101781ADDAA106000091GF106991061021008001001001KA1240N+02101MA1999999097601MD1999999-0081REMSYN076AAXX  10124 82983 32595 60908 10256 20199 39760 40178 86200 333 20210 59008;EQDQ01  00002PRCP06
0167829830999992003091018004-09383-040483FM-12+037099999V0200901N003110075019N0020001N1+03181+02071101131ADDAA106000091GF105991051011008001001001MA1999999097011MD1999999-0071REMSYN070AAXX  10184 82983 32595 50906 10318 20207 39701 40113 85100 333 59007;EQDQ01  00002PRCP06
0208829830999992003091100004-09383-040483FM-12+037099999V0201401N003112200019N0020001N1+02761+01991101481ADDAA106000091GA1001+999999999GF100991001001999999001001KA1240M+03261MA1999999097341MD1999999-0081REMSYN082AAXX  11004 82983 32995 01406 10276 20199 39734 40148 333 10326 29062 55106 59008;EQDQ01  00002PRCP06
0186829830999992003091112004-09383-040483FM-12+037099999V0200901N004112200019N0020001N1+02441+01861101691ADDAA106000091GF103991031011008001001001KA1240N+02101MA1999999097531MD1999999-0071REMSYN076AAXX  11124 82983 32595 30908 10244 20186 39753 40169 83100 333 20210 59007;EQDQ01  00002PRCP06
0167829830999992003091118004-09383-040483FM-12+037099999V0201401N003112200019N0020001N1+03301+02121101001ADDAA106000091GF102991021011008001001001MA1999999096891MD1999999-0121REMSYN070AAXX  11184 82983 32595 21406 10330 20212 39689 40100 82100 333 59012;EQDQ01  00002PRCP06
0208829830999992003091200004-09383-040483FM-12+037099999V0201401N003112200019N0020001N1+02801+01901101391ADDAA106000091GA1001+999999999GF100991001001999999001001KA1240M+03381MA1999999097241MD1999999-0101REMSYN082AAXX  12004 82983 32995 01406 10280 20190 39724 40139 333 10338 29059 55110 59010;EQDQ01  00002PRCP06
0186829830999992003091212004-09383-040483FM-12+037099999V0201401N004110075019N0020001N1+02361+01781101861ADDAA106000091GF106991061011008001001001KA1240N+02121MA1999999097691MD1999999+0161REMSYN076AAXX  12124 82983 32595 61408 10236 20178 39769 40186 86100 333 20212 58016;EQDQ01  00002PRCP06
0202829830999992003091312004-09383-040483FM-12+037099999V0201401N003119999999N0020001N1+02421+01881101861ADDAA106000091GF108991999021008001001001KA1240N+02221MA1999999097691MD1999999+0001REMSYN076AAXX  13124 82983 32595 81406 10242 20188 39769 40186 83200 333 20222 58000;EQDQ01+000032SCOTLCQ02  00002PRCP06
0167829830999992003091318004-09383-040483FM-12+037099999V0200901N002612200019N0020001N1+02221+01821101271ADDAA106000091GF104991041011008001001001MA1999999097131MD1999999+0041REMSYN070AAXX  13184 82983 32595 40905 10222 20182 39713 40127 84100 333 58004;EQDQ01  00002PRCP06
0186829830999992003091412004-09383-040483FM-12+037099999V0200901N003112200019N0020001N1+02441+02091101771ADDAA106000091GF102991021011008001001001KA1240N+02141MA1999999097591MD1999999-0101REMSYN076AAXX  14124 82983 32595 20906 10244 20209 39759 40177 82100 333 20214 59010;EQDQ01  00002PRCP06
0167829830999992003091418004-09383-040483FM-12+037099999V0200901N002610075019N0020001N1+03181+01871101141ADDAA106000091GF105991051011008001001001MA1999999097041MD1999999-0091REMSYN070AAXX  14184 82983 32595 50905 10318 20187 39704 40114 85100 333 59009;EQDQ01  00002PRCP06
0208829830999992003091500004-09383-040483FM-12+037099999V0201401N003112200019N0020001N1+02841+01601101341ADDAA106000091GA1001+999999999GF100991001001999999001001KA1240M+03341MA1999999097201MD1999999-0141REMSYN082AAXX  15004 82983 32995 01406 10284 20160 39720 40134 333 10334 29055 55094 59014;EQDQ01  00002PRCP06
0186829830999992003091512004-09383-040483FM-12+037099999V0201401N004110075019N0020001N1+02541+01761101661ADDAA106000091GF106991061021008001001001KA1240N+02161MA1999999097521MD1999999-0071REMSYN076AAXX  15124 82983 32595 61408 10254 20176 39752 40166 86200 333 20216 59007;EQDQ01  00002PRCP06
0167829830999992003091618004-09383-040483FM-12+037099999V0200901N003112200019N0020001N1+03241+01631101101ADDAA106000091GF102991021011008001001001MA1999999096961MD1999999-0101REMSYN070AAXX  16184 82983 32595 20906 10324 20163 39696 40110 82100 333 59010;EQDQ01  00002PRCP06
0208829830999992003091700004-09383-040483FM-12+037099999V0201401N003112200019N0020001N1+02801+01601101271ADDAA106000091GA1001+999999999GF100991001001999999001001KA1240M+03321MA1999999097131MD1999999-0171REMSYN082AAXX  17004 82983 32995 01406 10280 20160 39713 40127 333 10332 29049 55109 59017;EQDQ01  00002PRCP06
0186829830999992003091712004-09383-040483FM-12+037099999V0200901N003110075019N0020001N1+02401+01731101691ADDAA106000091GF106991061021008001001001KA1240N+02161MA1999999097531MD1999999-0021REMSYN076AAXX  17124 82983 32595 60906 10240 20173 39753 40169 86200 333 20216 59002;EQDQ01  00002PRCP06
0167829830999992003091718004-09383-040483FM-12+037099999V0200901N002612200019N0020001N1+03261+01721102041ADDAA106000091GF104991041011008001001001MA1999999096931MD1999999-0031REMSYN070AAXX  17184 82983 32595 40905 10326 20172 39693 40204 84100 333 59003;EQDQ01  00002PRCP06
0198829830999992003091800004-09383-040483FM-12+037099999V0201401N002612200019N0020001N1+02921+01601101241ADDAA106000091GF102991021011008001001001KA1240M+03321MA1999999097101MD1999999-0031REMSYN088AAXX  18004 82983 32595 21405 10292 20160 39710 40124 82100 333 10332 29049 55086 59003;EQDQ01  00002PRCP06
0186829830999992003091812004-09383-040483FM-12+037099999V0200901N004110075019N0020001N1+02401+01821101641ADDAA106000091GF107991071021008001001001KA1240N+02401MA1999999097491MD1999999+0041REMSYN076AAXX  18124 82983 32595 70908 10240 20182 39749 40164 87200 333 20240 58004;EQDQ01  00002PRCP06
0167829830999992003091818004-09383-040483FM-12+037099999V0200901N003112200019N0020001N1+03241+01891101941ADDAA106000091GF103991031011008001001001MA1999999096851MD1999999-0081REMSYN070AAXX  18184 82983 32595 30906 10324 20189 39685 40194 83100 333 59008;EQDQ01  00002PRCP06
0208829830999992003091900004-09383-040483FM-12+037099999V0201401N002612200019N0020001N1+02941+01591101241ADDAA106000091GA1001+999999999GF100991001001999999001001KA1240M+03381MA1999999097101MD1999999+0001REMSYN082AAXX  19004 82983 32995 01405 10294 20159 39710 40124 333 10338 29050 55081 58000;EQDQ01  00002PRCP06
0186829830999992003091912004-09383-040483FM-12+037099999V0200901N004110075019N0020001N1+02461+01781101531ADDAA106000091GF106991061011008001001001KA1240N+02141MA1999999097391MD1999999-0101REMSYN076AAXX  19124 82983 32595 60908 10246 20178 39739 40153 86100 333 20214 59010;EQDQ01  00002PRCP06
0177829830999992003091918004-09383-040483FM-12+037099999V0200901N003112200019N0020001N1+03241+01631100901ADDAA106000091GA1001+999999999GF100991001001999999001001MA1999999096801MD1999999-0051REMSYN064AAXX  19184 82983 32995 00906 10324 20163 39680 40090 333 59005;EQDQ01  00002PRCP06
0208829830999992003092000004-09383-040483FM-12+037099999V0201401N003112200019N0020001N1+02861+01621101251ADDAA106000091GA1001+999999999GF100991001001999999001001KA1240M+03341MA1999999097111MD1999999+0011REMSYN082AAXX  20004 82983 32995 01406 10286 20162 39711 40125 333 10334 29050 55090 58001;EQDQ01  00002PRCP06
0186829830999992003092012004-09383-040483FM-12+037099999V0201401N004112200019N0020001N1+02521+01631101561ADDAA106000091GF102991011011008001001011KA1240N+02081MA1999999097421MD1999999+0031REMSYN076AAXX  20124 82983 32595 21408 10252 20163 39742 40156 81101 333 20208 58003;EQDQ01  00002PRCP06
0183829830999992003092018004-09383-040483FM-12+037099999V0201401N003112200019N0020001N1+03221+01651101041ADDAA106000091GF103991999001008001021011MA1999999096921MD1999999+0121REMSYN070AAXX  20184 82983 32595 31406 10322 20165 39692 40104 80021 333 58012;EQDQ01+000002SCOTLCQ02  00002PRCP06
0202829830999992003092112004-09383-040483FM-12+037099999V0200901N005119999999N0020001N1+02461+01681101711ADDAA106000091GF106991999021008001001001KA1240N+02141MA1999999097551MD1999999+0131REMSYN076AAXX  21124 82983 32595 60910 10246 20168 39755 40171 83200 333 20214 58013;EQDQ01+000032SCOTLCQ02  00002PRCP06
0167829830999992003092118004-09383-040483FM-12+037099999V0200901N004112200019N0020001N1+03181+01841101121ADDAA106000091GF104991021011008001001011MA1999999096991MD1999999-0071REMSYN070AAXX  21184 82983 32595 40908 10318 20184 39699 40112 82101 333 59007;EQDQ01  00002PRCP06
0208829830999992003092200004-09383-040483FM-12+037099999V0201401N004112200019N0020001N1+02861+01551101531ADDAA106000091GA1001+999999999GF100991001001999999001001KA1240M+03261MA1999999097291MD1999999+0031REMSYN082AAXX  22004 82983 32995 01408 10286 20155 39729 40153 333 10326 29049 55110 58003;EQDQ01  00002PRCP06
0186829830999992003092212004-09383-040483FM-12+037099999V0201401N004110075019N0020001N1+02261+01711101771ADDAA106000091GF108991081051008001999999KA1240N+02061MA1999999097591MD1999999+0041REMSYN076AAXX  22124 82983 32595 81408 10226 20171 39759 40177 885// 333 20206 58004;EQDQ01  00002PRCP06
0167829830999992003092218004-09383-040483FM-12+037099999V0200901N003110075019N0020001N1+03141+01751101131ADDAA106000091GF106991061011008001001001MA1999999096941MD1999999-0051REMSYN070AAXX  22184 82983 32595 60906 10314 20175 39694 40113 86100 333 59005;EQDQ01  00002PRCP06
0208829830999992003092400004-09383-040483FM-12+037099999V0201401N003112200019N0020001N1+02641+01541101271ADDAA106000091GA1001+999999999GF100991001001999999001001KA1240M+03241MA1999999097131MD1999999-0101REMSYN082AAXX  24004 82983 32995 01406 10264 20154 39713 40127 333 10324 29052 55112 59010;EQDQ01  00002PRCP06
0196829830999992003092412004-09383-040483FM-12+037099999V0200901N004112200019N0020001N1+02541+01571101531ADDAA106000091GA1001+999999999GF100991001001999999001001KA1240N+02061MA1999999097371MD1999999-0131REMSYN070AAXX  24124 82983 32995 00908 10254 20157 39737 40153 333 20206 59013;EQDQ01  00002PRCP06
0167829830999992003092418004-09383-040483FM-12+037099999V0201801N002612200019N0020001N1+03301+01261100941ADDAA106000091GF102991021011008001001011MA1999999096821MD1999999-0101REMSYN070AAXX  24184 82983 32595 21805 10330 20126 39682 40094 82101 333 59010;EQDQ01  00002PRCP06
0208829830999992003092500004-09383-040483FM-12+037099999V0201401N001512200019N0020001N1+02821+01441101081ADDAA106000091GA1001+999999999GF100991001001999999001001KA1240M+03361MA1999999096951MD1999999-0181REMSYN082AAXX  25004 82983 32995 01403 10282 20144 39695 40108 333 10336 29042 55113 59018;EQDQ01  00002PRCP06
0186829830999992003092512004-09383-040483FM-12+037099999V0200901N004110450019N0020001N1+02401+01861101451ADDAA106000091GF105991011011008001051001KA1240N+02141MA1999999097301MD1999999+0071REMSYN076AAXX  25124 82983 32595 50908 10240 20186 39730 40145 81150 333 20214 58007;EQDQ01  00002PRCP06
0177829830999992003092518004-09383-040483FM-12+037099999V0200901N003112200019N0020001N1+03401+01121101181ADDAA106000091GA1001+999999999GF100991001001999999001001MA1999999096711MD1999999+0111REMSYN064AAXX  25184 82983 32995 00906 10340 20112 39671 40118 333 58011;EQDQ01  00002PRCP06
0186829830999992003092612004-09383-040483FM-12+037099999V0200901N003112200019N0020001N1+02581+01721101341ADDAA106000091GF102991021011008001001001KA1240N+02221MA1999999097221MD1999999+0081REMSYN076AAXX  26124 82983 32595 20906 10258 20172 39722 40134 82100 333 20222 58008;EQDQ01  00002PRCP06
0167829830999992003092618004-09383-040483FM-12+037099999V0200901N003112200019N0020001N1+03461+01821100861ADDAA106000091GF102991021011008001001001MA1999999096691MD1999999+0021REMSYN070AAXX  26184 82983 32595 20906 10346 20182 39669 40086 82100 333 58002;EQDQ01  00002PRCP06
0208829830999992003092700004-09383-040483FM-12+037099999V0201801N002612200019N0020001N1+02981+01621101001ADDAA106000091GA1001+999999999GF100991001001999999001001KA1240M+03521MA1999999096911MD1999999+0091REMSYN082AAXX  27004 82983 32995 01805 10298 20162 39691 40100 333 10352 29046 55112 58009;EQDQ01  00002PRCP06
0186829830999992003092712004-09383-040483FM-12+037099999V0200901N003112200019N0020001N1+02621+01701101261ADDAA106000091GF103991031011008001001001KA1240N+02281MA1999999097151MD1999999-0071REMSYN076AAXX  27124 82983 32595 30906 10262 20170 39715 40126 83100 333 20228 59007;EQDQ01  00002PRCP06
0167829830999992003092718004-09383-040483FM-12+037099999V0200501N002610075019N0020001N1+03541+02201100541ADDAA106000091GF106991061021008001001001MA1999999096481MD1999999-0211REMSYN070AAXX  27184 82983 32595 60505 10354 20220 39648 40054 86200 333 59021;EQDQ01  00002PRCP06
0208829830999992003092800004-09383-040483FM-12+037099999V0200901N001512200019N0020001N1+03181+01771100721ADDAA106000091GA1001+999999999GF100991001001999999001001KA1240M+03601MA1999999096641MD1999999-0271REMSYN082AAXX  28004 82983 32995 00903 10318 20177 39664 40072 333 10360 29046 55110 59027;EQDQ01  00002PRCP06
0196829830999992003092812004-09383-040483FM-12+037099999V0200901N003112200019N0020001N1+03021+01861101121ADDAA106000091GA1001+999999999GF100991001001999999001001KA1240N+02581MA1999999097051MD1999999-0101REMSYN070AAXX  28124 82983 32995 00906 10302 20186 39705 40112 333 20258 59010;EQDQ01  00002PRCP06
0167829830999992003092818004-09383-040483FM-12+037099999V0200501N002612200019N0020001N1+03701+01431100581ADDAA106000091GF102991021011008001001001MA1999999096551MD1999999+0071REMSYN070AAXX  28184 82983 32595 20505 10370 20143 39655 40058 82100 333 58007;EQDQ01  00002PRCP06
0208829830999992003092900004-09383-040483FM-12+037099999V0200901N002612200019N0020001N1+03241+01361100811ADDAA106000091GA1001+999999999GF100991001001999999001001KA1240M+03801MA1999999096761MD1999999+0121REMSYN082AAXX  29004 82983 32995 00905 10324 20136 39676 40081 333 10380 29035 55110 58012;EQDQ01  00002PRCP06
0186829830999992003092912004-09383-040483FM-12+037099999V0200901N003112200019N0020001N1+02761+02041101221ADDAA106000091GF104991041011008001001001KA1240N+02421MA1999999097221MD1999999+0171REMSYN076AAXX  29124 82983 32595 40906 10276 20204 39722 40122 84100 333 20242 58017;EQDQ01  00002PRCP06
0167829830999992003092918004-09383-040483FM-12+037099999V0200901N002612200019N0020001N1+03561+01531100721ADDAA106000091GF104991041011008001001001MA1999999096681MD1999999+0131REMSYN070AAXX  29184 82983 32595 40905 10356 20153 39668 40072 84100 333 58013;EQDQ01  00002PRCP06
0208829830999992003093000004-09383-040483FM-12+037099999V0200901N001512200019N0020001N1+03061+01341101011ADDAA106000091GA1001+999999999GF100991001001999999001001KA1240M+03601MA1999999096921MD1999999+0241REMSYN082AAXX  30004 82983 32995 00903 10306 20134 39692 40101 333 10360 29041 55104 58024;EQDQ01  00002PRCP06
0186829830999992003093012004-09383-040483FM-12+037099999V0200901N003112200019N0020001N1+02781+01931101391ADDAA106000091GF102991021011008001001001KA1240N+02441MA1999999097281MD1999999+0061REMSYN076AAXX  30124 82983 32595 20906 10278 20193 39728 40139 82100 333 20244 58006;EQDQ01  00002PRCP06
0167829830999992003093018004-09383-040483FM-12+037099999V0200901N002612200019N0020001N1+03521+01791100831ADDAA106000091GF104991041011008001001001MA1999999096771MD1999999+0091REMSYN070AAXX  30184 82983 32595 40905 10352 20179 39677 40083 84100 333 58009;EQDQ01  00002PRCP06
0208829830999992003100100004-09383-040483FM-12+037099999V0201401N002612200019N0020001N1+03101+01871101001ADDAA106000091GA1001+999999999GF100991001001999999001001KA1240M+03581MA1999999096921MD1999999+0001REMSYN082AAXX  01004 82983 32995 01405 10310 20187 39692 40100 333 10358 29048 55100 58000;EQDQ01  00002PRCP06
0186829830999992003100112004-09383-040483FM-12+037099999V0200901N004112200019N0020001N1+02701+02011101451ADDAA106000091GF104991041011008001001001KA1240N+02381MA1999999097341MD1999999+0061REMSYN076AAXX  01124 82983 32595 40908 10270 20201 39734 40145 84100 333 20238 58006;EQDQ01  00002PRCP06
0167829830999992003100118004-09383-040483FM-12+037099999V0201401N003110075019N0020001N1+03241+01781100891ADDAA106000091GF106991051011008001011001MA1999999096801MD1999999+0031REMSYN070AAXX  01184 82983 32595 61406 10324 20178 39680 40089 85110 333 58003;EQDQ01  00002PRCP06
0208829830999992003100200004-09383-040483FM-12+037099999V0201801N001512200019N0020001N1+02961+01571101121ADDAA106000091GA1001+999999999GF100991001001999999001001KA1240M+03381MA1999999097021MD1999999+0101REMSYN082AAXX  02004 82983 32995 01803 10296 20157 39702 40112 333 10338 29048 55103 58010;EQDQ01  00002PRCP06
0186829830999992003100212004-09383-040483FM-12+037099999V0201401N004110075019N0020001N1+02681+01731101431ADDAA106000091GF105991051011008001001001KA1240N+02321MA1999999097321MD1999999-0021REMSYN076AAXX  02124 82983 32595 51408 10268 20173 39732 40143 85100 333 20232 59002;EQDQ01  00002PRCP06
0167829830999992003100218004-09383-040483FM-12+037099999V0201401N004112200019N0020001N1+03281+01621100841ADDAA106000091GF102991021011008001001001MA1999999096741MD1999999-0061REMSYN070AAXX  02184 82983 32595 21408 10328 20162 39674 40084 82100 333 59006;EQDQ01  00002PRCP06
0208829830999992003100300004-09383-040483FM-12+037099999V0201401N004112200019N0020001N1+02741+01841101131ADDAA106000091GA1001+999999999GF100991001001999999001001KA1240M+03361MA1999999097001MD1999999-0021REMSYN082AAXX  03004 82983 32995 01408 10274 20184 39700 40113 333 10336 29052 55100 59002;EQDQ01  00002PRCP06
0186829830999992003100312004-09383-040483FM-12+037099999V0200901N004110075019N0020001N1+02681+01671101621ADDAA106000091GF106991061011008001001001KA1240N+02361MA1999999097481MD1999999+0161REMSYN076AAXX  03124 82983 32595 60908 10268 20167 39748 40162 86100 333 20236 58016;EQDQ01  00002PRCP06
0167829830999992003100318004-09383-040483FM-12+037099999V0200901N003110075019N0020001N1+03261+01601101041ADDAA106000091GF106991061011008001001001MA1999999096931MD1999999+0191REMSYN070AAXX  03184 82983 32595 60906 10326 20160 39693 40104 86100 333 58019;EQDQ01  00002PRCP06
0208829830999992003100400004-09383-040483FM-12+037099999V0200901N002612200019N0020001N1+02861+01651101291ADDAA106000091GA1001+999999999GF100991001001999999001001KA1240M+03341MA1999999097151MD1999999+0151REMSYN082AAXX  04004 82983 32995 00905 10286 20165 39715 40129 333 10334 29047 55104 58015;EQDQ01  00002PRCP06
0186829830999992003100412004-09383-040483FM-12+037099999V0201401N004110075019N0020001N1+02581+01821101641ADDAA106000091GF105991051011008001001001KA1240N+02241MA1999999097501MD1999999+0021REMSYN076AAXX  04124 82983 32595 51408 10258 20182 39750 40164 85100 333 20224 58002;EQDQ01  00002PRCP06
0167829830999992003100418004-09383-040483FM-12+037099999V0200901N003112200019N0020001N1+03301+01871101051ADDAA106000091GF104991041011008001001001MA1999999096931MD1999999+0001REMSYN070AAXX  04184 82983 32595 40906 10330 20187 39693 40105 84100 333 58000;EQDQ01  00002PRCP06
0208829830999992003100500004-09383-040483FM-12+037099999V0200901N003112200019N0020001N1+02901+01361101231ADDAA106000091GA1001+999999999GF100991001001999999001001KA1240M+03361MA1999999097111MD1999999-0041REMSYN082AAXX  05004 82983 32995 00906 10290 20136 39711 40123 333 10336 29051 55103 59004;EQDQ01  00002PRCP06
0186829830999992003100512004-09383-040483FM-12+037099999V0201401N004110075019N0020001N1+02461+01881101551ADDAA106000091GF106991061011008001001001KA1240N+02181MA1999999097411MD1999999-0091REMSYN076AAXX  05124 82983 32595 61408 10246 20188 39741 40155 86100 333 20218 59009;EQDQ01  00002PRCP06
0167829830999992003100518004-09383-040483FM-12+037099999V0200901N003112200019N0020001N1+03361+01541100791ADDAA106000091GF101991011011008001001001MA1999999096691MD1999999+0241REMSYN070AAXX  05184 82983 32595 10906 10336 20154 39669 40079 81100 333 58024;EQDQ01  00002PRCP06
0208829830999992003100600004-09383-040483FM-12+037099999V0201401N003112200019N0020001N1+02921+01571101131ADDAA106000091GA1001+999999999GF100991001001999999001001KA1240M+03381MA1999999097001MD1999999-0111REMSYN082AAXX  06004 82983 32995 01406 10292 20157 39700 40113 333 10338 29048 55107 59011;EQDQ01  00002PRCP06
0186829830999992003100612004-09383-040483FM-12+037099999V0200901N004112200019N0020001N1+02481+01731101451ADDAA106000091GF102991021011008001001001KA1240N+02141MA1999999097311MD1999999-0101REMSYN076AAXX  06124 82983 32595 20908 10248 20173 39731 40145 82100 333 20214 59010;EQDQ01  00002PRCP06
0167829830999992003100618004-09383-040483FM-12+037099999V0200901N003110450019N0020001N1+03321+01481100771ADDAA106000091GF106991011011008001011011MA1999999096671MD1999999-0021REMSYN070AAXX  06184 82983 32595 60906 10332 20148 39667 40077 81111 333 59002;EQDQ01  00002PRCP06
0198829830999992003100700004-09383-040483FM-12+037099999V0201401N002612200019N0020001N1+02901+01551101081ADDAA106000091GF103991031011008001001001KA1240M+03401MA1999999096951MD1999999-0051REMSYN088AAXX  07004 82983 32595 31405 10290 20155 39695 40108 83100 333 10340 29046 55108 59005;EQDQ01  00002PRCP06
0186829830999992003100712004-09383-040483FM-12+037099999V0200901N004112200019N0020001N1+02561+01831101541ADDAA106000091GF104991041011008001001001KA1240N+02181MA1999999097411MD1999999+0101REMSYN076AAXX  07124 82983 32595 40908 10256 20183 39741 40154 84100 333 20218 58010;EQDQ01  00002PRCP06
0177829830999992003100718004-09383-040483FM-12+037099999V0201401N002612200019N0020001N1+03461+01781100821ADDAA106000091GA1001+999999999GF100991001001999999001001MA1999999096741MD1999999+0071REMSYN064AAXX  07184 82983 32995 01405 10346 20178 39674 40082 333 58007;EQDQ01  00002PRCP06
0208829830999992003100800004-09383-040483FM-12+037099999V0200901N003112200019N0020001N1+03001+01711101171ADDAA106000091GA1001+999999999GF100991001001999999001001KA1240M+03501MA1999999097031MD1999999+0081REMSYN082AAXX  08004 82983 32995 00906 10300 20171 39703 40117 333 10350 29048 55103 58008;EQDQ01  00002PRCP06
0186829830999992003100812004-09383-040483FM-12+037099999V0200901N004110075019N0020001N1+02661+01901101451ADDAA106000091GF106991061011008001001001KA1240N+02261MA1999999097341MD1999999-0071REMSYN076AAXX  08124 82983 32595 60908 10266 20190 39734 40145 86100 333 20226 59007;EQDQ01  00002PRCP06
0167829830999992003100818004-09383-040483FM-12+037099999V0200901N002612200019N0020001N1+03401+01931100761ADDAA106000091GF102991021011008001001001MA1999999096681MD1999999-0061REMSYN070AAXX  08184 82983 32595 20905 10340 20193 39668 40076 82100 333 59006;EQDQ01  00002PRCP06
0208829830999992003100900004-09383-040483FM-12+037099999V0200901N003112200019N0020001N1+03021+01731101091ADDAA106000091GA1001+999999999GF100991001001999999001001KA1240M+03501MA1999999096991MD1999999-0041REMSYN082AAXX  09004 82983 32995 00906 10302 20173 39699 40109 333 10350 29049 55110 59004;EQDQ01  00002PRCP06
0186829830999992003100912004-09383-040483FM-12+037099999V0201401N003112200019N0020001N1+02601+01761101491ADDAA106000091GF104991041011008001001001KA1240N+02221MA1999999097371MD1999999+0031REMSYN076AAXX  09124 82983 32595 41406 10260 20176 39737 40149 84100 333 20222 58003;EQDQ01  00002PRCP06
0167829830999992003100918004-09383-040483FM-12+037099999V0201401N004110075019N0020001N1+03301+01501100841ADDAA106000091GF105991051011008001001001MA1999999096741MD1999999+0061REMSYN070AAXX  09184 82983 32595 51408 10330 20150 39674 40084 85100 333 58006;EQDQ01  00002PRCP06
0198829830999992003101000004-09383-040483FM-12+037099999V0200901N002612200019N0020001N1+02941+01621101151ADDAA106000091GF102991021011008001001001KA1240M+03441MA1999999097031MD1999999+0041REMSYN088AAXX  10004 82983 32595 20905 10294 20162 39703 40115 82100 333 10344 29046 55109 58004;EQDQ01  00002PRCP06
0186829830999992003101012004-09383-040483FM-12+037099999V0200901N004110075019N0020001N1+02661+01791101411ADDAA106000091GF106991061011008001001001KA1240N+02321MA1999999097301MD1999999-0071REMSYN076AAXX  10124 82983 32595 60908 10266 20179 39730 40141 86100 333 20232 59007;EQDQ01  00002PRCP06
0167829830999992003101018004-09383-040483FM-12+037099999V0200901N003112200019N0020001N1+03301+01871100841ADDAA106000091GF104991031011008001011001MA1999999096751MD1999999+0011REMSYN070AAXX  10184 82983 32595 40906 10330 20187 39675 40084 83110 333 58001;EQDQ01  00002PRCP06
0198829830999992003101100004-09383-040483FM-12+037099999V0201401N002612200019N0020001N1+02941+01511101121ADDAA106000091GF104991041011008001001001KA1240M+03421MA1999999096931MD1999999-0101REMSYN088AAXX  11004 82983 32595 41405 10294 20151 39693 40112 84100 333 10342 29046 55084 59010;EQDQ01  00002PRCP06
0186829830999992003101112004-09383-040483FM-12+037099999V0200901N004112200019N0020001N1+02561+01831101501ADDAA106000091GF104991041011008001001001KA1240N+02221MA1999999097371MD1999999+0071REMSYN076AAXX  11124 82983 32595 40908 10256 20183 39737 40150 84100 333 20222 58007;EQDQ01  00002PRCP06
0167829830999992003101118004-09383-040483FM-12+037099999V0200901N002610450019N0020001N1+03341+01911100851ADDAA106000091GF106991021011008001011011MA1999999096761MD1999999+0011REMSYN070AAXX  11184 82983 32595 60905 10334 20191 39676 40085 82111 333 58001;EQDQ01  00002PRCP06
0198829830999992003101200004-09383-040483FM-12+037099999V0201801N002612200019N0020001N1+03021+01621101011ADDAA106000091GF103991031011008001001001KA1240M+03441MA1999999096921MD1999999-0011REMSYN088AAXX  12004 82983 32595 31805 10302 20162 39692 40101 83100 333 10344 29049 55108 59001;EQDQ01  00002PRCP06
0196829830999992003101212004-09383-040483FM-12+037099999V0200901N004112200019N0020001N1+02661+01901101301ADDAA106000091GA1001+999999999GF100991001001999999001001KA1240N+02261MA1999999097191MD1999999-0181REMSYN070AAXX  12124 82983 32995 00908 10266 20190 39719 40130 333 20226 59018;EQDQ01  00002PRCP06
0167829830999992003101218004-09383-040483FM-12+037099999V0200901N002612200019N0020001N1+03541+01931100681ADDAA106000091GF102991021011008001001001MA1999999096601MD1999999-0161REMSYN070AAXX  12184 82983 32595 20905 10354 20193 39660 40068 82100 333 59016;EQDQ01  00002PRCP06
0208829830999992003101300004-09383-040483FM-12+037099999V0201401N003112200019N0020001N1+03061+01771100971ADDAA106000091GA1001+999999999GF100991001001999999001001KA1240M+03641MA1999999096881MD1999999-0041REMSYN082AAXX  13004 82983 32995 01406 10306 20177 39688 40097 333 10364 29049 55111 59004;EQDQ01  00002PRCP06
0186829830999992003101312004-09383-040483FM-12+037099999V0200901N004110075019N0020001N1+02521+01791101371ADDAA106000091GF107991071011008001001001KA1240N+02361MA1999999097261MD1999999+0071REMSYN076AAXX  13124 82983 32595 70908 10252 20179 39726 40137 87100 333 20236 58007;EQDQ01  00002PRCP06
0177829830999992003101318004-09383-040483FM-12+037099999V0200901N002612200019N0020001N1+03361+01561100821ADDAA106000091GA1001+999999999GF100991001001999999001001MA1999999096721MD1999999-0121REMSYN064AAXX  13184 82983 32995 00905 10336 20156 39672 40082 333 59012;EQDQ01  00002PRCP06
0198829830999992003101400004-09383-040483FM-12+037099999V0201401N003112200019N0020001N1+03061+01581101071ADDAA106000091GF103991031061008001001001KA1240M+03461MA1999999096971MD1999999+0091REMSYN088AAXX  14004 82983 32595 31406 10306 20158 39697 40107 83600 333 10346 29045 55083 58009;EQDQ01  00002PRCP06
0186829830999992003101412004-09383-040483FM-12+037099999V0200901N003112200019N0020001N1+02601+01681101441ADDAA106000091GF102991011011008001031001KA1240N+02201MA1999999097301MD1999999+0041REMSYN076AAXX  14124 82983 32595 20906 10260 20168 39730 40144 81130 333 20220 58004;EQDQ01  00002PRCP06
0167829830999992003101418004-09383-040483FM-12+037099999V0201801N004110075019N0020001N1+03261+01911100951ADDAA106000091GF106991061021008001001001MA1999999096851MD1999999+0131REMSYN070AAXX  14184 82983 32595 61808 10326 20191 39685 40095 86200 333 58013;EQDQ01  00002PRCP06
0208829830999992003101500004-09383-040483FM-12+037099999V0201401N004112200019N0020001N1+02781+02061101261ADDAA106000091GA1001+999999999GF100991001001999999001001KA1240M+03461MA1999999097131MD1999999+0161REMSYN082AAXX  15004 82983 32995 01408 10278 20206 39713 40126 333 10346 29058 55079 58016;EQDQ01  00002PRCP06
0186829830999992003101512004-09383-040483FM-12+037099999V0201401N005110075019N0020001N1+02561+01881101551ADDAA106000091GF106991061021008001001001KA1240N+02261MA1999999097411MD1999999+0111REMSYN076AAXX  15124 82983 32595 61410 10256 20188 39741 40155 86200 333 20226 58011;EQDQ01  00002PRCP06
0167829830999992003101518004-09383-040483FM-12+037099999V0200901N004110075019N0020001N1+03061+02021101111ADDAA106000091GF106991061011008001001001MA1999999096971MD1999999+0121REMSYN070AAXX  15184 82983 32595 60908 10306 20202 39697 40111 86100 333 58012;EQDQ01  00002PRCP06
0198829830999992003101600004-09383-040483FM-12+037099999V0201401N005110075019N0020001N1+02581+01941101541ADDAA106000091GF106991061021008001001001KA1240M+03161MA1999999097381MD1999999+0251REMSYN088AAXX  16004 82983 32595 61410 10258 20194 39738 40154 86200 333 10316 29064 55083 58025;EQDQ01  00002PRCP06
0167829830999992003101618004-09383-040483FM-12+037099999V0201401N005110075019N0020001N1+02821+02021101211ADDAA106000091GF108991081051008001999999MA1999999097051MD1999999+0081REMSYN070AAXX  16184 82983 32595 81410 10282 20202 39705 40121 885// 333 58008;EQDQ01  00002PRCP06
0198829830999992003101700004-09383-040483FM-12+037099999V0201401N005110075019N0020001N1+02361+01931101611ADDAA106000091GF106991061021008001001001KA1240M+02881MA1999999097421MD1999999+0041REMSYN088AAXX  17004 82983 32595 61410 10236 20193 39742 40161 86200 333 10288 29072 55005 58004;EQDQ01  00002PRCP06
0186829830999992003101712004-09383-040483FM-12+037099999V0201401N005110075019N0020001N1+02461+01681101611ADDAA106000091GF106991061011008001001001KA1240N+02101MA1999999097431MD1999999-0101REMSYN076AAXX  17124 82983 32595 61410 10246 20168 39743 40161 86100 333 20210 59010;EQDQ01  00002PRCP06
0167829830999992003101718004-09383-040483FM-12+037099999V0200901N005110075019N0020001N1+03061+01701101071ADDAA106000091GF106991061011008001001001MA1999999096931MD1999999-0121REMSYN070AAXX  17184 82983 32595 60910 10306 20170 39693 40107 86100 333 59012;EQDQ01  00002PRCP06
0208829830999992003101800004-09383-040483FM-12+037099999V0200901N005112200019N0020001N1+02581+01771101391ADDAA106000091GA1001+999999999GF100991001001999999001001KA1240M+03161MA1999999097231MD1999999-0191REMSYN082AAXX  18004 82983 32995 00910 10258 20177 39723 40139 333 10316 29057 55087 59019;EQDQ01  00002PRCP06
0186829830999992003101812004-09383-040483FM-12+037099999V0201401N004110075019N0020001N1+02501+01721101601ADDAA106000091GF106991061011008001001001KA1240N+02081MA1999999097441MD1999999+0011REMSYN076AAXX  18124 82983 32595 61408 10250 20172 39744 40160 86100 333 20208 58001;EQDQ01  00002PRCP06
0167829830999992003101818004-09383-040483FM-12+037099999V0201401N003110075019N0020001N1+03141+01661101051ADDAA106000091GF105991051011008001001001MA1999999096941MD1999999+0011REMSYN070AAXX  18184 82983 32595 51406 10314 20166 39694 40105 85100 333 58001;EQDQ01  00002PRCP06
0208829830999992003101900004-09383-040483FM-12+037099999V0201401N003112200019N0020001N1+02661+01741101441ADDAA106000091GA1001+999999999GF100991001001999999001001KA1240M+03241MA1999999097291MD1999999+0061REMSYN082AAXX  19004 82983 32995 01406 10266 20174 39729 40144 333 10324 29055 55095 58006;EQDQ01  00002PRCP06
0186829830999992003101912004-09383-040483FM-12+037099999V0201401N004110075019N0020001N1+02441+01811101541ADDAA106000091GF108991081051008001999999KA1240N+02201MA1999999097471MD1999999+0031REMSYN076AAXX  19124 82983 32595 81408 10244 20181 39747 40154 885// 333 20220 58003;EQDQ01  00002PRCP06
0167829830999992003101918004-09383-040483FM-12+037099999V0200901N003112200019N0020001N1+03361+01971100981ADDAA106000091GF104991041011008001001001MA1999999096871MD1999999-0071REMSYN070AAXX  19184 82983 32595 40906 10336 20197 39687 40098 84100 333 59007;EQDQ01  00002PRCP06
0208829830999992003102000004-09383-040483FM-12+037099999V0200901N003112200019N0020001N1+02901+01901101251ADDAA106000091GA1001+999999999GF100991001001999999001001KA1240M+03421MA1999999097121MD1999999-0171REMSYN082AAXX  20004 82983 32995 00906 10290 20190 39712 40125 333 10342 29056 55083 59017;EQDQ01  00002PRCP06
0186829830999992003102012004-09383-040483FM-12+037099999V0200901N004110075019N0020001N1+02461+02011101581ADDAA106000091GF108991081051008001999999KA1240N+02301MA1999999097441MD1999999-0031REMSYN076AAXX  20124 82983 32595 80908 10246 20201 39744 40158 885// 333 20230 59003;EQDQ01  00002PRCP06
0167829830999992003102018004-09383-040483FM-12+037099999V0200901N002610075019N0020001N1+03361+01891100901ADDAA106000091GF105991051011008001001001MA1999999096811MD1999999-0061REMSYN070AAXX  20184 82983 32595 50905 10336 20189 39681 40090 85100 333 59006;EQDQ01  00002PRCP06
0198829830999992003102100004-09383-040483FM-12+037099999V0200901N005112200019N0020001N1+02921+01921101241ADDAA106000091GF102991021011008001001001KA1240M+03421MA1999999097111MD1999999-0011REMSYN088AAXX  21004 82983 32595 20910 10292 20192 39711 40124 82100 333 10342 29057 55080 59001;EQDQ01  00002PRCP06
0186829830999992003102112004-09383-040483FM-12+037099999V0200901N004112200019N0020001N1+02681+01861101361ADDAA106000091GF105991031011008001001011KA1240N+02361MA1999999097251MD1999999-0191REMSYN076AAXX  21124 82983 32595 50908 10268 20186 39725 40136 83101 333 20236 59019;EQDQ01  00002PRCP06
0167829830999992003102118004-09383-040483FM-12+037099999V0201401N003110450019N0020001N1+03401+01681100711ADDAA106000091GF106991031011008001011011MA1999999096631MD1999999-0181REMSYN070AAXX  21184 82983 32595 61406 10340 20168 39663 40071 83111 333 59018;EQDQ01  00002PRCP06
0208829830999992003102200004-09383-040483FM-12+037099999V0201401N003112200019N0020001N1+03101+01621100991ADDAA106000091GA1001+999999999GF100991001001999999001001KA1240M+03481MA1999999096901MD1999999-0211REMSYN082AAXX  22004 82983 32995 01406 10310 20162 39690 40099 333 10348 29045 55084 59021;EQDQ01  00002PRCP06
0186829830999992003102212004-09383-040483FM-12+037099999V0200901N003112200019N0020001N1+02781+01761101301ADDAA106000091GF102991011011008001001011KA1240N+02281MA1999999097201MD1999999-0051REMSYN076AAXX  22124 82983 32595 20906 10278 20176 39720 40130 81101 333 20228 59005;EQDQ01  00002PRCP06
0167829830999992003102218004-09383-040483FM-12+037099999V0200501N002612200019N0020001N1+03641+01131100681ADDAA106000091GF103991011011008001001011MA1999999096621MD1999999-0011REMSYN070AAXX  22184 82983 32595 30505 10364 20113 39662 40068 81101 333 59001;EQDQ01  00002PRCP06
0208829830999992003102300004-09383-040483FM-12+037099999V0200901N002612200019N0020001N1+03081+01271101011ADDAA106000091GA1001+999999999GF100991001001999999001001KA1240M+03701MA1999999096931MD1999999+0031REMSYN082AAXX  23004 82983 32995 00905 10308 20127 39693 40101 333 10370 29036 55112 58003;EQDQ01  00002PRCP06
0196829830999992003102312004-09383-040483FM-12+037099999V0200901N004112200019N0020001N1+02801+01631101301ADDAA106000091GA1001+999999999GF100991001001999999001001KA1240N+02321MA1999999097201MD1999999+0001REMSYN070AAXX  23124 82983 32995 00908 10280 20163 39720 40130 333 20232 58000;EQDQ01  00002PRCP06
0167829830999992003102318004-09383-040483FM-12+037099999V0200901N002612200019N0020001N1+03701+01031100731ADDAA106000091GF101991011011008001011011MA1999999096671MD1999999+0051REMSYN070AAXX  23184 82983 32595 10905 10370 20103 39667 40073 81111 333 58005;EQDQ01  00002PRCP06
0208829830999992003102400004-09383-040483FM-12+037099999V0200901N001512200019N0020001N1+03061+01241101021ADDAA106000091GA1001+999999999GF100991001001999999001001KA1240M+03761MA1999999096941MD1999999+0011REMSYN082AAXX  24004 82983 32995 00903 10306 20124 39694 40102 333 10376 29029 55113 58001;EQDQ01  00002PRCP06
0186829830999992003102412004-09383-040483FM-12+037099999V0201401N003110075019N0020001N1+02761+01991101501ADDAA106000091GF107991071021008001001001KA1240N+02621MA1999999097381MD1999999+0131REMSYN076AAXX  24124 82983 32595 71406 10276 20199 39738 40150 87200 333 20262 58013;EQDQ01  00002PRCP06
0167829830999992003102418004-09383-040483FM-12+037099999V0201401N003110075019N0020001N1+03321+01781101041ADDAA106000091GF105991051021008001001001MA1999999096971MD1999999+0301REMSYN070AAXX  24184 82983 32595 51406 10332 20178 39697 40104 85200 333 58030;EQDQ01  00002PRCP06
0208829830999992003102500004-09383-040483FM-12+037099999V0200901N003112200019N0020001N1+02961+01641101301ADDAA106000091GA1001+999999999GF100991001001999999001001KA1240M+03441MA1999999097191MD1999999+0251REMSYN082AAXX  25004 82983 32995 00906 10296 20164 39719 40130 333 10344 29048 55066 58025;EQDQ01  00002PRCP06
0186829830999992003102512004-09383-040483FM-12+037099999V0201401N003110075019N0020001N1+02661+01771101481ADDAA106000091GF107991071021008001001001KA1240N+02441MA1999999097361MD1999999-0021REMSYN076AAXX  25124 82983 32595 71406 10266 20177 39736 40148 87200 333 20244 59002;EQDQ01  00002PRCP06
0167829830999992003102518004-09383-040483FM-12+037099999V0201401N003110450019N0020001N1+03361+01411100891ADDAA106000091GF105991031011008001011011MA1999999096801MD1999999-0171REMSYN070AAXX  25184 82983 32595 51406 10336 20141 39680 40089 83111 333 59017;EQDQ01  00002PRCP06
0198829830999992003102600004-09383-040483FM-12+037099999V0201401N003112200019N0020001N1+02941+01511101141ADDAA106000091GF102991021011008001001001KA1240M+03401MA1999999097041MD1999999+0151REMSYN088AAXX  26004 82983 32595 21406 10294 20151 39704 40114 82100 333 10340 29043 55067 58015;EQDQ01  00002PRCP06
0186829830999992003102612004-09383-040483FM-12+037099999V0201401N003110075019N0020001N1+02541+01601101321ADDAA106000091GF106991061011008001001001KA1240N+02261MA1999999097201MD1999999-0161REMSYN076AAXX  26124 82983 32595 61406 10254 20160 39720 40132 86100 333 20226 59016;EQDQ01  00002PRCP06
0177829830999992003102618004-09383-040483FM-12+037099999V0201401N003112200019N0020001N1+03341+01071100761ADDAA106000091GA1001+999999999GF100991001001999999001001MA1999999096671MD1999999-0131REMSYN064AAXX  26184 82983 32995 01406 10334 20107 39667 40076 333 59013;EQDQ01  00002PRCP06
0208829830999992003102700004-09383-040483FM-12+037099999V0201401N002612200019N0020001N1+02861+01251101021ADDAA106000091GA1001+999999999GF100991001001999999001001KA1240M+03441MA1999999096901MD1999999-0141REMSYN082AAXX  27004 82983 32995 01405 10286 20125 39690 40102 333 10344 29039 55110 59014;EQDQ01  00002PRCP06
0186829830999992003102712004-09383-040483FM-12+037099999V0201401N004112200019N0020001N1+02621+01671101191ADDAA106000091GF102991021011008001001001KA1240N+02181MA1999999097071MD1999999-0131REMSYN076AAXX  27124 82983 32595 21408 10262 20167 39707 40119 82100 333 20218 59013;EQDQ01  00002PRCP06
0167829830999992003102718004-09383-040483FM-12+037099999V0201401N003110075019N0020001N1+03261+01331100741ADDAA106000091GF106991061011008001001001MA1999999096641MD1999999-0031REMSYN070AAXX  27184 82983 32595 61406 10326 20133 39664 40074 86100 333 59003;EQDQ01  00002PRCP06
0198829830999992003102800004-09383-040483FM-12+037099999V0201401N004110075019N0020001N1+02881+01811101011ADDAA106000091GF105991051011008001001001KA1240M+03381MA1999999096901MD1999999+0001REMSYN088AAXX  28004 82983 32595 51408 10288 20181 39690 40101 85100 333 10338 29048 55105 58000;EQDQ01  00002PRCP06
0186829830999992003102812004-09383-040483FM-12+037099999V0201401N004110075019N0020001N1+02501+01771101401ADDAA106000091GF108991081051008001999999KA1240N+02261MA1999999097261MD1999999+0191REMSYN076AAXX  28124 82983 32595 81408 10250 20177 39726 40140 885// 333 20226 58019;EQDQ01  00002PRCP06
0167829830999992003102818004-09383-040483FM-12+037099999V0201401N003110075019N0020001N1+03261+01471100891ADDAA106000091GF108991061021008001021001MA1999999096791MD1999999+0151REMSYN070AAXX  28184 82983 32595 81406 10326 20147 39679 40089 86220 333 58015;EQDQ01  00002PRCP06
0208829830999992003102900004-09383-040483FM-12+037099999V0201801N003112200019N0020001N1+02901+01551101181ADDAA106000091GA1001+999999999GF100991001001999999001001KA1240M+03321MA1999999097051MD1999999+0151REMSYN082AAXX  29004 82983 32995 01806 10290 20155 39705 40118 333 10332 29047 55027 58015;EQDQ01  00002PRCP06
0186829830999992003102912004-09383-040483FM-12+037099999V0200901N004110075019N0020001N1+02581+01741101361ADDAA106000091GF106991061021008001001001KA1240N+02301MA1999999097241MD1999999-0021REMSYN076AAXX  29124 82983 32595 60908 10258 20174 39724 40136 86200 333 20230 59002;EQDQ01  00002PRCP06
0167829830999992003102918004-09383-040483FM-12+037099999V0200901N003112200019N0020001N1+03261+01421100871ADDAA106000091GF104991041011008001001001MA1999999096751MD1999999-0041REMSYN070AAXX  29184 82983 32595 40906 10326 20142 39675 40087 84100 333 59004;EQDQ01  00002PRCP06
0208829830999992003103000004-09383-040483FM-12+037099999V0201401N003112200019N0020001N1+02761+01751101211ADDAA106000091GA1001+999999999GF100991001001999999001001KA1240M+03361MA1999999097071MD1999999+0021REMSYN082AAXX  30004 82983 32995 01406 10276 20175 39707 40121 333 10336 29050 55089 58002;EQDQ01  00002PRCP06
0186829830999992003103012004-09383-040483FM-12+037099999V0201401N004110075019N0020001N1+02661+01851101321ADDAA106000091GF106991061021008001001001KA1240N+02361MA1999999097181MD1999999-0061REMSYN076AAXX  30124 82983 32595 61408 10266 20185 39718 40132 86200 333 20236 59006;EQDQ01  00002PRCP06
0183829830999992003103018004-09383-040483FM-12+037099999V0201401N003119999999N0020001N1+03241+01631100751ADDAA106000091GF105991999011008001001001MA1999999096651MD1999999-0101REMSYN070AAXX  30184 82983 32595 51406 10324 20163 39665 40075 84100 333 59010;EQDQ01+000042SCOTLCQ02  00002PRCP06
0208829830999992003103100004-09383-040483FM-12+037099999V0200901N003112200019N0020001N1+02941+01591100981ADDAA106000091GA1001+999999999GF100991001001999999001001KA1240M+03381MA1999999096891MD1999999-0181REMSYN082AAXX  31004 82983 32995 00906 10294 20159 39689 40098 333 10338 29047 55079 59018;EQDQ01  00002PRCP06
0202829830999992003103112004-09383-040483FM-12+037099999V0200901N003112200019N0020001N1+02661+01561101221ADDAA106000091GF102991001001999999001011KA1240N+02281MA1999999097121MD1999999-0061REMSYN076AAXX  31124 82983 32595 20906 10266 20156 39712 40122 80001 333 20228 59006;EQDQ01+008002SCOLCBQ02  00002PRCP06
0167829830999992003103118004-09383-040483FM-12+037099999V0201801N002612200019N0020001N1+03501+01301100621ADDAA106000091GF103991011011008001001011MA1999999096531MD1999999-0121REMSYN070AAXX  31184 82983 32595 31805 10350 20130 39653 40062 81101 333 59012;EQDQ01  00002PRCP06
0208829830999992003110100004-09383-040483FM-12+037099999V0201401N003112200019N0020001N1+03081+01311100811ADDAA106000091GA1001+999999999GF100991001001999999001001KA1240M+03561MA1999999096731MD1999999-0161REMSYN082AAXX  01004 82983 32995 01406 10308 20131 39673 40081 333 10356 29036 55114 59016;EQDQ01  00002PRCP06
0186829830999992003110112004-09383-040483FM-12+037099999V0201401N003112200019N0020001N1+02661+01551101261ADDAA106000091GF105991031011008001001011KA1240N+02301MA1999999097151MD1999999+0031REMSYN076AAXX  01124 82983 32595 51406 10266 20155 39715 40126 83101 333 20230 58003;EQDQ01  00002PRCP06
0167829830999992003110118004-09383-040483FM-12+037099999V0200901N002610450019N0020001N1+03441+01531100681ADDAA106000091GF106991031011008001021011MA1999999096601MD1999999+0071REMSYN070AAXX  01184 82983 32595 60905 10344 20153 39660 40068 83121 333 58007;EQDQ01  00002PRCP06
0198829830999992003110200004-09383-040483FM-12+037099999V0200901N001510075019N0020001N1+03101+01421100851ADDAA106000091GF106991061011008001001001KA1240M+03481MA1999999096761MD1999999+0031REMSYN088AAXX  02004 82983 32595 60903 10310 20142 39676 40085 86100 333 10348 29038 55083 58003;EQDQ01  00002PRCP06
0186829830999992003110212004-09383-040483FM-12+037099999V0201401N002612200019N0020001N1+02801+01841101091ADDAA106000091GF104991041011008001001001KA1240N+02361MA1999999097011MD1999999-0141REMSYN076AAXX  02124 82983 32595 41405 10280 20184 39701 40109 84100 333 20236 59014;EQDQ01  00002PRCP06
0167829830999992003110218004-09383-040483FM-12+037099999V0201401N002612200019N0020001N1+03461+01641100551ADDAA106000091GF103991031011008001001001MA1999999096491MD1999999-0111REMSYN070AAXX  02184 82983 32595 31405 10346 20164 39649 40055 83100 333 59011;EQDQ01  00002PRCP06
0208829830999992003110300004-09383-040483FM-12+037099999V0201401N001512200019N0020001N1+03121+01641100721ADDAA106000091GA1001+999999999GF100991001001999999001001KA1240M+03541MA1999999096651MD1999999-0111REMSYN082AAXX  03004 82983 32995 01403 10312 20164 39665 40072 333 10354 29043 55105 59011;EQDQ01  00002PRCP06
0186829830999992003110312004-09383-040483FM-12+037099999V0200901N003110075019N0020001N1+02761+01971100981ADDAA106000091GF106991061021008001001001KA1240N+02641MA1999999096901MD1999999-0111REMSYN076AAXX  03124 82983 32595 60906 10276 20197 39690 40098 86200 333 20264 59011;EQDQ01  00002PRCP06
0167829830999992003110318004-09383-040483FM-12+037099999V0203201N001510450019N0020001N1+03401+01721100411ADDAA106000091GF106991041021008001021001MA1999999096361MD1999999-0131REMSYN070AAXX  03184 82983 32595 63203 10340 20172 39636 40041 84220 333 59013;EQDQ01  00002PRCP06
0198829830999992003110400004-09383-040483FM-12+037099999V0200501N001510075019N0020001N1+02941+01851100731ADDAA106000091GF106991061061008001001001KA1240M+03541MA1999999096651MD1999999+0001REMSYN088AAXX  04004 82983 32595 60503 10294 20185 39665 40073 86600 333 10354 29051 55053 58000;EQDQ01  00002PRCP06
0207829830999992003110412004-09383-040483FM-12+037099999V0201801N001510075019N0020001N1+02381+02281101201ADDAA124011091AY151061AY261061GF108991081061008001999999KA1240N+02381MA1999999097061MD1999999+0161MW1511REMSYN094AAXX  04124 82983 21595 81803 10238 20228 39706 40120 75156 886// 333 20238 58016 60114 10108;
0171829830999992003110418004-09383-040483FM-12+037099999V0201801N002610075019N0020001N1+02201+01971101161ADDAY151061AY261061GF108991081061008001999999MA1999999096981MD1999999+0381MW1651REMSYN082AAXX  04184 82983 21595 81805 10220 20197 39698 40116 76556 886// 333 58038 60221;
0202829830999992003110500004-09383-040483FM-12+037099999V0201401N002610075019N0020001N1+02241+01981101381ADDAY151061AY261061GF107991071021008001001001KA1240M+02961MA1999999097191MD1999999+0541MW1011REMSYN100AAXX  05004 82983 21595 71405 10224 20198 39719 40138 70156 87200 333 10296 29089 55000 58054 60701;
0162829830999992003110512004-09383-040483FM-12+037099999V0201401N002610075019N0020001N1+02381+01801101561ADDGF108991081051008001999999KA1240N+02141MA1999999097361MD1999999+0301REMSYN082AAXX  05124 82983 22595 81405 10238 20180 39736 40156 885// 333 20214 58030 60294;
0167829830999992003110518004-09383-040483FM-12+037099999V0201401N002610075019N0020001N1+02701+02011101081ADDAA106000091GF106991061021008001001001MA1999999096981MD1999999+0001REMSYN070AAXX  05184 82983 32595 61405 10270 20201 39698 40108 86200 333 58000;EQDQ01  00002PRCP06
0198829830999992003110600004-09383-040483FM-12+037099999V0201401N003110450019N0020001N1+02341+01641101391ADDAA106000091GF106991031011008001021001KA1240M+02761MA1999999097211MD1999999+0021REMSYN088AAXX  06004 82983 32595 61406 10234 20164 39721 40139 83120 333 10276 29066 55019 58002;EQDQ01  00002PRCP06
0186829830999992003110612004-09383-040483FM-12+037099999V0201401N003110075019N0020001N1+02341+01871101501ADDAA106000091GF108991081051008001999999KA1240N+02181MA1999999097321MD1999999-0041REMSYN076AAXX  06124 82983 32595 81406 10234 20187 39732 40150 885// 333 20218 59004;EQDQ01  00002PRCP06
0167829830999992003110618004-09383-040483FM-12+037099999V0201401N002610075019N0020001N1+02851+01821101031ADDAA106000091GF106991061011008001001001MA1999999096871MD1999999-0111REMSYN070AAXX  06184 82983 32595 61405 10285 20182 39687 40103 86100 333 59011;EQDQ01  00002PRCP06
0198829830999992003110700004-09383-040483FM-12+037099999V0201401N003110075019N0020001N1+02581+01971101231ADDAA106000091GF106991061011008001001001KA1240M+02981MA1999999097071MD1999999-0141REMSYN088AAXX  07004 82983 32595 61406 10258 20197 39707 40123 86100 333 10298 29067 55037 59014;EQDQ01  00002PRCP06
0186829830999992003110712004-09383-040483FM-12+037099999V0200901N003110075019N0020001N1+02461+01881101281ADDAA106000091GF108991081051008001999999KA1240N+02201MA1999999097131MD1999999-0191REMSYN076AAXX  07124 82983 32595 80906 10246 20188 39713 40128 885// 333 20220 59019;EQDQ01  00002PRCP06
0167829830999992003110718004-09383-040483FM-12+037099999V0201401N003112200019N0020001N1+03041+01911100791ADDAA106000091GF103991031011008001001001MA1999999096671MD1999999-0201REMSYN070AAXX  07184 82983 32595 31406 10304 20191 39667 40079 83100 333 59020;EQDQ01  00002PRCP06
0198829830999992003110800004-09383-040483FM-12+037099999V0201401N003112200019N0020001N1+02741+01921101011ADDAA106000091GF102991021011008001001001KA1240M+03141MA1999999096881MD1999999-0191REMSYN088AAXX  08004 82983 32595 21406 10274 20192 39688 40101 82100 333 10314 29061 55060 59019;EQDQ01  00002PRCP06
0186829830999992003110812004-09383-040483FM-12+037099999V0201401N003110075019N0020001N1+02601+02061101331ADDAA106000091GF106991061021008001001001KA1240N+02361MA1999999097191MD1999999+0061REMSYN076AAXX  08124 82983 32595 61406 10260 20206 39719 40133 86200 333 20236 58006;EQDQ01  00002PRCP06
0167829830999992003110818004-09383-040483FM-12+037099999V0201401N002610450019N0020001N1+03261+01911100791ADDAA106000091GF106991041011008001011011MA1999999096711MD1999999+0041REMSYN070AAXX  08184 82983 32595 61405 10326 20191 39671 40079 84111 333 58004;EQDQ01  00002PRCP06
0214829830999992003110900004-09383-040483FM-12+037099999V0201401N001510075019N0020001N1+02981+01921100941ADDAA106000091GF106991061021008001001001KA1240M+99999MA1999999096851MD1999999-0031REMSYN088AAXX  09004 82983 32595 61403 10298 20192 39685 40094 86200 333 11033 29056 55090 59003;EQDQ01  00002PRCP06Q02 -00332ATMX  
0170829830999992003110912004-09383-040483FM-12+037099999V0200901N003110075019N0020001N1+02781+02041101201ADDAA106000091GF106991061011008001001001KA1240N+02461MA1999999097101REMSYN074AAXX  09124 82983 32595 60906 10278 20204 39710 40120 86100 333 20246 509;EQDQ01  00002PRCP06
0167829830999992003110918004-09383-040483FM-12+037099999V0201401N002610075019N0020001N1+03321+01851100721ADDAA106000091GF105991051011008001001001MA1999999096651MD1999999+0061REMSYN070AAXX  09184 82983 32595 51405 10332 20185 39665 40072 85100 333 58006;EQDQ01  00002PRCP06
0214829830999992003111000004-09383-040483FM-12+037099999V0201401N003112200019N0020001N1+02981+01891100991ADDAA106000091GF102991001001999999001011KA1240M+03421MA1999999096901MD1999999+0101REMSYN088AAXX  10004 82983 32595 21406 10298 20189 39690 40099 80001 333 10342 29052 55098 58010;EQDQ01+008002SCOLCBQ02  00002PRCP06
0186829830999992003111012004-09383-040483FM-12+037099999V0201401N003112200019N0020001N1+02701+01721101291ADDAA106000091GF102991011011008001001011KA1240N+02381MA1999999097181MD1999999+0081REMSYN076AAXX  10124 82983 32595 21406 10270 20172 39718 40129 81101 333 20238 58008;EQDQ01  00002PRCP06
0167829830999992003111018004-09383-040483FM-12+037099999V0200901N003112200019N0020001N1+03361+01361100781ADDAA106000091GF102991021011008001001011MA1999999096711MD1999999+0061REMSYN070AAXX  10184 82983 32595 20906 10336 20136 39671 40078 82101 333 58006;EQDQ01  00002PRCP06
0198829830999992003111100004-09383-040483FM-12+037099999V0201401N002610075019N0020001N1+02941+01511101001ADDAA106000091GF105991051061008001001001KA1240M+03461MA1999999096911MD1999999+0011REMSYN088AAXX  11004 82983 32595 51405 10294 20151 39691 40100 85600 333 10346 29042 55109 58001;EQDQ01  00002PRCP06
0186829830999992003111112004-09383-040483FM-12+037099999V0200901N004110075019N0020001N1+02641+01771101311ADDAA106000091GF106991061021008001001001KA1240N+02321MA1999999097191MD1999999+0011REMSYN076AAXX  11124 82983 32595 60908 10264 20177 39719 40131 86200 333 20232 58001;EQDQ01  00002PRCP06
0167829830999992003111118004-09383-040483FM-12+037099999V0201401N003110450019N0020001N1+03421+01471100691ADDAA106000091GF105991041011008001011001MA1999999096611MD1999999-0101REMSYN070AAXX  11184 82983 32595 51406 10342 20147 39661 40069 84110 333 59010;EQDQ01  00002PRCP06
0198829830999992003111200004-09383-040483FM-12+037099999V0201401N005110450019N0020001N1+02681+01921101151ADDAA106000091GF105991021011008001011001KA1240M+03481MA1999999097011MD1999999+0101REMSYN088AAXX  12004 82983 32595 51410 10268 20192 39701 40115 82110 333 10348 29054 55097 58010;EQDQ01  00002PRCP06
0186829830999992003111212004-09383-040483FM-12+037099999V0200901N005110075019N0020001N1+02521+01891101421ADDAA106000091GF107991071021008001001001KA1240N+02381MA1999999097271MD1999999+0081REMSYN076AAXX  12124 82983 32595 70910 10252 20189 39727 40142 87200 333 20238 58008;EQDQ01  00002PRCP06
0167829830999992003111218004-09383-040483FM-12+037099999V0200901N003110450019N0020001N1+03081+01711101001ADDAA106000091GF106991041021008001021011MA1999999096871MD1999999+0261REMSYN070AAXX  12184 82983 32595 60906 10308 20171 39687 40100 84221 333 58026;EQDQ01  00002PRCP06
0208829830999992003111300004-09383-040483FM-12+037099999V0201401N003112200019N0020001N1+02821+01611101181ADDAA106000091GA1001+999999999GF100991001001999999001001KA1240M+03241MA1999999097041MD1999999+0031REMSYN082AAXX  13004 82983 32995 01406 10282 20161 39704 40118 333 10324 29052 55066 58003;EQDQ01  00002PRCP06
0186829830999992003111312004-09383-040483FM-12+037099999V0200901N004110075019N0020001N1+02581+01901101481ADDAA106000091GF106991061021008001001001KA1240N+02281MA1999999097341MD1999999+0071REMSYN076AAXX  13124 82983 32595 60908 10258 20190 39734 40148 86200 333 20228 58007;EQDQ01  00002PRCP06
0167829830999992003111318004-09383-040483FM-12+037099999V0201801N002610075019N0020001N1+03301+01841100941ADDAA106000091GF105991051011008001001001MA1999999096851MD1999999-0021REMSYN070AAXX  13184 82983 32595 51805 10330 20184 39685 40094 85100 333 59002;EQDQ01  00002PRCP06
0208829830999992003111400004-09383-040483FM-12+037099999V0201401N001512200019N0020001N1+02961+01841101081ADDAA106000091GA1001+999999999GF100991001001999999001001KA1240M+03381MA1999999096961MD1999999-0081REMSYN082AAXX  14004 82983 32995 01403 10296 20184 39696 40108 333 10338 29052 55093 59008;EQDQ01  00002PRCP06
0186829830999992003111412004-09383-040483FM-12+037099999V0200501N003111050019N0020001N1+02881+01891101191ADDAA106000091GF105991021011008001011011KA1240N+02441MA1999999097091MD1999999-0251REMSYN076AAXX  14124 82983 32595 50506 10288 20189 39709 40119 82111 333 20244 59025;EQDQ01  00002PRCP06
0167829830999992003111418004-09383-040483FM-12+037099999V0201401N002610075019N0020001N1+03601+01621100711ADDAA106000091GF105991051011008001001001MA1999999096651MD1999999-0201REMSYN070AAXX  14184 82983 32595 51405 10360 20162 39665 40071 85100 333 59020;EQDQ01  00002PRCP06
0198829830999992003111500004-09383-040483FM-12+037099999V0201401N003112200019N0020001N1+03081+01781100991ADDAA106000091GF102991021011008001001001KA1240M+03641MA1999999096931MD1999999-0031REMSYN088AAXX  15004 82983 32595 21406 10308 20178 39693 40099 82100 333 10364 29044 55111 59003;EQDQ01  00002PRCP06
0140829830999992003111512004-09383-040483FM-12+037099999V0201401N004119999999N0020001N1+02541+01761999999ADDAA106000091GF106991999999008001999999REMSYN072AAXX  15124 82983 32595 61408 10254 20176 20244 39725 40136 58016 86100;EQDQ01  00002PRCP06
0177829830999992003111518004-09383-040483FM-12+037099999V0201401N004112200019N0020001N1+03281+01491100961ADDAA106000091GA1001+999999999GF100991001001999999001001MA1999999096871MD1999999+0211REMSYN064AAXX  15184 82983 32995 01408 10328 20149 39687 40096 333 58021;EQDQ01  00002PRCP06
0224829830999992003111600004-09383-040483FM-12+037099999V0201401N003112200019N0020001N1+02861+01721101201ADDAA106000091GA1001+999999999GF100991001001999999001001KA1240M+99999MA1999999097071MD1999999+0141REMSYN082AAXX  16004 82983 32995 01406 10286 20172 39707 40120 333 11033 29049 55095 58014;EQDQ01  00002PRCP06Q02 -00332ATMX  
0186829830999992003111612004-09383-040483FM-12+037099999V0200901N004110075019N0020001N1+02581+01971101481ADDAA106000091GF106991061021008001001001KA1240N+02381MA1999999097341MD1999999+0091REMSYN076AAXX  16124 82983 32595 60908 10258 20197 39734 40148 86200 333 20238 58009;EQDQ01  00002PRCP06
0167829830999992003111618004-09383-040483FM-12+037099999V0200901N004110075019N0020001N1+03341+01671100851ADDAA106000091GF106991061021008001001001MA1999999096761MD1999999-0111REMSYN070AAXX  16184 82983 32595 60908 10334 20167 39676 40085 86200 333 59011;EQDQ01  00002PRCP06
0208829830999992003111700004-09383-040483FM-12+037099999V0200901N005112200019N0020001N1+02961+01841100881ADDAA106000091GA1001+999999999GF100991001001999999001001KA1240M+03421MA1999999096871MD1999999-0201REMSYN082AAXX  17004 82983 32995 00910 10296 20184 39687 40088 333 10342 29052 55094 59020;EQDQ01  00002PRCP06
0202829830999992003111712004-09383-040483FM-12+037099999V0201401N003119999999N0020001N1+02621+01931101351ADDAA106000091GF106991999021008001001001KA1240N+02481MA1999999097241MD1999999-0101REMSYN076AAXX  17124 82983 32595 61406 10262 20193 39724 40135 87200 333 20248 59010;EQDQ01+000072SCOTLCQ02  00002PRCP06
0167829830999992003111718004-09383-040483FM-12+037099999V0200901N003110075019N0020001N1+03321+01781100841ADDAA106000091GF106991061021008001001001MA1999999096741MD1999999-0021REMSYN070AAXX  17184 82983 32595 60906 10332 20178 39674 40084 86200 333 59002;EQDQ01  00002PRCP06
0208829830999992003111800004-09383-040483FM-12+037099999V0201401N003112200019N0020001N1+02761+01671101071ADDAA106000091GA1001+999999999GF100991001001999999001001KA1240M+03481MA1999999096921MD1999999+0051REMSYN082AAXX  18004 82983 32995 01406 10276 20167 39692 40107 333 10348 29052 55095 58005;EQDQ01  00002PRCP06
0186829830999992003111812004-09383-040483FM-12+037099999V0200901N004110075019N0020001N1+02741+01811101311ADDAA106000091GF106991061011008001001001KA1240N+02501MA1999999097191MD1999999-0051REMSYN076AAXX  18124 82983 32595 60908 10274 20181 39719 40131 86100 333 20250 59005;EQDQ01  00002PRCP06
0177829830999992003111818004-09383-040483FM-12+037099999V0201401N003112200019N0020001N1+03401+01451100701ADDAA106000091GA1001+999999999GF100991001001999999001001MA1999999096611MD1999999-0131REMSYN064AAXX  18184 82983 32995 01406 10340 20145 39661 40070 333 59013;EQDQ01  00002PRCP06
0208829830999992003111900004-09383-040483FM-12+037099999V0201401N003112200019N0020001N1+02941+01511100871ADDAA106000091GA1001+999999999GF100991001001999999001001KA1240M+03481MA1999999096781MD1999999-0141REMSYN082AAXX  19004 82983 32995 01406 10294 20151 39678 40087 333 10348 29043 55095 59014;EQDQ01  00002PRCP06
0186829830999992003111912004-09383-040483FM-12+037099999V0201401N004112200019N0020001N1+02561+01701101251ADDAA106000091GF104991041011008001001001KA1240N+02201MA1999999097131MD1999999-0061REMSYN076AAXX  19124 82983 32595 41408 10256 20170 39713 40125 84100 333 20220 59006;EQDQ01  00002PRCP06
0167829830999992003111918004-09383-040483FM-12+037099999V0200901N003112200019N0020001N1+03381+01381100651ADDAA106000091GF102991011011008001001011MA1999999096571MD1999999-0041REMSYN070AAXX  19184 82983 32595 20906 10338 20138 39657 40065 81101 333 59004;EQDQ01  00002PRCP06
0208829830999992003112000004-09383-040483FM-12+037099999V0201401N002612200019N0020001N1+02961+01641100841ADDAA106000091GA1001+999999999GF100991001001999999001001KA1240M+03521MA1999999096741MD1999999-0041REMSYN082AAXX  20004 82983 32995 01405 10296 20164 39674 40084 333 10352 29045 55114 59004;EQDQ01  00002PRCP06
0202829830999992003112012004-09383-040483FM-12+037099999V0200901N004112200019N0020001N1+02641+01691101311ADDAA106000091GF103991999001008001011011KA1240N+02281MA1999999097201MD1999999+0071REMSYN076AAXX  20124 82983 32595 30908 10264 20169 39720 40131 80011 333 20228 58007;EQDQ01+000002SCOTLCQ02  00002PRCP06
0167829830999992003112018004-09383-040483FM-12+037099999V0200901N003112200019N0020001N1+03381+01431100791ADDAA106000091GF102991021011008001001001MA1999999096711MD1999999+0141REMSYN070AAXX  20184 82983 32595 20906 10338 20143 39671 40079 82100 333 58014;EQDQ01  00002PRCP06
0208829830999992003112100004-09383-040483FM-12+037099999V0201401N003112200019N0020001N1+02961+01291101121ADDAA106000091GA1001+999999999GF100991001001999999001001KA1240M+03461MA1999999097001MD1999999+0261REMSYN082AAXX  21004 82983 32995 01406 10296 20129 39700 40112 333 10346 29040 55117 58026;EQDQ01  00002PRCP06
0186829830999992003112112004-09383-040483FM-12+037099999V0200901N004110075019N0020001N1+02681+01891101381ADDAA106000091GF106991061011008001001001KA1240N+02361MA1999999097271MD1999999+0071REMSYN076AAXX  21124 82983 32595 60908 10268 20189 39727 40138 86100 333 20236 58007;EQDQ01  00002PRCP06
0167829830999992003112118004-09383-040483FM-12+037099999V0200901N003112200019N0020001N1+03301+01681100811ADDAA106000091GF104991041011008001001001MA1999999096731MD1999999+0021REMSYN070AAXX  21184 82983 32595 40906 10330 20168 39673 40081 84100 333 58002;EQDQ01  00002PRCP06
0208829830999992003112200004-09383-040483FM-12+037099999V0201401N003112200019N0020001N1+03001+01641101011ADDAA106000091GA1001+999999999GF100991001001999999001001KA1240M+03401MA1999999096921MD1999999-0081REMSYN082AAXX  22004 82983 32995 01406 10300 20164 39692 40101 333 10340 29047 55113 59008;EQDQ01  00002PRCP06
0186829830999992003112212004-09383-040483FM-12+037099999V0201401N004110075019N0040001N1+02561+02191101301ADDAA106000091GF108991081021008001999999KA1240N+02341MA1999999097191MD1999999-0081REMSYN076AAXX  22124 82983 32596 81408 10256 20219 39719 40130 882// 333 20234 59008;EQDQ01  00002PRCP06
0183829830999992003112218004-09383-040483FM-12+037099999V0201401N003110075019N0020001N1+03221+01841100801ADDAA106000091GF106991999011008001001001MA1999999096701MD1999999-0031REMSYN070AAXX  22184 82983 32595 61406 10322 20184 39670 40080 85100 333 59003;EQDQ01+000052SCOTLCQ02  00002PRCP06
0208829830999992003112300004-09383-040483FM-12+037099999V0201401N003112200019N0020001N1+02661+01971101121ADDAA106000091GA1001+999999999GF100991001001999999001001KA1240M+03321MA1999999096981MD1999999+0061REMSYN082AAXX  23004 82983 32995 01406 10266 20197 39698 40112 333 10332 29060 55084 58006;EQDQ01  00002PRCP06
0186829830999992003112312004-09383-040483FM-12+037099999V0201401N004110075019N0020001N1+02461+01811101361ADDAA106000091GF108991081051008001999999KA1240N+02241MA1999999097201MD1999999+0011REMSYN076AAXX  23124 82983 32595 81408 10246 20181 39720 40136 885// 333 20224 58001;EQDQ01  00002PRCP06
0167829830999992003112318004-09383-040483FM-12+037099999V0201401N003112200019N0020001N1+03301+01551100791ADDAA106000091GF104991041011008001001001MA1999999096691MD1999999-0011REMSYN070AAXX  23184 82983 32595 41406 10330 20155 39669 40079 84100 333 59001;EQDQ01  00002PRCP06
0208829830999992003112400004-09383-040483FM-12+037099999V0201801N003112200019N0020001N1+02701+01991100801ADDAA106000091GA1001+999999999GF100991001001999999001001KA1240M+03341MA1999999096681MD1999999-0301REMSYN082AAXX  24004 82983 32995 01806 10270 20199 39668 40080 333 10334 29058 55072 59030;EQDQ01  00002PRCP06
0186829830999992003112412004-09383-040483FM-12+037099999V0200901N003110075019N0020001N1+02601+01921101281ADDAA106000091GF106991061011008001001001KA1240N+02201MA1999999097141MD1999999-0061REMSYN076AAXX  24124 82983 32595 60906 10260 20192 39714 40128 86100 333 20220 59006;EQDQ01  00002PRCP06
0167829830999992003112418004-09383-040483FM-12+037099999V0200901N003110450019N0020001N1+03221+01671100821ADDAA106000091GF105991041011008001011001MA1999999096701MD1999999+0011REMSYN070AAXX  24184 82983 32595 50906 10322 20167 39670 40082 84110 333 58001;EQDQ01  00002PRCP06
0208829830999992003112500004-09383-040483FM-12+037099999V0201401N003112200019N0020001N1+02881+01671100971ADDAA106000091GA1001+999999999GF100991001001999999001001KA1240M+03261MA1999999096861MD1999999+0181REMSYN082AAXX  25004 82983 32995 01406 10288 20167 39686 40097 333 10326 29051 55106 58018;EQDQ01  00002PRCP06
0186829830999992003112512004-09383-040483FM-12+037099999V0200901N003110075019N0020001N1+02581+01851101391ADDAA106000091GF107991071021008001001001KA1240N+02341MA1999999097251MD1999999+0111REMSYN076AAXX  25124 82983 32595 70906 10258 20185 39725 40139 87200 333 20234 58011;EQDQ01  00002PRCP06
0167829830999992003112518004-09383-040483FM-12+037099999V0200901N002612200019N0020001N1+03301+01801100851ADDAA106000091GF104991031011008001001011MA1999999096761MD1999999+0061REMSYN070AAXX  25184 82983 32595 40905 10330 20180 39676 40085 83101 333 58006;EQDQ01  00002PRCP06
0208829830999992003112600004-09383-040483FM-12+037099999V0201401N002612200019N0020001N1+02921+01861101211ADDAA106000091GA1001+999999999GF100991001001999999001001KA1240M+03421MA1999999096991MD1999999+0131REMSYN082AAXX  26004 82983 32995 01405 10292 20186 39699 40121 333 10342 29053 55086 58013;EQDQ01  00002PRCP06
0186829830999992003112612004-09383-040483FM-12+037099999V0201401N003110450019N0020001N1+02681+01781101341ADDAA106000091GF106991031011008001011011KA1240N+02341MA1999999097231MD1999999-0021REMSYN076AAXX  26124 82983 32595 61406 10268 20178 39723 40134 83111 333 20234 59002;EQDQ01  00002PRCP06
0167829830999992003112618004-09383-040483FM-12+037099999V0201401N003112200019N0020001N1+03441+01721100871ADDAA106000091GF103991031011008001001001MA1999999096791MD1999999+0031REMSYN070AAXX  26184 82983 32595 31406 10344 20172 39679 40087 83100 333 58003;EQDQ01  00002PRCP06
0208829830999992003112700004-09383-040483FM-12+037099999V0201801N003112200019N0020001N1+02841+01821101141ADDAA106000091GA1001+999999999GF100991001001999999001001KA1240M+03501MA1999999097021MD1999999+0031REMSYN082AAXX  27004 82983 32995 01806 10284 20182 39702 40114 333 10350 29050 55115 58003;EQDQ01  00002PRCP06
0186829830999992003112712004-09383-040483FM-12+037099999V0200901N004110075019N0020001N1+02541+01781101311ADDAA106000091GF108991081051008001999999KA1240N+02281MA1999999097171MD1999999-0061REMSYN076AAXX  27124 82983 32595 80908 10254 20178 39717 40131 885// 333 20228 59006;EQDQ01  00002PRCP06
0167829830999992003112718004-09383-040483FM-12+037099999V0200901N003112200019N0020001N1+03341+01491100671ADDAA106000091GF101991011011008001001001MA1999999096591MD1999999-0201REMSYN070AAXX  27184 82983 32595 10906 10334 20149 39659 40067 81100 333 59020;EQDQ01  00002PRCP06
0208829830999992003112800004-09383-040483FM-12+037099999V0201801N002612200019N0020001N1+02921+01531100861ADDAA106000091GA1001+999999999GF100991001001999999001001KA1240M+03441MA1999999096761MD1999999-0261REMSYN082AAXX  28004 82983 32995 01805 10292 20153 39676 40086 333 10344 29046 55082 59026;EQDQ01  00002PRCP06
0196829830999992003112812004-09383-040483FM-12+037099999V0200901N003112200019N0020001N1+02721+01681101081ADDAA106000091GA1001+999999999GF100991001001999999001001KA1240N+02281MA1999999096981MD1999999-0191REMSYN070AAXX  28124 82983 32995 00906 10272 20168 39698 40108 333 20228 59019;EQDQ01  00002PRCP06
0167829830999992003112818004-09383-040483FM-12+037099999V0201401N002610075019N0020001N1+03421+01701100551ADDAA106000091GF106991061021008001001001MA1999999096481MD1999999-0111REMSYN070AAXX  28184 82983 32595 61405 10342 20170 39648 40055 86200 333 59011;EQDQ01  00002PRCP06
0208829830999992003112900004-09383-040483FM-12+037099999V0201401N002612200019N0020001N1+02981+01761100661ADDAA106000091GA1001+999999999GF100991001001999999001001KA1240M+03501MA1999999096581MD1999999-0181REMSYN082AAXX  29004 82983 32995 01405 10298 20176 39658 40066 333 10350 29046 55106 59018;EQDQ01  00002PRCP06
0171829830999992003112912004-09383-040483FM-12+037099999V0200901N004112200019N0020001N1+02701+01831100931ADDAA106000091GF104991041011008001001001KA1240N+02341MA1999999096941REMSYN075AAXX  29124 82983 32595 40908 10270 20183 39694 40093 84100 333 20234 5004;EQDQ01  00002PRCP06
0167829830999992003112918004-09383-040483FM-12+037099999V0201401N002610075019N0020001N1+03341+01631100631ADDAA106000091GF106991061011008001001001MA1999999096551MD1999999+0071REMSYN070AAXX  29184 82983 32595 61405 10334 20163 39655 40063 86100 333 58007;EQDQ01  00002PRCP06
0208829830999992003113000004-09383-040483FM-12+037099999V0201801N002612200019N0020001N1+03021+01511100761ADDAA106000091GA1001+999999999GF100991001001999999001001KA1240M+03421MA1999999096681MD1999999+0101REMSYN082AAXX  30004 82983 32995 01805 10302 20151 39668 40076 333 10342 29044 55112 58010;EQDQ01  00002PRCP06
0202829830999992003113012004-09383-040483FM-12+037099999V0200901N004112200019N0020001N1+02661+01771101141ADDAA106000091GF104991999011008001001001KA1240N+02341MA1999999097041MD1999999+0101REMSYN076AAXX  30124 82983 32595 40908 10266 20177 39704 40114 83100 333 20234 58010;EQDQ01+000032SCOTLCQ02  00002PRCP06
0167829830999992003113018004-09383-040483FM-12+037099999V0201401N002612200019N0020001N1+03401+01501100671ADDAA106000091GF104991031011008001001011MA1999999096611MD1999999-0041REMSYN070AAXX  30184 82983 32595 41405 10340 20150 39661 40067 83101 333 59004;EQDQ01  00002PRCP06
0208829830999992003120100004-09383-040483FM-12+037099999V0201801N002612200019N0020001N1+02961+01531100821ADDAA106000091GA1001+999999999GF100991001001999999001001KA1240M+03481MA1999999096741MD1999999-0061REMSYN082AAXX  01004 82983 32995 01805 10296 20153 39674 40082 333 10348 29044 55114 59006;EQDQ01  00002PRCP06
0186829830999992003120112004-09383-040483FM-12+037099999V0200901N004112200019N0020001N1+02581+01851101231ADDAA106000091GF104991041011008001001001KA1240N+02341MA1999999097111MD1999999+0071REMSYN076AAXX  01124 82983 32595 40908 10258 20185 39711 40123 84100 333 20234 58007;EQDQ01  00002PRCP06
0208829830999992003120200004-09383-040483FM-12+037099999V0201401N002612200019N0020001N1+03101+01541100731ADDAA106000091GA1001+999999999GF100991001001999999001001KA1240M+03521MA1999999096651MD1999999-0091REMSYN082AAXX  02004 82983 32995 01405 10310 20154 39665 40073 333 10352 29047 55110 59009;EQDQ01  00002PRCP06
0186829830999992003120212004-09383-040483FM-12+037099999V0200901N003112200019N0020001N1+02881+01911101031ADDAA106000091GF104991021011008001001011KA1240N+02441MA1999999096941MD1999999-0171REMSYN076AAXX  02124 82983 32595 40906 10288 20191 39694 40103 82101 333 20244 59017;EQDQ01  00002PRCP06
0208829830999992003120300004-09383-040483FM-12+037099999V0201801N001512200019N0020001N1+03121+01791100821ADDAA106000091GA1001+999999999GF100991001001999999001001KA1240M+03601MA1999999096621MD1999999-0031REMSYN082AAXX  03004 82983 32995 01803 10312 20179 39662 40082 333 10360 29049 55113 59003;EQDQ01  00002PRCP06
0186829830999992003120312004-09383-040483FM-12+037099999V0200901N002612200019N0020001N1+02961+01931101051ADDAA106000091GF102991021011008001001001KA1240N+02561MA1999999096981MD1999999+0041REMSYN076AAXX  03124 82983 32595 20905 10296 20193 39698 40105 82100 333 20256 58004;EQDQ01  00002PRCP06
0198829830999992003120400004-09383-040483FM-12+037099999V0200401N003112200019N0020001N1+03061+01931100751ADDAA106000091GF102991021011008001001001KA1240M+03621MA1999999096691MD1999999+0071REMSYN088AAXX  04004 82983 32595 20406 10306 20193 39669 40075 82100 333 10362 29052 55109 58007;EQDQ01  00002PRCP06
0186829830999992003120412004-09383-040483FM-12+037099999V0201401N003112200019N0020001N1+02801+01901101121ADDAA106000091GF101991011011008001001001KA1240N+02521MA1999999097041MD1999999+0061REMSYN076AAXX  04124 82983 32595 11406 10280 20190 39704 40112 81100 333 20252 58006;EQDQ01  00002PRCP06
0208829830999992003120500004-09383-040483FM-12+037099999V0201401N002612200019N0020001N1+03061+01771100791ADDAA106000091GA1001+999999999GF100991001001999999001001KA1240M+03661MA1999999096721MD1999999+0031REMSYN082AAXX  05004 82983 32995 01405 10306 20177 39672 40079 333 10366 29050 55107 58003;EQDQ01  00002PRCP06
0186829830999992003120512004-09383-040483FM-12+037099999V0200901N003110075019N0020001N1+02741+01921101141ADDAA106000091GF105991051011008001001001KA1240N+02421MA1999999097041MD1999999+0001REMSYN076AAXX  05124 82983 32595 50906 10274 20192 39704 40114 85100 333 20242 58000;EQDQ01  00002PRCP06
0214829830999992003120600004-09383-040483FM-12+037099999V0201801N002612200019N0020001N1+03181+01611100821ADDAA106000091GF102991021011008001001001KA1240M+03641MA1999999999999MD1999999+0021REMSYN088AAXX  06004 82983 32595 21805 10318 20161 39374 40082 82100 333 10364 29046 55114 58002;EQDQ01  00002PRCP06Q02 093743APOSP 
0186829830999992003120612004-09383-040483FM-12+037099999V0200901N003112200019N0040001N1+02961+01941101071ADDAA106000091GF104991041011008001001001KA1240N+02581MA1999999097001MD1999999-0041REMSYN076AAXX  06124 82983 32596 40906 10296 20194 39700 40107 84100 333 20258 59004;EQDQ01  00002PRCP06
0208829830999992003120700004-09383-040483FM-12+037099999V0200901N001512200019N0020001N1+03181+01491100741ADDAA106000091GA1001+999999999GF100991001001999999001001KA1240M+03641MA1999999096681MD1999999-0061REMSYN082AAXX  07004 82983 32995 00903 10318 20149 39668 40074 333 10364 29043 55101 59006;EQDQ01  00002PRCP06
0196829830999992003120712004-09383-040483FM-12+037099999V0200501N002612200019N0020001N1+03021+01961101131ADDAA106000091GA1001+999999999GF100991001001999999001001KA1240N+02561MA1999999097061MD1999999+0061REMSYN070AAXX  07124 82983 32995 00505 10302 20196 39706 40113 333 20256 58006;EQDQ01  00002PRCP06
0198829830999992003120800004-09383-040483FM-12+037099999V0200901N001012200019N0020001N1+03181+01691100861ADDAA106000091GF104991041011008001001001KA1240M+03721MA1999999096801MD1999999+0121REMSYN088AAXX  08004 82983 32595 40902 10318 20169 39680 40086 84100 333 10372 29045 55105 58012;EQDQ01  00002PRCP06
0208829830999992003120900004-09383-040483FM-12+037099999V0201401N003112200019N0020001N1+03201+01751100961ADDAA106000091GA1001+999999999GF100991001001999999001001KA1240M+03701MA1999999096901MD1999999+0101REMSYN082AAXX  09004 82983 32995 01406 10320 20175 39690 40096 333 10370 29048 55102 58010;EQDQ01  00002PRCP06
0196829830999992003120912004-09383-040483FM-12+037099999V0200901N003112200019N0020001N1+02921+01801101361ADDAA106000091GA1001+999999999GF100991001001999999001001KA1240N+02461MA1999999097281MD1999999+0081REMSYN070AAXX  09124 82983 32995 00906 10292 20180 39728 40136 333 20246 58008;EQDQ01  00002PRCP06
0198829830999992003121000004-09383-040483FM-12+037099999V0201801N003110075019N0020001N1+03261+01601101021ADDAA106000091GF106991061021008001001001KA1240M+03661MA1999999096951MD1999999+0051REMSYN088AAXX  10004 82983 32595 61806 10326 20160 39695 40102 86200 333 10366 29042 55115 58005;EQDQ01  00002PRCP06
0196829830999992003121012004-09383-040483FM-12+037099999V0200901N003112200019N0020001N1+02721+01741101321ADDAA106000091GA1001+999999999GF100991001001999999001001KA1240N+02501MA1999999097241MD1999999-0041REMSYN070AAXX  10124 82983 32995 00906 10272 20174 39724 40132 333 20250 59004;EQDQ01  00002PRCP06
0198829830999992003121100004-09383-040483FM-12+037099999V0201801N001512200019N0020001N1+03081+01271101031ADDAA106000091GF103991031011008001001001KA1240M+03141MA1999999096941MD1999999-0011REMSYN088AAXX  11004 82983 32595 31803 10308 20127 39694 40103 83100 333 10314 29040 55119 59001;EQDQ01  00002PRCP06
0186829830999992003121112004-09383-040483FM-12+037099999V0201401N004110075019N0020001N1+02781+01931101351ADDAA106000091GF106991061021008001001001KA1240N+02501MA1999999097351MD1999999-0111REMSYN076AAXX  11124 82983 32595 61408 10278 20193 39735 40135 86200 333 20250 59011;EQDQ01  00002PRCP06
0198829830999992003121200004-09383-040483FM-12+037099999V0201401N004110075019N0020001N1+03101+01621101021ADDAA106000091GF105991051021008001001001KA1240M+03601MA1999999096941MD1999999+0001REMSYN088AAXX  12004 82983 32595 51408 10310 20162 39694 40102 85200 333 10360 29047 55096 58000;EQDQ01  00002PRCP06
0186829830999992003121212004-09383-040483FM-12+037099999V0201401N003110450019N0020001N1+02661+01741101391ADDAA106000091GF106991041011008001021011KA1240N+02421MA1999999097281MD1999999-0071REMSYN076AAXX  12124 82983 32595 61406 10266 20174 39728 40139 84121 333 20242 59007;EQDQ01  00002PRCP06
0208829830999992003121400004-09383-040483FM-12+037099999V0201801N002612200019N0020001N1+03101+01241100821ADDAA106000091GA1001+999999999GF100991001001999999001001KA1240M+03661MA1999999096741MD1999999-0151REMSYN082AAXX  14004 82983 32995 01805 10310 20124 39674 40082 333 10366 29041 55118 59015;EQDQ01  00002PRCP06
0186829830999992003121412004-09383-040483FM-12+037099999V0201401N003110075019N0040001N1+02761+01831101281ADDAA106000091GF105991051011008001001001KA1240N+02401MA1999999097181MD1999999+0021REMSYN076AAXX  14124 82983 32596 51406 10276 20183 39718 40128 85100 333 20240 58002;EQDQ01  00002PRCP06
0208829830999992003121500004-09383-040483FM-12+037099999V0201801N002612200019N0020001N1+03141+01451100871ADDAA106000091GA1001+999999999GF100991001001999999001001KA1240M+03661MA1999999096781MD1999999+0041REMSYN082AAXX  15004 82983 32995 01805 10314 20145 39678 40087 333 10366 29043 55117 58004;EQDQ01  00002PRCP06
0186829830999992003121512004-09383-040483FM-12+037099999V0200901N003110075019N0020001N1+02821+01971101371ADDAA106000091GF106991061021008001001001KA1240N+02441MA1999999097291MD1999999+0111REMSYN076AAXX  15124 82983 32595 60906 10282 20197 39729 40137 86200 333 20244 58011;EQDQ01  00002PRCP06
0208829830999992003121600004-09383-040483FM-12+037099999V0201401N004112200019N0020001N1+03021+01921101041ADDAA106000091GA1001+999999999GF100991001001999999001001KA1240M+03581MA1999999096911MD1999999+0131REMSYN082AAXX  16004 82983 32995 01408 10302 20192 39691 40104 333 10358 29055 55119 58013;EQDQ01  00002PRCP06
0186829830999992003121612004-09383-040483FM-12+037099999V0201401N003110075019N0020001N1+02801+01781101391ADDAA106000091GF105991051011008001001001KA1240N+02421MA1999999097281MD1999999-0011REMSYN076AAXX  16124 82983 32595 51406 10280 20178 39728 40139 85100 333 20242 59001;EQDQ01  00002PRCP06
0208829830999992003121700004-09383-040483FM-12+037099999V0201401N002612200019N0020001N1+03161+01511100951ADDAA106000091GA1001+999999999GF100991001001999999001001KA1240M+03541MA1999999096861MD1999999-0051REMSYN082AAXX  17004 82983 32995 01405 10316 20151 39686 40095 333 10354 29044 55120 59005;EQDQ01  00002PRCP06
0186829830999992003121712004-09383-040483FM-12+037099999V0201401N003110075019N0020001N1+02621+01781101321ADDAA106000091GF106991051021008001001011KA1240N+02461MA1999999097211MD1999999-0071REMSYN076AAXX  17124 82983 32595 61406 10262 20178 39721 40132 85201 333 20246 59007;EQDQ01  00002PRCP06
0208829830999992003121800004-09383-040483FM-12+037099999V0201401N001512200019N0020001N1+03061+01511100941ADDAA106000091GA1001+999999999GF100991001001999999001001KA1240M+03441MA1999999096851MD1999999-0011REMSYN082AAXX  18004 82983 32995 01403 10306 20151 39685 40094 333 10344 29046 55095 59001;EQDQ01  00002PRCP06
0186829830999992003121812004-09383-040483FM-12+037099999V0201401N003110450019N0020001N1+02561+01751101501ADDAA106000091GF106991041041008001011001KA1240N+02321MA1999999097381MD1999999+0171REMSYN076AAXX  18124 82983 32595 61406 10256 20175 39738 40150 84410 333 20232 58017;EQDQ01  00002PRCP06
0208829830999992003121900004-09383-040483FM-12+037099999V0201401N001512200019N0020001N1+03081+01361101221ADDAA106000091GA1001+999999999GF100991001001999999001001KA1240M+03361MA1999999097121MD1999999+0271REMSYN082AAXX  19004 82983 32995 01403 10308 20136 39712 40122 333 10336 29044 55062 58027;EQDQ01  00002PRCP06
0186829830999992003121912004-09383-040483FM-12+037099999V0200901N004110075019N0020001N1+02761+01621101551ADDAA106000091GF106991061021008001001001KA1240N+02441MA1999999097431MD1999999+0051REMSYN076AAXX  19124 82983 32595 60908 10276 20162 39743 40155 86200 333 20244 58005;EQDQ01  00002PRCP06
0198829830999992003122000004-09383-040483FM-12+037099999V0201401N001512200019N0020001N1+03061+01661101301ADDAA106000091GF103991031011008001001001KA1240M+03481MA1999999097191MD1999999+0071REMSYN088AAXX  20004 82983 32595 31403 10306 20166 39719 40130 83100 333 10348 29045 55113 58007;EQDQ01  00002PRCP06
0186829830999992003122012004-09383-040483FM-12+037099999V0201401N004112200019N0020001N1+02681+01731101581ADDAA106000091GF102991021011008001001001KA1240N+02341MA1999999097461MD1999999+0031REMSYN076AAXX  20124 82983 32595 21408 10268 20173 39746 40158 82100 333 20234 58003;EQDQ01  00002PRCP06
0208829830999992003122100004-09383-040483FM-12+037099999V0201801N001512200019N0020001N1+03121+01601101191ADDAA106000091GA1001+999999999GF100991001001999999001001KA1240M+03601MA1999999097091MD1999999-0101REMSYN082AAXX  21004 82983 32995 01803 10312 20160 39709 40119 333 10360 29045 55112 59010;EQDQ01  00002PRCP06
0196829830999992003122112004-09383-040483FM-12+037099999V0200901N002612200019N0020001N1+02661+01621101501ADDAA106000091GA1001+999999999GF100991001001999999001001KA1240N+02341MA1999999097381MD1999999-0081REMSYN070AAXX  21124 82983 32995 00905 10266 20162 39738 40150 333 20234 59008;EQDQ01  00002PRCP06
0224829830999992003122200004-09383-040483FM-12+037099999V0201401N001512200019N0020001N1+03181+01531101031ADDAA106000091GA1001+999999999GF100991001001999999001001KA1240M+03561MA1999999999999MD1999999-0151REMSYN082AAXX  22004 82983 32995 01403 10318 20153 39394 40103 333 10356 29042 55120 59015;EQDQ01  00002PRCP06Q02 093943APOSP 
0186829830999992003122212004-09383-040483FM-12+037099999V0201401N002612200019N0020001N1+02761+01661101271ADDAA106000091GF102991021011008001001001KA1240N+02461MA1999999097171MD1999999-0211REMSYN076AAXX  22124 82983 32595 21405 10276 20166 39717 40127 82100 333 20246 59021;EQDQ01  00002PRCP06
0198829830999992003122300004-09383-040483FM-12+037099999V0201401N002612200019N0020001N1+03281+01491100781ADDAA106000091GF104991041011008001001001KA1240M+03741MA1999999096721MD1999999-0221REMSYN088AAXX  23004 82983 32595 41405 10328 20149 39672 40078 84100 333 10374 29040 55120 59022;EQDQ01  00002PRCP06
0186829830999992003122312004-09383-040483FM-12+037099999V0200901N002610075019N0020001N1+02901+02071101101ADDAA106000091GF106991061021008001001001KA1240N+02621MA1999999097031MD1999999-0141REMSYN076AAXX  23124 82983 32595 60905 10290 20207 30703 40110 86200 333 20262 59014;EQDQ01  00002PRCP06
0198829830999992003122400004-09383-040483FM-12+037099999V0200901N002612200019N0020001N1+03181+01571100691ADDAA106000091GF102991021011008001001001KA1240M+03721MA1999999096631MD1999999-0091REMSYN088AAXX  24004 82983 32595 20905 10318 20157 39663 40069 82100 333 10372 29046 55108 59009;EQDQ01  00002PRCP06
0186829830999992003122412004-09383-040483FM-12+037099999V0200901N002610075019N0020001N1+02861+01981101141ADDAA106000091GF106991061011008001001001KA1240N+02541MA1999999097071MD1999999+0041REMSYN076AAXX  24124 82983 32595 60905 10286 20198 39707 40114 86100 333 20254 58004;EQDQ01  00002PRCP06
0208829830999992003122500004-09383-040483FM-12+037099999V0201401N003112200019N0020001N1+03181+01731100881ADDAA106000091GA1001+999999999GF100991001001999999001001KA1240M+03641MA1999999096821MD1999999+0191REMSYN082AAXX  25004 82983 32995 01406 10318 20173 39682 40088 333 10364 29048 55110 58019;EQDQ01  00002PRCP06
0186829830999992003122512004-09383-040483FM-12+037099999V0201401N003110075019N0020001N1+02741+01811101321ADDAA106000091GF105991051011008001001001KA1240N+02441MA1999999097221MD1999999+0151REMSYN076AAXX  25124 82983 32595 51406 10274 20181 39722 40132 85100 333 20244 58015;EQDQ01  00002PRCP06
0186829830999992003122612004-09383-040483FM-12+037099999V0200901N004110075019N0020001N1+02681+01861101231ADDAA106000091GF107991071021008001001001KA1240N+02401MA1999999097141MD1999999-0081REMSYN076AAXX  26124 82983 32595 70908 10268 20186 39714 40123 87200 333 20240 59008;EQDQ01  00002PRCP06
0198829830999992003122700004-09383-040483FM-12+037099999V0201401N003110075019N0020001N1+03061+01471100771ADDAA106000091GF106991061021008001001001KA1240M+03561MA1999999096691MD1999999-0181REMSYN088AAXX  27004 82983 32595 61406 10306 20147 39669 40077 86200 333 10356 29046 55086 59018;EQDQ01  00002PRCP06
0186829830999992003122712004-09383-040483FM-12+037099999V0200901N003110075019N0020001N1+02621+01761101221ADDAA106000091GF107991071021008001001001KA1240N+02381MA1999999097131MD1999999+0011REMSYN076AAXX  27124 82983 32595 70906 10262 20176 39713 40122 87200 333 20238 58001;EQDQ01  00002PRCP06
0198829830999992003122800004-09383-040483FM-12+037099999V0209999C000012200019N0020001N1+02941+01501100841ADDAA106000091GF102991021011008001001001KA1240M+03261MA1999999096721MD1999999+0031REMSYN088AAXX  28004 82983 32595 20000 10294 20150 39672 40084 82100 333 10326 29049 55018 58003;EQDQ01  00002PRCP06
0202829830999992003122812004-09383-040483FM-12+037099999V0200901N003119999999N0020001N1+02761+01861101071ADDAA106000091GF106991999011008001001001KA1240N+02431MA1999999096971MD1999999-0161REMSYN076AAXX  28124 82983 32595 60906 10276 20186 39697 40107 84100 333 20243 59016;EQDQ01+000042SCOTLCQ02  00002PRCP06
0198829830999992003122900004-09383-040483FM-12+037099999V0201801N001510075019N0020001N1+03181+01691100721ADDAA106000091GF106991061021008001001001KA1240M+03501MA1999999096651MD1999999-0071REMSYN088AAXX  29004 82983 32595 61803 10318 20169 39665 40072 86200 333 10350 29047 55080 59007;EQDQ01  00002PRCP06
0203829830999992003122912004-09383-040483FM-12+037099999V0201401N001510075019N0020001N1+02421+02131101061ADDAY101061AY231061GF108991081051008001999999KA1240N+02281MA1999999097061MD1999999+0091REMSYN088AAXX  29124 82983 21595 81403 10242 20213 39706 40106 75603 885// 333 20228 58009 60454;EQDQ01+000562PRSWM1
0198829830999992003123000004-09383-040483FM-12+037099999V0209999C000010075019N0020001N1+02861+02191100991ADDAA106000091GF108991081051008001999999KA1240M+03241MA1999999096861MD1999999+0211REMSYN088AAXX  30004 82983 32595 80000 10286 20219 39686 40099 885// 333 10324 29073 55025 58021;EQDQ01  00002PRCP06
0186829830999992003123012004-09383-040483FM-12+037099999V0201401N002610075019N0020001N1+02601+01921101301ADDAA106000091GF107991071021008001001001KA1240N+02361MA1999999097181MD1999999+0121REMSYN076AAXX  30124 82983 32595 71405 10260 20192 39718 40130 87200 333 20236 58012;EQDQ01  00002PRCP06
0198829830999992003123100004-09383-040483FM-12+037099999V0201801N001510075019N0020001N1+02801+02081101201ADDAA106000091GF107991071021008001001001KA1240M+03381MA1999999097071MD1999999+0211REMSYN088AAXX  31004 82983 32595 71803 10280 20208 39707 40120 87200 333 10338 29063 55033 58021;EQDQ01  00002PRCP06
0186829830999992003123112004-09383-040483FM-12+037099999V0201401N004110450019N0020001N1+02521+01961101351ADDAA106000091GF106991031011008001011011KA1240N+02361MA1999999097211MD1999999+0031REMSYN076AAXX  31124 82983 32595 61408 10252 20196 39721 40135 83111 333 20236 58003;EQDQ01  00002PRCP06
0167829830999992003123118004-09383-040483FM-12+037099999V0201401N003110075019N0020001N1+03221+01771100771ADDAA106000091GF106991061041008001001001MA1999999096691MD1999999-0031REMSYN070AAXX  31184 82983 32595 61406 10322 20177 39669 40077 86400 333 59003;EQDQ01  00002PRCP06
