0208829860999992003010100004-09400-038220FM-12+0252SBUF V0200901N005112200019N0020001N1+02851+01791101261ADDAA106000091GA1001+999999999GF100991001001999999001001KA1240M+03421MA1999999098441MD1999999-0051REMSYN082AAXX  01004 82986 32995 00910 10285 20179 39844 40126 333 10342 29050 55094 59005;EQDQ01  00002PRCP06
0186829860999992003010112004-09400-038220FM-12+0252SBUF V0201401N002612200019N0100001N1+02771+01991101371ADDAA106000091GF104991011011008001061021KA1240N+02271MA1999999098551MD1999999-0071REMSYN076AAXX  01124 82986 32597 41405 10277 20199 39855 40137 81162 333 20227 59007;EQDQ01  00002PRCP06
0167829860999992003010118004-09400-038220FM-12+0252SBUF V0201401N003112200019N0200001N1+03481+01751100871ADDAA106000091GF104991011011008001061021MA1999999098071MD1999999-0171REMSYN070AAXX  01184 82986 32598 41406 10348 20175 39807 40087 81162 333 59017;EQDQ01  00002PRCP06
0208829860999992003010200004-09400-038220FM-12+0252SBUF V0200901N005112200019N0020001N1+02911+01991101161ADDAA106000091GA1001+999999999GF100991001001999999001001KA1240M+03541MA1999999098351MD1999999-0091REMSYN082AAXX  02004 82986 32995 00910 10291 20199 39835 40116 333 10354 29054 55009 59009;EQDQ01  00002PRCP06
0186829860999992003010212004-09400-038220FM-12+0252SBUF V0203201N001512200019N0100001N1+02831+01971101371ADDAA106000091GF102991021001012501061001KA1240N+02301MA1999999098551MD1999999+0001REMSYN076AAXX  02124 82986 32697 23203 10283 20197 39855 40137 82060 333 20230 58000;EQDQ01  00002PRCP06
0137829860999992003010218004-09400-038220FM-12+0252SBUF V0203201N001512200019N0200001N1+03591+01791100751ADDGF103991021001012501061021MA1999999097971MD1999999-0101REMSYN070AAXX  02184 82986 22698 33203 10359 20179 39797 40075 82062 333 59010;
0208829860999992003010300004-09400-038220FM-12+0252SBUF V0200901N005112200019N0020001N1+03031+01991101001ADDAA106000091GA1001+999999999GF100991001001999999001001KA1240M+03691MA1999999098201MD1999999-0151REMSYN082AAXX  03004 82986 32995 00910 10303 20199 39820 40100 333 10369 29051 55108 59015;EQDQ01  00002PRCP06
0196829860999992003010312004-09400-038220FM-12+0252SBUF V0203601N001012200019N0100001N1+02861+01721101241ADDAA106000091GA1001+999999999GF100991001001999999001001KA1240N+02221MA1999999098441MD1999999-0111REMSYN070AAXX  03124 82986 32997 03602 10286 20172 39844 40124 333 20222 59011;EQDQ01  00002PRCP06
0177829860999992003010318004-09400-038220FM-12+0252SBUF V0200901N004112200019N0200001N1+03701+01111100741ADDAA106000091GA1001+999999999GF100991001001999999001001MA1999999097961MD1999999-0011REMSYN064AAXX  03184 82986 32998 00908 10370 20111 39796 40074 333 59001;EQDQ01  00002PRCP06
0208829860999992003010400004-09400-038220FM-12+0252SBUF V0200901N006212200019N0020001N1+02931+01801101051ADDAA106000091GA1001+999999999GF100991001001999999001001KA1240M+03761MA1999999098251MD1999999+0051REMSYN082AAXX  04004 82986 32995 00912 10293 20180 39825 40105 333 10376 29043 55112 58005;EQDQ01  00002PRCP06
0186829860999992003010412004-09400-038220FM-12+0252SBUF V0200901N001512200019N0100001N1+02601+01991101381ADDAA106000091GF102991021001012501061021KA1240N+02231MA1999999098551MD1999999+0101REMSYN076AAXX  04124 82986 32697 20903 10260 20199 39855 40138 82062 333 20223 58010;EQDQ01  00002PRCP06
0177829860999992003010418004-09400-038220FM-12+0252SBUF V0201401N003112200019N0200001N1+03671+00921100841ADDAA106000091GA1001+999999999GF100991001001999999001001MA1999999098061MD1999999+0101REMSYN064AAXX  04184 82986 32998 01406 10367 20092 39806 40084 333 58010;EQDQ01  00002PRCP06
0208829860999992003010500004-09400-038220FM-12+0252SBUF V0200901N007712200019N0020001N1+02951+02031101071ADDAA106000091GA1001+999999999GF100991001001999999001001KA1240M+03701MA1999999098261MD1999999+0011REMSYN082AAXX  05004 82986 32995 00915 10295 20203 39826 40107 333 10370 29051 55094 58001;EQDQ01  00002PRCP06
0186829860999992003010512004-09400-038220FM-12+0252SBUF V0203201N001512200019N0200001N1+02781+02131101241ADDAA106000091GF101991011011012501001001KA1240N+02281MA1999999098431MD1999999-0121REMSYN076AAXX  05124 82986 32698 13203 10278 20213 39843 40124 81100 333 20228 59012;EQDQ01  00002PRCP06
0167829860999992003010518004-09400-038220FM-12+0252SBUF V0200901N001512200019N0500001N1+03651+01191100771ADDAA106000091GF103991031001012501061001MA1999999097991MD1999999-0071REMSYN070AAXX  05184 82986 32699 30903 10365 20119 39799 40077 83060 333 59007;EQDQ01  00002PRCP06
0208829860999992003010600004-09400-038220FM-12+0252SBUF V0200901N006212200019N0020001N1+02991+02011101081ADDAA106000091GA1001+999999999GF100991001001999999001001KA1240M+03771MA1999999098281MD1999999+0021REMSYN082AAXX  06004 82986 32995 00912 10299 20201 39828 40108 333 10377 29051 55110 58002;EQDQ01  00002PRCP06
0224829860999992003010612004-09400-038220FM-12+0252SBUF V0203201N001512200019N0040001N1+02831+02071101291ADDAA106000091AY141061AY201061GA1001+999999999GF100991001001999999001001KA1240N+02261MA1999999098481MD1999999+0051MW1051REMSYN076AAXX  06124 82986 31996 03203 10283 20207 39848 40129 70540 333 20226 58005;EQDQ01  00002PRCP06
0167829860999992003010618004-09400-038220FM-12+0252SBUF V0200501N001012200019N0500001N1+03731+01191100721ADDAA106000091GF101991011001012501041001MA1999999097941MD1999999-0051REMSYN070AAXX  06184 82986 32699 10502 10373 20119 39794 40072 81040 333 59005;EQDQ01  00002PRCP06
0208829860999992003010700004-09400-038220FM-12+0252SBUF V0200901N005112200019N0020001N1+02991+01921100931ADDAA106000091GA1001+999999999GF100991001001999999001001KA1240M+03781MA1999999098131MD1999999-0151REMSYN082AAXX  07004 82986 32995 00910 10299 20192 39813 40093 333 10378 29048 55112 59015;EQDQ01  00002PRCP06
0224829860999992003010712004-09400-038220FM-12+0252SBUF V0203201N001512200019N0040001N1+02891+02081101251ADDAA106000091AY141061AY201061GA1001+999999999GF100991001001999999001001KA1240N+02291MA1999999098451MD1999999-0031MW1051REMSYN076AAXX  07124 82986 31996 03203 10289 20208 39845 40125 70540 333 20229 59003;EQDQ01  00002PRCP06
0167829860999992003010718004-09400-038220FM-12+0252SBUF V0203601N001512200019N0500001N1+03751+01521100721ADDAA106000091GF102991011001012501061011MA1999999097951MD1999999+0011REMSYN070AAXX  07184 82986 32699 23603 10375 20152 39795 40072 81061 333 58001;EQDQ01  00002PRCP06
0208829860999992003010800004-09400-038220FM-12+0252SBUF V0200901N005112200019N0020001N1+03271+01801100901ADDAA106000091GA1001+999999999GF100991001001999999001001KA1240M+03831MA1999999098131MD1999999+0001REMSYN082AAXX  08004 82986 32995 00910 10327 20180 39813 40090 333 10383 29043 55107 58000;EQDQ01  00002PRCP06
0167829860999992003010818004-09400-038220FM-12+0252SBUF V0201401N002612200019N0500001N1+03751+01521100821ADDAA106000091GF102991011001012501041021MA1999999098061MD1999999+0111REMSYN070AAXX  08184 82986 32699 21405 10375 20152 39806 40082 81042 333 58011;EQDQ01  00002PRCP06
0208829860999992003010900004-09400-038220FM-12+0252SBUF V0200901N005712200019N0020001N1+03131+01681101201ADDAA106000091GA1001+999999999GF100991001001999999001001KA1240M+03821MA1999999098421MD1999999+0291REMSYN082AAXX  09004 82986 32995 00911 10313 20168 39842 40120 333 10382 29041 55105 58029;EQDQ01  00002PRCP06
0214829860999992003010912004-09400-038220FM-12+0252SBUF V0201401N001512200019N0040001N1+02721+01981101491ADDAA106000091AY141061AY201061GF104991021011008001041001KA1240N+02361MA1999999098681MD1999999+0221MW1051REMSYN082AAXX  09124 82986 31596 41403 10272 20198 39868 40149 70540 82140 333 20236 58022;EQDQ01  00002PRCP06
0167829860999992003010918004-09400-038220FM-12+0252SBUF V0200901N005712200019N0100001N1+03531+01531101081ADDAA106000091GF104991041011008001001001MA1999999098291MD1999999+0231REMSYN070AAXX  09184 82986 32597 40911 10353 20153 39829 40108 84100 333 58023;EQDQ01  00002PRCP06
0208829860999992003011000004-09400-038220FM-12+0252SBUF V0200901N005712200019N0020001N1+02851+02011101411ADDAA106000091GA1001+999999999GF100991001001999999001001KA1240M+03591MA1999999098591MD1999999+0171REMSYN082AAXX  10004 82986 32995 00911 10285 20201 39859 40141 333 10359 29054 55098 58017;EQDQ01  00002PRCP06
0186829860999992003011012004-09400-038220FM-12+0252SBUF V0200901N001510075019N0100001N1+02721+01731101561ADDAA106000091GF105991051021008001001001KA1240N+02321MA1999999098731MD1999999+0051REMSYN076AAXX  10124 82986 32597 50903 10272 20173 39873 40156 85200 333 20232 58005;EQDQ01  00002PRCP06
0167829860999992003011018004-09400-038220FM-12+0252SBUF V0203201N001010075019N0200001N1+03391+01481100991ADDAA106000091GF105991051011008001001001MA1999999098191MD1999999-0101REMSYN070AAXX  10184 82986 32598 53202 10339 20148 39819 40099 85100 333 59010;EQDQ01  00002PRCP06
0208829860999992003011100004-09400-038220FM-12+0252SBUF V0200901N006212200019N0020001N1+02821+02001101181ADDAA106000091GA1001+999999999GF100991001001999999001001KA1240M+03511MA1999999098361MD1999999-0231REMSYN082AAXX  11004 82986 32995 00912 10282 20200 39836 40118 333 10351 29054 55091 59023;EQDQ01  00002PRCP06
0214829860999992003011112004-09400-038220FM-12+0252SBUF V0203201N002112200019N0040001N1+02871+01871101461ADDAA106000091AY141061AY201061GF101991011011012501001001KA1240N+02281MA1999999098641MD1999999-0091MW1051REMSYN082AAXX  11124 82986 31696 13204 10287 20187 39864 40146 70540 81100 333 20228 59009;EQDQ01  00002PRCP06
0167829860999992003011118004-09400-038220FM-12+0252SBUF V0201401N001511050019N0500001N1+03611+01161100911ADDAA106000091GF105991021011008001081021MA1999999098121MD1999999-0071REMSYN070AAXX  11184 82986 32599 51403 10361 20116 39812 40091 82182 333 59007;EQDQ01  00002PRCP06
0208829860999992003011200004-09400-038220FM-12+0252SBUF V0200901N002112200019N0020001N1+03011+01941101001ADDAA106000091GA1001+999999999GF100991001001999999001001KA1240M+03641MA1999999098201MD1999999-0161REMSYN082AAXX  12004 82986 32995 00904 10301 20194 39820 40100 333 10364 29046 55108 59016;EQDQ01  00002PRCP06
0186829860999992003011212004-09400-038220FM-12+0252SBUF V0203201N001512200019N0100001N1+02911+01811101301ADDAA106000091GF101991011001017501041011KA1240N+02361MA1999999098501MD1999999-0141REMSYN076AAXX  12124 82986 32797 13203 10291 20181 39850 40130 81041 333 20236 59014;EQDQ01  00002PRCP06
0167829860999992003011218004-09400-038220FM-12+0252SBUF V0203201N001510450019N0500001N1+03731+01511100731ADDAA106000091GF105991021011008001081001MA1999999097961MD1999999-0161REMSYN070AAXX  12184 82986 32599 53203 10373 20151 39796 40073 82180 333 59016;EQDQ01  00002PRCP06
0208829860999992003011300004-09400-038220FM-12+0252SBUF V0200901N003112200019N0020001N1+03191+01911100851ADDAA106000091GA1001+999999999GF100991001001999999001001KA1240M+03781MA1999999098071MD1999999-0131REMSYN082AAXX  13004 82986 32995 00906 10319 20191 39807 40085 333 10378 29044 55111 59013;EQDQ01  00002PRCP06
0194829860999992003011312004-09400-038220FM-12+0252SBUF V0203601N001512200019N0040001N1+02811+01981101231ADDAA106000091AY141061AY201061GA1001+999999999GF100991001001999999001001KA1240N+02391MW1051REMSYN075AAXX  13124 82986 31996 03603 10281 20198 40123 70540 9843 333 20239 59007;EQDQ01  00002PRCP06
0167829860999992003011318004-09400-038220FM-12+0252SBUF V0203201N001012200019N0500001N1+03651+01501100681ADDAA106000091GF103991021001012501061011MA1999999097901MD1999999-0061REMSYN070AAXX  13184 82986 32699 33202 10365 20150 39790 40068 82061 333 59006;EQDQ01  00002PRCP06
0208829860999992003011400004-09400-038220FM-12+0252SBUF V0200901N005112200019N0020001N1+03181+02011100841ADDAA106000091GA1001+999999999GF100991001001999999001001KA1240M+03771MA1999999098061MD1999999-0011REMSYN082AAXX  14004 82986 32995 00910 10318 20201 39806 40084 333 10377 29047 55104 59001;EQDQ01  00002PRCP06
0224829860999992003011412004-09400-038220FM-12+0252SBUF V0203201N002112200019N0040001N1+02911+01961101231ADDAA106000091AY141061AY201061GA1001+999999999GF100991001001999999001001KA1240N+02391MA1999999098441MD1999999+0011MW1051REMSYN076AAXX  14124 82986 31996 03204 10291 20196 39844 40123 70540 333 20239 58001;EQDQ01  00002PRCP06
0167829860999992003011418004-09400-038220FM-12+0252SBUF V0203201N001012200019N0500001N1+03641+01551100791ADDAA106000091GF103991021001012501061011MA1999999098021MD1999999+0121REMSYN070AAXX  14184 82986 32699 33202 10364 20155 39802 40079 82061 333 58012;EQDQ01  00002PRCP06
0208829860999992003011500004-09400-038220FM-12+0252SBUF V0200901N006712200019N0020001N1+03071+01901100921ADDAA106000091GA1001+999999999GF100991001001999999001001KA1240M+03701MA1999999098131MD1999999+0071REMSYN082AAXX  15004 82986 32995 00913 10307 20190 39813 40092 333 10370 29046 55103 58007;EQDQ01  00002PRCP06
0196829860999992003011512004-09400-038220FM-12+0252SBUF V0203601N002112200019N0100001N1+03041+01571101351ADDAA106000091GA1001+999999999GF100991001001999999001001KA1240N+02361MA1999999098561MD1999999+0121REMSYN070AAXX  15124 82986 32997 03604 10304 20157 39856 40135 333 20236 58012;EQDQ01  00002PRCP06
0167829860999992003011518004-09400-038220FM-12+0252SBUF V0202301N002112200019N0200001N1+03661+01461100851ADDAA106000091GF103991021011012501001011MA1999999098081MD1999999+0061REMSYN070AAXX  15184 82986 32698 32304 10366 20146 39808 40085 82101 333 58006;EQDQ01  00002PRCP06
0198829860999992003011600004-09400-038220FM-12+0252SBUF V0200901N008212200019N0020001N1+02951+01881101271ADDAA106000091GF102991011011012501001021KA1240M+03721MA1999999098371MD1999999+0241REMSYN088AAXX  16004 82986 32695 20916 10295 20188 39837 40127 81102 333 10372 29044 55111 58024;EQDQ01  00002PRCP06
0224829860999992003011612004-09400-038220FM-12+0252SBUF V0203601N002112200019N0200001N1+02801+01901101451ADDAA106000091AY141061AY201061GA1001+999999999GF100991001001999999001001KA1240N+02301MA1999999098641MD1999999+0081MW1051REMSYN076AAXX  16124 82986 31998 03604 10280 20190 39864 40145 70540 333 20230 58008;EQDQ01  00002PRCP06
0167829860999992003011618004-09400-038220FM-12+0252SBUF V0200901N004112200019N0200001N1+03671+01271100941ADDAA106000091GF102991021011012501001001MA1999999098161MD1999999+0081REMSYN070AAXX  16184 82986 32698 20908 10367 20127 39816 40094 82100 333 58008;EQDQ01  00002PRCP06
0214829860999992003011712004-09400-038220FM-12+0252SBUF V0200501N001512200019N0040001N1+02851+01791101351ADDAA106000091AY141061AY201061GF103991001001999999001011KA1240N+02281MA1999999098531MD1999999-0111MW1051REMSYN082AAXX  17124 82986 31996 30503 10285 20179 39853 40135 70540 80001 333 20228 59011;EQDQ01  00002PRCP06
0167829860999992003011718004-09400-038220FM-12+0252SBUF V0202301N001012200019N0500001N1+03551+01521100871ADDAA106000091GF104991011011012501061021MA1999999098081MD1999999-0081REMSYN070AAXX  17184 82986 32699 42302 10355 20152 39808 40087 81162 333 59008;EQDQ01  00002PRCP06
0208829860999992003011800004-09400-038220FM-12+0252SBUF V0200901N004612200019N0020001N1+02981+02041101181ADDAA106000091GA1001+999999999GF100991001001999999001001KA1240M+03621MA1999999099382MD1999999-0031REMSYN082AAXX  18004 82986 32995 00909 10298 20204 39938 40118 333 10362 29049 55100 59003;EQDQ01  00002PRCP06
0186829860999992003011812004-09400-038220FM-12+0252SBUF V0201401N001010450019N0100001N1+02791+02161101311ADDAA106000091GF106991041021008001061061KA1240N+02441MA1999999098501MD1999999-0031REMSYN076AAXX  18124 82986 32597 61402 10279 20216 39850 40131 84266 333 20244 59003;EQDQ01  00002PRCP06
0167829860999992003011818004-09400-038220FM-12+0252SBUF V0200901N003110450019N0200001N1+03561+01731100821ADDAA106000091GF106991031011008001081021MA1999999098041MD1999999-0041REMSYN070AAXX  18184 82986 32598 60906 10356 20173 39804 40082 83182 333 59004;EQDQ01  00002PRCP06
0226829860999992003011900004-09400-038220FM-12+0252SBUF V0200901N006711050019N0010001N1+02881+02081101151ADDAA106000091AY121061AY221061GF105991021021004501081011KA1240M+03661MA1999999098341MD1999999-0041MW1131REMSYN094AAXX  19004 82986 31494 50913 10288 20208 39834 40115 71322 82281 333 10366 29057 55085 59004;EQDQ01  00002PRCP06
0214829860999992003011912004-09400-038220FM-12+0252SBUF V0203201N001510450019N0040001N1+02791+02041101351ADDAA106000091AY141061AY221061GF106991021011008001081011KA1240N+02361MA1999999098531MD1999999+0031MW1051REMSYN082AAXX  19124 82986 31596 63203 10279 20204 39853 40135 70542 82181 333 20236 58003;EQDQ01  00002PRCP06
0167829860999992003011918004-09400-038220FM-12+0252SBUF V0203601N001512200019N0200001N1+03471+02021100821ADDAA106000091GF105991021011008001001081MA1999999098031MD1999999-0011REMSYN070AAXX  19184 82986 32598 53603 10347 20202 39803 40082 82108 333 59001;EQDQ01  00002PRCP06
0202829860999992003012000004-09400-038220FM-12+0252SBUF V0201401N003110042019N0020001N1+02521+02091101341ADDAY161061AY251061GF107991051021004501081001KA1240M+03551MA1999999098501MD1999999+0161MW1131REMSYN100AAXX  20004 82986 21495 71406 10252 20209 39850 40134 71365 85280 333 10355 29065 55082 58016 69971;
0190829860999992003012012004-09400-038220FM-12+0252SBUF V0203601N001010450019N0040001N1+02461+02321101471ADDAY161061AY251061GF107991041021004501081011KA1240N+02321MA1999999098611MD1999999+0081MW1031REMSYN088AAXX  20124 82986 21496 73602 10246 20232 39861 40147 70365 84281 333 20232 58008 60084;
0167829860999992003012018004-09400-038220FM-12+0252SBUF V0203601N001011050019N0200001N1+03131+02221100951ADDAA106000091GF105991021011008001031021MA1999999098131MD1999999+0101REMSYN070AAXX  20184 82986 32598 53602 10313 20222 39813 40095 82132 333 58010;EQDQ01  00002PRCP06
0202829860999992003012100004-09400-038220FM-12+0252SBUF V0200901N001010450019N0010001N1+02571+02291101141ADDAY161061AY251061GF106991041021004501081001KA1240M+03231MA1999999098291MD1999999-0211MW1211REMSYN100AAXX  21004 82986 21494 60902 10257 20229 39829 40114 72165 84280 333 10323 29080 55046 59021 60011;
0162829860999992003012112004-09400-038220FM-12+0252SBUF V0200501N001511050019N0100001N1+02751+02191101251ADDGF105991021021008001031011KA1240N+02371MA1999999098411MD1999999-0201REMSYN082AAXX  21124 82986 22597 50503 10275 20219 39841 40125 82231 333 20237 59020 60014;
0195829860999992003012118004-09400-038220FM-12+0252SBUF V0200901N003110450019N0100001N1+03461+01781100641ADDAA106000091AY121061AY221061GF107991041021008001041081MA1999999097861MD1999999-0271MW1151REMSYN076AAXX  21184 82986 31597 70906 10346 20178 39786 40064 71522 84248 333 59027;EQDQ01  00002PRCP06
0186829860999992003012212004-09400-038220FM-12+0252SBUF V0200901N003110450019N0100001N1+02901+01991101241ADDAA106000091GF105991021021008001091001KA1240N+02301MA1999999098431MD1999999+0021REMSYN076AAXX  22124 82986 32597 50906 10290 20199 39843 40124 82290 333 20230 58002;EQDQ01  00002PRCP06
0167829860999992003012218004-09400-038220FM-12+0252SBUF V0200501N003110450019N0200001N1+03431+01561100921ADDAA106000091GF105991031021008001051041MA1999999098121MD1999999+0261REMSYN070AAXX  22184 82986 32598 50506 10343 20156 39812 40092 83254 333 58026;EQDQ01  00002PRCP06
0208829860999992003012300004-09400-038220FM-12+0252SBUF V0200901N007712200019N0020001N1+02801+01981101181ADDAA106000091GA1001+999999999GF100991001001999999001001KA1240M+03561MA1999999098371MD1999999+0141REMSYN082AAXX  23004 82986 32995 00915 10280 20198 39837 40118 333 10356 29053 55112 58014;EQDQ01  00002PRCP06
0186829860999992003012312004-09400-038220FM-12+0252SBUF V0200901N004110075019N0100001N1+02851+02121101431ADDAA106000091GF106991051021008001061011KA1240N+02381MA1999999098611MD1999999+0181REMSYN076AAXX  23124 82986 32597 60908 10285 20212 39861 40143 85261 333 20238 58018;EQDQ01  00002PRCP06
0167829860999992003012318004-09400-038220FM-12+0252SBUF V0201401N005110450019N0100001N1+03131+01921101101ADDAA106000091GF106991021011008001081021MA1999999098291MD1999999+0171REMSYN070AAXX  23184 82986 32597 61410 10313 20192 39829 40110 82182 333 58017;EQDQ01  00002PRCP06
0202829860999992003012400004-09400-038220FM-12+0252SBUF V0203601N001010450019N0010001N1+02441+02091101471ADDAY161061AY251061GF106991041021004501081001KA1240M+03291MA1999999098631MD1999999+0261MW1031REMSYN100AAXX  24004 82986 21494 63602 10244 20209 39863 40147 70365 84280 333 10329 29069 55073 58026 69911;
0162829860999992003012412004-09400-038220FM-12+0252SBUF V0201401N003110450019N0100001N1+02691+02161101491ADDGF106991041021004501061081KA1240N+02381MA1999999098641MD1999999+0031REMSYN082AAXX  24124 82986 22497 61406 10269 20216 39864 40149 84268 333 20238 58003 69914;
0152829860999992003012418004-09400-038220FM-12+0252SBUF V0200901N003111050019N0200001N1+03391+01711100931ADDAA106000091GF105991021011008001081011MA1999999098131REMSYN069AAXX  24184 82986 32598 50906 10339 20171 39813 40093 82181 33 59016;EQDQ01  00002PRCP06
0208829860999992003012500004-09400-038220FM-12+0252SBUF V0200901N006712200019N0020001N1+02791+01911101331ADDAA106000091GA1001+999999999GF100991001001999999001001KA1240M+03521MA1999999098501MD1999999-0131REMSYN082AAXX  25004 82986 32995 00913 10279 20191 39850 40133 333 10352 29057 55062 59013;EQDQ01  00002PRCP06
0186829860999992003012512004-09400-038220FM-12+0252SBUF V0200901N003110450019N0100001N1+02801+01981101341ADDAA106000091GF105991031011008001081001KA1240N+02301MA1999999098521MD1999999-0121REMSYN076AAXX  25124 82986 32597 50906 10280 20198 39852 40134 83180 333 20230 59012;EQDQ01  00002PRCP06
0167829860999992003012518004-09400-038220FM-12+0252SBUF V0200901N003110450019N0200001N1+03391+01621100831ADDAA106000091GF105991031011008001081001MA1999999098031MD1999999-0101REMSYN070AAXX  25184 82986 32598 50906 10339 20162 39803 40083 83180 333 59010;EQDQ01  00002PRCP06
0208829860999992003012600004-09400-038220FM-12+0252SBUF V0200901N005112200019N0020001N1+02871+01921101071ADDAA106000091GA1001+999999999GF100991001001999999001001KA1240M+03521MA1999999098261MD1999999-0241REMSYN082AAXX  26004 82986 32995 00910 10287 20192 39826 40107 333 10352 29052 55107 59024;EQDQ01  00002PRCP06
0186829860999992003012612004-09400-038220FM-12+0252SBUF V0200501N002610450019N0040001N1+02711+01991101221ADDAA106000091GF106991041021004501021011KA1240N+02331MA1999999098401MD1999999-0121REMSYN076AAXX  26124 82986 32496 60505 10271 20199 39840 40122 84221 333 20233 59012;EQDQ01  00002PRCP06
0167829860999992003012618004-09400-038220FM-12+0252SBUF V0203601N001512200019N0200001N1+03441+01721100651ADDAA106000091GF104991021011008001061021MA1999999097861MD1999999-0171REMSYN070AAXX  26184 82986 32598 43603 10344 20172 39786 40065 82162 333 59017;EQDQ01  00002PRCP06
0208829860999992003012700004-09400-038220FM-12+0252SBUF V0200901N005112200019N0020001N1+02841+01851100931ADDAA106000091GA1001+999999999GF100991001001999999001001KA1240M+03541MA1999999098121MD1999999-0141REMSYN082AAXX  27004 82986 32995 00910 10284 20185 39812 40093 333 10354 29053 55099 59014;EQDQ01  00002PRCP06
0186829860999992003012712004-09400-038220FM-12+0252SBUF V0200901N003110042019N0040001N1+02671+02111101201ADDAA106000091GF107991051021004501081001KA1240N+02381MA1999999098381MD1999999-0021REMSYN076AAXX  27124 82986 32496 70906 10267 20211 39838 40120 85280 333 20238 59002;EQDQ01  00002PRCP06
0167829860999992003012718004-09400-038220FM-12+0252SBUF V0203201N001510450019N0200001N1+03101+02121100821ADDAA106000091GF106991021041008001051081MA1999999098011MD1999999+0151REMSYN070AAXX  27184 82986 32598 63203 10310 20212 39801 40082 82458 333 58015;EQDQ01  00002PRCP06
0226829860999992003012800004-09400-038220FM-12+0252SBUF V0200901N003619999999N0020001N1+02611+02251101081ADDAA106000091AY121061AY221061GF106991041021008001999001KA1240M+03131MA1999999098251MD1999999+1031MW1131REMSYN094AAXX  28004 82986 31595 60907 10261 20225 39825 40108 71322 842/0 333 10313 29073 55005 58103;EQDQ01  00002PRCP06
0209829860999992003012812004-09400-038220FM-12+0252SBUF V0202701N001510042019N0040001N1+02361+02241101401ADDAY161061AY251061GF108991999071004501081999KA1240N+02131MA1999999098541MD1999999+0161MW1031REMSYN088AAXX  28124 82986 21496 82703 10236 20224 39854 40140 70365 8878/ 333 20213 58016 61144;EQDQ01+000082SCOTLC
0167829860999992003012818004-09400-038220FM-12+0252SBUF V0203201N002110450019N0200001N1+02781+02301101131ADDAA106000091GF107991011041008001091999MA1999999098281MD1999999+0271REMSYN070AAXX  28184 82986 32598 73204 10278 20230 39828 40113 8149/ 333 58027;EQDQ01  00002PRCP06
0186829860999992003012912004-09400-038220FM-12+0252SBUF V0201401N001510450019N0100001N1+02691+02231101431ADDAA106000091GF106991041021008001031001KA1240N+02301MA1999999098581MD1999999+0041REMSYN076AAXX  29124 82986 32597 61403 10269 20223 39858 40143 84230 333 20230 58004;EQDQ01  00002PRCP06
0195829860999992003012918004-09400-038220FM-12+0252SBUF V0200901N009810042019N0020001N1+03201+02121100931ADDAA106000091AY121061AY221061GF107991051021004501081001MA1999999098121MD1999999-0161MW1161REMSYN076AAXX  29184 82986 31495 70919 10320 20212 39812 40093 71622 85280 333 59016;EQDQ01  00002PRCP06
0202829860999992003013000004-09400-038220FM-12+0252SBUF V0200901N002110450019N0005001N1+02591+02271101201ADDAY121061AY251061GF106991031011004501081001KA1240M+03361MA1999999098371MD1999999-0141MW1031REMSYN100AAXX  30004 82986 21493 60904 10259 20227 39837 40120 70325 83180 333 10336 29074 55075 59014 69911;
0162829860999992003013012004-09400-038220FM-12+0252SBUF V0200901N003110450019N0040001N1+02691+02181101291ADDGF106991041021004501081011KA1240N+02371MA1999999098451MD1999999-0131REMSYN082AAXX  30124 82986 22496 60906 10269 20218 39845 40129 84281 333 20237 59013 69914;
0167829860999992003013018004-09400-038220FM-12+0252SBUF V0200501N002110450019N0100001N1+03271+01981100831ADDAA106000091GF106991041021004501081081MA1999999098031MD1999999-0091REMSYN070AAXX  30184 82986 32497 60504 10327 20198 39803 40083 84288 333 59009;EQDQ01  00002PRCP06
0208829860999992003013100004-09400-038220FM-12+0252SBUF V0200901N005112200019N0020001N1+02711+02061101061ADDAA106000091GA1001+999999999GF100991001001999999001001KA1240M+03321MA1999999098231MD1999999-0141REMSYN082AAXX  31004 82986 32995 00910 10271 20206 39823 40106 333 10332 29064 55088 59014;EQDQ01  00002PRCP06
0186829860999992003013112004-09400-038220FM-12+0252SBUF V0200901N004110450019N0040001N1+02651+02091101281ADDAA106000091GF107991041021004501081001KA1240N+02281MA1999999098451MD1999999+0001REMSYN076AAXX  31124 82986 32496 70908 10265 20209 39845 40128 84280 333 20228 58000;EQDQ01  00002PRCP06
0171829860999992003013118004-09400-038220FM-12+0252SBUF V0202701N001510450019N0040001N1+02751+02281100961ADDAY151061AY221061GF106991041021004501081011MA1999999098121MD1999999+0091MW1031REMSYN082AAXX  31184 82986 21496 62703 10275 20228 39812 40096 70352 84281 333 58009 69901;
0208829860999992003020100004-09400-038220FM-12+0252SBUF V0201401N003112200019N0020001N1+02801+01861101261ADDAA106000091GA1001+999999999GF100991001001999999001001KA1240M+03251MA1999999098431MD1999999+0201REMSYN082AAXX  01004 82986 32995 01406 10280 20186 39843 40126 333 10325 29060 55044 58020;EQDQ01  00002PRCP06
0186829860999992003020112004-09400-038220FM-12+0252SBUF V0200901N003110042019N0040001N1+02521+02291101391ADDAA106000091GF107991051071004501081001KA1240N+02131MA1999999098551MD1999999+0101REMSYN076AAXX  01124 82986 32496 70906 10252 20229 39855 40139 85780 333 20213 58010;EQDQ01  00002PRCP06
0171829860999992003020118004-09400-038220FM-12+0252SBUF V0200901N003110042019N0040001N1+02691+02061101191ADDAY151061AY221061GF107991051071004501081001MA1999999098341MD1999999+0221MW1031REMSYN082AAXX  01184 82986 21496 70906 10269 20206 39834 40119 70352 85780 333 58022 69911;
0208829860999992003020200004-09400-038220FM-12+0252SBUF V0200901N003112200019N0020001N1+02551+02171101271ADDAA106000091GA1001+999999999GF100991001001999999001001KA1240M+02861MA1999999098521MD1999999+0091REMSYN082AAXX  02004 82986 32995 00906 10255 20217 39852 40127 333 10286 29079 55007 58009;EQDQ01  00002PRCP06
0190829860999992003020212004-09400-038220FM-12+0252SBUF V0200901N003110021019N0020001N1+02531+02191101491ADDAY151061AY221061GF107991051071002501081001KA1240N+02281MA1999999098641MD1999999+0091MW1511REMSYN088AAXX  02124 82986 21395 70906 10253 20219 39864 40149 75152 85780 333 20228 58009 69914;
0148829860999992003020218004-09400-038220FM-12+0252SBUF V0200901N006210450019N0200001N1+03191+02011101091ADDAA106000021GF106991031021008001061081MA1999999098271MD1999999-0071REMSYN070AAXX  02184 82986 32598 60912 10319 20201 39827 40109 83268 333 59007;
0198829860999992003020300004-09400-038220FM-12+0252SBUF V0200901N006710120019N0020001N1+02611+02061101441ADDAA106000091GF106991061051012501999999KA1240M+03291MA1999999098591MD1999999+0071REMSYN088AAXX  03004 82986 32695 60913 10261 20206 39859 40144 865// 333 10329 29069 55065 58007;EQDQ01  00002PRCP06
0186829860999992003020312004-09400-038220FM-12+0252SBUF V0200901N005112200019N0100001N1+02691+02161101441ADDAA106000091GF106991041021008001001011KA1240N+02281MA1999999098601MD1999999-0041REMSYN076AAXX  03124 82986 32597 60910 10269 20216 39860 40144 84201 333 20228 59004;EQDQ01  00002PRCP06
0167829860999992003020318004-09400-038220FM-12+0252SBUF V0200501N003110120019N0200001N1+03081+02011101181ADDAA106000091GF106991051051012501001021MA1999999098361MD1999999+0091REMSYN070AAXX  03184 82986 32698 60506 10308 20201 39836 40118 85502 333 58009;EQDQ01  00002PRCP06
0198829860999992003020400004-09400-038220FM-12+0252SBUF V0200901N000512200019N0020001N1+02791+01881101361ADDAA106000091GF102991021001017501051001KA1240M+03291MA1999999098531MD1999999-0061REMSYN088AAXX  04004 82986 32795 20901 10279 20188 39853 40136 82050 333 10329 29060 55085 59006;EQDQ01  00002PRCP06
0186829860999992003020412004-09400-038220FM-12+0252SBUF V0200901N004610450019N0100001N1+02671+02181101331ADDAA106000091GF106991041021004501051001KA1240N+02341MA1999999098501MD1999999-0101REMSYN076AAXX  04124 82986 32497 60909 10267 20218 39850 40133 84250 333 20234 59010;EQDQ01  00002PRCP06
0167829860999992003020418004-09400-038220FM-12+0252SBUF V0200901N005110450019N0200001N1+03301+01841100931ADDAA106000091GF106991031011008001081011MA1999999098131MD1999999-0231REMSYN070AAXX  04184 82986 32598 60910 10330 20184 39813 40093 83181 333 59023;EQDQ01  00002PRCP06
0208829860999992003020500004-09400-038220FM-12+0252SBUF V0200901N005112200019N0020001N1+02711+02031101231ADDAA106000091GA1001+999999999GF100991001001999999001001KA1240M+03411MA1999999098401MD1999999-0131REMSYN082AAXX  05004 82986 32995 00910 10271 20203 39840 40123 333 10341 29060 55085 59013;EQDQ01  00002PRCP06
0190829860999992003020512004-09400-038220FM-12+0252SBUF V0200901N003110450019N0100001N1+02351+02071101361ADDAY121061AY221061GF108991041071004501081999KA1240N+02241MA1999999098511MD1999999+0011MW1211REMSYN088AAXX  05124 82986 21497 80906 10235 20207 39851 40136 72122 8478/ 333 20224 58001 69904;
0148829860999992003020518004-09400-038220FM-12+0252SBUF V0200901N004110450019N0200001N1+03271+01641101021ADDAA106000021GF105991021011008001081001MA1999999098211MD1999999+0081REMSYN070AAXX  05184 82986 32598 50908 10327 20164 39821 40102 82180 333 58008;
0208829860999992003020600004-09400-038220FM-12+0252SBUF V0200901N006212200019N0020001N1+02731+01881101201ADDAA106000091GA1001+999999999GF100991001001999999001001KA1240M+03321MA1999999098421MD1999999+0021REMSYN082AAXX  06004 82986 32995 00912 10273 20188 39842 40120 333 10332 29061 55066 58002;EQDQ01  00002PRCP06
0186829860999992003020612004-09400-038220FM-12+0252SBUF V0200501N003610450019N0040001N1+02631+01981101491ADDAA106000091GF106991021011008001081011KA1240N+02171MA1999999098651MD1999999+0141REMSYN076AAXX  06124 82986 32596 60507 10263 20198 39865 40149 82181 333 20217 58014;EQDQ01  00002PRCP06
0167829860999992003020618004-09400-038220FM-12+0252SBUF V0200901N003112200019N0200001N1+03281+01701101051ADDAA106000091GF102991011011012501001011MA1999999098241MD1999999+0031REMSYN070AAXX  06184 82986 32698 20906 10328 20170 39824 40105 81101 333 58003;EQDQ01  00002PRCP06
0208829860999992003020700004-09400-038220FM-12+0252SBUF V0200901N005112200019N0020001N1+02741+02071101261ADDAA106000091GA1001+999999999GF100991001001999999001001KA1240M+03371MA1999999098431MD1999999+0011REMSYN082AAXX  07004 82986 32995 00910 10274 20207 39843 40126 333 10337 29060 55107 58001;EQDQ01  00002PRCP06
0167829860999992003020718004-09400-038220FM-12+0252SBUF V0200901N005112200019N0200001N1+03311+01801100951ADDAA106000091GF104991031011012501001011MA1999999098151MD1999999-0091REMSYN070AAXX  07184 82986 32698 40910 10331 20180 39815 40095 83101 333 59009;EQDQ01  00002PRCP06
0208829860999992003020800004-09400-038220FM-12+0252SBUF V0200901N006712200019N0020001N1+02731+01771101281ADDAA106000091GA1001+999999999GF100991001001999999001001KA1240M+03401MA1999999098451MD1999999+0021REMSYN082AAXX  08004 82986 32995 00913 10273 20177 39845 40128 333 10340 29055 55102 58002;EQDQ01  00002PRCP06
0186829860999992003020812004-09400-038220FM-12+0252SBUF V0200901N004611050019N0100001N1+02631+02011101421ADDAA106000091GF105991021011008001081011KA1240N+02121MA1999999098591MD1999999+0001REMSYN076AAXX  08124 82986 32597 50909 10263 20201 39859 40142 82181 333 20212 58000;EQDQ01  00002PRCP06
0208829860999992003020900004-09400-038220FM-12+0252SBUF V0200901N005112200019N0020001N1+02771+01801101231ADDAA106000091GA1001+999999999GF100991001001999999001001KA1240M+03391MA1999999098401MD1999999-0051REMSYN082AAXX  09004 82986 32995 00910 10277 20180 39840 40123 333 10339 29054 55112 59005;EQDQ01  00002PRCP06
0186829860999992003020912004-09400-038220FM-12+0252SBUF V0200901N003110450019N0100001N1+02651+02051101401ADDAA106000091GF106991031011008001081001KA1240N+02201MA1999999098571MD1999999-0021REMSYN076AAXX  09124 82986 32597 60906 10265 20205 39857 40140 83180 333 20220 59002;EQDQ01  00002PRCP06
0167829860999992003020918004-09400-038220FM-12+0252SBUF V0200501N002112200019N0200001N1+03311+01591100891ADDAA106000091GF105991041011012501001041MA1999999098081MD1999999-0131REMSYN070AAXX  09184 82986 32698 50504 10331 20159 39808 40089 84104 333 59013;EQDQ01  00002PRCP06
0198829860999992003021000004-09400-038220FM-12+0252SBUF V0200901N00621045001CN0020001N1+02801+01921101191ADDAA106000091GF106991011011012501021999KA1240M+03461MA1999999098361MD1999999-0041REMSYN088AAXX  10004 82986 32695 60912 10280 20192 39836 40119 8112/ 333 10346 29056 55109 59004;EQDQ01  00002PRCP06
0186829860999992003021012004-09400-038220FM-12+0252SBUF V0200901N003110075019N0100001N1+02631+02031101271ADDAA106000091GF106991051021008001081021KA1240N+02241MA1999999098441MD1999999-0131REMSYN076AAXX  10124 82986 32597 60906 10263 20203 39844 40127 85282 333 20224 59013;EQDQ01  00002PRCP06
0167829860999992003021018004-09400-038220FM-12+0252SBUF V0203201N002110450019N0200001N1+03291+01581100821ADDAA106000091GF106991021011008001081011MA1999999098021MD1999999-0061REMSYN070AAXX  10184 82986 32598 63204 10329 20158 39802 40082 82181 333 59006;EQDQ01  00002PRCP06
0198829860999992003021100004-09400-038220FM-12+0252SBUF V0200901N003610450019N0020001N1+02521+02051101151ADDAA106000091GF106991041021004501081001KA1240M+03331MA1999999098311MD1999999-0051REMSYN088AAXX  11004 82986 32495 60907 10252 20205 39831 40115 84280 333 10333 29064 55072 59005;EQDQ01  00002PRCP06
0186829860999992003021112004-09400-038220FM-12+0252SBUF V0200901N004110450019N0200001N1+02691+02021101321ADDAA106000091GF106991031021008001031011KA1240N+02301MA1999999098471MD1999999+0031REMSYN076AAXX  11124 82986 32598 60908 10269 20202 39847 40132 83231 333 20230 58003;EQDQ01  00002PRCP06
0167829860999992003021118004-09400-038220FM-12+0252SBUF V0200501N002112200019N0200001N1+03251+01781100811ADDAA106000091GF103991011011008001061001MA1999999098011MD1999999-0011REMSYN070AAXX  11184 82986 32598 30504 10325 20178 39801 40081 81160 333 59001;EQDQ01  00002PRCP06
0208829860999992003021200004-09400-038220FM-12+0252SBUF V0200901N005712200019N0020001N1+02901+01721101041ADDAA106000091GA1001+999999999GF100991001001999999001001KA1240M+03341MA1999999098231MD1999999-0081REMSYN082AAXX  12004 82986 32995 00911 10290 20172 39823 40104 333 10334 29052 55085 59008;EQDQ01  00002PRCP06
0186829860999992003021212004-09400-038220FM-12+0252SBUF V0201401N002110450019N0040001N1+02631+02161101351ADDAA106000091GF106991041021004501081011KA1240N+02311MA1999999098521MD1999999+0051REMSYN076AAXX  12124 82986 32496 61404 10263 20216 39852 40135 84281 333 20231 58005;EQDQ01  00002PRCP06
0167829860999992003021218004-09400-038220FM-12+0252SBUF V0203601N001511050019N0200001N1+03311+02051100861ADDAA106000091GF106991031011008001001081MA1999999098061MD1999999+0051REMSYN070AAXX  12184 82986 32598 63603 10331 20205 39806 40086 83108 333 58005;EQDQ01  00002PRCP06
0202829860999992003021300004-09400-038220FM-12+0252SBUF V0200901N001510450019N0020001N1+02491+02321101291ADDAY161061AY251061GF106991031021004501081001KA1240M+03331MA1999999098351MD1999999+0121MW1031REMSYN100AAXX  13004 82986 21495 60903 10249 20232 39835 40129 70365 83280 333 10333 29076 55047 58012 60161;
0190829860999992003021312004-09400-038220FM-12+0252SBUF V0203201N001010090019N0005001N1+02291+02181101521ADDAY161061AY251061GF108991081081004501999999KA1240N+02171MA1999999098651MD1999999+0131MW1031REMSYN088AAXX  13124 82986 21493 83202 10229 20218 39865 40152 70365 888// 333 20217 58013 60274;
0171829860999992003021318004-09400-038220FM-12+0252SBUF V0202701N001010090019N0040001N1+02491+02251101141ADDAY161061AY251061GF108991081081004501999999MA1999999098271MD1999999+0211MW1031REMSYN082AAXX  13184 82986 21496 82702 10249 20225 39827 40114 70365 888// 333 58021 69981;
0162829860999992003021412004-09400-038220FM-12+0252SBUF V0200501N001510075019N0200001N1+02631+02071101331ADDGF105991051011008001001001KA1240N+02181MA1999999098481MD1999999-0171REMSYN082AAXX  14124 82986 22598 50503 10263 20207 39848 40133 85100 333 20218 59017 69984;
0139829860999992003021414004-09400-038220FM-15+0252SBUF V0201001N003612200019N0112651N1+03001+01801999999ADDGA1041+006009999GF104991999999999999999999MA1101491999999MW1001REMMET045SBUF 141400Z 10007KT 9999 SCT020 30/18 Q1015;EQDQ01+000000PRSWM2
0167829860999992003021418004-09400-038220FM-12+0252SBUF V0200901N002612200019N0200001N1+03301+01721100831ADDAA106000091GF104991031011008001031001MA1999999098031MD1999999-0241REMSYN070AAXX  14184 82986 32598 40905 10330 20172 39803 40083 83130 333 59024;EQDQ01  00002PRCP06
0208829860999992003021500004-09400-038220FM-12+0252SBUF V0200901N006212200019N0020001N1+02761+01771101121ADDAA106000091GA1001+999999999GF100991001001999999001001KA1240M+03351MA1999999098291MD1999999-0041REMSYN082AAXX  15004 82986 32995 00912 10276 20177 39829 40112 333 10335 29055 55112 59004;EQDQ01  00002PRCP06
0186829860999992003021512004-09400-038220FM-12+0252SBUF V0200901N003110450019N0200001N1+02671+02161101181ADDAA106000091GF106991031011008001081001KA1240N+02301MA1999999098351MD1999999-0131REMSYN076AAXX  15124 82986 32598 60906 10267 20216 39835 40118 83180 333 20230 59013;EQDQ01  00002PRCP06
0167829860999992003021518004-09400-038220FM-12+0252SBUF V0200901N003112200019N0200001N1+03281+01161100771ADDAA106000091GF105991041011008001001011MA1999999097971MD1999999-0061REMSYN070AAXX  15184 82986 32598 50906 10328 20116 39797 40077 84101 333 59006;EQDQ01  00002PRCP06
0186829860999992003021612004-09400-038220FM-12+0252SBUF V0200901N003611050019N0200001N1+02641+02141101211ADDAA106000091GF106991041021008001001021KA1240N+02271MA1999999098381MD1999999+0031REMSYN076AAXX  16124 82986 32598 60907 10264 20214 39838 40121 84202 333 20227 58003;EQDQ01  00002PRCP06
0167829860999992003021618004-09400-038220FM-12+0252SBUF V0201401N004610450019N0200001N1+03321+01821100811ADDAA106000091GF106991031011008001081011MA1999999098011MD1999999+0041REMSYN070AAXX  16184 82986 32598 61409 10332 20182 39801 40081 83181 333 58004;EQDQ01  00002PRCP06
0186829860999992003021712004-09400-038220FM-12+0252SBUF V0200901N003110075019N0200001N1+02661+02141101261ADDAA106000091GF106991051021008001081001KA1240N+02281MA1999999098431MD1999999+0051REMSYN076AAXX  17124 82986 32598 60906 10266 20214 39843 40126 85280 333 20228 58005;EQDQ01  00002PRCP06
0167829860999992003021718004-09400-038220FM-12+0252SBUF V0203201N002112200019N0200001N1+03281+02101100861ADDAA106000091GF105991041011012501001081MA1999999098051MD1999999+0041REMSYN070AAXX  17184 82986 32698 53204 10328 20210 39805 40086 84108 333 58004;EQDQ01  00002PRCP06
0208829860999992003021800004-09400-038220FM-12+0252SBUF V0201401N006712200019N0020001N1+02921+01921101021ADDAA106000091GA1001+999999999GF100991001001999999001001KA1240M+03331MA1999999098211MD1999999-0061REMSYN082AAXX  18004 82986 32995 01413 10292 20192 39821 40102 333 10333 29058 55111 59006;EQDQ01  00002PRCP06
0186829860999992003021812004-09400-038220FM-12+0252SBUF V0203201N002111050019N0100001N1+02661+02141101291ADDAA106000091GF105991011011008001051021KA1240N+02211MA1999999098471MD1999999+0041REMSYN076AAXX  18124 82986 32597 53204 10266 20214 39847 40129 81152 333 20221 58004;EQDQ01  00002PRCP06
0167829860999992003021818004-09400-038220FM-12+0252SBUF V0200901N001512200019N0200001N1+03411+01771100811ADDAA106000091GF104991021011008001041011MA1999999098011MD1999999-0041REMSYN070AAXX  18184 82986 32598 40903 10341 20177 39801 40081 82141 333 59004;EQDQ01  00002PRCP06
0208829860999992003021900004-09400-038220FM-12+0252SBUF V0201401N007212200019N0020001N1+02881+02051101121ADDAA106000091GA1001+999999999GF100991001001999999001001KA1240M+03521MA1999999098301MD1999999+0091REMSYN082AAXX  19004 82986 32995 01414 10288 20205 39830 40112 333 10352 29058 55105 58009;EQDQ01  00002PRCP06
0186829860999992003021912004-09400-038220FM-12+0252SBUF V0201401N002110450019N0040001N1+02671+02241101341ADDAA106000091GF107991041021004501081011KA1240N+02291MA1999999098521MD1999999+0051REMSYN076AAXX  19124 82986 32496 71404 10267 20224 39852 40134 84281 333 20229 58005;EQDQ01  00002PRCP06
0195829860999992003021918004-09400-038220FM-12+0252SBUF V0200901N005110450019N0200001N1+03411+02071100881ADDAA106000091AY121061AY221061GF106991041021008001081011MA1999999098081MD1999999+0071MW1151REMSYN076AAXX  19184 82986 31598 60910 10341 20207 39808 40088 71522 84281 333 58007;EQDQ01  00002PRCP06
0208829860999992003022000004-09400-038220FM-12+0252SBUF V0201401N004112200019N0020001N1+02701+02221101241ADDAA106000091GA1001+999999999GF100991001001999999001001KA1240M+03451MA1999999098411MD1999999+0111REMSYN082AAXX  20004 82986 32995 01408 10270 20222 39841 40124 333 10345 29068 55065 58011;EQDQ01  00002PRCP06
0202829860999992003022012004-09400-038220FM-12+0252SBUF V0201401N003110042019N0040001N1+02641+02181101331ADDAA106000091GF108991999071004501081999KA1240N+02381MA1999999098491MD1999999-0031REMSYN076AAXX  20124 82986 32496 81406 10264 20218 39849 40133 8878/ 333 20238 59003;EQDQ01+000082SCOTLCQ02  00002PRCP06
0171829860999992003022018004-09400-038220FM-12+0252SBUF V0201401N002110450019N0100001N1+02611+02311101131ADDAY161061AY221061GF108991031081004501071999MA1999999098281MD1999999+0201MW1021REMSYN082AAXX  20184 82986 21497 81404 10261 20231 39828 40113 70262 8387/ 333 58020 60031;
0198829860999992003022100004-09400-038220FM-12+0252SBUF V0200901N001510120019N0020001N1+02501+02131101221ADDAA106000091GF106991061051012501999999KA1240M+02931MA1999999098381MD1999999-0031REMSYN088AAXX  21004 82986 32695 60903 10250 20213 39838 40122 865// 333 10293 29080 55000 59003;EQDQ01  00002PRCP06
0162829860999992003022112004-09400-038220FM-12+0252SBUF V0201401N005110450019N0100001N1+02641+02141101261ADDGF106991041021004501081011KA1240N+02201MA1999999098411MD1999999-0081REMSYN082AAXX  21124 82986 22497 61410 10264 20214 39841 40126 84281 333 20220 59008 60034;
0195829860999992003022118004-09400-038220FM-12+0252SBUF V0203201N001510075019N0040001N1+03111+02031100911ADDAA106000091AY121061AY221061GF106991051021008001081011MA1999999098091MD1999999-0191MW1151REMSYN076AAXX  21184 82986 31596 63203 10311 20203 39809 40091 71522 85281 333 59019;EQDQ01  00002PRCP06
0162829860999992003022212004-09400-038220FM-12+0252SBUF V0200901N003110042019N0100001N1+02251+02151101431ADDGF108991061071004501071999KA1240N+02281MA1999999098561MD1999999+0151REMSYN082AAXX  22124 82986 22497 80906 10225 20215 39856 40143 8677/ 333 20228 58015 69924;
0208829860999992003022300004-09400-038220FM-12+0252SBUF V0201401N003612200019N0020001N1+02731+01951101331ADDAA106000091GA1001+999999999GF100991001001999999001001KA1240M+03291MA1999999098491MD1999999+0101REMSYN082AAXX  23004 82986 32995 01407 10273 20195 39849 40133 333 10329 29064 55060 58010;EQDQ01  00002PRCP06
0208829860999992003022400004-09400-038220FM-12+0252SBUF V0201401N006212200019N0020001N1+02781+02041101311ADDAA106000091GA1001+999999999GF100991001001999999001001KA1240M+03311MA1999999098481MD1999999-0011REMSYN082AAXX  24004 82986 32995 01412 10278 20204 39848 40131 333 10331 29059 55069 59001;EQDQ01  00002PRCP06
0202829860999992003022500004-09400-038220FM-12+0252SBUF V0200901N004610060019N0005001N1+02231+02191101521ADDAY161061AY261061GF108991081081002501999999KA1240M+03141MA1999999098601MD1999999+0121MW1021REMSYN100AAXX  25004 82986 21393 80909 10223 20219 39860 40152 70266 888// 333 10314 29084 55058 58012 60081;
0190829860999992003022512004-09400-038220FM-12+0252SBUF V0201401N003110450019N0040001N1+02601+02271101341ADDAY161061AY251061GF106991041021004501081011KA1240N+02181MA1999999098471MD1999999-0211MW1031REMSYN088AAXX  25124 82986 21496 61406 10260 20227 39847 40134 70365 84281 333 20218 59021 60094;
0167829860999992003022518004-09400-038220FM-12+0252SBUF V0201401N004110450019N0100001N1+03111+02151100921ADDAA106000091GF106991041021004501081011MA1999999098101MD1999999-0211REMSYN070AAXX  25184 82986 32497 61408 10311 20215 39810 40092 84281 333 59021;EQDQ01  00002PRCP06
0186829860999992003022612004-09400-038220FM-12+0252SBUF V0200501N001510450019N0100001N1+02661+02181101291ADDAA106000091GF106991031011008001081011KA1240N+02261MA1999999098451MD1999999-0021REMSYN076AAXX  26124 82986 32597 60503 10266 20218 39845 40129 83181 333 20226 59002;EQDQ01  00002PRCP06
0167829860999992003022618004-09400-038220FM-12+0252SBUF V0201401N002610075019N0200001N1+03191+02041100901ADDAA106000091GF106991051021008001041001MA1999999098081MD1999999-0021REMSYN070AAXX  26184 82986 32598 61405 10319 20204 39808 40090 85240 333 59002;EQDQ01  00002PRCP06
0198829860999992003022700004-09400-038220FM-12+0252SBUF V0200901N006212200019N0020001N1+02721+01791101261ADDAA106000091GF102991021001017501031001KA1240M+03211MA1999999098431MD1999999+0031REMSYN088AAXX  27004 82986 32795 20912 10272 20179 39843 40126 82030 333 10321 29060 55080 58003;EQDQ01  00002PRCP06
0186829860999992003022712004-09400-038220FM-12+0252SBUF V0201401N003110450019N0100001N1+02671+02161101281ADDAA106000091GF106991041021004501051001KA1240N+02201MA1999999098451MD1999999+0001REMSYN076AAXX  27124 82986 32497 61406 10267 20216 39845 40128 84250 333 20220 58000;EQDQ01  00002PRCP06
0167829860999992003022718004-09400-038220FM-12+0252SBUF V0200901N002110450019N0200001N1+03261+02151100951ADDAA106000091GF105991041021008001041061MA1999999098131MD1999999+0051REMSYN070AAXX  27184 82986 32598 50904 10326 20215 39813 40095 84246 333 58005;EQDQ01  00002PRCP06
0208829860999992003022800004-09400-038220FM-12+0252SBUF V0200901N005712200019N0020001N1+02831+01941101281ADDAA106000091GA1001+999999999GF100991001001999999001001KA1240M+03331MA1999999098451MD1999999+0021REMSYN082AAXX  28004 82986 32995 00911 10283 20194 39845 40128 333 10333 29060 55086 58002;EQDQ01  00002PRCP06
0186829860999992003022812004-09400-038220FM-12+0252SBUF V0201401N004610075019N0100001N1+02841+02091101381ADDAA106000091GF106991051021008001001041KA1240N+02411MA1999999098561MD1999999+0111REMSYN076AAXX  28124 82986 32597 61409 10284 20209 39856 40138 85204 333 20241 58011;EQDQ01  00002PRCP06
0167829860999992003022818004-09400-038220FM-12+0252SBUF V0201801N009310450019N0040001N1+03021+01881100931ADDAA106000091GF106991041021004501081001MA1999999098131MD1999999+0001REMSYN070AAXX  28184 82986 32496 61818 10302 20188 39813 40093 84280 333 58000;EQDQ01  00002PRCP06
0198829860999992003030100004-09400-038220FM-12+0252SBUF V0200901N003110450019N0010001N1+02701+02151101261ADDAA106000091GF106991041021004501081001KA1240M+03331MA1999999098431MD1999999-0021REMSYN088AAXX  01004 82986 32494 60906 10270 20215 39843 40126 84280 333 10333 29063 55062 59002;EQDQ01  00002PRCP06
0186829860999992003030112004-09400-038220FM-12+0252SBUF V0201401N005711050019N0100001N1+02701+02151101311ADDAA106000091GF106991041021008001001081KA1240N+02301MA1999999098481MD1999999-0081REMSYN076AAXX  01124 82986 32597 61411 10270 20215 39848 40131 84208 333 20230 59008;EQDQ01  00002PRCP06
0167829860999992003030118004-09400-038220FM-12+0252SBUF V0202301N001510450019N0200001N1+03031+02021100981ADDAA106000091GF106991041021004501081011MA1999999098161MD1999999+0031REMSYN070AAXX  01184 82986 32498 62303 10303 20202 39816 40098 84281 333 58003;EQDQ01  00002PRCP06
0208829860999992003030200004-09400-038220FM-12+0252SBUF V0200901N004112200019N0020001N1+02691+01841101121ADDAA106000091GA1001+999999999GF100991001001999999001001KA1240M+03201MA1999999098291MD1999999-0141REMSYN082AAXX  02004 82986 32995 00908 10269 20184 39829 40112 333 10320 29062 55060 59014;EQDQ01  00002PRCP06
0186829860999992003030212004-09400-038220FM-12+0252SBUF V0201401N003110450019N0040001N1+02631+02011101301ADDAA106000091GF106991031011008001021011KA1240N+02111MA1999999098461MD1999999+0001REMSYN076AAXX  02124 82986 32596 61406 10263 20201 39846 40130 83121 333 20211 59000;EQDQ01  00002PRCP06
0167829860999992003030218004-09400-038220FM-12+0252SBUF V0200901N002112200019N0100001N1+03271+01541100791ADDAA106000091GF106991031011008001001061MA1999999097971MD1999999-0191REMSYN070AAXX  02184 82986 32597 60904 10327 20154 39797 40079 83106 333 59019;EQDQ01  00002PRCP06
0208829860999992003030300004-09400-038220FM-12+0252SBUF V0201401N003612200019N0020001N1+02841+01791100971ADDAA106000091GA1001+999999999GF100991001001999999001001KA1240M+03341MA1999999098151MD1999999-0141REMSYN082AAXX  03004 82986 32995 01407 10284 20179 39815 40097 333 10334 29053 55078 59014;EQDQ01  00002PRCP06
0186829860999992003030312004-09400-038220FM-12+0252SBUF V0200901N003610450019N0040001N1+02661+02021101261ADDAA106000091GF106991031011008001081011KA1240N+02251MA1999999098431MD1999999-0031REMSYN076AAXX  03124 82986 32596 60907 10266 20202 39843 40126 83181 333 20225 59003;EQDQ01  00002PRCP06
0167829860999992003030318004-09400-038220FM-12+0252SBUF V0200901N001512200019N0200001N1+03381+01431100801ADDAA106000091GF105991021011008001001011MA1999999098001MD1999999+0031REMSYN070AAXX  03184 82986 32598 50903 10338 20143 39800 40080 82101 333 58003;EQDQ01  00002PRCP06
0208829860999992003030400004-09400-038220FM-12+0252SBUF V0201401N005112200019N0020001N1+02781+01731101131ADDAA106000091GA1001+999999999GF100991001001999999001001KA1240M+03441MA1999999098301MD1999999+0151REMSYN082AAXX  04004 82986 32995 01410 10278 20173 39830 40113 333 10344 29051 55100 58015;EQDQ01  00002PRCP06
0186829860999992003030412004-09400-038220FM-12+0252SBUF V0201401N001510450019N0100001N1+02671+02091101381ADDAA106000091GF105991041011008001081001KA1240N+02281MA1999999098551MD1999999+0121REMSYN076AAXX  04124 82986 32597 51403 10267 20209 39855 40138 84180 333 20228 58012;EQDQ01  00002PRCP06
0167829860999992003030418004-09400-038220FM-12+0252SBUF V0203601N000511050019N0040001N1+03431+02091100921ADDAA106000091GF106991031021008001001081MA1999999098121MD1999999+0121REMSYN070AAXX  04184 82986 32596 63601 10343 20209 39812 40092 83208 333 58012;EQDQ01  00002PRCP06
0186829860999992003030512004-09400-038220FM-12+0252SBUF V0200901N004610450019N0040001N1+02811+02081101251ADDAA106000091GF106991031021008001051051KA1240N+02361MA1999999098421MD1999999-0131REMSYN076AAXX  05124 82986 32596 60909 10281 20208 39842 40125 83255 333 20236 59013;EQDQ01  00002PRCP06
0167829860999992003030518004-09400-038220FM-12+0252SBUF V0201401N002110450019N0200001N1+03371+01691100771ADDAA106000091GF106991031021008001031011MA1999999097981MD1999999-0141REMSYN070AAXX  05184 82986 32598 61404 10337 20169 39798 40077 83231 333 59014;EQDQ01  00002PRCP06
0198829860999992003030600004-09400-038220FM-12+0252SBUF V0200901N006712200019N0020001N1+02741+02021101111ADDAA106000091GF104991041001017501051001KA1240M+03441MA1999999098291MD1999999-0141REMSYN088AAXX  06004 82986 32795 40913 10274 20202 39829 40111 84050 333 10344 29058 55091 59014;EQDQ01  00002PRCP06
0186829860999992003030612004-09400-038220FM-12+0252SBUF V0200901N004110450019N0200001N1+02811+02131101221ADDAA106000091GF106991041021008001031041KA1240N+02361MA1999999098401MD1999999-0021REMSYN076AAXX  06124 82986 32598 60908 10281 20213 39840 40122 84234 333 20236 59002;EQDQ01  00002PRCP06
0167829860999992003030618004-09400-038220FM-12+0252SBUF V0201401N003110042019N0200001N1+03261+01801100801ADDAA106000091GF107991051021004501081001MA1999999098001MD1999999+0021REMSYN070AAXX  06184 82986 32498 71406 10326 20180 39800 40080 85280 333 58002;EQDQ01  00002PRCP06
0198829860999992003030700004-09400-038220FM-12+0252SBUF V0201401N005110450019N0010001N1+02791+01951101051ADDAA106000091GF106991031011008001081001KA1240M+03341MA1999999098241MD1999999-0051REMSYN088AAXX  07004 82986 32594 61410 10279 20195 39824 40105 83180 333 10334 29057 55067 59005;EQDQ01  00002PRCP06
0186829860999992003030712004-09400-038220FM-12+0252SBUF V0200901N004112200019N0100001N1+02751+02211101301ADDAA106000091GF106991041021008001001061KA1240N+02301MA1999999098471MD1999999+0071REMSYN076AAXX  07124 82986 32597 60908 10275 20221 39847 40130 84206 333 20230 58007;EQDQ01  00002PRCP06
0167829860999992003030718004-09400-038220FM-12+0252SBUF V0200901N003110450019N0500001N1+03471+01731100811ADDAA106000091GF106991031011008001081011MA1999999098011MD1999999+0011REMSYN070AAXX  07184 82986 32599 60906 10347 20173 39801 40081 83181 333 58001;EQDQ01  00002PRCP06
0208829860999992003030800004-09400-038220FM-12+0252SBUF V0201401N006712200019N0020001N1+02801+01901101121ADDAA106000091GA1001+999999999GF100991001001999999001001KA1240M+03501MA1999999098301MD1999999+0061REMSYN082AAXX  08004 82986 32995 01413 10280 20190 39830 40112 333 10350 29056 55073 58006;EQDQ01  00002PRCP06
0186829860999992003030812004-09400-038220FM-12+0252SBUF V0201401N003610450019N0100001N1+02711+01991101311ADDAA106000091GF106991031011008001081001KA1240N+02281MA1999999098481MD1999999+0011REMSYN076AAXX  08124 82986 32597 61407 10271 20199 39848 40131 83180 333 20228 58001;EQDQ01  00002PRCP06
0208829860999992003030900004-09400-038220FM-12+0252SBUF V0201401N006712200019N0020001N1+02801+01781101171ADDAA106000091GA1001+999999999GF100991001001999999001001KA1240M+03491MA1999999098351MD1999999+0051REMSYN082AAXX  09004 82986 32995 01413 10280 20178 39835 40117 333 10349 29051 55105 58005;EQDQ01  00002PRCP06
0186829860999992003030912004-09400-038220FM-12+0252SBUF V0201401N005110450019N0100001N1+02781+02041101311ADDAA106000091GF106991031011008001081011KA1240N+02241MA1999999098491MD1999999+0011REMSYN076AAXX  09124 82986 32597 61410 10278 20204 39849 40131 83181 333 20224 58001;EQDQ01  00002PRCP06
0167829860999992003030918004-09400-038220FM-12+0252SBUF V0201401N001512200019N0500001N1+03471+01551100891ADDAA106000091GF103991011011008001001081MA1999999098091MD1999999-0031REMSYN070AAXX  09184 82986 32599 31403 10347 20155 39809 40089 81108 333 59003;EQDQ01  00002PRCP06
0186829860999992003031012004-09400-038220FM-12+0252SBUF V0201401N001512200019N0100001N1+02851+02141101261ADDAA106000091GF104991021011008001061011KA1240N+02361MA1999999098451MD1999999-0041REMSYN076AAXX  10124 82986 32597 41403 10285 20214 39845 40126 82161 333 20236 59004;EQDQ01  00002PRCP06
0167829860999992003031018004-09400-038220FM-12+0252SBUF V0200901N004110075019N0200001N1+03541+01521100791ADDAA106000091GF106991051021008001001061MA1999999097971MD1999999-0121REMSYN070AAXX  10184 82986 32598 60908 10354 20152 39797 40079 85206 333 59012;EQDQ01  00002PRCP06
0208829860999992003031100004-09400-038220FM-12+0252SBUF V0201401N006712200019N0020001N1+02851+02121101141ADDAA106000091GA1001+999999999GF100991001001999999001001KA1240M+03621MA1999999098331MD1999999+0031REMSYN082AAXX  11004 82986 32995 01413 10285 20212 39833 40114 333 10362 29056 55105 58003;EQDQ01  00002PRCP06
0186829860999992003031112004-09400-038220FM-12+0252SBUF V0201401N003110450019N0100001N1+02861+02091101251ADDAA106000091GF106991031021008001051001KA1240N+02371MA1999999098441MD1999999-0011REMSYN076AAXX  11124 82986 32597 61406 10286 20209 39844 40125 83250 333 20237 59001;EQDQ01  00002PRCP06
0167829860999992003031118004-09400-038220FM-12+0252SBUF V0201401N005111050019N0200001N1+03391+01661100841ADDAA106000091GF106991031021008001001081MA1999999098051MD1999999-0251REMSYN070AAXX  11184 82986 32598 61410 10339 20166 39805 40084 83208 333 59025;EQDQ01  00002PRCP06
0198829860999992003031200004-09400-038220FM-12+0252SBUF V0201401N006212200019N0020001N1+02761+01971101161ADDAA106000091GF104991041001017501041001KA1240M+03501MA1999999098341MD1999999+0011REMSYN088AAXX  12004 82986 32795 41412 10276 20197 39834 40116 84040 333 10350 29056 55090 58001;EQDQ01  00002PRCP06
0186829860999992003031212004-09400-038220FM-12+0252SBUF V0200901N002610450019N0200001N1+02691+01971101271ADDAA106000091GF106991011011008001031001KA1240N+02201MA1999999098441MD1999999+0001REMSYN076AAXX  12124 82986 32598 60905 10269 20197 39844 40127 81130 333 20220 58000;EQDQ01  00002PRCP06
0167829860999992003031218004-09400-038220FM-12+0252SBUF V0201401N003110450019N0200001N1+03411+01291100821ADDAA106000091GF106991031011008001081011MA1999999098011MD1999999-0041REMSYN070AAXX  12184 82986 32598 61406 10341 20129 39801 40082 83181 333 59004;EQDQ01  00002PRCP06
0208829860999992003031300004-09400-038220FM-12+0252SBUF V0201401N005112200019N0020001N1+02851+02091101011ADDAA106000091GA1001+999999999GF100991001001999999001001KA1240M+03461MA1999999098191MD1999999-0151REMSYN082AAXX  13004 82986 32995 01410 10285 20209 39819 40101 333 10346 29055 55097 59015;EQDQ01  00002PRCP06
0186829860999992003031312004-09400-038220FM-12+0252SBUF V0201401N002110450019N0040001N1+02721+02171101211ADDAA106000091GF106991041021004501081001KA1240N+02421MA1999999098391MD1999999-0051REMSYN076AAXX  13124 82986 32496 61404 10272 20217 39839 40121 84280 333 20242 59005;EQDQ01  00002PRCP06
0167829860999992003031318004-09400-038220FM-12+0252SBUF V0201401N001011050019N0200001N1+03431+01871100731ADDAA106000091GF106991031021008001001081MA1999999097941MD1999999-0071REMSYN070AAXX  13184 82986 32598 61402 10343 20187 39794 40073 83208 333 59007;EQDQ01  00002PRCP06
0198829860999992003031400004-09400-038220FM-12+0252SBUF V0201401N007710450019N0010001N1+02941+01851101011ADDAA106000091GF106991031011008001081021KA1240M+03541MA1999999098201MD1999999+0011REMSYN088AAXX  14004 82986 32594 61415 10294 20185 39820 40101 83182 333 10354 29054 55063 58001;EQDQ01  00002PRCP06
0167829860999992003031418004-09400-038220FM-12+0252SBUF V0200901N003111050019N0200001N1+03581+01701100681ADDAA106000091GF105991021021008001001051MA1999999097901MD1999999-0041REMSYN070AAXX  14184 82986 32598 50906 10358 20170 39790 40068 82205 333 59004;EQDQ01  00002PRCP06
0208829860999992003031500004-09400-038220FM-12+0252SBUF V0201401N006712200019N0020001N1+02841+02071101111ADDAA106000091GA1001+999999999GF100991001001999999001001KA1240M+03591MA1999999098301MD1999999+0101REMSYN082AAXX  15004 82986 32995 01413 10284 20207 39830 40111 333 10359 29056 55094 58010;EQDQ01  00002PRCP06
0167829860999992003031518004-09400-038220FM-12+0252SBUF V0201401N005110042019N0100001N1+02911+02121100951ADDAA106000091GF107991051021004501081001MA1999999098121MD1999999+0221REMSYN070AAXX  15184 82986 32497 71410 10291 20212 39812 40095 85280 333 58022;EQDQ01  00002PRCP06
0198829860999992003031600004-09400-038220FM-12+0252SBUF V0201401N003110450019N0020001N1+02691+02201101131ADDAA106000091GF105991021021008001081001KA1240M+03401MA1999999098301MD1999999+0001REMSYN088AAXX  16004 82986 32595 51406 10269 20220 39830 40113 82280 333 10340 29071 55050 58000;EQDQ01  00002PRCP06
0186829860999992003031612004-09400-038220FM-12+0252SBUF V0200901N001512200019N0200001N1+02691+01921101331ADDAA106000091GF104991021011008001051011KA1240N+02241MA1999999098501MD1999999-0071REMSYN076AAXX  16124 82986 32598 40903 10269 20192 39850 40133 82151 333 20224 59007;EQDQ01  00002PRCP06
0167829860999992003031618004-09400-038220FM-12+0252SBUF V0201401N003110450019N0200001N1+03331+01741100841ADDAA106000091GF106991041031008001061061MA1999999098041MD1999999-0081REMSYN070AAXX  16184 82986 32598 61406 10333 20174 39804 40084 84366 333 59008;EQDQ01  00002PRCP06
0186829860999992003031712004-09400-038220FM-12+0252SBUF V0200501N001511050019N0200001N1+02771+02141101281ADDAA106000091GF105991021011008001051021KA1240N+02321MA1999999098451MD1999999-0051REMSYN076AAXX  17124 82986 32598 50503 10277 20214 39845 40128 82152 333 20232 59005;EQDQ01  00002PRCP06
0171829860999992003031718004-09400-038220FM-12+0252SBUF V0200901N004610042019N0100001N1+02511+02171100881ADDAY161061AY221061GF108991051071004501081999MA1999999098041MD1999999+0001MW1161REMSYN082AAXX  17184 82986 21497 80909 10251 20217 39804 40088 71662 8578/ 333 58000 69961;
0198829860999992003031800004-09400-038220FM-12+0252SBUF V0200901N002111050019N0020001N1+02431+02171101171ADDAA106000091GF106991021041012501031061KA1240M+03281MA1999999098331MD1999999-0121REMSYN088AAXX  18004 82986 32695 60904 10243 20217 39833 40117 82436 333 10328 29081 55047 59012;EQDQ01  00002PRCP06
0162829860999992003031812004-09400-038220FM-12+0252SBUF V0200501N001510450019N0200001N1+02711+02151101291ADDGF106991031021008001031091KA1240N+02261MA1999999098441MD1999999-0011REMSYN082AAXX  18124 82986 22598 60503 10271 20215 39844 40129 83239 333 20226 59001 69964;
0167829860999992003031818004-09400-038220FM-12+0252SBUF V0200901N003610450019N0100001N1+03121+01951100861ADDAA106000091GF107991041021004501081001MA1999999098061MD1999999+0021REMSYN070AAXX  18184 82986 32497 70907 10312 20195 39806 40086 84280 333 58002;EQDQ01  00002PRCP06
0198829860999992003032000004-09400-038220FM-12+0252SBUF V0200901N004610450019N0020001N1+02771+01771101241ADDAA106000091GF106991031011008001081001KA1240M+03161MA1999999098411MD1999999+0051REMSYN088AAXX  20004 82986 32595 60909 10277 20177 39841 40124 83180 333 10316 29060 55032 58005;EQDQ01  00002PRCP06
0186829860999992003032012004-09400-038220FM-12+0252SBUF V0201401N002610450019N0040001N1+02601+02211101361ADDAA106000091GF106991041021004501081011KA1240N+02201MA1999999098531MD1999999-0071REMSYN076AAXX  20124 82986 32496 61405 10260 20221 39853 40136 84281 333 20220 59007;EQDQ01  00002PRCP06
0167829860999992003032018004-09400-038220FM-12+0252SBUF V0201801N005110450019N0200001N1+03081+02041100971ADDAA106000091GF106991041021004501081001MA1999999098151MD1999999-0041REMSYN070AAXX  20184 82986 32498 61810 10308 20204 39815 40097 84280 333 59004;EQDQ01  00002PRCP06
0198829860999992003032100004-09400-038220FM-12+0252SBUF V0201401N003110450019N0020001N1+02651+02141101291ADDAA106000091GF106991031011008001081001KA1240M+03301MA1999999098451MD1999999+0041REMSYN088AAXX  21004 82986 32595 61406 10265 20214 39845 40129 83180 333 10330 29070 55092 58004;EQDQ01  00002PRCP06
0186829860999992003032112004-09400-038220FM-12+0252SBUF V0200901N002110450019N0040001N1+02651+02231101341ADDAA106000091GF107991041021004501081001KA1240N+02311MA1999999098501MD1999999-0031REMSYN076AAXX  21124 82986 32496 70904 10265 20223 39850 40134 84280 333 20231 59003;EQDQ01  00002PRCP06
0171829860999992003032118004-09400-038220FM-12+0252SBUF V0203201N001512200019N0200001N1+03021+02181100801ADDAY161061AY221061GF106991031021004501001061MA1999999097981MD1999999-0171MW1021REMSYN082AAXX  21184 82986 21498 63203 10302 20218 39798 40080 70262 83206 333 59017 60041;
0186829860999992003032812004-09400-038220FM-12+0252SBUF V0201401N003110450019N0040001N1+02571+02131101441ADDAA106000091GF106991031021004501081001KA1240N+02211MA1999999098601MD1999999+0111REMSYN076AAXX  28124 82986 32496 61406 10257 20213 39860 40144 83280 333 20221 58011;EQDQ01  00002PRCP06
0167829860999992003032818004-09400-038220FM-12+0252SBUF V0201401N001511050019N0200001N1+03021+01981101041ADDAA106000091GF106991011011008001001081MA1999999098211MD1999999+0131REMSYN070AAXX  28184 82986 32598 61403 10302 20198 39821 40104 81108 333 58013;EQDQ01  00002PRCP06
0208829860999992003032900004-09400-038220FM-12+0252SBUF V0201401N005112200019N0020001N1+02691+02061101271ADDAA106000091GA1001+999999999GF100991001001999999001001KA1240M+03081MA1999999098431MD1999999+0051REMSYN082AAXX  29004 82986 32995 01410 10269 20206 39843 40127 333 10308 29067 55000 58005;EQDQ01  00002PRCP06
0186829860999992003032912004-09400-038220FM-12+0252SBUF V0201401N003111050019N0100001N1+02691+02091101381ADDAA106000091GF105991021011008001061021KA1240N+02101MA1999999098551MD1999999-0051REMSYN076AAXX  29124 82986 32597 51406 10269 20209 39855 40138 82162 333 20210 59005;EQDQ01  00002PRCP06
0167829860999992003032918004-09400-038220FM-12+0252SBUF V0200901N002112200019N0200001N1+03331+01521100841ADDAA106000091GF102991011011012501001051MA1999999098031MD1999999-0181REMSYN070AAXX  29184 82986 32698 20904 10333 20152 39803 40084 81105 333 59018;EQDQ01  00002PRCP06
0236829860999992003033000004-09400-038220FM-12+0252SBUF V0200901N006212200019N0020001N1+02791+02111101231ADDAA106000091AY101061AY201061GA1001+999999999GF100991001001999999001001KA1240M+03401MA1999999098311MD1999999-0111MW1131REMSYN088AAXX  30004 82986 31995 00912 10279 20211 39831 40123 71300 333 10340 29060 55106 59011;EQDQ01  00002PRCP06
0186829860999992003033012004-09400-038220FM-12+0252SBUF V0201401N003110450019N0100001N1+02771+02161101231ADDAA106000091GF106991041021008001031021KA1240N+02381MA1999999098411MD1999999-0141REMSYN076AAXX  30124 82986 32597 61406 10277 20216 39841 40123 84232 333 20238 59014;EQDQ01  00002PRCP06
0167829860999992003033018004-09400-038220FM-12+0252SBUF V0202301N003110450019N0500001N1+03361+01931100721ADDAA106000091GF106991031011008001081011MA1999999097931MD1999999-0101REMSYN070AAXX  30184 82986 32599 62306 10336 20193 39793 40072 83181 333 59010;EQDQ01  00002PRCP06
0202829860999992003033100004-09400-038220FM-12+0252SBUF V0200901N002610450019N0010001N1+02571+02211101141ADDAY161061AY251061GF106991031011008001081001KA1240M+03391MA1999999098311MD1999999+0001MW1031REMSYN100AAXX  31004 82986 21594 60905 10257 20221 39831 40114 70365 83180 333 10339 29068 55085 58000 60041;
0162829860999992003033112004-09400-038220FM-12+0252SBUF V0200901N003610075019N0100001N1+02721+02171101241ADDGF106991051021008001061011KA1240N+02301MA1999999098401MD1999999-0011REMSYN082AAXX  31124 82986 22597 60907 10272 20217 39840 40124 85261 333 20230 59001 60044;
0167829860999992003033118004-09400-038220FM-12+0252SBUF V0201401N004112200019N0200001N1+03321+01971100721ADDAA106000091GF104991021011008001081001MA1999999097921MD1999999-0011REMSYN070AAXX  31184 82986 32598 41408 10332 20197 39792 40072 82180 333 59001;EQDQ01  00002PRCP06
0208829860999992003040100004-09400-038220FM-12+0252SBUF V0200901N003612200019N0020001N1+02781+01981101101ADDAA106000091GA1001+999999999GF100991001001999999001001KA1240M+03361MA1999999098281MD1999999-0031REMSYN082AAXX  01004 82986 32995 00907 10278 20198 39828 40110 333 10336 29060 55098 59003;EQDQ01  00002PRCP06
0186829860999992003040112004-09400-038220FM-12+0252SBUF V0201401N003110450019N0040001N1+02661+02181101371ADDAA106000091GF107991041021004501081001KA1240N+02181MA1999999098541MD1999999+0141REMSYN076AAXX  01124 82986 32496 71406 10266 20218 39854 40137 84280 333 20218 58014;EQDQ01  00002PRCP06
0167829860999992003040118004-09400-038220FM-12+0252SBUF V0200901N003111050019N0100001N1+03311+01761100971ADDAA106000091GF106991021021008001001081MA1999999098161MD1999999-0121REMSYN070AAXX  01184 82986 32597 60906 10331 20176 39816 40097 82208 333 59012;EQDQ01  00002PRCP06
0208829860999992003040200004-09400-038220FM-12+0252SBUF V0200901N003112200019N0020001N1+02791+01931101231ADDAA106000091GA1001+999999999GF100991001001999999001001KA1240M+03341MA1999999098401MD1999999+0121REMSYN082AAXX  02004 82986 32995 00906 10279 20193 39840 40123 333 10334 29059 55035 58012;EQDQ01  00002PRCP06
0186829860999992003040212004-09400-038220FM-12+0252SBUF V0201401N003110450019N0100001N1+02671+02181101421ADDAA106000091GF106991031011008001081011KA1240N+02221MA1999999098591MD1999999+0051REMSYN076AAXX  02124 82986 32597 61406 10267 20218 39859 40142 83181 333 20222 58005;EQDQ01  00002PRCP06
0167829860999992003040218004-09400-038220FM-12+0252SBUF V0201401N003112200019N0200001N1+03421+01781100901ADDAA106000091GF105991021021008001001081MA1999999098101MD1999999-0061REMSYN070AAXX  02184 82986 32598 51406 10342 20178 39810 40090 82208 333 59006;EQDQ01  00002PRCP06
0208829860999992003040300004-09400-038220FM-12+0252SBUF V0201401N006712200019N0020001N1+02791+02111101231ADDAA106000091GA1001+999999999GF100991001001999999001001KA1240M+03471MA1999999098401MD1999999+0001REMSYN082AAXX  03004 82986 32995 01413 10279 20211 39840 40123 333 10347 29062 55090 58000;EQDQ01  00002PRCP06
0186829860999992003040312004-09400-038220FM-12+0252SBUF V0201401N003110450019N0100001N1+02831+02051101321ADDAA106000091GF105991031011008001081001KA1240N+02241MA1999999098501MD1999999-0091REMSYN076AAXX  03124 82986 32597 51406 10283 20205 39850 40132 83180 333 20224 59009;EQDQ01  00002PRCP06
0167829860999992003040318004-09400-038220FM-12+0252SBUF V0201401N004112200019N0200001N1+03431+01561100821ADDAA106000091GF104991031011012501001011MA1999999098021MD1999999-0081REMSYN070AAXX  03184 82986 32698 41408 10343 20156 39802 40082 83101 333 59008;EQDQ01  00002PRCP06
0208829860999992003040400004-09400-038220FM-12+0252SBUF V0200901N008212200019N0020001N1+02791+02061101161ADDAA106000091GA1001+999999999GF100991001001999999001001KA1240M+03471MA1999999098341MD1999999-0061REMSYN082AAXX  04004 82986 32995 00916 10279 20206 39834 40116 333 10347 29057 55108 59006;EQDQ01  00002PRCP06
0186829860999992003040412004-09400-038220FM-12+0252SBUF V0201401N003110450019N0100001N1+02691+02131101231ADDAA106000091GF105991021011008001081001KA1240N+02241MA1999999098401MD1999999-0101REMSYN076AAXX  04124 82986 32597 51406 10269 20213 39840 40123 82180 333 20224 59010;EQDQ01  00002PRCP06
0167829860999992003040418004-09400-038220FM-12+0252SBUF V0201401N003112200019N0200001N1+03391+01621100831ADDAA106000091GF104991041011008001001001MA1999999097931MD1999999-0091REMSYN070AAXX  04184 82986 32598 41406 10339 20162 39793 40083 84100 333 59009;EQDQ01  00002PRCP06
0208829860999992003040500004-09400-038220FM-12+0252SBUF V0200901N006212200019N0020001N1+02771+01801101131ADDAA106000091GA1001+999999999GF100991001001999999001001KA1240M+03511MA1999999098311MD1999999-0031REMSYN082AAXX  05004 82986 32995 00912 10277 20180 39831 40113 333 10351 29055 55098 59003;EQDQ01  00002PRCP06
0186829860999992003040512004-09400-038220FM-12+0252SBUF V0200901N002110120019N0200001N1+02691+02061101341ADDAA106000091GF106991061011012501001001KA1240N+02121MA1999999098511MD1999999+0061REMSYN076AAXX  05124 82986 32698 60904 10269 20206 39851 40134 86100 333 20212 58006;EQDQ01  00002PRCP06
0167829860999992003040518004-09400-038220FM-12+0252SBUF V0200501N001512200019N0500001N1+03391+01661100811ADDAA106000091GF104991011011008001061011MA1999999098001MD1999999+0071REMSYN070AAXX  05184 82986 32599 40503 10339 20166 39800 40081 81161 333 58007;EQDQ01  00002PRCP06
0208829860999992003040600004-09400-038220FM-12+0252SBUF V0201401N006212200019N0020001N1+02871+01921101021ADDAA106000091GA1001+999999999GF100991001001999999001001KA1240M+03461MA1999999098211MD1999999-0101REMSYN082AAXX  06004 82986 32995 01412 10287 20192 39821 40102 333 10346 29055 55110 59010;EQDQ01  00002PRCP06
0196829860999992003040612004-09400-038220FM-12+0252SBUF V0203201N001012200019N0200001N1+02711+02061101251ADDAA106000091GA1001+999999999GF100991001001999999001001KA1240N+02261MA1999999098431MD1999999-0081REMSYN070AAXX  06124 82986 32998 03202 10271 20206 39843 40125 333 20226 59008;EQDQ01  00002PRCP06
0167829860999992003040618004-09400-038220FM-12+0252SBUF V0203201N001512200019N0500001N1+03451+01801100671ADDAA106000091GF104991021011008001061001MA1999999097881MD1999999-0121REMSYN070AAXX  06184 82986 32599 43203 10345 20180 39788 40067 82160 333 59012;EQDQ01  00002PRCP06
0208829860999992003040700004-09400-038220FM-12+0252SBUF V0200901N007212200019N0020001N1+02951+02081100861ADDAA106000091GA1001+999999999GF100991001001999999001001KA1240M+03531MA1999999098061MD1999999-0151REMSYN082AAXX  07004 82986 32995 00914 10295 20208 39806 40086 333 10353 29056 55110 59015;EQDQ01  00002PRCP06
0186829860999992003040712004-09400-038220FM-12+0252SBUF V0203201N001512200019N0100001N1+02781+02271101051ADDAA106000091GF104991021011008001081001KA1240N+02351MA1999999098241MD1999999-0191REMSYN076AAXX  07124 82986 32597 43203 10278 20227 39824 40105 82180 333 20235 59019;EQDQ01  00002PRCP06
0183829860999992003040718004-09400-038220FM-12+0252SBUF V0203201N001512200019N0500001N1+03481+02041100441ADDAA106000091GF103991999011008001001001MA1999999097661MD1999999-0221REMSYN070AAXX  07184 82986 32599 33203 10348 20204 39766 40044 84100 333 59022;EQDQ01+000042SCOTLCQ02  00002PRCP06
0208829860999992003040800004-09400-038220FM-12+0252SBUF V0200901N007712200019N0020001N1+02991+02151100781ADDAA106000091GA1001+999999999GF100991001001999999001001KA1240M+03601MA1999999097991MD1999999-0071REMSYN082AAXX  08004 82986 32995 00915 10299 20215 39799 40078 333 10360 29060 55097 59007;EQDQ01  00002PRCP06
0186829860999992003040812004-09400-038220FM-12+0252SBUF V0203201N001510450019N0100001N1+02851+02191101061ADDAA106000091GF106991021011008001081011KA1240N+02391MA1999999098261MD1999999+0021REMSYN076AAXX  08124 82986 32597 63203 10285 20219 39826 40106 82181 333 20239 58002;EQDQ01  00002PRCP06
0167829860999992003040818004-09400-038220FM-12+0252SBUF V0203201N001012200019N0500001N1+03481+02151100531ADDAA106000091GF104991021011008001061011MA1999999097751MD1999999-0091REMSYN070AAXX  08184 82986 32599 43202 10348 20215 39775 40053 82161 333 59009;EQDQ01  00002PRCP06
0236829860999992003040900004-09400-038220FM-12+0252SBUF V0200901N003112200019N0020001N1+03021+02181100941ADDAA106000091AY121061AY221061GA1001+999999999GF100991001001999999001001KA1240M+03551MA1999999098151MD1999999+0161MW1131REMSYN088AAXX  09004 82986 31995 00906 10302 20218 39815 40094 71322 333 10355 29059 55098 58016;EQDQ01  00002PRCP06
0186829860999992003040912004-09400-038220FM-12+0252SBUF V0201401N003112200019N0200001N1+02851+02041101261ADDAA106000091GF103991021001012501061011KA1240N+02401MA1999999098461MD1999999+0201REMSYN076AAXX  09124 82986 32698 31406 10285 20204 39846 40126 82061 333 20240 58020;EQDQ01  00002PRCP06
0167829860999992003040918004-09400-038220FM-12+0252SBUF V0201401N004112200019N0200001N1+03531+01031100761ADDAA106000091GF102991011011012501001051MA1999999097981MD1999999+0231REMSYN070AAXX  09184 82986 32698 21408 10353 20103 39798 40076 81105 333 58023;EQDQ01  00002PRCP06
0198829860999992003041000004-09400-038220FM-12+0252SBUF V0200901N008212200019N0020001N1+02881+02101101161ADDAA106000091GF101991011011012501001001KA1240M+03581MA1999999098351MD1999999+0201REMSYN088AAXX  10004 82986 32695 10916 10288 20210 39835 40116 81100 333 10358 29053 55108 58020;EQDQ01  00002PRCP06
0186829860999992003041012004-09400-038220FM-12+0252SBUF V0201401N003110450019N0100001N1+02871+02191101351ADDAA106000091GF106991041021008001051001KA1240N+02481MA1999999098541MD1999999+0081REMSYN076AAXX  10124 82986 32597 61406 10287 20219 39854 40135 84250 333 20248 58008;EQDQ01  00002PRCP06
0176829860999992003041018004-09400-038220FM-12+0252SBUF V0201401N002610075019N0200001N1+02971+02281100911ADDAA106000021AY121061AY221061GF107991051021008001091001MA1999999098091MD1999999+0111MW1511REMSYN076AAXX  10184 82986 31598 71405 10297 20228 39809 40091 75122 85290 333 58011;
0189829860999992003041100004-09400-038220FM-12+0252SBUF V0200901N004612200019N0020001N1+02251+02091101971ADDAA106000021GA1001+999999999GF100991001001999999001001KA1240M+03481MA1999999098461MD1999999+0111REMSYN082AAXX  11004 82986 32995 00909 10225 20209 39846 40197 333 10348 29065 55066 58011;
0186829860999992003041112004-09400-038220FM-12+0252SBUF V0200501N002110075019N0200001N1+02811+02131101381ADDAA106000091GF105991051011008001001001KA1240N+02321MA1999999098561MD1999999+0021REMSYN076AAXX  11124 82986 32598 50504 10281 20213 39856 40138 85100 333 20232 58002;EQDQ01  00002PRCP06
0167829860999992003041118004-09400-038220FM-12+0252SBUF V0203201N001012200019N0500001N1+03491+01661100821ADDAA106000091GF104991011011008001061001MA1999999098031MD1999999-0061REMSYN070AAXX  11184 82986 32599 43202 10349 20166 39803 40082 81160 333 59006;EQDQ01  00002PRCP06
0208829860999992003041200004-09400-038220FM-12+0252SBUF V0200901N004612200019N0020001N1+02881+01971101131ADDAA106000091GA1001+999999999GF100991001001999999001001KA1240M+03541MA1999999098321MD1999999-0141REMSYN082AAXX  12004 82986 32995 00909 10288 20197 39832 40113 333 10354 29054 55106 59014;EQDQ01  00002PRCP06
0196829860999992003041212004-09400-038220FM-12+0252SBUF V0201401N002612200019N0200001N1+02831+01971101401ADDAA106000091GA1001+999999999GF100991001001999999001001KA1240N+02221MA1999999098581MD1999999+0021REMSYN070AAXX  12124 82986 32998 01405 10283 20197 39858 40140 333 20222 58002;EQDQ01  00002PRCP06
0167829860999992003041218004-09400-038220FM-12+0252SBUF V0201401N002612200019N0500001N1+03521+01551100901ADDAA106000091GF103991021001012501061021MA1999999098101MD1999999+0071REMSYN070AAXX  12184 82986 32699 31405 10352 20155 39810 40090 82062 333 58007;EQDQ01  00002PRCP06
0208829860999992003041300004-09400-038220FM-12+0252SBUF V0201401N005112200019N0020001N1+02921+01921101231ADDAA106000091GA1001+999999999GF100991001001999999001001KA1240M+03611MA1999999098421MD1999999+0101REMSYN082AAXX  13004 82986 32995 01410 10292 20192 39842 40123 333 10361 29050 55110 58010;EQDQ01  00002PRCP06
0186829860999992003041312004-09400-038220FM-12+0252SBUF V0201401N003112200019N0100001N1+02781+02091101521ADDAA106000091GF103991031001012501061001KA1240N+02261MA1999999098701MD1999999+0121REMSYN076AAXX  13124 82986 32697 31406 10278 20209 39870 40152 83060 333 20226 58012;EQDQ01  00002PRCP06
0167829860999992003041318004-09400-038220FM-12+0252SBUF V0200901N001512200019N0500001N1+03441+01721100981ADDAA106000091GF104991021011008001061001MA1999999098181MD1999999+0081REMSYN070AAXX  13184 82986 32599 40903 10344 20172 39818 40098 82160 333 58008;EQDQ01  00002PRCP06
0208829860999992003041400004-09400-038220FM-12+0252SBUF V0201401N005112200019N0020001N1+02841+02041101381ADDAA106000091GA1001+999999999GF100991001001999999001001KA1240M+03531MA1999999098561MD1999999+0141REMSYN082AAXX  14004 82986 32995 01410 10284 20204 39856 40138 333 10353 29056 55110 58014;EQDQ01  00002PRCP06
0186829860999992003041412004-09400-038220FM-12+0252SBUF V0201401N004610450019N0100001N1+02751+02071101531ADDAA106000091GF106991031011008001081001KA1240N+02331MA1999999098701MD1999999+0001REMSYN076AAXX  14124 82986 32597 61409 10275 20207 39870 40153 83180 333 20233 58000;EQDQ01  00002PRCP06
0186829860999992003041512004-09400-038220FM-12+0252SBUF V0200901N004110450019N0100001N1+02701+02171101431ADDAA106000091GF106991031011008001081001KA1240N+02271MA1999999098601MD1999999-0101REMSYN076AAXX  15124 82986 32597 60908 10270 20217 39860 40143 83180 333 20227 59010;EQDQ01  00002PRCP06
0167829860999992003041518004-09400-038220FM-12+0252SBUF V0200901N002610075019N0200001N1+03371+01651100861ADDAA106000091GF105991051011008001001001MA1999999098061MD1999999-0131REMSYN070AAXX  15184 82986 32598 50905 10337 20165 39806 40086 85100 333 59013;EQDQ01  00002PRCP06
0208829860999992003041600004-09400-038220FM-12+0252SBUF V0200901N005712200019N0020001N1+02801+01921101241ADDAA106000091GA1001+999999999GF100991001001999999001001KA1240M+03471MA1999999098411MD1999999-0131REMSYN082AAXX  16004 82986 32995 00911 10280 20192 39841 40124 333 10347 29057 55089 59013;EQDQ01  00002PRCP06
0186829860999992003041612004-09400-038220FM-12+0252SBUF V0201401N004612200019N0200001N1+02731+01981101381ADDAA106000091GF103991031001012501061001KA1240N+02101MA1999999098551MD1999999-0051REMSYN076AAXX  16124 82986 32698 31409 10273 20198 39855 40138 83060 333 20210 59005;EQDQ01  00002PRCP06
0167829860999992003041618004-09400-038220FM-12+0252SBUF V0201401N003112200019N0200001N1+03491+01191100791ADDAA106000091GF101991011011012501001001MA1999999097991MD1999999-0071REMSYN070AAXX  16184 82986 32698 11406 10349 20119 39799 40079 81100 333 59007;EQDQ01  00002PRCP06
0208829860999992003041700004-09400-038220FM-12+0252SBUF V0200901N005712200019N0020001N1+02811+02001101201ADDAA106000091GA1001+999999999GF100991001001999999001001KA1240M+03541MA1999999098371MD1999999-0041REMSYN082AAXX  17004 82986 32995 00911 10281 20200 39837 40120 333 10354 29053 55096 59004;EQDQ01  00002PRCP06
0184829860999992003041712004-09400-038220FM-12+0252SBUF V0200901N004112200019N0200001N1+02831+01941101441ADDAA106000091GF103991031011012501001001KA1240N+02261MA1999999098621REMSYN088AAXX  17124 82986 32698 30908 10283 20194 39862 40144 83100 333 20226 29053 55096 58007;EQDQ01  00002PRCP06
0167829860999992003041718004-09400-038220FM-12+0252SBUF V0200901N002612200019N0500001N1+03481+01301100861ADDAA106000091GF104991021011008001061001MA1999999098061MD1999999+0071REMSYN070AAXX  17184 82986 32599 40905 10348 20130 39806 40086 82160 333 58007;EQDQ01  00002PRCP06
0198829860999992003041800004-09400-038220FM-12+0252SBUF V0200901N006210450019N0020001N1+02761+01891101231ADDAA106000091GF106991031011008001081001KA1240M+03521MA1999999098411MD1999999+0071REMSYN088AAXX  18004 82986 32595 60912 10276 20189 39841 40123 83180 333 10352 29051 55108 58007;EQDQ01  00002PRCP06
0184829860999992003041812004-09400-038220FM-12+0252SBUF V0201401N000510120019N0200001N1+02841+01961101391ADDAA106000091GF105991051011012501001001KA1240N+02281MA1999999098571REMSYN088AAXX  18124 82986 32698 51401 10284 20196 39857 40139 85100 333 20228 29053 55096 59005;EQDQ01  00002PRCP06
0167829860999992003041818004-09400-038220FM-12+0252SBUF V0200901N003111050019N0200001N1+03381+01661100961ADDAA106000091GF105991021011008001081021MA1999999098161MD1999999+0101REMSYN070AAXX  18184 82986 32598 50906 10338 20166 39816 40096 82182 333 58010;EQDQ01  00002PRCP06
0198829860999992003041900004-09400-038220FM-12+0252SBUF V0201401N006710450019N0020001N1+02801+01781101281ADDAA106000091GF106991031011008001081021KA1240M+03461MA1999999098461MD1999999+0051REMSYN088AAXX  19004 82986 32595 61413 10280 20178 39846 40128 83182 333 10346 29051 55111 58005;EQDQ01  00002PRCP06
0186829860999992003041912004-09400-038220FM-12+0252SBUF V0201401N003610450019N0040001N1+02651+02091101441ADDAA106000091GF107991041021004501081001KA1240N+02231MA1999999098611MD1999999+0041REMSYN076AAXX  19124 82986 32496 71407 10265 20209 39861 40144 84280 333 20223 58004;EQDQ01  00002PRCP06
0167829860999992003041918004-09400-038220FM-12+0252SBUF V0201401N002110450019N0200001N1+03111+01941101031ADDAA106000091GF106991031011008001081001MA1999999098201MD1999999+0041REMSYN070AAXX  19184 82986 32598 61404 10311 20194 39820 40103 83180 333 58004;EQDQ01  00002PRCP06
0198829860999992003042000004-09400-038220FM-12+0252SBUF V0200901N006212200019N0020001N1+02651+02071101291ADDAA106000091GF103991031001012501051001KA1240M+03261MA1999999098451MD1999999-0011REMSYN088AAXX  20004 82986 32695 30912 10265 20207 39845 40129 83050 333 10326 29066 55035 59001;EQDQ01  00002PRCP06
0186829860999992003042012004-09400-038220FM-12+0252SBUF V0200901N004110450019N0100001N1+02781+02111101341ADDAA106000091GF106991031011008001081001KA1240N+02171MA1999999098511MD1999999-0101REMSYN076AAXX  20124 82986 32597 60908 10278 20211 39851 40134 83180 333 20217 59010;EQDQ01  00002PRCP06
0195829860999992003042018004-09400-038220FM-12+0252SBUF V0200901N005110450019N0100001N1+03201+01821100971ADDAA106000091AY121061AY221061GF106991031011004501081001MA1999999098151MD1999999-0051MW1151REMSYN076AAXX  20184 82986 31497 60910 10320 20182 39815 40097 71522 83180 333 59005;EQDQ01  00002PRCP06
0208829860999992003042100004-09400-038220FM-12+0252SBUF V0201401N003112200019N0020001N1+02671+01871101121ADDAA106000091GA1001+999999999GF100991001001999999001001KA1240M+03321MA1999999098301MD1999999-0151REMSYN082AAXX  21004 82986 32995 01406 10267 20187 39830 40112 333 10332 29059 55087 59015;EQDQ01  00002PRCP06
0186829860999992003042112004-09400-038220FM-12+0252SBUF V0200901N004110075019N0100001N1+02741+02001101361ADDAA106000091GF105991051021008001001001KA1240N+02201MA1999999098531MD1999999+0021REMSYN076AAXX  21124 82986 32597 50908 10274 20200 39853 40136 85200 333 20220 58002;EQDQ01  00002PRCP06
0167829860999992003042118004-09400-038220FM-12+0252SBUF V0200901N006710450019N0200001N1+03161+01791100961ADDAA106000091GF107991041051008001081999MA1999999098141MD1999999-0011REMSYN070AAXX  21184 82986 32598 70913 10316 20179 39814 40096 8458/ 333 59001;EQDQ01  00002PRCP06
0208829860999992003042200004-09400-038220FM-12+0252SBUF V0200901N007212200019N0020001N1+02651+01881101361ADDAA106000091GA1001+999999999GF100991001001999999001001KA1240M+03331MA1999999098531MD1999999+0231REMSYN082AAXX  22004 82986 32995 00914 10265 20188 39853 40136 333 10333 29059 55071 58023;EQDQ01  00002PRCP06
0184829860999992003042212004-09400-038220FM-12+0252SBUF V0201401N005110450019N0040001N1+02531+02231101301ADDAY131061AY261061GF106991041021004501081001KA1240N+02181MA1999999098461MD1999999-0071REMSYN088AAXX  22124 82986 21496 61410 10253 20223 39846 40130 77036 84280 333 20218 59007 60024;
0171829860999992003042218004-09400-038220FM-12+0252SBUF V0200901N004110450019N0100001N1+02811+02311101011ADDAY161061AY251061GF106991041021004501051091MA1999999098171MD1999999+0031MW1011REMSYN082AAXX  22184 82986 21497 60908 10281 20231 39817 40101 70165 84259 333 58003 69981;
0208829860999992003042300004-09400-038220FM-12+0252SBUF V0200901N004112200019N0020001N1+02531+01931101361ADDAA106000091GA1001+999999999GF100991001001999999001001KA1240M+03111MA1999999098511MD1999999-0021REMSYN082AAXX  23004 82986 32995 00908 10253 20193 39851 40136 333 10311 29075 55053 59002;EQDQ01  00002PRCP06
0190829860999992003042312004-09400-038220FM-12+0252SBUF V0201401N004110042019N0040001N1+02291+02211101481ADDAY151061AY221061GF108991061071004501081001KA1240N+02131MA1999999098611MD1999999+0151MW1211REMSYN088AAXX  23124 82986 21496 81408 10229 20221 39861 40148 72152 86780 333 20213 58015 60054;
0190829860999992003042318004-09400-038220FM-12+0252SBUF V0201401N004619999999N0100001N1+02731+02051101051ADDAY151061AY251061GF106991999011008001001001MA1999999098201MD1999999+0031MW1031REMSYN082AAXX  23184 82986 21597 61409 10273 20205 39820 40105 70355 83100 333 58003 69931;EQDQ01+000032SCOTLC
0202829860999992003042400004-09400-038220FM-12+0252SBUF V0201401N002610450019N0010001N1+02351+02071101371ADDAY161061AY251061GF106991041021004501081001KA1240M+02851MA1999999098491MD1999999-0021MW1031REMSYN100AAXX  24004 82986 21494 61405 10235 20207 39849 40137 70365 84280 333 10285 29083 55011 59002 69961;
0162829860999992003042412004-09400-038220FM-12+0252SBUF V0200901N003111050019N0100001N1+02591+02011101491ADDGF106991041021008001001021KA1240N+02141MA1999999098621MD1999999+0011REMSYN082AAXX  24124 82986 22597 60906 10259 20201 39862 40149 84202 333 20214 58001 69994;
0167829860999992003042418004-09400-038220FM-12+0252SBUF V0201401N003611050019N0500001N1+03171+01091101001ADDAA106000091GF105991011011012501061021MA1999999098181MD1999999-0021REMSYN070AAXX  24184 82986 32699 51407 10317 20109 39818 40100 81162 333 59002;EQDQ01  00002PRCP06
0208829860999992003042500004-09400-038220FM-12+0252SBUF V0200901N002112200019N0020001N1+02571+01441101241ADDAA106000091GA1001+999999999GF100991001001999999001001KA1240M+03261MA1999999098401MD1999999-0091REMSYN082AAXX  25004 82986 32995 00904 10257 20144 39840 40124 333 10326 29050 55097 59009;EQDQ01  00002PRCP06
0186829860999992003042512004-09400-038220FM-12+0252SBUF V0201401N003610450019N0100001N1+02711+01991101401ADDAA106000091GF106991031011008001081011KA1240N+02111MA1999999098561MD1999999-0061REMSYN076AAXX  25124 82986 32597 61407 10271 20199 39856 40140 83181 333 20211 59006;EQDQ01  00002PRCP06
0167829860999992003042518004-09400-038220FM-12+0252SBUF V0200901N005110450019N0200001N1+03291+01661100931ADDAA106000091GF105991031011008001051011MA1999999098111MD1999999-0071REMSYN070AAXX  25184 82986 32598 50910 10329 20166 39811 40093 83151 333 59007;EQDQ01  00002PRCP06
0208829860999992003042600004-09400-038220FM-12+0252SBUF V0201401N004612200019N0020001N1+02731+01981101361ADDAA106000091GA1001+999999999GF100991001001999999001001KA1240M+03361MA1999999098531MD1999999+0131REMSYN082AAXX  26004 82986 32995 01409 10273 20198 39853 40136 333 10336 29058 55102 58013;EQDQ01  00002PRCP06
0186829860999992003042612004-09400-038220FM-12+0252SBUF V0201401N003610450019N0040001N1+02761+02091101471ADDAA106000091GF106991031011008001081011KA1240N+02231MA1999999098641MD1999999+0081REMSYN076AAXX  26124 82986 32596 61407 10276 20209 39864 40147 83181 333 20223 58008;EQDQ01  00002PRCP06
0167829860999992003042618004-09400-038220FM-12+0252SBUF V0201401N001512200019N0200001N1+03371+01651101021ADDAA106000091GF104991021011008001061021MA1999999098211MD1999999+0101REMSYN070AAXX  26184 82986 32598 41403 10337 20165 39821 40102 82162 333 58010;EQDQ01  00002PRCP06
0208829860999992003042700004-09400-038220FM-12+0252SBUF V0200901N005712200019N0020001N1+02651+02121101471ADDAA106000091GA1001+999999999GF100991001001999999001001KA1240M+03431MA1999999098631MD1999999+0101REMSYN082AAXX  27004 82986 32995 00911 10265 20212 39863 40147 333 10343 29062 55104 58010;EQDQ01  00002PRCP06
0186829860999992003042712004-09400-038220FM-12+0252SBUF V0201401N005110450019N0040001N1+02641+02181101511ADDAA106000091GF106991041021004501081001KA1240N+02321MA1999999098671MD1999999+0031REMSYN076AAXX  27124 82986 32496 61410 10264 20218 39867 40151 84280 333 20232 58003;EQDQ01  00002PRCP06
0171829860999992003042718004-09400-038220FM-12+0252SBUF V0200901N006210450019N0100001N1+02801+02181101241ADDAY161061AY251061GF107991031081004501071061MA1999999098301MD1999999+0091MW1151REMSYN082AAXX  27184 82986 21497 70912 10280 20218 39830 40124 71565 83876 333 58009 60021;
0198829860999992003042800004-09400-038220FM-12+0252SBUF V0200901N001510075019N0020001N1+02541+02091101461ADDAA106000091GF108991081051008001999999KA1240M+03031MA1999999098611MD1999999-0021REMSYN088AAXX  28004 82986 32595 80903 10254 20209 39861 40146 885// 333 10303 29074 55037 59002;EQDQ01  00002PRCP06
0190829860999992003042812004-09400-038220FM-12+0252SBUF V0201401N003111050019N0040001N1+02441+02211101431ADDAY161061AY221061GF105991041021004501001021KA1240N+02211MA1999999098571MD1999999-0101MW1021REMSYN088AAXX  28124 82986 21496 51406 10244 20221 39857 40143 70262 84202 333 20221 59010 60024;
0167829860999992003042818004-09400-038220FM-12+0252SBUF V0201401N003111050019N0200001N1+03261+01881100931ADDAA106000091GF105991021021008001061011MA1999999098121MD1999999-0181REMSYN070AAXX  28184 82986 32598 51406 10326 20188 39812 40093 82261 333 59018;EQDQ01  00002PRCP06
0208829860999992003042900004-09400-038220FM-12+0252SBUF V0201401N005112200019N0020001N1+02671+01871101271ADDAA106000091GA1001+999999999GF100991001001999999001001KA1240M+03331MA1999999098431MD1999999-0181REMSYN082AAXX  29004 82986 32995 01410 10267 20187 39843 40127 333 10333 29064 55074 59018;EQDQ01  00002PRCP06
0186829860999992003042912004-09400-038220FM-12+0252SBUF V0201401N004610075019N0200001N1+02701+01991101531ADDAA106000091GF106991061021008001001001KA1240N+02221MA1999999098691MD1999999+0121REMSYN076AAXX  29124 82986 32598 61409 10270 20199 39869 40153 86200 333 20222 58012;EQDQ01  00002PRCP06
0167829860999992003042918004-09400-038220FM-12+0252SBUF V0200901N003111050019N0500001N1+03291+01701101001ADDAA106000091GF105991021011008001061021MA1999999098191MD1999999+0071REMSYN070AAXX  29184 82986 32599 50906 10329 20170 39819 40100 82162 333 58007;EQDQ01  00002PRCP06
0208829860999992003043000004-09400-038220FM-12+0252SBUF V0200901N005112200019N0020001N1+02741+02051101321ADDAA106000091GA1001+999999999GF100991001001999999001001KA1240M+03371MA1999999098491MD1999999+0061REMSYN082AAXX  30004 82986 32995 00910 10274 20205 39849 40132 333 10337 29059 55103 58006;EQDQ01  00002PRCP06
0186829860999992003043012004-09400-038220FM-12+0252SBUF V0201401N003112200019N0200001N1+02801+02001101541ADDAA106000091GF103991031011008001001001KA1240N+02241MA1999999098711MD1999999+0021REMSYN076AAXX  30124 82986 32598 31406 10280 20200 39871 40154 83100 333 20224 58002;EQDQ01  00002PRCP06
0167829860999992003043018004-09400-038220FM-12+0252SBUF V0201401N004110450019N0500001N1+03391+01751101101ADDAA106000091GF106991031011008001081001MA1999999098291MD1999999+0101REMSYN070AAXX  30184 82986 32599 61408 10339 20175 39829 40110 83180 333 58010;EQDQ01  00002PRCP06
0208829860999992003050100004-09400-038220FM-12+0252SBUF V0201401N006712200019N0020001N1+02691+02111101421ADDAA106000091GA1001+999999999GF100991001001999999001001KA1240M+03431MA1999999098591MD1999999+0101REMSYN082AAXX  01004 82986 32995 01413 10269 20211 39859 40142 333 10343 29060 55085 58010;EQDQ01  00002PRCP06
0186829860999992003050112004-09400-038220FM-12+0252SBUF V0201401N002610450019N0100001N1+03661+02201101481ADDAA106000091GF106991031011008001081001KA1240N+02301MA1999999098681MD1999999-0031REMSYN076AAXX  01124 82986 32597 61405 10366 20220 39868 40148 83180 333 20230 59003;EQDQ01  00002PRCP06
0167829860999992003050118004-09400-038220FM-12+0252SBUF V0200901N002612200019N0200001N1+03321+01821100961ADDAA106000091GF104991021011008001051011MA1999999098161MD1999999-0131REMSYN070AAXX  01184 82986 32598 40905 10332 20182 39816 40096 82151 333 59013;EQDQ01  00002PRCP06
0208829860999992003050200004-09400-038220FM-12+0252SBUF V0200901N002612200019N0020001N1+02601+02141101331ADDAA106000091GA1001+999999999GF100991001001999999001001KA1240M+03391MA1999999098491MD1999999-0101REMSYN082AAXX  02004 82986 32995 00905 10260 20214 39849 40133 333 10339 29067 55092 59010;EQDQ01  00002PRCP06
0186829860999992003050212004-09400-038220FM-12+0252SBUF V0203201N001512200019N0100001N1+02681+02201101371ADDAA106000091GF104991011011012501061011KA1240N+02201MA1999999098531MD1999999-0151REMSYN076AAXX  02124 82986 32697 43203 10268 20220 39853 40137 81161 333 20220 59015;EQDQ01  00002PRCP06
0167829860999992003050218004-09400-038220FM-12+0252SBUF V0201401N002612200019N0500001N1+03431+01701100801ADDAA106000091GF104991011011008001061011MA1999999098001MD1999999-0161REMSYN070AAXX  02184 82986 32599 41405 10343 20170 39800 40080 81161 333 59016;EQDQ01  00002PRCP06
0208829860999992003050300004-09400-038220FM-12+0252SBUF V0200901N001512200019N0020001N1+02831+01051100981ADDAA106000091GA1001+999999999GF100991001001999999001001KA1240M+03431MA1999999098161MD1999999-0331REMSYN082AAXX  03004 82986 32995 00903 10283 20105 39816 40098 333 10343 29052 55103 59033;EQDQ01  00002PRCP06
0186829860999992003050312004-09400-038220FM-12+0252SBUF V0203201N001012200019N0100001N1+02721+02171101231ADDAA106000091GF104991011011008001051001KA1240N+02261MA1999999098411MD1999999-0121REMSYN076AAXX  03124 82986 32597 43202 10272 20217 39841 40123 81150 333 20226 59012;EQDQ01  00002PRCP06
0179829860999992003050318004-09400-038220FM-12+0252SBUF V0202301N004110450019N0200001N1+03341+01951100721ADDAA106000091GF105991041021008001041081MA1999999097921MD1999999-0081MW1151REMSYN076AAXX  03184 82986 31598 52308 10334 20195 39792 40072 715// 84248 333 59008;EQDQ01  00002PRCP06
0198829860999992003050400004-09400-038220FM-12+0252SBUF V0200901N001510075019N0020001N1+02951+02051101011ADDAA106000091GF106991061021008001001001KA1240M+03511MA1999999098201MD1999999+0041REMSYN088AAXX  04004 82986 32595 60903 10295 20205 39820 40101 86200 333 10351 29058 55109 58004;EQDQ01  00002PRCP06
0190829860999992003050412004-09400-038220FM-12+0252SBUF V0202301N002110450019N0100001N1+02691+02181101321ADDAY191061AY251061GF107991031021004501071081KA1240N+02341MA1999999098501MD1999999+0091MW1021REMSYN088AAXX  04124 82986 21497 72304 10269 20218 39850 40132 70295 83278 333 20234 58009 60124;
0195829860999992003050418004-09400-038220FM-12+0252SBUF V0201801N005710450019N0100001N1+02891+02181101061ADDAA106000091AY121061AY221061GF107991041081004501071081MA1999999098231MD1999999+0311MW1161REMSYN076AAXX  04184 82986 31497 71811 10289 20218 39823 40106 71622 84878 333 58031;EQDQ01  00002PRCP06
0198829860999992003050500004-09400-038220FM-12+0252SBUF V0201401N004110042019N0020001N1+02501+02071101441ADDAA106000091GF107991071051004501999999KA1240M+03071MA1999999098591MD1999999+0391REMSYN088AAXX  05004 82986 32495 71408 10250 20207 39859 40144 875// 333 10307 29074 55021 58039;EQDQ01  00002PRCP06
0186829860999992003050512004-09400-038220FM-12+0252SBUF V0201401N002110075019N0100001N1+02641+02161101561ADDAA106000091GF107991061021008001031999KA1240N+02241MA1999999098701MD1999999+0201REMSYN076AAXX  05124 82986 32597 71404 10264 20216 39870 40156 8623/ 333 20224 58020;EQDQ01  00002PRCP06
0167829860999992003050518004-09400-038220FM-12+0252SBUF V0202301N002110450019N0100001N1+02971+02021101111ADDAA106000091GF106991041021004501081001MA1999999098281MD1999999+0051REMSYN070AAXX  05184 82986 32497 62304 10297 20202 39828 40111 84280 333 58005;EQDQ01  00002PRCP06
0202829860999992003050600004-09400-038220FM-12+0252SBUF V0201401N002610450019N0010001N1+02411+02171101381ADDAY161061AY251061GF106991041021004501081001KA1240M+03051MA1999999098531MD1999999-0061MW1031REMSYN100AAXX  06004 82986 21494 61405 10241 20217 39853 40138 70365 84280 333 10305 29076 55054 59006 60051;
0190829860999992003050612004-09400-038220FM-12+0252SBUF V0201401N002610042019N0100001N1+02571+02291101461ADDAY161061AY251061GF106991051021004501051001KA1240N+02241MA1999999098601MD1999999-0101MW1201REMSYN088AAXX  06124 82986 21497 61405 10257 20229 39860 40146 72065 85250 333 20224 59010 60074;
0148829860999992003050618004-09400-038220FM-12+0252SBUF V0201801N003110450019N0040001N1+02861+02191101011ADDAA106000021GF106991041021004501081001MA1999999098181MD1999999-0101REMSYN070AAXX  06184 82986 32496 61806 10286 20219 39818 40101 84280 333 59010;
0208829860999992003050700004-09400-038220FM-12+0252SBUF V0201401N002112200019N0020001N1+02541+02091101181ADDAA106000091GA1001+999999999GF100991001001999999001001KA1240M+03061MA1999999098351MD1999999-0181REMSYN082AAXX  07004 82986 32995 01404 10254 20209 39835 40118 333 10306 29076 55050 59018;EQDQ01  00002PRCP06
0186829860999992003050712004-09400-038220FM-12+0252SBUF V0201401N002110450019N0100001N1+02611+02141101321ADDAA106000091GF106991041021004501081011KA1240N+02251MA1999999098481MD1999999-0121REMSYN076AAXX  07124 82986 32497 61404 10261 20214 39848 40132 84281 333 20225 59012;EQDQ01  00002PRCP06
0167829860999992003050718004-09400-038220FM-12+0252SBUF V0201401N001512200019N0200001N1+03241+01751100921ADDAA106000091GF104991031011008001041001MA1999999098101MD1999999-0081REMSYN070AAXX  07184 82986 32598 41403 10324 20175 39810 40092 83140 333 59008;EQDQ01  00002PRCP06
0208829860999992003050800004-09400-038220FM-12+0252SBUF V0201401N003112200019N0020001N1+02711+01911101171ADDAA106000091GA1001+999999999GF100991001001999999001001KA1240M+03281MA1999999098341MD1999999-0011REMSYN082AAXX  08004 82986 32995 01406 10271 20191 39834 40117 333 10328 29060 55092 59001;EQDQ01  00002PRCP06
0196829860999992003050812004-09400-038220FM-12+0252SBUF V0201401N001512200019N0500001N1+02531+02051101401ADDAA106000091GA1001+999999999GF100991001001999999001001KA1240N+02151MA1999999098551MD1999999+0071REMSYN070AAXX  08124 82986 32999 01403 10253 20205 39855 40140 333 20215 58007;EQDQ01  00002PRCP06
0167829860999992003050818004-09400-038220FM-12+0252SBUF V0201401N002612200019N0500001N1+03311+01591100931ADDAA106000091GF103991031011012501001001MA1999999098111MD1999999+0011REMSYN070AAXX  08184 82986 32699 31405 10331 20159 39811 40093 83100 333 58001;EQDQ01  00002PRCP06
0208829860999992003050900004-09400-038220FM-12+0252SBUF V0201401N003612200019N0020001N1+02681+02061101331ADDAA106000091GA1001+999999999GF100991001001999999001001KA1240M+03351MA1999999098491MD1999999+0151REMSYN082AAXX  09004 82986 32995 01407 10268 20206 39849 40133 333 10335 29062 55103 58015;EQDQ01  00002PRCP06
0186829860999992003050912004-09400-038220FM-12+0252SBUF V0200901N002112200019N0200001N1+02691+01991101531ADDAA106000091GF103991021001012501061021KA1240N+02121MA1999999098691MD1999999+0141REMSYN076AAXX  09124 82986 32698 30904 10269 20199 39869 40153 82062 333 20212 58014;EQDQ01  00002PRCP06
0167829860999992003050918004-09400-038220FM-12+0252SBUF V0200901N003612200019N0200001N1+03311+01641100991ADDAA106000091GF103991021011012501001011MA1999999098161MD1999999+0051REMSYN070AAXX  09184 82986 32698 30907 10331 20164 39816 40099 82101 333 58005;EQDQ01  00002PRCP06
0208829860999992003051000004-09400-038220FM-12+0252SBUF V0201401N005712200019N0020001N1+02701+01801101311ADDAA106000091GA1001+999999999GF100991001001999999001001KA1240M+03351MA1999999098481MD1999999-0011REMSYN082AAXX  10004 82986 32995 01411 10270 20180 39848 40131 333 10335 29055 55106 59001;EQDQ01  00002PRCP06
0167829860999992003051018004-09400-038220FM-12+0252SBUF V0201401N004112200019N0200001N1+03291+01581101111ADDAA106000091GF103991031011012501001001MA1999999098281MD1999999+0121REMSYN070AAXX  10184 82986 32698 31408 10329 20158 39828 40111 83100 333 58012;EQDQ01  00002PRCP06
0198829860999992003051100004-09400-038220FM-12+0252SBUF V0201401N006712200019N0020001N1+02711+02031101521ADDAA106000091GF104991041001017501041001KA1240M+03371MA1999999098681MD1999999+0201REMSYN088AAXX  11004 82986 32795 41413 10271 20203 39868 40152 84040 333 10337 29059 55102 58020;EQDQ01  00002PRCP06
0186829860999992003051112004-09400-038220FM-12+0252SBUF V0201401N005110075019N0100001N1+02651+02051101681ADDAA106000091GF107991061021008001081999KA1240N+02281MA1999999098841MD1999999+0091REMSYN076AAXX  11124 82986 32597 71410 10265 20205 39884 40168 8628/ 333 20228 58009;EQDQ01  00002PRCP06
0171829860999992003051118004-09400-038220FM-12+0252SBUF V0201801N002110450019N0040001N1+02691+02091101321ADDAY161061AY251061GF107991041021004501081001MA1999999098461MD1999999+0181MW1031REMSYN082AAXX  11184 82986 21496 71804 10269 20209 39846 40132 70365 84280 333 58018 69911;
0198829860999992003051200004-09400-038220FM-12+0252SBUF V0201401N003610042019N0005001N1+02311+01961101631ADDAA106000091GF107991051071004501081001KA1240M+03071MA1999999098771MD1999999+0091REMSYN088AAXX  12004 82986 32493 71407 10231 20196 39877 40163 85780 333 10307 29075 55020 58009;EQDQ01  00002PRCP06
0190829860999992003051212004-09400-038220FM-12+0252SBUF V0201401N004610042019N0100001N1+02411+02111101721ADDAY161061AY251061GF107991051071004501081001KA1240N+02121MA1999999098841MD1999999+0001MW1011REMSYN088AAXX  12124 82986 21497 71409 10241 20211 39884 40172 70165 85780 333 20212 58000 60014;
0167829860999992003051218004-09400-038220FM-12+0252SBUF V0201401N003110450019N0100001N1+02971+01931101241ADDAA106000091GF107991041021004501081001MA1999999098401MD1999999-0061REMSYN070AAXX  12184 82986 32497 71406 10297 20193 39840 40124 84280 333 59006;EQDQ01  00002PRCP06
0202829860999992003051300004-09400-038220FM-12+0252SBUF V0201401N002110450019N0010001N1+02441+02111101581ADDAY161061AY251061GF106991041021004501081001KA1240M+03091MA1999999098711MD1999999-0061MW1031REMSYN100AAXX  13004 82986 21494 61404 10244 20211 39871 40158 70365 84280 333 10309 29075 55024 59006 69921;
0190829860999992003051312004-09400-038220FM-12+0252SBUF V0201401N001510450019N0040001N1+02441+02171101561ADDAY151061AY251061GF106991041071004501081001KA1240N+02161MA1999999098691MD1999999-0151MW1151REMSYN088AAXX  13124 82986 21496 61403 10244 20217 39869 40156 71555 84780 333 20216 59015 69924;
0171829860999992003051318004-09400-038220FM-12+0252SBUF V0202301N001510450019N0040001N1+02871+02111101181ADDAY161061AY251061GF106991041021004501081001MA1999999098831MD1999999-0071MW1031REMSYN082AAXX  13184 82986 21496 62303 10287 20211 39883 40118 70365 84280 333 59007 69951;
0202829860999992003051400004-09400-038220FM-12+0252SBUF V0201401N005710450019N0020001N1+02631+02071101501ADDAY161061AY221061GF107991021041008001071999KA1240M+02901MA1999999098651MD1999999-0061MW1021REMSYN100AAXX  14004 82986 21595 71411 10263 20207 39865 40150 70262 8247/ 333 10290 29073 55024 59006 69931;
0162829860999992003051412004-09400-038220FM-12+0252SBUF V0201401N003110450019N0040001N1+02501+02001101571ADDGF106991041021004501081001KA1240N+02071MA1999999098711MD1999999+0021REMSYN082AAXX  14124 82986 22496 61406 10250 20200 39871 40157 84280 333 20207 58002 69984;
0167829860999992003051418004-09400-038220FM-12+0252SBUF V0201401N004112200019N0200001N1+03151+01731101091ADDAA106000091GF104991031021012501041001MA1999999098261MD1999999-0571REMSYN070AAXX  14184 82986 32698 41408 10315 20173 39826 40109 83240 333 59057;EQDQ01  00002PRCP06
0198829860999992003051500004-09400-038220FM-12+0252SBUF V0201401N005112200019N0020001N1+02551+01831101481ADDAA106000091GF102991021001017501031001KA1240M+03191MA1999999098621MD1999999-0031REMSYN088AAXX  15004 82986 32795 21410 10255 20183 39862 40148 82030 333 10319 29062 55100 59003;EQDQ01  00002PRCP06
0190829860999992003051512004-09400-038220FM-12+0252SBUF V0201401N005110450019N0100001N1+02601+02191101591ADDAY181061AY221061GF106991041021004501031001KA1240N+02181MA1999999098731MD1999999+0021MW1151REMSYN088AAXX  15124 82986 21497 61410 10260 20219 39873 40159 71582 84230 333 20218 58002 69934;
0167829860999992003051518004-09400-038220FM-12+0252SBUF V0201401N005710450019N0200001N1+03081+01601101171ADDAA106000091GF105991041021008001051001MA1999999098341MD1999999+0081REMSYN070AAXX  15184 82986 32598 51411 10308 20160 39834 40117 84250 333 58008;EQDQ01  00002PRCP06
0198829860999992003051600004-09400-038220FM-12+0252SBUF V0200901N004110450019N0020001N1+02531+01911101521ADDAA106000091GF105991011041012501031001KA1240M+03241MA1999999098661MD1999999+0041REMSYN088AAXX  16004 82986 32695 50908 10253 20191 39866 40152 81430 333 10324 29064 55098 58004;EQDQ01  00002PRCP06
0190829860999992003051612004-09400-038220FM-12+0252SBUF V0200901N004610450019N0040001N1+02601+02031101461ADDAY161061AY221061GF106991031021004501081011KA1240N+02221MA1999999098611MD1999999-0121MW1151REMSYN088AAXX  16124 82986 21496 60909 10260 20203 39861 40146 71562 83281 333 20222 59012 69914;
0171829860999992003051618004-09400-038220FM-12+0252SBUF V0201401N007210450019N0200001N1+02991+01761101111ADDAY151061AY221061GF106991041021008001061081MA1999999098281MD1999999-0061MW1011REMSYN082AAXX  16184 82986 21598 61414 10299 20176 39828 40111 70152 84268 333 59006 69911;
0198829860999992003051700004-09400-038220FM-12+0252SBUF V0201401N003610075019N0020001N1+02411+01931101461ADDAA106000091GF106991051051008001081999KA1240M+03051MA1999999098601MD1999999-0061REMSYN088AAXX  17004 82986 32595 61407 10241 20193 39860 40146 8558/ 333 10305 29067 55053 59006;EQDQ01  00002PRCP06
0190829860999992003051712004-09400-038220FM-12+0252SBUF V0201401N002610090019N0040001N1+02401+02111101441ADDAY151061AY221061GF108991081081004501999999KA1240N+02081MA1999999098571MD1999999-0091MW1161REMSYN088AAXX  17124 82986 21496 81405 10240 20211 39857 40144 71652 888// 333 20208 59009 69934;
0171829860999992003051718004-09400-038220FM-12+0252SBUF V0201401N002610450019N0100001N1+02881+02031101041ADDAY161061AY251061GF106991041021004501081001MA1999999098191MD1999999-0091MW1151REMSYN082AAXX  17184 82986 21497 61405 10288 20203 39819 40104 71565 84280 333 59009 69971;
0202829860999992003051800004-09400-038220FM-12+0252SBUF V0201801N001510450019N0010001N1+02371+02131101351ADDAY151061AY251061GF106991031011008001081081KA1240M+02911MA1999999098481MD1999999-0121MW1031REMSYN100AAXX  18004 82986 21594 61803 10237 20213 39848 40135 70355 83188 333 10291 29079 55028 59012 69911;
0190829860999992003051812004-09400-038220FM-12+0252SBUF V0201401N004110042019N0100001N1+02451+02031101511ADDAY161061AY251061GF107991061051004501031999KA1240N+02141MA1999999098641MD1999999+0071MW1151REMSYN088AAXX  18124 82986 21497 71408 10245 20203 39864 40151 71565 8653/ 333 20214 58007 60014;
0167829860999992003051818004-09400-038220FM-12+0252SBUF V0201401N005110450019N0100001N1+03001+01571101101ADDAA106000091GF106991031011008001081001MA1999999098261MD1999999+0071REMSYN070AAXX  18184 82986 32597 61410 10300 20157 39826 40110 83180 333 58007;EQDQ01  00002PRCP06
0198829860999992003051900004-09400-038220FM-12+0252SBUF V0201401N003610450019N0020001N1+02541+02021101421ADDAA106000091GF106991031011008001081001KA1240M+03161MA1999999098561MD1999999+0081REMSYN088AAXX  19004 82986 32595 61407 10254 20202 39856 40142 83180 333 10316 29066 55064 58008;EQDQ01  00002PRCP06
0190829860999992003051912004-09400-038220FM-12+0252SBUF V0201401N002610450019N0040001N1+02291+02161101641ADDAY161061AY251061GF106991041021004501081011KA1240N+02151MA1999999098761MD1999999+0121MW1031REMSYN088AAXX  19124 82986 21496 61405 10229 20216 39876 40164 70365 84281 333 20215 58012 60024;
0195829860999992003051918004-09400-038220FM-12+0252SBUF V0201401N006210042019N0040001N1+02821+02021101181ADDAA106000091AY121061AY221061GF107991051021004501081001MA1999999098331MD1999999+0071MW1151REMSYN076AAXX  19184 82986 31496 71412 10282 20202 39833 40118 71522 85280 333 58007;EQDQ01  00002PRCP06
0198829860999992003052000004-09400-038220FM-12+0252SBUF V0200901N001510450019N0010001N1+02401+02071101521ADDAA106000091GF106991041021004501081001KA1240M+03101MA1999999098641MD1999999+0081REMSYN088AAXX  20004 82986 32494 60903 10240 20207 39864 40152 84280 333 10310 29080 55029 58008;EQDQ01  00002PRCP06
0190829860999992003052012004-09400-038220FM-12+0252SBUF V0201401N003610042019N0020001N1+02291+02181101591ADDAY161061AY251061GF107991051071004501081001KA1240N+02131MA1999999098711MD1999999-0051MW1031REMSYN088AAXX  20124 82986 21495 71407 10229 20218 39871 40159 70365 85780 333 20213 59005 60024;
0171829860999992003052018004-09400-038220FM-12+0252SBUF V0201801N002110042019N0100001N1+02831+02021101201ADDAY161061AY251061GF107991051071004501081001MA1999999098351MD1999999+0021MW1031REMSYN082AAXX  20184 82986 21497 71804 10283 20202 39835 40120 70365 85780 333 58002 69941;
0202829860999992003052100004-09400-038220FM-12+0252SBUF V0201401N003110090019N0010001N1+02201+02101101571ADDAY161061AY261061GF108991081081004501999999KA1240M+02871MA1999999098681MD1999999+0041MW1201REMSYN100AAXX  21004 82986 21494 81406 10220 20210 39868 40157 72066 888// 333 10287 29086 55008 58004 69991;
0190829860999992003052112004-09400-038220FM-12+0252SBUF V0201801N002110450019N0040001N1+02471+02071101521ADDAY161061AY221061GF106991031011004501081001KA1240N+02121MA1999999098641MD1999999-0071MW1021REMSYN088AAXX  21124 82986 21496 61804 10247 20207 39864 40152 70262 83180 333 20212 59007 60014;
0167829860999992003052118004-09400-038220FM-12+0252SBUF V0200901N002110450019N0200001N1+02891+01971101181ADDAA106000091GF106991041021008001061001MA1999999098331MD1999999-0021REMSYN070AAXX  21184 82986 32598 60904 10289 20197 39833 40118 84260 333 59002;EQDQ01  00002PRCP06
0198829860999992003052200004-09400-038220FM-12+0252SBUF V0201401N003612200019N0020001N1+02471+02071101431ADDAA106000091GF102991021001017501061001KA1240M+03031MA1999999098561MD1999999-0121REMSYN088AAXX  22004 82986 32795 21407 10247 20207 39856 40143 82060 333 10303 29074 55067 59012;EQDQ01  00002PRCP06
0186829860999992003052212004-09400-038220FM-12+0252SBUF V0200901N005110075019N0100001N1+02631+02051101561ADDAA106000091GF105991051021008001001001KA1240N+02271MA1999999098701MD1999999+0061REMSYN076AAXX  22124 82986 32597 50910 10263 20205 39870 40156 85200 333 20227 58006;EQDQ01  00002PRCP06
0167829860999992003052218004-09400-038220FM-12+0252SBUF V0201401N004112200019N0200001N1+03111+01701101191ADDAA106000091GF103991031011012501001001MA1999999098361MD1999999+0031REMSYN070AAXX  22184 82986 32698 31408 10311 20170 39836 40119 83100 333 58003;EQDQ01  00002PRCP06
0208829860999992003052300004-09400-038220FM-12+0252SBUF V0201401N004112200019N0020001N1+02551+01911101551ADDAA106000091GA1001+999999999GF100991001001999999001001KA1240M+03171MA1999999098701MD1999999+0141REMSYN082AAXX  23004 82986 32995 01408 10255 20191 39870 40155 333 10317 29063 55094 58014;EQDQ01  00002PRCP06
0186829860999992003052312004-09400-038220FM-12+0252SBUF V0201401N004610075019N0200001N1+02561+01991101541ADDAA106000091GF106991061021008001001001KA1240N+01981MA1999999098681MD1999999-0021REMSYN076AAXX  23124 82986 32598 61409 10256 20199 39868 40154 86200 333 20198 59002;EQDQ01  00002PRCP06
0167829860999992003052318004-09400-038220FM-12+0252SBUF V0201401N003110450019N0200001N1+03051+01781101171ADDAA106000091GF106991031011008001081001MA1999999098321MD1999999-0041REMSYN070AAXX  23184 82986 32598 61406 10305 20178 39832 40117 83180 333 59004;EQDQ01  00002PRCP06
0208829860999992003052400004-09400-038220FM-12+0252SBUF V0201401N003112200019N0020001N1+02591+01971101381ADDAA106000091GA1001+999999999GF100991001001999999001001KA1240M+03131MA1999999098531MD1999999-0171REMSYN082AAXX  24004 82986 32995 01406 10259 20197 39853 40138 333 10313 29064 55093 59017;EQDQ01  00002PRCP06
0186829860999992003052412004-09400-038220FM-12+0252SBUF V0201401N001512200019N0200001N1+02581+02061101411ADDAA106000091GF101991011011012501001001KA1240N+02061MA1999999098561MD1999999-0121REMSYN076AAXX  24124 82986 32698 11403 10258 20206 39856 40141 81100 333 20206 59012;EQDQ01  00002PRCP06
0177829860999992003052418004-09400-038220FM-12+0252SBUF V0202301N002112200019N0500001N1+03331+01651100741ADDAA106000091GA1001+999999999GF100991001001999999001001MA1999999097921MD1999999-0401REMSYN064AAXX  24184 82986 32999 02304 10333 20165 39792 40074 333 59040;EQDQ01  00002PRCP06
0208829860999992003052500004-09400-038220FM-12+0252SBUF V0201401N004612200019N0020001N1+02731+01951101021ADDAA106000091GA1001+999999999GF100991001001999999001001KA1240M+03411MA1999999098191MD1999999-0341REMSYN082AAXX  25004 82986 32995 01409 10273 20195 39819 40102 333 10341 29059 55101 59034;EQDQ01  00002PRCP06
0186829860999992003052512004-09400-038220FM-12+0252SBUF V0203201N001010450019N0040001N1+02701+02221101321ADDAA106000091GF106991031011008001081011KA1240N+02401MA1999999098491MD1999999-0071REMSYN076AAXX  25124 82986 32596 63202 10270 20222 39849 40132 83181 333 20240 59007;EQDQ01  00002PRCP06
0167829860999992003052518004-09400-038220FM-12+0252SBUF V0202301N001512200019N0500001N1+03491+01711100741ADDAA106000091GF103991011011008001051011MA1999999097951MD1999999+0031REMSYN070AAXX  25184 82986 32599 32303 10349 20171 39795 40074 81151 333 58003;EQDQ01  00002PRCP06
0208829860999992003052600004-09400-038220FM-12+0252SBUF V0201401N003112200019N0020001N1+02901+02151101051ADDAA106000091GA1001+999999999GF100991001001999999001001KA1240M+03551MA1999999098241MD1999999+0051REMSYN082AAXX  26004 82986 32995 01406 10290 20215 39824 40105 333 10355 29059 55080 58005;EQDQ01  00002PRCP06
0196829860999992003052612004-09400-038220FM-12+0252SBUF V0203201N001512200019N0200001N1+02711+02111101291ADDAA106000091GA1001+999999999GF100991001001999999001001KA1240N+02371MA1999999098471MD1999999-0021REMSYN070AAXX  26124 82986 32998 03203 10271 20211 39847 40129 333 20237 59002;EQDQ01  00002PRCP06
0167829860999992003052618004-09400-038220FM-12+0252SBUF V0201401N001512200019N0500001N1+03471+01601100871ADDAA106000091GF102991011001012501061011MA1999999098081MD1999999+0131REMSYN070AAXX  26184 82986 32699 21403 10347 20160 39808 40087 81061 333 58013;EQDQ01  00002PRCP06
0208829860999992003052700004-09400-038220FM-12+0252SBUF V0201401N004112200019N0020001N1+02821+02101101281ADDAA106000091GA1001+999999999GF100991001001999999001001KA1240M+03491MA1999999098451MD1999999+0211REMSYN082AAXX  27004 82986 32995 01408 10282 20210 39845 40128 333 10349 29058 55095 58021;EQDQ01  00002PRCP06
0186829860999992003052712004-09400-038220FM-12+0252SBUF V0201401N001010450019N0100001N1+02801+02131101611ADDAA106000091GF105991031011008001081001KA1240N+02381MA1999999098781MD1999999+0311REMSYN076AAXX  27124 82986 32597 51402 10280 20213 39878 40161 83180 333 20238 58031;EQDQ01  00002PRCP06
0167829860999992003052718004-09400-038220FM-12+0252SBUF V0201401N003612200019N0200001N1+03301+01841101131ADDAA106000091GF104991031021008001001011MA1999999098321MD1999999+0241REMSYN070AAXX  27184 82986 32598 41407 10330 20184 39832 40113 83201 333 58024;EQDQ01  00002PRCP06
0208829860999992003052800004-09400-038220FM-12+0252SBUF V0201401N005112200019N0020001N1+02691+02021101521ADDAA106000091GA1001+999999999GF100991001001999999001001KA1240M+03351MA1999999098691MD1999999+0241REMSYN082AAXX  28004 82986 32995 01410 10269 20202 39869 40152 333 10335 29061 55099 58024;EQDQ01  00002PRCP06
0186829860999992003052812004-09400-038220FM-12+0252SBUF V0201401N003110075019N0100001N1+02681+02161101541ADDAA106000091GF105991051021008001001001KA1240N+02321MA1999999098701MD1999999-0081REMSYN076AAXX  28124 82986 32597 51406 10268 20216 39870 40154 85200 333 20232 59008;EQDQ01  00002PRCP06
0167829860999992003052818004-09400-038220FM-12+0252SBUF V0201801N005110450019N0200001N1+03071+01991101161ADDAA106000091GF105991031021008001061011MA1999999098341MD1999999+0021REMSYN070AAXX  28184 82986 32598 51810 10307 20199 39834 40116 83261 333 58002;EQDQ01  00002PRCP06
0208829860999992003052900004-09400-038220FM-12+0252SBUF V0201401N003112200019N0020001N1+02561+02041101501ADDAA106000091GA1001+999999999GF100991001001999999001001KA1240M+03211MA1999999098651MD1999999-0041REMSYN082AAXX  29004 82986 32995 01406 10256 20204 39865 40150 333 10321 29068 55085 59004;EQDQ01  00002PRCP06
0186829860999992003052912004-09400-038220FM-12+0252SBUF V0200901N002610450019N0100001N1+02601+02171101591ADDAA106000091GF106991041021008001081011KA1240N+02241MA1999999098741MD1999999+0041REMSYN076AAXX  29124 82986 32597 60905 10260 20217 39874 40159 84281 333 20224 58004;EQDQ01  00002PRCP06
0167829860999992003052918004-09400-038220FM-12+0252SBUF V0201801N005111050019N0200001N1+02811+02031101271ADDAA106000091GF105991021011008001081011MA1999999098421MD1999999+0081REMSYN070AAXX  29184 82986 32598 51810 10281 20203 39842 40127 82181 333 58008;EQDQ01  00002PRCP06
0198829860999992003053000004-09400-038220FM-12+0252SBUF V0201401N003110450019N0010001N1+02391+01971101551ADDAA106000091GF106991041021004501081021KA1240M+03091MA1999999098691MD1999999+0041REMSYN088AAXX  30004 82986 32494 61406 10239 20197 39869 40155 84282 333 10309 29074 55066 58004;EQDQ01  00002PRCP06
0190829860999992003053012004-09400-038220FM-12+0252SBUF V0201401N004110090019N0040001N1+02491+02131101631ADDAY161061AY221061GF108991081081004501999999KA1240N+02161MA1999999098761MD1999999+0021MW1511REMSYN088AAXX  30124 82986 21496 81408 10249 20213 39876 40163 75162 888// 333 20216 58002 69964;
0139829860999992003053014004-09400-038220FM-15+0252SBUF V0201501N003612200019N0112651N1+02901+02001999999ADDGA1041+007509999GF104991999999999999999999MA1101691999999MW1001REMMET045SBUF 301400Z 15007KT 9999 SCT025 29/20 Q1017;EQDQ01+000000PRSWM2
0139829860999992003053015004-09400-038220FM-15+0252SBUF V0201701N003612200019N0112651N1+03001+01901999999ADDGA1041+007509999GF104991999999999999999999MA1101591999999MW1001REMMET045SBUF 301500Z 17007KT 9999 SCT025 30/19 Q1016;EQDQ01+000000PRSWM2
0139829860999992003053016004-09400-038220FM-15+0252SBUF V0201301N005112200019N0112651N1+03201+01801999999ADDGA1041+007509999GF104991999999999999999999MA1101491999999MW1001REMMET045SBUF 301600Z 13010KT 9999 SCT025 32/18 Q1015;EQDQ01+000000PRSWM2
0139829860999992003053017004-09400-038220FM-15+0252SBUF V0201301N006210060019N0112651N1+03101+01901999999ADDGA1071+006009999GF107991999999999999999999MA1101491999999MW1001REMMET045SBUF 301700Z 13012KT 9999 BKN020 31/19 Q1015;EQDQ01+000000PRSWM2
0279829860999992003053018004-09400-038220SY-MT+0252SBUF V0201401N00511021001CN0100001N1+02901+01811101261ADDAA106000021GA1041+006009999GA2071+021009999GF199999031011008001081011MA1101391098411MD1999999-0011MW1001REMSYN070AAXX  30184 82986 32597 61410 10290 20181 39841 40126 83181 333 59001;MET052SBUF 301800Z 16010KT 9999 SCT020 BKN070 29/19 Q1014;EQDQ01+000062SCOTCVQ02+000000PRSWM2
0208829860999992003053100004-09400-038220FM-12+0252SBUF V0201401N003112200019N0020001N1+02491+01941101511ADDAA106000091GA1001+999999999GF100991001001999999001001KA1240M+03051MA1999999098651MD1999999-0041REMSYN082AAXX  31004 82986 32995 01406 10249 20194 39865 40151 333 10305 29069 55049 59004;EQDQ01  00002PRCP06
0190829860999992003053112004-09400-038220FM-12+0252SBUF V0201401N002610450019N0040001N1+02401+02191101721ADDAY161061AY251061GF107991041071004501081001KA1240N+02101MA1999999098851MD1999999+0091MW1031REMSYN088AAXX  31124 82986 21496 71405 10240 20219 39885 40172 70365 84780 333 20210 58009 60014;
0171829860999992003053118004-09400-038220FM-12+0252SBUF V0200901N005110450019N0100001N1+02841+02011101381ADDAY161061AY251061GF106991031071004501081001MA1999999098521MD1999999+0111MW1031REMSYN082AAXX  31184 82986 21497 60910 10284 20201 39852 40138 70365 83780 333 58011 69911;
0212829860999992003060100004-09400-038220FM-12+0252SBUF V0201401N001512200019N0020001N1+02361+02151101681ADDAY161061AY211061GA1001+999999999GF100991001001999999001001KA1240M+02931MA1999999098801MD1999999+0151MW1001REMSYN094AAXX  01004 82986 21995 01403 10236 20215 39880 40168 70061 333 10293 29081 55025 58015 69951;
0190829860999992003060112004-09400-038220FM-12+0252SBUF V0201401N003610450019N0040001N1+02461+02111101721ADDAY161061AY251061GF106991041021004501081011KA1240N+02081MA1999999098841MD1999999-0011MW1031REMSYN088AAXX  01124 82986 21496 61407 10246 20211 39884 40172 70365 84281 333 20208 59001 69984;
0167829860999992003060118004-09400-038220FM-12+0252SBUF V0201401N003112200019N0200001N1+02991+01661101251ADDAA106000091GF103991031011008001001001MA1999999098401MD1999999+0081REMSYN070AAXX  01184 82986 32598 31406 10299 20166 39840 40125 83100 333 58008;EQDQ01  00002PRCP06
0208829860999992003060200004-09400-038220FM-12+0252SBUF V0201401N003112200019N0020001N1+02491+01981101591ADDAA106000091GA1001+999999999GF100991001001999999001001KA1240M+03051MA1999999098721MD1999999-0081REMSYN082AAXX  02004 82986 32995 01406 10249 20198 39872 40159 333 10305 29068 55078 59008;EQDQ01  00002PRCP06
0171829860999992003060218004-09400-038220FM-12+0252SBUF V0201401N005710120019N0200001N1+02641+02071101301ADDAY161061AY251061GF107991061081008001081999MA1999999098431MD1999999+0031MW1151REMSYN082AAXX  02184 82986 21598 71411 10264 20207 39843 40130 71565 8688/ 333 58003 69921;
0202829860999992003060300004-09400-038220FM-12+0252SBUF V0201401N002610120019N0020001N1+02291+02161101541ADDAY151061AY221061GF106991061081008001999999KA1240M+02851MA1999999098661MD1999999-0061MW1021REMSYN100AAXX  03004 82986 21595 61405 10229 20216 39866 40154 70252 868// 333 10285 29084 55023 59006 69921;
0139829860999992003060310004-09400-038220FM-15+0252SBUF V0201501N002612200019N0112651N1+02301+02101999999ADDGA1041+005109999GF104991999999999999999999MA1101691999999MW1001REMMET045SBUF 031000Z 15005KT 9999 SCT017 23/21 Q1017;EQDQ01+000000PRSWM2
0139829860999992003060311004-09400-038220FM-15+0252SBUF V0201701N003112200019N0112651N1+02301+02101999999ADDGA1041+005109999GF104991999999999999999999MA1101801999999MW1001REMMET045SBUF 031100Z 17006KT 9999 SCT017 23/21 Q1018;EQDQ01+000000PRSWM2
0162829860999992003060312004-09400-038220FM-12+0252SBUF V0201801N001510450019N0100001N1+02421+02051101581ADDGF106991041021004501081001KA1240N+02021MA1999999098741MD1999999-0061REMSYN082AAXX  03124 82986 22497 61803 10242 20205 39874 40158 84280 333 20202 59006 69944;
0139829860999992003060316004-09400-038220FM-15+0252SBUF V0201301N004612200019N0112651N1+03001+01701999999ADDGA1041+007509999GF104991999999999999999999MA1101491999999MW1001REMMET045SBUF 031600Z 13009KT 9999 SCT025 30/17 Q1015;EQDQ01+000000PRSWM2
0139829860999992003060317004-09400-038220FM-15+0252SBUF V0201501N005112200019N0112651N1+03101+01701999999ADDGA1041+007509999GF104991999999999999999999MA1101391999999MW1001REMMET045SBUF 031700Z 15010KT 9999 SCT025 31/17 Q1014;EQDQ01+000000PRSWM2
0256829860999992003060318004-09400-038220SY-MT+0252SBUF V0200901N005112200019N0200001N1+03071+01661101101ADDAA106000091GA1041+007509999GF105991051011008001001011MA1101291098261MD1999999-0171MW1001REMSYN070AAXX  03184 82986 32598 50910 10307 20166 39826 40110 85101 333 59017;MET045SBUF 031800Z 15010KT 9999 SCT025 32/17 Q1013;EQDQ01+000000PRSWM2Q02  00002PRCP06
0139829860999992003060319004-09400-038220FM-15+0252SBUF V0201301N005112200019N0112651N1+03101+01701999999ADDGA1021+007509999GF102991999999999999999999MA1101291999999MW1001REMMET045SBUF 031900Z 13010KT 9999 FEW025 31/17 Q1013;EQDQ01+000000PRSWM2
0162829860999992003060320004-09400-038220FM-15+0252SBUF V0201501N004112200019N0112651N1+03001+01801999999ADDGA1021+007509999GA2041+090009999GF104991999999999999999999MA1101291999999MW1001REMMET052SBUF 032000Z 15008KT 9999 FEW025 SCT300 30/18 Q1013;EQDQ01+000000PRSWM2
0198829860999992003060400004-09400-038220FM-12+0252SBUF V0201401N005112200019N0020001N1+02511+02001101451ADDAA106000091GF102991011011012501081001KA1240M+03141MA1999999098581MD1999999-0081REMSYN088AAXX  04004 82986 32695 21410 10251 20200 39858 40145 81180 333 10314 29068 55093 59008;EQDQ01  00002PRCP06
0275829860999992003060412004-09400-038220SY-MT+0252SBUF V0201401N005112200019N0100001N1+02491+02031101531ADDAA106000091GA1041+007509999GF106991051081008001061001KA1240N+02101MA1101691098671MD1999999-0071MW1001REMSYN076AAXX  04124 82986 32597 61410 10249 20203 39867 40153 85860 333 20210 59007;MET045SBUF 041200Z 16008KT 9999 SCT025 26/19 Q1017;EQDQ01+000000PRSWM2Q02  00002PRCP06
0139829860999992003060413004-09400-038220FM-15+0252SBUF V0201801N003110060019N0112651N1+02701+01901999999ADDGA1071+006009999GF107991999999999999999999MA1101801999999MW1001REMMET045SBUF 041300Z 18006KT 9999 BKN020 27/19 Q1018;EQDQ01+000000PRSWM2
0171829860999992003060418004-09400-038220FM-12+0252SBUF V0201401N003110450019N0100001N1+02871+02011101231ADDAY161061AY221061GF106991031011004501091001MA1999999098381MD1999999+0121MW1151REMSYN082AAXX  04184 82986 21497 61406 10287 20201 39838 40123 71562 83190 333 58012 69981;
0208829860999992003060500004-09400-038220FM-12+0252SBUF V0201401N003112200019N0020001N1+02451+02051101401ADDAA106000091GA1001+999999999GF100991001001999999001001KA1240M+02901MA1999999098541MD1999999-0041REMSYN082AAXX  05004 82986 32995 01406 10245 20205 39854 40140 333 10290 29073 55039 59004;EQDQ01  00002PRCP06
0190829860999992003060512004-09400-038220FM-12+0252SBUF V0200901N002610042019N0100001N1+02351+02151101591ADDAY151061AY221061GF108991061071004501081999KA1240N+02181MA1999999098711MD1999999+0041MW1501REMSYN088AAXX  05124 82986 21497 80905 10235 20215 39871 40159 75052 8678/ 333 20218 58004 69994;
0171829860999992003060518004-09400-038220FM-12+0252SBUF V0200901N004110450019N0200001N1+02861+01811101301ADDAY161061AY221061GF106991031011008001081001MA1999999098451MD1999999+0071MW1021REMSYN082AAXX  05184 82986 21598 60908 10286 20181 39845 40130 70262 83180 333 58007 69981;
0208829860999992003060600004-09400-038220FM-12+0252SBUF V0201401N003112200019N0020001N1+02441+01661101561ADDAA106000091GA1001+999999999GF100991001001999999001001KA1240M+03001MA1999999098691MD1999999+0151REMSYN082AAXX  06004 82986 32995 01406 10244 20166 39869 40156 333 10300 29066 55025 58015;EQDQ01  00002PRCP06
0162829860999992003060612004-09400-038220FM-12+0252SBUF V0201401N003610450019N0100001N1+02491+02011101671ADDGF106991041021008001061001KA1240N+02011MA1999999098801MD1999999+0091REMSYN082AAXX  06124 82986 22597 61407 10249 20201 39880 40167 84260 333 20201 58009 69984;
0167829860999992003060618004-09400-038220FM-12+0252SBUF V0201401N005110450019N0200001N1+02841+01761101261ADDAA106000091GF105991031051008001051001MA1999999098401MD1999999-0051REMSYN070AAXX  06184 82986 32598 51410 10284 20176 39840 40126 83550 333 59005;EQDQ01  00002PRCP06
0214829860999992003060712004-09400-038220FM-12+0252SBUF V0201401N003110450019N0100001N1+02531+02201101631ADDAA106000091AY121061AY221061GF106991041021004501081001KA1240N+02091MA1999999098771MD1999999-0031MW1151REMSYN082AAXX  07124 82986 31497 61406 10253 20220 39877 40163 71522 84280 333 20209 59003;EQDQ01  00002PRCP06
0167829860999992003060718004-09400-038220FM-12+0252SBUF V0200901N005110450019N0100001N1+02651+02031101351ADDAA106000091GF106991041061004501081001MA1999999098481MD1999999+0001REMSYN070AAXX  07184 82986 32497 60910 10265 20203 39848 40135 84680 333 58000;EQDQ01  00002PRCP06
0198829860999992003060800004-09400-038220FM-12+0252SBUF V0201401N003119999999N0020001N1+02381+01871101521ADDAA106000091GF106991061001012501051001KA1240M+02761MA1999999098651MD1999999+0001REMSYN088AAXX  08004 82986 32695 61406 10238 20187 39865 40152 86050 333 10276 29072 55025 58000;EQDQ01  00002PRCP06
0186829860999992003060812004-09400-038220FM-12+0252SBUF V0201401N001510450019N0100001N1+02391+01951101541ADDAA106000091GF106991031011008001081001KA1240N+02071MA1999999098671MD1999999-0101REMSYN076AAXX  08124 82986 32597 61403 10239 20195 39867 40154 83180 333 20207 59010;EQDQ01  00002PRCP06
0167829860999992003060818004-09400-038220FM-12+0252SBUF V0201401N005712200019N0200001N1+03001+01681101161ADDAA106000091GF104991031021008001041001MA1999999098311MD1999999-0171REMSYN070AAXX  08184 82986 32598 41411 10300 20168 39831 40116 83240 333 59017;EQDQ01  00002PRCP06
0198829860999992003060900004-09400-038220FM-12+0252SBUF V0200901N004112200019N0020001N1+02391+01841101581ADDAA106000091GF102991021001017501081001KA1240M+03151MA1999999098701MD1999999+0051REMSYN088AAXX  09004 82986 32795 20908 10239 20184 39870 40158 82080 333 10315 29067 55089 58005;EQDQ01  00002PRCP06
0186829860999992003060912004-09400-038220FM-12+0252SBUF V0201401N004110075019N0100001N1+02471+01881101621ADDAA106000091GF106991061021008001001001KA1240N+02041MA1999999098751MD1999999+0081REMSYN076AAXX  09124 82986 32597 61408 10247 20188 39875 40162 86200 333 20204 58008;EQDQ01  00002PRCP06
0195829860999992003060918004-09400-038220FM-12+0252SBUF V0201401N007210090019N0040001N1+02531+02021101451ADDAA106000091AY121061AY221061GF107991051081004501081999MA1999999098571MD1999999+0261MW1151REMSYN076AAXX  09184 82986 31496 71414 10253 20202 39857 40145 71522 8588/ 333 58026;EQDQ01  00002PRCP06
0202829860999992003061000004-09400-038220FM-12+0252SBUF V0201401N002610042019N0020001N1+02091+01961101671ADDAY161061AY251061GF107991051051004501081999KA1240M+02821MA1999999098781MD1999999+0081MW1201REMSYN100AAXX  10004 82986 21495 71405 10209 20196 39878 40167 72065 8558/ 333 10282 29082 55042 58008 69961;
0190829860999992003061012004-09400-038220FM-12+0252SBUF V0201401N003110450019N0100001N1+02401+02171101721ADDAY161061AY251061GF106991041081004501051001KA1240N+01901MA1999999098821MD1999999+0071MW1011REMSYN088AAXX  10124 82986 21497 61406 10240 20217 39882 40172 70165 84850 333 20190 58007 60024;
0195829860999992003061018004-09400-038220FM-12+0252SBUF V0201401N005710450019N0100001N1+02711+02031101391ADDAA106000091AY121061AY221061GF106991031021004501081001MA1999999098511MD1999999-0061MW1151REMSYN076AAXX  10184 82986 31497 61411 10271 20203 39851 40139 71522 83280 333 59006;EQDQ01  00002PRCP06
0202829860999992003061100004-09400-038220FM-12+0252SBUF V0201401N003110450019N0020001N1+02311+02011101581ADDAY151061AY221061GF105991021061008001051001KA1240M+02841MA1999999098701MD1999999-0081MW1021REMSYN100AAXX  11004 82986 21595 51406 10231 20201 39870 40158 70252 82650 333 10284 29080 55024 59008 69901;
0145829860999992003061103004-09400-038220FM-15+0252SBUF V0201501N002610051019N0112651N1+02201+02101999999ADDGA1071+005109999GF107991999999999999999999MA1101691999999MW1001REMMET051METAR SBUF 110300Z 15005KT 9999 BKN017 22/21 Q1017;EQDQ01+000000PRSWM2
0139829860999992003061105004-09400-038220FM-15+0252SBUF V0201601N001510045019N0112651N1+02201+02101999999ADDGA1071+004509999GF107991999999999999999999MA1101591999999MW1001REMMET045SBUF 110500Z 16003KT 9999 BKN015 22/21 Q1016;EQDQ01+000000PRSWM2
0139829860999992003061110004-09400-038220FM-15+0252SBUF V0202001N002612200019N0112651N1+02201+02001999999ADDGA1021+002709999GF102991999999999999999999MA1101691999999MW1001REMMET045SBUF 111000Z 20005KT 9999 FEW009 22/20 Q1017;EQDQ01+000000PRSWM2
0182829860999992003061111004-09400-038220FM-15+0252SBUF V0201701N003610027019N0040001N1+02301+02201999999ADDGA1071+002709999GA2081+021009999GF108991999999999999999999MA1101801999999MW1611REMMET056SBUF 111100Z 17007KT 4000 -RA BKN009 OVC070 23/22 Q1018;EQDQ01+000003PRSWM1Q02    003PRSWM1
0190829860999992003061112004-09400-038220FM-12+0252SBUF V0201401N004610021019N0100001N1+02311+02181101631ADDAY151061AY221061GF106991051071002501081999KA1240N+02101MA1999999098741MD1999999-0081MW1201REMSYN088AAXX  11124 82986 21397 61409 10231 20218 39874 40163 72052 8578/ 333 20210 59008 69914;
0139829860999992003061113004-09400-038220FM-15+0252SBUF V0201501N004110045019N0112651N1+02501+02201999999ADDGA1071+004509999GF107991999999999999999999MA1101801999999MW1001REMMET045SBUF 111300Z 15008KT 9999 BKN015 25/22 Q1018;EQDQ01+000000PRSWM2
0171829860999992003061118004-09400-038220FM-12+0252SBUF V0201401N003619999999N0100001N1+02801+02081101261ADDAY151061AY221061GF105991999999004501999999MA1999999098401MD1999999-0111MW1021REMSYN082AAXX  11184 82986 21497 51407 10280 20208 39840 40126 70252 73179 333 59011 60011;
0198829860999992003061200004-09400-038220FM-12+0252SBUF V0201401N005710120019N0020001N1+02411+02111101531ADDAA106000091GF108991081081008001999999KA1240M+02861MA1999999098651MD1999999-0051REMSYN088AAXX  12004 82986 32595 81411 10241 20211 39865 40153 888// 333 10286 29081 55031 59005;EQDQ01  00002PRCP06
0139829860999992003061210004-09400-038220FM-15+0252SBUF V0201701N003112200019N0112651N1+02301+02201999999ADDGA1021+002409999GF102991999999999999999999MA1101591999999MW1001REMMET045SBUF 121000Z 17006KT 9999 FEW008 23/22 Q1016;EQDQ01+000000PRSWM2
0139829860999992003061211004-09400-038220FM-15+0252SBUF V0201601N003610045019N0112651N1+02401+02101999999ADDGA1071+004509999GF107991999999999999999999MA1101591999999MW1001REMMET045SBUF 121100Z 16007KT 9999 BKN015 24/21 Q1016;EQDQ01+000000PRSWM2
0270829860999992003061212004-09400-038220SY-MT+0252SBUF V0201401N00311004501CN0100001N1+02421+02011101511ADDGA1071+004509999GF199999041011004501081001KA1240N+02141MA1101691098641MD1999999-0101MW1001REMSYN082AAXX  12124 82986 22497 61406 10242 20201 39864 40151 84180 333 20214 59010 69914;MET045SBUF 121200Z 13009KT 9999 BKN015 26/20 Q1017;EQDQ01+000062SCOTCVQ02+000000PRSWM2
0167829860999992003061218004-09400-038220FM-12+0252SBUF V0201401N004610450019N0200001N1+02971+01931101131ADDAA106000091GF106991031021008001051001MA1999999098301MD1999999-0101REMSYN070AAXX  12184 82986 32598 61409 10297 20193 39830 40113 83250 333 59010;EQDQ01  00002PRCP06
0208829860999992003061300004-09400-038220FM-12+0252SBUF V0201401N003612200019N0020001N1+02371+01641101461ADDAA106000091GA1001+999999999GF100991001001999999001001KA1240M+02991MA1999999098591MD1999999-0061REMSYN082AAXX  13004 82986 32995 01407 10237 20164 39859 40146 333 10299 29065 55045 59006;EQDQ01  00002PRCP06
0186829860999992003061312004-09400-038220FM-12+0252SBUF V0201401N005110450019N0040001N1+02381+01911101531ADDAA106000091GF106991041021004501081001KA1240N+01901MA1999999098661MD1999999-0021REMSYN076AAXX  13124 82986 32496 61410 10238 20191 39866 40153 84280 333 20190 59002;EQDQ01  00002PRCP06
0167829860999992003061318004-09400-038220FM-12+0252SBUF V0201401N005112200019N0200001N1+03011+01571101051ADDAA106000091GF104991021011008001061001MA1999999098201MD1999999-0101REMSYN070AAXX  13184 82986 32598 41410 10301 20157 39820 40105 82160 333 59010;EQDQ01  00002PRCP06
0190829860999992003061412004-09400-038220FM-12+0252SBUF V0201401N002610450019N0040001N1+02411+01971101631ADDAY161061AY221061GF106991031011004501081001KA1240N+02061MA1999999098751MD1999999+0091MW1151REMSYN088AAXX  14124 82986 21496 61405 10241 20197 39875 40163 71562 83180 333 20206 58009 69924;
0167829860999992003061418004-09400-038220FM-12+0252SBUF V0201401N005710450019N0200001N1+02871+01921101191ADDAA106000091GF106991041021008001061001MA1999999098341MD1999999+0141REMSYN070AAXX  14184 82986 32598 61411 10287 20192 39834 40119 84260 333 58014;EQDQ01  00002PRCP06
0186829860999992003061512004-09400-038220FM-12+0252SBUF V0201401N004610450019N0100001N1+02531+01911101601ADDAA106000091GF106991031011008001081011KA1240N+02021MA1999999098741MD1999999-0011REMSYN076AAXX  15124 82986 32597 61409 10253 20191 39874 40160 83181 333 20202 59001;EQDQ01  00002PRCP06
0167829860999992003061518004-09400-038220FM-12+0252SBUF V0201401N005110075019N0200001N1+02831+01741101321ADDAA106000091GF108991051051008001071999MA1999999098461MD1999999+0121REMSYN070AAXX  15184 82986 32598 81410 10283 20174 39846 40132 8557/ 333 58012;EQDQ01  00002PRCP06
0198829860999992003061600004-09400-038220FM-12+0252SBUF V0201401N003112200019N0020001N1+02451+01641101541ADDAA106000091GF102991021001017501041001KA1240M+02891MA1999999098681MD1999999+0081REMSYN088AAXX  16004 82986 32795 21406 10245 20164 39868 40154 82040 333 10289 29061 55028 58008;EQDQ01  00002PRCP06
0190829860999992003061612004-09400-038220FM-12+0252SBUF V0200901N006710042019N0200001N1+02451+01881101651ADDAY151061AY221061GF106991051021004501061001KA1240N+02061MA1999999098781MD1999999+0041MW1011REMSYN088AAXX  16124 82986 21498 60913 10245 20188 39878 40165 70152 85260 333 20206 58004 69904;
0139829860999992003061615004-09400-038220FM-15+0252SBUF V0201401N006212200019N0112651N1+03001+01601999999ADDGA1041+006009999GF104991999999999999999999MA1101691999999MW1001REMMET045SBUF 161500Z 14012KT 9999 SCT020 30/16 Q1017;EQDQ01+000000PRSWM2
0167829860999992003061618004-09400-038220FM-12+0252SBUF V0201401N005110450019N0200001N1+03041+01491101261ADDAA106000091GF105991021011008001061051MA1999999098421MD1999999-0041REMSYN070AAXX  16184 82986 32598 51410 10304 20149 39842 40126 82165 333 59004;EQDQ01  00002PRCP06
0208829860999992003061700004-09400-038220FM-12+0252SBUF V0201401N003112200019N0020001N1+02391+01501101561ADDAA106000091GA1001+999999999GF100991001001999999001001KA1240M+03071MA1999999098691MD1999999+0011REMSYN082AAXX  17004 82986 32995 01406 10239 20150 39869 40156 333 10307 29056 55064 58001;EQDQ01  00002PRCP06
0195829860999992003061712004-09400-038220FM-12+0252SBUF V0200901N001510021019N0040001N1+02111+02021101691ADDAA106000021AY121061AY221061GF108991081071002501999999KA1240N+01861MA1999999098791MD1999999+0011MW1201REMSYN082AAXX  17124 82986 31396 80903 10211 20202 39879 40169 72022 887// 333 20186 58001;
0162829860999992003061715004-09400-038220FM-15+0252SBUF V0201801N002610240019N0112651N1+02601+02001999999ADDGA1041+006009999GA2071+024009999GF107991999999999999999999MA1101691999999MW1001REMMET052SBUF 171500Z 18005KT 9999 SCT020 BKN080 26/20 Q1017;EQDQ01+000000PRSWM2
0176829860999992003061718004-09400-038220FM-12+0252SBUF V0201401N002610450019N0100001N1+02991+01691101221ADDAA106000021AY121061AY221061GF106991041011004501081011MA1999999098371MD1999999-0051MW1151REMSYN076AAXX  17184 82986 31497 61405 10299 20169 39837 40122 71522 84181 333 59005;
0208829860999992003061800004-09400-038220FM-12+0252SBUF V0200901N002612200019N0020001N1+02431+01881101541ADDAA106000091GA1001+999999999GF100991001001999999001001KA1240M+03011MA1999999098651MD1999999-0041REMSYN082AAXX  18004 82986 32995 00905 10243 20188 39865 40154 333 10301 29071 55035 59004;EQDQ01  00002PRCP06
0186829860999992003061812004-09400-038220FM-12+0252SBUF V0201401N003110075019N0100001N1+02391+01891101681ADDAA106000091GF106991061021008001001001KA1240N+01941MA1999999098801MD1999999+0011REMSYN076AAXX  18124 82986 32597 61406 10239 20189 39880 40168 86200 333 20194 58001;EQDQ01  00002PRCP06
0139829860999992003061816004-09400-038220FM-15+0252SBUF V0201401N004112200019N0112651N1+03101+01401999999ADDGA1021+007509999GF102991999999999999999999MA1101591999999MW1001REMMET045SBUF 181600Z 14008KT 9999 FEW025 31/14 Q1016;EQDQ01+000000PRSWM2
0139829860999992003061817004-09400-038220FM-15+0252SBUF V0201701N003112200019N0112651N1+03101+01401999999ADDGA1021+007509999GF102991999999999999999999MA1101491999999MW1001REMMET045SBUF 181700Z 17006KT 9999 FEW025 31/14 Q1015;EQDQ01+000000PRSWM2
0167829860999992003061818004-09400-038220FM-12+0252SBUF V0200901N003112200019N0200001N1+03061+01471101311ADDAA106000091GF103991021011008001041001MA1999999098461MD1999999+0091REMSYN070AAXX  18184 82986 32598 30906 10306 20147 39846 40131 82140 333 58009;EQDQ01  00002PRCP06
0208829860999992003061900004-09400-038220FM-12+0252SBUF V0201401N006212200019N0020001N1+02521+01691101571ADDAA106000091GA1001+999999999GF100991001001999999001001KA1240M+03131MA1999999098701MD1999999+0051REMSYN082AAXX  19004 82986 32995 01412 10252 20169 39870 40157 333 10313 29058 55095 58005;EQDQ01  00002PRCP06
0186829860999992003061912004-09400-038220FM-12+0252SBUF V0201401N003110450019N0100001N1+02461+01971101701ADDAA106000091GF106991031011008001081011KA1240N+02061MA1999999098831MD1999999+0031REMSYN076AAXX  19124 82986 32597 61406 10246 20197 39883 40170 83181 333 20206 58003;EQDQ01  00002PRCP06
0167829860999992003061918004-09400-038220FM-12+0252SBUF V0200901N004110450019N0200001N1+03021+01591101291ADDAA106000091GF106991031021008001091001MA1999999098451MD1999999-0011REMSYN070AAXX  19184 82986 32598 60908 10302 20159 39845 40129 83290 333 59001;EQDQ01  00002PRCP06
0208829860999992003062000004-09400-038220FM-12+0252SBUF V0200901N005112200019N0020001N1+02521+01821101581ADDAA106000091GA1001+999999999GF100991001001999999001001KA1240M+03101MA1999999098721MD1999999+0021REMSYN082AAXX  20004 82986 32995 00910 10252 20182 39872 40158 333 10310 29061 55049 58002;EQDQ01  00002PRCP06
0190829860999992003062012004-09400-038220FM-12+0252SBUF V0200901N002610090019N0040001N1+02211+02101101671ADDAY161061AY251061GF108991081081004501999999KA1240N+02111MA1999999098791MD1999999-0041MW1031REMSYN088AAXX  20124 82986 21496 80905 10221 20210 39879 40167 70365 888// 333 20211 59004 69934;
0167829860999992003062018004-09400-038220FM-12+0252SBUF V0201401N005710450019N0200001N1+02961+01901101221ADDAA106000091GF106991041021008001061001MA1999999098381MD1999999-0071REMSYN070AAXX  20184 82986 32598 61411 10296 20190 39838 40122 84260 333 59007;EQDQ01  00002PRCP06
0198829860999992003062100004-09400-038220FM-12+0252SBUF V0201401N005712200019N0020001N1+02401+01971101571ADDAA106000091GF102991021001017501031001KA1240M+03051MA1999999098681MD1999999-0061REMSYN088AAXX  21004 82986 32795 21411 10240 20197 39868 40157 82030 333 10305 29075 55047 59006;EQDQ01  00002PRCP06
0186829860999992003062112004-09400-038220FM-12+0252SBUF V0201401N002610450019N0100001N1+02421+02051101741ADDAA106000091GF106991041011008001081001KA1240N+02081MA1999999098861MD1999999+0071REMSYN076AAXX  21124 82986 32597 61405 10242 20205 39886 40174 84180 333 20208 58007;EQDQ01  00002PRCP06
0167829860999992003062118004-09400-038220FM-12+0252SBUF V0201401N004110120019N0200001N1+02981+01691101291ADDAA106000091GF106991051051012501061999MA1999999098441MD1999999+0061REMSYN070AAXX  21184 82986 32698 61408 10298 20169 39844 40129 8556/ 333 58006;EQDQ01  00002PRCP06
0186829860999992003062212004-09400-038220FM-12+0252SBUF V0200901N004110075019N0100001N1+02411+01861101661ADDAA106000091GF106991061021008001001001KA1240N+01961MA1999999098781MD1999999-0081REMSYN076AAXX  22124 82986 32597 60908 10241 20186 39878 40166 86200 333 20196 59008;EQDQ01  00002PRCP06
0167829860999992003062318004-09400-038220FM-12+0252SBUF V0201401N004610450019N0200001N1+02981+01551101321ADDAA106000091GF106991021011008001081011MA1999999098461MD1999999+0141REMSYN070AAXX  23184 82986 32598 61409 10298 20155 39846 40132 82181 333 58014;EQDQ01  00002PRCP06
0208829860999992003062400004-09400-038220FM-12+0252SBUF V0201401N004112200019N0020001N1+02471+01921101641ADDAA106000091GA1001+999999999GF100991001001999999001001KA1240M+03101MA1999999098771MD1999999+0231REMSYN082AAXX  24004 82986 32995 01408 10247 20192 39877 40164 333 10310 29065 55100 58023;EQDQ01  00002PRCP06
0186829860999992003062412004-09400-038220FM-12+0252SBUF V0201401N003610042019N0040001N1+02441+02051101791ADDAA106000091GF107991071051004501081001KA1240N+02091MA1999999098911MD1999999+0141REMSYN076AAXX  24124 82986 32496 71407 10244 20205 39891 40179 87580 333 20209 58014;EQDQ01  00002PRCP06
0167829860999992003062418004-09400-038220FM-12+0252SBUF V0201801N003110450019N0200001N1+03011+01971101361ADDAA106000091GF105991021021008001081001MA1999999098511MD1999999+0051REMSYN070AAXX  24184 82986 32598 51806 10301 20197 39851 40136 82280 333 58005;EQDQ01  00002PRCP06
0212829860999992003062500004-09400-038220FM-12+0252SBUF V0201401N003112200019N0020001N1+02221+02081101731ADDAY161061AY221061GA1001+999999999GF100991001001999999001001KA1240M+03051MA1999999098851MD1999999+0081MW1001REMSYN094AAXX  25004 82986 21995 01406 10222 20208 39885 40173 70062 333 10305 29079 55057 58008 60021;
0190829860999992003062512004-09400-038220FM-12+0252SBUF V0201401N003110450019N0040001N1+02361+02131101801ADDAY161061AY221061GF106991041021004501081001KA1240N+02111MA1999999098911MD1999999+0001MW1031REMSYN088AAXX  25124 82986 21496 61406 10236 20213 39891 40180 70362 84280 333 20211 58000 60024;
0167829860999992003062518004-09400-038220FM-12+0252SBUF V0201401N003112200019N0200001N1+03001+01531101351ADDAA106000091GF104991041021008001001001MA1999999098501MD1999999-0011REMSYN070AAXX  25184 82986 32598 41406 10300 20153 39850 40135 84200 333 59001;EQDQ01  00002PRCP06
0198829860999992003062600004-09400-038220FM-12+0252SBUF V0201401N004110150019N0020001N1+02461+01811101661ADDAA106000091GF105991051001017501051001KA1240M+03021MA1999999098781MD1999999-0071REMSYN088AAXX  26004 82986 32795 51408 10246 20181 39878 40166 85050 333 10302 29066 55074 59007;EQDQ01  00002PRCP06
0186829860999992003062612004-09400-038220FM-12+0252SBUF V0201401N004110450019N0100001N1+02501+01841101691ADDAA106000091GF106991041011008001081001KA1240N+02041MA1999999098821MD1999999-0091REMSYN076AAXX  26124 82986 32597 61408 10250 20184 39882 40169 84180 333 20204 59009;EQDQ01  00002PRCP06
0167829860999992003062618004-09400-038220FM-12+0252SBUF V0201401N006212200019N0200001N1+02951+01231101311ADDAA106000091GF104991041011008001001001MA1999999098451MD1999999-0051REMSYN070AAXX  26184 82986 32598 41412 10295 20123 39845 40131 84100 333 59005;EQDQ01  00002PRCP06
0195829860999992003062712004-09400-038220FM-12+0252SBUF V0201401N002110042019N0040001N1+02091+01931101761ADDAA106000021AY151061AY221061GF107991051071004501081001KA1240N+01981MA1999999098851MD1999999+0031MW1201REMSYN082AAXX  27124 82986 31496 71404 10209 20193 39885 40176 72052 85780 333 20198 58003;
0148829860999992003062718004-09400-038220FM-12+0252SBUF V0200901N005110075019N0200001N1+02891+01701101311ADDAA106000021GF106991051021008001061001MA1999999098451MD1999999+0001REMSYN070AAXX  27184 82986 32598 60910 10289 20170 39845 40131 85260 333 58000;
0198829860999992003062800004-09400-038220FM-12+0252SBUF V0201401N005110075019N0020001N1+02331+01871101651ADDAA106000091GF105991051051008001001001KA1240M+02931MA1999999098751MD1999999-0021REMSYN088AAXX  28004 82986 32595 51410 10233 20187 39875 40165 85500 333 10293 29073 55069 59002;EQDQ01  00002PRCP06
0190829860999992003062812004-09400-038220FM-12+0252SBUF V0201401N003610042019N0100001N1+02271+01941101761ADDAY161061AY221061GF108991081071004501999999KA1240N+01981MA1999999098871MD1999999+0021MW1151REMSYN088AAXX  28124 82986 21497 81407 10227 20194 39887 40176 71562 887// 333 20198 58002 60014;
0171829860999992003062818004-09400-038220FM-12+0252SBUF V0201401N004610450019N0100001N1+02611+01961101421ADDAY161061AY251061GF107991041021004501081001MA1999999098541MD1999999+0091MW1031REMSYN082AAXX  28184 82986 21497 71409 10261 20196 39854 40142 70365 84280 333 58009 69971;
0202829860999992003062900004-09400-038220FM-12+0252SBUF V0200901N002610021019N0010001N1+02091+01961101751ADDAY161061AY251061GF107991051071002501081001KA1240M+02671MA1999999098851MD1999999+0101MW1031REMSYN100AAXX  29004 82986 21394 70905 10209 20196 39885 40175 70365 85780 333 10267 29084 55019 58010 69941;
0162829860999992003062912004-09400-038220FM-12+0252SBUF V0201401N003110075019N0200001N1+02471+02011101751ADDGF106991051021008001071001KA1240N+01901MA1999999098861MD1999999-0011REMSYN082AAXX  29124 82986 22598 61406 10247 20201 39886 40175 85270 333 20190 59001 60014;
0167829860999992003062918004-09400-038220FM-12+0252SBUF V0200501N003110450019N0200001N1+02831+01831101351ADDAA106000091GF105991021011008001061001MA1999999098481MD1999999-0061REMSYN070AAXX  29184 82986 32598 50506 10283 20183 39848 40135 82160 333 59006;EQDQ01  00002PRCP06
0186829860999992003063012004-09400-038220FM-12+0252SBUF V0201401N002610450019N0100001N1+02441+01881101821ADDAA106000091GF106991041021008001061001KA1240N+02051MA1999999098931MD1999999+0071REMSYN076AAXX  30124 82986 32597 61405 10244 20188 39893 40182 84260 333 20205 58007;EQDQ01  00002PRCP06
0167829860999992003063018004-09400-038220FM-12+0252SBUF V0201401N004110450019N0100001N1+02891+01571101441ADDAA106000091GF106991041021004501081011MA1999999098581MD1999999+0101REMSYN070AAXX  30184 82986 32497 61408 10289 20157 39858 40144 84281 333 58010;EQDQ01  00002PRCP06
0208829860999992003070100004-09400-038220FM-12+0252SBUF V0201401N003112200019N0020001N1+02391+01781101781ADDAA106000091GA1001+999999999GF100991001001999999001001KA1240M+03061MA1999999098901MD1999999+0151REMSYN082AAXX  01004 82986 32995 01406 10239 20178 39890 40178 333 10306 29064 55055 58015;EQDQ01  00002PRCP06
0186829860999992003070112004-09400-038220FM-12+0252SBUF V0201401N006210450019N0100001N1+02371+01761101841ADDAA106000091GF106991041021004501081011KA1240N+02021MA1999999098961MD1999999+0031REMSYN076AAXX  01124 82986 32497 61412 10237 20176 39896 40184 84281 333 20202 58003;EQDQ01  00002PRCP06
0167829860999992003070118004-09400-038220FM-12+0252SBUF V0201401N006711050019N0100001N1+02791+01091101571ADDAA106000091GF106991031021004501001081MA1999999098701MD1999999+0121REMSYN070AAXX  01184 82986 32497 61413 10279 20109 39870 40157 83208 333 58012;EQDQ01  00002PRCP06
0208829860999992003070200004-09400-038220FM-12+0252SBUF V0201401N002612200019N0020001N1+02291+01461101841ADDAA106000091GA1001+999999999GF100991001001999999001001KA1240M+02951MA1999999098951MD1999999+0051REMSYN082AAXX  02004 82986 32995 01405 10229 20146 39895 40184 333 10295 29056 55047 58005;EQDQ01  00002PRCP06
0186829860999992003070212004-09400-038220FM-12+0252SBUF V0201401N002110450019N0100001N1+02431+01841101811ADDAA106000091GF106991031021004501081001KA1240N+01861MA1999999098921MD1999999-0041REMSYN076AAXX  02124 82986 32497 61404 10243 20184 39892 40181 83280 333 20186 59004;EQDQ01  00002PRCP06
0167829860999992003070218004-09400-038220FM-12+0252SBUF V0201401N005710075019N0200001N1+02771+01661101431ADDAA106000091GF106991051051008001061001MA1999999098551MD1999999-0151REMSYN070AAXX  02184 82986 32598 61411 10277 20166 39855 40143 85560 333 59015;EQDQ01  00002PRCP06
0208829860999992003070300004-09400-038220FM-12+0252SBUF V0201401N002612200019N0020001N1+02291+01881101691ADDAA106000091GA1001+999999999GF100991001001999999001001KA1240M+02911MA1999999098811MD1999999-0141REMSYN082AAXX  03004 82986 32995 01405 10229 20188 39881 40169 333 10291 29070 55040 59014;EQDQ01  00002PRCP06
0214829860999992003070312004-09400-038220FM-12+0252SBUF V0201401N003110450019N0040001N1+02391+01891101741ADDAA106000091AY121061AY221061GF106991031021004501081001KA1240N+02121MA1999999098861MD1999999-0061MW1151REMSYN082AAXX  03124 82986 31496 61406 10239 20189 39886 40174 71522 83280 333 20212 59006;EQDQ01  00002PRCP06
0195829860999992003070318004-09400-038220FM-12+0252SBUF V0201401N004110450019N0200001N1+02751+01871101401ADDAA106000091AY121061AY221061GF106991031021008001081001MA1999999098541MD1999999-0011MW1151REMSYN076AAXX  03184 82986 31598 61408 10275 20187 39854 40140 71522 83280 333 59001;EQDQ01  00002PRCP06
0198829860999992003070400004-09400-038220FM-12+0252SBUF V0200901N005110450019N0020001N1+02311+01941101721ADDAA106000091GF105991031071008001051001KA1240M+02871MA1999999098841MD1999999+0031REMSYN088AAXX  04004 82986 32595 50910 10231 20194 39884 40172 83750 333 10287 29076 55031 58003;EQDQ01  00002PRCP06
0186829860999992003070412004-09400-038220FM-12+0252SBUF V0201401N004112200019N0200001N1+02471+01761101751ADDAA106000091GF103991031011008001001001KA1240N+02021MA1999999098871MD1999999+0111REMSYN076AAXX  04124 82986 32598 31408 10247 20176 39887 40175 83100 333 20202 58011;EQDQ01  00002PRCP06
0167829860999992003070418004-09400-038220FM-12+0252SBUF V0201401N005110450019N0200001N1+02881+01421101321ADDAA106000091GF106991031011008001081001MA1999999098461MD1999999-0081REMSYN070AAXX  04184 82986 32598 61410 10288 20142 39846 40132 83180 333 59008;EQDQ01  00002PRCP06
0198829860999992003070500004-09400-038220FM-12+0252SBUF V0201401N003110450019N0020001N1+02291+01271101551ADDAA106000091GF106991031011008001081001KA1240M+03031MA1999999098681MD1999999-0161REMSYN088AAXX  05004 82986 32595 61406 10229 20127 39868 40155 83180 333 10303 29053 55099 59016;EQDQ01  00002PRCP06
0186829860999992003070512004-09400-038220FM-12+0252SBUF V0201401N004112200019N0200001N1+02391+01361101651ADDAA106000091GF101991011011012501001001KA1240N+01681MA1999999098771MD1999999-0101REMSYN076AAXX  05124 82986 32698 11408 10239 20136 39877 40165 81100 333 20168 59010;EQDQ01  00002PRCP06
0177829860999992003070518004-09400-038220FM-12+0252SBUF V0201401N004112200019N0500001N1+02941+00671101191ADDAA106000091GA1001+999999999GF100991001001999999001001MA1999999098321MD1999999-0141REMSYN064AAXX  05184 82986 32999 01408 10294 20067 39832 40119 333 59014;EQDQ01  00002PRCP06
0208829860999992003070600004-09400-038220FM-12+0252SBUF V0201401N002612200019N0020001N1+02321+01161101481ADDAA106000091GA1001+999999999GF100991001001999999001001KA1240M+03011MA1999999098601MD1999999-0081REMSYN082AAXX  06004 82986 32995 01405 10232 20116 39860 40148 333 10301 29043 55105 59008;EQDQ01  00002PRCP06
0186829860999992003070612004-09400-038220FM-12+0252SBUF V0201401N001510450019N0100001N1+02231+01551101561ADDAA106000091GF106991031011008001081011KA1240N+01621MA1999999098681MD1999999-0091REMSYN076AAXX  06124 82986 32597 61403 10223 20155 39868 40156 83181 333 20162 59009;EQDQ01  00002PRCP06
0167829860999992003070618004-09400-038220FM-12+0252SBUF V0201401N003110450019N0200001N1+02761+01861101281ADDAA106000091GF106991031011008001081001MA1999999098401MD1999999+0081REMSYN070AAXX  06184 82986 32598 61406 10276 20186 39840 40128 83180 333 58008;EQDQ01  00002PRCP06
0186829860999992003070712004-09400-038220FM-12+0252SBUF V0201401N003110450019N0040001N1+02331+01871101721ADDAA106000091GF106991041021004501081001KA1240N+01901MA1999999098831MD1999999+0151REMSYN076AAXX  07124 82986 32496 61406 10233 20187 39883 40172 84280 333 20190 58015;EQDQ01  00002PRCP06
0167829860999992003070718004-09400-038220FM-12+0252SBUF V0200901N005112200019N0200001N1+02971+01291101291ADDAA106000091GF103991031001012501041001MA1999999098431MD1999999+0031REMSYN070AAXX  07184 82986 32698 30910 10297 20129 39843 40129 83040 333 58003;EQDQ01  00002PRCP06
0208829860999992003070800004-09400-038220FM-12+0252SBUF V0201401N006712200019N0020001N1+02391+01501101611ADDAA106000091GA1001+999999999GF100991001001999999001001KA1240M+03021MA1999999098731MD1999999+0031REMSYN082AAXX  08004 82986 32995 01413 10239 20150 39873 40161 333 10302 29057 55092 58003;EQDQ01  00002PRCP06
0186829860999992003070812004-09400-038220FM-12+0252SBUF V0201401N004112200019N0200001N1+02411+01751101781ADDAA106000091GF103991031011008001001001KA1240N+01791MA1999999098901MD1999999+0071REMSYN076AAXX  08124 82986 32598 31408 10241 20175 39890 40178 83100 333 20179 58007;EQDQ01  00002PRCP06
0167829860999992003070818004-09400-038220FM-12+0252SBUF V0201401N006712200019N0200001N1+03051+01321101271ADDAA106000091GF103991031011008001001001MA1999999098411MD1999999-0021REMSYN070AAXX  08184 82986 32598 31413 10305 20132 39841 40127 83100 333 59002;EQDQ01  00002PRCP06
0208829860999992003070900004-09400-038220FM-12+0252SBUF V0201401N005712200019N0020001N1+02411+01631101571ADDAA106000091GA1001+999999999GF100991001001999999001001KA1240M+03101MA1999999098691MD1999999-0041REMSYN082AAXX  09004 82986 32995 01411 10241 20163 39869 40157 333 10310 29057 55103 59004;EQDQ01  00002PRCP06
0186829860999992003070912004-09400-038220FM-12+0252SBUF V0201401N002110450019N0100001N1+02301+01771101641ADDAA106000091GF105991031011008001061001KA1240N+01821MA1999999098761MD1999999-0141REMSYN076AAXX  09124 82986 32597 51404 10230 20177 39876 40164 83160 333 20182 59014;EQDQ01  00002PRCP06
0167829860999992003070918004-09400-038217FM-12+0252SBUF V0201401N004610075019N0200001N1+02871+01291101281ADDAA106000091GF105991051011008001001001MA1999999098411MD1999999+0001REMSYN070AAXX  09184 82986 32598 51409 10287 20129 39841 40128 85100 333 58000;EQDQ01  00002PRCP06
0198829860999992003071000004-09400-038217FM-12+0252SBUF V0200901N004610075019N0020001N1+02441+01611101571ADDAA106000091GF106991061051008001999999KA1240M+02961MA1999999098691MD1999999+0001REMSYN088AAXX  10004 82986 32595 60909 10244 20161 39869 40157 865// 333 10296 29058 55092 58000;EQDQ01  00002PRCP06
0202829860999992003071012004-09400-038217FM-12+0252SBUF V0201401N003619999999N0200001N1+02491+01781101361ADDAA106000091GF105991999041008001011031KA1240N+01981MA1999999098791MD1999999+0031REMSYN076AAXX  10124 82986 32598 51407 10249 20178 39879 40136 88413 333 20198 58003;EQDQ01+000082SCOTLCQ02  00002PRCP06
0167829860999992003071018004-09400-038217FM-12+0252SBUF V0200901N003610450019N0100001N1+02871+01781101341ADDAA106000091GF107991041021004501081001MA1999999098481MD1999999+0071REMSYN070AAXX  10184 82986 32497 70907 10287 20178 39848 40134 84280 333 58007;EQDQ01  00002PRCP06
0198829860999992003071100004-09400-038217FM-12+0252SBUF V0201401N001510450019N0020001N1+02371+01971101521ADDAA106000091GF106991031011008001081001KA1240M+02971MA1999999098651MD1999999-0041REMSYN088AAXX  11004 82986 32595 61403 10237 20197 39865 40152 83180 333 10297 29069 55054 59004;EQDQ01  00002PRCP06
0214829860999992003071112004-09400-038217FM-12+0252SBUF V0201401N005110042019N0100001N1+02461+02011101701ADDAA106000091AY151061AY221061GF107991051021004501081999KA1240N+02021MA1999999098821MD1999999+0031MW1021REMSYN082AAXX  11124 82986 31497 71410 10246 20201 39882 40170 70252 8528/ 333 20202 58003;EQDQ01  00002PRCP06
0167829860999992003071118004-09400-038217FM-12+0252SBUF V0200901N003610450019N0100001N1+02891+01891101331ADDAA106000091GF106991041021004501081001MA1999999098471MD1999999-0011REMSYN070AAXX  11184 82986 32497 60907 10289 20189 39847 40133 84280 333 59001;EQDQ01  00002PRCP06
0202829860999992003071200004-09400-038217FM-12+0252SBUF V0200901N002110060019N0010001N1+02171+02091101671ADDAY161061AY251061GF108991081081002501999999KA1240M+02981MA1999999098781MD1999999+0131MW1031REMSYN100AAXX  12004 82986 21394 80904 10217 20209 39878 40167 70365 888// 333 10298 29098 55039 58013 60021;
0190829860999992003071212004-09400-038217FM-12+0252SBUF V0201401N004610450019N0040001N1+02301+02111101841ADDAY161061AY251061GF107991041021004501081001KA1240N+02061MA1999999098941MD1999999+0121MW1031REMSYN088AAXX  12124 82986 21496 71409 10230 20211 39894 40184 70365 84280 333 20206 58012 60064;
0167829860999992003071218004-09400-038217FM-12+0252SBUF V0201401N006710450019N0200001N1+02961+01501101441ADDAA106000091GF105991031011008001081001MA1999999098581MD1999999+0111REMSYN070AAXX  12184 82986 32598 51413 10296 20150 39858 40144 83180 333 58011;EQDQ01  00002PRCP06
0186829860999992003071312004-09400-038217FM-12+0252SBUF V0201401N004610450019N0040001N1+02351+01911101871ADDAA106000091GF106991041021004501081011KA1240N+02011MA1999999098981MD1999999+0041REMSYN076AAXX  13124 82986 32496 61409 10235 20191 39898 40187 84281 333 20201 58004;EQDQ01  00002PRCP06
0167829860999992003071318004-09400-038217FM-12+0252SBUF V0201401N004112200019N0200001N1+02901+01241101511ADDAA106000091GF104991021011012501031001MA1999999098641MD1999999+0061REMSYN070AAXX  13184 82986 32698 41408 10290 20124 39864 40151 82130 333 58006;EQDQ01  00002PRCP06
0195829860999992003071412004-09400-038217FM-12+0252SBUF V0201401N003110090019N0040001N1+02301+01831101941ADDAA106000021AY121061AY221061GF108991081081004501999999KA1240N+01921MA1999999099051MD1999999+0071MW1501REMSYN082AAXX  14124 82986 31496 81406 10230 20183 39905 40194 75022 888// 333 20192 58007;
0171829860999992003071418004-09400-038217FM-12+0252SBUF V0201401N004610450019N0200001N1+02621+01671101561ADDAY161061AY221061GF106991031021004501051999MA1999999098671MD1999999+0031MW1011REMSYN082AAXX  14184 82986 21498 61409 10262 20167 39867 40156 70162 8325/ 333 58003 60021;
0208829860999992003071500004-09400-038217FM-12+0252SBUF V0201401N005112200019N0020001N1+02231+01711101771ADDAA106000091GA1001+999999999GF100991001001999999001001KA1240M+02741MA1999999098871MD1999999-0071REMSYN082AAXX  15004 82986 32995 01410 10223 20171 39887 40177 333 10274 29069 55025 59007;EQDQ01  00002PRCP06
0162829860999992003071512004-09400-038217FM-12+0252SBUF V0201401N003110450019N0100001N1+02201+01841101881ADDGF106991041021008001061001KA1240N+01721MA1999999098971MD1999999-0081REMSYN082AAXX  15124 82986 22597 61406 10220 20184 39897 40188 84260 333 20172 59008 60024;
0167829860999992003071518004-09400-038217FM-12+0252SBUF V0201401N005710075019N0200001N1+02911+01401101461ADDAA106000091GF105991051011008001001001MA1999999098581MD1999999-0091REMSYN070AAXX  15184 82986 32598 51411 10291 20140 39858 40146 85100 333 59009;EQDQ01  00002PRCP06
0208829860999992003071600004-09400-038217FM-12+0252SBUF V0201401N005712200019N0020001N1+02381+01781101721ADDAA106000091GA1001+999999999GF100991001001999999001001KA1240M+02991MA1999999098831MD1999999-0041REMSYN082AAXX  16004 82986 32995 01411 10238 20178 39883 40172 333 10299 29065 55091 59004;EQDQ01  00002PRCP06
0190829860999992003071612004-09400-038217FM-12+0252SBUF V0200901N002110042019N0040001N1+02181+02101101901ADDAY161061AY221061GF107991061071004501081999KA1240N+01981MA1999999099001MD1999999+0031MW1211REMSYN088AAXX  16124 82986 21496 70904 10218 20210 39900 40190 72162 8678/ 333 20198 58003 69954;
0148829860999992003071618004-09400-038217FM-12+0252SBUF V0201401N006710450019N0200001N1+02951+01721101511ADDAA106000021GF106991041021004501081001MA1999999098651MD1999999+0071REMSYN070AAXX  16184 82986 32498 61413 10295 20172 39865 40151 84280 333 58007;
0208829860999992003071700004-09400-038217FM-12+0252SBUF V0201401N004112200019N0020001N1+02361+01871101801ADDAA106000091GA1001+999999999GF100991001001999999001001KA1240M+02991MA1999999098901MD1999999+0071REMSYN082AAXX  17004 82986 32995 01408 10236 20187 39890 40180 333 10299 29073 55051 58007;EQDQ01  00002PRCP06
0190829860999992003071712004-09400-038217FM-12+0252SBUF V0201401N005110021019N0040001N1+02401+02011101941ADDAY161061AY221061GF106991051071002501071001KA1240N+02031MA1999999099061MD1999999+0061MW1151REMSYN088AAXX  17124 82986 21396 61410 10240 20201 39906 40194 71562 85770 333 20203 58006 69944;
0176829860999992003071718004-09400-038217FM-12+0252SBUF V0201401N006210060019N0040001N1+02211+02101101791ADDAA106000021AY121061AY221061GF108991081081002501999999MA1999999098881MD1999999+0231MW1501REMSYN076AAXX  17184 82986 31396 81412 10221 20210 39888 40179 75022 888// 333 58023;
0189829860999992003071800004-09400-038217FM-12+0252SBUF V0201401N003112200019N0020001N1+02201+01821101951ADDAA106000021GA1001+999999999GF100991001001999999001001KA1240M+02821MA1999999099051MD1999999+0151REMSYN082AAXX  18004 82986 32995 01406 10220 20182 39905 40195 333 10282 29083 55036 58015;
0186829860999992003071812004-09400-038217FM-12+0252SBUF V0201401N003610090019N0040001N1+02211+01881102041ADDAA106000091GF108991081081004501999999KA1240N+01981MA1999999099131MD1999999+0071REMSYN076AAXX  18124 82986 32496 81407 10221 20188 39913 40204 888// 333 20198 58007;EQDQ01  00002PRCP06
0171829860999992003071818004-09400-038217FM-12+0252SBUF V0200901N003112200019N0200001N1+02861+01781101651ADDAY151061AY221061GF103991031011008001001001MA1999999098781MD1999999-0101MW1011REMSYN082AAXX  18184 82986 21598 30906 10286 20178 39878 40165 70152 83100 333 59010 69911;
0208829860999992003071900004-09400-038217FM-12+0252SBUF V0201401N003112200019N0020001N1+02291+02011101951ADDAA106000091GA1001+999999999GF100991001001999999001001KA1240M+02921MA1999999099051MD1999999+0001REMSYN082AAXX  19004 82986 32995 01406 10229 20201 39905 40195 333 10292 29076 55058 58000;EQDQ01  00002PRCP06
0190829860999992003071912004-09400-038217FM-12+0252SBUF V0201401N005110090019N0020001N1+02231+02081102131ADDAY161061AY251061GF108991081081004501999999KA1240N+02011MA1999999099221MD1999999+0091MW1151REMSYN088AAXX  19124 82986 21495 81410 10223 20208 39922 40213 71565 888// 333 20201 58009 60014;
0171829860999992003071918004-09400-038217FM-12+0252SBUF V0201401N004110090019N0040001N1+02201+01951101921ADDAY161061AY251061GF108991081081004501999999MA1999999099001MD1999999+0221MW1031REMSYN082AAXX  19184 82986 21496 81408 10220 20195 39900 40192 70365 888// 333 58022 60031;
0190829860999992003072012004-09400-038217FM-12+0252SBUF V0201401N002110090019N0020001N1+02071+02011102011ADDAY161061AY251061GF108991081081004501999999KA1240N+01771MA1999999099091MD1999999-0131MW1151REMSYN088AAXX  20124 82986 21495 81404 10207 20201 39909 40201 71565 888// 333 20177 59013 60034;
0171829860999992003072018004-09400-038217FM-12+0252SBUF V0201401N005110021019N0100001N1+02391+01841101741ADDAY161061AY251061GF107991051071002501081999MA1999999098831MD1999999-0171MW1151REMSYN082AAXX  20184 82986 21397 71410 10239 20184 39883 40174 71565 8578/ 333 59017 60031;
0190829860999992003072112004-09400-038217FM-12+0252SBUF V0200901N001010450019N0040001N1+02061+01841101961ADDAY161061AY251061GF106991031071004501081001KA1240N+01771MA1999999099041MD1999999-0051MW1031REMSYN088AAXX  21124 82986 21496 60902 10206 20184 39904 40196 70365 83780 333 20177 59005 60034;
0195829860999992003072118004-09400-038217FM-12+0252SBUF V0201401N004610450019N0100001N1+02721+01791101601ADDAA106000091AY121061AY221061GF106991041071004501061001MA1999999098711MD1999999-0121MW1151REMSYN076AAXX  21184 82986 31497 61409 10272 20179 39871 40160 71522 84760 333 59012;EQDQ01  00002PRCP06
0198829860999992003072200004-09400-038217FM-12+0252SBUF V0201401N00461045001CN0020001N1+02341+01851101871ADDAA106000091GF106991021041008001051999KA1240M+02801MA1999999098961MD1999999-0051REMSYN088AAXX  22004 82986 32595 61409 10234 20185 39896 40187 8245/ 333 10280 29073 55046 59005;EQDQ01  00002PRCP06
0186829860999992003072212004-09400-038217FM-12+0252SBUF V0201401N005110042019N0100001N1+02371+01871101971ADDAA106000091GF106991051021004501061001KA1240N+01921MA1999999099081MD1999999+0041REMSYN076AAXX  22124 82986 32497 61410 10237 20187 39908 40197 85260 333 20192 58004;EQDQ01  00002PRCP06
0167829860999992003072218004-09400-038217FM-12+0252SBUF V0201401N001010450019N0100001N1+02701+01661101621ADDAA106000091GF106991031011008001081001MA1999999098741MD1999999+0031REMSYN070AAXX  22184 82986 32597 61402 10270 20166 39874 40162 83180 333 58003;EQDQ01  00002PRCP06
0208829860999992003072300004-09400-038217FM-12+0252SBUF V0201401N004112200019N0020001N1+02241+01841101801ADDAA106000091GA1001+999999999GF100991001001999999001001KA1240M+02821MA1999999098911MD1999999-0051REMSYN082AAXX  23004 82986 32995 01408 10224 20184 39891 40180 333 10282 29071 55044 59005;EQDQ01  00002PRCP06
0190829860999992003072312004-09400-038217FM-12+0252SBUF V0201401N005110075019N0200001N1+02471+01941101851ADDAY161061AY221061GF106991061021008001001001KA1240N+01981MA1999999098961MD1999999-0121MW1011REMSYN088AAXX  23124 82986 21598 61410 10247 20194 39896 40185 70162 86200 333 20198 59012 60024;
0167829860999992003072318004-09400-038217FM-12+0252SBUF V0201401N006710450019N0200001N1+02911+01721101491ADDAA106000091GF106991031011008001081001MA1999999098621MD1999999-0121REMSYN070AAXX  23184 82986 32598 61413 10291 20172 39862 40149 83180 333 59012;EQDQ01  00002PRCP06
0198829860999992003072400004-09400-038217FM-12+0252SBUF V0201401N001510450019N0020001N1+02261+01621101801ADDAA106000091GF106991041021004501081011KA1240M+02981MA1999999098911MD1999999+0001REMSYN088AAXX  24004 82986 32495 61403 10226 20162 39891 40180 84281 333 10298 29064 55094 58000;EQDQ01  00002PRCP06
0190829860999992003072412004-09400-038217FM-12+0252SBUF V0201401N004610450019N0040001N1+02271+01921101851ADDAY161061AY251061GF106991041021004501081011KA1240N+01921MA1999999098951MD1999999-0011MW1031REMSYN088AAXX  24124 82986 21496 61409 10227 20192 39895 40185 70365 84281 333 20192 59001 69984;
0167829860999992003072418004-09400-038217FM-12+0252SBUF V0201401N004612200019N0200001N1+03071+01621101381ADDAA106000091GF104991041021008001001001MA1999999098531MD1999999-0091REMSYN070AAXX  24184 82986 32598 41409 10307 20162 39853 40138 84200 333 59009;EQDQ01  00002PRCP06
0198829860999992003072500004-09400-038217FM-12+0252SBUF V0201401N003610450019N0020001N1+02371+02051101781ADDAA106000091GF106991031021012501081001KA1240M+03101MA1999999098891MD1999999-0021REMSYN088AAXX  25004 82986 32695 61407 10237 20205 39889 40178 83280 333 10310 29072 55073 59002;EQDQ01  00002PRCP06
0190829860999992003072512004-09400-038217FM-12+0252SBUF V0201401N005710450019N0040001N1+02371+01991101921ADDAY161061AY251061GF106991041021004501081001KA1240N+02041MA1999999099031MD1999999+0081MW1031REMSYN088AAXX  25124 82986 21496 61411 10237 20199 39903 40192 70365 84280 333 20204 58008 60024;
0167829860999992003072518004-09400-038217FM-12+0252SBUF V0201401N003110450019N0200001N1+02881+01601101521ADDAA106000091GF105991031021008001081001MA1999999098661MD1999999+0131REMSYN070AAXX  25184 82986 32598 51406 10288 20160 39866 40152 83280 333 58013;EQDQ01  00002PRCP06
0198829860999992003072600004-09400-038217FM-12+0252SBUF V0201401N003619999999N0020001N1+02371+01931101891ADDAA106000091GF105991051001012501061001KA1240M+03021MA1999999099001MD1999999+0111REMSYN088AAXX  26004 82986 32695 51407 10237 20193 39900 40189 85060 333 10302 29070 55072 58011;EQDQ01  00002PRCP06
0190829860999992003072612004-09400-038217FM-12+0252SBUF V0201801N004110090019N0040001N1+02261+02031102001ADDAY161061AY251061GF108991081081004501999999KA1240N+02081MA1999999099101MD1999999+0071MW1151REMSYN088AAXX  26124 82986 21496 81808 10226 20203 39910 40200 71565 888// 333 20208 58007 69954;
0171829860999992003072618004-09400-038217FM-12+0252SBUF V0201401N004110042019N0100001N1+02261+02031101741ADDAY161061AY221061GF107991051021004501081999MA1999999098841MD1999999+0181MW1801REMSYN082AAXX  26184 82986 21497 71408 10226 20203 39884 40174 78062 8528/ 333 58018 60011;
0189829860999992003072700004-09400-038217FM-12+0252SBUF V0201401N004612200019N0020001N1+02261+01881101911ADDAA106000021GA1001+999999999GF100991001001999999001001KA1240M+02811MA1999999099011MD1999999+0011REMSYN082AAXX  27004 82986 32995 01409 10226 20188 39901 40191 333 10281 29082 55026 58001;
0190829860999992003072712004-09400-038217FM-12+0252SBUF V0200901N005110450019N0040001N1+02251+01901101971ADDAY161061AY251061GF106991031021004501081001KA1240N+01941MA1999999099071MD1999999-0031MW1031REMSYN088AAXX  27124 82986 21496 60910 10225 20190 39907 40197 70365 83280 333 20194 59003 60024;
0171829860999992003072718004-09400-038217FM-12+0252SBUF V0200901N004110450019N0200001N1+02791+01731101561ADDAY151061AY221061GF106991041021008001051001MA1999999098681MD1999999-0161MW1021REMSYN082AAXX  27184 82986 21598 60908 10279 20173 39868 40156 70252 84250 333 59016 69951;
0208829860999992003072800004-09400-038217FM-12+0252SBUF V0201401N003612200019N0020001N1+02251+01691101841ADDAA106000091GA1001+999999999GF100991001001999999001001KA1240M+02811MA1999999098941MD1999999-0071REMSYN082AAXX  28004 82986 32995 01407 10225 20169 39894 40184 333 10281 29069 55044 59007;EQDQ01  00002PRCP06
0190829860999992003072812004-09400-038217FM-12+0252SBUF V0201401N003110042019N0100001N1+02201+01971101951ADDAY151061AY221061GF107991051071004501081999KA1240N+01901MA1999999099041MD1999999-0031MW1151REMSYN088AAXX  28124 82986 21497 71406 10220 20197 39904 40195 71552 8578/ 333 20190 59003 69964;
0167829860999992003072818004-09400-038217FM-12+0252SBUF V0201401N004610450019N0200001N1+02851+01791101501ADDAA106000091GF106991031011008001081021MA1999999098631MD1999999-0051REMSYN070AAXX  28184 82986 32598 61409 10285 20179 39863 40150 83182 333 59005;EQDQ01  00002PRCP06
0208829860999992003072900004-09400-038217FM-12+0252SBUF V0201401N004112200019N0020001N1+02331+01791101851ADDAA106000091GA1001+999999999GF100991001001999999001001KA1240M+02911MA1999999098951MD1999999+0011REMSYN082AAXX  29004 82986 32995 01408 10233 20179 39895 40185 333 10291 29071 55051 58001;EQDQ01  00002PRCP06
0186829860999992003072912004-09400-038217FM-12+0252SBUF V0201401N005110042019N0100001N1+02391+01841102021ADDAA106000091GF106991051021004501001021KA1240N+02001MA1999999099131MD1999999+0091REMSYN076AAXX  29124 82986 32497 61410 10239 20184 39913 40202 85202 333 20200 58009;EQDQ01  00002PRCP06
0167829860999992003072918004-09400-038217FM-12+0252SBUF V0201401N004610450019N0200001N1+02911+01551101531ADDAA106000091GF106991031011008001081011MA1999999098671MD1999999+0041REMSYN070AAXX  29184 82986 32598 61409 10291 20155 39867 40153 83181 333 58004;EQDQ01  00002PRCP06
0208829860999992003073000004-09400-038217FM-12+0252SBUF V0201401N004112200019N0020001N1+02371+01661101861ADDAA106000091GA1001+999999999GF100991001001999999001001KA1240M+03001MA1999999098981MD1999999+0031REMSYN082AAXX  30004 82986 32995 01408 10237 20166 39898 40186 333 10300 29061 55088 58003;EQDQ01  00002PRCP06
0186829860999992003073012004-09400-038217FM-12+0252SBUF V0201401N002110450019N0040001N1+02191+01781101951ADDAA106000091GF106991041021004501081001KA1240N+01711MA1999999099051MD1999999-0081REMSYN076AAXX  30124 82986 32496 61404 10219 20178 39905 40195 84280 333 20171 59008;EQDQ01  00002PRCP06
0167829860999992003073018004-09400-038217FM-12+0252SBUF V0201401N003112200019N0200001N1+03001+01371101491ADDAA106000091GF105991041021008001001011MA1999999098621MD1999999-0051REMSYN070AAXX  30184 82986 32598 51406 10300 20137 39862 40149 84201 333 59005;EQDQ01  00002PRCP06
0208829860999992003073100004-09400-038217FM-12+0252SBUF V0201401N005712200019N0020001N1+02321+01811101841ADDAA106000091GA1001+999999999GF100991001001999999001001KA1240M+03031MA1999999098941MD1999999-0041REMSYN082AAXX  31004 82986 32995 01411 10232 20181 39894 40184 333 10303 29065 55089 59004;EQDQ01  00002PRCP06
0186829860999992003073112004-09400-038217FM-12+0252SBUF V0201401N003610450019N0040001N1+02261+01731101831ADDAA106000091GF106991031011008001081001KA1240N+01851MA1999999098941MD1999999-0111REMSYN076AAXX  31124 82986 32596 61407 10226 20173 39894 40183 83180 333 20185 59011;EQDQ01  00002PRCP06
0167829860999992003073118004-09400-038217FM-12+0252SBUF V0201401N003111050019N0200001N1+02951+01481101371ADDAA106000091GF105991021011008001061011MA1999999098511MD1999999-0111REMSYN070AAXX  31184 82986 32598 51406 10295 20148 39851 40137 82161 333 59011;EQDQ01  00002PRCP06
0208829860999992003080100004-09400-038217FM-12+0252SBUF V0201401N005112200019N0020001N1+02331+01721101691ADDAA106000091GA1001+999999999GF100991001001999999001001KA1240M+03041MA1999999098801MD1999999-0141REMSYN082AAXX  01004 82986 32995 01410 10233 20172 39880 40169 333 10304 29063 55090 59014;EQDQ01  00002PRCP06
0186829860999992003080112004-09400-038217FM-12+0252SBUF V0201401N004110450019N0100001N1+02431+01821101871ADDAA106000091GF105991021011008001061051KA1240N+01881MA1999999098961MD1999999+0051REMSYN076AAXX  01124 82986 32597 51408 10243 20182 39896 40187 82165 333 20188 58005;EQDQ01  00002PRCP06
0110829860999992003080118004-09400-038217FM-12+0252SBUF V0201401N004619999999N0200001N1+02951+01441999999ADDAA106000091GF106991999999008001999999REMSYN042AAXX  01184 82986 32598 61409 10295 20144;EQDQ01  00002PRCP06
0208829860999992003080200004-09400-038217FM-12+0252SBUF V0201401N005112200019N0020001N1+02361+01461101781ADDAA106000091GA1001+999999999GF100991001001999999001001KA1240M+03041MA1999999098901MD1999999+0101REMSYN082AAXX  02004 82986 32995 01410 10236 20146 39890 40178 333 10304 29056 55078 58010;EQDQ01  00002PRCP06
0186829860999992003080212004-09400-038217FM-12+0252SBUF V0201401N003110450019N0040001N1+02341+01761101931ADDAA106000091GF106991031011004501081001KA1240N+01771MA1999999099041MD1999999+0081REMSYN076AAXX  02124 82986 32496 61406 10234 20176 39904 40193 83180 333 20177 58008;EQDQ01  00002PRCP06
0167829860999992003080218004-09400-038217FM-12+0252SBUF V0201401N005110450019N0200001N1+02891+01531101551ADDAA106000091GF105991041021008001041001MA1999999098671MD1999999+0111REMSYN070AAXX  02184 82986 32598 51410 10289 20153 39867 40155 84240 333 58011;EQDQ01  00002PRCP06
0186829860999992003080312004-09400-038217FM-12+0252SBUF V0201401N005710075019N0100001N1+02431+01791101921ADDAA106000091GF106991061021008001001001KA1240N+01861MA1999999099041MD1999999+0001REMSYN076AAXX  03124 82986 32597 61411 10243 20179 39904 40192 86200 333 20186 58000;EQDQ01  00002PRCP06
0167829860999992003080318004-09400-038217FM-12+0252SBUF V0200401N006710042019N0100001N1+02651+01691101641ADDAA106000091GF107991051071004501081001MA1999999098751MD1999999+0071REMSYN070AAXX  03184 82986 32497 70413 10265 20169 39875 40164 85780 333 58007;EQDQ01  00002PRCP06
0214829860999992003080412004-09400-038217FM-12+0252SBUF V0201401N005710042019N0100001N1+02351+01871101841ADDAA106000091AY151061AY221061GF106991051021004501081001KA1240N+01821MA1999999098951MD1999999-0091MW1021REMSYN082AAXX  04124 82986 31497 61411 10235 20187 39895 40184 70252 85280 333 20182 59009;EQDQ01  00002PRCP06
0167829860999992003080418004-09400-038217FM-12+0252SBUF V0201401N005110450019N0100001N1+02741+01731101461ADDAA106000091GF106991041021004501081001MA1999999098581MD1999999-0171REMSYN070AAXX  04184 82986 32497 61410 10274 20173 39858 40146 84280 333 59017;EQDQ01  00002PRCP06
0208829860999992003080500004-09400-038217FM-12+0252SBUF V0201401N005112200019N0020001N1+02291+01751101711ADDAA106000091GA1001+999999999GF100991001001999999001001KA1240M+02881MA1999999098821MD1999999-0091REMSYN082AAXX  05004 82986 32995 01410 10229 20175 39882 40171 333 10288 29068 55048 59009;EQDQ01  00002PRCP06
0186829860999992003080512004-09400-038217FM-12+0252SBUF V0201401N003110042019N0040001N1+02291+01831101771ADDAA106000091GF107991051071004501081001KA1240N+01951MA1999999098881MD1999999-0071REMSYN076AAXX  05124 82986 32496 71406 10229 20183 39888 40177 85780 333 20195 59007;EQDQ01  00002PRCP06
0167829860999992003080518004-09400-038217FM-12+0252SBUF V0201401N005712200019N0200001N1+02991+01621101301ADDAA106000091GF104991041011008001001001MA1999999098441MD1999999-0141REMSYN070AAXX  05184 82986 32598 41411 10299 20162 39844 40130 84100 333 59014;EQDQ01  00002PRCP06
0208829860999992003080600004-09400-038217FM-12+0252SBUF V0201401N005712200019N0020001N1+02371+01801101731ADDAA106000091GA1001+999999999GF100991001001999999001001KA1240M+03061MA1999999098851MD1999999+0031REMSYN082AAXX  06004 82986 32995 01411 10237 20180 39885 40173 333 10306 29066 55074 58003;EQDQ01  00002PRCP06
0162829860999992003080612004-09400-038217FM-12+0252SBUF V0200901N003110042019N0040001N1+02261+01981101881ADDGF107991051021004501081001KA1240N+01981MA1999999098991MD1999999+0111REMSYN082AAXX  06124 82986 22496 70906 10226 20198 39899 40188 85280 333 20198 58011 69914;
0171829860999992003080618004-09400-038217FM-12+0252SBUF V0201401N005110450019N0100001N1+02261+02121101601ADDAY161061AY251061GF106991041021004501081999MA1999999098691MD1999999+0251MW1601REMSYN082AAXX  06184 82986 21497 61410 10226 20212 39869 40160 76065 8428/ 333 58025 60031;
0179829860999992003080700004-09400-038217FM-12+0252SBUF V0201401N003610090019N0020001N1+02131+01891101821ADDAA106000021GF108991081081004501999999KA1240M+02711MA1999999098911MD1999999+0061REMSYN088AAXX  07004 82986 32495 81407 10213 20189 39891 40182 888// 333 10271 29088 55036 58006;
0162829860999992003080712004-09400-038217FM-12+0252SBUF V0201401N004110090019N0100001N1+02261+01881101871ADDGF108991051081004501999021KA1240N+01881MA1999999098961MD1999999-0031REMSYN082AAXX  07124 82986 22497 81408 10226 20188 39896 40187 858/2 333 20188 59003 60034;
0167829860999992003080718004-09400-038217FM-12+0252SBUF V0201401N004612200019N0200001N1+02861+01811101421ADDAA106000091GF104991041021008001001001MA1999999098551MD1999999-0141REMSYN070AAXX  07184 82986 32598 41409 10286 20181 39855 40142 84200 333 59014;EQDQ01  00002PRCP06
0198829860999992003080800004-09400-038217FM-12+0252SBUF V0201401N005110450019N0020001N1+02251+01881101731ADDAA106000091GF105991011011008001051001KA1240M+02921MA1999999098831MD1999999-0081REMSYN088AAXX  08004 82986 32595 51410 10225 20188 39883 40173 81150 333 10292 29073 55070 59008;EQDQ01  00002PRCP06
0186829860999992003080812004-09400-038217FM-12+0252SBUF V0201401N005110450019N0100001N1+02431+01881101801ADDAA106000091GF106991041021004501081001KA1240N+02021MA1999999098911MD1999999-0051REMSYN076AAXX  08124 82986 32497 61410 10243 20188 39891 40180 84280 333 20202 59005;EQDQ01  00002PRCP06
0167829860999992003080818004-09400-038217FM-12+0252SBUF V0201401N004612200019N0200001N1+03011+01411101281ADDAA106000091GF104991041011008001001001MA1999999098431MD1999999-0121REMSYN070AAXX  08184 82986 32598 41409 10301 20141 39843 40128 84100 333 59012;EQDQ01  00002PRCP06
0198829860999992003080900004-09400-038217FM-12+0252SBUF V0200901N007212200019N0020001N1+02351+01721101751ADDAA106000091GF101991011011012501001001KA1240M+03091MA1999999098871MD1999999+0041REMSYN088AAXX  09004 82986 32695 10914 10235 20172 39887 40175 81100 333 10309 29062 55086 58004;EQDQ01  00002PRCP06
0186829860999992003080912004-09400-038217FM-12+0252SBUF V0201401N004610450019N0100001N1+02441+01901101911ADDAA106000091GF106991041021008001061001KA1240N+01721MA1999999099031MD1999999+0121REMSYN076AAXX  09124 82986 32597 61409 10244 20190 39903 40191 84260 333 20172 58012;EQDQ01  00002PRCP06
0167829860999992003080918004-09400-038217FM-12+0252SBUF V0201401N004610450019N0200001N1+02851+01931101471ADDAA106000091GF106991031011008001081011MA1999999098621MD1999999+0291REMSYN070AAXX  09184 82986 32598 61409 10285 20193 39862 40147 83181 333 58029;EQDQ01  00002PRCP06
0186829860999992003081012004-09400-038217FM-12+0252SBUF V0200901N004610075019N0100001N1+02401+01841101911ADDAA106000091GF106991061021008001001001KA1240N+02021MA1999999099011MD1999999-0021REMSYN076AAXX  10124 82986 32597 60909 10240 20184 39901 40191 86200 333 20202 59002;EQDQ01  00002PRCP06
0167829860999992003081018004-09400-038217FM-12+0252SBUF V0201401N003612200019N0200001N1+02931+01641101481ADDAA106000091GF103991011011008001061001MA1999999098621MD1999999+0001REMSYN070AAXX  10184 82986 32598 31407 10293 20164 39862 40148 81160 333 58000;EQDQ01  00002PRCP06
0186829860999992003081112004-09400-038217FM-12+0252SBUF V0201401N003110450019N0100001N1+02421+01931101831ADDAA106000091GF106991031011008001081001KA1240N+01991MA1999999098951MD1999999-0061REMSYN076AAXX  11124 82986 32597 61406 10242 20193 39895 40183 83180 333 20199 59006;EQDQ01  00002PRCP06
0167829860999992003081118004-09400-038217FM-12+0252SBUF V0200901N003610450019N0200001N1+03041+01711101311ADDAA106000091GF105991031011008001081001MA1999999098461MD1999999-0161REMSYN070AAXX  11184 82986 32598 50907 10304 20171 39846 40131 83180 333 59016;EQDQ01  00002PRCP06
0198829860999992003081200004-09400-038217FM-12+0252SBUF V0201401N004112200019N0020001N1+02401+01971101711ADDAA106000091GF103991031051012501001001KA1240M+03121MA1999999098831MD1999999+0021REMSYN088AAXX  12004 82986 32695 31408 10240 20197 39883 40171 83500 333 10312 29068 55069 58002;EQDQ01  00002PRCP06
0186829860999992003081212004-09400-038217FM-12+0252SBUF V0201401N003110450019N0040001N1+02391+01911101861ADDAA106000091GF106991041021004501081011KA1240N+02121MA1999999098981MD1999999+0031REMSYN076AAXX  12124 82986 32496 61406 10239 20191 39898 40186 84281 333 20212 58003;EQDQ01  00002PRCP06
0167829860999992003081218004-09400-038217FM-12+0252SBUF V0201401N004610450019N0200001N1+02911+01841101411ADDAA106000091GF105991031021008001061001MA1999999098561MD1999999+0101REMSYN070AAXX  12184 82986 32598 51409 10291 20184 39856 40141 83260 333 58010;EQDQ01  00002PRCP06
0096829860999992003081300004-09400-038217FM-12+0252SBUF V02099999999999999999N9999999N1+99999+99999999999REMSYN087AAXX  13004 82986 32595 3406 10235 20181 39890 40179 83400 333 10301 29068 55063 58007;
0214829860999992003081312004-09400-038217FM-12+0252SBUF V0201401N003110042019N0040001N1+02271+01921101901ADDAA106000091AY111061AY221061GF107991051021004501081001KA1240N+02041MA1999999099001MD1999999-0021MW1151REMSYN082AAXX  13124 82986 31496 71406 10227 20192 39900 40190 71512 85280 333 20204 59002;EQDQ01  00002PRCP06
0171829860999992003081318004-09400-038217FM-12+0252SBUF V0201401N003610075019N0200001N1+03011+01681101381ADDAY151061AY221061GF106991061021008001001001MA1999999098531MD1999999-0031MW1021REMSYN082AAXX  13184 82986 21598 61407 10301 20168 39853 40138 70252 86200 333 59003 69921;
0208829860999992003081400004-09400-038217FM-12+0252SBUF V0201401N004612200019N0020001N1+02381+01681101781ADDAA106000091GA1001+999999999GF100991001001999999001001KA1240M+03051MA1999999098891MD1999999-0011REMSYN082AAXX  14004 82986 32995 01409 10238 20168 39889 40178 333 10305 29064 55045 59001;EQDQ01  00002PRCP06
0184829860999992003081412004-09400-038217FM-12+0252SBUF V0201401N003110450019N0040001N1+02221+01971101911ADDAY161061AY221061GF106991041021004501081011KA1240N+01941MA1999999099011MD1999999+0011MW1211REMSYN082AAXX  14124 82986 21496 61406 10222 20197 39901 40191 72162 84281 333 20194 58001;
0148829860999992003081418004-09400-038217FM-12+0252SBUF V0201401N004110450019N0200001N1+02911+01651101401ADDAA106000021GF105991041011008001041051MA1999999098541MD1999999+0011REMSYN070AAXX  14184 82986 32598 51408 10291 20165 39854 40140 84145 333 58001;
0198829860999992003081500004-09400-038217FM-12+0252SBUF V0201401N005712200019N0020001N1+02391+01801101701ADDAA106000091GF104991041021008001001001KA1240M+02991MA1999999098811MD1999999-0081REMSYN088AAXX  15004 82986 32595 41411 10239 20180 39881 40170 84200 333 10299 29068 55055 59008;EQDQ01  00002PRCP06
0186829860999992003081512004-09400-038217FM-12+0252SBUF V0201401N003110042019N0100001N1+02351+01911101831ADDAA106000091GF106991051021004501081999KA1240N+01981MA1999999098941MD1999999-0071REMSYN076AAXX  15124 82986 32497 61406 10235 20191 39894 40183 8528/ 333 20198 59007;EQDQ01  00002PRCP06
0167829860999992003081518004-09400-038217FM-12+0252SBUF V0201401N003110450019N0200001N1+02921+01801101561ADDAA106000091GF106991031011008001081001MA1999999098501MD1999999-0041REMSYN070AAXX  15184 82986 32598 61406 10292 20180 39850 40156 83180 333 59004;EQDQ01  00002PRCP06
0198829860999992003081600004-09400-038217FM-12+0252SBUF V0201401N003610450019N0010001N1+02321+01981101701ADDAA106000091GF106991031011004501081001KA1240M+02961MA1999999098821MD1999999+0011REMSYN088AAXX  16004 82986 32494 61407 10232 20198 39882 40170 83180 333 10296 29072 55047 58001;EQDQ01  00002PRCP06
0186829860999992003081612004-09400-038217FM-12+0252SBUF V0200901N002610042019N0100001N1+02351+01951101721ADDAA106000091GF108991081051004501999999KA1240N+02061MA1999999098841MD1999999-0101REMSYN076AAXX  16124 82986 32497 80905 10235 20195 39884 40172 885// 333 20206 59010;EQDQ01  00002PRCP06
0167829860999992003081618004-09400-038217FM-12+0252SBUF V0201401N003610450019N0200001N1+03091+01841101211ADDAA106000091GF105991021011008001081001MA1999999098371MD1999999-0131REMSYN070AAXX  16184 82986 32598 51407 10309 20184 39837 40121 82180 333 59013;EQDQ01  00002PRCP06
0186829860999992003081712004-09400-038217FM-12+0252SBUF V0201401N001511050019N0100001N1+02481+01981101681ADDAA106000091GF105991021011008001081011KA1240N+02081MA1999999098811MD1999999-0031REMSYN076AAXX  17124 82986 32597 51403 10248 20198 39881 40168 82181 333 20208 59003;EQDQ01  00002PRCP06
0167829860999992003081718004-09400-038217FM-12+0252SBUF V0202301N001512200019N0500001N1+03291+01661101201ADDAA106000091GF104991021011008001001091MA1999999098371MD1999999+0001REMSYN070AAXX  17184 82986 32599 42303 10329 20166 39837 40120 82109 333 58000;EQDQ01  00002PRCP06
0186829860999992003081812004-09400-038217FM-12+0252SBUF V0201401N005110450019N0040001N1+02431+01821101921ADDAA106000091GF107991041021004501081001KA1240N+02161MA1999999099051MD1999999+0241REMSYN076AAXX  18124 82986 32496 71410 10243 20182 39905 40192 84280 333 20216 58024;EQDQ01  00002PRCP06
0167829860999992003081818004-09400-038217FM-12+0252SBUF V0201401N005110450019N0200001N1+03041+01491101551ADDAA106000091GF106991031021008001081001MA1999999098701MD1999999+0331REMSYN070AAXX  18184 82986 32598 61410 10304 20149 39870 40155 83280 333 58033;EQDQ01  00002PRCP06
0208829860999992003081900004-09400-038217FM-12+0252SBUF V0201401N006712200019N0020001N1+02431+01651101901ADDAA106000091GA1001+999999999GF100991001001999999001001KA1240M+03131MA1999999099021MD1999999+0341REMSYN082AAXX  19004 82986 32995 01413 10243 20165 39902 40190 333 10313 29058 55090 58034;EQDQ01  00002PRCP06
0195829860999992003081912004-09400-038217FM-12+0252SBUF V0201401N005710450019N0100001N1+02551+01831102061ADDAA106000021AY151061AY221061GF106991031021008001081011KA1240N+02001MA1999999099181MD1999999+0131MW1201REMSYN082AAXX  19124 82986 31597 61411 10255 20183 39918 40206 72052 83281 333 20200 58013;
0148829860999992003081918004-09400-038217FM-12+0252SBUF V0201401N006710075019N0200001N1+03051+01571101591ADDAA106000021GF106991061021008001001021MA1999999098741MD1999999+0041REMSYN070AAXX  19184 82986 32598 61413 10305 20157 39874 40159 86202 333 58004;
0198829860999992003082000004-09400-038217FM-12+0252SBUF V0201401N005110075019N0020001N1+02451+01791101971ADDAA106000091GF106991061051008001001001KA1240M+03141MA1999999099091MD1999999+0071REMSYN088AAXX  20004 82986 32595 61410 10245 20179 39909 40197 86500 333 10314 29060 55077 58007;EQDQ01  00002PRCP06
0190829860999992003082012004-09400-038217FM-12+0252SBUF V0201401N003110060019N0010001N1+02101+02031101961ADDAY161061AY261061GF108991081081002501999999KA1240N+02001MA1999999099071MD1999999-0111MW1611REMSYN088AAXX  20124 82986 21394 81406 10210 20203 39907 40196 76166 888// 333 20200 59011 60044;
0171829860999992003082018004-09400-038217FM-12+0252SBUF V0201401N006210060019N0040001N1+02451+02151101581ADDAY161061AY261061GF107991071081002501999999MA1999999098681MD1999999-0061MW1501REMSYN082AAXX  20184 82986 21396 71412 10245 20215 39868 40158 75066 878// 333 59006 60031;
0202829860999992003082100004-09400-038217FM-12+0252SBUF V0201401N003110060019N0020001N1+02131+02041101841ADDAY161061AY251061GF108991081081002501999999KA1240M+02501MA1999999098921MD1999999-0071MW1211REMSYN100AAXX  21004 82986 21395 81406 10213 20204 39892 40184 72165 888// 333 10250 29093 55001 59007 69991;
0190829860999992003082112004-09400-038217FM-12+0252SBUF V0201401N003610075019N0100001N1+02391+01891101791ADDAY161061AY221061GF106991051021008001061001KA1240N+02021MA1999999098891MD1999999-0181MW1021REMSYN088AAXX  21124 82986 21597 61407 10239 20189 39889 40179 70262 85260 333 20202 59018 60054;
0167829860999992003082118004-09400-038217FM-12+0252SBUF V0201401N005110450019N0200001N1+02941+01401101311ADDAA106000091GF105991021011008001081001MA1999999098451MD1999999-0231REMSYN070AAXX  21184 82986 32598 51410 10294 20140 39845 40131 82180 333 59023;EQDQ01  00002PRCP06
0208829860999992003082200004-09400-038217FM-12+0252SBUF V0201401N003612200019N0020001N1+02321+01721101591ADDAA106000091GA1001+999999999GF100991001001999999001001KA1240M+02991MA1999999098711MD1999999-0211REMSYN082AAXX  22004 82986 32995 01407 10232 20172 39871 40159 333 10299 29063 55094 59021;EQDQ01  00002PRCP06
0186829860999992003082212004-09400-038217FM-12+0252SBUF V0200901N005110075019N0100001N1+02391+01821101821ADDAA106000091GF106991051021008001061001KA1240N+01981MA1999999098931MD1999999+0041REMSYN076AAXX  22124 82986 32597 60910 10239 20182 39893 40182 85260 333 20198 58004;EQDQ01  00002PRCP06
0167829860999992003082218004-09400-038217FM-12+0252SBUF V0201401N004610450019N0100001N1+03001+01531101311ADDAA106000091GF106991031011008001081001MA1999999098451MD1999999+0001REMSYN070AAXX  22184 82986 32597 61409 10300 20153 39845 40131 83180 333 58000;EQDQ01  00002PRCP06
0208829860999992003082300004-09400-038217FM-12+0252SBUF V0201401N003612200019N0020001N1+02441+01741101691ADDAA106000091GA1001+999999999GF100991001001999999001001KA1240M+03091MA1999999098811MD1999999+0101REMSYN082AAXX  23004 82986 32995 01407 10244 20174 39881 40169 333 10309 29060 55103 58010;EQDQ01  00002PRCP06
0186829860999992003082312004-09400-038217FM-12+0252SBUF V0201401N005710450019N0040001N1+02331+01911101831ADDAA106000091GF106991041021004501081001KA1240N+01881MA1999999098951MD1999999+0021REMSYN076AAXX  23124 82986 32496 61411 10233 20191 39895 40183 84280 333 20188 58002;EQDQ01  00002PRCP06
0167829860999992003082318004-09400-038217FM-12+0252SBUF V0201401N003612200019N0200001N1+02911+01441101421ADDAA106000091GF104991041021008001001001MA1999999098561MD1999999+0111REMSYN070AAXX  23184 82986 32598 41407 10291 20144 39856 40142 84200 333 58011;EQDQ01  00002PRCP06
0186829860999992003082412004-09400-038217FM-12+0252SBUF V0201401N003110450019N0040001N1+02271+01881101871ADDAA106000091GF106991041021004501081001KA1240N+01841MA1999999098981MD1999999+0031REMSYN076AAXX  24124 82986 32496 61406 10227 20188 39898 40187 84280 333 20184 58003;EQDQ01  00002PRCP06
0167829860999992003082418004-09400-038217FM-12+0252SBUF V0200901N003110450019N0100001N1+02991+01551101291ADDAA106000091GF106991041011008001081001MA1999999098431MD1999999-0131REMSYN070AAXX  24184 82986 32597 60906 10299 20155 39843 40129 84180 333 59013;EQDQ01  00002PRCP06
0195829860999992003082512004-09400-038217FM-12+0252SBUF V0201401N003110450019N0100001N1+02401+01911101701ADDAA106000021AY151061AY221061GF105991031011008001081001KA1240N+02061MA1999999098821MD1999999-0161MW1201REMSYN082AAXX  25124 82986 31597 51406 10240 20191 39882 40170 72052 83180 333 20206 59016;
0148829860999992003082518004-09400-038217FM-12+0252SBUF V0201401N004112200019N0200001N1+03121+01521101171ADDAA106000021GF103991031011008001001001MA1999999098331MD1999999-0101REMSYN070AAXX  25184 82986 32598 31408 10312 20152 39833 40117 83100 333 59010;
0208829860999992003082600004-09400-038217FM-12+0252SBUF V0201401N005112200019N0020001N1+02521+01961101531ADDAA106000091GA1001+999999999GF100991001001999999001001KA1240M+03171MA1999999098661MD1999999-0141REMSYN082AAXX  26004 82986 32995 01410 10252 20196 39866 40153 333 10317 29064 55088 59014;EQDQ01  00002PRCP06
0186829860999992003082612004-09400-038217FM-12+0252SBUF V0200901N003112200019N0100001N1+02561+01851101611ADDAA106000091GF103991031011012501001001KA1240N+02111MA1999999098751MD1999999-0071REMSYN076AAXX  26124 82986 32697 30906 10256 20185 39875 40161 83100 333 20211 59007;EQDQ01  00002PRCP06
0167829860999992003082618004-09400-038217FM-12+0252SBUF V0200901N003112200019N0200001N1+03251+01361101031ADDAA106000091GF102991021011012501001011MA1999999098201MD1999999-0131REMSYN070AAXX  26184 82986 32698 20906 10325 20136 39820 40103 82101 333 59013;EQDQ01  00002PRCP06
0208829860999992003082700004-09400-038217FM-12+0252SBUF V0201401N006212200019N0020001N1+02611+01941101491ADDAA106000091GA1001+999999999GF100991001001999999001001KA1240M+03311MA1999999098641MD1999999-0021REMSYN082AAXX  27004 82986 32995 01412 10261 20194 39864 40149 333 10331 29058 55096 59002;EQDQ01  00002PRCP06
0186829860999992003082712004-09400-038217FM-12+0252SBUF V0200901N002610075019N0100001N1+02591+01941101721ADDAA106000091GF107991071051008001999999KA1240N+02181MA1999999098871MD1999999+0121REMSYN076AAXX  27124 82986 32597 70905 10259 20194 39887 40172 875// 333 20218 58012;EQDQ01  00002PRCP06
0167829860999992003082718004-09400-038217FM-12+0252SBUF V0201401N003112200019N0500001N1+03261+01761101331ADDAA106000091GF104991011011012501061001MA1999999098311MD1999999+0111REMSYN070AAXX  27184 82986 32699 41406 10326 20176 39831 40133 81160 333 58011;EQDQ01  00002PRCP06
0198829860999992003082800004-09400-038217FM-12+0252SBUF V0201401N005710450019N0010001N1+02481+02111101591ADDAA106000091GF106991041021004501081001KA1240M+03311MA1999999098731MD1999999+0091REMSYN088AAXX  28004 82986 32494 61411 10248 20211 39873 40159 84280 333 10331 29067 55078 58009;EQDQ01  00002PRCP06
0190829860999992003082812004-09400-038217FM-12+0252SBUF V0201401N004110021019N0040001N1+02351+02031101791ADDAY161061AY251061GF108991061071002501081999KA1240N+02081MA1999999098911MD1999999+0041MW1501REMSYN088AAXX  28124 82986 21396 81408 10235 20203 39891 40179 75065 8678/ 333 20208 58004 60014;
0148829860999992003082818004-09400-038217FM-12+0252SBUF V0201401N003110450019N0200001N1+03051+01971101321ADDAA106000021GF105991021011008001081001MA1999999098481MD1999999+0171REMSYN070AAXX  28184 82986 32598 51406 10305 20197 39848 40132 82180 333 58017;
0208829860999992003082900004-09400-038217FM-12+0252SBUF V0201401N004612200019N0020001N1+02511+01821101571ADDAA106000091GA1001+999999999GF100991001001999999001001KA1240M+03091MA1999999098701MD1999999-0031REMSYN082AAXX  29004 82986 32995 01409 10251 20182 39870 40157 333 10309 29067 55052 59003;EQDQ01  00002PRCP06
0186829860999992003082912004-09400-038217FM-12+0252SBUF V0201401N003110450019N0040001N1+02531+01821101711ADDAA106000091GF107991041021004501081001KA1240N+02011MA1999999098841MD1999999-0071REMSYN076AAXX  29124 82986 32496 71406 10253 20182 39884 40171 84280 333 20201 59007;EQDQ01  00002PRCP06
0167829860999992003082918004-09400-038217FM-12+0252SBUF V0201401N004110450019N0200001N1+03131+01641101251ADDAA106000091GF105991031011008001081001MA1999999098411MD1999999-0071REMSYN070AAXX  29184 82986 32598 51408 10313 20164 39841 40125 83180 333 59007;EQDQ01  00002PRCP06
0214829860999992003083000004-09400-038217FM-12+0252SBUF V0200401N004612200019N0020001N1+02491+01871101601ADDAA106000091GF101991999051999999001071KA1240M+03201MA1999999098741MD1999999+0041REMSYN088AAXX  30004 82986 32995 10409 10249 20187 39874 40160 85507 333 10320 29061 55073 58004;EQDQ01+000052SCOTLCQ02  00002PRCP06
0186829860999992003083012004-09400-038217FM-12+0252SBUF V0200901N003110450019N0100001N1+02591+01821101821ADDAA106000091GF106991031011008001081001KA1240N+02021MA1999999098961MD1999999+0131REMSYN076AAXX  30124 82986 32597 60906 10259 20182 39896 40182 83180 333 20202 58013;EQDQ01  00002PRCP06
0167829860999992003083018004-09400-038217FM-12+0252SBUF V0201401N003112200019N0500001N1+03191+01571101351ADDAA106000091GF104991021011008001061011MA1999999098511MD1999999+0101REMSYN070AAXX  30184 82986 32599 41406 10319 20157 39851 40135 82161 333 58010;EQDQ01  00002PRCP06
0186829860999992003083112004-09400-038217FM-12+0252SBUF V0201801N002610450019N0100001N1+02451+01791101921ADDAA106000091GF106991031011008001081001KA1240N+01981MA1999999099041MD1999999+0081REMSYN076AAXX  31124 82986 32597 61805 10245 20179 39904 40192 83180 333 20198 58008;EQDQ01  00002PRCP06
0167829860999992003083118004-09400-038217FM-12+0252SBUF V0201401N005110075019N0200001N1+03071+01511101441ADDAA106000091GF105991051011008001001001MA1999999098591MD1999999+0081REMSYN070AAXX  31184 82986 32598 51410 10307 20151 39859 40144 85100 333 58008;EQDQ01  00002PRCP06
0202829860999992003090112004-09400-038217FM-12+0252SBUF V0201401N003110042019N0040001N1+02431+01791101921ADDAA106000091GF108991999071004501081999KA1240N+01931MA1999999099041MD1999999+0001REMSYN076AAXX  01124 82986 32496 81406 10243 20179 39904 40192 8878/ 333 20193 58000;EQDQ01+000082SCOTLCQ02  00002PRCP06
0167829860999992003090118004-09400-038217FM-12+0252SBUF V0201401N005710075019N0200001N1+02991+01831101491ADDAA106000091GF105991051021008001001001MA1999999098641MD1999999+0051REMSYN070AAXX  01184 82986 32598 51411 10299 20183 39864 40149 85200 333 58005;EQDQ01  00002PRCP06
0208829860999992003090200004-09400-038217FM-12+0252SBUF V0201401N005112200019N0020001N1+02411+01701101831ADDAA106000091GA1001+999999999GF100991001001999999001001KA1240M+03111MA1999999098951MD1999999+0021REMSYN082AAXX  02004 82986 32995 01410 10241 20170 39895 40183 333 10311 29062 55059 58002;EQDQ01  00002PRCP06
0209829860999992003090212004-09400-038217FM-12+0252SBUF V0201401N003612200019N0040001N1+02171+02011102011ADDAY151061AY221061GF102991999071002501081999KA1240N+02001MA1999999099111MD1999999+0071MW1201REMSYN088AAXX  02124 82986 21396 21407 10217 20201 39911 40201 72052 8678/ 333 20200 58007 69914;EQDQ01+000062SCOTLC
0148829860999992003090218004-09400-038217FM-12+0252SBUF V0201401N003110450019N0500001N1+03041+01321101491ADDAA106000021GF105991021011008001081001MA1999999098641MD1999999+0001REMSYN070AAXX  02184 82986 32599 51406 10304 20132 39864 40149 82180 333 58000;
0198829860999992003090300004-09400-038217FM-12+0252SBUF V0201401N005110450019N0010001N1+02431+01881101831ADDAA106000091GF106991041021004501081001KA1240M+03191MA1999999098941MD1999999-0011REMSYN088AAXX  03004 82986 32494 61410 10243 20188 39894 40183 84280 333 10319 29067 55072 59001;EQDQ01  00002PRCP06
0190829860999992003090312004-09400-038217FM-12+0252SBUF V0201401N006210450019N0100001N1+02351+01871102021ADDAY161061AY221061GF106991041021004501081001KA1240N+02021MA1999999099131MD1999999+0021MW1151REMSYN088AAXX  03124 82986 21497 61412 10235 20187 39913 40202 71562 84280 333 20202 58002 69994;
0167829860999992003090318004-09400-038217FM-12+0252SBUF V0201401N005712200019N0200001N1+03071+01521101501ADDAA106000091GF104991041011008001001001MA1999999098651MD1999999+0011REMSYN070AAXX  03184 82986 32598 41411 10307 20152 39865 40150 84100 333 58001;EQDQ01  00002PRCP06
0198829860999992003090400004-09400-038217FM-12+0252SBUF V0201401N003610450019N0020001N1+02431+01651101941ADDAA106000091GF106991031011008001081001KA1240M+03131MA1999999099061MD1999999+0121REMSYN088AAXX  04004 82986 32595 61407 10243 20165 39906 40194 83180 333 10313 29059 55082 58012;EQDQ01  00002PRCP06
0190829860999992003090412004-09400-038217FM-12+0252SBUF V0201401N008210450019N0040001N1+02381+01891102021ADDAY161061AY251061GF106991041021004501081011KA1240N+02081MA1999999099131MD1999999+0001MW1031REMSYN088AAXX  04124 82986 21496 61416 10238 20189 39913 40202 70365 84281 333 20208 58000 60014;
0167829860999992003090418004-09400-038217FM-12+0252SBUF V0200901N005110042019N0040001N1+02791+01731101621ADDAA106000091GF107991051021004501081001MA1999999098751MD1999999+0101REMSYN070AAXX  04184 82986 32496 70910 10279 20173 39875 40162 85280 333 58010;EQDQ01  00002PRCP06
0198829860999992003090500004-09400-038217FM-12+0252SBUF V0201401N006710450019N0020001N1+02441+01711101991ADDAA106000091GF106991031011008001081001KA1240M+02941MA1999999099101MD1999999+0041REMSYN088AAXX  05004 82986 32595 61413 10244 20171 39910 40199 83180 333 10294 29064 55056 58004;EQDQ01  00002PRCP06
0190829860999992003090512004-09400-038217FM-12+0252SBUF V0201401N004610042019N0020001N1+02231+02011102061ADDAY161061AY251061GF107991051071004501081001KA1240N+02101MA1999999099171MD1999999+0041MW1031REMSYN088AAXX  05124 82986 21495 71409 10223 20201 39917 40206 70365 85780 333 20210 58004 69914;
0167829860999992003090518004-09400-038217FM-12+0252SBUF V0201401N006210450019N0100001N1+02891+01461101581ADDAA106000091GF106991031021008001081001MA1999999098721MD1999999-0031REMSYN070AAXX  05184 82986 32597 61412 10289 20146 39872 40158 83280 333 59003;EQDQ01  00002PRCP06
0197829860999992003090600004-09400-038217FM-12+0252SBUF V0201401N004612200019N0020001N1+02371+01711101941ADDGA1001+999999999GF100991001001999999001001KA1240M+99999MA1999999099041MD1999999-0061REMSYN082AAXX  06004 82986 22995 01409 10237 20171 39904 40194 333 10210 29066 55032 59006;EQDQ01 +02102ATMX  
0186829860999992003090612004-09400-038217FM-12+0252SBUF V0201401N006710450019N0040001N1+02471+01851101891ADDAA106000091GF106991041021004501081001KA1240N+02041MA1999999099011MD1999999-0161REMSYN076AAXX  06124 82986 32496 61413 10247 20185 39901 40189 84280 333 20204 59016;EQDQ01  00002PRCP06
0167829860999992003090618004-09400-038217FM-12+0252SBUF V0201401N009810450019N0100001N1+02791+01881101441ADDAA106000091GF105991031021008001081001MA1999999098571MD1999999-0151REMSYN070AAXX  06184 82986 32597 51419 10279 20188 39857 40144 83280 333 59015;EQDQ01  00002PRCP06
0195829860999992003090712004-09400-038217FM-12+0252SBUF V0201401N003110090019N0020001N1+02191+01801101941ADDAA106000021AY121061AY221061GF108991081081004501999999KA1240N+02021MA1999999099041MD1999999+0031MW1201REMSYN082AAXX  07124 82986 31495 81406 10219 20180 39904 40194 72022 888// 333 20202 58003;
0171829860999992003090718004-09400-038217FM-12+0252SBUF V0201401N006210090019N0100001N1+02741+01641101441ADDAY161061AY221061GF107991051081004501081999MA1999999098571MD1999999+0001MW1021REMSYN082AAXX  07184 82986 21497 71412 10274 20164 39857 40144 70262 8588/ 333 58000 69941;
0198829860999992003090800004-09400-038217FM-12+0252SBUF V0201401N003610120019N0020001N1+02291+01701101861ADDAA106000091GF106991061051012501001001KA1240M+02831MA1999999098961MD1999999+0081REMSYN088AAXX  08004 82986 32695 61407 10229 20170 39896 40186 86500 333 10283 29068 55018 58008;EQDQ01  00002PRCP06
0186829860999992003090812004-09400-038217FM-12+0252SBUF V0201401N005710075019N0100001N1+02491+01731101881ADDAA106000091GF106991061021008001001011KA1240N+01931MA1999999099001MD1999999-0041REMSYN076AAXX  08124 82986 32597 61411 10249 20173 39900 40188 86201 333 20193 59004;EQDQ01  00002PRCP06
0198829860999992003090900004-09400-038217FM-12+0252SBUF V0201401N003610042019N0005001N1+02161+01931101821ADDAA106000091GF107991051071004501081001KA1240M+03011MA1999999098931MD1999999-0031REMSYN088AAXX  09004 82986 32493 71407 10216 20193 39893 40182 85780 333 10301 29071 55072 59003;EQDQ01  00002PRCP06
0214829860999992003090912004-09400-038217FM-12+0252SBUF V0201401N005110042019N0100001N1+02511+01841101891ADDAA106000091AY151061AY221061GF106991051021004501061001KA1240N+02041MA1999999099001MD1999999+0001MW1011REMSYN082AAXX  09124 82986 31497 61410 10251 20184 39900 40189 70152 85260 333 20204 58000;EQDQ01  00002PRCP06
0208829860999992003091000004-09400-038217FM-12+0252SBUF V0201401N003112200019N0020001N1+02381+01871101711ADDAA106000091GA1001+999999999GF100991001001999999001001KA1240M+03111MA1999999098841MD1999999-0091REMSYN082AAXX  10004 82986 32995 01406 10238 20187 39884 40171 333 10311 29064 55088 59009;EQDQ01  00002PRCP06
0186829860999992003091012004-09400-038217FM-12+0252SBUF V0201401N005110450019N0040001N1+02611+01821101811ADDAA106000091GF107991041021004501081001KA1240N+02011MA1999999098941MD1999999-0061REMSYN076AAXX  10124 82986 32496 71410 10261 20182 39894 40181 84280 333 20201 59006;EQDQ01  00002PRCP06
0167829860999992003091018004-09400-038217FM-12+0252SBUF V0201401N005110450019N0200001N1+03131+01561101321ADDAA106000091GF105991031021008001081001MA1999999098451MD1999999-0021REMSYN070AAXX  10184 82986 32598 51410 10313 20156 39845 40132 83280 333 59002;EQDQ01  00002PRCP06
0208829860999992003091100004-09400-038217FM-12+0252SBUF V0201401N003112200019N0020001N1+02491+01831101661ADDAA106000091GA1001+999999999GF100991001001999999001001KA1240M+03221MA1999999098801MD1999999-0041REMSYN082AAXX  11004 82986 32995 01406 10249 20183 39880 40166 333 10322 29059 55093 59004;EQDQ01  00002PRCP06
0186829860999992003091112004-09400-038217FM-12+0252SBUF V0201401N005110450019N0040001N1+02461+01901101771ADDAA106000091GF106991041021004501081001KA1240N+02121MA1999999098901MD1999999-0041REMSYN076AAXX  11124 82986 32496 61410 10246 20190 39890 40177 84280 333 20212 59004;EQDQ01  00002PRCP06
0167829860999992003091118004-09400-038217FM-12+0252SBUF V0200901N005712200019N0500001N1+03191+01491101151ADDAA106000091GF103991031011008001001001MA1999999098321MD1999999-0131REMSYN070AAXX  11184 82986 32599 30911 10319 20149 39832 40115 83100 333 59013;EQDQ01  00002PRCP06
0178829860999992003091200004-09400-038217FM-12+0252SBUF V0201401N005112200019N0020001N1+02481+01831101601ADDGA1001+999999999GF100991001001999999001001KA1240M+03261MA1999999098731MD1999999-0071REMSYN082AAXX  12004 82986 22995 01410 10248 20183 39873 40160 333 10326 29060 55090 59007;
0195829860999992003091212004-09400-038217FM-12+0252SBUF V0201401N006710090019N0020001N1+02471+01881101891ADDAA106000021AY121061AY221061GF108991081081004501999999KA1240N+02141MA1999999099021MD1999999+0121MW1201REMSYN082AAXX  12124 82986 31495 81413 10247 20188 39902 40189 72022 888// 333 20214 58012;
0198829860999992003091300004-09400-038217FM-12+0252SBUF V0201401N005712200019N0020001N1+02421+01881101781ADDAA106000091GF102991021011012501081001KA1240M+03271MA1999999098901MD1999999+0171REMSYN088AAXX  13004 82986 32695 21411 10242 20188 39890 40178 82180 333 10327 29063 55073 58017;EQDQ01  00002PRCP06
0186829860999992003091312004-09400-038217FM-12+0252SBUF V0201401N003610450019N0040001N1+02531+01771101881ADDAA106000091GF106991041011004501081001KA1240N+02191MA1999999099011MD1999999-0011REMSYN076AAXX  13124 82986 32496 61407 10253 20177 39901 40188 84180 333 20219 59001;EQDQ01  00002PRCP06
0167829860999992003091318004-09400-038217FM-12+0252SBUF V0201401N003610075019N0200001N1+03051+01601101351ADDAA106000091GF106991061011008001001001MA1999999098511MD1999999+0031REMSYN070AAXX  13184 82986 32598 61407 10305 20160 39851 40135 86100 333 58003;EQDQ01  00002PRCP06
0167829860999992003091418004-09400-038217FM-12+0252SBUF V0201401N003610450019N0500001N1+03151+01661101281ADDAA106000091GF106991021011008001081001MA1999999098441MD1999999-0071REMSYN070AAXX  14184 82986 32599 61407 10315 20166 39844 40128 82180 333 59007;EQDQ01  00002PRCP06
0190829860999992003091512004-09400-038217FM-12+0252SBUF V0201401N004610450019N0100001N1+02511+01801101751ADDAY151061AY221061GF106991041021004501081001KA1240N+02141MA1999999098881MD1999999-0041MW1021REMSYN088AAXX  15124 82986 21497 61409 10251 20180 39888 40175 70252 84280 333 20214 59004 69914;
0167829860999992003091618004-09400-038217FM-12+0252SBUF V0201401N003112200019N0500001N1+03221+01431101181ADDAA106000091GF104991031011008001061001MA1999999098351MD1999999-0121REMSYN070AAXX  16184 82986 32599 41406 10322 20143 39835 40118 83160 333 59012;EQDQ01  00002PRCP06
0208829860999992003091700004-09400-038217FM-12+0252SBUF V0201401N006712200019N0020001N1+02481+01781101471ADDAA106000091GA1001+999999999GF100991001001999999001001KA1240M+03261MA1999999098601MD1999999-0171REMSYN082AAXX  17004 82986 32995 01413 10248 20178 39860 40147 333 10326 29058 55101 59017;EQDQ01  00002PRCP06
0186829860999992003091712004-09400-038217FM-12+0252SBUF V0201401N004610450019N0100001N1+02501+01721101741ADDAA106000091GF106991031011008001081011KA1240N+02081MA1999999098871MD1999999-0011REMSYN076AAXX  17124 82986 32597 61409 10250 20172 39887 40174 83181 333 20208 59001;EQDQ01  00002PRCP06
0167829860999992003091718004-09400-038217FM-12+0252SBUF V0201401N001512200019N0500001N1+03201+01421101181ADDAA106000091GF103991031011012501001001MA1999999098351MD1999999+0001REMSYN070AAXX  17184 82986 32699 31403 10320 20142 39835 40118 83100 333 58000;EQDQ01  00002PRCP06
0208829860999992003091800004-09400-038217FM-12+0252SBUF V0201401N007712200019N0020001N1+02581+01871101421ADDAA106000091GA1001+999999999GF100991001001999999001001KA1240M+03261MA1999999098571MD1999999-0031REMSYN082AAXX  18004 82986 32995 01415 10258 20187 39857 40142 333 10326 29057 55106 59003;EQDQ01  00002PRCP06
0186829860999992003091812004-09400-038217FM-12+0252SBUF V0201401N005110450019N0100001N1+02661+01821101661ADDAA106000091GF106991041011008001081001KA1240N+02111MA1999999098811MD1999999-0061REMSYN076AAXX  18124 82986 32597 61410 10266 20182 39881 40166 84180 333 20211 59006;EQDQ01  00002PRCP06
0167829860999992003091818004-09400-038217FM-12+0252SBUF V0201401N005112200019N0200001N1+03261+01601101121ADDAA106000091GF104991041011008001001001MA1999999098291MD1999999-0061REMSYN070AAXX  18184 82986 32598 41410 10326 20160 39829 40112 84100 333 59006;EQDQ01  00002PRCP06
0198829860999992003091900004-09400-038217FM-12+0252SBUF V0201401N006712200019N0020001N1+02541+01881101521ADDAA106000091GF102991021001017501081001KA1240M+03331MA1999999098671MD1999999+0101REMSYN088AAXX  19004 82986 32795 21413 10254 20188 39867 40152 82080 333 10333 29058 55100 58010;EQDQ01  00002PRCP06
0186829860999992003091912004-09400-038217FM-12+0252SBUF V0201401N005110450019N0100001N1+02631+01731101621ADDAA106000091GF106991031011008001081011KA1240N+02121MA1999999098771MD1999999-0041REMSYN076AAXX  19124 82986 32597 61410 10263 20173 39877 40162 83181 333 20212 59004;EQDQ01  00002PRCP06
0167829860999992003091918004-09400-038217FM-12+0252SBUF V0201401N005712200019N0200001N1+03271+01331101031ADDAA106000091GF102991021011012501001091MA1999999098211MD1999999-0081REMSYN070AAXX  19184 82986 32698 21411 10327 20133 39821 40103 82109 333 59008;EQDQ01  00002PRCP06
0208829860999992003092000004-09400-038217FM-12+0252SBUF V0201401N005712200019N0020001N1+02471+01811101521ADDAA106000091GA1001+999999999GF100991001001999999001001KA1240M+03311MA1999999098661MD1999999-0011REMSYN082AAXX  20004 82986 32995 01411 10247 20181 39866 40152 333 10331 29056 55106 59001;EQDQ01  00002PRCP06
0186829860999992003092012004-09400-038217FM-12+0252SBUF V0201401N005710075019N0100001N1+02591+01741101671ADDAA106000091GF106991061021008001001001KA1240N+02081MA1999999098811MD1999999+0041REMSYN076AAXX  20124 82986 32597 61411 10259 20174 39881 40167 86200 333 20208 58004;EQDQ01  00002PRCP06
0177829860999992003092018004-09400-038217FM-12+0252SBUF V0201401N004611050019N0500001N1+03241+01561101131ADDAA106000091GF105991021011008001081011MA1999999098331MD1999999+0121REMSYN064AAXX  20184 82986 32599 51409 10324 20156 39833 82181 333 58012;EQDQ01+999990APOSLPQ02  00002PRCP06
0208829860999992003092100004-09400-038217FM-12+0252SBUF V0201401N003112200019N0020001N1+02491+01601101581ADDAA106000091GA1001+999999999GF100991001001999999001001KA1240M+03271MA1999999098721MD1999999+0061REMSYN082AAXX  21004 82986 32995 01406 10249 20160 39872 40158 333 10327 29051 55097 58006;EQDQ01  00002PRCP06
0186829860999992003092112004-09400-038217FM-12+0252SBUF V0200901N005110075019N0100001N1+02621+01531101721ADDAA106000091GF105991051011008001001011KA1240N+02081MA1999999098861MD1999999+0051REMSYN076AAXX  21124 82986 32597 50910 10262 20153 39886 40172 85101 333 20208 58005;EQDQ01  00002PRCP06
0167829860999992003092118004-09400-038217FM-12+0252SBUF V0201401N002110450019N0200001N1+03191+01441101201ADDAA106000091GF106991031011008001081011MA1999999098371MD1999999+0041REMSYN070AAXX  21184 82986 32598 61404 10319 20144 39837 40120 83181 333 58004;EQDQ01  00002PRCP06
0208829860999992003092200004-09400-038217FM-12+0252SBUF V0201401N005712200019N0020001N1+02471+01661101641ADDAA106000091GA1001+999999999GF100991001001999999001001KA1240M+03231MA1999999098781MD1999999+0061REMSYN082AAXX  22004 82986 32995 01411 10247 20166 39878 40164 333 10323 29052 55095 58006;EQDQ01  00002PRCP06
0186829860999992003092212004-09400-038217FM-12+0252SBUF V0201401N005110450019N0040001N1+02501+01841101731ADDAA106000091GF107991041021004501021011KA1240N+02101MA1999999098861MD1999999+0001REMSYN076AAXX  22124 82986 32496 71410 10250 20184 39886 40173 84221 333 20210 58000;EQDQ01  00002PRCP06
0167829860999992003092218004-09400-038217FM-12+0252SBUF V0201401N003110450019N0040001N1+02731+01771101321ADDAA106000091GF106991031021004501081001MA1999999098431MD1999999+0091REMSYN070AAXX  22184 82986 32496 61406 10273 20177 39843 40132 83280 333 58009;EQDQ01  00002PRCP06
0208829860999992003092400004-09400-038217FM-12+0252SBUF V0201401N004612200019N0020001N1+02451+01591101411ADDAA106000091GA1001+999999999GF100991001001999999001001KA1240M+03221MA1999999098551MD1999999-0171REMSYN082AAXX  24004 82986 32995 01409 10245 20159 39855 40141 333 10322 29054 55103 59017;EQDQ01  00002PRCP06
0186829860999992003092412004-09400-038217FM-12+0252SBUF V0201401N003110075019N0100001N1+02501+01721101621ADDAA106000091GF105991051021008001001001KA1240N+01981MA1999999098761MD1999999-0051REMSYN076AAXX  24124 82986 32597 51406 10250 20172 39876 40162 85200 333 20198 59005;EQDQ01  00002PRCP06
0167829860999992003092418004-09400-038217FM-12+0252SBUF V0201401N002610450019N0200001N1+03151+01321101031ADDAA106000091GF105991041011008001041041MA1999999098191MD1999999-0071REMSYN070AAXX  24184 82986 32598 51405 10315 20132 39819 40103 84144 333 59007;EQDQ01  00002PRCP06
0208829860999992003092500004-09400-038217FM-12+0252SBUF V0201401N007212200019N0020001N1+02451+01831101321ADDAA106000091GA1001+999999999GF100991001001999999001001KA1240M+03251MA1999999098461MD1999999-0091REMSYN082AAXX  25004 82986 32995 01414 10245 20183 39846 40132 333 10325 29058 55102 59009;EQDQ01  00002PRCP06
0186829860999992003092512004-09400-038217FM-12+0252SBUF V0201401N003110450019N0040001N1+02571+01731101541ADDAA106000091GF106991031021004501081001KA1240N+01971MA1999999098681MD1999999-0081REMSYN076AAXX  25124 82986 32496 61406 10257 20173 39868 40154 83280 333 20197 59008;EQDQ01  00002PRCP06
0167829860999992003092518004-09400-038217FM-12+0252SBUF V0201401N003112200019N0200001N1+03261+01471100961ADDAA106000091GF102991021011012501001001MA1999999098131MD1999999-0061REMSYN070AAXX  25184 82986 32698 21406 10326 20147 39813 40096 82100 333 59006;EQDQ01  00002PRCP06
0208829860999992003092600004-09400-038217FM-12+0252SBUF V0201401N007712200019N0020001N1+02761+01661101301ADDAA106000091GA1001+999999999GF100991001001999999001001KA1240M+03331MA1999999098461MD1999999+0001REMSYN082AAXX  26004 82986 32995 01415 10276 20166 39846 40130 333 10333 29049 55110 58000;EQDQ01  00002PRCP06
0186829860999992003092612004-09400-038217FM-12+0252SBUF V0200501N001012200019N0200001N1+02571+01881101411ADDAA106000091GF102991021011012501001011KA1240N+02031MA1999999098571MD1999999-0111REMSYN076AAXX  26124 82986 32698 20502 10257 20188 39857 40141 82101 333 20203 59011;EQDQ01  00002PRCP06
0167829860999992003092618004-09400-038217FM-12+0252SBUF V0201401N003112200019N0500001N1+03391+01481100891ADDAA106000091GF103991011011012501061001MA1999999098081MD1999999-0051REMSYN070AAXX  26184 82986 32699 31406 10339 20148 39808 40089 81160 333 59005;EQDQ01  00002PRCP06
0208829860999992003092700004-09400-038217FM-12+0252SBUF V0201401N005112200019N0020001N1+02611+01921101231ADDAA106000091GA1001+999999999GF100991001001999999001001KA1240M+03431MA1999999098391MD1999999-0071REMSYN082AAXX  27004 82986 32995 01410 10261 20192 39839 40123 333 10343 29057 55110 59007;EQDQ01  00002PRCP06
0186829860999992003092712004-09400-038217FM-12+0252SBUF V0200901N002612200019N0200001N1+02761+01861101351ADDAA106000091GF102991021011012501001011KA1240N+02201MA1999999098521MD1999999-0051REMSYN076AAXX  27124 82986 32698 20905 10276 20186 39852 40135 82101 333 20220 59005;EQDQ01  00002PRCP06
0167829860999992003092718004-09400-038217FM-12+0252SBUF V0201401N002612200019N0500001N1+03491+01661100721ADDAA106000091GF104991011011012501061001MA1999999097921MD1999999-0161REMSYN070AAXX  27184 82986 32699 41405 10349 20166 39792 40072 81160 333 59016;EQDQ01  00002PRCP06
0208829860999992003092800004-09400-038217FM-12+0252SBUF V0201401N004612200019N0020001N1+02951+01821100921ADDAA106000091GA1001+999999999GF100991001001999999001001KA1240M+03541MA1999999098121MD1999999-0271REMSYN082AAXX  28004 82986 32995 01409 10295 20182 39812 40092 333 10354 29048 55108 59027;EQDQ01  00002PRCP06
0247829860999992003092812004-09400-038217SY-MT+0252SBUF V0201401N00261220001CN0200001N1+02761+01691101261ADDAA106000091GF100991001001999999001001KA1240N+02161MA1101491098451MD1999999-0071MW1001REMSYN070AAXX  28124 82986 32998 01405 10276 20169 39845 40126 333 20216 59007;MET039SBUF 281200Z 12007KT CAVOK 29/18 Q1015;EQDQ01+000000PRSWM2Q02  00002PRCP06
0091829860999992003092813004-09400-038217FM-15+0252SBUF V0201401N00411220001CN0099001N1+03201+01701999999ADDMA1101391999999MW1001REMMET039SBUF 281300Z 14008KT CAVOK 32/17 Q1014;EQDQ01+000000PRSWM2
0075829860999992003092814004-09400-038217FM-15+0252SBUF V0201601N00461220001CN0099001N1+03201+01601999999ADDMW1001REMMET038SBUF 281400Z 16009KT CAVOK 32/16 Q113;EQDQ01+000000PRSWM2
0091829860999992003092815004-09400-038217FM-15+0252SBUF V0201301N00461220001CN0099001N1+03501+01601999999ADDMA1101291999999MW1001REMMET039SBUF 281500Z 13009KT CAVOK 35/16 Q1013;EQDQ01+000000PRSWM2
0091829860999992003092816004-09400-038217FM-15+0252SBUF V0201401N00511220001CN0099001N1+03601+01401999999ADDMA1101021999999MW1001REMMET039SBUF 281600Z 14010KT CAVOK 36/14 Q1010;EQDQ01+000000PRSWM2
0091829860999992003092817004-09400-038217FM-15+0252SBUF V0201601N00461220001CN0099001N1+03701+01301999999ADDMA1100911999999MW1001REMMET039SBUF 281700Z 16009KT CAVOK 37/13 Q1009;EQDQ01+000000PRSWM2
0177829860999992003092818004-09400-038217FM-12+0252SBUF V0201401N002112200019N0500001N1+03671+01211100651ADDAA106000091GA1001+999999999GF100991001001999999001001MA1999999097861MD1999999-0061REMSYN064AAXX  28184 82986 32999 01404 10367 20121 39786 40065 333 59006;EQDQ01  00002PRCP06
0208829860999992003092900004-09400-038217FM-12+0252SBUF V0201401N006212200019N0020001N1+02831+02071101121ADDAA106000091GA1001+999999999GF100991001001999999001001KA1240M+03711MA1999999098301MD1999999+0121REMSYN082AAXX  29004 82986 32995 01412 10283 20207 39830 40112 333 10371 29051 55107 58012;EQDQ01  00002PRCP06
0186829860999992003092912004-09400-038217FM-12+0252SBUF V0200901N002111050019N0200001N1+02711+01781101471ADDAA106000091GF105991011011012501061011KA1240N+02281MA1999999098641MD1999999+0191REMSYN076AAXX  29124 82986 32698 50904 10271 20178 39864 40147 81161 333 20228 58019;EQDQ01  00002PRCP06
0167829860999992003092918004-09400-038217FM-12+0252SBUF V0201401N003112200019N0500001N1+03531+01501100851ADDAA106000091GF103991031001012501061001MA1999999098051MD1999999+0191REMSYN070AAXX  29184 82986 32699 31406 10353 20150 39805 40085 83060 333 58019;EQDQ01  00002PRCP06
0208829860999992003093000004-09400-038217FM-12+0252SBUF V0201401N006712200019N0020001N1+02941+01761101161ADDAA106000091GA1001+999999999GF100991001001999999001001KA1240M+03571MA1999999098351MD1999999+0051REMSYN082AAXX  30004 82986 32995 01413 10294 20176 39835 40116 333 10357 29046 55101 58005;EQDQ01  00002PRCP06
0202829860999992003093012004-09400-038217FM-12+0252SBUF V0200901N003112200019N0200001N1+02761+01691101441ADDAA106000091GF103991001001999999001011KA1240N+02181MA1999999098621MD1999999-0021REMSYN076AAXX  30124 82986 32998 30906 10276 20169 39862 40144 83001 333 20218 59002;EQDQ01+000032SCOTLCQ02  00002PRCP06
0091829860999992003093013004-09400-038217FM-15+0252SBUF V0201201N00361220001CN0099001N1+03001+01701999999ADDMA1101591999999MW1001REMMET039SBUF 301300Z 12007KT CAVOK 30/17 Q1016;EQDQ01+000000PRSWM2
0091829860999992003093014004-09400-038217FM-15+0252SBUF V0200901N00311220001CN0099001N1+03101+01601999999ADDMA1101491999999MW1001REMMET039SBUF 301400Z 09006KT CAVOK 31/16 Q1015;EQDQ01+000000PRSWM2
0167829860999992003093018004-09400-038217FM-12+0252SBUF V0201401N002112200019N0200001N1+03571+00991100901ADDAA106000091GF102991021011012501001041MA1999999098101MD1999999+0051REMSYN070AAXX  30184 82986 32698 21404 10357 20099 39810 40090 82104 333 58005;EQDQ01  00002PRCP06
0208829860999992003100100004-09400-038217FM-12+0252SBUF V0201401N005712200019N0020001N1+02761+01991101251ADDAA106000091GA1001+999999999GF100991001001999999001001KA1240M+03661MA1999999098421MD1999999+0071REMSYN082AAXX  01004 82986 32995 01411 10276 20199 39842 40125 333 10366 29050 55108 58007;EQDQ01  00002PRCP06
0186829860999992003100112004-09400-038217FM-12+0252SBUF V0200901N001510450019N0100001N1+02621+01831101511ADDAA106000091GF105991031011008001061001KA1240N+02261MA1999999098671MD1999999+0051REMSYN076AAXX  01124 82986 32597 50903 10262 20183 39867 40151 83160 333 20226 58005;EQDQ01  00002PRCP06
0167829860999992003100118004-09400-038217FM-12+0252SBUF V0200901N002612200019N0200001N1+03371+01361100931ADDAA106000091GF103991031011012501001001MA1999999098131MD1999999+0031REMSYN070AAXX  01184 82986 32698 30905 10337 20136 39813 40093 83100 333 58003;EQDQ01  00002PRCP06
0208829860999992003100200004-09400-038217FM-12+0252SBUF V0201401N009312200019N0020001N1+02611+01841101371ADDAA106000091GA1001+999999999GF100991001001999999001001KA1240M+03411MA1999999098521MD1999999+0101REMSYN082AAXX  02004 82986 32995 01418 10261 20184 39852 40137 333 10341 29054 55088 58010;EQDQ01  00002PRCP06
0214829860999992003100212004-09400-038217FM-12+0252SBUF V0201401N005710075019N0040001N1+02671+01821101531ADDAA106000091AY141061AY221061GF106991051021008001081001KA1240N+02231MA1999999098681MD1999999+0011MW1051REMSYN082AAXX  02124 82986 31596 61411 10267 20182 39868 40153 70542 85280 333 20223 58001;EQDQ01  00002PRCP06
0167829860999992003100218004-09400-038217FM-12+0252SBUF V0201401N006210450019N0500001N1+03141+01621101041ADDAA106000091GF106991021011008001081011MA1999999098211MD1999999+0081REMSYN070AAXX  02184 82986 32599 61412 10314 20162 39821 40104 82181 333 58008;EQDQ01  00002PRCP06
0198829860999992003100300004-09400-038217FM-12+0252SBUF V0201401N007210450019N0020001N1+02551+01781101331ADDAA106000091GF106991031011008001081001KA1240M+03271MA1999999098491MD1999999-0031REMSYN088AAXX  03004 82986 32595 61414 10255 20178 39849 40133 83180 333 10327 29056 55083 59003;EQDQ01  00002PRCP06
0214829860999992003100312004-09400-038217FM-12+0252SBUF V0201401N006210075019N0100001N1+02611+01791101651ADDAA106000091AY141061AY221061GF105991051021008001001001KA1240N+02201MA1999999098801MD1999999+0121MW1051REMSYN082AAXX  03124 82986 31597 51412 10261 20179 39880 40165 70542 85200 333 20220 58012;EQDQ01  00002PRCP06
0167829860999992003100318004-09400-038217FM-12+0252SBUF V0201401N003612200019N0500001N1+03291+01241101101ADDAA106000091GF104991021011008001081001MA1999999098281MD1999999+0071REMSYN070AAXX  03184 82986 32599 41407 10329 20124 39828 40110 82180 333 58007;EQDQ01  00002PRCP06
0208829860999992003100400004-09400-038217FM-12+0252SBUF V0201401N005712200019N0020001N1+02561+01031101481ADDAA106000091GA1001+999999999GF100991001001999999001001KA1240M+03371MA1999999098631MD1999999+0141REMSYN082AAXX  04004 82986 32995 01411 10256 20103 39863 40148 333 10337 29052 55099 58014;EQDQ01  00002PRCP06
0186829860999992003100412004-09400-038217FM-12+0252SBUF V0201401N005110450019N0100001N1+02571+01751101661ADDAA106000091GF106991031011008001081011KA1240N+02081MA1999999098801MD1999999+0001REMSYN076AAXX  04124 82986 32597 61410 10257 20175 39880 40166 83181 333 20208 58000;EQDQ01  00002PRCP06
0167829860999992003100418004-09400-038217FM-12+0252SBUF V0200901N002112200019N0500001N1+03281+01341101131ADDAA106000091GF104991021011008001081011MA1999999098301MD1999999+0021REMSYN070AAXX  04184 82986 32599 40904 10328 20134 39830 40113 82181 333 58002;EQDQ01  00002PRCP06
0198829860999992003100500004-09400-038217FM-12+0252SBUF V0201401N003112200019N0020001N1+02541+01831101501ADDAA106000091GF104991041001017501051001KA1240M+03361MA1999999098651MD1999999+0021REMSYN088AAXX  05004 82986 32795 41406 10254 20183 39865 40150 84050 333 10336 29056 55098 58002;EQDQ01  00002PRCP06
0186829860999992003100512004-09400-038217FM-12+0252SBUF V0201401N005110450019N0100001N1+02591+01801101511ADDAA106000091GF106991031011008001081001KA1240N+02181MA1999999098661MD1999999-0141REMSYN076AAXX  05124 82986 32597 61410 10259 20180 39866 40151 83180 333 20218 59014;EQDQ01  00002PRCP06
0167829860999992003100518004-09400-038217FM-12+0252SBUF V0201401N005112200019N0500001N1+03291+01291100931ADDAA106000091GF103991031011012501001001MA1999999098111MD1999999-0191REMSYN070AAXX  05184 82986 32699 31410 10329 20129 39811 40093 83100 333 59019;EQDQ01  00002PRCP06
0208829860999992003100600004-09400-038217FM-12+0252SBUF V0201401N005112200019N0020001N1+02561+01671101341ADDAA106000091GA1001+999999999GF100991001001999999001001KA1240M+03341MA1999999098511MD1999999-0141REMSYN082AAXX  06004 82986 32995 01410 10256 20167 39851 40134 333 10334 29052 55094 59014;EQDQ01  00002PRCP06
0186829860999992003100612004-09400-038217FM-12+0252SBUF V0201401N005110450019N0100001N1+02611+01761101481ADDAA106000091GF105991031011008001081001KA1240N+02121MA1999999098631MD1999999-0031REMSYN076AAXX  06124 82986 32597 51410 10261 20176 39863 40148 83180 333 20212 59003;EQDQ01  00002PRCP06
0167829860999992003100618004-09400-038217FM-12+0252SBUF V0201401N005712200019N0200001N1+03311+01041100891ADDAA106000091GF102991021011012501001011MA1999999098071MD1999999-0041REMSYN070AAXX  06184 82986 32698 21411 10331 20104 39807 40089 82101 333 59004;EQDQ01  00002PRCP06
0208829860999992003100700004-09400-038217FM-12+0252SBUF V0201401N006212200019N0020001N1+02621+01591101651ADDAA106000091GA1001+999999999GF100991001001999999001001KA1240M+03401MA1999999098501MD1999999-0011REMSYN082AAXX  07004 82986 32995 01412 10262 20159 39850 40165 333 10340 29048 55106 59001;EQDQ01  00002PRCP06
0186829860999992003100712004-09400-038217FM-12+0252SBUF V0201401N003110450019N0100001N1+02651+01881101591ADDAA106000091GF105991031011008001061001KA1240N+02141MA1999999098741MD1999999+0111REMSYN076AAXX  07124 82986 32597 51406 10265 20188 39874 40159 83160 333 20214 58011;EQDQ01  00002PRCP06
0167829860999992003100718004-09400-038217FM-12+0252SBUF V0201401N004612200019N0200001N1+03381+01331100981ADDAA106000091GF102991021011012501001051MA1999999098171MD1999999+0101REMSYN070AAXX  07184 82986 32698 21409 10338 20133 39817 40098 82105 333 58010;EQDQ01  00002PRCP06
0208829860999992003100800004-09400-038217FM-12+0252SBUF V0201401N007212200019N0020001N1+02631+01731101381ADDAA106000091GA1001+999999999GF100991001001999999001001KA1240M+03441MA1999999098541MD1999999+0041REMSYN082AAXX  08004 82986 32995 01414 10263 20173 39854 40138 333 10344 29052 55102 58004;EQDQ01  00002PRCP06
0214829860999992003100812004-09400-038217FM-12+0252SBUF V0201401N006710450019N0100001N1+02711+01691101611ADDAA106000091AY141061AY221061GF106991041021008001061001KA1240N+02221MA1999999098661MD1999999-0081MW1051REMSYN082AAXX  08124 82986 31597 61413 10271 20169 39866 40161 70542 84260 333 20222 59008;EQDQ01  00002PRCP06
0183829860999992003100818004-09400-038217FM-12+0252SBUF V0201401N004612200019N0500001N1+03421+01071100901ADDAA106000091GF102991999021012501041001MA1999999098101MD1999999-0071REMSYN070AAXX  08184 82986 32699 21409 10342 20107 39810 40090 80240 333 59007;EQDQ01+000002SCOTLCQ02  00002PRCP06
0208829860999992003100900004-09400-038217FM-12+0252SBUF V0201401N006712200019N0020001N1+02641+01771101331ADDAA106000091GA1001+999999999GF100991001001999999001001KA1240M+03471MA1999999098501MD1999999-0341REMSYN082AAXX  09004 82986 32995 01413 10264 20177 39850 40133 333 10347 29049 55104 59034;EQDQ01  00002PRCP06
0214829860999992003100912004-09400-038217FM-12+0252SBUF V0201401N005110075019N0100001N1+02661+01741101561ADDAA106000091AY141061AY221061GF106991051021008001081001KA1240N+02141MA1999999098711MD1999999+0051MW1051REMSYN082AAXX  09124 82986 31597 61410 10266 20174 39871 40156 70542 85280 333 20214 58005;EQDQ01  00002PRCP06
0167829860999992003100918004-09400-038217FM-12+0252SBUF V0201401N004612200019N0200001N1+03181+01571101001ADDAA106000091GF104991021011008001061001MA1999999098181MD1999999+0081REMSYN070AAXX  09184 82986 32598 41409 10318 20157 39818 40100 82160 333 58008;EQDQ01  00002PRCP06
0208829860999992003101000004-09400-038217FM-12+0252SBUF V0201401N006212200019N0020001N1+02631+01831101351ADDAA106000091GA1001+999999999GF100991001001999999001001KA1240M+03241MA1999999098511MD1999999+0011REMSYN082AAXX  10004 82986 32995 01412 10263 20183 39851 40135 333 10324 29055 55074 58001;EQDQ01  00002PRCP06
0186829860999992003101012004-09400-038217FM-12+0252SBUF V0201401N006710450019N0100001N1+02671+01741101461ADDAA106000091GF106991031011008001081001KA1240N+02141MA1999999098621MD1999999-0091REMSYN076AAXX  10124 82986 32597 61413 10267 20174 39862 40146 83180 333 20214 59009;EQDQ01  00002PRCP06
0167829860999992003101018004-09400-038217FM-12+0252SBUF V0201401N004112200019N0500001N1+03351+01401100931ADDAA106000091GF104991031011008001001011MA1999999098111MD1999999-0071REMSYN070AAXX  10184 82986 32599 41408 10335 20140 39811 40093 83101 333 59007;EQDQ01  00002PRCP06
0208829860999992003101100004-09400-038217FM-12+0252SBUF V0201401N005112200019N0020001N1+02621+01501101291ADDAA106000091GA1001+999999999GF100991001001999999001001KA1240M+03401MA1999999098451MD1999999-0061REMSYN082AAXX  11004 82986 32995 01410 10262 20150 39845 40129 333 10340 29047 55100 59006;EQDQ01  00002PRCP06
0186829860999992003101112004-09400-038217FM-12+0252SBUF V0201401N004110450019N0100001N1+02621+01031101521ADDAA106000091GF106991021011008001081011KA1240N+02111MA1999999098671MD1999999+0051REMSYN076AAXX  11124 82986 32597 61408 10262 20103 39867 40152 82181 333 20211 58005;EQDQ01  00002PRCP06
0167829860999992003101118004-09400-038217FM-12+0252SBUF V0201401N002112200019N0500001N1+03391+01481100931ADDAA106000091GF103991021011012501001011MA1999999098111MD1999999+0001REMSYN070AAXX  11184 82986 32699 31404 10339 20148 39811 40093 82101 333 58000;EQDQ01  00002PRCP06
0208829860999992003101200004-09400-038217FM-12+0252SBUF V0201401N005112200019N0020001N1+02661+01681101291ADDAA106000091GA1001+999999999GF100991001001999999001001KA1240M+03411MA1999999098451MD1999999+0001REMSYN082AAXX  12004 82986 32995 01410 10266 20168 39845 40129 333 10341 29050 55102 58000;EQDQ01  00002PRCP06
0186829860999992003101212004-09400-038217FM-12+0252SBUF V0201401N001512200019N0100001N1+02601+01761101351ADDAA106000091GF102991021011008001001001KA1240N+02101MA1999999098511MD1999999-0161REMSYN076AAXX  12124 82986 32597 21403 10260 20176 39851 40135 82100 333 20210 59016;EQDQ01  00002PRCP06
0199829860999992003101218004-09400-038217FM-12+0252SBUF V0201401N003112200019N0200001N1+03331+01431999999ADDAA106000091GF102991021011012501001001MA1999999098021MD1999999-0091REMSYN070AAXX  12184 82986 32698 21406 10333 20143 39802 40281 82100 333 59009;EQDQ01+102813APOSLPQ02  00002PRCP06Q03 102813APOSLP
0208829860999992003101300004-09400-038217FM-12+0252SBUF V0201401N007712200019N0020001N1+02661+01951101261ADDAA106000091GA1001+999999999GF100991001001999999001001KA1240M+03021MA1999999098401MD1999999-0051REMSYN082AAXX  13004 82986 32995 01415 10266 20195 39840 40126 333 10302 29056 55105 59005;EQDQ01  00002PRCP06
0186829860999992003101312004-09400-038217FM-12+0252SBUF V0201401N005110450019N0100001N1+02731+01771101401ADDAA106000091GF105991031011008001081011KA1240N+02311MA1999999098571MD1999999+0061REMSYN076AAXX  13124 82986 32597 51410 10273 20177 39857 40140 83181 333 20231 58006;EQDQ01  00002PRCP06
0167829860999992003101318004-09400-038217FM-12+0252SBUF V0201401N006212200019N0200001N1+03411+01291100861ADDAA106000091GF102991021011012501001001MA1999999098061MD1999999+0041REMSYN070AAXX  13184 82986 32698 21412 10341 20129 39806 40086 82100 333 58004;EQDQ01  00002PRCP06
0208829860999992003101400004-09400-038217FM-12+0252SBUF V0201401N007712200019N0020001N1+02631+01531101361ADDAA106000091GA1001+999999999GF100991001001999999001001KA1240M+03441MA1999999098521MD1999999+0121REMSYN082AAXX  14004 82986 32995 01415 10263 20153 39852 40136 333 10344 29046 55095 58012;EQDQ01  00002PRCP06
0186829860999992003101412004-09400-038217FM-12+0252SBUF V0201401N005110450019N0100001N1+02571+01731101501ADDAA106000091GF106991041021008001081001KA1240N+02081MA1999999098651MD1999999+0081REMSYN076AAXX  14124 82986 32597 61410 10257 20173 39865 40150 84280 333 20208 58008;EQDQ01  00002PRCP06
0208829860999992003101500004-09400-038217FM-12+0252SBUF V0201401N005112200019N0020001N1+02641+01751101391ADDAA106000091GA1001+999999999GF100991001001999999001001KA1240M+03391MA1999999098541MD1999999+0021REMSYN082AAXX  15004 82986 32995 01410 10264 20175 39854 40139 333 10339 29053 55102 58002;EQDQ01  00002PRCP06
0186829860999992003101512004-09400-038217FM-12+0252SBUF V0201401N005110075019N0200001N1+02761+01801101521ADDAA106000091GF106991061021008001001001KA1240N+02201MA1999999098681MD1999999+0031REMSYN076AAXX  15124 82986 32598 61410 10276 20180 39868 40152 86200 333 20220 58003;EQDQ01  00002PRCP06
0167829860999992003101518004-09400-038217FM-12+0252SBUF V0201401N003610450019N0200001N1+03071+01661101151ADDAA106000091GF106991021011008001081011MA1999999098321MD1999999+0191REMSYN070AAXX  15184 82986 32598 61407 10307 20166 39832 40115 82181 333 58019;EQDQ01  00002PRCP06
0198829860999992003101600004-09400-038217FM-12+0252SBUF V0201801N003610450019N0010001N1+02411+01911101561ADDAA106000091GF106991031011008001081001KA1240M+03201MA1999999098711MD1999999+0171REMSYN088AAXX  16004 82986 32594 61807 10241 20191 39871 40156 83180 333 10320 29061 55066 58017;EQDQ01  00002PRCP06
0195829860999992003101618004-09400-038217FM-12+0252SBUF V0201801N004110090019N0040001N1+02421+02051101361ADDAA106000091AY121061AY221061GF108991081081004501999999MA1999999098481MD1999999+0161MW1151REMSYN076AAXX  16184 82986 31496 81808 10242 20205 39848 40136 71522 888// 333 58016;EQDQ01  00002PRCP06
0202829860999992003101700004-09400-038217FM-12+0252SBUF V0201801N002610450019N0020001N1+02081+01951101681ADDAY161061AY251061GF106991031071004501081001KA1240M+02731MA1999999098781MD1999999+0071MW1031REMSYN100AAXX  17004 82986 21495 61805 10208 20195 39878 40168 70365 83780 333 10273 29087 55010 58007 60041;
0190829860999992003101712004-09400-038217FM-12+0252SBUF V0201801N002610060019N0020001N1+02071+01941101701ADDAY161061AY261061GF108991081081002501999999KA1240N+02001MA1999999098791MD1999999-0071MW1911REMSYN088AAXX  17124 82986 21395 81805 10207 20194 39879 40170 79166 888// 333 20200 59007 60044;
0171829860999992003101718004-09400-038217FM-12+0252SBUF V0201801N002610042019N0040001N1+02461+02011101331ADDAY161061AY251061GF107991051071004501081001MA1999999098451MD1999999-0031MW1031REMSYN082AAXX  17184 82986 21496 71805 10246 20201 39845 40133 70365 85780 333 59003 69911;
0196829860999992003101800004-09400-038217FM-12+0252SBUF V0201801N003110090019N0010001N1+02101+01961101651ADDAY161061AY251061GF108991081081004501999999KA1240M+02671MA1999999098741MD1999999-0041MW1031REMSYN094AAXX  18004 82986 21494 81806 10210 20196 39874 40165 70365 888// 333 10267 29088 55009 59004;
0190829860999992003101812004-09400-038217FM-12+0252SBUF V0201801N002610060019N0020001N1+02201+01941101701ADDAY121061AY221061GF108991081081002501999999KA1240N+02021MA1999999098791MD1999999+0001MW1201REMSYN088AAXX  18124 82986 21395 81805 10220 20194 39879 40170 72022 888// 333 20202 58000 69984;
0176829860999992003101818004-09400-038217FM-12+0252SBUF V0201401N007210450019N0100001N1+02571+02081101321ADDAA106000021AY121061AY221061GF106991041081002501061001MA1999999098451MD1999999+0001MW1151REMSYN076AAXX  18184 82986 31397 61414 10257 20208 39845 40132 71522 84860 333 58000;
0202829860999992003101900004-09400-038217FM-12+0252SBUF V0201401N005710021019N0020001N1+02251+02191101661ADDAY161061AY221061GF108991081071002501999999KA1240M+02951MA1999999098761MD1999999+0021MW1611REMSYN100AAXX  19004 82986 21395 81411 10225 20219 39876 40166 76162 887// 333 10295 29089 55036 58002 60031;
0162829860999992003101912004-09400-038217FM-12+0252SBUF V0201801N003110450019N0040001N1+02501+02001101681ADDGF106991041071004501081001KA1240N+02101MA1999999098801MD1999999+0011REMSYN082AAXX  19124 82986 22496 61806 10250 20200 39880 40168 84780 333 20210 58001 60034;
0167829860999992003101918004-09400-038217FM-12+0252SBUF V0200901N006710450019N0200001N1+03011+01971101181ADDAA106000091GF106991041021004501061021MA1999999098341MD1999999-0111REMSYN070AAXX  19184 82986 32498 60913 10301 20197 39834 40118 84262 333 59011;EQDQ01  00002PRCP06
0195829860999992003102012004-09400-038217FM-12+0252SBUF V0201401N005110021019N0100001N1+02371+02221101611ADDAA106000021AY121061AY221061GF106991051071002501041001KA1240N+02251MA1999999098731MD1999999-0071MW1201REMSYN082AAXX  20124 82986 31397 61410 10237 20222 39873 40161 72022 85740 333 20225 59007;
0148829860999992003102018004-09400-038217FM-12+0252SBUF V0201401N005110450019N0100001N1+02751+02121101191ADDAA106000021GF106991041021004501081011MA1999999098341MD1999999+0001REMSYN070AAXX  20184 82986 32497 61410 10275 20212 39834 40119 84281 333 58000;
0198829860999992003102100004-09400-038217FM-12+0252SBUF V0201401N003110450019N0020001N1+02471+02071101471ADDAA106000091GF106991031011008001081001KA1240M+03051MA1999999098601MD1999999-0081REMSYN088AAXX  21004 82986 32595 61406 10247 20207 39860 40147 83180 333 10305 29079 55037 59008;EQDQ01  00002PRCP06
0186829860999992003102112004-09400-038217FM-12+0252SBUF V0201401N005712200019N0100001N1+02701+01801101471ADDAA106000091GF104991041011008001001001KA1240N+02081MA1999999098621MD1999999-0111REMSYN076AAXX  21124 82986 32597 41411 10270 20180 39862 40147 84100 333 20208 59011;EQDQ01  00002PRCP06
0167829860999992003102118004-09400-038217FM-12+0252SBUF V0201401N005712200019N0500001N1+03271+01471100861ADDAA106000091GF103991011001012501041011MA1999999098041MD1999999-0301REMSYN070AAXX  21184 82986 32699 31411 10327 20147 39804 40086 81041 333 59030;EQDQ01  00002PRCP06
0208829860999992003102200004-09400-038217FM-12+0252SBUF V0201801N006712200019N0020001N1+02631+01881101221ADDAA106000091GA1001+999999999GF100991001001999999001001KA1240M+03331MA1999999098391MD1999999-0211REMSYN082AAXX  22004 82986 32995 01813 10263 20188 39839 40122 333 10333 29055 55101 59021;EQDQ01  00002PRCP06
0186829860999992003102212004-09400-038217FM-12+0252SBUF V0201401N002110450019N0200001N1+02691+01841101431ADDAA106000091GF106991031011008001081011KA1240N+02211MA1999999098591MD1999999-0031REMSYN076AAXX  22124 82986 32598 61404 10269 20184 39859 40143 83181 333 20221 59003;EQDQ01  00002PRCP06
0167829860999992003102218004-09400-038217FM-12+0252SBUF V0201401N003112200019N0500001N1+03281+01661100931ADDAA106000091GF103991011011008001041031MA1999999098111MD1999999+0001REMSYN070AAXX  22184 82986 32599 31406 10328 20166 39811 40093 81143 333 58000;EQDQ01  00002PRCP06
0208829860999992003102300004-09400-038217FM-12+0252SBUF V0201401N005112200019N0020001N1+02631+01831101241ADDAA106000091GA1001+999999999GF100991001001999999001001KA1240M+03341MA1999999098401MD1999999+0011REMSYN082AAXX  23004 82986 32995 01410 10263 20183 39840 40124 333 10334 29056 55109 58001;EQDQ01  00002PRCP06
0186829860999992003102312004-09400-038217FM-12+0252SBUF V0201401N003612200019N0100001N1+02731+01711101481ADDAA106000091GF103991021001012501041021KA1240N+02021MA1999999098641MD1999999+0051REMSYN076AAXX  23124 82986 32697 31407 10273 20171 39864 40148 82042 333 20202 58005;EQDQ01  00002PRCP06
0167829860999992003102318004-09400-038217FM-12+0252SBUF V0201401N002112200019N0200001N1+03421+01611100921ADDAA106000091GF103991021001012501041021MA1999999098101MD1999999-0011REMSYN070AAXX  23184 82986 32698 31404 10342 20161 39810 40092 82042 333 59001;EQDQ01  00002PRCP06
0162829860999992003102400004-09400-038217FM-12+0252SBUF V0201401N005112200019N0020001N1+02771+02121999999ADDAA106000091GA1001+999999999GF100991001001999999001001REMSYN078AAXX  24004 82986 32995 01410 10277 20212 10352 29056 39845 40129 55107 58006;EQDQ01  00002PRCP06
0186829860999992003102412004-09400-038217FM-12+0252SBUF V0201401N002610450019N0100001N1+02811+01921101581ADDAA106000091GF106991041011008001081001KA1240N+02001MA1999999098751MD1999999+0111REMSYN076AAXX  24124 82986 32597 61405 10281 20192 39875 40158 84180 333 20200 58011;EQDQ01  00002PRCP06
0195829860999992003102418004-09400-038217FM-12+0252SBUF V0201401N005110075019N0200001N1+03391+01571101111ADDAA106000091AY121061AY221061GF106991051021008001051001MA1999999099311MD1999999+0211MW1151REMSYN076AAXX  24184 82986 31598 61410 10339 20157 39931 40111 71522 85250 333 58021;EQDQ01  00002PRCP06
0198829860999992003102500004-09400-038217FM-12+0252SBUF V0201401N006212200019N0020001N1+02601+02011101631ADDAA106000091GF102991021011012501001001KA1240M+03441MA1999999098731MD1999999+0271REMSYN088AAXX  25004 82986 32695 21412 10260 20201 39873 40163 82100 333 10344 29058 55089 58027;EQDQ01  00002PRCP06
0186829860999992003102512004-09400-038217FM-12+0252SBUF V0201401N005110450019N0100001N1+02751+01921101581ADDAA106000091GF106991031011008001081051KA1240N+02281MA1999999098741MD1999999-0011REMSYN076AAXX  25124 82986 32597 61410 10275 20192 39874 40158 83185 333 20228 59001;EQDQ01  00002PRCP06
0167829860999992003102518004-09400-038217FM-12+0252SBUF V0201401N007211050019N0200001N1+03111+01661101081ADDAA106000091GF106991021021008001001081MA1999999098251MD1999999-0061REMSYN070AAXX  25184 82986 32598 61414 10311 20166 39825 40108 82208 333 59006;EQDQ01  00002PRCP06
0208829860999992003102600004-09400-038217FM-12+0252SBUF V0201401N006212200019N0020001N1+02511+01821101391ADDAA106000091GA1001+999999999GF100991001001999999001001KA1240M+03321MA1999999098551MD1999999-0181REMSYN082AAXX  26004 82986 32995 01412 10251 20182 39855 40139 333 10332 29059 55071 59018;EQDQ01  00002PRCP06
0186829860999992003102612004-09400-038217FM-12+0252SBUF V0201401N007710075019N0100001N1+02751+01781101341ADDAA106000091GF105991051021008001001001KA1240N+02141MA1999999098501MD1999999-0241REMSYN076AAXX  26124 82986 32597 51415 10275 20178 39850 40134 85200 333 20214 59024;EQDQ01  00002PRCP06
0167829860999992003102618004-09400-038217FM-12+0252SBUF V0201401N006710450019N0500001N1+03131+01391100911ADDAA106000091GF105991021011008001081001MA1999999098081MD1999999-0171REMSYN070AAXX  26184 82986 32599 51413 10313 20139 39808 40091 82180 333 59017;EQDQ01  00002PRCP06
0208829860999992003102700004-09400-038217FM-12+0252SBUF V0201401N006712200019N0020001N1+02511+01591101241ADDAA106000091GA1001+999999999GF100991001001999999001001KA1240M+03271MA1999999098401MD1999999-0151REMSYN082AAXX  27004 82986 32995 01413 10251 20159 39840 40124 333 10327 29051 55107 59015;EQDQ01  00002PRCP06
0195829860999992003102712004-09400-038217FM-12+0252SBUF V0201401N006210120019N0100001N1+02291+02091101301ADDAA106000021AY121061AY221061GF106991051051012501071001KA1240N+02141MA1999999098431MD1999999-0071MW1201REMSYN082AAXX  27124 82986 31697 61412 10229 20209 39843 40130 72022 85570 333 20214 59007;
0148829860999992003102718004-09400-038217FM-12+0252SBUF V0201401N006210450019N0200001N1+02881+01911100961ADDAA106000021GF106991031011008001081001MA1999999098111MD1999999+0031REMSYN070AAXX  27184 82986 32598 61412 10288 20191 39811 40096 83180 333 58003;
0198829860999992003102800004-09400-038217FM-12+0252SBUF V0201401N003110450019N0020001N1+02511+01981101241ADDAA106000091GF106991031011008001081001KA1240M+03151MA1999999098381MD1999999-0021REMSYN088AAXX  28004 82986 32595 61406 10251 20198 39838 40124 83180 333 10315 29073 55052 59002;EQDQ01  00002PRCP06
0186829860999992003102812004-09400-038217FM-12+0252SBUF V0201401N005110450019N0100001N1+02611+01761101431ADDAA106000091GF106991031011008001081011KA1240N+02231MA1999999098581MD1999999+0161REMSYN076AAXX  28124 82986 32597 61410 10261 20176 39858 40143 83181 333 20223 58016;EQDQ01  00002PRCP06
0167829860999992003102818004-09400-038217FM-12+0252SBUF V0201401N003612200019N0200001N1+03211+01551101011ADDAA106000091GF106991031011008001001061MA1999999098191MD1999999+0081REMSYN070AAXX  28184 82986 32598 61407 10321 20155 39819 40101 83106 333 58008;EQDQ01  00002PRCP06
0208829860999992003102900004-09400-038217FM-12+0252SBUF V0201401N005112200019N0020001N1+02571+01901101401ADDAA106000091GA1001+999999999GF100991001001999999001001KA1240M+03401MA1999999098551MD1999999+0171REMSYN082AAXX  29004 82986 32995 01410 10257 20190 39855 40140 333 10340 29058 55086 58017;EQDQ01  00002PRCP06
0186829860999992003102912004-09400-038217FM-12+0252SBUF V0200501N003610450019N0040001N1+02641+02031101341ADDAA106000091GF107991041021004501081001KA1240N+02211MA1999999098591MD1999999+0011REMSYN076AAXX  29124 82986 32496 70507 10264 20203 39859 40134 84280 333 20221 58001;EQDQ01  00002PRCP06
0167829860999992003102918004-09400-038217FM-12+0252SBUF V0201801N003610450019N0100001N1+03151+01941100951ADDAA106000091GF106991041021004501081001MA1999999098131MD1999999-0061REMSYN070AAXX  29184 82986 32497 61807 10315 20194 39813 40095 84280 333 59006;EQDQ01  00002PRCP06
0198829860999992003103000004-09400-038217FM-12+0252SBUF V0201401N005110450019N0020001N1+02521+01981101361ADDAA106000091GF106991041021008001081001KA1240M+03301MA1999999098511MD1999999-0041REMSYN088AAXX  30004 82986 32595 61410 10252 20198 39851 40136 84280 333 10330 29066 55074 59004;EQDQ01  00002PRCP06
0186829860999992003103012004-09400-038217FM-12+0252SBUF V0201401N003610075019N0100001N1+02671+01971101411ADDAA106000091GF105991051021008001001001KA1240N+02131MA1999999098561MD1999999-0031REMSYN076AAXX  30124 82986 32597 51407 10267 20197 39856 40141 85200 333 20213 59003;EQDQ01  00002PRCP06
0167829860999992003103018004-09400-038217FM-12+0252SBUF V0201401N004112200019N0200001N1+03211+01631100901ADDAA106000091GF104991021021012501031001MA1999999098081MD1999999-0051REMSYN070AAXX  30184 82986 32698 41408 10321 20163 39808 40090 82230 333 59005;EQDQ01  00002PRCP06
0208829860999992003103100004-09400-038217FM-12+0252SBUF V0201401N006712200019N0020001N1+02591+01491101271ADDAA106000091GA1001+999999999GF100991001001999999001001KA1240M+03291MA1999999098431MD1999999-0081REMSYN082AAXX  31004 82986 32995 01413 10259 20149 39843 40127 333 10329 29052 55088 59008;EQDQ01  00002PRCP06
0186829860999992003103112004-09400-038217FM-12+0252SBUF V0201401N005112200019N0100001N1+02681+01781101301ADDAA106000091GF104991031011008001001011KA1240N+02081MA1999999098461MD1999999-0101REMSYN076AAXX  31124 82986 32597 41410 10268 20178 39846 40130 83101 333 20208 59010;EQDQ01  00002PRCP06
0167829860999992003103118004-09400-038217FM-12+0252SBUF V0201401N003612200019N0200001N1+03351+01671100701ADDAA106000091GF103991031011012501001011MA1999999097901MD1999999-0181REMSYN070AAXX  31184 82986 32698 31407 10335 20167 39790 40070 83101 333 59018;EQDQ01  00002PRCP06
0208829860999992003110100004-09400-038217FM-12+0252SBUF V0201401N007212200019N0020001N1+02611+01761101141ADDAA106000091GA1001+999999999GF100991001001999999001001KA1240M+03411MA1999999098311MD1999999-0121REMSYN082AAXX  01004 82986 32995 01414 10261 20176 39831 40114 333 10341 29054 55108 59012;EQDQ01  00002PRCP06
0186829860999992003110112004-09400-038217FM-12+0252SBUF V0201401N003612200019N0200001N1+02711+01781101281ADDAA106000091GF103991031011012501001011KA1240N+02151MA1999999098441MD1999999-0021REMSYN076AAXX  01124 82986 32698 31407 10271 20178 39844 40128 83101 333 20215 59002;EQDQ01  00002PRCP06
0167829860999992003110118004-09400-038217FM-12+0252SBUF V0201401N004612200019N0200001N1+03351+01541100771ADDAA106000091GF102991021011012501001011MA1999999097961MD1999999+0061REMSYN070AAXX  01184 82986 32698 21409 10335 20154 39796 40077 82101 333 58006;EQDQ01  00002PRCP06
0208829860999992003110200004-09400-038217FM-12+0252SBUF V0201401N005712200019N0020001N1+02611+01841101111ADDAA106000091GA1001+999999999GF100991001001999999001001KA1240M+03421MA1999999098281MD1999999-0031REMSYN082AAXX  02004 82986 32995 01411 10261 20184 39828 40111 333 10342 29054 55105 59003;EQDQ01  00002PRCP06
0186829860999992003110212004-09400-038217FM-12+0252SBUF V0201401N003110075019N0200001N1+02751+02021101201ADDAA106000091GF106991051011008001041001KA1240N+02281MA1999999098371MD1999999-0071REMSYN076AAXX  02124 82986 32598 61406 10275 20202 39837 40120 85140 333 20228 59007;EQDQ01  00002PRCP06
0167829860999992003110218004-09400-038217FM-12+0252SBUF V0201801N003111050019N0200001N1+03331+01741100671ADDAA106000091GF105991021021008001031011MA1999999097871MD1999999-0091REMSYN070AAXX  02184 82986 32598 51806 10333 20174 39787 40067 82231 333 59009;EQDQ01  00002PRCP06
0208829860999992003110300004-09400-038217FM-12+0252SBUF V0201401N007712200019N0020001N1+02831+02001100551ADDAA106000091GA1001+999999999GF100991001001999999001001KA1240M+03461MA1999999098111MD1999999-0171REMSYN082AAXX  03004 82986 32995 01415 10283 20200 39811 40055 333 10346 29057 55088 59017;EQDQ01  00002PRCP06
0186829860999992003110312004-09400-038217FM-12+0252SBUF V0203201N001012200019N0200001N1+02831+01861101051ADDAA106000091GF102991021001012501041001KA1240N+02201MA1999999098241MD1999999-0131REMSYN076AAXX  03124 82986 32698 23202 10283 20186 39824 40105 82040 333 20220 59013;EQDQ01  00002PRCP06
0167829860999992003110318004-09400-038217FM-12+0252SBUF V0203601N001511050019N0200001N1+03511+01681100451ADDAA106000091GF105991021021008001031011MA1999999097671MD1999999-0201REMSYN070AAXX  03184 82986 32598 53603 10351 20168 39767 40045 82231 333 59020;EQDQ01  00002PRCP06
0242829860999992003110400004-09400-038217FM-12+0252SBUF V0200901N003110450019N0020001N1+02931+02011100841ADDAA106000091AY121061AY221061GF105991031021008001051001KA1240M+03621MA1999999999999MD1999999-0071MW1131REMSYN094AAXX  04004 82986 31595 50906 10293 20201 39604 40084 71322 83250 333 10362 29052 55108 59007;EQDQ01  00002PRCP06Q02 096043APOSP 
0186829860999992003110412004-09400-038217FM-12+0252SBUF V0203201N001010450019N0200001N1+02871+01981101041ADDAA106000091GF106991031051008001051001KA1240N+02521MA1999999098241MD1999999+0001REMSYN076AAXX  04124 82986 32598 63202 10287 20198 39824 40104 83550 333 20252 58000;EQDQ01  00002PRCP06
0211829860999992003110418004-09400-038217FM-12+0252SBUF V0202301N005710042019N0040001N1+02541+02111100951ADDAA106000091AY121061AY221061GF108991999071004501081999MA1999999098111MD1999999+0441MW1171REMSYN076AAXX  04184 82986 31496 82311 10254 20211 39811 40095 71722 8878/ 333 58044;EQDQ01+000082SCOTLCQ02  00002PRCP06
0198829860999992003110500004-09400-038217FM-12+0252SBUF V0201801N003110090019N0020001N1+02411+02031101371ADDAA106000091GF108991081081004501999999KA1240M+03301MA1999999098531MD1999999+0491REMSYN088AAXX  05004 82986 32495 81806 10241 20203 39853 40137 888// 333 10330 29074 55004 58049;EQDQ01  00002PRCP06
0190829860999992003110512004-09400-038217FM-12+0252SBUF V0201801N003110090019N0040001N1+02431+02051101511ADDAY161061AY251061GF108991081081004501999999KA1240N+02191MA1999999098641MD1999999+0401MW1031REMSYN088AAXX  05124 82986 21496 81806 10243 20205 39864 40151 70365 888// 333 20219 58040 69924;
0195829860999992003110518004-09400-038217FM-12+0252SBUF V0201401N007710090019N0040001N1+03021+01961101091ADDAA106000091AY121061AY221061GF107991051081004501091999MA1999999098261MD1999999+0151MW1151REMSYN076AAXX  05184 82986 31496 71415 10302 20196 39826 40109 71522 8589/ 333 58015;EQDQ01  00002PRCP06
0198829860999992003110600004-09400-038217FM-12+0252SBUF V0201801N005710090019N0020001N1+02451+02051101491ADDAA106000091GF108991081081004501999999KA1240M+03061MA1999999098621MD1999999+0091REMSYN088AAXX  06004 82986 32495 81811 10245 20205 39862 40149 888// 333 10306 29073 55022 58009;EQDQ01  00002PRCP06
0186829860999992003110612004-09400-038217FM-12+0252SBUF V0201801N003119999999N0040001N1+02541+02021101431ADDAA106000091GF108991081999004501999999KA1240N+02241MA1999999098571MD1999999-0091REMSYN076AAXX  06124 82986 32496 81806 10254 20202 39857 40143 88/// 333 20224 59009;EQDQ01  00002PRCP06
0171829860999992003110618004-09400-038217FM-12+0252SBUF V0201801N006210450019N0200001N1+02721+02191101021ADDAY151061AY221061GF106991031021004501071001MA1999999098171MD1999999-0091MW1251REMSYN082AAXX  06184 82986 21498 61812 10272 20219 39817 40102 72552 83270 333 59009 60021;
0179829860999992003110700004-09400-038217FM-12+0252SBUF V0201401N006210450019N0020001N1+02481+02191101321ADDAA106000021GF107991041081004501051999KA1240M+03071MA1999999098461MD1999999-0161REMSYN088AAXX  07004 82986 32495 71412 10248 20219 39846 40132 8485/ 333 10307 29078 55025 59016;
0190829860999992003110712004-09400-038217FM-12+0252SBUF V0201401N006210090019N0100001N1+02671+02091101241ADDAY161061AY221061GF107991051081004501081999KA1240N+02241MA1999999098401MD1999999-0171MW1021REMSYN088AAXX  07124 82986 21497 71412 10267 20209 39840 40124 70262 8588/ 333 20224 59017 60024;
0167829860999992003110718004-09400-038217FM-12+0252SBUF V0201401N004110075019N0200001N1+03241+01891100771ADDAA106000091GF106991051031008001041001MA1999999097961MD1999999-0211REMSYN070AAXX  07184 82986 32598 61408 10324 20189 39796 40077 85340 333 59021;EQDQ01  00002PRCP06
0198829860999992003110800004-09400-038217FM-12+0252SBUF V0201401N007210450019N0020001N1+02531+02171101171ADDAA106000091GF106991031081004501051001KA1240M+03261MA1999999098331MD1999999-0131REMSYN088AAXX  08004 82986 32495 61414 10253 20217 39833 40117 83850 333 10326 29070 55052 59013;EQDQ01  00002PRCP06
0186829860999992003110812004-09400-038217FM-12+0252SBUF V0201401N001510450019N0100001N1+02691+01971101351ADDAA106000091GF106991031011008001051091KA1240N+02321MA1999999098501MD1999999+0101REMSYN076AAXX  08124 82986 32597 61403 10269 20197 39850 40135 83159 333 20232 58010;EQDQ01  00002PRCP06
0167829860999992003110818004-09400-038217FM-12+0252SBUF V0201401N003612200019N0200001N1+03331+01741100861ADDAA106000091GF102991021011008001001011MA1999999098061MD1999999+0101REMSYN070AAXX  08184 82986 32598 21407 10333 20174 39806 40086 82101 333 58010;EQDQ01  00002PRCP06
0198829860999992003110900004-09400-038217FM-12+0252SBUF V0201401N006212200019N0020001N1+02751+02121101121ADDAA106000091GF102991001001999999001011KA1240M+03391MA1999999098291MD1999999-0041REMSYN088AAXX  09004 82986 32995 21412 10275 20212 39829 40112 80001 333 10339 29060 55102 59004;EQDQ01  00002PRCP06
0186829860999992003110912004-09400-038217FM-12+0252SBUF V0203201N000512200019N0200001N1+02771+01971101331ADDAA106000091GF104991041011012501001001KA1240N+02231MA1999999098501MD1999999+0001REMSYN076AAXX  09124 82986 32698 43201 10277 20197 39850 40133 84100 333 20223 58000;EQDQ01  00002PRCP06
0167829860999992003110918004-09400-038217FM-12+0252SBUF V0201401N002612200019N0500001N1+03391+01621100841ADDAA106000091GF103991031011012501001001MA1999999098041MD1999999-0021REMSYN070AAXX  09184 82986 32699 31405 10339 20162 39804 40084 83100 333 59002;EQDQ01  00002PRCP06
0198829860999992003111000004-09400-038217FM-12+0252SBUF V0201401N003112200019N0020001N1+02691+02041101171ADDAA106000091GF101991001001999999001011KA1240M+03421MA1999999098351MD1999999+0061REMSYN088AAXX  10004 82986 32995 11406 10269 20204 39835 40117 80001 333 10342 29058 55107 58006;EQDQ01  00002PRCP06
0186829860999992003111012004-09400-038217FM-12+0252SBUF V0201401N003112200019N0200001N1+02711+01881101341ADDAA106000091GF104991031011008001001011KA1240N+02141MA1999999098511MD1999999+0011REMSYN076AAXX  10124 82986 32598 41406 10271 20188 39851 40134 83101 333 20214 58001;EQDQ01  00002PRCP06
0167829860999992003111018004-09400-038217FM-12+0252SBUF V0201401N003112200019N0500001N1+03331+01741100901ADDAA106000091GF102991011001012501041011MA1999999098091MD1999999+0051REMSYN070AAXX  10184 82986 32699 21406 10333 20174 39809 40090 81041 333 58005;EQDQ01  00002PRCP06
0208829860999992003111100004-09400-038217FM-12+0252SBUF V0201401N003112200019N0020001N1+02621+01961101221ADDAA106000091GA1001+999999999GF100991001001999999001001KA1240M+03371MA1999999098391MD1999999+0041REMSYN082AAXX  11004 82986 32995 01406 10262 20196 39839 40122 333 10337 29059 55110 58004;EQDQ01  00002PRCP06
0186829860999992003111112004-09400-038217FM-12+0252SBUF V0201401N003610450019N0100001N1+02691+01971101331ADDAA106000091GF106991031011008001081011KA1240N+02241MA1999999098491MD1999999-0021REMSYN076AAXX  11124 82986 32597 61407 10269 20197 39849 40133 83181 333 20224 59002;EQDQ01  00002PRCP06
0167829860999992003111118004-09400-038217FM-12+0252SBUF V0201401N007710120019N0200001N1+03341+01581100831ADDAA106000091GF106991061021012501001021MA1999999098021MD1999999-0071REMSYN070AAXX  11184 82986 32698 61415 10334 20158 39802 40083 86202 333 59007;EQDQ01  00002PRCP06
0198829860999992003111200004-09400-038217FM-12+0252SBUF V0201401N004112200019N0020001N1+02551+01781101281ADDAA106000091GF102991001001999999001011KA1240M+03371MA1999999098441MD1999999+0051REMSYN088AAXX  12004 82986 32995 21408 10255 20178 39844 40128 80001 333 10337 29056 55094 58005;EQDQ01  00002PRCP06
0214829860999992003111212004-09400-038217FM-12+0252SBUF V0201401N003110450019N0100001N1+02731+01981101411ADDAA106000091AY101061AY221061GF106991041021008001081001KA1240N+02241MA1999999098571MD1999999+0081MW1051REMSYN082AAXX  12124 82986 31597 61406 10273 20198 39857 40141 70502 84280 333 20224 58008;EQDQ01  00002PRCP06
0167829860999992003111218004-09400-038217FM-12+0252SBUF V0201401N005710075019N0200001N1+03241+01581100991ADDAA106000091GF106991051021008001031001MA1999999098181MD1999999+0161REMSYN070AAXX  12184 82986 32598 61411 10324 20158 39818 40099 85230 333 58016;EQDQ01  00002PRCP06
0208829860999992003111300004-09400-038217FM-12+0252SBUF V0201401N006712200019N0020001N1+02631+01961101301ADDAA106000091GA1001+999999999GF100991001001999999001001KA1240M+03341MA1999999098471MD1999999+0031REMSYN082AAXX  13004 82986 32995 01413 10263 20196 39847 40130 333 10334 29059 55083 58003;EQDQ01  00002PRCP06
0214829860999992003111312004-09400-038217FM-12+0252SBUF V0201401N002610042019N0100001N1+02681+01971101501ADDAA106000091AY141061AY221061GF106991051021004501081001KA1240N+02361MA1999999098651MD1999999+0101MW1051REMSYN082AAXX  13124 82986 31497 61405 10268 20197 39865 40150 70542 85280 333 20236 58010;EQDQ01  00002PRCP06
0167829860999992003111318004-09400-038217FM-12+0252SBUF V0201401N003112200019N0200001N1+03361+01771100961ADDAA106000091GF103991021011012501031001MA1999999098171MD1999999-0011REMSYN070AAXX  13184 82986 32698 31406 10336 20177 39817 40096 82130 333 59001;EQDQ01  00002PRCP06
0208829860999992003111400004-09400-038217FM-12+0252SBUF V0200901N007212200019N0020001N1+02851+01961101181ADDAA106000091GA1001+999999999GF100991001001999999001001KA1240M+03401MA1999999098351MD1999999-0121REMSYN082AAXX  14004 82986 32995 00914 10285 20196 39835 40118 333 10340 29056 55085 59012;EQDQ01  00002PRCP06
0214829860999992003111412004-09400-038217FM-12+0252SBUF V0202301N002612200019N0100001N1+02791+02041101291ADDAA106000091AY141061AY201061GF101991011011012501001001KA1240N+02241MA1999999098471MD1999999-0181MW1051REMSYN082AAXX  14124 82986 31697 12305 10279 20204 39847 40129 70540 81100 333 20224 59018;EQDQ01  00002PRCP06
0167829860999992003111418004-09400-038217FM-12+0252SBUF V0201401N002612200019N0200001N1+03551+01571100831ADDAA106000091GF101991011011012501001021MA1999999098011MD1999999-0161REMSYN070AAXX  14184 82986 32698 11405 10355 20157 39801 40083 81102 333 59016;EQDQ01  00002PRCP06
0208829860999992003111500004-09400-038217FM-12+0252SBUF V0201401N008212200019N0020001N1+02811+02031101221ADDAA106000091GA1001+999999999GF100991001001999999001001KA1240M+03601MA1999999098401MD1999999+0051REMSYN082AAXX  15004 82986 32995 01416 10281 20203 39840 40122 333 10360 29055 55113 58005;EQDQ01  00002PRCP06
0186829860999992003111512004-09400-038217FM-12+0252SBUF V0201401N004610450019N0100001N1+02791+01981101401ADDAA106000091GF105991031011008001061011KA1240N+02281MA1999999098581MD1999999+0111REMSYN076AAXX  15124 82986 32597 51409 10279 20198 39858 40140 83161 333 20228 58011;EQDQ01  00002PRCP06
0167829860999992003111518004-09400-038217FM-12+0252SBUF V0201401N005112200019N0200001N1+03351+01711101021ADDAA106000091GF103991021011012501041001MA1999999098211MD1999999+0201REMSYN070AAXX  15184 82986 32698 31410 10335 20171 39821 40102 82140 333 58020;EQDQ01  00002PRCP06
0208829860999992003111600004-09400-038217FM-12+0252SBUF V0201401N005112200019N0020001N1+02641+01931101331ADDAA106000091GA1001+999999999GF100991001001999999001001KA1240M+03381MA1999999098501MD1999999+0101REMSYN082AAXX  16004 82986 32995 01410 10264 20193 39850 40133 333 10338 29057 55107 58010;EQDQ01  00002PRCP06
0214829860999992003111612004-09400-038217FM-12+0252SBUF V0201401N005110450019N0100001N1+02811+01951101421ADDAA106000091AY141061AY221061GF106991041021004501081001KA1240N+02351MA1999999098591MD1999999+0011MW1051REMSYN082AAXX  16124 82986 31497 61410 10281 20195 39859 40142 70542 84280 333 20235 58001;EQDQ01  00002PRCP06
0167829860999992003111618004-09400-038217FM-12+0252SBUF V0200901N005112200019N0200001N1+03371+01771100931ADDAA106000091GF104991041021008001001001MA1999999098131MD1999999-0081REMSYN070AAXX  16184 82986 32598 40910 10337 20177 39813 40093 84200 333 59008;EQDQ01  00002PRCP06
0198829860999992003111700004-09400-038217FM-12+0252SBUF V0201401N003612200019N0020001N1+02601+02141101231ADDAA106000091GF103991031001012501061001KA1240M+03421MA1999999098401MD1999999-0101REMSYN088AAXX  17004 82986 32695 31407 10260 20214 39840 40123 83060 333 10342 29063 55096 59010;EQDQ01  00002PRCP06
0186829860999992003111712004-09400-038217FM-12+0252SBUF V0201401N005110450019N0040001N1+02631+02071101321ADDAA106000091GF106991031021004501081001KA1240N+02321MA1999999098491MD1999999-0101REMSYN076AAXX  17124 82986 32496 61410 10263 20207 39849 40132 83280 333 20232 59010;EQDQ01  00002PRCP06
0167829860999992003111718004-09400-038217FM-12+0252SBUF V0200901N005112200019N0200001N1+03411+01681100841ADDAA106000091GF104991041031008001001001MA1999999098041MD1999999-0091REMSYN070AAXX  17184 82986 32598 40910 10341 20168 39804 40084 84300 333 59009;EQDQ01  00002PRCP06
0198829860999992003111800004-09400-038217FM-12+0252SBUF V0201401N005110042019N0020001N1+02581+02151101241ADDAA106000091GF106991051021004501081001KA1240M+03461MA1999999098401MD1999999+0001REMSYN088AAXX  18004 82986 32495 61410 10258 20215 39840 40124 85280 333 10346 29066 55089 58000;EQDQ01  00002PRCP06
0186829860999992003111812004-09400-038217FM-12+0252SBUF V0201401N005710075019N0100001N1+02791+01731101341ADDAA106000091GF105991051021008001001001KA1240N+02381MA1999999098511MD1999999+0021REMSYN076AAXX  18124 82986 32597 51411 10279 20173 39851 40134 85200 333 20238 58002;EQDQ01  00002PRCP06
0167829860999992003111818004-09400-038217FM-12+0252SBUF V0201401N005712200019N0200001N1+03311+01461100801ADDAA106000091GF101991011011012501001001MA1999999098001MD1999999-0041REMSYN070AAXX  18184 82986 32698 11411 10331 20146 39800 40080 81100 333 59004;EQDQ01  00002PRCP06
0208829860999992003111900004-09400-038217FM-12+0252SBUF V0201401N007212200019N0020001N1+02631+01781101151ADDAA106000091GA1001+999999999GF100991001001999999001001KA1240M+03391MA1999999098321MD1999999-0081REMSYN082AAXX  19004 82986 32995 01414 10263 20178 39832 40115 333 10339 29052 55106 59008;EQDQ01  00002PRCP06
0186829860999992003111912004-09400-038217FM-12+0252SBUF V0200901N003610075019N0100001N1+02691+01861101281ADDAA106000091GF106991051021008001081001KA1240N+02181MA1999999098441MD1999999-0071REMSYN076AAXX  19124 82986 32597 60907 10269 20186 39844 40128 85280 333 20218 59007;EQDQ01  00002PRCP06
0167829860999992003111918004-09400-038217FM-12+0252SBUF V0201401N005112200019N0200001N1+03311+01641100761ADDAA106000091GF102991021011012501001001MA1999999097951MD1999999+0151REMSYN070AAXX  19184 82986 32698 21410 10331 20164 39795 40076 82100 333 58015;EQDQ01  00002PRCP06
0208829860999992003112000004-09400-038217FM-12+0252SBUF V0201401N007212200019N0020001N1+02691+01761101021ADDAA106000091GA1001+999999999GF100991001001999999001001KA1240M+03371MA1999999098191MD1999999-0131REMSYN082AAXX  20004 82986 32995 01414 10269 20176 39819 40102 333 10337 29053 55099 59013;EQDQ01  00002PRCP06
0214829860999992003112012004-09400-038217FM-12+0252SBUF V0200901N003112200019N0100001N1+02771+01801101311ADDAA106000091AY141061AY201061GF102991021011012501001001KA1240N+02091MA1999999098481MD1999999+0041MW1051REMSYN082AAXX  20124 82986 31697 20906 10277 20180 39848 40131 70540 82100 333 20209 58004;EQDQ01  00002PRCP06
0167829860999992003112018004-09400-038217FM-12+0252SBUF V0200901N003112200019N0200001N1+03431+01361100861ADDAA106000091GF102991021011012501001051MA1999999098051MD1999999+0101REMSYN070AAXX  20184 82986 32698 20906 10343 20136 39805 40086 82105 333 58010;EQDQ01  00002PRCP06
0208829860999992003112100004-09400-038217FM-12+0252SBUF V0201401N008212200019N0020001N1+02681+02021101211ADDAA106000091GA1001+999999999GF100991001001999999001001KA1240M+03501MA1999999098381MD1999999+0191REMSYN082AAXX  21004 82986 32995 01416 10268 20202 39838 40121 333 10350 29055 55113 58019;EQDQ01  00002PRCP06
0167829860999992003112118004-09400-038217FM-12+0252SBUF V0201401N003112200019N0200001N1+03411+01401100821ADDAA106000091GF103991031011012501001001MA1999999098031MD1999999-0021REMSYN070AAXX  21184 82986 32698 31406 10341 20140 39803 40082 83100 333 59002;EQDQ01  00002PRCP06
0208829860999992003112200004-09400-038217FM-12+0252SBUF V0201401N036522200019N0020001N1+02691+01971101281ADDAA106000091GA1001+999999999GF100991001001999999001001KA1240M+03491MA1999999098451MD1999999+0071REMSYN082AAXX  22004 82986 32995 01471 10269 20197 39845 40128 333 10349 29056 55103 58007;EQDQ01  00002PRCP06
0186829860999992003112212004-09400-038217FM-12+0252SBUF V0201401N005710450019N0100001N1+02801+01811101311ADDAA106000091GF105991031011008001061001KA1240N+02341MA1999999098481MD1999999-0171REMSYN076AAXX  22124 82986 32597 51411 10280 20181 39848 40131 83160 333 20234 59017;EQDQ01  00002PRCP06
0167829860999992003112218004-09400-038217FM-12+0252SBUF V0201401N005112200019N0200001N1+03341+01541100801ADDAA106000091GF103991031011012501001001MA1999999098001MD1999999-0031REMSYN070AAXX  22184 82986 32698 31410 10334 20154 39800 40080 83100 333 59003;EQDQ01  00002PRCP06
0208829860999992003112300004-09400-038217FM-12+0252SBUF V0201401N006212200019N0020001N1+02591+01851101231ADDAA106000091GA1001+999999999GF100991001001999999001001KA1240M+03421MA1999999098401MD1999999-0051REMSYN082AAXX  23004 82986 32995 01412 10259 20185 39840 40123 333 10342 29054 55104 59005;EQDQ01  00002PRCP06
0157829860999992003112312004-09400-038217FM-12+0252SBUF V0201401N005119999999N0100001N1+02681+01861999999ADDAA106000091GF105991999999008001999999KA1240N+02201REMSYN076AAXX  23124 82986 32597 51410 10268 20186 03180 30845 40129 333 20220 59008;EQDQ01  00002PRCP06
0167829860999992003112318004-09400-038217FM-12+0252SBUF V0201401N004110075019N0200001N1+03251+01581100811ADDAA106000091GF106991051021008001041001MA1999999098001MD1999999+0001REMSYN070AAXX  23184 82986 32598 61408 10325 20158 39800 40081 85240 333 58000;EQDQ01  00002PRCP06
0198829860999992003112400004-09400-038217FM-12+0252SBUF V0201401N006712200019N0020001N1+02491+01921101261ADDAA106000091GF102991021011008001001001KA1240M+03351MA1999999098421MD1999999+0021REMSYN088AAXX  24004 82986 32595 21413 10249 20192 39842 40126 82100 333 10335 29060 55098 58002;EQDQ01  00002PRCP06
0186829860999992003112412004-09400-038217FM-12+0252SBUF V0201401N006210450019N0100001N1+02711+01861101251ADDAA106000091GF106991031021008001081001KA1240N+02101MA1999999098411MD1999999-0041REMSYN076AAXX  24124 82986 32597 61412 10271 20186 39841 40125 83280 333 20210 59004;EQDQ01  00002PRCP06
0167829860999992003112418004-09400-038217FM-12+0252SBUF V0201401N004610075019N0200001N1+03231+01611100861ADDAA106000091GF106991051021008001031031MA1999999098041MD1999999+0041REMSYN070AAXX  24184 82986 32598 61409 10323 20161 39804 40086 85233 333 58004;EQDQ01  00002PRCP06
0208829860999992003112500004-09400-038217FM-12+0252SBUF V0200901N006712200019N0020001N1+02691+01891101161ADDAA106000091GA1001+999999999GF100991001001999999001001KA1240M+03361MA1999999098331MD1999999-0091REMSYN082AAXX  25004 82986 32995 00913 10269 20189 39833 40116 333 10336 29056 55099 59009;EQDQ01  00002PRCP06
0186829860999992003112512004-09400-038217FM-12+0252SBUF V0201401N004110075019N0100001N1+02731+01931101411ADDAA106000091GF106991061021008001001001KA1240N+02261MA1999999098571MD1999999+0161REMSYN076AAXX  25124 82986 32597 61408 10273 20193 39857 40141 86200 333 20226 58016;EQDQ01  00002PRCP06
0167829860999992003112518004-09400-038217FM-12+0252SBUF V0200901N003112200019N0200001N1+03371+01651100951ADDAA106000091GF104991041011012501001081MA1999999098131MD1999999-0091REMSYN070AAXX  25184 82986 32698 40906 10337 20165 39813 40095 84108 333 59009;EQDQ01  00002PRCP06
0208829860999992003112600004-09400-038217FM-12+0252SBUF V0200901N005712200019N0020001N1+02751+01611101261ADDAA106000091GA1001+999999999GF100991001001999999001001KA1240M+03441MA1999999098431MD1999999+0101REMSYN082AAXX  26004 82986 32995 00911 10275 20161 39843 40126 333 10344 29050 55105 58010;EQDQ01  00002PRCP06
0214829860999992003112612004-09400-038217FM-12+0252SBUF V0201401N003111050019N0040001N1+02651+01981101451ADDAA106000091AY141061AY221061GF106991021011008001001081KA1240N+02261MA1999999098611MD1999999+0041MW1051REMSYN082AAXX  26124 82986 31596 61406 10265 20198 39861 40145 70542 82108 333 20226 58004;EQDQ01  00002PRCP06
0167829860999992003112618004-09400-038217FM-12+0252SBUF V0201401N005712200019N0200001N1+03391+01791100981ADDAA106000091GF103991021011008001001081MA1999999098181MD1999999+0051REMSYN070AAXX  26184 82986 32598 31411 10339 20179 39818 40098 82108 333 58005;EQDQ01  00002PRCP06
0208829860999992003112700004-09400-038217FM-12+0252SBUF V0201401N008212200019N0020001N1+02631+01981101311ADDAA106000091GA1001+999999999GF100991001001999999001001KA1240M+03431MA1999999098471MD1999999+0041REMSYN082AAXX  27004 82986 32995 01416 10263 20198 39847 40131 333 10343 29060 55091 58004;EQDQ01  00002PRCP06
0186829860999992003112712004-09400-038217FM-12+0252SBUF V0201401N004610075019N0100001N1+02791+01911101301ADDAA106000091GF106991061021008001001001KA1240N+02311MA1999999098471MD1999999-0141REMSYN076AAXX  27124 82986 32597 61409 10279 20191 39847 40130 86200 333 20231 59014;EQDQ01  00002PRCP06
0167829860999992003112718004-09400-038217FM-12+0252SBUF V0201401N003612200019N0200001N1+03371+01511100751ADDAA106000091GF103991031011012501001001MA1999999097951MD1999999-0231REMSYN070AAXX  27184 82986 32698 31407 10337 20151 39795 40075 83100 333 59023;EQDQ01  00002PRCP06
0186829860999992003112812004-09400-038217FM-12+0252SBUF V0200901N004612200019N0100001N1+02771+01661101161ADDAA106000091GF102991021001012501061001KA1240N+02141MA1999999098341MD1999999-0131REMSYN076AAXX  28124 82986 32697 20909 10277 20166 39834 40116 82060 333 20214 59013;EQDQ01  00002PRCP06
0167829860999992003112818004-09400-038217FM-12+0252SBUF V0201401N004112200019N0200001N1+03411+01591100611ADDAA106000091GF104991041021012501001001MA1999999097801MD1999999-0151REMSYN070AAXX  28184 82986 32698 41408 10341 20159 39780 40061 84200 333 59015;EQDQ01  00002PRCP06
0208829860999992003112900004-09400-038217FM-12+0252SBUF V0201401N005712200019N0020001N1+02711+01881100851ADDAA106000091GA1001+999999999GF100991001001999999001001KA1240M+03461MA1999999098041MD1999999-0161REMSYN082AAXX  29004 82986 32995 01411 10271 20188 39804 40085 333 10346 29052 55113 59016;EQDQ01  00002PRCP06
0214829860999992003112912004-09400-038217FM-12+0252SBUF V0200901N003110450019N0100001N1+02721+01821101121ADDAA106000091AY141061AY221061GF105991031011008001061001KA1240N+02221MA1999999098291MD1999999-0051MW1051REMSYN082AAXX  29124 82986 31597 50906 10272 20182 39829 40112 70542 83160 333 20222 59005;EQDQ01  00002PRCP06
0167829860999992003112918004-09400-038217FM-12+0252SBUF V0201401N002612200019N0200001N1+03411+01401100681ADDAA106000091GF102991021011012501001001MA1999999097881MD1999999+0081REMSYN070AAXX  29184 82986 32698 21405 10341 20140 39788 40068 82100 333 58008;EQDQ01  00002PRCP06
0208829860999992003113000004-09400-038217FM-12+0252SBUF V0201401N007212200019N0020001N1+02711+01911100981ADDAA106000091GA1001+999999999GF100991001001999999001001KA1240M+03441MA1999999098151MD1999999+0111REMSYN082AAXX  30004 82986 32995 01414 10271 20191 39815 40098 333 10344 29053 55111 58011;EQDQ01  00002PRCP06
0186829860999992003113012004-09400-038217FM-12+0252SBUF V0200901N002611050019N0100001N1+02741+01891101201ADDAA106000091GF105991021011008001061011KA1240N+02241MA1999999098371MD1999999+0081REMSYN076AAXX  30124 82986 32597 50905 10274 20189 39837 40120 82161 333 20224 58008;EQDQ01  00002PRCP06
0167829860999992003113018004-09400-038217FM-12+0252SBUF V0201401N004111050019N0200001N1+03411+01541100801ADDAA106000091GF106991031011008001001071MA1999999097991MD1999999+0111REMSYN070AAXX  30184 82986 32598 61408 10341 20154 39799 40080 83107 333 58011;EQDQ01  00002PRCP06
0208829860999992003120100004-09400-038217FM-12+0252SBUF V0201401N006712200019N0020001N1+02711+01801101111ADDAA106000091GA1001+999999999GF100991001001999999001001KA1240M+03441MA1999999098291MD1999999+0141REMSYN082AAXX  01004 82986 32995 01413 10271 20180 39829 40111 333 10344 29052 55095 58014;EQDQ01  00002PRCP06
0186829860999992003120112004-09400-038217FM-12+0252SBUF V0201401N004110075019N0100001N1+02841+01911101231ADDAA106000091GF106991051011008001001011KA1240N+02341MA1999999098411MD1999999+0041REMSYN076AAXX  01124 82986 32597 61408 10284 20191 39841 40123 85101 333 20234 58004;EQDQ01  00002PRCP06
0167829860999992003120118004-09400-038217FM-12+0252SBUF V0201801N002112200019N0200001N1+03391+01531100681ADDAA106000091GF105991041011008001001081MA1999999097881MD1999999-0111REMSYN070AAXX  01184 82986 32598 51804 10339 20153 39788 40068 84108 333 59011;EQDQ01  00002PRCP06
0208829860999992003120200004-09400-038217FM-12+0252SBUF V0201401N006712200019N0020001N1+02671+02071100961ADDAA106000091GA1001+999999999GF100991001001999999001001KA1240M+03491MA1999999098141MD1999999-0151REMSYN082AAXX  02004 82986 32995 01413 10267 20207 39814 40096 333 10349 29058 55098 59015;EQDQ01  00002PRCP06
0214829860999992003120212004-09400-038217FM-12+0252SBUF V0200501N001511050019N0040001N1+02771+01991101131ADDAA106000091AY141061AY211061GF105991041011008001001021KA1240N+02201MA1999999098301MD1999999-0111MW1051REMSYN082AAXX  02124 82986 31596 50503 10277 20199 39830 40113 70541 84102 333 20220 59011;EQDQ01  00002PRCP06
0167829860999992003120218004-09400-038217FM-12+0252SBUF V0201401N002612200019N0200001N1+03511+01581100601ADDAA106000091GF103991031011012501001021MA1999999097821MD1999999-0061REMSYN070AAXX  02184 82986 32698 31405 10351 20158 39782 40060 83102 333 59006;EQDQ01  00002PRCP06
0214829860999992003120312004-09400-038217FM-12+0252SBUF V0200901N001012200019N0100001N1+02871+01951101111ADDAA106000091AY141061AY211061GF103991021011008001001021KA1240N+02301MA1999999098301MD1999999+0001MW1051REMSYN082AAXX  03124 82986 31597 30902 10287 20195 39830 40111 70541 82102 333 20230 58000;EQDQ01  00002PRCP06
0167829860999992003120318004-09400-038217FM-12+0252SBUF V0200901N004612200019N0200001N1+03531+01651100551ADDAA106000091GF101991011011012501001001MA1999999097771MD1999999-0051REMSYN070AAXX  03184 82986 32698 10909 10353 20165 39777 40055 81100 333 59005;EQDQ01  00002PRCP06
0208829860999992003120400004-09400-038217FM-12+0252SBUF V0201401N008212200019N0020001N1+02811+01981100901ADDAA106000091GA1001+999999999GF100991001001999999001001KA1240M+03581MA1999999098101MD1999999+0051REMSYN082AAXX  04004 82986 32995 01416 10281 20198 39810 40090 333 10358 29053 55110 58005;EQDQ01  00002PRCP06
0214829860999992003120412004-09400-038217FM-12+0252SBUF V0201401N002611050019N0040001N1+02811+01921101171ADDAA106000091AY141061AY221061GF105991021011008001061021KA1240N+02121MA1999999098351MD1999999+0051MW1051REMSYN082AAXX  04124 82986 31596 51405 10281 20192 39835 40117 70542 82162 333 20212 58005;EQDQ01  00002PRCP06
0183829860999992003120418004-09400-038217FM-12+0252SBUF V0201401N003112200019N0200001N1+03531+01031100671ADDAA106000091GF102991001001999999001021MA1999999097881MD1999999+0111REMSYN070AAXX  04184 82986 32998 21406 10353 20103 39788 40067 82002 333 58011;EQDQ01+000022SCOTLCQ02  00002PRCP06
0208829860999992003120500004-09400-038217FM-12+0252SBUF V0201401N005112200019N0020001N1+02861+02011100961ADDAA106000091GA1001+999999999GF100991001001999999001001KA1240M+03601MA1999999098161MD1999999+0061REMSYN082AAXX  05004 82986 32995 01410 10286 20201 39816 40096 333 10360 29050 55101 58006;EQDQ01  00002PRCP06
0214829860999992003120512004-09400-038217FM-12+0252SBUF V0201801N001512200019N0040001N1+02831+01941101151ADDAA106000091AY141061AY211061GF103991021001012501061021KA1240N+02321MA1999999098341MD1999999-0011MW1051REMSYN082AAXX  05124 82986 31696 31803 10283 20194 39834 40115 70541 82062 333 20232 59001;EQDQ01  00002PRCP06
0167829860999992003120518004-09400-038217FM-12+0252SBUF V0201401N001512200019N0200001N1+03551+01621100671ADDAA106000091GF102991021011012501001021MA1999999097881MD1999999+0001REMSYN070AAXX  05184 82986 32698 21403 10355 20162 39788 40067 82102 333 58000;EQDQ01  00002PRCP06
0208829860999992003120600004-09400-038217FM-12+0252SBUF V0200901N006712200019N0020001N1+02871+02061100941ADDAA106000091GA1001+999999999GF100991001001999999001001KA1240M+03581MA1999999098141MD1999999-0021REMSYN082AAXX  06004 82986 32995 00913 10287 20206 39814 40094 333 10358 29057 55111 59002;EQDQ01  00002PRCP06
0196829860999992003120612004-09400-038217FM-12+0252SBUF V0203201N001512200019N0200001N1+02831+01861101171ADDAA106000091GA1001+999999999GF100991001001999999001001KA1240N+02331MA1999999098361MD1999999+0021REMSYN070AAXX  06124 82986 32998 03203 10283 20186 39836 40117 333 20233 58002;EQDQ01  00002PRCP06
0167829860999992003120618004-09400-038217FM-12+0252SBUF V0201401N001512200019N0200001N1+03631+01421100661ADDAA106000091GF103991031011012501001001MA1999999097881MD1999999+0001REMSYN070AAXX  06184 82986 32698 31403 10363 20142 39788 40066 83100 333 58000;EQDQ01  00002PRCP06
0208829860999992003120700004-09400-038217FM-12+0252SBUF V0201401N007712200019N0020001N1+02951+02051100861ADDAA106000091GA1001+999999999GF100991001001999999001001KA1240M+03691MA1999999098061MD1999999-0081REMSYN082AAXX  07004 82986 32995 01415 10295 20205 39806 40086 333 10369 29050 55111 59008;EQDQ01  00002PRCP06
0196829860999992003120712004-09400-038217FM-12+0252SBUF V0203201N001512200019N0200001N1+02831+01861101281ADDAA106000091GA1001+999999999GF100991001001999999001001KA1240N+02241MA1999999098471MD1999999+0111REMSYN070AAXX  07124 82986 32998 03203 10283 20186 39847 40128 333 20224 58011;EQDQ01  00002PRCP06
0167829860999992003120718004-09400-038217FM-12+0252SBUF V0202301N002612200019N0200001N1+03771+01421100751ADDAA106000091GF103991031011012501001061MA1999999097971MD1999999+0091REMSYN070AAXX  07184 82986 32698 32305 10377 20142 39797 40075 83106 333 58009;EQDQ01  00002PRCP06
0198829860999992003120800004-09400-038217FM-12+0252SBUF V0201401N007212200019N0020001N1+02921+02121101071ADDAA106000091GF102991021011012501001001KA1240M+03801MA1999999098261MD1999999+0201REMSYN088AAXX  08004 82986 32695 21414 10292 20212 39826 40107 82100 333 10380 29051 55109 58020;EQDQ01  00002PRCP06
0214829860999992003120812004-09400-038217FM-12+0252SBUF V0201401N001512200019N0040001N1+02871+02281101351ADDAA106000091AY141061AY201061GF103991031011012501001021KA1240N+02401MA1999999098541MD1999999+0051MW1051REMSYN082AAXX  08124 82986 31696 31403 10287 20228 39854 40135 70540 83102 333 20240 58005;EQDQ01  00002PRCP06
0167829860999992003120818004-09400-038217FM-12+0252SBUF V0201401N003112200019N0200001N1+03531+01551100891ADDAA106000091GF104991041021008001001001MA1999999098101MD1999999+0131REMSYN070AAXX  08184 82986 32598 41406 10353 20155 39810 40089 84200 333 58013;EQDQ01  00002PRCP06
0208829860999992003120900004-09400-038217FM-12+0252SBUF V0201401N007712200019N0020001N1+02731+02031101601ADDAA106000091GA1001+999999999GF100991001001999999001001KA1240M+03601MA1999999098481MD1999999+0221REMSYN082AAXX  09004 82986 32995 01415 10273 20203 39848 40160 333 10360 29058 55108 58022;EQDQ01  00002PRCP06
0214829860999992003120912004-09400-038217FM-12+0252SBUF V0201401N004112200019N0040001N1+02811+01841101461ADDAA106000091AY141061AY201061GF104991041011012501001001KA1240N+02241MA1999999098621MD1999999+0081MW1051REMSYN082AAXX  09124 82986 31696 41408 10281 20184 39862 40146 70540 84100 333 20224 58008;EQDQ01  00002PRCP06
0167829860999992003120918004-09400-038217FM-12+0252SBUF V0200901N003612200019N0200001N1+03491+01471100981ADDAA106000091GF101991011001012501041001MA1999999098181MD1999999+0081REMSYN070AAXX  09184 82986 32698 10907 10349 20147 39818 40098 81040 333 58008;EQDQ01  00002PRCP06
0208829860999992003121000004-09400-038217FM-12+0252SBUF V0200901N007712200019N0020001N1+02741+01811101301ADDAA106000091GA1001+999999999GF100991001001999999001001KA1240M+03551MA1999999098481MD1999999+0001REMSYN082AAXX  10004 82986 32995 00915 10274 20181 39848 40130 333 10355 29050 55108 58000;EQDQ01  00002PRCP06
0186829860999992003121012004-09400-038217FM-12+0252SBUF V0201801N005112200019N0100001N1+02771+01691101431ADDAA106000091GF104991021011008001031001KA1240N+02181MA1999999098601MD1999999-0021REMSYN076AAXX  10124 82986 32597 41810 10277 20169 39860 40143 82130 333 20218 59002;EQDQ01  00002PRCP06
0177829860999992003121018004-09400-038217FM-12+0252SBUF V0201401N004612200019N0200001N1+03491+01191100891ADDAA106000091GA1001+999999999GF100991001001999999001001MA1999999098091MD1999999-0091REMSYN064AAXX  10184 82986 32998 01409 10349 20119 39809 40089 333 59009;EQDQ01  00002PRCP06
0208829860999992003121100004-09400-038217FM-12+0252SBUF V0201401N009312200019N0020001N1+02771+01991101211ADDAA106000091GA1001+999999999GF100991001001999999001001KA1240M+03541MA1999999098381MD1999999-0101REMSYN082AAXX  11004 82986 32995 01418 10277 20199 39838 40121 333 10354 29051 55111 59010;EQDQ01  00002PRCP06
0162829860999992003121110004-09400-038217FM-15+0252SBUF V0201201N003610051019N0112651N1+02601+02201999999ADDGA1071+005109999GA2071+090009999GF107991999999999999999999MA1101691999999MW1001REMMET052SBUF 111000Z 12007KT 9999 BKN017 BKN300 26/22 Q1017;EQDQ01+000000PRSWM2
0162829860999992003121111004-09400-038217FM-15+0252SBUF V0201101N006710900019N0112651N1+02801+02101999999ADDGA1041+006009999GA2071+090009999GF107991999999999999999999MA1101691999999MW1001REMMET052SBUF 111100Z 11013KT 9999 SCT020 BKN300 28/21 Q1017;EQDQ01+000000PRSWM2
0214829860999992003121112004-09400-038217FM-12+0252SBUF V0201401N007210075019N0100001N1+02871+02011101511ADDAA106000091AY141061AY211061GF105991051021008001001001KA1240N+02341MA1999999098681MD1999999+0081MW1051REMSYN082AAXX  11124 82986 31597 51414 10287 20201 39868 40151 70541 85200 333 20234 58008;EQDQ01  00002PRCP06
0167829860999992003121118004-09400-038217FM-12+0252SBUF V0201401N005710450019N0200001N1+03451+01331100951ADDAA106000091GF106991031021012501041021MA1999999098161MD1999999+0071REMSYN070AAXX  11184 82986 32698 61411 10345 20133 39816 40095 83242 333 58007;EQDQ01  00002PRCP06
0198829860999992003121200004-09400-038217FM-12+0252SBUF V0201401N007210075019N0020001N1+02731+01881101241ADDAA106000091GF107991071051008001001001KA1240M+03541MA1999999098421MD1999999+0041REMSYN088AAXX  12004 82986 32595 71414 10273 20188 39842 40124 87500 333 10354 29052 55089 58004;EQDQ01  00002PRCP06
0214829860999992003121212004-09400-038217FM-12+0252SBUF V0201401N004610450019N0100001N1+02671+01871101371ADDAA106000091AY141061AY211061GF106991041021012501061011KA1240N+02221MA1999999098541MD1999999-0141MW1051REMSYN082AAXX  12124 82986 31697 61409 10267 20187 39854 40137 70541 84261 333 20222 59014;EQDQ01  00002PRCP06
0167829860999992003121218004-09400-038217FM-12+0252SBUF V0201401N003110120019N0200001N1+03331+01331100911ADDAA106000091GF107991051011012501001061MA1999999098101MD1999999-0061REMSYN070AAXX  12184 82986 32698 71406 10333 20133 39810 40091 85106 333 59006;EQDQ01  00002PRCP06
0208829860999992003121400004-09400-038217FM-12+0252SBUF V0201401N007712200019N0020001N1+02751+01811101111ADDAA106000091GA1001+999999999GF100991001001999999001001KA1240M+03501MA1999999098291MD1999999-0081REMSYN082AAXX  14004 82986 32995 01415 10275 20181 39829 40111 333 10350 29050 55105 59008;EQDQ01  00002PRCP06
0186829860999992003121412004-09400-038217FM-12+0252SBUF V0201801N002612200019N0200001N1+02861+02011101331ADDAA106000091GF104991041011012501001001KA1240N+02341MA1999999098511MD1999999+0071REMSYN076AAXX  14124 82986 32698 41805 10286 20201 39851 40133 84100 333 20234 58007;EQDQ01  00002PRCP06
0167829860999992003121418004-09400-038217FM-12+0252SBUF V0202301N001512200019N0200001N1+03531+01501100831ADDAA106000091GF103991031011012501001021MA1999999098041MD1999999+0091REMSYN070AAXX  14184 82986 32698 32303 10353 20150 39804 40083 83102 333 58009;EQDQ01  00002PRCP06
0198829860999992003121500004-09400-038217FM-12+0252SBUF V0201401N007212200019N0020001N1+02711+02081101221ADDAA106000091GF103991031041012501001001KA1240M+03581MA1999999098401MD1999999+0111REMSYN088AAXX  15004 82986 32695 31414 10271 20208 39840 40122 83400 333 10358 29057 55114 58011;EQDQ01  00002PRCP06
0214829860999992003121512004-09400-038217FM-12+0252SBUF V0201401N006210450019N0100001N1+02811+01981101411ADDAA106000091AY141061AY211061GF106991031011008001081001KA1240N+02381MA1999999098581MD1999999+0071MW1051REMSYN082AAXX  15124 82986 31597 61412 10281 20198 39858 40141 70541 83180 333 20238 58007;EQDQ01  00002PRCP06
0167829860999992003121518004-09400-038217FM-12+0252SBUF V0201401N004110120019N0200001N1+03351+01751100901ADDAA106000091GF105991051021012501001001MA1999999098101MD1999999+0061REMSYN070AAXX  15184 82986 32698 51408 10335 20175 39810 40090 85200 333 58006;EQDQ01  00002PRCP06
0208829860999992003121600004-09400-038217FM-12+0252SBUF V0201401N008212200019N0020001N1+02781+01851101201ADDAA106000091GA1001+999999999GF100991001001999999001001KA1240M+03451MA1999999098381MD1999999-0021REMSYN082AAXX  16004 82986 32995 01416 10278 20185 39838 40120 333 10345 29054 55099 59002;EQDQ01  00002PRCP06
0186829860999992003121612004-09400-038217FM-12+0252SBUF V0201401N005110450019N0100001N1+02771+01861101391ADDAA106000091GF106991031021008001061001KA1240N+02321MA1999999098571MD1999999+0191REMSYN076AAXX  16124 82986 32597 61410 10277 20186 39857 40139 83260 333 20232 58019;EQDQ01  00002PRCP06
0167829860999992003121618004-09400-038217FM-12+0252SBUF V0201401N002612200019N0200001N1+03451+01531100901ADDAA106000091GF103991031011012501001001MA1999999098101MD1999999+0001REMSYN070AAXX  16184 82986 32698 31405 10345 20153 39810 40090 83100 333 58000;EQDQ01  00002PRCP06
0208829860999992003121700004-09400-038217FM-12+0252SBUF V0201401N006712200019N0020001N1+02731+01681101211ADDAA106000091GA1001+999999999GF100991001001999999001001KA1240M+03471MA1999999098381MD1999999+0001REMSYN082AAXX  17004 82986 32995 01413 10273 20168 39838 40121 333 10347 29049 55107 58000;EQDQ01  00002PRCP06
0214829860999992003121712004-09400-038217FM-12+0252SBUF V0201401N003612200019N0100001N1+02731+01821101281ADDAA106000091AY141061AY211061GF102991021011012501001011KA1240N+02181MA1999999098451MD1999999+0071MW1051REMSYN082AAXX  17124 82986 31697 21407 10273 20182 39845 40128 70541 82101 333 20218 58007;EQDQ01  00002PRCP06
0167829860999992003121718004-09400-038217FM-12+0252SBUF V0201401N005110120019N0200001N1+03431+01411100851ADDAA106000091GF105991051011012501001001MA1999999098051MD1999999-0051REMSYN070AAXX  17184 82986 32698 51410 10343 20141 39805 40085 85100 333 59005;EQDQ01  00002PRCP06
0208829860999992003121800004-09400-038217FM-12+0252SBUF V0201401N008212200019N0020001N1+02791+01641101181ADDAA106000091GA1001+999999999GF100991001001999999001001KA1240M+03501MA1999999098351MD1999999-0031REMSYN082AAXX  18004 82986 32995 01416 10279 20164 39835 40118 333 10350 29047 55109 59003;EQDQ01  00002PRCP06
0214829860999992003121812004-09400-038217FM-12+0252SBUF V0201401N003610120019N0100001N1+02651+01851101491ADDAA106000091AY141061AY211061GF106991061011012501001021KA1240N+02261MA1999999098651MD1999999+0301MW1051REMSYN082AAXX  18124 82986 31697 61407 10265 20185 39865 40149 70541 86102 333 20226 58030;EQDQ01  00002PRCP06
0167829860999992003121918004-09400-038217FM-12+0252SBUF V0201401N004111050019N0200001N1+03391+01481101111ADDAA106000091GF106991041021008001001081MA1999999098291MD1999999+0071REMSYN070AAXX  19184 82986 32598 61408 10339 20148 39829 40111 84208 333 58007;EQDQ01  00002PRCP06
0208829860999992003122000004-09400-038217FM-12+0252SBUF V0201401N007712200019N0020001N1+02711+01751101591ADDAA106000091GA1001+999999999GF100991001001999999001001KA1240M+03471MA1999999098751MD1999999+0171REMSYN082AAXX  20004 82986 32995 01415 10271 20175 39875 40159 333 10347 29051 55096 58017;EQDQ01  00002PRCP06
0186829860999992003122012004-09400-038217FM-12+0252SBUF V0201401N006710075019N0100001N1+02811+01901101591ADDAA106000091GF105991051011008001001011KA1240N+02361MA1999999098751MD1999999+0021REMSYN076AAXX  20124 82986 32597 51413 10281 20190 39875 40159 85101 333 20236 58002;EQDQ01  00002PRCP06
0167829860999992003122018004-09400-038217FM-12+0252SBUF V0201401N005112200019N0200001N1+03461+01601101011ADDAA106000091GF103991031011012501001001MA1999999098211MD1999999-0081REMSYN070AAXX  20184 82986 32698 31410 10346 20160 39821 40101 83100 333 59008;EQDQ01  00002PRCP06
0208829860999992003122100004-09400-038217FM-12+0252SBUF V0201401N007212200019N0020001N1+02711+01781101461ADDAA106000091GA1001+999999999GF100991001001999999001001KA1240M+03511MA1999999098631MD1999999-0121REMSYN082AAXX  21004 82986 32995 01414 10271 20178 39863 40146 333 10351 29051 55109 59012;EQDQ01  00002PRCP06
0186829860999992003122112004-09400-038217FM-12+0252SBUF V0201801N003110075019N0100001N1+02711+01861101541ADDAA106000091GF106991061021008001001001KA1240N+02181MA1999999098701MD1999999-0051REMSYN076AAXX  21124 82986 32597 61806 10271 20186 39870 40154 86200 333 20218 59005;EQDQ01  00002PRCP06
0208829860999992003122200004-09400-038217FM-12+0252SBUF V0201401N008212200019N0020001N1+02821+01861101181ADDAA106000091GA1001+999999999GF100991001001999999001001KA1240M+03481MA1999999098361MD1999999-0271REMSYN082AAXX  22004 82986 32995 01416 10282 20186 39836 40118 333 10348 29052 55102 59027;EQDQ01  00002PRCP06
0214829860999992003122212004-09400-038217FM-12+0252SBUF V0201401N003112200019N0100001N1+02771+01891101351ADDAA106000091AY141061AY211061GF102991021011012501001011KA1240N+02361MA1999999098531MD1999999-0171MW1051REMSYN082AAXX  22124 82986 31697 21406 10277 20189 39853 40135 70541 82101 333 20236 59017;EQDQ01  00002PRCP06
0167829860999992003122218004-09400-038217FM-12+0252SBUF V0201401N004612200019N0200001N1+02651+01511100671ADDAA106000091GF102991021011012501001011MA1999999097891MD1999999-0251REMSYN070AAXX  22184 82986 32698 21409 10265 20151 39789 40067 82101 333 59025;EQDQ01  00002PRCP06
0208829860999992003122300004-09400-038217FM-12+0252SBUF V0201401N007212200019N0020001N1+02921+02141100951ADDAA106000091GA1001+999999999GF100991001001999999001001KA1240M+03721MA1999999098151MD1999999-0211REMSYN082AAXX  23004 82986 32995 01414 10292 20214 39815 40095 333 10372 29053 55099 59021;EQDQ01  00002PRCP06
0214829860999992003122312004-09400-038217FM-12+0252SBUF V0201401N001512200019N0100001N1+02951+01941101121ADDAA106000091AY141061AY211061GF104991021011012501061011KA1240N+02501MA1999999098321MD1999999-0211MW1051REMSYN082AAXX  23124 82986 31697 41403 10295 20194 39832 40112 70541 82161 333 20250 59021;EQDQ01  00002PRCP06
0167829860999992003122318004-09400-038217FM-12+0252SBUF V0201401N001512200019N0200001N1+03591+01501100661ADDAA106000091GF103991031021012501001011MA1999999097901MD1999999+0011REMSYN070AAXX  23184 82986 32698 31403 10359 20150 39790 40066 83201 333 58001;EQDQ01  00002PRCP06
0208829860999992003122400004-09400-038217FM-12+0252SBUF V0200901N006712200019N0020001N1+02811+02001100921ADDAA106000091GA1001+999999999GF100991001001999999001001KA1240M+03661MA1999999098111MD1999999-0041REMSYN082AAXX  24004 82986 32995 00913 10281 20200 39811 40092 333 10366 29052 55107 59004;EQDQ01  00002PRCP06
0214829860999992003122412004-09400-038217FM-12+0252SBUF V0200901N001012200019N0100001N1+02731+01981101211ADDAA106000091AY141061AY211061GF103991031021012501001021KA1240N+02301MA1999999098381MD1999999+0061MW1051REMSYN082AAXX  24124 82986 31697 30902 10273 20198 39838 40121 70541 83202 333 20230 58006;EQDQ01  00002PRCP06
0167829860999992003122418004-09400-038217FM-12+0252SBUF V0201401N002110450019N0200001N1+03521+01701100791ADDAA106000091GF105991031011012501041081MA1999999098011MD1999999+0111REMSYN070AAXX  24184 82986 32698 51404 10352 20170 39801 40079 83148 333 58011;EQDQ01  00002PRCP06
0208829860999992003122500004-09400-038217FM-12+0252SBUF V0201401N008212200019N0020001N1+02851+01731101121ADDAA106000091GA1001+999999999GF100991001001999999001001KA1240M+03601MA1999999098301MD1999999+0191REMSYN082AAXX  25004 82986 32995 01416 10285 20173 39830 40112 333 10360 29050 55108 58019;EQDQ01  00002PRCP06
0186829860999992003122512004-09400-038217FM-12+0252SBUF V0201401N004110075019N0100001N1+02801+01921101321ADDAA106000091GF105991051011008001001001KA1240N+02401MA1999999098501MD1999999+0121REMSYN076AAXX  25124 82986 32597 51408 10280 20192 39850 40132 85100 333 20240 58012;EQDQ01  00002PRCP06
0167829860999992003122518004-09400-038217FM-12+0252SBUF V0201801N004112200019N0200001N1+03521+01501100881ADDAA106000091GF104991041011012501001001MA1999999098091MD1999999+0081REMSYN070AAXX  25184 82986 32698 41808 10352 20150 39809 40088 84100 333 58008;EQDQ01  00002PRCP06
0186829860999992003122612004-09400-038217FM-12+0252SBUF V0201401N005110075019N0100001N1+02811+01921101271ADDAA106000091GF106991061021008001001011KA1240N+02411MA1999999098451MD1999999-0051REMSYN076AAXX  26124 82986 32597 61410 10281 20192 39845 40127 86201 333 20241 59005;EQDQ01  00002PRCP06
0167829860999992003122618004-09400-038217FM-12+0252SBUF V0201801N007212200019N0200001N1+03531+01341100721ADDAA106000091GF102991021011012501001001MA1999999097931MD1999999-0061REMSYN070AAXX  26184 82986 32698 21814 10353 20134 39793 40072 82100 333 59006;EQDQ01  00002PRCP06
0208829860999992003122700004-09400-038217FM-12+0252SBUF V0201401N007712200019N0020001N1+02781+01791101021ADDAA106000091GA1001+999999999GF100991001001999999001001KA1240M+03551MA1999999098211MD1999999-0181REMSYN082AAXX  27004 82986 32995 01415 10278 20179 39821 40102 333 10355 29049 55110 59018;EQDQ01  00002PRCP06
0186829860999992003122712004-09400-038217FM-12+0252SBUF V0201401N005110075019N0100001N1+02731+01821101201ADDAA106000091GF106991051021008001001011KA1240N+02291MA1999999098381MD1999999-0071REMSYN076AAXX  27124 82986 32597 61410 10273 20182 39838 40120 85201 333 20229 59007;EQDQ01  00002PRCP06
0167829860999992003122718004-09400-038217FM-12+0252SBUF V0200901N001512200019N0200001N1+03411+01351100701ADDAA106000091GF105991031011012501001081MA1999999097901MD1999999-0031REMSYN070AAXX  27184 82986 32698 50903 10341 20135 39790 40070 83108 333 59003;EQDQ01  00002PRCP06
0208829860999992003122800004-09400-038217FM-12+0252SBUF V0201401N006212200019N0020001N1+02771+01941100981ADDAA106000091GA1001+999999999GF100991001001999999001001KA1240M+03451MA1999999098161MD1999999-0051REMSYN082AAXX  28004 82986 32995 01412 10277 20194 39816 40098 333 10345 29052 55092 59005;EQDQ01  00002PRCP06
0186829860999992003122812004-09400-038217FM-12+0252SBUF V0200901N005110450019N0100001N1+02801+02031101081ADDAA106000091GF106991031021004501081011KA1240N+02441MA1999999098271MD1999999-0111REMSYN076AAXX  28124 82986 32497 60910 10280 20203 39827 40108 83281 333 20244 59011;EQDQ01  00002PRCP06
0167829860999992003122818004-09400-038217FM-12+0252SBUF V0200901N004110450019N0200001N1+03441+01671100581ADDAA106000091GF106991031021008001051011MA1999999097801MD1999999-0101REMSYN070AAXX  28184 82986 32598 60908 10344 20167 39780 40058 83251 333 59010;EQDQ01  00002PRCP06
0198829860999992003122900004-09400-038217FM-12+0252SBUF V0201401N006712200019N0020001N1+02791+01911100931ADDAA106000091GF102991021001012501051001KA1240M+03271MA1999999098121MD1999999-0041REMSYN088AAXX  29004 82986 32695 21413 10279 20191 39812 40093 82050 333 10327 29054 55071 59004;EQDQ01  00002PRCP06
0214829860999992003122912004-09400-038217FM-12+0252SBUF V0201401N003110042019N0040001N1+02751+01971101151ADDAA106000091AY141061AY211061GF107991051071004501081001KA1240N+02401MA1999999098331MD1999999+0061MW1051REMSYN082AAXX  29124 82986 31496 71406 10275 20197 39833 40115 70541 85780 333 20240 58006;EQDQ01  00002PRCP06
0183829860999992003122918004-09400-038217FM-12+0252SBUF V0201401N004619999999N0100001N1+03311+01501100751ADDAA106000091GF108991999021008001001001MA1999999097951MD1999999+0151REMSYN070AAXX  29184 82986 32597 81409 10331 20150 39795 40075 84200 333 58015;EQDQ01+000042SCOTLCQ02  00002PRCP06
0198829860999992003123000004-09400-038217FM-12+0252SBUF V0201401N004610450019N0020001N1+02811+01981101091ADDAA106000091GF107991021011012501051999KA1240M+03411MA1999999098271MD1999999+0151REMSYN088AAXX  30004 82986 32695 71409 10281 20198 39827 40109 8215/ 333 10341 29057 55019 58015;EQDQ01  00002PRCP06
0230829860999992003123012004-09400-038217FM-12+0252SBUF V0201401N006710042019N0040001N1+02551+02231101321ADDAA106000091AY151061AY221061GF108991999071004501081999KA1240N+02461MA1999999098491MD1999999+0161MW1151REMSYN082AAXX  30124 82986 31496 81413 10255 20223 39849 40132 71552 8878/ 333 20246 58016;EQDQ01+000082SCOTLCQ02  00002PRCP06
0167829860999992003123018004-09400-038217FM-12+0252SBUF V0200901N006710450019N0100001N1+03251+01781100901ADDAA106000091GF106991041021008001041081MA1999999098101MD1999999+0151REMSYN070AAXX  30184 82986 32597 60913 10325 20178 39810 40090 84248 333 58015;EQDQ01  00002PRCP06
0208829860999992003123100004-09400-038217FM-12+0252SBUF V0201401N006712200019N0020001N1+02671+02041101331ADDAA106000091GA1001+999999999GF100991001001999999001001KA1240M+03281MA1999999098481MD1999999+0211REMSYN082AAXX  31004 82986 32995 01413 10267 20204 39848 40133 333 10328 29066 55013 58021;EQDQ01  00002PRCP06
0186829860999992003123112004-09400-038217FM-12+0252SBUF V0201401N005110450019N0100001N1+02651+01951101381ADDAA106000091GF106991031021012501041081KA1240N+02281MA1999999098541MD1999999+0051REMSYN076AAXX  31124 82986 32697 61410 10265 20195 39854 40138 83248 333 20228 58005;EQDQ01  00002PRCP06
0167829860999992003123118004-09400-038217FM-12+0252SBUF V0201401N006212200019N0200001N1+03361+01561100821ADDAA106000091GF104991011001017501041061MA1999999098011MD1999999-0091REMSYN070AAXX  31184 82986 32798 41412 10336 20156 39801 40082 81046 333 59009;EQDQ01  00002PRCP06
