0198830960999992003010100004-10920-037050FM-12+000699999V0200901N003112200019N0020001N1+02651+02291101391ADDAA106000091GF101991011011012501001001KA1240M+03071MA1999999101321MD1999999-0081REMSYN088AAXX  01004 83096 32695 10906 10265 20229 30132 40139 81100 333 10307 29077 55114 59008;EQDQ01  00002PRCP06
0186830960999992003010112004-10920-037050FM-12+000699999V0200901N003112200019N0020001N1+02851+02291101411ADDAA106000091GF103991031011012501001001KA1240N+02451MA1999999101341MD1999999-0181REMSYN076AAXX  01124 83096 32695 30906 10285 20229 30134 40141 83100 333 20245 59018;EQDQ01  00002PRCP06
0167830960999992003010118004-10920-037050FM-12+000699999V0200901N004112200019N0020001N1+02811+02221101291ADDAA106000091GF102991021011012501001001MA1999999101221MD1999999-0011REMSYN070AAXX  01184 83096 32695 20908 10281 20222 30122 40129 82100 333 59001;EQDQ01  00002PRCP06
0198830960999992003010200004-10920-037050FM-12+000699999V0200901N004112200019N0020001N1+02691+02391101291ADDAA106000091GF101991011011012501001001KA1240M+03041MA1999999101221MD1999999-0101REMSYN088AAXX  02004 83096 32695 10908 10269 20239 30122 40129 81100 333 10304 29078 55105 59010;EQDQ01  00002PRCP06
0186830960999992003010212004-10920-037050FM-12+000699999V0200901N005112200019N0020001N1+02931+02331101441ADDAA106000091GF102991021011012501001001KA1240N+02411MA1999999101371MD1999999+0031REMSYN076AAXX  02124 83096 32695 20910 10293 20233 30137 40144 82100 333 20241 58003;EQDQ01  00002PRCP06
0167830960999992003010218004-10920-037050FM-12+000699999V0200901N005112200019N0020001N1+02851+02311101121ADDAA106000091GF102991021011012501001001MA1999999101051MD1999999+0171REMSYN070AAXX  02184 83096 32695 20910 10285 20231 30105 40112 82100 333 58017;EQDQ01  00002PRCP06
0214830960999992003010300004-10920-037050FM-12+000699999V0200901N005112200019N0020001N1+02671+02411101211ADDAA106000091GF102991999021012501011001KA1240M+03071MA1999999101141MD1999999+0151REMSYN088AAXX  03004 83096 32695 20910 10267 20241 30114 40121 88210 333 10307 29078 55105 58015;EQDQ01+000082SCOTLCQ02  00002PRCP06
0186830960999992003010312004-10920-037050FM-12+000699999V0200901N004112200019N0020001N1+02871+02211101391ADDAA106000091GF103991031011012501001001KA1240N+02371MA1999999101321MD1999999-0051REMSYN076AAXX  03124 83096 32695 30908 10287 20221 30132 40139 83100 333 20237 59005;EQDQ01  00002PRCP06
0167830960999992003010318004-10920-037050FM-12+000699999V0200901N004112200019N0020001N1+02891+02411101141ADDAA106000091GF101991011011012501001001MA1999999101071MD1999999-0021REMSYN070AAXX  03184 83096 32695 10908 10289 20241 30107 40114 81100 333 59002;EQDQ01  00002PRCP06
0198830960999992003010400004-10920-037050FM-12+000699999V0200901N004112200019N0020001N1+02631+02371101291ADDAA106000091GF102991021011012501001001KA1240M+03011MA1999999101221MD1999999+0081REMSYN088AAXX  04004 83096 32695 20908 10263 20237 30122 40129 82100 333 10301 29079 55113 58008;EQDQ01  00002PRCP06
0186830960999992003010412004-10920-037050FM-12+000699999V0200901N002612200019N0020001N1+02871+02281101471ADDAA106000091GF103991031011012501001001KA1240N+02451MA1999999101401MD1999999+0081REMSYN076AAXX  04124 83096 32695 30905 10287 20228 30140 40147 83100 333 20245 58008;EQDQ01  00002PRCP06
0167830960999992003010418004-10920-037050FM-12+000699999V0200901N004112200019N0020001N1+02911+02431101241ADDAA106000091GF102991021011012501001001MA1999999101171MD1999999+0101REMSYN070AAXX  04184 83096 32695 20908 10291 20243 30117 40124 82100 333 58010;EQDQ01  00002PRCP06
0198830960999992003010500004-10920-037050FM-12+000699999V0200901N004112200019N0020001N1+02691+02461101311ADDAA106000091GF102991021051012501001001KA1240M+03031MA1999999101241MD1999999+0021REMSYN088AAXX  05004 83096 32695 20908 10269 20246 30124 40131 82500 333 10303 29081 55117 58002;EQDQ01  00002PRCP06
0186830960999992003010512004-10920-037050FM-12+000699999V0200901N003112200019N0020001N1+02911+02221101331ADDAA106000091GF103991031011012501001001KA1240N+02461MA1999999101261MD1999999-0141REMSYN076AAXX  05124 83096 32695 30906 10291 20222 30126 40133 83100 333 20246 59014;EQDQ01  00002PRCP06
0167830960999992003010518004-10920-037050FM-12+000699999V0200901N004112200019N0020001N1+02951+02381101181ADDAA106000091GF102991021011012501001001MA1999999101111MD1999999-0061REMSYN070AAXX  05184 83096 32695 20908 10295 20238 30111 40118 82100 333 59006;EQDQ01  00002PRCP06
0198830960999992003010600004-10920-037050FM-12+000699999V0200901N002612200019N0020001N1+02651+02331101291ADDAA106000091GF102991021011012501001001KA1240M+03041MA1999999101221MD1999999-0021REMSYN088AAXX  06004 83096 32695 20905 10265 20233 30122 40129 82100 333 10304 29076 55111 59002;EQDQ01  00002PRCP06
0186830960999992003010612004-10920-037050FM-12+000699999V0200901N005112200019N0020001N1+02951+02331101381ADDAA106000091GF101991011011012501001001KA1240N+02411MA1999999101311MD1999999+0051REMSYN076AAXX  06124 83096 32695 10910 10295 20233 30131 40138 81100 333 20241 58005;EQDQ01  00002PRCP06
0167830960999992003010618004-10920-037050FM-12+000699999V0200901N005112200019N0020001N1+02971+02371101071ADDAA106000091GF101991011011012501001001MA1999999101001MD1999999-0111REMSYN070AAXX  06184 83096 32695 10910 10297 20237 30100 40107 81100 333 59011;EQDQ01  00002PRCP06
0198830960999992003010700004-10920-037050FM-12+000699999V0200901N003112200019N0020001N1+02651+02351101151ADDAA106000091GF101991011051012501001001KA1240M+03041MA1999999101081MD1999999+0141REMSYN088AAXX  07004 83096 32695 10906 10265 20235 30108 40115 81500 333 10304 29076 55116 58014;EQDQ01  00002PRCP06
0186830960999992003010712004-10920-037050FM-12+000699999V0200901N002612200019N0020001N1+02941+02261101271ADDAA106000091GF101991011011012501001001KA1240N+02431MA1999999101201MD1999999-0111REMSYN076AAXX  07124 83096 32695 10905 10294 20226 30120 40127 81100 333 20243 59011;EQDQ01  00002PRCP06
0167830960999992003010718004-10920-037050FM-12+000699999V0200901N005112200019N0020001N1+02931+02451101101ADDAA106000091GF101991011011012501001001MA1999999101031MD1999999+0031REMSYN070AAXX  07184 83096 32695 10910 10293 20245 30103 40110 81100 333 58003;EQDQ01  00002PRCP06
0198830960999992003010800004-10920-037050FM-12+000699999V0200901N004112200019N0020001N1+02661+02481101071ADDAA106000091GF101991011011012501001001KA1240M+03061MA1999999101001MD1999999-0081REMSYN088AAXX  08004 83096 32695 10908 10266 20248 30100 40107 81100 333 10306 29081 55112 59008;EQDQ01  00002PRCP06
0167830960999992003010818004-10920-037050FM-12+000699999V0200901N005112200019N0020001N1+02951+02451101211ADDAA106000091GF102991021011012501001001MA1999999101141MD1999999+0111REMSYN070AAXX  08184 83096 32695 20910 10295 20245 30114 40121 82100 333 58011;EQDQ01  00002PRCP06
0198830960999992003010900004-10920-037050FM-12+000699999V0200901N003112200019N0020001N1+02681+02481101421ADDAA106000091GF102991021011012501001001KA1240M+03121MA1999999101351MD1999999+0351REMSYN088AAXX  09004 83096 32695 20906 10268 20248 30135 40142 82100 333 10312 29080 55110 58035;EQDQ01  00002PRCP06
0186830960999992003010912004-10920-037050FM-12+000699999V0200901N003112200019N0020001N1+02891+02391101591ADDAA106000091GF104991041011012501001001KA1240N+02411MA1999999101521MD1999999+0171REMSYN076AAXX  09124 83096 32695 40906 10289 20239 30152 40159 84100 333 20241 58017;EQDQ01  00002PRCP06
0167830960999992003010918004-10920-037050FM-12+000699999V0200901N004612200019N0020001N1+02971+02451101461ADDAA106000091GF103991031011012501001001MA1999999101391MD1999999+0251REMSYN070AAXX  09184 83096 32695 30909 10297 20245 30139 40146 83100 333 58025;EQDQ01  00002PRCP06
0198830960999992003011000004-10920-037050FM-12+000699999V0200901N003112200019N0020001N1+02711+02431101581ADDAA106000091GF101991011051012501001001KA1240M+03061MA1999999101511MD1999999+0161REMSYN088AAXX  10004 83096 32695 10906 10271 20243 30151 40158 81500 333 10306 29079 55110 58016;EQDQ01  00002PRCP06
0186830960999992003011012004-10920-037050FM-12+000699999V0200901N004112200019N0020001N1+02961+02331101631ADDAA106000091GF101991011011012501001001KA1240N+02411MA1999999101561MD1999999+0041REMSYN076AAXX  10124 83096 32695 10908 10296 20233 30156 40163 81100 333 20241 58004;EQDQ01  00002PRCP06
0167830960999992003011018004-10920-037050FM-12+000699999V0200901N005112200019N0020001N1+02941+02381101301ADDAA106000091GF101991011011012501001001MA1999999101231MD1999999-0161REMSYN070AAXX  10184 83096 32695 10910 10294 20238 30123 40130 81100 333 59016;EQDQ01  00002PRCP06
0198830960999992003011100004-10920-037050FM-12+000699999V0200901N004112200019N0020001N1+02711+02431101321ADDAA106000091GF101991011011012501001001KA1240M+03071MA1999999101251MD1999999-0261REMSYN088AAXX  11004 83096 32695 10908 10271 20243 30125 40132 81100 333 10307 29077 55109 59026;EQDQ01  00002PRCP06
0186830960999992003011112004-10920-037050FM-12+000699999V0200901N005112200019N0020001N1+02911+02291101541ADDAA106000091GF101991011011012501001001KA1240N+02381MA1999999101471MD1999999-0091REMSYN076AAXX  11124 83096 32695 10910 10291 20229 30147 40154 81100 333 20238 59009;EQDQ01  00002PRCP06
0167830960999992003011118004-10920-037050FM-12+000699999V0200901N005112200019N0020001N1+02941+02361101231ADDAA106000091GF101991011011012501001001MA1999999101161MD1999999-0071REMSYN070AAXX  11184 83096 32695 10910 10294 20236 30116 40123 81100 333 59007;EQDQ01  00002PRCP06
0198830960999992003011200004-10920-037050FM-12+000699999V0200901N005112200019N0020001N1+02691+02431101231ADDAA106000091GF101991011011012501001001KA1240M+03081MA1999999101161MD1999999-0091REMSYN088AAXX  12004 83096 32695 10910 10269 20243 30116 40123 81100 333 10308 29077 55110 59009;EQDQ01  00002PRCP06
0186830960999992003011212004-10920-037050FM-12+000699999V0200901N005112200019N0020001N1+02931+02361101401ADDAA106000091GF101991011011012501001001KA1240N+02351MA1999999101331MD1999999-0141REMSYN076AAXX  12124 83096 32695 10910 10293 20236 30133 40140 81100 333 20235 59014;EQDQ01  00002PRCP06
0167830960999992003011218004-10920-037050FM-12+000699999V0200901N005112200019N0020001N1+02921+02361101451ADDAA106000091GF101991011011012501001001MA1999999101381MD1999999+0221REMSYN070AAXX  12184 83096 32695 10910 10292 20236 30138 40145 81100 333 58022;EQDQ01  00002PRCP06
0198830960999992003011300004-10920-037050FM-12+000699999V0200901N005112200019N0020001N1+02711+02431101081ADDAA106000091GF101991011011012501001001KA1240M+03071MA1999999101011MD1999999-0151REMSYN088AAXX  13004 83096 32695 10910 10271 20243 30101 40108 81100 333 10307 29078 55108 59015;EQDQ01  00002PRCP06
0186830960999992003011312004-10920-037050FM-12+000699999V0200901N003112200019N0020001N1+02931+02221101271ADDAA106000091GF102991021011012501001001KA1240N+02331MA1999999101201MD1999999-0131REMSYN076AAXX  13124 83096 32695 20906 10293 20222 30120 40127 82100 333 20233 59013;EQDQ01  00002PRCP06
0167830960999992003011318004-10920-037050FM-12+000699999V0200901N005112200019N0020001N1+02931+02361101101ADDAA106000091GF101991011011012501001001MA1999999101031MD1999999-0351REMSYN070AAXX  13184 83096 32695 10910 10293 20236 30103 40110 81100 333 59035;EQDQ01  00002PRCP06
0198830960999992003011400004-10920-037050FM-12+000699999V0200901N005112200019N0020001N1+02711+02371101071ADDAA106000091GF102991021051012501001001KA1240M+03101MA1999999101001MD1999999-0011REMSYN088AAXX  14004 83096 32695 20910 10271 20237 30100 40107 82500 333 10310 29076 55108 59001;EQDQ01  00002PRCP06
0186830960999992003011412004-10920-037050FM-12+000699999V0200901N005112200019N0020001N1+03011+02181101481ADDAA106000091GF101991011011012501001001KA1240N+02371MA1999999101411MD1999999+0211REMSYN076AAXX  14124 83096 32695 10910 10301 20218 30141 40148 81100 333 20237 58021;EQDQ01  00002PRCP06
0167830960999992003011418004-10920-037050FM-12+000699999V0200901N005112200019N0020001N1+02991+02241101111ADDAA106000091GF101991011011012501001001MA1999999101041MD1999999+0011REMSYN070AAXX  14184 83096 32695 10910 10299 20224 30104 40111 81100 333 58001;EQDQ01  00002PRCP06
0198830960999992003011500004-10920-037050FM-12+000699999V0200901N005112200019N0020001N1+02691+02391101281ADDAA106000091GF101991011011012501001001KA1240M+03061MA1999999101211MD1999999+0211REMSYN088AAXX  15004 83096 32695 10910 10269 20239 30121 40128 81100 333 10306 29073 55105 58021;EQDQ01  00002PRCP06
0186830960999992003011512004-10920-037050FM-12+000699999V0200901N005112200019N0020001N1+02911+02201101471ADDAA106000091GF103991031011012501001001KA1240N+02451MA1999999101401MD1999999-0011REMSYN076AAXX  15124 83096 32695 30910 10291 20220 30140 40147 83100 333 20245 59001;EQDQ01  00002PRCP06
0167830960999992003011518004-10920-037050FM-12+000699999V0200901N005112200019N0020001N1+02941+02311101341ADDAA106000091GF102991021011012501001001MA1999999101271MD1999999+0231REMSYN070AAXX  15184 83096 32695 20910 10294 20231 30127 40134 82100 333 58023;EQDQ01  00002PRCP06
0198830960999992003011600004-10920-037050FM-12+000699999V0200901N005112200019N0020001N1+02671+02331101371ADDAA106000091GF102991021011012501001001KA1240M+03121MA1999999101301MD1999999+0091REMSYN088AAXX  16004 83096 32695 20910 10267 20233 30130 40137 82100 333 10312 29075 55097 58009;EQDQ01  00002PRCP06
0186830960999992003011612004-10920-037050FM-12+000699999V0200901N005112200019N0020001N1+02911+02341101611ADDAA106000091GF101991011011012501001001KA1240N+02411MA1999999101541MD1999999+0141REMSYN076AAXX  16124 83096 32695 10910 10291 20234 30154 40161 81100 333 20241 58014;EQDQ01  00002PRCP06
0167830960999992003011618004-10920-037050FM-12+000699999V0200901N005112200019N0020001N1+02931+02341101341ADDAA106000091GF102991021011012501001001MA1999999101271MD1999999+0001REMSYN070AAXX  16184 83096 32695 20910 10293 20234 30127 40134 82100 333 58000;EQDQ01  00002PRCP06
0198830960999992003011700004-10920-037050FM-12+000699999V0200901N003112200019N0020001N1+02661+02371101321ADDAA106000091GF101991011011012501001001KA1240M+03041MA1999999101251MD1999999+0051REMSYN088AAXX  17004 83096 32695 10906 10266 20237 30125 40132 81100 333 10304 29077 55110 58005;EQDQ01  00002PRCP06
0186830960999992003011712004-10920-037050FM-12+000699999V0200901N003112200019N0020001N1+02891+02321101441ADDAA106000091GF101991011011012501001001KA1240N+02411MA1999999101371MD1999999-0171REMSYN076AAXX  17124 83096 32695 10906 10289 20232 30137 40144 81100 333 20241 59017;EQDQ01  00002PRCP06
0167830960999992003011718004-10920-037050FM-12+000699999V0200901N003112200019N0020001N1+02951+02471101221ADDAA106000091GF102991021011012501001001MA1999999101151MD1999999-0121REMSYN070AAXX  17184 83096 32695 20906 10295 20247 30115 40122 82100 333 59012;EQDQ01  00002PRCP06
0198830960999992003011800004-10920-037050FM-12+000699999V0200901N003612200019N0020001N1+02691+02331101371ADDAA106000091GF103991031051012501001001KA1240M+03061MA1999999101301MD1999999-0051REMSYN088AAXX  18004 83096 32695 30907 10269 20233 30130 40137 83500 333 10306 29077 55096 59005;EQDQ01  00002PRCP06
0186830960999992003011812004-10920-037050FM-12+000699999V0200901N003612200019N0020001N1+02851+02351101381ADDAA106000091GF102991021051012501001001KA1240N+02431MA1999999101311MD1999999-0061REMSYN076AAXX  18124 83096 32695 20907 10285 20235 30131 40138 82500 333 20243 59006;EQDQ01  00002PRCP06
0167830960999992003011818004-10920-037050FM-12+000699999V0200901N004112200019N0020001N1+02971+02351101281ADDAA106000091GF102991021011012501001001MA1999999101211MD1999999+0061REMSYN070AAXX  18184 83096 32695 20908 10297 20235 30121 40128 82100 333 58006;EQDQ01  00002PRCP06
0198830960999992003011900004-10920-037050FM-12+000699999V0200901N003612200019N0020001N1+02711+02411101371ADDAA106000091GF102991021051012501001001KA1240M+03101MA1999999101301MD1999999+0081REMSYN088AAXX  19004 83096 32695 20907 10271 20241 30130 40137 82500 333 10310 29078 55087 58008;EQDQ01  00002PRCP06
0186830960999992003011912004-10920-037050FM-12+000699999V0200901N002612200019N0020001N1+02911+02201101371ADDAA106000091GF102991021011012501001001KA1240N+02451MA1999999101301MD1999999-0011REMSYN076AAXX  19124 83096 32695 20905 10291 20220 30130 40137 82100 333 20245 59001;EQDQ01  00002PRCP06
0167830960999992003011918004-10920-037050FM-12+000699999V0200901N003112200019N0020001N1+02951+02311101201ADDAA106000091GF102991021011012501001001MA1999999101231MD1999999+0021REMSYN070AAXX  19184 83096 32695 20906 10295 20231 30123 40120 82100 333 58002;EQDQ01  00002PRCP06
0198830960999992003012000004-10920-037050FM-12+000699999V0200901N003112200019N0020001N1+02731+02451101391ADDAA106000091GF102991021011012501001001KA1240M+03121MA1999999101321MD1999999+0021REMSYN088AAXX  20004 83096 32695 20906 10273 20245 30132 40139 82100 333 10312 29076 55108 58002;EQDQ01  00002PRCP06
0186830960999992003012012004-10920-037050FM-12+000699999V0200901N003112200019N0020001N1+02921+02411101491ADDAA106000091GF101991011011012501001001KA1240N+02441MA1999999101421MD1999999+0121REMSYN076AAXX  20124 83096 32695 10906 10292 20241 30142 40149 81100 333 20244 58012;EQDQ01  00002PRCP06
0167830960999992003012018004-10920-037050FM-12+000699999V0200901N003112200019N0020001N1+02991+02441101191ADDAA106000091GF101991011011012501001001MA1999999101121MD1999999-0111REMSYN070AAXX  20184 83096 32695 10906 10299 20244 30112 40119 81100 333 59011;EQDQ01  00002PRCP06
0198830960999992003012100004-10920-037050FM-12+000699999V0200901N004112200019N0020001N1+02751+02461101201ADDAA106000091GF101991011011012501001001KA1240M+03101MA1999999101131MD1999999-0191REMSYN088AAXX  21004 83096 32695 10908 10275 20246 30113 40120 81100 333 10310 29078 55105 59019;EQDQ01  00002PRCP06
0186830960999992003012112004-10920-037050FM-12+000699999V0200901N003612200019N0020001N1+02891+02461101281ADDAA106000091GF102991021051012501001001KA1240N+02441MA1999999101211MD1999999-0211REMSYN076AAXX  21124 83096 32695 20907 10289 20246 30121 40128 82500 333 20244 59021;EQDQ01  00002PRCP06
0167830960999992003012118004-10920-037050FM-12+000699999V0200901N005112200019N0020001N1+02951+02431101141ADDAA106000091GF104991041011012501001001MA1999999101071MD1999999-0051REMSYN070AAXX  21184 83096 32695 40910 10295 20243 30107 40114 84100 333 59005;EQDQ01  00002PRCP06
0198830960999992003012200004-10920-037050FM-12+000699999V0200901N004112200019N0020001N1+02731+02451101211ADDAA106000091GF103991031011012501001001KA1240M+03041MA1999999101141MD1999999+0011REMSYN088AAXX  22004 83096 32695 30908 10273 20245 30114 40121 83100 333 10304 29080 55083 58001;EQDQ01  00002PRCP06
0186830960999992003012212004-10920-037050FM-12+000699999V0200901N004112200019N0020001N1+02961+02401101421ADDAA106000091GF101991011011012501001001KA1240N+02411MA1999999101351MD1999999+0141REMSYN076AAXX  22124 83096 32695 10908 10296 20240 30135 40142 81100 333 20241 58014;EQDQ01  00002PRCP06
0167830960999992003012218004-10920-037050FM-12+000699999V0200901N005112200019N0020001N1+02991+02441101251ADDAA106000091GF101991011011012501001001MA1999999101181MD1999999+0111REMSYN070AAXX  22184 83096 32695 10910 10299 20244 30118 40125 81100 333 58011;EQDQ01  00002PRCP06
0198830960999992003012300004-10920-037050FM-12+000699999V0200901N003112200019N0020001N1+02731+02381101311ADDAA106000091GF101991011011012501001001KA1240M+03121MA1999999101241MD1999999+0101REMSYN088AAXX  23004 83096 32695 10906 10273 20238 30124 40131 81100 333 10312 29077 55110 58010;EQDQ01  00002PRCP06
0190830960999992003012312004-10920-037050FM-12+000699999V0203601N002110075019N0010001N1+02471+02191101621ADDAY191061AY291061GF106991061051008001001001KA1240N+02391MA1999999101551MD1999999+0201MW1801REMSYN088AAXX  23124 83096 21594 63604 10247 20219 30155 40162 78099 86500 333 20239 58020 69994;
0148830960999992003012318004-10920-037050FM-12+000699999V0200901N003112200019N0020001N1+02951+02401101371ADDAA106000021GF103991031051012501001001MA1999999101301MD1999999+0121REMSYN070AAXX  23184 83096 32695 30906 10295 20240 30130 40137 83500 333 58012;
0198830960999992003012400004-10920-037050FM-12+000699999V0201401N002612200019N0020001N1+02751+02471101491ADDAA106000091GF102991021051012501001001KA1240M+03011MA1999999101421MD1999999+0181REMSYN088AAXX  24004 83096 32695 21405 10275 20247 30142 40149 82500 333 10301 29082 55041 58018;EQDQ01  00002PRCP06
0186830960999992003012412004-10920-037050FM-12+000699999V0200901N004112200019N0020001N1+02991+02321101591ADDAA106000091GF101991011011012501001001KA1240N+02411MA1999999101521MD1999999-0031REMSYN076AAXX  24124 83096 32695 10908 10299 20232 30152 40159 81100 333 20241 59003;EQDQ01  00002PRCP06
0167830960999992003012418004-10920-037050FM-12+000699999V0201401N003112200019N0020001N1+02991+02321101291ADDAA106000091GF101991011011012501001001MA1999999101221MD1999999-0081REMSYN070AAXX  24184 83096 32695 11406 10299 20232 30122 40129 81100 333 59008;EQDQ01  00002PRCP06
0198830960999992003012500004-10920-037050FM-12+000699999V0201401N002612200019N0020001N1+02771+02771101401ADDAA106000091GF101991011011012501001001KA1240M+03171MA1999999101331MD1999999-0091REMSYN088AAXX  25004 83096 32695 11405 10277 20277 30133 40140 81100 333 10317 29070 55099 59009;EQDQ01  00002PRCP06
0186830960999992003012512004-10920-037050FM-12+000699999V0201401N002612200019N0020001N1+02971+02301101431ADDAA106000091GF102991021011012501001001KA1240N+02431MA1999999101361MD1999999-0161REMSYN076AAXX  25124 83096 32695 21405 10297 20230 30136 40143 82100 333 20243 59016;EQDQ01  00002PRCP06
0167830960999992003012518004-10920-037050FM-12+000699999V0200901N004112200019N0020001N1+02991+02291101301ADDAA106000091GF102991021011012501001001MA1999999101231MD1999999+0011REMSYN070AAXX  25184 83096 32695 20908 10299 20229 30123 40130 82100 333 58001;EQDQ01  00002PRCP06
0198830960999992003012600004-10920-037050FM-12+000699999V0200901N003112200019N0020001N1+02711+02371101211ADDAA106000091GF101991011011012501001001KA1240M+03141MA1999999101141MD1999999-0191REMSYN088AAXX  26004 83096 32695 10906 10271 20237 30114 40121 81100 333 10314 29074 55110 59019;EQDQ01  00002PRCP06
0186830960999992003012612004-10920-037050FM-12+000699999V0200901N003112200019N0020001N1+02981+02201101321ADDAA106000091GF101991011011012501001001KA1240N+02411MA1999999101251MD1999999-0111REMSYN076AAXX  26124 83096 32695 10906 10298 20220 30125 40132 81100 333 20241 59011;EQDQ01  00002PRCP06
0167830960999992003012618004-10920-037050FM-12+000699999V0200901N004112200019N0020001N1+03011+02391101031ADDAA106000091GF101991011011012501001001MA1999999100961MD1999999+0271REMSYN070AAXX  26184 83096 32695 10908 10301 20239 30096 40103 81100 333 58027;EQDQ01  00002PRCP06
0198830960999992003012700004-10920-037050FM-12+000699999V0200901N003112200019N0020001N1+02771+02301101161ADDAA106000091GF101991011011012501001001KA1240M+03091MA1999999101091MD1999999-0051REMSYN088AAXX  27004 83096 32695 10906 10277 20230 30109 40116 81100 333 10309 29072 55110 59005;EQDQ01  00002PRCP06
0186830960999992003012712004-10920-037050FM-12+000699999V0200901N003112200019N0020001N1+02931+02241101251ADDAA106000091GF103991031011012501001001KA1240N+02391MA1999999101181MD1999999-0071REMSYN076AAXX  27124 83096 32695 30906 10293 20224 30118 40125 83100 333 20239 59007;EQDQ01  00002PRCP06
0167830960999992003012718004-10920-037050FM-12+000699999V0200901N004112200019N0020001N1+02941+02311101121ADDAA106000091GF103991031011012501001001MA1999999101051MD1999999+0091REMSYN070AAXX  27184 83096 32695 30908 10294 20231 30105 40112 83100 333 58009;EQDQ01  00002PRCP06
0198830960999992003012800004-10920-037050FM-12+000699999V0200901N005112200019N0020001N1+02771+02441101271ADDAA106000091GF102991021011012501001001KA1240M+03081MA1999999101201MD1999999+0111REMSYN088AAXX  28004 83096 32695 20910 10277 20244 30120 40127 82100 333 10308 29075 55095 58011;EQDQ01  00002PRCP06
0190830960999992003012812004-10920-037050FM-12+000699999V0200501N001510120019N0020001N1+02671+02451101421ADDAY161061AY261061GF105991051011012501001001KA1240N+02281MA1999999101351MD1999999+0171MW1211REMSYN088AAXX  28124 83096 21695 50503 10267 20245 30135 40142 72166 85100 333 20228 58017 60074;
0148830960999992003012818004-10920-037050FM-12+000699999V0200901N005112200019N0020001N1+02991+02371101161ADDAA106000021GF101991011011012501001001MA1999999101091MD1999999+0041REMSYN070AAXX  28184 83096 32695 10910 10299 20237 30109 40116 81100 333 58004;
0198830960999992003012900004-10920-037050FM-12+000699999V0200901N004112200019N0020001N1+02771+02461101421ADDAA106000091GF101991011011012501001001KA1240M+03101MA1999999101351MD1999999+0151REMSYN088AAXX  29004 83096 32695 10908 10277 20246 30135 40142 81100 333 10310 29080 55072 58015;EQDQ01  00002PRCP06
0186830960999992003012912004-10920-037050FM-12+000699999V0200901N003612200019N0020001N1+02931+02521101461ADDAA106000091GF103991031011012501001001KA1240N+02351MA1999999101391MD1999999+0041REMSYN076AAXX  29124 83096 32695 30907 10293 20252 30139 40146 83100 333 20235 58004;EQDQ01  00002PRCP06
0167830960999992003012918004-10920-037050FM-12+000699999V0200901N005112200019N0020001N1+03011+02441101141ADDAA106000091GF102991021011012501001001MA1999999101071MD1999999-0021REMSYN070AAXX  29184 83096 32695 20910 10301 20244 30107 40114 82100 333 59002;EQDQ01  00002PRCP06
0198830960999992003013000004-10920-037050FM-12+000699999V0200901N005112200019N0020001N1+02731+02451101271ADDAA106000091GF102991021051012501001001KA1240M+03101MA1999999101201MD1999999-0151REMSYN088AAXX  30004 83096 32695 20910 10273 20245 30120 40127 82500 333 10310 29080 55114 59015;EQDQ01  00002PRCP06
0186830960999992003013012004-10920-037050FM-12+000699999V0200901N003110120019N0020001N1+02951+02381101331ADDAA106000091GF106991061011012501001001KA1240N+02411MA1999999101261MD1999999-0131REMSYN076AAXX  30124 83096 32695 60906 10295 20238 30126 40133 86100 333 20241 59013;EQDQ01  00002PRCP06
0171830960999992003013018004-10920-037050FM-12+000699999V0200901N003110075019N0020001N1+02911+02341101141ADDAY161061AY261061GF106991061051008001001001MA1999999101071MD1999999+0001MW1601REMSYN082AAXX  30184 83096 21595 60906 10291 20234 30107 40114 76066 86500 333 58000 60021;
0202830960999992003013100004-10920-037050FM-12+000699999V0200901N003112200019N0020001N1+02731+02341101221ADDAY161061AY261061GF101991011051012501001001KA1240M+03021MA1999999101151MD1999999-0051MW1201REMSYN100AAXX  31004 83096 21695 10906 10273 20234 30115 40122 72066 81500 333 10302 29075 55070 59005 69981;
0162830960999992003013112004-10920-037050FM-12+000699999V0201401N002612200019N0020001N1+02931+02361101271ADDGF102991021051012501001001KA1240N+02431MA1999999101201MD1999999-0061REMSYN082AAXX  31124 83096 22695 21405 10293 20236 30120 40127 82500 333 20243 59006 60064;
0167830960999992003013118004-10920-037050FM-12+000699999V0201401N003112200019N0020001N1+02911+02321101141ADDAA106000091GF103991031051012501001001MA1999999101071MD1999999+0001REMSYN070AAXX  31184 83096 32695 31406 10291 20232 30107 40114 83500 333 58000;EQDQ01  00002PRCP06
0221830960999992003020100004-10920-037050FM-12+000699999V0201401N002612200019N0020001N1+02751+02321101311ADDAY161061AY261061GF104991999051012501001001KA1240M+03061MA1999999101241MD1999999+0091MW1201REMSYN100AAXX  01004 83096 21695 41405 10275 20232 30124 40131 72066 85500 333 10306 29075 55093 58009 69961;EQDQ01+000052SCOTLC
0190830960999992003020112004-10920-037050FM-12+000699999V0200901N004110075019N0040001N1+02921+02451101431ADDAY161061AY261061GF106991061011008001001001KA1240N+02411MA1999999101361MD1999999+0161MW1201REMSYN088AAXX  01124 83096 21596 60908 10292 20245 30136 40143 72066 86100 333 20241 58016 69964;
0148830960999992003020118004-10920-037050FM-12+000699999V0200901N003110120019N0020001N1+02831+02421101301ADDAA106000021GF106991061011012501001001MA1999999101231MD1999999+0161REMSYN070AAXX  01184 83096 32695 60906 10283 20242 30123 40130 86100 333 58016;
0198830960999992003020200004-10920-037050FM-12+000699999V0200901N003110120019N0020001N1+02711+02341101481ADDAA106000091GF106991061051012501001001KA1240M+03141MA1999999101411MD1999999+0171REMSYN088AAXX  02004 83096 32695 60906 10271 20234 30141 40148 86500 333 10314 29078 55037 58017;EQDQ01  00002PRCP06
0186830960999992003020212004-10920-037050FM-12+000699999V0200901N003612200019N0020001N1+02891+02321101561ADDAA106000091GF103991031051012501001001KA1240N+02371MA1999999101491MD1999999+0131REMSYN076AAXX  02124 83096 32695 30907 10289 20232 30149 40156 83500 333 20237 58013;EQDQ01  00002PRCP06
0167830960999992003020218004-10920-037050FM-12+000699999V0201401N003112200019N0020001N1+02991+02371101341ADDAA106000091GF103991031011012501001001MA1999999101271MD1999999+0041REMSYN070AAXX  02184 83096 32695 31406 10299 20237 30127 40134 83100 333 58004;EQDQ01  00002PRCP06
0214830960999992003020300004-10920-037050FM-12+000699999V0201401N003112200019N0020001N1+02771+02401101491ADDAA106000091GF104991999051012501001001KA1240M+03141MA1999999101421MD1999999+0011REMSYN088AAXX  03004 83096 32695 41406 10277 20240 30142 40149 87500 333 10314 29076 55064 58001;EQDQ01+000072SCOTLCQ02  00002PRCP06
0186830960999992003020312004-10920-037050FM-12+000699999V0200901N001510120019N0020001N1+02531+02291101601ADDAA106000091GF107991071051012501001001KA1240N+02521MA1999999101531MD1999999+0041REMSYN076AAXX  03124 83096 32695 70903 10253 20229 30153 40160 87500 333 20252 58004;EQDQ01  00002PRCP06
0167830960999992003020318004-10920-037050FM-12+000699999V0201401N003112200019N0020001N1+02911+02391101321ADDAA106000091GF102991021051012501001001MA1999999101251MD1999999-0021REMSYN070AAXX  03184 83096 32695 21406 10291 20239 30125 40132 82500 333 59002;EQDQ01  00002PRCP06
0198830960999992003020400004-10920-037050FM-12+000699999V0201801N001512200019N0020001N1+02751+02401101471ADDAA106000091GF102991021051012501001001KA1240M+03181MA1999999101401MD1999999-0021REMSYN088AAXX  04004 83096 32695 21803 10275 20240 30140 40147 82500 333 10318 29081 55084 59002;EQDQ01  00002PRCP06
0190830960999992003020412004-10920-037050FM-12+000699999V0200901N004110120019N0020001N1+02961+02491101431ADDAY161061AY261061GF105991051011012501001001KA1240N+02411MA1999999101361MD1999999-0171MW1211REMSYN088AAXX  04124 83096 21695 50908 10296 20249 30136 40143 72166 85100 333 20241 59017 60054;
0167830960999992003020418004-10920-037050FM-12+000699999V0201401N005110120019N0020001N1+03001+02321101261ADDAA106000021GF106991999011012501001001MA1999999101191MD1999999-0061REMSYN070AAXX  04184 83096 32695 61410 10300 20232 30119 40126 85100 333 59006;EQDQ01+000052SCOTLC
0198830960999992003020500004-10920-037050FM-12+000699999V0200901N003110120019N0020001N1+02751+02361101481ADDAA106000091GF105991051051012501001001KA1240M+03121MA1999999101411MD1999999+0011REMSYN088AAXX  05004 83096 32695 50906 10275 20236 30141 40148 85500 333 10312 29075 55106 58001;EQDQ01  00002PRCP06
0186830960999992003020512004-10920-037050FM-12+000699999V0201401N002612200019N0020001N1+02951+02311101451ADDAA106000091GF103991031011012501001001KA1240N+02431MA1999999101381MD1999999+0021REMSYN076AAXX  05124 83096 32695 31405 10295 20231 30138 40145 83100 333 20243 58002;EQDQ01  00002PRCP06
0171830960999992003020518004-10920-037050FM-12+000699999V0200901N004112200019N0020001N1+02841+02261101321ADDAY161061AY261061GF103991031051012501001001MA1999999101251MD1999999+0061MW1201REMSYN082AAXX  05184 83096 21695 30908 10284 20226 30125 40132 72066 83500 333 58006 69921;
0179830960999992003020600004-10920-037050FM-12+000699999V0200901N002612200019N0020001N1+02711+02151101371ADDAA106000021GF102991021051012501001001KA1240M+03081MA1999999101201MD1999999-0111REMSYN088AAXX  06004 83096 32695 20905 10271 20215 30120 40137 82500 333 10308 29071 55101 59011;
0186830960999992003020612004-10920-037050FM-12+000699999V0200901N002110120019N0020001N1+02891+02301101591ADDAA106000091GF107991071051012501001001KA1240N+02351MA1999999101521MD1999999+0141REMSYN076AAXX  06124 83096 32695 70904 10289 20230 30152 40159 87500 333 20235 58014;EQDQ01  00002PRCP06
0167830960999992003020618004-10920-037050FM-12+000699999V0200901N005112200019N0020001N1+03001+02461101361ADDAA106000091GF101991011051012501001001MA1999999101291MD1999999+0041REMSYN070AAXX  06184 83096 32695 10910 10300 20246 30129 40136 81500 333 58004;EQDQ01  00002PRCP06
0198830960999992003020700004-10920-037050FM-12+000699999V0200901N003112200019N0020001N1+02731+02341101461ADDAA106000091GF102991021011012501001001KA1240M+03171MA1999999101291MD1999999+0091REMSYN088AAXX  07004 83096 32695 20906 10273 20234 30129 40146 82100 333 10317 29076 55097 58009;EQDQ01  00002PRCP06
0167830960999992003020718004-10920-037050FM-12+000699999V0201401N003112200019N0020001N1+02991+02441101281ADDAA106000091GF102991021011012501001001MA1999999101211MD1999999-0081REMSYN070AAXX  07184 83096 32695 21406 10299 20244 30121 40128 82100 333 59008;EQDQ01  00002PRCP06
0198830960999992003020800004-10920-037050FM-12+000699999V0201401N003110120019N0020001N1+02791+02271101461ADDAA106000091GF105991051011012501001001KA1240M+03141MA1999999101391MD1999999+0001REMSYN088AAXX  08004 83096 32695 51406 10279 20227 30139 40146 85100 333 10314 29071 55105 58000;EQDQ01  00002PRCP06
0186830960999992003020812004-10920-037050FM-12+000699999V0201401N003112200019N0020001N1+02911+02341101521ADDAA106000091GF103991031011012501001001KA1240N+02431MA1999999101451MD1999999+0051REMSYN076AAXX  08124 83096 32695 31406 10291 20234 30145 40152 83100 333 20243 58005;EQDQ01  00002PRCP06
0198830960999992003020900004-10920-037050FM-12+000699999V0201401N003112200019N0020001N1+02771+02271101401ADDAA106000091GF101991011051012501001001KA1240M+03151MA1999999101331MD1999999-0061REMSYN088AAXX  09004 83096 32695 11406 10277 20227 30133 40140 81500 333 10315 29073 55116 59006;EQDQ01  00002PRCP06
0190830960999992003020912004-10920-037050FM-12+000699999V0200901N003112200019N0020001N1+02931+02261101421ADDAY161061AY261061GF101991011011012501001001KA1240N+02411MA1999999101351MD1999999-0101MW1201REMSYN088AAXX  09124 83096 21695 10906 10293 20226 30135 40142 72066 81100 333 20241 59010 69964;
0148830960999992003020918004-10920-037050FM-12+000699999V0201401N003112200019N0020001N1+02991+02321101181ADDAA106000021GF101991011011012501001001MA1999999101111MD1999999-0141REMSYN070AAXX  09184 83096 32695 11406 10299 20232 30111 40118 81100 333 59014;
0198830960999992003021000004-10920-037050FM-12+000699999V0201401N003112200019N0020001N1+02781+02341101261ADDAA106000091GF101991011011012501001001KA1240M+03121MA1999999101191MD1999999-0141REMSYN088AAXX  10004 83096 32695 11406 10278 20234 30119 40126 81100 333 10312 29072 55116 59014;EQDQ01  00002PRCP06
0190830960999992003021012004-10920-037050FM-12+000699999V0200901N001512200019N0020001N1+02631+02351101261ADDAY161061AY261061GF103991031051012501001001KA1240N+02431MA1999999101191MD1999999-0161MW1201REMSYN088AAXX  10124 83096 21695 30903 10263 20235 30119 40126 72066 83500 333 20243 59016 60024;
0148830960999992003021018004-10920-037050FM-12+000699999V0200901N003112200019N0020001N1+02891+02101101021ADDAA106000021GF104991041011012501001001MA1999999100951MD1999999-0161REMSYN070AAXX  10184 83096 32695 40906 10289 20210 30095 40102 84100 333 59016;
0198830960999992003021100004-10920-037050FM-12+000699999V0200901N001512200019N0020001N1+02731+02171101271ADDAA106000091GF102991021051012501001001KA1240M+03121MA1999999101201MD1999999+0011REMSYN088AAXX  11004 83096 32695 20903 10273 20217 30120 40127 82500 333 10312 29073 55042 58001;EQDQ01  00002PRCP06
0186830960999992003021112004-10920-037050FM-12+000699999V0200901N003112200019N0020001N1+02931+02341101361ADDAA106000091GF104991021051012501031011KA1240N+02431MA1999999101291MD1999999+0101REMSYN076AAXX  11124 83096 32695 40906 10293 20234 30129 40136 82531 333 20243 58010;EQDQ01  00002PRCP06
0167830960999992003021118004-10920-037050FM-12+000699999V0201801N002112200019N0020001N1+02961+02101101001ADDAA106000091GF102991021001012501001011MA1999999100931MD1999999-0021REMSYN070AAXX  11184 83096 32695 21804 10296 20210 30093 40100 82001 333 59002;EQDQ01  00002PRCP06
0198830960999992003021200004-10920-037050FM-12+000699999V0201401N002112200019N0020001N1+02721+02431101251ADDAA106000091GF101991011051012501001001KA1240M+03131MA1999999101181MD1999999-0021REMSYN088AAXX  12004 83096 32695 11404 10272 20243 30118 40125 81500 333 10313 29075 55115 59002;EQDQ01  00002PRCP06
0186830960999992003021212004-10920-037050FM-12+000699999V0200901N004112200019N0020001N1+02891+02411101321ADDAA106000091GF105991041011012501001011KA1240N+02421MA1999999101251MD1999999-0041REMSYN076AAXX  12124 83096 32695 50908 10289 20241 30125 40132 84101 333 20242 59004;EQDQ01  00002PRCP06
0167830960999992003021218004-10920-037050FM-12+000699999V0200901N004612200019N0020001N1+02931+02431101141ADDAA106000091GF105991041011012501001011MA1999999101071MD1999999+0141REMSYN070AAXX  12184 83096 32695 50909 10293 20243 30107 40114 84101 333 58014;EQDQ01  00002PRCP06
0198830960999992003021300004-10920-037050FM-12+000699999V0200901N005110120019N0020001N1+02761+02341101351ADDAA106000091GF105991051051012501001001KA1240M+03031MA1999999101281MD1999999+0101REMSYN088AAXX  13004 83096 32695 50910 10276 20234 30128 40135 85500 333 10303 29076 55064 58010;EQDQ01  00002PRCP06
0186830960999992003021312004-10920-037050FM-12+000699999V0200901N003112200019N0020001N1+02911+02321101511ADDAA106000091GF104991041011012501001001KA1240N+02451MA1999999101441MD1999999+0191REMSYN076AAXX  13124 83096 32695 40906 10291 20232 30144 40151 84100 333 20245 58019;EQDQ01  00002PRCP06
0167830960999992003021318004-10920-037050FM-12+000699999V0200901N003112200019N0020001N1+02991+02281101511ADDAA106000091GF103991031051012501001001MA1999999101441MD1999999+0121REMSYN070AAXX  13184 83096 32695 30906 10299 20228 30144 40151 83500 333 58012;EQDQ01  00002PRCP06
0198830960999992003021400004-10920-037050FM-12+000699999V0200901N003612200019N0020001N1+02791+02301101271ADDAA106000091GF103991031051012501001001KA1240M+03141MA1999999101201MD1999999-0081REMSYN088AAXX  14004 83096 32695 30907 10279 20230 30120 40127 83500 333 10314 29072 55049 59008;EQDQ01  00002PRCP06
0186830960999992003021412004-10920-037050FM-12+000699999V0200501N001510450019N0020001N1+02811+02131101401ADDAA106000091GF107991031051012501031011KA1240N+02471MA1999999101331MD1999999-0111REMSYN076AAXX  14124 83096 32695 70503 10281 20213 30133 40140 83531 333 20247 59011;EQDQ01  00002PRCP06
0167830960999992003021418004-10920-037050FM-12+000699999V0200901N003112200019N0020001N1+02971+02231101131ADDAA106000091GF102991021011012501001001MA1999999101061MD1999999+0111REMSYN070AAXX  14184 83096 32695 20906 10297 20223 30106 40113 82100 333 58011;EQDQ01  00002PRCP06
0208830960999992003021500004-10920-037050FM-12+000699999V0200901N003112200019N0020001N1+02671+02201101281ADDAA106000091GA1001+999999999GF100991001001999999001001KA1240M+03061MA1999999101211MD1999999+0011REMSYN082AAXX  15004 83096 32695 00906 10267 20220 30121 40128 333 10306 29071 55051 58001;EQDQ01  00002PRCP06
0207830960999992003021512004-10920-037050FM-12+000699999V0200901N003612200019N0020001N1+02971+02261101301ADDAA124000291AY161061AY261061GF101991011051012501001001KA1240N+02631MA1999999101231MD1999999-0101MW1201REMSYN094AAXX  15124 83096 21695 10907 10297 20226 30123 40130 72066 81500 333 20263 59010 69924 10002;
0148830960999992003021518004-10920-037050FM-12+000699999V0200901N003112200019N0020001N1+02991+02271101021ADDAA106000021GF102991011051012501001011MA1999999100951MD1999999-0111REMSYN070AAXX  15184 83096 32695 20906 10299 20227 30095 40102 81501 333 59011;
0186830960999992003021612004-10920-037050FM-12+000699999V0200901N003112200019N0020001N1+02931+02291101271ADDAA106000091GF102991011051012501001011KA1240N+02611MA1999999101201MD1999999-0031REMSYN076AAXX  16124 83096 32695 20906 10293 20229 30120 40127 81501 333 20261 59003;EQDQ01  00002PRCP06
0167830960999992003021618004-10920-037050FM-12+000699999V0201801N002112200019N0020001N1+02961+02231101051ADDAA106000091GF101991011011012501001001MA1999999100981MD1999999+0031REMSYN070AAXX  16184 83096 32695 11804 10296 20223 30098 40105 81100 333 58003;EQDQ01  00002PRCP06
0186830960999992003021712004-10920-037050FM-12+000699999V0200901N002612200019N0020001N1+02991+02201101341ADDAA106000091GF103991031011012501001001KA1240N+02631MA1999999101271MD1999999+0071REMSYN076AAXX  17124 83096 32695 30905 10299 20220 30127 40134 83100 333 20263 58007;EQDQ01  00002PRCP06
0171830960999992003021718004-10920-037050FM-12+000699999V0200901N003612200019N0020001N1+02991+02321101091ADDAY161061AY261061GF101991011011012501001001MA1999999101021MD1999999+0041MW1211REMSYN082AAXX  17184 83096 21695 10907 10299 20232 30102 40109 72166 81100 333 58004 60021;
0179830960999992003021800004-10920-037050FM-12+000699999V0200901N005112200019N0020001N1+02781+02361101301ADDAA106000021GF104991041051012501001001KA1240M+03161MA1999999101231MD1999999+0141REMSYN088AAXX  18004 83096 32695 40910 10278 20236 30123 40130 84500 333 10316 29072 55104 58014;
0186830960999992003021812004-10920-037050FM-12+000699999V0200901N003112200019N0200001N1+02971+02331101411ADDAA106000091GF102991021011008001001001KA1240N+02511MA1999999101341MD1999999+0071REMSYN076AAXX  18124 83096 32598 20906 10297 20233 30134 40141 82100 333 20251 58007;EQDQ01  00002PRCP06
0167830960999992003021818004-10920-037050FM-12+000699999V0200901N004612200019N0020001N1+02961+02261101131ADDAA106000091GF106991041011012501001011MA1999999101061MD1999999+0041REMSYN070AAXX  18184 83096 32695 60909 10296 20226 30106 40113 84101 333 58004;EQDQ01  00002PRCP06
0198830960999992003021900004-10920-037050FM-12+000699999V0200901N004610120019N0020001N1+02781+02421101371ADDAA106000091GF105991051051012501001001KA1240M+03101MA1999999101301MD1999999+0071REMSYN088AAXX  19004 83096 32695 50909 10278 20242 30130 40137 85500 333 10310 29074 55100 58007;EQDQ01  00002PRCP06
0190830960999992003021912004-10920-037050FM-12+000699999V0200901N004610450019N0020001N1+02891+02501101451ADDAY161061AY261061GF106991041051012501031001KA1240N+02611MA1999999101381MD1999999+0041MW1211REMSYN088AAXX  19124 83096 21695 60909 10289 20250 30138 40145 72166 84530 333 20261 58004 60044;
0148830960999992003021918004-10920-037050FM-12+000699999V0200901N004610120019N0020001N1+03011+02491101181ADDAA106000021GF107991051051012501031001MA1999999101111MD1999999+0051REMSYN070AAXX  19184 83096 32695 70909 10301 20249 30111 40118 85530 333 58005;
0162830960999992003022012004-10920-037050FM-12+000699999V0200901N004110120019N0020001N1+02951+02401101391ADDGF107991061051012501031001KA1240N+02671MA1999999101221MD1999999-0061REMSYN082AAXX  20124 83096 22695 70908 10295 20240 30122 40139 86530 333 20267 59006 69924;
0167830960999992003022018004-10920-037050FM-12+000699999V0200901N003610120019N0020001N1+02931+02271101361ADDAA106000091GF105991051051012501001001MA1999999101291MD1999999+0181REMSYN070AAXX  20184 83096 32695 50907 10293 20227 30129 40136 85500 333 58018;EQDQ01  00002PRCP06
0198830960999992003022100004-10920-037050FM-12+000699999V0201801N001512200019N0020001N1+02751+02261101261ADDAA106000091GF104991041051012501001001KA1240M+03101MA1999999101191MD1999999-0091REMSYN088AAXX  21004 83096 32695 41803 10275 20226 30119 40126 84500 333 10310 29073 55023 59009;EQDQ01  00002PRCP06
0190830960999992003022112004-10920-037050FM-12+000699999V0201401N002112200019N0020001N1+02871+02211101361ADDAY161061AY261061GF102991021011012501001001KA1240N+02391MA1999999101291MD1999999-0031MW1211REMSYN088AAXX  21124 83096 21695 21404 10287 20221 30129 40136 72166 82100 333 20239 59003 60024;
0148830960999992003022118004-10920-037050FM-12+000699999V0201401N002612200019N0020001N1+02891+02341101231ADDAA106000021GF106991041011012501001011MA1999999101161MD1999999-0131REMSYN070AAXX  21184 83096 32695 61405 10289 20234 30116 40123 84101 333 59013;
0202830960999992003022200004-10920-037050FM-12+000699999V0200901N000510120019N0020001N1+02631+02361101281ADDAY161061AY261061GF105991051051012501001001KA1240M+03041MA1999999101211MD1999999+0021MW1201REMSYN100AAXX  22004 83096 21695 50901 10263 20236 30121 40128 72066 85500 333 10304 29078 55053 58002 69941;
0190830960999992003022212004-10920-037050FM-12+000699999V0200901N002610120019N0020001N1+02851+02441101441ADDAY161061AY261061GF105991051051012501001001KA1240N+02241MA1999999101371MD1999999+0081MW1211REMSYN088AAXX  22124 83096 21695 50905 10285 20244 30137 40144 72166 85500 333 20224 58008 60034;
0171830960999992003022218004-10920-037050FM-12+000699999V0200901N003612200019N0020001N1+02981+02331101251ADDAY161061AY261061GF102991021011012501001001MA1999999101181MD1999999+0021MW1211REMSYN082AAXX  22184 83096 21695 20907 10298 20233 30118 40125 72166 82100 333 58002 60011;
0179830960999992003022300004-10920-037050FM-12+000699999V0200901N002612200019N0020001N1+02811+02271101521ADDAA106000021GF102991021051012501001001KA1240M+03121MA1999999101451MD1999999+0241REMSYN088AAXX  23004 83096 32695 20905 10281 20227 30145 40152 82500 333 10312 29073 55099 58024;
0198830960999992003022400004-10920-037050FM-12+000699999V0201401N002112200019N0020001N1+02761+02401101491ADDAA106000091GF104991041051012501001001KA1240M+03161MA1999999101421MD1999999-0031REMSYN088AAXX  24004 83096 32695 41404 10276 20240 30142 40149 84500 333 10316 29074 55097 59003;EQDQ01  00002PRCP06
0171830960999992003022418004-10920-037050FM-12+000699999V0201401N001510075019N0020001N1+02821+02271101291ADDAY161061AY261061GF107991061051008001031001MA1999999101221MD1999999-0071MW1211REMSYN082AAXX  24184 83096 21595 71403 10282 20227 30122 40129 72166 86530 333 59007 69941;
0179830960999992003022500004-10920-037050FM-12+000699999V0201801N000512200019N0020001N1+02671+02371101491ADDAA106000021GF102991021051012501001001KA1240M+02951MA1999999101421MD1999999+0001REMSYN088AAXX  25004 83096 32695 21801 10267 20237 30142 40149 82500 333 10295 29081 55006 58000;
0190830960999992003022512004-10920-037050FM-12+000699999V0201801N001510075019N0010001N1+02431+02321101441ADDAY161061AY261061GF106991061051008001001001KA1240N+02351MA1999999101371MD1999999-0241MW1611REMSYN088AAXX  25124 83096 21594 61803 10243 20232 30137 40144 76166 86500 333 20235 59024 60264;
0148830960999992003022518004-10920-037050FM-12+000699999V0201401N001512200019N0020001N1+02811+02461101151ADDAA106000021GF104991041011012501001011MA1999999101081MD1999999-0141REMSYN070AAXX  25184 83096 32695 41403 10281 20246 30108 40115 84101 333 59014;
0198830960999992003022600004-10920-037050FM-12+000699999V0200901N003112200019N0020001N1+02751+02281101351ADDAA106000091GF103991031051012501001001KA1240M+03041MA1999999101281MD1999999-0141REMSYN088AAXX  26004 83096 32695 30906 10275 20228 30128 40135 83500 333 10304 29081 55035 59014;EQDQ01  00002PRCP06
0190830960999992003022612004-10920-037050FM-12+000699999V0200901N002612200019N0020001N1+02871+02211101381ADDAY161061AY261061GF103991031011012501001001KA1240N+02301MA1999999101311MD1999999-0061MW1211REMSYN088AAXX  26124 83096 21695 30905 10287 20221 30131 40138 72166 83100 333 20230 59006 60084;
0148830960999992003022618004-10920-037050FM-12+000699999V0200901N003112200019N0020001N1+02941+02111101121ADDAA106000021GF101991011011012501001001MA1999999101051MD1999999-0031REMSYN070AAXX  26184 83096 32695 10906 10294 20211 30105 40112 81100 333 59003;
0198830960999992003022700004-10920-037050FM-12+000699999V0201401N003612200019N0020001N1+02771+02111101441ADDAA106000091GF101991011051012501001001KA1240M+03061MA1999999101371MD1999999+0071REMSYN088AAXX  27004 83096 32695 11407 10277 20211 30137 40144 81500 333 10306 29066 55117 58007;EQDQ01  00002PRCP06
0186830960999992003022712004-10920-037050FM-12+000699999V0200501N003610450019N0020001N1+02811+02311101321ADDAA106000091GF107991031051012501031011KA1240N+02481MA1999999101251MD1999999-0061REMSYN076AAXX  27124 83096 32695 70507 10281 20231 30125 40132 83531 333 20248 59006;EQDQ01  00002PRCP06
0167830960999992003022718004-10920-037050FM-12+000699999V0200901N003110450019N0200001N1+02971+02401101161ADDAA106000091GF106991031051012501031011MA1999999101091MD1999999+0041REMSYN070AAXX  27184 83096 32698 60906 10297 20240 30109 40116 83531 333 58004;EQDQ01  00002PRCP06
0198830960999992003022800004-10920-037050FM-12+000699999V0200901N004612200019N0020001N1+02751+02301101361ADDAA106000091GF101991011011012501001001KA1240M+03141MA1999999101291MD1999999-0081REMSYN088AAXX  28004 83096 32695 10909 10275 20230 30129 40136 81100 333 10314 29075 55077 59008;EQDQ01  00002PRCP06
0190830960999992003022812004-10920-037050FM-12+000699999V0200901N004612200019N0020001N1+02901+02391101501ADDAY161061AY261061GF104991021051012501031011KA1240N+02511MA1999999101431MD1999999+0181MW1211REMSYN088AAXX  28124 83096 21695 40909 10290 20239 30143 40150 72166 82531 333 20251 58018 60044;
0148830960999992003022818004-10920-037050FM-12+000699999V0201401N001510120019N0020001N1+02851+02311101221ADDAA106000021GF107991071051012501001001MA1999999101151MD1999999+0061REMSYN070AAXX  28184 83096 32695 71403 10285 20231 30115 40122 87500 333 58006;
0198830960999992003030100004-10920-037050FM-12+000699999V0200901N004612200019N0020001N1+02751+02321101371ADDAA106000091GF101991011011012501001001KA1240M+03091MA1999999101301MD1999999+0011REMSYN088AAXX  01004 83096 32695 10909 10275 20232 30130 40137 81100 333 10309 29045 55076 58001;EQDQ01  00002PRCP06
0186830960999992003030112004-10920-037050FM-12+000699999V0200901N003612200019N0020001N1+02971+02301101401ADDAA106000091GF103991021011012501001011KA1240N+02611MA1999999101331MD1999999-0101REMSYN076AAXX  01124 83096 32695 30907 10297 20230 30133 40140 82101 333 20261 59010;EQDQ01  00002PRCP06
0167830960999992003030118004-10920-037050FM-12+000699999V0200901N003612200019N0020001N1+02951+02101101141ADDAA106000091GF108991041011012501001011MA1999999101071MD1999999-0081REMSYN070AAXX  01184 83096 32695 80907 10295 20210 30107 40114 84101 333 59008;EQDQ01  00002PRCP06
0190830960999992003030212004-10920-037050FM-12+000699999V0200901N001512200019N0020001N1+02871+02371101341ADDAY161061AY261061GF103991021011012501001011KA1240N+02411MA1999999101271MD1999999-0061MW1211REMSYN088AAXX  02124 83096 21695 30903 10287 20237 30127 40134 72166 82101 333 20241 59006 60054;
0148830960999992003030218004-10920-037050FM-12+000699999V0200901N003112200019N0020001N1+02951+02261101051ADDAA106000021GF102991011011012501001011MA1999999100981MD1999999-0091REMSYN070AAXX  02184 83096 32695 20906 10295 20226 30098 40105 81101 333 59009;
0186830960999992003030312004-10920-037050FM-12+000699999V0200901N004110450019N0020001N1+02751+02261101301ADDAA106000091GF106991021051012501031011KA1240N+02411MA1999999101231MD1999999+0041REMSYN076AAXX  03124 83096 32695 60908 10275 20226 30123 40130 82531 333 20241 58004;EQDQ01  00002PRCP06
0167830960999992003030318004-10920-037050FM-12+000699999V0200901N003112200019N0020001N1+02961+02231101131ADDAA106000091GF103991011051012501031011MA1999999101061MD1999999+0181REMSYN070AAXX  03184 83096 32695 30906 10296 20223 30106 40113 81531 333 58018;EQDQ01  00002PRCP06
0198830960999992003030400004-10920-037050FM-12+000699999V0200901N003612200019N0020001N1+02731+02321101341ADDAA106000091GF101991011011012501001001KA1240M+03101MA1999999101271MD1999999+0161REMSYN088AAXX  04004 83096 32695 10907 10273 20232 30127 40134 81100 333 10310 29074 55100 58016;EQDQ01  00002PRCP06
0186830960999992003030412004-10920-037050FM-12+000699999V0200901N003112200019N0020001N1+02931+02221101461ADDAA106000091GF102991021021012501001001KA1240N+02431MA1999999101391MD1999999+0161REMSYN076AAXX  04124 83096 32695 20906 10293 20222 30139 40146 82200 333 20243 58016;EQDQ01  00002PRCP06
0167830960999992003030418004-10920-037050FM-12+000699999V0201401N003112200019N0020001N1+02951+01221101121ADDAA106000091GF101991011011012501001001MA1999999101151MD1999999+0091REMSYN070AAXX  04184 83096 32695 11406 10295 20122 30115 40112 81100 333 58009;EQDQ01  00002PRCP06
0186830960999992003030512004-10920-037050FM-12+000699999V0200901N002112200019N0020001N1+02951+02161101351ADDAA106000091GF103991031011012501001001KA1240N+02441MA1999999101281MD1999999-0111REMSYN076AAXX  05124 83096 32695 30904 10295 20216 30128 40135 83100 333 20244 59011;EQDQ01  00002PRCP06
0167830960999992003030518004-10920-037050FM-12+000699999V0200901N002612200019N0020001N1+02951+02311101141ADDAA106000091GF104991041011012501001001MA1999999101071MD1999999-0081REMSYN070AAXX  05184 83096 32695 40905 10295 20231 30107 40114 84100 333 59008;EQDQ01  00002PRCP06
0198830960999992003030600004-10920-037050FM-12+000699999V0200901N003112200019N0020001N1+02751+02261101271ADDAA106000091GF104991041051012501001001KA1240M+03081MA1999999101201MD1999999-0111REMSYN088AAXX  06004 83096 32695 40906 10275 20226 30120 40127 84500 333 10308 29070 55074 59011;EQDQ01  00002PRCP06
0190830960999992003030612004-10920-037050FM-12+000699999V0200901N003112200019N0020001N1+02951+02311101271ADDAY161061AY261061GF103991031011012501001001KA1240N+02631MA1999999101201MD1999999-0081MW1201REMSYN088AAXX  06124 83096 21695 30906 10295 20231 30120 40127 72066 83100 333 20263 59008 69944;
0148830960999992003030618004-10920-037050FM-12+000699999V0200901N005112200019N0020001N1+03041+02281101101ADDAA106000021GF105991031011012501001011MA1999999101031MD1999999-0041REMSYN070AAXX  06184 83096 32695 50910 10304 20228 30103 40110 83101 333 59004;
0198830960999992003030700004-10920-037050FM-12+000699999V0200901N003112200019N0020001N1+02781+02361101251ADDAA106000091GF101991011051012501001001KA1240M+03101MA1999999101181MD1999999-0021REMSYN088AAXX  07004 83096 32695 10906 10278 20236 30118 40125 81500 333 10310 29072 55104 59002;EQDQ01  00002PRCP06
0186830960999992003030712004-10920-037050FM-12+000699999V0200901N003112200019N0020001N1+02981+02401101391ADDAA106000091GF102991021011012501001001KA1240N+02551MA1999999101321MD1999999+0121REMSYN076AAXX  07124 83096 32695 20906 10298 20240 30132 40139 82100 333 20255 58012;EQDQ01  00002PRCP06
0167830960999992003030718004-10920-037050FM-12+000699999V0200901N004610120019N0020001N1+02951+02381101201ADDAA106000091GF108991081051012501001001MA1999999101131MD1999999+0101REMSYN070AAXX  07184 83096 32695 80909 10295 20238 30113 40120 88500 333 58010;EQDQ01  00002PRCP06
0198830960999992003030800004-10920-037050FM-12+000699999V0200901N005112200019N0020001N1+02751+02321101321ADDAA106000091GF101991011051012501001001KA1240M+03111MA1999999101251MD1999999+0071REMSYN088AAXX  08004 83096 32695 10910 10275 20232 30125 40132 81500 333 10311 29074 55066 58007;EQDQ01  00002PRCP06
0186830960999992003030812004-10920-037050FM-12+000699999V0200901N003112200019N0020001N1+02931+02321101251ADDAA106000091GF102991021011012501001001KA1240N+02511MA1999999101281MD1999999-0041REMSYN076AAXX  08124 83096 32695 20906 10293 20232 30128 40125 82100 333 20251 59004;EQDQ01  00002PRCP06
0167830960999992003030818004-10920-037050FM-12+000699999V0200901N002612200019N0020001N1+02991+02251101241ADDAA106000091GF101991011011012501001001MA1999999101171MD1999999+0041REMSYN070AAXX  08184 83096 32695 10905 10299 20225 30117 40124 81100 333 58004;EQDQ01  00002PRCP06
0198830960999992003030900004-10920-037050FM-12+000699999V0200901N003112200019N0020001N1+02751+02281101351ADDAA106000091GF101991011051012501001001KA1240M+03101MA1999999101281MD1999999+0031REMSYN088AAXX  09004 83096 32695 10906 10275 20228 30128 40135 81500 333 10310 29071 55103 58003;EQDQ01  00002PRCP06
0186830960999992003030912004-10920-037050FM-12+000699999V0200901N003112200019N0020001N1+02951+02191101371ADDAA106000091GF102991021011012501001001KA1240N+02591MA1999999101301MD1999999+0021REMSYN076AAXX  09124 83096 32695 20906 10295 20219 30130 40137 82100 333 20259 58002;EQDQ01  00002PRCP06
0167830960999992003030918004-10920-037050FM-12+000699999V0201401N002612200019N0020001N1+02891+02321101221ADDAA106000091GF102991021011012501001001MA1999999101151MD1999999-0021REMSYN070AAXX  09184 83096 32695 21405 10289 20232 30115 40122 82100 333 59002;EQDQ01  00002PRCP06
0190830960999992003031012004-10920-037050FM-12+000699999V0200901N002612200019N0020001N1+02841+02441101351ADDAY161061AY261061GF103991031011012501001001KA1240N+02551MA1999999101281MD1999999-0021MW1211REMSYN088AAXX  10124 83096 21695 30905 10284 20244 30128 40135 72166 83100 333 20255 59002 60034;
0148830960999992003031018004-10920-037050FM-12+000699999V0200901N003110120019N0020001N1+02951+02401101121ADDAA106000021GF108991061011012501001011MA1999999101051MD1999999-0101REMSYN070AAXX  10184 83096 32695 80906 10295 20240 30105 40112 86101 333 59010;
0198830960999992003031100004-10920-037050FM-12+000699999V0200901N003110120019N0020001N1+02781+02381101361ADDAA106000091GF106991061051012501001001KA1240M+03021MA1999999101291MD1999999+0021REMSYN088AAXX  11004 83096 32695 60906 10278 20238 30129 40136 86500 333 10302 29077 55033 58002;EQDQ01  00002PRCP06
0186830960999992003031112004-10920-037050FM-12+000699999V0200901N003610450019N0020001N1+02951+02231101351ADDAA106000091GF106991021051012501031011KA1240N+02471MA1999999101281MD1999999+0001REMSYN076AAXX  11124 83096 32695 60907 10295 20223 30128 40135 82531 333 20247 58000;EQDQ01  00002PRCP06
0167830960999992003031118004-10920-037050FM-12+000699999V0200901N004110450019N0020001N1+02921+02341101161ADDAA106000091GF107991021051012501031011MA1999999101091MD1999999+0041REMSYN070AAXX  11184 83096 32695 70908 10292 20234 30109 40116 82531 333 58004;EQDQ01  00002PRCP06
0198830960999992003031200004-10920-037050FM-12+000699999V0201401N002112200019N0020001N1+02721+02411101251ADDAA106000091GF101991011011012501001001KA1240M+03131MA1999999101181MD1999999-0111REMSYN088AAXX  12004 83096 32695 11404 10272 20241 30118 40125 81100 333 10313 29072 55062 59011;EQDQ01  00002PRCP06
0190830960999992003031212004-10920-037050FM-12+000699999V0200901N001512200019N0020001N1+02901+02461101191ADDAY161061AY261061GF103991031011012501001001KA1240N+02511MA1999999101121MD1999999-0061MW1201REMSYN088AAXX  12124 83096 21695 30903 10290 20246 30112 40119 72066 83100 333 20251 59006 69974;
0148830960999992003031218004-10920-037050FM-12+000699999V0201401N002112200019N0020001N1+03011+02291101121ADDAA106000021GF104991041011012501001001MA1999999101051MD1999999-0041REMSYN070AAXX  12184 83096 32695 41404 10301 20229 30105 40112 84100 333 59004;
0198830960999992003031300004-10920-037050FM-12+000699999V0200901N003112200019N0020001N1+02771+02361101261ADDAA106000091GF101991011051012501001001KA1240M+03121MA1999999101191MD1999999+0011REMSYN088AAXX  13004 83096 32695 10906 10277 20236 30119 40126 81500 333 10312 29075 55087 58001;EQDQ01  00002PRCP06
0186830960999992003031312004-10920-037050FM-12+000699999V0200901N003112200019N0020001N1+02971+02451101141ADDAA106000091GF103991031011012501001001KA1240N+02481MA1999999101171MD1999999-0051REMSYN076AAXX  13124 83096 32695 30906 10297 20245 30117 40114 83100 333 20248 59005;EQDQ01  00002PRCP06
0167830960999992003031318004-10920-037050FM-12+000699999V0200901N005112200019N0020001N1+03001+02391101091ADDAA106000091GF101991011011012501001011MA1999999101021MD1999999-0031REMSYN070AAXX  13184 83096 32695 10910 10300 20239 30102 40109 81101 333 59003;EQDQ01  00002PRCP06
0198830960999992003031400004-10920-037050FM-12+000699999V0200901N005112200019N0020001N1+02791+02501101211ADDAA106000091GF102991021051012501001001KA1240M+03161MA1999999101141MD1999999-0051REMSYN088AAXX  14004 83096 32695 20910 10279 20250 30114 40121 82500 333 10316 29078 55098 59005;EQDQ01  00002PRCP06
0167830960999992003031418004-10920-037050FM-12+000699999V0201401N002112200019N0020001N1+03021+02411101101ADDAA106000091GF104991021051012501001011MA1999999101031MD1999999+0011REMSYN070AAXX  14184 83096 32695 41404 10302 20241 30103 40110 82501 333 58001;EQDQ01  00002PRCP06
0198830960999992003031500004-10920-037050FM-12+000699999V0200901N003112200019N0020001N1+02761+02541101251ADDAA106000091GF101991011011012501001001KA1240M+03171MA1999999101181MD1999999+0041REMSYN088AAXX  15004 83096 32695 10906 10276 20254 30118 40125 81100 333 10317 29080 55099 58004;EQDQ01  00002PRCP06
0190830960999992003031512004-10920-037050FM-12+000699999V0200901N003110120019N0020001N1+02831+02521101511ADDAY161061AY261061GF107991071051012501001001KA1240N+02571MA1999999101441MD1999999+0201MW1211REMSYN088AAXX  15124 83096 21695 70906 10283 20252 30144 40151 72166 87500 333 20257 58020 60024;
0148830960999992003031518004-10920-037050FM-12+000699999V0200901N003610450019N0020001N1+02911+02421101081ADDAA106000021GF106991041051012501031001MA1999999101011MD1999999-0021REMSYN070AAXX  15184 83096 32695 60907 10291 20242 30101 40108 84530 333 59002;
0198830960999992003031600004-10920-037050FM-12+000699999V0201801N002112200019N0020001N1+02771+02421101291ADDAA106000091GF101991011011012501001001KA1240M+03181MA1999999101221MD1999999+0041REMSYN088AAXX  16004 83096 32695 11804 10277 20242 30122 40129 81100 333 10318 29081 55004 58004;EQDQ01  00002PRCP06
0190830960999992003031612004-10920-037050FM-12+000699999V0201401N001510450019N0020001N1+02651+02291101421ADDAY161061AY261061GF106991031051012501031001KA1240N+02421MA1999999101351MD1999999-0091MW1211REMSYN088AAXX  16124 83096 21695 61403 10265 20229 30135 40142 72166 83530 333 20242 59009 60064;
0167830960999992003031618004-10920-037050FM-12+000699999V0201801N003112200019N0020001N1+02951+02331101131ADDAA106000021GF104991999031012501011011MA1999999101061MD1999999+0051REMSYN070AAXX  16184 83096 32695 41806 10295 20233 30106 40113 85311 333 58005;EQDQ01+000052SCOTLC
0198830960999992003031700004-10920-037050FM-12+000699999V0201801N003110450019N0020001N1+02671+02431101371ADDAA106000091GF106991021051012501031011KA1240M+03101MA1999999101301MD1999999+0081REMSYN088AAXX  17004 83096 32695 61806 10267 20243 30130 40137 82531 333 10310 29081 55090 58008;EQDQ01  00002PRCP06
0190830960999992003031712004-10920-037050FM-12+000699999V0203601N001512200019N0020001N1+02661+02351101341ADDAY161061AY261061GF104991041051012501001001KA1240N+02391MA1999999101271MD1999999-0081MW1211REMSYN088AAXX  17124 83096 21695 43603 10266 20235 30127 40134 72166 84500 333 20239 59008 60134;
0167830960999992003031718004-10920-037050FM-12+000699999V0200901N002119999999N0020001N1+02771+02251101031ADDAA106000021GF105991999051012501001001MA1999999100961MD1999999-0101REMSYN070AAXX  17184 83096 32695 50904 10277 20225 30096 40103 83500 333 59010;EQDQ01+000032SCOTLC
0198830960999992003031800004-10920-037050FM-12+000699999V0200901N002612200019N0020001N1+02691+02261101151ADDAA106000091GF106991041051012501001011KA1240M+02961MA1999999101081MD1999999-0221REMSYN088AAXX  18004 83096 32695 60905 10269 20226 30108 40115 84501 333 10296 29078 55046 59022;EQDQ01  00002PRCP06
0186830960999992003031812004-10920-037050FM-12+000699999V0200901N002112200019N0020001N1+02831+02401101311ADDAA106000091GF103991031011012501001001KA1240N+02391MA1999999101241MD1999999-0031REMSYN076AAXX  18124 83096 32695 30904 10283 20240 30124 40131 83100 333 20239 59003;EQDQ01  00002PRCP06
0167830960999992003031818004-10920-037050FM-12+000699999V0200901N003110120019N0020001N1+02881+02461101091ADDAA106000091GF108991081051012501001001MA1999999101021MD1999999+0061REMSYN070AAXX  18184 83096 32695 80906 10288 20246 30102 40109 88500 333 58006;EQDQ01  00002PRCP06
0221830960999992003032000004-10920-037050FM-12+000699999V0200901N000519999999N0020001N1+02551+02331101471ADDAY161061AY261061GF107991999051008001001001KA1240M+03031MA1999999101401MD1999999+0091MW1211REMSYN100AAXX  20004 83096 21595 70901 10255 20233 30140 40147 72166 83500 333 10303 29083 55094 58009 60021;EQDQ01+000032SCOTLC
0190830960999992003032012004-10920-037050FM-12+000699999V0200901N002610075019N0020001N1+02731+02281101491ADDAY161061AY261061GF106991061051008001001001KA1240N+02411MA1999999101421MD1999999-0061MW1211REMSYN088AAXX  20124 83096 21595 60905 10273 20228 30142 40149 72166 86500 333 20241 59006 60064;
0171830960999992003032018004-10920-037050FM-12+000699999V0200901N002112200019N0020001N1+02771+02281101291ADDAY161061AY261061GF103991031011012501001001MA1999999101221MD1999999-0091MW1201REMSYN082AAXX  20184 83096 21695 30904 10277 20228 30122 40129 72066 83100 333 59009 69921;
0179830960999992003032100004-10920-037050FM-12+000699999V0200901N002612200019N0020001N1+02751+02391101401ADDAA106000021GF105991031051012501001011KA1240M+02931MA1999999101331MD1999999-0071REMSYN088AAXX  21004 83096 32695 50905 10275 20239 30133 40140 83501 333 10293 29078 55039 59007;
0190830960999992003032112004-10920-037050FM-12+000699999V0200901N002112200019N0020001N1+02691+02281101411ADDAY161061AY261061GF103991031051012501001001KA1240N+02371MA1999999101341MD1999999-0081MW1211REMSYN088AAXX  21124 83096 21695 30904 10269 20228 30134 40141 72166 83500 333 20237 59008 60044;
0148830960999992003032118004-10920-037050FM-12+000699999V0200901N002610120019N0020001N1+02791+02361101031ADDAA106000021GF108991061051012501001011MA1999999100961MD1999999-0261REMSYN070AAXX  21184 83096 32695 80905 10279 20236 30096 40103 86501 333 59026;
0186830960999992003032812004-10920-037050FM-12+000699999V0201401N002112200019N0020001N1+02911+02321101451ADDAA106000091GF104991041011012501001001KA1240N+02531MA1999999101381MD1999999+0081REMSYN076AAXX  28124 83096 32695 41404 10291 20232 30138 40145 84100 333 20253 58008;EQDQ01  00002PRCP06
0167830960999992003032818004-10920-037050FM-12+000699999V0200901N002612200019N0020001N1+02911+02201101161ADDAA106000091GF104991041011012501001001MA1999999101091MD1999999+0011REMSYN070AAXX  28184 83096 32695 40905 10291 20220 30109 40116 84100 333 58001;EQDQ01  00002PRCP06
0198830960999992003032900004-10920-037050FM-12+000699999V0200901N002612200019N0020001N1+02731+02261101401ADDAA106000091GF102991021051012501001001KA1240M+03041MA1999999101331MD1999999+0021REMSYN088AAXX  29004 83096 32695 20905 10273 20226 30133 40140 82500 333 10304 29072 55053 58002;EQDQ01  00002PRCP06
0186830960999992003032912004-10920-037050FM-12+000699999V0201401N002112200019N0020001N1+02951+02191101411ADDAA106000091GF102991021011012501001001KA1240N+02301MA1999999101341MD1999999-0041REMSYN076AAXX  29124 83096 32695 21404 10295 20219 30134 40141 82100 333 20230 59004;EQDQ01  00002PRCP06
0167830960999992003032918004-10920-037050FM-12+000699999V0201401N002112200019N0020001N1+02981+02201101071ADDAA106000091GF101991011011012501001001MA1999999101001MD1999999-0091REMSYN070AAXX  29184 83096 32695 11404 10298 20220 30100 40107 81100 333 59009;EQDQ01  00002PRCP06
0198830960999992003033000004-10920-037050FM-12+000699999V0201401N002112200019N0020001N1+02771+02191101211ADDAA106000091GF102991021011012501001001KA1240M+03101MA1999999101141MD1999999-0191REMSYN088AAXX  30004 83096 32695 21404 10277 20219 30114 40121 82100 333 10310 29067 55108 59019;EQDQ01  00002PRCP06
0125830960999992003033012004-10920-037050FM-12+000699999V0202701N001519999999N0020001N1+02721+99999999999ADDGF105991999999008001999999REMSYN087AAXX  30124 83096 21595 52703 10272 0241 30119 40126 75066 85500 333 20249 59015 69924;
0167830960999992003033018004-10920-037050FM-12+000699999V0201801N003112200019N0020001N1+03091+02241101021ADDAA106000091GF103991031011012501001001MA1999999100951MD1999999-0051REMSYN070AAXX  30184 83096 32695 31806 10309 20224 30095 40102 83100 333 59005;EQDQ01  00002PRCP06
0198830960999992003033100004-10920-037050FM-12+000699999V0201401N002112200019N0020001N1+02771+02251101091ADDAA106000091GF102991021011012501001001KA1240M+03121MA1999999101021MD1999999-0121REMSYN088AAXX  31004 83096 32695 21404 10277 20225 30102 40109 82100 333 10312 29073 55058 59012;EQDQ01  00002PRCP06
0186830960999992003033112004-10920-037050FM-12+000699999V0201401N002112200019N0020001N1+02991+02281101241ADDAA106000091GF103991031011012501001001KA1240N+02531MA1999999101171MD1999999-0021REMSYN076AAXX  31124 83096 32695 31404 10299 20228 30117 40124 83100 333 20253 59002;EQDQ01  00002PRCP06
0167830960999992003033118004-10920-037050FM-12+000699999V0201401N002612200019N0020001N1+03011+02311101001ADDAA106000091GF101991011011012501001001MA1999999100931MD1999999-0021REMSYN070AAXX  31184 83096 32695 11405 10301 20231 30093 40100 81100 333 59002;EQDQ01  00002PRCP06
0198830960999992003040100004-10920-037050FM-12+000699999V0200901N002612200019N0020001N1+02811+02231101261ADDAA106000091GF102991021051012501001001KA1240M+03161MA1999999101191MD1999999+0171REMSYN088AAXX  01004 83096 32695 20905 10281 20223 30119 40126 82500 333 10316 29070 55106 58017;EQDQ01  00002PRCP06
0186830960999992003040112004-10920-037050FM-12+000699999V0200901N002112200019N0020001N1+02931+02361101391ADDAA106000091GF104991041051008001001001KA1240N+02451MA1999999101321MD1999999+0151REMSYN076AAXX  01124 83096 32595 40904 10293 20236 30132 40139 84500 333 20245 58015;EQDQ01  00002PRCP06
0167830960999992003040118004-10920-037050FM-12+000699999V0200901N002112200019N0020001N1+02981+02171101221ADDAA106000091GF104991041051012501001001MA1999999101151MD1999999+0221REMSYN070AAXX  01184 83096 32695 40904 10298 20217 30115 40122 84500 333 58022;EQDQ01  00002PRCP06
0198830960999992003040200004-10920-037050FM-12+000699999V0201401N001512200019N0020001N1+02811+02331101391ADDAA106000091GF104991041051012501001001KA1240M+03041MA1999999101321MD1999999+0131REMSYN088AAXX  02004 83096 32695 41403 10281 20233 30132 40139 84500 333 10304 29071 55028 58013;EQDQ01  00002PRCP06
0186830960999992003040212004-10920-037050FM-12+000699999V0200901N002112200019N0020001N1+02961+02351101471ADDAA106000091GF102991021051012501001001KA1240N+02371MA1999999101401MD1999999+0081REMSYN076AAXX  02124 83096 32695 20904 10296 20235 30140 40147 82500 333 20237 58008;EQDQ01  00002PRCP06
0167830960999992003040218004-10920-037050FM-12+000699999V0201401N001512200019N0020001N1+02991+02281101241ADDAA106000091GF102991011011012501001011MA1999999101171MD1999999+0021REMSYN070AAXX  02184 83096 32695 21403 10299 20228 30117 40124 81101 333 58002;EQDQ01  00002PRCP06
0198830960999992003040300004-10920-037050FM-12+000699999V0200901N002612200019N0020001N1+02791+02361101391ADDAA106000091GF102991021011012501001001KA1240M+03131MA1999999101321MD1999999+0001REMSYN088AAXX  03004 83096 32695 20905 10279 20236 30132 40139 82100 333 10313 29073 55096 58000;EQDQ01  00002PRCP06
0186830960999992003040312004-10920-037050FM-12+000699999V0200901N002112200019N0020001N1+03011+02291101381ADDAA106000091GF102991021011012501001001KA1240N+02491MA1999999101241MD1999999-0091REMSYN076AAXX  03124 83096 32695 20904 10301 20229 30124 40138 82100 333 20249 59009;EQDQ01  00002PRCP06
0167830960999992003040318004-10920-037050FM-12+000699999V0201401N001512200019N0020001N1+03031+02311101111ADDAA106000091GF102991021011012501001001MA1999999101041MD1999999-0131REMSYN070AAXX  03184 83096 32695 21403 10303 20231 30104 40111 82100 333 59013;EQDQ01  00002PRCP06
0198830960999992003040400004-10920-037050FM-12+000699999V0201401N001512200019N0020001N1+02811+02291101301ADDAA106000091GF103991031051012501001001KA1240M+03181MA1999999101231MD1999999-0091REMSYN088AAXX  04004 83096 32695 31403 10281 20229 30123 40130 83500 333 10318 29069 55108 59009;EQDQ01  00002PRCP06
0186830960999992003040412004-10920-037050FM-12+000699999V0200901N002112200019N0020001N1+03011+02191101231ADDAA106000091GF102991021011012501001001KA1240N+02331MA1999999101161MD1999999-0151REMSYN076AAXX  04124 83096 32695 20904 10301 20219 30116 40123 82100 333 20233 59015;EQDQ01  00002PRCP06
0167830960999992003040418004-10920-037050FM-12+000699999V0201401N002112200019N0020001N1+03011+02171101071ADDAA106000091GF102991021011012501001001MA1999999101001MD1999999-0041REMSYN070AAXX  04184 83096 32695 21404 10301 20217 30100 40107 82100 333 59004;EQDQ01  00002PRCP06
0198830960999992003040500004-10920-037050FM-12+000699999V0200901N002112200019N0020001N1+02821+02241101241ADDAA106000091GF103991031051012501001001KA1240M+03041MA1999999101171MD1999999-0061REMSYN088AAXX  05004 83096 32695 30904 10282 20224 30117 40124 83500 333 10304 29066 55107 59006;EQDQ01  00002PRCP06
0186830960999992003040512004-10920-037050FM-12+000699999V0200901N002112200019N0020001N1+02991+02231101341ADDAA106000091GF102991021011012501001001KA1240N+02381MA1999999101271MD1999999+0111REMSYN076AAXX  05124 83096 32695 20904 10299 20223 30127 40134 82100 333 20238 58011;EQDQ01  00002PRCP06
0167830960999992003040518004-10920-037050FM-12+000699999V0200901N002112200019N0020001N1+02991+02171101021ADDAA106000091GF101991011011012501001001MA1999999100951MD1999999-0051REMSYN070AAXX  05184 83096 32695 10904 10299 20217 30095 40102 81100 333 59005;EQDQ01  00002PRCP06
0198830960999992003040600004-10920-037050FM-12+000699999V0200901N002612200019N0020001N1+02771+02191101111ADDAA106000091GF101991011011012501001001KA1240M+03121MA1999999101041MD1999999-0131REMSYN088AAXX  06004 83096 32695 10905 10277 20219 30104 40111 81100 333 10312 29067 55109 59013;EQDQ01  00002PRCP06
0186830960999992003040612004-10920-037050FM-12+000699999V0200501N001512200019N0020001N1+02931+02171101191ADDAA106000091GF102991021011012501001001KA1240N+02371MA1999999101121MD1999999-0171REMSYN076AAXX  06124 83096 32695 20503 10293 20217 30112 40119 82100 333 20237 59017;EQDQ01  00002PRCP06
0167830960999992003040618004-10920-037050FM-12+000699999V0200901N002112200019N0020001N1+03011+02241100861ADDAA106000091GF101991011011012501001001MA1999999100791MD1999999-0161REMSYN070AAXX  06184 83096 32695 10904 10301 20224 30079 40086 81100 333 59016;EQDQ01  00002PRCP06
0198830960999992003040700004-10920-037050FM-12+000699999V0200901N003112200019N0020001N1+02791+02321100991ADDAA106000091GF101991011011012501001001KA1240M+03121MA1999999100921MD1999999-0121REMSYN088AAXX  07004 83096 32695 10906 10279 20232 30092 40099 81100 333 10312 29070 55109 59012;EQDQ01  00002PRCP06
0186830960999992003040712004-10920-037050FM-12+000699999V0200501N001512200019N0020001N1+02931+02291101131ADDAA106000091GF104991041051012501001001KA1240N+02471MA1999999101061MD1999999-0061REMSYN076AAXX  07124 83096 32695 40503 10293 20229 30106 40113 84500 333 20247 59006;EQDQ01  00002PRCP06
0167830960999992003040718004-10920-037050FM-12+000699999V0201401N002112200019N0020001N1+03051+02311100651ADDAA106000091GF101991011011012501001011MA1999999100581MD1999999-0211REMSYN070AAXX  07184 83096 32695 11404 10305 20231 30058 40065 81101 333 59021;EQDQ01  00002PRCP06
0198830960999992003040800004-10920-037050FM-12+000699999V0200901N004612200019N0020001N1+02791+02421100971ADDAA106000091GF101991011011012501001001KA1240M+03151MA1999999100901MD1999999-0021REMSYN088AAXX  08004 83096 32695 10909 10279 20242 30090 40097 81100 333 10315 29074 55102 59002;EQDQ01  00002PRCP06
0186830960999992003040812004-10920-037050FM-12+000699999V0200501N003112200019N0020001N1+03091+02191101131ADDAA106000091GF101991011011012501001001KA1240N+02531MA1999999101061MD1999999+0001REMSYN076AAXX  08124 83096 32695 10506 10309 20219 30106 40113 81100 333 20253 58000;EQDQ01  00002PRCP06
0167830960999992003040818004-10920-037050FM-12+000699999V0200901N005712200019N0020001N1+03001+02441100821ADDAA106000091GF102991011011012501001011MA1999999100751MD1999999+0171REMSYN070AAXX  08184 83096 32695 20911 10300 20244 30075 40082 81101 333 58017;EQDQ01  00002PRCP06
0198830960999992003040900004-10920-037050FM-12+000699999V0200901N005712200019N0020001N1+02841+02401101161ADDAA106000091GF102991021051012501001001KA1240M+03291MA1999999101091MD1999999+0191REMSYN088AAXX  09004 83096 32695 20911 10284 20240 30109 40116 82500 333 10329 29071 55101 58019;EQDQ01  00002PRCP06
0186830960999992003040912004-10920-037050FM-12+000699999V0200901N002612200019N0020001N1+02991+02151101341ADDAA106000091GF102991021011012501001001KA1240N+02441MA1999999101271MD1999999+0211REMSYN076AAXX  09124 83096 32695 20905 10299 20215 30127 40134 82100 333 20244 58021;EQDQ01  00002PRCP06
0167830960999992003040918004-10920-037050FM-12+000699999V0200901N004112200019N0020001N1+03031+02261101031ADDAA106000091GF101991011011012501001001MA1999999100961MD1999999+0211REMSYN070AAXX  09184 83096 32695 10908 10303 20226 30096 40103 81100 333 58021;EQDQ01  00002PRCP06
0198830960999992003041000004-10920-037050FM-12+000699999V0200901N004112200019N0020001N1+02831+02421101351ADDAA106000091GF102991021051012501001001KA1240M+03151MA1999999101281MD1999999+0191REMSYN088AAXX  10004 83096 32695 20908 10283 20242 30128 40135 82500 333 10315 29070 55106 58019;EQDQ01  00002PRCP06
0186830960999992003041012004-10920-037050FM-12+000699999V0200501N002112200019N0020001N1+02831+02291101491ADDAA106000091GF102991011011012501001011KA1240N+02421MA1999999101421MD1999999+0151REMSYN076AAXX  10124 83096 32695 20504 10283 20229 30142 40149 81101 333 20242 58015;EQDQ01  00002PRCP06
0167830960999992003041018004-10920-037050FM-12+000699999V0200901N004112200019N0020001N1+02931+02171101111ADDAA106000091GF101991011011012501001001MA1999999101041MD1999999+0081REMSYN070AAXX  10184 83096 32695 10908 10293 20217 30104 40111 81100 333 58008;EQDQ01  00002PRCP06
0198830960999992003041100004-10920-037050FM-12+000699999V0200901N003612200019N0020001N1+02751+02361101341ADDAA106000091GF102991021011012501001001KA1240M+03151MA1999999101271MD1999999-0011REMSYN088AAXX  11004 83096 32695 20907 10275 20236 30127 40134 82100 333 10315 29074 55102 59001;EQDQ01  00002PRCP06
0186830960999992003041112004-10920-037050FM-12+000699999V0200901N002612200019N0020001N1+02971+02261101441ADDAA106000091GF102991021011012501001001KA1240N+02431MA1999999101371MD1999999-0051REMSYN076AAXX  11124 83096 32695 20905 10297 20226 30137 40144 82100 333 20243 59005;EQDQ01  00002PRCP06
0167830960999992003041118004-10920-037050FM-12+000699999V0200901N004612200019N0020001N1+02971+02331101101ADDAA106000091GF102991021011012501001001MA1999999101031MD1999999-0011REMSYN070AAXX  11184 83096 32695 20909 10297 20233 30103 40110 82100 333 59001;EQDQ01  00002PRCP06
0198830960999992003041200004-10920-037050FM-12+000699999V0200901N003112200019N0020001N1+02801+02311101341ADDAA106000091GF101991011011012501001001KA1240M+03161MA1999999101271MD1999999+0001REMSYN088AAXX  12004 83096 32695 10906 10280 20231 30127 40134 81100 333 10316 29071 55101 58000;EQDQ01  00002PRCP06
0186830960999992003041212004-10920-037050FM-12+000699999V0200901N004112200019N0020001N1+03021+02311101481ADDAA106000091GF101991011011012501001001KA1240N+02411MA1999999101411MD1999999+0041REMSYN076AAXX  12124 83096 32695 10908 10302 20231 30141 40148 81100 333 20241 58004;EQDQ01  00002PRCP06
0167830960999992003041218004-10920-037050FM-12+000699999V0200901N005112200019N0020001N1+03031+02281101231ADDAA106000091GF101991011011012501001001MA1999999101161MD1999999+0131REMSYN070AAXX  12184 83096 32695 10910 10303 20228 30116 40123 81100 333 58013;EQDQ01  00002PRCP06
0198830960999992003041300004-10920-037050FM-12+000699999V0200901N003112200019N0020001N1+02811+02331101511ADDAA106000091GF102991021051012501001001KA1240M+03141MA1999999101441MD1999999+0171REMSYN088AAXX  13004 83096 32695 20906 10281 20233 30144 40151 82500 333 10314 29070 55104 58017;EQDQ01  00002PRCP06
0186830960999992003041312004-10920-037050FM-12+000699999V0200901N004112200019N0020001N1+03041+02261101611ADDAA106000091GF103991031011012501001001KA1240N+02471MA1999999101541MD1999999+0131REMSYN076AAXX  13124 83096 32695 30908 10304 20226 30154 40161 83100 333 20247 58013;EQDQ01  00002PRCP06
0167830960999992003041318004-10920-037050FM-12+000699999V0200901N004112200019N0020001N1+03011+02261101341ADDAA106000091GF101991011011012501001001MA1999999101271MD1999999+0011REMSYN070AAXX  13184 83096 32695 10908 10301 20226 30127 40134 81100 333 58001;EQDQ01  00002PRCP06
0198830960999992003041400004-10920-037050FM-12+000699999V0200901N003112200019N0020001N1+02821+02311101601ADDAA106000091GF101991011051012501001001KA1240M+03181MA1999999101531MD1999999+0091REMSYN088AAXX  14004 83096 32695 10906 10282 20231 30153 40160 81500 333 10318 29069 55107 58009;EQDQ01  00002PRCP06
0190830960999992003041412004-10920-037050FM-12+000699999V0200901N002612200019N0020001N1+02981+02331101641ADDAY161061AY261061GF103991031011012501001001KA1240N+02391MA1999999101571MD1999999+0031MW1201REMSYN088AAXX  14124 83096 21695 30905 10298 20233 30157 40164 72066 83100 333 20239 58003 69924;
0190830960999992003041512004-10920-037050FM-12+000699999V0200501N001012200019N0020001N1+02801+02401101601ADDAY161061AY261061GF104991041051012501001001KA1240N+02421MA1999999101531MD1999999-0041MW1201REMSYN088AAXX  15124 83096 21695 40502 10280 20240 30153 40160 72066 84500 333 20242 59004 60164;
0148830960999992003041518004-10920-037050FM-12+000699999V0200901N003612200019N0020001N1+02951+02261101141ADDAA106000021GF101991011011012501001001MA1999999101071MD1999999-0221REMSYN070AAXX  15184 83096 32695 10907 10295 20226 30107 40114 81100 333 59022;
0198830960999992003041600004-10920-037050FM-12+000699999V0201401N001512200019N0020001N1+02711+02281101371ADDAA106000091GF101991011011012501001001KA1240M+03091MA1999999101301MD1999999-0131REMSYN088AAXX  16004 83096 32695 11403 10271 20228 30130 40137 81100 333 10309 29076 55089 59013;EQDQ01  00002PRCP06
0186830960999992003041612004-10920-037050FM-12+000699999V0200901N001512200019N0020001N1+02941+02261101431ADDAA106000091GF102991021011012501001001KA1240N+02301MA1999999101361MD1999999-0171REMSYN076AAXX  16124 83096 32695 20903 10294 20226 30136 40143 82100 333 20230 59017;EQDQ01  00002PRCP06
0167830960999992003041618004-10920-037050FM-12+000699999V0201401N003112200019N0020001N1+02991+02171101071ADDAA106000091GF101991011011012501001001MA1999999101001MD1999999-0071REMSYN070AAXX  16184 83096 32695 11406 10299 20217 30100 40107 81100 333 59007;EQDQ01  00002PRCP06
0198830960999992003041700004-10920-037050FM-12+000699999V0201401N002612200019N0020001N1+02791+02231101351ADDAA106000091GF101991011051012501001001KA1240M+03101MA1999999101281MD1999999-0021REMSYN088AAXX  17004 83096 32695 11405 10279 20223 30128 40135 81500 333 10310 29068 55107 59002;EQDQ01  00002PRCP06
0184830960999992003041712004-10920-037050FM-12+000699999V0201801N001512200019N0020001N1+02911+02251101471ADDAA106000091GF102991021011012501001001KA1240N+02371MA1999999101401REMSYN088AAXX  17124 83096 32695 21803 10291 20225 30140 40147 82100 333 20237 29068 55107 59004;EQDQ01  00002PRCP06
0167830960999992003041718004-10920-037050FM-12+000699999V0201401N002112200019N0020001N1+03011+02191101161ADDAA106000091GF103991031011012501001001MA1999999101091MD1999999+0091REMSYN070AAXX  17184 83096 32695 31404 10301 20219 30109 40116 83100 333 58009;EQDQ01  00002PRCP06
0198830960999992003041800004-10920-037050FM-12+000699999V0201401N002610120019N0020001N1+02841+02241101401ADDAA106000091GF106991061051012501001001KA1240M+03121MA1999999101331MD1999999+0051REMSYN088AAXX  18004 83096 32695 61405 10284 20224 30133 40140 86500 333 10312 29068 55105 58005;EQDQ01  00002PRCP06
0184830960999992003041812004-10920-037050FM-12+000699999V0200901N002112200019N0020001N1+02951+02161101481ADDAA106000091GF103991021051012501001011KA1240N+02371MA1999999101411REMSYN088AAXX  18124 83096 32695 30904 10295 20216 30141 40148 82501 333 20237 29068 55107 58001;EQDQ01  00002PRCP06
0167830960999992003041818004-10920-037050FM-12+000699999V0201801N002110450019N0020001N1+02911+02271101211ADDAA106000091GF106991021051012501031011MA1999999101141MD1999999+0051REMSYN070AAXX  18184 83096 32695 61804 10291 20227 30114 40121 82531 333 58005;EQDQ01  00002PRCP06
0198830960999992003041900004-10920-037050FM-12+000699999V0201801N002110450019N0020001N1+02771+02281101381ADDAA106000091GF105991031051012501031001KA1240M+03131MA1999999101311MD1999999-0021REMSYN088AAXX  19004 83096 32695 51804 10277 20228 30131 40138 83530 333 10313 29070 55087 59002;EQDQ01  00002PRCP06
0186830960999992003041912004-10920-037050FM-12+000699999V0201801N002112200019N0020001N1+02871+02351101561ADDAA106000091GF104991041051012501001001KA1240N+02691MA1999999101491MD1999999+0081REMSYN076AAXX  19124 83096 32695 41804 10287 20235 30149 40156 84500 333 20269 58008;EQDQ01  00002PRCP06
0171830960999992003041918004-10920-037050FM-12+000699999V0201401N003112200019N0020001N1+02951+02241101231ADDAY161061AY261061GF102991021051012501001001MA1999999101161MD1999999+0021MW1201REMSYN082AAXX  19184 83096 21695 21406 10295 20224 30116 40123 72066 82500 333 58002 69921;
0179830960999992003042000004-10920-037050FM-12+000699999V0201401N001512200019N0020001N1+02751+02121101461ADDAA106000021GF101991011011012501001001KA1240M+03151MA1999999101391MD1999999+0081REMSYN088AAXX  20004 83096 32695 11403 10275 20212 30139 40146 81100 333 10315 29070 55105 58008;
0190830960999992003042012004-10920-037050FM-12+000699999V0203601N000510450019N0020001N1+02631+02521101461ADDAY161061AY261061GF106991041051012501031001KA1240N+02411MA1999999101391MD1999999-0101MW1201REMSYN088AAXX  20124 83096 21695 63601 10263 20252 30139 40146 72066 84530 333 20241 59010 60064;
0148830960999992003042018004-10920-037050FM-12+000699999V0201801N002612200019N0020001N1+02871+02231101161ADDAA106000021GF103991031051012501001001MA1999999101091MD1999999+0071REMSYN070AAXX  20184 83096 32695 31805 10287 20223 30109 40116 83500 333 58007;
0198830960999992003042100004-10920-037050FM-12+000699999V0200901N003612200019N0020001N1+02751+02381101311ADDAA106000091GF103991031051012501001001KA1240M+03121MA1999999101241MD1999999-0151REMSYN088AAXX  21004 83096 32695 30907 10275 20238 30124 40131 83500 333 10312 29081 55084 59015;EQDQ01  00002PRCP06
0186830960999992003042112004-10920-037050FM-12+000699999V0201401N003110450019N0020001N1+03011+02311101481ADDAA106000091GF105991031051012501011001KA1240N+02591MA1999999101411MD1999999+0021REMSYN076AAXX  21124 83096 32695 51406 10301 20231 30141 40148 83510 333 20259 58002;EQDQ01  00002PRCP06
0167830960999992003042118004-10920-037050FM-12+000699999V0201401N002612200019N0020001N1+03011+02191101241ADDAA106000091GF102991021011012501001001MA1999999101171MD1999999+0081REMSYN070AAXX  21184 83096 32695 21405 10301 20219 30117 40124 82100 333 58008;EQDQ01  00002PRCP06
0198830960999992003042200004-10920-037050FM-12+000699999V0201401N002612200019N0020001N1+02811+02221101391ADDAA106000091GF103991031051012501001001KA1240M+03151MA1999999101321MD1999999+0081REMSYN088AAXX  22004 83096 32695 31405 10281 20222 30132 40139 83500 333 10315 29062 55105 58008;EQDQ01  00002PRCP06
0186830960999992003042212004-10920-037050FM-12+000699999V0201401N002612200019N0020001N1+03031+02181101381ADDAA106000091GF104991041011012501001001KA1240N+02491MA1999999101311MD1999999-0101REMSYN076AAXX  22124 83096 32695 41405 10303 20218 30131 40138 84100 333 20249 59010;EQDQ01  00002PRCP06
0167830960999992003042218004-10920-037050FM-12+000699999V0200901N003112200019N0020001N1+03011+02271101201ADDAA106000091GF102991021011012501001001MA1999999101131MD1999999-0041REMSYN070AAXX  22184 83096 32695 20906 10301 20227 30113 40120 82100 333 59004;EQDQ01  00002PRCP06
0202830960999992003042300004-10920-037050FM-12+000699999V0200901N000510120019N0020001N1+02571+02351101451ADDAY161061AY261061GF108991081051012501001001KA1240M+03141MA1999999101381MD1999999+0061MW1201REMSYN100AAXX  23004 83096 21695 80901 10257 20235 30138 40145 72066 88500 333 10314 29073 55093 58006 60021;
0167830960999992003042318004-10920-037050FM-12+000699999V0201401N001512200019N0020001N1+02831+02291101211ADDAA106000091GF101991011011012501001001MA1999999101141MD1999999+0011REMSYN070AAXX  23184 83096 32695 11403 10283 20229 30114 40121 81100 333 58001;EQDQ01  00002PRCP06
0202830960999992003042400004-10920-037050FM-12+000699999V0201401N001510120019N0020001N1+02501+02271101411ADDAY161061AY261061GF106991061051012501001001KA1240M+02971MA1999999101341MD1999999-0041MW1201REMSYN100AAXX  24004 83096 21695 61403 10250 20227 30134 40141 72066 86500 333 10297 29082 55039 59004 69941;
0190830960999992003042412004-10920-037050FM-12+000699999V0200901N001512200019N0020001N1+02791+02211101481ADDAY161061AY261061GF103991031051012501001001KA1240N+02281MA1999999101411MD1999999+0031MW1211REMSYN088AAXX  24124 83096 21695 30903 10279 20221 30141 40148 72166 83500 333 20228 58003 60064;
0167830960999992003042418004-10920-037050FM-12+000699999V0201401N001512200019N0020001N1+02911+02241101201ADDAA106000021GF101991999011012501001011MA1999999101131MD1999999-0011REMSYN070AAXX  24184 83096 32695 11403 10291 20224 30113 40120 82101 333 59001;EQDQ01+000022SCOTLC
0198830960999992003042500004-10920-037050FM-12+000699999V0201801N002612200019N0020001N1+02671+02311101401ADDAA106000091GF103991031051012501001001KA1240M+02981MA1999999101331MD1999999-0011REMSYN088AAXX  25004 83096 32695 31805 10267 20231 30133 40140 83500 333 10298 29074 55094 59001;EQDQ01  00002PRCP06
0186830960999992003042512004-10920-037050FM-12+000699999V0201401N001512200019N0020001N1+02951+02211101461ADDAA106000091GF102991021011012501001001KA1240N+02411MA1999999101391MD1999999-0021REMSYN076AAXX  25124 83096 32695 21403 10295 20221 30139 40146 82100 333 20241 59002;EQDQ01  00002PRCP06
0167830960999992003042518004-10920-037050FM-12+000699999V0201401N001512200019N0020001N1+02971+02151101221ADDAA106000091GF102991021011012501001001MA1999999101151MD1999999-0021REMSYN070AAXX  25184 83096 32695 21403 10297 20215 30115 40122 82100 333 59002;EQDQ01  00002PRCP06
0202830960999992003042600004-10920-037050FM-12+000699999V0200901N001512200019N0020001N1+02741+02241101501ADDAY161061AY261061GF102991021051012501001001KA1240M+03101MA1999999101441MD1999999+0101MW1201REMSYN100AAXX  26004 83096 21695 20903 10274 20224 30144 40150 72066 82500 333 10310 29069 55102 58010 69961;
0162830960999992003042612004-10920-037050FM-12+000699999V0202701N001510120019N0020001N1+02751+02381101571ADDGF105991051051012501001001KA1240N+02391MA1999999101501MD1999999+0111REMSYN082AAXX  26124 83096 22695 52703 10275 20238 30150 40157 85500 333 20239 58011 69964;
0171830960999992003042618004-10920-037050FM-12+000699999V0201401N002112200019N0020001N1+02891+02211101241ADDAY161061AY261061GF103991031051012501001001MA1999999101271MD1999999+0121MW1201REMSYN082AAXX  26184 83096 21695 31404 10289 20221 30127 40124 72066 83500 333 58012 60011;
0202830960999992003042700004-10920-037050FM-12+000699999V0201801N001512200019N0020001N1+02691+02281101491ADDAY161061AY261061GF102991021051012501001001KA1240M+03011MA1999999101421MD1999999-0011MW1201REMSYN100AAXX  27004 83096 21695 21803 10269 20228 30142 40149 72066 82500 333 10301 29076 55074 59001 60011;
0190830960999992003042712004-10920-037050FM-12+000699999V0200901N002612200019N0020001N1+02671+02371101531ADDAY161061AY261061GF104991041051012501001001KA1240N+02451MA1999999101461MD1999999-0041MW1211REMSYN088AAXX  27124 83096 21695 40905 10267 20237 30146 40153 72166 84500 333 20245 59004 60064;
0171830960999992003042718004-10920-037050FM-12+000699999V0200901N001512200019N0020001N1+02751+02341101271ADDAY161061AY261061GF103991031011012501001001MA1999999101201MD1999999-0071MW1201REMSYN082AAXX  27184 83096 21695 30903 10275 20234 30120 40127 72066 83100 333 59007 60011;
0179830960999992003042800004-10920-037050FM-12+000699999V0200901N001512200019N0020001N1+02751+02211101371ADDAA106000021GF102991021011012501001001KA1240M+02851MA1999999101301MD1999999-0121REMSYN088AAXX  28004 83096 32695 20903 10275 20221 30130 40137 82100 333 10285 29077 55046 59012;
0190830960999992003042812004-10920-037050FM-12+000699999V0203201N000512200019N0020001N1+02711+02411101521ADDAY161061AY261061GF106991021051012501001011KA1240N+02391MA1999999101451MD1999999-0011MW1211REMSYN088AAXX  28124 83096 21695 63201 10271 20241 30145 40152 72166 82501 333 20239 59001 60044;
0148830960999992003042818004-10920-037050FM-12+000699999V0201401N003112200019N0020001N1+02891+02211101171ADDAA106000021GF103991011051012501001011MA1999999101101MD1999999-0101REMSYN070AAXX  28184 83096 32695 31406 10289 20221 30110 40117 81501 333 59010;
0198830960999992003042900004-10920-037050FM-12+000699999V0201401N001512200019N0020001N1+02691+02281101391ADDAA106000091GF102991021051012501001001KA1240M+03051MA1999999101321MD1999999+0021REMSYN088AAXX  29004 83096 32695 21403 10269 20228 30132 40139 82500 333 10305 29077 55091 58002;EQDQ01  00002PRCP06
0186830960999992003042912004-10920-037050FM-12+000699999V0200901N001512200019N0020001N1+02831+02291101511ADDAA106000091GF103991031011012501001001KA1240N+02391MA1999999101441MD1999999-0011REMSYN076AAXX  29124 83096 32695 30903 10283 20229 30144 40151 83100 333 20239 59001;EQDQ01  00002PRCP06
0167830960999992003042918004-10920-037050FM-12+000699999V0200901N003112200019N0020001N1+02931+02311101261ADDAA106000091GF103991021011012501001011MA1999999101191MD1999999-0091REMSYN070AAXX  29184 83096 32695 30906 10293 20231 30119 40126 82101 333 59009;EQDQ01  00002PRCP06
0202830960999992003043000004-10920-037050FM-12+000699999V0200901N003110120019N0020001N1+02711+02321101501ADDAY161061AY261061GF106991061051012501001001KA1240M+03061MA1999999101431MD1999999+0111MW1201REMSYN100AAXX  30004 83096 21695 60906 10271 20232 30143 40150 72066 86500 333 10306 29075 55107 58011 69921;
0190830960999992003043012004-10920-037050FM-12+000699999V0200901N001512200019N0020001N1+02951+02191101571ADDAY161061AY261061GF102991021011012501001001KA1240N+02431MA1999999101501MD1999999+0061MW1201REMSYN088AAXX  30124 83096 21695 20903 10295 20219 30150 40157 72066 82100 333 20243 58006 69944;
0148830960999992003043018004-10920-037050FM-12+000699999V0200901N002112200019N0020001N1+02891+02251101321ADDAA106000021GF102991021011012501001001MA1999999101251MD1999999+0061REMSYN070AAXX  30184 83096 32695 20904 10289 20225 30125 40132 82100 333 58006;
0202830960999992003050100004-10920-037050FM-12+000699999V0201401N001510120019N0020001N1+02551+02351101611ADDAY161061AY261061GF105991051051012501001001KA1240M+03061MA1999999101541MD1999999+0111MW1211REMSYN100AAXX  01004 83096 21695 51403 10255 20235 30154 40161 72166 85500 333 10306 29077 55090 58011 60041;
0190830960999992003050112004-10920-037050FM-12+000699999V0201401N002110450019N0020001N1+02791+02361101611ADDAY161061AY261061GF106991041051012501031001KA1240N+02421MA1999999101541MD1999999+0291MW1211REMSYN088AAXX  01124 83096 21695 61404 10279 20236 30154 40161 72166 84530 333 20242 58029 60054;
0148830960999992003050118004-10920-037050FM-12+000699999V0201801N002112200019N0020001N1+02901+02341101241ADDAA106000021GF101991011051012501001001MA1999999101171MD1999999-0081REMSYN070AAXX  01184 83096 32695 11804 10290 20234 30117 40124 81500 333 59008;
0198830960999992003050200004-10920-037050FM-12+000699999V0201401N003112200019N0020001N1+02731+02281101471ADDAA106000091GF101991011011012501001001KA1240M+03071MA1999999101401MD1999999-0141REMSYN088AAXX  02004 83096 32695 11406 10273 20228 30140 40147 81100 333 10307 29076 55082 59014;EQDQ01  00002PRCP06
0186830960999992003050212004-10920-037050FM-12+000699999V0200901N001512200019N0020001N1+02891+02301101371ADDAA106000091GF102991021011012501001001KA1240N+02391MA1999999101301MD1999999-0241REMSYN076AAXX  02124 83096 32695 20903 10289 20230 30130 40137 82100 333 20239 59024;EQDQ01  00002PRCP06
0167830960999992003050218004-10920-037050FM-12+000699999V0200901N003112200019N0020001N1+02951+02351101001ADDAA106000091GF101991011011012501001001MA1999999100931MD1999999-0201REMSYN070AAXX  02184 83096 32695 10906 10295 20235 30093 40100 81100 333 59020;EQDQ01  00002PRCP06
0198830960999992003050300004-10920-037050FM-12+000699999V0200901N003112200019N0020001N1+02751+02401101121ADDAA106000091GF102991021051012501001001KA1240M+03071MA1999999101051MD1999999-0351REMSYN088AAXX  03004 83096 32695 20906 10275 20240 30105 40112 82500 333 10307 29076 55104 59035;EQDQ01  00002PRCP06
0186830960999992003050312004-10920-037050FM-12+000699999V0200501N003110450019N0020001N1+02951+02261101271ADDAA106000091GF105991021011012501031001KA1240N+02541MA1999999101201MD1999999-0101REMSYN076AAXX  03124 83096 32695 50506 10295 20226 30120 40127 82130 333 20254 59010;EQDQ01  00002PRCP06
0167830960999992003050318004-10920-037050FM-12+000699999V0200901N005112200019N0020001N1+03001+02321100851ADDAA106000091GF101991011011012501001001MA1999999100781MD1999999-0151REMSYN070AAXX  03184 83096 32695 10910 10300 20232 30078 40085 81100 333 59015;EQDQ01  00002PRCP06
0198830960999992003050400004-10920-037050FM-12+000699999V0200901N004112200019N0020001N1+02831+02521101101ADDAA106000091GF101991011051012501001001KA1240M+03151MA1999999101031MD1999999-0021REMSYN088AAXX  04004 83096 32695 10908 10283 20252 30103 40110 81500 333 10315 29075 55105 59002;EQDQ01  00002PRCP06
0186830960999992003050412004-10920-037050FM-12+000699999V0202301N001510120019N0020001N1+02711+02241101441ADDAA106000091GF108991081051012501001001KA1240N+02491MA1999999101371MD1999999+0171REMSYN076AAXX  04124 83096 32695 82303 10271 20224 30137 40144 88500 333 20249 58017;EQDQ01  00002PRCP06
0167830960999992003050418004-10920-037050FM-12+000699999V0201401N002110120019N0020001N1+02651+02331101351ADDAA106000091GF108991081051012501001001MA1999999101281MD1999999+0501REMSYN070AAXX  04184 83096 32695 81404 10265 20233 30128 40135 88500 333 58050;EQDQ01  00002PRCP06
0198830960999992003050500004-10920-037050FM-12+000699999V0201401N001512200019N0020001N1+02591+02251101531ADDAA106000091GF103991031051012501001001KA1240M+02931MA1999999101461MD1999999+0431REMSYN088AAXX  05004 83096 32695 31403 10259 20225 30146 40153 83500 333 10293 29080 55004 58043;EQDQ01  00002PRCP06
0190830960999992003050512004-10920-037050FM-12+000699999V0202301N001510075019N0010001N1+02571+02331101501ADDAY161061AY261061GF108991081051008001999999KA1240N+02391MA1999999101431MD1999999+0061MW1611REMSYN088AAXX  05124 83096 21594 82303 10257 20233 30143 40150 76166 885// 333 20239 58006 60134;
0171830960999992003050518004-10920-037050FM-12+000699999V0200901N001510075019N0010001N1+02531+02251101381ADDAY161061AY261061GF108991081051008001999999MA1999999101311MD1999999+0031MW1601REMSYN082AAXX  05184 83096 21594 80903 10253 20225 30131 40138 76066 885// 333 58003 60041;
0202830960999992003050600004-10920-037050FM-12+000699999V0201801N002110120019N0020001N1+02551+02401101421ADDAY161061AY261061GF108991081051012501001001KA1240M+02731MA1999999101351MD1999999-0111MW1201REMSYN100AAXX  06004 83096 21695 81804 10255 20240 30135 40142 72066 88500 333 10273 29088 55000 59011 69961;
0190830960999992003050612004-10920-037050FM-12+000699999V0203201N001010075019N0020001N1+02551+02401101421ADDAY161061AY261061GF107991061051008001031001KA1240N+02351MA1999999101351MD1999999-0081MW1211REMSYN088AAXX  06124 83096 21595 73202 10255 20240 30135 40142 72166 86530 333 20235 59008 60444;
0148830960999992003050618004-10920-037050FM-12+000699999V0201401N001512200019N0020001N1+02771+02341101161ADDAA106000021GF104991021051012501031001MA1999999101091MD1999999-0221REMSYN070AAXX  06184 83096 32695 41403 10277 20234 30109 40116 82530 333 59022;
0198830960999992003050700004-10920-037050FM-12+000699999V0201801N001512200019N0020001N1+02611+02331101211ADDAA106000091GF101991011011012501001001KA1240M+02981MA1999999101141MD1999999-0211REMSYN088AAXX  07004 83096 32695 11803 10261 20233 30114 40121 81100 333 10298 29085 55051 59021;EQDQ01  00002PRCP06
0190830960999992003050712004-10920-037050FM-12+000699999V0200901N001510075019N0020001N1+02551+02401101401ADDAY161061AY261061GF106991061051008001001001KA1240N+02371MA1999999101331MD1999999-0021MW1601REMSYN088AAXX  07124 83096 21595 60903 10255 20240 30133 40140 76066 86500 333 20237 59002 60034;
0148830960999992003050718004-10920-037050FM-12+000699999V0200901N002112200019N0020001N1+02891+02391101191ADDAA106000021GF102991021011012501001001MA1999999101121MD1999999+0031REMSYN070AAXX  07184 83096 32695 20904 10289 20239 30112 40119 82100 333 58003;
0198830960999992003050800004-10920-037050FM-12+000699999V0200901N002612200019N0020001N1+02711+02461101331ADDAA106000091GF102991021051012501001001KA1240M+02971MA1999999101261MD1999999+0121REMSYN088AAXX  08004 83096 32695 20905 10271 20246 30126 40133 82500 333 10297 29082 55080 58012;EQDQ01  00002PRCP06
0186830960999992003050812004-10920-037050FM-12+000699999V0200901N001512200019N0020001N1+02771+02341101431ADDAA106000091GF102991021011012501001001KA1240N+02301MA1999999101361MD1999999+0031REMSYN076AAXX  08124 83096 32695 20903 10277 20234 30136 40143 82100 333 20230 58003;EQDQ01  00002PRCP06
0167830960999992003050818004-10920-037050FM-12+000699999V0200901N002112200019N0020001N1+02911+02371101241ADDAA106000091GF102991021011012501001001MA1999999101171MD1999999+0051REMSYN070AAXX  08184 83096 32695 20904 10291 20237 30117 40124 82100 333 58005;EQDQ01  00002PRCP06
0198830960999992003050900004-10920-037050FM-12+000699999V0200901N003112200019N0020001N1+02751+02361101391ADDAA106000091GF102991021051012501001001KA1240M+03041MA1999999101321MD1999999+0061REMSYN088AAXX  09004 83096 32695 20906 10275 20236 30132 40139 82500 333 10304 29077 55105 58006;EQDQ01  00002PRCP06
0186830960999992003050912004-10920-037050FM-12+000699999V0200501N002112200019N0020001N1+02891+02301101701ADDAA106000091GF102991021051012501001001KA1240N+02341MA1999999101631MD1999999+0271REMSYN076AAXX  09124 83096 32695 20504 10289 20230 30163 40170 82500 333 20234 58027;EQDQ01  00002PRCP06
0167830960999992003050918004-10920-037050FM-12+000699999V0201401N001510450019N0020001N1+02891+02281101201ADDAA106000091GF105991031051012501031001MA1999999101131MD1999999-0041REMSYN070AAXX  09184 83096 32695 51403 10289 20228 30113 40120 83530 333 59004;EQDQ01  00002PRCP06
0198830960999992003051000004-10920-037050FM-12+000699999V0201801N001010450019N0020001N1+02711+02221101471ADDAA106000091GF105991031051012501031001KA1240M+03031MA1999999101401MD1999999+0081REMSYN088AAXX  10004 83096 32695 51802 10271 20222 30140 40147 83530 333 10303 29073 55104 58008;EQDQ01  00002PRCP06
0167830960999992003051018004-10920-037050FM-12+000699999V0201801N001510450019N0020001N1+02831+02291101331ADDAA106000091GF106991031051012501031001MA1999999101261MD1999999+0131REMSYN070AAXX  10184 83096 32695 61803 10283 20229 30126 40133 83530 333 58013;EQDQ01  00002PRCP06
0198830960999992003051100004-10920-037050FM-12+000699999V0201801N000510450019N0020001N1+02681+02241101661ADDAA106000091GF106991041051012501031001KA1240M+03021MA1999999101591MD1999999+0191REMSYN088AAXX  11004 83096 32695 61801 10268 20224 30159 40166 84530 333 10302 29076 55072 58019;EQDQ01  00002PRCP06
0190830960999992003051112004-10920-037050FM-12+000699999V0202701N003110450019N0020001N1+02631+02291101691ADDAY161061AY261061GF105991031051012501031001KA1240N+02291MA1999999101621MD1999999+0081MW1211REMSYN088AAXX  11124 83096 21695 52706 10263 20229 30162 40169 72166 83530 333 20229 58008 60184;
0171830960999992003051118004-10920-037050FM-12+000699999V0202201N003110075019N0020001N1+02511+02251101571ADDAY161061AY261061GF107991071051008001001001MA1999999101501MD1999999+0241MW1211REMSYN082AAXX  11184 83096 21595 72206 10251 20225 30150 40157 72166 87500 333 58024 60201;
0221830960999992003051200004-10920-037050FM-12+000699999V0201801N001510075019N0020001N1+02471+02301101701ADDAY161061AY261061GF107991999051008001001001KA1240M+02951MA1999999101631MD1999999+0041MW1211REMSYN100AAXX  12004 83096 21595 71803 10247 20230 30163 40170 72166 86500 333 10295 29088 55024 58004 60061;EQDQ01+000062SCOTLC
0190830960999992003051212004-10920-037050FM-12+000699999V0201801N002110120019N0020001N1+02591+02331101701ADDAY161061AY261061GF105991051051012501001001KA1240N+02331MA1999999101631MD1999999+0011MW1211REMSYN088AAXX  12124 83096 21695 51804 10259 20233 30163 40170 72166 85500 333 20233 58001 60624;
0171830960999992003051218004-10920-037050FM-12+000699999V0201801N002612200019N0020001N1+02791+02381101431ADDAY161061AY261061GF103991011011012501001011MA1999999101361MD1999999-0141MW1211REMSYN082AAXX  12184 83096 21695 31805 10279 20238 30136 40143 72166 81101 333 59014 60051;
0179830960999992003051300004-10920-037050FM-12+000699999V0201801N001012200019N0020001N1+02641+02311101641ADDAA106000021GF103991021051012501001011KA1240M+02991MA1999999101571MD1999999-0061REMSYN088AAXX  13004 83096 32695 31802 10264 20231 30157 40164 82501 333 10299 29082 55030 59006;
0190830960999992003051312004-10920-037050FM-12+000699999V0200901N002110120019N0020001N1+02591+02331101601ADDAY161061AY261061GF106991061051012501001001KA1240N+02301MA1999999101531MD1999999-0101MW1211REMSYN088AAXX  13124 83096 21695 60904 10259 20233 30153 40160 72166 86500 333 20230 59010 60074;
0171830960999992003051318004-10920-037050FM-12+000699999V0200901N001512200019N0020001N1+02771+02251101401ADDAY161061AY261061GF104991041051012501001001MA1999999101331MD1999999-0031MW1211REMSYN082AAXX  13184 83096 21695 40903 10277 20225 30133 40140 72166 84500 333 59003 60021;
0202830960999992003051400004-10920-037050FM-12+000699999V0200901N002110120019N0020001N1+02651+02201101601ADDAY161061AY261061GF105991051051012501001001KA1240M+02951MA1999999101531MD1999999-0041MW1211REMSYN100AAXX  14004 83096 21695 50904 10265 20220 30153 40160 72166 85500 333 10295 29078 55056 59004 60041;
0190830960999992003051412004-10920-037050FM-12+000699999V0201801N002112200019N0020001N1+02701+02431101621ADDAY161061AY261061GF104991041051012501001001KA1240N+02261MA1999999101551MD1999999+0021MW1211REMSYN088AAXX  14124 83096 21695 41804 10270 20243 30155 40162 72166 84500 333 20226 58002 60054;
0148830960999992003051418004-10920-037050FM-12+000699999V0200901N002612200019N0020001N1+02851+02121101371ADDAA106000021GF101991011011012501001001MA1999999101301MD1999999-0031REMSYN070AAXX  14184 83096 32695 10905 10285 20212 30130 40137 81100 333 59003;
0198830960999992003051500004-10920-037050FM-12+000699999V0201801N001012200019N0020001N1+02671+02161101591ADDAA106000091GF102991021051012501001001KA1240M+03021MA1999999101521MD1999999-0011REMSYN088AAXX  15004 83096 32695 21802 10267 20216 30152 40159 82500 333 10302 29074 55088 59001;EQDQ01  00002PRCP06
0190830960999992003051512004-10920-037050FM-12+000699999V0201401N002110450019N0020001N1+02851+02121101581ADDAY161061AY261061GF105991021051012501031001KA1240N+02431MA1999999101511MD1999999-0041MW1201REMSYN088AAXX  15124 83096 21695 51404 10285 20212 30151 40158 72066 82530 333 20243 59004 60014;
0148830960999992003051518004-10920-037050FM-12+000699999V0201401N002612200019N0020001N1+02821+02311101421ADDAA106000021GF102991021011012501001001MA1999999101351MD1999999+0051REMSYN070AAXX  15184 83096 32695 21405 10282 20231 30135 40142 82100 333 58005;
0202830960999992003051600004-10920-037050FM-12+000699999V0201401N002110075019N0020001N1+02631+02331101611ADDAY161061AY261061GF108991081051008001001001KA1240M+03031MA1999999101541MD1999999+0021MW1601REMSYN100AAXX  16004 83096 21595 81404 10263 20233 30154 40161 76066 88500 333 10303 29076 55094 58002 60011;
0190830960999992003051612004-10920-037050FM-12+000699999V0201401N002112200019N0020001N1+02791+02251101591ADDAY161061AY261061GF104991021051012501031001KA1240N+02471MA1999999101521MD1999999+0011MW1211REMSYN088AAXX  16124 83096 21695 41404 10279 20225 30152 40159 72166 82530 333 20247 58001 60054;
0171830960999992003051618004-10920-037050FM-12+000699999V0201801N001510075019N0010001N1+02401+02231101291ADDAY161061AY261061GF108991081051008001999999MA1999999101221MD1999999-0031MW1611REMSYN082AAXX  16184 83096 21594 81803 10240 20223 30122 40129 76166 885// 333 59003 60101;
0202830960999992003051700004-10920-037050FM-12+000699999V0201401N003110075019N0010001N1+02511+02291101481ADDAY161061AY261061GF108991081051008001999999KA1240M+02931MA1999999101411MD1999999-0131MW1211REMSYN100AAXX  17004 83096 21594 81406 10251 20229 30141 40148 72166 885// 333 10293 29084 55050 59013 60031;
0190830960999992003051712004-10920-037050FM-12+000699999V0201801N002610120019N0010001N1+02591+02331101441ADDAY161061AY261061GF105991051051012501001001KA1240N+02351MA1999999101371MD1999999-0151MW1211REMSYN088AAXX  17124 83096 21694 51805 10259 20233 30137 40144 72166 85500 333 20235 59015 60294;
0171830960999992003051718004-10920-037050FM-12+000699999V0200901N002112200019N0020001N1+02631+02311101241ADDAY161061AY261061GF103991031011012501001001MA1999999101171MD1999999-0151MW1201REMSYN082AAXX  17184 83096 21695 30904 10263 20231 30117 40124 72066 83100 333 59015 60031;
0179830960999992003051800004-10920-037050FM-12+000699999V0201401N001512200019N0020001N1+02671+02221101471ADDAA106000021GF103991021051012501001011KA1240M+02801MA1999999101401MD1999999-0011REMSYN088AAXX  18004 83096 32695 31403 10267 20222 30140 40147 82501 333 10280 29080 55043 59001;
0162830960999992003051812004-10920-037050FM-12+000699999V0200901N002112200019N0020001N1+02831+02221101531ADDGF103991031011012501001001KA1240N+02261MA1999999101461MD1999999+0091REMSYN082AAXX  18124 83096 22695 30904 10283 20222 30146 40153 83100 333 20226 58009 60034;
0167830960999992003051818004-10920-037050FM-12+000699999V0201401N001512200019N0020001N1+02891+02211101351ADDAA106000091GF103991031011012501001001MA1999999101281MD1999999+0111REMSYN070AAXX  18184 83096 32695 31403 10289 20221 30128 40135 83100 333 58011;EQDQ01  00002PRCP06
0202830960999992003051900004-10920-037050FM-12+000699999V0201401N001510120019N0020001N1+02591+02291101491ADDAY161061AY261061GF105991051051012501001001KA1240M+03021MA1999999101421MD1999999+0021MW1201REMSYN100AAXX  19004 83096 21695 51403 10259 20229 30142 40149 72066 85500 333 10302 29076 55101 58002 69931;
0190830960999992003051912004-10920-037050FM-12+000699999V0200901N002610450019N0020001N1+02751+02261101661ADDAY161061AY261061GF106991041051012501031001KA1240N+02411MA1999999101591MD1999999+0131MW1211REMSYN088AAXX  19124 83096 21695 60905 10275 20226 30159 40166 72166 84530 333 20241 58013 69954;
0148830960999992003051918004-10920-037050FM-12+000699999V0201801N000510120019N0020001N1+02781+02341101391ADDAA106000021GF106991061051012501001001MA1999999101321MD1999999+0041REMSYN070AAXX  19184 83096 32695 61801 10278 20234 30132 40139 86500 333 58004;
0198830960999992003052000004-10920-037050FM-12+000699999V0201801N001512200019N0020001N1+02671+02241101541ADDAA106000091GF102991021051012501001001KA1240M+03021MA1999999101471MD1999999+0051REMSYN088AAXX  20004 83096 32695 21803 10267 20224 30147 40154 82500 333 10302 29077 55046 58005;EQDQ01  00002PRCP06
0190830960999992003052012004-10920-037050FM-12+000699999V0201401N001510075019N0020001N1+02571+02271101601ADDAY161061AY261061GF105991051051008001001001KA1240N+02431MA1999999101531MD1999999-0061MW1601REMSYN088AAXX  20124 83096 21595 51403 10257 20227 30153 40160 76066 85500 333 20243 59006 60044;
0171830960999992003052018004-10920-037050FM-12+000699999V0201401N001510120019N0020001N1+02791+02271101331ADDAY161061AY261061GF108991061051012501001011MA1999999101261MD1999999-0061MW1201REMSYN082AAXX  20184 83096 21695 81403 10279 20227 30126 40133 72066 86501 333 59006 60011;
0202830960999992003052100004-10920-037050FM-12+000699999V0202301N002610075019N0010001N1+02491+02271101601ADDAY161061AY261061GF108991081051008001999999KA1240M+02921MA1999999101531MD1999999+0061MW1601REMSYN100AAXX  21004 83096 21594 82305 10249 20227 30153 40160 76066 885// 333 10292 29083 55032 58006 60071;
0190830960999992003052112004-10920-037050FM-12+000699999V0202701N001512200019N0020001N1+02571+02291101601ADDAY161061AY261061GF104991041051012501001001KA1240N+02301MA1999999101531MD1999999+0001MW1201REMSYN088AAXX  21124 83096 21695 42703 10257 20229 30153 40160 72066 84500 333 20230 58000 60124;
0148830960999992003052118004-10920-037050FM-12+000699999V0201801N001512200019N0020001N1+02811+02271101371ADDAA106000021GF103991031011012501001001MA1999999101301MD1999999+0041REMSYN070AAXX  21184 83096 32695 31803 10281 20227 30130 40137 83100 333 58004;
0198830960999992003052200004-10920-037050FM-12+000699999V0200501N001010120019N0020001N1+02591+02251101531ADDAA106000091GF106991061051012501001001KA1240M+02951MA1999999101461MD1999999-0071REMSYN088AAXX  22004 83096 32695 60502 10259 20225 30146 40153 86500 333 10295 29080 55067 59007;EQDQ01  00002PRCP06
0186830960999992003052212004-10920-037050FM-12+000699999V0200901N002112200019N0020001N1+02811+02271101631ADDAA106000091GF102991021051012501001001KA1240N+02331MA1999999101561MD1999999+0031REMSYN076AAXX  22124 83096 32695 20904 10281 20227 30156 40163 82500 333 20233 58003;EQDQ01  00002PRCP06
0167830960999992003052218004-10920-037050FM-12+000699999V0200901N003612200019N0020001N1+02821+02201101401ADDAA106000091GF101991011011012501001001MA1999999101231MD1999999+0031REMSYN070AAXX  22184 83096 32695 10907 10282 20220 30123 40140 81100 333 58003;EQDQ01  00002PRCP06
0198830960999992003052300004-10920-037050FM-12+000699999V0200901N001512200019N0020001N1+02621+02121101621ADDAA106000091GF102991021051012501001001KA1240M+02971MA1999999101551MD1999999+0091REMSYN088AAXX  23004 83096 32695 20903 10262 20212 30155 40162 82500 333 10297 29072 55102 58009;EQDQ01  00002PRCP06
0186830960999992003052312004-10920-037050FM-12+000699999V0200901N001512200019N0020001N1+02691+02311101591ADDAA106000091GF103991031051012501001001KA1240N+02241MA1999999101521MD1999999-0041REMSYN076AAXX  23124 83096 32695 30903 10269 20231 30152 40159 83500 333 20224 59004;EQDQ01  00002PRCP06
0167830960999992003052318004-10920-037050FM-12+000699999V0200901N003112200019N0020001N1+02831+02291101331ADDAA106000091GF106991041051012501001011MA1999999101261MD1999999-0071REMSYN070AAXX  23184 83096 32695 60906 10283 20229 30126 40133 84501 333 59007;EQDQ01  00002PRCP06
0198830960999992003052400004-10920-037050FM-12+000699999V0200901N003110120019N0020001N1+02651+02291101491ADDAA106000091GF105991051051012501001001KA1240M+02971MA1999999101421MD1999999-0131REMSYN088AAXX  24004 83096 32695 50906 10265 20229 30142 40149 85500 333 10297 29078 55091 59013;EQDQ01  00002PRCP06
0186830960999992003052412004-10920-037050FM-12+000699999V0200901N003112200019N0020001N1+02771+02341101441ADDAA106000091GF101991011011012501001001KA1240N+02301MA1999999101371MD1999999-0151REMSYN076AAXX  24124 83096 32695 10906 10277 20234 30137 40144 81100 333 20230 59015;EQDQ01  00002PRCP06
0167830960999992003052418004-10920-037050FM-12+000699999V0200901N003112200019N0020001N1+02831+02221100931ADDAA106000091GF101991011011012501001001MA1999999100861MD1999999-0401REMSYN070AAXX  24184 83096 32695 10906 10283 20222 30086 40093 81100 333 59040;EQDQ01  00002PRCP06
0198830960999992003052500004-10920-037050FM-12+000699999V0200901N003112200019N0020001N1+02691+02371101211ADDAA106000091GF103991031051012501001001KA1240M+02931MA1999999101141MD1999999-0281REMSYN088AAXX  25004 83096 32695 30906 10269 20237 30114 40121 83500 333 10293 29077 55102 59028;EQDQ01  00002PRCP06
0186830960999992003052512004-10920-037050FM-12+000699999V0200901N004112200019N0020001N1+02881+02301101391ADDAA106000091GF103991031011012501001011KA1240N+02301MA1999999101321MD1999999-0051REMSYN076AAXX  25124 83096 32695 30908 10288 20230 30132 40139 83101 333 20230 59005;EQDQ01  00002PRCP06
0167830960999992003052518004-10920-037050FM-12+000699999V0200901N004112200019N0020001N1+02891+02391100981ADDAA106000091GF101991011011012501001001MA1999999100911MD1999999-0051REMSYN070AAXX  25184 83096 32695 10908 10289 20239 30091 40098 81100 333 59005;EQDQ01  00002PRCP06
0198830960999992003052600004-10920-037050FM-12+000699999V0200901N003112200019N0020001N1+02711+02521101201ADDAA106000091GF101991011051012501001001KA1240M+03011MA1999999101131MD1999999-0011REMSYN088AAXX  26004 83096 32695 10906 10271 20252 30113 40120 81500 333 10301 29079 55101 59001;EQDQ01  00002PRCP06
0186830960999992003052612004-10920-037050FM-12+000699999V0200901N002612200019N0020001N1+02831+02401101411ADDAA106000091GF102991021051012501001001KA1240N+02351MA1999999101341MD1999999+0021REMSYN076AAXX  26124 83096 32695 20905 10283 20240 30134 40141 82500 333 20235 58002;EQDQ01  00002PRCP06
0167830960999992003052618004-10920-037050FM-12+000699999V0200901N003112200019N0020001N1+02891+02461101261ADDAA106000091GF101991011011012501001001MA1999999101191MD1999999+0281REMSYN070AAXX  26184 83096 32695 10906 10289 20246 30119 40126 81100 333 58028;EQDQ01  00002PRCP06
0198830960999992003052700004-10920-037050FM-12+000699999V0200901N003110120019N0020001N1+02751+02481101471ADDAA106000091GF106991061051012501001001KA1240M+03001MA1999999101401MD1999999+0271REMSYN088AAXX  27004 83096 32695 60906 10275 20248 30140 40147 86500 333 10300 29081 55100 58027;EQDQ01  00002PRCP06
0186830960999992003052712004-10920-037050FM-12+000699999V0200901N003112200019N0020001N1+02881+02411101691ADDAA106000091GF102991011051012501031001KA1240N+02511MA1999999101621MD1999999+0281REMSYN076AAXX  27124 83096 32695 20906 10288 20241 30162 40169 81530 333 20251 58028;EQDQ01  00002PRCP06
0183830960999992003052718004-10920-037050FM-12+000699999V0201401N003112200019N0020001N1+02831+02291101381ADDAA106000091GF103991999051012501031011MA1999999101311MD1999999+0121REMSYN070AAXX  27184 83096 32695 31406 10283 20229 30131 40138 88531 333 58012;EQDQ01+000082SCOTLCQ02  00002PRCP06
0198830960999992003052800004-10920-037050FM-12+000699999V0201801N001512200019N0020001N1+02681+02281101651ADDAA106000091GF102991021051012501001001KA1240M+03051MA1999999101581MD1999999+0181REMSYN088AAXX  28004 83096 32695 21803 10268 20228 30158 40165 82500 333 10305 29076 55087 58018;EQDQ01  00002PRCP06
0190830960999992003052812004-10920-037050FM-12+000699999V0202701N001512200019N0020001N1+02641+02391101671ADDAY161061AY261061GF104991041051012501001001KA1240N+02431MA1999999101601MD1999999-0021MW1211REMSYN088AAXX  28124 83096 21695 42703 10264 20239 30160 40167 72166 84500 333 20243 59002 60044;
0171830960999992003052818004-10920-037050FM-12+000699999V0200901N004112200019N0020001N1+02771+02381101491ADDAY161061AY261061GF103991021011012501001011MA1999999101421MD1999999+0111MW1211REMSYN082AAXX  28184 83096 21695 30908 10277 20238 30142 40149 72166 82101 333 58011 60021;
0179830960999992003052900004-10920-037050FM-12+000699999V0201401N001012200019N0020001N1+02641+01981101591ADDAA106000021GF102991011011012501001011KA1240M+02961MA1999999101531MD1999999-0061REMSYN088AAXX  29004 83096 32695 21402 10264 20198 30153 40159 81101 333 10296 29075 55060 59006;
0190830960999992003052912004-10920-037050FM-12+000699999V0202701N002112200019N0020001N1+02531+02251101611ADDAY161061AY261061GF104991041051012501001001KA1240N+02391MA1999999101541MD1999999-0061MW1201REMSYN088AAXX  29124 83096 21695 42704 10253 20225 30154 40161 72066 84500 333 20239 59006 60034;
0171830960999992003052918004-10920-037050FM-12+000699999V0201801N002110120019N0020001N1+02571+02271101421ADDAY161061AY261061GF106991061051012501001001MA1999999101351MD1999999-0071MW1211REMSYN082AAXX  29184 83096 21695 61804 10257 20227 30135 40142 72166 86500 333 59007 60041;
0179830960999992003053000004-10920-037050FM-12+000699999V0202301N001510120019N0020001N1+02551+02351101651ADDAA106000021GF108991081051012501001001KA1240M+02701MA1999999101581MD1999999+0061REMSYN088AAXX  30004 83096 32695 82303 10255 20235 30158 40165 88500 333 10270 29086 55004 58006;
0190830960999992003053012004-10920-037050FM-12+000699999V0201801N001510120019N0020001N1+02771+02161101661ADDAY161061AY261061GF106991061051012501001001KA1240N+02301MA1999999101591MD1999999+0051MW1211REMSYN088AAXX  30124 83096 21695 61803 10277 20216 30159 40166 72166 86500 333 20230 58005 60124;
0148830960999992003053018004-10920-037050FM-12+000699999V0201801N001512200019N0020001N1+02831+02071101411ADDAA106000021GF101991011011012501001001MA1999999101341MD1999999-0011REMSYN070AAXX  30184 83096 32695 11803 10283 20207 30134 40141 81100 333 59001;
0198830960999992003053100004-10920-037050FM-12+000699999V0201801N000510120019N0020001N1+02651+02271101621ADDAA106000091GF106991061051012501001001KA1240M+02971MA1999999101551MD1999999-0031REMSYN088AAXX  31004 83096 32695 61801 10265 20227 30155 40162 86500 333 10297 29074 55094 59003;EQDQ01  00002PRCP06
0190830960999992003053112004-10920-037050FM-12+000699999V0201801N002110075019N0020001N1+02791+02211101711ADDAY161061AY261061GF107991071051008001001001KA1240N+02281MA1999999101641MD1999999+0051MW1211REMSYN088AAXX  31124 83096 21595 71804 10279 20221 30164 40171 72166 87500 333 20228 58005 60074;
0148830960999992003053118004-10920-037050FM-12+000699999V0201401N003112200019N0020001N1+02801+02081101501ADDAA106000021GF104991041051012501001001MA1999999101431MD1999999+0091REMSYN070AAXX  31184 83096 32695 41406 10280 20208 30143 40150 84500 333 58009;
0202830960999992003060100004-10920-037050FM-12+000699999V0200901N002110075019N0020001N1+02451+02211101731ADDAY161061AY261061GF107991071051008001001001KA1240M+02951MA1999999101661MD1999999+0111MW1211REMSYN100AAXX  01004 83096 21595 70904 10245 20221 30166 40173 72166 87500 333 10295 29078 55087 58011 60021;
0190830960999992003060112004-10920-037050FM-12+000699999V0209999C000010075019N0020001N1+02701+02411101721ADDAY161061AY261061GF105991051051008001001001KA1240N+02281MA1999999101651MD1999999+0011MW1211REMSYN088AAXX  01124 83096 21595 50500 10270 20241 30165 40172 72166 85500 333 20228 58001 60104;
0148830960999992003060118004-10920-037050FM-12+000699999V0200901N003112200019N0020001N1+02781+02251101521ADDAA106000021GF101991011011012501001001MA1999999101451MD1999999+0021REMSYN070AAXX  01184 83096 32695 10906 10278 20225 30145 40152 81100 333 58002;
0198830960999992003060200004-10920-037050FM-12+000699999V0201801N001012200019N0020001N1+02601+02231101701ADDAA106000091GF101991011011012501001001KA1240M+02971MA1999999101631MD1999999-0031REMSYN088AAXX  02004 83096 32695 11802 10260 20223 30163 40170 81100 333 10297 29079 55090 59003;EQDQ01  00002PRCP06
0167830960999992003060218004-10920-037050FM-12+000699999V0201401N002612200019N0020001N1+02841+02191101391ADDAA106000091GF103991031011012501001001MA1999999101321MD1999999-0131REMSYN070AAXX  02184 83096 32695 31405 10284 20219 30132 40139 83100 333 59013;EQDQ01  00002PRCP06
0198830960999992003060300004-10920-037050FM-12+000699999V0200901N003110120019N0020001N1+02651+02271101571ADDAA106000091GF105991051051012501001001KA1240M+02971MA1999999101501MD1999999-0131REMSYN088AAXX  03004 83096 32695 50906 10265 20227 30150 40157 85500 333 10297 29076 55091 59013;EQDQ01  00002PRCP06
0186830960999992003060312004-10920-037050FM-12+000699999V0201401N002112200019N0020001N1+02831+02271101611ADDAA106000091GF103991031011012501001001KA1240N+02471MA1999999101541MD1999999-0081REMSYN076AAXX  03124 83096 32695 31404 10283 20227 30154 40161 83100 333 20247 59008;EQDQ01  00002PRCP06
0167830960999992003060318004-10920-037050FM-12+000699999V0201801N002612200019N0020001N1+02821+02241101351ADDAA106000091GF103991031051012501001001MA1999999101281MD1999999-0041REMSYN070AAXX  03184 83096 32695 31805 10282 20224 30128 40135 83500 333 59004;EQDQ01  00002PRCP06
0202830960999992003060400004-10920-037050FM-12+000699999V0200901N002112200019N0020001N1+02571+02171101531ADDAY161061AY261061GF103991031051012501001001KA1240M+02991MA1999999101461MD1999999-0041MW1211REMSYN100AAXX  04004 83096 21695 30904 10257 20217 30146 40153 72166 83500 333 10299 29075 55090 59004 60011;
0190830960999992003060412004-10920-037050FM-12+000699999V0201401N004610450019N0020001N1+02871+02261101591ADDAY161061AY261061GF105991041051012501031001KA1240N+02311MA1999999101521MD1999999+0021MW1201REMSYN088AAXX  04124 83096 21695 51409 10287 20226 30152 40159 72066 84530 333 20231 58002 60014;
0148830960999992003060418004-10920-037050FM-12+000699999V0201401N001512200019N0020001N1+02841+02221101411ADDAA106000021GF104991041051012501001001MA1999999101341MD1999999+0061REMSYN070AAXX  04184 83096 32695 41403 10284 20222 30134 40141 84500 333 58006;
0198830960999992003060500004-10920-037050FM-12+000699999V0201801N003112200019N0020001N1+02671+02161101561ADDAA106000091GF104991041051012501001001KA1240M+02991MA1999999101491MD1999999+0031REMSYN088AAXX  05004 83096 32695 41806 10267 20216 30149 40156 84500 333 10299 29072 55093 58003;EQDQ01  00002PRCP06
0190830960999992003060512004-10920-037050FM-12+000699999V0200901N003112200019N0020001N1+02831+02271101571ADDAY161061AY261061GF103991031051012501001001KA1240N+02471MA1999999101501MD1999999-0021MW1201REMSYN088AAXX  05124 83096 21695 30906 10283 20227 30150 40157 72066 83500 333 20247 59002 60014;
0148830960999992003060518004-10920-037050FM-12+000699999V0200901N003112200019N0020001N1+02821+02101101421ADDAA106000021GF103991021011012501001011MA1999999101351MD1999999+0011REMSYN070AAXX  05184 83096 32695 30906 10282 20210 30135 40142 82101 333 58001;
0198830960999992003060600004-10920-037050FM-12+000699999V0200901N002612200019N0020001N1+02671+02061101651ADDAA106000091GF102991021051012501001001KA1240M+02991MA1999999101581MD1999999-0091REMSYN088AAXX  06004 83096 32695 20905 10267 20206 30158 40165 82500 333 10299 29069 55082 59009;EQDQ01  00002PRCP06
0190830960999992003060612004-10920-037050FM-12+000699999V0201401N002112200019N0020001N1+02751+02211101691ADDAY161061AY261061GF103991031051012501001001KA1240N+02331MA1999999101621MD1999999+0121MW1211REMSYN088AAXX  06124 83096 21695 31404 10275 20221 30162 40169 72166 83500 333 20233 58012 60024;
0148830960999992003060618004-10920-037050FM-12+000699999V0201401N003112200019N0020001N1+02771+02231101411ADDAA106000021GF103991031011012501001001MA1999999101341MD1999999-0011REMSYN070AAXX  06184 83096 32695 31406 10277 20223 30134 40141 83100 333 59001;
0198830960999992003060700004-10920-037050FM-12+000699999V0200901N002110120019N0020001N1+02571+02271101611ADDAA106000091GF108991081051012501001001KA1240M+02931MA1999999101541MD1999999-0041REMSYN088AAXX  07004 83096 32695 80904 10257 20227 30154 40161 88500 333 10293 29078 55090 59004;EQDQ01  00002PRCP06
0190830960999992003060712004-10920-037050FM-12+000699999V0201401N002612200019N0100001N1+02731+02101101651ADDAY161061AY261061GF104991041011012501001001KA1240N+02301MA1999999101581MD1999999-0041MW1201REMSYN088AAXX  07124 83096 21697 41405 10273 20210 30158 40165 72066 84100 333 20230 59004 69944;
0148830960999992003060718004-10920-037050FM-12+000699999V0201401N002612200019N0020001N1+02811+02111101471ADDAA106000021GF103991031011012501001001MA1999999101401MD1999999+0061REMSYN070AAXX  07184 83096 32695 31405 10281 20211 30140 40147 83100 333 58006;
0198830960999992003060800004-10920-037050FM-12+000699999V0201401N002112200019N0020001N1+02651+02121101491ADDAA106000091GF102991021011012501001001KA1240M+02971MA1999999101421MD1999999-0121REMSYN088AAXX  08004 83096 32695 21404 10265 20212 30142 40149 82100 333 10297 29070 55084 59012;EQDQ01  00002PRCP06
0190830960999992003060812004-10920-037050FM-12+000699999V0201401N002110450019N0020001N1+02771+02141101551ADDAY161061AY261061GF105991031051012501031001KA1240N+02241MA1999999101481MD1999999-0101MW1211REMSYN088AAXX  08124 83096 21695 51404 10277 20214 30148 40155 72166 83530 333 20224 59010 60034;
0171830960999992003060818004-10920-037050FM-12+000699999V0200901N002112200019N0020001N1+02671+02161101491ADDAY161061AY261061GF102991021011012501001001MA1999999101421MD1999999+0021MW1201REMSYN082AAXX  08184 83096 21695 20904 10267 20216 30142 40149 72066 82100 333 58002 60011;
0179830960999992003060900004-10920-037050FM-12+000699999V0201401N001512200019N0020001N1+02621+02141101621ADDAA106000021GF103991031051012501001001KA1240M+02931MA1999999101551MD1999999+0131REMSYN088AAXX  09004 83096 32695 31403 10262 20214 30155 40162 83500 333 10293 29073 55083 58013;
0190830960999992003060912004-10920-037050FM-12+000699999V0201401N002610120019N0020001N1+02681+02111101641ADDAY161061AY261061GF107991071051012501001001KA1240N+02411MA1999999101571MD1999999+0091MW1211REMSYN088AAXX  09124 83096 21695 71405 10268 20211 30157 40164 72166 87500 333 20241 58009 60014;
0148830960999992003060918004-10920-037050FM-12+000699999V0201801N001510120019N0020001N1+02751+02141101491ADDAA106000021GF107991071051012501001001MA1999999101421MD1999999+0001REMSYN070AAXX  09184 83096 32695 71803 10275 20214 30142 40149 87500 333 58000;
0202830960999992003061000004-10920-037050FM-12+000699999V0201801N003110120019N0020001N1+02611+02011101631ADDAY161061AY261061GF106991061051012501001001KA1240M+02971MA1999999101561MD1999999+0011MW1211REMSYN100AAXX  10004 83096 21695 61806 10261 20201 30156 40163 72166 86500 333 10297 29070 55029 58001 60011;
0190830960999992003061012004-10920-037050FM-12+000699999V0201401N002112200019N0020001N1+02671+02201101711ADDAY161061AY261061GF102991021051012501001001KA1240N+02391MA1999999101641MD1999999+0071MW1211REMSYN088AAXX  10124 83096 21695 21404 10267 20220 30164 40171 72166 82500 333 20239 58007 60044;
0206830960999992003061018004-10920-037050FM-12+000699999V0200901N003110120019N0020001N1+02651+99999101471ADDAY161061AY261061GF106991061051012501001001MA1999999101401MD1999999-0021MW1211REMSYN082AAXX  10184 83096 21695 60906 10265 20022 30140 40147 72166 86500 333 59002 60031;EQDQ01+000223ATOD  Q02 +00223ATOD  
0202830960999992003061100004-10920-037050FM-12+000699999V0200901N002612200019N0020001N1+02591+02231101651ADDAY161061AY261061GF103991031051012501001001KA1240M+02831MA1999999101581MD1999999+0021MW1201REMSYN100AAXX  11004 83096 21695 30905 10259 20223 30158 40165 72066 83500 333 10283 29079 55043 58002 69971;
0162830960999992003061112004-10920-037050FM-12+000699999V0200901N003112200019N0020001N1+02671+02291101701ADDGF104991041011012501001001KA1240N+02391MA1999999101631MD1999999-0011REMSYN082AAXX  11124 83096 22695 40906 10267 20229 30163 40170 84100 333 20239 59001 60034;
0171830960999992003061118004-10920-037050FM-12+000699999V0201401N001510075019N0020001N1+02491+02271101451ADDAY161061AY261061GF106991061051008001001001MA1999999101381MD1999999-0021MW1201REMSYN082AAXX  11184 83096 21595 61403 10249 20227 30138 40145 72066 86500 333 59002 60021;
0179830960999992003061200004-10920-037050FM-12+000699999V0201401N001012200019N0020001N1+02571+02271101571ADDAA106000021GF101991011051012501001001KA1240M+02811MA1999999101501MD1999999-0081REMSYN088AAXX  12004 83096 32695 11402 10257 20227 30150 40157 81500 333 10281 29083 55026 59008;
0190830960999992003061212004-10920-037050FM-12+000699999V0201801N003112200019N0020001N1+02661+02021101541ADDAY161061AY261061GF101991011051012501001001KA1240N+02411MA1999999101471MD1999999-0161MW1201REMSYN088AAXX  12124 83096 21695 11806 10266 20202 30147 40154 72066 81500 333 20241 59016 60024;
0148830960999992003061218004-10920-037050FM-12+000699999V0201801N002112200019N0020001N1+02781+02161101281ADDAA106000021GF102991021051012501001001MA1999999101211MD1999999-0171REMSYN070AAXX  12184 83096 32695 21804 10278 20216 30121 40128 82500 333 59017;
0198830960999992003061300004-10920-037050FM-12+000699999V0201801N000512200019N0020001N1+02411+02091101501ADDAA106000091GF104991041051012501001001KA1240M+02931MA1999999101431MD1999999-0071REMSYN088AAXX  13004 83096 32695 41801 10241 20209 30143 40150 84500 333 10293 29076 55098 59007;EQDQ01  00002PRCP06
0186830960999992003061312004-10920-037050FM-12+000699999V0201801N002112200019N0020001N1+02691+02181101501ADDAA106000091GF104991041051012501001001KA1240N+02241MA1999999101431MD1999999-0041REMSYN076AAXX  13124 83096 32695 41804 10269 20218 30143 40150 84500 333 20224 59004;EQDQ01  00002PRCP06
0198830960999992003061400004-10920-037050FM-12+000699999V0201401N001512200019N0020001N1+02581+02251101551ADDAA106000091GF101991011051012501001001KA1240M+02841MA1999999101481MD1999999+0051REMSYN088AAXX  14004 83096 32695 11403 10258 20225 30148 40155 81500 333 10284 29077 55066 58005;EQDQ01  00002PRCP06
0190830960999992003061412004-10920-037050FM-12+000699999V0201401N003112200019N0020001N1+02751+01991101631ADDAY161061AY261061GF102991021011012501001001KA1240N+02361MA1999999101561MD1999999+0131MW1211REMSYN088AAXX  14124 83096 21695 21406 10275 20199 30156 40163 72166 82100 333 20236 58013 60104;
0148830960999992003061418004-10920-037050FM-12+000699999V0201401N003112200019N0020001N1+02771+02081101411ADDAA106000021GF101991011011012501001001MA1999999101341MD1999999+0141REMSYN070AAXX  14184 83096 32695 11406 10277 20208 30134 40141 81100 333 58014;
0186830960999992003061512004-10920-037050FM-12+000699999V0201801N003110120019N0020001N1+02701+01961101641ADDAA106000091GF108991061011012501001011KA1240N+02381MA1999999101571MD1999999+0011REMSYN076AAXX  15124 83096 32695 81806 10270 20196 30157 40164 86101 333 20238 58001;EQDQ01  00002PRCP06
0167830960999992003061518004-10920-037050FM-12+000699999V0201801N003112200019N0040001N1+02671+02041101451ADDAA106000091GF102991011011012501001011MA1999999101381MD1999999+0041REMSYN070AAXX  15184 83096 32696 21806 10267 20204 30138 40145 81101 333 58004;EQDQ01  00002PRCP06
0190830960999992003061612004-10920-037050FM-12+000699999V0201801N002612200019N0020001N1+02771+02071101651ADDAY161061AY261061GF102991021011012501001001KA1240N+02351MA1999999101581MD1999999+0011MW1201REMSYN088AAXX  16124 83096 21695 21805 10277 20207 30158 40165 72066 82100 333 20235 58001 60014;
0148830960999992003061618004-10920-037050FM-12+000699999V0201801N002612200019N0020001N1+02811+02001101491ADDAA106000021GF102991021011012501001001MA1999999101421MD1999999+0041REMSYN070AAXX  16184 83096 32695 21805 10281 20200 30142 40149 82100 333 58004;
0198830960999992003061700004-10920-037050FM-12+000699999V0201401N002110120019N0020001N1+02591+02081101591ADDAA106000091GF105991051051012501001001KA1240M+02891MA1999999101521MD1999999-0041REMSYN088AAXX  17004 83096 32695 51404 10259 20208 30152 40159 85500 333 10289 29068 55101 59004;EQDQ01  00002PRCP06
0186830960999992003061712004-10920-037050FM-12+000699999V0201801N001512200019N0020001N1+02791+02181101721ADDAA106000091GF104991041051012501001001KA1240N+02471MA1999999101651MD1999999+0071REMSYN076AAXX  17124 83096 32695 41803 10279 20218 30165 40172 84500 333 20247 58007;EQDQ01  00002PRCP06
0167830960999992003061718004-10920-037050FM-12+000699999V0201801N002112200019N0020001N1+02751+02051101401ADDAA106000091GF102991021011012501001001MA1999999101331MD1999999-0091REMSYN070AAXX  17184 83096 32695 21804 10275 20205 30133 40140 82100 333 59009;EQDQ01  00002PRCP06
0198830960999992003061800004-10920-037050FM-12+000699999V0201801N001512200019N0020001N1+02531+02051101611ADDAA106000091GF101991011011012501001001KA1240M+02931MA1999999101541MD1999999+0021REMSYN088AAXX  18004 83096 32695 11803 10253 20205 30154 40161 81100 333 10293 29072 55097 58002;EQDQ01  00002PRCP06
0186830960999992003061812004-10920-037050FM-12+000699999V0202701N001512200019N0020001N1+02531+02191101661ADDAA106000091GF102991021051012501001001KA1240N+02201MA1999999101591MD1999999-0061REMSYN076AAXX  18124 83096 32695 22703 10253 20219 30159 40166 82500 333 20220 59006;EQDQ01  00002PRCP06
0167830960999992003061818004-10920-037050FM-12+000699999V0201801N003112200019N0020001N1+02771+02211101501ADDAA106000091GF102991021011012501001001MA1999999101431MD1999999+0101REMSYN070AAXX  18184 83096 32695 21806 10277 20221 30143 40150 82100 333 58010;EQDQ01  00002PRCP06
0198830960999992003061900004-10920-037050FM-12+000699999V0200901N001510120019N0020001N1+02541+02151101661ADDAA106000091GF105991051051012501001001KA1240M+02811MA1999999101591MD1999999+0051REMSYN088AAXX  19004 83096 32695 50903 10254 20215 30159 40166 85500 333 10281 29078 55100 58005;EQDQ01  00002PRCP06
0186830960999992003061912004-10920-037050FM-12+000699999V0201801N001510450019N0020001N1+02551+02251101691ADDAA106000091GF106991031051012501031001KA1240N+02201MA1999999101621MD1999999+0031REMSYN076AAXX  19124 83096 32695 61803 10255 20225 30162 40169 83530 333 20220 58003;EQDQ01  00002PRCP06
0167830960999992003061918004-10920-037050FM-12+000699999V0200901N003112200019N0020001N1+02761+02341101521ADDAA106000091GF102991021011012501001001MA1999999101451MD1999999+0021REMSYN070AAXX  19184 83096 32695 20906 10276 20234 30145 40152 82100 333 58002;EQDQ01  00002PRCP06
0198830960999992003062000004-10920-037050FM-12+000699999V0201401N001512200019N0020001N1+02591+02171101671ADDAA106000091GF103991031011012501001001KA1240M+02951MA1999999101601MD1999999+0031REMSYN088AAXX  20004 83096 32695 31403 10259 20217 30160 40167 83100 333 10295 29079 55086 58003;EQDQ01  00002PRCP06
0190830960999992003062012004-10920-037050FM-12+000699999V0200901N005110075019N0010001N1+02531+02291101661ADDAY161061AY261061GF108991081051008001999999KA1240N+02391MA1999999101591MD1999999-0031MW1211REMSYN088AAXX  20124 83096 21594 80910 10253 20229 30159 40166 72166 885// 333 20239 59003 60024;
0171830960999992003062018004-10920-037050FM-12+000699999V0200901N001010075019N0010001N1+02401+02261101511ADDAY161061AY261061GF108991081051008001999999MA1999999101441MD1999999-0011MW1211REMSYN082AAXX  20184 83096 21594 80902 10240 20226 30144 40151 72166 885// 333 59001 60021;
0202830960999992003062100004-10920-037050FM-12+000699999V0202701N001510075019N0020001N1+02281+02231101641ADDAY161061AY261061GF106991061051008001001001KA1240M+02671MA1999999101571MD1999999-0031MW1211REMSYN100AAXX  21004 83096 21595 62703 10228 20223 30157 40164 72166 86500 333 10267 29093 55000 59003 69941;
0190830960999992003062112004-10920-037050FM-12+000699999V0200901N001510075019N0020001N1+02551+02251101781ADDAY161061AY261061GF106991061051008001001001KA1240N+02241MA1999999101711MD1999999+0121MW1211REMSYN088AAXX  21124 83096 21595 60903 10255 20225 30171 40178 72166 86500 333 20224 58012 60044;
0148830960999992003062118004-10920-037050FM-12+000699999V0201401N003112200019N0020001N1+02681+02161101511ADDAA106000021GF101991011011012501001001MA1999999101441MD1999999+0001REMSYN070AAXX  21184 83096 32695 11406 10268 20216 30144 40151 81100 333 58000;
0186830960999992003062212004-10920-037050FM-12+000699999V0203201N001510450019N0020001N1+02561+02231101641ADDAA106000091GF106991041051012501031001KA1240N+02161MA1999999101571MD1999999-0141REMSYN076AAXX  22124 83096 32695 63203 10256 20223 30157 40164 84530 333 20216 59014;EQDQ01  00002PRCP06
0186830960999992003062312004-10920-037050FM-12+000699999V0201401N001012200019N0020001N1+02661+02201101641ADDAA106000091GF103991031011012501001001KA1240N+02081MA1999999101571MD1999999+0001REMSYN076AAXX  23124 83096 32695 31402 10266 20220 30157 40164 83100 333 20208 58000;EQDQ01  00002PRCP06
0167830960999992003062318004-10920-037050FM-12+000699999V0201801N003112200019N0020001N1+02771+02301101531ADDAA106000091GF103991031011012501001001MA1999999101461MD1999999+0121REMSYN070AAXX  23184 83096 32695 31806 10277 20230 30146 40153 83100 333 58012;EQDQ01  00002PRCP06
0202830960999992003062400004-10920-037050FM-12+000699999V0201401N001510120019N0020001N1+02511+02331101711ADDAY161061AY261061GF108991081051012501001001KA1240M+02921MA1999999101641MD1999999+0191MW1211REMSYN100AAXX  24004 83096 21695 81403 10251 20233 30164 40171 72166 88500 333 10292 29085 55096 58019 60151;
0190830960999992003062412004-10920-037050FM-12+000699999V0201401N002610075019N0010001N1+02591+02371101721ADDAY161061AY261061GF106991061051008001001001KA1240N+02301MA1999999101651MD1999999+0081MW1601REMSYN088AAXX  24124 83096 21594 61405 10259 20237 30165 40172 76066 86500 333 20230 58008 60244;
0171830960999992003062418004-10920-037050FM-12+000699999V0200501N002610075019N0010001N1+02421+02251101681ADDAY161061AY261061GF108991081051008001999999MA1999999101611MD1999999+0151MW1611REMSYN082AAXX  24184 83096 21594 80505 10242 20225 30161 40168 76166 885// 333 58015 60151;
0202830960999992003062500004-10920-037050FM-12+000699999V0200901N001010075019N0010001N1+02301+02221101821ADDAY161061AY261061GF108991081051008001999999KA1240M+02631MA1999999101751MD1999999+0111MW1611REMSYN100AAXX  25004 83096 21594 80902 10230 20222 30175 40182 76166 885// 333 10263 29092 55001 58011 60271;
0190830960999992003062512004-10920-037050FM-12+000699999V0200901N001512200019N0020001N1+02731+02261101821ADDAY161061AY261061GF103991031011012501001001KA1240N+02231MA1999999101751MD1999999+0101MW1211REMSYN088AAXX  25124 83096 21695 30903 10273 20226 30175 40182 72166 83100 333 20223 58010 60434;
0171830960999992003062518004-10920-037050FM-12+000699999V0201401N003112200019N0020001N1+02691+02201101531ADDAY161061AY261061GF101991011011012501001001MA1999999101461MD1999999-0151MW1211REMSYN082AAXX  25184 83096 21695 11406 10269 20220 30146 40153 72166 81100 333 59015 60011;
0202830960999992003062600004-10920-037050FM-12+000699999V0201401N003610120019N0020001N1+02451+02111101701ADDAY161061AY261061GF106991061051012501001001KA1240M+02851MA1999999101631MD1999999-0121MW1211REMSYN100AAXX  26004 83096 21695 61407 10245 20211 30163 40170 72166 86500 333 10285 29079 55082 59012 60031;
0162830960999992003062612004-10920-037050FM-12+000699999V0201401N001512200019N0020001N1+02711+01831101761ADDGF102991021011012501001001KA1240N+02471MA1999999101691MD1999999-0061REMSYN082AAXX  26124 83096 22695 21403 10271 20183 30169 40176 82100 333 20247 59006 60044;
0167830960999992003062618004-10920-037050FM-12+000699999V0201401N002112200019N0020001N1+02721+01981101531ADDAA106000091GF103991021011012501001011MA1999999101461MD1999999+0001REMSYN070AAXX  26184 83096 32695 31404 10272 20198 30146 40153 82101 333 58000;EQDQ01  00002PRCP06
0190830960999992003062712004-10920-037050FM-12+000699999V0202701N001512200019N0020001N1+02381+02151101731ADDAY161061AY261061GF104991041011012501001001KA1240N+02261MA1999999101661MD1999999-0031MW1211REMSYN088AAXX  27124 83096 21695 42703 10238 20215 30166 40173 72166 84100 333 20226 59003 60154;
0171830960999992003062718004-10920-037050FM-12+000699999V0201401N002612200019N0020001N1+02671+02071101551ADDAY161061AY261061GF104991041051012501001001MA1999999101481MD1999999+0021MW1201REMSYN082AAXX  27184 83096 21695 41405 10267 20207 30148 40155 72066 84500 333 58002 69921;
0202830960999992003062800004-10920-037050FM-12+000699999V0201401N003110120019N0020001N1+02341+02171101681ADDAY161061AY261061GF108991081051012501001001KA1240M+02821MA1999999101611MD1999999+0011MW1201REMSYN100AAXX  28004 83096 21695 81406 10234 20217 30161 40168 72066 88500 333 10282 29084 55062 58001 69981;
0190830960999992003062812004-10920-037050FM-12+000699999V0201801N003112200019N0020001N1+02491+02191101781ADDAY161061AY261061GF104991041051012501001001KA1240N+02201MA1999999101711MD1999999+0051MW1211REMSYN088AAXX  28124 83096 21695 41806 10249 20219 30171 40178 72166 84500 333 20220 58005 60124;
0171830960999992003062818004-10920-037050FM-12+000699999V0203601N001510120019N0020001N1+02431+02151101631ADDAY161061AY261061GF106991061051012501001001MA1999999101561MD1999999+0081MW1211REMSYN082AAXX  28184 83096 21695 63603 10243 20215 30156 40163 72166 86500 333 58008 60081;
0179830960999992003062900004-10920-037050FM-12+000699999V0201801N001512200019N0020001N1+02541+02021101741ADDAA106000021GF103991031051012501001001KA1240M+02611MA1999999101671MD1999999+0061REMSYN088AAXX  29004 83096 32695 31803 10254 20202 30167 40174 83500 333 10261 29078 55005 58006;
0190830960999992003062912004-10920-037050FM-12+000699999V0202701N001510075019N0010001N1+02381+02011101761ADDAY161061AY261061GF108991081051008001999999KA1240N+02351MA1999999101691MD1999999-0021MW1601REMSYN088AAXX  29124 83096 21594 82703 10238 20201 30169 40176 76066 885// 333 20235 59002 60094;
0171830960999992003062918004-10920-037050FM-12+000699999V0201801N001510075019N0010001N1+02261+02051101581ADDAY161061AY261061GF108991081051008001999999MA1999999101511MD1999999-0051MW1601REMSYN082AAXX  29184 83096 21594 81803 10226 20205 30151 40158 76066 885// 333 59005 60161;
0190830960999992003063012004-10920-037050FM-12+000699999V0201801N001512200019N0020001N1+02601+02031101881ADDAY161061AY261061GF102991021051012501001001KA1240N+02201MA1999999101811MD1999999+0121MW1211REMSYN088AAXX  30124 83096 21695 21803 10260 20203 30181 40188 72166 82500 333 20220 58012 60164;
0148830960999992003063018004-10920-037050FM-12+000699999V0201801N001010450019N0020001N1+02691+02161101691ADDAA106000021GF106991021051012501031011MA1999999101621MD1999999+0111REMSYN070AAXX  30184 83096 32695 61802 10269 20216 30162 40169 82531 333 58011;
0202830960999992003070100004-10920-037050FM-12+000699999V0203601N001010120019N0020001N1+02301+01981101811ADDAY161061AY261061GF105991051051012501001001KA1240M+02851MA1999999101741MD1999999+0151MW1211REMSYN100AAXX  01004 83096 21695 53602 10230 20198 30174 40181 72166 85500 333 10285 29077 55078 58015 69951;
0162830960999992003070112004-10920-037050FM-12+000699999V0201401N002112200019N0020001N1+02751+01641101901ADDGF102991021011012501001001KA1240N+02331MA1999999101831MD1999999+0021REMSYN082AAXX  01124 83096 22695 21404 10275 20164 30183 40190 82100 333 20233 58002 69954;
0167830960999992003070118004-10920-037050FM-12+000699999V0201401N003112200019N0020001N1+02711+01981101721ADDAA106000091GF105991031011012501001011MA1999999101651MD1999999+0031REMSYN070AAXX  01184 83096 32695 51406 10271 20198 30165 40172 83101 333 58003;EQDQ01  00002PRCP06
0198830960999992003070200004-10920-037050FM-12+000699999V0201401N001512200019N0020001N1+02551+02021101881ADDAA106000091GF106991041051012501001011KA1240M+02871MA1999999101811MD1999999+0071REMSYN088AAXX  02004 83096 32695 61403 10255 20202 30181 40188 84501 333 10287 29065 55096 58007;EQDQ01  00002PRCP06
0190830960999992003070212004-10920-037050FM-12+000699999V0202301N001510075019N0020001N1+02351+02131101841ADDAY161061AY261061GF105991051051008001001001KA1240N+02331MA1999999101771MD1999999-0061MW1611REMSYN088AAXX  02124 83096 21595 52303 10235 20213 30177 40184 76166 85500 333 20233 59006 60034;
0148830960999992003070218004-10920-037050FM-12+000699999V0201801N002610120019N0020001N1+02531+02111101711ADDAA106000021GF106991061051012501001001MA1999999101641MD1999999-0011REMSYN070AAXX  02184 83096 32695 61805 10253 20211 30164 40171 86500 333 59001;
0198830960999992003070300004-10920-037050FM-12+000699999V0200901N003112200019N0020001N1+02331+02171101791ADDAA106000091GF106991041051012501001011KA1240M+02711MA1999999101721MD1999999-0021REMSYN088AAXX  03004 83096 32695 60906 10233 20217 30172 40179 84501 333 10271 29086 55027 59002;EQDQ01  00002PRCP06
0190830960999992003070312004-10920-037050FM-12+000699999V0203201N001510075019N0020001N1+02321+02271101761ADDAY161061AY261061GF108991081051008001999999KA1240N+02281MA1999999101691MD1999999-0121MW1211REMSYN088AAXX  03124 83096 21595 83203 10232 20227 30169 40176 72166 885// 333 20228 59012 60034;
0148830960999992003070318004-10920-037050FM-12+000699999V0201801N002610450019N0020001N1+02551+02041101551ADDAA106000021GF106991041051012501031001MA1999999101481MD1999999-0161REMSYN070AAXX  03184 83096 32695 61805 10255 20204 30148 40155 84530 333 59016;
0198830960999992003070400004-10920-037050FM-12+000699999V0201801N001512200019N0020001N1+02531+01961101741ADDAA106000091GF102991021051012501001001KA1240M+02791MA1999999101671MD1999999-0051REMSYN088AAXX  04004 83096 32695 21803 10253 20196 30167 40174 82500 333 10279 29078 55024 59005;EQDQ01  00002PRCP06
0186830960999992003070412004-10920-037050FM-12+000699999V0201801N003112200019N0020001N1+02671+02001101821ADDAA106000091GF103991031011012501001001KA1240N+02351MA1999999101751MD1999999+0061REMSYN076AAXX  04124 83096 32695 31806 10267 20200 30175 40182 83100 333 20235 58006;EQDQ01  00002PRCP06
0167830960999992003070418004-10920-037050FM-12+000699999V0201801N003112200019N0020001N1+02731+01781101611ADDAA106000091GF102991021011012501001001MA1999999101541MD1999999+0061REMSYN070AAXX  04184 83096 32695 21806 10273 20178 30154 40161 82100 333 58006;EQDQ01  00002PRCP06
0198830960999992003070500004-10920-037050FM-12+000699999V0201801N003112200019N0020001N1+02401+01581101641ADDAA106000091GF101991011011012501001001KA1240M+02841MA1999999101571MD1999999-0101REMSYN088AAXX  05004 83096 32695 11806 10240 20158 30157 40164 81100 333 10284 29061 55100 59010;EQDQ01  00002PRCP06
0186830960999992003070512004-10920-037050FM-12+000699999V0201401N002612200019N0020001N1+02711+01711101621ADDAA106000091GF101991011011012501001001KA1240N+02101MA1999999101551MD1999999-0201REMSYN076AAXX  05124 83096 32695 11405 10271 20171 30155 40162 81100 333 20210 59020;EQDQ01  00002PRCP06
0167830960999992003070518004-10920-037050FM-12+000699999V0201401N001512200019N0020001N1+02701+01751101401ADDAA106000091GF101991011011012501001001MA1999999101331MD1999999-0211REMSYN070AAXX  05184 83096 32695 11403 10270 20175 30133 40140 81100 333 59021;EQDQ01  00002PRCP06
0190830960999992003070612004-10920-037050FM-12+000699999V0201401N002612200019N0020001N1+02551+02211101611ADDAY161061AY261061GF106991041051012501001011KA1240N+02001MA1999999101541MD1999999-0011MW1201REMSYN088AAXX  06124 83096 21695 61405 10255 20221 30154 40161 72066 84501 333 20200 59001 69944;
0148830960999992003070618004-10920-037050FM-12+000699999V0200901N003112200019N0020001N1+02711+02001101491ADDAA106000021GF101991011011012501001001MA1999999101421MD1999999+0091REMSYN070AAXX  06184 83096 32695 10906 10271 20200 30142 40149 81100 333 58009;
0190830960999992003070712004-10920-037050FM-12+000699999V0200901N003112200019N0020001N1+02671+01951101721ADDAY161061AY261061GF102991021011012501001001KA1240N+02141MA1999999101651MD1999999+0111MW1201REMSYN088AAXX  07124 83096 21695 20906 10267 20195 30165 40172 72066 82100 333 20214 58011 60014;
0148830960999992003070718004-10920-037050FM-12+000699999V0200901N002112200019N0020001N1+02731+02001101571ADDAA106000021GF102991021011012501001001MA1999999101501MD1999999+0081REMSYN070AAXX  07184 83096 32695 20904 10273 20200 30150 40157 82100 333 58008;
0198830960999992003070800004-10920-037050FM-12+000699999V0200901N002112200019N0020001N1+02531+01891101691ADDAA106000091GF102991021011012501001001KA1240M+02831MA1999999101621MD1999999+0071REMSYN088AAXX  08004 83096 32695 20904 10253 20189 30162 40169 82100 333 10283 29066 55100 58007;EQDQ01  00002PRCP06
0186830960999992003070812004-10920-037050FM-12+000699999V0200901N002612200019N0020001N1+02731+02021101801ADDAA106000091GF101991011011012501001001KA1240N+02221MA1999999101731MD1999999+0081REMSYN076AAXX  08124 83096 32695 10905 10273 20202 30173 40180 81100 333 20222 58008;EQDQ01  00002PRCP06
0167830960999992003070818004-10920-037050FM-12+000699999V0200901N002612200019N0020001N1+02731+02001101531ADDAA106000091GF101991011011012501001001MA1999999101461MD1999999-0041REMSYN070AAXX  08184 83096 32695 10905 10273 20200 30146 40153 81100 333 59004;EQDQ01  00002PRCP06
0198830960999992003070900004-10920-037050FM-12+000699999V0200901N002612200019N0020001N1+02521+01861101661ADDAA106000091GF101991011051012501001001KA1240M+02861MA1999999101591MD1999999-0031REMSYN088AAXX  09004 83096 32695 10905 10252 20186 30159 40166 81500 333 10286 29066 55102 59003;EQDQ01  00002PRCP06
0186830960999992003070912004-10920-037050FM-12+000699999V0200901N003110120019N0020001N1+02361+01951101721ADDAA106000091GF106991061051012501001001KA1240N+02161MA1999999101651MD1999999-0081REMSYN076AAXX  09124 83096 32695 60906 10236 20195 30165 40172 86500 333 20216 59008;EQDQ01  00002PRCP06
0167830960999992003070918004-10917-037050FM-12+000699999V0201401N001510120019N0020001N1+02711+01861101541ADDAA106000091GF105991051051012501001001MA1999999101471MD1999999+0011REMSYN070AAXX  09184 83096 32695 51403 10271 20186 30147 40154 85500 333 58001;EQDQ01  00002PRCP06
0198830960999992003071000004-10917-037050FM-12+000699999V0201401N001510120019N0020001N1+02591+02101101671ADDAA106000091GF106991061051012501001001KA1240M+02891MA1999999101601MD1999999+0011REMSYN088AAXX  10004 83096 32695 61403 10259 20210 30160 40167 86500 333 10289 29071 55028 58001;EQDQ01  00002PRCP06
0190830960999992003071012004-10917-037050FM-12+000699999V0200901N001510075019N0010001N1+02411+02171101701ADDAY161061AY261061GF108991081051008001001001KA1240N+02301MA1999999101631MD1999999-0021MW1601REMSYN088AAXX  10124 83096 21594 80903 10241 20217 30163 40170 76066 88500 333 20230 59002 69924;
0171830960999992003071018004-10917-037050FM-12+000699999V0201801N002610075019N0010001N1+02401+02261101501ADDAY161061AY261061GF108991081051008001999999MA1999999101431MD1999999-0041MW1611REMSYN082AAXX  10184 83096 21594 81805 10240 20226 30143 40150 76166 885// 333 59004 60051;
0202830960999992003071100004-10917-037050FM-12+000699999V0200901N002610075019N0010001N1+02401+02281101601ADDAY161061AY261061GF108991081051008001999999KA1240M+02631MA1999999101531MD1999999-0071MW1611REMSYN100AAXX  11004 83096 21594 80905 10240 20228 30153 40160 76166 885// 333 10263 29091 55000 59007 60091;
0190830960999992003071112004-10917-037050FM-12+000699999V0200901N001510075019N0010001N1+02301+02181101741ADDAY161061AY261061GF108991081051008001999999KA1240N+02221MA1999999101671MD1999999+0041MW1611REMSYN088AAXX  11124 83096 21594 80903 10230 20218 30167 40174 76166 885// 333 20222 58004 60364;
0171830960999992003071118004-10917-037050FM-12+000699999V0200901N001510120019N0020001N1+02511+02271101561ADDAY161061AY261061GF106991061051012501001001MA1999999101491MD1999999+0061MW1211REMSYN082AAXX  11184 83096 21695 60903 10251 20227 30149 40156 72166 86500 333 58006 60051;
0202830960999992003071200004-10917-037050FM-12+000699999V0200901N002610120019N0020001N1+02341+02221101701ADDAY161061AY261061GF108991081051012501999999KA1240M+02671MA1999999101631MD1999999+0101MW1201REMSYN100AAXX  12004 83096 21695 80905 10234 20222 30163 40170 72066 885// 333 10267 29091 55006 58010 60021;
0190830960999992003071212004-10917-037050FM-12+000699999V0201401N002112200019N0020001N1+02711+02221101901ADDAY161061AY261061GF102991021011012501001001KA1240N+02251MA1999999101831MD1999999+0161MW1201REMSYN088AAXX  12124 83096 21695 21404 10271 20222 30183 40190 72066 82100 333 20225 58016 60084;
0148830960999992003071218004-10917-037050FM-12+000699999V0201401N001512200019N0020001N1+02711+02061101771ADDAA106000021GF102991021011012501001001MA1999999101701MD1999999+0211REMSYN070AAXX  12184 83096 32695 21403 10271 20206 30170 40177 82100 333 58021;
0190830960999992003071312004-10917-037050FM-12+000699999V0200901N003112200019N0020001N1+02691+01921101821ADDAY161061AY261061GF102991021011012501001001KA1240N+02331MA1999999101751MD1999999-0071MW1201REMSYN088AAXX  13124 83096 21695 20906 10269 20192 30175 40182 72066 82100 333 20233 59007 69934;
0148830960999992003071318004-10917-037050FM-12+000699999V0201401N002112200019N0020001N1+02611+02031101791ADDAA106000021GF104991041011012501001001MA1999999101721MD1999999+0021REMSYN070AAXX  13184 83096 32695 41404 10261 20203 30172 40179 84100 333 58002;
0190830960999992003071412004-10917-037050FM-12+000699999V0201401N002610120019N0020001N1+02691+02131101951ADDAY161061AY261061GF106991061011012501001001KA1240N+02161MA1999999101881MD1999999+0131MW1211REMSYN088AAXX  14124 83096 21695 61405 10269 20213 30188 40195 72166 86100 333 20216 58013 60244;
0148830960999992003071418004-10917-037050FM-12+000699999V0201401N002612200019N0020001N1+02681+01891101661ADDAA106000021GF101991011011012501001001MA1999999101591MD1999999-0131REMSYN070AAXX  14184 83096 32695 11405 10268 20189 30159 40166 81100 333 59013;
0198830960999992003071500004-10917-037050FM-12+000699999V0201401N002610120019N0020001N1+02581+02041101821ADDAA106000091GF105991051051012501001001KA1240M+02841MA1999999101751MD1999999+0081REMSYN088AAXX  15004 83096 32695 51405 10258 20204 30175 40182 85500 333 10284 29069 55099 58008;EQDQ01  00002PRCP06
0190830960999992003071512004-10917-037050FM-12+000699999V0201801N001512200019N0020001N1+02411+02241101901ADDAY161061AY261061GF104991041051012501001001KA1240N+02141MA1999999101831MD1999999+0051MW1201REMSYN088AAXX  15124 83096 21695 41803 10241 20224 30183 40190 72066 84500 333 20214 58005 69964;
0148830960999992003071518004-10917-037050FM-12+000699999V0201401N002112200019N0020001N1+02711+01991101731ADDAA106000021GF102991021011012501001001MA1999999101661MD1999999+0071REMSYN070AAXX  15184 83096 32695 21404 10271 20199 30166 40173 82100 333 58007;
0198830960999992003071600004-10917-037050FM-12+000699999V0201401N001512200019N0020001N1+02531+02111101821ADDAA106000091GF104991041051012501001001KA1240M+02831MA1999999101751MD1999999+0001REMSYN088AAXX  16004 83096 32695 41403 10253 20211 30175 40182 84500 333 10283 29078 55083 58000;EQDQ01  00002PRCP06
0186830960999992003071612004-10917-037050FM-12+000699999V0201401N002610120019N0020001N1+02711+02261101941ADDAA106000091GF106991061011012501001001KA1240N+02411MA1999999101871MD1999999+0041REMSYN076AAXX  16124 83096 32695 61405 10271 20226 30187 40194 86100 333 20241 58004;EQDQ01  00002PRCP06
0167830960999992003071618004-10917-037050FM-12+000699999V0201401N003110120019N0020001N1+02611+02311101671ADDAA106000091GF108991081051012501001001MA1999999101601MD1999999-0061REMSYN070AAXX  16184 83096 32695 81406 10261 20231 30160 40167 88500 333 59006;EQDQ01  00002PRCP06
0221830960999992003071700004-10917-037050FM-12+000699999V0201401N002612200019N0020001N1+02551+02211101911ADDAY161061AY261061GF102991999021012501051001KA1240M+02831MA1999999101841MD1999999+0111MW1201REMSYN100AAXX  17004 83096 21695 21405 10255 20221 30184 40191 72066 88250 333 10283 29080 55087 58011 69951;EQDQ01+000082SCOTLC
0218830960999992003071712004-10917-037050FM-12+000699999V0200901N002110120019N0020001N1+02511+02151102041ADDAY161061AY261061GF105991051051012501001001KA1240N+02201MA1999999101971MD1999999+0101ME1102049MW1211REMSYN088AAXX  17124 83096 21695 50904 10251 20215 30197 41204 72166 85500 333 20220 58010 60084;EQDQ01+999990APOSLP
0148830960999992003071718004-10917-037050FM-12+000699999V0201401N001512200019N0020001N1+02711+01991101911ADDAA106000021GF103991031011012501001001MA1999999101841MD1999999+0241REMSYN070AAXX  17184 83096 32695 31403 10271 20199 30184 40191 83100 333 58024;
0198830960999992003071800004-10917-037050FM-12+000699999V0201801N002112200019N0020001N1+02471+02111102001ADDAA106000091GF102991021051012501001001KA1240M+02811MA1999999101931MD1999999+0091REMSYN088AAXX  18004 83096 32695 21804 10247 20211 30193 40200 82500 333 10281 29077 55051 58009;EQDQ01  00002PRCP06
0190830960999992003071812004-10917-037050FM-12+000699999V0203201N001010120019N0020001N1+02431+02321102021ADDAY161061AY261061GF106991061051012501001001KA1240N+02281MA1999999101951MD1999999-0021MW1211REMSYN088AAXX  18124 83096 21695 63202 10243 20232 30195 40202 72166 86500 333 20228 59002 60194;
0171830960999992003071818004-10917-037050FM-12+000699999V0201401N001512200019N0020001N1+02521+02291101871ADDAY161061AY261061GF106991041011012501001011MA1999999101811MD1999999-0031MW1211REMSYN082AAXX  18184 83096 21695 61403 10252 20229 30181 40187 72166 84101 333 59003 60061;
0202830960999992003071900004-10917-037050FM-12+000699999V0201401N004610075019N0020001N1+02271+02181102101ADDAY161061AY261061GF108991081051008001999999KA1240M+02771MA1999999102031MD1999999+0101MW1611REMSYN100AAXX  19004 83096 21595 81409 10227 20218 30203 40210 76166 885// 333 10277 29092 55042 58010 60151;
0190830960999992003071912004-10917-037050FM-12+000699999V0201801N004610120019N0020001N1+02401+02051102171ADDAY161061AY261061GF108991081051012501001001KA1240N+02251MA1999999102101MD1999999-0151MW1611REMSYN088AAXX  19124 83096 21695 81809 10240 20205 30210 40217 76166 88500 333 20225 59015 60254;
0148830960999992003071918004-10917-037050FM-12+000699999V0201401N003112200019N0020001N1+02711+02001101961ADDAA106000021GF102991021011012501001001MA1999999101891MD1999999+0081REMSYN070AAXX  19184 83096 32695 21406 10271 20200 30189 40196 82100 333 58008;
0190830960999992003072012004-10917-037050FM-12+000699999V0201401N001512200019N0020001N1+02411+01581101981ADDAY161061AY261061GF106991041011012501001011KA1240N+02201MA1999999101911MD1999999-0191MW1211REMSYN088AAXX  20124 83096 21695 61403 10241 20158 30191 40198 72166 84101 333 20220 59019 60114;
0148830960999992003072018004-10917-037050FM-12+000699999V0201801N003112200019N0020001N1+02741+01891101761ADDAA106000021GF101991011011012501001001MA1999999101691MD1999999-0201REMSYN070AAXX  20184 83096 32695 11806 10274 20189 30169 40176 81100 333 59020;
0186830960999992003072112004-10917-037050FM-12+000699999V0201401N001510120019N0020001N1+02511+02171101951ADDAA106000091GF105991051051012501001001KA1240N+02221MA1999999101881MD1999999-0031REMSYN076AAXX  21124 83096 32695 51403 10251 20217 30188 40195 85500 333 20222 59003;EQDQ01  00002PRCP06
0167830960999992003072118004-10917-037050FM-12+000699999V0200901N002110450019N0020001N1+02631+02101101801ADDAA106000091GF105991031051012501031001MA1999999101731MD1999999+0041REMSYN070AAXX  21184 83096 32695 50904 10263 20210 30173 40180 83530 333 58004;EQDQ01  00002PRCP06
0198830960999992003072200004-10917-037050FM-12+000699999V0200901N003112200019N0020001N1+02531+01981101921ADDAA106000091GF103991031051012501001001KA1240M+02751MA1999999101851MD1999999+0031REMSYN088AAXX  22004 83096 32695 30906 10253 20198 30185 40192 83500 333 10275 29075 55044 58003;EQDQ01  00002PRCP06
0186830960999992003072212004-10917-037050FM-12+000699999V0201401N002612200019N0020001N1+02721+01981102061ADDAA106000091GF101991011011012501001001KA1240N+02411MA1999999101991MD1999999+0111REMSYN076AAXX  22124 83096 32695 11405 10272 20198 30199 40206 81100 333 20241 58011;EQDQ01  00002PRCP06
0167830960999992003072218004-10917-037050FM-12+000699999V0201401N002612200019N0020001N1+02691+02081101851ADDAA106000091GF103991031011012501001001MA1999999101781MD1999999+0051REMSYN070AAXX  22184 83096 32695 31405 10269 20208 30178 40185 83100 333 58005;EQDQ01  00002PRCP06
0198830960999992003072300004-10917-037050FM-12+000699999V0201401N002612200019N0020001N1+02521+02131101961ADDAA106000091GF101991011051012501001001KA1240M+02851MA1999999101891MD1999999+0041REMSYN088AAXX  23004 83096 32695 11405 10252 20213 30189 40196 81500 333 10285 29073 55095 58004;EQDQ01  00002PRCP06
0190830960999992003072312004-10917-037050FM-12+000699999V0201401N002110450019N0020001N1+02591+02081101951ADDAY161061AY261061GF105991021051012501031001KA1240N+02261MA1999999101881MD1999999-0111MW1201REMSYN088AAXX  23124 83096 21695 51404 10259 20208 30188 40195 72066 82530 333 20226 59011 69974;
0171830960999992003072318004-10917-037050FM-12+000699999V0200901N002112200019N0020001N1+02611+02171101811ADDAY161061AY261061GF104991041011012501001001MA1999999101741MD1999999-0041MW1201REMSYN082AAXX  23184 83096 21695 40904 10261 20217 30174 40181 72066 84100 333 59004 69961;
0179830960999992003072400004-10917-037050FM-12+000699999V0200901N003110120019N0020001N1+02571+01951101901ADDAA106000021GF105991051051012501001001KA1240M+02771MA1999999101831MD1999999-0061REMSYN088AAXX  24004 83096 32695 50906 10257 20195 30183 40190 85500 333 10277 29072 55063 59006;
0190830960999992003072412004-10917-037050FM-12+000699999V0201401N003112200019N0020001N1+02641+02311101921ADDAY161061AY261061GF104991031011012501001011KA1240N+02381MA1999999101851MD1999999-0031MW1201REMSYN088AAXX  24124 83096 21695 41406 10264 20231 30185 40192 72066 83101 333 20238 59003 60014;
0148830960999992003072418004-10917-037050FM-12+000699999V0201401N003110120019N0020001N1+02611+02211101711ADDAA106000021GF108991081051012501001001MA1999999101641MD1999999-0101REMSYN070AAXX  24184 83096 32695 81406 10261 20221 30164 40171 88500 333 59010;
0221830960999992003072500004-10917-037050FM-12+000699999V0200901N002610120019N0020001N1+02471+02301101881ADDAY161061AY261061GF108991081051012501001001KA1240M+99999MA1999999101811MD1999999-0021MW1211REMSYN100AAXX  25004 83096 21695 80905 10247 20230 30181 40188 72166 88500 333 10212 29085 55075 59002 60081;EQDQ01 +02122ATMX  
0190830960999992003072512004-10917-037050FM-12+000699999V0201401N001512200019N0020001N1+02681+02061101971ADDAY161061AY261061GF104991041011012501001001KA1240N+02371MA1999999101901MD1999999+0051MW1201REMSYN088AAXX  25124 83096 21695 41403 10268 20206 30190 40197 72066 84100 333 20237 58005 60084;
0171830960999992003072518004-10917-037050FM-12+000699999V0201401N002610075019N0010001N1+02451+02231101791ADDAY161061AY261061GF106991061051008001001001MA1999999101721MD1999999+0081MW1211REMSYN082AAXX  25184 83096 21594 61405 10245 20223 30172 40179 72166 86500 333 58008 60011;
0202830960999992003072600004-10917-037050FM-12+000699999V0201401N001512200019N0020001N1+02471+02131101911ADDAY161061AY261061GF103991031051012501001001KA1240M+02811MA1999999101841MD1999999+0031MW1211REMSYN100AAXX  26004 83096 21695 31403 10247 20213 30184 40191 72166 83500 333 10281 29080 55058 58003 60021;
0190830960999992003072612004-10917-037050FM-12+000699999V0200901N001512200019N0010001N1+02401+02231102041ADDAY161061AY261061GF104991041051008001001001KA1240N+02231MA1999999101971MD1999999+0071MW1211REMSYN088AAXX  26124 83096 21594 40903 10240 20223 30197 40204 72166 84500 333 20223 58007 60114;
0148830960999992003072618004-10917-037050FM-12+000699999V0200901N002112200019N0020001N1+02671+02141101891ADDAA106000021GF103991031011012501001001MA1999999101821MD1999999+0101REMSYN070AAXX  26184 83096 32695 30904 10267 20214 30182 40189 83100 333 58010;
0202830960999992003072700004-10917-037050FM-12+000699999V0201401N002610075019N0020001N1+02511+02031101901ADDAY161061AY261061GF105991051051008001001001KA1240M+02801MA1999999101831MD1999999-0011MW1601REMSYN100AAXX  27004 83096 21595 51405 10251 20203 30183 40190 76066 85500 333 10280 29076 55076 59001 60021;
0190830960999992003072712004-10917-037050FM-12+000699999V0201401N001512200019N0020001N1+02631+02051101981ADDAY161061AY261061GF103991031051012501001001KA1240N+02181MA1999999101911MD1999999+0061MW1211REMSYN088AAXX  27124 83096 21695 31403 10263 20205 30191 40198 72166 83500 333 20218 58006 60084;
0148830960999992003072718004-10917-037050FM-12+000699999V0201401N001512200019N0020001N1+02611+01991101781ADDAA106000021GF103991031011012501001001MA1999999101711MD1999999-0111REMSYN070AAXX  27184 83096 32695 31403 10261 20199 30171 40178 83100 333 59011;
0198830960999992003072800004-10917-037050FM-12+000699999V0201401N003112200019N0020001N1+02411+02031101921ADDAA106000091GF103991021051012501001011KA1240M+02691MA1999999101851MD1999999+0031REMSYN088AAXX  28004 83096 32695 31406 10241 20203 30185 40192 82501 333 10269 29074 55089 58003;EQDQ01  00002PRCP06
0190830960999992003072812004-10917-037050FM-12+000699999V0201401N002610120019N0020001N1+02621+02031101961ADDAY161061AY261061GF108991061011012501001011KA1240N+02221MA1999999101891MD1999999-0021MW1201REMSYN088AAXX  28124 83096 21695 81405 10262 20203 30189 40196 72066 86101 333 20222 59002 69954;
0148830960999992003072818004-10917-037050FM-12+000699999V02099999999992200019N0020001N1+02581+02101101731ADDAA106000021GF106991041051012501001011MA1999999101661MD1999999-0051REMSYN070AAXX  28184 83096 32695 614// 10258 20210 30166 40173 84501 333 59005;
0202830960999992003072900004-10917-037050FM-12+000699999V0201401N002110120019N0020001N1+02511+02071101981ADDAY161061AY261061GF105991051051012501001001KA1240M+02741MA1999999101911MD1999999+0061MW1201REMSYN100AAXX  29004 83096 21695 51404 10251 20207 30191 40198 72066 85500 333 10274 29074 55031 58006 69941;
0190830960999992003072912004-10917-037050FM-12+000699999V0201801N002112200019N0020001N1+02611+01991102021ADDAY161061AY261061GF102991021011012501001001KA1240N+02281MA1999999101951MD1999999+0061MW1201REMSYN088AAXX  29124 83096 21695 21804 10261 20199 30195 40202 72066 82100 333 20228 58006 60044;
0148830960999992003072918004-10917-037050FM-12+000699999V0201801N001512200019N0020001N1+02651+01931101791ADDAA106000021GF103991031011012501001001MA1999999101721MD1999999+0061REMSYN070AAXX  29184 83096 32695 31803 10265 20193 30172 40179 83100 333 58006;
0198830960999992003073000004-10917-037050FM-12+000699999V0201801N001512200019N0020001N1+02471+01971101921ADDAA106000091GF103991031051012501001001KA1240M+02791MA1999999101851MD1999999-0061REMSYN088AAXX  30004 83096 32695 31803 10247 20197 30185 40192 83500 333 10279 29070 55087 59006;EQDQ01  00002PRCP06
0186830960999992003073012004-10917-037050FM-12+000699999V0201401N001012200019N0020001N1+02531+02061102201ADDAA106000091GF104991041011012501001001KA1240N+02201MA1999999101931MD1999999-0021REMSYN076AAXX  30124 83096 32695 41402 10253 20206 30193 40220 84100 333 20220 59002;EQDQ01  00002PRCP06
0167830960999992003073018004-10917-037050FM-12+000699999V0201401N002612200019N0020001N1+02551+02081101771ADDAA106000091GF106991021011012501001011MA1999999101701MD1999999-0021REMSYN070AAXX  30184 83096 32695 61405 10255 20208 30170 40177 82101 333 59002;EQDQ01  00002PRCP06
0198830960999992003073100004-10917-037050FM-12+000699999V0201401N001010120019N0020001N1+02511+01981101881ADDAA106000091GF105991051051012501001001KA1240M+02791MA1999999101811MD1999999-0041REMSYN088AAXX  31004 83096 32695 51402 10251 20198 30181 40188 85500 333 10279 29073 55054 59004;EQDQ01  00002PRCP06
0167830960999992003073118004-10917-037050FM-12+000699999V0201401N002112200019N0020001N1+02671+01951101671ADDAA106000091GF104991041011012501001001MA1999999101601MD1999999-0101REMSYN070AAXX  31184 83096 32695 41404 10267 20195 30160 40167 84100 333 59010;EQDQ01  00002PRCP06
0198830960999992003080100004-10917-037050FM-12+000699999V0200901N002112200019N0020001N1+02491+01831101791ADDAA106000091GF102991021011012501001001KA1240M+02801MA1999999101721MD1999999-0091REMSYN088AAXX  01004 83096 32695 20904 10249 20183 30172 40179 82100 333 10280 29066 55100 59009;EQDQ01  00002PRCP06
0186830960999992003080112004-10917-037050FM-12+000699999V0200901N002112200019N0020001N1+02651+01831101901ADDAA106000091GF102991021011012501001001KA1240N+02391MA1999999101831MD1999999+0041REMSYN076AAXX  01124 83096 32695 20904 10265 20183 30183 40190 82100 333 20239 58004;EQDQ01  00002PRCP06
0167830960999992003080118004-10917-037050FM-12+000699999V0201401N002612200019N0020001N1+02651+02001101711ADDAA106000091GF101991011011012501001001MA1999999101641MD1999999+0041REMSYN070AAXX  01184 83096 32695 11405 10265 20200 30164 40171 81100 333 58004;EQDQ01  00002PRCP06
0198830960999992003080200004-10917-037050FM-12+000699999V0201401N001512200019N0020001N1+02461+01831101871ADDAA106000091GF101991011051012501001001KA1240M+02791MA1999999101801MD1999999+0081REMSYN088AAXX  02004 83096 32695 11403 10246 20183 30180 40187 81500 333 10279 29066 55106 58008;EQDQ01  00002PRCP06
0186830960999992003080212004-10917-037050FM-12+000699999V0201401N002112200019N0020001N1+02691+02031101981ADDAA106000091GF101991011011012501001001KA1240N+02341MA1999999101911MD1999999+0081REMSYN076AAXX  02124 83096 32695 11404 10269 20203 30191 40198 81100 333 20234 58008;EQDQ01  00002PRCP06
0167830960999992003080218004-10917-037050FM-12+000699999V0201401N003112200019N0020001N1+02641+02001101821ADDAA106000091GF101991011011012501001001MA1999999101751MD1999999+0111REMSYN070AAXX  02184 83096 32695 11406 10264 20200 30175 40182 81100 333 58011;EQDQ01  00002PRCP06
0190830960999992003080312004-10917-037050FM-12+000699999V0201401N002612200019N0020001N1+02461+02171102001ADDAY161061AY261061GF103991011011012501001011KA1240N+02281MA1999999101931MD1999999+0021MW1201REMSYN088AAXX  03124 83096 21695 31405 10246 20217 30193 40200 72066 81101 333 20228 58002 60024;
0171830960999992003080318004-10917-037050FM-12+000699999V0201401N002612200019N0020001N1+02611+02101101791ADDAY161061AY261061GF105991031051012501001011MA1999999101721MD1999999-0031MW1201REMSYN082AAXX  03184 83096 21695 51405 10261 20210 30172 40179 72066 83501 333 59003 60011;
0190830960999992003080412004-10917-037050FM-12+000699999V0200901N002112200019N0020001N1+02491+02071101821ADDAY161061AY261061GF102991021011012501001001KA1240N+02301MA1999999101751MD1999999-0181MW1201REMSYN088AAXX  04124 83096 21695 20904 10249 20207 30175 40182 72066 82100 333 20230 59018 60024;
0148830960999992003080418004-10917-037050FM-12+000699999V0200901N001512200019N0020001N1+02651+02031101731ADDAA106000021GF102991021011012501001001MA1999999101661MD1999999-0061REMSYN070AAXX  04184 83096 32695 20903 10265 20203 30166 40173 82100 333 59006;
0198830960999992003080500004-10917-037050FM-12+000699999V0201401N001510120019N0020001N1+02491+01941101741ADDAA106000091GF105991051051012501001001KA1240M+02811MA1999999101671MD1999999-0141REMSYN088AAXX  05004 83096 32695 51403 10249 20194 30167 40174 85500 333 10281 29073 55089 59014;EQDQ01  00002PRCP06
0190830960999992003080512004-10917-037050FM-12+000699999V0200901N003112200019N0020001N1+02611+02031101801ADDAY161061AY261061GF103991031051012501001001KA1240N+02261MA1999999101731MD1999999-0021MW1201REMSYN088AAXX  05124 83096 21695 30906 10261 20203 30173 40180 72066 83500 333 20226 59002 60014;
0198830960999992003080600004-10917-037050FM-12+000699999V0200901N003110120019N0020001N1+02451+02191101871ADDAA106000091GF105991051051012501001001KA1240M+02771MA1999999101801MD1999999+0131REMSYN088AAXX  06004 83096 32695 50906 10245 20219 30180 40187 85500 333 10277 29078 55100 58013;EQDQ01  00002PRCP06
0190830960999992003080612004-10917-037050FM-12+000699999V0200901N002610120019N0020001N1+02401+02211101921ADDAY161061AY261061GF106991061051012501001001KA1240N+02261MA1999999101851MD1999999+0121MW1211REMSYN088AAXX  06124 83096 21695 60905 10240 20221 30185 40192 72166 86500 333 20226 58012 60024;
0148830960999992003080618004-10917-037050FM-12+000699999V0200901N002610120019N0020001N1+02511+02051101711ADDAA106000021GF105991051051012501001001MA1999999101641MD1999999+0081REMSYN070AAXX  06184 83096 32695 50905 10251 20205 30164 40171 85500 333 58008;
0202830960999992003080700004-10917-037050FM-12+000699999V0200901N001510120019N0020001N1+02381+01971101821ADDAY161061AY261061GF105991051051012501001001KA1240M+02711MA1999999101751MD1999999-0051MW1201REMSYN100AAXX  07004 83096 21695 50903 10238 20197 30175 40182 72066 85500 333 10271 29080 55028 59005 69951;
0190830960999992003080712004-10917-037050FM-12+000699999V0203601N001010120019N0020001N1+02381+02091101851ADDAY161061AY261061GF105991051051012501001001KA1240N+02041MA1999999101781MD1999999-0071MW1211REMSYN088AAXX  07124 83096 21695 53602 10238 20209 30178 40185 72166 85500 333 20204 59007 60034;
0171830960999992003080718004-10917-037050FM-12+000699999V0201401N002110075019N0020001N1+02241+02101101731ADDAY151061AY251061GF106991061051008001001001MA1999999101661MD1999999+0021MW1501REMSYN082AAXX  07184 83096 21595 61404 10224 20210 30166 40173 75055 86500 333 58002 69931;
0179830960999992003080800004-10917-037050FM-12+000699999V0200901N001510120019N0020001N1+02401+02111101781ADDAA106000021GF106991061051012501001001KA1240M+02631MA1999999101711MD1999999-0041REMSYN088AAXX  08004 83096 32695 60903 10240 20211 30171 40178 86500 333 10263 29086 55052 59004;
0190830960999992003080812004-10917-037050FM-12+000699999V0200901N003110450019N0020001N1+02591+02011101821ADDAY161061AY261061GF106991031051012501031001KA1240N+02281MA1999999101751MD1999999-0031MW1211REMSYN088AAXX  08124 83096 21695 60906 10259 20201 30175 40182 72166 83530 333 20228 59003 60024;
0148830960999992003080818004-10917-037050FM-12+000699999V0200901N003112200019N0020001N1+02671+01921101631ADDAA106000021GF102991021011012501001001MA1999999101561MD1999999-0101REMSYN070AAXX  08184 83096 32695 20906 10267 20192 30156 40163 82100 333 59010;
0198830960999992003080900004-10917-037050FM-12+000699999V0200901N002112200019N0020001N1+02491+01941101801ADDAA106000091GF102991021011012501001001KA1240M+02791MA1999999101731MD1999999+0021REMSYN088AAXX  09004 83096 32695 20904 10249 20194 30173 40180 82100 333 10279 29069 55103 58002;EQDQ01  00002PRCP06
0190830960999992003080912004-10917-037050FM-12+000699999V0200901N003610075019N0010001N1+02241+02161101991ADDAY161061AY261061GF108991081051008001999999KA1240N+02181MA1999999101921MD1999999+0171MW1611REMSYN088AAXX  09124 83096 21594 80907 10224 20216 30192 40199 76166 885// 333 20218 58017 60214;
0171830960999992003080918004-10917-037050FM-12+000699999V0201401N002110120019N0020001N1+02611+01941101761ADDAY161061AY261061GF106991061051012501001001MA1999999101691MD1999999+0131MW1211REMSYN082AAXX  09184 83096 21695 61404 10261 20194 30169 40176 72166 86500 333 58013 60071;
0190830960999992003081012004-10917-037050FM-12+000699999V0202701N001512200019N0020001N1+02421+02131101901ADDAY161061AY261061GF102991021011012501001001KA1240N+02121MA1999999101831MD1999999-0091MW1211REMSYN088AAXX  10124 83096 21695 22703 10242 20213 30183 40190 72166 82100 333 20212 59009 60094;
0148830960999992003081018004-10917-037050FM-12+000699999V0201801N001512200019N0020001N1+02621+02071101711ADDAA106000021GF101991011011012501001001MA1999999101641MD1999999-0051REMSYN070AAXX  10184 83096 32695 11803 10262 20207 30164 40171 81100 333 59005;
0190830960999992003081112004-10917-037050FM-12+000699999V0202701N001510120019N0020001N1+02401+02231101901ADDAY161061AY261061GF108991081051012501999999KA1240N+02201MA1999999101831MD1999999+0001MW1211REMSYN088AAXX  11124 83096 21695 82703 10240 20223 30183 40190 72166 885// 333 20220 58000 60064;
0148830960999992003081118004-10917-037050FM-12+000699999V0201401N002612200019N0020001N1+02631+02231101601ADDAA106000021GF106991041011012501001011MA1999999101531MD1999999-0111REMSYN070AAXX  11184 83096 32695 61405 10263 20223 30153 40160 84101 333 59011;
0202830960999992003081200004-10917-037050FM-12+000699999V0201401N001512200019N0020001N1+02471+02171101821ADDAY161061AY261061GF105991031051012501001011KA1240M+02811MA1999999101751MD1999999+0071MW1201REMSYN100AAXX  12004 83096 21695 51403 10247 20217 30175 40182 72066 83501 333 10281 29083 55037 58007 69921;
0190830960999992003081212004-10917-037050FM-12+000699999V0202701N001510120019N0020001N1+02401+02301101901ADDAY161061AY261061GF106991061051012501001001KA1240N+02221MA1999999101831MD1999999+0001MW1201REMSYN088AAXX  12124 83096 21695 62703 10240 20230 30183 40190 72066 86500 333 20222 58000 60034;
0171830960999992003081218004-10917-037050FM-12+000699999V0201401N002612200019N0020001N1+02651+02141101641ADDAY161061AY261061GF101991011011012501001001MA1999999101571MD1999999+0041MW1211REMSYN082AAXX  12184 83096 21695 11405 10265 20214 30157 40164 72166 81100 333 58004 60021;
0202830960999992003081300004-10917-037050FM-12+000699999V0202701N001510450019N0020001N1+02321+02151101881ADDAY161061AY261061GF105991031051012501071001KA1240M+02751MA1999999101811MD1999999+0061MW1201REMSYN100AAXX  13004 83096 21695 52703 10232 20215 30181 40188 72066 83570 333 10275 29087 55036 58006 69961;
0190830960999992003081312004-10917-037050FM-12+000699999V0201401N002612200019N0020001N1+02611+02031101941ADDAY161061AY261061GF102991021011012501001001KA1240N+02201MA1999999101871MD1999999+0041MW1211REMSYN088AAXX  13124 83096 21695 21405 10261 20203 30187 40194 72166 82100 333 20220 58004 60104;
0148830960999992003081318004-10917-037050FM-12+000699999V0201401N002112200019N0020001N1+02641+02091101661ADDAA106000021GF102991021011012501001001MA1999999101591MD1999999+0021REMSYN070AAXX  13184 83096 32695 21404 10264 20209 30159 40166 82100 333 58002;
0198830960999992003081400004-10917-037050FM-12+000699999V0201401N002112200019N0020001N1+02511+02021101901ADDAA106000091GF102991021051012501001001KA1240M+02801MA1999999101831MD1999999+0021REMSYN088AAXX  14004 83096 32695 21404 10251 20202 30183 40190 82500 333 10280 29072 55100 58002;EQDQ01  00002PRCP06
0190830960999992003081412004-10917-037050FM-12+000699999V0200901N003112200019N0020001N1+02651+02221101921ADDAY161061AY261061GF103991031011012501001001KA1240N+02241MA1999999101851MD1999999-0021MW1211REMSYN088AAXX  14124 83096 21695 30906 10265 20222 30185 40192 72166 83100 333 20224 59002 60044;
0148830960999992003081418004-10917-037050FM-12+000699999V0200901N002610120019N0020001N1+02671+02131101641ADDAA106000021GF105991051011012501001001MA1999999101571MD1999999-0021REMSYN070AAXX  14184 83096 32695 50905 10267 20213 30157 40164 85100 333 59002;
0198830960999992003081500004-10917-037050FM-12+000699999V0201401N001012200019N0020001N1+02501+02001101821ADDAA106000091GF102991021051012501001001KA1240M+02781MA1999999101751MD1999999-0081REMSYN088AAXX  15004 83096 32695 21402 10250 20200 30175 40182 82500 333 10278 29074 55082 59008;EQDQ01  00002PRCP06
0186830960999992003081512004-10917-037050FM-12+000699999V0201801N002110120019N0020001N1+02551+02171101881ADDAA106000091GF108991081051012501001001KA1240N+02251MA1999999101811MD1999999-0041REMSYN076AAXX  15124 83096 32695 81804 10255 20217 30181 40188 88500 333 20225 59004;EQDQ01  00002PRCP06
0171830960999992003081518004-10917-037050FM-12+000699999V0201401N003110075019N0020001N1+02401+02231101611ADDAY161061AY261061GF108991081071008001999999MA1999999101541MD1999999-0031MW1601REMSYN082AAXX  15184 83096 21595 81406 10240 20223 30154 40161 76066 887// 333 59003 60021;
0202830960999992003081600004-10917-037050FM-12+000699999V0201401N001010120019N0020001N1+02491+02111101801ADDAY161061AY261061GF106991061051012501001001KA1240M+02801MA1999999101731MD1999999-0021MW1201REMSYN100AAXX  16004 83096 21695 61402 10249 20211 30173 40180 72066 86500 333 10280 29082 55025 59002 69941;
0190830960999992003081612004-10917-037050FM-12+000699999V0200501N002110120019N0020001N1+02511+02381101761ADDAY161061AY261061GF108991081051012501001001KA1240N+02281MA1999999101691MD1999999-0121MW1201REMSYN088AAXX  16124 83096 21695 80504 10251 20238 30169 40176 72066 88500 333 20228 59012 60034;
0148830960999992003081618004-10917-037050FM-12+000699999V0200901N003110120019N0020001N1+02631+02271101471ADDAA106000021GF108991081071012501001001MA1999999101401MD1999999-0141REMSYN070AAXX  16184 83096 32695 80906 10263 20227 30140 40147 88700 333 59014;
0186830960999992003081712004-10917-037050FM-12+000699999V0200501N003110120019N0020001N1+02571+02371101761ADDAA106000091GF108991081051012501001001KA1240N+02301MA1999999101691MD1999999+0001REMSYN076AAXX  17124 83096 32695 80506 10257 20237 30169 40176 88500 333 20230 58000;EQDQ01  00002PRCP06
0167830960999992003081718004-10917-037050FM-12+000699999V02099999999992200019N0020001N1+02681+02261101531ADDAA106000091GF105991031011012501001011MA1999999101461MD1999999+0061REMSYN070AAXX  17184 83096 32695 509// 10268 20226 30146 40153 83101 333 58006;EQDQ01  00002PRCP06
0186830960999992003081812004-10917-037050FM-12+000699999V0200901N003110450019N0020001N1+02651+02141101981ADDAA106000091GF105991031051012501031001KA1240N+02301MA1999999101911MD1999999+0221REMSYN076AAXX  18124 83096 32695 50906 10265 20214 30191 40198 83530 333 20230 58022;EQDQ01  00002PRCP06
0167830960999992003081818004-10917-037050FM-12+000699999V0200901N002112200019N0020001N1+02721+01981101891ADDAA106000091GF102991021011012501001001MA1999999101821MD1999999+0361REMSYN070AAXX  18184 83096 32695 20904 10272 20198 30182 40189 82100 333 58036;EQDQ01  00002PRCP06
0198830960999992003081900004-10917-037050FM-12+000699999V0201401N001512200019N0020001N1+02511+02071102051ADDAA106000091GF102991021051012501001001KA1240M+02831MA1999999101981MD1999999+0321REMSYN088AAXX  19004 83096 32695 21403 10251 20207 30198 40205 82500 333 10283 29072 55104 58032;EQDQ01  00002PRCP06
0190830960999992003081912004-10917-037050FM-12+000699999V0201401N001512200019N0020001N1+02591+02151102201ADDAY161061AY261061GF104991041051012501031001KA1240N+02301MA1999999102131MD1999999+0221MW1201REMSYN088AAXX  19124 83096 21695 41403 10259 20215 30213 40220 72066 84530 333 20230 58022 69984;
0171830960999992003081918004-10917-037050FM-12+000699999V0201401N002110075019N0010001N1+02511+02151101931ADDAY161061AY261061GF108991081051008001999999MA1999999101861MD1999999+0041MW1201REMSYN082AAXX  19184 83096 21594 81404 10251 20215 30186 40193 72066 885// 333 58004 69941;
0202830960999992003082000004-10917-037050FM-12+000699999V0201401N001510120019N0020001N1+02361+02131102121ADDAY161061AY261061GF108991081071012501999999KA1240M+02751MA1999999102051MD1999999+0071MW1211REMSYN100AAXX  20004 83096 21695 81403 10236 20213 30205 40212 72166 887// 333 10275 29084 55025 58007 60021;
0190830960999992003082012004-10917-037050FM-12+000699999V0201801N002610075019N0010001N1+02401+02231101991ADDAY161061AY261061GF106991061051008001001001KA1240N+02241MA1999999101921MD1999999-0231MW1601REMSYN088AAXX  20124 83096 21594 61805 10240 20223 30192 40199 76066 86500 333 20224 59023 60104;
0171830960999992003082018004-10917-037050FM-12+000699999V0200901N002112200019N0020001N1+02631+02271101801ADDAY161061AY261061GF103991031011012501001001MA1999999101731MD1999999-0131MW1201REMSYN082AAXX  20184 83096 21695 30904 10263 20227 30173 40180 72066 83100 333 59013 69981;
0202830960999992003082100004-10917-037050FM-12+000699999V0201401N001010120019N0020001N1+02381+02211101861ADDAY161061AY261061GF108991081051012501999999KA1240M+02711MA1999999101791MD1999999+0061MW1211REMSYN100AAXX  21004 83096 21695 81402 10238 20221 30179 40186 72166 885// 333 10271 29088 55043 58006 60031;
0190830960999992003082112004-10917-037050FM-12+000699999V0200901N003112200019N0020001N1+02691+01971101811ADDAY161061AY261061GF103991031011012501001001KA1240N+02331MA1999999101741MD1999999-0181MW1201REMSYN088AAXX  21124 83096 21695 30906 10269 20197 30174 40181 72066 83100 333 20233 59018 60054;
0148830960999992003082118004-10917-037050FM-12+000699999V0201401N002112200019N0020001N1+02711+02061101641ADDAA106000021GF104991041011012501001001MA1999999101571MD1999999-0161REMSYN070AAXX  21184 83096 32695 41404 10271 20206 30157 40164 84100 333 59016;
0198830960999992003082200004-10917-037050FM-12+000699999V0201401N001510120019N0020001N1+02491+02111101661ADDAA106000091GF105991051051012501001001KA1240M+02771MA1999999101591MD1999999-0201REMSYN088AAXX  22004 83096 32695 51403 10249 20211 30159 40166 85500 333 10277 29073 55105 59020;EQDQ01  00002PRCP06
0190830960999992003082212004-10917-037050FM-12+000699999V0203601N001512200019N0020001N1+02471+02191101761ADDAY161061AY261061GF104991041051008001001001KA1240N+02281MA1999999101691MD1999999-0051MW1501REMSYN088AAXX  22124 83096 21595 43603 10247 20219 30169 40176 75066 84500 333 20228 59005 69954;
0148830960999992003082218004-10917-037050FM-12+000699999V0200901N002612200019N0020001N1+02691+02131101611ADDAA106000021GF103991031051012501001001MA1999999101541MD1999999-0031REMSYN070AAXX  22184 83096 32695 30905 10269 20213 30154 40161 83500 333 59003;
0198830960999992003082300004-10917-037050FM-12+000699999V0201401N003110120019N0020001N1+02501+02111101781ADDAA106000091GF108991081051012501001001KA1240M+02811MA1999999101711MD1999999+0121REMSYN088AAXX  23004 83096 32695 81406 10250 20211 30171 40178 88500 333 10281 29079 55081 58012;EQDQ01  00002PRCP06
0190830960999992003082312004-10917-037050FM-12+000699999V0201401N001512200019N0020001N1+02671+01871101901ADDAY161061AY261061GF102991021011012501001001KA1240N+02281MA1999999101831MD1999999+0141MW1201REMSYN088AAXX  23124 83096 21695 21403 10267 20187 30183 40190 72066 82100 333 20228 58014 60014;
0148830960999992003082318004-10917-037050FM-12+000699999V0200901N001512200019N0020001N1+02651+01951101731ADDAA106000021GF101991011011012501001001MA1999999101661MD1999999+0121REMSYN070AAXX  23184 83096 32695 10903 10265 20195 30166 40173 81100 333 58012;
0190830960999992003082412004-10917-037050FM-12+000699999V0201401N001512200019N0020001N1+02531+02191101881ADDAY161061AY261061GF104991021051012501031001KA1240N+02151MA1999999101811MD1999999-0021MW1201REMSYN088AAXX  24124 83096 21695 41403 10253 20219 30181 40188 72066 82530 333 20215 59002 69954;
0148830960999992003082418004-10917-037050FM-12+000699999V0201801N002112200019N0020001N1+02551+02091101581ADDAA106000021GF102991021011012501001001MA1999999101511MD1999999-0151REMSYN070AAXX  24184 83096 32695 21804 10255 20209 30151 40158 82100 333 59015;
0190830960999992003082512004-10917-037050FM-12+000699999V0200901N001510120019N0020001N1+02441+02131101791ADDAY161061AY261061GF108991081071012501001001KA1240N+02181MA1999999101721MD1999999-0091MW1201REMSYN088AAXX  25124 83096 21695 80903 10244 20213 30172 40179 72066 88700 333 20218 59009 60034;
0148830960999992003082518004-10917-037050FM-12+000699999V0201401N003112200019N0020001N1+02631+02271101411ADDAA106000021GF103991011011012501001011MA1999999101341MD1999999-0171REMSYN070AAXX  25184 83096 32695 31406 10263 20227 30134 40141 81101 333 59017;
0198830960999992003082600004-10917-037050FM-12+000699999V0200901N002612200019N0020001N1+02501+02131101651ADDAA106000091GF101991011011012501001001KA1240M+02751MA1999999101581MD1999999-0111REMSYN088AAXX  26004 83096 32695 10905 10250 20213 30158 40165 81100 333 10275 29082 55078 59011;EQDQ01  00002PRCP06
0186830960999992003082612004-10917-037050FM-12+000699999V0200501N003112200019N0020001N1+02711+02221101681ADDAA106000091GF103991031011012501001001KA1240N+02221MA1999999101611MD1999999+0031REMSYN076AAXX  26124 83096 32695 30506 10271 20222 30161 40168 83100 333 20222 58003;EQDQ01  00002PRCP06
0167830960999992003082618004-10917-037050FM-12+000699999V0200901N005112200019N0020001N1+02711+02261101351ADDAA106000091GF102991021011012501001001MA1999999101281MD1999999-0061REMSYN070AAXX  26184 83096 32695 20910 10271 20226 30128 40135 82100 333 59006;EQDQ01  00002PRCP06
0198830960999992003082700004-10917-037050FM-12+000699999V0200901N004112200019N0020001N1+02551+02271101671ADDAA106000091GF103991031051012501001001KA1240M+02811MA1999999101601MD1999999+0021REMSYN088AAXX  27004 83096 32695 30908 10255 20227 30160 40167 83500 333 10281 29080 55102 58002;EQDQ01  00002PRCP06
0190830960999992003082712004-10917-037050FM-12+000699999V0200901N003110120019N0020001N1+02611+02371101781ADDAY161061AY261061GF108991081071012501001001KA1240N+02241MA1999999101711MD1999999+0101MW1201REMSYN088AAXX  27124 83096 21695 80906 10261 20237 30171 40178 72066 88700 333 20224 58010 69924;
0171830960999992003082718004-10917-037050FM-12+000699999V0200901N004110120019N0020001N1+02451+02301101551ADDAY161061AY261061GF108991061071012501021001MA1999999101481MD1999999+0201MW1201REMSYN082AAXX  27184 83096 21695 80908 10245 20230 30148 40155 72066 86720 333 58020 69961;
0202830960999992003082800004-10917-037050FM-12+000699999V0201401N001510120019N0020001N1+02311+02251101781ADDAY161061AY261061GF108991081051012501001001KA1240M+02791MA1999999101711MD1999999+0111MW1211REMSYN100AAXX  28004 83096 21695 81403 10231 20225 30171 40178 72166 88500 333 10279 29092 55020 58011 60041;
0190830960999992003082812004-10917-037050FM-12+000699999V0200901N003110120019N0020001N1+02631+02291101831ADDAY161061AY261061GF108991081011012501001001KA1240N+02261MA1999999101761MD1999999+0051MW1211REMSYN088AAXX  28124 83096 21695 80906 10263 20229 30176 40183 72166 88100 333 20226 58005 60054;
0148830960999992003082818004-10917-037050FM-12+000699999V0200901N005112200019N0020001N1+02691+02151101661ADDAA106000021GF103991031011012501001001MA1999999101591MD1999999+0101REMSYN070AAXX  28184 83096 32695 30910 10269 20215 30159 40166 83100 333 58010;
0198830960999992003082900004-10917-037050FM-12+000699999V0200901N003112200019N0020001N1+02501+02131101731ADDAA106000091GF103991031051012501001001KA1240M+02831MA1999999101661MD1999999-0051REMSYN088AAXX  29004 83096 32695 30906 10250 20213 30166 40173 83500 333 10283 29078 55072 59005;EQDQ01  00002PRCP06
0190830960999992003082912004-10917-037050FM-12+000699999V0200901N004112200019N0020001N1+02671+02221101801ADDAY161061AY261061GF102991021011012501001001KA1240N+02251MA1999999101731MD1999999-0031MW1201REMSYN088AAXX  29124 83096 21695 20908 10267 20222 30173 40180 72066 82100 333 20225 59003 60014;
0148830960999992003082918004-10917-037050FM-12+000699999V02099999999992200019N0020001N1+02711+02171101551ADDAA106000021GF102991011011012501001011MA1999999101481MD1999999-0111REMSYN070AAXX  29184 83096 32695 209// 10271 20217 30148 40155 81101 333 59011;
0198830960999992003083000004-10917-037050FM-12+000699999V0200901N003112200019N0020001N1+02491+02111101771ADDAA106000091GF101991011051012501001001KA1240M+02811MA1999999101701MD1999999+0041REMSYN088AAXX  30004 83096 32695 10906 10249 20211 30170 40177 81500 333 10281 29077 55086 58004;EQDQ01  00002PRCP06
0186830960999992003083012004-10917-037050FM-12+000699999V0200901N003110120019N0020001N1+02681+02201101911ADDAA106000091GF106991061011012501001001KA1240N+02261MA1999999101841MD1999999+0111REMSYN076AAXX  30124 83096 32695 60906 10268 20220 30184 40191 86100 333 20226 58011;EQDQ01  00002PRCP06
0167830960999992003083018004-10917-037050FM-12+000699999V0201401N002612200019N0020001N1+02671+02161101701ADDAA106000091GF103991031011012501001001MA1999999101631MD1999999+0151REMSYN070AAXX  30184 83096 32695 31405 10267 20216 30163 40170 83100 333 58015;EQDQ01  00002PRCP06
0186830960999992003083112004-10917-037050FM-12+000699999V0201401N002612200019N0020001N1+02671+02261102011ADDAA106000091GF106991041011012501001011KA1240N+02221MA1999999101941MD1999999+0101REMSYN076AAXX  31124 83096 32695 61405 10267 20226 30194 40201 84101 333 20222 58010;EQDQ01  00002PRCP06
0167830960999992003083118004-10917-037050FM-12+000699999V0201401N003110120019N0020001N1+02661+02161101741ADDAA106000091GF105991051011012501001001MA1999999101671MD1999999+0041REMSYN070AAXX  31184 83096 32695 51406 10266 20216 30167 40174 85100 333 58004;EQDQ01  00002PRCP06
0190830960999992003090112004-10917-037050FM-12+000699999V0201401N002110120019N0020001N1+02611+02101101941ADDAY161061AY261061GF106991061051012501001001KA1240N+02211MA1999999101871MD1999999-0071MW1211REMSYN088AAXX  01124 83096 21695 61404 10261 20210 30187 40194 72166 86500 333 20221 59007 60044;
0171830960999992003090118004-10917-037050FM-12+000699999V0200901N002612200019N0020001N1+02651+02071101811ADDAY161061AY261061GF102991021011012501001001MA1999999101741MD1999999+0071MW1211REMSYN082AAXX  01184 83096 21695 20905 10265 20207 30174 40181 72166 82100 333 58007 60091;
0179830960999992003090200004-10917-037050FM-12+000699999V0200901N001512200019N0020001N1+02511+02031101911ADDAA106000021GF103991031011012501001001KA1240M+02761MA1999999101841MD1999999+0051REMSYN088AAXX  02004 83096 32695 30903 10251 20203 30184 40191 83100 333 10276 29074 55073 58005;
0190830960999992003090212004-10917-037050FM-12+000699999V0201401N001512200019N0020001N1+02471+02191102001ADDAY161061AY261061GF104991041011012501001001KA1240N+02331MA1999999101931MD1999999+0061MW1211REMSYN088AAXX  02124 83096 21695 41403 10247 20219 30193 40200 72166 84100 333 20233 58006 60124;
0171830960999992003090218004-10917-037050FM-12+000699999V0201801N001512200019N0020001N1+02381+02241101851ADDAY161061AY261061GF104991041051008001001001MA1999999101781MD1999999+0041MW1201REMSYN082AAXX  02184 83096 21595 41803 10238 20224 30178 40185 72066 84500 333 58004 60011;
0202830960999992003090300004-10917-037050FM-12+000699999V0202701N001510075019N0020001N1+02241+02121101981ADDAY161061AY261061GF106991061051008001001001KA1240M+02761MA1999999101911MD1999999+0071MW1601REMSYN100AAXX  03004 83096 21595 62703 10224 20212 30191 40198 76066 86500 333 10276 29091 55042 58007 60141;
0162830960999992003090312004-10917-037050FM-12+000699999V0201401N001510450019N0020001N1+02651+02121102061ADDGF105991031051012501031001KA1240N+02141MA1999999101991MD1999999+0061REMSYN082AAXX  03124 83096 22695 51403 10265 20212 30199 40206 83530 333 20214 58006 60164;
0167830960999992003090318004-10917-037050FM-12+000699999V0201401N002112200019N0020001N1+02691+02111101891ADDAA106000091GF103991031011012501001001MA1999999101821MD1999999+0041REMSYN070AAXX  03184 83096 32695 31404 10269 20211 30182 40189 83100 333 58004;EQDQ01  00002PRCP06
0137830960999992003090400004-10917-037050FM-12+000699999V0201801N003112200019N0020001N1+02411+02211999999ADDGF104991999999012501999999REMSYN099AAXX  04004 83096 21695 41806 10241 20221 3193 40200 72066 84500 333 10281 29080 55099 58002 60011;
0190830960999992003090412004-10917-037050FM-12+000699999V0200901N002110450019N0020001N1+02551+02151102101ADDAY161061AY261061GF106991041051008001031001KA1240N+02331MA1999999102031MD1999999+0041MW1601REMSYN088AAXX  04124 83096 21595 60904 10255 20215 30203 40210 76066 84530 333 20233 58004 60074;
0148830960999992003090418004-10917-037050FM-12+000699999V0201401N002112200019N0020001N1+02691+02111101891ADDAA106000021GF103991031011012501001001MA1999999101821MD1999999+0001REMSYN070AAXX  04184 83096 32695 31404 10269 20211 30182 40189 83100 333 58000;
0198830960999992003090500004-10917-037050FM-12+000699999V0201401N002112200019N0020001N1+02551+02041102081ADDAA106000091GF102991021011012501001001KA1240M+02781MA1999999102011MD1999999+0081REMSYN088AAXX  05004 83096 32695 21404 10255 20204 30201 40208 82100 333 10278 29074 55083 58008;EQDQ01  00002PRCP06
0190830960999992003090512004-10917-037050FM-12+000699999V0200901N003612200019N0020001N1+02651+02141102111ADDAY161061AY261061GF103991031011012501001001KA1240N+02341MA1999999102041MD1999999+0011MW1211REMSYN088AAXX  05124 83096 21695 30907 10265 20214 30204 40211 72166 83100 333 20234 58001 60014;
0148830960999992003090518004-10917-037050FM-12+000699999V0200901N003112200019N0020001N1+02711+02151101881ADDAA106000021GF104991041011012501001001MA1999999101811MD1999999-0011REMSYN070AAXX  05184 83096 32695 40906 10271 20215 30181 40188 84100 333 59001;
0198830960999992003090600004-10917-037050FM-12+000699999V0200901N002612200019N0020001N1+02531+02131102001ADDAA106000091GF103991031051012501001001KA1240M+02801MA1999999101931MD1999999-0081REMSYN088AAXX  06004 83096 32695 30905 10253 20213 30193 40200 83500 333 10280 29076 55092 59008;EQDQ01  00002PRCP06
0190830960999992003090612004-10917-037050FM-12+000699999V0200901N005110075019N0010001N1+02491+02131101981ADDAY161061AY261061GF108991081051008001999999KA1240N+02371MA1999999101911MD1999999-0131MW1601REMSYN088AAXX  06124 83096 21594 80910 10249 20213 30191 40198 76066 885// 333 20237 59013 60034;
0148830960999992003090618004-10917-037050FM-12+000699999V0201401N001512200019N0020001N1+02691+02021101751ADDAA106000021GF104991041011012501001001MA1999999101681MD1999999-0131REMSYN070AAXX  06184 83096 32695 41403 10269 20202 30168 40175 84100 333 59013;
0186830960999992003090712004-10917-037050FM-12+000699999V0200901N002610450019N0020001N1+02571+02021101921ADDAA106000091GF105991031051012501031001KA1240N+02401MA1999999101851MD1999999-0061REMSYN076AAXX  07124 83096 32695 50905 10257 20202 30185 40192 83530 333 20240 59006;EQDQ01  00002PRCP06
0167830960999992003090718004-10917-037050FM-12+000699999V0201401N002112200019N0020001N1+02651+01951101691ADDAA106000091GF102991021011012501001001MA1999999101621MD1999999-0061REMSYN070AAXX  07184 83096 32695 21404 10265 20195 30162 40169 82100 333 59006;EQDQ01  00002PRCP06
0198830960999992003090800004-10917-037050FM-12+000699999V0201401N002112200019N0020001N1+02491+01871101861ADDAA106000091GF103991031051012501001001KA1240M+02771MA1999999101791MD1999999+0021REMSYN088AAXX  08004 83096 32695 31404 10249 20187 30179 40186 83500 333 10277 29069 55088 58002;EQDQ01  00002PRCP06
0190830960999992003090812004-10917-037050FM-12+000699999V0201401N003112200019N0020001N1+02701+02131101931ADDAY161061AY261061GF106991041051012501001011KA1240N+02381MA1999999101871MD1999999+0021MW1201REMSYN088AAXX  08124 83096 21695 61406 10270 20213 30187 40193 72066 84501 333 20238 58002 69924;
0148830960999992003090818004-10917-037050FM-12+000699999V0200901N005110120019N0020001N1+02441+02231101671ADDAA106000021GF108991081051012501001001MA1999999101601MD1999999-0021REMSYN070AAXX  08184 83096 32695 80910 10244 20223 30160 40167 88500 333 59002;
0202830960999992003090900004-10917-037050FM-12+000699999V0200901N003110120019N0020001N1+02261+02141101881ADDAY161061AY261061GF108991081051012501001001KA1240M+02821MA1999999101811MD1999999+0021MW1211REMSYN100AAXX  09004 83096 21695 80906 10226 20214 30181 40188 72166 88500 333 10282 29086 55066 58002 60091;
0190830960999992003090912004-10917-037050FM-12+000699999V0200901N003110120019N0020001N1+02631+02291101961ADDAY161061AY261061GF105991051051012501001001KA1240N+02241MA1999999101891MD1999999+0021MW1201REMSYN088AAXX  09124 83096 21695 50906 10263 20229 30189 40196 72066 85500 333 20224 58002 60104;
0202830960999992003091000004-10917-037050FM-12+000699999V0201401N003110120019N0020001N1+02411+02211101851ADDAY161061AY261061GF106991061051012501001001KA1240M+02831MA1999999101781MD1999999-0031MW1201REMSYN100AAXX  10004 83096 21695 61406 10241 20221 30178 40185 72066 86500 333 10283 29083 55102 59003 69921;
0190830960999992003091012004-10917-037050FM-12+000699999V0200901N003110120019N0020001N1+02641+02331101881ADDAY161061AY261061GF108991061011012501001011KA1240N+02241MA1999999101811MD1999999-0081MW1211REMSYN088AAXX  10124 83096 21695 80906 10264 20233 30181 40188 72166 86101 333 20224 59008 60034;
0148830960999992003091018004-10917-037050FM-12+000699999V0200901N004112200019N0020001N1+02691+02171101551ADDAA106000021GF102991021011012501001001MA1999999101481MD1999999-0071REMSYN070AAXX  10184 83096 32695 20908 10269 20217 30148 40155 82100 333 59007;
0198830960999992003091100004-10917-037050FM-12+000699999V0200901N004112200019N0020001N1+02501+02111101771ADDAA106000091GF102991021051012501001001KA1240M+02821MA1999999101701MD1999999-0081REMSYN088AAXX  11004 83096 32695 20908 10250 20211 30170 40177 82500 333 10282 29078 55096 59008;EQDQ01  00002PRCP06
0186830960999992003091112004-10917-037050FM-12+000699999V0200901N003112200019N0020001N1+02661+02091101881ADDAA106000091GF103991031011012501001001KA1240N+02281MA1999999101811MD1999999+0001REMSYN076AAXX  11124 83096 32695 30906 10266 20209 30181 40188 83100 333 20228 58000;EQDQ01  00002PRCP06
0167830960999992003091118004-10917-037050FM-12+000699999V0201401N003112200019N0020001N1+02661+02091101511ADDAA106000091GF103991031011012501001001MA1999999101441MD1999999-0041REMSYN070AAXX  11184 83096 32695 31406 10266 20209 30144 40151 83100 333 59004;EQDQ01  00002PRCP06
0198830960999992003091200004-10917-037050FM-12+000699999V0200901N002112200019N0020001N1+02571+02171101771ADDAA106000091GF103991031051012501001001KA1240M+02811MA1999999101701MD1999999+0001REMSYN088AAXX  12004 83096 32695 30904 10257 20217 30170 40177 83500 333 10281 29074 55105 58000;EQDQ01  00002PRCP06
0186830960999992003091212004-10917-037050FM-12+000699999V0201401N002112200019N0020001N1+02701+02171101981ADDAA106000091GF108991041011012501001011KA1240N+02301MA1999999101911MD1999999+0101REMSYN076AAXX  12124 83096 32695 81404 10270 20217 30191 40198 84101 333 20230 58010;EQDQ01  00002PRCP06
0202830960999992003091300004-10917-037050FM-12+000699999V0201401N001510120019N0020001N1+02411+02191101881ADDAY161061AY261061GF106991061051012501001001KA1240M+02841MA1999999101811MD1999999+0111MW1201REMSYN100AAXX  13004 83096 21695 61403 10241 20219 30181 40188 72066 86500 333 10284 29082 55076 58011 69961;
0190830960999992003091312004-10917-037050FM-12+000699999V0201401N002612200019N0020001N1+02701+02031101971ADDAY161061AY261061GF102991021011012501001001KA1240N+02261MA1999999101901MD1999999-0011MW1201REMSYN088AAXX  13124 83096 21695 21405 10270 20203 30190 40197 72066 82100 333 20226 59001 69964;
0148830960999992003091318004-10917-037050FM-12+000699999V0201401N002612200019N0020001N1+02661+02071101651ADDAA106000021GF101991011011012501001001MA1999999101581MD1999999-0051REMSYN070AAXX  13184 83096 32695 11405 10266 20207 30158 40165 81100 333 59005;
0167830960999992003091418004-10917-037050FM-12+000699999V0201401N003112200019N0020001N1+02711+02191101571ADDAA106000091GF102991021011012501001001MA1999999101501MD1999999-0081REMSYN070AAXX  14184 83096 32695 21406 10271 20219 30150 40157 82100 333 59008;EQDQ01  00002PRCP06
0186830960999992003091512004-10917-037050FM-12+000699999V0201401N002612200019N0020001N1+02651+01801101791ADDAA106000091GF102991021011012501001001KA1240N+02261MA1999999101721MD1999999-0101REMSYN076AAXX  15124 83096 32695 21405 10265 20180 30172 40179 82100 333 20226 59010;EQDQ01  00002PRCP06
0167830960999992003091618004-10917-037050FM-12+000699999V0201401N002112200019N0020001N1+02691+02021101461ADDAA106000091GF103991031011012501001001MA1999999101391MD1999999-0231REMSYN070AAXX  16184 83096 32695 31404 10269 20202 30139 40146 83100 333 59023;EQDQ01  00002PRCP06
0198830960999992003091700004-10917-037050FM-12+000699999V0201401N002612200019N0020001N1+02471+02071101641ADDAA106000091GF104991041051012501001001KA1240M+02831MA1999999101571MD1999999-0061REMSYN088AAXX  17004 83096 32695 41405 10247 20207 30157 40164 84500 333 10283 29074 55096 59006;EQDQ01  00002PRCP06
0186830960999992003091712004-10917-037050FM-12+000699999V0200901N002112200019N0020001N1+02691+02201101731ADDAA106000091GF104991041011012501001001KA1240N+02431MA1999999101661MD1999999-0061REMSYN076AAXX  17124 83096 32695 40904 10269 20220 30166 40173 84100 333 20243 59006;EQDQ01  00002PRCP06
0167830960999992003091718004-10917-037050FM-12+000699999V0200901N002112200019N0020001N1+02711+02151101491ADDAA106000091GF102991021011012501001001MA1999999101421MD1999999+0031REMSYN070AAXX  17184 83096 32695 20904 10271 20215 30142 40149 82100 333 58003;EQDQ01  00002PRCP06
0198830960999992003091800004-10917-037050FM-12+000699999V0200901N003112200019N0020001N1+02531+02111101571ADDAA106000091GF101991011011012501001001KA1240M+02831MA1999999101501MD1999999-0071REMSYN088AAXX  18004 83096 32695 10906 10253 20211 30150 40157 81100 333 10283 29076 55109 59007;EQDQ01  00002PRCP06
0190830960999992003091812004-10917-037050FM-12+000699999V0200901N002612200019N0020001N1+02631+02211101711ADDAY161061AY261061GF104991041011012501001001KA1240N+02391MA1999999101641MD1999999-0021MW1201REMSYN088AAXX  18124 83096 21695 40905 10263 20221 30164 40171 72066 84100 333 20239 59002 69934;
0148830960999992003091818004-10917-037050FM-12+000699999V0200901N002612200019N0020001N1+02731+02241101551ADDAA106000021GF102991021011012501001001MA1999999101481MD1999999+0061REMSYN070AAXX  18184 83096 32695 20905 10273 20224 30148 40155 82100 333 58006;
0198830960999992003091900004-10917-037050FM-12+000699999V0200901N002112200019N0020001N1+02531+02071101681ADDAA106000091GF102991021011012501001001KA1240M+02861MA1999999101611MD1999999+0111REMSYN088AAXX  19004 83096 32695 20904 10253 20207 30161 40168 82100 333 10286 29076 55088 58011;EQDQ01  00002PRCP06
0186830960999992003091912004-10917-037050FM-12+000699999V0201401N002112200019N0020001N1+02751+02071101701ADDAA106000091GF102991021011012501001001KA1240N+02431MA1999999101631MD1999999-0011REMSYN076AAXX  19124 83096 32695 21404 10275 20207 30163 40170 82100 333 20243 59001;EQDQ01  00002PRCP06
0167830960999992003091918004-10917-037050FM-12+000699999V0201401N002112200019N0020001N1+02751+02101101441ADDAA106000091GF102991021011012501001001MA1999999101371MD1999999-0111REMSYN070AAXX  19184 83096 32695 21404 10275 20210 30137 40144 82100 333 59011;EQDQ01  00002PRCP06
0198830960999992003092000004-10917-037050FM-12+000699999V0201401N001512200019N0020001N1+02551+01981101651ADDAA106000091GF103991031051012501001001KA1240M+02861MA1999999101581MD1999999-0031REMSYN088AAXX  20004 83096 32695 31403 10255 20198 30158 40165 83500 333 10286 29069 55107 59003;EQDQ01  00002PRCP06
0186830960999992003092012004-10917-037050FM-12+000699999V0200901N003112200019N0020001N1+02711+01961101701ADDAA106000091GF102991021011012501001001KA1240N+02431MA1999999101631MD1999999+0001REMSYN076AAXX  20124 83096 32695 20906 10271 20196 30163 40170 82100 333 20243 58000;EQDQ01  00002PRCP06
0167830960999992003092018004-10917-037050FM-12+000699999V0200901N003612200019N0020001N1+02731+02001101551ADDAA106000091GF103991999999012501999999MA1999999101481MD1999999-0111REMSYN070AAXX  20184 83096 32695 30907 10273 20200 30148 40155 93100 333 59011;EQDQ01  00002PRCP06
0198830960999992003092100004-10917-037050FM-12+000699999V0201401N002112200019N0020001N1+02511+01961101711ADDAA106000091GF102991021051012501001001KA1240M+02851MA1999999101641MD1999999+0061REMSYN088AAXX  21004 83096 32695 21404 10251 20196 30164 40171 82500 333 10285 29068 55094 58006;EQDQ01  00002PRCP06
0190830960999992003092112004-10917-037050FM-12+000699999V0200901N002112200019N0020001N1+02711+02031101811ADDAY161061AY261061GF102991021011012501001001KA1240N+02301MA1999999101741MD1999999+0111MW1201REMSYN088AAXX  21124 83096 21695 20904 10271 20203 30174 40181 72066 82100 333 20230 58011 69954;
0148830960999992003092118004-10917-037050FM-12+000699999V0201401N002112200019N0020001N1+02711+01961101591ADDAA106000021GF104991041011012501001001MA1999999101521MD1999999+0041REMSYN070AAXX  21184 83096 32695 41404 10271 20196 30152 40159 84100 333 58004;
0214830960999992003092200004-10917-037050FM-12+000699999V0201401N003110120019N0020001N1+02551+02091101781ADDAA106000091GF105991051051012501001001KA1240M+02851MA1999999101711MD1999999+0071REMSYN088AAXX  22004 83096 32695 51406 10255 20209 30171 44017 85500 333 10285 29071 55095 58007;EQDQ01+999990APOSLPQ02  00002PRCP06
0190830960999992003092212004-10917-037050FM-12+000699999V0201401N003112200019N0020001N1+02741+02071101851ADDAY161061AY261061GF105991031011012501001011KA1240N+02351MA1999999101781MD1999999+0041MW1201REMSYN088AAXX  22124 83096 21695 51406 10274 20207 30178 40185 72066 83101 333 20235 58004 69924;
0148830960999992003092218004-10917-037050FM-12+000699999V0201401N002612200019N0020001N1+02701+02111101521ADDAA106000021GF102991021011012501001001MA1999999101541MD1999999-0071REMSYN070AAXX  22184 83096 32695 21405 10270 20211 30154 40152 82100 333 59007;
0198830960999992003092400004-10917-037050FM-12+000699999V0200901N003112200019N0020001N1+02421+02071101611ADDAA106000091GF101991011051012501001001KA1240M+02851MA1999999101541MD1999999-0061REMSYN088AAXX  24004 83096 32695 10906 10242 20207 30154 40161 81500 333 10285 29073 55083 59006;EQDQ01  00002PRCP06
0186830960999992003092412004-10917-037050FM-12+000699999V0201401N002610120019N0020001N1+02401+01861101761ADDAA106000091GF108991081051012501001001KA1240N+02201MA1999999101691MD1999999-0011REMSYN076AAXX  24124 83096 32695 81405 10240 20186 30169 40176 88500 333 20220 59001;EQDQ01  00002PRCP06
0167830960999992003092418004-10917-037050FM-12+000699999V0200901N003110120019N0020001N1+02601+02031101341ADDAA106000091GF108991061011012501001011MA1999999101271MD1999999-0051REMSYN070AAXX  24184 83096 32695 80906 10260 20203 30127 40134 86101 333 59005;EQDQ01  00002PRCP06
0198830960999992003092500004-10917-037050FM-12+000699999V0200901N002612200019N0020001N1+02491+01981101441ADDAA106000091GF102991021011012501001001KA1240M+02841MA1999999101371MD1999999-0171REMSYN088AAXX  25004 83096 32695 20905 10249 20198 30137 40144 82100 333 10284 29073 55045 59017;EQDQ01  00002PRCP06
0186830960999992003092512004-10917-037050FM-12+000699999V0200901N004612200019N0020001N1+02741+02121101611ADDAA106000091GF102991021011012501001001KA1240N+02201MA1999999101541MD1999999-0151REMSYN076AAXX  25124 83096 32695 20909 10274 20212 30154 40161 82100 333 20220 59015;EQDQ01  00002PRCP06
0183830960999992003092518004-10917-037050FM-12+000699999V0200901N005112200019N0020001N1+02731+02141101201ADDAA106000091GF101991999011012501001001MA1999999101131MD1999999-0141REMSYN070AAXX  25184 83096 32695 10910 10273 20214 30113 40120 80100 333 59014;EQDQ01+000002SCOTLCQ02  00002PRCP06
0198830960999992003092600004-10917-037050FM-12+000699999V0200901N004112200019N0020001N1+02521+02071101551ADDAA106000091GF101991011011012501001001KA1240M+02861MA1999999101481MD1999999+0111REMSYN088AAXX  26004 83096 32695 10908 10252 20207 30148 40155 81100 333 10286 29073 55104 58011;EQDQ01  00002PRCP06
0186830960999992003092612004-10917-037050FM-12+000699999V0200901N002610120019N0020001N1+02731+02261101571ADDAA106000091GF105991051051012501001001KA1240N+02101MA1999999101501MD1999999-0041REMSYN076AAXX  26124 83096 32695 50905 10273 20226 30150 40157 85500 333 20210 59004;EQDQ01  00002PRCP06
0167830960999992003092618004-10917-037050FM-12+000699999V0200901N005110120019N0020001N1+02751+02191101231ADDAA106000091GF105991051011012501001001MA1999999101161MD1999999+0031REMSYN070AAXX  26184 83096 32695 50910 10275 20219 30116 40123 85100 333 58003;EQDQ01  00002PRCP06
0198830960999992003092700004-10917-037050FM-12+000699999V0200901N003112200019N0020001N1+02571+02231101321ADDAA106000091GF103991031051012501001001KA1240M+02911MA1999999101251MD1999999-0231REMSYN088AAXX  27004 83096 32695 30906 10257 20223 30125 40132 83500 333 10291 29077 55089 59023;EQDQ01  00002PRCP06
0186830960999992003092712004-10917-037050FM-12+000699999V0200501N003610120019N0020001N1+02741+02261101461ADDAA106000091GF108991051011012501001011KA1240N+02281MA1999999101391MD1999999-0111REMSYN076AAXX  27124 83096 32695 80507 10274 20226 30139 40146 85101 333 20228 59011;EQDQ01  00002PRCP06
0167830960999992003092718004-10917-037050FM-12+000699999V0200901N005712200019N0020001N1+02741+02261101021ADDAA106000091GF101991011011012501001001MA1999999100951MD1999999-0211REMSYN070AAXX  27184 83096 32695 10911 10274 20226 30095 40102 81100 333 59021;EQDQ01  00002PRCP06
0198830960999992003092800004-10917-037050FM-12+000699999V0200901N004112200019N0020001N1+02551+02291101211ADDAA106000091GF103991031051012501001001KA1240M+02911MA1999999101141MD1999999-0111REMSYN088AAXX  28004 83096 32695 30908 10255 20229 30114 40121 83500 333 10291 29080 55091 59011;EQDQ01  00002PRCP06
0186830960999992003092812004-10917-037050FM-12+000699999V0200901N003112200019N0020001N1+02731+02261101391ADDAA106000091GF102991021011012501001001KA1240N+02331MA1999999101321MD1999999-0071REMSYN076AAXX  28124 83096 32695 20906 10273 20226 30132 40139 82100 333 20233 59007;EQDQ01  00002PRCP06
0167830960999992003092818004-10917-037050FM-12+000699999V0200901N005112200019N0020001N1+02801+02271101171ADDAA106000091GF101991011011012501001001MA1999999101101MD1999999+0151REMSYN070AAXX  28184 83096 32695 10910 10280 20227 30110 40117 81100 333 58015;EQDQ01  00002PRCP06
0198830960999992003092900004-10917-037050FM-12+000699999V0200901N005112200019N0020001N1+02601+02271101351ADDAA106000091GF101991011051012501001001KA1240M+02971MA1999999101281MD1999999+0141REMSYN088AAXX  29004 83096 32695 10910 10260 20227 30128 40135 81500 333 10297 29078 55098 58014;EQDQ01  00002PRCP06
0186830960999992003092912004-10917-037050FM-12+000699999V0200901N004610450019N0020001N1+02751+02261101481ADDAA106000091GF105991021051012501011001KA1240N+02411MA1999999101411MD1999999+0091REMSYN076AAXX  29124 83096 32695 50909 10275 20226 30141 40148 82510 333 20241 58009;EQDQ01  00002PRCP06
0167830960999992003092918004-10917-037050FM-12+000699999V0200901N005712200019N0020001N1+02801+02361101291ADDAA106000091GF102991021011012501001001MA1999999101221MD1999999+0121REMSYN070AAXX  29184 83096 32695 20911 10280 20236 30122 40129 82100 333 58012;EQDQ01  00002PRCP06
0198830960999992003093000004-10917-037050FM-12+000699999V0200901N005112200019N0020001N1+02611+02311101411ADDAA106000091GF101991011011012501001001KA1240M+02961MA1999999101341MD1999999+0061REMSYN088AAXX  30004 83096 32695 10910 10261 20231 30134 40141 81100 333 10296 29080 55075 58006;EQDQ01  00002PRCP06
0186830960999992003093012004-10917-037050FM-12+000699999V0200901N005112200019N0020001N1+02761+02281101581ADDAA106000091GF103991031011012501001001KA1240N+02451MA1999999101511MD1999999+0101REMSYN076AAXX  30124 83096 32695 30910 10276 20228 30151 40158 83100 333 20245 58010;EQDQ01  00002PRCP06
0167830960999992003093018004-10917-037050FM-12+000699999V0200901N005112200019N0020001N1+02801+02311101351ADDAA106000091GF102991021011012501001001MA1999999101281MD1999999+0061REMSYN070AAXX  30184 83096 32695 20910 10280 20231 30128 40135 82100 333 58006;EQDQ01  00002PRCP06
0198830960999992003100100004-10917-037050FM-12+000699999V0200901N004112200019N0020001N1+02651+02371101511ADDAA106000091GF102991021011012501001001KA1240M+02911MA1999999101441MD1999999+0101REMSYN088AAXX  01004 83096 32695 20908 10265 20237 30144 40151 82100 333 10291 29080 55097 58010;EQDQ01  00002PRCP06
0186830960999992003100112004-10917-037050FM-12+000699999V0200901N003112200019N0020001N1+02811+02251101591ADDAA106000091GF103991031011012501001001KA1240N+02491MA1999999101521MD1999999+0011REMSYN076AAXX  01124 83096 32695 30906 10281 20225 30152 40159 83100 333 20249 58001;EQDQ01  00002PRCP06
0167830960999992003100118004-10917-037050FM-12+000699999V0200901N005112200019N0020001N1+02791+02211101451ADDAA106000091GF102991021011012501001001MA1999999101381MD1999999+0101REMSYN070AAXX  01184 83096 32695 20910 10279 20221 30138 40145 82100 333 58010;EQDQ01  00002PRCP06
0198830960999992003100200004-10917-037050FM-12+000699999V0200901N003112200019N0020001N1+02611+02231101571ADDAA106000091GF102991021011012501001001KA1240M+02911MA1999999101501MD1999999+0061REMSYN088AAXX  02004 83096 32695 20906 10261 20223 30150 40157 82100 333 10291 29076 55098 58006;EQDQ01  00002PRCP06
0186830960999992003100212004-10917-037050FM-12+000699999V0200901N004112200019N0020001N1+02771+02251101631ADDAA106000091GF103991031011012501001001KA1240N+02491MA1999999101561MD1999999+0041REMSYN076AAXX  02124 83096 32695 30908 10277 20225 30156 40163 83100 333 20249 58004;EQDQ01  00002PRCP06
0167830960999992003100218004-10917-037050FM-12+000699999V0200901N003112200019N0020001N1+02791+02251101391ADDAA106000091GF103991031011012501001001MA1999999101321MD1999999-0061REMSYN070AAXX  02184 83096 32695 30906 10279 20225 30132 40139 83100 333 59006;EQDQ01  00002PRCP06
0198830960999992003100300004-10917-037050FM-12+000699999V0200901N003112200019N0020001N1+02571+02151101531ADDAA106000091GF102991021011012501001001KA1240M+02931MA1999999101461MD1999999-0041REMSYN088AAXX  03004 83096 32695 20906 10257 20215 30146 40153 82100 333 10293 29076 55095 59004;EQDQ01  00002PRCP06
0186830960999992003100312004-10917-037050FM-12+000699999V0200901N002612200019N0020001N1+02771+02091101711ADDAA106000091GF102991021011012501001001KA1240N+02491MA1999999101641MD1999999+0081REMSYN076AAXX  03124 83096 32695 20905 10277 20209 30164 40171 82100 333 20249 58008;EQDQ01  00002PRCP06
0167830960999992003100318004-10917-037050FM-12+000699999V0200901N002112200019N0020001N1+02751+02101101551ADDAA106000091GF102991021011012501001001MA1999999101481MD1999999+0161REMSYN070AAXX  03184 83096 32695 20904 10275 20210 30148 40155 82100 333 58016;EQDQ01  00002PRCP06
0198830960999992003100400004-10917-037050FM-12+000699999V0200901N002112200019N0020001N1+02571+02111101671ADDAA106000091GF101991011011012501001001KA1240M+02911MA1999999101601MD1999999+0141REMSYN088AAXX  04004 83096 32695 10904 10257 20211 30160 40167 81100 333 10291 29072 55105 58014;EQDQ01  00002PRCP06
0186830960999992003100412004-10917-037050FM-12+000699999V0201401N002112200019N0020001N1+02811+02081101791ADDAA106000091GF102991021011012501001001KA1240N+02491MA1999999101721MD1999999+0081REMSYN076AAXX  04124 83096 32695 21404 10281 20208 30172 40179 82100 333 20249 58008;EQDQ01  00002PRCP06
0167830960999992003100418004-10917-037050FM-12+000699999V0201401N002112200019N0020001N1+02731+02101101581ADDAA106000091GF104991041011012501001001MA1999999101511MD1999999-0091REMSYN070AAXX  04184 83096 32695 41404 10273 20210 30151 40158 84100 333 59009;EQDQ01  00002PRCP06
0198830960999992003100500004-10917-037050FM-12+000699999V0201401N002112200019N0020001N1+02591+02061101671ADDAA106000091GF102991021051012501001001KA1240M+02951MA1999999101601MD1999999+0001REMSYN088AAXX  05004 83096 32695 21404 10259 20206 30160 40167 82500 333 10295 29070 55105 58000;EQDQ01  00002PRCP06
0186830960999992003100512004-10917-037050FM-12+000699999V0200901N003112200019N0020001N1+02791+02211101671ADDAA106000091GF102991021011012501001001KA1240N+02491MA1999999101601MD1999999-0121REMSYN076AAXX  05124 83096 32695 20906 10279 20221 30160 40167 82100 333 20249 59012;EQDQ01  00002PRCP06
0167830960999992003100518004-10917-037050FM-12+000699999V0200901N004112200019N0020001N1+02781+02111101361ADDAA106000091GF103991031011012501001001MA1999999101291MD1999999-0221REMSYN070AAXX  05184 83096 32695 30908 10278 20211 30129 40136 83100 333 59022;EQDQ01  00002PRCP06
0198830960999992003100600004-10917-037050FM-12+000699999V0200901N003112200019N0020001N1+02571+02131101551ADDAA106000091GF103991031011012501001001KA1240M+02911MA1999999101481MD1999999-0121REMSYN088AAXX  06004 83096 32695 30906 10257 20213 30148 40155 83100 333 10291 29073 55104 59012;EQDQ01  00002PRCP06
0190830960999992003100612004-10917-037050FM-12+000699999V0200901N003110120019N0020001N1+02501+02231101611ADDAY161061AY261061GF106991061051012501001001KA1240N+02241MA1999999101541MD1999999-0061MW1201REMSYN088AAXX  06124 83096 21695 60906 10250 20223 30154 40161 72066 86500 333 20224 59006 60024;
0148830960999992003100618004-10917-037050FM-12+000699999V0200901N004112200019N0020001N1+02771+02111101301ADDAA106000021GF101991011011012501001001MA1999999101231MD1999999-0061REMSYN070AAXX  06184 83096 32695 10908 10277 20211 30123 40130 81100 333 59006;
0198830960999992003100700004-10917-037050FM-12+000699999V0200901N003612200019N0020001N1+02551+02151101571ADDAA106000091GF102991021051012501001001KA1240M+02911MA1999999101501MD1999999+0021REMSYN088AAXX  07004 83096 32695 20907 10255 20215 30150 40157 82500 333 10291 29077 55092 58002;EQDQ01  00002PRCP06
0186830960999992003100712004-10917-037050FM-12+000699999V0200901N004112200019N0020001N1+02831+02311101681ADDAA106000091GF103991031011012501001001KA1240N+02241MA1999999101611MD1999999+0071REMSYN076AAXX  07124 83096 32695 30908 10283 20231 30161 40168 83100 333 20224 58007;EQDQ01  00002PRCP06
0167830960999992003100718004-10917-037050FM-12+000699999V0200901N005712200019N0020001N1+02791+02181101381ADDAA106000091GF101991011011012501001001MA1999999101311MD1999999+0081REMSYN070AAXX  07184 83096 32695 10911 10279 20218 30131 40138 81100 333 58008;EQDQ01  00002PRCP06
0198830960999992003100800004-10917-037050FM-12+000699999V0200901N005112200019N0020001N1+02581+02171101641ADDAA106000091GF101991011051012501001001KA1240M+02951MA1999999101571MD1999999+0071REMSYN088AAXX  08004 83096 32695 10910 10258 20217 30157 40164 81500 333 10295 29074 55105 58007;EQDQ01  00002PRCP06
0186830960999992003100812004-10917-037050FM-12+000699999V0200901N005112200019N0020001N1+02821+02221101671ADDAA106000091GF101991011011012501001001KA1240N+02231MA1999999101601MD1999999-0011REMSYN076AAXX  08124 83096 32695 10910 10282 20222 30160 40167 81100 333 20223 59001;EQDQ01  00002PRCP06
0167830960999992003100818004-10917-037050FM-12+000699999V0200901N005112200019N0020001N1+02781+02251101321ADDAA106000091GF101991011011012501001001MA1999999101251MD1999999-0061REMSYN070AAXX  08184 83096 32695 10910 10278 20225 30125 40132 81100 333 59006;EQDQ01  00002PRCP06
0198830960999992003100900004-10917-037050FM-12+000699999V0200901N004112200019N0020001N1+02601+02141101641ADDAA106000091GF101991011051012501001001KA1240M+02961MA1999999101571MD1999999+0001REMSYN088AAXX  09004 83096 32695 10908 10260 20214 30157 40164 81500 333 10296 29074 55107 58000;EQDQ01  00002PRCP06
0190830960999992003100912004-10917-037050FM-12+000699999V0200901N003110120019N0020001N1+02611+02181101671ADDAY161061AY261061GF106991061051012501001001KA1240N+02281MA1999999101601MD1999999+0001MW1201REMSYN088AAXX  09124 83096 21695 60906 10261 20218 30160 40167 72066 86500 333 20228 58000 60044;
0148830960999992003100918004-10917-037050FM-12+000699999V0200901N004112200019N0020001N1+02781+02231101311ADDAA106000021GF101991011011012501001001MA1999999101241MD1999999-0011REMSYN070AAXX  09184 83096 32695 10908 10278 20223 30124 40131 81100 333 59001;
0198830960999992003101000004-10917-037050FM-12+000699999V0200901N004112200019N0020001N1+02591+02171101591ADDAA106000091GF103991031051012501001001KA1240M+02911MA1999999101521MD1999999-0051REMSYN088AAXX  10004 83096 32695 30908 10259 20217 30152 40159 83500 333 10291 29076 55079 59005;EQDQ01  00002PRCP06
0186830960999992003101012004-10917-037050FM-12+000699999V0200901N005112200019N0020001N1+02801+02081101631ADDAA106000091GF101991011011012501001001KA1240N+02301MA1999999101561MD1999999-0041REMSYN076AAXX  10124 83096 32695 10910 10280 20208 30156 40163 81100 333 20230 59004;EQDQ01  00002PRCP06
0167830960999992003101018004-10917-037050FM-12+000699999V0200901N005112200019N0020001N1+02761+02161101261ADDAA106000091GF101991011011012501001001MA1999999101191MD1999999-0051REMSYN070AAXX  10184 83096 32695 10910 10276 20216 30119 40126 81100 333 59005;EQDQ01  00002PRCP06
0198830960999992003101100004-10917-037050FM-12+000699999V0200901N003112200019N0020001N1+02551+02111101521ADDAA106000091GF103991031051012501001001KA1240M+02951MA1999999101451MD1999999-0071REMSYN088AAXX  11004 83096 32695 30906 10255 20211 30145 40152 83500 333 10295 29072 55103 59007;EQDQ01  00002PRCP06
0186830960999992003101112004-10917-037050FM-12+000699999V0200901N003112200019N0020001N1+02801+02181101611ADDAA106000091GF102991021011012501001001KA1240N+02281MA1999999101541MD1999999-0021REMSYN076AAXX  11124 83096 32695 20906 10280 20218 30154 40161 82100 333 20228 59002;EQDQ01  00002PRCP06
0167830960999992003101118004-10917-037050FM-12+000699999V0200901N004112200019N0020001N1+02761+02191101321ADDAA106000091GF101991011011012501001001MA1999999101251MD1999999+0061REMSYN070AAXX  11184 83096 32695 10908 10276 20219 30125 40132 81100 333 58006;EQDQ01  00002PRCP06
0198830960999992003101200004-10917-037050FM-12+000699999V0200901N003112200019N0020001N1+02551+02251101501ADDAA106000091GF101991011051012501001001KA1240M+02931MA1999999101431MD1999999-0021REMSYN088AAXX  12004 83096 32695 10906 10255 20225 30143 40150 81500 333 10293 29076 55108 59002;EQDQ01  00002PRCP06
0186830960999992003101212004-10917-037050FM-12+000699999V0200901N003112200019N0020001N1+02831+02261101471ADDAA106000091GF103991031011012501001001KA1240N+02301MA1999999101401MD1999999-0141REMSYN076AAXX  12124 83096 32695 30906 10283 20226 30140 40147 83100 333 20230 59014;EQDQ01  00002PRCP06
0167830960999992003101218004-10917-037050FM-12+000699999V0200901N004112200019N0020001N1+02791+02271101201ADDAA106000091GF101991011011012501001001MA1999999101131MD1999999-0121REMSYN070AAXX  12184 83096 32695 10908 10279 20227 30113 40120 81100 333 59012;EQDQ01  00002PRCP06
0198830960999992003101300004-10917-037050FM-12+000699999V0200901N005112200019N0020001N1+02601+02211101461ADDAA106000091GF101991011051012501001001KA1240M+02931MA1999999101391MD1999999-0041REMSYN088AAXX  13004 83096 32695 10910 10260 20221 30139 40146 81500 333 10293 29075 55108 59004;EQDQ01  00002PRCP06
0186830960999992003101312004-10917-037050FM-12+000699999V0200901N003112200019N0020001N1+02791+02091101571ADDAA106000091GF102991021011012501001001KA1240N+02331MA1999999101501MD1999999+0101REMSYN076AAXX  13124 83096 32695 20906 10279 20209 30150 40157 82100 333 20233 58010;EQDQ01  00002PRCP06
0167830960999992003101318004-10917-037050FM-12+000699999V0200901N002612200019N0020001N1+02771+02191101341ADDAA106000091GF101991011011012501001001MA1999999101271MD1999999+0141REMSYN070AAXX  13184 83096 32695 10905 10277 20219 30127 40134 81100 333 58014;EQDQ01  00002PRCP06
0198830960999992003101400004-10917-037050FM-12+000699999V0201401N002112200019N0020001N1+02611+02031101491ADDAA106000091GF103991031011012501001001KA1240M+02931MA1999999101421MD1999999-0031REMSYN088AAXX  14004 83096 32695 31404 10261 20203 30142 40149 83100 333 10293 29070 55107 59003;EQDQ01  00002PRCP06
0186830960999992003101412004-10917-037050FM-12+000699999V0200901N002112200019N0020001N1+02791+02111101571ADDAA106000091GF103991031011012501001001KA1240N+02451MA1999999101501MD1999999+0001REMSYN076AAXX  14124 83096 32695 30904 10279 20211 30150 40157 83100 333 20245 58000;EQDQ01  00002PRCP06
0167830960999992003101418004-10917-037050FM-12+000699999V0201401N002112200019N0020001N1+02761+02091101381ADDAA106000091GF104991041011012501001001MA1999999101311MD1999999+0041REMSYN070AAXX  14184 83096 32695 41404 10276 20209 30131 40138 84100 333 58004;EQDQ01  00002PRCP06
0198830960999992003101500004-10917-037050FM-12+000699999V0201401N001512200019N0020001N1+02611+02101101571ADDAA106000091GF104991041011012501001001KA1240M+02951MA1999999101501MD1999999+0081REMSYN088AAXX  15004 83096 32695 41403 10261 20210 30150 40157 84100 333 10295 29070 55107 58008;EQDQ01  00002PRCP06
0186830960999992003101512004-10917-037050FM-12+000699999V0200901N003112200019N0020001N1+02771+02231101611ADDAA106000091GF103991031011012501001001KA1240N+02471MA1999999101541MD1999999+0041REMSYN076AAXX  15124 83096 32695 30906 10277 20223 30154 40161 83100 333 20247 58004;EQDQ01  00002PRCP06
0167830960999992003101518004-10917-037050FM-12+000699999V0200901N002112200019N0020001N1+02791+02041101481ADDAA106000091GF101991011011012501001001MA1999999101411MD1999999+0101REMSYN070AAXX  15184 83096 32695 10904 10279 20204 30141 40148 81100 333 58010;EQDQ01  00002PRCP06
0202830960999992003101600004-10917-037050FM-12+000699999V0200501N001510075019N0010001N1+02511+02211101691ADDAY161061AY261061GF106991061051008001001001KA1240M+02941MA1999999101621MD1999999+0121MW1601REMSYN100AAXX  16004 83096 21594 60503 10251 20221 30162 40169 76066 86500 333 10294 29076 55108 58012 60091;
0171830960999992003101618004-10917-037050FM-12+000699999V0201801N002110075019N0010001N1+02351+02171101521ADDAY161061AY261061GF108991081051008001999999MA1999999101451MD1999999+0041MW1511REMSYN082AAXX  16184 83096 21594 81804 10235 20217 30145 40152 75166 885// 333 58004 60021;
0202830960999992003101700004-10917-037050FM-12+000699999V0201801N003110120019N0020001N1+02341+02051101681ADDAY161061AY261061GF106991061051012501001001KA1240M+02651MA1999999101611MD1999999-0011MW1211REMSYN100AAXX  17004 83096 21695 61806 10234 20205 30161 40168 72166 86500 333 10265 29088 55009 59001 60131;
0190830960999992003101712004-10917-037050FM-12+000699999V0201801N003610075019N0010001N1+02301+02201101681ADDAY161061AY261061GF108991081051008001999999KA1240N+02181MA1999999101611MD1999999-0141MW1601REMSYN088AAXX  17124 83096 21594 81807 10230 20220 30161 40168 76066 885// 333 20218 59014 60454;
0171830960999992003101718004-10917-037050FM-12+000699999V0201801N006010075019N0010001N1+02321+02131101481ADDAY161061AY261061GF108991081051008001999999MA1999999101411MD1999999-0041MW1501REMSYN082AAXX  7184  83096 21594 81806 10232 20213 30141 40148 75066 885// 333 59004 60051;
0202830960999992003101800004-10917-037050FM-12+000699999V0201801N003110075019N0010001N1+02321+02051101661ADDAY151061AY251061GF107991071051008001001001KA1240M+02491MA1999999101591MD1999999-0021MW1501REMSYN100AAXX  18004 83096 21594 71806 10232 20205 30159 40166 75055 87500 333 10249 29088 55000 59002 69921;
0190830960999992003101812004-10917-037050FM-12+000699999V0201801N002110075019N0020001N1+02401+02171101721ADDAY161061AY261061GF106991061051008001001001KA1240N+02221MA1999999101651MD1999999+0041MW1211REMSYN088AAXX  18124 83096 21595 61804 10240 20217 30165 40172 72166 86500 333 20222 58004 60104;
0148830960999992003101818004-10917-037050FM-12+000699999V0201801N001510120019N0020001N1+02611+02081101561ADDAA106000021GF106991061051012501001001MA1999999101491MD1999999-0081REMSYN070AAXX  18184 83096 32695 61803 10261 20208 30149 40156 86500 333 59008;
0202830960999992003101900004-10917-037050FM-12+000699999V0201801N001510120019N0020001N1+02491+02091101711ADDAY151061AY251061GF105991051051012501001001KA1240M+02811MA1999999101641MD1999999+0051MW1201REMSYN100AAXX  19004 83096 21695 51803 10249 20209 30164 40171 72055 85500 333 10281 29079 55029 58005 69941;
0162830960999992003101912004-10917-037050FM-12+000699999V0201801N003110120019N0020001N1+02691+02131101761ADDGF106991061051012501001001KA1240N+02431MA1999999101691MD1999999+0041REMSYN082AAXX  19124 83096 22695 61806 10269 20213 30169 40176 86500 333 20243 58004 69944;
0171830960999992003101918004-10917-037050FM-12+000699999V0201801N002610075019N0020001N1+02381+02061101541ADDAY161061AY261061GF106991061051008001001001MA1999999101471MD1999999-0021MW1611REMSYN082AAXX  19184 83096 21595 61805 10238 20206 30147 40154 76166 86500 333 59002 60051;
0190830960999992003102012004-10917-037050FM-12+000699999V0200901N003112200019N0020001N1+02721+02321101791ADDAY161061AY261061GF104991021051012501001011KA1240N+02241MA1999999101721MD1999999+0031MW1601REMSYN088AAXX  20124 83096 21695 40906 10272 20232 30172 40179 76066 82501 333 20224 58003 60174;
0148830960999992003102018004-10917-037050FM-12+000699999V0200901N003112200019N0020001N1+02761+02301101391ADDAA106000021GF104991031011012501001011MA1999999101321MD1999999-0151REMSYN070AAXX  20184 83096 32695 40906 10276 20230 30132 40139 83101 333 59015;
0198830960999992003102100004-10917-037050FM-12+000699999V0200901N003112200019N0020001N1+02551+02351101621ADDAA106000091GF102991021051012501001001KA1240M+02951MA1999999101551MD1999999-0021REMSYN088AAXX  21004 83096 32695 20906 10255 20235 30155 40162 82500 333 10295 29082 55103 59002;EQDQ01  00002PRCP06
0186830960999992003102112004-10917-037050FM-12+000699999V0200901N005112200019N0020001N1+02791+02271101571ADDAA106000091GF103991031011012501001001KA1240N+02221MA1999999101501MD1999999-0221REMSYN076AAXX  21124 83096 32695 30910 10279 20227 30150 40157 83100 333 20222 59022;EQDQ01  00002PRCP06
0167830960999992003102118004-10917-037050FM-12+000699999V02099999999992200019N0020001N1+02751+02321101271ADDAA106000091GF101991011011012501001001MA1999999101201MD1999999+0121REMSYN070AAXX  21184 83096 32695 109// 10275 20232 30120 40127 81100 333 58012;EQDQ01  00002PRCP06
0214830960999992003102200004-10917-037050FM-12+000699999V0200901N003112200019N0020001N1+02581+02191101421ADDAA106000091GF101991999011012501051001KA1240M+02901MA1999999101361MD1999999-0191REMSYN088AAXX  22004 83096 32695 10906 10258 20219 30136 40142 88150 333 10290 29077 55111 59019;EQDQ01+000082SCOTLCQ02  00002PRCP06
0186830960999992003102212004-10917-037050FM-12+000699999V0200901N004112200019N0020001N1+02821+02291101591ADDAA106000091GF101991011011012501001001KA1240N+02301MA1999999101521MD1999999+0021REMSYN076AAXX  22124 83096 32695 10908 10282 20229 30152 40159 81100 333 20230 58002;EQDQ01  00002PRCP06
0167830960999992003102218004-10917-037050FM-12+000699999V0200901N005112200019N0020001N1+02811+02121101241ADDAA106000091GF105991011011012501001011MA1999999101171MD1999999-0031REMSYN070AAXX  22184 83096 32695 50910 10281 20212 30117 40124 81101 333 59003;EQDQ01  00002PRCP06
0198830960999992003102300004-10917-037050FM-12+000699999V0200901N005112200019N0020001N1+02611+02181101451ADDAA106000091GF102991021051012501001001KA1240M+02931MA1999999101381MD1999999+0021REMSYN088AAXX  23004 83096 32695 20910 10261 20218 30138 40145 82500 333 10293 29073 55112 58002;EQDQ01  00002PRCP06
0186830960999992003102312004-10917-037050FM-12+000699999V0200901N004612200019N0020001N1+02821+02241101571ADDAA106000091GF101991011011012501001001KA1240N+02331MA1999999101501MD1999999-0021REMSYN076AAXX  23124 83096 32695 10909 10282 20224 30150 40157 81100 333 20233 59002;EQDQ01  00002PRCP06
0167830960999992003102318004-10917-037050FM-12+000699999V0200901N005112200019N0020001N1+02781+02301101251ADDAA106000091GF101991011011012501001001MA1999999101181MD1999999-0011REMSYN070AAXX  23184 83096 32695 10910 10278 20230 30118 40125 81100 333 59001;EQDQ01  00002PRCP06
0152830960999992003102400004-10917-037050FM-12+000699999V0200901N005712200019N0020001N1+02591+02351999999ADDAA106000091GF101991999999012501999999REMSYN084AAXX  24004 83096 32695 10911 10259 20235 10292 29080 30154 40161 55109 58016 81150;EQDQ01  00002PRCP06
0186830960999992003102412004-10917-037050FM-12+000699999V0200901N005110120019N0020001N1+02791+02401101761ADDAA106000091GF108991081011012501001001KA1240N+02281MA1999999101601MD1999999-0191REMSYN076AAXX  24124 83096 32695 80910 10279 20240 30160 40176 88100 333 20228 59019;EQDQ01  00002PRCP06
0167830960999992003102418004-10917-037050FM-12+000699999V0200901N004112200019N0020001N1+02811+02361101521ADDAA106000091GF102991021011012501001001MA1999999101451MD1999999+0271REMSYN070AAXX  24184 83096 32695 20908 10281 20236 30145 40152 82100 333 58027;EQDQ01  00002PRCP06
0198830960999992003102500004-10917-037050FM-12+000699999V0200901N003612200019N0020001N1+02601+02271101751ADDAA106000091GF101991011051012501001001KA1240M+02971MA1999999101681MD1999999+0141REMSYN088AAXX  25004 83096 32695 10907 10260 20227 30168 40175 81500 333 10297 29080 55095 58014;EQDQ01  00002PRCP06
0186830960999992003102512004-10917-037050FM-12+000699999V0200901N005112200019N0020001N1+02851+02281101711ADDAA106000091GF102991021011012501001001KA1240N+02281MA1999999101641MD1999999-0051REMSYN076AAXX  25124 83096 32695 20910 10285 20228 30164 40171 82100 333 20228 59005;EQDQ01  00002PRCP06
0167830960999992003102518004-10917-037050FM-12+000699999V0200901N003610120019N0020001N1+02721+02221101381ADDAA106000091GF108991081051012501001001MA1999999101311MD1999999-0141REMSYN070AAXX  25184 83096 32695 80907 10272 20222 30131 40138 88500 333 59014;EQDQ01  00002PRCP06
0198830960999992003102600004-10917-037050FM-12+000699999V0200901N003112200019N0020001N1+02601+02101101591ADDAA106000091GF101991011051012501001001KA1240M+02931MA1999999101521MD1999999-0161REMSYN088AAXX  26004 83096 32695 10906 10260 20210 30152 40159 81500 333 10293 29073 55092 59016;EQDQ01  00002PRCP06
0190830960999992003102612004-10917-037050FM-12+000699999V0200901N002112200019N0020001N1+02791+01981101441ADDAY151061AY211061GF103991031011012501001001KA1240N+02281MA1999999101371MD1999999-0271MW1201REMSYN088AAXX  26124 83096 21695 30904 10279 20198 30137 40144 72051 83100 333 20228 59027 69924;
0171830960999992003102618004-10917-037050FM-12+000699999V0201801N004112200019N0020001N1+02751+02281101211ADDAY161061AY261061GF105991021011012501001011MA1999999101141MD1999999-0261MW1211REMSYN082AAXX  26184 83096 21695 51808 10275 20228 30114 40121 72166 82101 333 59026 60021;
0190830960999992003102712004-10917-037050FM-12+000699999V0200901N003110075019N0020001N1+02511+02231101341ADDAY161061AY261061GF106991061051008001001001KA1240N+02281MA1999999101271MD1999999-0101MW1211REMSYN088AAXX  27124 83096 21595 60906 10251 20223 30127 40134 72166 86500 333 20228 59010 60044;
0171830960999992003102718004-10917-037050FM-12+000699999V0201401N002611050019N0020001N1+02651+02271101271ADDAY151061AY251061GF106991031051012501001031MA1999999101201MD1999999+0061MW1201REMSYN082AAXX  27184 83096 21695 61405 10265 20227 30120 40127 72055 83503 333 58006 69911;
0179830960999992003102800004-10917-037050FM-12+000699999V0200901N001512200019N0020001N1+02531+02131101391ADDAA106000021GF104991041051012501001001KA1240M+02871MA1999999101321MD1999999+0001REMSYN088AAXX  28004 83096 32695 40903 10253 20213 30132 40139 84500 333 10287 29080 55057 58000;
0162830960999992003102812004-10917-037050FM-12+000699999V0200901N002610120019N0020001N1+02811+02131101511ADDGF105991051011012501001001KA1240N+02451MA1999999101441MD1999999+0171REMSYN082AAXX  28124 83096 22695 50905 10281 20213 30144 40151 85100 333 20245 58017 69914;
0151830960999992003102818004-10917-037050FM-12+000699999V0200901N002612200019N0020001N1+02791+02161101391ADDAA106000091GF104991041011012501001001MA1999999101321REMSYN068AAXX  28184 83096 32695 40905 10279 20216 30132 40139 8410033 58012;EQDQ01  00002PRCP06
0202830960999992003102900004-10917-037050FM-12+000699999V0200901N002612200019N0020001N1+02511+02171101541ADDAY161061AY261061GF103991031051012501001001KA1240M+02921MA1999999101471MD1999999+0151MW1211REMSYN100AAXX  29004 83096 21695 30905 10251 20217 30147 40154 72166 83500 333 10292 29075 55087 58015 60041;
0190830960999992003102912004-10917-037050FM-12+000699999V0200901N002611050019N0020001N1+02691+02221101501ADDAY161061AY261061GF105991031051012501001031KA1240N+02331MA1999999101431MD1999999-0011MW1211REMSYN088AAXX  29124 83096 21695 50905 10269 20222 30143 40150 72166 83503 333 20233 59001 60104;
0148830960999992003102918004-10917-037050FM-12+000699999V0201401N001512200019N0020001N1+02711+02281101291ADDAA106000021GF103991031011012501001001MA1999999101221MD1999999-0101REMSYN070AAXX  29184 83096 32695 31403 10271 20228 30122 40129 83100 333 59010;
0202830960999992003103000004-10917-037050FM-12+000699999V0200901N003110075019N0020001N1+02341+02151101521ADDAY161061AY261061GF106991061051008001001001KA1240M+02831MA1999999101451MD1999999-0021MW1601REMSYN100AAXX  30004 83096 21595 60906 10234 20215 30145 40152 76066 86500 333 10283 29083 55062 59002 60021;
0162830960999992003103012004-10917-037050FM-12+000699999V0200901N002612200019N0020001N1+02771+02121101501ADDGF102991021011012501001001KA1240N+02371MA1999999101431MD1999999+0001REMSYN082AAXX  30124 83096 22695 20905 10277 20212 30143 40150 82100 333 20237 58000 60024;
0167830960999992003103018004-10917-037050FM-12+000699999V0200901N003112200019N0020001N1+02751+02001101271ADDAA106000091GF101991011011012501001001MA1999999101201MD1999999-0021REMSYN070AAXX  30184 83096 32695 10906 10275 20200 30120 40127 81100 333 59002;EQDQ01  00002PRCP06
0198830960999992003103100004-10917-037050FM-12+000699999V0201401N002112200019N0020001N1+02551+02041101441ADDAA106000091GF102991021011012501001001KA1240M+02871MA1999999101371MD1999999-0081REMSYN088AAXX  31004 83096 32695 21404 10255 20204 30137 40144 82100 333 10287 29070 55110 59008;EQDQ01  00002PRCP06
0186830960999992003103112004-10917-037050FM-12+000699999V0200901N003112200019N0020001N1+02791+02091101391ADDAA106000091GF103991031011012501001001KA1240N+02471MA1999999101321MD1999999-0111REMSYN076AAXX  31124 83096 32695 30906 10279 20209 30132 40139 83100 333 20247 59011;EQDQ01  00002PRCP06
0167830960999992003103118004-10917-037050FM-12+000699999V0200901N003112200019N0020001N1+02791+02161101181ADDAA106000091GF101991011011012501001001MA1999999101111MD1999999-0091REMSYN070AAXX  31184 83096 32695 10906 10279 20216 30111 40118 81100 333 59009;EQDQ01  00002PRCP06
0198830960999992003110100004-10917-037050FM-12+000699999V0200901N003112200019N0020001N1+02471+02071101311ADDAA106000091GF102991021011012501001001KA1240M+02921MA1999999101241MD1999999-0131REMSYN088AAXX  01004 83096 32695 20906 10247 20207 30124 40131 82100 333 10292 29073 55108 59013;EQDQ01  00002PRCP06
0186830960999992003110112004-10917-037050FM-12+000699999V0200901N002612200019N0020001N1+02771+02091101411ADDAA106000091GF103991031011012501001001KA1240N+02301MA1999999101341MD1999999+0021REMSYN076AAXX  01124 83096 32695 30905 10277 20209 30134 40141 83100 333 20230 58002;EQDQ01  00002PRCP06
0167830960999992003110118004-10917-037050FM-12+000699999V0200901N002112200019N0020001N1+02781+02161101151ADDAA106000091GF102991021011012501001001MA1999999101081MD1999999-0031REMSYN070AAXX  01184 83096 32695 20904 10278 20216 30108 40115 82100 333 59003;EQDQ01  00002PRCP06
0214830960999992003110200004-10917-037050FM-12+000699999V0200901N002112200019N0020001N1+02591+02211101291ADDAA106000091GF102991999021012501011001KA1240M+02901MA1999999101221MD1999999-0021REMSYN088AAXX  02004 83096 32695 20904 10259 20221 30122 40129 88210 333 10290 29074 55105 59002;EQDQ01+000082SCOTLCQ02  00002PRCP06
0186830960999992003110212004-10917-037050FM-12+000699999V0200901N002612200019N0020001N1+02851+02311101291ADDAA106000091GF104991041011012501001001KA1240N+02471MA1999999101221MD1999999-0121REMSYN076AAXX  02124 83096 32695 40905 10285 20231 30122 40129 84100 333 20247 59012;EQDQ01  00002PRCP06
0167830960999992003110218004-10917-037050FM-12+000699999V0200901N003612200019N0020001N1+02751+02301101051ADDAA106000091GF101991011011012501001001MA1999999100981MD1999999-0101REMSYN070AAXX  02184 83096 32695 10907 10275 20230 30098 40105 81100 333 59010;EQDQ01  00002PRCP06
0198830960999992003110300004-10917-037050FM-12+000699999V0200901N004112200019N0020001N1+02631+02271101091ADDAA106000091GF103991999999012501999999KA1240M+02931MA1999999101021REMSYN086AAXX  03004 83096 32695 30908 10263 20227 30102 401 83500 333 10293 29078 55106 59020;EQDQ01+999990APOSLPQ02  00002PRCP06
0186830960999992003110312004-10917-037050FM-12+000699999V0200501N003112200019N0020001N1+02931+02261101111ADDAA106000091GF103991031011012501001001KA1240N+02391MA1999999101041MD1999999-0181REMSYN076AAXX  03124 83096 32695 30506 10293 20226 30104 40111 83100 333 20239 59018;EQDQ01  00002PRCP06
0167830960999992003110318004-10917-037050FM-12+000699999V0200901N005712200019N0020001N1+02811+02441100781ADDAA106000091GF101991011011012501001001MA1999999100711MD1999999-0271REMSYN070AAXX  03184 83096 32695 10911 10281 20244 30071 40078 81100 333 59027;EQDQ01  00002PRCP06
0198830960999992003110400004-10917-037050FM-12+000699999V0200901N005110120019N0020001N1+02671+02411101061ADDAA106000091GF108991081051012501001001KA1240M+02991MA1999999100991MD1999999-0031REMSYN088AAXX  04004 83096 32695 80910 10267 20241 30099 40106 88500 333 10299 29076 55109 59003;EQDQ01  00002PRCP06
0186830960999992003110412004-10917-037050FM-12+000699999V0200901N002610120019N0020001N1+02611+02351101261ADDAA106000091GF108991081051012501001001KA1240N+02351MA1999999101191MD1999999+0151REMSYN076AAXX  04124 83096 32695 80905 10261 20235 30119 40126 88500 333 20235 58015;EQDQ01  00002PRCP06
0171830960999992003110418004-10917-037050FM-12+000699999V0201801N002610120019N0020001N1+02501+02341101091ADDAY161061AY261061GF108991081051012501001001MA1999999101021MD1999999+0311MW1211REMSYN082AAXX  04184 83096 21695 81805 10250 20234 30102 40109 72166 88500 333 58031 60041;
0179830960999992003110500004-10917-037050FM-12+000699999V0202701N001510120019N0020001N1+02361+02241101471ADDAA106000021GF108991081051012501001001KA1240M+02711MA1999999101401MD1999999+0301REMSYN088AAXX  05004 83096 32695 82703 10236 20224 30140 40147 88500 333 10271 29090 55000 58030;
0190830960999992003110512004-10917-037050FM-12+000699999V0201801N005110075019N0020001N1+02341+02221101571ADDAY161061AY261061GF108991081051008001001001KA1240N+02301MA1999999101501MD1999999+0131MW1611REMSYN088AAXX  05124 83096 21595 81810 10234 20222 30150 40157 76166 88500 333 20230 58013 60174;
0171830960999992003110518004-10917-037050FM-12+000699999V0201801N003610120019N0020001N1+02481+02321101301ADDAY161061AY261061GF108991081051012501001001MA1999999101231MD1999999+0211MW1211REMSYN082AAXX  05184 83096 21695 81807 10248 20232 30123 40130 72166 88500 333 58021 60411;
0202830960999992003110600004-10917-037050FM-12+000699999V0201801N003610120019N0020001N1+02491+02321101611ADDAY161061AY261061GF108991081051012501001001KA1240M+02531MA1999999101541MD1999999+0141MW1211REMSYN100AAXX  06004 83096 21695 81807 10249 20232 30154 40161 72166 88500 333 10253 29091 55000 58014 60031;
0190830960999992003110612004-10917-037050FM-12+000699999V0201401N003110120019N0020001N1+02501+02361101401ADDAY161061AY261061GF108991081071012501001001KA1240N+02301MA1999999101331MD1999999-0171MW1211REMSYN088AAXX  06124 83096 21695 81406 10250 20236 30133 40140 72166 88700 333 20230 59017 60514;
0171830960999992003110618004-10917-037050FM-12+000699999V0201801N002610120019N0020001N1+02571+02271101181ADDAY161061AY261061GF108991081071012501001001MA1999999101111MD1999999-0121MW1211REMSYN082AAXX  06184 83096 21695 81805 10257 20227 30111 40118 72166 88700 333 59012 60121;
0202830960999992003110700004-10917-037050FM-12+000699999V0201801N003110075019N0020001N1+02441+02341101421ADDAY161061AY261061GF108991081051008001001001KA1240M+02711MA1999999101351MD1999999+0191MW1601REMSYN100AAXX  07004 83096 21595 81806 10244 20234 30135 40142 76066 88500 333 10271 29092 55000 58019 60021;
0190830960999992003110712004-10917-037050FM-12+000699999V0201801N002110450019N0020001N1+02651+02441101301ADDAY161061AY261061GF106991031051008001031001KA1240N+02331MA1999999101231MD1999999-0101MW1601REMSYN088AAXX  07124 83096 21595 61804 10265 20244 30123 40130 76066 83530 333 20233 59010 60204;
0148830960999992003110718004-10917-037050FM-12+000699999V0201801N002110120019N0020001N1+02671+02351101131ADDAA106000021GF106991061051012501001001MA1999999101061MD1999999-0051REMSYN070AAXX  07184 83096 32695 61804 10267 20235 30106 40113 86500 333 59005;
0202830960999992003110800004-10917-037050FM-12+000699999V0201801N001012200019N0020001N1+02491+02321101291ADDAY161061AY261061GF104991041051012501001001KA1240M+02851MA1999999101221MD1999999-0131MW1211REMSYN100AAXX  08004 83096 21695 41802 10249 20232 30122 40129 72166 84500 333 10285 29088 55053 59013 60011;
0190830960999992003110812004-10917-037050FM-12+000699999V0200901N003112200019N0020001N1+02771+02401101441ADDAY161061AY261061GF104991041011012501001001KA1240N+02331MA1999999101371MD1999999+0151MW1211REMSYN088AAXX  08124 83096 21695 40906 10277 20240 30137 40144 72166 84100 333 20233 58015 60134;
0148830960999992003110818004-10917-037050FM-12+000699999V0200901N003112200019N0020001N1+02811+02401101191ADDAA106000021GF102991021011012501001001MA1999999101121MD1999999+0061REMSYN070AAXX  08184 83096 32695 20906 10281 20240 30112 40119 82100 333 58006;
0198830960999992003110900004-10917-037050FM-12+000699999V0200901N003612200019N0020001N1+02631+02311101231ADDAA106000091GF103991031051012501001001KA1240M+02911MA1999999101161MD1999999-0061REMSYN088AAXX  09004 83096 32695 30907 10263 20231 30116 40123 83500 333 10291 29081 55098 59006;EQDQ01  00002PRCP06
0186830960999992003110912004-10917-037050FM-12+000699999V0200901N003112200019N0020001N1+02821+02331101411ADDAA106000091GF103991031011012501001001KA1240N+02491MA1999999101341MD1999999-0031REMSYN076AAXX  09124 83096 32695 30906 10282 20233 30134 40141 83100 333 20249 59003;EQDQ01  00002PRCP06
0167830960999992003110918004-10917-037050FM-12+000699999V0200901N003612200019N0020001N1+02811+02291101231ADDAA106000091GF101991011011012501001001MA1999999101161MD1999999+0041REMSYN070AAXX  09184 83096 32695 10907 10281 20229 30116 40123 81100 333 58004;EQDQ01  00002PRCP06
0198830960999992003111000004-10917-037050FM-12+000699999V0200901N004112200019N0020001N1+02611+02291101411ADDAA106000091GF102991021011012501001001KA1240M+02921MA1999999101341MD1999999+0181REMSYN088AAXX  10004 83096 32695 20908 10261 20229 30134 40141 82100 333 10292 29079 55109 58018;EQDQ01  00002PRCP06
0186830960999992003111012004-10917-037050FM-12+000699999V0200901N003112200019N0020001N1+02791+02221101491ADDAA106000091GF103991031011012501001001KA1240N+02491MA1999999101421MD1999999+0081REMSYN076AAXX  10124 83096 32695 30906 10279 20222 30142 40149 83100 333 20249 58008;EQDQ01  00002PRCP06
0167830960999992003111018004-10917-037050FM-12+000699999V0200901N002612200019N0020001N1+02831+02271101301ADDAA106000091GF102991021011012501001001MA1999999101231MD1999999+0071REMSYN070AAXX  10184 83096 32695 20905 10283 20227 30123 40130 82100 333 58007;EQDQ01  00002PRCP06
0214830960999992003111100004-10917-037050FM-12+000699999V0200901N003112200019N0020001N1+02611+02231101371ADDAA106000091GF103991999011012501001001KA1240M+02931MA1999999101301MD1999999-0041REMSYN088AAXX  11004 83096 32695 30906 10261 20223 30130 40137 82100 333 10293 29076 55105 59004;EQDQ01+000022SCOTLCQ02  00002PRCP06
0190830960999992003111112004-10917-037050FM-12+000699999V0200901N003110450019N0020001N1+02711+02221101451ADDAY151061AY251061GF106991041051012501031001KA1240N+02491MA1999999101381MD1999999-0041MW1201REMSYN088AAXX  11124 83096 21695 60906 10271 20222 30138 40145 72055 84530 333 20249 59004 69944;
0171830960999992003111118004-10917-037050FM-12+000699999V0200901N002112200019N0020001N1+02731+02261101291ADDAY161061AY261061GF102991021011012501001001MA1999999101221MD1999999-0011MW1211REMSYN082AAXX  11184 83096 21695 20904 10273 20226 30122 40129 72166 82100 333 59001 60011;
0202830960999992003111200004-10917-037050FM-12+000699999V0200901N002612200019N0020001N1+02551+02251101391ADDAY161061AY261061GF102991021051012501001001KA1240M+02791MA1999999101321MD1999999+0021MW1201REMSYN100AAXX  12004 83096 21695 20905 10255 20225 30132 40139 72066 82500 333 10279 29079 55054 58002 60021;
0190830960999992003111212004-10917-037050FM-12+000699999V0200901N002110450019N0020001N1+02711+02221101501ADDAY161061AY261061GF106991031051012501031001KA1240N+02331MA1999999101431MD1999999+0051MW1211REMSYN088AAXX  12124 83096 21695 60904 10271 20222 30143 40150 72166 83530 333 20233 58005 60074;
0148830960999992003111218004-10917-037050FM-12+000699999V0201401N002110120019N0020001N1+02791+02211101331ADDAA106000021GF105991051011012501001001MA1999999101261MD1999999+0041REMSYN070AAXX  12184 83096 32695 51404 10279 20221 30126 40133 85100 333 58004;
0214830960999992003111300004-10917-037050FM-12+000699999V0201401N002112200019N0020001N1+02591+02171101441ADDAA106000091GF102991999011012501001001KA1240M+02931MA1999999101371MD1999999+0051REMSYN088AAXX  13004 83096 32695 21404 10259 20217 30137 40144 83100 333 10293 29075 55038 58005;EQDQ01+000032SCOTLCQ02  00002PRCP06
0186830960999992003111312004-10917-037050FM-12+000699999V0200901N003110450019N0020001N1+02671+02371101531ADDAA106000091GF105991031051012501031001KA1240N+02391MA1999999101461MD1999999+0031REMSYN076AAXX  13124 83096 32695 50906 10267 20237 30146 40153 83530 333 20239 58003;EQDQ01  00002PRCP06
0167830960999992003111318004-10917-037050FM-12+000699999V0200901N004112200019N0020001N1+02821+02291101331ADDAA106000091GF101991011011012501001001MA1999999101261MD1999999+0001REMSYN070AAXX  13184 83096 32695 10908 10282 20229 30126 40133 81100 333 58000;EQDQ01  00002PRCP06
0198830960999992003111400004-10917-037050FM-12+000699999V0200901N004112200019N0020001N1+02631+02311101381ADDAA106000091GF102991021011012501001001KA1240M+02931MA1999999101311MD1999999-0061REMSYN088AAXX  14004 83096 32695 20908 10263 20231 30131 40138 82100 333 10293 29081 55077 59006;EQDQ01  00002PRCP06
0186830960999992003111412004-10917-037050FM-12+000699999V0200901N004612200019N0020001N1+02801+02361101441ADDAA106000091GF101991011011012501001001KA1240N+02391MA1999999101371MD1999999-0091REMSYN076AAXX  14124 83096 32695 10909 10280 20236 30137 40144 81100 333 20239 59009;EQDQ01  00002PRCP06
0167830960999992003111418004-10917-037050FM-12+000699999V0200901N005712200019N0020001N1+02781+02341101171ADDAA106000091GF101991011011012501001001MA1999999101101MD1999999-0161REMSYN070AAXX  14184 83096 32695 10911 10278 20234 30110 40117 81100 333 59016;EQDQ01  00002PRCP06
0186830960999992003111512004-10917-037050FM-12+000699999V0200901N003110120019N0020001N1+02811+02331101561ADDAA106000091GF108991081041012501001001KA1240N+02371MA1999999101491MD1999999+0121REMSYN076AAXX  15124 83096 32695 80906 10281 20233 30149 40156 88400 333 20237 58012;EQDQ01  00002PRCP06
0167830960999992003111518004-10917-037050FM-12+000699999V0201401N002612200019N0020001N1+02741+02261101361ADDAA106000091GF103991031041012501001001MA1999999101291MD1999999+0191REMSYN070AAXX  15184 83096 32695 31405 10274 20226 30129 40136 83400 333 58019;EQDQ01  00002PRCP06
0202830960999992003111600004-10917-037050FM-12+000699999V0201401N002610120019N0020001N1+02621+02291101521ADDAY161061AY261061GF105991051051012501001001KA1240M+02971MA1999999101451MD1999999+0051MW1201REMSYN100AAXX  16004 83096 21695 51405 10262 20229 30145 40152 72066 85500 333 10297 29078 55089 58005 69921;
0190830960999992003111612004-10917-037050FM-12+000699999V0201401N002112200019N0020001N1+02891+02341101591ADDAY161061AY261061GF101991011011012501001001KA1240N+02331MA1999999101521MD1999999+0031MW1201REMSYN088AAXX  16124 83096 21695 11404 10289 20234 30152 40159 72066 81100 333 20233 58003 69924;
0171830960999992003111618004-10917-037050FM-12+000699999V0200901N005110120019N0020001N1+02531+02361101291ADDAY161061AY261061GF108991081051012501001001MA1999999101221MD1999999-0071MW1201REMSYN082AAXX  16184 83096 21695 80910 10253 20236 30122 40129 72066 88500 333 59007 69941;
0202830960999992003111700004-10917-037050FM-12+000699999V0200901N002610120019N0020001N1+02571+02381101391ADDAY161061AY261061GF106991061051012501001001KA1240M+02961MA1999999101321MD1999999-0131MW1201REMSYN100AAXX  17004 83096 21695 60905 10257 20238 30132 40139 72066 86500 333 10296 29085 55040 59013 60011;
0190830960999992003111712004-10917-037050FM-12+000699999V0201401N002610120019N0020001N1+02881+02441101461ADDAY161061AY261061GF106991061011012501001001KA1240N+02331MA1999999101391MD1999999-0131MW1201REMSYN088AAXX  17124 83096 21695 61405 10288 20244 30139 40146 72066 86100 333 20233 59013 60044;
0171830960999992003111718004-10917-037050FM-12+000699999V0200901N002610120019N0020001N1+02611+02371101241ADDAY161061AY261061GF108991081051012501001001MA1999999101171MD1999999-0051MW1201REMSYN082AAXX  17184 83096 21695 80905 10261 20237 30117 40124 72066 88500 333 59005 60021;
0202830960999992003111800004-10917-037050FM-12+000699999V0200901N003110120019N0020001N1+02601+02331101371ADDAY161061AY261061GF108991081051012501001001KA1240M+02991MA1999999101301MD1999999-0021MW1201REMSYN100AAXX  18004 83096 21695 80906 10260 20233 30130 40137 72066 88500 333 10299 29083 55062 59002 69941;
0190830960999992003111812004-10917-037050FM-12+000699999V0200901N003610120019N0020001N1+02851+02231101481ADDAY161061AY261061GF106991061051012501001001KA1240N+02331MA1999999101411MD1999999+0021MW1201REMSYN088AAXX  18124 83096 21695 60907 10285 20223 30141 40148 72066 86500 333 20233 58002 60034;
0148830960999992003111818004-10917-037050FM-12+000699999V0200901N002112200019N0020001N1+02831+02201101231ADDAA106000021GF102991021011012501001001MA1999999101161MD1999999-0011REMSYN070AAXX  18184 83096 32695 20904 10283 20220 30116 40123 82100 333 59001;
0198830960999992003111900004-10917-037050FM-12+000699999V0200901N002612200019N0020001N1+02601+02171101341ADDAA106000091GF102991021051012501001001KA1240M+02951MA1999999101271MD1999999-0031REMSYN088AAXX  19004 83096 32695 20905 10260 20217 30127 40134 82500 333 10295 29073 55111 59003;EQDQ01  00002PRCP06
0186830960999992003111912004-10917-037050FM-12+000699999V0200901N004112200019N0020001N1+02831+02311101361ADDAA106000091GF102991021011012501001001KA1240N+02351MA1999999101291MD1999999-0121REMSYN076AAXX  19124 83096 32695 20908 10283 20231 30129 40136 82100 333 20235 59012;EQDQ01  00002PRCP06
0167830960999992003111918004-10917-037050FM-12+000699999V0200901N004112200019N0020001N1+02821+02071101081ADDAA106000091GF101991011011012501001001MA1999999101011MD1999999-0151REMSYN070AAXX  19184 83096 32695 10908 10282 20207 30101 40108 81100 333 59015;EQDQ01  00002PRCP06
0198830960999992003112000004-10917-037050FM-12+000699999V0200901N004112200019N0020001N1+02601+02101101151ADDAA106000091GF101991011051012501001001KA1240M+02931MA1999999101081MD1999999-0191REMSYN088AAXX  20004 83096 32695 10908 10260 20210 30108 40115 81500 333 10293 29071 55108 59019;EQDQ01  00002PRCP06
0186830960999992003112012004-10917-037050FM-12+000699999V0200901N003110120019N0020001N1+02701+02281101461ADDAA106000091GF105991051051012501001001KA1240N+02241MA1999999101391MD1999999+0101REMSYN076AAXX  20124 83096 32695 50906 10270 20228 30139 40146 85500 333 20224 58010;EQDQ01  00002PRCP06
0167830960999992003112018004-10917-037050FM-12+000699999V0200901N003612200019N0020001N1+02811+02381101201ADDAA106000091GF101991011011012501001001MA1999999101131MD1999999+0121REMSYN070AAXX  20184 83096 32695 10907 10281 20238 30113 40120 81100 333 58012;EQDQ01  00002PRCP06
0214830960999992003112100004-10917-037050FM-12+000699999V0200801N046820120019N0020001N1+02661+02291101431ADDAA106000091GF105991051051012501001001KA1240M+02901MA1999999101361MD1999999+0281REMSYN088AAXX  21004 83096 32695 50891 10266 20229 30136 40143 85500 333 10290 29080 55112 58028;EQDQ01+004683WOSPD Q02  00002PRCP06
0167830960999992003112118004-10917-037050FM-12+000699999V0201401N003112200019N0020001N1+02831+02401101211ADDAA106000091GF101991011011012501001001MA1999999101141MD1999999+0011REMSYN070AAXX  21184 83096 32695 11406 10283 20240 30114 40121 81100 333 58001;EQDQ01  00002PRCP06
0202830960999992003112200004-10917-037050FM-12+000699999V0201401N003110120019N0020001N1+02581+02441101511ADDAY161061AY261061GF108991081051012501001001KA1240M+02971MA1999999101441MD1999999+0081MW1201REMSYN100AAXX  22004 83096 21695 81406 10258 20244 30144 40151 72066 88500 333 10297 29084 55108 58008 60021;
0190830960999992003112212004-10917-037050FM-12+000699999V0200901N003612200019N0020001N1+02881+02351101471ADDAY161061AY261061GF103991031011012501001001KA1240N+02281MA1999999101401MD1999999-0121MW1201REMSYN088AAXX  22124 83096 21695 30907 10288 20235 30140 40147 72066 83100 333 20228 59012 60044;
0148830960999992003112218004-10917-037050FM-12+000699999V0201401N002612200019N0020001N1+02811+02361101081ADDAA106000021GF101991011011012501001001MA1999999101011MD1999999-0131REMSYN070AAXX  22184 83096 32695 11405 10281 20236 30101 40108 81100 333 59013;
0202830960999992003112300004-10917-037050FM-12+000699999V0201801N001510120019N0020001N1+02401+02241101411ADDAY161061AY261061GF108991081051012501001001KA1240M+02991MA1999999101341MD1999999-0101MW1201REMSYN100AAXX  23004 83096 21695 81803 10240 20224 30134 40141 72066 88500 333 10299 29083 55097 59010 60021;
0190830960999992003112312004-10917-037050FM-12+000699999V0201401N003110120019N0020001N1+02651+02311101451ADDAY161061AY261061GF108991081021012501001001KA1240N+02281MA1999999101381MD1999999-0021MW1201REMSYN088AAXX  23124 83096 21695 81406 10265 20231 30138 40145 72066 88200 333 20228 59002 60064;
0148830960999992003112318004-10917-037050FM-12+000699999V0201401N003110120019N0020001N1+02641+02141101301ADDAA106000021GF108991081021012501001001MA1999999101231MD1999999+0221REMSYN070AAXX  23184 83096 32695 81406 10264 20214 30123 40130 88200 333 58022;
0198830960999992003112400004-10917-037050FM-12+000699999V0201401N001512200019N0020001N1+02561+02191101411ADDAA106000091GF101991011051012501001001KA1240M+02871MA1999999101341MD1999999+0001REMSYN088AAXX  24004 83096 32695 11403 10256 20219 30134 40141 81500 333 10287 29079 55053 58000;EQDQ01  00002PRCP06
0186830960999992003112412004-10917-037050FM-12+000699999V0200901N002612200019N0020001N1+02811+02181101331ADDAA106000091GF103991031011012501001001KA1240N+02301MA1999999101251MD1999999-0131REMSYN076AAXX  24124 83096 32695 30905 10281 20218 30125 40133 83100 333 20230 59013;EQDQ01  00002PRCP06
0167830960999992003112418004-10917-037050FM-12+000699999V0200901N002612200019N0020001N1+02831+02241101251ADDAA106000091GF102991021011012501001001MA1999999101181MD1999999-0051REMSYN070AAXX  24184 83096 32695 20905 10283 20224 30118 40125 82100 333 59005;EQDQ01  00002PRCP06
0198830960999992003112500004-10917-037050FM-12+000699999V0200901N003112200019N0020001N1+02611+02191101311ADDAA106000091GF101991011011012501001001KA1240M+02951MA1999999101241MD1999999-0101REMSYN088AAXX  25004 83096 32695 10906 10261 20219 30124 40131 81100 333 10295 29074 55105 59010;EQDQ01  00002PRCP06
0186830960999992003112512004-10917-037050FM-12+000699999V0200901N003112200019N0020001N1+02791+02301101471ADDAA106000091GF102991021011012501001001KA1240N+02491MA1999999101401MD1999999+0151REMSYN076AAXX  25124 83096 32695 20906 10279 20230 30140 40147 82100 333 20249 58015;EQDQ01  00002PRCP06
0167830960999992003112518004-10917-037050FM-12+000699999V0200901N003112200019N0020001N1+02831+02221101351ADDAA106000091GF102991021011012501001001MA1999999101281MD1999999+0101REMSYN070AAXX  25184 83096 32695 20906 10283 20222 30128 40135 82100 333 58010;EQDQ01  00002PRCP06
0198830960999992003112600004-10917-037050FM-12+000699999V0200901N004112200019N0020001N1+02631+02211101471ADDAA106000091GF103991031011012501001001KA1240M+02951MA1999999101401MD1999999+0161REMSYN088AAXX  26004 83096 32695 30908 10263 20221 30140 40147 83100 333 10295 29075 55096 58016;EQDQ01  00002PRCP06
0186830960999992003112612004-10917-037050FM-12+000699999V0200901N004110450019N0020001N1+02811+02221101531ADDAA106000091GF106991021051012501031001KA1240N+02491MA1999999101461MD1999999+0061REMSYN076AAXX  26124 83096 32695 60908 10281 20222 30146 40153 82530 333 20249 58006;EQDQ01  00002PRCP06
0167830960999992003112618004-10917-037050FM-12+000699999V0200901N003612200019N0020001N1+02851+02291101451ADDAA106000091GF104991041011012501001001MA1999999101381MD1999999+0101REMSYN070AAXX  26184 83096 32695 40907 10285 20229 30138 40145 84100 333 58010;EQDQ01  00002PRCP06
0198830960999992003112700004-10917-037050FM-12+000699999V0200901N003112200019N0020001N1+02621+02211101471ADDAA106000091GF102991021011012501001001KA1240M+02951MA1999999101401MD1999999+0001REMSYN088AAXX  27004 83096 32695 20906 10262 20221 30140 40147 82100 333 10295 29075 55082 58000;EQDQ01  00002PRCP06
0186830960999992003112712004-10917-037050FM-12+000699999V0200901N003112200019N0020001N1+02811+02111101431ADDAA106000091GF103991031011012501001001KA1240N+02491MA1999999101361MD1999999-0101REMSYN076AAXX  27124 83096 32695 30906 10281 20211 30136 40143 83100 333 20249 59010;EQDQ01  00002PRCP06
0167830960999992003112718004-10917-037050FM-12+000699999V0200901N003112200019N0020001N1+02821+02171101131ADDAA106000091GF101991011011012501001001MA1999999101061MD1999999-0321REMSYN070AAXX  27184 83096 32695 10906 10282 20217 30106 40113 81100 333 59032;EQDQ01  00002PRCP06
0198830960999992003112800004-10917-037050FM-12+000699999V0200901N002612200019N0020001N1+02611+02141101221ADDAA106000091GF101991011011012501001001KA1240M+02951MA1999999101151MD1999999-0251REMSYN088AAXX  28004 83096 32695 10905 10261 20214 30115 40122 81100 333 10295 29071 55116 59025;EQDQ01  00002PRCP06
0190830960999992003112812004-10917-037050FM-12+000699999V0200901N002612200019N0020001N1+02591+02381101251ADDAY161061AY261061GF104991021051008001031001KA1240N+02421MA1999999101181MD1999999-0181MW1601REMSYN088AAXX  28124 83096 21595 40905 10259 20238 30118 40125 76066 82530 333 20242 59018 60044;
0148830960999992003112818004-10917-037050FM-12+000699999V0200901N003612200019N0020001N1+02791+02251100991ADDAA106000021GF101991011011012501001001MA1999999100921MD1999999-0141REMSYN070AAXX  28184 83096 32695 10907 10279 20225 30092 40099 81100 333 59014;
0214830960999992003112900004-10917-037050FM-12+000699999V0200901N003112200019N0020001N1+02611+02251101071ADDAA106000091GF102991999011012501001001KA1240M+02931MA1999999101001MD1999999-0151REMSYN088AAXX  29004 83096 32695 20906 10261 20225 30100 40107 81100 333 10293 29081 55107 59015;EQDQ01+000012SCOTLCQ02  00002PRCP06
0186830960999992003112912004-10917-037050FM-12+000699999V0200901N003612200019N0020001N1+02831+02271101221ADDAA106000091GF103991031011012501001001KA1240N+02411MA1999999101151MD1999999-0031REMSYN076AAXX  29124 83096 32695 30907 10283 20227 30115 40122 83100 333 20241 59003;EQDQ01  00002PRCP06
0167830960999992003112918004-10917-037050FM-12+000699999V0200901N004112200019N0020001N1+02831+02221101021ADDAA106000091GF101991011011012501001001MA1999999100951MD1999999+0031REMSYN070AAXX  29184 83096 32695 10908 10283 20222 30095 40102 81100 333 58003;EQDQ01  00002PRCP06
0198830960999992003113000004-10917-037050FM-12+000699999V0200901N004112200019N0020001N1+02651+02291101091ADDAA106000091GF102991021011012501001001KA1240M+02951MA1999999101021MD1999999+0021REMSYN088AAXX  30004 83096 32695 20908 10265 20229 30102 40109 82100 333 10295 29076 55111 58002;EQDQ01  00002PRCP06
0186830960999992003113012004-10917-037050FM-12+000699999V0200901N003610450019N0020001N1+02831+02291101211ADDAA106000091GF105991021051012501031001KA1240N+02491MA1999999101241MD1999999+0091REMSYN076AAXX  30124 83096 32695 50907 10283 20229 30124 40121 82530 333 20249 58009;EQDQ01  00002PRCP06
0167830960999992003113018004-10917-037050FM-12+000699999V0200901N003112200019N0020001N1+02851+02291101241ADDAA106000091GF101991011011012501001001MA1999999101171MD1999999+0221REMSYN070AAXX  30184 83096 32695 10906 10285 20229 30117 40124 81100 333 58022;EQDQ01  00002PRCP06
0198830960999992003120100004-10917-037050FM-12+000699999V0200901N003112200019N0020001N1+02631+02411101211ADDAA106000091GF101991011011012501001001KA1240M+02971MA1999999101141MD1999999+0121REMSYN088AAXX  01004 83096 32695 10906 10263 20241 30114 40121 81100 333 10297 29080 55098 58012;EQDQ01  00002PRCP06
0186830960999992003120112004-10917-037050FM-12+000699999V0200901N003112200019N0020001N1+02851+02311101331ADDAA106000091GF103991031011012501001001KA1240N+02491MA1999999101121MD1999999+0021REMSYN076AAXX  01124 83096 32695 30906 10285 20231 30112 40133 83100 333 20249 58002;EQDQ01  00002PRCP06
0167830960999992003120118004-10917-037050FM-12+000699999V0200901N005112200019N0020001N1+02791+02291100991ADDAA106000091GF102991011011012501001011MA1999999100921MD1999999-0251REMSYN070AAXX  01184 83096 32695 20910 10279 20229 30092 40099 81101 333 59025;EQDQ01  00002PRCP06
0198830960999992003120200004-10917-037050FM-12+000699999V0200901N002610120019N0020001N1+02651+02371101171ADDAA106000091GF108991081051012501001001KA1240M+02941MA1999999101101MD1999999-0041REMSYN088AAXX  02004 83096 32695 80905 10265 20237 30110 40117 88500 333 10294 29079 55091 59004;EQDQ01  00002PRCP06
0186830960999992003120212004-10917-037050FM-12+000699999V0200901N005112200019N0020001N1+02861+02281101231ADDAA106000091GF101991011011012501001001KA1240N+02491MA1999999101161MD1999999-0101REMSYN076AAXX  02124 83096 32695 10910 10286 20228 30116 40123 81100 333 20249 59010;EQDQ01  00002PRCP06
0167830960999992003120218004-10917-037050FM-12+000699999V0200901N005112200019N0020001N1+02841+02331100951ADDAA106000091GF101991011011012501001001MA1999999100881MD1999999-0041REMSYN070AAXX  02184 83096 32695 10910 10284 20233 30088 40095 81100 333 59004;EQDQ01  00002PRCP06
0198830960999992003120300004-10917-037050FM-12+000699999V0200901N004610120019N0020001N1+02631+02361101191ADDAA106000091GF105991051051012501001001KA1240M+02971MA1999999101121MD1999999+0021REMSYN088AAXX  03004 83096 32695 50909 10263 20236 30112 40119 85500 333 10297 29079 55113 58002;EQDQ01  00002PRCP06
0186830960999992003120312004-10917-037050FM-12+000699999V0200501N004112200019N0020001N1+02871+02321101311ADDAA106000091GF101991011011012501001001KA1240N+02411MA1999999101241MD1999999+0081REMSYN076AAXX  03124 83096 32695 10508 10287 20232 30124 40131 81100 333 20241 58008;EQDQ01  00002PRCP06
0167830960999992003120318004-10917-037050FM-12+000699999V0200901N005712200019N0020001N1+02851+02331100951ADDAA106000091GF101991011011012501011001MA1999999100881MD1999999+0001REMSYN070AAXX  03184 83096 32695 10911 10285 20233 30088 40095 81110 333 58000;EQDQ01  00002PRCP06
0198830960999992003120400004-10917-037050FM-12+000699999V0200901N004112200019N0020001N1+02651+02291101211ADDAA106000091GF103991031051012501001001KA1240M+02991MA1999999101141MD1999999+0021REMSYN088AAXX  04004 83096 32695 30908 10265 20229 30114 40121 83500 333 10299 29076 55115 58002;EQDQ01  00002PRCP06
0186830960999992003120412004-10917-037050FM-12+000699999V0200501N005112200019N0020001N1+02881+02351101311ADDAA106000091GF103991031011012501001001KA1240N+02451MA1999999101241MD1999999+0001REMSYN076AAXX  04124 83096 32695 30510 10288 20235 30124 40131 83100 333 20245 58000;EQDQ01  00002PRCP06
0167830960999992003120418004-10917-037050FM-12+000699999V0200901N005712200019N0020001N1+02851+02351100971ADDAA106000091GF101991011011012501001001MA1999999100921MD1999999+0041REMSYN070AAXX  04184 83096 32695 10911 10285 20235 30092 40097 81100 333 58004;EQDQ01  00002PRCP06
0198830960999992003120500004-10917-037050FM-12+000699999V0200901N005110120019N0020001N1+02651+02311101271ADDAA106000091GF105991051051012501021001KA1240M+02991MA1999999101201MD1999999+0061REMSYN088AAXX  05004 83096 32695 50910 10265 20231 30120 40127 85520 333 10299 29077 55115 58006;EQDQ01  00002PRCP06
0186830960999992003120512004-10917-037050FM-12+000699999V0200901N004112200019N0020001N1+02891+02391101311ADDAA106000091GF103991021011012501001011KA1240N+02451MA1999999101241MD1999999+0001REMSYN076AAXX  05124 83096 32695 30908 10289 20239 30124 40131 82101 333 20245 58000;EQDQ01  00002PRCP06
0167830960999992003120518004-10917-037050FM-12+000699999V0200901N005112200019N0020001N1+02891+02431101011ADDAA106000091GF101991011011012501001001MA1999999100941MD1999999+0021REMSYN070AAXX  05184 83096 32695 10910 10289 20243 30094 40101 81100 333 58002;EQDQ01  00002PRCP06
0198830960999992003120600004-10917-037050FM-12+000699999V0200901N005112200019N0020001N1+02691+02431101221ADDAA106000091GF103991031051012501001001KA1240M+03011MA1999999101151MD1999999-0051REMSYN088AAXX  06004 83096 32695 30910 10269 20243 30115 40122 83500 333 10301 29080 55108 59005;EQDQ01  00002PRCP06
0186830960999992003120612004-10917-037050FM-12+000699999V0200901N005112200019N0020001N1+02861+02351101401ADDAA106000091GF102991021011012501001001KA1240N+02431MA1999999101331MD1999999+0091REMSYN076AAXX  06124 83096 32695 20910 10286 20235 30133 40140 82100 333 20243 58009;EQDQ01  00002PRCP06
0167830960999992003120618004-10917-037050FM-12+000699999V0200901N005712200019N0020001N1+02871+02391101021ADDAA106000091GF101991011011012501001001MA1999999100951MD1999999+0011REMSYN070AAXX  06184 83096 32695 10911 10287 20239 30095 40102 81100 333 58001;EQDQ01  00002PRCP06
0186830960999992003120712004-10917-037050FM-12+000699999V0200901N005112200019N0020001N1+02901+02411101351ADDAA106000091GF102991021011012501001001KA1240N+02431MA1999999101281MD1999999-0051REMSYN076AAXX  07124 83096 32695 20910 10290 20241 30128 40135 82100 333 20243 59005;EQDQ01  00002PRCP06
0167830960999992003120718004-10917-037050FM-12+000699999V0200901N005112200019N0020001N1+02871+02501101121ADDAA106000091GF101991011011012501001001MA1999999101051MD1999999+0101REMSYN070AAXX  07184 83096 32695 10910 10287 20250 30105 40112 81100 333 58010;EQDQ01  00002PRCP06
0198830960999992003120800004-10917-037050FM-12+000699999V0200901N004112200019N0020001N1+02671+02311101321ADDAA106000091GF103991031051012501001001KA1240M+03031MA1999999101251MD1999999+0121REMSYN088AAXX  08004 83096 32695 30908 10267 20231 30125 40132 83500 333 10303 29081 55112 58012;EQDQ01  00002PRCP06
0186830960999992003120812004-10917-037050FM-12+000699999V0200901N002612200019N0020001N1+02851+02311101471ADDAA106000091GF104991041011012501001001KA1240N+02411MA1999999101401MD1999999+0121REMSYN076AAXX  08124 83096 32695 40905 10285 20231 30140 40147 84100 333 20241 58012;EQDQ01  00002PRCP06
0167830960999992003120818004-10917-037050FM-12+000699999V0200901N004112200019N0020001N1+02871+02231101281ADDAA106000091GF101991011011012501001001MA1999999101311MD1999999+0261REMSYN070AAXX  08184 83096 32695 10908 10287 20223 30131 40128 81100 333 58026;EQDQ01  00002PRCP06
0186830960999992003120912004-10917-037050FM-12+000699999V0200901N002612200019N0020001N1+02871+02231101571ADDAA106000091GF102991021011012501001001KA1240N+02491MA1999999101501MD1999999+0101REMSYN076AAXX  09124 83096 32695 20905 10287 20223 30150 40157 82100 333 20249 58010;EQDQ01  00002PRCP06
0167830960999992003120918004-10917-037050FM-12+000699999V0200901N003612200019N0020001N1+02871+02191101401ADDAA106000091GF102991021011012501001001MA1999999101331MD1999999+0021REMSYN070AAXX  09184 83096 32695 20907 10287 20219 30133 40140 82100 333 58002;EQDQ01  00002PRCP06
0198830960999992003121000004-10917-037050FM-12+000699999V0200901N004112200019N0020001N1+02651+02121101481ADDAA106000091GF102991021011012501001001KA1240M+03021MA1999999101411MD1999999-0021REMSYN088AAXX  10004 83096 32695 20908 10265 20212 30141 40148 82100 333 10302 29070 55112 59002;EQDQ01  00002PRCP06
0186830960999992003121012004-10917-037050FM-12+000699999V0200901N004110120019N0020001N1+02851+02121101531ADDAA106000091GF105991051011012501001001KA1240N+02491MA1999999101461MD1999999-0041REMSYN076AAXX  10124 83096 32695 50908 10285 20212 30146 40153 85100 333 20249 59004;EQDQ01  00002PRCP06
0167830960999992003121018004-10917-037050FM-12+000699999V0200901N004112200019N0020001N1+02871+02191101301ADDAA106000091GF101991011011012501001001MA1999999101231MD1999999-0101REMSYN070AAXX  10184 83096 32695 10908 10287 20219 30123 40130 81100 333 59010;EQDQ01  00002PRCP06
0198830960999992003121100004-10917-037050FM-12+000699999V0200901N003110120019N0020001N1+02671+02371101431ADDAA106000091GF106991061051012501001001KA1240M+03011MA1999999101361MD1999999-0051REMSYN088AAXX  11004 83096 32695 60906 10267 20237 30136 40143 86500 333 10301 29074 55108 59005;EQDQ01  00002PRCP06
0186830960999992003121112004-10917-037050FM-12+000699999V0200901N003110120019N0020001N1+02931+02431101651ADDAA106000091GF105991051011012501001001KA1240N+02471MA1999999101581MD1999999+0121REMSYN076AAXX  11124 83096 32695 50906 10293 20243 30158 40165 85100 333 20247 58012;EQDQ01  00002PRCP06
0167830960999992003121118004-10917-037050FM-12+000699999V0200901N005112200019N0020001N1+02891+02391101361ADDAA106000091GF104991041011012501001001MA1999999101291MD1999999+0061REMSYN070AAXX  11184 83096 32695 40910 10289 20239 30129 40136 84100 333 58006;EQDQ01  00002PRCP06
0198830960999992003121200004-10917-037050FM-12+000699999V0200901N002612200019N0020001N1+02651+02181101471ADDAA106000091GF103991031011012501001001KA1240M+03041MA1999999101401MD1999999+0041REMSYN088AAXX  12004 83096 32695 30905 10265 20218 30140 40147 83100 333 10304 29075 55108 58004;EQDQ01  00002PRCP06
0186830960999992003121212004-10917-037050FM-12+000699999V0200901N002612200019N0020001N1+02831+02201101471ADDAA106000091GF102991021011012501001001KA1240N+02491MA1999999101401MD1999999-0181REMSYN076AAXX  12124 83096 32695 20905 10283 20220 30140 40147 82100 333 20249 59018;EQDQ01  00002PRCP06
0167830960999992003121218004-10917-037050FM-12+000699999V0200901N002112200019N0020001N1+02871+02161101271ADDAA106000091GF101991011011012501001001MA1999999101201MD1999999-0091REMSYN070AAXX  12184 83096 32695 10904 10287 20216 30120 40127 81100 333 59009;EQDQ01  00002PRCP06
0198830960999992003121400004-10917-037050FM-12+000699999V0200901N002612200019N0020001N1+02651+02271101331ADDAA106000091GF102991021051012501001001KA1240M+03011MA1999999101261MD1999999-0041REMSYN088AAXX  14004 83096 32695 20905 10265 20227 30126 40133 82500 333 10301 29075 55116 59004;EQDQ01  00002PRCP06
0190830960999992003121412004-10917-037050FM-12+000699999V0201401N002110075019N0010001N1+02441+02271101441ADDAY161061AY261061GF106991061051008001001001KA1240N+02261MA1999999101371MD1999999+0081MW1611REMSYN088AAXX  14124 83096 21594 61404 10244 20227 30137 40144 76166 86500 333 20226 58008 60344;
0148830960999992003121418004-10917-037050FM-12+000699999V0200901N002110450019N0020001N1+02611+02251101331ADDAA106000021GF106991041051012501031001MA1999999101261MD1999999+0111REMSYN070AAXX  14184 83096 32695 60904 10261 20225 30126 40133 84530 333 58011;
0198830960999992003121500004-10917-037050FM-12+000699999V0200901N002112200019N0020001N1+02611+02351101411ADDAA106000091GF103991031051012501001001KA1240M+02871MA1999999101341MD1999999+0081REMSYN088AAXX  15004 83096 32695 30904 10261 20235 30134 40141 83500 333 10287 29085 55023 58008;EQDQ01  00002PRCP06
0190830960999992003121512004-10917-037050FM-12+000699999V0200901N005110120019N0020001N1+02851+02371101151ADDAY161061AY261061GF106991061011012501001001KA1240N+02411MA1999999101491MD1999999+0121MW1201REMSYN088AAXX  15124 83096 21695 60910 10285 20237 30149 40115 72066 86100 333 20241 58012 69974;
0148830960999992003121518004-10917-037050FM-12+000699999V0200901N005112200019N0020001N1+02861+02331101251ADDAA106000021GF102991021011012501001001MA1999999101181MD1999999-0081REMSYN070AAXX  15184 83096 32695 20910 10286 20233 30118 40125 82100 333 59008;
0198830960999992003121600004-10917-037050FM-12+000699999V0200901N003112200019N0020001N1+02631+02271101451ADDAA106000091GF102991021051012501001001KA1240M+03011MA1999999101381MD1999999+0021REMSYN088AAXX  16004 83096 32695 20906 10263 20227 30138 40145 82500 333 10301 29077 55097 58002;EQDQ01  00002PRCP06
0186830960999992003121612004-10917-037050FM-12+000699999V0200901N003612200019N0020001N1+02861+02231101511ADDAA106000091GF102991021011012501001001KA1240N+02411MA1999999101441MD1999999-0051REMSYN076AAXX  16124 83096 32695 20907 10286 20223 30144 40151 82100 333 20241 59005;EQDQ01  00002PRCP06
0167830960999992003121618004-10917-037050FM-12+000699999V0201401N003112200019N0020001N1+02861+02211101221ADDAA106000091GF102991021011012501001001MA1999999101151MD1999999-0031REMSYN070AAXX  16184 83096 32695 21406 10286 20221 30115 40122 82100 333 59003;EQDQ01  00002PRCP06
0198830960999992003121700004-10917-037050FM-12+000699999V0200901N003112200019N0020001N1+02611+02181101451ADDAA106000091GF103991031051012501001001KA1240M+02971MA1999999101381MD1999999+0021REMSYN088AAXX  17004 83096 32695 30906 10261 20218 30138 40145 83500 333 10297 29073 55119 58002;EQDQ01  00002PRCP06
0186830960999992003121712004-10917-037050FM-12+000699999V0200901N003612200019N0020001N1+02871+02161101411ADDAA106000091GF103991021011012501001011KA1240N+02351MA1999999101341MD1999999-0101REMSYN076AAXX  17124 83096 32695 30907 10287 20216 30134 40141 82101 333 20235 59010;EQDQ01  00002PRCP06
0167830960999992003121718004-10917-037050FM-12+000699999V0200901N003612200019N0020001N1+02851+02231101221ADDAA106000091GF101991011011012501001001MA1999999101151MD1999999+0001REMSYN070AAXX  17184 83096 32695 10907 10285 20223 30115 40122 81100 333 58000;EQDQ01  00002PRCP06
0198830960999992003121800004-10917-037050FM-12+000699999V0200901N003612200019N0020001N1+02631+02181101391ADDAA106000091GF102991021051012501001001KA1240M+02971MA1999999101321MD1999999-0061REMSYN088AAXX  18004 83096 32695 20907 10263 20218 30132 40139 82500 333 10297 29071 55114 59006;EQDQ01  00002PRCP06
0186830960999992003121812004-10917-037050FM-12+000699999V0200901N003112200019N0020001N1+02851+02191101621ADDAA106000091GF106991041011012501001011KA1240N+02351MA1999999101551MD1999999+0211REMSYN076AAXX  18124 83096 32695 60906 10285 20219 30155 40162 84101 333 20235 58021;EQDQ01  00002PRCP06
0186830960999992003121912004-10917-037050FM-12+000699999V0200901N003112200019N0020001N1+02911+02171101741ADDAA106000091GF103991021011012501001011KA1240N+02391MA1999999101671MD1999999+0121REMSYN076AAXX  19124 83096 32695 30906 10291 20217 30167 40174 82101 333 20239 58012;EQDQ01  00002PRCP06
0167830960999992003121918004-10917-037050FM-12+000699999V0200901N003110120019N0020001N1+02881+02251101501ADDAA106000091GF105991051011012501001001MA1999999101431MD1999999+0131REMSYN070AAXX  19184 83096 32695 50906 10288 20225 30143 40150 85100 333 58013;EQDQ01  00002PRCP06
0198830960999992003122000004-10917-037050FM-12+000699999V0200901N001512200019N0020001N1+02661+02241101791ADDAA106000091GF103991031051012501001001KA1240M+03001MA1999999101721MD1999999+0251REMSYN088AAXX  20004 83096 32695 30903 10266 20224 30172 40179 83500 333 10300 29073 55096 58025;EQDQ01  00002PRCP06
0186830960999992003122012004-10917-037050FM-12+000699999V0200901N004112200019N0020001N1+02911+02241101741ADDAA106000091GF106991031011012501001011KA1240N+02391MA1999999101671MD1999999+0001REMSYN076AAXX  20124 83096 32695 60908 10291 20224 30167 40174 83101 333 20239 58000;EQDQ01  00002PRCP06
0167830960999992003122018004-10917-037050FM-12+000699999V0201401N002612200019N0020001N1+02861+02211101421ADDAA106000091GF102991021011012501001001MA1999999101351MD1999999-0081REMSYN070AAXX  20184 83096 32695 21405 10286 20221 30135 40142 82100 333 59008;EQDQ01  00002PRCP06
0198830960999992003122100004-10917-037050FM-12+000699999V0201401N002612200019N0020001N1+02641+02071101671ADDAA106000091GF102991021051012501001001KA1240M+03011MA1999999101601MD1999999-0121REMSYN088AAXX  21004 83096 32695 21405 10264 20207 30160 40167 82500 333 10301 29069 55102 59012;EQDQ01  00002PRCP06
0186830960999992003122112004-10917-037050FM-12+000699999V0200901N004112200019N0020001N1+02871+02211101631ADDAA106000091GF105991031011012501001011KA1240N+02411MA1999999101561MD1999999-0111REMSYN076AAXX  21124 83096 32695 50908 10287 20221 30156 40163 83101 333 20241 59011;EQDQ01  00002PRCP06
0198830960999992003122200004-10917-037050FM-12+000699999V0200901N004112200019N0020001N1+02641+02181101421ADDAA106000091GF101991011051012501001001KA1240M+03001MA1999999101351MD1999999-0251REMSYN088AAXX  22004 83096 32695 10908 10264 20218 30135 40142 81500 333 10300 29072 55111 59025;EQDQ01  00002PRCP06
0186830960999992003122212004-10917-037050FM-12+000699999V0200901N002612200019N0020001N1+02881+02251101421ADDAA106000091GF103991031011012501001001KA1240N+02281MA1999999101351MD1999999-0211REMSYN076AAXX  22124 83096 32695 30905 10288 20225 30135 40142 83100 333 20228 59021;EQDQ01  00002PRCP06
0167830960999992003122218004-10917-037050FM-12+000699999V0200901N004112200019N0020001N1+03891+02351101171ADDAA106000091GF101991011011012501001001MA1999999101101MD1999999-0131REMSYN070AAXX  22184 83096 32695 10908 10389 20235 30110 40117 81100 333 59013;EQDQ01  00002PRCP06
0198830960999992003122300004-10917-037050FM-12+000699999V0200901N004112200019N0020001N1+02651+02391101211ADDAA106000091GF102991021051012501001001KA1240M+03021MA1999999101141MD1999999-0211REMSYN088AAXX  23004 83096 32695 20908 10265 20239 30114 40121 82500 333 10302 29078 55108 59021;EQDQ01  00002PRCP06
0190830960999992003122312004-10917-037050FM-12+000699999V0200901N003110120019N0020001N1+02731+02451101271ADDAY161061AY261061GF105991051051012501001001KA1240N+02451MA1999999101201MD1999999-0151MW1211REMSYN088AAXX  23124 83096 21695 50906 10273 20245 30120 40127 72166 85500 333 20245 59015 60044;
0148830960999992003122318004-10917-037050FM-12+000699999V0200901N005112200019N0020001N1+02881+02351101151ADDAA106000021GF102991021011012501001001MA1999999101081MD1999999-0021REMSYN070AAXX  23184 83096 32695 20910 10288 20235 30108 40115 82100 333 59002;
0198830960999992003122400004-10917-037050FM-12+000699999V0200901N005112200019N0020001N1+02651+02201101171ADDAA106000091GF101991011011012501001001KA1240M+03021MA1999999101101MD1999999-0041REMSYN088AAXX  24004 83096 32695 10910 10265 20220 30110 40117 81100 333 10302 29078 55094 59004;EQDQ01  00002PRCP06
0186830960999992003122412004-10917-037050FM-12+000699999V0200901N003112200019N0020001N1+02851+02141101331ADDAA106000091GF103991031011012501001001KA1240N+02331MA1999999101261MD1999999+0061REMSYN076AAXX  24124 83096 32695 30906 10285 20214 30126 40133 83100 333 20233 58006;EQDQ01  00002PRCP06
0167830960999992003122418004-10917-037050FM-12+000699999V0200901N002612200019N0020001N1+02871+02161101201ADDAA106000091GF103991031011012501001001MA1999999101131MD1999999+0051REMSYN070AAXX  24184 83096 32695 30905 10287 20216 30113 40120 83100 333 58005;EQDQ01  00002PRCP06
0198830960999992003122500004-10917-037050FM-12+000699999V0200901N002112200019N0020001N1+02671+02241101391ADDAA106000091GF102991021051012501001001KA1240M+03011MA1999999101321MD1999999+0221REMSYN088AAXX  25004 83096 32695 20904 10267 20224 30132 40139 82500 333 10301 29072 55109 58022;EQDQ01  00002PRCP06
0186830960999992003122512004-10917-037050FM-12+000699999V0200901N003612200019N0020001N1+02891+02301101441ADDAA106000091GF103991031011012501001001KA1240N+02491MA1999999101371MD1999999+0111REMSYN076AAXX  25124 83096 32695 30907 10289 20230 30137 40144 83100 333 20249 58011;EQDQ01  00002PRCP06
0167830960999992003122518004-10917-037050FM-12+000699999V0200901N003112200019N0020001N1+02931+02321101381ADDAA106000091GF102991021011012501001001MA1999999101311MD1999999+0181REMSYN070AAXX  25184 83096 32695 20906 10293 20232 30131 40138 82100 333 58018;EQDQ01  00002PRCP06
0186830960999992003122612004-10917-037050FM-12+000699999V0200901N003612200019N0020001N1+02891+02211101381ADDAA106000091GF103991031011012501001001KA1240N+02491MA1999999101311MD1999999-0061REMSYN076AAXX  26124 83096 32695 30907 10289 20221 30131 40138 83100 333 20249 59006;EQDQ01  00002PRCP06
0167830960999992003122618004-10917-037050FM-12+000699999V0200901N003112200019N0020001N1+02911+02221101141ADDAA106000091GF103991031011012501001001MA1999999101071MD1999999-0241REMSYN070AAXX  26184 83096 32695 30906 10291 20222 30107 40114 83100 333 59024;EQDQ01  00002PRCP06
0198830960999992003122700004-10917-037050FM-12+000699999V0200901N002612200019N0020001N1+02671+02141101271ADDAA106000091GF102991021011012501001001KA1240M+03021MA1999999101201MD1999999-0161REMSYN088AAXX  27004 83096 32695 20905 10267 20214 30120 40127 82100 333 10302 29070 55114 59016;EQDQ01  00002PRCP06
0186830960999992003122712004-10917-037050FM-12+000699999V0200901N004112200019N0020001N1+02881+02131101261ADDAA106000091GF102991021011012501001001KA1240N+02471MA1999999101191MD1999999-0121REMSYN076AAXX  27124 83096 32695 20908 10288 20213 30119 40126 82100 333 20247 59012;EQDQ01  00002PRCP06
0167830960999992003122718004-10917-037050FM-12+000699999V0200901N003112200019N0020001N1+02891+02211101061ADDAA106000091GF103991031011012501001001MA1999999100991MD1999999-0081REMSYN070AAXX  27184 83096 32695 30906 10289 20221 30099 40106 83100 333 59008;EQDQ01  00002PRCP06
0198830960999992003122800004-10917-037050FM-12+000699999V0200901N003112200019N0020001N1+02691+02281101211ADDAA106000091GF103991031011012501001001KA1240M+03021MA1999999101141MD1999999-0061REMSYN088AAXX  28004 83096 32695 30906 10269 20228 30114 40121 83100 333 10302 29072 55110 59006;EQDQ01  00002PRCP06
0186830960999992003122812004-10917-037050FM-12+000699999V0200901N003112200019N0020001N1+02891+02461101191ADDAA106000091GF103991031011012501001001KA1240N+02491MA1999999101121MD1999999-0071REMSYN076AAXX  28124 83096 32695 30906 10289 20246 30112 40119 83100 333 20249 59007;EQDQ01  00002PRCP06
0167830960999992003122818004-10917-037050FM-12+000699999V0200901N004110120019N0020001N1+02921+02341100981ADDAA106000091GF105991051011012501001001MA1999999100911MD1999999-0081REMSYN070AAXX  28184 83096 32695 50908 10292 20234 30091 40098 85100 333 59008;EQDQ01  00002PRCP06
0198830960999992003122900004-10917-037050FM-12+000699999V0200901N004612200019N0020001N1+02691+02331101111ADDAA106000091GF102991021051012501001001KA1240M+03061MA1999999101041MD1999999-0101REMSYN088AAXX  29004 83096 32695 20909 10269 20233 30104 40111 82500 333 10306 29078 55102 59010;EQDQ01  00002PRCP06
0186830960999992003122912004-10917-037050FM-12+000699999V0200901N005110120019N0020001N1+02891+02431101261ADDAA106000091GF108991081071012501001001KA1240N+02441MA1999999101191MD1999999+0071REMSYN076AAXX  29124 83096 32695 80910 10289 20243 30119 40126 88700 333 20244 58007;EQDQ01  00002PRCP06
0167830960999992003122918004-10917-037050FM-12+000699999V0200901N004110120019N0020001N1+02801+02311101121ADDAA106000091GF108991081071012501001001MA1999999101051MD1999999+0141REMSYN070AAXX  29184 83096 32695 80908 10280 20231 30105 40112 88700 333 58014;EQDQ01  00002PRCP06
0198830960999992003123000004-10917-037050FM-12+000699999V0200901N004110120019N0020001N1+02691+02351101351ADDAA106000091GF108991081051012501001001KA1240M+03011MA1999999101281MD1999999+0241REMSYN088AAXX  30004 83096 32695 80908 10269 20235 30128 40135 88500 333 10301 29078 55011 58024;EQDQ01  00002PRCP06
0190830960999992003123012004-10917-037050FM-12+000699999V0200901N004112200019N0020001N1+02951+02381101441ADDAY161061AY261061GF105991031011012501001011KA1240N+02431MA1999999101371MD1999999+0181MW1201REMSYN088AAXX  30124 83096 21695 50908 10295 20238 30137 40144 72066 83101 333 20243 58018 69984;
0148830960999992003123018004-10917-037050FM-12+000699999V0200901N004112200019N0020001N1+02901+02391101241ADDAA106000021GF105991031011012501001011MA1999999101171MD1999999+0121REMSYN070AAXX  30184 83096 32695 50908 10290 20239 30117 40124 83101 333 58012;
0198830960999992003123100004-10917-037050FM-12+000699999V0200901N004110120019N0020001N1+02691+02301101461ADDAA106000091GF106991061051012501001001KA1240M+03051MA1999999101391MD1999999+0111REMSYN088AAXX  31004 83096 32695 60908 10269 20230 30139 40146 86500 333 10305 29076 55065 58011;EQDQ01  00002PRCP06
0186830960999992003123112004-10917-037050FM-12+000699999V0200901N004112200019N0020001N1+02931+02241101541ADDAA106000091GF103991021011012501001011KA1240N+02441MA1999999101471MD1999999+0101REMSYN076AAXX  31124 83096 32695 30908 10293 20224 30147 40154 82101 333 20244 58010;EQDQ01  00002PRCP06
0167830960999992003123118004-10917-037050FM-12+000699999V0201401N003112200019N0020001N1+02871+02231101161ADDAA106000091GF106991041011012501001011MA1999999101091MD1999999-0181REMSYN070AAXX  31184 83096 32695 61406 10287 20223 30109 40116 84101 333 59018;EQDQ01  00002PRCP06
