0198831820999992003010100004-11300-041870FM-12+074799999V0200501N001510450019N0010001N1+02431+01971101261ADDAA106000091GF108991021031008001061021KA1240M+02901MA1999999093111MD1999999-0051REMSYN088AAXX  01004 83182 32594 80503 10243 20197 39311 40126 82362 333 10290 29070 55083 59005;EQDQ01  00002PRCP06
0186831820999992003010112004-11300-041870FM-12+074799999V0201401N002610450019N0010001N1+02601+01721101291ADDAA106000091GF108991011021008001051011KA1240N+01841MA1999999093151MD1999999-0091REMSYN076AAXX  01124 83182 32594 81405 10260 20172 39315 40129 81251 333 20184 59009;EQDQ01  00002PRCP06
0167831820999992003010118004-11300-041870FM-12+074799999V0202301N001510075019N0100001N1+03141+01691100721ADDAA106000091GF106991051021008001001011MA1999999092691MD1999999-0161REMSYN070AAXX  01184 83182 32597 62303 10314 20169 39269 40072 85201 333 59016;EQDQ01  00002PRCP06
0202831820999992003010200004-11300-041870FM-12+074799999V0201801N004110075019N0010001N1+02261+02111101181ADDAY161061AY221061GF106991051031008001001011KA1240M+03201MA1999999093041MD1999999-0071MW1131REMSYN100AAXX  02004 83182 21594 61808 10226 20211 39304 40118 71362 85301 333 10320 29071 55105 59007 69921;
0172831820999992003020112004-11300-041870FM-12+074799999V0200901N005710450019N0100001N1+02501+01821999999ADDAA106000091GF106991021021008001051001KA1240N+01761MA1999999093161REMSYN076AAXX  01124 83182 32597 60911 10250 20182 39316 4//// 82250 333 20176 5////;EQDQ01  00002PRCP06
0181831820999992003020118004-11300-041870FM-12+074799999V0201401N004110042019N0040001N1+02781+01911999999ADDAA106000091AY121061AY221061GF106991051031004501021001MA1999999092891MW1151REMSYN076AAXX  01184 83182 31496 61408 10278 20191 39289 4//// 71522 85320 333 5////;EQDQ01  00002PRCP06
0188831820999992003020200004-11300-041870FM-12+074799999V0201401N006710042019N0010001N1+02101+01581999999ADDAY161061AY221061GF108991061031004501021999KA1240M+02931MA1999999093241MW1131REMSYN100AAXX  02004 83182 21494 81413 10210 20158 39324 4//// 71362 8632/ 333 10293 29067 55000 5//// 69971;
0190831820999992003020212004-11300-041870FM-12+074799999V0201401N005710075019N0100001N1+02281+01941101531ADDAY161061AY221061GF108991081051008001999999KA1240N+01821MA1999999093271MD1999999+0111MW1021REMSYN088AAXX  02124 83182 21597 81411 10228 20194 39327 40153 70262 885// 333 20182 58011 60024;
0167831820999992003020218004-11300-041870FM-12+074799999V0201401N005110075019N0100001N1+02701+01941101231ADDAA106000091GF108991051031008001051011MA1999999093061MD1999999+0171REMSYN070AAXX  02184 83182 32597 81410 10270 20194 39306 40123 85351 333 58017;EQDQ01  00002PRCP06
0198831820999992003020300004-11300-041870FM-12+074799999V0201401N005110450019N0010001N1+02221+01961101411ADDAA106000091GF108991021051008001051011KA1240M+02751MA1999999093171MD1999999-0071REMSYN088AAXX  03004 83182 32594 81410 10222 20196 39317 40141 82551 333 10275 29078 55040 59007;EQDQ01  00002PRCP06
0186831820999992003020312004-11300-041870FM-12+074799999V0200901N004610075019N0100001N1+02481+01751101501ADDAA106000091GF108991061021008001001011KA1240N+01931MA1999999093291MD1999999+0021REMSYN076AAXX  03124 83182 32597 80909 10248 20175 39329 40150 86201 333 20193 58002;EQDQ01  00002PRCP06
0167831820999992003020318004-11300-041870FM-12+074799999V0200901N004112200019N0100001N1+02981+01511101101ADDAA106000091GF108991041021008001001011MA1999999093011MD1999999-0051REMSYN070AAXX  03184 83182 32597 80908 10298 20151 39301 40110 84201 333 59005;EQDQ01  00002PRCP06
0198831820999992003020400004-11300-041870FM-12+074799999V0201401N003119999999N0010001N1+02281+01901101361ADDAA106000091GF108991001001999999001011KA1240M+03021MA1999999093181MD1999999+0011REMSYN088AAXX  04004 83182 32994 81406 10228 20190 39318 40136 80001 333 10302 29066 55101 58001;EQDQ01  00002PRCP06
0186831820999992003020412004-11300-041870FM-12+074799999V0200901N005110075019N0100001N1+02601+01891101331ADDAA106000091GF106991061021008001001001KA1240N+01841MA1999999093171MD1999999-0121REMSYN076AAXX  04124 83182 32597 60910 10260 20189 39317 40133 86200 333 20184 59012;EQDQ01  00002PRCP06
0167831820999992003020418004-11300-041870FM-12+074799999V0200901N004112200019N0100001N1+03081+01561100881ADDAA106000091GF106991041021008001001011MA1999999092831MD1999999-0181REMSYN070AAXX  04184 83182 32597 60908 10308 20156 39283 40088 84201 333 59018;EQDQ01  00002PRCP06
0198831820999992003020500004-11300-041870FM-12+074799999V0200901N005712200019N0010001N1+02311+01901101141ADDAA106000091GF104991001001999999001011KA1240M+03121MA1999999093001MD1999999-0181REMSYN088AAXX  05004 83182 32994 40911 10231 20190 39300 40114 80001 333 10312 29065 55106 59018;EQDQ01  00002PRCP06
0186831820999992003020512004-11300-041870FM-12+074799999V0200901N005712200019N0100001N1+02461+01621101411ADDAA106000091GF108991021021008001001011KA1240N+01801MA1999999093231MD1999999+0061REMSYN076AAXX  05124 83182 32597 80911 10246 20162 39323 40141 82201 333 20180 58006;EQDQ01  00002PRCP06
0167831820999992003020518004-11300-041870FM-12+074799999V0200901N004112200019N0100001N1+03161+01341101001ADDAA106000091GF103991011021008001001011MA1999999092941MD1999999+0111REMSYN070AAXX  05184 83182 32597 30908 10316 20134 39294 40100 81201 333 58011;EQDQ01  00002PRCP06
0198831820999992003020600004-11300-041870FM-12+074799999V0200901N003112200019N0010001N1+02341+01641101111ADDAA106000091GF102991001001999999001011KA1240M+03201MA1999999092951MD1999999-0051REMSYN088AAXX  06004 83182 32994 20906 10234 20164 39295 40111 80001 333 10320 29056 55114 59005;EQDQ01  00002PRCP06
0186831820999992003020612004-11300-041870FM-12+074799999V0200901N005719999999N0100001N1+02581+01741101381ADDAA106000091GF108991001001999999001011KA1240N+01731MA1999999093251MD1999999+0021REMSYN076AAXX  06124 83182 32997 80911 10258 20174 39325 40138 80001 333 20173 58002;EQDQ01  00002PRCP06
0167831820999992003020618004-11300-041870FM-12+074799999V0200501N002112200019N0100001N1+03171+01601100941ADDAA106000091GF102991021021008001001001MA1999999092881MD1999999-0061REMSYN070AAXX  06184 83182 32597 20504 10317 20160 39288 40094 82200 333 59006;EQDQ01  00002PRCP06
0198831820999992003020700004-11300-041870FM-12+074799999V0200901N004119999999N0010001N1+02361+01691101121ADDAA106000091GF108991001001999999001011KA1240M+03201MA1999999092981MD1999999+0031REMSYN088AAXX  07004 83182 32994 80908 10236 20169 39298 40112 80001 333 10320 29058 55106 58003;EQDQ01  00002PRCP06
0167831820999992003020718004-11300-041870FM-12+074799999V0200901N004112200019N0100001N1+03081+01641100941ADDAA106000091GF103991031021008001001001MA1999999092881MD1999999+0001REMSYN070AAXX  07184 83182 32597 30908 10308 20164 39288 40094 83200 333 58000;EQDQ01  00002PRCP06
0208831820999992003020800004-11300-041870FM-12+074799999V0200901N003112200019N0010001N1+02381+01501101161ADDAA106000091GA1001+999999999GF100991001001999999001001KA1240M+03201MA1999999093031MD1999999+0051REMSYN082AAXX  08004 83182 32994 00906 10238 20150 39303 40116 333 10320 29053 55101 58005;EQDQ01  00002PRCP06
0186831820999992003020812004-11300-041870FM-12+074799999V0200901N006712200019N0100001N1+02561+01731101511ADDAA106000091GF104991041021008001001001KA1240N+01741MA1999999093341MD1999999+0101REMSYN076AAXX  08124 83182 32597 40913 10256 20173 39334 40151 84200 333 20174 58010;EQDQ01  00002PRCP06
0208831820999992003020900004-11300-041870FM-12+074799999V0201401N003112200019N0010001N1+02341+01601101241ADDAA106000091GA1001+999999999GF100991001001999999001001KA1240M+03221MA1999999093091MD1999999+0061REMSYN082AAXX  09004 83182 32994 01406 10234 20160 39309 40124 333 10322 29056 55111 58006;EQDQ01  00002PRCP06
0196831820999992003020912004-11300-041870FM-12+074799999V0201401N004612200019N0100001N1+02481+01511101461ADDAA106000091GA1001+999999999GF100991001001999999001001KA1240N+01651MA1999999093271MD1999999-0071REMSYN070AAXX  09124 83182 32997 01409 10248 20151 39327 40146 333 20165 59007;EQDQ01  00002PRCP06
0167831820999992003020918004-11300-041870FM-12+074799999V0201401N003112200019N0100001N1+03171+01191101061ADDAA106000091GF101991011011012501001001MA1999999092791MD1999999-0111REMSYN070AAXX  09184 83182 32697 11406 10317 20119 39279 40106 81100 333 59011;EQDQ01  00002PRCP06
0208831820999992003021000004-11300-041870FM-12+074799999V0201401N003112200019N0010001N1+02311+01351101151ADDAA106000091GA1001+999999999GF100991001001999999001001KA1240M+03201MA1999999092991MD1999999-0101REMSYN082AAXX  10004 83182 32994 01406 10231 20135 39299 40115 333 10320 29049 55119 59010;EQDQ01  00002PRCP06
0186831820999992003021012004-11300-041870FM-12+074799999V0200901N004112200019N0100001N1+02611+01791101211ADDAA106000091GF102991021021008001001001KA1240N+01771MA1999999093061MD1999999-0211REMSYN076AAXX  10124 83182 32597 20908 10261 20179 39306 40121 82200 333 20177 59021;EQDQ01  00002PRCP06
0167831820999992003021018004-11300-041870FM-12+074799999V0201801N001010450019N0100001N1+03021+01511100761ADDAA106000091GF108991041021008001041011MA1999999092701MD1999999-0091REMSYN070AAXX  10184 83182 32597 81802 10302 20151 39270 40076 84241 333 59009;EQDQ01  00002PRCP06
0198831820999992003021100004-11300-041870FM-12+074799999V0200901N003610450019N0010001N1+02521+01581100971ADDAA106000091GF108991011021008001011011KA1240M+03171MA1999999092871MD1999999-0121REMSYN088AAXX  11004 83182 32594 80907 10252 20158 39287 40097 81211 333 10317 29053 55086 59012;EQDQ01  00002PRCP06
0186831820999992003021112004-11300-041870FM-12+074799999V0201401N005110150019N0100001N1+02481+01751101241ADDAA106000091GF108991061001017501051011KA1240N+01881MA1999999093111MD1999999+0051REMSYN076AAXX  11124 83182 32797 81410 10248 20175 39311 40124 86051 333 20188 58005;EQDQ01  00002PRCP06
0167831820999992003021118004-11300-041870FM-12+074799999V0200901N005110450019N0100001N1+02861+01681100791ADDAA106000091GF108991041031008001041011MA1999999092691MD1999999-0011REMSYN070AAXX  11184 83182 32597 80910 10286 20168 39269 40079 84341 333 59001;EQDQ01  00002PRCP06
0198831820999992003021200004-11300-041870FM-12+074799999V0201401N002110150019N0010001N1+02481+01651101041ADDAA106000091GF108991081001017501051999KA1240M+03161MA1999999092921MD1999999+0051REMSYN088AAXX  12004 83182 32794 81404 10248 20165 39292 40104 8805/ 333 10316 29058 55054 58005;EQDQ01  00002PRCP06
0186831820999992003021212004-11300-041870FM-12+074799999V0200901N003612200019N0100001N1+02511+01561101321ADDAA106000091GF108991031001017501041011KA1240N+01921MA1999999093181MD1999999+0071REMSYN076AAXX  12124 83182 32797 80907 10251 20156 39318 40132 83041 333 20192 58007;EQDQ01  00002PRCP06
0183831820999992003021218004-11300-041870FM-12+074799999V0202701N001512200019N0100001N1+03131+01641100861ADDAA106000091GF101991999021008001061011MA1999999092831MD1999999+0141REMSYN070AAXX  12184 83182 32597 12703 10313 20164 39283 40086 83261 333 58014;EQDQ01+000032SCOTLCQ02  00002PRCP06
0198831820999992003021300004-11300-041870FM-12+074799999V0200901N003110150019N0010001N1+02411+01381101151ADDAA106000091GF108991051001017501041011KA1240M+03041MA1999999093021MD1999999+0101REMSYN088AAXX  13004 83182 32794 80906 10241 20138 39302 40115 85041 333 10304 29050 55044 58010;EQDQ01  00002PRCP06
0171831820999992003021312004-11300-041870FM-12+074799999V0200901N003119999999N0010001N1+02681+01781101341ADDAA106000091GF106991999999017501999999KA1240N+01801MA1999999093221REMSYN075AAXX  13124 83182 32794 60906 10268 20178 39322 40134 8321 333 20180 58004;EQDQ01  00002PRCP06
0167831820999992003021318004-11300-041870FM-12+074799999V0201801N001010450019N0100001N1+02931+01571100841ADDAA106000091GF107991021031008001051001MA1999999092771MD1999999-0061REMSYN070AAXX  13184 83182 32597 71802 10293 20157 39277 40084 82350 333 59006;EQDQ01  00002PRCP06
0198831820999992003021400004-11300-041870FM-12+074799999V0200901N005112200019N0010001N1+02431+01741101091ADDAA106000091GF101991011001017501041001KA1240M+03081MA1999999092981MD1999999-0041REMSYN088AAXX  14004 83182 32794 10910 10243 20174 39298 40109 81040 333 10308 29058 55051 59004;EQDQ01  00002PRCP06
0186831820999992003021412004-11300-041870FM-12+074799999V0200901N004610450019N0100001N1+02531+01741101221ADDAA106000091GF107991011021008001051001KA1240N+01871MA1999999093091MD1999999-0131REMSYN076AAXX  14124 83182 32597 70909 10253 20174 39309 40122 81250 333 20187 59013;EQDQ01  00002PRCP06
0167831820999992003021418004-11300-041870FM-12+074799999V0200901N004110450019N0100001N1+03171+01601100671ADDAA106000091GF106991021031008001041011MA1999999092651MD1999999-0121REMSYN070AAXX  14184 83182 32597 60908 10317 20160 39265 40067 82341 333 59012;EQDQ01  00002PRCP06
0198831820999992003021500004-11300-041870FM-12+074799999V0201401N002610450019N0010001N1+02281+01831101021ADDAA106000091GF108991011021008001041011KA1240M+03231MA1999999092871MD1999999-0111REMSYN088AAXX  15004 83182 32594 81405 10228 20183 39287 40102 81241 333 10323 29063 55068 59011;EQDQ01  00002PRCP06
0186831820999992003021512004-11300-041870FM-12+074799999V0200901N003112200019N0100001N1+02461+01851101251ADDAA106000091GF108991041021008001001011KA1240N+01791MA1999999093061MD1999999-0031REMSYN076AAXX  15124 83182 32597 80906 10246 20185 39306 40125 84201 333 20179 59003;EQDQ01  00002PRCP06
0167831820999992003021518004-11300-041870FM-12+074799999V0201401N003110075019N0100001N1+02981+01691100741ADDAA106000091GF108991051021008001001021MA1999999092661MD1999999+0011REMSYN070AAXX  15184 83182 32597 81406 10298 20169 39266 40074 85202 333 58001;EQDQ01  00002PRCP06
0186831820999992003021612004-11300-041870FM-12+074799999V0200901N005112200019N0100001N1+02661+01851101201ADDAA106000091GF108991011021008001001011KA1240N+01921MA1999999093081MD1999999+0021REMSYN076AAXX  16124 83182 32597 80910 10266 20185 39308 40120 81201 333 20192 58002;EQDQ01  00002PRCP06
0152831820999992003021618004-11300-041870FM-12+074799999V0201801N003619999999N0100001N1+03101+01621999999ADDAA106000091GF108991999999008001999999MA1999999092621REMSYN069AAXX  16184 83182 32597 81807 10310 20162 39262 4004 82202 333 59004;EQDQ01  00002PRCP06
0186831820999992003021712004-11300-041870FM-12+074799999V0201401N004112200019N0100001N1+02501+01821101271ADDAA106000091GF106991041021008001001011KA1240N+01851MA1999999093141MD1999999+0061REMSYN076AAXX  17124 83182 32597 61408 10250 20182 39314 40127 84201 333 20185 58006;EQDQ01  00002PRCP06
0167831820999992003021718004-11300-041870FM-12+074799999V0203601N001512200019N0100001N1+03221+01431100701ADDAA106000091GF106991031021008001001011MA1999999092671MD1999999+0051REMSYN070AAXX  17184 83182 32597 63603 10322 20143 39267 40070 83201 333 58005;EQDQ01  00002PRCP06
0198831820999992003021800004-11300-041870FM-12+074799999V0200901N003110450019N0010001N1+02581+01461101001ADDAA106000091GF108991011021008001041011KA1240M+03321MA1999999092901MD1999999+0071REMSYN088AAXX  18004 83182 32594 80906 10258 20146 39290 40100 81241 333 10332 29050 55108 58007;EQDQ01  00002PRCP06
0186831820999992003021812004-11300-041870FM-12+074799999V0200901N004610075019N0100001N1+02741+01811101201ADDAA106000091GF106991051021008001001011KA1240N+01911MA1999999093121MD1999999-0021REMSYN076AAXX  18124 83182 32597 60909 10274 20181 39312 40120 85201 333 20191 59002;EQDQ01  00002PRCP06
0167831820999992003021818004-11300-041870FM-12+074799999V0201401N001012200019N0100001N1+03361+01651100661ADDAA106000091GF108991041021008001001011MA1999999092691MD1999999+0021REMSYN070AAXX  18184 83182 32597 81402 10336 20165 39269 40066 84201 333 58002;EQDQ01  00002PRCP06
0198831820999992003021900004-11300-041870FM-12+074799999V0201401N003110450019N0010001N1+02461+01731101051ADDAA106000091GF108991011021008001051011KA1240M+03401MA1999999092961MD1999999+0061REMSYN088AAXX  19004 83182 32594 81406 10246 20173 39296 40105 81251 333 10340 29054 55106 58006;EQDQ01  00002PRCP06
0186831820999992003021912004-11300-041870FM-12+074799999V0201401N004112200019N0100001N1+02731+01881101281ADDAA106000091GF108991011021008001001011KA1240N+01871MA1999999093171MD1999999+0051REMSYN076AAXX  19124 83182 32597 81408 10273 20188 39317 40128 81201 333 20187 58005;EQDQ01  00002PRCP06
0167831820999992003021918004-11300-041870FM-12+074799999V0200501N003612200019N0100001N1+03281+01441100811ADDAA106000091GF108991031021008001001011MA1999999092811MD1999999+0121REMSYN070AAXX  19184 83182 32597 80507 10328 20144 39281 40081 83201 333 58012;EQDQ01  00002PRCP06
0198831820999992003022000004-11300-041870FM-12+074799999V0200901N004610450019N0010001N1+02711+01371101051ADDAA106000091GF108991011021008001051011KA1240M+03381MA1999999093001MD1999999+0041REMSYN088AAXX  20004 83182 32594 80909 10271 20137 39300 40105 81251 333 10338 29045 55105 58004;EQDQ01  00002PRCP06
0186831820999992003022012004-11300-041870FM-12+074799999V0200901N004110075019N0100001N1+02681+01781101191ADDAA106000091GF108991061021008001031011KA1240N+02031MA1999999093131MD1999999-0041REMSYN076AAXX  20124 83182 32597 80908 10268 20178 39313 40119 86231 333 20203 59004;EQDQ01  00002PRCP06
0167831820999992003022018004-11300-041870FM-12+074799999V0200901N003110450019N0100001N1+02321+01461100781ADDAA106000091GF106991021021008001041011MA1999999092781MD1999999-0031REMSYN070AAXX  20184 83182 32597 60906 10232 20146 39278 40078 82241 333 59003;EQDQ01  00002PRCP06
0198831820999992003022100004-11300-041870FM-12+074799999V0200901N006210450019N0010001N1+02641+01771101021ADDAA106000091GF108991011021008001041011KA1240M+03301MA1999999092951MD1999999-0051REMSYN088AAXX  21004 83182 32594 80912 10264 20177 39295 40102 81241 333 10330 29052 55096 59005;EQDQ01  00002PRCP06
0186831820999992003022112004-11300-041870FM-12+074799999V0201401N004110075019N0100001N1+02501+01721101261ADDAA106000091GF108991071021008001001011KA1240N+01951MA1999999093141MD1999999+0011REMSYN076AAXX  21124 83182 32597 81408 10250 20172 39314 40126 87201 333 20195 58001;EQDQ01  00002PRCP06
0167831820999992003022118004-11300-041870FM-12+074799999V0201401N004112200019N0100001N1+03111+01341100801ADDAA106000091GF108991041021008001001011MA1999999092751MD1999999-0031REMSYN070AAXX  21184 83182 32597 81408 10311 20134 39275 40080 84201 333 59003;EQDQ01  00002PRCP06
0198831820999992003022200004-11300-041870FM-12+074799999V0200901N003110450019N0100001N1+02491+01411101141ADDAA106000091GF108991021021008001041011KA1240M+03191MA1999999093011MD1999999+0061REMSYN088AAXX  22004 83182 32597 80906 10249 20141 39301 40114 82241 333 10319 29051 55075 58006;EQDQ01  00002PRCP06
0186831820999992003022212004-11300-041870FM-12+074799999V0200901N004110075019N0100001N1+02661+01771101231ADDAA106000091GF108991051021008001051011KA1240N+01921MA1999999093131MD1999999-0011REMSYN076AAXX  22124 83182 32597 80908 10266 20177 39313 40123 85251 333 20192 59001;EQDQ01  00002PRCP06
0202831820999992003022300004-11300-041870FM-12+074799999V0201401N002610450019N0010001N1+02111+02011101311ADDAY161061AY221061GF108991031071004501011999KA1240M+02991MA1999999093311MD1999999+0131MW1021REMSYN100AAXX  23004 83182 21494 81405 10211 20201 39331 40131 70262 8371/ 333 10299 29084 55046 58013 60021;
0198831820999992003022400004-11300-041870FM-12+074799999V0200901N005110450019N0100001N1+02301+01721101401ADDAA106000091GF108991011021008001051011KA1240M+02981MA1999999093201MD1999999+0191REMSYN088AAXX  24004 83182 32597 80910 10230 20172 39320 40140 81251 333 10298 29064 55055 58019;EQDQ01  00002PRCP06
0226831820999992003022500004-11300-041870FM-12+074799999V0200901N005111050019N0010001N1+02441+01641101261ADDAA106000091AY121061AY221061GF105991011031008001041011KA1240M+03231MA1999999093131MD1999999-0071MW1131REMSYN094AAXX  25004 83182 31594 50910 10244 20164 39313 40126 71322 81341 333 10323 29053 55104 59007;EQDQ01  00002PRCP06
0186831820999992003022512004-11300-041870FM-12+074799999V0201401N003610075019N0100001N1+02531+01801101301ADDAA106000091GF108991071021008001001011KA1240N+01831MA1999999093161MD1999999-0261REMSYN076AAXX  25124 83182 32597 81407 10253 20180 39316 40130 87201 333 20183 59026;EQDQ01  00002PRCP06
0195831820999992003022518004-11300-041870FM-12+074799999V0201401N002610075019N0100001N1+03101+01801100981ADDAA106000091AY121061AY221061GF106991051031008001021011MA1999999092761MD1999999-0181MW1151REMSYN076AAXX  25184 83182 31597 61405 10310 20180 39276 40098 71522 85321 333 59018;EQDQ01  00002PRCP06
0198831820999992003022600004-11300-041870FM-12+074799999V0200901N004110150019N0010001N1+02441+01811101031ADDAA106000091GF108991051001017501051011KA1240M+03141MA1999999092911MD1999999-0221REMSYN088AAXX  26004 83182 32794 80908 10244 20181 39291 40103 85051 333 10314 29062 55079 59022;EQDQ01  00002PRCP06
0186831820999992003022612004-11300-041870FM-12+074799999V0200901N003112200019N0100001N1+02551+01491101271ADDAA106000091GF102991001001999999001011KA1240N+01691MA1999999093141MD1999999-0021REMSYN076AAXX  26124 83182 32997 20906 10255 20149 39314 40127 80001 333 20169 59002;EQDQ01  00002PRCP06
0167831820999992003022618004-11300-041870FM-12+074799999V0200501N002112200019N0100001N1+03241+01101100721ADDAA106000091GF102991011021008001001011MA1999999092691MD1999999-0131REMSYN070AAXX  26184 83182 32597 20504 10324 20110 39269 40072 81201 333 59013;EQDQ01  00002PRCP06
0198831820999992003022700004-11300-041870FM-12+074799999V0200901N000512200019N0010001N1+02601+01411100961ADDAA106000091GF101991011001017501041001KA1240M+03321MA1999999092881MD1999999-0031REMSYN088AAXX  27004 83182 32794 10901 10260 20141 39288 40096 81040 333 10332 29044 55108 59003;EQDQ01  00002PRCP06
0186831820999992003022712004-11300-041870FM-12+074799999V0201401N004112200019N0100001N1+02701+01371101141ADDAA106000091GF101991001001999999001011KA1240N+01711MA1999999093061MD1999999-0081REMSYN076AAXX  27124 83182 32997 11408 10270 20137 39306 40114 80001 333 20171 59008;EQDQ01  00002PRCP06
0167831820999992003022718004-11300-041870FM-12+074799999V0200901N003112200019N0100001N1+03321+01401100731ADDAA106000091GF104991041021008001001001MA1999999092701MD1999999+0011REMSYN070AAXX  27184 83182 32597 40906 10332 20140 39270 40073 84200 333 58001;EQDQ01  00002PRCP06
0208831820999992003022800004-11300-041870FM-12+074799999V0200901N003112200019N0010001N1+02491+01371101091ADDAA106000091GA1001+999999999GF100991001001999999001001KA1240M+03451MA1999999093001MD1999999+0121REMSYN082AAXX  28004 83182 32994 00906 10249 20137 39300 40109 333 10345 29044 55097 58012;EQDQ01  00002PRCP06
0202831820999992003022812004-11300-041870FM-12+074799999V0200901N006212200019N0100001N1+02641+01691101431ADDAA106000091GF102991999021008001001001KA1240N+01801MA1999999093301MD1999999+0261REMSYN076AAXX  28124 83182 32597 20912 10264 20169 39330 40143 81200 333 20180 58026;EQDQ01+000012SCOTLCQ02  00002PRCP06
0167831820999992003022818004-11300-041870FM-12+074799999V0201401N004612200019N0100001N1+03341+01291100731ADDAA106000091GF102991011011012501041011MA1999999092701MD1999999+0001REMSYN070AAXX  28184 83182 32697 21409 10334 20129 39270 40073 81141 333 58000;EQDQ01  00002PRCP06
0208831820999992003030100004-11300-041870FM-12+074799999V0200901N004612200019N0010001N1+02611+01521101061ADDAA106000091GA1001+999999999GF100991001001999999001001KA1240M+03381MA1999999092991MD1999999-0011REMSYN082AAXX  01004 83182 32994 00909 10261 20152 39299 40106 333 10338 29047 55115 59001;EQDQ01  00002PRCP06
0186831820999992003030112004-11300-041870FM-12+074799999V0201401N004612200019N0100001N1+02621+01701101311ADDAA106000091GF108991031021008001001011KA1240N+01921MA1999999093201MD1999999-0101REMSYN076AAXX  01124 83182 32597 81409 10262 20170 39320 40131 83201 333 20192 59010;EQDQ01  00002PRCP06
0167831820999992003030118004-11300-041870FM-12+074799999V0201801N004610450019N0100001N1+03121+01481100791ADDAA106000091GF108991011021008001011011MA1999999092761MD1999999+0061REMSYN070AAXX  01184 83182 32597 81809 10312 20148 39276 40079 81211 333 58006;EQDQ01  00002PRCP06
0214831820999992003030200004-11300-041870FM-12+074799999V0201401N003119999999N0010001N1+02511+01561101081ADDAA106000091GF100991001001999999001001KA1240M+03201MA1999999092971MD1999999-0021REMSYN088AAXX  02004 83182 32994 81406 10251 20156 39297 40108 80000 333 10320 29052 55085 59002;EQDQ01+000082SCOTCVQ02  00002PRCP06
0186831820999992003030212004-11300-041870FM-12+074799999V0200901N004612200019N0100001N1+02601+01791101161ADDAA106000091GF108991011021008001001011KA1240N+01981MA1999999093051MD1999999-0151REMSYN076AAXX  02124 83182 32597 80909 10260 20179 39305 40116 81201 333 20198 59015;EQDQ01  00002PRCP06
0167831820999992003030218004-11300-041870FM-12+074799999V0201401N004611050019N0100001N1+03221+01571100611ADDAA106000091GF108991021021008001001021MA1999999092631MD1999999-0131REMSYN070AAXX  02184 83182 32597 81409 10322 20157 39263 40061 82202 333 59013;EQDQ01  00002PRCP06
0186831820999992003030312004-11300-041870FM-12+074799999V0200901N003610450019N0100001N1+02741+01611101101ADDAA106000091GF108991011021008001031011KA1240N+01931MA1999999093031MD1999999-0021REMSYN076AAXX  03124 83182 32597 80907 10274 20161 39303 40110 81231 333 20193 59002;EQDQ01  00002PRCP06
0167831820999992003030318004-11300-041870FM-12+074799999V0200901N003112200019N0100001N1+03281+01621100611ADDAA106000091GF108991021021008001001011MA1999999092631MD1999999+0001REMSYN070AAXX  03184 83182 32597 80906 10328 20162 39263 40061 82201 333 58000;EQDQ01  00002PRCP06
0186831820999992003030412004-11300-041870FM-12+074799999V0201401N005112200019N0100001N1+02551+01581101341ADDAA106000091GF108991021021008001001011KA1240N+01801MA1999999093231MD1999999+0201REMSYN076AAXX  04124 83182 32597 81410 10255 20158 39323 40134 82201 333 20180 58020;EQDQ01  00002PRCP06
0167831820999992003030418004-11300-041870FM-12+074799999V0200901N003612200019N0100001N1+03191+01311100861ADDAA106000091GF108991021021008001001011MA1999999092831MD1999999+0201REMSYN070AAXX  04184 83182 32597 80907 10319 20131 39283 40086 82201 333 58020;EQDQ01  00002PRCP06
0186831820999992003030512004-11300-041870FM-12+074799999V0200901N004610450019N0100001N1+02651+01671101161ADDAA106000091GF106991041021008001041011KA1240N+01901MA1999999093081MD1999999-0151REMSYN076AAXX  05124 83182 32597 60909 10265 20167 39308 40116 84241 333 20190 59015;EQDQ01  00002PRCP06
0167831820999992003030518004-11300-041870FM-12+074799999V0200901N005110450019N0100001N1+03231+01501100671ADDAA106000091GF106991041021008001031011MA1999999092661MD1999999-0171REMSYN070AAXX  05184 83182 32597 60910 10323 20150 39266 40067 84231 333 59017;EQDQ01  00002PRCP06
0198831820999992003030600004-11300-041870FM-12+074799999V0200901N006210450019N0010001N1+02671+01681100931ADDAA106000091GF108991011021008001051011KA1240M+03271MA1999999092871MD1999999-0221REMSYN088AAXX  06004 83182 32594 80912 10267 20168 39287 40093 81251 333 10327 29050 55096 59022;EQDQ01  00002PRCP06
0186831820999992003030612004-11300-041870FM-12+074799999V0200901N005712200019N0100001N1+02621+01671101161ADDAA106000091GF106991041021008001001011KA1240N+01861MA1999999093081MD1999999+0001REMSYN076AAXX  06124 83182 32597 60911 10262 20167 39308 40116 84201 333 20186 58000;EQDQ01  00002PRCP06
0167831820999992003030618004-11300-041870FM-12+074799999V0200501N003110075019N0100001N1+03241+01361100591ADDAA106000091GF108991051021008001001011MA1999999092591MD1999999-0071REMSYN070AAXX  06184 83182 32597 80506 10324 20136 39259 40059 85201 333 59007;EQDQ01  00002PRCP06
0198831820999992003030700004-11300-041870FM-12+074799999V0200901N003112200019N0010001N1+02541+01511100901ADDAA106000091GF108991021001017501051011KA1240M+03381MA1999999092831MD1999999-0041REMSYN088AAXX  07004 83182 32794 80906 10254 20151 39283 40090 82051 333 10338 29048 55099 59004;EQDQ01  00002PRCP06
0186831820999992003030712004-11300-041870FM-12+074799999V0201401N003110450019N0100001N1+02561+01701101241ADDAA106000091GF108991021021008001041011KA1240N+01901MA1999999093121MD1999999+0041REMSYN076AAXX  07124 83182 32597 81406 10256 20170 39312 40124 82241 333 20190 58004;EQDQ01  00002PRCP06
0167831820999992003030718004-11300-041870FM-12+074799999V0200501N003610450019N0100001N1+03031+01501100801ADDAA106000091GF108991031021008001041011MA1999999092751MD1999999+0161REMSYN070AAXX  07184 83182 32597 80507 10303 20150 39275 40080 83241 333 58016;EQDQ01  00002PRCP06
0186831820999992003030812004-11300-041870FM-12+074799999V0200901N004112200019N0100001N1+02641+01391101231ADDAA106000091GF102991021001017501041011KA1240N+01881MA1999999093131MD1999999+0011REMSYN076AAXX  08124 83182 32797 20908 10264 20139 39313 40123 82041 333 20188 58001;EQDQ01  00002PRCP06
0198831820999992003030900004-11300-041870FM-12+074799999V0200901N004112200019N0010001N1+02641+01321101031ADDAA106000091GF106991031001017501051011KA1240M+03281MA1999999092961MD1999999+0041REMSYN088AAXX  09004 83182 32794 60908 10264 20132 39296 40103 83051 333 10328 29041 55105 58004;EQDQ01  00002PRCP06
0186831820999992003030912004-11300-041870FM-12+074799999V0201801N004112200019N0100001N1+02601+01651101261ADDAA106000091GF101991011001017501041001KA1240N+01841MA1999999093151MD1999999+0021REMSYN076AAXX  09124 83182 32797 11808 10260 20165 39315 40126 81040 333 20184 58002;EQDQ01  00002PRCP06
0167831820999992003030918004-11300-041870FM-12+074799999V0200901N002612200019N0100001N1+03241+01361100691ADDAA106000091GF105991021021008001001011MA1999999092681MD1999999-0151REMSYN070AAXX  09184 83182 32597 50905 10324 20136 39268 40069 82201 333 59015;EQDQ01  00002PRCP06
0198831820999992003031000004-11300-041870FM-12+074799999V0200901N004112200019N0010001N1+02631+01371101051ADDAA106000091GF102991011001017501041011KA1240M+03301MA1999999092961MD1999999+0001REMSYN088AAXX  10004 83182 32794 20908 10263 20137 39296 40105 81041 333 10330 29045 55098 58000;EQDQ01  00002PRCP06
0186831820999992003031012004-11300-041870FM-12+074799999V0201401N004112200019N0100001N1+02601+01741101221ADDAA106000091GF108991021021008001001011KA1240N+01971MA1999999093121MD1999999-0031REMSYN076AAXX  10124 83182 32597 81408 10260 20174 39312 40122 82201 333 20197 59003;EQDQ01  00002PRCP06
0167831820999992003031018004-11300-041870FM-12+074799999V0200901N003112200019N0100001N1+03241+01101100751ADDAA106000091GF108991021021008001001011MA1999999092741MD1999999+0061REMSYN070AAXX  10184 83182 32597 80906 10324 20110 39274 40075 82201 333 58006;EQDQ01  00002PRCP06
0198831820999992003031100004-11300-041870FM-12+074799999V0200901N006710450019N0010001N1+02621+01861101051ADDAA106000091GF108991011021008001051011KA1240M+03291MA1999999092961MD1999999+0001REMSYN088AAXX  11004 83182 32594 80913 10262 20186 39296 40105 81251 333 10329 29052 55084 58000;EQDQ01  00002PRCP06
0186831820999992003031112004-11300-041870FM-12+074799999V0200901N005112200019N0100001N1+02801+01691101161ADDAA106000091GF103991021021008001001011KA1240N+02001MA1999999093101MD1999999-0021REMSYN076AAXX  11124 83182 32597 30910 10280 20169 39310 40116 82201 333 20200 59002;EQDQ01  00002PRCP06
0167831820999992003031118004-11300-041870FM-12+074799999V0200901N003612200019N0100001N1+03271+01331100611ADDAA106000091GF105991031021008001001011MA1999999092651MD1999999-0091REMSYN070AAXX  11184 83182 32597 50907 10327 20133 39265 40061 83201 333 59009;EQDQ01  00002PRCP06
0198831820999992003031200004-11300-041870FM-12+074799999V0201401N006210450019N0010001N1+02481+01831101081ADDAA106000091GF108991021021008001061021KA1240M+03381MA1999999093011MD1999999+0051REMSYN088AAXX  12004 83182 32594 81412 10248 20183 39301 40108 82262 333 10338 29054 55108 58005;EQDQ01  00002PRCP06
0186831820999992003031212004-11300-041870FM-12+074799999V0201401N002610450019N0100001N1+02761+01621101131ADDAA106000091GF108991011021008001031011KA1240N+01891MA1999999093041MD1999999-0061REMSYN076AAXX  12124 83182 32597 81405 10276 20162 39304 40113 81231 333 20189 59006;EQDQ01  00002PRCP06
0167831820999992003031218004-11300-041870FM-12+074799999V0201401N001511050019N0100001N1+03301+01361100551ADDAA106000091GF108991041021008001001021MA1999999092571MD1999999-0081REMSYN070AAXX  12184 83182 32597 81403 10330 20136 39257 40055 84202 333 59008;EQDQ01  00002PRCP06
0198831820999992003031300004-11300-041870FM-12+074799999V0201801N003110075019N0010001N1+02511+01601100971ADDAA106000091GF108991051051008001051021KA1240M+03431MA1999999092911MD1999999-0101REMSYN088AAXX  13004 83182 32594 81806 10251 20160 39291 40097 85552 333 10343 29049 55086 59010;EQDQ01  00002PRCP06
0186831820999992003031312004-11300-041870FM-12+074799999V0201401N001510450019N0100001N1+02701+01831101121ADDAA106000091GF108991021021008001031011KA1240N+02041MA1999999093031MD1999999-0011REMSYN076AAXX  13124 83182 32597 81403 10270 20183 39303 40112 82231 333 20204 59001;EQDQ01  00002PRCP06
0167831820999992003031318004-11300-041870FM-12+074799999V0201401N003112200019N0100001N1+03221+01431100531ADDAA106000091GF105991041021008001001011MA1999999092551MD1999999-0021REMSYN070AAXX  13184 83182 32597 51406 10322 20143 39255 40053 84201 333 59002;EQDQ01  00002PRCP06
0198831820999992003031400004-11300-041870FM-12+074799999V0200901N004110450019N0010001N1+02661+01591100961ADDAA106000091GF108991011021008001041011KA1240M+03321MA1999999092921MD1999999+0021REMSYN088AAXX  14004 83182 32594 80908 10266 20159 39292 40096 81241 333 10332 29049 55068 58002;EQDQ01  00002PRCP06
0167831820999992003031418004-11300-041870FM-12+074799999V0200901N004112200019N0100001N1+03271+01471100651ADDAA106000091GF106991031031008001001011MA1999999092661MD1999999+0111REMSYN070AAXX  14184 83182 32597 60908 10327 20147 39266 40065 83301 333 58011;EQDQ01  00002PRCP06
0198831820999992003031500004-11300-041870FM-12+074799999V0200901N003112200019N0010001N1+02641+01511100981ADDAA106000091GF103991021001017501041011KA1240M+03361MA1999999092941MD1999999+0061REMSYN088AAXX  15004 83182 32794 30906 10264 20151 39294 40098 82041 333 10336 29095 55080 58006;EQDQ01  00002PRCP06
0198831820999992003031600004-11300-041870FM-12+074799999V0200901N004112200019N0010001N1+02501+01771101091ADDAA106000091GF102991011001017501041011KA1240M+03421MA1999999093021MD1999999+0081REMSYN088AAXX  16004 83182 32794 20908 10250 20177 39302 40109 81041 333 10342 29054 55100 58008;EQDQ01  00002PRCP06
0186831820999992003031612004-11300-041870FM-12+074799999V0200901N005112200019N0100001N1+02661+01621101341ADDAA106000091GF108991011021008001001011KA1240N+01911MA1999999093231MD1999999+0021REMSYN076AAXX  16124 83182 32597 80910 10266 20162 39323 40134 81201 333 20191 58002;EQDQ01  00002PRCP06
0167831820999992003031618004-11300-041870FM-12+074799999V0201801N002612200019N0100001N1+03321+01081100691ADDAA106000091GF108991021021008001001011MA1999999092701MD1999999-0061REMSYN070AAXX  16184 83182 32597 81805 10332 20108 39270 40069 82201 333 59006;EQDQ01  00002PRCP06
0198831820999992003031700004-11300-041870FM-12+074799999V0200901N002612200019N0010001N1+02591+01401101081ADDAA106000091GF108991011001017501041011KA1240M+03371MA1999999092991MD1999999-0031REMSYN088AAXX  17004 83182 32794 80905 10259 20140 39299 40108 81041 333 10337 29044 55112 59003;EQDQ01  00002PRCP06
0186831820999992003031712004-11300-041870FM-12+074799999V0200501N003110075019N0100001N1+02661+01791101221ADDAA106000091GF106991061021008001001001KA1240N+02021MA1999999093121MD1999999-0111REMSYN076AAXX  17124 83182 32597 60506 10266 20179 39312 40122 86200 333 20202 59011;EQDQ01  00002PRCP06
0171831820999992003031718004-11300-041870FM-12+074799999V0203601N001510450019N0100001N1+03041+01711100581ADDAY161061AY261061GF108991031031008001061011MA1999999092561MD1999999-0141MW1021REMSYN082AAXX  17184 83182 21597 83603 10304 20171 39256 40058 70266 83361 333 59014 60051;
0198831820999992003031800004-11300-041870FM-12+074799999V0200901N002110450019N0010001N1+02441+01861100991ADDAA106000091GF106991031031008001061011KA1240M+03231MA1999999092871MD1999999-0121REMSYN088AAXX  18004 83182 32594 60904 10244 20186 39287 40099 83361 333 10323 29061 55077 59012;EQDQ01  00002PRCP06
0190831820999992003031812004-11300-041870FM-12+074799999V0201801N001510042019N0005001N1+02201+02121101341ADDAY161061AY261061GF108991051031004501021999KA1240N+01841MA1999999093131MD1999999+0011MW1951REMSYN088AAXX  18124 83182 21493 81803 10220 20212 39313 40134 79566 8532/ 333 20184 58001 61374;
0176831820999992003031818004-11300-041870FM-12+074799999V0203201N001510450019N0040001N1+02861+01981100841ADDAA106000021AY121061AY221061GF108991041031008001061011MA1999999092721MD1999999+0141MW1151REMSYN076AAXX  18184 83182 31596 83203 10286 20198 39272 40084 71522 84361 333 58014;
0198831820999992003032000004-11300-041870FM-12+074799999V0201401N002110042019N0010001N1+02371+01991101291ADDAA106000091GF108991081071004501999999KA1240M+02801MA1999999093121MD1999999+0031REMSYN088AAXX  20004 83182 32494 81404 10237 20199 39312 40129 887// 333 10280 29070 55066 58003;EQDQ01  00002PRCP06
0186831820999992003032012004-11300-041870FM-12+074799999V0201401N004110075019N0100001N1+02431+01801101461ADDAA106000091GF108991081051008001999999KA1240N+01911MA1999999093271MD1999999+0021REMSYN076AAXX  20124 83182 32597 81408 10243 20180 39327 40146 885// 333 20191 58002;EQDQ01  00002PRCP06
0195831820999992003032018004-11300-041870FM-12+074799999V0200901N003610450019N0040001N1+02901+01751100971ADDAA106000091AY121061AY221061GF108991031031008001061011MA1999999092871MD1999999+0051MW1151REMSYN076AAXX  20184 83182 31596 80907 10290 20175 39287 40097 71522 83361 333 58005;EQDQ01  00002PRCP06
0202831820999992003032100004-11300-041870FM-12+074799999V0200901N003110450019N0010001N1+02341+01831101311ADDAY161061AY221061GF108991011051008001041011KA1240M+02931MA1999999093141MD1999999+0021MW1021REMSYN100AAXX  21004 83182 21594 80906 10234 20183 39314 40131 70262 81541 333 10293 29066 55033 58002 60071;
0162831820999992003032112004-11300-041870FM-12+074799999V0200901N004110075019N0100001N1+02531+01801101321ADDGF108991061021008001001011KA1240N+01891MA1999999093141MD1999999-0141REMSYN082AAXX  21124 83182 22597 80908 10253 20180 39314 40132 86201 333 20189 59014 60074;
0171831820999992003032118004-11300-041870FM-12+074799999V0200901N002110450019N0100001N1+02801+01781100771ADDAY161061AY221061GF108991021021008001061011MA1999999092671MD1999999-0201MW1021REMSYN082AAXX  21184 83182 21597 80904 10280 20178 39267 40077 70262 82261 333 59020 69911;
0186831820999992003032812004-11300-041870FM-12+074799999V0201401N004610075019N0100001N1+02601+01841101351ADDAA106000091GF106991061021008001001001KA1240N+01961MA1999999093211MD1999999+0041REMSYN076AAXX  28124 83182 32597 61409 10260 20184 39321 40135 86200 333 20196 58004;EQDQ01  00002PRCP06
0167831820999992003032818004-11300-041870FM-12+074799999V0201801N003112200019N0100001N1+03031+01631100951ADDAA106000091GF108991041021008001001011MA1999999092891MD1999999+0021REMSYN070AAXX  28184 83182 32597 81806 10303 20163 39289 40095 84201 333 58002;EQDQ01  00002PRCP06
0198831820999992003032900004-11300-041870FM-12+074799999V0201401N001519999999N0010001N1+02341+01931101161ADDAA106000091GF108991001001999999001011KA1240M+03061MA1999999093021MD1999999+0011REMSYN088AAXX  29004 83182 32994 81403 10234 20193 39302 40116 80001 333 10306 29066 55086 58001;EQDQ01  00002PRCP06
0186831820999992003032912004-11300-041870FM-12+074799999V0201401N005110075019N0100001N1+02541+01811101361ADDAA106000091GF107991071051008001001001KA1240N+01871MA1999999093201MD1999999-0011REMSYN076AAXX  29124 83182 32597 71410 10254 20181 39320 40136 87500 333 20187 59001;EQDQ01  00002PRCP06
0171831820999992003032918004-11300-041870FM-12+074799999V0202701N003110042019N0040001N1+02381+01951101011ADDAY121061AY221061GF108991051031004501061011MA1999999092831MD1999999-0061MW1601REMSYN082AAXX  29184 83182 21496 82706 10238 20195 39283 40101 76022 85361 333 59006 69981;
0202831820999992003033000004-11300-041870FM-12+074799999V0201401N003110042019N0010001N1+02201+02031101161ADDAY161061AY261061GF108991061071004501021999KA1240M+02831MA1999999092981MD1999999-0041MW1021REMSYN100AAXX  30004 83182 21494 81406 10220 20203 39298 40116 70266 8672/ 333 10283 29080 55038 59004 60121;
0162831820999992003033012004-11300-041870FM-12+074799999V0200901N004610075019N0100001N1+02461+01971101291ADDGF108991061051008001051011KA1240N+01831MA1999999093091MD1999999-0111REMSYN082AAXX  30124 83182 22597 80909 10246 20197 39309 40129 86551 333 20183 59011 60124;
0167831820999992003033018004-11300-041870FM-12+074799999V0200901N003610450019N0100001N1+02841+01851100841ADDAA106000091GF108991041021008001041011MA1999999092741MD1999999-0091REMSYN070AAXX  30184 83182 32597 80907 10284 20185 39274 40084 84241 333 59009;EQDQ01  00002PRCP06
0198831820999992003033100004-11300-041870FM-12+074799999V0200901N004119999999N0010001N1+02331+01861101091ADDAA106000091GF108991001001999999001011KA1240M+02881MA1999999092941MD1999999-0041REMSYN088AAXX  31004 83182 32994 80908 10233 20186 39294 40109 80001 333 10288 29070 55054 59004;EQDQ01  00002PRCP06
0186831820999992003033112004-11300-041870FM-12+074799999V0200901N005110075019N0100001N1+02511+01811101261ADDAA106000091GF108991071051008001001011KA1240N+01821MA1999999093091MD1999999+0001REMSYN076AAXX  31124 83182 32597 80910 10251 20181 39309 40126 87501 333 20182 58000;EQDQ01  00002PRCP06
0167831820999992003033118004-11300-041870FM-12+074799999V0201401N004612200019N0100001N1+02811+01851100861ADDAA106000091GF108991041021008001001011MA1999999092751MD1999999+0011REMSYN070AAXX  31184 83182 32597 81409 10281 20185 39275 40086 84201 333 58001;EQDQ01  00002PRCP06
0198831820999992003040100004-11300-041870FM-12+074799999V0201401N002112200019N0010001N1+02261+01861101171ADDAA106000091GF108991021051008001001011KA1240M+02981MA1999999093011MD1999999+0071REMSYN088AAXX  01004 83182 32594 81404 10226 20186 39301 40117 82501 333 10298 29069 55072 58007;EQDQ01  00002PRCP06
0186831820999992003040112004-11300-041870FM-12+074799999V0201401N003612200019N0100001N1+02521+01841101351ADDAA106000091GF108991011021008001001011KA1240N+01821MA1999999093171MD1999999+0081REMSYN076AAXX  01124 83182 32597 81407 10252 20184 39317 40135 81201 333 20182 58008;EQDQ01  00002PRCP06
0167831820999992003040118004-11300-041870FM-12+074799999V0201401N003610450019N0100001N1+02981+01831100881ADDAA106000091GF108991031021008001031011MA1999999092811MD1999999+0061REMSYN070AAXX  01184 83182 32597 81407 10298 20183 39281 40088 83231 333 58006;EQDQ01  00002PRCP06
0198831820999992003040200004-11300-041870FM-12+074799999V0201401N002612200019N0010001N1+02261+01791101201ADDAA106000091GF105991011001017501041011KA1240M+03041MA1999999093041MD1999999+0031REMSYN088AAXX  02004 83182 32794 51405 10226 20179 39304 40120 81041 333 10304 29066 55086 58003;EQDQ01  00002PRCP06
0186831820999992003040212004-11300-041870FM-12+074799999V0201401N004112200019N0100001N1+02501+01871101461ADDAA106000091GF102991021021008001001001KA1240N+01771MA1999999093271MD1999999+0101REMSYN076AAXX  02124 83182 32597 21408 10250 20187 39327 40146 82200 333 20177 58010;EQDQ01  00002PRCP06
0167831820999992003040218004-11300-041870FM-12+074799999V0200901N004112200019N0100001N1+03081+01561100921ADDAA106000091GF102991021021008001001001MA1999999092851MD1999999+0041REMSYN070AAXX  02184 83182 32597 20908 10308 20156 39285 40092 82200 333 58004;EQDQ01  00002PRCP06
0208831820999992003040300004-11300-041870FM-12+074799999V0201401N003112200019N0010001N1+02341+01691101201ADDAA106000091GA1001+999999999GF100991001001999999001001KA1240M+03121MA1999999093041MD1999999+0001REMSYN082AAXX  03004 83182 32994 01406 10234 20169 39304 40120 333 10312 29060 55111 58000;EQDQ01  00002PRCP06
0186831820999992003040312004-11300-041870FM-12+074799999V0201401N004112200019N0100001N1+02601+01921101321ADDAA106000091GF103991021021008001001011KA1240N+01801MA1999999093161MD1999999-0111REMSYN076AAXX  03124 83182 32597 31408 10260 20192 39316 40132 82201 333 20180 59011;EQDQ01  00002PRCP06
0208831820999992003040400004-11300-041870FM-12+074799999V0200901N002112200019N0010001N1+02371+01621101091ADDAA106000091GA1001+999999999GF100991001001999999001001KA1240M+03191MA1999999092961MD1999999-0081REMSYN082AAXX  04004 83182 32994 00904 10237 20162 39296 40109 333 10319 29061 55108 59008;EQDQ01  00002PRCP06
0186831820999992003040412004-11300-041870FM-12+074799999V0201401N003619999999N0100001N1+02521+01661101251ADDAA106000091GF108991001001999999001011KA1240N+01811MA1999999093111MD1999999-0061REMSYN076AAXX  04124 83182 32997 81407 10252 20166 39311 40125 80001 333 20181 59006;EQDQ01  00002PRCP06
0198831820999992003040500004-11300-041870FM-12+074799999V0200901N002612200019N0010001N1+02361+01731101131ADDAA106000091GF102991011021008001051001KA1240M+03161MA1999999092991MD1999999+0031REMSYN088AAXX  05004 83182 32594 20905 10236 20173 39299 40113 81250 333 10316 29065 55093 58003;EQDQ01  00002PRCP06
0186831820999992003040512004-11300-041870FM-12+074799999V0201401N002619999999N0100001N1+02501+01721101321ADDAA106000091GF108991001001999999001011KA1240N+01751MA1999999093161MD1999999+0061REMSYN076AAXX  05124 83182 32997 81405 10250 20172 39316 40132 80001 333 20175 58006;EQDQ01  00002PRCP06
0198831820999992003040600004-11300-041870FM-12+074799999V0202701N000512200019N0010001N1+02701+01751101081ADDAA106000091GF108991021021008001001011KA1240M+03231MA1999999092991MD1999999+0001REMSYN088AAXX  06004 83182 32594 82701 10270 20175 39299 40108 82201 333 10323 29058 55108 58000;EQDQ01  00002PRCP06
0186831820999992003040612004-11300-041870FM-12+074799999V0200901N001510450019N0100001N1+02731+01881101151ADDAA106000091GF108991021021008001041011KA1240N+02021MA1999999093091MD1999999-0071REMSYN076AAXX  06124 83182 32597 80903 10273 20188 39309 40115 82241 333 20202 59007;EQDQ01  00002PRCP06
0226831820999992003040700004-11300-041870FM-12+074799999V0200501N002610075019N0010001N1+02701+01951100841ADDAA106000091AY121061AY221061GF108991061031008001001011KA1240M+03301MA1999999092811MD1999999+0181MW1131REMSYN094AAXX  07004 83182 31594 80505 10270 20195 39281 40084 71322 86301 333 10330 29062 55104 58018;EQDQ01  00002PRCP06
0190831820999992003040712004-11300-041870FM-12+074799999V0200901N001510075019N0100001N1+02541+02111100981ADDAY161061AY261061GF108991061021008001051011KA1240N+02021MA1999999092901MD1999999-0191MW1021REMSYN088AAXX  07124 83182 21597 80903 10254 20211 39290 40098 70266 86251 333 20202 59019 60074;
0198831820999992003040800004-11300-041870FM-12+074799999V0200901N002110075019N0010001N1+02501+02051100821ADDAA106000091GF108991081051008001999999KA1240M+02931MA1999999092721MD1999999-0081REMSYN088AAXX  08004 83182 32594 80904 10250 20205 39272 40082 885// 333 10293 29076 55068 59008;EQDQ01  00002PRCP06
0186831820999992003040812004-11300-041870FM-12+074799999V0200901N001010075019N0100001N1+02711+01961101051ADDAA106000091GF106991051031008001001011KA1240N+02071MA1999999092931MD1999999+0031REMSYN076AAXX  08124 83182 32597 60902 10271 20196 39293 40105 85301 333 20207 58003;EQDQ01  00002PRCP06
0202831820999992003040900004-11300-041870FM-12+074799999V0201801N001010042019N0010001N1+02141+02061101021ADDAY161061AY221061GF108991051071004501021999KA1240M+03021MA1999999092871MD1999999+0151MW1021REMSYN100AAXX  09004 83182 21494 81802 10214 20206 39287 40102 70262 8572/ 333 10302 29064 55059 58015 60071;
0162831820999992003040912004-11300-041870FM-12+074799999V0200901N005112200019N0100001N1+02581+01901101301ADDGF108991021021008001001011KA1240N+01921MA1999999093111MD1999999+0181REMSYN082AAXX  09124 83182 22597 80910 10258 20190 39311 40130 82201 333 20192 58018 60074;
0198831820999992003041000004-11300-041870FM-12+074799999V0201401N004112200019N0010001N1+02411+01611101081ADDAA106000091GF108991011001017501041011KA1240M+03151MA1999999092951MD1999999+0081REMSYN088AAXX  10004 83182 32794 81408 10241 20161 39295 40108 81041 333 10315 29063 55093 58008;EQDQ01  00002PRCP06
0186831820999992003041012004-11300-041870FM-12+074799999V0201401N003112200019N0100001N1+02531+01821101401ADDAA106000091GF108991011021008001001011KA1240N+01841MA1999999093241MD1999999+0131REMSYN076AAXX  10124 83182 32597 81406 10253 20182 39324 40140 81201 333 20184 58013;EQDQ01  00002PRCP06
0198831820999992003041100004-11300-041870FM-12+074799999V0200501N001512200019N0010001N1+02441+01451101091ADDAA106000091GF108991021001017501041011KA1240M+03201MA1999999092961MD1999999+0011REMSYN088AAXX  11004 83182 32794 80503 10244 20145 39296 40109 82041 333 10320 29043 55106 58001;EQDQ01  00002PRCP06
0186831820999992003041112004-11300-041870FM-12+074799999V0201401N002112200019N0100001N1+02571+01911101331ADDAA106000091GF103991011021008001001011KA1240N+01801MA1999999093191MD1999999-0051REMSYN076AAXX  11124 83182 32597 31404 10257 20191 39319 40133 81201 333 20180 59005;EQDQ01  00002PRCP06
0198831820999992003041200004-11300-041870FM-12+074799999V0200501N002112200019N0010001N1+02641+01721101071ADDAA106000091GF103991021001017501051011KA1240M+03161MA1999999092981MD1999999+0021REMSYN088AAXX  12004 83182 32794 30504 10264 20172 39298 40107 82051 333 10316 29060 55105 58002;EQDQ01  00002PRCP06
0196831820999992003041212004-11300-041870FM-12+074799999V0200901N002112200019N0100001N1+02751+01821101281ADDAA106000091GA1001+999999999GF100991001001999999001001KA1240N+01841MA1999999093211MD1999999+0021REMSYN070AAXX  12124 83182 32997 00904 10275 20182 39321 40128 333 20184 58002;EQDQ01  00002PRCP06
0198831820999992003041300004-11300-041870FM-12+074799999V0200901N003112200019N0010001N1+02601+01541101131ADDAA106000091GF106991031001017501041011KA1240M+03331MA1999999093071MD1999999+0091REMSYN088AAXX  13004 83182 32794 60906 10260 20154 39307 40113 83041 333 10333 29054 55106 58009;EQDQ01  00002PRCP06
0186831820999992003041312004-11300-041870FM-12+074799999V0200901N004110075019N0100001N1+02601+01791101531ADDAA106000091GF106991051051008001001011KA1240N+01911MA1999999093411MD1999999+0211REMSYN076AAXX  13124 83182 32597 60908 10260 20179 39341 40153 85501 333 20191 58021;EQDQ01  00002PRCP06
0198831820999992003041400004-11300-041870FM-12+074799999V0201401N003112200019N0010001N1+02461+01631101371ADDAA106000091GF108991011011012501001011KA1240M+03151MA1999999093251MD1999999+0181REMSYN088AAXX  14004 83182 32694 81406 10246 20163 39325 40137 81101 333 10315 29060 55099 58018;EQDQ01  00002PRCP06
0186831820999992003041412004-11300-041870FM-12+074799999V0200901N006212200019N0100001N1+02661+01791101561ADDAA106000091GF108991021021008001001011KA1240N+01901MA1999999093421MD1999999+0011REMSYN076AAXX  14124 83182 32597 80912 10266 20179 39342 40156 82201 333 20190 58001;EQDQ01  00002PRCP06
0186831820999992003041512004-11300-041870FM-12+074799999V0201401N005112200019N0100001N1+02611+01791101411ADDAA106000091GF106991021021008001001011KA1240N+01861MA1999999093251MD1999999-0171REMSYN076AAXX  15124 83182 32597 61410 10261 20179 39325 40141 82201 333 20186 59017;EQDQ01  00002PRCP06
0198831820999992003041600004-11300-041870FM-12+074799999V0201401N003112200019N0010001N1+02341+01761101181ADDAA106000091GF108991011021008001001011KA1240M+03121MA1999999093041MD1999999-0181REMSYN088AAXX  16004 83182 32594 81406 10234 20176 39304 40118 81201 333 10312 29068 55100 59018;EQDQ01  00002PRCP06
0186831820999992003041612004-11300-041870FM-12+074799999V0201401N003110075019N0100001N1+02381+01841101431ADDAA106000091GF108991081051008001999999KA1240N+01941MA1999999093231MD1999999-0021REMSYN076AAXX  16124 83182 32597 81406 10238 20184 39323 40143 885// 333 20194 59002;EQDQ01  00002PRCP06
0198831820999992003041700004-11300-041870FM-12+074799999V0201401N002610075019N0010001N1+02341+01891101221ADDAA106000091GF108991051051008001051011KA1240M+02941MA1999999093041MD1999999+0001REMSYN088AAXX  17004 83182 32594 81405 10234 20189 39304 40122 85551 333 10294 29075 55035 58000;EQDQ01  00002PRCP06
0184831820999992003041712004-11300-041870FM-12+074799999V0201401N004110075019N0100001N1+02421+01821101511ADDAA106000091GF108991081051008001999999KA1240N+01931MA1999999093321REMSYN088AAXX  17124 83182 32597 81408 10242 20182 39332 40151 885// 333 20193 29075 55035 58009;EQDQ01  00002PRCP06
0198831820999992003041800004-11300-041870FM-12+074799999V0201401N006210450019N0010001N1+02331+01821101261ADDAA106000091GF108991041051008001051011KA1240M+03141MA1999999093091MD1999999+0051REMSYN088AAXX  18004 83182 32594 81412 10233 20182 39309 40126 84551 333 10314 29072 55081 58005;EQDQ01  00002PRCP06
0184831820999992003041812004-11300-041870FM-12+074799999V0201401N008212200019N0100001N1+02621+01861101321ADDAA106000091GF102991011021008001041011KA1240N+01781MA1999999093181REMSYN088AAXX  18124 83182 32597 21416 10262 20186 39318 40132 81241 333 20178 29075 55035 59014;EQDQ01  00002PRCP06
0208831820999992003041900004-11300-041870FM-12+074799999V0201401N003112200019N0010001N1+02141+01801101301ADDAA106000091GA1001+999999999GF100991001001999999001001KA1240M+02931MA1999999093131MD1999999+0041REMSYN082AAXX  19004 83182 32994 01406 10214 20180 39313 40130 333 10293 29075 55081 58004;EQDQ01  00002PRCP06
0186831820999992003041912004-11300-041870FM-12+074799999V0201401N005110075019N0100001N1+02321+01811101581ADDAA106000091GF108991081051008001999999KA1240N+01821MA1999999093341MD1999999+0161REMSYN076AAXX  19124 83182 32597 81410 10232 20181 39334 40158 885// 333 20182 58016;EQDQ01  00002PRCP06
0198831820999992003042000004-11300-041870FM-12+074799999V0201401N003612200019N0010001N1+02251+01801101301ADDAA106000091GF102991021001017501041001KA1240M+02901MA1999999093091MD1999999-0041REMSYN088AAXX  20004 83182 32794 21407 10225 20180 39309 40130 82040 333 10290 29075 55081 59004;EQDQ01  00002PRCP06
0186831820999992003042012004-11300-041870FM-12+074799999V0201401N006212200019N0100001N1+02521+01661101371ADDAA106000091GF102991021021008001001001KA1240N+01691MA1999999093191MD1999999-0151REMSYN076AAXX  20124 83182 32597 21412 10252 20166 39319 40137 82200 333 20169 59015;EQDQ01  00002PRCP06
0208831820999992003042100004-11300-041870FM-12+074799999V0201401N004112200019N0010001N1+02341+01621101081ADDAA106000091GA1001+999999999GF100991001001999999001001KA1240M+03121MA1999999092941MD1999999-0151REMSYN082AAXX  21004 83182 32994 01408 10234 20162 39294 40108 333 10312 29064 55110 59015;EQDQ01  00002PRCP06
0186831820999992003042112004-11300-041870FM-12+074799999V0201401N006210075019N0100001N1+02531+01591101431ADDAA106000091GF106991061021008001001001KA1240N+01741MA1999999093261MD1999999+0071REMSYN076AAXX  21124 83182 32597 61412 10253 20159 39326 40143 86200 333 20174 58007;EQDQ01  00002PRCP06
0208831820999992003042200004-11300-041870FM-12+074799999V0201401N004612200019N0010001N1+02351+01691101311ADDAA106000091GA1001+999999999GF100991001001999999001001KA1240M+03061MA1999999093151MD1999999+0211REMSYN082AAXX  22004 83182 32994 01409 10235 20169 39315 40131 333 10306 29063 55102 58021;EQDQ01  00002PRCP06
0186831820999992003042212004-11300-041870FM-12+074799999V0201401N007210075019N0100001N1+02401+01751101361ADDAA106000091GF108991081051008001999999KA1240N+01801MA1999999093181MD1999999-0081REMSYN076AAXX  22124 83182 32597 81414 10240 20175 39318 40136 885// 333 20180 59008;EQDQ01  00002PRCP06
0208831820999992003042300004-11300-041870FM-12+074799999V0201401N003612200019N0010001N1+02231+01471101381ADDAA106000091GA1001+999999999GF100991001001999999001001KA1240M+03041MA1999999093161MD1999999+0011REMSYN082AAXX  23004 83182 32994 01407 10223 20147 39316 40138 333 10304 29064 55092 58001;EQDQ01  00002PRCP06
0186831820999992003042312004-11300-041870FM-12+074799999V0201401N004112200019N0100001N1+02521+01331101401ADDAA106000091GF102991021021008001001001KA1240N+01701MA1999999093221MD1999999+0041REMSYN076AAXX  23124 83182 32597 21408 10252 20133 39322 40140 82200 333 20170 58004;EQDQ01  00002PRCP06
0208831820999992003042400004-11300-041870FM-12+074799999V0200901N002112200019N0010001N1+02201+01561101361ADDAA106000091GA1001+999999999GF100991001001999999001001KA1240M+02901MA1999999093161MD1999999+0001REMSYN082AAXX  24004 83182 32994 00904 10220 20156 39316 40136 333 10290 29063 55087 58000;EQDQ01  00002PRCP06
0186831820999992003042412004-11300-041870FM-12+074799999V0201401N005110450019N0100001N1+02281+01701101581ADDAA106000091GF108991031051008001041011KA1240N+01831MA1999999093341MD1999999+0121REMSYN076AAXX  24124 83182 32597 81410 10228 20170 39334 40158 83541 333 20183 58012;EQDQ01  00002PRCP06
0198831820999992003042500004-11300-041870FM-12+074799999V0201401N004110450019N0010001N1+02221+01691101331ADDAA106000091GF108991021021008001051011KA1240M+02981MA1999999093101MD1999999-0061REMSYN088AAXX  25004 83182 32594 81408 10222 20169 39310 40133 82251 333 10298 29071 55075 59006;EQDQ01  00002PRCP06
0186831820999992003042512004-11300-041870FM-12+074799999V0200901N005712200019N0100001N1+02441+01631101451ADDAA106000091GF108991041021008001001011KA1240N+01701MA1999999093251MD1999999-0091REMSYN076AAXX  25124 83182 32597 80911 10244 20163 39325 40145 84201 333 20170 59009;EQDQ01  00002PRCP06
0198831820999992003042600004-11300-041870FM-12+074799999V0200901N002612200019N0010001N1+02341+01491101421ADDAA106000091GF102991011001017501051011KA1240M+03101MA1999999093241MD1999999+0141REMSYN088AAXX  26004 83182 32794 20905 10234 20149 39324 40142 81051 333 10310 29059 55102 58014;EQDQ01  00002PRCP06
0186831820999992003042612004-11300-041870FM-12+074799999V0201401N004110450019N0100001N1+02531+01671101501ADDAA106000091GF108991011021008001041011KA1240N+01771MA1999999093331MD1999999+0081REMSYN076AAXX  26124 83182 32597 81408 10253 20167 39333 40150 81241 333 20177 58008;EQDQ01  00002PRCP06
0198831820999992003042700004-11300-041870FM-12+074799999V0201401N004110075019N0010001N1+02381+01781101451ADDAA106000091GF108991081051008001999999KA1240M+02981MA1999999093281MD1999999-0081REMSYN088AAXX  27004 83182 32594 81408 10238 20178 39328 40145 885// 333 10298 29066 55039 59008;EQDQ01  00002PRCP06
0186831820999992003042712004-11300-041870FM-12+074799999V0201401N005112200019N0100001N1+02501+01771101551ADDAA106000091GF103991021021008001041001KA1240N+01771MA1999999093371MD1999999+0041REMSYN076AAXX  27124 83182 32597 31410 10250 20177 39337 40155 82240 333 20177 58004;EQDQ01  00002PRCP06
0198831820999992003042800004-11300-041870FM-12+074799999V0200901N003612200019N0010001N1+02401+01821101321ADDAA106000091GF102991001001999999001011KA1240M+03151MA1999999093161MD1999999-0121REMSYN088AAXX  28004 83182 32994 20907 10240 20182 39316 40132 80001 333 10315 29068 55108 59012;EQDQ01  00002PRCP06
0186831820999992003042812004-11300-041870FM-12+074799999V0201401N004112200019N0100001N1+02421+01671101461ADDAA106000091GF108991021021008001001011KA1240N+01721MA1999999093271MD1999999-0101REMSYN076AAXX  28124 83182 32597 81408 10242 20167 39327 40146 82201 333 20172 59010;EQDQ01  00002PRCP06
0198831820999992003042900004-11300-041870FM-12+074799999V0200901N002619999999N0010001N1+02411+01601101201ADDAA106000091GF108991001001999999001011KA1240M+03101MA1999999093041MD1999999-0121REMSYN088AAXX  29004 83182 32994 80905 10241 20160 39304 40120 80001 333 10310 29062 55087 59012;EQDQ01  00002PRCP06
0186831820999992003042912004-11300-041870FM-12+074799999V0201401N003612200019N0100001N1+02461+01811101491ADDAA106000091GF108991021021008001001011KA1240N+01801MA1999999093321MD1999999+0051REMSYN076AAXX  29124 83182 32597 81407 10246 20181 39332 40149 82201 333 20180 58005;EQDQ01  00002PRCP06
0198831820999992003043000004-11300-041870FM-12+074799999V0200901N004119999999N0010001N1+02381+01611101291ADDAA106000091GF108991001001999999001011KA1240M+03141MA1999999093121MD1999999+0081REMSYN088AAXX  30004 83182 32994 80908 10238 20161 39312 40129 80001 333 10314 29064 55080 58008;EQDQ01  00002PRCP06
0186831820999992003043012004-11300-041870FM-12+074799999V0200901N004612200019N0100001N1+02701+01751101461ADDAA106000091GF102991011011012501001011KA1240N+01921MA1999999093331MD1999999+0011REMSYN076AAXX  30124 83182 32697 20909 10270 20175 39333 40146 81101 333 20192 58001;EQDQ01  00002PRCP06
0208831820999992003050100004-11300-041870FM-12+074799999V0201401N003112200019N0010001N1+02441+01531101261ADDAA106000091GA1001+999999999GF100991001001999999001001KA1240M+03171MA1999999093141MD1999999+0021REMSYN082AAXX  01004 83182 32994 01406 10244 20153 39314 40126 333 10317 29057 55103 58002;EQDQ01  00002PRCP06
0186831820999992003050112004-11300-041870FM-12+074799999V0201401N005112200019N0100001N1+02511+01671101551ADDAA106000091GF102991011011012501001011KA1240N+01771MA1999999093391MD1999999+0061REMSYN076AAXX  01124 83182 32697 21410 10251 20167 39339 40155 81101 333 20177 58006;EQDQ01  00002PRCP06
0208831820999992003050200004-11300-041870FM-12+074799999V0200901N003112200019N0010001N1+02441+01451101201ADDAA106000091GA1001+999999999GF100991001001999999001001KA1240M+03241MA1999999093071MD1999999-0071REMSYN082AAXX  02004 83182 32994 00906 10244 20145 39307 40120 333 10324 29056 55095 59007;EQDQ01  00002PRCP06
0186831820999992003050212004-11300-041870FM-12+074799999V0201401N004112200019N0100001N1+02701+01751101281ADDAA106000091GF102991011021008001041011KA1240N+01731MA1999999093161MD1999999-0231REMSYN076AAXX  02124 83182 32597 21408 10270 20175 39316 40128 81241 333 20173 59023;EQDQ01  00002PRCP06
0198831820999992003050300004-11300-041870FM-12+074799999V0200501N001510075019N0010001N1+02771+01461100861ADDAA106000091GF108991081051008001999999KA1240M+03371MA1999999092841MD1999999-0231REMSYN088AAXX  03004 83182 32594 80503 10277 20146 39284 40086 885// 333 10337 29049 55097 59023;EQDQ01  00002PRCP06
0186831820999992003050312004-11300-041870FM-12+074799999V0203601N003110450019N0100001N1+02731+01881101121ADDAA106000091GF108991011021008001061011KA1240N+02261MA1999999093081MD1999999-0081REMSYN076AAXX  03124 83182 32597 83606 10273 20188 39308 40112 81261 333 20226 59008;EQDQ01  00002PRCP06
0226831820999992003050400004-11300-041870FM-12+074799999V0201401N001510450019N0010001N1+02471+01731100921ADDAA106000091AY121061AY221061GF108991041031008001051011KA1240M+03281MA1999999092851MD1999999+0011MW1131REMSYN094AAXX  04004 83182 31594 81403 10247 20173 39285 40092 71322 84351 333 10328 29063 55/// 58001;EQDQ01  00002PRCP06
0190831820999992003050412004-11300-041870FM-12+074799999V0200901N002610042019N0040001N1+02251+01981101441ADDAY161061AY261061GF108991061071004501021999KA1240N+02011MA1999999093241MD1999999+0161MW1151REMSYN088AAXX  04124 83182 21496 80905 10225 20198 39324 40144 71566 8672/ 333 20201 58016 60114;
0198831820999992003050500004-11300-041870FM-12+074799999V0201401N004110450019N0010001N1+02061+01821101441ADDAA106000091GF108991021051008001041011KA1240M+02491MA1999999093171MD1999999+0321REMSYN088AAXX  05004 83182 32594 81408 10206 20182 39317 40144 82541 333 10249 29086 55003 58032;EQDQ01  00002PRCP06
0162831820999992003050512004-11300-041870FM-12+074799999V0200901N004110075019N0100001N1+02331+01791101641ADDGF108991081051008001999999KA1240N+01841MA1999999093371MD1999999+0131REMSYN082AAXX  05124 83182 22597 80908 10233 20179 39337 40164 885// 333 20184 58013 60044;
0198831820999992003050600004-11300-041870FM-12+074799999V0201401N003110450019N0010001N1+02131+01841101411ADDAA106000091GF106991031051008001051011KA1240M+02721MA1999999093171MD1999999+0001REMSYN088AAXX  06004 83182 32594 61406 10213 20184 39317 40141 83551 333 10272 29080 55048 58000;EQDQ01  00002PRCP06
0186831820999992003050612004-11300-041870FM-12+074799999V0201401N004610075019N0100001N1+02381+01801101471ADDAA106000091GF107991061021008001001011KA1240N+01771MA1999999093231MD1999999-0181REMSYN076AAXX  06124 83182 32597 71409 10238 20180 39323 40147 86201 333 20177 59018;EQDQ01  00002PRCP06
0198831820999992003050700004-11300-041870FM-12+074799999V0200901N003112200019N0010001N1+02231+01711101191ADDAA106000091GF103991011001017501051011KA1240M+02851MA1999999092991MD1999999-0181REMSYN088AAXX  07004 83182 32794 30906 10223 20171 39299 40119 81051 333 10285 29072 55088 59018;EQDQ01  00002PRCP06
0186831820999992003050712004-11300-041870FM-12+074799999V0201401N002612200019N0100001N1+02541+01811101281ADDAA106000091GF104991011021008001041011KA1240N+01821MA1999999093111MD1999999-0121REMSYN076AAXX  07124 83182 32597 41405 10254 20181 39311 40128 81241 333 20182 59012;EQDQ01  00002PRCP06
0198831820999992003050800004-11300-041870FM-12+074799999V0200901N001510075019N0010001N1+02341+02001101181ADDAA106000091GF108991081051008001999999KA1240M+03181MA1999999093041MD1999999+0051REMSYN088AAXX  08004 83182 32594 80903 10234 20200 39304 40118 885// 333 10318 29075 55091 58005;EQDQ01  00002PRCP06
0186831820999992003050812004-11300-041870FM-12+074799999V0200901N001512200019N0100001N1+02561+01931101381ADDAA106000091GF108991021021008001001011KA1240N+01811MA1999999093221MD1999999+0111REMSYN076AAXX  08124 83182 32597 80903 10256 20193 39322 40138 82201 333 20181 58011;EQDQ01  00002PRCP06
0198831820999992003050900004-11300-041870FM-12+074799999V0200901N003112200019N0010001N1+02491+01791101211ADDAA106000091GF108991021001017501041011KA1240M+03201MA1999999093091MD1999999+0051REMSYN088AAXX  09004 83182 32794 80906 10249 20179 39309 40121 82041 333 10320 29066 55105 58005;EQDQ01  00002PRCP06
0186831820999992003050912004-11300-041870FM-12+074799999V0200901N004112200019N0100001N1+02611+01801101391ADDAA106000091GF108991011021008001001011KA1240N+01781MA1999999093261MD1999999+0041REMSYN076AAXX  09124 83182 32597 80908 10261 20180 39326 40139 81201 333 20178 58004;EQDQ01  00002PRCP06
0208831820999992003051000004-11300-041870FM-12+074799999V0200901N003112200019N0010001N1+02261+01751101401ADDAA106000091GA1001+999999999GF100991001001999999001001KA1240M+03131MA1999999093201MD1999999+0111REMSYN082AAXX  10004 83182 32994 00906 10226 20175 39320 40140 333 10313 29069 55100 58011;EQDQ01  00002PRCP06
0198831820999992003051100004-11300-041870FM-12+074799999V0201401N005710450019N0010001N1+02091+01781101571ADDAA106000091GF108991021051008001041011KA1240M+02981MA1999999093351MD1999999+0151REMSYN088AAXX  11004 83182 32594 81411 10209 20178 39335 40157 82541 333 10298 29075 55084 58015;EQDQ01  00002PRCP06
0186831820999992003051112004-11300-041870FM-12+074799999V0201401N007710075019N0100001N1+02301+01611101671ADDAA106000091GF108991081051008001999999KA1240N+01861MA1999999093401MD1999999+0051REMSYN076AAXX  11124 83182 32597 81415 10230 20161 39340 40167 885// 333 20186 58005;EQDQ01  00002PRCP06
0198831820999992003051200004-11300-041870FM-12+074799999V0201401N005112200019N0010001N1+02211+01241101561ADDAA106000091GF108991011001017501041011KA1240M+02901MA1999999093321MD1999999-0031REMSYN088AAXX  12004 83182 32794 81410 10221 20124 39332 40156 81041 333 10290 29058 55037 59003;EQDQ01  00002PRCP06
0186831820999992003051212004-11300-041870FM-12+074799999V0201401N008210075019N0100001N1+02281+01591101771ADDAA106000091GF107991061051008001051001KA1240N+01831MA1999999093511MD1999999+0111REMSYN076AAXX  12124 83182 32597 71416 10228 20159 39351 40177 86550 333 20183 58011;EQDQ01  00002PRCP06
0198831820999992003051300004-11300-041870FM-12+074799999V0201401N003110075019N0010001N1+02241+01671101621ADDAA106000091GF108991081051008001999999KA1240M+02661MA1999999093371MD1999999+0051REMSYN088AAXX  13004 83182 32594 81406 10224 20167 39337 40162 885// 333 10266 29068 55041 58005;EQDQ01  00002PRCP06
0186831820999992003051312004-11300-041870FM-12+074799999V0201801N005110075019N0010001N1+02311+01711101621ADDAA106000091GF107991051051008001041011KA1240N+01741MA1999999093391MD1999999-0121REMSYN076AAXX  13124 83182 32594 71810 10231 20171 39339 40162 85541 333 20174 59012;EQDQ01  00002PRCP06
0198831820999992003051400004-11300-041870FM-12+074799999V0201401N003110450019N0010001N1+02131+01781101531ADDAA106000091GF108991011021008001041011KA1240M+02771MA1999999093271MD1999999-0101REMSYN088AAXX  14004 83182 32594 81406 10213 20178 39327 40153 81241 333 10277 29077 55074 59010;EQDQ01  00002PRCP06
0186831820999992003051412004-11300-041870FM-12+074799999V0201401N005710075019N0100001N1+02401+01731101581ADDAA106000091GF107991071021008001001001KA1240N+01821MA1999999093341MD1999999-0051REMSYN076AAXX  14124 83182 32597 71411 10240 20173 39334 40158 87200 333 20182 59005;EQDQ01  00002PRCP06
0198831820999992003051500004-11300-041870FM-12+074799999V0201401N004110450019N0010001N1+02171+01871101591ADDAA106000091GF108991041051008001051011KA1240M+02791MA1999999093361MD1999999+0091REMSYN088AAXX  15004 83182 32594 81408 10217 20187 39336 40159 84551 333 10279 29077 55069 58009;EQDQ01  00002PRCP06
0186831820999992003051512004-11300-041870FM-12+074799999V0201401N006710075019N0100001N1+02501+01721101611ADDAA106000091GF108991081051008001999999KA1240N+01801MA1999999093391MD1999999+0051REMSYN076AAXX  15124 83182 32597 81413 10250 20172 39339 40161 885// 333 20180 58005;EQDQ01  00002PRCP06
0198831820999992003051600004-11300-041870FM-12+074799999V0201401N004112200019N0010001N1+02041+01761101521ADDAA106000091GF101991011021008001001001KA1240M+02741MA1999999093281MD1999999-0081REMSYN088AAXX  16004 83182 32594 11408 10204 20176 39328 40152 81200 333 10274 29077 55074 59008;EQDQ01  00002PRCP06
0186831820999992003051612004-11300-041870FM-12+074799999V0201801N006710075019N0100001N1+02481+01751101511ADDAA106000091GF107991061051008001001011KA1240N+01781MA1999999093271MD1999999-0121REMSYN076AAXX  16124 83182 32597 71813 10248 20175 39327 40151 86501 333 20178 59012;EQDQ01  00002PRCP06
0198831820999992003051700004-11300-041870FM-12+074799999V0201401N003112200019N0010001N1+02041+01561101501ADDAA106000091GF101991011001017501041001KA1240M+02731MA1999999093261MD1999999-0021REMSYN088AAXX  17004 83182 32794 11406 10204 20156 39326 40150 81040 333 10273 29069 55056 59002;EQDQ01  00002PRCP06
0186831820999992003051712004-11300-041870FM-12+074799999V0201401N007212200019N0100001N1+02371+01471101431ADDAA106000091GF101991011021008001001001KA1240N+01541MA1999999093251MD1999999-0021REMSYN076AAXX  17124 83182 32597 11414 10237 20147 39325 40143 81200 333 20154 59002;EQDQ01  00002PRCP06
0208831820999992003051800004-11300-041870FM-12+074799999V0201401N002612200019N0010001N1+02041+01581101581ADDAA106000091GA1001+999999999GF100991001001999999001001KA1240M+02901MA1999999093221MD1999999-0041REMSYN082AAXX  18004 83182 32994 01405 10204 20158 39322 40158 333 10290 29069 55107 59004;EQDQ01  00002PRCP06
0186831820999992003051812004-11300-041870FM-12+074799999V0201801N005710075019N0100001N1+02181+01741101581ADDAA106000091GF108991081051008001999999KA1240N+01531MA1999999093281MD1999999+0031REMSYN076AAXX  18124 83182 32597 81811 10218 20174 39328 40158 885// 333 20153 58003;EQDQ01  00002PRCP06
0198831820999992003051900004-11300-041870FM-12+074799999V0201401N004110075019N0010001N1+02061+01801101551ADDAA106000091GF108991081051008001999999KA1240M+02701MA1999999093271MD1999999+0051REMSYN088AAXX  19004 83182 32594 81408 10206 20180 39327 40155 885// 333 10270 29082 55037 58005;EQDQ01  00002PRCP06
0186831820999992003051912004-11300-041870FM-12+074799999V0200901N006212200019N0100001N1+02481+01621101721ADDAA106000091GF102991011021008001041001KA1240N+01551MA1999999093461MD1999999+0181REMSYN076AAXX  19124 83182 32597 20912 10248 20162 39346 40172 81240 333 20155 58018;EQDQ01  00002PRCP06
0198831820999992003052000004-11300-041870FM-12+074799999V0201401N004110075019N0010001N1+02081+01781101461ADDAA106000091GF108991081051008001999999KA1240M+02921MA1999999093241MD1999999-0031REMSYN088AAXX  20004 83182 32594 81408 10208 20178 39324 40146 885// 333 10292 29075 55086 59003;EQDQ01  00002PRCP06
0186831820999992003052012004-11300-041870FM-12+074799999V0201801N006210075019N0100001N1+02251+01741101701ADDAA106000091GF108991081051008001999999KA1240N+01871MA1999999093411MD1999999-0051REMSYN076AAXX  20124 83182 32597 81812 10225 20174 39341 40170 885// 333 20187 59005;EQDQ01  00002PRCP06
0208831820999992003052100004-11300-041870FM-12+074799999V0201401N003612200019N0010001N1+02001+01661101601ADDAA106000091GA1001+999999999GF100991001001999999001001KA1240M+02701MA1999999093301MD1999999+0061REMSYN082AAXX  21004 83182 32994 01407 10200 20166 39330 40160 333 10270 29078 55071 58006;EQDQ01  00002PRCP06
0186831820999992003052112004-11300-041870FM-12+074799999V0200901N005712200019N0100001N1+02391+01591101571ADDAA106000091GF102991011011012501001011KA1240N+01591MA1999999093311MD1999999-0101REMSYN076AAXX  21124 83182 32697 20911 10239 20159 39331 40157 81101 333 20159 59010;EQDQ01  00002PRCP06
0198831820999992003052200004-11300-041870FM-12+074799999V0200901N004112200019N0010001N1+02241+01621101341ADDAA106000091GF104991041001017501051001KA1240M+03031MA1999999093131MD1999999-0171REMSYN088AAXX  22004 83182 32794 40908 10224 20162 39313 40134 84050 333 10303 29066 55104 59017;EQDQ01  00002PRCP06
0186831820999992003052212004-11300-041870FM-12+074799999V0201401N003110075019N0100001N1+02491+01761101581ADDAA106000091GF108991081051008001999999KA1240N+01651MA1999999093361MD1999999+0051REMSYN076AAXX  22124 83182 32597 81406 10249 20176 39336 40158 885// 333 20165 58005;EQDQ01  00002PRCP06
0208831820999992003052300004-11300-041870FM-12+074799999V0200901N003112200019N0010001N1+02261+01751101431ADDAA106000091GA1001+999999999GF100991001001999999001001KA1240M+02941MA1999999093251MD1999999+0121REMSYN082AAXX  23004 83182 32994 00906 10226 20175 39325 40143 333 10294 29070 55042 58012;EQDQ01  00002PRCP06
0186831820999992003052312004-11300-041870FM-12+074799999V0201401N003112200019N0100001N1+02531+01701101471ADDAA106000091GF101991011011012501001001KA1240N+01531MA1999999093281MD1999999-0081REMSYN076AAXX  23124 83182 32697 11406 10253 20170 39328 40147 81100 333 20153 59008;EQDQ01  00002PRCP06
0208831820999992003052400004-11300-041870FM-12+074799999V0200901N003112200019N0010001N1+02211+01701101321ADDAA106000091GA1001+999999999GF100991001001999999001001KA1240M+03091MA1999999093131MD1999999-0121REMSYN082AAXX  24004 83182 32994 00906 10221 20170 39313 40132 333 10309 29069 55092 59012;EQDQ01  00002PRCP06
0196831820999992003052412004-11300-041870FM-12+074799999V0201401N002612200019N0100001N1+02531+01781101371ADDAA106000091GA1001+999999999GF100991001001999999001001KA1240N+01621MA1999999093171MD1999999-0111REMSYN070AAXX  24124 83182 32997 01405 10253 20178 39317 40137 333 20162 59011;EQDQ01  00002PRCP06
0208831820999992003052500004-11300-041870FM-12+074799999V0200501N003112200019N0010001N1+02561+01751100961ADDAA106000091GA1001+999999999GF100991001001999999001001KA1240M+03281MA1999999092861MD1999999-0271REMSYN082AAXX  25004 83182 32994 00506 10256 20175 39286 40096 333 10328 29062 55105 59027;EQDQ01  00002PRCP06
0186831820999992003052512004-11300-041870FM-12+074799999V0203601N001010450019N0100001N1+02751+01681101141ADDAA106000091GF108991011021008001041011KA1240N+01841MA1999999093041MD1999999-0111REMSYN076AAXX  25124 83182 32597 83602 10275 20168 39304 40114 81241 333 20184 59011;EQDQ01  00002PRCP06
0198831820999992003052600004-11300-041870FM-12+074799999V0201401N003110450019N0010001N1+02491+01861101001ADDAA106000091GF108991021021008001051011KA1240M+03301MA1999999092921MD1999999+0061REMSYN088AAXX  26004 83182 32594 81406 10249 20186 39292 40100 82251 333 10330 29063 55077 58006;EQDQ01  00002PRCP06
0186831820999992003052612004-11300-041870FM-12+074799999V0201801N001510075019N0100001N1+02311+01971101411ADDAA106000091GF108991061071008001021999KA1240N+02011MA1999999093231MD1999999+0171REMSYN076AAXX  26124 83182 32597 81803 10231 20197 39323 40141 8672/ 333 20201 58017;EQDQ01  00002PRCP06
0202831820999992003052700004-11300-041870FM-12+074799999V0200901N001510042019N0010001N1+02101+02031101551ADDAY161061AY261061GF108991061071004501021999KA1240M+03001MA1999999093291MD1999999+0371MW1611REMSYN100AAXX  27004 83182 21494 80903 10210 20203 39329 40155 76166 8672/ 333 10300 29091 55031 58037 60231;
0190831820999992003052712004-11300-041870FM-12+074799999V0201401N005710450019N0100001N1+02281+01881101701ADDAY161061AY261061GF108991031021008001061011KA1240N+01951MA1999999093431MD1999999+0201MW1021REMSYN088AAXX  27124 83182 21597 81411 10228 20188 39343 40170 70266 83261 333 20195 58020 60234;
0198831820999992003052800004-11300-041870FM-12+074799999V0201401N004110075019N0010001N1+02161+01861101621ADDAA106000091GF108991081051008001999999KA1240M+02701MA1999999093351MD1999999+0061REMSYN088AAXX  28004 83182 32594 81408 10216 20186 39335 40162 885// 333 10270 29081 55031 58006;EQDQ01  00002PRCP06
0186831820999992003052812004-11300-041870FM-12+074799999V0201401N005110075019N0100001N1+02411+01831101671ADDAA106000091GF108991061021008001061011KA1240N+01781MA1999999093441MD1999999+0011REMSYN076AAXX  28124 83182 32597 81410 10241 20183 39344 40167 86261 333 20178 58001;EQDQ01  00002PRCP06
0198831820999992003052900004-11300-041870FM-12+074799999V0201401N004610450019N0010001N1+02161+01861101551ADDAA106000091GF108991041051008001051011KA1240M+02741MA1999999093321MD1999999-0031REMSYN088AAXX  29004 83182 32594 81409 10216 20186 39332 40155 84551 333 10274 29079 55048 59003;EQDQ01  00002PRCP06
0186831820999992003052912004-11300-041870FM-12+074799999V0201401N005710075019N0100001N1+02221+01781101691ADDAA106000091GF108991081051008001999999KA1240N+01831MA1999999093421MD1999999-0021REMSYN076AAXX  29124 83182 32597 81411 10222 20178 39342 40169 885// 333 20183 59002;EQDQ01  00002PRCP06
0198831820999992003053000004-11300-041870FM-12+074799999V0201401N002610075019N0010001N1+01961+01771101711ADDAA106000091GF108991051051008001051011KA1240M+02341MA1999999093401MD1999999+0081REMSYN088AAXX  30004 83182 32594 81405 10196 20177 39340 40171 85551 333 10234 29085 55024 58008;EQDQ01  00002PRCP06
0186831820999992003053012004-11300-041870FM-12+074799999V0201401N006210450019N0100001N1+02231+01721101821ADDAA106000091GF106991031021008001051001KA1240N+01541MA1999999093501MD1999999+0081REMSYN076AAXX  30124 83182 32597 61412 10223 20172 39350 40182 83250 333 20154 58008;EQDQ01  00002PRCP06
0198831820999992003053100004-11300-041870FM-12+074799999V0201401N004110075019N0010001N1+02181+01671101651ADDAA106000091GF108991081051008001999999KA1240M+02631MA1999999093381MD1999999-0021REMSYN088AAXX  31004 83182 32594 81408 10218 20167 39338 40165 885// 333 10263 29072 55085 59002;EQDQ01  00002PRCP06
0186831820999992003053112004-11300-041870FM-12+074799999V0201401N005710075019N0100001N1+02211+01661101801ADDAA106000091GF108991081051008001999999KA1240N+01711MA1999999093521MD1999999+0021REMSYN076AAXX  31124 83182 32597 81411 10221 20166 39352 40180 885// 333 20171 58002;EQDQ01  00002PRCP06
0198831820999992003060100004-11300-041870FM-12+074799999V0201401N002610075019N0010001N1+01991+01801101791ADDAA106000091GF108991081051008001999999KA1240M+02541MA1999999093471MD1999999+0091REMSYN088AAXX  01004 83182 32594 81405 10199 20180 39347 40179 885// 333 10254 29082 55028 58009;EQDQ01  00002PRCP06
0186831820999992003060112004-11300-041870FM-12+074799999V0201801N005710075019N0100001N1+02281+01701101801ADDAA106000091GF106991061021008001001001KA1240N+01651MA1999999093501MD1999999-0021REMSYN076AAXX  01124 83182 32597 61811 10228 20170 39350 40180 86200 333 20165 59002;EQDQ01  00002PRCP06
0208831820999992003060200004-11300-041870FM-12+074799999V0201401N002612200019N0010001N1+02071+01751101701ADDAA106000091GA1001+999999999GF100991001001999999001001KA1240M+02681MA1999999093431MD1999999-0041REMSYN082AAXX  02004 83182 32994 01405 10207 20175 39343 40170 333 10268 29078 55067 59004;EQDQ01  00002PRCP06
0186831820999992003060212004-11300-041870FM-12+074799999V0200901N005110075019N0100001N1+02321+01911101681ADDAA106000091GF106991061051008001001001KA1240N+01791MA1999999093411MD1999999-0091REMSYN076AAXX  02124 83182 32597 60910 10232 20191 39341 40168 86500 333 20179 59009;EQDQ01  00002PRCP06
0186831820999992003060312004-11300-041870FM-12+074799999V0200901N004610075019N0100001N1+02111+01541101771ADDAA106000091GF108991081051008001999999KA1240N+01751MA1999999093341MD1999999-0071REMSYN076AAXX  03124 83182 32597 80909 10211 20154 39334 40177 885// 333 20175 59007;EQDQ01  00002PRCP06
0198831820999992003060400004-11300-041870FM-12+074799999V0201401N003110075019N0010001N1+01951+01691101591ADDAA106000091GF108991081051008001999999KA1240M+02571MA1999999093271MD1999999+0021REMSYN088AAXX  04004 83182 32594 81406 10195 20169 39327 40159 885// 333 10257 29080 55024 58002;EQDQ01  00002PRCP06
0186831820999992003060412004-11300-041870FM-12+074799999V0200901N005110075019N0100001N1+02291+01641101721ADDAA106000091GF106991061051008001001001KA1240N+01571MA1999999093411MD1999999-0031REMSYN076AAXX  04124 83182 32597 60910 10229 20164 39341 40172 86500 333 20157 59003;EQDQ01  00002PRCP06
0198831820999992003060500004-11300-041870FM-12+074799999V0201401N004110075019N0010001N1+02151+01771101471ADDAA106000091GF108991081051008001999999KA1240M+02861MA1999999093221MD1999999-0051REMSYN088AAXX  05004 83182 32594 81408 10215 20177 39322 40147 885// 333 10286 29075 55102 59005;EQDQ01  00002PRCP06
0186831820999992003060512004-11300-041870FM-12+074799999V0200901N006210075019N0100001N1+02421+01611101521ADDAA106000091GF105991051021008001001001KA1240N+01691MA1999999093291MD1999999-0121REMSYN076AAXX  05124 83182 32597 50912 10242 20161 39329 40152 85200 333 20169 59012;EQDQ01  00002PRCP06
0198831820999992003060600004-11300-041870FM-12+074799999V0200901N004112200019N0010001N1+02071+01731101611ADDAA106000091GF102991021001017501041001KA1240M+02731MA1999999093361MD1999999+0141REMSYN088AAXX  06004 83182 32794 20908 10207 20173 39336 40161 82040 333 10273 29074 55070 58014;EQDQ01  00002PRCP06
0186831820999992003060612004-11300-041870FM-12+074799999V0201401N004110075019N0100001N1+02221+01711101681ADDAA106000091GF108991081051008001999999KA1240N+01651MA1999999093381MD1999999+0091REMSYN076AAXX  06124 83182 32597 81408 10222 20171 39338 40168 885// 333 20165 58009;EQDQ01  00002PRCP06
0198831820999992003060700004-11300-041870FM-12+074799999V0201401N004612200019N0010001N1+01931+01541101631ADDAA106000091GF102991001001999999001011KA1240M+02721MA1999999093331MD1999999-0031REMSYN088AAXX  07004 83182 32994 21409 10193 20154 39333 40163 80001 333 10272 29076 55055 59003;EQDQ01  00002PRCP06
0202831820999992003060712004-11300-041870FM-12+074799999V0201401N005710075019N0100001N1+02221+01551101741ADDAA106000091GF106991061021008001001001KA1240N+01431MA1999999999999MD1999999+0051REMSYN076AAXX  07124 83182 32597 61411 10222 20155 39843 40174 86200 333 20143 58005;EQDQ01  00002PRCP06Q02 098433APOSP 
0198831820999992003060800004-11300-041870FM-12+074799999V0201401N003112200019N0010001N1+01961+01681101571ADDAA106000091GF101991011001017501041001KA1240M+02841MA1999999093271MD1999999-0061REMSYN088AAXX  08004 83182 32794 11406 10196 20168 39327 40157 81040 333 10284 29078 55085 59006;EQDQ01  00002PRCP06
0186831820999992003060812004-11300-041870FM-12+074799999V0201401N004110075019N0100001N1+02081+01581101661ADDAA106000091GF108991081051008001999999KA1240N+01501MA1999999093321MD1999999+0111REMSYN076AAXX  08124 83182 32597 81408 10208 20158 39332 40166 885// 333 20150 58011;EQDQ01  00002PRCP06
0202831820999992003060900004-11300-041870FM-12+074799999V0201401N004110075019N0010001N1+01941+01841101661ADDAY121061AY221061GF108991051051008001061011KA1240M+02681MA1999999093321MD1999999+0051MW1211REMSYN100AAXX  09004 83182 21594 81408 10194 20184 39332 40166 72122 85561 333 10268 29087 55075 58005 69981;
0209831820999992003060912004-11300-041870FM-12+074799999V0200901N004110042019N0040001N1+01981+01861101731ADDAY121061AY221061GF108991999071004501021999KA1240N+01651MA1999999093371MD1999999+0051MW1611REMSYN088AAXX  09124 83182 21496 80908 10198 20186 39337 40173 76122 8872/ 333 20165 58005 60024;EQDQ01+000082SCOTLC
0208831820999992003061000004-11300-041870FM-12+074799999V0200901N005712200019N0010001N1+01911+01601101721ADDAA106000091GA1001+999999999GF100991001001999999001001KA1240M+02541MA1999999093361MD1999999+0041REMSYN082AAXX  10004 83182 32994 00911 10191 20160 39336 40172 333 10254 29086 55042 58004;EQDQ01  00002PRCP06
0186831820999992003061012004-11300-041870FM-12+074799999V0200901N006212200019N0100001N1+02301+01481101741ADDAA106000091GF104991041021008001001001KA1240N+01461MA1999999093431MD1999999+0031REMSYN076AAXX  10124 83182 32597 40912 10230 20148 39343 40174 84200 333 20146 58003;EQDQ01  00002PRCP06
0198831820999992003061100004-11300-041870FM-12+074799999V0201401N004112200019N0010001N1+02011+01751101811ADDAA106000091GF104991041051008001001001KA1240M+02781MA1999999093421MD1999999+0061REMSYN088AAXX  11004 83182 32594 41408 10201 20175 39342 40181 84500 333 10278 29077 55099 58006;EQDQ01  00002PRCP06
0186831820999992003061112004-11300-041870FM-12+074799999V0200901N004610075019N0100001N1+02341+01521101761ADDAA106000091GF106991061051008001001001KA1240N+01711MA1999999093481MD1999999+0051REMSYN076AAXX  11124 83182 32597 60909 10234 20152 39348 40176 86500 333 20171 58005;EQDQ01  00002PRCP06
0208831820999992003061200004-11300-041870FM-12+074799999V0201401N003112200019N0010001N1+02031+01621101591ADDAA106000091GA1001+999999999GF100991001001999999001001KA1240M+02861MA1999999093331MD1999999-0091REMSYN082AAXX  12004 83182 32994 01406 10203 20162 39333 40159 333 10286 29072 55077 59009;EQDQ01  00002PRCP06
0186831820999992003061212004-11300-041870FM-12+074799999V0201401N005712200019N0100001N1+02281+01661101561ADDAA106000091GF108991021021008001001011KA1240N+01781MA1999999093281MD1999999-0201REMSYN076AAXX  12124 83182 32597 81411 10228 20166 39328 40156 82201 333 20178 59020;EQDQ01  00002PRCP06
0198831820999992003061300004-11300-041870FM-12+074799999V0200901N002112200019N0010001N1+01931+01601101461ADDAA106000091GF102991001001999999001011KA1240M+02801MA1999999093171MD1999999-0161REMSYN088AAXX  13004 83182 32994 20904 10193 20160 39317 40146 80001 333 10280 29077 55088 59016;EQDQ01  00002PRCP06
0186831820999992003061312004-11300-041870FM-12+074799999V0201401N005112200019N0100001N1+02301+01381101501ADDAA106000091GF101991001001999999001011KA1240N+01411MA1999999093211MD1999999-0071REMSYN076AAXX  13124 83182 32997 11410 10230 20138 39321 40150 80001 333 20141 59007;EQDQ01  00002PRCP06
0208831820999992003061400004-11300-041870FM-12+074799999V0201401N002112200019N0010001N1+01801+01391101531ADDAA106000091GA1001+999999999GF100991001001999999001001KA1240M+02921MA1999999093221MD1999999+0051REMSYN082AAXX  14004 83182 32994 01404 10180 20139 39322 40153 333 10292 29070 55104 58005;EQDQ01  00002PRCP06
0186831820999992003061412004-11300-041870FM-12+074799999V0201801N005712200019N0100001N1+02201+01461101711ADDAA106000091GF104991041021008001001001KA1240N+01301MA1999999093361MD1999999+0151REMSYN076AAXX  14124 83182 32597 41811 10220 20146 39336 40171 84200 333 20130 58015;EQDQ01  00002PRCP06
0186831820999992003061512004-11300-041870FM-12+074799999V0201401N005712200019N0100001N1+02191+01401101841ADDAA106000091GF108991021021008001001011KA1240N+01361MA1999999093501MD1999999+0141REMSYN076AAXX  15124 83182 32597 81411 10219 20140 39350 40184 82201 333 20136 58014;EQDQ01  00002PRCP06
0186831820999992003061612004-11300-041870FM-12+074799999V0201801N007212200019N0100001N1+02181+01311101751ADDAA106000091GF102991011021008001001011KA1240N+01411MA1999999093421MD1999999-0081REMSYN076AAXX  16124 83182 32597 21814 10218 20131 39342 40175 81201 333 20141 59008;EQDQ01  00002PRCP06
0186831820999992003061712004-11300-041870FM-12+074799999V0201801N005710075019N0100001N1+02231+01431101811ADDAA106000091GF106991061021008001001001KA1240N+01371MA1999999093471MD1999999+0051REMSYN076AAXX  17124 83182 32597 61811 10223 20143 39347 40181 86200 333 20137 58005;EQDQ01  00002PRCP06
0208831820999992003061800004-11300-041870FM-12+074799999V0201401N003612200019N0010001N1+01951+01671101471ADDAA106000091GA1001+999999999GF100991001001999999001001KA1240M+02841MA1999999093181MD1999999-0111REMSYN082AAXX  18004 83182 32994 01407 10195 20167 39318 40147 333 10284 29076 55098 59011;EQDQ01  00002PRCP06
0202831820999992003061812004-11300-041870FM-12+074799999V0201401N005119999999N0100001N1+02341+01601101681ADDAA106000091GF108991999021008001001001KA1240N+01391MA1999999093391MD1999999-0081REMSYN076AAXX  18124 83182 32597 81410 10234 20160 39339 40168 81200 333 20139 59008;EQDQ01+000012SCOTLCQ02  00002PRCP06
0208831820999992003061900004-11300-041870FM-12+074799999V0201401N004112200019N0010001N1+02081+01581101521ADDAA106000091GA1001+999999999GF100991001001999999001001KA1240M+02921MA1999999093261MD1999999+0081REMSYN082AAXX  19004 83182 32994 01408 10208 20158 39326 40152 333 10292 29070 55099 58008;EQDQ01  00002PRCP06
0186831820999992003061912004-11300-041870FM-12+074799999V0201401N005110075019N0100001N1+02261+01641101701ADDAA106000091GF106991061021008001001001KA1240N+01471MA1999999093411MD1999999+0021REMSYN076AAXX  19124 83182 32597 61410 10226 20164 39341 40170 86200 333 20147 58002;EQDQ01  00002PRCP06
0198831820999992003062000004-11300-041870FM-12+074799999V0200901N003610150019N0010001N1+02001+01971101551ADDAA106000091GF106991061001017501051001KA1240M+02841MA1999999093271MD1999999+0011REMSYN088AAXX  20004 83182 32794 60907 10200 20197 39327 40155 86050 333 10284 29081 55084 58001;EQDQ01  00002PRCP06
0186831820999992003062012004-11300-041870FM-12+074799999V0200901N004612200019N0100001N1+02401+01601101651ADDAA106000091GF104991041021008001001001KA1240N+01661MA1999999093381MD1999999-0031REMSYN076AAXX  20124 83182 32597 40909 10240 20160 39338 40165 84200 333 20166 59003;EQDQ01  00002PRCP06
0208831820999992003062100004-11300-041870FM-12+074799999V0200901N005112200019N0010001N1+02101+01701101461ADDAA106000091GA1001+999999999GF100991001001999999001001KA1240M+02821MA1999999093221MD1999999-0071REMSYN082AAXX  21004 83182 32994 00910 10210 20170 39322 40146 333 10282 29072 55090 59007;EQDQ01  00002PRCP06
0186831820999992003062112004-11300-041870FM-12+074799999V0201401N003112200019N0100001N1+02401+01631101641ADDAA106000091GF102991021021008001001001KA1240N+01521MA1999999093391MD1999999+0011REMSYN076AAXX  21124 83182 32597 21406 10240 20163 39339 40164 82200 333 20152 58001;EQDQ01  00002PRCP06
0186831820999992003062212004-11300-041870FM-12+074799999V0200901N002612200019N0100001N1+02421+01651101561ADDAA106000091GF108991011021008001001011KA1240N+01601MA1999999093321MD1999999-0071REMSYN076AAXX  22124 83182 32597 80905 10242 20165 39332 40156 81201 333 20160 59007;EQDQ01  00002PRCP06
0198831820999992003062400004-11300-041870FM-12+074799999V0201401N002619999999N0010001N1+01981+01461101621ADDAA106000091GF108991001001999999001011KA1240M+02751MA1999999093341MD1999999+0191REMSYN088AAXX  24004 83182 32994 81405 10198 20146 39334 40162 80001 333 10275 29067 55091 58019;EQDQ01  00002PRCP06
0186831820999992003062412004-11300-041870FM-12+074799999V0200901N005112200019N0100001N1+02311+01461101831ADDAA106000091GF108991011011012501001011KA1240N+01431MA1999999093531MD1999999+0181REMSYN076AAXX  24124 83182 32697 80910 10231 20146 39353 40183 81101 333 20143 58018;EQDQ01  00002PRCP06
0184831820999992003062500004-11300-041870FM-12+074799999V0201401N003619999999N0010001N1+02111+01451101661ADDAA106000091GF108991001001999999001011KA1240M+03001MA1999999093391REMSYN088AAXX  25004 83182 32994 81407 10211 20145 39339 40166 80001 333 10300 29064 55095 58318;EQDQ01  00002PRCP06
0186831820999992003062512004-11300-041870FM-12+074799999V0201401N005110075019N0100001N1+02251+01671101881ADDAA106000091GF108991081051008001999999KA1240N+01801MA1999999093591MD1999999+0061REMSYN076AAXX  25124 83182 32597 81410 10225 20167 39359 40188 885// 333 20180 58006;EQDQ01  00002PRCP06
0198831820999992003062600004-11300-041870FM-12+074799999V0201401N003610450019N0010001N1+02081+01581101621ADDAA106000091GF108991021051008001051011KA1240M+02721MA1999999093341MD1999999-0051REMSYN088AAXX  26004 83182 32594 81407 10208 20158 39334 40162 82551 333 10272 29072 55095 59005;EQDQ01  00002PRCP06
0198831820999992003062700004-11300-041870FM-12+074799999V0200901N004610075019N0010001N1+01941+01661101711ADDAA106000091GF106991061051008001001001KA1240M+02601MA1999999093421MD1999999+0081REMSYN088AAXX  27004 83182 32594 60909 10194 20166 39342 40171 86500 333 10260 29076 55071 58008;EQDQ01  00002PRCP06
0186831820999992003062712004-11300-041870FM-12+074799999V0200901N005712200019N0100001N1+02181+01341101761ADDAA106000091GF101991011021008001001001KA1240N+01351MA1999999093431MD1999999+0031REMSYN076AAXX  27124 83182 32597 10911 10218 20134 39343 40176 81200 333 20135 58003;EQDQ01  00002PRCP06
0208831820999992003062800004-11300-041870FM-12+074799999V0200901N002612200019N0010001N1+01841+01221101741ADDAA106000091GA1001+999999999GF100991001001999999001001KA1240M+02751MA1999999093391MD1999999-0031REMSYN082AAXX  28004 83182 32994 00905 10184 20122 39339 40174 333 10275 29064 55104 59003;EQDQ01  00002PRCP06
0186831820999992003062812004-11300-041870FM-12+074799999V0201401N005710450019N0100001N1+02261+01351101931ADDAA106000091GF107991021051008001051001KA1240N+01461MA1999999093571MD1999999+0141REMSYN076AAXX  28124 83182 32597 71411 10226 20135 39357 40193 82550 333 20146 58014;EQDQ01  00002PRCP06
0186831820999992003062912004-11300-041870FM-12+074799999V0200901N003619999999N0100001N1+02321+01311101721ADDAA106000091GF108991011021999999001041KA1240N+01471MA1999999093451MD1999999-0121REMSYN076AAXX  29124 83182 32997 80907 10232 20131 39345 40172 81204 333 20147 59012;EQDQ01  00002PRCP06
0186831820999992003063012004-11300-041870FM-12+074799999V0200901N006212200019N0100001N1+02301+01261101781ADDAA106000091GF102991021021008001001001KA1240N+01411MA1999999093481MD1999999+0031REMSYN076AAXX  30124 83182 32597 20912 10230 20126 39348 40178 82200 333 20141 58003;EQDQ01  00002PRCP06
0208831820999992003070100004-11300-041870FM-12+074799999V0201401N003112200019N0010001N1+01931+01521101751ADDAA106000091GA1001+999999999GF100991001001999999001001KA1240M+02721MA1999999093441MD1999999+0131REMSYN082AAXX  01004 83182 32994 01406 10193 20152 39344 40175 333 10272 29069 55081 58013;EQDQ01  00002PRCP06
0186831820999992003070112004-11300-041870FM-12+074799999V0201401N006712200019N0100001N1+02181+01291101801ADDAA106000091GF101991011021008001001001KA1240N+01301MA1999999093461MD1999999-0021REMSYN076AAXX  01124 83182 32597 11413 10218 20129 39346 40180 81200 333 20130 59002;EQDQ01  00002PRCP06
0208831820999992003070200004-11300-041870FM-12+074799999V0201401N002612200019N0010001N1+01901+01411101811ADDAA106000091GA1001+999999999GF100991001001999999001001KA1240M+02701MA1999999093471MD1999999-0031REMSYN082AAXX  02004 83182 32994 01405 10190 20141 39347 40181 333 10270 29067 55095 59003;EQDQ01  00002PRCP06
0186831820999992003070212004-11300-041870FM-12+074799999V0201401N004610075019N0100001N1+02001+01521101951ADDAA106000091GF108991081051008001999999KA1240N+01701MA1999999093571MD1999999+0111REMSYN076AAXX  02124 83182 32597 81409 10200 20152 39357 40195 885// 333 20170 58011;EQDQ01  00002PRCP06
0208831820999992003070300004-11300-041870FM-12+074799999V0201401N003112200019N0010001N1+01801+01391101761ADDAA106000091GA1001+999999999GF100991001001999999001001KA1240M+02501MA1999999093381MD1999999-0091REMSYN082AAXX  03004 83182 32994 01406 10180 20139 39338 40176 333 10250 29076 55041 59009;EQDQ01  00002PRCP06
0186831820999992003070312004-11300-041870FM-12+074799999V0201401N003112200019N0100001N1+02191+01491101841ADDAA106000091GF103991031021008001001001KA1240N+01221MA1999999093491MD1999999-0081REMSYN076AAXX  03124 83182 32597 31406 10219 20149 39349 40184 83200 333 20122 59008;EQDQ01  00002PRCP06
0198831820999992003070400004-11300-041870FM-12+074799999V0201401N003112200019N0010001N1+02031+01451101701ADDAA106000091GF102991021001017501051001KA1240M+02881MA1999999093391MD1999999+0011REMSYN088AAXX  04004 83182 32794 21406 10203 20145 39339 40170 82050 333 10288 29068 55100 58001;EQDQ01  00002PRCP06
0186831820999992003070412004-11300-041870FM-12+074799999V0201801N005112200019N0100001N1+02181+01661101811ADDAA106000091GF104991041021008001001001KA1240N+01471MA1999999093491MD1999999+0001REMSYN076AAXX  04124 83182 32597 41810 10218 20166 39349 40181 84200 333 20147 58000;EQDQ01  00002PRCP06
0208831820999992003070500004-11300-041870FM-12+074799999V0200901N004112200019N0010001N1+01941+01191101471ADDAA106000091GA1001+999999999GF100991001001999999001001KA1240M+02751MA1999999093161MD1999999+0231REMSYN082AAXX  05004 83182 32994 00908 10194 20119 39316 40147 333 10275 29064 55100 58023;EQDQ01  00002PRCP06
0186831820999992003070512004-11300-041870FM-12+074799999V0201401N005112200019N0100001N1+02081+01251101681ADDAA106000091GF102991021021008001001001KA1240N+01201MA1999999093341MD1999999-0151REMSYN076AAXX  05124 83182 32597 21410 10208 20125 39334 40168 82200 333 20120 59015;EQDQ01  00002PRCP06
0186831820999992003070612004-11300-041870FM-12+074799999V0200901N005712200019N0100001N1+02231+01251101711ADDAA106000091GF108991021021008001001011KA1240N+01301MA1999999093401MD1999999+0061REMSYN076AAXX  06124 83182 32597 80911 10223 20125 39340 40171 82201 333 20130 58006;EQDQ01  00002PRCP06
0196831820999992003070712004-11300-041870FM-12+074799999V0200901N004112200019N0100001N1+02331+01461101691ADDAA106000091GA1001+999999999GF100991001001999999001001KA1240N+01381MA1999999093381MD1999999-0021REMSYN070AAXX  07124 83182 32997 00908 10233 20146 39338 40169 333 20138 59002;EQDQ01  00002PRCP06
0208831820999992003070800004-11300-041870FM-12+074799999V0201401N004612200019N0010001N1+02081+01401101481ADDAA106000091GA1001+999999999GF100991001001999999001001KA1240M+02991MA1999999093231MD1999999+0041REMSYN082AAXX  08004 83182 32994 01409 10208 20140 39323 40148 333 10299 29063 55104 58004;EQDQ01  00002PRCP06
0186831820999992003070812004-11300-041870FM-12+074799999V0201401N004112200019N0100001N1+02281+01461101751ADDAA106000091GF101991011011012501001001KA1240N+01501MA1999999093471MD1999999+0091REMSYN076AAXX  08124 83182 32697 11408 10228 20146 39347 40175 81100 333 20150 58009;EQDQ01  00002PRCP06
0208831820999992003070900004-11300-041870FM-12+074799999V0200901N002612200019N0010001N1+01971+01391101621ADDAA106000091GA1001+999999999GF100991001001999999001001KA1240M+02981MA1999999093341MD1999999+0111REMSYN082AAXX  09004 83182 32994 00905 10197 20139 39334 40162 333 10298 29066 55103 58011;EQDQ01  00002PRCP06
0186831820999992003070912004-11300-041870FM-12+074799999V0200901N005112200019N0100001N1+02131+01371101721ADDAA106000091GF101991011011012501001001KA1240N+01261MA1999999093391MD1999999-0081REMSYN076AAXX  09124 83182 32697 10910 10213 20137 39339 40172 81100 333 20126 59008;EQDQ01  00002PRCP06
0208831820999992003071000004-11300-041867FM-12+074799999V0201401N004112200019N0100001N1+02031+01191101511ADDAA106000091GA1001+999999999GF100991001001999999001001KA1240M+02831MA1999999093221MD1999999-0121REMSYN082AAXX  10004 83182 32997 01408 10203 20119 39322 40151 333 10283 29060 55104 59012;EQDQ01  00002PRCP06
0186831820999992003071012004-11300-041867FM-12+074799999V0201401N004612200019N0100001N1+02401+01291101691ADDAA106000091GF101991011021008001001001KA1240N+01281MA1999999093421MD1999999+0031REMSYN076AAXX  10124 83182 32597 11409 10240 20129 39342 40169 81200 333 20128 58003;EQDQ01  00002PRCP06
0198831820999992003071100004-11300-041867FM-12+074799999V0201401N005112200019N0010001N1+02301+01561101481ADDAA106000091GF102991021051008001001001KA1240M+02881MA1999999093271MD1999999+0051REMSYN088AAXX  11004 83182 32594 21410 10230 20156 39327 40148 82500 333 10288 29059 55102 58005;EQDQ01  00002PRCP06
0186831820999992003071112004-11300-041867FM-12+074799999V0201801N005110075019N0100001N1+02361+01691101681ADDAA106000091GF106991051051008001041001KA1240N+01661MA1999999093461MD1999999+0041REMSYN076AAXX  11124 83182 32597 61810 10236 20169 39346 40168 85540 333 20166 58004;EQDQ01  00002PRCP06
0208831820999992003071200004-11300-041867FM-12+074799999V0201401N004112200019N0010001N1+02161+01661101581ADDAA106000091GA1001+999999999GF100991001001999999001001KA1240M+02821MA1999999093341MD1999999+0071REMSYN082AAXX  12004 83182 32994 01408 10216 20166 39334 40158 333 10282 29071 55066 58007;EQDQ01  00002PRCP06
0186831820999992003071212004-11300-041867FM-12+074799999V0201401N008712200019N0100001N1+02381+01751101821ADDAA106000091GF102991021021008001001001KA1240N+01621MA1999999093551MD1999999+0091REMSYN076AAXX  12124 83182 32597 21417 10238 20175 39355 40182 82200 333 20162 58009;EQDQ01  00002PRCP06
0186831820999992003071312004-11300-041867FM-12+074799999V0201401N007712200019N0100001N1+02111+01271101981ADDAA106000091GF102991021021008001001001KA1240N+01551MA1999999093641MD1999999+0091REMSYN076AAXX  13124 83182 32597 21415 10211 20127 39364 40198 82200 333 20155 58009;EQDQ01  00002PRCP06
0186831820999992003071412004-11300-041867FM-12+074799999V0201401N007710075019N0100001N1+02061+01431101991ADDAA106000091GF108991081051008001999999KA1240N+01431MA1999999093611MD1999999-0031REMSYN076AAXX  14124 83182 32597 81415 10206 20143 39361 40199 885// 333 20143 59003;EQDQ01  00002PRCP06
0198831820999992003071500004-11300-041867FM-12+074799999V0200901N002612200019N0010001N1+01891+01351101801ADDAA106000091GF101991011001017501051001KA1240M+02641MA1999999093451MD1999999-0211REMSYN088AAXX  15004 83182 32794 10905 10189 20135 39345 40180 81050 333 10264 29074 55073 59021;EQDQ01  00002PRCP06
0202831820999992003071512004-11300-041867FM-12+074799999V0201401N007710120019N0100001N1+02001+01601101971ADDAA106000091GF108991999081008001051999KA1240N+01461MA1999999093591MD1999999-0021REMSYN076AAXX  15124 83182 32597 81415 10200 20160 39359 40197 8885/ 333 20146 59002;EQDQ01+000082SCOTLCQ02  00002PRCP06
0198831820999992003071600004-11300-041867FM-12+074799999V0201401N004110075019N0010001N1+01981+01701101911ADDAA106000091GF108991081051008001999999KA1240M+02641MA1999999093551MD1999999+0101REMSYN088AAXX  16004 83182 32594 81408 10198 20170 39355 40191 885// 333 10264 29082 55031 58010;EQDQ01  00002PRCP06
0209831820999992003071612004-11300-041867FM-12+074799999V0201401N005710075019N0100001N1+02061+01521101991ADDAY161061AY221061GF108991999051008001001001KA1240N+01541MA1999999093631MD1999999+0041MW1021REMSYN088AAXX  16124 83182 21597 81411 10206 20152 39363 40199 70262 86500 333 20154 58004 69954;EQDQ01+000062SCOTLC
0198831820999992003071700004-11300-041867FM-12+074799999V0201401N006710075019N0100001N1+01951+01561101971ADDAA106000091GF108991081051008001999999KA1240M+02501MA1999999093611MD1999999+0061REMSYN088AAXX  17004 83182 32597 81413 10195 20156 39361 40197 885// 333 10250 29076 55051 58006;EQDQ01  00002PRCP06
0186831820999992003071712004-11300-041867FM-12+074799999V0201401N006710075019N0100001N1+02161+01611101971ADDAA106000091GF108991081051008001999999KA1240N+01651MA1999999093631MD1999999+0001REMSYN076AAXX  17124 83182 32597 81413 10216 20161 39363 40197 885// 333 20165 58000;EQDQ01  00002PRCP06
0198831820999992003071800004-11300-041867FM-12+074799999V0201401N004610075019N0010001N1+01981+01661102021ADDAA106000091GF106991061051008001001001KA1240M+02651MA1999999093671MD1999999+0061REMSYN088AAXX  18004 83182 32594 61409 10198 20166 39367 40202 86500 333 10265 29078 55045 58006;EQDQ01  00002PRCP06
0186831820999992003071812004-11300-041867FM-12+074799999V0202301N006712200019N0100001N1+02111+01301102281ADDAA106000091GF102991011021008001001011KA1240N+01471MA1999999093911MD1999999+0281REMSYN076AAXX  18124 83182 32597 22313 10211 20130 39391 40228 81201 333 20147 58028;EQDQ01  00002PRCP06
0198831820999992003071900004-11300-041867FM-12+074799999V0201401N005110450019N0010001N1+01891+01601102091ADDAA106000091GF108991021051008001051011KA1240M+02771MA1999999093721MD1999999+0051REMSYN088AAXX  19004 83182 32594 81410 10189 20160 39372 40209 82551 333 10277 29075 55086 58005;EQDQ01  00002PRCP06
0186831820999992003071912004-11300-041867FM-12+074799999V0201401N007210075019N0100001N1+02281+01561102231ADDAA106000091GF107991061051008001001011KA1240N+01601MA1999999093881MD1999999-0031REMSYN076AAXX  19124 83182 32597 71414 10228 20156 39388 40223 86501 333 20160 59003;EQDQ01  00002PRCP06
0186831820999992003072012004-11300-041867FM-12+074799999V0201401N005710075019N0100001N1+02141+01431102191ADDAA106000091GF107991071021008001001001KA1240N+01171MA1999999093791MD1999999-0091REMSYN076AAXX  20124 83182 32597 71411 10214 20143 39379 40219 87200 333 20117 59009;EQDQ01  00002PRCP06
0186831820999992003072112004-11300-041867FM-12+074799999V0201401N003110075019N0100001N1+02161+01351102011ADDAA106000091GF105991051021008001001001KA1240N+01021MA1999999093631MD1999999-0161REMSYN076AAXX  21124 83182 32597 51406 10216 20135 39363 40201 85200 333 20102 59016;EQDQ01  00002PRCP06
0198831820999992003072200004-11300-041867FM-12+074799999V0201401N004110075019N0010001N1+01981+01681102041ADDAA106000091GF107991051051008001051001KA1240M+02681MA1999999093691MD1999999+0051REMSYN088AAXX  22004 83182 32594 71408 10198 20168 39369 40204 85550 333 10268 29075 55089 58005;EQDQ01  00002PRCP06
0186831820999992003072212004-11300-041867FM-12+074799999V0201401N005712200019N0100001N1+02301+01401101961ADDAA106000091GF104991041021008001001001KA1240N+01611MA1999999093651MD1999999+0021REMSYN076AAXX  22124 83182 32597 41411 10230 20140 39365 40196 84200 333 20161 58002;EQDQ01  00002PRCP06
0208831820999992003072300004-11300-041867FM-12+074799999V0201401N002612200019N0010001N1+01821+01201101911ADDAA106000091GA1001+999999999GF100991001001999999001001KA1240M+02641MA1999999093571MD1999999-0121REMSYN082AAXX  23004 83182 32994 01405 10182 20120 39357 40191 333 10264 29064 55087 59012;EQDQ01  00002PRCP06
0186831820999992003072312004-11300-041867FM-12+074799999V0201401N007710075019N0100001N1+02201+01391101951ADDAA106000091GF106991061021008001001001KA1240N+01431MA1999999093591MD1999999-0061REMSYN076AAXX  23124 83182 32597 61415 10220 20139 39359 40195 86200 333 20143 59006;EQDQ01  00002PRCP06
0198831820999992003072400004-11300-041867FM-12+074799999V0201401N003110075019N0100001N1+01971+01341101921ADDAA106000091GF106991061051008001001001KA1240M+02681MA1999999093591MD1999999+0021REMSYN088AAXX  24004 83182 32597 61406 10197 20134 39359 40192 86500 333 10268 29065 55094 58002;EQDQ01  00002PRCP06
0186831820999992003072412004-11300-041867FM-12+074799999V0200901N005710075019N0100001N1+02191+01501102091ADDAA106000091GF107991071051008001001001KA1240N+01471MA1999999093751MD1999999+0161REMSYN076AAXX  24124 83182 32597 70911 10219 20150 39375 40209 87500 333 20147 58016;EQDQ01  00002PRCP06
0198831820999992003072500004-11300-041867FM-12+074799999V0201401N004112200019N0010001N1+02001+01521101821ADDAA106000091GF102991021051008001001001KA1240M+02771MA1999999093501MD1999999-0091REMSYN088AAXX  25004 83182 32594 21408 10200 20152 39350 40182 82500 333 10277 29071 55100 59009;EQDQ01  00002PRCP06
0186831820999992003072512004-11300-041867FM-12+074799999V0201401N005710075019N0100001N1+02331+01251102111ADDAA106000091GF106991061051008001001001KA1240N+01711MA1999999093781MD1999999+0031REMSYN076AAXX  25124 83182 32597 61411 10233 20125 39378 40211 86500 333 20171 58003;EQDQ01  00002PRCP06
0198831820999992003072600004-11300-041867FM-12+074799999V0201401N003112200019N0010001N1+01941+01591102001ADDAA106000091GF102991021051008001001001KA1240M+02661MA1999999093641MD1999999+0141REMSYN088AAXX  26004 83182 32594 21406 10194 20159 39364 40200 82500 333 10266 29074 55073 58014;EQDQ01  00002PRCP06
0186831820999992003072612004-11300-041867FM-12+074799999V0201401N006210075019N0100001N1+02121+01571102141ADDAA106000091GF108991081051008001999999KA1240N+01551MA1999999093781MD1999999+0001REMSYN076AAXX  26124 83182 32597 81412 10212 20157 39378 40214 885// 333 20155 58000;EQDQ01  00002PRCP06
0186831820999992003072712004-11300-041867FM-12+074799999V0201401N007212200019N0100001N1+02201+01311102071ADDAA106000091GF103991031021008001001001KA1240N+01461MA1999999093731MD1999999-0051REMSYN076AAXX  27124 83182 32597 31414 10220 20131 39373 40207 83200 333 20146 59005;EQDQ01  00002PRCP06
0208831820999992003072800004-11300-041867FM-12+074799999V0201401N003112200019N0010001N1+01901+01471101851ADDAA106000091GA1001+999999999GF100991001001999999001001KA1240M+02701MA1999999093511MD1999999-0081REMSYN082AAXX  28004 83182 32994 01406 10190 20147 39351 40185 333 10270 29070 55102 59008;EQDQ01  00002PRCP06
0186831820999992003072812004-11300-041867FM-12+074799999V0200901N006210075019N0100001N1+02121+01411102091ADDAA106000091GF108991081051008001999999KA1240N+01471MA1999999093721MD1999999-0011REMSYN076AAXX  28124 83182 32597 80912 10212 20141 39372 40209 885// 333 20147 59001;EQDQ01  00002PRCP06
0198831820999992003072900004-11300-041867FM-12+074799999V0201401N004610075019N0010001N1+01991+01601101881ADDAA106000091GF106991061051008001001001KA1240M+02661MA1999999093541MD1999999+0031REMSYN088AAXX  29004 83182 32594 61409 10199 20160 39354 40188 86500 333 10266 29073 55045 58003;EQDQ01  00002PRCP06
0186831820999992003072912004-11300-041867FM-12+074799999V0201401N005110075019N0100001N1+02101+01421102071ADDAA106000091GF107991071051008001001001KA1240N+01571MA1999999093721MD1999999+0001REMSYN076AAXX  29124 83182 32597 71410 10210 20142 39372 40207 87500 333 20157 58000;EQDQ01  00002PRCP06
0208831820999992003073000004-11300-041867FM-12+074799999V0201401N003112200019N0010001N1+01931+01411101941ADDAA106000091GA1001+999999999GF100991001001999999001001KA1240M+02731MA1999999093581MD1999999+0041REMSYN082AAXX  30004 83182 32994 01406 10193 20141 39358 40194 333 10273 29073 55076 58004;EQDQ01  00002PRCP06
0186831820999992003073012004-11300-041867FM-12+074799999V0200901N005712200019N0100001N1+02131+01371102031ADDAA106000091GF104991041021008001001001KA1240N+01351MA1999999093681MD1999999-0041REMSYN076AAXX  30124 83182 32597 40911 10213 20137 39368 40203 84200 333 20135 59004;EQDQ01  00002PRCP06
0208831820999992003073100004-11300-041867FM-12+074799999V0200901N004612200019N0010001N1+02111+01301101751ADDAA106000091GA1001+999999999GF100991001001999999001001KA1240M+02721MA1999999093441MD1999999-0141REMSYN082AAXX  31004 83182 32994 00909 10211 20130 39344 40175 333 10272 29061 55101 59014;EQDQ01  00002PRCP06
0186831820999992003073112004-11300-041867FM-12+074799999V0201801N005112200019N0100001N1+02301+01431101801ADDAA106000091GF103991031021008001001001KA1240N+01541MA1999999093521MD1999999-0161REMSYN076AAXX  31124 83182 32597 31810 10230 20143 39352 40180 83200 333 20154 59016;EQDQ01  00002PRCP06
0207831820999992003080100004-11300-041867FM-12+074799999V0201401N002612200019N0010001N1+01881+01341101741ADDAA106000091GA1001+999999999GF100991001001999999001001KA1240M+02671MA1999999093431MD1999999-0011REMSYN081AAXX  01004 83182 32994 01405 1018820134 39343 40174 333 10267 29067 55082 59001;EQDQ01  00002PRCP06
0186831820999992003080112004-11300-041867FM-12+074799999V0201401N005112200019N0100001N1+02341+01551101801ADDAA106000091GF101991011021008001001001KA1240N+01391MA1999999093521MD1999999-0161REMSYN076AAXX  01124 83182 32597 11410 10234 20155 39352 40180 81200 333 20139 59016;EQDQ01  00002PRCP06
0208831820999992003080200004-11300-041867FM-12+074799999V0200901N005112200019N0010001N1+02061+01311101671ADDAA106000091GA1001+999999999GF100991001001999999001001KA1240M+02801MA1999999093401MD1999999-0031REMSYN082AAXX  02004 83182 32994 00910 10206 20131 39340 40167 333 10280 29062 55107 59003;EQDQ01  00002PRCP06
0196831820999992003080212004-11300-041867FM-12+074799999V0201401N004612200019N0100001N1+02201+01391101921ADDAA106000091GA1001+999999999GF100991001001999999001001KA1240N+01401MA1999999093611MD1999999+0091REMSYN070AAXX  02124 83182 32997 01409 10220 20139 39361 40192 333 20140 58009;EQDQ01  00002PRCP06
0186831820999992003080312004-11300-041867FM-12+074799999V0201401N006210075019N0100001N1+02131+01441102131ADDAA106000091GF108991081051008001999999KA1240N+01651MA1999999093771MD1999999+0161REMSYN076AAXX  03124 83182 32597 81412 10213 20144 39377 40213 885// 333 20165 58016;EQDQ01  00002PRCP06
0186831820999992003080412004-11300-041867FM-12+074799999V0201401N005110075019N0100001N1+02061+01451101881ADDAA106000091GF108991081051008001999999KA1240N+01351MA1999999093531MD1999999-0241REMSYN076AAXX  04124 83182 32597 81410 10206 20145 39353 40188 885// 333 20135 59024;EQDQ01  00002PRCP06
0208831820999992003080500004-11300-041867FM-12+074799999V0201401N003612200019N0010001N1+01921+01551101771ADDAA106000091GA1001+999999999GF100991001001999999001001KA1240M+02521MA1999999093421MD1999999-0071REMSYN082AAXX  05004 83182 32994 01407 10192 20155 39342 40177 333 10252 29075 55038 59007;EQDQ01  00002PRCP06
0186831820999992003080512004-11300-041867FM-12+074799999V0200901N005110075019N0100001N1+02101+01421101841ADDAA106000091GF108991081051008001999999KA1240N+01601MA1999999093491MD1999999-0041REMSYN076AAXX  05124 83182 32597 80910 10210 20142 39349 40184 885// 333 20160 59004;EQDQ01  00002PRCP06
0208831820999992003080600004-11300-041867FM-12+074799999V0200901N003612200019N0010001N1+02031+01491101681ADDAA106000091GA1001+999999999GF100991001001999999001001KA1240M+02801MA1999999093351MD1999999-0071REMSYN082AAXX  06004 83182 32994 00907 10203 20149 39335 40168 333 10280 29069 55065 59007;EQDQ01  00002PRCP06
0186831820999992003080612004-11300-041867FM-12+074799999V0200901N005110075019N0100001N1+02231+01391101901ADDAA106000091GF105991051021008001001001KA1240N+01431MA1999999093591MD1999999+0101REMSYN076AAXX  06124 83182 32597 50910 10223 20139 39359 40190 85200 333 20143 58010;EQDQ01  00002PRCP06
0208831820999992003080700004-11300-041867FM-12+074799999V0200901N004612200019N0010001N1+02031+01291101671ADDAA106000091GA1001+999999999GF100991001001999999001001KA1240M+02841MA1999999093381MD1999999+0031REMSYN082AAXX  07004 83182 32994 00909 10203 20129 39338 40167 333 10284 29062 55084 58003;EQDQ01  00002PRCP06
0196831820999992003080712004-11300-041867FM-12+074799999V0201401N003612200019N0100001N1+02161+01401101751ADDAA106000091GA1001+999999999GF100991001001999999001001KA1240N+01351MA1999999093451MD1999999-0141REMSYN070AAXX  07124 83182 32997 01407 10216 20140 39345 40175 333 20135 59014;EQDQ01  00002PRCP06
0208831820999992003080800004-11300-041867FM-12+074799999V0200901N003612200019N0010001N1+02101+01471101431ADDAA106000091GA1001+999999999GF100991001001999999001001KA1240M+02931MA1999999093161MD1999999-0221REMSYN082AAXX  08004 83182 32994 00907 10210 20147 39316 40143 333 10293 29065 55106 59022;EQDQ01  00002PRCP06
0186831820999992003080812004-11300-041867FM-12+074799999V0200901N003612200019N0100001N1+02371+01411101671ADDAA106000091GF101991011021008001001001KA1240N+01471MA1999999093421MD1999999-0031REMSYN076AAXX  08124 83182 32597 10907 10237 20141 39342 40167 81200 333 20147 59003;EQDQ01  00002PRCP06
0208831820999992003080900004-11300-041867FM-12+074799999V0200901N006712200019N0010001N1+02161+01611101551ADDAA106000091GA1001+999999999GF100991001001999999001001KA1240M+02941MA1999999093311MD1999999+0151REMSYN082AAXX  09004 83182 32994 00913 10216 20161 39331 40155 333 10294 29066 55099 58015;EQDQ01  00002PRCP06
0186831820999992003080912004-11300-041867FM-12+074799999V0201401N005112200019N0100001N1+02301+01381101871ADDAA106000091GF102991021021008001001001KA1240N+01701MA1999999093601MD1999999+0181REMSYN076AAXX  09124 83182 32597 21410 10230 20138 39360 40187 82200 333 20170 58018;EQDQ01  00002PRCP06
0186831820999992003081012004-11300-041867FM-12+074799999V0200901N003112200019N0100001N1+02251+01561101841ADDAA106000091GF103991031021008001001001KA1240N+01301MA1999999093561MD1999999-0041REMSYN076AAXX  10124 83182 32597 30906 10225 20156 39356 40184 83200 333 20130 59004;EQDQ01  00002PRCP06
0186831820999992003081112004-11300-041867FM-12+074799999V0201401N004612200019N0100001N1+02221+01411101841ADDAA106000091GF101991001001999999001011KA1240N+01421MA1999999093521MD1999999-0041REMSYN076AAXX  11124 83182 32997 11409 10222 20141 39352 40184 80001 333 20142 59004;EQDQ01  00002PRCP06
0208831820999992003081200004-11300-041867FM-12+074799999V0200901N004612200019N0010001N1+02181+01631101571ADDAA106000091GA1001+999999999GF100991001001999999001001KA1240M+02901MA1999999093311MD1999999-0061REMSYN082AAXX  12004 83182 32994 00909 10218 20163 39331 40157 333 10290 29067 55106 59006;EQDQ01  00002PRCP06
0186831820999992003081212004-11300-041867FM-12+074799999V0201401N006212200019N0100001N1+02291+01621101801ADDAA106000091GF102991021021008001001001KA1240N+01621MA1999999093541MD1999999+0021REMSYN076AAXX  12124 83182 32597 21412 10229 20162 39354 40180 82200 333 20162 58002;EQDQ01  00002PRCP06
0208831820999992003081300004-11300-041867FM-12+074799999V0200901N003612200019N0010001N1+02201+01611101621ADDAA106000091GA1001+999999999GF100991001001999999001001KA1240M+02961MA1999999093371MD1999999+0061REMSYN082AAXX  13004 83182 32994 00907 10220 20161 39337 40162 333 10296 29068 55105 58006;EQDQ01  00002PRCP06
0186831820999992003081312004-11300-041867FM-12+074799999V0201401N006710075019N0100001N1+02061+01521101921ADDAA106000091GF108991081051008001999999KA1240N+01451MA1999999093611MD1999999+0071REMSYN076AAXX  13124 83182 32597 81413 10206 20152 39361 40192 885// 333 20145 58007;EQDQ01  00002PRCP06
0208831820999992003081400004-11300-041867FM-12+074799999V0200901N003612200019N0010001N1+02141+01501101681ADDAA106000091GA1001+999999999GF100991001001999999001001KA1240M+02951MA1999999093371MD1999999+0001REMSYN082AAXX  14004 83182 32994 00907 10214 20150 39337 40168 333 10295 29068 55073 58000;EQDQ01  00002PRCP06
0186831820999992003081412004-11300-041867FM-12+074799999V0200901N005710075019N0100001N1+02181+01321101881ADDAA106000091GF108991051051008001999999KA1240N+01671MA1999999093571MD1999999-0041REMSYN076AAXX  14124 83182 32597 80911 10218 20132 39357 40188 855// 333 20167 59004;EQDQ01  00002PRCP06
0198831820999992003081500004-11300-041867FM-12+074799999V0200901N004612200019N0010001N1+01981+01591101581ADDAA106000091GF103991001001999999001011KA1240M+02841MA1999999093281MD1999999-0091REMSYN088AAXX  15004 83182 32994 30909 10198 20159 39328 40158 80001 333 10284 29071 55059 59009;EQDQ01  00002PRCP06
0186831820999992003081512004-11300-041867FM-12+074799999V0200901N004112200019N0100001N1+02281+01491101781ADDAA106000091GF108991021021008001001011KA1240N+01761MA1999999093481MD1999999-0091REMSYN076AAXX  15124 83182 32597 80908 10228 20149 39348 40178 82201 333 20176 59009;EQDQ01  00002PRCP06
0198831820999992003081600004-11300-041867FM-12+074799999V0200901N004619999999N0010001N1+02261+01641101431ADDAA106000091GF108991001001999999001011KA1240M+03031MA1999999093191MD1999999-0091REMSYN088AAXX  16004 83182 32994 80909 10226 20164 39319 40143 80001 333 10303 29066 55102 59009;EQDQ01  00002PRCP06
0202831820999992003081612004-11300-041867FM-12+074799999V0201401N003119999999N0100001N1+02481+01461101541ADDAA106000091GF108991001001999999001011KA1240N+01521MA1999999093331MD1999999-0151REMSYN076AAXX  16124 83182 32597 81406 10248 20146 39333 40154 80001 333 20152 59015;EQDQ01+008002SCOLCBQ02  00002PRCP06
0186831820999992003081812004-11300-041867FM-12+074799999V0201401N006212200019N0100001N1+02441+01661101811ADDAA106000091GF108991021021008001001011KA1240N+01801MA1999999093561MD1999999+0181REMSYN076AAXX  18124 83182 32597 81412 10244 20166 39356 40181 82201 333 20180 58018;EQDQ01  00002PRCP06
0198831820999992003081900004-11300-041867FM-12+074799999V0201401N001519999999N0010001N1+02221+01671101781ADDAA106000091GF108991001001999999001011KA1240M+02971MA1999999093551MD1999999+0341REMSYN088AAXX  19004 83182 32994 81403 10222 20167 39355 40178 80001 333 10297 29068 55085 58034;EQDQ01  00002PRCP06
0186831820999992003081912004-11300-041867FM-12+074799999V0201401N007210075019N0100001N1+02381+01661102001ADDAA106000091GF108991051021008001001011KA1240N+01821MA1999999093741MD1999999+0181REMSYN076AAXX  19124 83182 32597 81414 10238 20166 39374 40200 85201 333 20182 58018;EQDQ01  00002PRCP06
0198831820999992003082000004-11300-041867FM-12+074799999V0201401N006710075019N0010001N1+01981+01591101971ADDAA106000091GF108991081051008001999999KA1240M+02681MA1999999093671MD1999999+0121REMSYN088AAXX  20004 83182 32594 81413 10198 20159 39367 40197 885// 333 10268 29073 55078 58012;EQDQ01  00002PRCP06
0186831820999992003082012004-11300-041867FM-12+074799999V0201401N007210075019N0100001N1+02141+01761101971ADDAA106000091GF108991081051008001999999KA1240N+01661MA1999999093631MD1999999+0111REMSYN076AAXX  20124 83182 32597 81414 10214 20176 39363 40197 885// 333 20166 58011;EQDQ01  00002PRCP06
0198831820999992003082100004-11300-041867FM-12+074799999V0200901N003112200019N0010001N1+01941+01221101831ADDAA106000091GF108991031001017501051011KA1240M+02701MA1999999093491MD1999999+0181REMSYN088AAXX  21004 83182 32794 80906 10194 20122 39349 40183 83051 333 10270 29068 55081 58018;EQDQ01  00002PRCP06
0186831820999992003082112004-11300-041867FM-12+074799999V0201401N005710075019N0100001N1+02241+01481101811ADDAA106000091GF108991081051008001999999KA1240N+01441MA1999999093491MD1999999-0141REMSYN076AAXX  21124 83182 32597 81411 10224 20148 39349 40181 885// 333 20144 59014;EQDQ01  00002PRCP06
0198831820999992003082200004-11300-041867FM-12+074799999V0201401N003610075019N0010001N1+01971+01751101641ADDAA106000091GF108991081051008001999999KA1240M+02581MA1999999093341MD1999999-0151REMSYN088AAXX  22004 83182 32594 81407 10197 20175 39334 40164 885// 333 10258 29079 55039 59015;EQDQ01  00002PRCP06
0186831820999992003082212004-11300-041867FM-12+074799999V0200901N005110075019N0100001N1+02161+01471101901ADDAA106000091GF108991081051008001999999KA1240N+01681MA1999999093561MD1999999+0071REMSYN076AAXX  22124 83182 32597 80910 10216 20147 39356 40190 885// 333 20168 58007;EQDQ01  00002PRCP06
0198831820999992003082300004-11300-041867FM-12+074799999V0201401N004110450019N0010001N1+02101+01721101671ADDAA106000091GF108991021021008001051011KA1240M+02941MA1999999093381MD1999999+0041REMSYN088AAXX  23004 83182 32594 81408 10210 20172 39338 40167 82251 333 10294 29074 55085 58004;EQDQ01  00002PRCP06
0186831820999992003082312004-11300-041867FM-12+074799999V0201401N006210075019N0100001N1+02201+01611101871ADDAA106000091GF106991061051008001001001KA1240N+01671MA1999999093561MD1999999+0001REMSYN076AAXX  23124 83182 32597 61412 10220 20161 39356 40187 86500 333 20167 58000;EQDQ01  00002PRCP06
0186831820999992003082412004-11300-041867FM-12+074799999V0200901N006210075019N0100001N1+02241+01241101891ADDAA106000091GF106991061021008001001001KA1240N+01301MA1999999093551MD1999999-0011REMSYN076AAXX  24124 83182 32597 60912 10224 20124 39355 40189 86200 333 20130 59001;EQDQ01  00002PRCP06
0186831820999992003082512004-11300-041867FM-12+074799999V0200901N005112200019N0100001N1+02481+01801101651ADDAA106000091GF102991021021008001001001KA1240N+01651MA1999999093401MD1999999-0151REMSYN076AAXX  25124 83182 32597 20910 10248 20180 39340 40165 82200 333 20165 59015;EQDQ01  00002PRCP06
0208831820999992003082600004-11300-041867FM-12+074799999V0200901N004112200019N0010001N1+02261+01691101331ADDAA106000091GA1001+999999999GF100991001001999999001001KA1240M+03051MA1999999093141MD1999999-0231REMSYN082AAXX  26004 83182 32994 00908 10226 20169 39314 40133 333 10305 29069 55099 59023;EQDQ01  00002PRCP06
0186831820999992003082612004-11300-041867FM-12+074799999V0200901N003112200019N0100001N1+02461+01501101531ADDAA106000091GF101991011011008001001001KA1240N+01621MA1999999093311MD1999999-0091REMSYN076AAXX  26124 83182 32597 10906 10246 20150 39331 40153 81100 333 20162 59009;EQDQ01  00002PRCP06
0208831820999992003082700004-11300-041867FM-12+074799999V0201401N005112200019N0010001N1+02311+01691101351ADDAA106000091GA1001+999999999GF100991001001999999001001KA1240M+03221MA1999999093171MD1999999+0031REMSYN082AAXX  27004 83182 32994 01410 10231 20169 39317 40135 333 10322 29063 55106 58003;EQDQ01  00002PRCP06
0186831820999992003082712004-11300-041867FM-12+074799999V0200901N005112200019N0100001N1+02461+01471101621ADDAA106000091GF102991021021008001001001KA1240N+01641MA1999999093421MD1999999+0111REMSYN076AAXX  27124 83182 32597 20910 10246 20147 39342 40162 82200 333 20164 58011;EQDQ01  00002PRCP06
0208831820999992003082800004-11300-041867FM-12+074799999V0201401N003612200019N0010001N1+02301+01511101521ADDAA106000091GA1001+999999999GF100991001001999999001001KA1240M+03051MA1999999093291MD1999999+0121REMSYN082AAXX  28004 83182 32994 01407 10230 20151 39329 40152 333 10305 29059 55107 58012;EQDQ01  00002PRCP06
0186831820999992003082812004-11300-041867FM-12+074799999V0201401N004110075019N0100001N1+02361+01561101741ADDAA106000091GF108991081051008001999999KA1240N+01871MA1999999093521MD1999999+0101REMSYN076AAXX  28124 83182 32597 81408 10236 20156 39352 40174 885// 333 20187 58010;EQDQ01  00002PRCP06
0208831820999992003082900004-11300-041867FM-12+074799999V0201401N003612200019N0010001N1+02121+01571101531ADDAA106000091GA1001+999999999GF100991001001999999001001KA1240M+03121MA1999999093291MD1999999+0001REMSYN082AAXX  29004 83182 32994 01407 10212 20157 39329 40153 333 10312 29068 55071 58000;EQDQ01  00002PRCP06
0186831820999992003082912004-11300-041867FM-12+074799999V0201401N004110450019N0100001N1+02441+01641101721ADDAA106000091GF108991031021008001051011KA1240N+01621MA1999999093481MD1999999-0041REMSYN076AAXX  29124 83182 32597 81408 10244 20164 39348 40172 83251 333 20162 59004;EQDQ01  00002PRCP06
0198831820999992003083000004-11300-041867FM-12+074799999V0201401N003610450019N0010001N1+02231+01331101541ADDAA106000091GF108991021021008001051011KA1240M+03031MA1999999093331MD1999999+0031REMSYN088AAXX  30004 83182 32594 81407 10223 20133 39333 40154 82251 333 10303 29058 55087 58003;EQDQ01  00002PRCP06
0186831820999992003083012004-11300-041867FM-12+074799999V0201401N005112200019N0100001N1+02481+01511101711ADDAA106000091GF108991041021008001001011KA1240N+01771MA1999999093491MD1999999+0011REMSYN076AAXX  30124 83182 32597 81410 10248 20151 39349 40171 84201 333 20177 58001;EQDQ01  00002PRCP06
0186831820999992003083112004-11300-041867FM-12+074799999V0200901N005112200019N0100001N1+02441+01591101861ADDAA106000091GF108991041021008001001011KA1240N+01681MA1999999093631MD1999999+0141REMSYN076AAXX  31124 83182 32597 80910 10244 20159 39363 40186 84201 333 20168 58014;EQDQ01  00002PRCP06
0186831820999992003090112004-11300-041867FM-12+074799999V0201401N005710075019N0100001N1+02431+01571101871ADDAA106000091GF106991061021008001001001KA1240N+01741MA1999999093621MD1999999-0011REMSYN076AAXX  01124 83182 32597 61411 10243 20157 39362 40187 86200 333 20174 59001;EQDQ01  00002PRCP06
0186831820999992003090212004-11300-041867FM-12+074799999V0200901N005712200019N0100001N1+02381+01421101931ADDAA106000091GF103991031021008001001001KA1240N+01671MA1999999093671MD1999999+0051REMSYN076AAXX  02124 83182 32597 30911 10238 20142 39367 40193 83200 333 20167 58005;EQDQ01  00002PRCP06
0198831820999992003090300004-11300-041867FM-12+074799999V0200901N006219999999N0010001N1+02211+01521101731ADDAA106000091GF108991001001999999001011KA1240M+02921MA1999999093491MD1999999-0051REMSYN088AAXX  03004 83182 32994 80912 10221 20152 39349 40173 80001 333 10292 29062 55100 59005;EQDQ01  00002PRCP06
0186831820999992003090312004-11300-041867FM-12+074799999V0201401N005712200019N0100001N1+02441+01301101961ADDAA106000091GF108991011021008001001011KA1240N+01571MA1999999093701MD1999999+0031REMSYN076AAXX  03124 83182 32597 81411 10244 20130 39370 40196 81201 333 20157 58003;EQDQ01  00002PRCP06
0198831820999992003090400004-11300-041867FM-12+074799999V0200901N006212200019N0010001N1+02201+01461101891ADDAA106000091GF108991011021008001001011KA1240M+02951MA1999999093641MD1999999+0151REMSYN088AAXX  04004 83182 32594 80912 10220 20146 39364 40189 81201 333 10295 29058 55108 58015;EQDQ01  00002PRCP06
0234831820999992003090412004-11300-041867FM-12+074799999V0201401N007210075019N0100001N1+02341+01491102111ADDAA106000091GF108991999021008001001001KA1240N+01541MA1999999093831MD1999999+0121REMSYN076AAXX  04124 83182 32597 81414 10234 20149 33934 40211 86200 333 20154 58012;EQDQ01+000062SCOTLCQ02+039341APOSP Q03+999990APOSP Q04  00002PRCP06
0183831820999992003090500004-11300-041867FM-12+074799999V0201401N005712200019N0010001N1+02061+01641102021ADDAA106000091GF103991021001017501051011KA1240M+02821MA1999999093721REMSYN087AAXX  05004 83182 32794 31411 10206 20164 39372 40202 82051 333 10282 29071 55062 8008;EQDQ01  00002PRCP06
0186831820999992003090512004-11300-041867FM-12+074799999V0201801N008210075019N0100001N1+02221+01531102131ADDAA106000091GF108991061021008001001011KA1240N+01611MA1999999093801MD1999999-0021REMSYN076AAXX  05124 83182 32597 81816 10222 20153 39380 40213 86201 333 20161 59002;EQDQ01  00002PRCP06
0198831820999992003090600004-11300-041867FM-12+074799999V0201401N005710075019N0010001N1+02011+01421102071ADDAA106000091GF108991081051008001999999KA1240M+02461MA1999999093731MD1999999+0011REMSYN088AAXX  06004 83182 32594 81411 10201 20142 39373 40207 885// 333 10246 29068 55065 58001;EQDQ01  00002PRCP06
0186831820999992003090612004-11300-041867FM-12+074799999V0201401N007710075019N0100001N1+02301+01321102041ADDAA106000091GF108991081051008001999999KA1240N+01671MA1999999093721MD1999999-0081REMSYN076AAXX  06124 83182 32597 81415 10230 20132 39372 40204 885// 333 20167 59008;EQDQ01  00002PRCP06
0186831820999992003090712004-11300-041867FM-12+074799999V0201401N005110075019N0100001N1+02121+01441101991ADDAA106000091GF108991081051008001999999KA1240N+01501MA1999999093631MD1999999-0091REMSYN076AAXX  07124 83182 32597 81410 10212 20144 39363 40199 885// 333 20150 59009;EQDQ01  00002PRCP06
0190831820999992003090812004-11300-041867FM-12+074799999V0201801N004610042019N0100001N1+01951+01621101971ADDAY161061AY221061GF108991081071004501999999KA1240N+01531MA1999999093591MD1999999-0041MW1021REMSYN088AAXX  08124 83182 21497 81809 10195 20162 39359 40197 70262 887// 333 20153 59004 69944;
0208831820999992003090900004-11300-041867FM-12+074799999V0200901N003112200019N0010001N1+02011+01401101931ADDAA106000091GA1001+999999999GF100991001001999999001001KA1240M+02751MA1999999093571MD1999999+0111REMSYN082AAXX  09004 83182 32994 00906 10201 20140 39357 40193 333 10275 29072 55070 58011;EQDQ01  00002PRCP06
0186831820999992003090912004-11300-041867FM-12+074799999V0201401N005712200019N0100001N1+02441+01451101851ADDAA106000091GF103991031021008001001001KA1240N+01351MA1999999093561MD1999999-0031REMSYN076AAXX  09124 83182 32597 31411 10244 20145 39356 40185 83200 333 20135 59003;EQDQ01  00002PRCP06
0208831820999992003091000004-11300-041867FM-12+074799999V0200901N005712200019N0010001N1+02191+01321101811ADDAA106000091GA1001+999999999GF100991001001999999001001KA1240M+02941MA1999999093561MD1999999-0011REMSYN082AAXX  10004 83182 32994 00911 10219 20132 39356 40181 333 10294 29057 55108 59001;EQDQ01  00002PRCP06
0186831820999992003091012004-11300-041867FM-12+074799999V0200901N006212200019N0100001N1+02461+01581101741ADDAA106000091GF104991041021008001001001KA1240N+01461MA1999999093521MD1999999-0041REMSYN076AAXX  10124 83182 32597 40912 10246 20158 39352 40174 84200 333 20146 59004;EQDQ01  00002PRCP06
0208831820999992003091100004-11300-041867FM-12+074799999V0200901N003612200019N0010001N1+02181+01651101571ADDAA106000091GA1001+999999999GF100991001001999999001001KA1240M+03041MA1999999093341MD1999999-0221REMSYN082AAXX  11004 83182 32994 00907 10218 20165 39334 40157 333 10304 29067 55/// 59022;EQDQ01  00002PRCP06
0186831820999992003091112004-11300-041867FM-12+074799999V0200901N004612200019N0100001N1+02531+01621101631ADDAA106000091GF101991011011012501001001KA1240N+01651MA1999999093411MD1999999-0111REMSYN076AAXX  11124 83182 32697 10909 10253 20162 39341 40163 81100 333 20165 59011;EQDQ01  00002PRCP06
0208831820999992003091200004-11300-041867FM-12+074799999V0201401N003112200019N0010001N1+02221+01551101521ADDAA106000091GA1001+999999999GF100991001001999999001001KA1240M+03221MA1999999093331MD1999999-0011REMSYN082AAXX  12004 83182 32994 01406 10222 20155 39333 40152 333 10322 29063 55091 59001;EQDQ01  00002PRCP06
0186831820999992003091212004-11300-041867FM-12+074799999V0200901N005112200019N0100001N1+02501+01421101711ADDAA106000091GF101991011021008001001001KA1240N+01701MA1999999093491MD1999999+0081REMSYN076AAXX  12124 83182 32597 10910 10250 20142 39349 40171 81200 333 20170 58008;EQDQ01  00002PRCP06
0208831820999992003091300004-11300-041867FM-12+074799999V0201401N006712200019N0010001N1+02201+01461101621ADDAA106000091GA1001+999999999GF100991001001999999001001KA1240M+03041MA1999999093401MD1999999+0071REMSYN082AAXX  13004 83182 32994 01413 10220 20146 39340 40162 333 10304 29059 55106 58007;EQDQ01  00002PRCP06
0186831820999992003091312004-11300-041867FM-12+074799999V0200901N005712200019N0100001N1+02401+01351101761ADDAA106000091GF101991011011012501001001KA1240N+01481MA1999999093521MD1999999+0031REMSYN076AAXX  13124 83182 32697 10911 10240 20135 39352 40176 81100 333 20148 58003;EQDQ01  00002PRCP06
0186831820999992003091412004-11300-041867FM-12+074799999V0200901N003612200019N0100001N1+02471+01391101721ADDAA106000091GF102991021021008001001001KA1240N+01361MA1999999093481MD1999999-0041REMSYN076AAXX  14124 83182 32597 20907 10247 20139 39348 40172 82200 333 20136 59004;EQDQ01  00002PRCP06
0186831820999992003091512004-11300-041867FM-12+074799999V0201401N006710450019N0100001N1+02211+01591101941ADDAA106000091GF105991021021008001061001KA1240N+01671MA1999999093651MD1999999+0171REMSYN076AAXX  15124 83182 32597 51413 10221 20159 39365 40194 82260 333 20167 58017;EQDQ01  00002PRCP06
0208831820999992003091700004-11300-041867FM-12+074799999V0201401N005112200019N0010001N1+02161+01631101461ADDAA106000091GA1001+999999999GF100991001001999999001001KA1240M+02921MA1999999093211MD1999999-0121REMSYN082AAXX  17004 83182 32994 01410 10216 20163 39321 40146 333 10292 29071 55090 59012;EQDQ01  00002PRCP06
0186831820999992003091712004-11300-041867FM-12+074799999V0200901N004612200019N0100001N1+02461+01521101591ADDAA106000091GF108991011021008001001011KA1240N+01581MA1999999093361MD1999999-0111REMSYN076AAXX  17124 83182 32597 80909 10246 20152 39336 40159 81201 333 20158 59011;EQDQ01  00002PRCP06
0198831820999992003091800004-11300-041867FM-12+074799999V0201401N005112200019N0010001N1+02371+01471101301ADDAA106000091GF101991011021008001001001KA1240M+03151MA1999999093131MD1999999-0081REMSYN088AAXX  18004 83182 32594 11410 10237 20147 39313 40130 81200 333 10315 29053 55110 59008;EQDQ01  00002PRCP06
0186831820999992003091812004-11300-041867FM-12+074799999V0200901N006212200019N0100001N1+02581+01501101451ADDAA106000091GF103991001001999999001011KA1240N+01721MA1999999093301MD1999999-0061REMSYN076AAXX  18124 83182 32997 30912 10258 20150 39330 40145 80001 333 20172 59006;EQDQ01  00002PRCP06
0198831820999992003091900004-11300-041867FM-12+074799999V0200901N004119999999N0010001N1+02331+01391101351ADDAA106000091GF108991001001999999001011KA1240M+03171MA1999999093191MD1999999+0061REMSYN088AAXX  19004 83182 32994 80908 10233 20139 39319 40135 80001 333 10317 29055 55107 58006;EQDQ01  00002PRCP06
0186831820999992003091912004-11300-041867FM-12+074799999V0201401N006710075019N0100001N1+02361+01491101541ADDAA106000091GF106991061021008001001001KA1240N+01741MA1999999093331MD1999999+0031REMSYN076AAXX  19124 83182 32597 61413 10236 20149 39333 40154 86200 333 20174 58003;EQDQ01  00002PRCP06
0208831820999992003092000004-11300-041867FM-12+074799999V0200901N004612200019N0010001N1+02291+01361101361ADDAA106000091GA1001+999999999GF100991001001999999001001KA1240M+02901MA1999999093161MD1999999-0031REMSYN082AAXX  20004 83182 32594 00909 10229 20136 39316 40136 333 10290 29057 55089 59003;EQDQ01  00002PRCP06
0186831820999992003092012004-11300-041867FM-12+074799999V0201401N007710075019N0100001N1+02521+01491101581ADDAA106000091GF106991061021008001001001KA1240N+01721MA1999999093381MD1999999+0051REMSYN076AAXX  20124 83182 32597 61415 10252 20149 39338 40158 86200 333 20172 58005;EQDQ01  00002PRCP06
0186831820999992003092112004-11300-041867FM-12+074799999V0200901N007712200019N0100001N1+02441+01381101661ADDAA106000091GF108991021021008001001011KA1240N+01751MA1999999093431MD1999999+0051REMSYN076AAXX  21124 83182 32597 80915 10244 20138 39343 40166 82201 333 20175 58005;EQDQ01  00002PRCP06
0198831820999992003092200004-11300-041867FM-12+074799999V0201401N003619999999N0010001N1+02241+01431101631ADDAA106000091GF108991001001999999001011KA1240M+02961MA1999999093411MD1999999+0101REMSYN088AAXX  22004 83182 32994 81407 10224 20143 39341 40163 80001 333 10296 29058 55087 58010;EQDQ01  00002PRCP06
0186831820999992003092212004-11300-041867FM-12+074799999V0200901N006219999999N0100001N1+02401+01131101721ADDAA106000091GF108991001001999999001011KA1240N+01471MA1999999093481MD1999999+0051REMSYN076AAXX  22124 83182 32997 80912 10240 20113 39348 40172 80001 333 20147 58005;EQDQ01  00002PRCP06
0198831820999992003092400004-11300-041867FM-12+074799999V0201401N004612200019N0010001N1+02141+00961101481ADDAA106000091GF102991001001999999001011KA1240M+03021MA1999999093251MD1999999+0001REMSYN088AAXX  24004 83182 32994 21409 10214 20096 39325 40148 80001 333 10302 29048 55097 58000;EQDQ01  00002PRCP06
0208831820999992003092500004-11300-041867FM-12+074799999V0201401N004112200019N0010001N1+02341+01081101231ADDAA106000091GA1001+999999999GF100991001001999999001001KA1240M+03201MA1999999093041MD1999999-0211REMSYN082AAXX  25004 83182 32994 01408 10234 20108 39304 40123 333 10320 29047 55107 59021;EQDQ01  00002PRCP06
0186831820999992003092512004-11300-041867FM-12+074799999V0201401N003612200019N0100001N1+02621+01431101331ADDAA106000091GF101991001001999999001011KA1240N+01501MA1999999093191MD1999999-0121REMSYN076AAXX  25124 83182 32997 11407 10262 20143 39319 40133 80001 333 20150 59012;EQDQ01  00002PRCP06
0208831820999992003092600004-11300-041867FM-12+074799999V0200901N005112200019N0010001N1+02491+01341101111ADDAA106000091GA1001+999999999GF100991001001999999001001KA1240M+03421MA1999999093001MD1999999-0041REMSYN082AAXX  26004 83182 32994 00910 10249 20134 39300 40111 333 10342 29049 55108 59004;EQDQ01  00002PRCP06
0196831820999992003092612004-11300-041867FM-12+074799999V0201401N004112200019N0100001N1+02661+01441101241ADDAA106000091GA1001+999999999GF100991001001999999001001KA1240N+01531MA1999999093141MD1999999-0051REMSYN070AAXX  26124 83182 32997 01408 10266 20144 39314 40124 333 20153 59005;EQDQ01  00002PRCP06
0208831820999992003092700004-11300-041867FM-12+074799999V0200901N006212200019N0010001N1+02461+01151101131ADDAA106000091GA1001+999999999GF100991001001999999001001KA1240M+03441MA1999999093021MD1999999+0021REMSYN082AAXX  27004 83182 32994 00912 10246 20115 39302 40113 333 10344 29045 55109 58002;EQDQ01  00002PRCP06
0196831820999992003092712004-11300-041867FM-12+074799999V0200901N003112200019N0100001N1+02581+01461101171ADDAA106000091GA1001+999999999GF100991001001999999001001KA1240N+01721MA1999999093041MD1999999-0101REMSYN070AAXX  27124 83182 32997 00906 10258 20146 39304 40117 333 20172 59010;EQDQ01  00002PRCP06
0186831820999992003092812004-11300-041867FM-12+074799999V0200901N002619999999N0100001N1+02971+01721101071ADDAA106000091GF108991001001999999001011KA1240N+01941MA1999999093041MD1999999+0001REMSYN076AAXX  28124 83182 32997 80905 10297 20172 39304 40107 80001 333 20194 58000;EQDQ01  00002PRCP06
0221831820999992003092900004-11300-041867FM-12+074799999V0201401N002610450019N9999999N1+02441+01531101021ADDAY161061AY221061GF106991031051008001051011KA1240M+03491MA1999999092971MD1999999+0031MW1001REMSYN100AAXX  29004 83182 21594 61405 10244 20153 39297 40102 70062 83551 333 10349 29057 55083 58003 60071;EQDQ01+010002VODIS 
0162831820999992003092912004-11300-041867FM-12+074799999V0200901N003119999999N0100001N1+02601+01891101291ADDGF108991001001999999001011KA1240N+01981MA1999999093151MD1999999+0011REMSYN082AAXX  29124 83182 22997 80906 10260 20189 39315 40129 80001 333 20198 58001 60074;
0198831820999992003093000004-11300-041867FM-12+074799999V0200901N004619999999N0010001N1+02621+01591101041ADDAA106000091GF108991001001999999001011KA1240M+03321MA1999999092911MD1999999-0021REMSYN088AAXX  30004 83182 32994 80909 10262 20159 39291 40104 80001 333 10332 29057 55080 59002;EQDQ01  00002PRCP06
0186831820999992003093012004-11300-041867FM-12+074799999V0200901N003610075019N0100001N1+02401+01771101391ADDAA106000091GF108991081051008001999999KA1240N+01991MA1999999093251MD1999999+0101REMSYN076AAXX  30124 83182 32597 80907 10240 20177 39325 40139 885// 333 20199 58010;EQDQ01  00002PRCP06
0198831820999992003100100004-11300-041867FM-12+074799999V0201401N004610075019N0010001N1+02601+01631101661ADDAA106000091GF108991081051008001999999KA1240M+03091MA1999999093031MD1999999+0081REMSYN088AAXX  01004 83182 32594 81409 10260 20163 39303 40166 885// 333 10309 29059 55057 58008;EQDQ01  00002PRCP06
0186831820999992003100112004-11300-041867FM-12+074799999V0200901N005710450019N0100001N1+02581+01691101331ADDAA106000091GF108991031021008001051011KA1240N+02021MA1999999093221MD1999999-0031REMSYN076AAXX  01124 83182 32597 80911 10258 20169 39322 40133 83251 333 20202 59003;EQDQ01  00002PRCP06
0198831820999992003100200004-11300-041867FM-12+074799999V0200901N004112200019N0010001N1+02561+01411101251ADDAA106000091GF108991031001017501051011KA1240M+03101MA1999999093131MD1999999+0101REMSYN088AAXX  02004 83182 32794 80908 10256 20141 39313 40125 83051 333 10310 29052 55042 58010;EQDQ01  00002PRCP06
0186831820999992003100212004-11300-041867FM-12+074799999V0201401N005710075019N0100001N1+02481+01541101411ADDAA106000091GF108991061021008001001011KA1240N+01861MA1999999093261MD1999999+0041REMSYN076AAXX  02124 83182 32597 81411 10248 20154 39326 40141 86201 333 20186 58004;EQDQ01  00002PRCP06
0198831820999992003100300004-11300-041867FM-12+074799999V0201401N006212200019N0010001N1+02321+01581101251ADDAA106000091GF108991031001017501051011KA1240M+03051MA1999999093081MD1999999-0051REMSYN088AAXX  03004 83182 32794 81412 10232 20158 39308 40125 83051 333 10305 29061 55096 59005;EQDQ01  00002PRCP06
0186831820999992003100312004-11300-041867FM-12+074799999V0200901N007710450019N0100001N1+02541+01511101541ADDAA106000091GF108991031021008001051011KA1240N+01761MA1999999093361MD1999999+0101REMSYN076AAXX  03124 83182 32597 80915 10254 20151 39336 40154 83251 333 20176 58010;EQDQ01  00002PRCP06
0198831820999992003100400004-11300-041867FM-12+074799999V0201401N003112200019N0010001N1+02401+01411101381ADDAA106000091GF108991011051017501001011KA1240M+03141MA1999999093221MD1999999+0141REMSYN088AAXX  04004 83182 32794 81406 10240 20141 39322 40138 81501 333 10314 29054 55104 58014;EQDQ01  00002PRCP06
0186831820999992003100412004-11300-041867FM-12+074799999V0201401N008712200019N0100001N1+02541+01391101591ADDAA106000091GF108991011021008001001011KA1240N+01601MA1999999093411MD1999999+0051REMSYN076AAXX  04124 83182 32597 81417 10254 20139 39341 40159 81201 333 20160 58005;EQDQ01  00002PRCP06
0198831820999992003100500004-11300-041867FM-12+074799999V0201401N004619999999N0010001N1+02381+01361101511ADDAA106000091GF108991001001999999001011KA1240M+03101MA1999999093341MD1999999-0121REMSYN088AAXX  05004 83182 32994 81409 10238 20136 39334 40151 80001 333 10310 29052 55105 59012;EQDQ01  00002PRCP06
0196831820999992003100512004-11300-041867FM-12+074799999V0201401N004112200019N0100001N1+02601+01481101471ADDAA106000091GA1001+999999999GF100991001001999999001001KA1240N+01571MA1999999093321MD1999999-0091REMSYN070AAXX  05124 83182 32997 01408 10260 20148 39332 40147 333 20157 59009;EQDQ01  00002PRCP06
0208831820999992003100600004-11300-041867FM-12+074799999V0200901N007212200019N0010001N1+02431+01401101161ADDAA106000091GA1001+999999999GF100991001001999999001001KA1240M+03221MA1999999093031MD1999999-0311REMSYN082AAXX  06004 83182 32994 00914 10243 20140 39303 40116 333 10322 29053 55112 59031;EQDQ01  00002PRCP06
0186831820999992003100612004-11300-041867FM-12+074799999V0201401N005712200019N0100001N1+02731+01471101241ADDAA106000091GF108991011021008001001011KA1240N+01781MA1999999093141MD1999999-0181REMSYN076AAXX  06124 83182 32597 81411 10273 20147 39314 40124 81201 333 20178 59018;EQDQ01  00002PRCP06
0208831820999992003100700004-11300-041867FM-12+074799999V0200901N005712200019N0010001N1+02381+01581101081ADDAA106000091GA1001+999999999GF100991001001999999001001KA1240M+03121MA1999999092971MD1999999-0061REMSYN082AAXX  07004 83182 32994 00911 10238 20158 39297 40108 333 10312 29056 55104 59006;EQDQ01  00002PRCP06
0186831820999992003100712004-11300-041867FM-12+074799999V0201401N004612200019N0100001N1+02731+01431101401ADDAA106000091GF101991011001017501031001KA1240N+01721MA1999999093271MD1999999+0131REMSYN076AAXX  07124 83182 32797 11409 10273 20143 39327 40140 81030 333 20172 58013;EQDQ01  00002PRCP06
0224831820999992003100800004-11300-041867FM-12+074799999V0201801N003112200019N0100001N1+02471+01231101161ADDAA106000091GA1001+999999999GF100991001001999999001001KA1240M+03351MA1999999999999MD1999999+0091REMSYN082AAXX  08004 83182 32997 01806 10247 20123 39006 40116 333 10335 29046 55111 58009;EQDQ01  00002PRCP06Q02 090063APOSP 
0196831820999992003100812004-11300-041867FM-12+074799999V0200901N006212200019N0100001N1+02561+01311101461ADDAA106000091GA1001+999999999GF100991001001999999001001KA1240N+01801MA1999999093311MD1999999+0041REMSYN070AAXX  08124 83182 32997 00912 10256 20131 39331 40146 333 20180 58004;EQDQ01  00002PRCP06
0208831820999992003100900004-11300-041867FM-12+074799999V0201401N003112200019N0010001N1+02451+01041101201ADDAA106000091GA1001+999999999GF100991001001999999001001KA1240M+03221MA1999999093071MD1999999+0011REMSYN082AAXX  09004 83182 32994 01406 10245 20104 39307 40120 333 10322 29044 55112 58001;EQDQ01  00002PRCP06
0186831820999992003100912004-11300-041867FM-12+074799999V0201401N007712200019N0100001N1+02741+00971101361ADDAA106000091GF102991001001999999001011KA1240N+01721MA1999999093251MD1999999-0061REMSYN076AAXX  09124 83182 32997 21415 10274 20097 39325 40136 80001 333 20172 59006;EQDQ01  00002PRCP06
0198831820999992003101000004-11300-041867FM-12+074799999V0201401N006719999999N0100001N1+02481+01401101111ADDAA106000091GF108991001001999999001011KA1240M+03231MA1999999093021MD1999999-0051REMSYN088AAXX  10004 83182 32997 81413 10248 20140 39302 40111 80001 333 10323 29045 55112 59005;EQDQ01  00002PRCP06
0186831820999992003101012004-11300-041867FM-12+074799999V0200901N005712200019N0100001N1+02591+01471101311ADDAA106000091GF108991011021008001001011KA1240N+01621MA1999999093191MD1999999-0061REMSYN076AAXX  10124 83182 32597 80911 10259 20147 39319 40131 81201 333 20162 59006;EQDQ01  00002PRCP06
0198831820999992003101100004-11300-041867FM-12+074799999V0200901N005719999999N0010001N1+02471+01261101101ADDAA106000091GF108991001001999999001011KA1240M+03221MA1999999092991MD1999999-0031REMSYN088AAXX  11004 83182 32994 80911 10247 20126 39299 40110 80001 333 10322 29048 55109 59003;EQDQ01  00002PRCP06
0186831820999992003101112004-11300-041867FM-12+074799999V0201401N004619999999N0100001N1+02701+01301101281ADDAA106000091GF108991001001999999001011KA1240N+01841MA1999999093171MD1999999-0021REMSYN076AAXX  11124 83182 32997 81409 10270 20130 39317 40128 80001 333 20184 59002;EQDQ01  00002PRCP06
0198831820999992003101200004-11300-041867FM-12+074799999V0200901N004119999999N0010001N1+02561+01101101001ADDAA106000091GF108991001001999999001011KA1240M+03381MA1999999092941MD1999999-0051REMSYN088AAXX  12004 83182 32994 80908 10256 20110 39294 40100 80001 333 10338 29041 55112 59005;EQDQ01  00002PRCP06
0196831820999992003101212004-11300-041867FM-12+074799999V0201401N003112200019N0100001N1+02701+01511101091ADDAA106000091GA1001+999999999GF100991001001999999001001KA1240N+01731MA1999999093021MD1999999-0151REMSYN070AAXX  12124 83182 32997 01406 10270 20151 39302 40109 333 20173 59015;EQDQ01  00002PRCP06
0208831820999992003101300004-11300-041867FM-12+074799999V0200901N003112200019N0010001N1+02611+01321101061ADDAA106000091GA1001+999999999GF100991001001999999001001KA1240M+03581MA1999999092991MD1999999+0051REMSYN082AAXX  13004 83182 32994 00906 10261 20132 39299 40106 333 10358 29043 55111 58005;EQDQ01  00002PRCP06
0186831820999992003101312004-11300-041867FM-12+074799999V0201401N005110450019N0100001N1+02561+01211101261ADDAA106000091GF108991011021017501051011KA1240N+01791MA1999999093151MD1999999+0131REMSYN076AAXX  13124 83182 32797 81410 10256 20121 39315 40126 81251 333 20179 58013;EQDQ01  00002PRCP06
0198831820999992003101400004-11300-041867FM-12+074799999V0200901N005712200019N0010001N1+02501+01391101241ADDAA106000091GF108991021001017501061011KA1240M+03261MA1999999093121MD1999999+0121REMSYN088AAXX  14004 83182 32794 80911 10250 20139 39312 40124 82061 333 10326 29047 55098 58012;EQDQ01  00002PRCP06
0186831820999992003101412004-11300-041867FM-12+074799999V0201401N005110450019N0100001N1+02531+01581101351ADDAA106000091GF108991041021008001051011KA1240N+01771MA1999999093211MD1999999-0051REMSYN076AAXX  14124 83182 32597 81410 10253 20158 39321 40135 84251 333 20177 59005;EQDQ01  00002PRCP06
0186831820999992003101512004-11300-041867FM-12+074799999V0201401N005719999999N0100001N1+02561+01351101501ADDAA106000091GF108991001001999999001011KA1240N+01861MA1999999093311MD1999999+0101REMSYN076AAXX  15124 83182 32997 81411 10256 20135 39331 40150 80001 333 20186 58010;EQDQ01  00002PRCP06
0198831820999992003101600004-11300-041867FM-12+074799999V0201401N007710450019N0010001N1+02261+01591101521ADDAA106000091GF108991021021008001051011KA1240M+03151MA1999999093331MD1999999+0141REMSYN088AAXX  16004 83182 32594 81415 10226 20159 39333 40152 82251 333 10315 29059 55078 58014;EQDQ01  00002PRCP06
0198831820999992003101700004-11300-041867FM-12+074799999V0200901N004110075019N0010001N1+02151+01461101581ADDAA106000091GF108991081051008001999999KA1240M+02941MA1999999093351MD1999999+0021REMSYN088AAXX  17004 83182 32594 80908 10215 20146 39335 40158 885// 333 10294 29061 55047 58002;EQDQ01  00002PRCP06
0186831820999992003101712004-11300-041867FM-12+074799999V0201801N004612200019N0100001N1+02401+01501101621ADDAA106000091GF103991011021008001051001KA1240N+01671MA1999999093391MD1999999-0011REMSYN076AAXX  17124 83182 32597 31809 10240 20150 39339 40162 81250 333 20167 59001;EQDQ01  00002PRCP06
0198831820999992003101800004-11300-041867FM-12+074799999V0200901N007212200019N0010001N1+02331+01451101261ADDAA106000091GF102991021001017501051001KA1240M+03021MA1999999093171MD1999999-0181REMSYN088AAXX  18004 83182 32794 20914 10233 20145 39317 40126 82050 333 10302 29058 55073 59018;EQDQ01  00002PRCP06
0186831820999992003101812004-11300-041867FM-12+074799999V0200901N005710075019N0100001N1+02241+01401101611ADDAA106000091GF108991061051008001001011KA1240N+01621MA1999999093361MD1999999-0031REMSYN076AAXX  18124 83182 32597 80911 10224 20140 39336 40161 86501 333 20162 59003;EQDQ01  00002PRCP06
0186831820999992003101912004-11300-041867FM-12+074799999V0201401N004619999999N0100001N1+02461+01521101551ADDAA106000091GF108991001001999999001011KA1240N+01651MA1999999093351MD1999999-0011REMSYN076AAXX  19124 83182 32997 81409 10246 20152 39335 40155 80001 333 20165 59001;EQDQ01  00002PRCP06
0186831820999992003102012004-11300-041867FM-12+074799999V0200901N003119999999N0100001N1+02511+01571101451ADDAA106000091GF108991001001999999001011KA1240N+01611MA1999999093301MD1999999-0051REMSYN076AAXX  20124 83182 32997 80906 10251 20157 39330 40145 80001 333 20161 59005;EQDQ01  00002PRCP06
0198831820999992003102100004-11300-041867FM-12+074799999V0201401N006219999999N0010001N1+02521+01581101191ADDAA106000091GF108991001001999999001011KA1240M+03361MA1999999093061MD1999999-0071REMSYN088AAXX  21004 83182 32994 81412 10252 20158 39306 40119 80001 333 10336 29056 55110 59007;EQDQ01  00002PRCP06
0186831820999992003102112004-11300-041867FM-12+074799999V0200901N004612200019N0100001N1+02761+01661101301ADDAA106000091GF108991021021008001001011KA1240N+01731MA1999999093211MD1999999-0091REMSYN076AAXX  21124 83182 32597 80909 10276 20166 39321 40130 82201 333 20173 59009;EQDQ01  00002PRCP06
0198831820999992003102200004-11300-041867FM-12+074799999V0200901N005719999999N0010001N1+02641+01511101001ADDAA106000091GF108991001001999999001011KA1240M+03361MA1999999092951MD1999999-0111REMSYN088AAXX  22004 83182 32994 80911 10264 20151 39295 40100 80001 333 10336 29050 55097 59011;EQDQ01  00002PRCP06
0186831820999992003102212004-11300-041867FM-12+074799999V0201401N004119999999N0100001N1+02861+01521101131ADDAA106000091GF108991001001999999001011KA1240N+01901MA1999999093091MD1999999-0121REMSYN076AAXX  22124 83182 32997 81408 10286 20152 39309 40113 80001 333 20190 59012;EQDQ01  00002PRCP06
0198831820999992003102300004-11300-041867FM-12+074799999V0200901N005119999999N0010001N1+02721+01491100951ADDAA106000091GF108991001001999999001011KA1240M+03471MA1999999092941MD1999999-0011REMSYN088AAXX  23004 83182 32994 80910 10272 20149 39294 40095 80001 333 10347 29046 55107 59001;EQDQ01  00002PRCP06
0186831820999992003102312004-11300-041867FM-12+074799999V0201401N003619999999N0100001N1+02861+01411101121ADDAA106000091GF108991001001999999001011KA1240N+01921MA1999999093101MD1999999+0011REMSYN076AAXX  23124 83182 32997 81407 10286 20141 39310 40112 80001 333 20192 58001;EQDQ01  00002PRCP06
0152831820999992003102400004-11300-041867FM-12+074799999V0200901N005119999999N0010001N1+02781+01091999999ADDAA106000091GF108991999999999999999999REMSYN084AAXX  24004 83182 32994 80910 10278 20109 10353 29037 39302 40126 55108 58008 80001;EQDQ01  00002PRCP06
0186831820999992003102412004-11300-041867FM-12+074799999V0201401N004110075019N0100001N1+02681+01781101481ADDAA106000091GF108991081051008001999999KA1240N+01921MA1999999093411MD1999999+0311REMSYN076AAXX  24124 83182 32597 81408 10268 20178 39341 40148 885// 333 20192 58031;EQDQ01  00002PRCP06
0198831820999992003102500004-11300-041867FM-12+074799999V0200901N007212200019N0010001N1+02591+01741101291ADDAA106000091GF108991021001017501051011KA1240M+03281MA1999999093201MD1999999+0181REMSYN088AAXX  25004 83182 32794 80914 10259 20174 39320 40129 82051 333 10328 29059 55086 58018;EQDQ01  00002PRCP06
0186831820999992003102512004-11300-041867FM-12+074799999V0200901N005110450019N0100001N1+02691+01671101421ADDAA106000091GF108991031021008001051011KA1240N+01951MA1999999093321MD1999999-0091REMSYN076AAXX  25124 83182 32597 80910 10269 20167 39332 40142 83251 333 20195 59009;EQDQ01  00002PRCP06
0198831820999992003102600004-11300-041867FM-12+074799999V0200901N006212200019N0010001N1+02541+01481101091ADDAA106000091GF108991021001017501051011KA1240M+03201MA1999999093001MD1999999-0201REMSYN088AAXX  26004 83182 32794 80912 10254 20148 39300 40109 82051 333 10320 29053 55065 59020;EQDQ01  00002PRCP06
0186831820999992003102612004-11300-041867FM-12+074799999V0200901N005710450019N0100001N1+02581+01481101251ADDAA106000091GF108991011021008001051011KA1240N+01801MA1999999093131MD1999999-0191REMSYN076AAXX  26124 83182 32597 80911 10258 20148 39313 40125 81251 333 20180 59019;EQDQ01  00002PRCP06
0186831820999992003102712004-11300-041867FM-12+074799999V0200901N005112200019N0100001N1+02621+01431101141ADDAA106000091GF103991031021008001001001KA1240N+01651MA1999999093011MD1999999-0121REMSYN076AAXX  27124 83182 32597 30910 10262 20143 39301 40114 83200 333 20165 59012;EQDQ01  00002PRCP06
0208831820999992003102800004-11300-041867FM-12+074799999V0200901N004112200019N0010001N1+02501+01321100971ADDAA106000091GA1001+999999999GF100991001001999999001001KA1240M+03271MA1999999092871MD1999999-0011REMSYN082AAXX  28004 83182 32994 00908 10250 20132 39287 40097 333 10327 29048 55091 59001;EQDQ01  00002PRCP06
0186831820999992003102812004-11300-041867FM-12+074799999V0200901N005711050019N0100001N1+02601+01631101281ADDAA106000091GF108991011021008001001021KA1240N+01871MA1999999093161MD1999999+0151REMSYN076AAXX  28124 83182 32597 80911 10260 20163 39316 40128 81202 333 20187 58015;EQDQ01  00002PRCP06
0198831820999992003102900004-11300-041867FM-12+074799999V0200901N005711050019N0010001N1+02361+01591101231ADDAA106000091GF108991031001017501051021KA1240M+03041MA1999999093101MD1999999+0231REMSYN088AAXX  29004 83182 32794 80911 10236 20159 39310 40123 83052 333 10304 29060 55044 58023;EQDQ01  00002PRCP06
0186831820999992003102912004-11300-041867FM-12+074799999V0201401N006210075019N0100001N1+02531+01451101281ADDAA106000091GF107991071021008001001001KA1240N+01881MA1999999093161MD1999999+0001REMSYN076AAXX  29124 83182 32597 71412 10253 20145 39316 40128 87200 333 20188 58000;EQDQ01  00002PRCP06
0198831820999992003103000004-11300-041867FM-12+074799999V0200901N005712200019N0010001N1+02451+01651101181ADDAA106000091GF102991011001017501051011KA1240M+03061MA1999999093031MD1999999-0071REMSYN088AAXX  30004 83182 32794 20911 10245 20165 39303 40118 81051 333 10306 29060 55068 59007;EQDQ01  00002PRCP06
0186831820999992003103012004-11300-041867FM-12+074799999V0200901N006712200019N0100001N1+02551+01391101241ADDAA106000091GF102991011021008001001011KA1240N+01691MA1999999093121MD1999999-0041REMSYN076AAXX  30124 83182 32597 20913 10255 20139 39312 40124 81201 333 20169 59004;EQDQ01  00002PRCP06
0198831820999992003103100004-11300-041867FM-12+074799999V0200901N005119999999N0010001N1+02551+01491100941ADDAA106000091GF108991001001999999001011KA1240M+03221MA1999999092851MD1999999-0181REMSYN088AAXX  31004 83182 32994 80910 10255 20149 39285 40094 80001 333 10322 29052 55088 59018;EQDQ01  00002PRCP06
0186831820999992003103112004-11300-041867FM-12+074799999V0201401N005112200019N0100001N1+02661+01621101131ADDAA106000091GF108991011011012501001011KA1240N+01971MA1999999093041MD1999999-0081REMSYN076AAXX  31124 83182 32697 81410 10266 20162 39304 40113 81101 333 20197 59008;EQDQ01  00002PRCP06
0198831820999992003110100004-11300-041867FM-12+074799999V0200901N004119999999N0010001N1+02601+01411100831ADDAA106000091GF108991001001999999001011KA1240M+03221MA1999999092781MD1999999-0071REMSYN088AAXX  01004 83182 32994 80908 10260 20141 39278 40083 80001 333 10322 29050 55110 59007;EQDQ01  00002PRCP06
0186831820999992003110112004-11300-041867FM-12+074799999V0200901N005110450019N0010001N1+02631+01411101111ADDAA106000091GF108991041021017501021051KA1240N+01871MA1999999093021MD1999999-0021REMSYN076AAXX  01124 83182 32794 80910 10263 20141 39302 40111 84225 333 20187 59002;EQDQ01  00002PRCP06
0198831820999992003110200004-11300-041867FM-12+074799999V0201401N003110075019N0010001N1+02721+01491100831ADDAA106000091GF108991051051008001051011KA1240M+03351MA1999999092801MD1999999+0021REMSYN088AAXX  02004 83182 32594 81406 10272 20149 39280 40083 85551 333 10335 29047 55090 58002;EQDQ01  00002PRCP06
0186831820999992003110212004-11300-041867FM-12+074799999V0201401N002610450019N0100001N1+02801+01631100961ADDAA106000091GF108991021021008001041011KA1240N+02131MA1999999092941MD1999999-0081REMSYN076AAXX  02124 83182 32597 81405 10280 20163 39294 40096 82241 333 20213 59008;EQDQ01  00002PRCP06
0198831820999992003110300004-11300-041867FM-12+074799999V0200501N003110075019N0010001N1+02751+01711100691ADDAA106000091GF108991061051008001011999KA1240M+03281MA1999999092701MD1999999-0101REMSYN088AAXX  03004 83182 32594 80506 10275 20171 39270 40069 8651/ 333 10328 29052 55049 59010;EQDQ01  00002PRCP06
0190831820999992003110312004-11300-041867FM-12+074799999V0200901N003110075019N0100001N1+02681+01971100991ADDAY161061AY221061GF108991061021008001051011KA1240N+01931MA1999999092851MD1999999-0091MW1021REMSYN088AAXX  03124 83182 21597 80906 10268 20197 39285 40099 70262 86251 333 20193 59009 60044;
0202831820999992003110400004-11300-041867FM-12+074799999V0203201N005110042019N9999999N1+02011+01931100971ADDAY121061AY221061GF108991061031004501021999KA1240M+03241MA1999999092811MD1999999+0111MW1951REMSYN100AAXX  04004 83182 214// 83210 10201 20193 39281 40097 79522 8632/ 333 10324 29085 55/// 58011 60081;
0190831820999992003110412004-11300-041867FM-12+074799999V0201401N001510042019N0010001N1+01981+01861101461ADDAY161061AY261061GF108991061071004501021999KA1240N+01831MA1999999093141MD1999999+0291MW1611REMSYN088AAXX  04124 83182 21494 81403 10198 20186 39314 40146 76166 8672/ 333 20183 58029 60434;
0202831820999992003110500004-11300-041867FM-12+074799999V0200901N003110042019N0010001N1+02031+01941101411ADDAY161061AY221061GF108991061071004501021999KA1240M+02301MA1999999093091MD1999999+0281MW1601REMSYN100AAXX  05004 83182 21494 80906 10203 20194 39309 40141 76062 8672/ 333 10230 29094 55000 58028 60021;
0190831820999992003110512004-11300-041867FM-12+074799999V0201401N003110042019N0100001N1+02141+01861101581ADDAY161061AY221061GF108991071051004501011999KA1240N+01711MA1999999093281MD1999999+0141MW1021REMSYN088AAXX  05124 83182 21497 81406 10214 20186 39328 40158 70262 8751/ 333 20171 58014 60064;
0198831820999992003110600004-11300-041867FM-12+074799999V0201401N003110450019N0010001N1+01961+01801101501ADDAA106000091GF108991011051008001031999KA1240M+02341MA1999999093191MD1999999+0101REMSYN088AAXX  06004 83182 32594 81406 10196 20180 39319 40150 8153/ 333 10234 29087 55015 58010;EQDQ01  00002PRCP06
0186831820999992003110612004-11300-041867FM-12+074799999V0200901N003610075019N0100001N1+02251+01761101501ADDAA106000091GF108991081051008001999999KA1240N+01671MA1999999093211MD1999999-0071REMSYN076AAXX  06124 83182 32597 80907 10225 20176 39321 40150 885// 333 20167 59007;EQDQ01  00002PRCP06
0198831820999992003110700004-11300-041867FM-12+074799999V0201401N002612200019N0010001N1+02071+01791101321ADDAA106000091GF102991021001017501041001KA1240M+02681MA1999999093051MD1999999-0141REMSYN088AAXX  07004 83182 32794 21405 10207 20179 39305 40132 82040 333 10268 29081 55045 59014;EQDQ01  00002PRCP06
0186831820999992003110712004-11300-041867FM-12+074799999V0200901N004110075019N0100001N1+02441+01761101261ADDAA106000091GF106991061021008001001001KA1240N+01711MA1999999093041MD1999999-0171REMSYN076AAXX  07124 83182 32597 60908 10244 20176 39304 40126 86200 333 20171 59017;EQDQ01  00002PRCP06
0198831820999992003110800004-11300-041867FM-12+074799999V0201401N003112200019N0010001N1+02301+01721101081ADDAA106000091GF108991011051008001001011KA1240M+03021MA1999999092911MD1999999-0141REMSYN088AAXX  08004 83182 32594 81406 10230 20172 39291 40108 81501 333 10302 29069 55100 59014;EQDQ01  00002PRCP06
0186831820999992003110812004-11300-041867FM-12+074799999V0201401N002610450019N0100001N1+02401+01821101261ADDAA106000091GF108991041051008001011999KA1240N+01871MA1999999093071MD1999999+0031REMSYN076AAXX  08124 83182 32597 81405 10240 20182 39307 40126 8451/ 333 20187 58003;EQDQ01  00002PRCP06
0198831820999992003110900004-11300-041867FM-12+074799999V0200901N002112200019N0010001N1+02361+01821101121ADDAA106000091GF108991031001017501051011KA1240M+02681MA1999999092961MD1999999+0051REMSYN088AAXX  09004 83182 32794 80904 10236 20182 39296 40112 83051 333 10268 29073 55020 58005;EQDQ01  00002PRCP06
0186831820999992003110912004-11300-041867FM-12+074799999V0200501N004610075019N0100001N1+02521+01891101161ADDAA106000091GF108991081051008001999999KA1240N+01951MA1999999093061MD1999999-0011REMSYN076AAXX  09124 83182 32597 80509 10252 20189 39306 40116 885// 333 20195 59001;EQDQ01  00002PRCP06
0198831820999992003111000004-11300-041867FM-12+074799999V0201401N003111050019N0010001N1+02401+01891101241ADDAA106000091GF108991021001017501061021KA1240M+03001MA1999999093091MD1999999+0131REMSYN088AAXX  10004 83182 32794 81406 10240 20189 39309 40124 82062 333 10300 29071 55068 58013;EQDQ01  00002PRCP06
0186831820999992003111012004-11300-041867FM-12+074799999V0200901N004610075019N0100001N1+02671+01681101261ADDAA106000091GF106991051021008001001011KA1240N+01861MA1999999093141MD1999999+0081REMSYN076AAXX  10124 83182 32597 60909 10267 20168 39314 40126 85201 333 20186 58008;EQDQ01  00002PRCP06
0198831820999992003111100004-11300-041867FM-12+074799999V0200901N004119999999N0010001N1+02401+01631101041ADDAA106000091GF108991001001999999001011KA1240M+03001MA1999999092941MD1999999-0151REMSYN088AAXX  11004 83182 32994 80908 10240 20163 39294 40104 80001 333 10300 29060 55061 59015;EQDQ01  00002PRCP06
0202831820999992003111112004-11300-041867FM-12+074799999V0200901N004619999999N0500001N1+02661+01681101181ADDAA106000091GF106991001001999999001011KA1240N+01721MA1999999093061MD1999999+0081REMSYN076AAXX  11124 83182 33299 60909 10266 20168 39306 40118 80001 333 20172 58008;EQDQ01+001502SCOLCBQ02  00002PRCP06
0198831820999992003111200004-11300-041867FM-12+074799999V0201401N008211050019N0010001N1+02341+01781101161ADDAA106000091GF108991021001017501041021KA1240M+03171MA1999999093031MD1999999+0081REMSYN088AAXX  12004 83182 32794 81416 10234 20178 39303 40116 82042 333 10317 29066 55115 58008;EQDQ01  00002PRCP06
0198831820999992003111300004-11300-041867FM-12+074799999V0200901N005112200019N0010001N1+02461+01521101081ADDAA106000091GF108991021001017501041011KA1240M+03201MA1999999092991MD1999999-0041REMSYN088AAXX  13004 83182 32794 80910 10246 20152 39299 40108 82041 333 10320 29052 55112 59004;EQDQ01  00002PRCP06
0186831820999992003111312004-11300-041867FM-12+074799999V0200901N004112200019N0100001N1+02501+01641101351ADDAA106000091GF103991011021008001041011KA1240N+01791MA1999999093211MD1999999+0081REMSYN076AAXX  13124 83182 32597 30908 10250 20164 39321 40135 81241 333 20179 58008;EQDQ01  00002PRCP06
0208831820999992003111400004-11300-041867FM-12+074799999V0200901N005112200019N0010001N1+02611+01661101071ADDAA106000091GA1001+999999999GF100991001001999999001001KA1240M+03321MA1999999092961MD1999999-0031REMSYN082AAXX  14004 83182 32994 00910 10261 20166 39296 40107 333 10332 29056 55108 59003;EQDQ01  00002PRCP06
0186831820999992003111412004-11300-041867FM-12+074799999V0200901N003112200019N0100001N1+02931+01711101031ADDAA106000091GF101991001001999999001021KA1240N+01871MA1999999093001MD1999999-0211REMSYN076AAXX  14124 83182 32997 10906 10293 20171 39300 40103 80002 333 20187 59021;EQDQ01  00002PRCP06
0198831820999992003111500004-11300-041867FM-12+074799999V02099999999990450019N0010001N1+02681+01861100971ADDAA106000091GF108991021051008001051011KA1240M+03501MA1999999092961MD1999999+0001REMSYN088AAXX  15004 83182 32594 809// 10268 20186 39296 40097 82551 333 10350 29057 55109 58000;EQDQ01  00002PRCP06
0186831820999992003111512004-11300-041867FM-12+074799999V0201401N005712200019N0100001N1+02701+01661101241ADDAA106000091GF108991011021008001001011KA1240N+02021MA1999999093171MD1999999+0171REMSYN076AAXX  15124 83182 32597 81411 10270 20166 39317 40124 81201 333 20202 58017;EQDQ01  00002PRCP06
0208831820999992003111600004-11300-041867FM-12+074799999V0200901N005712200019N0010001N1+02441+01691101241ADDAA106000091GA1001+999999999GF100991001001999999001001KA1240M+03221MA1999999093121MD1999999+0161REMSYN082AAXX  16004 83182 32994 00911 10244 20169 39312 40124 333 10322 29060 55117 58016;EQDQ01  00002PRCP06
0186831820999992003111612004-11300-041867FM-12+074799999V0200901N008212200019N0100001N1+02831+01521101241ADDAA106000091GF103991031021999999001001KA1240N+01791MA1999999093151MD1999999-0021REMSYN076AAXX  16124 83182 32997 30916 10283 20152 39315 40124 83200 333 20179 59002;EQDQ01  00002PRCP06
0208831820999992003111700004-11300-041867FM-12+074799999V0200901N003112200019N0010001N1+02351+01841101071ADDAA106000091GA1001+999999999GF100991001001999999001001KA1240M+03201MA1999999092981MD1999999-0141REMSYN082AAXX  17004 83182 32994 00906 10235 20184 39298 40107 333 10320 29064 55110 59014;EQDQ01  00002PRCP06
0186831820999992003111712004-11300-041867FM-12+074799999V0201401N003110075019N0100001N1+02701+01831101261ADDAA106000091GF106991061021008001001001KA1240N+01971MA1999999093141MD1999999-0011REMSYN076AAXX  17124 83182 32597 61406 10270 20183 39314 40126 86200 333 20197 59001;EQDQ01  00002PRCP06
0208831820999992003111800004-11300-041867FM-12+074799999V0200901N004112200019N0010001N1+02471+01721101021ADDAA106000091GA1001+999999999GF100991001001999999001001KA1240M+03181MA1999999092941MD1999999-0041REMSYN082AAXX  18004 83182 32994 00908 10247 20172 39294 40102 333 10318 29062 55114 59004;EQDQ01  00002PRCP06
0186831820999992003111812004-11300-041867FM-12+074799999V0200901N004612200019N0100001N1+02781+01881101191ADDAA106000091GF104991041021008001001001KA1240N+01941MA1999999093091MD1999999-0051REMSYN076AAXX  18124 83182 32597 40909 10278 20188 39309 40119 84200 333 20194 59005;EQDQ01  00002PRCP06
0208831820999992003111900004-11300-041867FM-12+074799999V0200901N004112200019N0010001N1+02501+01671100861ADDAA106000091GA1001+999999999GF100991001001999999001001KA1240M+03261MA1999999092811MD1999999-0131REMSYN082AAXX  19004 83182 32994 00908 10250 20167 39281 40086 333 10326 29059 55110 59013;EQDQ01  00002PRCP06
0186831820999992003111912004-11300-041867FM-12+074799999V0200901N005119999999N0100001N1+02681+01611101041ADDAA106000091GF108991001001999999001011KA1240N+01811MA1999999092951MD1999999-0141REMSYN076AAXX  19124 83182 32997 80910 10268 20161 39295 40104 80001 333 20181 59014;EQDQ01  00002PRCP06
0198831820999992003112000004-11300-041867FM-12+074799999V0200901N003619999999N0010001N1+02571+01471100861ADDAA106000091GF108991001001999999001011KA1240M+03331MA1999999092811MD1999999+0001REMSYN088AAXX  20004 83182 32994 80907 10257 20147 39281 40086 80001 333 10333 29051 55112 58000;EQDQ01  00002PRCP06
0186831820999992003112012004-11300-041867FM-12+074799999V0200901N005119999999N0100001N1+02731+01651101141ADDAA106000091GF108991001001999999001011KA1240N+01841MA1999999093061MD1999999+0111REMSYN076AAXX  20124 83182 32997 80910 10273 20165 39306 40114 80001 333 20184 58011;EQDQ01  00002PRCP06
0198831820999992003112100004-11300-041867FM-12+074799999V0200901N004619999999N0010001N1+02541+01361101051ADDAA106000091GF108991001001999999001011KA1240M+03301MA1999999092981MD1999999-0171REMSYN088AAXX  21004 83182 32994 80909 10254 20136 39298 40105 80001 333 10330 29049 55116 59017;EQDQ01  00002PRCP06
0208831820999992003112200004-11300-041867FM-12+074799999V0200901N003612200019N0010001N1+02491+01381101121ADDAA106000091GA1001+999999999GF100991001001999999001001KA1240M+03301MA1999999093011MD1999999+0031REMSYN082AAXX  22004 83182 32994 00907 10249 20138 39301 40112 333 10330 29051 55118 58003;EQDQ01  00002PRCP06
0186831820999992003112212004-11300-041867FM-12+074799999V02099999999990075019N0100001N1+02551+01791101231ADDAA106000091GF106991061051008001001001KA1240N+01971MA1999999093101MD1999999+0151REMSYN076AAXX  22124 83182 32597 614// 10255 20179 39310 40123 86500 333 20197 58015;EQDQ01  00002PRCP06
0198831820999992003112300004-11300-041867FM-12+074799999V0200901N006012200019N0010001N1+02261+01751101091ADDAA106000091GF103991031051008001001001KA1240M+02841MA1999999092941MD1999999-0071REMSYN088AAXX  23001 83182 32594 30906 10226 20175 39294 40109 83500 333 10284 29070 55074 59007;EQDQ01  00002PRCP06
0186831820999992003112312004-11300-041867FM-12+074799999V0201401N006212200019N0100001N1+02701+01571101191ADDAA106000091GF106991021021008001001011KA1240N+01601MA1999999093061MD1999999-0041REMSYN076AAXX  23124 83182 32597 61412 10270 20157 39306 40119 82201 333 20160 59004;EQDQ01  00002PRCP06
0198831820999992003112400004-11300-041867FM-12+074799999V0200901N006219999999N0010001N1+02361+01761101001ADDAA106000091GF108991001001999999001011KA1240M+03131MA1999999092901MD1999999-0041REMSYN088AAXX  24004 83182 32994 80912 10236 20176 39290 40100 80001 333 10313 29063 55106 59004;EQDQ01  00002PRCP06
0186831820999992003112412004-11300-041867FM-12+074799999V0200901N005710450019N0100001N1+02501+01621101211ADDAA106000091GF106991041021008001041011KA1240N+01871MA1999999093061MD1999999+0001REMSYN076AAXX  24124 83182 32597 60911 10250 20162 39306 40121 84241 333 20187 58000;EQDQ01  00002PRCP06
0198831820999992003112500004-11300-041867FM-12+074799999V0200901N003112200019N0010001N1+02411+01581101071ADDAA106000091GF104991001001999999001011KA1240M+03081MA1999999092931MD1999999+0031REMSYN088AAXX  25004 83182 32994 40906 10241 20158 39293 40107 80001 333 10308 29059 55090 58003;EQDQ01  00002PRCP06
0186831820999992003112512004-11300-041867FM-12+074799999V0200901N004112200019N0100001N1+02751+01681101211ADDAA106000091GF108991041021008001001011KA1240N+01821MA1999999093111MD1999999+0051REMSYN076AAXX  25124 83182 32597 80908 10275 20168 39311 40121 84201 333 20182 58005;EQDQ01  00002PRCP06
0198831820999992003112600004-11300-041867FM-12+074799999V0200901N005119999999N0010001N1+02521+01661101081ADDAA106000091GF108991001001999999001011KA1240M+03241MA1999999093011MD1999999+0081REMSYN088AAXX  26004 83182 32994 80910 10252 20166 39301 40108 80001 333 10324 29057 55100 58008;EQDQ01  00002PRCP06
0186831820999992003112612004-11300-041867FM-12+074799999V0201401N004111050019N0100001N1+02611+01601101251ADDAA106000091GF108991011001017501031021KA1240N+01871MA1999999093131MD1999999+0021REMSYN076AAXX  26124 83182 32797 81408 10261 20160 39313 40125 81032 333 20187 58002;EQDQ01  00002PRCP06
0198831820999992003112700004-11300-041867FM-12+074799999V0201401N004119999999N0010001N1+02471+01671101141ADDAA106000091GF108991001001999999001011KA1240M+03281MA1999999093031MD1999999+0021REMSYN088AAXX  27004 83182 32994 81408 10247 20167 39303 40114 80001 333 10328 29059 55066 58002;EQDQ01  00002PRCP06
0186831820999992003112712004-11300-041867FM-12+074799999V0201401N005112200019N0100001N1+02661+01711101151ADDAA106000091GF106991011011012501001011KA1240N+01901MA1999999093941MD1999999-0071REMSYN076AAXX  27124 83182 32697 61410 10266 20171 39394 40115 81101 333 20190 59007;EQDQ01  00002PRCP06
0198831820999992003112800004-11300-041867FM-12+074799999V0200901N003619999999N0010001N1+02531+01591100881ADDAA106000091GF108991001001999999001011KA1240M+03281MA1999999092811MD1999999-0221REMSYN088AAXX  28004 83182 32994 80907 10253 20159 39281 40088 80001 333 10328 29056 55105 59022;EQDQ01  00002PRCP06
0186831820999992003112812004-11300-041867FM-12+074799999V0200901N004119999999N0100001N1+02721+01741100941ADDAA106000091GF108991011001008001041011KA1240N+01871MA1999999092881MD1999999-0161REMSYN076AAXX  28124 83182 32597 80908 10272 20174 39288 40094 81041 333 20187 59016;EQDQ01  00002PRCP06
0198831820999992003112900004-11300-041867FM-12+074799999V0200901N004119999999N0010001N1+02551+01461100641ADDAA106000091GF108991001001999999001011KA1240M+03391MA1999999092601MD1999999-0211REMSYN088AAXX  29004 83182 32994 80908 10255 20146 39260 40064 80001 333 10339 29053 55109 59021;EQDQ01  00002PRCP06
0186831820999992003112912004-11300-041867FM-12+074799999V0200901N004112200019N0100001N1+02681+01641100921ADDAA106000091GF108991031001017501041011KA1240N+01941MA1999999092851MD1999999-0031REMSYN076AAXX  29124 83182 32797 80908 10268 20164 39285 40092 83041 333 20194 59003;EQDQ01  00002PRCP06
0198831820999992003113000004-11300-041867FM-12+074799999V0200901N003112200019N0010001N1+02561+01441100771ADDAA106000091GF108991021001017501051011KA1240M+03261MA1999999092711MD1999999+0111REMSYN088AAXX  30004 83182 32794 80906 10256 20144 39271 40077 82051 333 10326 29051 55103 58011;EQDQ01  00002PRCP06
0186831820999992003113012004-11300-041867FM-12+074799999V0200901N005119999999N0100001N1+02741+01571100981ADDAA106000091GF108991001001999999001011KA1240N+02001MA1999999092921MD1999999+0071REMSYN076AAXX  30124 83182 32997 80910 10274 20157 39292 40098 80001 333 20200 58007;EQDQ01  00002PRCP06
0198831820999992003120100004-11300-041867FM-12+074799999V0200901N003619999999N0010001N1+02551+01521100851ADDAA106000091GF108991001001999999001011KA1240M+03321MA1999999092801MD1999999+0091REMSYN088AAXX  01004 83182 32994 80907 10255 20152 39280 40085 80001 333 10332 29052 55101 58009;EQDQ01  00002PRCP06
0186831820999992003120112004-11300-041867FM-12+074799999V0200901N005119999999N0100001N1+02701+01631101091ADDAA106000091GF108991001001999999001011KA1240N+01921MA1999999093001MD1999999+0081REMSYN076AAXX  01124 83182 32997 80910 10270 20163 39300 40109 80001 333 20192 58008;EQDQ01  00002PRCP06
0198831820999992003120200004-11300-041867FM-12+074799999V0200901N004119999999N0010001N1+02541+01451100851ADDAA106000091GF108991001001999999001011KA1240M+03251MA1999999092781MD1999999-0021REMSYN088AAXX  02004 83182 32994 80908 10254 20145 39278 40085 80001 333 10325 29051 55109 59002;EQDQ01  00002PRCP06
0186831820999992003120212004-11300-041867FM-12+074799999V0200901N003112200019N0100001N1+02841+01731100911ADDAA106000091GF101991011011012501001001KA1240N+01871MA1999999092871MD1999999-0131REMSYN076AAXX  02124 83182 32697 10906 10284 20173 39287 40091 81100 333 20187 59013;EQDQ01  00002PRCP06
0208831820999992003120300004-11300-041867FM-12+074799999V0200901N005712200019N0010001N1+02701+01601100681ADDAA106000091GA1001+999999999GF100991001001999999001001KA1240M+03431MA1999999092671MD1999999-0111REMSYN082AAXX  03004 83182 32994 00911 10270 20160 39267 40068 333 10343 29051 55108 59011;EQDQ01  00002PRCP06
0186831820999992003120312004-11300-041867FM-12+074799999V0200901N003112200019N0100001N1+02861+01651100941ADDAA106000091GF108991011021008001001011KA1240N+01951MA1999999092931MD1999999+0061REMSYN076AAXX  03124 83182 32597 80906 10286 20165 39293 40094 81201 333 20195 58006;EQDQ01  00002PRCP06
0198831820999992003120400004-11300-041867FM-12+074799999V0200901N003612200019N0010001N1+02501+01621100771ADDAA106000091GF108991011001017501051011KA1240M+03381MA1999999092741MD1999999+0071REMSYN088AAXX  04004 83182 32794 80907 10250 20162 39274 40077 81051 333 10338 29055 55097 58007;EQDQ01  00002PRCP06
0186831820999992003120412004-11300-041867FM-12+074799999V0200901N002112200019N0100001N1+02721+01791101101ADDAA106000091GF108991011021008001001011KA1240N+01901MA1999999093011MD1999999+0081REMSYN076AAXX  04124 83182 32597 80904 10272 20179 39301 40110 81201 333 20190 58008;EQDQ01  00002PRCP06
0198831820999992003120500004-11300-041867FM-12+074799999V0200901N005719999999N0010001N1+02591+01671100801ADDAA106000091GF108991001001999999001011KA1240M+03421MA1999999092751MD1999999+0011REMSYN088AAXX  05004 83182 32994 80911 10259 20167 39275 40080 80001 333 10342 29057 55108 58001;EQDQ01  00002PRCP06
0186831820999992003120512004-11300-041867FM-12+074799999V0200901N003112200019N0100001N1+02701+01661101091ADDAA106000091GF108991011021008001001011KA1240N+01871MA1999999093021MD1999999+0011REMSYN076AAXX  05124 83182 32597 80906 10270 20166 39302 40109 81201 333 20187 58001;EQDQ01  00002PRCP06
0198831820999992003120600004-11300-041867FM-12+074799999V0200901N004619999999N0010001N1+02631+01591100841ADDAA106000091GF108991001001999999001011KA1240M+03361MA1999999092751MD1999999-0041REMSYN088AAXX  06004 83182 32994 80909 10263 20159 39275 40084 80001 333 10336 29053 55114 59004;EQDQ01  00002PRCP06
0186831820999992003120612004-11300-041867FM-12+074799999V0200501N002110075019N0100001N1+02941+01731100931ADDAA106000091GF108991051021008001001011KA1240N+01871MA1999999092921MD1999999-0101REMSYN076AAXX  06124 83182 32597 80504 10294 20173 39292 40093 85201 333 20187 59010;EQDQ01  00002PRCP06
0198831820999992003120700004-11300-041867FM-12+074799999V0200901N003119999999N0010001N1+02781+01511100751ADDAA106000091GF108991001001999999001011KA1240M+03481MA1999999092771MD1999999+0021REMSYN088AAXX  07004 83182 32994 80906 10278 20151 39277 40075 80001 333 10348 29047 55115 58002;EQDQ01  00002PRCP06
0186831820999992003120712004-11300-041867FM-12+074799999V0200501N003612200019N0100001N1+02921+01671101161ADDAA106000091GF108991011021008001001011KA1240N+02101MA1999999093151MD1999999+0231REMSYN076AAXX  07124 83182 32597 80507 10292 20167 39315 40116 81201 333 20210 58023;EQDQ01  00002PRCP06
0198831820999992003120800004-11300-041867FM-12+074799999V0200901N005110450019N0010001N1+02751+01551100871ADDAA106000091GF108991011021008001041011KA1240M+03501MA1999999092881MD1999999+0111REMSYN088AAXX  08004 83182 32594 80910 10275 20155 39288 40087 81241 333 10350 29048 55090 58011;EQDQ01  00002PRCP06
0186831820999992003120812004-11300-041867FM-12+074799999V0200501N005110075019N0100001N1+02801+01781101211ADDAA106000091GF108991061021008001001011KA1240N+02041MA1999999093181MD1999999+0031REMSYN076AAXX  08124 83182 32597 80510 10280 20178 39318 40121 86201 333 20204 58003;EQDQ01  00002PRCP06
0198831820999992003120900004-11300-041867FM-12+074799999V0200901N004119999999N0010001N1+02601+01651101191ADDAA106000091GF108991001001999999001011KA1240M+03401MA1999999093131MD1999999+0251REMSYN088AAXX  09004 83182 32994 80908 10260 20165 39313 40119 80001 333 10340 29055 55103 58025;EQDQ01  00002PRCP06
0186831820999992003120912004-11300-041867FM-12+074799999V0200501N002110450019N0100001N1+02701+01601101341ADDAA106000091GF108991011021008001041011KA1240N+01941MA1999999093251MD1999999+0071REMSYN076AAXX  09124 83182 32597 80504 10270 20160 39325 40134 81241 333 20194 58007;EQDQ01  00002PRCP06
0208831820999992003121000004-11300-041867FM-12+074799999V0200901N004612200019N0010001N1+02781+01611101221ADDAA106000091GA1001+999999999GF100991001001999999001001KA1240M+03401MA1999999093171MD1999999+0041REMSYN082AAXX  10004 83182 32994 00909 10278 20161 39317 40122 333 10340 29050 55109 58004;EQDQ01  00002PRCP06
0186831820999992003121012004-11300-041867FM-12+074799999V0201401N004112200019N0100001N1+02691+01791101151ADDAA106000091GF102991021021008001001001KA1240N+01981MA1999999093111MD1999999-0141REMSYN076AAXX  10124 83182 32597 21408 10269 20179 39311 40115 82200 333 20198 59014;EQDQ01  00002PRCP06
0208831820999992003121100004-11300-041867FM-12+074799999V0200901N003112200019N0010001N1+02561+01441101061ADDAA106000091GA1001+999999999GF100991001001999999001001KA1240M+03321MA1999999092971MD1999999-0201REMSYN082AAXX  11004 83182 32994 00906 10256 20144 39297 40106 333 10332 29053 55117 59020;EQDQ01  00002PRCP06
0186831820999992003121112004-11300-041867FM-12+074799999V0201401N005712200019N0100001N1+02671+01501101341ADDAA106000091GF101991011001017501041001KA1240N+01781MA1999999093231MD1999999+0121REMSYN076AAXX  11124 83182 32797 11411 10267 20150 39323 40134 81040 333 20178 58012;EQDQ01  00002PRCP06
0198831820999992003121200004-11300-041867FM-12+074799999V0200901N003112200019N0010001N1+02601+01541101071ADDAA106000091GF108991011001017501041011KA1240M+03341MA1999999093001MD1999999+0031REMSYN088AAXX  12004 83182 32794 80906 10260 20154 39300 40107 81041 333 10334 29051 55106 58003;EQDQ01  00002PRCP06
0186831820999992003121212004-11300-041867FM-12+074799999V0200901N006219999999N0100001N1+02721+01591101421ADDAA106000091GF108991001001999999001011KA1240N+01931MA1999999093321MD1999999+0091REMSYN076AAXX  12124 83182 32997 80912 10272 20159 39332 40142 80001 333 20193 58009;EQDQ01  00002PRCP06
0198831820999992003121400004-11300-041867FM-12+074799999V0200901N004619999999N0010001N1+02551+01431100861ADDAA106000091GF108991001001999999001011KA1240M+03431MA1999999092791MD1999999-0051REMSYN088AAXX  14004 83182 32994 80909 10255 20143 39279 40086 80001 333 10343 29049 55117 59005;EQDQ01  00002PRCP06
0186831820999992003121412004-11300-041867FM-12+074799999V0200901N005110450019N0100001N1+02701+01601101231ADDAA106000091GF106991011021008001051001KA1240N+01861MA1999999093131MD1999999+0091REMSYN076AAXX  14124 83182 32597 60910 10270 20160 39313 40123 81250 333 20186 58009;EQDQ01  00002PRCP06
0198831820999992003121500004-11300-041867FM-12+074799999V02099999999999999999N0010001N1+02691+01461100971ADDAA106000091GF108991001001999999001011KA1240M+03401MA1999999092931MD1999999+0141REMSYN088AAXX  15004 83182 32994 809// 10269 20146 39293 40097 80001 333 10340 29048 55107 58014;EQDQ01  00002PRCP06
0186831820999992003121512004-11300-041867FM-12+074799999V0200901N005112200019N0100001N1+02771+01721101211ADDAA106000091GF104991041021008001001001KA1240N+01921MA1999999093161MD1999999+0031REMSYN076AAXX  15124 83182 32597 40910 10277 20172 39316 40121 84200 333 20192 58003;EQDQ01  00002PRCP06
0208831820999992003121600004-11300-041867FM-12+074799999V0200901N006712200019N0010001N1+02511+01851100951ADDAA106000091GA1001+999999999GF100991001001999999001001KA1240M+03401MA1999999092891MD1999999-0041REMSYN082AAXX  16004 83182 32994 00913 10251 20185 39289 40095 333 10340 29062 55108 59004;EQDQ01  00002PRCP06
0186831820999992003121612004-11300-041867FM-12+074799999V0200901N004110075019N0100001N1+02561+01731101261ADDAA106000091GF106991061051008001001001KA1240N+02031MA1999999093141MD1999999-0021REMSYN076AAXX  16124 83182 32597 60908 10256 20173 39314 40126 86500 333 20203 59002;EQDQ01  00002PRCP06
0226831820999992003121700004-11300-041867FM-12+074799999V0201401N004112200019N0010001N1+02601+01681101021ADDAA106000091AY111061AY211061GF102991011031017501041001KA1240M+03471MA1999999092941MD1999999+0051MW1131REMSYN094AAXX  17004 83182 31794 21408 10260 20168 39294 40102 71311 81340 333 10347 29058 55087 58005;EQDQ01  00002PRCP06
0186831820999992003121712004-11300-041867FM-12+074799999V0200901N002610450019N0100001N1+02731+01661101181ADDAA106000091GF108991021031008001041011KA1240N+02001MA1999999093101MD1999999-0041REMSYN076AAXX  17124 83182 32597 80905 10273 20166 39310 40118 82341 333 20200 59004;EQDQ01  00002PRCP06
0198831820999992003121800004-11300-041867FM-12+074799999V0200901N004110450019N0010001N1+02711+01381100951ADDAA106000091GF106991021021008001051011KA1240M+03401MA1999999092911MD1999999-0031REMSYN088AAXX  18004 83182 32594 60908 10271 20138 39291 40095 82251 333 10340 29047 55079 59003;EQDQ01  00002PRCP06
0186831820999992003121812004-11300-041867FM-12+074799999V0201401N004112200019N0100001N1+02631+01711101371ADDAA106000091GF105991021021008001001011KA1240N+01871MA1999999093271MD1999999+0171REMSYN076AAXX  18124 83182 32597 51408 10263 20171 39327 40137 82201 333 20187 58017;EQDQ01  00002PRCP06
0208831820999992003122000004-11300-041867FM-12+074799999V0201401N002612200019N0010001N1+02671+01631101281ADDAA106000091GA1001+999999999GF100991001001999999001001KA1240M+03321MA1999999093251MD1999999+0021REMSYN082AAXX  20004 83182 32994 01405 10267 20163 39325 40128 333 10332 29052 55088 58002;EQDQ01  00002PRCP06
0186831820999992003122012004-11300-041867FM-12+074799999V0200901N005112200019N0100001N1+02781+01611101401ADDAA106000091GF101991011021008001001001KA1240N+01901MA1999999093321MD1999999-0011REMSYN076AAXX  20124 83182 32597 10910 10278 20161 39332 40140 81200 333 20190 59001;EQDQ01  00002PRCP06
0208831820999992003122100004-11300-041867FM-12+074799999V0200901N005112200019N0010001N1+02641+01661101151ADDAA106000091GA1001+999999999GF100991001001999999001001KA1240M+03301MA1999999093091MD1999999-0121REMSYN082AAXX  21004 83182 32994 00910 10264 20166 39309 40115 333 10330 29053 55118 59012;EQDQ01  00002PRCP06
0186831820999992003122112004-11300-041867FM-12+074799999V0201401N003612200019N0100001N1+02781+01551101301ADDAA106000091GF102991011021008001041001KA1240N+01871MA1999999093231MD1999999+0081REMSYN076AAXX  21124 83182 32597 21407 10278 20155 39323 40130 81240 333 20187 58008;EQDQ01  00002PRCP06
0198831820999992003122200004-11300-041867FM-12+074799999V0200901N005112200019N0010001N1+02821+01371100991ADDAA106000091GF103991011021008001041001KA1240M+03541MA1999999092981MD1999999-0111REMSYN088AAXX  22004 83182 32594 30910 10282 20137 39298 40099 81240 333 10354 29041 55109 59011;EQDQ01  00002PRCP06
0186831820999992003122212004-11300-041867FM-12+074799999V0200901N001510450019N0100001N1+02781+01731101111ADDAA106000091GF108991011021008001051011KA1240N+01951MA1999999093081MD1999999+0151REMSYN076AAXX  22124 83182 32597 80903 10278 20173 39308 40111 81251 333 20195 58015;EQDQ01  00002PRCP06
0202831820999992003122300004-11300-041867FM-12+074799999V0203601N005710450019N0010001N1+02441+01811100971ADDAY161061AY221061GF108991021031008001061011KA1240M+03461MA1999999092891MD1999999-0091MW1131REMSYN100AAXX  23004 83182 21594 83611 10244 20181 39289 40097 71362 82361 333 10346 29063 55086 59009 60021;
0160831820999992003122312004-11300-041867FM-12+074799999V0200901N004119999999N0100001N1+02801+01581101071ADDGF108991999999008001999999KA1240N+02041MA1999999092981MD1999999-0101REMSYN080AAXX  23124 83182 22597 80908 10280 20158 39298 40107 201 333 20204 59010 60024;
0226831820999992003122400004-11300-041867FM-12+074799999V0200901N003112200019N0010001N1+02781+01611100721ADDAA106000091AY121061AY221061GF108991021001017501051011KA1240M+03401MA1999999092731MD1999999-0161MW1131REMSYN094AAXX  24004 83182 31794 80906 10278 20161 39273 40072 71322 82051 333 10340 29051 55079 59016;EQDQ01  00002PRCP06
0186831820999992003122412004-11300-041867FM-12+074799999V0200501N005110075019N0100001N1+02501+01841101191ADDAA106000091GF108991081051008001999999KA1240N+02131MA1999999093111MD1999999+0131REMSYN076AAXX  24124 83182 32597 80510 10250 20184 39311 40119 885// 333 20213 58013;EQDQ01  00002PRCP06
0226831820999992003122500004-11300-041867FM-12+074799999V02099999999999999999N0010001N1+02441+01641101101ADDAA106000091AY121061AY221061GF108991001001999999001011KA1240M+03271MA1999999092961MD1999999+0231MW1131REMSYN094AAXX  25004 83182 31994 814// 10244 20164 39296 40110 71322 80001 333 10327 29063 55064 58023;EQDQ01  00002PRCP06
0186831820999992003122512004-11300-041867FM-12+074799999V0200901N004112200019N0100001N1+02621+01501101251ADDAA106000091GF108991011001017501041011KA1240N+01921MA1999999093131MD1999999+0021REMSYN076AAXX  25124 83182 32797 80908 10262 20150 39313 40125 81041 333 20192 58002;EQDQ01  00002PRCP06
0186831820999992003122612004-11300-041867FM-12+074799999V0200901N005712200019N0100001N1+02661+01621101091ADDAA106000091GF104991041021008001001001KA1240N+01981MA1999999093041MD1999999-0091REMSYN076AAXX  26124 83182 32597 40911 10266 20162 39304 40109 84200 333 20198 59009;EQDQ01  00002PRCP06
0208831820999992003122700004-11300-041867FM-12+074799999V0200901N005112200019N0010001N1+02671+01541100861ADDAA106000091GA1001+999999999GF100991001001999999001001KA1240M+03341MA1999999092811MD1999999-0151REMSYN082AAXX  27004 83182 32994 00910 10267 20154 39281 40086 333 10334 29049 55115 59015;EQDQ01  00002PRCP06
0186831820999992003122712004-11300-041867FM-12+074799999V0201401N004610450019N0100001N1+02651+01551100981ADDAA106000091GF108991011021008001051021KA1240N+01901MA1999999092921MD1999999-0121REMSYN076AAXX  27124 83182 32597 81409 10265 20155 39292 40098 81252 333 20190 59012;EQDQ01  00002PRCP06
0198831820999992003122800004-11300-041867FM-12+074799999V0200901N003110450019N0100001N1+02631+01361100821ADDAA106000091GF108991041051008001061021KA1240M+03101MA1999999092771MD1999999-0041REMSYN088AAXX  28004 83182 32597 80906 10263 20136 39277 40082 84562 333 10310 29048 55017 59004;EQDQ01  00002PRCP06
0186831820999992003122812004-11300-041867FM-12+074799999V0201401N005110450019N0100001N1+02501+01641100981ADDAA106000091GF108991021021008001041021KA1240N+01921MA1999999092881MD1999999-0041REMSYN076AAXX  28124 83182 32597 81410 10250 20164 39288 40098 82242 333 20192 59004;EQDQ01  00002PRCP06
0198831820999992003122900004-11300-041867FM-12+074799999V0200901N003111050019N0010001N1+02721+01521100821ADDAA106000091GF108991021001017501051021KA1240M+03181MA1999999092751MD1999999-0021REMSYN088AAXX  29004 83182 32794 80906 10272 20152 39275 40082 82052 333 10318 29052 55065 59002;EQDQ01  00002PRCP06
0190831820999992003122912004-11300-041867FM-12+074799999V0200901N004110042019N0020001N1+02011+01911101321ADDAY161061AY221061GF108991061071004501021999KA1240N+01841MA1999999093131MD1999999+0251MW1611REMSYN088AAXX  29124 83182 21495 80908 10201 20191 39313 40132 76162 8672/ 333 20184 58025 60214;
0174831820999992003123000004-11300-041867FM-12+074799999V0200901N003110450019N0010001N1+02231+01931101221ADDGF108991041051008001051021KA1240M+02421MA1999999092951MD1999999+0201REMSYN094AAXX  30004 83182 22594 80906 10223 20193 39295 40122 84552 333 10242 29087 55000 58020 60091;
0162831820999992003123012004-11300-041867FM-12+074799999V0201401N005110450019N0100001N1+02401+01771101351ADDGF108991011021008001041021KA1240N+01921MA1999999093141MD1999999+0011REMSYN082AAXX  30124 83182 22597 81410 10240 20177 39314 40135 81242 333 20192 58001 60094;
0198831820999992003123100004-11300-041867FM-12+074799999V0201401N002610450019N0010001N1+02431+01751101201ADDAA106000091GF108991021051008001051011KA1240M+03001MA1999999093041MD1999999-0091REMSYN088AAXX  31004 83182 32594 81405 10243 20175 39304 40120 82551 333 10300 29067 55011 59009;EQDQ01  00002PRCP06
0186831820999992003123112004-11300-041867FM-12+074799999V0201401N005112200019N0100001N1+02641+01691101181ADDAA106000091GF102991011001017501041021KA1240N+01931MA1999999093061MD1999999-0081REMSYN076AAXX  31124 83182 32797 21410 10264 20169 39306 40118 81042 333 20193 59008;EQDQ01  00002PRCP06
