0190832360999992003010112004-12150-045000FM-12+044099999V0209999C000010075019N0100001N1+02461+02251101301ADDAY161061AY261061GF107991051071008001041001KA1240N+02161MA1999999096401MD1999999-0141MW1021REMSYN088AAXX  01124 83236 21597 70000 10246 20225 39640 40130 70266 85740 333 20216 59014 60044;
0171832360999992003010118004-12150-045000FM-12+044099999V0201801N001010450019N0100001N1+02551+02311100981ADDAY161061AY261061GF108991041071008001011999MA1999999096101MD1999999+0051MW1021REMSYN082AAXX  01184 83236 21597 81802 10255 20231 39610 40098 70266 8471/ 333 58005 60071;
0198832360999992003010200004-12150-045000FM-12+044099999V0201801N001012200019N0100001N1+02401+02371101201ADDAA106000091GF104991041071008001001001KA1240M+02781MA1999999096311MD1999999+0071REMSYN088AAXX  02004 83236 32597 41802 10240 20237 39631 40120 84700 333 10278 29093 55000 58007;EQDQ01  00002PRCP06
0162832360999992003010212004-12150-045000FM-12+044099999V0203601N001012200019N0100001N1+02481+02271101231ADDGF104991031021008001041001KA1240N+02181MA1999999096341MD1999999-0061REMSYN082AAXX  02124 83236 22597 43602 10248 20227 39634 40123 83240 333 20218 59006 60074;
0167832360999992003010218004-12150-045000FM-12+044099999V0203201N004610450019N0100001N1+03021+02261100671ADDAA106000091GF107991031021008001021041MA1999999095841MD1999999-0261REMSYN070AAXX  02184 83236 32597 73209 10302 20226 39584 40067 83224 333 59026;EQDQ01  00002PRCP06
0202832360999992003010300004-12150-045000FM-12+044099999V0209999C000010450019N0020001N1+02251+02161101081ADDAY191061AY261061GF106991031071004501021001KA1240M+03251MA1999999096171MD1999999-0141MW1131REMSYN100AAXX  03004 83236 21495 60000 10225 20216 39617 40108 71396 83720 333 10325 29086 55076 59014 60031;
0190832360999992003010312004-12150-045000FM-12+044099999V0202701N000510450019N0040001N1+02331+02271101221ADDAY161061AY261061GF107991031021008001071001KA1240N+02151MA1999999096301MD1999999-0041MW1471REMSYN088AAXX  03124 83236 21596 72701 10233 20227 39630 40122 74766 83270 333 20215 59004 60094;
0171832360999992003010318004-12150-045000FM-12+044099999V0209999C000010450019N0100001N1+02611+02371100801ADDAY191061AY261061GF107991041031008001041031MA1999999095931MD1999999+0091MW1171REMSYN082AAXX  03184 83236 21597 70000 10261 20237 39593 40080 71796 84343 333 58009 60071;
0198832360999992003010400004-12150-045000FM-12+044099999V0201801N001010210019N0100001N1+02421+02391101031ADDAA106000091GF108991081001022501021999KA1240M+03101MA1999999096141MD1999999-0031REMSYN088AAXX  04004 83236 32897 81802 10242 20239 39614 40103 8802/ 333 10310 29095 55018 59003;EQDQ01  00002PRCP06
0190832360999992003010412004-12150-045000FM-12+044099999V0209999C000010450019N0100001N1+02741+02431101201ADDAY151061AY251061GF106991041021008001061051KA1240N+02231MA1999999096341MD1999999+0041MW1031REMSYN088AAXX  04124 83236 21597 60000 10274 20243 39634 40120 70355 84265 333 20223 58004 60074;
0167832360999992003010418004-12150-045000FM-12+044099999V0200501N001510075019N0100001N1+03121+02221100711ADDAA106000091GF108991051041008001071999MA1999999095981MD1999999-0041REMSYN070AAXX  04184 83236 32597 80503 10312 20222 39598 40071 8547/ 333 59004;EQDQ01  00002PRCP06
0226832360999992003010500004-12150-045000FM-12+044099999V0202301N001010075019N0100001N1+02531+02271100971ADDAA106000091AY121061AY221061GF108991061051008001061999KA1240M+03251MA1999999096131MD1999999-0011MW1131REMSYN094AAXX  05004 83236 31597 82302 10253 20227 39613 40097 71322 8656/ 333 10325 29079 55069 59001;EQDQ01  00002PRCP06
0190832360999992003010512004-12150-045000FM-12+044099999V0201401N002110075019N0100001N1+02481+02131101181ADDAY161061AY251061GF107991051021008001061071KA1240N+02071MA1999999096301MD1999999-0041MW1021REMSYN088AAXX  05124 83236 21597 71404 10248 20213 39630 40118 70265 85267 333 20207 59004 60154;
0195832360999992003010518004-12150-045000FM-12+044099999V0202301N002110450019N0100001N1+02691+02331100841ADDAA106000091AY191061AY291061GF106991041051008001061051MA1999999095981MD1999999+0091MW1151REMSYN076AAXX  05184 83236 31597 62304 10269 20233 39598 40084 71599 84565 333 58009;EQDQ01  00002PRCP06
0202832360999992003010600004-12150-045000FM-12+044099999V0202301N001010075019N0040001N1+02331+02271101221ADDAY151061AY251061GF108991061051008001041999KA1240M+03141MA1999999096311MD1999999+0181MW1131REMSYN100AAXX  06004 83236 21596 82302 10233 20227 39631 40122 71355 8654/ 333 10314 29089 55037 58018 69951;
0162832360999992003010612004-12150-045000FM-12+044099999V0209999C000010075019N0100001N1+02471+02281101291ADDGF108991071071008001021999KA1240N+02261MA1999999096381MD1999999+0081REMSYN082AAXX  06124 83236 22597 80000 10247 20228 39638 40129 8772/ 333 20226 58008 69964;
0195832360999992003010618004-12150-045000FM-12+044099999V0200501N003110075019N0100001N1+03021+02411100651ADDAA106000091AY121061AY221061GF108991061051008001041999MA1999999095821MD1999999-0161MW1151REMSYN076AAXX  06184 83236 31597 80506 10302 20241 39582 40065 71522 8654/ 333 59016;EQDQ01  00002PRCP06
0202832360999992003010700004-12150-045000FM-12+044099999V0200501N003110075019N0040001N1+02581+02171100991ADDAY161061AY251061GF108991071051008001021999KA1240M+03301MA1999999096121MD1999999-0191MW1131REMSYN100AAXX  07004 83236 21596 80506 10258 20217 39612 40099 71365 8752/ 333 10330 29079 55031 59019 60011;
0162832360999992003010712004-12150-045000FM-12+044099999V0200501N001010075019N0200001N1+02651+02331101081ADDGF106991051021008001071051KA1240N+02411MA1999999096221MD1999999-0161REMSYN082AAXX  07124 83236 22598 60502 10265 20233 39622 40108 85275 333 20241 59016 60014;
0195832360999992003010718004-12150-045000FM-12+044099999V0202301N003610075019N0200001N1+03011+02271100661ADDAA106000091AY121061AY221061GF108991061051008001071999MA1999999095841MD1999999+0021MW1151REMSYN076AAXX  07184 83236 31598 82307 10301 20227 39584 40066 71522 8657/ 333 58002;EQDQ01  00002PRCP06
0226832360999992003010800004-12150-045000FM-12+044099999V0209999C000012200019N0200001N1+02561+02401100931ADDAA106000091AY121061AY221061GF103991031051008001001001KA1240M+03321MA1999999096081MD1999999-0041MW1131REMSYN094AAXX  08004 83236 31598 30000 10256 20240 39608 40093 71322 83500 333 10332 29082 55048 59004;EQDQ01  00002PRCP06
0167832360999992003010818004-12150-045000FM-12+044099999V0203601N003110450019N0200001N1+03201+02061100721ADDAA106000091GF106991041041008001061041MA1999999095981MD1999999+0141REMSYN070AAXX  08184 83236 32598 63606 10320 20206 39598 40072 84464 333 58014;EQDQ01  00002PRCP06
0198832360999992003010900004-12150-045000FM-12+044099999V0209999C000011050019N0200001N1+02631+02411101141ADDAA106000091GF105991021021012501001071KA1240M+03391MA1999999096281MD1999999+0201REMSYN088AAXX  09004 83236 32698 50000 10263 20241 39628 40114 82207 333 10339 29078 55061 58020;EQDQ01  00002PRCP06
0190832360999992003010912004-12150-045000FM-12+044099999V0202301N001010450019N0200001N1+02591+02231102171ADDAY161061AY261061GF106991041011008001051071KA1240N+02181MA1999999096471MD1999999+0181MW1021REMSYN088AAXX  09124 83236 21598 62302 10259 20223 39647 40217 70266 84157 333 20218 58018 60164;
0183832360999992003010918004-12150-045000FM-12+044099999V0200501N003112200019N0200001N1+03201+02241100972ADDAA106000091GF103991031021008001001001MA1999999096141MD1999999+0161REMSYN070AAXX  09184 83236 32598 30506 10320 20224 39614 40097 83200 333 58016;EQDQ01+100973APOSLPQ02  00002PRCP06
0226832360999992003011000004-12150-045000FM-12+044099999V0202301N001012200019N0200001N1+02381+02331100941ADDAA106000091AY121061AY221061GF103991031051008001001001KA1240M+03281MA1999999096351MD1999999+0071MW1131REMSYN094AAXX  10004 83236 31598 32302 10238 20233 39635 40094 71322 83500 333 10328 29083 55085 58007;EQDQ01  00002PRCP06
0190832360999992003011012004-12150-045000FM-12+044099999V0209999C000011050019N0200001N1+02741+02281101341ADDAY151061AY251061GF105991021021012501001051KA1240N+02211MA1999999096461MD1999999-0011MW1021REMSYN088AAXX  10124 83236 21698 50000 10274 20228 39646 40134 70255 82205 333 20221 59001 69914;
0167832360999992003011018004-12150-045000FM-12+044099999V0203601N003112200019N0200001N1+03211+01991100791ADDAA106000091GF104991021021012501001041MA1999999095971MD1999999-0171REMSYN070AAXX  10184 83236 32698 43606 10321 20199 39597 40079 82204 333 59017;EQDQ01  00002PRCP06
0198832360999992003011100004-12150-045000FM-12+044099999V0201801N001012200019N0200001N1+02571+02211101001ADDAA106000091GF104991021021012501001031KA1240M+03321MA1999999096151MD1999999-0201REMSYN088AAXX  11004 83236 32698 41802 10257 20221 39615 40100 82203 333 10332 29072 55111 59020;EQDQ01  00002PRCP06
0186832360999992003011112004-12150-045000FM-12+044099999V0209999C000011050019N0200001N1+02621+02141101251ADDAA106000091GF106991021021012501051031KA1240N+02011MA1999999096381MD1999999-0081REMSYN076AAXX  11124 83236 32698 60000 10262 20214 39638 40125 82253 333 20201 59008;EQDQ01  00002PRCP06
0167832360999992003011118004-12150-045000FM-12+044099999V0200501N001510450019N0200001N1+03301+01871100811ADDAA106000091GF106991041021008001041071MA1999999095981MD1999999+0011REMSYN070AAXX  11184 83236 32598 60503 10330 20187 39598 40081 84247 333 58001;EQDQ01  00002PRCP06
0198832360999992003011200004-12150-045000FM-12+044099999V0202301N001019999999N0200001N1+02561+02311100891ADDAA106000091GF105991001001999999001071KA1240M+03471MA1999999096041MD1999999-0111REMSYN088AAXX  12004 83236 32998 52302 10256 20231 39604 40089 80007 333 10347 29073 55111 59011;EQDQ01  00002PRCP06
0186832360999992003011212004-12150-045000FM-12+044099999V0202701N001512200019N0200001N1+02631+02071101231ADDAA106000091GF104991021011012501061051KA1240N+02081MA1999999096361MD1999999-0021REMSYN076AAXX  12124 83236 32698 42703 10263 20207 39636 40123 82165 333 20208 59002;EQDQ01  00002PRCP06
0167832360999992003011218004-12150-045000FM-12+044099999V0202301N001010450019N0200001N1+03341+01911100651ADDAA106000091GF106991041021008001071051MA1999999095841MD1999999-0141REMSYN070AAXX  12184 83236 32598 62302 10334 20191 39584 40065 84275 333 59014;EQDQ01  00002PRCP06
0226832360999992003011300004-12150-045000FM-12+044099999V0203601N002110075019N0200001N1+02631+02101101041ADDAA106000091AY121061AY221061GF108991061051008001071999KA1240M+03471MA1999999096181MD1999999+0141MW1151REMSYN094AAXX  13004 83236 31598 83604 10263 20210 39618 40104 71522 8657/ 333 10347 29065 55112 58014;EQDQ01  00002PRCP06
0214832360999992003011312004-12150-045000FM-12+044099999V0203601N001510450019N0200001N1+02581+02211101171ADDAA106000091AY121061AY221061GF107991041051008001071051KA1240N+02291MA1999999096311MD1999999-0051MW1151REMSYN082AAXX  13124 83236 31598 73603 10258 20221 39631 40117 71522 84575 333 20229 59005;EQDQ01  00002PRCP06
0171832360999992003011318004-12150-045000FM-12+044099999V0203201N001010075019N0100001N1+02411+02311100901ADDAY161061AY251061GF108991061051008001041999MA1999999096001MD1999999+0161MW1151REMSYN082AAXX  13184 83236 21597 83202 10241 20231 39600 40090 71565 8654/ 333 58016 60031;
0198832360999992003011400004-12150-045000FM-12+044099999V0202301N001010075019N0100001N1+02361+02331100981ADDAA106000091GF108991061021008001061999KA1240M+03011MA1999999096101MD1999999-0081REMSYN088AAXX  14004 83236 32597 82302 10236 20233 39610 40098 8626/ 333 10301 29093 55017 59008;EQDQ01  00002PRCP06
0162832360999992003011412004-12150-045000FM-12+044099999V0209999C000010075019N0200001N1+02541+02271101181ADDGF108991071021008001061999KA1240N+02301MA1999999096291MD1999999-0021REMSYN082AAXX  14124 83236 22598 80000 10254 20227 39629 40118 8726/ 333 20230 59002 60034;
0195832360999992003011418004-12150-045000FM-12+044099999V0202301N002110075019N0100001N1+02551+02271100891ADDAA106000091AY121061AY221061GF108991061051008001071999MA1999999096001MD1999999+0001MW1151REMSYN076AAXX  14184 83236 31597 82304 10255 20227 39600 40089 71522 8657/ 333 58000;EQDQ01  00002PRCP06
0226832360999992003011500004-12150-045000FM-12+044099999V0209999C000010450019N0200001N1+02321+02241101131ADDAA106000091AY121061AY221061GF106991041051008001061071KA1240M+03111MA1999999096241MD1999999+0141MW1131REMSYN094AAXX  15004 83236 31598 60000 10232 20224 39624 40113 71322 84567 333 10311 29090 55026 58014;EQDQ01  00002PRCP06
0190832360999992003011512004-12150-045000FM-12+044099999V0209999C000010075019N0100001N1+02421+02211101321ADDAY161061AY251061GF108991071021008001061999KA1240N+02111MA1999999096401MD1999999+0111MW1031REMSYN088AAXX  15124 83236 21597 80000 10242 20221 39640 40132 70365 8726/ 333 20211 58011 60194;
0171832360999992003011518004-12150-045000FM-12+044099999V0201401N001510075019N0100001N1+02531+02231101081ADDAY161061AY261061GF108991061071008001051999MA1999999096161MD1999999+0161MW1031REMSYN082AAXX  15184 83236 21597 81403 10253 20223 39616 40108 70366 8675/ 333 58016 60011;
0198832360999992003011600004-12150-045000FM-12+044099999V0209999C000010075019N0200001N1+02321+02241101301ADDAA106000091GF108991071021008001061999KA1240M+02901MA1999999096381MD1999999+0141REMSYN088AAXX  16004 83236 32598 80000 10232 20224 39638 40130 8726/ 333 10290 29090 55019 58014;EQDQ01  00002PRCP06
0162832360999992003011612004-12150-045000FM-12+044099999V0202301N001010075019N0200001N1+02421+02301101361ADDGF107991051021008001061051KA1240N+02151MA1999999096441MD1999999+0041REMSYN082AAXX  16124 83236 22598 72302 10242 20230 39644 40136 85265 333 20215 58004 60014;
0195832360999992003011618004-12150-045000FM-12+044099999V0200501N001510450019N0200001N1+03151+02301100961ADDAA106000091AY121061AY221061GF107991041051008001071041MA1999999096121MD1999999-0041MW1151REMSYN076AAXX  16184 83236 31598 70503 10315 20230 39612 40096 71522 84574 333 59004;EQDQ01  00002PRCP06
0198832360999992003011700004-12150-045000FM-12+044099999V0200901N001510075019N0100001N1+02541+02231101001ADDAA106000091GF108991051021008001061071KA1240M+03241MA1999999096221MD1999999-0161REMSYN088AAXX  17004 83236 32597 80903 10254 20223 39622 40100 85267 333 10324 29080 55066 59016;EQDQ01  00002PRCP06
0186832360999992003011712004-12150-045000FM-12+044099999V0209999C000010450019N0200001N1+02591+02271101261ADDAA106000091GF107991041021008001051071KA1240N+02171MA1999999096381MD1999999-0061REMSYN076AAXX  17124 83236 32598 70000 10259 20227 39638 40126 84257 333 20217 59006;EQDQ01  00002PRCP06
0167832360999992003011718004-12150-045000FM-12+044099999V0200501N002110075019N0200001N1+03061+02141100861ADDAA106000091GF108991071021008001071999MA1999999096021MD1999999-0101REMSYN070AAXX  17184 83236 32598 80504 10306 20214 39602 40086 8727/ 333 59010;EQDQ01  00002PRCP06
0226832360999992003011800004-12150-045000FM-12+044099999V0209999C000010075019N0200001N1+02551+02251101171ADDAA106000091AY121061AY221061GF108991061051008001071999KA1240M+03221MA1999999096301MD1999999+0081MW1131REMSYN094AAXX  18004 83236 31598 80000 10255 20225 39630 40117 71322 8657/ 333 10322 29077 55065 58008;EQDQ01  00002PRCP06
0190832360999992003011812004-12150-045000FM-12+044099999V0209999C000010075019N0100001N1+02341+02181101301ADDAY161061AY261061GF108991051021008001061051KA1240N+02071MA1999999096401MD1999999+0021MW1031REMSYN088AAXX  18124 83236 21597 80000 10234 20218 39640 40130 70366 85265 333 20207 58002 60044;
0195832360999992003011818004-12150-045000FM-12+044099999V0201401N002610075019N0100001N1+03001+02371100871ADDAA106000091AY121061AY221061GF108991071051008001071999MA1999999096001MD1999999-0021MW1151REMSYN076AAXX  18184 83236 31597 81405 10300 20237 39600 40087 71522 8757/ 333 59002;EQDQ01  00002PRCP06
0202832360999992003011900004-12150-045000FM-12+044099999V0201801N001010450019N0200001N1+02291+02201101171ADDAY191061AY261061GF106991041051008001061071KA1240M+03241MA1999999096251MD1999999-0051MW1131REMSYN100AAXX  19004 83236 21598 61802 10229 20220 39625 40117 71396 84567 333 10324 29088 55030 59005 60021;
0190832360999992003011912004-12150-045000FM-12+044099999V0202701N001010450019N0100001N1+02201+02031101561ADDAY161061AY261061GF108991031071008001011999KA1240N+02011MA1999999096581MD1999999+0181MW1021REMSYN088AAXX  19124 83236 21597 82702 10220 20203 39658 40156 70266 8371/ 333 20201 58018 60074;
0167832360999992003011918004-12150-045000FM-12+044099999V0201801N001510450019N0100001N1+02741+02141101091ADDAA106000091GF107991031021008001031081MA1999999096191MD1999999+0191REMSYN070AAXX  19184 83236 32597 71803 10274 20214 39619 40109 83238 333 58019;EQDQ01  00002PRCP06
0198832360999992003012000004-12150-045000FM-12+044099999V0200501N006210450019N0100001N1+02321+02051101391ADDAA106000091GF107991041071008001021001KA1240M+02851MA1999999096451MD1999999+0201REMSYN088AAXX  20004 83236 32597 70512 10232 20205 39645 40139 84720 333 10285 29083 55001 58020;EQDQ01  00002PRCP06
0186832360999992003012012004-12150-045000FM-12+044099999V0203601N001512200019N0100001N1+02521+02091101301ADDAA106000091GF104991011011008001031001KA1240N+02081MA1999999096391MD1999999-0191REMSYN076AAXX  20124 83236 32597 43603 10252 20209 39639 40130 81130 333 20208 59019;EQDQ01  00002PRCP06
0195832360999992003012018004-12150-045000FM-12+044099999V0200501N003110450019N0100001N1+02961+02211100791ADDAA106000091AY101061AY221061GF105991041031008001041001MA1999999095941MD1999999-0251MW1151REMSYN076AAXX  20184 83236 31597 50506 10296 20221 39594 40079 71502 84340 333 59025;EQDQ01  00002PRCP06
0202832360999992003012100004-12150-045000FM-12+044099999V0201801N001010450019N0040001N1+02131+02101101181ADDAY191061AY261061GF108991021071008001021999KA1240M+03051MA1999999096261MD1999999-0091MW1501REMSYN100AAXX  21004 83236 21596 81802 10213 20210 39626 40118 75096 8272/ 333 10305 29085 55088 59009 60231;
0190832360999992003012112004-12150-045000FM-12+044099999V0209999C000010450019N0100001N1+02431+02171101141ADDAY161061AY261061GF108991031071008001011999KA1240N+02091MA1999999096221MD1999999-0171MW1021REMSYN088AAXX  21124 83236 21597 80000 10243 20217 39622 40114 70266 8371/ 333 20209 59017 60334;
0171832360999992003012118004-12150-045000FM-12+044099999V0200901N001010075019N0020001N1+02151+02131101041ADDAY161061AY261061GF108991081001008001021999MA1999999096081MD1999999+0141MW1501REMSYN082AAXX  21184 83236 21595 80902 10215 20213 39608 40104 75066 8802/ 333 58014 60061;
0202832360999992003012200004-12150-045000FM-12+044099999V0209999C000010210019N0020001N1+02161+02141100191ADDAY151061AY251061GF108991081001022501021999KA1240M+02931MA1999999096271MD1999999+0011MW1511REMSYN100AAXX  22004 83236 21895 80000 10216 20214 39627 40019 75155 8802/ 333 10293 29096 55014 58001 60051;
0190832360999992003012212004-12150-045000FM-12+044099999V0203201N000510450019N0020001N1+02421+02151101291ADDAY151061AY251061GF107991041021008001061001KA1240N+02081MA1999999096361MD1999999+0141MW1021REMSYN088AAXX  22124 83236 21595 73201 10242 20215 39636 40129 70255 84260 333 20208 58014 60144;
0195832360999992003012218004-12150-045000FM-12+044099999V0200501N004610450019N0100001N1+02361+02111101051ADDAA106000091AY101061AY221061GF108991041071008001021999MA1999999096111MD1999999+0031MW1151REMSYN076AAXX  22184 83236 31597 80509 10236 20211 39611 40105 71502 8472/ 333 58003;EQDQ01  00002PRCP06
0202832360999992003012300004-12150-045000FM-12+044099999V0203601N001010450019N0020001N1+02141+02071101211ADDAY161061AY261061GF108991031071008001021999KA1240M+02891MA1999999096291MD1999999+0021MW1421REMSYN100AAXX  23004 83236 21595 83602 10214 20207 39629 40121 74266 8372/ 333 10289 29091 55021 58002 60011;
0162832360999992003012312004-12150-045000FM-12+044099999V0202301N000510450019N0100001N1+02291+02111101541ADDGF107991031021008001031041KA1240N+02011MA1999999096581MD1999999+0221REMSYN082AAXX  23124 83236 22597 72301 10229 20211 39658 40154 83234 333 20201 58022 60014;
0167832360999992003012318004-12150-045000FM-12+044099999V0203601N005111050019N0200001N1+02911+02171101121ADDAA106000091GF106991021021008001031041MA1999999096241MD1999999+0131REMSYN070AAXX  23184 83236 32598 63610 10291 20217 39624 40112 82234 333 58013;EQDQ01  00002PRCP06
0198832360999992003012400004-12150-045000FM-12+044099999V0201801N001012200019N0100001N1+02331+02071101331ADDAA106000091GF103991031041008001001001KA1240M+03031MA1999999096401MD1999999+0111REMSYN088AAXX  24004 83236 32597 31802 10233 20207 39640 40133 83400 333 10303 29082 55081 58011;EQDQ01  00002PRCP06
0186832360999992003012412004-12150-045000FM-12+044099999V0203601N001012200019N0200001N1+02501+02111101501ADDAA106000091GF103991021021008001031001KA1240N+01941MA1999999096581MD1999999+0001REMSYN076AAXX  24124 83236 32598 33602 10250 20211 39658 40150 82230 333 20194 58000;EQDQ01  00002PRCP06
0167832360999992003012418004-12150-045000FM-12+044099999V0203601N002112200019N0200001N1+03031+02161100981ADDAA106000091GF103991031021008001001001MA1999999096121MD1999999-0121REMSYN070AAXX  24184 83236 32598 33604 10303 20216 39612 40098 83200 333 59012;EQDQ01  00002PRCP06
0198832360999992003012500004-12150-045000FM-12+044099999V0201801N001012200019N0200001N1+02441+02251101111ADDAA106000091GF102991021041999999001001KA1240M+03131MA1999999096221MD1999999-0181REMSYN088AAXX  25004 83236 32998 21802 10244 20225 39622 40111 82400 333 10313 29079 55110 59018;EQDQ01  00002PRCP06
0186832360999992003012512004-12150-045000FM-12+044099999V0209999C000012200019N0200001N1+02581+02171101311ADDAA106000091GF104991011011008001061011KA1240N+02051MA1999999096431MD1999999-0161REMSYN076AAXX  25124 83236 32598 40000 10258 20217 39643 40131 81161 333 20205 59016;EQDQ01  00002PRCP06
0167832360999992003012518004-12150-045000FM-12+044099999V0203601N002112200019N0200001N1+03101+02121100771ADDAA106000091GF103991031021008001001001MA1999999095941MD1999999-0181REMSYN070AAXX  25184 83236 32598 33604 10310 20212 39594 40077 83200 333 59018;EQDQ01  00002PRCP06
0198832360999992003012600004-12150-045000FM-12+044099999V0201801N001012200019N0200001N1+02361+02131100981ADDAA106000091GF102991001001999999001021KA1240M+03221MA1999999096101MD1999999-0121REMSYN088AAXX  26004 83236 32998 21802 10236 20213 39610 40098 80002 333 10322 29077 55111 59012;EQDQ01  00002PRCP06
0186832360999992003012612004-12150-045000FM-12+044099999V0209999C000012200019N0200001N1+02561+01971101091ADDAA106000091GF104991001001999999001051KA1240N+01941MA1999999096201MD1999999-0221REMSYN076AAXX  26124 83236 32998 40000 10256 20197 39620 40109 80005 333 20194 59022;EQDQ01  00002PRCP06
0167832360999992003012618004-12150-045000FM-12+044099999V0200501N003611050019N0200001N1+03081+02101100651ADDAA106000091GF105991021021008001001071MA1999999095801MD1999999-0141REMSYN070AAXX  26184 83236 32598 50507 10308 20210 39580 40065 82207 333 59014;EQDQ01  00002PRCP06
0198832360999992003012700004-12150-045000FM-12+044099999V0201801N001512200019N0200001N1+02411+02091100771ADDAA106000091GF103991031041008001001001KA1240M+03191MA1999999095911MD1999999-0191REMSYN088AAXX  27004 83236 32598 31803 10241 20209 39591 40077 83400 333 10319 29073 55106 59019;EQDQ01  00002PRCP06
0186832360999992003012712004-12150-045000FM-12+044099999V0200501N002612200019N0200001N1+02591+02121101001ADDAA106000091GF104991011011008001081041KA1240N+02111MA1999999096131MD1999999-0071REMSYN076AAXX  27124 83236 32598 40505 10259 20212 39613 40100 81184 333 20211 59007;EQDQ01  00002PRCP06
0167832360999992003012718004-12150-045000FM-12+044099999V0203601N004112200019N0200001N1+03081+02191100601ADDAA106000091GF105991021021008001001011MA1999999095761MD1999999-0041REMSYN070AAXX  27184 83236 32598 53608 10308 20219 39576 40060 82201 333 59004;EQDQ01  00002PRCP06
0226832360999992003012800004-12150-045000FM-12+044099999V0201801N001512200019N0100001N1+02431+02191100911ADDAA106000091AY101061AY221061GF103991031031008001001001KA1240M+03181MA1999999096041MD1999999+0131MW1131REMSYN094AAXX  28004 83236 31597 31803 10243 20219 39604 40091 71302 83300 333 10318 29077 55106 58013;EQDQ01  00002PRCP06
0190832360999992003012812004-12150-045000FM-12+044099999V0200501N002610075019N0040001N1+02221+02171101431ADDAY161061AY261061GF108991051051008001021999KA1240N+02171MA1999999096491MD1999999+0361MW1421REMSYN088AAXX  28124 83236 21596 80505 10222 20217 39649 40143 74266 8552/ 333 20217 58036 60024;
0167832360999992003012818004-12150-045000FM-12+044099999V0200501N003110450019N0100001N1+02851+02191100901ADDAA106000091GF106991031021008001061021MA1999999096041MD1999999+0281REMSYN070AAXX  28184 83236 32597 60506 10285 20219 39604 40090 83262 333 58028;EQDQ01  00002PRCP06
0198832360999992003012900004-12150-045000FM-12+044099999V0209999C000010075019N0040001N1+02451+02191101291ADDAA106000091GF108991081051008001999999KA1240M+02971MA1999999096371MD1999999+0331REMSYN088AAXX  29004 83236 32596 80000 10245 20219 39637 40129 885// 333 10297 29084 55045 58033;EQDQ01  00002PRCP06
0186832360999992003012912004-12150-045000FM-12+044099999V0209999C000011050019N0100001N1+02371+02171101381ADDAA106000091GF107991041051008001001021KA1240N+02081MA1999999096471MD1999999+0021REMSYN076AAXX  29124 83236 32597 70000 10237 20217 39647 40138 84502 333 20208 58002;EQDQ01  00002PRCP06
0167832360999992003012918004-12150-045000FM-12+044099999V0200501N003612200019N0100001N1+02971+02151100841ADDAA106000091GF106991031021008001001041MA1999999095981MD1999999-0061REMSYN070AAXX  29184 83236 32597 60507 10297 20215 39598 40084 83204 333 59006;EQDQ01  00002PRCP06
0226832360999992003013000004-12150-045000FM-12+044099999V0201801N001512200019N0100001N1+02431+02211101051ADDAA106000091AY101061AY221061GF104991021031008001001041KA1240M+03061MA1999999096151MD1999999-0231MW1131REMSYN094AAXX  30004 83236 31597 41803 10243 20221 39615 40105 71302 82304 333 10306 29083 55053 59023;EQDQ01  00002PRCP06
0190832360999992003013012004-12150-045000FM-12+044099999V0202301N001510450019N0100001N1+02261+02141101331ADDAY151061AY251061GF108991031051008001021999KA1240N+02151MA1999999096411MD1999999-0061MW1021REMSYN088AAXX  30124 83236 21597 82303 10226 20214 39641 40133 70255 8352/ 333 20215 59006 69914;
0195832360999992003013018004-12150-045000FM-12+044099999V0201401N002610450019N0100001N1+02661+02241100981ADDAA106000091AY101061AY221061GF107991031021008001071021MA1999999096101MD1999999+0121MW1151REMSYN076AAXX  30184 83236 31597 71405 10266 20224 39610 40098 71502 83272 333 58012;EQDQ01  00002PRCP06
0202832360999992003013100004-12150-045000FM-12+044099999V0202701N000512200019N0100001N1+02201+02121101061ADDAY161061AY261061GF104991041001022501021999KA1240M+02871MA1999999096131MD1999999-0021MW1021REMSYN100AAXX  31004 83236 21897 42701 10220 20212 39613 40106 70266 8402/ 333 10287 29090 55008 59002 60011;
0162832360999992003013112004-12150-045000FM-12+044099999V0203601N001012200019N0200001N1+02551+02231101231ADDGF104991021021008001001041KA1240N+02071MA1999999096331MD1999999-0081REMSYN082AAXX  31124 83236 22598 43602 10255 20223 39633 40123 82204 333 20207 59008 60014;
0167832360999992003013118004-12150-045000FM-12+044099999V0200501N001512200019N0200001N1+03001+02081100831ADDAA106000091GF105991031021008001001041MA1999999095971MD1999999-0131REMSYN070AAXX  31184 83236 32598 50503 10300 20208 39597 40083 83204 333 59013;EQDQ01  00002PRCP06
0198832360999992003020100004-12150-045000FM-12+044099999V0200501N001510075019N0100001N1+02421+02071101061ADDAA106000091GF108991081001008001021999KA1240M+03131MA1999999096181MD1999999+0031REMSYN088AAXX  01004 83236 32597 80503 10242 20207 39618 40106 8802/ 333 10313 29076 55101 58003;EQDQ01  00002PRCP06
0186832360999992003020112004-12150-045000FM-12+044099999V0209999C000011050019N0200001N1+02491+01961101251ADDAA106000091GF105991021021008001081041KA1240N+01821MA1999999096451MD1999999+0121REMSYN076AAXX  01124 83236 32598 50000 10249 20196 39645 40125 82284 333 20182 58012;EQDQ01  00002PRCP06
0167832360999992003020118004-12150-045000FM-12+044099999V0200501N003612200019N0200001N1+02961+01961101051ADDAA106000091GF104991021021008001001021MA1999999096171MD1999999+0201REMSYN070AAXX  01184 83236 32598 40507 10296 20196 39617 40105 82202 333 58020;EQDQ01  00002PRCP06
0202832360999992003020200004-12150-045000FM-12+044099999V0201801N003610450019N0100001N1+02121+01951101371ADDAY151061AY251061GF106991031071008001021001KA1240M+03091MA1999999096441MD1999999+0281MW1131REMSYN100AAXX  02004 83236 21597 61807 10212 20195 39644 40137 71355 83720 333 10309 29078 55098 58028 69921;
0162832360999992003020212004-12150-045000FM-12+044099999V0202701N001010450019N0100001N1+02251+01901101481ADDGF107991021021008001051001KA1240N+01951MA1999999096521MD1999999+0071REMSYN082AAXX  02124 83236 22597 72702 10225 20190 39652 40148 82250 333 20195 58007 69924;
0167832360999992003020218004-12150-045000FM-12+044099999V0200501N004110450019N0100001N1+03021+02131101091ADDAA106000091GF106991031021008001031091MA1999999096211MD1999999+0041REMSYN070AAXX  02184 83236 32597 60508 10302 20213 39621 40109 83239 333 58004;EQDQ01  00002PRCP06
0198832360999992003020300004-12150-045000FM-12+044099999V0209999C000012200019N0100001N1+02401+02111101241ADDAA106000091GF102991021021008001001001KA1240M+03121MA1999999096331MD1999999-0111REMSYN088AAXX  03004 83236 32597 20000 10240 20211 39633 40124 82200 333 10312 29077 55071 59011;EQDQ01  00002PRCP06
0186832360999992003020312004-12150-045000FM-12+044099999V0201401N002110450019N0200001N1+02501+02231101411ADDAA106000091GF105991031021008001061051KA1240N+02211MA1999999096511MD1999999-0011REMSYN076AAXX  03124 83236 32598 51404 10250 20223 39651 40141 83265 333 20221 59001;EQDQ01  00002PRCP06
0167832360999992003020318004-12150-045000FM-12+044099999V0200501N002610075019N0100001N1+02851+02121101201ADDAA106000091GF108991071041008001071999MA1999999096331MD1999999+0121REMSYN070AAXX  03184 83236 32597 80505 10285 20212 39633 40120 8747/ 333 58012;EQDQ01  00002PRCP06
0198832360999992003020400004-12150-045000FM-12+044099999V0201801N001510450019N0200001N1+02381+02091101231ADDAA106000091GF105991031021008001061001KA1240M+03121MA1999999096341MD1999999+0011REMSYN088AAXX  04004 83236 32598 51803 10238 20209 39634 40123 83260 333 10312 29080 55040 58001;EQDQ01  00002PRCP06
0186832360999992003020412004-12150-045000FM-12+044099999V0201401N001510450019N0200001N1+02591+02121101301ADDAA106000091GF106991041021008001061071KA1240N+01991MA1999999096411MD1999999-0101REMSYN076AAXX  04124 83236 32598 61403 10259 20212 39641 40130 84267 333 20199 59010;EQDQ01  00002PRCP06
0167832360999992003020418004-12150-045000FM-12+044099999V0200501N001011050019N0200001N1+03141+02211100881ADDAA106000091GF105991031021008001001051MA1999999096031MD1999999-0301REMSYN070AAXX  04184 83236 32598 50502 10314 20221 39603 40088 83205 333 59030;EQDQ01  00002PRCP06
0198832360999992003020500004-12150-045000FM-12+044099999V0202301N001512200019N0200001N1+02411+02191100931ADDAA106000091GF103991031021012501001001KA1240M+03261MA1999999096071MD1999999-0271REMSYN088AAXX  05004 83236 32698 32303 10241 20219 39607 40093 83200 333 10326 29078 55098 59027;EQDQ01  00002PRCP06
0186832360999992003020512004-12150-045000FM-12+044099999V0209999C000010450019N0200001N1+02661+02291101291ADDAA106000091GF106991041021008001071051KA1240N+02101MA1999999096411MD1999999+0001REMSYN076AAXX  05124 83236 32598 60000 10266 20229 39641 40129 84275 333 20210 58000;EQDQ01  00002PRCP06
0167832360999992003020518004-12150-045000FM-12+044099999V0200501N002611050019N0200001N1+03231+02201100841ADDAA106000091GF105991031021008001001071MA1999999096011MD1999999-0021REMSYN070AAXX  05184 83236 32598 50505 10323 20220 39601 40084 83207 333 59002;EQDQ01  00002PRCP06
0198832360999992003020600004-12150-045000FM-12+044099999V0209999C000012200019N0200001N1+02551+02291100911ADDAA106000091GF103991001001999999001051KA1240M+03411MA1999999096061MD1999999-0011REMSYN088AAXX  06004 83236 32998 30000 10255 20229 39606 40091 80005 333 10341 29077 55113 59001;EQDQ01  00002PRCP06
0186832360999992003020612004-12150-045000FM-12+044099999V0200501N002610450019N0200001N1+02691+02221101241ADDAA106000091GF106991031021012501051071KA1240N+02191MA1999999096371MD1999999-0041REMSYN076AAXX  06124 83236 32698 60505 10269 20222 39637 40124 83257 333 20219 59004;EQDQ01  00002PRCP06
0167832360999992003020618004-12150-045000FM-12+044099999V0203601N002610450019N0200001N1+03131+02141100841ADDAA106000091GF106991021021008001071051MA1999999096001MD1999999-0011REMSYN070AAXX  06184 83236 32598 63605 10313 20214 39600 40084 82275 333 59001;EQDQ01  00002PRCP06
0198832360999992003020700004-12150-045000FM-12+044099999V0201401N001012200019N0200001N1+02521+02291100951ADDAA106000091GF103991001001999999001051KA1240M+03241MA1999999096101MD1999999+0041REMSYN088AAXX  07004 83236 32998 31402 10252 20229 39610 40095 80005 333 10324 29077 55089 58004;EQDQ01  00002PRCP06
0167832360999992003020718004-12150-045000FM-12+044099999V0203601N003111050019N0200001N1+03251+02001100881ADDAA106000091GF105991031021008001001071MA1999999096071MD1999999+0071REMSYN070AAXX  07184 83236 32598 53606 10325 20200 39607 40088 83207 333 58007;EQDQ01  00002PRCP06
0198832360999992003020800004-12150-045000FM-12+044099999V0202301N002112200019N0200001N1+02481+02131101021ADDAA106000091GF104991001001999999001051KA1240M+03361MA1999999096151MD1999999+0051REMSYN088AAXX  08004 83236 32998 42304 10248 20213 39615 40102 80005 333 10336 29072 55075 58005;EQDQ01  00002PRCP06
0186832360999992003020812004-12150-045000FM-12+044099999V0209999C000012200019N0200001N1+02601+02171101331ADDAA106000091GF104991001001999999001071KA1240N+02041MA1999999096451MD1999999+0111REMSYN076AAXX  08124 83236 32998 40000 10260 20217 39645 40133 80007 333 20204 58011;EQDQ01  00002PRCP06
0174832360999992003020900004-12150-045000FM-12+044099999V0201801N001512200019N0200001N1+02391+02191100981ADDGF102991001001999999001051KA1240M+03431MA1999999096121MD1999999-0031REMSYN094AAXX  09004 83236 22998 21803 10239 20219 39612 40098 80005 333 10343 29079 55098 59003 60021;
0162832360999992003020912004-12150-045000FM-12+044099999V0209999C000012200019N0200001N1+02611+02061101291ADDGF102991021021012501001001KA1240N+01941MA1999999096401MD1999999-0051REMSYN082AAXX  09124 83236 22698 20000 10261 20206 39640 40129 82200 333 20194 59005 60024;
0167832360999992003020918004-12150-045000FM-12+044099999V0202701N001512200019N0200001N1+03291+01891100791ADDAA106000091GF103991031021008001001001MA1999999095961MD1999999-0091REMSYN070AAXX  09184 83236 32598 32703 10329 20189 39596 40079 83200 333 59009;EQDQ01  00002PRCP06
0202832360999992003021000004-12150-045000FM-12+044099999V0209999C000011050019N0200001N1+02471+02131100961ADDAY151061AY251061GF105991021051008001001051KA1240M+03391MA1999999096101MD1999999-0021MW1131REMSYN100AAXX  10004 83236 21598 50000 10247 20213 39610 40096 71355 82505 333 10339 29070 55101 59002 69911;
0162832360999992003021012004-12150-045000FM-12+044099999V0203201N001512200019N0200001N1+02621+01981101131ADDGF103991031001022501071001KA1240N+01951MA1999999096261MD1999999-0141REMSYN082AAXX  10124 83236 22898 33203 10262 20198 39626 40113 83070 333 20195 59014 69914;
0167832360999992003021018004-12150-045000FM-12+044099999V0200501N003111050019N0200001N1+03251+01711100721ADDAA106000091GF105991031021008001001051MA1999999095891MD1999999-0071REMSYN070AAXX  10184 83236 32598 50506 10325 20171 39589 40072 83205 333 59007;EQDQ01  00002PRCP06
0198832360999992003021100004-12150-045000FM-12+044099999V0201801N001519999999N0200001N1+02401+02111100871ADDAA106000091GF105991001001999999001071KA1240M+03361MA1999999096001MD1999999-0101REMSYN088AAXX  11004 83236 32998 51803 10240 20211 39600 40087 80007 333 10336 29069 55107 59010;EQDQ01  00002PRCP06
0186832360999992003021112004-12150-045000FM-12+044099999V0201801N001010450019N0200001N1+02601+02011101121ADDAA106000091GF105991031021012501061071KA1240N+02021MA1999999096241MD1999999-0021REMSYN076AAXX  11124 83236 32698 51802 10260 20201 39624 40112 83267 333 20202 59002;EQDQ01  00002PRCP06
0195832360999992003021118004-12150-045000FM-12+044099999V0200501N003610075019N0200001N1+03031+02071100661ADDAA106000091AY121061AY221061GF108991071051008001081999MA1999999095811MD1999999-0071MW1151REMSYN076AAXX  11184 83236 31598 80507 10303 20207 39581 40066 71522 8758/ 333 59007;EQDQ01  00002PRCP06
0226832360999992003021200004-12150-045000FM-12+044099999V0202301N001010075019N0100001N1+02311+01981101161ADDAA106000091AY191061AY291061GF108991061051008001071999KA1240M+03401MA1999999096271MD1999999+0271MW1171REMSYN094AAXX  12004 83236 31597 82302 10231 20198 39627 40116 71799 8657/ 333 10340 29073 55072 58027;EQDQ01  00002PRCP06
0162832360999992003021212004-12150-045000FM-12+044099999V0202301N001510450019N0200001N1+02491+02171101201ADDGF106991041021008001061071KA1240N+02031MA1999999096301MD1999999+0061REMSYN082AAXX  12124 83236 22598 62303 10249 20217 39630 40120 84267 333 20203 58006 60024;
0195832360999992003021218004-12150-045000FM-12+044099999V0200901N006210075019N0100001N1+02581+02041100911ADDAA106000091AY191061AY291061GF108991071061008001041999MA1999999096011MD1999999+0201MW1161REMSYN076AAXX  12184 83236 31597 80912 10258 20204 39601 40091 71699 8764/ 333 58020;EQDQ01  00002PRCP06
0202832360999992003021300004-12150-045000FM-12+044099999V0201801N001010075019N0100001N1+02241+02141101181ADDAY131061AY251061GF108991071051008001021999KA1240M+03321MA1999999096271MD1999999+0001MW1011REMSYN100AAXX  13004 83236 21597 81802 10224 20214 39627 40118 70135 8752/ 333 10332 29086 55049 58000 60011;
0162832360999992003021312004-12150-045000FM-12+044099999V0209999C000010075019N0100001N1+02381+02211101381ADDGF108991061071008001051999KA1240N+02091MA1999999096451MD1999999+0151REMSYN082AAXX  13124 83236 22597 80000 10238 20221 39645 40138 8675/ 333 20209 58015 60014;
0167832360999992003021318004-12150-045000FM-12+044099999V0200901N003110075019N0200001N1+02841+02141100891ADDAA106000091GF107991051041008001071051MA1999999096011MD1999999+0001REMSYN070AAXX  13184 83236 32598 70906 10284 20214 39601 40089 85475 333 58000;EQDQ01  00002PRCP06
0198832360999992003021400004-12150-045000FM-12+044099999V0201801N001511050019N0200001N1+02301+02131101061ADDAA106000091GF105991021001022501061071KA1240M+03081MA1999999096161MD1999999-0111REMSYN088AAXX  14004 83236 32898 51803 10230 20213 39616 40106 82067 333 10308 29084 55052 59011;EQDQ01  00002PRCP06
0186832360999992003021412004-12150-045000FM-12+044099999V0200501N004110450019N0200001N1+02601+02191101181ADDAA106000091GF106991041021008001061051KA1240N+02151MA1999999096291MD1999999-0161REMSYN076AAXX  14124 83236 32598 60508 10260 20219 39629 40118 84265 333 20215 59016;EQDQ01  00002PRCP06
0167832360999992003021418004-12150-045000FM-12+044099999V0200501N003610450019N0200001N1+03201+02091100651ADDAA106000091GF106991031031008001081071MA1999999095831MD1999999-0281REMSYN070AAXX  14184 83236 32598 60507 10320 20209 39583 40065 83387 333 59028;EQDQ01  00002PRCP06
0202832360999992003021500004-12150-045000FM-12+044099999V0200501N004110075019N0020001N1+02161+02111101121ADDAY191061AY291061GF108991071061008001041999KA1240M+03281MA1999999096221MD1999999+0061MW1621REMSYN100AAXX  15004 83236 21595 80508 10216 20211 39622 40112 76299 8764/ 333 10328 29081 55072 58006 60111;
0207832360999992003021512004-12150-045000FM-12+044099999V0209999C000010075019N0100001N1+02151+01971101301ADDAA124014091AY151061AY251061GF108991061071008001051999KA1240N+02131MA1999999096341MD1999999+0041MW1511REMSYN094AAXX  15124 83236 21597 80000 10215 20197 39634 40130 75155 8675/ 333 20213 58004 60144 10140;
0078832360999992003021518004-12150-045000FM-12+044099999V02099999999999999999N9999999N1+99999+99999999999REMSYN069AAXX  15184 83236 32597 7000 10279 20213 39591 40077 84375 333 59008;
0190832360999992003021612004-12150-045000FM-12+044099999V0202701N003110075019N0100001N1+02561+02231101211ADDAY161061AY261061GF108991071071008001061999KA1240N+02191MA1999999096331MD1999999-0011MW1031REMSYN088AAXX  16124 83236 21597 82706 10256 20223 39633 40121 70366 8776/ 333 20219 59001 60034;
0167832360999992003021618004-12150-045000FM-12+044099999V0202301N001510075019N0100001N1+02601+02121100841ADDAA106000091GF107991051021008001051071MA1999999095961MD1999999+0051REMSYN070AAXX  16184 83236 32597 72303 10260 20212 39596 40084 85257 333 58005;EQDQ01  00002PRCP06
0207832360999992003021712004-12150-045000FM-12+044099999V0201801N001510120019N0100001N1+02161+02131101311ADDAA124021091AY161061AY261061GF108991071081008001041999KA1240N+02051MA1999999096381MD1999999+0051MW1101REMSYN094AAXX  17124 83236 21597 81803 10216 20213 39638 40131 71066 8784/ 333 20205 58005 60214 10213;
0167832360999992003021718004-12150-045000FM-12+044099999V0200501N003110450019N0200001N1+02951+02161100751ADDAA106000091GF105991031031008001061051MA1999999095901MD1999999-0061REMSYN070AAXX  17184 83236 32598 50506 10295 20216 39590 40075 83365 333 59006;EQDQ01  00002PRCP06
0198832360999992003021800004-12150-045000FM-12+044099999V0201401N001010075019N0100001N1+02441+02341101001ADDAA106000091GF108991071041008001071999KA1240M+03051MA1999999096181MD1999999+0101REMSYN088AAXX  18004 83236 32597 81402 10244 20234 39618 40100 8747/ 333 10305 29086 55054 58010;EQDQ01  00002PRCP06
0186832360999992003021812004-12150-045000FM-12+044099999V0202701N001510450019N0100001N1+02651+02271101211ADDAA106000091GF105991031021008001041001KA1240N+02081MA1999999096341MD1999999-0041REMSYN076AAXX  18124 83236 32597 52703 10265 20227 39634 40121 83240 333 20208 59004;EQDQ01  00002PRCP06
0167832360999992003021818004-12150-045000FM-12+044099999V0200501N003110120019N0100001N1+03051+02121100751ADDAA106000091GF107991061081008001041001MA1999999095931MD1999999+0031REMSYN070AAXX  18184 83236 32597 70506 10305 20212 39593 40075 86840 333 58003;EQDQ01  00002PRCP06
0198832360999992003021900004-12150-045000FM-12+044099999V0202301N001010450019N0100001N1+02451+02211101031ADDAA106000091GF107991041071008001021001KA1240M+03181MA1999999096161MD1999999-0021REMSYN088AAXX  19004 83236 32597 72302 10245 20221 39616 40103 84720 333 10318 29078 55077 59002;EQDQ01  00002PRCP06
0190832360999992003021912004-12150-045000FM-12+044099999V0202701N001010450019N0100001N1+02261+02141101391ADDAY161061AY261061GF108991041021008001011999KA1240N+02091MA1999999096471MD1999999+0131MW1021REMSYN088AAXX  19124 83236 21597 82702 10226 20214 39647 40139 70266 8421/ 333 20209 58013 60094;
0167832360999992003021918004-12150-045000FM-12+044099999V0200501N003110120019N0100001N1+02631+02181101071ADDAA106000091GF107991071081008001001001MA1999999096181MD1999999+0251REMSYN070AAXX  19184 83236 32597 70506 10263 20218 39618 40107 87800 333 58025;EQDQ01  00002PRCP06
0198832360999992003022000004-12150-045000FM-12+044099999V0201801N001510450019N0100001N1+02331+02251101131ADDAA106000091GF105991031071022501021001KA1240M+02751MA1999999096211MD1999999+0051REMSYN088AAXX  20004 83236 32897 51803 10233 20225 39621 40113 83720 333 10275 29090 55000 58005;EQDQ01  00002PRCP06
0186832360999992003022012004-12150-045000FM-12+044099999V0202701N001512200019N0200001N1+02541+02311101271ADDAA106000091GF104991031021008001001021KA1240N+02161MA1999999096371MD1999999-0101REMSYN076AAXX  20124 83236 32598 42703 10254 20231 39637 40127 83202 333 20216 59010;EQDQ01  00002PRCP06
0167832360999992003022018004-12150-045000FM-12+044099999V0200501N003110075019N0100001N1+03091+02101100771ADDAA106000091GF106991061021008001001001MA1999999095941MD1999999-0241REMSYN070AAXX  20184 83236 32597 60506 10309 20210 39594 40077 86200 333 59024;EQDQ01  00002PRCP06
0202832360999992003022100004-12150-045000FM-12+044099999V0201401N001010450019N0100001N1+02301+02181101121ADDAY101061AY251061GF106991041071008001021001KA1240M+03241MA1999999096221MD1999999+0011MW1131REMSYN100AAXX  21004 83236 21597 61402 10230 20218 39622 40112 71305 84720 333 10324 29082 55096 58001 69951;
0190832360999992003022112004-12150-045000FM-12+044099999V0209999C000010450019N0100001N1+02561+02191101251ADDAY161061AY261061GF107991021021008001031061KA1240N+02201MA1999999096351MD1999999+0021MW1021REMSYN088AAXX  21124 83236 21597 70000 10256 20219 39635 40125 70266 82236 333 20220 58002 60014;
0195832360999992003022118004-12150-045000FM-12+044099999V0200501N003111050019N0100001N1+02951+02261100751ADDAA106000091AY101061AY221061GF106991031031008001001031MA1999999095911MD1999999-0031MW1171REMSYN076AAXX  21184 83236 31597 60506 10295 20226 39591 40075 71702 83303 333 59003;EQDQ01  00002PRCP06
0226832360999992003022200004-12150-045000FM-12+044099999V0202701N000510450019N0100001N1+02241+02101101081ADDAA106000091AY101061AY221061GF108991041071008001021999KA1240M+03151MA1999999096181MD1999999-0041MW1131REMSYN094AAXX  22004 83236 31597 82701 10224 20210 39618 40108 71302 8472/ 333 10315 29083 55077 59004;EQDQ01  00002PRCP06
0190832360999992003022212004-12150-045000FM-12+044099999V0209999C000011050019N0100001N1+02481+02131101311ADDAY161061AY261061GF106991011011008001031061KA1240N+02071MA1999999096391MD1999999+0041MW1021REMSYN088AAXX  22124 83236 21597 60000 10248 20213 39639 40131 70266 81136 333 20207 58004 60014;
0167832360999992003022218004-12150-045000FM-12+044099999V0203601N002610450019N0100001N1+03031+02161100891ADDAA106000091GF106991031021008001081061MA1999999096021MD1999999+0111REMSYN070AAXX  22184 83236 32597 63605 10303 20216 39602 40089 83286 333 58011;EQDQ01  00002PRCP06
0202832360999992003022300004-12150-045000FM-12+044099999V0201801N001010450019N0100001N1+02141+02041101221ADDAY191061AY261061GF105991031071008001021001KA1240M+03161MA1999999096301MD1999999+0121MW1131REMSYN100AAXX  23004 83236 21597 51802 10214 20204 39630 40122 71396 83720 333 10316 29082 55091 58012 60021;
0198832360999992003022400004-12150-045000FM-12+044099999V0201801N001012200019N0100001N1+02401+02311101241ADDAA106000091GF104991041071008001001001KA1240M+02961MA1999999096321MD1999999+0021REMSYN088AAXX  24004 83236 32597 41802 10240 20231 39632 40124 84700 333 10296 29090 55028 58002;EQDQ01  00002PRCP06
0167832360999992003022418004-12150-045000FM-12+044099999V0203601N000512200019N0100001N1+03061+02261101061ADDAA106000091GF106991031021008001001061MA1999999096201MD1999999-0041REMSYN070AAXX  24184 83236 32597 63601 10306 20226 39620 40106 83206 333 59004;EQDQ01  00002PRCP06
0198832360999992003022500004-12150-045000FM-12+044099999V0202301N001012200019N0100001N1+02381+02171101191ADDAA106000091GF104991041021008001001001KA1240M+03151MA1999999096301MD1999999-0021REMSYN088AAXX  25004 83236 32597 42302 10238 20217 39630 40119 84200 333 10315 29079 55073 59002;EQDQ01  00002PRCP06
0186832360999992003022512004-12150-045000FM-12+044099999V0203601N004112200019N0100001N1+02561+02081101281ADDAA106000091GF106991011011008001001061KA1240N+02051MA1999999096381MD1999999-0211REMSYN076AAXX  25124 83236 32597 63608 10256 20208 39638 40128 81106 333 20205 59021;EQDQ01  00002PRCP06
0167832360999992003022518004-12150-045000FM-12+044099999V0203601N002111050019N0100001N1+02991+02061100901ADDAA106000091GF105991031021008001001051MA1999999096041MD1999999-0161REMSYN070AAXX  25184 83236 32597 53604 10299 20206 39604 40090 83205 333 59016;EQDQ01  00002PRCP06
0226832360999992003022600004-12150-045000FM-12+044099999V0202301N000512200019N0100001N1+02421+02171100941ADDAA106000091AY101061AY221061GF104991021071008001001041KA1240M+03131MA1999999096071MD1999999-0231MW1131REMSYN094AAXX  26004 83236 31597 42301 10242 20217 39607 40094 71302 82704 333 10313 29076 55109 59023;EQDQ01  00002PRCP06
0186832360999992003022612004-12150-045000FM-12+044099999V0200501N004610075019N0100001N1+02561+02361101191ADDAA106000091GF105991051021008001001001KA1240N+02091MA1999999096311MD1999999-0071REMSYN076AAXX  26124 83236 32597 50509 10256 20236 39631 40119 85200 333 20209 59007;EQDQ01  00002PRCP06
0167832360999992003022618004-12150-045000FM-12+044099999V0203601N003112200019N0200001N1+03051+02181100801ADDAA106000091GF104991031021008001001081MA1999999095951MD1999999-0071REMSYN070AAXX  26184 83236 32598 43606 10305 20218 39595 40080 83208 333 59007;EQDQ01  00002PRCP06
0198832360999992003022700004-12150-045000FM-12+044099999V0201801N001512200019N0100001N1+02411+02111100881ADDAA106000091GF103991031041008001001001KA1240M+03171MA1999999096011MD1999999-0061REMSYN088AAXX  27004 83236 32597 31803 10241 20211 39601 40088 83400 333 10317 29080 55111 59006;EQDQ01  00002PRCP06
0186832360999992003022712004-12150-045000FM-12+044099999V0209999C000012200019N0200001N1+02521+02171101231ADDAA106000091GF104991011011008001001051KA1240N+02031MA1999999096341MD1999999+0031REMSYN076AAXX  27124 83236 32598 40000 10252 20217 39634 40123 81105 333 20203 58003;EQDQ01  00002PRCP06
0167832360999992003022718004-12150-045000FM-12+044099999V0203601N001512200019N0200001N1+03131+02051100851ADDAA106000091GF103991021021008001001041MA1999999096001MD1999999-0011REMSYN070AAXX  27184 83236 32598 33603 10313 20205 39600 40085 82204 333 59001;EQDQ01  00002PRCP06
0198832360999992003022800004-12150-045000FM-12+044099999V0201801N001012200019N0200001N1+02391+02221100971ADDAA106000091GF103991021021008001001041KA1240M+03301MA1999999096091MD1999999+0081REMSYN088AAXX  28004 83236 32598 31802 10239 20222 39609 40097 82204 333 10330 29079 55095 58008;EQDQ01  00002PRCP06
0186832360999992003022812004-12150-045000FM-12+044099999V0203601N001512200019N0200001N1+02691+02221101311ADDAA106000091GF103991011011008001001041KA1240N+02191MA1999999096431MD1999999+0091REMSYN076AAXX  28124 83236 32598 33603 10269 20222 39643 40131 81104 333 20219 58009;EQDQ01  00002PRCP06
0167832360999992003022818004-12150-045000FM-12+044099999V0200501N003112200019N0200001N1+03171+01891100801ADDAA106000091GF103991021011008001001021MA1999999095971MD1999999-0121REMSYN070AAXX  28184 83236 32598 30506 10317 20189 39597 40080 82102 333 59012;EQDQ01  00002PRCP06
0198832360999992003030100004-12150-045000FM-12+044099999V0201801N001012200019N0200001N1+02411+02151100921ADDAA106000091GF104991041061008001001001KA1240M+03291MA1999999096061MD1999999-0031REMSYN088AAXX  01004 83236 32598 41802 10241 20215 39606 40092 84600 333 10329 29074 55098 59003;EQDQ01  00002PRCP06
0186832360999992003030112004-12150-045000FM-12+044099999V0200501N002111050019N0100001N1+02701+02111101281ADDAA106000091GF106991021021008001001081KA1240N+02171MA1999999096401MD1999999-0031REMSYN076AAXX  01124 83236 32597 60504 10270 20211 39640 40128 82208 333 20217 59003;EQDQ01  00002PRCP06
0167832360999992003030118004-12150-045000FM-12+044099999V0203601N003610450019N0200001N1+03121+02281100821ADDAA106000091GF106991021021008001081001MA1999999095981MD1999999-0011REMSYN070AAXX  01184 83236 32598 63607 10312 20228 39598 40082 82280 333 59001;EQDQ01  00002PRCP06
0198832360999992003030200004-12150-045000FM-12+044099999V0201401N001010450019N0100001N1+02581+02131100961ADDAA106000091GF108991031051008001021999KA1240M+03231MA1999999096121MD1999999+0061REMSYN088AAXX  02004 83236 32597 81402 10258 20213 39612 40096 8352/ 333 10323 29076 55073 58006;EQDQ01  00002PRCP06
0186832360999992003030212004-12150-045000FM-12+044099999V0203201N001010450019N0200001N1+02621+02421101071ADDAA106000091GF107991041021008001061071KA1240N+02241MA1999999096211MD1999999-0191REMSYN076AAXX  02124 83236 32598 73202 10262 20242 39621 40107 84267 333 20224 59019;EQDQ01  00002PRCP06
0167832360999992003030218004-12150-045000FM-12+044099999V0203601N002610450019N0200001N1+03081+02191100721ADDAA106000091GF106991031021008001051071MA1999999095891MD1999999-0091REMSYN070AAXX  02184 83236 32598 63605 10308 20219 39589 40072 83257 333 59009;EQDQ01  00002PRCP06
0198832360999992003030300004-12150-045000FM-12+044099999V0209999C000010450019N0200001N1+02461+02301100821ADDAA106000091GF105991031021008001061001KA1240M+03211MA1999999095961MD1999999-0161REMSYN088AAXX  03004 83236 32598 50000 10246 20230 39596 40082 83260 333 10321 29080 55069 59016;EQDQ01  00002PRCP06
0185832360999992003030312004-12150-045000FM-12+044099999V0209999C000010450019N0100001N1+02591+02211101111ADDAA106000091GF107991021071008001011001KA1240N+02311MA1999999096241MD1999999+0031REMSYN075AAXX  03124 83236 32597 70000 10259 20221 3962440111 82710 333 20231 58003;EQDQ01  00002PRCP06
0195832360999992003030318004-12150-045000FM-12+044099999V0203201N001510450019N0100001N1+03151+02301100751ADDAA106000091AY101061AY221061GF107991041071008001021001MA1999999095941MD1999999+0051MW1151REMSYN076AAXX  03184 83236 31597 73203 10315 20230 39594 40075 71502 84720 333 58005;EQDQ01  00002PRCP06
0202832360999992003030400004-12150-045000FM-12+044099999V0209999C000010450019N0100001N1+02541+02471100841ADDAY191061AY261061GF106991031071008001021001KA1240M+03281MA1999999095981MD1999999+0021MW1131REMSYN100AAXX  04004 83236 21597 60000 10254 20247 39598 40084 71396 83720 333 10328 29083 55050 58002 60011;
0162832360999992003030412004-12150-045000FM-12+044099999V0209999C000012200019N0200001N1+02661+02091101231ADDGF104991001001999999001061KA1240N+02161MA1999999096361MD1999999+0121REMSYN082AAXX  04124 83236 22998 40000 10266 20209 39636 40123 80006 333 20216 58012 60094;
0167832360999992003030418004-12150-045000FM-12+044099999V0200501N003611050019N0200001N1+03171+02021100851ADDAA106000091GF107991031021008001001051MA1999999096051MD1999999+0111REMSYN070AAXX  04184 83236 32598 70507 10317 20202 39605 40085 83205 333 58011;EQDQ01  00002PRCP06
0186832360999992003030512004-12150-045000FM-12+044099999V0209999C000012200019N0100001N1+02651+02161101161ADDAA106000091GF103991011011008001001011KA1240N+02151MA1999999096291MD1999999-0071REMSYN076AAXX  05124 83236 32597 30000 10265 20216 39629 40116 81101 333 20215 59007;EQDQ01  00002PRCP06
0167832360999992003030518004-12150-045000FM-12+044099999V0203601N002610075019N0100001N1+03161+02021100711ADDAA106000091GF106991061021008001001001MA1999999095891MD1999999-0161REMSYN070AAXX  05184 83236 32597 63605 10316 20202 39589 40071 86200 333 59016;EQDQ01  00002PRCP06
0198832360999992003030600004-12150-045000FM-12+044099999V0201801N001512200019N0100001N1+02411+02171100771ADDAA106000091GF103991031061008001001001KA1240M+03331MA1999999095921MD1999999-0141REMSYN088AAXX  06004 83236 32597 31803 10241 20217 39592 40077 83600 333 10333 29075 55087 59014;EQDQ01  00002PRCP06
0190832360999992003030612004-12150-045000FM-12+044099999V0200501N001010450019N0200001N1+02701+02151101071ADDAY151061AY251061GF105991031021012501051071KA1240N+02191MA1999999096201MD1999999-0091MW1021REMSYN088AAXX  06124 83236 21698 50502 10270 20215 39620 40107 70255 83257 333 20219 59009 69954;
0167832360999992003030618004-12150-045000FM-12+044099999V0200501N001510450019N0200001N1+03181+01871100651ADDAA106000091GF106991031021008001071051MA1999999095831MD1999999-0061REMSYN070AAXX  06184 83236 32598 60503 10318 20187 39583 40065 83275 333 59006;EQDQ01  00002PRCP06
0226832360999992003030700004-12150-045000FM-12+044099999V0201401N001012200019N0200001N1+02461+02151100831ADDAA106000091AY121061AY221061GF104991041051008001001001KA1240M+03341MA1999999095981MD1999999+0061MW1131REMSYN094AAXX  07004 83236 31598 41402 10246 20215 39598 40083 71322 84500 333 10334 29071 55103 58006;EQDQ01  00002PRCP06
0186832360999992003030712004-12150-045000FM-12+044099999V0203201N001010075019N0100001N1+02641+02161101231ADDAA106000091GF108991071041008001071999KA1240N+02121MA1999999096351MD1999999+0151REMSYN076AAXX  07124 83236 32597 83202 10264 20216 39635 40123 8747/ 333 20212 58015;EQDQ01  00002PRCP06
0167832360999992003030718004-12150-045000FM-12+044099999V0200501N004112200019N0200001N1+02971+02131100851ADDAA106000091GF103991031021012501001001MA1999999096001MD1999999+0171REMSYN070AAXX  07184 83236 32698 30508 10297 20213 39600 40085 83200 333 58017;EQDQ01  00002PRCP06
0198832360999992003030800004-12150-045000FM-12+044099999V0209999C000012200019N0200001N1+02351+02171100981ADDAA106000091GF102991001001999999001031KA1240M+03081MA1999999096111MD1999999+0131REMSYN088AAXX  08004 83236 32998 20000 10235 20217 39611 40098 80003 333 10308 29079 55079 58013;EQDQ01  00002PRCP06
0186832360999992003030812004-12150-045000FM-12+044099999V0209999C000012200019N0200001N1+02691+02181101211ADDAA106000091GF103991031021012501001001KA1240N+02061MA1999999096331MD1999999-0021REMSYN076AAXX  08124 83236 32698 30000 10269 20218 39633 40121 83200 333 20206 59002;EQDQ01  00002PRCP06
0226832360999992003030900004-12150-045000FM-12+044099999V0201801N001512200019N0200001N1+02581+02211100871ADDAA106000091AY121061AY221061GF104991031051008001001071KA1240M+03341MA1999999096031MD1999999-0081MW1131REMSYN094AAXX  09004 83236 31598 41803 10258 20221 39603 40087 71322 83507 333 10334 29071 55102 59008;EQDQ01  00002PRCP06
0186832360999992003030912004-12150-045000FM-12+044099999V0200501N001012200019N0200001N1+02691+02111101171ADDAA106000091GF104991021021008001001031KA1240N+02161MA1999999096321MD1999999-0011REMSYN076AAXX  09124 83236 32598 40502 10269 20211 39632 40117 82203 333 20216 59001;EQDQ01  00002PRCP06
0167832360999992003030918004-12150-045000FM-12+044099999V0200501N002610450019N0200001N1+03171+02051100721ADDAA106000091GF106991041021008001051071MA1999999095901MD1999999-0051REMSYN070AAXX  09184 83236 32598 60505 10317 20205 39590 40072 84257 333 59005;EQDQ01  00002PRCP06
0198832360999992003031000004-12150-045000FM-12+044099999V0202301N002110450019N0200001N1+02481+02051101001ADDAA106000091GF106991041021012501061071KA1240M+03301MA1999999096141MD1999999+0111REMSYN088AAXX  10004 83236 32698 62304 10248 20205 39614 40100 84267 333 10330 29069 55098 58011;EQDQ01  00002PRCP06
0190832360999992003031012004-12150-045000FM-12+044099999V0202701N001010450019N0200001N1+02521+02191101211ADDAY161061AY261061GF105991031021008001061051KA1240N+02111MA1999999096331MD1999999+0011MW1021REMSYN088AAXX  10124 83236 21598 52702 10252 20219 39633 40121 70266 83265 333 20211 58001 60114;
0195832360999992003031018004-12150-045000FM-12+044099999V0203601N001510450019N0200001N1+03071+02111100731ADDAA106000091AY121061AY221061GF105991031051008001071051MA1999999095901MD1999999+0001MW1151REMSYN076AAXX  10184 83236 31598 53603 10307 20211 39590 40073 71522 83575 333 58000;EQDQ01  00002PRCP06
0226832360999992003031100004-12150-045000FM-12+044099999V0202301N002110075019N0100001N1+02581+02291100891ADDAA106000091AY121061AY221061GF108991061051008001071999KA1240M+03271MA1999999096031MD1999999-0111MW1131REMSYN094AAXX  11004 83236 31597 82304 10258 20229 39603 40089 71322 8657/ 333 10327 29077 55084 59011;EQDQ01  00002PRCP06
0190832360999992003031112004-12150-045000FM-12+044099999V0202301N001012200019N0200001N1+02651+02291101101ADDAY161061AY251061GF103991021021008001001051KA1240N+02171MA1999999096301MD1999999-0031MW1021REMSYN088AAXX  11124 83236 21598 32302 10265 20229 39630 40110 70265 82205 333 20217 59003 60024;
0167832360999992003031118004-12150-045000FM-12+044099999V0200501N003112200019N0200001N1+03221+02231100641ADDAA106000091GF104991021031008001071051MA1999999095821MD1999999-0081REMSYN070AAXX  11184 83236 32598 40506 10322 20223 39582 40064 82375 333 59008;EQDQ01  00002PRCP06
0226832360999992003031200004-12150-045000FM-12+044099999V0209999C000010450019N0200001N1+02501+02291100851ADDAA106000091AY121061AY221061GF106991041051008001061071KA1240M+03301MA1999999095991MD1999999-0041MW1131REMSYN094AAXX  12004 83236 31598 60000 10250 20229 39599 40085 71322 84567 333 10330 29078 55090 59004;EQDQ01  00002PRCP06
0190832360999992003031212004-12150-045000FM-12+044099999V0202301N001510075019N0100001N1+02421+02251101181ADDAY161061AY261061GF108991071041008001061999KA1240N+02161MA1999999096291MD1999999-0011MW1031REMSYN088AAXX  12124 83236 21597 82303 10242 20225 39629 40118 70366 8746/ 333 20216 59001 60184;
0167832360999992003031218004-12150-045000FM-12+044099999V0200501N001510450019N0200001N1+02951+02241100771ADDAA106000091GF106991041041008001021071MA1999999095921MD1999999+0101REMSYN070AAXX  12184 83236 32598 60503 10295 20224 39592 40077 84427 333 58010;EQDQ01  00002PRCP06
0198832360999992003031300004-12150-045000FM-12+044099999V0201801N001010075019N0100001N1+02481+02341100931ADDAA106000091GF108991061021008001071999KA1240M+03061MA1999999096051MD1999999+0061REMSYN088AAXX  13004 83236 32597 81802 10248 20234 39605 40093 8627/ 333 10306 29085 55040 58006;EQDQ01  00002PRCP06
0186832360999992003031312004-12150-045000FM-12+044099999V0202701N001510450019N0200001N1+02581+02231101131ADDAA106000091GF106991041021008001051071KA1240N+02201MA1999999096261MD1999999-0031REMSYN076AAXX  13124 83236 32598 62703 10258 20223 39626 40113 84257 333 20220 59003;EQDQ01  00002PRCP06
0167832360999992003031318004-12150-045000FM-12+044099999V0203601N002110450019N0200001N1+03061+02301100631ADDAA106000091GF105991031031012501061051MA1999999095811MD1999999-0111REMSYN070AAXX  13184 83236 32698 53604 10306 20230 39581 40063 83365 333 59011;EQDQ01  00002PRCP06
0196832360999992003031400004-12150-045000FM-12+044099999V0202701N001010075019N0100001N1+02361+02241101051ADDAY121061AY221061GF108991071051008001071999KA1240M+03251MA1999999096161MD1999999+0111MW1131REMSYN094AAXX  14004 83236 21597 82702 10236 20224 39616 40105 71322 8757/ 333 10325 29083 55069 58011;
0171832360999992003031418004-12150-045000FM-12+044099999V0201801N003110450019N0200001N1+02361+02201100901ADDAY161061AY261061GF106991041061008001071051MA1999999095971MD1999999+0161MW1151REMSYN082AAXX  14184 83236 21598 61806 10236 20220 39597 40090 71566 84675 333 58016 60081;
0198832360999992003031500004-12150-045000FM-12+044099999V0209999C000010075019N0100001N1+02341+02311101001ADDAA106000091GF108991071021008001061999KA1240M+03091MA1999999096101MD1999999-0061REMSYN088AAXX  15004 83236 32597 80000 10234 20231 39610 40100 8726/ 333 10309 29095 55015 59006;EQDQ01  00002PRCP06
0162832360999992003031512004-12150-045000FM-12+044099999V0209999C000012200019N0200001N1+02691+02311101301ADDGF103991031021008001001001KA1240N+02211MA1999999096411MD1999999+0011REMSYN082AAXX  15124 83236 22598 30000 10269 20231 39641 40130 83200 333 20221 58001 60084;
0167832360999992003031518004-12150-045000FM-12+044099999V0203601N002112200019N0200001N1+03121+02221100711ADDAA106000091GF103991031021012501001001MA1999999095891MD1999999-0081REMSYN070AAXX  15184 83236 32698 33604 10312 20222 39589 40071 83200 333 59008;EQDQ01  00002PRCP06
0198832360999992003031600004-12150-045000FM-12+044099999V0201401N001512200019N0200001N1+02481+02301100961ADDAA106000091GF103991001001999999001071KA1240M+03211MA1999999096111MD1999999+0011REMSYN088AAXX  16004 83236 32998 31403 10248 20230 39611 40096 80007 333 10321 29080 55098 58001;EQDQ01  00002PRCP06
0190832360999992003031612004-12150-045000FM-12+044099999V0200501N002612200019N0200001N1+02571+02191101321ADDAY151061AY251061GF103991021021008001001051KA1240N+02231MA1999999096431MD1999999+0021MW1021REMSYN088AAXX  16124 83236 21598 30505 10257 20219 39643 40132 70255 82205 333 20223 58002 69944;
0167832360999992003031618004-12150-045000FM-12+044099999V0203601N001511050019N0200001N1+03011+02241100841ADDAA106000091GF106991031021008001001071MA1999999096011MD1999999+0121REMSYN070AAXX  16184 83236 32598 63603 10301 20224 39601 40084 83207 333 58012;EQDQ01  00002PRCP06
0226832360999992003031700004-12150-045000FM-12+044099999V0201801N001012200019N0200001N1+02311+02181101041ADDAA106000091AY121061AY221061GF104991021051008001001031KA1240M+03091MA1999999096151MD1999999+0041MW1131REMSYN094AAXX  17004 83236 31598 41802 10231 20218 39615 40104 71322 82503 333 10309 29082 55103 58004;EQDQ01  00002PRCP06
0186832360999992003031712004-12150-045000FM-12+044099999V0200501N002111050019N0200001N1+02541+02111101261ADDAA106000091GF105991021021008001051071KA1240N+02041MA1999999096351MD1999999-0081REMSYN076AAXX  17124 83236 32598 50504 10254 20211 39635 40126 82257 333 20204 59008;EQDQ01  00002PRCP06
0167832360999992003031718004-12150-045000FM-12+044099999V0203601N002112200019N0200001N1+03031+02131100651ADDAA106000091GF103991021021008001001051MA1999999095811MD1999999-0201REMSYN070AAXX  17184 83236 32598 33604 10303 20213 39581 40065 82205 333 59020;EQDQ01  00002PRCP06
0226832360999992003031800004-12150-045000FM-12+044099999V0209999C000012200019N0200001N1+02421+02231100901ADDAA106000091AY121061AY221061GF104991031051008001001051KA1240M+03121MA1999999096031MD1999999-0121MW1131REMSYN094AAXX  18004 83236 31598 40000 10242 20223 39603 40090 71322 83505 333 10312 29078 55105 59012;EQDQ01  00002PRCP06
0186832360999992003031812004-12150-045000FM-12+044099999V0200501N005110120019N0100001N1+02301+02091101321ADDAA106000091GF108991071081008001021999KA1240N+02111MA1999999096401MD1999999+0051REMSYN076AAXX  18124 83236 32597 80510 10230 20209 39640 40132 8782/ 333 20211 58005;EQDQ01  00002PRCP06
0167832360999992003031818004-12150-045000FM-12+044099999V0202301N001010450019N0200001N1+02691+02181100861ADDAA106000091GF106991041021008001071051MA1999999095971MD1999999+0161REMSYN070AAXX  18184 83236 32598 62302 10269 20218 39597 40086 84275 333 58016;EQDQ01  00002PRCP06
0226832360999992003032000004-12150-045000FM-12+044099999V0202701N001510075019N0100001N1+02371+02201101301ADDAA106000091AY121061AY221061GF108991071051008001041999KA1240M+03071MA1999999096401MD1999999+0181MW1131REMSYN094AAXX  20004 83236 31597 82703 10237 20220 39640 40130 71322 8754/ 333 10307 29084 55048 58018;EQDQ01  00002PRCP06
0190832360999992003032012004-12150-045000FM-12+044099999V0200501N001512200019N0200001N1+02581+02251101401ADDAY151061AY251061GF104991031021008001001051KA1240N+02171MA1999999096501MD1999999-0041MW1021REMSYN088AAXX  20124 83236 21598 40503 10258 20225 39650 40140 70255 83205 333 20217 59004 69964;
0195832360999992003032018004-12150-045000FM-12+044099999V0200901N002110075019N0100001N1+02831+02201100981ADDAA106000091AY121061AY221061GF108991061051008001041999MA1999999096111MD1999999+0061MW1151REMSYN076AAXX  20184 83236 31597 80904 10283 20220 39611 40098 71522 8654/ 333 58006;EQDQ01  00002PRCP06
0202832360999992003032100004-12150-045000FM-12+044099999V0209999C000010075019N0200001N1+02351+02291101211ADDAY161061AY261061GF106991051051008001071051KA1240M+03111MA1999999096321MD1999999-0081MW1131REMSYN100AAXX  21004 83236 21598 60000 10235 20229 39632 40121 71366 85575 333 10311 29086 55067 59008 60091;
0190832360999992003032112004-12150-045000FM-12+044099999V0202701N001510450019N0100001N1+02201+02181101321ADDAY191061AY261061GF107991041071008001021001KA1240N+02191MA1999999096391MD1999999-0111MW1401REMSYN088AAXX  21124 83236 21597 72703 10220 20218 39639 40132 74096 84720 333 20219 59011 60264;
0167832360999992003032118004-12150-045000FM-12+044099999V0203601N001511050019N0200001N1+02921+02321100741ADDAA106000091GF105991031021008001001021MA1999999095891MD1999999-0221REMSYN070AAXX  21184 83236 32598 53603 10292 20232 39589 40074 83202 333 59022;EQDQ01  00002PRCP06
0186832360999992003032812004-12150-045000FM-12+044099999V0201801N001511050019N0200001N1+02681+02261101271ADDAA106000091GF105991031011008001001051KA1240N+02261MA1999999096401MD1999999+0041REMSYN076AAXX  28124 83236 32598 51803 10268 20226 39640 40127 83105 333 20226 58004;EQDQ01  00002PRCP06
0167832360999992003032818004-12150-045000FM-12+044099999V0200901N002112200019N0200001N1+03121+02191100871ADDAA106000091GF104991021021008001041011MA1999999096051MD1999999+0061REMSYN070AAXX  28184 83236 32598 40904 10312 20219 39605 40087 82241 333 58006;EQDQ01  00002PRCP06
0202832360999992003032900004-12150-045000FM-12+044099999V0201801N001012200019N0200001N1+02371+02311101081ADDAY161061AY261061GF104991041041008001001001KA1240M+03231MA1999999096201MD1999999-0061MW1021REMSYN100AAXX  29004 83236 21598 41802 10237 20231 39620 40108 70266 84400 333 10323 29082 55095 59006 60021;
0190832360999992003032912004-12150-045000FM-12+044099999V0209999C000010075019N0100001N1+02521+02291101291ADDAY151061AY251061GF108991051051008001021999KA1240N+02211MA1999999096391MD1999999-0011MW1021REMSYN088AAXX  29124 83236 21597 80000 10252 20229 39639 40129 70255 8552/ 333 20221 59001 60024;
0167832360999992003032918004-12150-045000FM-12+044099999V0203601N003110450019N0100001N1+02841+02291100901ADDAA106000091GF108991041071008001021999MA1999999096031MD1999999-0021REMSYN070AAXX  29184 83236 32597 83606 10284 20229 39603 40090 8472/ 333 59002;EQDQ01  00002PRCP06
0198832360999992003033000004-12150-045000FM-12+044099999V0201801N000510210019N0100001N1+02311+02181101101ADDAA106000091GF108991081021022501999999KA1240M+03041MA1999999096271MD1999999-0271REMSYN088AAXX  30004 83236 32897 81801 10231 20218 39627 40110 882// 333 10304 29086 55025 59027;EQDQ01  00002PRCP06
0186832360999992003033012004-12150-045000FM-12+044099999V0209999C000010450019N0200001N1+02441+02031101241ADDAA106000091GF106991011011008001031001KA1240N+02071MA1999999096341MD1999999-0051REMSYN076AAXX  30124 83236 32598 60000 10244 20203 39634 40124 81130 333 20207 59005;EQDQ01  00002PRCP06
0167832360999992003033018004-12150-045000FM-12+044099999V0200501N002110450019N0200001N1+03011+02141100711ADDAA106000091GF106991031031008001051051MA1999999095871MD1999999-0161REMSYN070AAXX  30184 83236 32598 60504 10301 20214 39587 40071 83355 333 59016;EQDQ01  00002PRCP06
0202832360999992003033100004-12150-045000FM-12+044099999V0202301N002610075019N0200001N1+02361+02131100971ADDAY151061AY251061GF106991051051008001071031KA1240M+03131MA1999999096081MD1999999-0191MW1131REMSYN100AAXX  31004 83236 21598 62305 10236 20213 39608 40097 71355 85573 333 10313 29078 55046 59019 69921;
0162832360999992003033112004-12150-045000FM-12+044099999V0202301N001512200019N0200001N1+02581+02251101141ADDGF104991011011008001001051KA1240N+02191MA1999999096251MD1999999-0091REMSYN082AAXX  31124 83236 22598 42303 10258 20225 39625 40114 81105 333 20219 59009 69924;
0195832360999992003033118004-12150-045000FM-12+044099999V0201401N006210075019N0200001N1+02741+02171100771ADDAA106000091AY101061AY221061GF107991071071008001001001MA1999999095901MD1999999+0031MW1151REMSYN076AAXX  31184 83236 31598 71412 10274 20217 39590 40077 71502 87700 333 58003;EQDQ01  00002PRCP06
0202832360999992003040100004-12150-045000FM-12+044099999V0209999C000010450019N0100001N1+02361+02281101051ADDAY151061AY251061GF108991031071008001021999KA1240M+03131MA1999999096161MD1999999+0081MW1021REMSYN100AAXX  01004 83236 21597 80000 10236 20228 39616 40105 70255 8372/ 333 10313 29086 55064 58008 60021;
0162832360999992003040112004-12150-045000FM-12+044099999V0202701N000512200019N0200001N1+02541+02211101291ADDGF104991011011008001031001KA1240N+02111MA1999999096391MD1999999+0141REMSYN082AAXX  01124 83236 22598 42701 10254 20221 39639 40129 81130 333 20211 58014 60024;
0167832360999992003040118004-12150-045000FM-12+044099999V0200901N001511050019N0200001N1+03151+02161100741ADDAA106000091GF105991021021008001001021MA1999999096911MD1999999+0011REMSYN070AAXX  01184 83236 32598 50903 10315 20216 39691 40074 82202 333 58001;EQDQ01  00002PRCP06
0226832360999992003040200004-12150-045000FM-12+044099999V0202701N001512200019N0200001N1+02401+02261101161ADDAA106000091AY101061AY221061GF104991041071008001001001KA1240M+03251MA1999999096271MD1999999+0111MW1131REMSYN094AAXX  02004 83236 31598 42703 10240 20226 39627 40116 71302 84700 333 10325 29080 55074 58011;EQDQ01  00002PRCP06
0190832360999992003040212004-12150-045000FM-12+044099999V0209999C000010450019N0200001N1+02541+02251101361ADDAY161061AY261061GF105991021011008001031001KA1240N+02211MA1999999096461MD1999999+0071MW1021REMSYN088AAXX  02124 83236 21598 50000 10254 20225 39646 40136 70266 82130 333 20221 58007 60394;
0167832360999992003040218004-12150-045000FM-12+044099999V0200501N002112200019N0200001N1+03031+02211100901ADDAA106000091GF104991021011008001041001MA1999999096051MD1999999+0141REMSYN070AAXX  02184 83236 32598 40504 10303 20221 39605 40090 82140 333 58014;EQDQ01  00002PRCP06
0210832360999992003040300004-12150-045000FM-12+044099999V0202301N001510075019N0100001N1+02481+02291101141ADDAA106000091GF108991051051008001021999KA1999M+03111KA2999N+00811MA1999999096261MD1999999-0011REMSYN087AAXX  03004 83236 32597 82303 10248 20229 39626 40114 8552/333 10311 29081 55093 59001;EQDQ01  00002PRCP06
0190832360999992003040312004-12150-045000FM-12+044099999V0201401N001510075019N0200001N1+02521+02331101261ADDAY151061AY251061GF107991071051008001001001KA1240N+02271MA1999999096371MD1999999-0091MW1021REMSYN088AAXX  03124 83236 21598 71403 10252 20233 39637 40126 70255 87500 333 20227 59009 69924;
0167832360999992003040318004-12150-045000FM-12+044099999V0200501N002112200019N0200001N1+03081+02241100731ADDAA106000091GF103991021021008001041001MA1999999095911MD1999999-0141REMSYN070AAXX  03184 83236 32598 30504 10308 20224 39591 40073 82240 333 59014;EQDQ01  00002PRCP06
0226832360999992003040400004-12150-045000FM-12+044099999V0202301N001512200019N0200001N1+02481+02251100971ADDAA106000091AY101061AY221061GF103991031071008001001001KA1240M+03161MA1999999096101MD1999999-0161MW1131REMSYN094AAXX  04004 83236 31598 32303 10248 20225 39610 40097 71302 83700 333 10316 29081 55076 59016;EQDQ01  00002PRCP06
0186832360999992003040412004-12150-045000FM-12+044099999V0203201N000510075019N0200001N1+02531+02291101161ADDAA106000091GF106991061021008001001001KA1240N+02251MA1999999096281MD1999999-0091REMSYN076AAXX  04124 83236 32598 63201 10253 20229 39628 40116 86200 333 20225 59009;EQDQ01  00002PRCP06
0167832360999992003040418004-12150-045000FM-12+044099999V0203601N000512200019N0200001N1+03191+02251100621ADDAA106000091GF104991041021008001001001MA1999999095811MD1999999-0101REMSYN070AAXX  04184 83236 32598 43601 10319 20225 39581 40062 84200 333 59010;EQDQ01  00002PRCP06
0226832360999992003040500004-12150-045000FM-12+044099999V0209999C000012200019N0200001N1+02521+02361100891ADDAA106000091AY101061AY221061GF103991031071008001001001KA1240M+03301MA1999999096021MD1999999-0081MW1131REMSYN094AAXX  05004 83236 31598 30000 10252 20236 39602 40089 71302 83700 333 10330 29082 55080 59008;EQDQ01  00002PRCP06
0171832360999992003040512004-12150-045000FM-12+044099999V0209999C000019999999N0200001N1+02701+02331101181ADDAA106000091GF107991999999008001999999KA1240N+02251MA1999999096321REMSYN075AAXX  05124 83236 32598 70000 10270 20233 39632 40118 8275 333 20225 58004;EQDQ01  00002PRCP06
0167832360999992003040518004-12150-045000FM-12+044099999V0203601N002611050019N0200001N1+03221+02231100701ADDAA106000091GF106991041021008001001071MA1999999095881MD1999999+0071REMSYN070AAXX  05184 83236 32598 63605 10322 20223 39588 40070 84207 333 58007;EQDQ01  00002PRCP06
0226832360999992003040600004-12150-045000FM-12+044099999V0201401N001012200019N0200001N1+02501+02341100941ADDAA106000091AY121061AY221061GF103991031051008001001001KA1240M+03321MA1999999096101MD1999999+0081MW1131REMSYN094AAXX  06004 83236 31598 31402 10250 20234 39610 40094 71322 83500 333 10332 29080 55088 58008;EQDQ01  00002PRCP06
0186832360999992003040612004-12150-045000FM-12+044099999V0202301N002110075019N0200001N1+02671+02331101171ADDAA106000091GF107991051041008001061071KA1240N+02151MA1999999096311MD1999999-0011REMSYN076AAXX  06124 83236 32598 72304 10267 20233 39631 40117 85467 333 20215 59001;EQDQ01  00002PRCP06
0167832360999992003040618004-12150-045000FM-12+044099999V0203601N001010450019N0200001N1+03371+02071100591ADDAA106000091GF107991041031008001051071MA1999999095801MD1999999-0081REMSYN070AAXX  06184 83236 32598 73602 10337 20207 39580 40059 84357 333 59008;EQDQ01  00002PRCP06
0226832360999992003040700004-12150-045000FM-12+044099999V0200501N001012200019N0200001N1+02711+02281100801ADDAA106000091AY121061AY221061GF103991031051008001001001KA1240M+03461MA1999999095971MD1999999-0131MW1131REMSYN094AAXX  07004 83236 31598 30502 10271 20228 39597 40080 71322 83500 333 10346 29060 55081 59013;EQDQ01  00002PRCP06
0186832360999992003040712004-12150-045000FM-12+044099999V0209999C000010450019N0200001N1+02651+02291100901ADDAA106000091GF106991041021008001051071KA1240N+02201MA1999999096071MD1999999-0241REMSYN076AAXX  07124 83236 32598 60000 10265 20229 39607 40090 84257 333 20220 59024;EQDQ01  00002PRCP06
0195832360999992003040718004-12150-045000FM-12+044099999V0201401N004110075019N0200001N1+03221+02261100391ADDAA106000091AY121061AY221061GF108991071041008001071999MA1999999095591MD1999999-0111MW1151REMSYN076AAXX  07184 83236 31598 81408 10322 20226 39559 40039 71522 8747/ 333 59011;EQDQ01  00002PRCP06
0226832360999992003040800004-12150-045000FM-12+044099999V0201401N001012200019N0200001N1+02571+02351100781ADDAA106000091AY121061AY221061GF103991021051008001001031KA1240M+03531MA1999999095941MD1999999-0031MW1131REMSYN094AAXX  08004 83236 31598 31402 10257 20235 39594 40078 71322 82503 333 10353 29078 55076 59003;EQDQ01  00002PRCP06
0190832360999992003040812004-12150-045000FM-12+044099999V0209999C000010075019N0100001N1+02261+02121101151ADDAY191061AY261061GF108991071041008001071999KA1240N+02161MA1999999096251MD1999999+0181MW1031REMSYN088AAXX  08124 83236 21597 80000 10226 20212 39625 40115 70396 8747/ 333 20216 58018 60044;
0167832360999992003040818004-12150-045000FM-12+044099999V0201801N003110075019N0100001N1+02691+02261100651ADDAA106000091GF108991061021008001081999MA1999999095791MD1999999+0201REMSYN070AAXX  08184 83236 32597 81806 10269 20226 39579 40065 8628/ 333 58020;EQDQ01  00002PRCP06
0198832360999992003040900004-12150-045000FM-12+044099999V0201801N001012200019N0200001N1+02401+02281100971ADDAA106000091GF104991021021012501001051KA1240M+02881MA1999999096071MD1999999+0131REMSYN088AAXX  09004 83236 32698 41802 10240 20228 39607 40097 82205 333 10288 29089 55005 58013;EQDQ01  00002PRCP06
0190832360999992003040912004-12150-045000FM-12+044099999V0209999C000011050019N0200001N1+02531+02191101231ADDAY151061AY251061GF106991041021008001001051KA1240N+02181MA1999999096341MD1999999+0091MW1021REMSYN088AAXX  09124 83236 21598 60000 10253 20219 39634 40123 70255 84205 333 20218 58009 69934;
0167832360999992003040918004-12150-045000FM-12+044099999V0200501N002110450019N0200001N1+03181+02101100731ADDAA106000091GF105991041021008001071001MA1999999095911MD1999999+0121REMSYN070AAXX  09184 83236 32598 50504 10318 20210 39591 40073 84270 333 58012;EQDQ01  00002PRCP06
0226832360999992003041000004-12150-045000FM-12+044099999V0202301N001010450019N0200001N1+02531+02291101111ADDAA106000091AY121061AY221061GF106991041051008001071051KA1240M+03271MA1999999096241MD1999999+0171MW1131REMSYN094AAXX  10004 83236 31598 62302 10253 20229 39624 40111 71322 84575 333 10327 29077 55099 58017;EQDQ01  00002PRCP06
0186832360999992003041012004-12150-045000FM-12+044099999V0209999C000012200019N0200001N1+02621+02161101301ADDAA106000091GF104991021021012501001071KA1240N+02041MA1999999096421MD1999999+0081REMSYN076AAXX  10124 83236 32698 40000 10262 20216 39642 40130 82207 333 20204 58008;EQDQ01  00002PRCP06
0167832360999992003041018004-12150-045000FM-12+044099999V0203601N002611050019N0200001N1+03241+02001100861ADDAA106000091GF105991031021008001001051MA1999999096021MD1999999+0111REMSYN070AAXX  10184 83236 32598 53605 10324 20200 39602 40086 83205 333 58011;EQDQ01  00002PRCP06
0198832360999992003041100004-12150-045000FM-12+044099999V0201801N001512200019N0200001N1+02411+02171101051ADDAA106000091GF104991021021012501001071KA1240M+03371MA1999999096171MD1999999-0071REMSYN088AAXX  11004 83236 32698 41803 10241 20217 39617 40105 82207 333 10337 29075 55105 59007;EQDQ01  00002PRCP06
0186832360999992003041112004-12150-045000FM-12+044099999V0202701N001012200019N0200001N1+02551+02041101251ADDAA106000091GF102991021021012501001001KA1240N+01951MA1999999096361MD1999999-0061REMSYN076AAXX  11124 83236 32698 22702 10255 20204 39636 40125 82200 333 20195 59006;EQDQ01  00002PRCP06
0167832360999992003041118004-12150-045000FM-12+044099999V0203601N001012200019N0200001N1+03361+01851100711ADDAA106000091GF103991031021008001001001MA1999999095891MD1999999-0131REMSYN070AAXX  11184 83236 32598 33602 10336 20185 39589 40071 83200 333 59013;EQDQ01  00002PRCP06
0198832360999992003041200004-12150-045000FM-12+044099999V0209999C000010450019N0200001N1+02531+02211101021ADDAA106000091GF105991021021008001071051KA1240M+03481MA1999999096151MD1999999-0021REMSYN088AAXX  12004 83236 32598 50000 10253 20221 39615 40102 82275 333 10348 29070 55105 59002;EQDQ01  00002PRCP06
0186832360999992003041212004-12150-045000FM-12+044099999V0202301N001010450019N0200001N1+02601+02121101321ADDAA106000091GF105991021021012501061051KA1240N+02091MA1999999096441MD1999999+0081REMSYN076AAXX  12124 83236 32698 52302 10260 20212 39644 40132 82265 333 20209 58008;EQDQ01  00002PRCP06
0167832360999992003041218004-12150-045000FM-12+044099999V0201401N001012200019N0200001N1+03371+01771100851ADDAA106000091GF104991031021008001001071MA1999999096031MD1999999+0141REMSYN070AAXX  12184 83236 32598 41402 10337 20177 39603 40085 83207 333 58014;EQDQ01  00002PRCP06
0226832360999992003041300004-12150-045000FM-12+044099999V0202701N001010450019N0200001N1+02501+02191101181ADDAA106000091AY121061AY221061GF106991031051012501071051KA1240M+03541MA1999999096311MD1999999+0161MW1131REMSYN094AAXX  13004 83236 31698 62702 10250 20219 39631 40118 71322 83575 333 10354 29070 55102 58016;EQDQ01  00002PRCP06
0190832360999992003041312004-12150-045000FM-12+044099999V0201801N001010450019N0200001N1+02691+02061101391ADDAY151061AY251061GF105991031021008001061051KA1240N+02171MA1999999096521MD1999999+0081MW1021REMSYN088AAXX  13124 83236 21598 51802 10269 20206 39652 40139 70255 83265 333 20217 58008 69914;
0167832360999992003041318004-12150-045000FM-12+044099999V0200501N003612200019N0200001N1+03211+02031100951ADDAA106000091GF104991021021008001001071MA1999999096121MD1999999+0091REMSYN070AAXX  13184 83236 32598 40507 10321 20203 39612 40095 82207 333 58009;EQDQ01  00002PRCP06
0198832360999992003041400004-12150-045000FM-12+044099999V0201801N001511050019N0200001N1+02501+02071101281ADDAA106000091GF105991031001022501071051KA1240M+03351MA1999999096411MD1999999+0101REMSYN088AAXX  14004 83236 32898 51803 10250 20207 39641 40128 83075 333 10335 29068 55097 58010;EQDQ01  00002PRCP06
0190832360999992003041412004-12150-045000FM-12+044099999V0202301N001510075019N0100001N1+02361+02151101571ADDAY161061AY261061GF107991051041008001061051KA1240N+02141MA1999999096661MD1999999+0141MW1101REMSYN088AAXX  14124 83236 21597 72303 10236 20215 39666 40157 71066 85465 333 20214 58014 60424;
0186832360999992003041512004-12150-045000FM-12+044099999V0201801N002611050019N0200001N1+02501+01941101401ADDAA106000091GF105991021021012501051071KA1240N+02121MA1999999096501MD1999999-0161REMSYN076AAXX  15124 83236 32698 51805 10250 20194 39650 40140 82257 333 20212 59016;EQDQ01  00002PRCP06
0167832360999992003041518004-12150-045000FM-12+044099999V0203201N002110075019N0200001N1+03151+02161100931ADDAA106000091GF105991051041008001001001MA1999999096091MD1999999-0081REMSYN070AAXX  15184 83236 32598 53204 10315 20216 39609 40093 85400 333 59008;EQDQ01  00002PRCP06
0202832360999992003041600004-12150-045000FM-12+044099999V0209999C000012200019N0200001N1+02251+02101101191ADDAY161061AY261061GF103991001001999999001031KA1240M+03281MA1999999096291MD1999999-0181MW1021REMSYN100AAXX  16004 83236 21998 30000 10225 20210 39629 40119 70266 80003 333 10328 29078 55096 59018 60101;
0162832360999992003041612004-12150-045000FM-12+044099999V0202701N001010450019N0200001N1+02381+02031101351ADDGF106991031021008001061051KA1240N+02141MA1999999096421MD1999999-0081REMSYN082AAXX  16124 83236 22598 62702 10238 20203 39642 40135 83265 333 20214 59008 60104;
0171832360999992003041618004-12150-045000FM-12+044099999V0201401N001011050019N0200001N1+02991+01921100831ADDAY151061AY251061GF105991021031008001001051MA1999999095971MD1999999-0121MW1021REMSYN082AAXX  16184 83236 21598 51402 10299 20192 39597 40083 70255 82305 333 59012 69921;
0198832360999992003041700004-12150-045000FM-12+044099999V0209999C000012200019N0200001N1+02421+02211101101ADDAA106000091GF103991031001022501051001KA1240M+03241MA1999999096201MD1999999-0031REMSYN088AAXX  17004 83236 32898 30000 10242 20221 39620 40110 83050 333 10324 29078 55076 59003;EQDQ01  00002PRCP06
0174832360999992003041712004-12150-045000FM-12+044099999V0200901N001011050019N0200001N1+02511+01891101401ADDGF105991021021012501001071KA1240N+02011MA1999999096501MD1999999+0081REMSYN094AAXX  17124 83236 22698 50902 10251 20189 39650 40140 82207 333 20201 29078 55076 58008 69924;
0167832360999992003041718004-12150-045000FM-12+044099999V0209999C000011050019N0200001N1+03101+02061100861ADDAA106000091GF105991041021008001001031MA1999999096011MD1999999+0041REMSYN070AAXX  17184 83236 32598 50000 10310 20206 39601 40086 84203 333 58004;EQDQ01  00002PRCP06
0198832360999992003041800004-12150-045000FM-12+044099999V0202301N002112200019N0200001N1+02351+02171101071ADDAA106000091GF103991021021012501001051KA1240M+03251MA1999999096181MD1999999-0081REMSYN088AAXX  18004 83236 32698 32304 10235 20217 39618 40107 82205 333 10325 29076 55101 59008;EQDQ01  00002PRCP06
0202832360999992003041812004-12150-045000FM-12+044099999V0202301N001010450019N0200001N1+02501+02111101361ADDAY151061AY251061GF106991031021012501061051KA1240N+02241MA1999999096451MD1999999-0051MW1021REMSYN100AAXX  18124 83236 21698 62302 10250 20211 39645 40136 70255 83265 333 20224 29078 55076 59005 69914;
0167832360999992003041818004-12150-045000FM-12+044099999V0203601N001512200019N0200001N1+03191+01981100871ADDAA106000091GF103991031021008001001001MA1999999096051MD1999999+0041REMSYN070AAXX  18184 83236 32598 33603 10319 20198 39605 40087 83200 333 58004;EQDQ01  00002PRCP06
0198832360999992003041900004-12150-045000FM-12+044099999V0209999C000012200019N0200001N1+02471+02131101131ADDAA106000091GF102991021021012501001001KA1240M+03281MA1999999096251MD1999999+0071REMSYN088AAXX  19004 83236 32698 20000 10247 20213 39625 40113 82200 333 10328 29073 55080 58007;EQDQ01  00002PRCP06
0186832360999992003041912004-12150-045000FM-12+044099999V0209999C000012200019N0200001N1+02511+01841101421ADDAA106000091GF102991021011012501001001KA1240N+02111MA1999999096531MD1999999+0081REMSYN076AAXX  19124 83236 32698 20000 10251 20184 39653 40142 82100 333 20211 58008;EQDQ01  00002PRCP06
0167832360999992003041918004-12150-045000FM-12+044099999V0202701N001512200019N0200001N1+03211+01931101011ADDAA106000091GF104991041021012501001001MA1999999096171MD1999999+0121REMSYN070AAXX  19184 83236 32698 42703 10321 20193 39617 40101 84200 333 58012;EQDQ01  00002PRCP06
0198832360999992003042000004-12150-045000FM-12+044099999V0202701N001012200019N0200001N1+02341+02091101101ADDAA106000091GF102991021021012501001001KA1240M+03321MA1999999096201MD1999999-0051REMSYN088AAXX  20004 83236 32698 22702 10234 20209 39620 40110 82200 333 10332 29072 55107 59005;EQDQ01  00002PRCP06
0196832360999992003042012004-12150-045000FM-12+044099999V0202301N001012200019N0200001N1+02541+01981101251ADDAA106000091GA1001+999999999GF100991001001999999001001KA1240N+02081MA1999999096381MD1999999-0151REMSYN070AAXX  20124 83236 32998 02302 10254 20198 39638 40125 333 20208 59015;EQDQ01  00002PRCP06
0167832360999992003042018004-12150-045000FM-12+044099999V0201401N002112200019N0200001N1+03221+01981100701ADDAA106000091GF105991031021008001001041MA1999999095881MD1999999-0291REMSYN070AAXX  20184 83236 32598 51404 10322 20198 39588 40070 83204 333 59029;EQDQ01  00002PRCP06
0208832360999992003042100004-12150-045000FM-12+044099999V0209999C000012200019N0200001N1+02321+02201100941ADDAA106000091GA1001+999999999GF100991001001999999001001KA1240M+03341MA1999999096061MD1999999-0141REMSYN082AAXX  21004 83236 32998 00000 10232 20220 39606 40094 333 10334 29076 55090 59014;EQDQ01  00002PRCP06
0186832360999992003042112004-12150-045000FM-12+044099999V0201801N001012200019N0200001N1+02481+01901101351ADDAA106000091GF102991001001999999001041KA1240N+01861MA1999999096441MD1999999+0061REMSYN076AAXX  21124 83236 32998 21802 10248 20190 39644 40135 80004 333 20186 58006;EQDQ01  00002PRCP06
0167832360999992003042118004-12150-045000FM-12+044099999V0201401N002612200019N0200001N1+03111+01701100891ADDAA106000091GF102991021011008001001001MA1999999096041MD1999999+0161REMSYN070AAXX  21184 83236 32598 21405 10311 20170 39604 40089 82100 333 58016;EQDQ01  00002PRCP06
0208832360999992003042200004-12150-045000FM-12+044099999V0209999C000012200019N0200001N1+02181+01971101141ADDAA106000091GA1001+999999999GF100991001001999999001001KA1240M+03231MA1999999096231MD1999999+0171REMSYN082AAXX  22004 83236 32998 00000 10218 20197 39623 40114 333 10323 29072 55106 58017;EQDQ01  00002PRCP06
0196832360999992003042212004-12150-045000FM-12+044099999V0201401N001512200019N0200001N1+02441+01901101411ADDAA106000091GA1001+999999999GF100991001001999999001001KA1240N+01861MA1999999096471MD1999999+0031REMSYN070AAXX  22124 83236 32998 01403 10244 20190 39647 40141 333 20186 58003;EQDQ01  00002PRCP06
0177832360999992003042218004-12150-045000FM-12+044099999V0201401N003612200019N0200001N1+03091+01781100941ADDAA106000091GA1001+999999999GF100991001001999999001001MA1999999096081MD1999999+0041REMSYN064AAXX  22184 83236 32998 01407 10309 20178 39608 40094 333 58004;EQDQ01  00002PRCP06
0198832360999992003042300004-12150-045000FM-12+044099999V0202701N001012200019N0200001N1+02221+01991101241ADDAA106000091GF103991031021008001001001KA1240M+03231MA1999999096331MD1999999+0101REMSYN088AAXX  23004 83236 32598 32702 10222 20199 39633 40124 83200 333 10323 29073 55108 58010;EQDQ01  00002PRCP06
0196832360999992003042312004-12150-045000FM-12+044099999V0202301N001512200019N0200001N1+02351+01851101471ADDAA106000091GA1001+999999999GF100991001001999999001001KA1240N+01831MA1999999096531MD1999999+0061REMSYN070AAXX  23124 83236 32998 02303 10235 20185 39653 40147 333 20183 58006;EQDQ01  00002PRCP06
0167832360999992003042318004-12150-045000FM-12+044099999V0201401N003112200019N0200001N1+03131+02021100891ADDAA106000091GF104991041021008001001001MA1999999096031MD1999999-0051REMSYN070AAXX  23184 83236 32598 41406 10313 20202 39603 40089 84200 333 59005;EQDQ01  00002PRCP06
0198832360999992003042400004-12150-045000FM-12+044099999V0202701N001012200019N0200001N1+02561+02021101181ADDAA106000091GF104991041081008001001001KA1240M+03251MA1999999096291MD1999999-0041REMSYN088AAXX  24004 83236 32598 42702 10256 20202 39629 40118 84800 333 10325 29068 55106 59004;EQDQ01  00002PRCP06
0186832360999992003042412004-12150-045000FM-12+044099999V0201801N004112200019N0200001N1+02491+01941101491ADDAA106000091GF103991021011008001061001KA1240N+02011MA1999999096591MD1999999+0061REMSYN076AAXX  24124 83236 32598 31808 10249 20194 39659 40149 82160 333 20201 58006;EQDQ01  00002PRCP06
0167832360999992003042418004-12150-045000FM-12+044099999V0200901N001512200019N0200001N1+03101+02001100931ADDAA106000091GF104991031021008001001071MA1999999096091MD1999999+0061REMSYN070AAXX  24184 83236 32598 40903 10310 20200 39609 40093 83207 333 58006;EQDQ01  00002PRCP06
0208832360999992003042500004-12150-045000FM-12+044099999V0209999C000012200019N0200001N1+02251+02051101151ADDAA106000091GA1001+999999999GF100991001001999999001001KA1240M+03241MA1999999096241MD1999999-0051REMSYN082AAXX  25004 83236 32998 00000 10225 20205 39624 40115 333 10324 29076 55107 59005;EQDQ01  00002PRCP06
0186832360999992003042512004-12150-045000FM-12+044099999V0201801N002611050019N0200001N1+02461+02031101381ADDAA106000091GF106991011011008001031061KA1240N+01951MA1999999096461MD1999999-0131REMSYN076AAXX  25124 83236 32598 61805 10246 20203 39646 40138 81136 333 20195 59013;EQDQ01  00002PRCP06
0167832360999992003042518004-12150-045000FM-12+044099999V0202301N002112200019N0200001N1+03011+02111100911ADDAA106000091GF106991041021008001001041MA1999999096041MD1999999-0051REMSYN070AAXX  25184 83236 32598 62304 10301 20211 39604 40091 84204 333 59005;EQDQ01  00002PRCP06
0208832360999992003042600004-12150-045000FM-12+044099999V0202701N002112200019N0200001N1+02331+02071101221ADDAA106000091GA1001+999999999GF100991001001999999001001KA1240M+03251MA1999999096321MD1999999+0081REMSYN082AAXX  26004 83236 32998 02704 10233 20207 39632 40122 333 10325 29077 55087 58008;EQDQ01  00002PRCP06
0186832360999992003042612004-12150-045000FM-12+044099999V0202301N001012200019N0200001N1+02481+01961101491ADDAA106000091GF103991011001022501041081KA1240N+01841MA1999999096571MD1999999+0111REMSYN076AAXX  26124 83236 32898 32302 10248 20196 39657 40149 81048 333 20184 58011;EQDQ01  00002PRCP06
0167832360999992003042618004-12150-045000FM-12+044099999V0203601N001012200019N0200001N1+03291+02081101091ADDAA106000091GF104991041021008001001001MA1999999096231MD1999999+0191REMSYN070AAXX  26184 83236 32598 43602 10329 20208 39623 40109 84200 333 58019;EQDQ01  00002PRCP06
0198832360999992003042700004-12150-045000FM-12+044099999V0201801N000512200019N0200001N1+02371+02131101321ADDAA106000091GF103991031001022501061001KA1240M+03411MA1999999096411MD1999999+0091REMSYN088AAXX  27004 83236 32898 31801 10237 20213 39641 40132 83060 333 10341 29074 55103 58009;EQDQ01  00002PRCP06
0186832360999992003042712004-12150-045000FM-12+044099999V0202701N001519999999N0200001N1+02301+02091101541ADDAA106000091GF106991001001999999001061KA1240N+01931MA1999999096611MD1999999+0041REMSYN076AAXX  27124 83236 32998 62703 10230 20209 39661 40154 80006 333 20193 58004;EQDQ01  00002PRCP06
0167832360999992003042718004-12150-045000FM-12+044099999V0201401N003111050019N0200001N1+03171+01991101001ADDAA106000091GF105991031021008001001021MA1999999096141MD1999999-0091REMSYN070AAXX  27184 83236 32598 51406 10317 20199 39614 40100 83202 333 59009;EQDQ01  00002PRCP06
0208832360999992003042800004-12150-045000FM-12+044099999V0202701N001012200019N0200001N1+02271+02071101261ADDAA106000091GA1001+999999999GF100991001001999999001001KA1240M+03281MA1999999096341MD1999999-0071REMSYN082AAXX  28004 83236 32998 02702 10227 20207 39634 40126 333 10328 29079 55073 59007;EQDQ01  00002PRCP06
0186832360999992003042812004-12150-045000FM-12+044099999V0202301N000512200019N0200001N1+02461+01991101391ADDAA106000091GF102991001001999999001021KA1240N+01881MA1999999096471MD1999999-0141REMSYN076AAXX  28124 83236 32998 22301 10246 20199 39647 40139 80002 333 20188 59014;EQDQ01  00002PRCP06
0167832360999992003042818004-12150-045000FM-12+044099999V0201801N002111050019N0200001N1+03291+01861100831ADDAA106000091GF105991041021008001001021MA1999999095981MD1999999-0161REMSYN070AAXX  28184 83236 32598 51804 10329 20186 39598 40083 84202 333 59016;EQDQ01  00002PRCP06
0198832360999992003042900004-12150-045000FM-12+044099999V0202301N001012200019N0200001N1+02401+02211101071ADDAA106000091GF103991031021008001001001KA1240M+03451MA1999999096181MD1999999-0161REMSYN088AAXX  29004 83236 32598 32302 10240 20221 39618 40107 83200 333 10345 29074 55102 59016;EQDQ01  00002PRCP06
0186832360999992003042912004-12150-045000FM-12+044099999V0209999C000012200019N0200001N1+02481+02051101371ADDAA106000091GF102991021001022501041001KA1240N+01931MA1999999096471MD1999999+0001REMSYN076AAXX  29124 83236 32898 20000 10248 20205 39647 40137 82040 333 20193 58000;EQDQ01  00002PRCP06
0167832360999992003042918004-12150-045000FM-12+044099999V0202701N001512200019N0200001N1+03341+01951100851ADDAA106000091GF104991041021008001001001MA1999999096021MD1999999+0041REMSYN070AAXX  29184 83236 32598 42703 10334 20195 39602 40085 84200 333 58004;EQDQ01  00002PRCP06
0198832360999992003043000004-12150-045000FM-12+044099999V0209999C000012200019N0200001N1+02421+02251101131ADDAA106000091GF103991031021008001001001KA1240M+03461MA1999999096241MD1999999+0061REMSYN088AAXX  30004 83236 32598 30000 10242 20225 39624 40113 83200 333 10346 29075 55105 58006;EQDQ01  00002PRCP06
0186832360999992003043012004-12150-045000FM-12+044099999V0209999C000012200019N0200001N1+02581+02011101381ADDAA106000091GF103991031001022501081001KA1240N+02061MA1999999096491MD1999999+0021REMSYN076AAXX  30124 83236 32898 30000 10258 20201 39649 40138 83080 333 20206 58002;EQDQ01  00002PRCP06
0167832360999992003043018004-12150-045000FM-12+044099999V0203201N001512200019N0200001N1+03341+01911100911ADDAA106000091GF104991041021008001001001MA1999999096081MD1999999+0061REMSYN070AAXX  30184 83236 32598 43203 10334 20191 39608 40091 84200 333 58006;EQDQ01  00002PRCP06
0208832360999992003050100004-12150-045000FM-12+044099999V0202301N001012200019N0200001N1+02421+02211101141ADDAA106000091GA1001+999999999GF100991001001999999001001KA1240M+03491MA1999999096261MD1999999+0021REMSYN082AAXX  01004 83236 32998 02302 10242 20221 39626 40114 333 10349 29072 55103 58002;EQDQ01  00002PRCP06
0186832360999992003050112004-12150-045000FM-12+044099999V0203601N001012200019N0200001N1+02581+02191101501ADDAA106000091GF103991031041008001001001KA1240N+02131MA1999999096601MD1999999+0111REMSYN076AAXX  01124 83236 32598 33602 10258 20219 39660 40150 83400 333 20213 58011;EQDQ01  00002PRCP06
0167832360999992003050118004-12150-045000FM-12+044099999V0203601N001512200019N0200001N1+03271+01881100921ADDAA106000091GF104991031021008001001071MA1999999096091MD1999999+0011REMSYN070AAXX  01184 83236 32598 43603 10327 20188 39609 40092 83207 333 58001;EQDQ01  00002PRCP06
0208832360999992003050200004-12150-045000FM-12+044099999V0201801N001012200019N0200001N1+02441+02251101121ADDAA106000091GA1001+999999999GF100991001001999999001001KA1240M+03411MA1999999096241MD1999999-0021REMSYN082AAXX  02004 83236 32998 01802 10244 20225 39624 40112 333 10341 29075 55085 59002;EQDQ01  00002PRCP06
0186832360999992003050212004-12150-045000FM-12+044099999V0202301N001512200019N0200001N1+02461+02091101311ADDAA106000091GF104991011011008001001071KA1240N+01921MA1999999096411MD1999999-0191REMSYN076AAXX  02124 83236 32598 42303 10246 20209 39641 40131 81107 333 20192 59019;EQDQ01  00002PRCP06
0167832360999992003050218004-12150-045000FM-12+044099999V0203201N001512200019N0200001N1+03431+01781100701ADDAA106000091GF103991031021008001001001MA1999999095881MD1999999-0211REMSYN070AAXX  02184 83236 32598 33203 10343 20178 39588 40070 83200 333 59021;EQDQ01  00002PRCP06
0198832360999992003050300004-12150-045000FM-12+044099999V0202701N001012200019N0200001N1+02461+02211100861ADDAA106000091GF102991021001022501061001KA1240M+03531MA1999999095981MD1999999-0261REMSYN088AAXX  03004 83236 32898 22702 10246 20221 39598 40086 82060 333 10353 29072 55100 59026;EQDQ01  00002PRCP06
0186832360999992003050312004-12150-045000FM-12+044099999V0203601N001010075019N0200001N1+02411+02261101211ADDAA106000091GF107991071051008001001001KA1240N+02091MA1999999096321MD1999999-0091REMSYN076AAXX  03124 83236 32598 73602 10241 20226 39632 40121 87500 333 20209 59009;EQDQ01  00002PRCP06
0171832360999992003050318004-12150-045000FM-12+044099999V0203201N001510450019N0200001N1+02691+02311100861ADDAY161061AY261061GF107991041071008001021001MA1999999095971MD1999999+0091MW1131REMSYN082AAXX  03184 83236 21598 73203 10269 20231 39597 40086 71366 84720 333 58009 60021;
0198832360999992003050400004-12150-045000FM-12+044099999V0203601N001012200019N0200001N1+02321+02251101021ADDAA106000091GF104991041001022501021001KA1240M+03411MA1999999096121MD1999999+0141REMSYN088AAXX  04004 83236 32898 43602 10232 20225 39612 40102 84020 333 10341 29091 55011 58014;EQDQ01  00002PRCP06
0162832360999992003050412004-12150-045000FM-12+044099999V0202701N001010450019N0200001N1+02341+02111101271ADDGF106991041081008001011001KA1240N+01971MA1999999096351MD1999999+0031REMSYN082AAXX  04124 83236 22598 62702 10234 20211 39635 40127 84810 333 20197 58003 60024;
0167832360999992003050418004-12150-045000FM-12+044099999V0200901N002112200019N0200001N1+03131+02111100821ADDAA106000091GF105991041021008001001041MA1999999095961MD1999999-0011REMSYN070AAXX  04184 83236 32598 50904 10313 20211 39596 40082 84204 333 59001;EQDQ01  00002PRCP06
0242832360999992003050500004-12150-045000FM-12+044099999V0200501N006219999999N0200001N1+02441+02111101201ADDAA106000091AY101061AY221061GF105991999071008001001001KA1240M+03301MA1999999096301MD1999999+0181MW1131REMSYN094AAXX  05004 83236 31598 50512 10244 20211 39630 40120 71302 84700 333 10330 29076 55068 58018;EQDQ01+000042SCOTLCQ02  00002PRCP06
0186832360999992003050512004-12150-045000FM-12+044099999V0200501N002110450019N0200001N1+02501+02131101451ADDAA106000091GF105991041021012501051001KA1240N+02081MA1999999096541MD1999999+0191REMSYN076AAXX  05124 83236 32698 50504 10250 20213 39654 40145 84250 333 20208 58019;EQDQ01  00002PRCP06
0195832360999992003050518004-12150-045000FM-12+044099999V0200901N002110075019N0200001N1+03051+01911101011ADDAA106000091AY121061AY221061GF106991051051008001071051MA1999999096151MD1999999+0191MW1161REMSYN076AAXX  05184 83236 31598 60904 10305 20191 39615 40101 71622 85575 333 58019;EQDQ01  00002PRCP06
0198832360999992003050600004-12150-045000FM-12+044099999V0209999C000012200019N0200001N1+02281+02131101141ADDAA106000091GF102991021021008001001001KA1240M+03161MA1999999096241MD1999999-0061REMSYN088AAXX  06004 83236 32598 20000 10228 20213 39624 40114 82200 333 10316 29078 55070 59006;EQDQ01  00002PRCP06
0186832360999992003050612004-12150-045000FM-12+044099999V0200501N001511050019N0200001N1+02421+02011101371ADDAA106000091GF105991031001022501071051KA1240N+01831MA1999999096451MD1999999-0091REMSYN076AAXX  06124 83236 32898 50503 10242 20201 39645 40137 83075 333 20183 59009;EQDQ01  00002PRCP06
0167832360999992003050618004-12150-045000FM-12+044099999V0200501N002110450019N0200001N1+03201+01991100921ADDAA106000091GF106991041021008001071051MA1999999095961MD1999999-0191REMSYN070AAXX  06184 83236 32598 60504 10320 20199 39596 40092 84275 333 59019;EQDQ01  00002PRCP06
0198832360999992003050700004-12150-045000FM-12+044099999V0202301N001012200019N0200001N1+02341+02091101021ADDAA106000091GF103991031021012501051001KA1240M+03311MA1999999096131MD1999999-0111REMSYN088AAXX  07004 83236 32698 32302 10234 20209 39613 40102 83250 333 10331 29075 55104 59011;EQDQ01  00002PRCP06
0186832360999992003050712004-12150-045000FM-12+044099999V0202301N001510450019N0200001N1+02631+02181101241ADDAA106000091GF106991041021008001061031KA1240N+02151MA1999999096351MD1999999-0101REMSYN076AAXX  07124 83236 32598 62303 10263 20218 39635 40124 84263 333 20215 59010;EQDQ01  00002PRCP06
0195832360999992003050718004-12150-045000FM-12+044099999V0203201N001510075019N0200001N1+02861+02311100891ADDAA106000091AY121061AY221061GF108991051051008001071041MA1999999096021MD1999999+0061MW1151REMSYN076AAXX  07184 83236 31598 83203 10286 20231 39602 40089 71522 85574 333 58006;EQDQ01  00002PRCP06
0198832360999992003050800004-12150-045000FM-12+044099999V0202301N001510450019N0200001N1+02461+02231101161ADDAA106000091GF106991041021008001051071KA1240M+03121MA1999999096291MD1999999+0161REMSYN088AAXX  08004 83236 32598 62303 10246 20223 39629 40116 84257 333 10312 29081 55042 58016;EQDQ01  00002PRCP06
0214832360999992003050812004-12150-045000FM-12+044099999V0201401N001510450019N0200001N1+02541+02211101341ADDAA106000091AY121061AY221061GF106991041051008001071051KA1240N+02111MA1999999096451MD1999999+0101MW1151REMSYN082AAXX  08124 83236 31598 61403 10254 20221 39645 40134 71522 84575 333 20211 58010;EQDQ01  00002PRCP06
0167832360999992003050818004-12150-045000FM-12+044099999V0201401N003110450019N0200001N1+03091+02241100871ADDAA106000091GF106991031021008001061071MA1999999096031MD1999999+0011REMSYN070AAXX  08184 83236 32598 61406 10309 20224 39603 40087 83267 333 58001;EQDQ01  00002PRCP06
0226832360999992003050900004-12150-045000FM-12+044099999V0202701N001010450019N0200001N1+02501+02231101251ADDAA106000091AY121061AY221061GF105991041051008001061001KA1240M+03251MA1999999096361MD1999999+0071MW1131REMSYN094AAXX  09004 83236 31598 52702 10250 20223 39636 40125 71322 84560 333 10325 29078 55053 58007;EQDQ01  00002PRCP06
0186832360999992003050912004-12150-045000FM-12+044099999V0202301N001510450019N0200001N1+02391+01991101481ADDAA106000091GF106991031021008001051071KA1240N+02131MA1999999096571MD1999999+0121REMSYN076AAXX  09124 83236 32598 62303 10239 20199 39657 40148 83257 333 20213 58012;EQDQ01  00002PRCP06
0167832360999992003050918004-12150-045000FM-12+044099999V0200901N001012200019N0200001N1+03181+02191100911ADDAA106000091GF103991021021008001001051MA1999999096071MD1999999+0041REMSYN070AAXX  09184 83236 32598 30902 10318 20219 39607 40091 82205 333 58004;EQDQ01  00002PRCP06
0198832360999992003051000004-12150-045000FM-12+044099999V0202701N001512200019N0200001N1+02361+02091101191ADDAA106000091GF104991001001999999001071KA1240M+03311MA1999999096291MD1999999-0071REMSYN088AAXX  10004 83236 32998 42703 10236 20209 39629 40119 80007 333 10331 29076 55077 59007;EQDQ01  00002PRCP06
0167832360999992003051018004-12150-045000FM-12+044099999V0201401N001010075019N0200001N1+02921+02141101181ADDAA106000091GF107991051021008001051001MA1999999096291MD1999999+0221REMSYN070AAXX  10184 83236 32598 71402 10292 20214 39629 40118 85250 333 58022;EQDQ01  00002PRCP06
0226832360999992003051100004-12150-045000FM-12+044099999V0202301N001510450019N0200001N1+02311+02031101521ADDAA106000091AY121061AY221061GF105991031051008001071031KA1240M+03011MA1999999096571MD1999999+0281MW1131REMSYN094AAXX  11004 83236 31598 52303 10231 20203 39657 40152 71322 83573 333 10301 29080 55009 58028;EQDQ01  00002PRCP06
0186832360999992003051112004-12150-045000FM-12+044099999V0201801N001010075019N0200001N1+02351+01871101751ADDAA106000091GF105991051021008001061001KA1240N+01991MA1999999096801MD1999999+0161REMSYN076AAXX  11124 83236 32598 51802 10235 20187 39680 40175 85260 333 20199 58016;EQDQ01  00002PRCP06
0167832360999992003051118004-12150-045000FM-12+044099999V0201401N002610075019N0200001N1+03021+01861101281ADDAA106000091GF106991061021008001001001MA1999999096401MD1999999+0111REMSYN070AAXX  11184 83236 32598 61405 10302 20186 39640 40128 86200 333 58011;EQDQ01  00002PRCP06
0198832360999992003051200004-12150-045000FM-12+044099999V0202701N002112200019N0200001N1+02211+01761101481ADDAA106000091GF102991001001999999001031KA1240M+03111MA1999999096531MD1999999-0041REMSYN088AAXX  12004 83236 32998 22704 10221 20176 39653 40148 80003 333 10311 29069 55078 59004;EQDQ01  00002PRCP06
0186832360999992003051212004-12150-045000FM-12+044099999V0201801N002612200019N0200001N1+02361+01781101711ADDAA106000091GF102991021011012501001001KA1240N+01801MA1999999096731MD1999999-0041REMSYN076AAXX  12124 83236 32698 21805 10236 20178 39673 40171 82100 333 20180 59004;EQDQ01  00002PRCP06
0167832360999992003051218004-12150-045000FM-12+044099999V0200901N001510075019N0200001N1+03111+01801101171ADDAA106000091GF105991051021008001001001MA1999999096311MD1999999-0091REMSYN070AAXX  12184 83236 32598 50903 10311 20180 39631 40117 85200 333 59009;EQDQ01  00002PRCP06
0198832360999992003051300004-12150-045000FM-12+044099999V0202701N002612200019N0200001N1+02231+01861101441ADDAA106000091GF102991001001999999001031KA1240M+03211MA1999999096521MD1999999+0011REMSYN088AAXX  13004 83236 32998 22705 10223 20186 39652 40144 80003 333 10321 29069 55099 58001;EQDQ01  00002PRCP06
0186832360999992003051312004-12150-045000FM-12+044099999V0202301N001511050019N0200001N1+02311+01771101631ADDAA106000091GF106991031021012501001081KA1240N+01781MA1999999096671MD1999999-0091REMSYN076AAXX  13124 83236 32698 62303 10231 20177 39667 40163 83208 333 20178 59009;EQDQ01  00002PRCP06
0167832360999992003051318004-12150-045000FM-12+044099999V0201401N002112200019N0200001N1+03141+01941101091ADDAA106000091GF104991041021008001001001MA1999999096221MD1999999-0091REMSYN070AAXX  13184 83236 32598 41404 10314 20194 39622 40109 84200 333 59009;EQDQ01  00002PRCP06
0208832360999992003051400004-12150-045000FM-12+044099999V0202701N001512200019N0200001N1+02201+01741101391ADDAA106000091GA1001+999999999GF100991001001999999001001KA1240M+03261MA1999999096451MD1999999-0071REMSYN082AAXX  14004 83236 32998 02703 10220 20174 39645 40139 333 10326 29068 55093 59007;EQDQ01  00002PRCP06
0186832360999992003051412004-12150-045000FM-12+044099999V0201801N002112200019N0200001N1+02361+01851101551ADDAA106000091GF102991021011012501001001KA1240N+01671MA1999999096611MD1999999-0061REMSYN076AAXX  14124 83236 32698 21804 10236 20185 39661 40155 82100 333 20167 59006;EQDQ01  00002PRCP06
0167832360999992003051418004-12150-045000FM-12+044099999V0200901N002612200019N0200001N1+03211+02031100991ADDAA106000091GF103991031021008001001001MA1999999096121MD1999999-0101REMSYN070AAXX  14184 83236 32598 30905 10321 20203 39612 40099 83200 333 59010;EQDQ01  00002PRCP06
0198832360999992003051500004-12150-045000FM-12+044099999V0209999C000012200019N0200001N1+02251+01981101331ADDAA106000091GF104991041021008001061001KA1240M+03301MA1999999096401MD1999999-0051REMSYN088AAXX  15004 83236 32598 40000 10225 20198 39640 40133 84260 333 10330 29073 55101 59005;EQDQ01  00002PRCP06
0186832360999992003051512004-12150-045000FM-12+044099999V0201801N001510450019N0200001N1+02561+02041101571ADDAA106000091GF105991041021008001051031KA1240N+02091MA1999999096651MD1999999+0041REMSYN076AAXX  15124 83236 32598 51803 10256 20204 39665 40157 84253 333 20209 58004;EQDQ01  00002PRCP06
0167832360999992003051518004-12150-045000FM-12+044099999V0201401N004110450019N0200001N1+03111+02031101151ADDAA106000091GF106991041041008001071051MA1999999096301MD1999999+0181REMSYN070AAXX  15184 83236 32598 61408 10311 20203 39630 40115 84475 333 58018;EQDQ01  00002PRCP06
0198832360999992003051600004-12150-045000FM-12+044099999V0201801N002110120019N0200001N1+02521+02021101291ADDAA106000091GF105991051021012501061001KA1240M+03191MA1999999096411MD1999999+0011REMSYN088AAXX  16004 83236 32698 51804 10252 20202 39641 40129 85260 333 10319 29068 55073 58001;EQDQ01  00002PRCP06
0186832360999992003051612004-12150-045000FM-12+044099999V0201401N003111050019N0200001N1+02501+02001101501ADDAA106000091GF105991031021012501001031KA1240N+02101MA1999999096601MD1999999-0051REMSYN076AAXX  16124 83236 32698 51406 10250 20200 39660 40150 83203 333 20210 59005;EQDQ01  00002PRCP06
0167832360999992003051618004-12150-045000FM-12+044099999V0201401N003110450019N0200001N1+03001+01971101061ADDAA106000091GF106991041041008001071051MA1999999096201MD1999999-0101REMSYN070AAXX  16184 83236 32598 61406 10300 20197 39620 40106 84475 333 59010;EQDQ01  00002PRCP06
0198832360999992003051700004-12150-045000FM-12+044099999V0201801N003110075019N0200001N1+02521+01611101221ADDAA106000091GF107991061021008001061001KA1240M+03121MA1999999096341MD1999999-0071REMSYN088AAXX  17004 83236 32598 71806 10252 20161 39634 40122 86260 333 10312 29060 55088 59007;EQDQ01  00002PRCP06
0186832360999992003051712004-12150-045000FM-12+044099999V0201401N003112200019N0200001N1+02421+01671101441ADDAA106000091GF102991021021012501001001KA1240N+01811MA1999999096541MD1999999-0061REMSYN076AAXX  17124 83236 32698 21406 10242 20167 39654 40144 82200 333 20181 59006;EQDQ01  00002PRCP06
0167832360999992003051718004-12150-045000FM-12+044099999V0201401N004112200019N0200001N1+03041+01411100951ADDAA106000091GF101991011011012501001001MA1999999096071MD1999999-0191REMSYN070AAXX  17184 83236 32698 11408 10304 20141 39607 40095 81100 333 59019;EQDQ01  00002PRCP06
0198832360999992003051800004-12150-045000FM-12+044099999V0202301N001512200019N0200001N1+02061+01761101301ADDAA106000091GF103991031021012501001001KA1240M+03121MA1999999096361MD1999999+0061REMSYN088AAXX  18004 83236 32698 32303 10206 20176 39636 40130 83200 333 10312 29066 55106 58006;EQDQ01  00002PRCP06
0186832360999992003051812004-12150-045000FM-12+044099999V0201401N001512200019N0200001N1+02441+01831101581ADDAA106000091GF102991021011012501001001KA1240N+01781MA1999999096631MD1999999+0091REMSYN076AAXX  18124 83236 32698 21403 10244 20183 39663 40158 82100 333 20178 58009;EQDQ01  00002PRCP06
0167832360999992003051818004-12150-045000FM-12+044099999V0200901N003110120019N0200001N1+03081+01781100971ADDAA106000091GF105991051021012501001001MA1999999096121MD1999999+0051REMSYN070AAXX  18184 83236 32698 50906 10308 20178 39612 40097 85200 333 58005;EQDQ01  00002PRCP06
0198832360999992003051900004-12150-045000FM-12+044099999V0200901N004110075019N0200001N1+02701+01721101301ADDAA106000091GF105991051021008001061001KA1240M+03221MA1999999096421MD1999999+0061REMSYN088AAXX  19004 83236 32598 50908 10270 20172 39642 40130 85260 333 10322 29056 55106 58006;EQDQ01  00002PRCP06
0186832360999992003051912004-12150-045000FM-12+044099999V0200901N002612200019N0200001N1+02661+01741101501ADDAA106000091GF102991021021008001001001KA1240N+01951MA1999999096641MD1999999+0011REMSYN076AAXX  19124 83236 32598 20905 10266 20174 39664 40150 82200 333 20195 58001;EQDQ01  00002PRCP06
0167832360999992003051918004-12150-045000FM-12+044099999V0200901N005112200019N0200001N1+03091+01781100951ADDAA106000091GF103991031021008001001001MA1999999096091MD1999999-0031REMSYN070AAXX  19184 83236 32598 30910 10309 20178 39609 40095 83200 333 59003;EQDQ01  00002PRCP06
0198832360999992003052000004-12150-045000FM-12+044099999V0202301N002112200019N0200001N1+02331+01811101251ADDAA106000091GF103991001001999999001051KA1240M+03171MA1999999096361MD1999999-0061REMSYN088AAXX  20004 83236 32998 32304 10233 20181 39636 40125 80005 333 10317 29062 55095 59006;EQDQ01  00002PRCP06
0186832360999992003052012004-12150-045000FM-12+044099999V0201401N002112200019N0200001N1+02451+01921101571ADDAA106000091GF103991031011008001001001KA1240N+01871MA1999999096651MD1999999+0011REMSYN076AAXX  20124 83236 32598 31404 10245 20192 39665 40157 83100 333 20187 58001;EQDQ01  00002PRCP06
0167832360999992003052018004-12150-045000FM-12+044099999V0201401N003112200019N0200001N1+03161+01991101001ADDAA106000091GF104991041021008001001001MA1999999096141MD1999999+0051REMSYN070AAXX  20184 83236 32598 41406 10316 20199 39614 40100 84200 333 58005;EQDQ01  00002PRCP06
0198832360999992003052100004-12150-045000FM-12+044099999V0202301N001512200019N0100001N1+02441+01971101251ADDAA106000091GF104991041021008001001001KA1240M+03291MA1999999096351MD1999999-0011REMSYN088AAXX  21004 83236 32597 42303 10244 20197 39635 40125 84200 333 10329 29068 55099 59001;EQDQ01  00002PRCP06
0186832360999992003052112004-12150-045000FM-12+044099999V0202701N000512200019N0200001N1+02361+01851101451ADDAA106000091GF101991001001999999001011KA1240N+01781MA1999999096541MD1999999-0111REMSYN076AAXX  21124 83236 32998 12701 10236 20185 39654 40145 80001 333 20178 59011;EQDQ01  00002PRCP06
0167832360999992003052118004-12150-045000FM-12+044099999V0201401N002612200019N0200001N1+03251+01581100901ADDAA106000091GF103991031011008001001001MA1999999096061MD1999999-0081REMSYN070AAXX  21184 83236 32598 31405 10325 20158 39606 40090 83100 333 59008;EQDQ01  00002PRCP06
0208832360999992003052200004-12150-045000FM-12+044099999V0202701N001512200019N0200001N1+02231+01921101211ADDAA106000091GA1001+999999999GF100991001001999999001001KA1240M+03391MA1999999096291MD1999999-0061REMSYN082AAXX  22004 83236 32998 02703 10223 20192 39629 40121 333 10339 29069 55100 59006;EQDQ01  00002PRCP06
0196832360999992003052212004-12150-045000FM-12+044099999V0202701N001012200019N0200001N1+02321+01701101491ADDAA106000091GA1001+999999999GF100991001001999999001001KA1240N+01631MA1999999096551MD1999999+0011REMSYN070AAXX  22124 83236 32998 02702 10232 20170 39655 40149 333 20163 58001;EQDQ01  00002PRCP06
0167832360999992003052218004-12150-045000FM-12+044099999V0201401N001512200019N0200001N1+03381+01711100921ADDAA106000091GF103991031011008001001001MA1999999096071MD1999999+0041REMSYN070AAXX  22184 83236 32598 31403 10338 20171 39607 40092 83100 333 58004;EQDQ01  00002PRCP06
0198832360999992003052300004-12150-045000FM-12+044099999V0209999C000012200019N0200001N1+02211+01941101321ADDAA106000091GF102991021001022501041001KA1240M+03471MA1999999096381MD1999999+0091REMSYN088AAXX  23004 83236 32898 20000 10221 20194 39638 40132 82040 333 10347 29069 55101 58009;EQDQ01  00002PRCP06
0196832360999992003052312004-12150-045000FM-12+044099999V0209999C000012200019N0200001N1+02411+01751101411ADDAA106000091GA1001+999999999GF100991001001999999001001KA1240N+01681MA1999999096471MD1999999+0081REMSYN070AAXX  23124 83236 32998 00000 10241 20175 39647 40141 333 20168 58008;EQDQ01  00002PRCP06
0167832360999992003052318004-12150-045000FM-12+044099999V0203201N000512200019N0200001N1+03311+01551100901ADDAA106000091GF102991021011008001001001MA1999999096041MD1999999-0031REMSYN070AAXX  23184 83236 32598 23201 10331 20155 39604 40090 82100 333 59003;EQDQ01  00002PRCP06
0208832360999992003052400004-12150-045000FM-12+044099999V0201801N001512200019N0200001N1+02181+01821101201ADDAA106000091GA1001+999999999GF100991001001999999001001KA1240M+03461MA1999999096261MD1999999-0121REMSYN082AAXX  24004 83236 32998 01803 10218 20182 39626 40120 333 10346 29066 55103 59012;EQDQ01  00002PRCP06
0186832360999992003052412004-12150-045000FM-12+044099999V0209999C000012200019N0200001N1+02401+01771101251ADDAA106000091GF102991001001999999001081KA1240N+01701MA1999999096331MD1999999-0141REMSYN076AAXX  24124 83236 32998 20000 10240 20177 39633 40125 80008 333 20170 59014;EQDQ01  00002PRCP06
0167832360999992003052418004-12150-045000FM-12+044099999V0203201N002612200019N0200001N1+03331+01701100551ADDAA106000091GF103991031011008001001001MA1999999095721MD1999999-0321REMSYN070AAXX  24184 83236 32598 33205 10333 20170 39572 40055 83100 333 59032;EQDQ01  00002PRCP06
0208832360999992003052500004-12150-045000FM-12+044099999V0202301N001512200019N0200001N1+02281+01921100921ADDAA106000091GA1001+999999999GF100991001001999999001001KA1240M+03511MA1999999096021MD1999999-0241REMSYN082AAXX  25004 83236 32998 02303 10228 20192 39602 40092 333 10351 29066 55104 59024;EQDQ01  00002PRCP06
0186832360999992003052512004-12150-045000FM-12+044099999V0209999C000012200019N0200001N1+02461+01811101211ADDAA106000091GF103991011001022501041011KA1240N+01791MA1999999096301MD1999999-0031REMSYN076AAXX  25124 83236 32898 30000 10246 20181 39630 40121 81041 333 20179 59003;EQDQ01  00002PRCP06
0167832360999992003052518004-12150-045000FM-12+044099999V0202701N001012200019N0200001N1+03381+01791100631ADDAA106000091GF104991041021008001001001MA1999999095801MD1999999+0081REMSYN070AAXX  25184 83236 32598 42702 10338 20179 39580 40063 84200 333 58008;EQDQ01  00002PRCP06
0198832360999992003052600004-12150-045000FM-12+044099999V0201401N002612200019N0200001N1+02541+02001101001ADDAA106000091GF104991041021008001001001KA1240M+03511MA1999999096131MD1999999+0111REMSYN088AAXX  26004 83236 32598 41405 10254 20200 39613 40100 84200 333 10351 29062 55085 58011;EQDQ01  00002PRCP06
0190832360999992003052612004-12150-045000FM-12+044099999V0200901N002610450019N0200001N1+02471+02111101361ADDAY151061AY251061GF106991041041008001061001KA1240N+02151MA1999999096471MD1999999+0171MW1021REMSYN088AAXX  26124 83236 21598 60905 10247 20211 39647 40136 70255 84460 333 20215 58017 69924;
0167832360999992003052618004-12150-045000FM-12+044099999V0201401N002112200019N0200001N1+03261+01981100851ADDAA106000091GF105991031021008001001041MA1999999096051MD1999999+0251REMSYN070AAXX  26184 83236 32598 51404 10326 20198 39605 40085 83204 333 58025;EQDQ01  00002PRCP06
0226832360999992003052700004-12150-045000FM-12+044099999V0202701N000510450019N0200001N1+02531+02191101241ADDAA106000091AY101061AY221061GF105991031071008001011001KA1240M+03371MA1999999096351MD1999999+0051MW1131REMSYN094AAXX  27004 83236 31598 52701 10253 20219 39635 40124 71302 83710 333 10337 29073 55074 58005;EQDQ01  00002PRCP06
0186832360999992003052712004-12150-045000FM-12+044099999V0209999C000010450019N0200001N1+02591+02041101471ADDAA106000091GF106991031041008001071001KA1240N+02151MA1999999096581MD1999999+0111REMSYN076AAXX  27124 83236 32598 60000 10259 20204 39658 40147 83470 333 20215 58011;EQDQ01  00002PRCP06
0167832360999992003052718004-12150-045000FM-12+044099999V0200501N001511050019N0200001N1+03091+01921101031ADDAA106000091GF105991031021008001001091MA1999999096171MD1999999+0121REMSYN070AAXX  27184 83236 32598 50503 10309 20192 39617 40103 83209 333 58012;EQDQ01  00002PRCP06
0202832360999992003052800004-12150-045000FM-12+044099999V0209999C000010450019N0100001N1+02241+02221101261ADDAY161061AY261061GF108991041051008001021999KA1240M+03281MA1999999096651MD1999999+0301MW1401REMSYN100AAXX  28004 83236 21597 80000 10224 20222 39665 40126 74066 8452/ 333 10328 29080 55047 58030 60061;
0162832360999992003052812004-12150-045000FM-12+044099999V0209999C000010120019N0100001N1+02381+02221101651ADDGF108991051081008001011999KA1240N+02171MA1999999096701MD1999999+0121REMSYN082AAXX  28124 83236 22597 80000 10238 20222 39670 40165 8581/ 333 20217 58012 60064;
0167832360999992003052818004-12150-045000FM-12+044099999V0201801N000510450019N0100001N1+02841+02071101181ADDAA106000091GF107991031071008001021001MA1999999096311MD1999999+0141REMSYN070AAXX  28184 83236 32597 71801 10284 20207 39631 40118 83720 333 58014;EQDQ01  00002PRCP06
0198832360999992003052900004-12150-045000FM-12+044099999V0202701N000510450019N0100001N1+02381+02241101421ADDAA106000091GF108991041051008001021999KA1240M+02981MA1999999096511MD1999999-0141REMSYN088AAXX  29004 83236 32597 82701 10238 20224 39651 40142 8452/ 333 10298 29084 55002 59014;EQDQ01  00002PRCP06
0186832360999992003052912004-12150-045000FM-12+044099999V0201401N002610450019N0100001N1+02501+02071101571ADDAA106000091GF106991031021008001031041KA1240N+02211MA1999999096661MD1999999-0041REMSYN076AAXX  29124 83236 32597 61405 10250 20207 39666 40157 83234 333 20221 59004;EQDQ01  00002PRCP06
0195832360999992003052918004-12150-045000FM-12+044099999V0200501N001010075019N0200001N1+02911+01931101081ADDAA106000091AY101061AY221061GF106991061021008001001001MA1999999096221MD1999999-0091MW1151REMSYN076AAXX  29184 83236 31598 60502 10291 20193 39622 40108 71502 86200 333 59009;EQDQ01  00002PRCP06
0202832360999992003053000004-12150-045000FM-12+044099999V0200901N001010120019N0200001N1+02291+02211101451ADDAY161061AY261061GF107991071081008001001001KA1240M+03081MA1999999096541MD1999999+0031MW1021REMSYN100AAXX  30004 83236 21598 70902 10229 20221 39654 40145 70266 87800 333 10308 29081 55028 58003 60011;
0162832360999992003053012004-12150-045000FM-12+044099999V0201801N001512200019N0200001N1+02261+01821101671ADDGF103991021001022501041041KA1240N+01901MA1999999096721MD1999999+0061REMSYN082AAXX  30124 83236 22898 31803 10226 20182 39672 40167 82044 333 20190 58006 60014;
0167832360999992003053018004-12150-045000FM-12+044099999V0200901N003610450019N0200001N1+03051+01711101131ADDAA106000091GF106991011011008001031001MA1999999096261MD1999999+0041REMSYN070AAXX  30184 83236 32598 60907 10305 20171 39626 40113 81130 333 58004;EQDQ01  00002PRCP06
0208832360999992003053100004-12150-045000FM-12+044099999V0202701N001512200019N0200001N1+02231+01781101411ADDAA106000091GA1001+999999999GF100991001001999999001001KA1240M+03191MA1999999096461MD1999999-0081REMSYN082AAXX  31004 83236 32998 02703 10223 20178 39646 40141 333 10319 29069 55070 59008;EQDQ01  00002PRCP06
0186832360999992003053112004-12150-045000FM-12+044099999V0201801N004611050019N0200001N1+02301+01701101751ADDAA106000091GF106991021001022501061051KA1240N+01791MA1999999096791MD1999999+0071REMSYN076AAXX  31124 83236 32898 61809 10230 20170 39679 40175 82065 333 20179 58007;EQDQ01  00002PRCP06
0167832360999992003053118004-12150-045000FM-12+044099999V0201401N003611050019N0200001N1+03031+01761101261ADDAA106000091GF106991031021008001001051MA1999999096361MD1999999+0101REMSYN070AAXX  31184 83236 32598 61407 10303 20176 39636 40126 83205 333 58010;EQDQ01  00002PRCP06
0198832360999992003060100004-12150-045000FM-12+044099999V0202701N001510120019N0200001N1+02421+01971101511ADDAA106000091GF107991071081008001001001KA1240M+03191MA1999999096581MD1999999+0121REMSYN088AAXX  01004 83236 32598 72703 10242 20197 39658 40151 87800 333 10319 29067 55089 58012;EQDQ01  00002PRCP06
0186832360999992003060112004-12150-045000FM-12+044099999V0201801N002112200019N0200001N1+02331+01741101631ADDAA106000091GF104991021001022501041021KA1240N+01831MA1999999096711MD1999999-0081REMSYN076AAXX  01124 83236 32898 41804 10233 20174 39671 40163 82042 333 20183 59008;EQDQ01  00002PRCP06
0167832360999992003060118004-12150-045000FM-12+044099999V0201401N003610450019N0200001N1+03071+01771101121ADDAA106000091GF106991031021008001031081MA1999999096271MD1999999-0091REMSYN070AAXX  01184 83236 32598 61407 10307 20177 39627 40112 83238 333 59009;EQDQ01  00002PRCP06
0198832360999992003060200004-12150-045000FM-12+044099999V0202301N002112200019N0200001N1+02331+01851101401ADDAA106000091GF104991041081008001001001KA1240M+03211MA1999999096481MD1999999-0101REMSYN088AAXX  02004 83236 32598 42304 10233 20185 39648 40140 84800 333 10321 29066 55044 59010;EQDQ01  00002PRCP06
0186832360999992003060212004-12150-045000FM-12+044099999V0202301N001512200019N0200001N1+02491+01851101521ADDAA106000091GF104991001001999999001051KA1240N+01821MA1999999096601MD1999999-0111REMSYN076AAXX  02124 83236 32998 42303 10249 20185 39660 40152 80005 333 20182 59011;EQDQ01  00002PRCP06
0078832360999992003060218004-12150-045000FM-12+044099999V02099999999999999999N9999999N1+99999+99999999999REMSYN069AAXX  02184 83236 32598 6145 10305 20175 39612 40096 84204 333 59015;
0198832360999992003060300004-12150-045000FM-12+044099999V0209999C000010120019N0200001N1+02321+02091101261ADDAA106000091GF107991071081008001001001KA1240M+03291MA1999999096351MD1999999-0131REMSYN088AAXX  03004 83236 32598 70000 10232 20209 39635 40126 87800 333 10329 29072 55086 59013;EQDQ01  00002PRCP06
0186832360999992003060312004-12150-045000FM-12+044099999V0203601N001512200019N0200001N1+02441+01921101471ADDAA106000091GF102991011011008001001041KA1240N+01821MA1999999096551MD1999999-0051REMSYN076AAXX  03124 83236 32598 23603 10244 20192 39655 40147 81104 333 20182 59005;EQDQ01  00002PRCP06
0183832360999992003060318004-12150-045000FM-12+044099999V0203601N002112200019N0200001N1+03191+01651100911ADDAA106000091GF103991999021008001001041MA1999999096081MD1999999-0041REMSYN070AAXX  03184 83236 32598 33604 10319 20165 39608 40091 84204 333 59004;EQDQ01+000042SCOTLCQ02  00002PRCP06
0208832360999992003060400004-12150-045000FM-12+044099999V0209999C000012200019N0200001N1+02341+01951101151ADDAA106000091GA1001+999999999GF100991001001999999001001KA1240M+03371MA1999999096251MD1999999-0101REMSYN082AAXX  04004 83236 32998 00000 10234 20195 39625 40115 333 10337 29068 55097 59010;EQDQ01  00002PRCP06
0186832360999992003060412004-12150-045000FM-12+044099999V0203601N001512200019N0200001N1+02461+01941101451ADDAA106000091GF102991011011012501001051KA1240N+01891MA1999999096541MD1999999-0011REMSYN076AAXX  04124 83236 32698 23603 10246 20194 39654 40145 81105 333 20189 59001;EQDQ01  00002PRCP06
0167832360999992003060418004-12150-045000FM-12+044099999V0201401N003612200019N0200001N1+03301+01871100941ADDAA106000091GF103991021011012501001051MA1999999096091MD1999999+0011REMSYN070AAXX  04184 83236 32698 31407 10330 20187 39609 40094 82105 333 58001;EQDQ01  00002PRCP06
0198832360999992003060500004-12150-045000FM-12+044099999V0202301N001512200019N0200001N1+02251+01981101161ADDAA106000091GF102991001001999999001041KA1240M+03371MA1999999096251MD1999999+0001REMSYN088AAXX  05004 83236 32998 22303 10225 20198 39625 40116 80004 333 10337 29072 55101 58000;EQDQ01  00002PRCP06
0186832360999992003060512004-12150-045000FM-12+044099999V0209999C000012200019N0200001N1+02401+01891101521ADDAA106000091GF103991021001022501051041KA1240N+01731MA1999999096581MD1999999+0041REMSYN076AAXX  05124 83236 32898 30000 10240 20189 39658 40152 82054 333 20173 58004;EQDQ01  00002PRCP06
0167832360999992003060518004-12150-045000FM-12+044099999V0200901N003611050019N0200001N1+03211+01891101041ADDAA106000091GF105991031021008001001051MA1999999096161MD1999999+0071REMSYN070AAXX  05184 83236 32598 50907 10321 20189 39616 40104 83205 333 58007;EQDQ01  00002PRCP06
0186832360999992003060612004-12150-045000FM-12+044099999V0209999C000012200019N0200001N1+02371+01831101511ADDAA106000091GF103991011001022501071041KA1240N+01781MA1999999096581MD1999999+0001REMSYN076AAXX  06124 83236 32898 30000 10237 20183 39658 40151 81074 333 20178 58000;EQDQ01  00002PRCP06
0167832360999992003060618004-12150-045000FM-12+044099999V0200901N003112200019N0200001N1+03161+01511100981ADDAA106000091GF103991031021008001001001MA1999999096121MD1999999-0041REMSYN070AAXX  06184 83236 32598 30906 10316 20151 39612 40098 83200 333 59004;EQDQ01  00002PRCP06
0198832360999992003060700004-12150-045000FM-12+044099999V0202701N001512200019N0200001N1+02261+01771101321ADDAA106000091GF102991021011012501001001KA1240M+03291MA1999999096381MD1999999+0001REMSYN088AAXX  07004 83236 32698 22703 10226 20177 39638 40132 82100 333 10329 29064 55097 58000;EQDQ01  00002PRCP06
0186832360999992003060712004-12150-045000FM-12+044099999V0200901N001512200019N0200001N1+02561+01821101561ADDAA106000091GF102991021011022501001001KA1240N+01831MA1999999096641MD1999999+0061REMSYN076AAXX  07124 83236 32898 20903 10256 20182 39664 40156 82100 333 20183 58006;EQDQ01  00002PRCP06
0167832360999992003060718004-12150-045000FM-12+044099999V0201401N003112200019N0200001N1+03141+01501101071ADDAA106000091GF103991031011008001001001MA1999999096201MD1999999+0081REMSYN070AAXX  07184 83236 32598 31406 10314 20150 39620 40107 83100 333 58008;EQDQ01  00002PRCP06
0208832360999992003060800004-12150-045000FM-12+044099999V0202701N001012200019N0200001N1+02101+01681101291ADDAA106000091GA1001+999999999GF100991001001999999001001KA1240M+03231MA1999999096371MD1999999-0011REMSYN082AAXX  08004 83236 32998 02702 10210 20168 39637 40129 333 10323 29064 55098 59001;EQDQ01  00002PRCP06
0186832360999992003060812004-12150-045000FM-12+044099999V0209999C000012200019N0200001N1+02251+01691101571ADDAA106000091GF102991001001999999001041KA1240N+01551MA1999999096601MD1999999-0041REMSYN076AAXX  08124 83236 32998 20000 10225 20169 39660 40157 80004 333 20155 59004;EQDQ01  00002PRCP06
0167832360999992003060818004-12150-045000FM-12+044099999V0201401N002112200019N0200001N1+03101+01421101081ADDAA106000091GF102991021011012501001001MA1999999096191MD1999999-0011REMSYN070AAXX  08184 83236 32698 21404 10310 20142 39619 40108 82100 333 59001;EQDQ01  00002PRCP06
0198832360999992003060900004-12150-045000FM-12+044099999V0202301N001512200019N0200001N1+02051+01411101431ADDAA106000091GF103991031061022501001061KA1240M+03221MA1999999096461MD1999999+0091REMSYN088AAXX  09004 83236 32898 32303 10205 20141 39646 40143 83606 333 10322 29060 55099 58009;EQDQ01  00002PRCP06
0186832360999992003060912004-12150-045000FM-12+044099999V0203601N001012200019N0200001N1+02411+01751101561ADDAA106000091GF102991021011012501001001KA1240N+01611MA1999999096611MD1999999+0011REMSYN076AAXX  09124 83236 32698 23602 10241 20175 39661 40156 82100 333 20161 58001;EQDQ01  00002PRCP06
0167832360999992003060918004-12150-045000FM-12+044099999V0201401N005110450019N0200001N1+03131+01681101121ADDAA106000091GF106991041021008001051001MA1999999096221MD1999999+0031REMSYN070AAXX  09184 83236 32598 61410 10313 20168 39622 40112 84250 333 58003;EQDQ01  00002PRCP06
0198832360999992003061000004-12150-045000FM-12+044099999V0202301N001512200019N0200001N1+02261+01761101391ADDAA106000091GF103991031001022501061001KA1240M+03251MA1999999096481MD1999999+0021REMSYN088AAXX  10004 83236 32898 32303 10226 20176 39648 40139 83060 333 10325 29062 55084 58002;EQDQ01  00002PRCP06
0186832360999992003061012004-12150-045000FM-12+044099999V0201801N001012200019N0200001N1+02411+01911101641ADDAA106000091GF103991031011012501001001KA1240N+02031MA1999999096721MD1999999+0111REMSYN076AAXX  10124 83236 32698 31802 10241 20191 39672 40164 83100 333 20203 58011;EQDQ01  00002PRCP06
0167832360999992003061018004-12150-045000FM-12+044099999V0201401N002612200019N0200001N1+02991+01311101171ADDAA106000091GF103991021011012501001041MA1999999096311MD1999999+0091REMSYN070AAXX  10184 83236 32698 31405 10299 20131 39631 40117 82104 333 58009;EQDQ01  00002PRCP06
0198832360999992003061100004-12150-045000FM-12+044099999V0202301N001512200019N0200001N1+02041+01561101421ADDAA106000091GF103991031001022501061001KA1240M+03091MA1999999096461MD1999999-0021REMSYN088AAXX  11004 83236 32898 32303 10204 20156 39646 40142 83060 333 10309 29065 55106 59002;EQDQ01  00002PRCP06
0186832360999992003061112004-12150-045000FM-12+044099999V0209999C000019999999N0200001N1+02171+01631101611ADDAA106000091GF105991001001999999001051KA1240N+01421MA1999999096631MD1999999-0091REMSYN076AAXX  11124 83236 32998 50000 10217 20163 39663 40161 80005 333 20142 59009;EQDQ01  00002PRCP06
0167832360999992003061118004-12150-045000FM-12+044099999V0200501N001012200019N0200001N1+03221+01611101041ADDAA106000091GF105991031021008001001041MA1999999096131MD1999999-0181REMSYN070AAXX  11184 83236 32598 50502 10322 20161 39613 40104 83204 333 59018;EQDQ01  00002PRCP06
0198832360999992003061200004-12150-045000FM-12+044099999V0209999C000012200019N0200001N1+02201+01951101311ADDAA106000091GF103991031021008001001001KA1240M+03391MA1999999096361MD1999999-0101REMSYN088AAXX  12004 83236 32598 30000 10220 20195 39636 40131 83200 333 10339 29070 55099 59010;EQDQ01  00002PRCP06
0186832360999992003061212004-12150-045000FM-12+044099999V0201401N001012200019N0200001N1+02381+01821101421ADDAA106000091GF103991021011012501001051KA1240N+01761MA1999999096481MD1999999-0151REMSYN076AAXX  12124 83236 32698 31402 10238 20182 39648 40142 82105 333 20176 59015;EQDQ01  00002PRCP06
0167832360999992003061218004-12150-045000FM-12+044099999V0202701N001012200019N0200001N1+03171+01601100931ADDAA106000091GF104991041021008001001001MA1999999096051MD1999999-0081REMSYN070AAXX  12184 83236 32598 42702 10317 20160 39605 40093 84200 333 59008;EQDQ01  00002PRCP06
0208832360999992003061300004-12150-045000FM-12+044099999V0209999C000012200019N0200001N1+02101+01821101201ADDAA106000091GA1001+999999999GF100991001001999999001001KA1240M+03321MA1999999096261MD1999999-0101REMSYN082AAXX  13004 83236 32998 00000 10210 20182 39626 40120 333 10332 29070 55092 59010;EQDQ01  00002PRCP06
0186832360999992003061312004-12150-045000FM-12+044099999V0209999C000012200019N0200001N1+02161+01741101381ADDAA106000091GF102991001001999999001041KA1240N+01491MA1999999096421MD1999999-0061REMSYN076AAXX  13124 83236 32998 20000 10216 20174 39642 40138 80004 333 20149 59006;EQDQ01  00002PRCP06
0167832360999992003061318004-12150-045000FM-12+044099999V0201401N002612200019N0200001N1+03281+01441100811ADDAA106000091GF102991021011008001001001MA1999999095931MD1999999-0121REMSYN070AAXX  13184 83236 32598 21405 10328 20144 39593 40081 82100 333 59012;EQDQ01  00002PRCP06
0208832360999992003061400004-12150-045000FM-12+044099999V0209999C000012200019N0200001N1+02101+01781101231ADDAA106000091GA1001+999999999GF100991001001999999001001KA1240M+03411MA1999999096271MD1999999+0011REMSYN082AAXX  14004 83236 32998 00000 10210 20178 39627 40123 333 10341 29068 55103 58001;EQDQ01  00002PRCP06
0186832360999992003061412004-12150-045000FM-12+044099999V0209999C000012200019N0200001N1+01981+01521101601ADDAA106000091GF102991001001999999001041KA1240N+01351MA1999999096611MD1999999+0191REMSYN076AAXX  14124 83236 32998 20000 10198 20152 39661 40160 80004 333 20135 58019;EQDQ01  00002PRCP06
0167832360999992003061418004-12150-045000FM-12+044099999V0201401N001512200019N0200001N1+03211+01321101041ADDAA106000091GF102991001001999999001031MA1999999096141MD1999999+0211REMSYN070AAXX  14184 83236 32998 21403 10321 20132 39614 40104 80003 333 58021;EQDQ01  00002PRCP06
0186832360999992003061512004-12150-045000FM-12+044099999V0209999C000012200019N0200001N1+01841+01371101691ADDAA106000091GF101991001001999999001031KA1240N+00961MA1999999096651MD1999999+0041REMSYN076AAXX  15124 83236 32998 10000 10184 20137 39665 40169 80003 333 20096 58004;EQDQ01  00002PRCP06
0167832360999992003061518004-12150-045000FM-12+044099999V0200901N003112200019N0200001N1+03191+00991101111ADDAA106000091GF103991001001999999001031MA1999999096201MD1999999+0061REMSYN070AAXX  15184 83236 32998 30906 10319 20099 39620 40111 80003 333 58006;EQDQ01  00002PRCP06
0208832360999992003061600004-12150-045000FM-12+044099999V0202701N001012200019N0200001N1+01791+01331101501ADDAA106000091GA1001+999999999GF100991001001999999001001KA1240M+03271MA1999999096461MD1999999+0161REMSYN082AAXX  16004 83236 32998 02702 10179 20133 39646 40150 333 10327 29062 55105 58016;EQDQ01  00002PRCP06
0186832360999992003061612004-12150-045000FM-12+044099999V0209999C000012200019N0200001N1+01991+01421101661ADDAA106000091GF104991011011999999001071KA1240N+01161MA1999999096641MD1999999-0011REMSYN076AAXX  16124 83236 32998 40000 10199 20142 39664 40166 81107 333 20116 59001;EQDQ01  00002PRCP06
0167832360999992003061618004-12150-045000FM-12+044099999V0201401N002119999999N0200001N1+03151+01321101171ADDAA106000091GF105991001001999999001071MA1999999096231MD1999999+0031REMSYN070AAXX  16184 83236 32998 51404 10315 20132 39623 40117 80007 333 58003;EQDQ01  00002PRCP06
0208832360999992003061700004-12150-045000FM-12+044099999V0202301N001512200019N0200001N1+01841+01581101411ADDAA106000091GA1001+999999999GF100991001001999999001001KA1240M+03241MA1999999096401MD1999999-0061REMSYN082AAXX  17004 83236 32998 02303 10184 20158 39640 40141 333 10324 29068 55104 59006;EQDQ01  00002PRCP06
0196832360999992003061712004-12150-045000FM-12+044099999V0209999C000012200019N0200001N1+01951+01421101651ADDAA106000091GA1001+999999999GF100991001001999999001001KA1240N+01121MA1999999096631MD1999999-0011REMSYN070AAXX  17124 83236 32998 00000 10195 20142 39663 40165 333 20112 59001;EQDQ01  00002PRCP06
0177832360999992003061718004-12150-045000FM-12+044099999V0200901N001512200019N0200001N1+03181+01351101091ADDAA106000091GA1001+999999999GF100991001001999999001001MA1999999096151MD1999999-0081REMSYN064AAXX  17184 83236 32998 00903 10318 20135 39615 40109 333 59008;EQDQ01  00002PRCP06
0208832360999992003061800004-12150-045000FM-12+044099999V0209999C000012200019N0200001N1+01921+01611101371ADDAA106000091GA1001+999999999GF100991001001999999001001KA1240M+03281MA1999999096371MD1999999-0031REMSYN082AAXX  18004 83236 32998 00000 10192 20161 39637 40137 333 10328 29067 55101 59003;EQDQ01  00002PRCP06
0186832360999992003061812004-12150-045000FM-12+044099999V0202301N001012200019N0200001N1+02081+01491101071ADDAA106000091GF102991001001999999001031KA1240N+01271MA1999999096661MD1999999+0031REMSYN076AAXX  18124 83236 32998 22302 10208 20149 39666 40107 80003 333 20127 58003;EQDQ01  00002PRCP06
0167832360999992003061818004-12150-045000FM-12+044099999V0201801N001512200019N0200001N1+03191+01531101141ADDAA106000091GF102991021011012501001001MA1999999096251MD1999999+0101REMSYN070AAXX  18184 83236 32698 21803 10319 20153 39625 40114 82100 333 58010;EQDQ01  00002PRCP06
0208832360999992003061900004-12150-045000FM-12+044099999V0209999C000012200019N0200001N1+01971+01721101411ADDAA106000091GA1001+999999999GF100991001001999999001001KA1240M+03271MA1999999096421MD1999999+0051REMSYN082AAXX  19004 83236 32998 00000 10197 20172 39642 40141 333 10327 29070 55102 58005;EQDQ01  00002PRCP06
0196832360999992003061912004-12150-045000FM-12+044099999V0202301N001012200019N0200001N1+02041+01541101611ADDAA106000091GA1001+999999999GF100991001001999999001001KA1240N+01321MA1999999096651MD1999999-0011REMSYN070AAXX  19124 83236 32998 02302 10204 20154 39665 40161 333 20132 59001;EQDQ01  00002PRCP06
0167832360999992003061918004-12150-045000FM-12+044099999V0201401N001512200019N0200001N1+03231+01391101141ADDAA106000091GF102991021011012501001001MA1999999096221MD1999999-0031REMSYN070AAXX  19184 83236 32698 21403 10323 20139 39622 40114 82100 333 59003;EQDQ01  00002PRCP06
0208832360999992003062000004-12150-045000FM-12+044099999V0209999C000012200019N0200001N1+02061+01721101451ADDAA106000091GA1001+999999999GF100991001001999999001001KA1240M+03341MA1999999096461MD1999999+0041REMSYN082AAXX  20004 83236 32998 00000 10206 20172 39646 40145 333 10334 29067 55102 58004;EQDQ01  00002PRCP06
0186832360999992003062012004-12150-045000FM-12+044099999V0209999C000019999999N0200001N1+02051+01521101581ADDAA106000091GF105991001001999999001071KA1240N+01351MA1999999096591MD1999999-0061REMSYN076AAXX  20124 83236 32998 50000 10205 20152 39659 40158 80007 333 20135 59006;EQDQ01  00002PRCP06
0167832360999992003062018004-12150-045000FM-12+044099999V0202301N001011050019N0200001N1+03201+01281101091ADDAA106000091GF106991041011012501001051MA1999999096171MD1999999-0051REMSYN070AAXX  20184 83236 32698 62302 10320 20128 39617 40109 84105 333 59005;EQDQ01  00002PRCP06
0208832360999992003062100004-12150-045000FM-12+044099999V0209999C000012200019N0200001N1+02061+01701101331ADDAA106000091GA1001+999999999GF100991001001999999001001KA1240M+03331MA1999999096351MD1999999-0111REMSYN082AAXX  21004 83236 32998 00000 10206 20170 39635 40133 333 10333 29066 55104 59011;EQDQ01  00002PRCP06
0186832360999992003062112004-12150-045000FM-12+044099999V0202301N001012200019N0200001N1+02281+01511101611ADDAA106000091GF104991011001022501041051KA1240N+01691MA1999999096641MD1999999+0051REMSYN076AAXX  21124 83236 32898 42302 10228 20151 39664 40161 81045 333 20169 58005;EQDQ01  00002PRCP06
0167832360999992003062118004-12150-045000FM-12+044099999V0203601N000512200019N0200001N1+03231+01521101041ADDAA106000091GF104991031021008001001041MA1999999096151MD1999999-0021REMSYN070AAXX  21184 83236 32598 43601 10323 20152 39615 40104 83204 333 59002;EQDQ01  00002PRCP06
0186832360999992003062212004-12150-045000FM-12+044099999V0202701N001012200019N0200001N1+02261+01731101471ADDAA106000091GF103991021011008001001081KA1240N+01621MA1999999096511MD1999999-0131REMSYN076AAXX  22124 83236 32598 32702 10226 20173 39651 40147 82108 333 20162 59013;EQDQ01  00002PRCP06
0186832360999992003062312004-12150-045000FM-12+044099999V0201401N001012200019N0200001N1+02251+01371101511ADDAA106000091GF103991001001999999001081KA1240N+01481MA1999999096551MD1999999+0041REMSYN076AAXX  23124 83236 32998 31402 10225 20137 39655 40151 80008 333 20148 58004;EQDQ01  00002PRCP06
0167832360999992003062318004-12150-045000FM-12+044099999V0200901N003112200019N0200001N1+03231+01571101091ADDAA106000091GF105991041021008001001011MA1999999096191MD1999999+0171REMSYN070AAXX  23184 83236 32598 50906 10323 20157 39619 40109 84201 333 58017;EQDQ01  00002PRCP06
0208832360999992003062400004-12150-045000FM-12+044099999V0209999C000012200019N0200001N1+02231+01881101441ADDAA106000091GA1001+999999999GF100991001001999999001001KA1240M+03341MA1999999096491MD1999999+0241REMSYN082AAXX  24004 83236 32998 00000 10223 20188 39649 40144 333 10334 29064 55085 58024;EQDQ01  00002PRCP06
0186832360999992003062412004-12150-045000FM-12+044099999V0202701N001512200019N0200001N1+02171+01471101751ADDAA106000091GF102991021001022501041001KA1240N+01521MA1999999096781MD1999999+0231REMSYN076AAXX  24124 83236 32898 22703 10217 20147 39678 40175 82040 333 20152 58023;EQDQ01  00002PRCP06
0167832360999992003062418004-12150-045000FM-12+044099999V0201801N001512200019N0200001N1+03151+01271101291ADDAA106000091GF103991031011008001001001MA1999999096371MD1999999+0181REMSYN070AAXX  24184 83236 32598 31803 10315 20127 39637 40129 83100 333 58018;EQDQ01  00002PRCP06
0208832360999992003062500004-12150-045000FM-12+044099999V0202701N002112200019N0200001N1+01951+01441101631ADDAA106000091GA1001+999999999GF100991001001999999001001KA1240M+03271MA1999999096641MD1999999+0151REMSYN082AAXX  25004 83236 32998 02704 10195 20144 39664 40163 333 10327 29061 55101 58015;EQDQ01  00002PRCP06
0186832360999992003062512004-12150-045000FM-12+044099999V0202301N000512200019N0200001N1+02101+01421101821ADDAA106000091GF102991021001022501041001KA1240N+01371MA1999999096811MD1999999+0031REMSYN076AAXX  25124 83236 32898 22301 10210 20142 39681 40182 82040 333 20137 58003;EQDQ01  00002PRCP06
0167832360999992003062518004-12150-045000FM-12+044099999V0203601N001012200019N0200001N1+03231+01521101171ADDAA106000091GF104991041021008001001001MA1999999096261MD1999999-0111REMSYN070AAXX  25184 83236 32598 43602 10323 20152 39626 40117 84200 333 59011;EQDQ01  00002PRCP06
0198832360999992003062600004-12150-045000FM-12+044099999V0209999C000012200019N0200001N1+02431+01791101431ADDAA106000091GF103991031021999999001001KA1240M+03361MA1999999096481MD1999999-0161REMSYN088AAXX  26004 83236 32998 30000 10243 20179 39648 40143 83200 333 10336 29059 55088 59016;EQDQ01  00002PRCP06
0186832360999992003062612004-12150-045000FM-12+044099999V0202301N001012200019N0200001N1+02291+01811101581ADDAA106000091GF102991021001022501061001KA1240N+01771MA1999999096651MD1999999-0161REMSYN076AAXX  26124 83236 32898 22302 10229 20181 39665 40158 82060 333 20177 59016;EQDQ01  00002PRCP06
0183832360999992003062618004-12150-045000FM-12+044099999V0201401N003612200019N0200001N1+03161+01711101021ADDAA106000091GF103991999021008001001001MA1999999096191MD1999999-0071REMSYN070AAXX  26184 83236 32598 31407 10316 20171 39619 40102 84200 333 59007;EQDQ01+000042SCOTLCQ02  00002PRCP06
0186832360999992003062712004-12150-045000FM-12+044099999V0200501N001512200019N0200001N1+02211+01801101641ADDAA106000091GF101991011011008001001001KA1240N+01621MA1999999096671MD1999999+0021REMSYN076AAXX  27124 83236 32598 10503 10221 20180 39667 40164 81100 333 20162 58002;EQDQ01  00002PRCP06
0167832360999992003062718004-12150-045000FM-12+044099999V0201801N001512200019N0200001N1+03071+01301101111ADDAA106000091GF102991021011008001001001MA1999999096221MD1999999+0031REMSYN070AAXX  27184 83236 32598 21803 10307 20130 39622 40111 82100 333 58003;EQDQ01  00002PRCP06
0208832360999992003062800004-12150-045000FM-12+044099999V0202701N001012200019N0200001N1+01921+01451101401ADDAA106000091GA1001+999999999GF100991001001999999001001KA1240M+03251MA1999999096421MD1999999+0041REMSYN082AAXX  28004 83236 32998 02702 10192 20145 39642 40140 333 10325 29065 55105 58004;EQDQ01  00002PRCP06
0196832360999992003062812004-12150-045000FM-12+044099999V0202701N001012200019N0200001N1+01931+01071101881ADDAA106000091GA1001+999999999GF100991001001999999001001KA1240N+01121MA1999999096851MD1999999+0181REMSYN070AAXX  28124 83236 32998 02702 10193 20107 39685 40188 333 20112 58018;EQDQ01  00002PRCP06
0177832360999992003062818004-12150-045000FM-12+044099999V0200901N001512200019N0200001N1+03081+01191101251ADDAA106000091GA1001+999999999GF100991001001999999001001MA1999999096301MD1999999+0081REMSYN064AAXX  28184 83236 32998 00903 10308 20119 39630 40125 333 58008;EQDQ01  00002PRCP06
0208832360999992003062900004-12150-045000FM-12+044099999V0209999C000012200019N0200001N1+01901+01471101581ADDAA106000091GA1001+999999999GF100991001001999999001001KA1240M+03171MA1999999096561MD1999999+0141REMSYN082AAXX  29004 83236 32998 00000 10190 20147 39656 40158 333 10317 29060 55102 58014;EQDQ01  00002PRCP06
0186832360999992003062912004-12150-045000FM-12+044099999V0202701N001012200019N0200001N1+01941+01121101771ADDAA106000091GF103991031001022501041001KA1240N+01101MA1999999096741MD1999999-0111REMSYN076AAXX  29124 83236 32898 32702 10194 20112 39674 40177 83040 333 20110 59011;EQDQ01  00002PRCP06
0167832360999992003062918004-12150-045000FM-12+044099999V0202301N001012200019N0200001N1+03011+01101101211ADDAA106000091GF102991001001999999001091MA1999999096251MD1999999-0051REMSYN070AAXX  29184 83236 32998 22302 10301 20110 39625 40121 80009 333 59005;EQDQ01  00002PRCP06
0196832360999992003063012004-12150-045000FM-12+044099999V0202701N001512200019N0200001N1+02041+01341101761ADDAA106000091GA1001+999999999GF100991001001999999001001KA1240N+01131MA1999999096741MD1999999+0001REMSYN070AAXX  30124 83236 32998 02703 10204 20134 39674 40176 333 20113 58000;EQDQ01  00002PRCP06
0177832360999992003063018004-12150-045000FM-12+044099999V0201401N003612200019N0200001N1+03121+01251101261ADDAA106000091GA1001+999999999GF100991001001999999001001MA1999999096301MD1999999+0051REMSYN064AAXX  30184 83236 32998 01407 10312 20125 39630 40126 333 58005;EQDQ01  00002PRCP06
0208832360999992003070100004-12150-045000FM-12+044099999V0202701N000512200019N0200001N1+02041+01381101551ADDAA106000091GA1001+999999999GF100991001001999999001001KA1240M+03291MA1999999096561MD1999999+0091REMSYN082AAXX  01004 83236 32998 02701 10204 20138 39656 40155 333 10329 29057 55102 58009;EQDQ01  00002PRCP06
0196832360999992003070112004-12150-045000FM-12+044099999V0201801N002112200019N0200001N1+02201+01051101861ADDAA106000091GA1001+999999999GF100991001001999999001001KA1240N+01421MA1999999096861MD1999999+0121REMSYN070AAXX  01124 83236 32998 01804 10220 20105 39686 40186 333 20142 58012;EQDQ01  00002PRCP06
0177832360999992003070118004-12150-045000FM-12+044099999V0201801N002112200019N0200001N1+02971+01161101341ADDAA106000091GA1001+999999999GF100991001001999999001001MA1999999096411MD1999999+0111REMSYN064AAXX  01184 83236 32998 01804 10297 20116 39641 40134 333 58011;EQDQ01  00002PRCP06
0208832360999992003070200004-12150-045000FM-12+044099999V0202301N001512200019N0200001N1+01991+01421101571ADDAA106000091GA1001+999999999GF100991001001999999001001KA1240M+03141MA1999999096591MD1999999+0031REMSYN082AAXX  02004 83236 32998 02303 10199 20142 39659 40157 333 10314 29055 55105 58003;EQDQ01  00002PRCP06
0186832360999992003070212004-12150-045000FM-12+044099999V0202701N001519999999N0200001N1+02001+01521101841ADDAA106000091GF105991001001999999001051KA1240N+01321MA1999999096831MD1999999-0031REMSYN076AAXX  02124 83236 32998 52703 10200 20152 39683 40184 80005 333 20132 59003;EQDQ01  00002PRCP06
0167832360999992003070218004-12150-045000FM-12+044099999V0201401N002112200019N0200001N1+02931+01671101301ADDAA106000091GF104991001001999999001051MA1999999096351MD1999999-0061REMSYN070AAXX  02184 83236 32998 41404 10293 20167 39635 40130 80005 333 59006;EQDQ01  00002PRCP06
0208832360999992003070300004-12150-045000FM-12+044099999V0202701N000512200019N0200001N1+02061+01761101511ADDAA106000091GA1001+999999999GF100991001001999999001001KA1240M+03151MA1999999096521MD1999999-0071REMSYN082AAXX  03004 83236 32998 02701 10206 20176 39652 40151 333 10315 29072 55098 59007;EQDQ01  00002PRCP06
0196832360999992003070312004-12150-045000FM-12+044099999V0202301N001012200019N0200001N1+02001+01371101761ADDAA106000091GA1001+999999999GF100991001001999999001001KA1240N+01281MA1999999096761MD1999999-0071REMSYN070AAXX  03124 83236 32998 02302 10200 20137 39676 40176 333 20128 59007;EQDQ01  00002PRCP06
0177832360999992003070318004-12150-045000FM-12+044099999V0202301N002112200019N0200001N1+03111+01241101211ADDAA106000091GA1001+999999999GF100991001001999999001001MA1999999096291MD1999999-0061REMSYN064AAXX  03184 83236 32998 02304 10311 20124 39629 40121 333 59006;EQDQ01  00002PRCP06
0208832360999992003070400004-12150-045000FM-12+044099999V0201801N001012200019N0200001N1+01961+01501101481ADDAA106000091GA1001+999999999GF100991001001999999001001KA1240M+03271MA1999999096481MD1999999-0041REMSYN082AAXX  04004 83236 32998 01802 10196 20150 39648 40148 333 10327 29062 55102 59004;EQDQ01  00002PRCP06
0196832360999992003070412004-12150-045000FM-12+044099999V0202301N002612200019N0200001N1+01941+01241101721ADDAA106000091GA1001+999999999GF100991001001999999001001KA1240N+01181MA1999999096701MD1999999-0061REMSYN070AAXX  04124 83236 32998 02305 10194 20124 39670 40172 333 20118 59006;EQDQ01  00002PRCP06
0177832360999992003070418004-12150-045000FM-12+044099999V0201801N002112200019N0200001N1+03191+01101101081ADDAA106000091GA1001+999999999GF100991001001999999001001MA1999999096151MD1999999-0141REMSYN064AAXX  04184 83236 32998 01804 10319 20110 39615 40108 333 59014;EQDQ01  00002PRCP06
0208832360999992003070500004-12150-045000FM-12+044099999V0202701N001012200019N0200001N1+01981+01541101301ADDAA106000091GA1001+999999999GF100991001001999999001001KA1240M+03301MA1999999096301MD1999999-0181REMSYN082AAXX  05004 83236 32998 02702 10198 20154 39630 40130 333 10330 29061 55101 59018;EQDQ01  00002PRCP06
0196832360999992003070512004-12150-045000FM-12+044099999V0209999C000012200019N0200001N1+01971+01261101581ADDAA106000091GA1001+999999999GF100991001001999999001001KA1240N+01141MA1999999096581MD1999999-0121REMSYN070AAXX  05124 83236 32998 00000 10197 20126 39658 40158 333 20114 59012;EQDQ01  00002PRCP06
0167832360999992003070518004-12150-045000FM-12+044099999V0203601N001512200019N0200001N1+03021+01021101041ADDAA106000091GF104991001001999999001071MA1999999096101MD1999999-0051REMSYN070AAXX  05184 83236 32998 43603 10302 20102 39610 40104 80007 333 59005;EQDQ01  00002PRCP06
0198832360999992003070600004-12150-045000FM-12+044099999V0202701N000512200019N0200001N1+01781+01431101301ADDAA106000091GF103991001001999999001071KA1240M+03201MA1999999096291MD1999999-0011REMSYN088AAXX  06004 83236 32998 32701 10178 20143 39629 40130 80007 333 10320 29063 55101 59001;EQDQ01  00002PRCP06
0196832360999992003070612004-12150-045000FM-12+044099999V0209999C000012200019N0200001N1+01781+01161101551ADDAA106000091GA1001+999999999GF100991001001999999001001KA1240N+01041MA1999999096511MD1999999-0071REMSYN070AAXX  06124 83236 32998 00000 10178 20116 39651 40155 333 20104 59007;EQDQ01  00002PRCP06
0167832360999992003070618004-12150-045000FM-12+044099999V0209999C000012200019N0200001N1+03031+01071101031ADDAA106000091GF103991001001999999001071MA1999999096081MD1999999-0021REMSYN070AAXX  06184 83236 32998 30000 10303 20107 39608 40103 80007 333 59002;EQDQ01  00002PRCP06
0196832360999992003070712004-12150-045000FM-12+044099999V0209999C000012200019N0200001N1+01781+01291101651ADDAA106000091GA1001+999999999GF100991001001999999001001KA1240N+01081MA1999999096611MD1999999+0101REMSYN070AAXX  07124 83236 32998 00000 10178 20129 39661 40165 333 20108 58010;EQDQ01  00002PRCP06
0177832360999992003070718004-12150-045000FM-12+044099999V0201801N000512200019N0200001N1+03141+01321101141ADDAA106000091GA1001+999999999GF100991001001999999001001MA1999999096201MD1999999+0121REMSYN064AAXX  07184 83236 32998 01801 10314 20132 39620 40114 333 58012;EQDQ01  00002PRCP06
0208832360999992003070800004-12150-045000FM-12+044099999V0202301N001012200019N0200001N1+01961+01471101391ADDAA106000091GA1001+999999999GF100991001001999999001001KA1240M+03251MA1999999096371MD1999999+0031REMSYN082AAXX  08004 83236 32998 02302 10196 20147 39637 40139 333 10325 29062 55102 58003;EQDQ01  00002PRCP06
0186832360999992003070812004-12150-045000FM-12+044099999V0201401N001012200019N0200001N1+01901+01511101621ADDAA106000091GF102991001001999999001071KA1240N+01251MA1999999096611MD1999999+0001REMSYN076AAXX  08124 83236 32998 21402 10190 20151 39661 40162 80007 333 20125 58000;EQDQ01  00002PRCP06
0167832360999992003070818004-12150-045000FM-12+044099999V0201401N002612200019N0200001N1+03241+01361101041ADDAA106000091GF103991001001999999001051MA1999999096111MD1999999-0091REMSYN070AAXX  08184 83236 32998 31405 10324 20136 39611 40104 80005 333 59009;EQDQ01  00002PRCP06
0208832360999992003070900004-12150-045000FM-12+044099999V0202301N002112200019N0200001N1+02111+01491101321ADDAA106000091GA1001+999999999GF100991001001999999001001KA1240M+03391MA1999999096331MD1999999-0041REMSYN082AAXX  09004 83236 32998 02304 10211 20149 39633 40132 333 10339 29062 55103 59004;EQDQ01  00002PRCP06
0186832360999992003070912004-12150-045000FM-12+044099999V0209999C000012200019N0200001N1+01941+01571101531ADDAA106000091GF102991001001999999001071KA1240N+01341MA1999999096531MD1999999-0081REMSYN076AAXX  09124 83236 32998 20000 10194 20157 39653 40153 80007 333 20134 59008;EQDQ01  00002PRCP06
0167832360999992003070918004-12150-045000FM-12+044099999V0201801N001512200019N0200001N1+03241+01751101021ADDAA106000091GF102991021011012501001001MA1999999096111MD1999999+0001REMSYN070AAXX  09184 83236 32698 21803 10324 20175 39611 40102 82100 333 58000;EQDQ01  00002PRCP06
0208832360999992003071000004-12150-045000FM-12+044099999V0201401N001012200019N0200001N1+02001+01561101361ADDAA106000091GA1001+999999999GF100991001001999999001001KA1240M+03361MA1999999096361MD1999999+0031REMSYN082AAXX  10004 83236 32998 01402 10200 20156 39636 40136 333 10336 29068 55106 58003;EQDQ01  00002PRCP06
0196832360999992003071012004-12150-045000FM-12+044099999V0209999C000012200019N0200001N1+01961+01461101651ADDAA106000091GA1001+999999999GF100991001001999999001001KA1240N+01261MA1999999096601MD1999999+0071REMSYN070AAXX  10124 83236 32998 00000 10196 20146 39660 40165 333 20126 58007;EQDQ01  00002PRCP06
0167832360999992003071018004-12150-045000FM-12+044099999V0201401N003112200019N0200001N1+03201+01071101071ADDAA106000091GF102991001001999999001051MA1999999096141MD1999999+0031REMSYN070AAXX  10184 83236 32998 21406 10320 20107 39614 40107 80005 333 58003;EQDQ01  00002PRCP06
0208832360999992003071100004-12150-045000FM-12+044099999V0209999C000012200019N0200001N1+01861+01371101401ADDAA106000091GA1001+999999999GF100991001001999999001001KA1240M+03321MA1999999096491MD1999999+0131REMSYN082AAXX  11004 83236 32998 00000 10186 20137 39649 40140 333 10332 29062 55101 58013;EQDQ01  00002PRCP06
0186832360999992003071112004-12150-045000FM-12+044099999V0209999C000012200019N0200001N1+01901+01271101751ADDAA106000091GF104991001001999999001071KA1240N+01121MA1999999096721MD1999999+0121REMSYN076AAXX  11124 83236 32998 40000 10190 20127 39672 40175 80007 333 20112 58012;EQDQ01  00002PRCP06
0167832360999992003071118004-12150-045000FM-12+044099999V0201101N020612200019N0200001N1+03261+01601101161ADDAA106000091GF104991021011012501001051MA1999999096221MD1999999+0081REMSYN070AAXX  11184 83236 32698 41140 10326 20160 39622 40116 82105 333 58008;EQDQ01  00002PRCP06
0198832360999992003071200004-12150-045000FM-12+044099999V0209999C000010210019N0200001N1+02121+01681101471ADDAA106000091GF105991051001022501061001KA1240M+03401MA1999999096471MD1999999-0021REMSYN088AAXX  12004 83236 32898 50000 10212 20168 39647 40147 85060 333 10340 29064 55103 59002;EQDQ01  00002PRCP06
0196832360999992003071212004-12150-045000FM-12+044099999V0209999C000012200019N0200001N1+02231+01621101771ADDAA106000091GA1001+999999999GF100991001001999999001001KA1240N+01501MA1999999096791MD1999999-0071REMSYN070AAXX  12124 83236 32998 00000 10223 20162 39679 40177 333 20150 59007;EQDQ01  00002PRCP06
0167832360999992003071218004-12150-045000FM-12+044099999V0201401N003110450019N0200001N1+03211+01421101241ADDAA106000091GF105991041021008001051001MA1999999096341MD1999999-0121REMSYN070AAXX  12184 83236 32598 51406 10321 20142 39634 40124 84250 333 59012;EQDQ01  00002PRCP06
0196832360999992003071312004-12150-045000FM-12+044099999V0201401N001012200019N0200001N1+02371+01461101851ADDAA106000091GA1001+999999999GF100991001001999999001001KA1240N+01511MA1999999096861MD1999999+0071REMSYN070AAXX  13124 83236 32998 01402 10237 20146 39686 40185 333 20151 58007;EQDQ01  00002PRCP06
0177832360999992003071318004-12150-045000FM-12+044099999V0201401N004112200019N0200001N1+03101+00751101401ADDAA106000091GA1001+999999999GF100991001001999999001001MA1999999096421MD1999999+0081REMSYN064AAXX  13184 83236 32998 01408 10310 20075 39642 40140 333 58008;EQDQ01  00002PRCP06
0186832360999992003071412004-12150-045000FM-12+044099999V0201401N002612200019N0200001N1+02281+01541101951ADDAA106000091GF103991021011012501001051KA1240N+01831MA1999999096971MD1999999+0111REMSYN076AAXX  14124 83236 32698 31405 10228 20154 39697 40195 82105 333 20183 58011;EQDQ01  00002PRCP06
0167832360999992003071418004-12150-045000FM-12+044099999V0201401N003612200019N0200001N1+02991+01131101371ADDAA106000091GF104991031011012501001071MA1999999096491MD1999999+0071REMSYN070AAXX  14184 83236 32698 41407 10299 20113 39649 40137 83107 333 58007;EQDQ01  00002PRCP06
0208832360999992003071500004-12150-045000FM-12+044099999V0202701N001012200019N0200001N1+02081+01331101571ADDAA106000091GA1001+999999999GF100991001001999999001001KA1240M+03121MA1999999096611MD1999999+0011REMSYN082AAXX  15004 83236 32998 02702 10208 20133 39661 40157 333 10312 29055 55103 58001;EQDQ01  00002PRCP06
0186832360999992003071512004-12150-045000FM-12+044099999V0200901N004612200019N0200001N1+02381+01631101871ADDAA106000091GF102991021011012501001001KA1240N+01591MA1999999096901MD1999999-0071REMSYN076AAXX  15124 83236 32698 20909 10238 20163 39690 40187 82100 333 20159 59007;EQDQ01  00002PRCP06
0167832360999992003071518004-12150-045000FM-12+044099999V0201401N004110075019N0200001N1+02811+01461101471ADDAA106000091GF105991051021008001001001MA1999999096511MD1999999-0021REMSYN070AAXX  15184 83236 32598 51408 10281 20146 39651 40147 85200 333 59002;EQDQ01  00002PRCP06
0198832360999992003071600004-12150-045000FM-12+044099999V0203201N001512200019N0200001N1+01971+01531101651ADDAA106000091GF104991031011012501051001KA1240M+02971MA1999999096671MD1999999+0061REMSYN088AAXX  16004 83236 32698 43203 10197 20153 39667 40165 83150 333 10297 29065 55089 58006;EQDQ01  00002PRCP06
0186832360999992003071612004-12150-045000FM-12+044099999V0201401N004610450019N0200001N1+02381+01581101951ADDAA106000091GF106991031071008001051071KA1240N+01941MA1999999096961MD1999999+0061REMSYN076AAXX  16124 83236 32598 61409 10238 20158 39696 40195 83757 333 20194 58006;EQDQ01  00002PRCP06
0167832360999992003071618004-12150-045000FM-12+044099999V0201801N002610075019N0100001N1+02601+01631101671ADDAA106000091GF108991061071008001041999MA1999999096721MD1999999+0211REMSYN070AAXX  16184 83236 32597 81805 10260 20163 39672 40167 8674/ 333 58021;EQDQ01  00002PRCP06
0208832360999992003071700004-12150-045000FM-12+044099999V0209999C000012200019N0200001N1+01981+01661101781ADDAA106000091GA1001+999999999GF100991001001999999001001KA1240M+02701MA1999999096811MD1999999+0141REMSYN082AAXX  17004 83236 32998 00000 10198 20166 39681 40178 333 10270 29070 55036 58014;EQDQ01  00002PRCP06
0186832360999992003071712004-12150-045000FM-12+044099999V0202301N002110450019N0200001N1+02281+01411101981ADDAA106000091GF105991041021012501061001KA1240N+01461MA1999999096991MD1999999+0031REMSYN076AAXX  17124 83236 32698 52304 10228 20141 39699 40198 84260 333 20146 58003;EQDQ01  00002PRCP06
0167832360999992003071718004-12150-045000FM-12+044099999V0200901N004110075019N0200001N1+03041+01411101521ADDAA106000091GF105991051021008001001001MA1999999096581MD1999999-0141REMSYN070AAXX  17184 83236 32598 50908 10304 20141 39658 40152 85200 333 59014;EQDQ01  00002PRCP06
0198832360999992003071800004-12150-045000FM-12+044099999V0201801N001512200019N0200001N1+02131+01551101751ADDAA106000091GF102991021021012501001001KA1240M+03211MA1999999096781MD1999999-0031REMSYN088AAXX  18004 83236 32698 21803 10213 20155 39678 40175 82200 333 10321 29064 55087 59003;EQDQ01  00002PRCP06
0186832360999992003071812004-12150-045000FM-12+044099999V0200901N002110450019N0200001N1+02301+01611102081ADDAA106000091GF106991031021008001051071KA1240N+02091MA1999999097091MD1999999+0101REMSYN076AAXX  18124 83236 32598 60904 10230 20161 39709 40208 83257 333 20209 58010;EQDQ01  00002PRCP06
0167832360999992003071818004-12150-045000FM-12+044099999V0201401N003111050019N0200001N1+03031+01121101531ADDAA106000091GF105991041021008001001071MA1999999096661MD1999999+0081REMSYN070AAXX  18184 83236 32598 51406 10303 20112 39666 40153 84207 333 58008;EQDQ01  00002PRCP06
0208832360999992003071900004-12150-045000FM-12+044099999V0202301N001512200019N0200001N1+02001+01391101801ADDAA106000091GA1001+999999999GF100991001001999999001001KA1240M+03171MA1999999096821MD1999999+0041REMSYN082AAXX  19004 83236 32998 02303 10200 20139 39682 40180 333 10317 29058 55085 58004;EQDQ01  00002PRCP06
0186832360999992003071912004-12150-045000FM-12+044099999V0202701N001012200019N0200001N1+02231+01511102091ADDAA106000091GF104991021001022501061071KA1240N+01581MA1999999097081MD1999999-0011REMSYN076AAXX  19124 83236 32898 42702 10223 20151 39708 40209 82067 333 20158 59001;EQDQ01  00002PRCP06
0167832360999992003071918004-12150-045000FM-12+044099999V0200901N002611050019N0200001N1+03131+01561101551ADDAA106000091GF106991021041008001001071MA1999999096641MD1999999-0021REMSYN070AAXX  19184 83236 32598 60905 10313 20156 39664 40155 82407 333 59002;EQDQ01  00002PRCP06
0196832360999992003072012004-12150-045000FM-12+044099999V0209999C000012200019N0200001N1+01981+01371101941ADDAA106000091GA1001+999999999GF100991001001999999001001KA1240N+01441MA1999999096951MD1999999-0131REMSYN070AAXX  20124 83236 32998 00000 10198 20137 39695 40194 333 20144 59013;EQDQ01  00002PRCP06
0167832360999992003072018004-12150-045000FM-12+044099999V0201401N002612200019N0200001N1+03171+01091101311ADDAA106000091GF101991001001999999001051MA1999999096431MD1999999-0211REMSYN070AAXX  20184 83236 32998 11405 10317 20109 39643 40131 80005 333 59021;EQDQ01  00002PRCP06
0196832360999992003072112004-12150-045000FM-12+044099999V0209999C000012200019N0200001N1+02051+01311101691ADDAA106000091GA1001+999999999GF100991001001999999001001KA1240N+01241MA1999999096931MD1999999-0021REMSYN070AAXX  21124 83236 32998 00000 10205 20131 39693 40169 333 20124 59002;EQDQ01  00002PRCP06
0177832360999992003072118004-12150-045000FM-12+044099999V0201401N003112200019N0200001N1+03051+00981101421ADDAA106000091GA1001+999999999GF100991001001999999001001MA1999999096481MD1999999+0001REMSYN064AAXX  21184 83236 32998 01406 10305 20098 39648 40142 333 58000;EQDQ01  00002PRCP06
0208832360999992003072200004-12150-045000FM-12+044099999V0202701N002112200019N0200001N1+01871+01091101711ADDAA106000091GA1001+999999999GF100991001001999999001001KA1240M+03181MA1999999096691MD1999999+0031REMSYN082AAXX  22004 83236 32998 02704 10187 20109 39669 40171 333 10318 29053 55106 58003;EQDQ01  00002PRCP06
0196832360999992003072212004-12150-045000FM-12+044099999V0209999C000012200019N0200001N1+01981+01211101921ADDAA106000091GA1001+999999999GF100991001001999999001001KA1240N+01071MA1999999096881MD1999999-0051REMSYN070AAXX  22124 83236 32998 00000 10198 20121 39688 40192 333 20107 59005;EQDQ01  00002PRCP06
0167832360999992003072218004-12150-045000FM-12+044099999V0200901N002612200019N0200001N1+03121+01391101331ADDAA106000091GF103991031011012501001001MA1999999096381MD1999999-0111REMSYN070AAXX  22184 83236 32698 30905 10312 20139 39638 40133 83100 333 59011;EQDQ01  00002PRCP06
0208832360999992003072300004-12150-045000FM-12+044099999V0209999C000012200019N0200001N1+02271+01541101521ADDAA106000091GF102991021011012501001001KA1240M+03261MA1999999096551MD1999999-0151REMSYN082AAXX  23004 83236 32698 20000 10227 20154 40152 82100 333 10326 29056 55107 59015;EQDQ01+999990APOSP Q02  00002PRCP06
0196832360999992003072312004-12150-045000FM-12+044099999V0201801N001012200019N0200001N1+02071+01361101911ADDAA106000091GA1001+999999999GF100991001001999999001001KA1240N+01361MA1999999096921MD1999999+0041REMSYN070AAXX  23124 83236 32998 01802 10207 20136 39692 40191 333 20136 58004;EQDQ01  00002PRCP06
0177832360999992003072318004-12150-045000FM-12+044099999V0201401N003112200019N0200001N1+03081+01021101331ADDAA106000091GA1001+999999999GF100991001001999999001001MA1999999096411MD1999999+0041REMSYN064AAXX  23184 83236 32998 01406 10308 20102 39641 40133 333 58004;EQDQ01  00002PRCP06
0208832360999992003072400004-12150-045000FM-12+044099999V0201801N001012200019N0200001N1+02171+01271101651ADDAA106000091GA1001+999999999GF100991001001999999001001KA1240M+03201MA1999999096661MD1999999+0121REMSYN082AAXX  24004 83236 32998 01802 10217 20127 39666 40165 333 10320 29052 55106 58012;EQDQ01  00002PRCP06
0186832360999992003072412004-12150-045000FM-12+044099999V0200901N004612200019N0200001N1+02361+01591101811ADDAA106000091GF103991031011008001001001KA1240N+01401MA1999999096851MD1999999-0071REMSYN076AAXX  24124 83236 32598 30909 10236 20159 39685 40181 83100 333 20140 59007;EQDQ01  00002PRCP06
0167832360999992003072418004-12150-045000FM-12+044099999V0200901N005112200019N0200001N1+03091+01171101271ADDAA106000091GF102991021011008001001001MA1999999096331MD1999999-0081REMSYN070AAXX  24184 83236 32598 20910 10309 20117 39633 40127 82100 333 59008;EQDQ01  00002PRCP06
0198832360999992003072500004-12150-045000FM-12+044099999V0203201N001012200019N0200001N1+02301+01431101511ADDAA106000091GF104991041021008001001001KA1240M+03241MA1999999096581MD1999999-0081REMSYN088AAXX  25004 83236 32598 43202 10230 20143 39658 40151 84200 333 10324 29052 55107 59008;EQDQ01  00002PRCP06
0186832360999992003072512004-12150-045000FM-12+044099999V0201801N000512200019N0200001N1+02301+01631101861ADDAA106000091GF102991021011008001001001KA1240N+01431MA1999999096901MD1999999+0051REMSYN076AAXX  25124 83236 32598 21801 10230 20163 39690 40186 82100 333 20143 58005;EQDQ01  00002PRCP06
0167832360999992003072518004-12150-045000FM-12+044099999V0200901N003112200019N0200001N1+03181+01401101341ADDAA106000091GF104991041021008001001001MA1999999096451MD1999999+0121REMSYN070AAXX  25184 83236 32598 40906 10318 20140 39645 40134 84200 333 58012;EQDQ01  00002PRCP06
0208832360999992003072600004-12150-045000FM-12+044099999V0201801N002112200019N0200001N1+02381+01421101611ADDAA106000091GA1001+999999999GF100991001001999999001001KA1240M+03291MA1999999096681MD1999999+0101REMSYN082AAXX  26004 83236 32998 01804 10238 20142 39668 40161 333 10329 29052 55097 58010;EQDQ01  00002PRCP06
0196832360999992003072612004-12150-045000FM-12+044099999V0201801N001512200019N0200001N1+02201+01581101941ADDAA106000091GA1001+999999999GF100991001001999999001001KA1240N+01501MA1999999096981MD1999999+0081REMSYN070AAXX  26124 83236 32998 01803 10220 20158 39698 40194 333 20150 58008;EQDQ01  00002PRCP06
0177832360999992003072618004-12150-045000FM-12+044099999V0201401N002612200019N0200001N1+03181+01101101361ADDAA106000091GA1001+999999999GF100991001001999999001001MA1999999096481MD1999999+0031REMSYN064AAXX  26184 83236 32998 01405 10318 20110 39648 40136 333 58003;EQDQ01  00002PRCP06
0208832360999992003072700004-12150-045000FM-12+044099999V0201801N002612200019N0200001N1+02441+01641101491ADDAA106000091GA1001+999999999GF100991001001999999001001KA1240M+03291MA1999999096551MD1999999-0131REMSYN082AAXX  27004 83236 32998 01805 10244 20164 39655 40149 333 10329 29054 55106 59013;EQDQ01  00002PRCP06
0196832360999992003072712004-12150-045000FM-12+044099999V0201801N003112200019N0200001N1+02261+01441101841ADDAA106000091GA1001+999999999GF100991001001999999001001KA1240N+01501MA1999999096901MD1999999-0081REMSYN070AAXX  27124 83236 32998 01806 10226 20144 39690 40184 333 20150 59008;EQDQ01  00002PRCP06
0167832360999992003072718004-12150-045000FM-12+044099999V0201401N003112200019N0200001N1+03071+01111101161ADDAA106000091GF101991011011008001001001MA1999999096371MD1999999-0111REMSYN070AAXX  27184 83236 32598 11406 10307 20111 39637 40116 81100 333 59011;EQDQ01  00002PRCP06
0208832360999992003072800004-12150-045000FM-12+044099999V0201801N001012200019N0200001N1+02201+01511101571ADDAA106000091GA1001+999999999GF100991001001999999001001KA1240M+03191MA1999999096621MD1999999+0071REMSYN082AAXX  28004 83236 32998 01802 10220 20151 39662 40157 333 10319 29055 55106 58007;EQDQ01  00002PRCP06
0196832360999992003072812004-12150-045000FM-12+044099999V0201801N003112200019N0200001N1+02211+01631101851ADDAA106000091GA1001+999999999GF100991001001999999001001KA1240N+01421MA1999999096871MD1999999-0031REMSYN070AAXX  28124 83236 32998 01806 10221 20163 39687 40185 333 20142 59003;EQDQ01  00002PRCP06
0167832360999992003072818004-12150-045000FM-12+044099999V0201801N001012200019N0200001N1+03161+01341101241ADDAA106000091GF101991011011008001001001MA1999999096331MD1999999-0041REMSYN070AAXX  28184 83236 32598 11802 10316 20134 39633 40124 81100 333 59004;EQDQ01  00002PRCP06
0208832360999992003072900004-12150-045000FM-12+044099999V0202701N001512200019N0200001N1+02161+01251101591ADDAA106000091GA1001+999999999GF100991001001999999001001KA1240M+03271MA1999999096631MD1999999+0011REMSYN082AAXX  29004 83236 32998 02703 10216 20125 39663 40159 333 10327 29054 55106 58001;EQDQ01  00002PRCP06
0186832360999992003072912004-12150-045000FM-12+044099999V0202701N001012200019N0200001N1+02161+01661101891ADDAA106000091GF101991011011008001001001KA1240N+01591MA1999999096901MD1999999+0031REMSYN076AAXX  29124 83236 32598 12702 10216 20166 39690 40189 81100 333 20159 58003;EQDQ01  00002PRCP06
0167832360999992003072918004-12150-045000FM-12+044099999V0200501N001012200019N0200001N1+03121+01481101311ADDAA106000091GF103991031011008001001001MA1999999096411MD1999999+0081REMSYN070AAXX  29184 83236 32598 30502 10312 20148 39641 40131 83100 333 58008;EQDQ01  00002PRCP06
0208832360999992003073000004-12150-045000FM-12+044099999V0202301N002612200019N0200001N1+02371+01401101631ADDAA106000091GA1001+999999999GF100991001001999999001001KA1240M+03261MA1999999096671MD1999999+0041REMSYN082AAXX  30004 83236 32998 02305 10237 20140 39667 40163 333 10326 29055 55105 58004;EQDQ01  00002PRCP06
0196832360999992003073012004-12150-045000FM-12+044099999V0201801N002612200019N0200001N1+02161+01451101851ADDAA106000091GA1001+999999999GF100991001001999999001001KA1240N+01441MA1999999096881MD1999999-0021REMSYN070AAXX  30124 83236 32998 01805 10216 20145 39688 40185 333 20144 59002;EQDQ01  00002PRCP06
0167832360999992003073018004-12150-045000FM-12+044099999V0202301N002112200019N0200001N1+03121+01351101291ADDAA106000091GF104991041011008001001001MA1999999096371MD1999999-0041REMSYN070AAXX  30184 83236 32598 42304 10312 20135 39637 40129 84100 333 59004;EQDQ01  00002PRCP06
0208832360999992003073100004-12150-045000FM-12+044099999V0202701N001012200019N0200001N1+02221+01731101521ADDAA106000091GA1001+999999999GF100991001001999999001001KA1240M+03301MA1999999096561MD1999999-0111REMSYN082AAXX  31004 83236 32998 02702 10222 20173 39656 40152 333 10330 29062 55103 59011;EQDQ01  00002PRCP06
0167832360999992003073118004-12150-045000FM-12+044099999V0201801N001512200019N0200001N1+03171+01341101111ADDAA106000091GF105991031021008001001041MA1999999096211MD1999999-0161REMSYN070AAXX  31184 83236 32598 51803 10317 20134 39621 40111 83204 333 59016;EQDQ01  00002PRCP06
0198832360999992003080100004-12150-045000FM-12+044099999V0209999C000010075019N0200001N1+02401+01861101321ADDAA106000091GF106991061021008001001001KA1240M+03301MA1999999096401MD1999999-0161REMSYN088AAXX  01004 83236 32598 60000 10240 20186 39640 40132 86200 333 10330 29059 55077 59016;EQDQ01  00002PRCP06
0186832360999992003080112004-12150-045000FM-12+044099999V0200901N003112200019N0200001N1+02501+01641101581ADDAA106000091GF102991021011008001001001KA1240N+02131MA1999999096671MD1999999-0041REMSYN076AAXX  01124 83236 32598 20906 10250 20164 39667 40158 82100 333 20213 59004;EQDQ01  00002PRCP06
0167832360999992003080118004-12150-045000FM-12+044099999V0200901N001010075019N0200001N1+03181+01611101041ADDAA106000091GF105991051021008001001001MA1999999096231MD1999999+0021REMSYN070AAXX  01184 83236 32598 50902 10318 20161 39623 40104 85200 333 58002;EQDQ01  00002PRCP06
0198832360999992003080200004-12150-045000FM-12+044099999V0209999C000010075019N0200001N1+02631+01671101331ADDAA106000091GF106991061021008001001001KA1240M+03401MA1999999096451MD1999999+0051REMSYN088AAXX  02004 83236 32598 60000 10263 20167 39645 40133 86200 333 10340 29052 55084 58005;EQDQ01  00002PRCP06
0196832360999992003080212004-12150-045000FM-12+044099999V0201401N002112200019N0200001N1+02461+01551101691ADDAA106000091GA1001+999999999GF100991001001999999001001KA1240N+01611MA1999999096791MD1999999+0121REMSYN070AAXX  02124 83236 32998 01404 10246 20155 39679 40169 333 20161 58012;EQDQ01  00002PRCP06
0167832360999992003080218004-12150-045000FM-12+044099999V0201401N004612200019N0200001N1+03271+01171101221ADDAA106000091GF104991041021008001001001MA1999999096371MD1999999+0141REMSYN070AAXX  02184 83236 32598 41409 10327 20117 39637 40122 84200 333 58014;EQDQ01  00002PRCP06
0196832360999992003080312004-12150-045000FM-12+044099999V0201401N001512200019N0200001N1+02301+01531101831ADDAA106000091GA1001+999999999GF100991001001999999001001KA1240N+01521MA1999999096891MD1999999+0101REMSYN070AAXX  03124 83236 32998 01403 10230 20153 39689 40183 333 20152 58010;EQDQ01  00002PRCP06
0167832360999992003080318004-12150-045000FM-12+044099999V0201401N002112200019N0200001N1+03141+01361101331ADDAA106000091GF104991041011008001001001MA1999999096411MD1999999+0041REMSYN070AAXX  03184 83236 32598 41404 10314 20136 39641 40133 84100 333 58004;EQDQ01  00002PRCP06
0196832360999992003080412004-12150-045000FM-12+044099999V0202701N001512200019N0200001N1+02221+01581101731ADDAA106000091GA1001+999999999GF100991001001999999001001KA1240N+01461MA1999999096761MD1999999-0131REMSYN070AAXX  04124 83236 32998 02703 10222 20158 39676 40173 333 20146 59013;EQDQ01  00002PRCP06
0167832360999992003080418004-12150-045000FM-12+044099999V0201801N002612200019N0200001N1+03131+01441101171ADDAA106000091GF102991021011008001001001MA1999999096251MD1999999-0161REMSYN070AAXX  04184 83236 32598 21805 10313 20144 39625 40117 82100 333 59016;EQDQ01  00002PRCP06
0208832360999992003080500004-12150-045000FM-12+044099999V0202701N002112200019N0200001N1+02401+01521101371ADDAA106000091GA1001+999999999GF100991001001999999001001KA1240M+03291MA1999999096441MD1999999-0121REMSYN082AAXX  05004 83236 32998 02704 10240 20152 39644 40137 333 10329 29055 55107 59012;EQDQ01  00002PRCP06
0166832360999992003080512004-12150-045000FM-12+044099999V0200501N002112200019N0200001N1+99999+99999999999ADDAA106000091GA1001+999999999GF100991001001999999001001KA1240N+01421REMSYN069AAXX  05124 83236 32998 00504 1022 20147 39664 40157 333 20142 59012;EQDQ01  00002PRCP06
0198832360999992003080600004-12150-045000FM-12+044099999V0202701N001012200019N0200001N1+02221+01761101381ADDAA106000091GF102991021011008001001001KA1240M+03331MA1999999096441MD1999999+0001REMSYN088AAXX  06004 83236 32598 22702 10222 20176 39644 40138 82100 333 10333 29064 55108 58000;EQDQ01  00002PRCP06
0186832360999992003080612004-12150-045000FM-12+044099999V0200901N001012200019N0200001N1+02321+01581101681ADDAA106000091GF101991011011008001001001KA1240N+01511MA1999999096721MD1999999+0081REMSYN076AAXX  06124 83236 32598 10902 10232 20158 39672 40168 81100 333 20151 58008;EQDQ01  00002PRCP06
0167832360999992003080618004-12150-045000FM-12+044099999V0201801N000512200019N0200001N1+03271+01421101061ADDAA106000091GF104991041021008001001001MA1999999096171MD1999999-0031REMSYN070AAXX  06184 83236 32598 41801 10327 20142 39617 40106 84200 333 59003;EQDQ01  00002PRCP06
0198832360999992003080700004-12150-045000FM-12+044099999V0202701N001512200019N0200001N1+02431+01591101281ADDAA106000091GF102991021011008001001001KA1240M+03431MA1999999096371MD1999999-0071REMSYN088AAXX  07004 83236 32598 22703 10243 20159 39637 40128 82100 333 10343 29054 55100 59007;EQDQ01  00002PRCP06
0196832360999992003080712004-12150-045000FM-12+044099999V0203601N001512200019N0200001N1+02301+01481101571ADDAA106000091GA1001+999999999GF100991001001999999001001KA1240N+01421MA1999999096641MD1999999-0081REMSYN070AAXX  07124 83236 32998 03603 10230 20148 39664 40157 333 20142 59008;EQDQ01  00002PRCP06
0167832360999992003080718004-12150-045000FM-12+044099999V0201401N002112200019N0200001N1+03341+01291101001ADDAA106000091GF103991031011012501001001MA1999999096111MD1999999-0061REMSYN070AAXX  07184 83236 32698 31404 10334 20129 39611 40100 83100 333 59006;EQDQ01  00002PRCP06
0198832360999992003080800004-12150-045000FM-12+044099999V0202301N001012200019N0200001N1+02241+01481101311ADDAA106000091GF104991041011012501001001KA1240M+03461MA1999999096371MD1999999+0001REMSYN088AAXX  08004 83236 32698 42302 10224 20148 39637 40131 84100 333 10346 29053 55105 58000;EQDQ01  00002PRCP06
0224832360999992003080812004-12150-045000FM-12+044099999V0203601N001012200019N0200001N1+02271+01371101531ADDAA106000091AY101061AY241061GA1001+999999999GF100991001001999999001001KA1240N+01501MA1999999096581MD1999999-0061MW1051REMSYN076AAXX  08124 83236 31998 03602 10227 20137 39658 40153 70504 333 20150 59006;EQDQ01  00002PRCP06
0167832360999992003080818004-12150-045000FM-12+044099999V0200901N002612200019N0200001N1+03391+00911100921ADDAA106000091GF101991011011012501001001MA1999999096051MD1999999-0061REMSYN070AAXX  08184 83236 32698 10905 10339 20091 39605 40092 81100 333 59006;EQDQ01  00002PRCP06
0208832360999992003080900004-12150-045000FM-12+044099999V0202701N001512200019N0200001N1+02391+00981101321ADDAA106000091GA1001+999999999GF100991001001999999001001KA1240M+03521MA1999999096401MD1999999+0031REMSYN082AAXX  09004 83236 32998 02703 10239 20098 39640 40132 333 10352 29040 55104 58003;EQDQ01  00002PRCP06
0196832360999992003080912004-12150-045000FM-12+044099999V0202701N001512200019N0200001N1+02281+01211101731ADDAA106000091GA1001+999999999GF100991001001999999001001KA1240N+01401MA1999999096791MD1999999+0211REMSYN070AAXX  09124 83236 32998 02703 10228 20121 39679 40173 333 20140 58021;EQDQ01  00002PRCP06
0167832360999992003080918004-12150-045000FM-12+044099999V0202301N001512200019N0200001N1+03301+01311101151ADDAA106000091GF102991021011012501001001MA1999999096251MD1999999+0201REMSYN070AAXX  09184 83236 32698 22303 10330 20131 39625 40115 82100 333 58020;EQDQ01  00002PRCP06
0196832360999992003081012004-12150-045000FM-12+044099999V0209999C000012200019N0200001N1+02121+01441101731ADDAA106000091GA1001+999999999GF100991001001999999001001KA1240N+01341MA1999999096751MD1999999-0041REMSYN070AAXX  10124 83236 32998 00000 10212 20144 39675 40173 333 20134 59004;EQDQ01  00002PRCP06
0167832360999992003081018004-12150-045000FM-12+044099999V0201801N002612200019N0200001N1+03331+01331101151ADDAA106000091GF102991021011012501001001MA1999999096241MD1999999-0011REMSYN070AAXX  10184 83236 32698 21805 10333 20133 39624 40115 82100 333 59001;EQDQ01  00002PRCP06
0186832360999992003081112004-12150-045000FM-12+044099999V0209999C000012200019N0200001N1+02301+01351101661ADDAA106000091GF103991001001999999001071KA1240N+01281MA1999999096691MD1999999-0061REMSYN076AAXX  11124 83236 32998 30000 10230 20135 39669 40166 80007 333 20128 59006;EQDQ01  00002PRCP06
0167832360999992003081118004-12150-045000FM-12+044099999V0201401N002612200019N0200001N1+03411+01241101021ADDAA106000091GF101991011011012501001001MA1999999096131MD1999999-0111REMSYN070AAXX  11184 83236 32698 11405 10341 20124 39613 40102 81100 333 59011;EQDQ01  00002PRCP06
0224832360999992003081212004-12150-045000FM-12+044099999V0200501N001512200019N0200001N1+02331+01371101641ADDAA106000091AY121061AY221061GA1001+999999999GF100991001001999999001001KA1240N+01411MA1999999096681MD1999999-0011MW1051REMSYN076AAXX  12124 83236 31998 00503 10233 20137 39668 40164 70522 333 20141 59001;EQDQ01  00002PRCP06
0167832360999992003081218004-12150-045000FM-12+044099999V0203601N001012200019N0200001N1+03431+01511101021ADDAA106000091GF104991041011008001001001MA1999999096141MD1999999+0011REMSYN070AAXX  12184 83236 32598 43602 10343 20151 39614 40102 84100 333 58001;EQDQ01  00002PRCP06
0198832360999992003081300004-12150-045000FM-12+044099999V0202701N001510450019N0200001N1+02621+01561101281ADDAA106000091GF105991041021008001061001KA1240M+03571MA1999999096381MD1999999-0011REMSYN088AAXX  13004 83236 32598 52703 10262 20156 39638 40128 84260 333 10357 29049 55104 59001;EQDQ01  00002PRCP06
0196832360999992003081312004-12150-045000FM-12+044099999V0209999C000012200019N0200001N1+02451+01511101591ADDAA106000091GA1001+999999999GF100991001001999999001001KA1240N+01711MA1999999096701MD1999999+0021REMSYN070AAXX  13124 83236 32998 00000 10245 20151 39670 40159 333 20171 58002;EQDQ01  00002PRCP06
0167832360999992003081318004-12150-045000FM-12+044099999V0202301N002110075019N0200001N1+03371+01521101051ADDAA106000091GF106991051021008001001051MA1999999096211MD1999999+0071REMSYN070AAXX  13184 83236 32598 62304 10337 20152 39621 40105 85205 333 58007;EQDQ01  00002PRCP06
0198832360999992003081400004-12150-045000FM-12+044099999V0209999C000012200019N0200001N1+02331+01631101361ADDAA106000091GF103991001001999999001071KA1240M+03501MA1999999096451MD1999999+0151REMSYN088AAXX  14004 83236 32998 30000 10233 20163 39645 40136 80007 333 10350 29055 55086 58015;EQDQ01  00002PRCP06
0186832360999992003081412004-12150-045000FM-12+044099999V0200901N001010450019N0200001N1+02351+01521101601ADDAA106000091GF106991031011012501071051KA1240N+01641MA1999999096671MD1999999-0031REMSYN076AAXX  14124 83236 32698 60902 10235 20152 39667 40160 83175 333 20164 59003;EQDQ01  00002PRCP06
0167832360999992003081418004-12150-045000FM-12+044099999V0200901N002610450019N0200001N1+03421+01311100881ADDAA106000091GF105991031021008001081051MA1999999096041MD1999999-0171REMSYN070AAXX  14184 83236 32598 50905 10342 20131 39604 40088 83285 333 59017;EQDQ01  00002PRCP06
0208832360999992003081500004-12150-045000FM-12+044099999V0203601N001512200019N0200001N1+02371+01781101271ADDAA106000091GA1001+999999999GF100991001001999999001001KA1240M+03561MA1999999096351MD1999999-0011REMSYN082AAXX  15004 83236 32998 03603 10237 20178 39635 40127 333 10356 29057 55101 59001;EQDQ01  00002PRCP06
0186832360999992003081512004-12150-045000FM-12+044099999V0200501N003610450019N0200001N1+02521+01491101491ADDAA106000091GF106991041011012501061051KA1240N+01811MA1999999096581MD1999999-0091REMSYN076AAXX  15124 83236 32698 60507 10252 20149 39658 40149 84165 333 20181 59009;EQDQ01  00002PRCP06
0167832360999992003081518004-12150-045000FM-12+044099999V0202701N001510450019N0200001N1+03381+01661100901ADDAA106000091GF106991041021012501061071MA1999999096101MD1999999+0061REMSYN070AAXX  15184 83236 32698 62703 10338 20166 39610 40090 84267 333 58006;EQDQ01  00002PRCP06
0198832360999992003081600004-12150-045000FM-12+044099999V0202301N001512200019N0200001N1+02421+01671101151ADDAA106000091GF103991031011012501001001KA1240M+03531MA1999999096261MD1999999-0091REMSYN088AAXX  16004 83236 32698 32303 10242 20167 39626 40115 83100 333 10353 29054 55081 59009;EQDQ01  00002PRCP06
0186832360999992003081612004-12150-045000FM-12+044099999V0209999C000012200019N0200001N1+02281+01731101481ADDAA106000091GF103991031011012501001001KA1240N+01601MA1999999096561MD1999999-0021REMSYN076AAXX  16124 83236 32698 30000 10228 20173 39656 40148 83100 333 20160 59002;EQDQ01  00002PRCP06
0167832360999992003081618004-12150-045000FM-12+044099999V0209999C000010450019N0200001N1+03301+01551100931ADDAA106000091GF106991041021008001071051MA1999999096061MD1999999-0041REMSYN070AAXX  16184 83236 32598 60000 10330 20155 39606 40093 84275 333 59004;EQDQ01  00002PRCP06
0190832360999992003081712004-12150-045000FM-12+044099999V0209999C000010120019N0100001N1+02361+01931101571ADDAY151061AY251061GF108991061081008001041999KA1240N+02081MA1999999096661MD1999999+0101MW1151REMSYN088AAXX  17124 83236 21597 80000 10236 20193 39666 40157 71555 8684/ 333 20208 58010 60024;
0167832360999992003081718004-12150-045000FM-12+044099999V0202301N001010120019N0200001N1+02991+01861101131ADDAA106000091GF108991071081008001051999MA1999999096261MD1999999+0201REMSYN070AAXX  17184 83236 32598 82302 10299 20186 39626 40113 8785/ 333 58020;EQDQ01  00002PRCP06
0186832360999992003081812004-12150-045000FM-12+044099999V0202301N001010120019N0200001N1+02291+01901101721ADDAA106000091GF108991061081008001041999KA1240N+01951MA1999999096771MD1999999+0111REMSYN076AAXX  18124 83236 32598 82302 10229 20190 39677 40172 8684/ 333 20195 58011;EQDQ01  00002PRCP06
0195832360999992003081818004-12150-045000FM-12+044099999V0202301N003110075019N0200001N1+02341+01871101621ADDAA106000091AY121061AY221061GF108991071051008001041999MA1999999096661MD1999999+0401MW1151REMSYN076AAXX  18184 83236 31598 82306 10234 20187 39666 40162 71522 8754/ 333 58040;EQDQ01  00002PRCP06
0198832360999992003081900004-12150-045000FM-12+044099999V0202701N001010075019N0200001N1+02101+01821101731ADDAA106000091GF108991071071008001051999KA1240M+02721MA1999999096761MD1999999+0341REMSYN088AAXX  19004 83236 32598 82702 10210 20182 39676 40173 8775/ 333 10272 29080 55000 58034;EQDQ01  00002PRCP06
0190832360999992003081912004-12150-045000FM-12+044099999V0201401N001010450019N0200001N1+02211+02051101951ADDAY161061AY251061GF106991041021008001061071KA1240N+01921MA1999999096961MD1999999+0191MW1031REMSYN088AAXX  19124 83236 21598 61402 10221 20205 39696 40195 70365 84267 333 20192 58019 60034;
0167832360999992003081918004-12150-045000FM-12+044099999V0201401N003610075019N0200001N1+03021+01731101411ADDAA106000091GF107991051021008001071051MA1999999096521MD1999999-0141REMSYN070AAXX  19184 83236 32598 71407 10302 20173 39652 40141 85275 333 59014;EQDQ01  00002PRCP06
0198832360999992003082000004-12150-045000FM-12+044099999V0201401N005112200019N0200001N1+02481+01621101721ADDAA106000091GF104991031021012501061001KA1240M+03161MA1999999096781MD1999999+0021REMSYN088AAXX  20004 83236 32698 41410 10248 20162 39678 40172 83260 333 10316 29064 55044 58002;EQDQ01  00002PRCP06
0186832360999992003082012004-12150-045000FM-12+044099999V0201401N003110450019N0200001N1+02371+01691101871ADDAA106000091GF105991031021012501061051KA1240N+01841MA1999999096951MD1999999-0011REMSYN076AAXX  20124 83236 32698 51406 10237 20169 39695 40187 83265 333 20184 59001;EQDQ01  00002PRCP06
0167832360999992003082018004-12150-045000FM-12+044099999V0201401N003610450019N0200001N1+02991+01551101371ADDAA106000091GF106991041021008001071051MA1999999096491MD1999999-0031REMSYN070AAXX  20184 83236 32598 61407 10299 20155 39649 40137 84275 333 59003;EQDQ01  00002PRCP06
0198832360999992003082100004-12150-045000FM-12+044099999V0201401N002112200019N0200001N1+02351+01601101631ADDAA106000091GF103991021021012501001051KA1240M+03131MA1999999096701MD1999999-0081REMSYN088AAXX  21004 83236 32698 31404 10235 20160 39670 40163 82205 333 10313 29058 55079 59008;EQDQ01  00002PRCP06
0186832360999992003082112004-12150-045000FM-12+044099999V0202301N002112200019N0200001N1+02311+01381101731ADDAA106000091GF103991001001999999001071KA1240N+01601MA1999999096791MD1999999-0161REMSYN076AAXX  21124 83236 32998 32304 10231 20138 39679 40173 80007 333 20160 59016;EQDQ01  00002PRCP06
0167832360999992003082118004-12150-045000FM-12+044099999V0200501N002612200019N0200001N1+03161+01551101071ADDAA106000091GF104991041021008001001001MA1999999096191MD1999999-0301REMSYN070AAXX  21184 83236 32598 40505 10316 20155 39619 40107 84200 333 59030;EQDQ01  00002PRCP06
0208832360999992003082200004-12150-045000FM-12+044099999V0201801N001512200019N0200001N1+02411+01581101281ADDAA106000091GA1001+999999999GF100991001001999999001001KA1240M+03321MA1999999096361MD1999999-0341REMSYN082AAXX  22004 83236 32998 01803 10241 20158 39636 40128 333 10332 29054 55105 59034;EQDQ01  00002PRCP06
0186832360999992003082212004-12150-045000FM-12+044099999V0200501N002112200019N0200001N1+02591+01691101671ADDAA106000091GF103991031011008001001001KA1240N+02171MA1999999096761MD1999999-0031REMSYN076AAXX  22124 83236 32598 30504 10259 20169 39676 40167 83100 333 20217 59003;EQDQ01  00002PRCP06
0167832360999992003082218004-12150-045000FM-12+044099999V0202701N001512200019N0200001N1+03351+01351101001ADDAA106000091GF104991041021008001001001MA1999999096191MD1999999+0001REMSYN070AAXX  22184 83236 32598 42703 10335 20135 39619 40100 84200 333 58000;EQDQ01  00002PRCP06
0198832360999992003082300004-12150-045000FM-12+044099999V0202301N000510075019N0200001N1+02591+01691101281ADDAA106000091GF106991061021008001001001KA1240M+03471MA1999999096411MD1999999+0051REMSYN088AAXX  23004 83236 32598 62301 10259 20169 39641 40128 86200 333 10347 29051 55099 58005;EQDQ01  00002PRCP06
0186832360999992003082312004-12150-045000FM-12+044099999V0202301N002112200019N0200001N1+02541+01911101601ADDAA106000091GF102991021011008001001001KA1240N+01941MA1999999096711MD1999999-0051REMSYN076AAXX  23124 83236 32598 22304 10254 20191 39671 40160 82100 333 20194 59005;EQDQ01  00002PRCP06
0167832360999992003082318004-12150-045000FM-12+044099999V0201401N004610075019N0200001N1+03211+01711101051ADDAA106000091GF105991051021008001001001MA1999999096201MD1999999+0011REMSYN070AAXX  23184 83236 32598 51409 10321 20171 39620 40105 85200 333 58001;EQDQ01  00002PRCP06
0196832360999992003082412004-12150-045000FM-12+044099999V0201801N000512200019N0200001N1+02401+01751101611ADDAA106000091GA1001+999999999GF100991001001999999001001KA1240N+01751MA1999999096711MD1999999+0001REMSYN070AAXX  24124 83236 32998 01801 10240 20175 39671 40161 333 20175 58000;EQDQ01  00002PRCP06
0167832360999992003082418004-12150-045000FM-12+044099999V0201801N001012200019N0200001N1+03331+01281100931ADDAA106000091GF103991031011008001001001MA1999999096111MD1999999-0091REMSYN070AAXX  24184 83236 32598 31802 10333 20128 39611 40093 83100 333 59009;EQDQ01  00002PRCP06
0186832360999992003082512004-12150-045000FM-12+044099999V0203601N002112200019N0200001N1+02461+01521101481ADDAA106000091GF101991001001999999001011KA1240N+01611MA1999999096561MD1999999-0151REMSYN076AAXX  25124 83236 32998 13604 10246 20152 39656 40148 80001 333 20161 59015;EQDQ01  00002PRCP06
0167832360999992003082518004-12150-045000FM-12+044099999V0203201N002610075019N0200001N1+03431+01361100871ADDAA106000091GF105991051021008001001001MA1999999096021MD1999999-0091REMSYN070AAXX  25184 83236 32598 53205 10343 20136 39602 40087 85200 333 59009;EQDQ01  00002PRCP06
0208832360999992003082600004-12150-045000FM-12+044099999V0209999C000012200019N0200001N1+02341+01781101141ADDAA106000091GA1001+999999999GF100991001001999999001001KA1240M+03591MA1999999096231MD1999999-0131REMSYN082AAXX  26004 83236 32998 00000 10234 20178 39623 40114 333 10359 29057 55069 59013;EQDQ01  00002PRCP06
0186832360999992003082612004-12150-045000FM-12+044099999V0200501N003112200019N0200001N1+02681+01551101311ADDAA106000091GF104991001001999999001041KA1240N+01681MA1999999096421MD1999999-0141REMSYN076AAXX  26124 83236 32998 40506 10268 20155 39642 40131 80004 333 20168 59014;EQDQ01  00002PRCP06
0167832360999992003082618004-12150-045000FM-12+044099999V0203201N001510075019N0200001N1+03591+01441100681ADDAA106000091GF105991051021008001001001MA1999999095871MD1999999-0151REMSYN070AAXX  26184 83236 32598 53203 10359 20144 39587 40068 85200 333 59015;EQDQ01  00002PRCP06
0186832360999992003082712004-12150-045000FM-12+044099999V0200501N003612200019N0200001N1+02821+01681101341ADDAA106000091GF103991031001022501081001KA1240N+01971MA1999999096491MD1999999+0071REMSYN076AAXX  27124 83236 32898 30507 10282 20168 39649 40134 83080 333 20197 58007;EQDQ01  00002PRCP06
0167832360999992003082718004-12150-045000FM-12+044099999V0200901N003610075019N0200001N1+03351+01541100831ADDAA106000091GF106991061021008001001001MA1999999096001MD1999999+0131REMSYN070AAXX  27184 83236 32598 60907 10335 20154 39600 40083 86200 333 58013;EQDQ01  00002PRCP06
0198832360999992003082800004-12150-045000FM-12+044099999V0201901N003610120019N0100001N1+02671+01951101221ADDAA106000091GF108991081081008001001001KA1240M+03671MA1999999096381MD1999999+0181REMSYN088AAXX  28004 83236 32597 81907 10267 20195 39638 40122 88800 333 10367 29054 55076 58018;EQDQ01  00002PRCP06
0186832360999992003082812004-12150-045000FM-12+044099999V0201801N001010120019N0200001N1+02641+01931101481ADDAA106000091GF107991071081008001001001KA1240N+02111MA1999999096611MD1999999+0121REMSYN076AAXX  28124 83236 32598 71802 10264 20193 39661 40148 87800 333 20211 58012;EQDQ01  00002PRCP06
0167832360999992003082818004-12150-045000FM-12+044099999V0201801N001010075019N0200001N1+03031+02071101051ADDAA106000091GF107991051021008001041001MA1999999096191MD1999999+0191REMSYN070AAXX  28184 83236 32598 71802 10303 20207 39619 40105 85240 333 58019;EQDQ01  00002PRCP06
0198832360999992003082900004-12150-045000FM-12+044099999V0209999C000010075019N0200001N1+02641+02441101201ADDAA106000091GF106991061071008001001001KA1240M+03301MA1999999096431MD1999999+0051REMSYN088AAXX  29004 83236 32598 60000 10264 20244 39643 40120 86700 333 10330 29065 55019 58005;EQDQ01  00002PRCP06
0186832360999992003082912004-12150-045000FM-12+044099999V0202301N000510450019N0200001N1+02741+02001101481ADDAA106000091GF107991021041008001051051KA1240N+02111MA1999999096621MD1999999+0011REMSYN076AAXX  29124 83236 32598 72301 10274 20200 39662 40148 82455 333 20211 58001;EQDQ01  00002PRCP06
0167832360999992003082918004-12150-045000FM-12+044099999V0203201N003112200019N0200001N1+03231+01841100991ADDAA106000091GF105991041081008001001011MA1999999096151MD1999999-0041REMSYN070AAXX  29184 83236 32598 53206 10323 20184 39615 40099 84801 333 59004;EQDQ01  00002PRCP06
0198832360999992003083000004-12150-045000FM-12+044099999V0202701N001010450019N0100001N1+02571+01971101321ADDAA106000091GF108991041071008001011001KA1240M+03371MA1999999096491MD1999999+0031REMSYN088AAXX  30004 83236 32597 82702 10257 20197 39649 40132 84710 333 10337 29062 55043 58003;EQDQ01  00002PRCP06
0186832360999992003083012004-12150-045000FM-12+044099999V0201801N001010450019N0200001N1+02551+02021101461ADDAA106000091GF106991021021008001031001KA1240N+02191MA1999999096571MD1999999-0051REMSYN076AAXX  30124 83236 32598 61802 10255 20202 39657 40146 82230 333 20219 59005;EQDQ01  00002PRCP06
0195832360999992003083018004-12150-045000FM-12+044099999V0200901N005110075019N0200001N1+03191+01731101041ADDAA106000091AY101061AY221061GF107991071071008001001001MA1999999096211MD1999999+0061MW1151REMSYN076AAXX  30184 83236 31598 70910 10319 20173 39621 40104 71502 87700 333 58006;EQDQ01  00002PRCP06
0162832360999992003083112004-12150-045000FM-12+044099999V0202301N000511050019N0200001N1+02461+01781101741ADDGF106991031011008001001021KA1240N+02011MA1999999096821MD1999999+0251REMSYN082AAXX  31124 83236 22598 62301 10246 20178 39682 40174 83102 333 20201 58025 60054;
0171832360999992003083118004-12150-045000FM-12+044099999V0200901N001510075019N0200001N1+02551+02171101311ADDAY191061AY261061GF108991051071008001021999MA1999999096381MD1999999+0171MW1951REMSYN082AAXX  31184 83236 21598 80903 10255 20217 39638 40131 79596 8572/ 333 58017 60021;
0162832360999992003090112004-12150-045000FM-12+044099999V0203201N000512200019N0200001N1+02491+01961101711ADDGF102991001001999999001041KA1240N+01951MA1999999096771MD1999999-0051REMSYN082AAXX  01124 83236 22998 23201 10249 20196 39677 40171 80004 333 20195 59005 60084;
0167832360999992003090118004-12150-045000FM-12+044099999V0203601N001510450019N0200001N1+03431+01611101141ADDAA106000091GF105991041021008001051001MA1999999096301MD1999999-0081REMSYN070AAXX  01184 83236 32598 53603 10343 20161 39630 40114 84250 333 59008;EQDQ01  00002PRCP06
0198832360999992003090200004-12150-045000FM-12+044099999V0201801N000512200019N0200001N1+02381+02151101381ADDAA106000091GF103991031001022501041001KA1240M+03551MA1999999096481MD1999999-0121REMSYN088AAXX  02004 83236 32898 31801 10238 20215 39648 40138 83040 333 10355 29070 55085 59012;EQDQ01  00002PRCP06
0186832360999992003090212004-12150-045000FM-12+044099999V0200501N001511050019N0200001N1+02501+01671101781ADDAA106000091GF105991021001022501041051KA1240N+01751MA1999999096861MD1999999+0091REMSYN076AAXX  02124 83236 32898 50503 10250 20167 39686 40178 82045 333 20175 58009;EQDQ01  00002PRCP06
0167832360999992003090218004-12150-045000FM-12+044099999V0200901N003610450019N0200001N1+03311+01261101201ADDAA106000091GF107991021011008001021001MA1999999096351MD1999999-0051REMSYN070AAXX  02184 83236 32598 70907 10331 20126 39635 40120 82120 333 59005;EQDQ01  00002PRCP06
0198832360999992003090300004-12150-045000FM-12+044099999V0201801N002112200019N0200001N1+02441+01361101411ADDAA106000091GF103991001001999999001081KA1240M+03501MA1999999096511MD1999999+0031REMSYN088AAXX  03004 83236 32998 31804 10244 20136 39651 40141 80008 333 10350 29048 55062 58003;EQDQ01  00002PRCP06
0186832360999992003090312004-12150-045000FM-12+044099999V0200501N003119999999N0200001N1+02501+01721101791ADDAA106000091GF106991001001999999001061KA1240N+01741MA1999999096871MD1999999+0011REMSYN076AAXX  03124 83236 32998 60506 10250 20172 39687 40179 80006 333 20174 58001;EQDQ01  00002PRCP06
0167832360999992003090318004-12150-045000FM-12+044099999V0200901N003611050019N0200001N1+03311+01071101261ADDAA106000091GF107991011011008001001061MA1999999096401MD1999999+0051REMSYN070AAXX  03184 83236 32598 70907 10331 20107 39640 40126 81106 333 58005;EQDQ01  00002PRCP06
0214832360999992003090400004-12150-045000FM-12+044099999V0201801N001012200019N0200001N1+02591+01161101521ADDAA106000091GF103991031061008001001001KA1240M+03491MA1999999999999MD1999999+0121REMSYN088AAXX  04004 83236 32598 31802 10259 20116 39166 40152 83600 333 10349 29043 55079 58012;EQDQ01  00002PRCP06Q02 091663APOSP 
0186832360999992003090412004-12150-045000FM-12+044099999V0200501N003612200019N0200001N1+02591+01551101861ADDAA106000091GF101991011011008001001001KA1240N+01611MA1999999096961MD1999999+0091REMSYN076AAXX  04124 83236 32598 10507 10259 20155 39696 40186 81100 333 20161 58009;EQDQ01  00002PRCP06
0195832360999992003090418004-12150-045000FM-12+044099999V0200501N004612200019N0100001N1+03191+01051101321ADDAA106000091AY101061AY221061GF101991011011008001001001MA1999999096441MD1999999+0041MW1041REMSYN076AAXX  04184 83236 31597 10509 10319 20105 39644 40132 70402 81100 333 58004;EQDQ01  00002PRCP06
0198832360999992003090500004-12150-045000FM-12+044099999V0202301N001012200019N0200001N1+02361+01541101541ADDAA106000091GF102991021011008001001001KA1240M+03401MA1999999096641MD1999999+0011REMSYN088AAXX  05004 83236 32598 22302 10236 20154 39664 40154 82100 333 10340 29050 55109 58001;EQDQ01  00002PRCP06
0186832360999992003090512004-12150-045000FM-12+044099999V0201401N002612200019N0200001N1+02461+01881101971ADDAA106000091GF102991021011008001001001KA1240N+01971MA1999999097031MD1999999+0071REMSYN076AAXX  05124 83236 32598 21405 10246 20188 39703 40197 82100 333 20197 58007;EQDQ01  00002PRCP06
0167832360999992003090518004-12150-045000FM-12+044099999V0200901N004112200019N0200001N1+03131+01641101291ADDAA106000091GF103991031011008001001001MA1999999096421MD1999999-0021REMSYN070AAXX  05184 83236 32598 30908 10313 20164 39642 40129 83100 333 59002;EQDQ01  00002PRCP06
0198832360999992003090600004-12150-045000FM-12+044099999V0200901N005112200019N0200001N1+02811+01561101461ADDAA106000091GF103991031011008001001001KA1240M+03391MA1999999096591MD1999999-0051REMSYN088AAXX  06004 83236 32598 30910 10281 20156 39659 40146 83100 333 10339 29051 55102 59005;EQDQ01  00002PRCP06
0186832360999992003090612004-12150-045000FM-12+044099999V0201801N001012200019N0200001N1+02471+01631101761ADDAA106000091GF104991031011012501001051KA1240N+01951MA1999999096881MD1999999-0151REMSYN076AAXX  06124 83236 32698 41802 10247 20163 39688 40176 83105 333 20195 59015;EQDQ01  00002PRCP06
0167832360999992003090618004-12150-045000FM-12+044099999V0200901N002610450019N0200001N1+03151+01541101091ADDAA106000091GF106991041021008001041071MA1999999096241MD1999999-0181REMSYN070AAXX  06184 83236 32598 60905 10315 20154 39624 40109 84247 333 59018;EQDQ01  00002PRCP06
0196832360999992003090712004-12150-045000FM-12+044099999V0200901N002612200019N0200001N1+02511+01481101691ADDAA106000091GA1001+999999999GF100991001001999999001001KA1240N+01751MA1999999096801MD1999999-0081REMSYN070AAXX  07124 83236 32998 00905 10251 20148 39680 40169 333 20175 59008;EQDQ01  00002PRCP06
0205832360999992003090718004-12150-045000FM-12+044099999V0200901N003112200019N0200001N1+03281+01531101051ADDAA106000091AY101061AY241061GA1001+999999999GF100991001001999999001001MA1999999096201MD1999999-0041MW1051REMSYN070AAXX  07184 83236 31998 00906 10328 20153 39620 40105 70504 333 59004;EQDQ01  00002PRCP06
0198832360999992003090800004-12150-045000FM-12+044099999V0200901N005112200019N0200001N1+02821+00901101311ADDAA106000091GF103991001001999999001071KA1240M+03271MA1999999096451MD1999999+0031REMSYN088AAXX  08004 83236 32998 30910 10282 20090 39645 40131 80007 333 10327 29037 55106 58003;EQDQ01  00002PRCP06
0186832360999992003090812004-12150-045000FM-12+044099999V0203601N001512200019N0200001N1+02421+01541101691ADDAA106000091GF102991001001999999001071KA1240N+01641MA1999999096801MD1999999+0001REMSYN076AAXX  08124 83236 32998 23603 10242 20154 39680 40169 80007 333 20164 58000;EQDQ01  00002PRCP06
0167832360999992003090818004-12150-045000FM-12+044099999V0203601N003112200019N0200001N1+03251+01101101031ADDAA106000091GF101991011011012501001001MA1999999096171MD1999999-0031REMSYN070AAXX  08184 83236 32698 13606 10325 20110 39617 40103 81100 333 59003;EQDQ01  00002PRCP06
0208832360999992003090900004-12150-045000FM-12+044099999V0200501N005112200019N0200001N1+02831+01131101291ADDAA106000091GA1001+999999999GF100991001001999999001001KA1240M+03371MA1999999096421MD1999999-0031REMSYN082AAXX  09004 83236 32998 00510 10283 20113 39642 40129 333 10337 29039 55108 59003;EQDQ01  00002PRCP06
0186832360999992003090912004-12150-045000FM-12+044099999V0202301N001012200019N0200001N1+02401+01521101591ADDAA106000091GF103991001001999999001051KA1240N+01661MA1999999096711MD1999999-0091REMSYN076AAXX  09124 83236 32998 32302 10240 20152 39671 40159 80005 333 20166 59009;EQDQ01  00002PRCP06
0198832360999992003091000004-12150-045000FM-12+044099999V0202301N001512200019N0200001N1+02451+01301101351ADDAA106000091GF104991041001022501061001KA1240M+03571MA1999999096441MD1999999+0021REMSYN088AAXX  10004 83236 32898 42303 10245 20130 39644 40135 84060 333 10357 29045 55096 58002;EQDQ01  00002PRCP06
0196832360999992003091012004-12150-045000FM-12+044099999V0203601N003112200019N0200001N1+02581+01461101541ADDAA106000091GA1001+999999999GF100991001001999999001001KA1240N+01591MA1999999096641MD1999999-0071REMSYN070AAXX  10124 83236 32998 03606 10258 20146 39664 40154 333 20159 59007;EQDQ01  00002PRCP06
0167832360999992003091018004-12150-045000FM-12+044099999V0203601N001012200019N0200001N1+03421+01201100851ADDAA106000091GF104991041021008001001001MA1999999096001MD1999999-0121REMSYN070AAXX  10184 83236 32598 43602 10342 20120 39600 40085 84200 333 59012;EQDQ01  00002PRCP06
0198832360999992003091100004-12150-045000FM-12+044099999V0209999C000012200019N0200001N1+02411+01771101181ADDAA106000091GF103991031011012501001001KA1240M+03601MA1999999096301MD1999999-0141REMSYN088AAXX  11004 83236 32698 30000 10241 20177 39630 40118 83100 333 10360 29053 55103 59014;EQDQ01  00002PRCP06
0196832360999992003091112004-12150-045000FM-12+044099999V0203601N006212200019N0200001N1+02691+01551101401ADDAA106000091GA1001+999999999GF100991001001999999001001KA1240N+01831MA1999999096521MD1999999-0121REMSYN070AAXX  11124 83236 32998 03612 10269 20155 39652 40140 333 20183 59012;EQDQ01  00002PRCP06
0167832360999992003091118004-12150-045000FM-12+044099999V0202701N002610075019N0200001N1+03561+01431100781ADDAA106000091GF105991051041008001001001MA1999999095961MD1999999-0041REMSYN070AAXX  11184 83236 32598 52705 10356 20143 39596 40078 85400 333 59004;EQDQ01  00002PRCP06
0198832360999992003091200004-12150-045000FM-12+044099999V0202301N001512200019N0200001N1+02471+01631101081ADDAA106000091GF104991001001999999001071KA1240M+03691MA1999999096221MD1999999-0081REMSYN088AAXX  12004 83236 32998 42303 10247 20163 39622 40108 80007 333 10369 29050 55095 59008;EQDQ01  00002PRCP06
0186832360999992003091212004-12150-045000FM-12+044099999V0203601N003112200019N0200001N1+02741+01611101481ADDAA106000091GF103991001001999999001051KA1240N+01911MA1999999096601MD1999999+0081REMSYN076AAXX  12124 83236 32998 33606 10274 20161 39660 40148 80005 333 20191 58008;EQDQ01  00002PRCP06
0198832360999992003091300004-12150-045000FM-12+044099999V0200501N002612200019N0200001N1+02781+01411101261ADDAA106000091GF102991021011012501001001KA1240M+03621MA1999999096421MD1999999+0201REMSYN088AAXX  13004 83236 32698 20505 10278 20141 39642 40126 82100 333 10362 29042 55095 58020;EQDQ01  00002PRCP06
0196832360999992003091312004-12150-045000FM-12+044099999V0200501N002612200019N0200001N1+02761+01531101511ADDAA106000091GA1001+999999999GF100991001001999999001001KA1240N+01911MA1999999096661MD1999999+0061REMSYN070AAXX  13124 83236 32998 00505 10276 20153 39666 40151 333 20191 58006;EQDQ01  00002PRCP06
0167832360999992003091318004-12150-045000FM-12+044099999V0200901N002112200019N0200001N1+03481+01191100901ADDAA106000091GF102991021011012501001001MA1999999096131MD1999999+0011REMSYN070AAXX  13184 83236 32698 20904 10348 20119 39613 40090 82100 333 58001;EQDQ01  00002PRCP06
0195832360999992003091418004-12150-045000FM-12+044099999V0200901N003610075019N0200001N1+03591+01271100801ADDAA106000091AY101061AY241061GF105991051021008001001001MA1999999095981MD1999999-0151MW1051REMSYN076AAXX  14184 83236 31598 50907 10359 20127 39598 40080 70504 85200 333 59015;EQDQ01  00002PRCP06
0196832360999992003091512004-12150-045000FM-12+044099999V0201801N001012200019N0200001N1+02671+01471101411ADDAA106000091GA1001+999999999GF100991001001999999001001KA1240N+01861MA1999999096551MD1999999-0021REMSYN070AAXX  15124 83236 32998 01802 10267 20147 39655 40141 333 20186 59002;EQDQ01  00002PRCP06
0167832360999992003091618004-12150-045000FM-12+044099999V0201401N003112200019N0200001N1+03411+01291100861ADDAA106000091GF103991001001999999001051MA1999999096041MD1999999-0011REMSYN070AAXX  16184 83236 32998 31406 10341 20129 39604 40086 80005 333 59001;EQDQ01  00002PRCP06
0208832360999992003091700004-12150-045000FM-12+044099999V0202301N001012200019N0200001N1+02711+01441101091ADDAA106000091GA1001+999999999GF100991001001999999001001KA1240M+03571MA1999999096241MD1999999-0051REMSYN082AAXX  17004 83236 32998 02302 10271 20144 39624 40109 333 10357 29044 55104 59005;EQDQ01  00002PRCP06
0186832360999992003091712004-12150-045000FM-12+044099999V0200501N001012200019N0200001N1+02651+01481101321ADDAA106000091GF103991001001999999001071KA1240N+01681MA1999999096461MD1999999-0131REMSYN076AAXX  17124 83236 32998 30502 10265 20148 39646 40132 80007 333 20168 59013;EQDQ01  00002PRCP06
0167832360999992003091718004-12150-045000FM-12+044099999V0203601N002612200019N0200001N1+03591+01391100651ADDAA106000091GF104991021011012501001051MA1999999095861MD1999999-0181REMSYN070AAXX  17184 83236 32698 43605 10359 20139 39586 40065 82105 333 59018;EQDQ01  00002PRCP06
0226832360999992003091800004-12150-045000FM-12+044099999V0200501N001511050019N0200001N1+02661+01501100981ADDAA106000091AY101061AY241061GF105991021021012501001071KA1240M+03701MA1999999096121MD1999999-0121MW1051REMSYN094AAXX  18004 83236 31698 50503 10266 20150 39612 40098 70504 82207 333 10370 29044 55106 59012;EQDQ01  00002PRCP06
0216832360999992003091812004-12150-045000FM-12+044099999V0203601N004112200019N0200001N1+02871+01331101231ADDAA106000091AY141061GA1001+999999999GF100991001001999999001001KA1240N+01831MA1999999096391MD1999999-0071MW1051REMSYN076AAXX  18124 83236 31998 03608 10287 20133 39639 40123 7054/ 333 20183 59007;EQDQ01  00002PRCP06
0195832360999992003091818004-12150-045000FM-12+044099999V0202701N003112200019N0200001N1+03651+01321100651ADDAA106000091AY101061AY241061GF103991031011012501001001MA1999999095861MD1999999+0001MW1051REMSYN076AAXX  18184 83236 31698 32706 10365 20132 39586 40065 70504 83100 333 58000;EQDQ01  00002PRCP06
0226832360999992003091900004-12150-045000FM-12+044099999V0209999C000010450019N0200001N1+02751+01761100871ADDAA106000091AY101061AY241061GF106991031021008001071051KA1240M+03751MA1999999096061MD1999999-0061MW1051REMSYN094AAXX  19004 83236 31598 60000 10275 20176 39606 40087 70504 83275 333 10375 29044 55107 59006;EQDQ01  00002PRCP06
0214832360999992003091912004-12150-045000FM-12+044099999V0203601N001012200019N0200001N1+02841+01631101201ADDAA106000091AY101061AY241061GF103991001001999999001071KA1240N+02071MA1999999096381MD1999999-0011MW1051REMSYN082AAXX  19124 83236 31998 33602 10284 20163 39638 40120 70504 80007 333 20207 59001;EQDQ01  00002PRCP06
0167832360999992003091918004-12150-045000FM-12+044099999V0200901N003110075019N0200001N1+03441+01531100541ADDAA106000091GF106991051021008001001051MA1999999095791MD1999999-0071REMSYN070AAXX  19184 83236 32598 60906 10344 20153 39579 40054 85205 333 59007;EQDQ01  00002PRCP06
0198832360999992003092000004-12150-045000FM-12+044099999V0201401N002610075019N0200001N1+02721+01461100901ADDAA106000091GF105991051021008001001001KA1240M+03651MA1999999096091MD1999999+0031REMSYN088AAXX  20004 83236 32598 51405 10272 20146 39609 40090 85200 333 10365 29043 55074 58003;EQDQ01  00002PRCP06
0186832360999992003092012004-12150-045000FM-12+044099999V0200901N003111050019N0200001N1+02781+01701101341ADDAA106000091GF105991031021012501001071KA1240N+02231MA1999999096501MD1999999+0121REMSYN076AAXX  20124 83236 32698 50906 10278 20170 39650 40134 83207 333 20223 58012;EQDQ01  00002PRCP06
0167832360999992003092018004-12150-045000FM-12+044099999V0200901N003110450019N0200001N1+03521+01161101001ADDAA106000091GF106991041021008001051071MA1999999095931MD1999999+0141REMSYN070AAXX  20184 83236 32598 60906 10352 20116 39593 40100 84257 333 58014;EQDQ01  00002PRCP06
0198832360999992003092100004-12150-045000FM-12+044099999V0209999C000011050019N0200001N1+02481+01601100981ADDAA106000091GF105991031011012501001051KA1240M+03621MA1999999096141MD1999999+0051REMSYN088AAXX  21004 83236 32698 50000 10248 20160 39614 40098 83105 333 10362 29048 55097 58005;EQDQ01  00002PRCP06
0186832360999992003092112004-12150-045000FM-12+044099999V0200501N004119999999N0200001N1+02651+01691101481ADDAA106000091GF105991001001999999001061KA1240N+02261MA1999999096591MD1999999+0091REMSYN076AAXX  21124 83236 32998 50508 10265 20169 39659 40148 80006 333 20226 58009;EQDQ01  00002PRCP06
0167832360999992003092118004-12150-045000FM-12+044099999V0200901N003111050019N0100001N1+03291+01531100881ADDAA106000091GF107991031021008001001061MA1999999096081MD1999999+0161REMSYN070AAXX  21184 83236 32597 70906 10329 20153 39608 40088 83206 333 58016;EQDQ01  00002PRCP06
0186832360999992003092212004-12150-045000FM-12+044099999V0200501N003119999999N0200001N1+02771+01591101471ADDAA106000091GF105991001001999999001051KA1240N+01991MA1999999096611MD1999999+0021REMSYN076AAXX  22124 83236 32998 50506 10277 20159 39661 40147 80005 333 20199 58002;EQDQ01  00002PRCP06
0195832360999992003092218004-12150-045000FM-12+044099999V0201401N002612200019N0100001N1+03451+01271100831ADDAA106000091AY101061AY221061GF105991011011008001001061MA1999999096011MD1999999-0071MW1041REMSYN076AAXX  22184 83236 31597 51405 10345 20127 39601 40083 70402 81106 333 59007;EQDQ01  00002PRCP06
0198832360999992003092400004-12150-045000FM-12+044099999V0203201N001512200019N0100001N1+02581+01691100951ADDAA106000091GF104991041021008001001001KA1240M+03671MA1999999096111MD1999999-0131REMSYN088AAXX  24004 83236 32597 43203 10258 20169 39611 40095 84200 333 10367 29049 55087 59013;EQDQ01  00002PRCP06
0196832360999992003092412004-12150-045000FM-12+044099999V0203601N003112200019N0200001N1+02711+01151101241ADDAA106000091GA1001+999999999GF100991001001999999001001KA1240N+01661MA1999999096381MD1999999-0121REMSYN070AAXX  24124 83236 32998 03606 10271 20115 39638 40124 333 20166 59012;EQDQ01  00002PRCP06
0195832360999992003092418004-12150-045000FM-12+044099999V0203201N001012200019N0100001N1+03621+01241100531ADDAA106000091AY101061AY221061GF101991011011008001001001MA1999999095721MD1999999-0131MW1041REMSYN076AAXX  24184 83236 31597 13202 10362 20124 39572 40053 70402 81100 333 59013;EQDQ01  00002PRCP06
0224832360999992003092512004-12150-045000FM-12+044099999V0200501N004612200019N0100001N1+02871+01291101141ADDAA106000091AY101061AY201061GA1001+999999999GF100991001001999999001001KA1240N+01671MA1999999096311MD1999999-0071MW1051REMSYN076AAXX  25124 83236 31997 00509 10287 20129 39631 40114 70500 333 20167 59007;EQDQ01  00002PRCP06
0195832360999992003092518004-12150-045000FM-12+044099999V0202701N002112200019N0040001N1+03731+00971100481ADDAA106000091AY101061AY241061GF104991011011008001001041MA1999999095671MD1999999-0051MW1041REMSYN076AAXX  25184 83236 31596 42704 10373 20097 39567 40048 70404 81104 333 59005;EQDQ01  00002PRCP06
0226832360999992003092600004-12150-045000FM-12+044099999V0209999C000012200019N0040001N1+02461+01631100821ADDAA106000091AY101061AY241061GF103991001001999999001041KA1240M+03871MA1999999095981MD1999999+0011MW1041REMSYN094AAXX  26004 83236 31996 30000 10246 20163 39598 40082 70404 80004 333 10387 29059 55101 58001;EQDQ01  00002PRCP06
0256832360999992003092612004-12150-045000FM-12+044099999V0203601N002112200019N0040001N1+02791+01221101081ADDAA106000091AY101061AY241061GA1001+999999999GF100991001001999999001001KA1240N+01511MA1999999096231MD1999999-0081MW1041REMSYN076AAXX  26124 83236 31996 03604 10279 20122 33962 40108 70404 333 20151 59008;EQDQ01+039621APOSP Q02+999990APOSP Q03  00002PRCP06
0195832360999992003092618004-12150-045000FM-12+044099999V0203201N003112200019N0040001N1+03771+01081100401ADDAA106000091AY101061AY241061GF102991021011008001001001MA1999999095651MD1999999-0021MW1041REMSYN076AAXX  26184 83236 31596 23206 10377 20108 39565 40040 70404 82100 333 59002;EQDQ01  00002PRCP06
0214832360999992003092712004-12150-045000FM-12+044099999V0203601N002612200019N0040001N1+02691+01281100991ADDAA106000091AY101061AY241061GF104991001001999999001071KA1240N+01651MA1999999096141MD1999999-0091MW1041REMSYN082AAXX  27124 83236 31996 43605 10269 20128 39614 40099 70404 80007 333 20165 59009;EQDQ01  00002PRCP06
0195832360999992003092718004-12150-045000FM-12+044099999V0200501N002112200019N0040001N1+03671+01071100271ADDAA106000091AY101061AY241061GF104991011011008001001071MA1999999095491MD1999999-0161MW1041REMSYN076AAXX  27184 83236 31596 40504 10367 20107 39549 40027 70404 81107 333 59016;EQDQ01  00002PRCP06
0252832360999992003092800004-12150-045000FM-12+044099999V0201001N041122200019N0040001N1+02911+01651100591ADDAA106000091AY101061AY201061GA1001+999999999GF100991001001999999001001KA1240M+03821MA1999999095801MD1999999-0061MW1041REMSYN088AAXX  28004 83236 31996 01080 10291 20165 39580 40059 70400 333 10382 29039 55090 59006;EQDQ01+004113WOSPD Q02  00002PRCP06
0214832360999992003092812004-12150-045000FM-12+044099999V0201801N001010210019N0040001N1+02731+01951101101ADDAA106000091AY101061AY241061GF108991081001022501071999KA1240N+02351MA1999999096281MD1999999+0141MW1051REMSYN082AAXX  28124 83236 31896 81802 10273 20195 39628 40110 70504 8807/ 333 20235 58014;EQDQ01  00002PRCP06
0195832360999992003092818004-12150-045000FM-12+044099999V0203201N002110450019N0040001N1+02851+02091100691ADDAA106000091AY101061AY241061GF108991031071008001011999MA1999999095851MD1999999+0361MW1051REMSYN076AAXX  28184 83236 31596 83204 10285 20209 39585 40069 70504 8371/ 333 58036;EQDQ01  00002PRCP06
0226832360999992003092900004-12150-045000FM-12+044099999V0202701N002110450019N0040001N1+02621+01931100891ADDAA106000091AY101061AY241061GF106991031071008001011001KA1240M+03551MA1999999096061MD1999999+0261MW1051REMSYN094AAXX  29004 83236 31596 62704 10262 20193 39606 40089 70504 83710 333 10355 29065 55017 58026;EQDQ01  00002PRCP06
0201832360999992003092912004-12150-045000FM-12+044099999V0202701N001512200019N0040001N1+02801+02031101111ADDAA106000091AY101061AY241061GF105991031001022501031091MA1999999096271MD1999999-0011MW1051REMSYN082AAXX  29124 83236 31896 52703 10280 20203 39627 40111 70504 83039 333 2023/ 59001;EQDQ01  00002PRCP06
0195832360999992003092918004-12150-045000FM-12+044099999V0203601N002611050019N0040001N1+03621+01691100431ADDAA106000091AY101061AY241061GF107991041021008001001061MA1999999095671MD1999999-0181MW1051REMSYN076AAXX  29184 83236 31596 73605 10362 20169 39567 40043 70504 84206 333 59018;EQDQ01  00002PRCP06
0202832360999992003093000004-12150-045000FM-12+044099999V0202701N004610075019N0040001N1+02321+02111101161ADDAY101061AY291061GF108991051071008001021999KA1240M+03771MA1999999096291MD1999999+0231MW1971REMSYN100AAXX  30004 83236 21596 82709 10232 20211 39629 40116 79709 8572/ 333 10377 29068 55061 58023 60011;
0190832360999992003093012004-12150-045000FM-12+044099999V0203601N001011050019N0040001N1+02751+01951101271ADDAY191061AY261061GF105991021021008001041061KA1240N+02221MA1999999096351MD1999999+0081MW1051REMSYN088AAXX  30124 83236 21596 53602 10275 20195 39635 40127 70596 82246 333 20222 58008 60044;
0195832360999992003093018004-12150-045000FM-12+044099999V0203201N001010075019N0040001N1+03391+01571100731ADDAA106000091AY101061AY291061GF108991051021008001021999MA1999999095931MD1999999+0261MW1151REMSYN076AAXX  30184 83236 31596 83202 10339 20157 39593 40073 71509 8522/ 333 58026;EQDQ01  00002PRCP06
0202832360999992003100100004-12150-045000FM-12+044099999V0202701N001010450019N0040001N1+02321+02201101181ADDAY191061AY261061GF108991031071008001021999KA1240M+03471MA1999999096311MD1999999+0021MW1021REMSYN100AAXX  01004 83236 21596 82702 10232 20220 39631 40118 70296 8372/ 333 10347 29070 55031 58002 60131;
0190832360999992003100112004-12150-045000FM-12+044099999V0203601N001010450019N0100001N1+02251+02051101421ADDAY161061AY261061GF108991021011008001021999KA1240N+02201MA1999999096481MD1999999+0131MW1511REMSYN088AAXX  01124 83236 21597 83602 10225 20205 39648 40142 75166 8212/ 333 20220 58013 60164;
0171832360999992003100118004-12150-045000FM-12+044099999V0203201N001010450019N0100001N1+03161+01711100801ADDAY151061AY251061GF105991041021008001041001MA1999999095971MD1999999+0041MW1021REMSYN082AAXX  01184 83236 21597 53202 10316 20171 39597 40080 70255 84240 333 58004 69961;
0198832360999992003100200004-12150-045000FM-12+044099999V0202301N001010075019N0040001N1+02421+02131101201ADDAA106000091GF108991081051008001999999KA1240M+03251MA1999999096291MD1999999-0021REMSYN088AAXX  02004 83236 32596 82302 10242 20213 39629 40120 885// 333 10325 29075 55026 59002;EQDQ01  00002PRCP06
0162832360999992003100212004-12150-045000FM-12+044099999V0201401N003112200019N0100001N1+02781+01931101241ADDGF103991031011008001001001KA1240N+02191MA1999999096371MD1999999+0021REMSYN082AAXX  02124 83236 22597 31406 10278 20193 39637 40124 83100 333 20219 58002 69964;
0183832360999992003100218004-12150-045000FM-12+044099999V0200901N003119999999N0100001N1+03261+01641100661ADDAA106000091GF106991999021008001001001MA1999999095851MD1999999-0121REMSYN070AAXX  02184 83236 32597 60906 10326 20164 39585 40066 84200 333 59012;EQDQ01+000042SCOTLCQ02  00002PRCP06
0198832360999992003100300004-12150-045000FM-12+044099999V0201801N001010120019N0100001N1+02711+01941100891ADDAA106000091GF108991081081008001001001KA1240M+03371MA1999999096071MD1999999-0221REMSYN088AAXX  03004 83236 32597 81802 10271 20194 39607 40089 88800 333 10337 29056 55064 59022;EQDQ01  00002PRCP06
0186832360999992003100312004-12150-045000FM-12+044099999V0201801N002112200019N0100001N1+02711+01781101351ADDAA106000091GF104991001001999999001051KA1240N+02241MA1999999096501MD1999999+0131REMSYN076AAXX  03124 83236 32997 41804 10271 20178 39650 40135 80005 333 20224 58013;EQDQ01  00002PRCP06
0167832360999992003100318004-12150-045000FM-12+044099999V0200901N003612200019N0100001N1+03391+01431100861ADDAA106000091GF105991041021008001001041MA1999999095991MD1999999+0141REMSYN070AAXX  03184 83236 32597 50907 10339 20143 39599 40086 84204 333 58014;EQDQ01  00002PRCP06
0208832360999992003100400004-12150-045000FM-12+044099999V0209999C000012200019N0100001N1+02571+01831101031ADDAA106000091GA1001+999999999GF100991001001999999001001KA1240M+03511MA1999999096181MD1999999-0111REMSYN082AAXX  04004 83236 32997 00000 10257 20183 39618 40103 333 10351 29054 55072 59011;EQDQ01  00002PRCP06
0186832360999992003100412004-12150-045000FM-12+044099999V0203601N002612200019N0100001N1+02771+01661101361ADDAA106000091GF103991001001999999001041KA1240N+01941MA1999999096501MD1999999+0001REMSYN076AAXX  04124 83236 32997 33605 10277 20166 39650 40136 80004 333 20194 58000;EQDQ01  00002PRCP06
0167832360999992003100418004-12150-045000FM-12+044099999V0201801N005112200019N0100001N1+03531+01221100761ADDAA106000091GF105991031021008001001041MA1999999095971MD1999999-0021REMSYN070AAXX  04184 83236 32597 51810 10353 20122 39597 40076 83204 333 59002;EQDQ01  00002PRCP06
0198832360999992003100500004-12150-045000FM-12+044099999V0202701N000512200019N0100001N1+02561+01671101011ADDAA106000091GF103991001001999999001041KA1240M+03661MA1999999096161MD1999999-0061REMSYN088AAXX  05004 83236 32997 32701 10256 20167 39616 40101 80004 333 10366 29048 55109 59006;EQDQ01  00002PRCP06
0224832360999992003100512004-12150-045000FM-12+044099999V0203601N002612200019N0100001N1+02791+01511101271ADDAA106000091AY101061AY241061GA1001+999999999GF100991001001999999001001KA1240N+01991MA1999999096421MD1999999-0081MW1051REMSYN076AAXX  05124 83236 31997 03605 10279 20151 39642 40127 70504 333 20199 59008;EQDQ01  00002PRCP06
0195832360999992003100518004-12150-045000FM-12+044099999V0201801N002612200019N0100001N1+03541+01301100531ADDAA106000091AY101061AY241061GF104991041021008001001001MA1999999095741MD1999999-0231MW1051REMSYN076AAXX  05184 83236 31597 41805 10354 20130 39574 40053 70504 84200 333 59023;EQDQ01  00002PRCP06
0198832360999992003100600004-12150-045000FM-12+044099999V0209999C000012200019N0100001N1+02731+01621100821ADDAA106000091GF104991041021008001001001KA1240M+03671MA1999999096001MD1999999-0161REMSYN088AAXX  06004 83236 32597 40000 10273 20162 39600 40082 84200 333 10367 29044 55108 59016;EQDQ01  00002PRCP06
0186832360999992003100612004-12150-045000FM-12+044099999V0200501N004112200019N0200001N1+02721+01561101071ADDAA106000091GF103991001001999999001041KA1240N+01871MA1999999096231MD1999999-0191REMSYN076AAXX  06124 83236 32998 30508 10272 20156 39623 40107 80004 333 20187 59019;EQDQ01  00002PRCP06
0167832360999992003100618004-12150-045000FM-12+044099999V0203601N002611050019N0200001N1+03531+01551100501ADDAA106000091GF105991031021008001001051MA1999999095701MD1999999-0041REMSYN070AAXX  06184 83236 32598 53605 10353 20155 39570 40050 83205 333 59004;EQDQ01  00002PRCP06
0198832360999992003100700004-12150-045000FM-12+044099999V0209999C000010450019N0200001N1+02681+01701100721ADDAA106000091GF106991041021008001071051KA1240M+03681MA1999999095901MD1999999-0101REMSYN088AAXX  07004 83236 32598 60000 10268 20170 39590 40072 84275 333 10368 29048 55104 59010;EQDQ01  00002PRCP06
0186832360999992003100712004-12150-045000FM-12+044099999V0200501N002610450019N0200001N1+02861+01621101221ADDAA106000091GF106991041021008001051071KA1240N+02301MA1999999096381MD1999999+0151REMSYN076AAXX  07124 83236 32598 60505 10286 20162 39638 40122 84257 333 20230 58015;EQDQ01  00002PRCP06
0167832360999992003100718004-12150-045000FM-12+044099999V0200501N002610075019N0200001N1+03571+01191100511ADDAA106000091GF105991051021008001001001MA1999999095771MD1999999+0071REMSYN070AAXX  07184 83236 32598 50505 10357 20119 39577 40051 85200 333 58007;EQDQ01  00002PRCP06
0226832360999992003100800004-12150-045000FM-12+044099999V0209999C000010450019N0200001N1+02731+01901100811ADDAA106000091AY101061AY241061GF106991031031008001061071KA1240M+03731MA1999999096011MD1999999+0111MW1051REMSYN094AAXX  08004 83236 31598 60000 10273 20190 39601 40081 70504 83367 333 10373 29048 55096 58011;EQDQ01  00002PRCP06
0224832360999992003100812004-12150-045000FM-12+044099999V0200501N003112200019N0100001N1+03011+01451101081ADDAA106000091AY101061AY241061GA1001+999999999GF100991001001999999001001KA1240N+02551MA1999999096271MD1999999-0111MW1051REMSYN076AAXX  08124 83236 31997 00506 10301 20145 39627 40108 70504 333 20255 59011;EQDQ01  00002PRCP06
0195832360999992003100818004-12150-045000FM-12+044099999V0203601N002112200019N0200001N1+03601+01411100431ADDAA106000091AY101061AY241061GF104991041021012501001001MA1999999095711MD1999999-0061MW1051REMSYN076AAXX  08184 83236 31698 43604 10360 20141 39571 40043 70504 84200 333 59006;EQDQ01  00002PRCP06
0198832360999992003100900004-12150-045000FM-12+044099999V0209999C000010120019N0200001N1+03101+01841100781ADDAA106000091GF108991071081008001041999KA1240M+03731MA1999999095931MD1999999-0081REMSYN088AAXX  09004 83236 32598 80000 10310 20184 39593 40078 8784/ 333 10373 29040 55098 59008;EQDQ01  00002PRCP06
0214832360999992003100912004-12150-045000FM-12+044099999V0200501N002610450019N0100001N1+02831+01551101061ADDAA106000091AY101061AY241061GF105991031021012501051071KA1240N+02451MA1999999096271MD1999999+0001MW1051REMSYN082AAXX  09124 83236 31697 50505 10283 20155 39627 40106 70504 83257 333 20245 58000;EQDQ01  00002PRCP06
0195832360999992003100918004-12150-045000FM-12+044099999V0203601N002110450019N0100001N1+03451+01671100521ADDAA106000091AY101061AY241061GF106991041021008001041071MA1999999095771MD1999999+0061MW1051REMSYN076AAXX  09184 83236 31597 63604 10345 20167 39577 40052 70504 84247 333 58006;EQDQ01  00002PRCP06
0226832360999992003101000004-12150-045000FM-12+044099999V0209999C000010450019N0100001N1+02631+01931100751ADDAA106000091AY101061AY241061GF106991041021008001061051KA1240M+03621MA1999999095941MD1999999+0011MW1051REMSYN094AAXX  10004 83236 31597 60000 10263 20193 39594 40075 70504 84265 333 10362 29053 55080 58001;EQDQ01  00002PRCP06
0214832360999992003101012004-12150-045000FM-12+044099999V0200501N001012200019N0200001N1+02821+01551101141ADDAA106000091AY101061AY241061GF104991001001999999001071KA1240N+02031MA1999999096301MD1999999+0031MW1051REMSYN082AAXX  10124 83236 31998 40502 10282 20155 39630 40114 70504 80007 333 20203 58003;EQDQ01  00002PRCP06
0195832360999992003101018004-12150-045000FM-12+044099999V0203601N001510450019N0100001N1+03581+01081100451ADDAA106000091AY101061AY241061GF106991041021008001071041MA1999999095711MD1999999-0061MW1051REMSYN076AAXX  10184 83236 31597 63603 10358 20108 39571 40045 70504 84274 333 59006;EQDQ01  00002PRCP06
0226832360999992003101100004-12150-045000FM-12+044099999V0201801N001010450019N0100001N1+02641+01831100691ADDAA106000091AY101061AY241061GF105991021021012501061051KA1240M+03781MA1999999095881MD1999999-0061MW1051REMSYN094AAXX  11004 83236 31697 51802 10264 20183 39588 40069 70504 82265 333 10378 29048 55085 59006;EQDQ01  00002PRCP06
0214832360999992003101112004-12150-045000FM-12+044099999V0200501N001012200019N0100001N1+02891+01421101111ADDAA106000091AY101061AY241061GF103991001001999999001071KA1240N+01861MA1999999096271MD1999999-0031MW1051REMSYN082AAXX  11124 83236 31997 30502 10289 20142 39627 40111 70504 80007 333 20186 59003;EQDQ01  00002PRCP06
0195832360999992003101118004-12150-045000FM-12+044099999V0201801N001012200019N0200001N1+03661+01401100551ADDAA106000091AY101061AY241061GF104991041021012501001001MA1999999095771MD1999999+0061MW1051REMSYN076AAXX  11184 83236 31698 41802 10366 20140 39577 40055 70504 84200 333 58006;EQDQ01  00002PRCP06
0226832360999992003101200004-12150-045000FM-12+044099999V0202701N001010450019N0100001N1+02521+01691100761ADDAA106000091AY101061AY241061GF106991021021012501061071KA1240M+03791MA1999999095941MD1999999+0061MW1051REMSYN094AAXX  12004 83236 31697 62702 10252 20169 39594 40076 70504 82267 333 10379 29047 55108 58006;EQDQ01  00002PRCP06
0214832360999992003101212004-12150-045000FM-12+044099999V0200501N002612200019N0100001N1+02971+01251100961ADDAA106000091AY101061AY241061GF102991021011012501001001KA1240N+02051MA1999999096141MD1999999-0131MW1051REMSYN082AAXX  12124 83236 31697 20505 10297 20125 39614 40096 70504 82100 333 20205 59013;EQDQ01  00002PRCP06
0195832360999992003101218004-12150-045000FM-12+044099999V0201401N001510120019N0100001N1+03761+01361100381ADDAA106000091AY101061AY241061GF105991051021012501001001MA1999999095641MD1999999-0131MW1051REMSYN076AAXX  12184 83236 31697 51403 10376 20136 39564 40038 70504 85200 333 59013;EQDQ01  00002PRCP06
0226832360999992003101300004-12150-045000FM-12+044099999V0209999C000012200019N0100001N1+02781+01911100661ADDAA106000091AY101061AY241061GF104991001001999999001071KA1240M+03891MA1999999095871MD1999999-0071MW1051REMSYN094AAXX  13004 83236 31997 40000 10278 20191 39587 40066 70504 80007 333 10389 29044 55106 59007;EQDQ01  00002PRCP06
0190832360999992003101312004-12150-045000FM-12+044099999V0203601N002111050019N0100001N1+02941+01971101031ADDAY151061AY251061GF105991021011012501051071KA1240N+02371MA1999999096231MD1999999+0091MW1051REMSYN088AAXX  13124 83236 21697 53604 10294 20197 39623 40103 70555 82157 333 20237 58009 69924;
0195832360999992003101318004-12150-045000FM-12+044099999V0203601N002110450019N0100001N1+03091+01711100621ADDAA106000091AY101061AY241061GF106991041051008001041071MA1999999095841MD1999999+0201MW1151REMSYN076AAXX  13184 83236 31597 63604 10309 20171 39584 40062 71504 84547 333 58020;EQDQ01  00002PRCP06
0202832360999992003101400004-12150-045000FM-12+044099999V0201801N001510075019N0020001N1+02191+02111101261ADDAY191061AY261061GF108991061061008001999999KA1240M+03571MA1999999096381MD1999999+0511MW1611REMSYN100AAXX  14004 83236 21595 81803 10219 20211 39638 40126 76196 866// 333 10357 29073 55069 58051 60041;
0190832360999992003101412004-12150-045000FM-12+044099999V0201801N002110075019N0100001N1+02371+01991101451ADDAY151061AY251061GF108991061071008001021999KA1240N+02131MA1999999096511MD1999999+0281MW1031REMSYN088AAXX  14124 83236 21597 81804 10237 20199 39651 40145 70355 8672/ 333 20213 58028 60164;
0167832360999992003101418004-12150-045000FM-12+044099999V0201401N002610075019N0200001N1+02871+01921101031ADDAA106000091GF106991051031008001061001MA1999999096151MD1999999+0311REMSYN070AAXX  14184 83236 32598 61405 10287 20192 39615 40103 85360 333 58031;EQDQ01  00002PRCP06
0226832360999992003101500004-12150-045000FM-12+044099999V0202301N001510075019N0100001N1+02341+01951101361ADDAA106000091AY121061AY221061GF108991061051008001041999KA1240M+03041MA1999999096441MD1999999+0061MW1151REMSYN094AAXX  15004 83236 31597 82303 10234 20195 39644 40136 71522 8654/ 333 10304 29074 55017 58006;EQDQ01  00002PRCP06
0186832360999992003101512004-12150-045000FM-12+044099999V0202701N001510450019N0200001N1+02331+01911101481ADDAA106000091GF107991041021008001061051KA1240N+02051MA1999999096551MD1999999+0041REMSYN076AAXX  15124 83236 32598 72703 10233 20191 39655 40148 84265 333 20205 58004;EQDQ01  00002PRCP06
0167832360999992003101518004-12150-045000FM-12+044099999V0201401N002110450019N0200001N1+03131+01751100911ADDAA106000091GF107991041041008001071051MA1999999096101MD1999999-0051REMSYN070AAXX  15184 83236 32598 71404 10313 20175 39610 40091 84475 333 59005;EQDQ01  00002PRCP06
0198832360999992003101600004-12150-045000FM-12+044099999V0201801N001010075019N0100001N1+02671+02091101211ADDAA106000091GF108991061041008001071999KA1240M+03271MA1999999096331MD1999999-0111REMSYN088AAXX  16004 83236 32597 81802 10267 20209 39633 40121 8647/ 333 10327 29066 55047 59011;EQDQ01  00002PRCP06
0167832360999992003101618004-12150-045000FM-12+044099999V0201401N002610075019N0100001N1+03211+01631100851ADDAA106000091GF108991061051008001041999MA1999999096051MD1999999-0051REMSYN070AAXX  16184 83236 32597 81405 10321 20163 39605 40085 8654/ 333 59005;EQDQ01  00002PRCP06
0198832360999992003101700004-12150-045000FM-12+044099999V0209999C000012200019N0200001N1+02521+02051101131ADDAA106000091GF104991001001999999001071KA1240M+03371MA1999999096281MD1999999-0051REMSYN088AAXX  17004 83236 32998 40000 10252 20205 39628 40113 80007 333 10337 29059 55067 59005;EQDQ01  00002PRCP06
0186832360999992003101712004-12150-045000FM-12+044099999V0203601N001512200019N0200001N1+02741+01671101291ADDAA106000091GF104991001001999999001071KA1240N+02011MA1999999096431MD1999999-0101REMSYN076AAXX  17124 83236 32998 43603 10274 20167 39643 40129 80007 333 20201 59010;EQDQ01  00002PRCP06
0167832360999992003101718004-12150-045000FM-12+044099999V0201801N004010075019N0200001N1+03401+01451100671ADDAA106000091GF105991051021008001001001MA1999999095881MD1999999-0171REMSYN070AAXX  7184  83236 32598 51804 10340 20145 39588 40067 85200 333 59017;EQDQ01  00002PRCP06
0198832360999992003101800004-12150-045000FM-12+044099999V0209999C000012200019N0200001N1+02691+01921100901ADDAA106000091GF104991041021008001001001KA1240M+03581MA1999999096081MD1999999-0201REMSYN088AAXX  18004 83236 32598 40000 10269 20192 39608 40090 84200 333 10358 29052 55105 59020;EQDQ01  00002PRCP06
0186832360999992003101812004-12150-045000FM-12+044099999V0200501N004111050019N0200001N1+02731+01651101241ADDAA106000091GF105991021001022501041071KA1240N+02091MA1999999096391MD1999999-0041REMSYN076AAXX  18124 83236 32898 50508 10273 20165 39639 40124 82047 333 20209 59004;EQDQ01  00002PRCP06
0167832360999992003101818004-12150-045000FM-12+044099999V0200901N001510450019N0200001N1+03511+01381100711ADDAA106000091GF106991041021008001051071MA1999999095911MD1999999+0031REMSYN070AAXX  18184 83236 32598 60903 10351 20138 39591 40071 84257 333 58003;EQDQ01  00002PRCP06
0198832360999992003101900004-12150-045000FM-12+044099999V0209999C000012200019N0200001N1+02651+02091101001ADDAA106000091GF103991001001999999001051KA1240M+03641MA1999999096191MD1999999+0111REMSYN088AAXX  19004 83236 32998 30000 10265 20209 39619 40100 80005 333 10364 29056 55081 58011;EQDQ01  00002PRCP06
0196832360999992003101912004-12150-045000FM-12+044099999V0200501N003112200019N0200001N1+02891+01671101221ADDAA106000091GA1001+999999999GF100991001001999999001001KA1240N+02151MA1999999096381MD1999999-0011REMSYN070AAXX  19124 83236 32998 00506 10289 20167 39638 40122 333 20215 59001;EQDQ01  00002PRCP06
0167832360999992003101918004-12150-045000FM-12+044099999V0200901N003112200019N0200001N1+03721+01391100551ADDAA106000091GF103991031021008001001001MA1999999095791MD1999999-0121REMSYN070AAXX  19184 83236 32598 30906 10372 20139 39579 40055 83200 333 59012;EQDQ01  00002PRCP06
0186832360999992003102012004-12150-045000FM-12+044099999V0200501N002112200019N0200001N1+02951+01551101141ADDAA106000091GF104991001001999999001071KA1240N+02221MA1999999096341MD1999999-0041REMSYN076AAXX  20124 83236 32998 40504 10295 20155 39634 40114 80007 333 20222 59004;EQDQ01  00002PRCP06
0167832360999992003102018004-12150-045000FM-12+044099999V0201801N002111050019N0200001N1+03721+01261100541ADDAA106000091GF105991031021008001001071MA1999999095791MD1999999+0001REMSYN070AAXX  20184 83236 32598 51804 10372 20126 39579 40054 83207 333 58000;EQDQ01  00002PRCP06
0198832360999992003102100004-12150-045000FM-12+044099999V0203601N001012200019N0200001N1+02681+01781100811ADDAA106000091GF104991021011012501001071KA1240M+03861MA1999999096011MD1999999-0021REMSYN088AAXX  21004 83236 32698 43602 10268 20178 39601 40081 82107 333 10386 29046 55109 59002;EQDQ01  00002PRCP06
0214832360999992003102112004-12150-045000FM-12+044099999V0200901N005119999999N0100001N1+02971+01571101021ADDAA106000091AY101061AY241061GF106991001001999999001051KA1240N+02031MA1999999096221MD1999999-0121MW1051REMSYN082AAXX  21124 83236 31997 60910 10297 20157 39622 40102 70504 80005 333 20203 59012;EQDQ01  00002PRCP06
0195832360999992003102118004-12150-045000FM-12+044099999V0203601N002112200019N0100001N1+03661+01271100391ADDAA106000091AY101061AY241061GF106991031021008001001041MA1999999095621MD1999999-0171MW1051REMSYN076AAXX  21184 83236 31597 63604 10366 20127 39562 40039 70504 83204 333 59017;EQDQ01  00002PRCP06
0214832360999992003102200004-12150-045000FM-12+044099999V0209999C000012200019N0100001N1+02831+01441100611ADDAA106000091GF104991999001022501031001KA1240M+03811MA1999999095841MD1999999-0171REMSYN088AAXX  22004 83236 32897 40000 10283 20144 39584 40061 83030 333 10381 29038 55092 59017;EQDQ01+000032SCOTLCQ02  00002PRCP06
0186832360999992003102212004-12150-045000FM-12+044099999V0200501N006212200019N0200001N1+03061+01581100971ADDAA106000091GF104991021001022501061021KA1240N+01961MA1999999096191MD1999999-0031REMSYN076AAXX  22124 83236 32898 40512 10306 20158 39619 40097 82062 333 20196 59003;EQDQ01  00002PRCP06
0167832360999992003102218004-12150-045000FM-12+044099999V0201801N001012200019N0200001N1+03731+01261100331ADDAA106000091GF104991031021008001001091MA1999999095581MD1999999-0041REMSYN070AAXX  22184 83236 32598 41802 10373 20126 39558 40033 83209 333 59004;EQDQ01  00002PRCP06
0198832360999992003102300004-12150-045000FM-12+044099999V0201801N001510120019N0200001N1+02821+01511100641ADDAA106000091GF105991051081008001001001KA1240M+03911MA1999999095871MD1999999+0031REMSYN088AAXX  23004 83236 32598 51803 10282 20151 39587 40064 85800 333 10391 29038 55102 58003;EQDQ01  00002PRCP06
0186832360999992003102312004-12150-045000FM-12+044099999V0201801N002112200019N0200001N1+03021+02071101021ADDAA106000091GF106991021011008001001061KA1240N+02581MA1999999096231MD1999999+0041REMSYN076AAXX  23124 83236 32598 61804 10302 20207 39623 40102 82106 333 20258 58004;EQDQ01  00002PRCP06
0167832360999992003102318004-12150-045000FM-12+044099999V0203201N002110450019N0200001N1+03411+01721100621ADDAA106000091GF108991031071008001011999MA1999999095871MD1999999+0291REMSYN070AAXX  23184 83236 32598 83204 10341 20172 39587 40062 8371/ 333 58029;EQDQ01  00002PRCP06
0153832360999992003102400004-12150-045000FM-12+044099999V0202701N001012200019N0100001N1+02771+01941999999ADDAA106000091GF104991999999022501999999REMSYN085AAXX  24004 83236 32897 42702 10277 20194 10362 29054 39619 40098 55061 58032/ 84010;EQDQ01  00002PRCP06
0214832360999992003102412004-12150-045000FM-12+044099999V0202701N001011050019N0100001N1+02791+02061101321ADDAA106000091AY101061AY241061GF106991021021008001061041KA1240N+02061MA1999999096491MD1999999+0231MW1051REMSYN082AAXX  24124 83236 31597 62702 10279 20206 39649 40132 70504 82264 333 20206 58023;EQDQ01  00002PRCP06
0195832360999992003102418004-12150-045000FM-12+044099999V0201401N005710450019N0100001N1+03171+01711100941ADDAA106000091AY101061AY241061GF106991041071008001061001MA1999999096101MD1999999+0231MW1151REMSYN076AAXX  24184 83236 31597 61411 10317 20171 39610 40094 71504 84760 333 58023;EQDQ01  00002PRCP06
0198832360999992003102500004-12150-045000FM-12+044099999V0201801N005110210019N0100001N1+02481+01851101341ADDAA106000091GF108991081001022501021999KA1240M+03411MA1999999096481MD1999999+0291REMSYN088AAXX  25004 83236 32897 81810 10248 20185 39648 40134 8802/ 333 10341 29061 55046 58029;EQDQ01  00002PRCP06
0186832360999992003102512004-12150-045000FM-12+044099999V0203201N001510450019N0100001N1+02701+02011101331ADDAA106000091GF106991011011008001071001KA1240N+02171MA1999999096461MD1999999-0031REMSYN076AAXX  25124 83236 32597 63203 10270 20201 39646 40133 81170 333 20217 59003;EQDQ01  00002PRCP06
0167832360999992003102518004-12150-045000FM-12+044099999V0203601N001010450019N0100001N1+03181+01871100771ADDAA106000091GF106991041021008001031001MA1999999095951MD1999999-0161REMSYN070AAXX  25184 83236 32597 63602 10318 20187 39595 40077 84230 333 59016;EQDQ01  00002PRCP06
0202832360999992003102600004-12150-045000FM-12+044099999V0209999C000012200019N0100001N1+02391+02111100971ADDAY191061AY251061GF104991021071008001011001KA1240M+03331MA1999999096111MD1999999-0371MW1021REMSYN100AAXX  26004 83236 21597 40000 10239 20211 39611 40097 70295 82710 333 10333 29070 55020 59037 69911;
0162832360999992003102612004-12150-045000FM-12+044099999V0203601N002111050019N0100001N1+02871+01781101061ADDGF105991021001022501081071KA1240N+02031MA1999999096211MD1999999-0251REMSYN082AAXX  26124 83236 22897 53604 10287 20178 39621 40106 82087 333 20203 59025 69914;
0167832360999992003102618004-12150-045000FM-12+044099999V0201801N003112200019N0100001N1+03481+01611100471ADDAA106000091GF104991041021008001001001MA1999999095671MD1999999-0281REMSYN070AAXX  26184 83236 32597 41806 10348 20161 39567 40047 84200 333 59028;EQDQ01  00002PRCP06
0198832360999992003102700004-12150-045000FM-12+044099999V0209999C000012200019N0100001N1+02691+01891100661ADDAA106000091GF103991031001022501041001KA1240M+03711MA1999999095861MD1999999-0251REMSYN088AAXX  27004 83236 32897 30000 10269 20189 39586 40066 83040 333 10371 29052 55092 59025;EQDQ01  00002PRCP06
0186832360999992003102712004-12150-045000FM-12+044099999V0203601N001512200019N0200001N1+02831+01511100991ADDAA106000091GF104991021001022501071041KA1240N+02021MA1999999096161MD1999999-0051REMSYN076AAXX  27124 83236 32898 43603 10283 20151 39616 40099 82074 333 20202 59005;EQDQ01  00002PRCP06
0167832360999992003102718004-12150-045000FM-12+044099999V0200901N001012200019N0200001N1+03511+01431100361ADDAA106000091GF104991031021008001041001MA1999999095591MD1999999-0081REMSYN070AAXX  27184 83236 32598 40902 10351 20143 39559 40036 83240 333 59008;EQDQ01  00002PRCP06
0202832360999992003102800004-12150-045000FM-12+044099999V0200901N001012200019N0200001N1+02931+01501100651ADDAY151061AY251061GF103991031021008001001001KA1240M+03761MA1999999095871MD1999999+0011MW1021REMSYN100AAXX  28004 83236 21598 30902 10293 20150 39587 40065 70255 83200 333 10376 29040 55088 58001 69941;
0162832360999992003102812004-12150-045000FM-12+044099999V0200501N004612200019N0100001N1+02861+01841101121ADDGF106991021001022501031061KA1240N+02191MA1999999096321MD1999999+0161REMSYN082AAXX  28124 83236 22897 60509 10286 20184 39632 40112 82036 333 20219 58016 69944;
0167832360999992003102818004-12150-045000FM-12+044099999V0200501N001010450019N0200001N1+03451+01631100631ADDAA106000091GF106991031021008001041041MA1999999095841MD1999999+0251REMSYN070AAXX  28184 83236 32598 60502 10345 20163 39584 40063 83244 333 58025;EQDQ01  00002PRCP06
0198832360999992003102900004-12150-045000FM-12+044099999V0201801N002112200019N0200001N1+02741+01541100851ADDAA106000091GF103991031001022501061001KA1240M+03611MA1999999096051MD1999999+0181REMSYN088AAXX  29004 83236 32898 31804 10274 20154 39605 40085 83060 333 10361 29046 55078 58018;EQDQ01  00002PRCP06
0186832360999992003102912004-12150-045000FM-12+044099999V0200501N003112200019N0200001N1+02901+01751101031ADDAA106000091GF102991021001022501041001KA1240N+02111MA1999999096221MD1999999-0101REMSYN076AAXX  29124 83236 32898 20506 10290 20175 39622 40103 82040 333 20211 59010;EQDQ01  00002PRCP06
0167832360999992003102918004-12150-045000FM-12+044099999V0201801N001010075019N0200001N1+03511+01721100501ADDAA106000091GF106991061021008001001001MA1999999095751MD1999999-0091REMSYN070AAXX  29184 83236 32598 61802 10351 20172 39575 40050 86200 333 59009;EQDQ01  00002PRCP06
0198832360999992003103000004-12150-045000FM-12+044099999V0202701N001510450019N0100001N1+02831+01891100871ADDAA106000091GF108991041071008001021999KA1240M+03651MA1999999096071MD1999999+0021REMSYN088AAXX  30004 83236 32597 82703 10283 20189 39607 40087 8472/ 333 10365 29050 55087 58002;EQDQ01  00002PRCP06
0186832360999992003103012004-12150-045000FM-12+044099999V0200501N002612200019N0200001N1+02921+01861101021ADDAA106000091GF104991011001022501041021KA1240N+02201MA1999999096231MD1999999+0011REMSYN076AAXX  30124 83236 32898 40505 10292 20186 39623 40102 81042 333 20220 58001;EQDQ01  00002PRCP06
0167832360999992003103018004-12150-045000FM-12+044099999V0209999C000012200019N0200001N1+03531+01791100461ADDAA106000091GF106991041021008001001041MA1999999095701MD1999999-0051REMSYN070AAXX  30184 83236 32598 60000 10353 20179 39570 40046 84204 333 59005;EQDQ01  00002PRCP06
0202832360999992003103100004-12150-045000FM-12+044099999V0200501N005110075019N0100001N1+02751+02051100901ADDAY191061AY251061GF108991061071008001021999KA1240M+03681MA1999999096101MD1999999+0031MW1021REMSYN100AAXX  31004 83236 21597 80510 10275 20205 39610 40090 70295 8672/ 333 10368 29055 55086 58003 69981;
0162832360999992003103112004-12150-045000FM-12+044099999V0200501N001012200019N0100001N1+02911+01871100911ADDGF106991041001022501051041KA1240N+02221MA1999999096111MD1999999-0121REMSYN082AAXX  31124 83236 22897 60502 10291 20187 39611 40091 84054 333 20222 59012 69984;
0167832360999992003103118004-12150-045000FM-12+044099999V0201801N003610450019N0200001N1+03521+01651100401ADDAA106000091GF106991031021008001041041MA1999999095651MD1999999-0051REMSYN070AAXX  31184 83236 32598 61807 10352 20165 39565 40040 83244 333 59005;EQDQ01  00002PRCP06
0198832360999992003110100004-12150-045000FM-12+044099999V0202701N001510450019N0100001N1+02921+01951100591ADDAA106000091GF108991031051008001021999KA1240M+03651MA1999999095821MD1999999-0281REMSYN088AAXX  01004 83236 32597 82703 10292 20195 39582 40059 8352/ 333 10365 29050 55065 59028;EQDQ01  00002PRCP06
0186832360999992003110112004-12150-045000FM-12+044099999V0202301N001010450019N0100001N1+02791+02041101001ADDAA106000091GF106991021011008001071001KA1240N+02481MA1999999096201MD1999999+0091REMSYN076AAXX  01124 83236 32597 62302 10279 20204 39620 40100 82170 333 20248 58009;EQDQ01  00002PRCP06
0171832360999992003110118004-12150-045000FM-12+044099999V0201801N001510120019N0100001N1+02551+02191100771ADDAY151061AY251061GF106991061081008001001001MA1999999095931MD1999999+0281MW1021REMSYN082AAXX  01184 83236 21597 61803 10255 20219 39593 40077 70255 86800 333 58028 69971;
0198832360999992003110200004-12150-045000FM-12+044099999V0209999C000010450019N0100001N1+02561+02351100851ADDAA106000091GF108991041051008001021999KA1240M+03171MA1999999096021MD1999999+0201REMSYN088AAXX  02004 83236 32597 80000 10256 20235 39602 40085 8452/ 333 10317 29080 55007 58020;EQDQ01  00002PRCP06
0162832360999992003110212004-12150-045000FM-12+044099999V0202701N001510450019N0100001N1+02741+02171101011ADDGF106991031021008001061041KA1240N+02281MA1999999096161MD1999999-0041REMSYN082AAXX  02124 83236 22597 62703 10274 20217 39616 40101 83264 333 20228 59004 69974;
0195832360999992003110218004-12150-045000FM-12+044099999V0203601N003110450019N0100001N1+03341+01831100361ADDAA106000091AY101061AY221061GF106991041021008001061001MA1999999095591MD1999999-0341MW1151REMSYN076AAXX  02184 83236 31597 63606 10334 20183 39559 40036 71502 84260 333 59034;EQDQ01  00002PRCP06
0198832360999992003110300004-12150-045000FM-12+044099999V0201801N002110075019N0100001N1+02591+02121100861ADDAA106000091GF108991081051008001999999KA1240M+03451MA1999999096021MD1999999+0001REMSYN088AAXX  03004 83236 32597 81804 10259 20212 39602 40086 885// 333 10345 29066 55046 58000;EQDQ01  00002PRCP06
0186832360999992003110312004-12150-045000FM-12+044099999V0200901N001510075019N0100001N1+02571+02151100971ADDAA106000091GF107991071051008001001001KA1240N+02151MA1999999096121MD1999999-0041REMSYN076AAXX  03124 83236 32597 70903 10257 20215 39612 40097 87500 333 20215 59004;EQDQ01  00002PRCP06
0167832360999992003110318004-12150-045000FM-12+044099999V0203201N001010075019N0100001N1+03451+01841100191ADDAA106000091GF106991061021008001001001MA1999999095441MD1999999-0151REMSYN070AAXX  03184 83236 32597 63202 10345 20184 39544 40019 86200 333 59015;EQDQ01  00002PRCP06
0202832360999992003110400004-12150-045000FM-12+044099999V0200901N001010450019N0100001N1+02361+02291100931ADDAY191061AY261061GF108991041071008001021999KA1240M+03551MA1999999096051MD1999999+0031MW1131REMSYN100AAXX  04004 83236 21597 80902 10236 20229 39605 40093 71396 8472/ 333 10355 29077 55055 58003 60201;
0190832360999992003110412004-12150-045000FM-12+044099999V0209999C000011050019N0200001N1+02631+02181100961ADDAY161061AY261061GF105991021021008001041041KA1240N+02151MA1999999096091MD1999999-0031MW1021REMSYN088AAXX  04124 83236 21598 50000 10263 20218 39609 40096 70266 82244 333 20215 59003 60244;
0171832360999992003110418004-12150-045000FM-12+044099999V0203601N002110450019N0200001N1+02421+02281100681ADDAY161061AY261061GF107991031071008001021001MA1999999095781MD1999999+0361MW1021REMSYN082AAXX  04184 83236 21598 73604 10242 20228 39578 40068 70266 83720 333 58036 60091;
0202832360999992003110500004-12150-045000FM-12+044099999V0203601N001010210019N0040001N1+02211+02171101181ADDAY191061AY261061GF108991081021022501999999KA1240M+03171MA1999999096281MD1999999+0231MW1461REMSYN100AAXX  05004 83236 21896 83602 10221 20217 39628 40118 74696 882// 333 10317 29091 55057 58023 60271;
0181832360999992003110512004-12150-045000FM-12+044099999V0200501N002610075019N0040001N1+02311+02051101421ADDGF108991999071008001051999KA1240N+02041MA1999999096471MD1999999+0381REMSYN082AAXX  05124 83236 22596 80505 10231 20205 39647 40142 8875/ 333 20204 58038 60364;EQDQ01+000082SCOTLC
0167832360999992003110518004-12150-045000FM-12+044099999V0200501N002110075019N0200001N1+02821+02171100871ADDAA106000091GF106991051041008001071001MA1999999095981MD1999999+0201REMSYN070AAXX  05184 83236 32598 60504 10282 20217 39598 40087 85470 333 58020;EQDQ01  00002PRCP06
0202832360999992003110600004-12150-045000FM-12+044099999V0202301N001510075019N0100001N1+02281+02231101221ADDAY151061AY251061GF108991061051008001021999KA1240M+02971MA1999999096301MD1999999+0021MW1131REMSYN100AAXX  06004 83236 21597 82303 10228 20223 39630 40122 71355 8652/ 333 10297 29087 55033 58002 69921;
0190832360999992003110612004-12150-045000FM-12+044099999V0200501N001010075019N0040001N1+02361+02201101351ADDAY161061AY261061GF108991061071008001041999KA1240N+02121MA1999999096421MD1999999-0051MW1031REMSYN088AAXX  06124 83236 21596 80502 10236 20220 39642 40135 70366 8674/ 333 20212 59005 60194;
0162832360999992003110618004-12150-045000FM-12+044099999V0209999C000019999999N0200001N1+02651+02271100831ADDGF106991999021008001051051MA1999999095941MD1999999-0041REMSYN076AAXX  06184 83236 22598 60000 10265 20227 39594 40083 80255 333 59004 69931;EQDQ01+000002SCOTLC
0202832360999992003110700004-12150-045000FM-12+044099999V0201801N001510075019N0020001N1+02161+02141101221ADDAY161061AY261061GF108991081051008001999999KA1240M+02961MA1999999096281MD1999999-0021MW1171REMSYN100AAXX  07004 83236 21595 81803 10216 20214 39628 40122 71766 885// 333 10296 29092 55015 59002 60271;
0190832360999992003110712004-12150-045000FM-12+044099999V0209999C000010120019N0100001N1+02441+02151101211ADDAY151061AY251061GF108991071081008001021999KA1240N+02071MA1999999096291MD1999999-0131MW1031REMSYN088AAXX  07124 83236 21597 80000 10244 20215 39629 40121 70355 8782/ 333 20207 59013 60414;
0195832360999992003110718004-12150-045000FM-12+044099999V0202301N001010450019N0200001N1+03001+02141100571ADDAA106000091AY121061AY221061GF106991041051008001071031MA1999999095731MD1999999-0211MW1151REMSYN076AAXX  07184 83236 31598 62302 10300 20214 39573 40057 71522 84573 333 59021;EQDQ01  00002PRCP06
0202832360999992003110800004-12150-045000FM-12+044099999V0200901N001510075019N0020001N1+02061+01851101231ADDAY191061AY291061GF108991081061008001999999KA1240M+03141MA1999999096291MD1999999+0011MW1611REMSYN100AAXX  08004 83236 21595 80903 10206 20185 39629 40123 76199 886// 333 10314 29080 55034 58001 60041;
0190832360999992003110812004-12150-045000FM-12+044099999V0200501N001510450019N0200001N1+02291+02051101261ADDAY151061AY251061GF106991041071008001051071KA1240N+01921MA1999999096301MD1999999+0011MW1031REMSYN088AAXX  08124 83236 21598 60503 10229 20205 39630 40126 70355 84757 333 20192 58001 60124;
0167832360999992003110818004-12150-045000FM-12+044099999V0200501N004110450019N0200001N1+03021+01991100741ADDAA106000091GF105991031041008001061051MA1999999095871MD1999999+0141REMSYN070AAXX  08184 83236 32598 50508 10302 20199 39587 40074 83465 333 58014;EQDQ01  00002PRCP06
0198832360999992003110900004-12150-045000FM-12+044099999V0209999C000010075019N0100001N1+02481+02341100971ADDAA106000091GF108991061021008001071999KA1240M+03131MA1999999096081MD1999999-0211REMSYN088AAXX  09004 83236 32597 80000 10248 20234 39608 40097 8627/ 333 10313 29081 55074 59021;EQDQ01  00002PRCP06
0186832360999992003110912004-12150-045000FM-12+044099999V0200901N001510075019N0200001N1+02651+02161101121ADDAA106000091GF107991051021008001061071KA1240N+02091MA1999999096251MD1999999-0051REMSYN076AAXX  09124 83236 32598 70903 10265 20216 39625 40112 85267 333 20209 59005;EQDQ01  00002PRCP06
0167832360999992003110918004-12150-045000FM-12+044099999V0203601N001010075019N0200001N1+03241+02061100511ADDAA106000091GF107991061041008001071051MA1999999095701MD1999999-0171REMSYN070AAXX  09184 83236 32598 73602 10324 20206 39570 40051 86475 333 59017;EQDQ01  00002PRCP06
0202832360999992003111000004-12150-045000FM-12+044099999V0209999C000010075019N0100001N1+02361+02221101011ADDAY191061AY251061GF108991061051008001071999KA1240M+03351MA1999999096141MD1999999+0061MW1131REMSYN100AAXX  10004 83236 21597 80000 10236 20222 39614 40101 71395 8657/ 333 10335 29077 55067 58006 69911;
0162832360999992003111012004-12150-045000FM-12+044099999V0209999C000010450019N0100001N1+02711+02241101151ADDGF106991041021008001081051KA1240N+02171MA1999999096281MD1999999+0031REMSYN082AAXX  10124 83236 22597 60000 10271 20224 39628 40115 84285 333 20217 58003 60014;
0195832360999992003111018004-12150-045000FM-12+044099999V0201401N004110075019N0100001N1+02271+02121100941ADDAA106000091AY191061AY291061GF108991071051008001071999MA1999999096011MD1999999+0311MW1151REMSYN076AAXX  10184 83236 31597 81408 10227 20212 39601 40094 71599 8757/ 333 58031;EQDQ01  00002PRCP06
0198832360999992003111100004-12150-045000FM-12+044099999V0201401N001010120019N0100001N1+02281+02201101071ADDAA106000091GF108991061081008001051999KA1240M+03121MA1999999096191MD1999999+0051REMSYN088AAXX  11004 83236 32597 81402 10228 20220 39619 40107 8685/ 333 10312 29090 55037 58005;EQDQ01  00002PRCP06
0162832360999992003111112004-12150-045000FM-12+044099999V0209999C000011050019N0200001N1+02591+02291101101ADDGF106991031021008001001071KA1240N+02111MA1999999096211MD1999999+0071REMSYN082AAXX  11124 83236 22598 60000 10259 20229 39621 40110 83207 333 20211 58007 60034;
0171832360999992003111118004-12150-045000FM-12+044099999V0201801N001510450019N0200001N1+02801+02341100641ADDAY151061AY251061GF106991041051008001041071MA1999999095771MD1999999-0241MW1151REMSYN082AAXX  11184 83236 21598 61803 10280 20234 39577 40064 71555 84547 333 59024 69911;
0198832360999992003111200004-12150-045000FM-12+044099999V0209999C000010075019N0100001N1+02481+02341100631ADDAA106000091GF108991071021008001061071KA1240M+03321MA1999999096001MD1999999-0191REMSYN088AAXX  12004 83236 32597 80000 10248 20234 39600 40063 87267 333 10332 29086 55051 59019;EQDQ01  00002PRCP06
0162832360999992003111212004-12150-045000FM-12+044099999V0200501N003112200019N0200001N1+02751+01781101171ADDGF103991001001999999001051KA1240N+02101MA1999999096311MD1999999+0101REMSYN082AAXX  12124 83236 22998 30506 10275 20178 39631 40117 80005 333 20210 58010 69914;
0167832360999992003111218004-12150-045000FM-12+044099999V0203601N004112200019N0200001N1+03321+01521100721ADDAA106000091GF102991021011008001001001MA1999999095911MD1999999+0141REMSYN070AAXX  12184 83236 32598 23608 10332 20152 39591 40072 82100 333 58014;EQDQ01  00002PRCP06
0208832360999992003111300004-12150-045000FM-12+044099999V0201801N001012200019N0200001N1+02401+02011100911ADDAA106000091GA1001+999999999GF100991001001999999001001KA1240M+03471MA1999999096051MD1999999+0051REMSYN082AAXX  13004 83236 32998 01802 10240 20201 39605 40091 333 10347 29062 55106 58005;EQDQ01  00002PRCP06
0186832360999992003111312004-12150-045000FM-12+044099999V0200501N004112200019N0200001N1+02831+01741101161ADDAA106000091GF102991001001999999001051KA1240N+01981MA1999999096301MD1999999-0011REMSYN076AAXX  13124 83236 32998 20508 10283 20174 39630 40116 80005 333 20198 59001;EQDQ01  00002PRCP06
0167832360999992003111318004-12150-045000FM-12+044099999V0200501N001512200019N0200001N1+03381+01871100671ADDAA106000091GF103991021021008001001031MA1999999095851MD1999999-0061REMSYN070AAXX  13184 83236 32598 30503 10338 20187 39585 40067 82203 333 59006;EQDQ01  00002PRCP06
0226832360999992003111400004-12150-045000FM-12+044099999V0201801N001511050019N0200001N1+02651+02071100851ADDAA106000091AY121061AY221061GF105991031051008001001031KA1240M+03491MA1999999096031MD1999999-0021MW1131REMSYN094AAXX  14004 83236 31598 51803 10265 20207 39603 40085 71322 83503 333 10349 29059 55116 59002;EQDQ01  00002PRCP06
0186832360999992003111412004-12150-045000FM-12+044099999V0209999C000010450019N0200001N1+02821+02121101021ADDAA106000091GF105991031011012501061051KA1240N+02151MA1999999096191MD1999999-0111REMSYN076AAXX  14124 83236 32698 50000 10282 20212 39619 40102 83165 333 20215 59011;EQDQ01  00002PRCP06
0167832360999992003111418004-12150-045000FM-12+044099999V0203201N003110450019N0200001N1+03231+01951100671ADDAA106000091GF106991041041008001071051MA1999999095861MD1999999+0011REMSYN070AAXX  14184 83236 32598 63206 10323 20195 39586 40067 84475 333 58001;EQDQ01  00002PRCP06
0198832360999992003111500004-12150-045000FM-12+044099999V0202301N001012200019N0200001N1+02611+02291100921ADDAA106000091GF104991021021012501001071KA1240M+03461MA1999999096091MD1999999+0061REMSYN088AAXX  15004 83236 32698 42302 10261 20229 39609 40092 82207 333 10346 29070 55099 58006;EQDQ01  00002PRCP06
0186832360999992003111512004-12150-045000FM-12+044099999V0202301N001012200019N0200001N1+02731+02151101101ADDAA106000091GF102991001001999999001031KA1240N+02211MA1999999096301MD1999999+0111REMSYN076AAXX  15124 83236 32998 22302 10273 20215 39630 40110 80003 333 20221 58011;EQDQ01  00002PRCP06
0167832360999992003111518004-12150-045000FM-12+044099999V0201801N003110450019N0200001N1+03121+02221100701ADDAA106000091GF106991041041008001071051MA1999999095881MD1999999+0021REMSYN070AAXX  15184 83236 32598 61806 10312 20222 39588 40070 84475 333 58002;EQDQ01  00002PRCP06
0198832360999992003111600004-12150-045000FM-12+044099999V0209999C000010075019N0100001N1+02601+02141100981ADDAA106000091GF108991061021008001071999KA1240M+03531MA1999999096141MD1999999+0051REMSYN088AAXX  16004 83236 32597 80000 10260 20214 39614 40098 8627/ 333 10353 29070 55076 58005;EQDQ01  00002PRCP06
0186832360999992003111612004-12150-045000FM-12+044099999V0200901N001512200019N0200001N1+02851+01931101141ADDAA106000091GF103991001001999999001031KA1240N+02051MA1999999096301MD1999999+0001REMSYN076AAXX  16124 83236 32998 30903 10285 20193 39630 40114 80003 333 20205 58000;EQDQ01  00002PRCP06
0167832360999992003111618004-12150-045000FM-12+044099999V0200501N003612200019N0200001N1+03371+01651100691ADDAA106000091GF102991021021008001001001MA1999999095891MD1999999+0011REMSYN070AAXX  16184 83236 32598 20507 10337 20165 39589 40069 82200 333 58001;EQDQ01  00002PRCP06
0198832360999992003111700004-12150-045000FM-12+044099999V0209999C000012200019N0200001N1+02551+02191100841ADDAA106000091GF103991031021012501001001KA1240M+03481MA1999999096001MD1999999-0141REMSYN088AAXX  17004 83236 32698 30000 10255 20219 39600 40084 83200 333 10348 29064 55115 59014;EQDQ01  00002PRCP06
0186832360999992003111712004-12150-045000FM-12+044099999V0200501N002612200019N0200001N1+02831+01911101101ADDAA106000091GF104991001001999999001071KA1240N+02031MA1999999096261MD1999999-0041REMSYN076AAXX  17124 83236 32998 40505 10283 20191 39626 40110 80007 333 20203 59004;EQDQ01  00002PRCP06
0167832360999992003111718004-12150-045000FM-12+044099999V0200501N003111050019N0200001N1+03391+01831100521ADDAA106000091GF105991021021012501001051MA1999999095731MD1999999-0161REMSYN070AAXX  17184 83236 32698 50506 10339 20183 39573 40052 82205 333 59016;EQDQ01  00002PRCP06
0198832360999992003111800004-12150-045000FM-12+044099999V0209999C000011050019N0200001N1+02761+02211100831ADDAA106000091GF105991041021008001001031KA1240M+03521MA1999999096031MD1999999+0031REMSYN088AAXX  18004 83236 32598 50000 10276 20221 39603 40083 84203 333 10352 29052 55119 58003;EQDQ01  00002PRCP06
0186832360999992003111812004-12150-045000FM-12+044099999V0200501N001510450019N0200001N1+02831+02001101091ADDAA106000091GF105991031021012501071051KA1240N+02091MA1999999096271MD1999999+0011REMSYN076AAXX  18124 83236 32698 50503 10283 20200 39627 40109 83275 333 20209 58001;EQDQ01  00002PRCP06
0167832360999992003111818004-12150-045000FM-12+044099999V0203601N003111050019N0200001N1+03391+01711100551ADDAA106000091GF105991041021008001001031MA1999999095761MD1999999+0031REMSYN070AAXX  18184 83236 32598 53606 10339 20171 39576 40055 84203 333 58003;EQDQ01  00002PRCP06
0198832360999992003111900004-12150-045000FM-12+044099999V0209999C000012200019N0200001N1+02711+02151100631ADDAA106000091GF104991031021012501001051KA1240M+03521MA1999999095821MD1999999-0211REMSYN088AAXX  19004 83236 32698 40000 10271 20215 39582 40063 83205 333 10352 29060 55087 59021;EQDQ01  00002PRCP06
0186832360999992003111912004-12150-045000FM-12+044099999V0203601N001510450019N0200001N1+02891+01971100901ADDAA106000091GF105991031021012501061031KA1240N+02111MA1999999096091MD1999999-0181REMSYN076AAXX  19124 83236 32698 53603 10289 20197 39609 40090 83263 333 20211 59018;EQDQ01  00002PRCP06
0167832360999992003111918004-12150-045000FM-12+044099999V0200501N002612200019N0200001N1+03391+01711100411ADDAA106000091GF104991021021008001001051MA1999999095651MD1999999-0111REMSYN070AAXX  19184 83236 32598 40505 10339 20171 39565 40041 82205 333 59011;EQDQ01  00002PRCP06
0198832360999992003112000004-12150-045000FM-12+044099999V0201801N001012200019N0200001N1+02451+01691100691ADDAA106000091GF103991031021012501001001KA1240M+03501MA1999999095861MD1999999+0041REMSYN088AAXX  20004 83236 32698 31802 10245 20169 39586 40069 83200 333 10350 29055 55113 58004;EQDQ01  00002PRCP06
0186832360999992003112012004-12150-045000FM-12+044099999V0201801N001510450019N0200001N1+02761+02161101061ADDAA106000091GF105991031021008001071031KA1240N+01951MA1999999096201MD1999999+0111REMSYN076AAXX  20124 83236 32598 51803 10276 20216 39620 40106 83273 333 20195 58011;EQDQ01  00002PRCP06
0167832360999992003112018004-12150-045000FM-12+044099999V0200501N003110075019N0100001N1+03141+01801100721ADDAA106000091GF107991051031008001071051MA1999999095861MD1999999+0211REMSYN070AAXX  20184 83236 32597 70506 10314 20180 39586 40072 85375 333 58021;EQDQ01  00002PRCP06
0198832360999992003112100004-12150-045000FM-12+044099999V0201801N001012200019N0200001N1+02381+02011101001ADDAA106000091GF103991001001999999001071KA1240M+03241MA1999999096141MD1999999+0281REMSYN088AAXX  21004 83236 32998 31802 10238 20201 39614 40100 80007 333 10324 29069 55055 58028;EQDQ01  00002PRCP06
0167832360999992003112118004-12150-045000FM-12+044099999V0200901N003612200019N0200001N1+03491+01571100541ADDAA106000091GF103991031001008001001001MA1999999095751MD1999999-0111REMSYN070AAXX  21184 83236 32598 30907 10349 20157 39575 40054 83000 333 59011;EQDQ01  00002PRCP06
0198832360999992003112200004-12150-045000FM-12+044099999V0202701N000512200019N0200001N1+02611+01681100851ADDAA106000091GF102991021001022501041001KA1240M+03631MA1999999096021MD1999999-0121REMSYN088AAXX  22004 83236 32898 22701 10261 20168 39602 40085 82040 333 10363 29053 55100 59012;EQDQ01  00002PRCP06
0186832360999992003112212004-12150-045000FM-12+044099999V0200901N003112200019N0200001N1+02901+01811101091ADDAA106000091GF102991001001999999001041KA1240N+01831MA1999999096261MD1999999+0011REMSYN076AAXX  22124 83236 32998 20906 10290 20181 39626 40109 80004 333 20183 58001;EQDQ01  00002PRCP06
0167832360999992003112218004-12150-045000FM-12+044099999V0201401N003112200019N0200001N1+03441+01481100581ADDAA106000091GF103991021011008001001041MA1999999095761MD1999999-0011REMSYN070AAXX  22184 83236 32598 31406 10344 20148 39576 40058 82104 333 59001;EQDQ01  00002PRCP06
0198832360999992003112300004-12150-045000FM-12+044099999V0202701N001012200019N0200001N1+02571+01731100751ADDAA106000091GF102991021001022501041001KA1240M+03581MA1999999095941MD1999999-0081REMSYN088AAXX  23004 83236 32898 22702 10257 20173 39594 40075 82040 333 10358 29051 55117 59008;EQDQ01  00002PRCP06
0186832360999992003112312004-12150-045000FM-12+044099999V0209999C000019999999N0200001N1+02671+02041101141ADDAA106000091GF106991001001999999001061KA1240N+01961MA1999999096281MD1999999+0021REMSYN076AAXX  23124 83236 32998 60000 10267 20204 39628 40114 80006 333 20196 58002;EQDQ01  00002PRCP06
0167832360999992003112318004-12150-045000FM-12+044099999V0201801N002111050019N0200001N1+03411+01451100611ADDAA106000091GF105991021011008001001051MA1999999095791MD1999999+0031REMSYN070AAXX  23184 83236 32598 51804 10341 20145 39579 40061 82105 333 58003;EQDQ01  00002PRCP06
0198832360999992003112400004-12150-045000FM-12+044099999V0202701N001012200019N0200001N1+02521+01841100841ADDAA106000091GF102991001001999999001041KA1240M+03511MA1999999095991MD1999999+0051REMSYN088AAXX  24004 83236 32998 22702 10252 20184 39599 40084 80004 333 10351 29058 55094 58005;EQDQ01  00002PRCP06
0186832360999992003112412004-12150-045000FM-12+044099999V0200901N003112200019N0200001N1+02751+01701101101ADDAA106000091GF102991001001999999001021KA1240N+01811MA1999999096161MD1999999-0121REMSYN076AAXX  24124 83236 32998 20906 10275 20170 39616 40110 80002 333 20181 59012;EQDQ01  00002PRCP06
0167832360999992003112418004-12150-045000FM-12+044099999V0203601N001012200019N0200001N1+03391+01571100501ADDAA106000091GF104991041021008001001001MA1999999095691MD1999999-0101REMSYN070AAXX  24184 83236 32598 43602 10339 20157 39569 40050 84200 333 59010;EQDQ01  00002PRCP06
0198832360999992003112500004-12150-045000FM-12+044099999V0201801N000512200019N0200001N1+02601+02121100731ADDAA106000091GF103991031001022501041001KA1240M+03491MA1999999095911MD1999999-0081REMSYN088AAXX  25004 83236 32898 31801 10260 20212 39591 40073 83040 333 10349 29059 55109 59008;EQDQ01  00002PRCP06
0186832360999992003112512004-12150-045000FM-12+044099999V0203601N002612200019N0200001N1+02901+01721101071ADDAA106000091GF104991001001999999001051KA1240N+02161MA1999999096241MD1999999+0081REMSYN076AAXX  25124 83236 32998 43605 10290 20172 39624 40107 80005 333 20216 58008;EQDQ01  00002PRCP06
0167832360999992003112518004-12150-045000FM-12+044099999V0200501N002112200019N0200001N1+03401+01681100661ADDAA106000091GF105991021021008001001061MA1999999095861MD1999999+0171REMSYN070AAXX  25184 83236 32598 50504 10340 20168 39586 40066 82206 333 58017;EQDQ01  00002PRCP06
0198832360999992003112600004-12150-045000FM-12+044099999V0201801N000510450019N0200001N1+02801+02001100881ADDAA106000091GF106991031021008001011001KA1240M+03481MA1999999096081MD1999999+0171REMSYN088AAXX  26004 83236 32598 61801 10280 20200 39608 40088 83210 333 10348 29052 55095 58017;EQDQ01  00002PRCP06
0186832360999992003112612004-12150-045000FM-12+044099999V0202701N001012200019N0200001N1+02951+02161101071ADDAA106000091GF105991011011008001001061KA1240N+02301MA1999999096271MD1999999+0031REMSYN076AAXX  26124 83236 32598 52702 10295 20216 39627 40107 81106 333 20230 58003;EQDQ01  00002PRCP06
0167832360999992003112618004-12150-045000FM-12+044099999V0203601N003111050019N0200001N1+03281+01861100681ADDAA106000091GF105991021021008001041061MA1999999095891MD1999999+0031REMSYN070AAXX  26184 83236 32598 53606 10328 20186 39589 40068 82246 333 58003;EQDQ01  00002PRCP06
0198832360999992003112700004-12150-045000FM-12+044099999V0209999C000012200019N0200001N1+02621+02161100821ADDAA106000091GF103991031021008001001001KA1240M+03481MA1999999096021MD1999999-0061REMSYN088AAXX  27004 83236 32598 30000 10262 20216 39602 40082 83200 333 10348 29064 55067 59006;EQDQ01  00002PRCP06
0186832360999992003112712004-12150-045000FM-12+044099999V0200501N002112200019N0200001N1+02901+01841100961ADDAA106000091GF103991011011008001001041KA1240N+02101MA1999999096141MD1999999-0131REMSYN076AAXX  27124 83236 32598 30504 10290 20184 39614 40096 81104 333 20210 59013;EQDQ01  00002PRCP06
0167832360999992003112718004-12150-045000FM-12+044099999V0209999C000012200019N0200001N1+03601+01571100341ADDAA106000091GF104991041021008001001001MA1999999095581MD1999999-0311REMSYN070AAXX  27184 83236 32598 40000 10360 20157 39558 40034 84200 333 59031;EQDQ01  00002PRCP06
0226832360999992003112800004-12150-045000FM-12+044099999V0202301N001010075019N0200001N1+02761+02121100631ADDAA106000091AY101061AY221061GF106991061071008001001001KA1240M+03711MA1999999095841MD1999999-0181MW1131REMSYN094AAXX  28004 83236 31598 62302 10276 20212 39584 40063 71302 86700 333 10371 29056 55108 59018;EQDQ01  00002PRCP06
0190832360999992003112812004-12150-045000FM-12+044099999V0201801N001010450019N0200001N1+02551+02151100901ADDAY161061AY261061GF106991021011008001071001KA1240N+02111MA1999999096061MD1999999-0081MW1021REMSYN088AAXX  28124 83236 21598 61802 10255 20215 39606 40090 70266 82170 333 20211 59008 60144;
0167832360999992003112818004-12150-045000FM-12+044099999V0201801N000511050019N0200001N1+03181+02011100341ADDAA106000091GF105991021021008001001051MA1999999095531MD1999999-0051REMSYN070AAXX  28184 83236 32598 51801 10318 20201 39553 40034 82205 333 59005;EQDQ01  00002PRCP06
0198832360999992003112900004-12150-045000FM-12+044099999V0201801N001012200019N0200001N1+02671+02161100551ADDAA106000091GF104991041081008001001001KA1240M+03351MA1999999095721MD1999999-0121REMSYN088AAXX  29004 83236 32598 41802 10267 20216 39572 40055 84800 333 10335 29069 55046 59012;EQDQ01  00002PRCP06
0190832360999992003112912004-12150-045000FM-12+044099999V0202701N001010450019N0200001N1+02501+02111100901ADDAY161061AY261061GF106991041081008001061001KA1240N+02131MA1999999096051MD1999999-0011MW1021REMSYN088AAXX  29124 83236 21598 62702 10250 20211 39605 40090 70266 84860 333 20213 59001 60024;
0167832360999992003112918004-12150-045000FM-12+044099999V0203601N001011050019N0200001N1+03171+02051100391ADDAA106000091GF105991011011008001081041MA1999999095611MD1999999+0081REMSYN070AAXX  29184 83236 32598 53602 10317 20205 39561 40039 81184 333 58008;EQDQ01  00002PRCP06
0226832360999992003113000004-12150-045000FM-12+044099999V0202301N001010450019N0200001N1+02561+02251100671ADDAA106000091AY101061AY221061GF108991041071008001051999KA1240M+03221MA1999999095821MD1999999+0101MW1131REMSYN094AAXX  30004 83236 31598 82302 10256 20225 39582 40067 71302 8475/ 333 10322 29074 55073 58010;EQDQ01  00002PRCP06
0186832360999992003113012004-12150-045000FM-12+044099999V0200501N002612200019N0200001N1+02781+02181100961ADDAA106000091GF104991021011012501061051KA1240N+02161MA1999999096121MD1999999+0071REMSYN076AAXX  30124 83236 32698 40505 10278 20218 39612 40096 82165 333 20216 58007;EQDQ01  00002PRCP06
0167832360999992003113018004-12150-045000FM-12+044099999V0200501N001012200019N0200001N1+03261+01951100531ADDAA106000091GF104991011011012501001051MA1999999095731MD1999999+0121REMSYN070AAXX  30184 83236 32698 40502 10326 20195 39573 40053 81105 333 58012;EQDQ01  00002PRCP06
0226832360999992003120100004-12150-045000FM-12+044099999V0201801N001511050019N0200001N1+02551+02111100691ADDAA106000091AY121061AY221061GF105991031051008001001071KA1240M+03371MA1999999095861MD1999999+0041MW1131REMSYN094AAXX  01004 83236 31598 51803 10255 20211 39586 40069 71322 83507 333 10337 29068 55107 58004;EQDQ01  00002PRCP06
0190832360999992003120112004-12150-045000FM-12+044099999V0209999C000010450019N0200001N1+02731+02121101011ADDAY161061AY261061GF106991011011008001051001KA1240N+02161MA1999999096161MD1999999+0041MW1021REMSYN088AAXX  01124 83236 21598 60000 10273 20212 39616 40101 70266 81150 333 20216 58004 69984;
0167832360999992003120118004-12150-045000FM-12+044099999V0203601N002111050019N0200001N1+03331+01971100411ADDAA106000091GF105991021011008001061041MA1999999095611MD1999999-0121REMSYN070AAXX  01184 83236 32598 53604 10333 20197 39561 40041 82164 333 59012;EQDQ01  00002PRCP06
0198832360999992003120200004-12150-045000FM-12+044099999V0201801N001510450019N0200001N1+02631+02291100641ADDAA106000091GF106991041021008001031001KA1240M+03421MA1999999095821MD1999999-0041REMSYN088AAXX  02004 83236 32598 61803 10263 20229 39582 40064 84230 333 10342 29070 55058 59004;EQDQ01  00002PRCP06
0190832360999992003120212004-12150-045000FM-12+044099999V0202701N000512200019N0200001N1+02681+02351100911ADDAY161061AY261061GF104991011011008001061001KA1240N+02131MA1999999096071MD1999999-0091MW1021REMSYN088AAXX  02124 83236 21598 42701 10268 20235 39607 40091 70266 81160 333 20213 59009 60094;
0167832360999992003120218004-12150-045000FM-12+044099999V0203601N001512200019N0200001N1+03311+02021100331ADDAA106000091GF105991031021008001001041MA1999999095541MD1999999-0071REMSYN070AAXX  02184 83236 32598 53603 10331 20202 39554 40033 83204 333 59007;EQDQ01  00002PRCP06
0198832360999992003120300004-12150-045000FM-12+044099999V0201801N002119999999N0200001N1+02701+02221100721ADDAA106000091GF105991031001999999011081KA1240M+03471MA1999999095901MD1999999+0081REMSYN088AAXX  03004 83236 32998 51804 10270 20222 39590 40072 83018 333 10347 29070 55081 58008;EQDQ01  00002PRCP06
0190832360999992003120312004-12150-045000FM-12+044099999V0202701N002610075019N0100001N1+02361+02281101041ADDAY121061AY221061GF107991051051008001021999KA1240N+02151MA1999999096171MD1999999+0101MW1411REMSYN088AAXX  03124 83236 21597 72705 10236 20228 39617 40104 74122 8552/ 333 20215 58010 60134;
0167832360999992003120318004-12150-045000FM-12+044099999V0201401N002112200019N0100001N1+03071+02191100501ADDAA106000091GF106991021021008001001061MA1999999095701MD1999999+0161REMSYN070AAXX  03184 83236 32597 61404 10307 20219 39570 40050 82206 333 58016;EQDQ01  00002PRCP06
0198832360999992003120400004-12150-045000FM-12+044099999V0203601N000512200019N0200001N1+02321+02151100901ADDAA106000091GF105991021001022501061061KA1240M+03231MA1999999096001MD1999999+0101REMSYN088AAXX  04004 83236 32898 53601 10232 20215 39600 40090 82066 333 10323 29084 55032 58010;EQDQ01  00002PRCP06
0190832360999992003120412004-12150-045000FM-12+044099999V0209999C000012200019N0200001N1+02581+02351101121ADDAY161061AY261061GF106991041001022501051041KA1240N+02361MA1999999096231MD1999999+0061MW1021REMSYN088AAXX  04124 83236 21898 60000 10258 20235 39623 40112 70266 84054 333 20236 58006 60014;
0195832360999992003120418004-12150-045000FM-12+044099999V0200501N001010450019N0200001N1+03031+02291100611ADDAA106000091AY121061AY221061GF108991031031008001071999MA1999999095771MD1999999+0071MW1151REMSYN076AAXX  04184 83236 31598 80502 10303 20229 39577 40061 71522 8337/ 333 58007;EQDQ01  00002PRCP06
0198832360999992003120500004-12150-045000FM-12+044099999V0209999C000012200019N0200001N1+02551+02441100771ADDAA106000091GF104991041001022501071001KA1240M+03311MA1999999095891MD1999999-0111REMSYN088AAXX  05004 83236 32898 40000 10255 20244 39589 40077 84070 333 10331 29085 55026 59011;EQDQ01  00002PRCP06
0186832360999992003120512004-12150-045000FM-12+044099999V0203601N001510450019N0200001N1+02831+02441100931ADDAA106000091GF106991041021008001071051KA1240N+02251MA1999999096101MD1999999-0131REMSYN076AAXX  05124 83236 32598 63603 10283 20244 39610 40093 84275 333 20225 59013;EQDQ01  00002PRCP06
0167832360999992003120518004-12150-045000FM-12+044099999V0209999C000010450019N0200001N1+02831+02361100581ADDAA106000091GF106991041031008001081071MA1999999095741MD1999999-0031REMSYN070AAXX  05184 83236 32598 60000 10283 20236 39574 40058 84387 333 59003;EQDQ01  00002PRCP06
0198832360999992003120600004-12150-045000FM-12+044099999V0209999C000010075019N0200001N1+02571+02351100741ADDAA106000091GF107991051021008001071071KA1240M+03231MA1999999095921MD1999999+0031REMSYN088AAXX  06004 83236 32598 70000 10257 20235 39592 40074 85277 333 10323 29083 55055 58003;EQDQ01  00002PRCP06
0186832360999992003120612004-12150-045000FM-12+044099999V0201801N001010450019N0200001N1+02711+02371100981ADDAA106000091GF106991031021012501051071KA1240N+02261MA1999999096141MD1999999+0041REMSYN076AAXX  06124 83236 32698 61802 10271 20237 39614 40098 83257 333 20226 58004;EQDQ01  00002PRCP06
0167832360999992003120618004-12150-045000FM-12+044099999V0203601N003111050019N0200001N1+03311+01911100461ADDAA106000091GF105991031021008001001051MA1999999095681MD1999999-0061REMSYN070AAXX  06184 83236 32598 53606 10331 20191 39568 40046 83205 333 59006;EQDQ01  00002PRCP06
0186832360999992003120712004-12150-045000FM-12+044099999V0209999C000010075019N0200001N1+02681+02261101131ADDAA106000091GF107991051041008001071051KA1240N+02231MA1999999096271MD1999999+0131REMSYN076AAXX  07124 83236 32598 70000 10268 20226 39627 40113 85475 333 20223 58013;EQDQ01  00002PRCP06
0167832360999992003120718004-12150-045000FM-12+044099999V0202701N001510450019N0200001N1+03391+01871100531ADDAA106000091GF106991041021008001081071MA1999999095751MD1999999+0071REMSYN070AAXX  07184 83236 32598 62703 10339 20187 39575 40053 84287 333 58007;EQDQ01  00002PRCP06
0226832360999992003120800004-12150-045000FM-12+044099999V0209999C000010450019N0200001N1+02471+02091100961ADDAA106000091AY121061AY221061GF107991031051008001071051KA1240M+03531MA1999999096101MD1999999+0121MW1131REMSYN094AAXX  08004 83236 31598 70000 10247 20209 39610 40096 71322 83575 333 10353 29070 55072 58012;EQDQ01  00002PRCP06
0186832360999992003120812004-12150-045000FM-12+044099999V0209999C000010450019N0200001N1+02691+02181101171ADDAA106000091GF105991031021012501071051KA1240N+02141MA1999999096311MD1999999+0041REMSYN076AAXX  08124 83236 32698 50000 10269 20218 39631 40117 83275 333 20214 58004;EQDQ01  00002PRCP06
0167832360999992003120818004-12150-045000FM-12+044099999V0202701N001510450019N0200001N1+03101+02151100661ADDAA106000091GF106991041021012501051071MA1999999095831MD1999999+0081REMSYN070AAXX  08184 83236 32698 62703 10310 20215 39583 40066 84257 333 58008;EQDQ01  00002PRCP06
0162832360999992003120912004-12150-045000FM-12+044099999V0201801N001510450019N0200001N1+02691+02161101321ADDGF106991031021008001071051KA1240N+02081MA1999999096451MD1999999+0141REMSYN082AAXX  09124 83236 22598 61803 10269 20216 39645 40132 83275 333 20208 58014 60014;
0167832360999992003120918004-12150-045000FM-12+044099999V0200501N001511050019N0200001N1+03351+02021100801ADDAA106000091GF105991031021012501001051MA1999999095971MD1999999+0141REMSYN070AAXX  09184 83236 32698 50503 10335 20202 39597 40080 83205 333 58014;EQDQ01  00002PRCP06
0198832360999992003121000004-12150-045000FM-12+044099999V0209999C000012200019N0200001N1+02761+02301101041ADDAA106000091GF103991031021012501001001KA1240M+03511MA1999999096201MD1999999-0021REMSYN088AAXX  10004 83236 32698 30000 10276 20230 39620 40104 83200 333 10351 29069 55100 59002;EQDQ01  00002PRCP06
0186832360999992003121012004-12150-045000FM-12+044099999V0209999C000012200019N0200001N1+02681+02091101041ADDAA106000091GF103991001001999999001071KA1240N+02081MA1999999096201MD1999999-0251REMSYN076AAXX  10124 83236 32998 30000 10268 20209 39620 40104 80007 333 20208 59025;EQDQ01  00002PRCP06
0167832360999992003121018004-12150-045000FM-12+044099999V0200501N001512200019N0200001N1+03521+01991100611ADDAA106000091GF104991041021012501001001MA1999999095831MD1999999-0141REMSYN070AAXX  10184 83236 32698 40503 10352 20199 39583 40061 84200 333 59014;EQDQ01  00002PRCP06
0226832360999992003121100004-12150-045000FM-12+044099999V0202701N001012200019N0200001N1+02631+02181100851ADDAA106000091AY121061AY221061GF104991021051008001001051KA1240M+03461MA1999999096011MD1999999-0191MW1131REMSYN094AAXX  11004 83236 31598 42702 10263 20218 39601 40085 71322 82505 333 10346 29066 55105 59019;EQDQ01  00002PRCP06
0162832360999992003121112004-12150-045000FM-12+044099999V0209999C000012200019N0200001N1+02811+02221101141ADDGF102991021021012501001001KA1240N+02131MA1999999096301MD1999999+0101REMSYN082AAXX  11124 83236 22698 20000 10281 20222 39630 40114 82200 333 20213 58010 60014;
0167832360999992003121118004-12150-045000FM-12+044099999V0201801N003612200019N0200001N1+03491+01471100631ADDAA106000091GF102991021021012501001001MA1999999095851MD1999999+0021REMSYN070AAXX  11184 83236 32698 21807 10349 20147 39585 40063 82200 333 58002;EQDQ01  00002PRCP06
0198832360999992003121200004-12150-045000FM-12+044099999V0209999C000012200019N0200001N1+02501+01911100981ADDAA106000091GF102991021011012501001001KA1240M+03641MA1999999096051MD1999999+0041REMSYN088AAXX  12004 83236 32698 20000 10250 20191 39605 40098 82100 333 10364 29060 55115 58004;EQDQ01  00002PRCP06
0186832360999992003121212004-12150-045000FM-12+044099999V0209999C000012200019N0200001N1+02731+02121101091ADDAA106000091GF103991001001999999001071KA1240N+01851MA1999999096231MD1999999-0071REMSYN076AAXX  12124 83236 32998 30000 10273 20212 39623 40109 80007 333 20185 59007;EQDQ01  00002PRCP06
0167832360999992003121218004-12150-045000FM-12+044099999V0209999C000012200019N0200001N1+03541+01761100661ADDAA106000091GF104991031021008001001051MA1999999095861MD1999999+0011REMSYN070AAXX  12184 83236 32598 40000 10354 20176 39586 40066 83205 333 58001;EQDQ01  00002PRCP06
0208832360999992003121400004-12150-045000FM-12+044099999V0202301N001012200019N0200001N1+02641+01931100601ADDAA106000091GA1001+999999999GF100991001001999999001001KA1240M+03701MA1999999095811MD1999999-0151REMSYN082AAXX  14004 83236 32998 02302 10264 20193 39581 40060 333 10370 29052 55118 59015;EQDQ01  00002PRCP06
0186832360999992003121412004-12150-045000FM-12+044099999V0200501N001512200019N0200001N1+02931+01861101051ADDAA106000091GF103991031021012501001001KA1240N+02021MA1999999096241MD1999999+0111REMSYN076AAXX  14124 83236 32698 30503 10293 20186 39624 40105 83200 333 20202 58011;EQDQ01  00002PRCP06
0183832360999992003121418004-12150-045000FM-12+044099999V0200901N002612200019N0200001N1+03531+01501100601ADDAA106000091GF103991999011008001001001MA1999999095811MD1999999+0121REMSYN070AAXX  14184 83236 32598 30905 10353 20150 39581 40060 82100 333 58012;EQDQ01+000022SCOTLCQ02  00002PRCP06
0208832360999992003121500004-12150-045000FM-12+044099999V0201401N001012200019N0200001N1+02671+01871100781ADDAA106000091GA1001+999999999GF100991001001999999001001KA1240M+03711MA1999999095981MD1999999+0171REMSYN082AAXX  15004 83236 32998 01402 10267 20187 39598 40078 333 10371 29052 55111 58017;EQDQ01  00002PRCP06
0186832360999992003121512004-12150-045000FM-12+044099999V0209999C000012200019N0200001N1+02771+02121101151ADDAA106000091GF102991001001999999001071KA1240N+02011MA1999999096311MD1999999+0071REMSYN076AAXX  15124 83236 32998 20000 10277 20212 39631 40115 80007 333 20201 58007;EQDQ01  00002PRCP06
0167832360999992003121518004-12150-045000FM-12+044099999V0200501N002112200019N0200001N1+03451+01761100601ADDAA106000091GF103991031021008001001001MA1999999095821MD1999999+0011REMSYN070AAXX  15184 83236 32598 30504 10345 20176 39582 40060 83200 333 58001;EQDQ01  00002PRCP06
0208832360999992003121600004-12150-045000FM-12+044099999V0201801N001012200019N0200001N1+02661+01921100751ADDAA106000091GA1001+999999999GF100991001001999999001001KA1240M+03661MA1999999095931MD1999999-0051REMSYN082AAXX  16004 83236 32998 01802 10266 20192 39593 40075 333 10366 29058 55117 59005;EQDQ01  00002PRCP06
0162832360999992003121612004-12150-045000FM-12+044099999V0200501N002112200019N0200001N1+02971+02071101081ADDGF103991031021012501001001KA1240N+02221MA1999999096261MD1999999-0051REMSYN082AAXX  16124 83236 22698 30504 10297 20207 39626 40108 83200 333 20222 59005 69944;
0167832360999992003121618004-12150-045000FM-12+044099999V0201401N001510075019N0200001N1+03571+02031100541ADDAA106000091GF105991051021008001001001MA1999999095791MD1999999+0031REMSYN070AAXX  16184 83236 32598 51403 10357 20203 39579 40054 85200 333 58003;EQDQ01  00002PRCP06
0186832360999992003121712004-12150-045000FM-12+044099999V0209999C000011050019N0200001N1+02791+02271101081ADDAA106000091GF105991031021008001001051KA1240N+02251MA1999999096251MD1999999-0011REMSYN076AAXX  17124 83236 32598 50000 10279 20227 39625 40108 83205 333 20225 59001;EQDQ01  00002PRCP06
0167832360999992003121718004-12150-045000FM-12+044099999V0203601N002610450019N0200001N1+03491+02001100551ADDAA106000091GF106991031031008001051071MA1999999095771MD1999999-0021REMSYN070AAXX  17184 83236 32598 63605 10349 20200 39577 40055 83357 333 59002;EQDQ01  00002PRCP06
0202832360999992003121800004-12150-045000FM-12+044099999V0201401N001510075019N0200001N1+02661+02271100991ADDAY191061AY291061GF106991051051008001081001KA1240M+03741MA1999999096151MD1999999+0091MW1171REMSYN100AAXX  18004 83236 21598 61403 10266 20227 39615 40099 71799 85580 333 10374 29068 55092 58009 69921;
0162832360999992003121812004-12150-045000FM-12+044099999V0200501N004110450019N0200001N1+02891+01911101201ADDGF106991041031008001051071KA1240N+02231MA1999999096361MD1999999+0111REMSYN082AAXX  18124 83236 22598 60508 10289 20191 39636 40120 84357 333 20223 58011 69924;
0186832360999992003121912004-12150-045000FM-12+044099999V0201401N001512200019N0200001N1+02791+01791101371ADDAA106000091GF102991001001999999001051KA1240N+02011MA1999999096521MD1999999+0161REMSYN076AAXX  19124 83236 32998 21403 10279 20179 39652 40137 80005 333 20201 58016;EQDQ01  00002PRCP06
0167832360999992003121918004-12150-045000FM-12+044099999V0202301N002112200019N0200001N1+03521+01341100871ADDAA106000091GF104991041021008001001001MA1999999096071MD1999999+0181REMSYN070AAXX  19184 83236 32598 42304 10352 20134 39607 40087 84200 333 58018;EQDQ01  00002PRCP06
0198832360999992003122000004-12150-045000FM-12+044099999V0209999C000012200019N0200001N1+02571+01781101131ADDAA106000091GF103991031011012501001001KA1240M+03671MA1999999096291MD1999999+0111REMSYN088AAXX  20004 83236 32698 30000 10257 20178 39629 40113 83100 333 10367 29052 55120 58011;EQDQ01  00002PRCP06
0196832360999992003122012004-12150-045000FM-12+044099999V0200901N002612200019N0200001N1+02871+01871101361ADDAA106000091GA1001+999999999GF100991001001999999001001KA1240N+01951MA1999999096511MD1999999-0011REMSYN070AAXX  20124 83236 32998 00905 10287 20187 39651 40136 333 20195 59001;EQDQ01  00002PRCP06
0167832360999992003122018004-12150-045000FM-12+044099999V0202301N002110075019N0200001N1+03601+01671100771ADDAA106000091GF105991051021008001001001MA1999999095971MD1999999-0101REMSYN070AAXX  20184 83236 32598 52304 10360 20167 39597 40077 85200 333 59010;EQDQ01  00002PRCP06
0208832360999992003122100004-12150-045000FM-12+044099999V0209999C000012200019N0200001N1+02701+01941100921ADDAA106000091GA1001+999999999GF100991001001999999001001KA1240M+03741MA1999999096111MD1999999-0181REMSYN082AAXX  21004 83236 32998 00000 10270 20194 39611 40092 333 10374 29053 55116 59018;EQDQ01  00002PRCP06
0186832360999992003122112004-12150-045000FM-12+044099999V0200501N003112200019N0200001N1+03031+01761101201ADDAA106000091GF103991031021012501001001KA1240N+02141MA1999999096391MD1999999-0121REMSYN076AAXX  21124 83236 32698 30506 10303 20176 39639 40120 83200 333 20214 59012;EQDQ01  00002PRCP06
0208832360999992003122200004-12150-045000FM-12+044099999V0209999C000012200019N0200001N1+02871+01901100731ADDAA106000091GA1001+999999999GF100991001001999999001001KA1240M+03771MA1999999095961MD1999999-0151REMSYN082AAXX  22004 83236 32998 00000 10287 20190 39596 40073 333 10377 29048 55114 59015;EQDQ01  00002PRCP06
0186832360999992003122212004-12150-045000FM-12+044099999V0200901N003111050019N0200001N1+03031+01991101011ADDAA106000091GF106991041021008001001021KA1240N+02511MA1999999096231MD1999999-0161REMSYN076AAXX  22124 83236 32598 60906 10303 20199 39623 40101 84202 333 20251 59016;EQDQ01  00002PRCP06
0195832360999992003122218004-12150-045000FM-12+044099999V0203201N003110450019N0200001N1+02891+02081100721ADDAA106000091AY101061AY291061GF107991041071008001021001MA1999999095891MD1999999+0031MW1151REMSYN076AAXX  22184 83236 31598 73206 10289 20208 39589 40072 71509 84720 333 58003;EQDQ01  00002PRCP06
0198832360999992003122300004-12150-045000FM-12+044099999V0201801N001512200019N0200001N1+02611+02121100871ADDAA106000091GF104991041021008001001001KA1240M+03581MA1999999096061MD1999999+0101REMSYN088AAXX  23004 83236 32598 41803 10261 20212 39606 40087 84200 333 10358 29066 55050 58010;EQDQ01  00002PRCP06
0218832360999992003122312004-12150-045000FM-12+044099999V0201801N001511050019N0200001N1+02771+02161101041ADDAA106000091GF105991021021008001031041KA1240N+02211MA1999999096201MD1999999-0031REMSYN076AAXX  23124 83236 32598 51803 10277 20216 33962 40104 82234 333 20221 59003;EQDQ01+039621APOSP Q02+999990APOSP Q03  00002PRCP06
0171832360999992003122318004-12150-045000FM-12+044099999V0201401N003110450019N0200001N1+02571+02191100441ADDAY101061AY261061GF107991041021008001061041MA1999999095761MD1999999+0131MW1151REMSYN082AAXX  23184 83236 21598 71406 10257 20219 39576 40044 71506 84264 333 58013 60011;
0226832360999992003122400004-12150-045000FM-12+044099999V0202701N000512200019N0200001N1+02741+02171100781ADDAA106000091AY151061AY251061GF104991041071008001001001KA1240M+03521MA1999999095961MD1999999-0101MW1131REMSYN094AAXX  24004 83236 31598 42701 10274 20217 39596 40078 71355 84700 333 10352 29073 55065 59010;EQDQ01  00002PRCP06
0190832360999992003122412004-12150-045000FM-12+044099999V0201801N001010450019N0040001N1+02301+02131101221ADDAY161061AY261061GF108991031051008001021999KA1240N+02101MA1999999096241MD1999999+0141MW1411REMSYN088AAXX  24124 83236 21596 81802 10230 20213 39624 40122 74166 8352/ 333 20210 58014 60294;
0167832360999992003122418004-12150-045000FM-12+044099999V0203201N000512200019N0200001N1+03051+02151100691ADDAA106000091GF105991021021008001041091MA1999999095871MD1999999+0111REMSYN070AAXX  24184 83236 32598 53201 10305 20215 39587 40069 82249 333 58011;EQDQ01  00002PRCP06
0202832360999992003122500004-12150-045000FM-12+044099999V0209999C000010075019N0040001N1+02301+02231101231ADDAY161061AY261061GF108991051071008001021999KA1240M+03251MA1999999096311MD1999999+0351MW1511REMSYN100AAXX  25004 83236 21596 80000 10230 20223 39631 40123 75166 8572/ 333 10325 29037 55085 58035 60031;
0190832360999992003122512004-12150-045000FM-12+044099999V0202301N000510450019N0100001N1+02531+02231101261ADDAY161061AY261061GF106991031021008001061001KA1240N+02161MA1999999096351MD1999999+0011MW1021REMSYN088AAXX  25124 83236 21597 62301 10253 20223 39635 40126 70266 83260 333 20216 58001 60084;
0167832360999992003122518004-12150-045000FM-12+044099999V0203601N001510075019N0100001N1+03091+02191100771ADDAA106000091GF107991051071008001041001MA1999999095941MD1999999+0071REMSYN070AAXX  25184 83236 32597 73603 10309 20219 39594 40077 85740 333 58007;EQDQ01  00002PRCP06
0186832360999992003122612004-12150-045000FM-12+044099999V0202301N001510450019N0200001N1+02671+02241101061ADDAA106000091GF106991031021008001071001KA1240N+02261MA1999999096201MD1999999-0151REMSYN076AAXX  26124 83236 32598 62303 10267 20224 39620 40106 83270 333 20226 59015;EQDQ01  00002PRCP06
0167832360999992003122618004-12150-045000FM-12+044099999V0200901N002111050019N0200001N1+03251+02031100461ADDAA106000091GF106991041021008001001051MA1999999095671MD1999999-0271REMSYN070AAXX  26184 83236 32598 60904 10325 20203 39567 40046 84205 333 59027;EQDQ01  00002PRCP06
0198832360999992003122700004-12150-045000FM-12+044099999V0202301N002110120019N0200001N1+02541+02171100811ADDAA106000091GF105991051081008001001001KA1240M+03381MA1999999095961MD1999999-0161REMSYN088AAXX  27004 83236 32598 52304 10254 20217 39596 40081 85800 333 10338 29072 55064 59016;EQDQ01  00002PRCP06
0190832360999992003122712004-12150-045000FM-12+044099999V0202301N001010450019N0040001N1+02161+02091101181ADDAY161061AY261061GF108991041051008001021999KA1240N+02071MA1999999096271MD1999999+0071MW1601REMSYN088AAXX  27124 83236 21596 82302 10216 20209 39627 40118 76066 8452/ 333 20207 58007 60304;
0171832360999992003122718004-12150-045000FM-12+044099999V0201801N001510075019N0100001N1+02551+02131100861ADDAY161061AY261061GF108991051051008001021999MA1999999095951MD1999999+0281MW1021REMSYN082AAXX  27184 83236 21597 81803 10255 20213 39595 40086 70266 8552/ 333 58028 60031;
0198832360999992003122800004-12150-045000FM-12+044099999V0209999C000010450019N0040001N1+02311+02181100991ADDAA106000091GF108991041051008001021999KA1240M+02651MA1999999096061MD1999999+0101REMSYN088AAXX  28004 83236 32596 80000 10231 20218 39606 40099 8452/ 333 10265 29090 55000 58010;EQDQ01  00002PRCP06
0162832360999992003122812004-12150-045000FM-12+044099999V0201801N001010450019N0040001N1+02571+02131100971ADDGF106991011011008001051051KA1240N+02131MA1999999096091MD1999999-0181REMSYN082AAXX  28124 83236 22596 61802 10257 20213 39609 40097 81155 333 20213 59018 60034;
0167832360999992003122818004-12150-045000FM-12+044099999V0209999C000011050019N0200001N1+03171+02081100451ADDAA106000091GF107991021021008001001061MA1999999095641MD1999999-0311REMSYN070AAXX  28184 83236 32598 70000 10317 20208 39564 40045 82206 333 59031;EQDQ01  00002PRCP06
0226832360999992003122900004-12150-045000FM-12+044099999V0203201N001510450019N0200001N1+02501+01941100831ADDAA106000091AY101061AY221061GF108991031071008001021999KA1240M+03251MA1999999095971MD1999999-0091MW1131REMSYN094AAXX  29004 83236 31598 83203 10250 20194 39597 40083 71302 8372/ 333 10325 29068 55056 59009;EQDQ01  00002PRCP06
0190832360999992003122912004-12150-045000FM-12+044099999V0202301N001010450019N0100001N1+02181+02101101181ADDAY161061AY261061GF108991031051008001021999KA1240N+02041MA1999999096271MD1999999+0181MW1421REMSYN088AAXX  29124 83236 21597 82302 10218 20210 39627 40118 74266 8352/ 333 20204 58018 60234;
0195832360999992003122918004-12150-045000FM-12+044099999V0200901N003610075019N0100001N1+02531+02001100991ADDAA106000091AY101061AY221061GF108991051071008001021999MA1999999096081MD1999999+0441MW1151REMSYN076AAXX  29184 83236 31597 80907 10253 20200 39608 40099 71502 8572/ 333 58044;EQDQ01  00002PRCP06
0198832360999992003123000004-12150-045000FM-12+044099999V0209999C000010450019N0100001N1+02261+02161101101ADDAA106000091GF107991031051008001021001KA1240M+02761MA1999999096161MD1999999+0191REMSYN088AAXX  30004 83236 32597 70000 10226 20216 39616 40110 83520 333 10276 29089 55004 58019;EQDQ01  00002PRCP06
0186832360999992003123012004-12150-045000FM-12+044099999V0209999C000010450019N0200001N1+02441+02191101281ADDAA106000091GF106991041021008001061051KA1240N+02071MA1999999096361MD1999999+0091REMSYN076AAXX  30124 83236 32598 60000 10244 20219 39636 40128 84265 333 20207 58009;EQDQ01  00002PRCP06
0167832360999992003123018004-12150-045000FM-12+044099999V0203601N002112200019N0200001N1+03161+02201100741ADDAA106000091GF104991041021008001001001MA1999999095941MD1999999-0141REMSYN070AAXX  30184 83236 32598 43604 10316 20220 39594 40074 84200 333 59014;EQDQ01  00002PRCP06
0226832360999992003123100004-12150-045000FM-12+044099999V0209999C000010450019N0200001N1+02541+02271101061ADDAA106000091AY121061AY221061GF106991031051008001061071KA1240M+03281MA1999999096181MD1999999+0021MW1131REMSYN094AAXX  31004 83236 31598 60000 10254 20227 39618 40106 71322 83567 333 10328 29078 55093 58002;EQDQ01  00002PRCP06
0196832360999992003123112004-12150-045000FM-12+044099999V0202301N001512200019N0200001N1+02651+02181101141ADDAA106000091GA1001+999999999GF100991001001999999001001KA1240N+02051MA1999999096281MD1999999-0081REMSYN070AAXX  31124 83236 32998 02303 10265 20218 39628 40114 333 20205 59008;EQDQ01  00002PRCP06
0167832360999992003123118004-12150-045000FM-12+044099999V0202301N003112200019N0200001N1+03401+01851100611ADDAA106000091GF103991031011008001001001MA1999999095821MD1999999-0121REMSYN070AAXX  31184 83236 32598 32306 10340 20185 39582 40061 83100 333 59012;EQDQ01  00002PRCP06
