0198832420999992003010100004-12570-041380FM-12+042799999V0200501N000512200019N0020001N1+02521+02071101311ADDAA106000091GF101991011001022501051001KA1240M+03121MA1999999096391MD1999999-0051REMSYN088AAXX  01004 83242 32895 10501 10252 20207 39639 40131 81050 333 10312 29072 55068 59005;EQDQ01  00002PRCP06
0198832420999992003010112004-12570-041380FM-12+042799999V0202301N001510042019N0040001N1+02501+02001101421ADDAA106000091GF108991071071004501081999KA1240N+02071MA1999999096521MD1999999-0151MW1051REMSYN082AAXX  01124 83242 31496 82303 10250 20200 39652 40142 705// 8778/ 333 20207 59015;EQDQ01  00002PRCP06
0167832420999992003010118004-12570-041380FM-12+042799999V0201401N001510450019N0100001N1+03121+01991100921ADDAA106000091GF108991011011004501051071MA1999999096061MD1999999-0141REMSYN070AAXX  01184 83242 32497 81403 10312 20199 39606 40092 81157 333 59014;EQDQ01  00002PRCP06
0210832420999992003010200004-12570-041380FM-12+042799999V0202701N000512200019N0020001N1+02621+02101101191ADDAA106000091GF101991011071004501001001KA1240M+03241MA1999999096311MD1999999-0081MW1131REMSYN094AAXX  02004 83242 31495 12701 10262 20210 39631 40119 713// 81700 333 10324 29068 55074 59008;EQDQ01  00002PRCP06
0198832420999992003010212004-12570-041380FM-12+042799999V0200501N000510042019N0040001N1+02481+02071101371ADDAA106000091GF107991061071004501081001KA1240N+01671MA1999999096481MD1999999-0041MW1051REMSYN082AAXX  02124 83242 31496 70501 10248 20207 39648 40137 705// 86780 333 20167 59004;EQDQ01  00002PRCP06
0179832420999992003010218004-12570-041380FM-12+042799999V0201401N001512200019N0040001N1+03221+02141100751ADDAA106000091GF103991011031004501051031MA1999999095931MD1999999-0131MW1051REMSYN076AAXX  02184 83242 31496 31403 10322 20214 39593 40075 705// 81353 333 59013;EQDQ01  00002PRCP06
0202832420999992003010300004-12570-041380FM-12+042799999V0200901N000512200019N0020001N1+02571+02291101101ADDAY191061AY261061GF102991021071004501001001KA1240M+03341MA1999999096211MD1999999-0101MW1131REMSYN100AAXX  03004 83242 21495 20901 10257 20229 39621 40110 71396 82700 333 10334 29075 55061 59010 60021;
0190832420999992003010312004-12570-041380FM-12+042799999V0201801N001510042019N0020001N1+02401+02231101321ADDAY161061AY241061GF108991081071004501999999KA1240N+02341MA1999999096421MD1999999-0061MW1501REMSYN088AAXX  03124 83242 21495 81803 10240 20223 39642 40132 75064 887// 333 20234 59006 60044;
0160832420999992003010318004-12570-041380FM-12+042799999V0201801N003610450019N0040001N1+03001+02241100851ADDAA106000021GF107991021071004501051021MA1999999096011MD1999999+0081MW1051REMSYN076AAXX  03184 83242 31496 71807 10300 20224 39601 40085 705// 82752 333 58008;
0202832420999992003010400004-12570-041380FM-12+042799999V0203201N001510042019N0020001N1+02201+01991101231ADDAY191061AY261061GF108991081071004501999999KA1240M+03081MA1999999096291MD1999999+0081MW1031REMSYN100AAXX  04004 83242 21495 83203 10220 20199 39629 40123 70396 887// 333 10308 29082 55040 58008 60301;
0162832420999992003010412004-12570-041380FM-12+042799999V0202301N000510042019N0020001N1+02341+02051101501ADDGF108991081071004501999999KA1240N+02091MA1999999096541MD1999999+0121REMSYN082AAXX  04124 83242 22495 82301 10234 20205 39654 40150 887// 333 20209 58012 60304;
0179832420999992003010418004-12570-041380FM-12+042799999V0201401N001510450019N0040001N1+02921+02091100951ADDAA106000091GF108991011031004501051001MA1999999096081MD1999999+0071MW1051REMSYN076AAXX  04184 83242 31496 81403 10292 20209 39608 40095 705// 81350 333 58007;EQDQ01  00002PRCP06
0208832420999992003010500004-12570-041380FM-12+042799999V0200501N001512200019N0020001N1+02441+02151101211ADDAA106000091GA1001+999999999GF100991001001999999001001KA1240M+03021MA1999999096301MD1999999+0011REMSYN082AAXX  05004 83242 32995 00503 10244 20215 39630 40121 333 10302 29078 55048 58001;EQDQ01  00002PRCP06
0198832420999992003010512004-12570-041380FM-12+042799999V0200501N001010042019N0040001N1+02481+02091101351ADDAA106000091GF107991061071004501081001KA1240N+02091MA1999999096441MD1999999-0101MW1051REMSYN082AAXX  05124 83242 31496 70502 10248 20209 39644 40135 705// 86780 333 20209 59010;EQDQ01  00002PRCP06
0167832420999992003010518004-12570-041380FM-12+042799999V0201401N001011050019N0040001N1+03141+02161100881ADDAA106000091GF107991011071004501001031MA1999999096021MD1999999-0061REMSYN070AAXX  05184 83242 32496 71402 10314 20216 39602 40088 81703 333 59006;EQDQ01  00002PRCP06
0208832420999992003010600004-12570-041380FM-12+042799999V0202301N001012200019N0020001N1+02591+02101101181ADDAA106000091GA1001+999999999GF100991001001999999001001KA1240M+03221MA1999999096301MD1999999+0001REMSYN082AAXX  06004 83242 32995 02302 10259 20210 39630 40118 333 10322 29072 55066 58000;EQDQ01  00002PRCP06
0162832420999992003010612004-12570-041380FM-12+042799999V0201801N001010450019N0040001N1+02661+02181101311ADDGF106991041071004501081011KA1240N+02131MA1999999096431MD1999999-0011REMSYN082AAXX  06124 83242 22496 61802 10266 20218 39643 40131 84781 333 20213 59001 69944;
0179832420999992003010618004-12570-041380FM-12+042799999V0201801N001512200019N0100001N1+03401+02071100601ADDAA106000091GF104991021031004501081031MA1999999095811MD1999999-0211MW1051REMSYN076AAXX  06184 83242 31497 41803 10340 20207 39581 40060 705// 82383 333 59021;EQDQ01  00002PRCP06
0198832420999992003010700004-12570-041380FM-12+042799999V0201801N000512200019N0020001N1+02881+02031100951ADDAA106000091GF102991011021004501051001KA1240M+03531MA1999999096121MD1999999-0081REMSYN088AAXX  07004 83242 32495 21801 10288 20203 39612 40095 81250 333 10353 29006 55096 59008;EQDQ01  00002PRCP06
0186832420999992003010712004-12570-041380FM-12+042799999V0201401N001011050019N0040001N1+02801+02151101111ADDAA106000091GF108991011011004501001071KA1240N+02211MA1999999096291MD1999999-0141REMSYN076AAXX  07124 83242 32496 81402 10280 20215 39629 40111 81107 333 20221 59014;EQDQ01  00002PRCP06
0179832420999992003010718004-12570-041380FM-12+042799999V0200901N001510450019N0040001N1+03621+01961100551ADDAA106000091GF108991031041004501081071MA1999999095781MD1999999-0031MW1051REMSYN076AAXX  07184 83242 31496 80903 10362 20196 39578 40055 705// 83487 333 59003;EQDQ01  00002PRCP06
0210832420999992003010800004-12570-041380FM-12+042799999V0201801N001012200019N0020001N1+02881+02081100931ADDAA106000091GF101991011071004501001001KA1240M+03731MA1999999096121MD1999999+0001MW1131REMSYN094AAXX  08004 83242 31495 11802 10288 20208 39612 40093 713// 81700 333 10373 29058 55109 58000;EQDQ01  00002PRCP06
0179832420999992003010818004-12570-041380FM-12+042799999V0200501N002110450019N0040001N1+03401+01851100891ADDAA106000091GF107991011011004501051021MA1999999096091MD1999999+0311MW1051REMSYN076AAXX  08184 83242 31496 70504 10340 20185 39609 40089 705// 81152 333 58031;EQDQ01  00002PRCP06
0198832420999992003010900004-12570-041380FM-12+042799999V0202301N002112200019N0020001N1+02721+02081101241ADDAA106000091GF101991001001999999001081KA1240M+03501MA1999999096411MD1999999+0291REMSYN088AAXX  09004 83242 32995 12304 10272 20208 39641 40124 80008 333 10350 29060 55096 58029;EQDQ01  00002PRCP06
0198832420999992003010912004-12570-041380FM-12+042799999V0201801N002110042019N0040001N1+02501+01911101701ADDAA106000091GF107991061071004501081001KA1240N+02151MA1999999096801MD1999999+0331MW1051REMSYN082AAXX  09124 83242 31496 71804 10250 20191 39680 40170 705// 86780 333 20215 58033;EQDQ01  00002PRCP06
0179832420999992003010918004-12570-041380FM-12+042799999V0201401N001010450019N0040001N1+02891+02021101371ADDAA106000091GF107991041051004501081021MA1999999096501MD1999999+0411MW1051REMSYN076AAXX  09184 83242 31496 71402 10289 20202 39650 40137 705// 84582 333 58041;EQDQ01  00002PRCP06
0210832420999992003011000004-12570-041380FM-12+042799999V0200501N001012200019N0010001N1+02541+02041101461ADDAA106000091GF101991011001022501051001KA1240M+03141MA1999999096551MD1999999+0141MW1051REMSYN094AAXX  10004 83242 31894 10502 10254 20204 39655 40146 705// 81050 333 10314 29069 55073 58014;EQDQ01  00002PRCP06
0198832420999992003011012004-12570-041380FM-12+042799999V0201801N001010042019N0020001N1+02361+01891101641ADDAA106000091GF108991081071004501999999KA1240N+02171MA1999999096721MD1999999-0081MW1051REMSYN082AAXX  10124 83242 31495 81802 10236 20189 39672 40164 705// 887// 333 20217 59008;EQDQ01  00002PRCP06
0179832420999992003011018004-12570-041380FM-12+042799999V0200901N001512200019N0040001N1+03201+01781100901ADDAA106000091GF103991011011004501081011MA1999999096061MD1999999-0441MW1051REMSYN076AAXX  10184 83242 31496 30903 10320 20178 39606 40090 705// 81181 333 59044;EQDQ01  00002PRCP06
0208832420999992003011100004-12570-041380FM-12+042799999V0200901N001012200019N0020001N1+02531+01631101191ADDAA106000091GA1001+999999999GF100991001001999999001001KA1240M+03401MA1999999096291MD1999999-0261REMSYN082AAXX  11004 83242 32995 00902 10253 20163 39629 40119 333 10340 29058 55083 59026;EQDQ01  00002PRCP06
0198832420999992003011112004-12570-041380FM-12+042799999V0201801N001010042019N0040001N1+02541+02021101511ADDAA106000091GF108991071051004501011999KA1240N+02041MA1999999096611MD1999999-0111MW1051REMSYN082AAXX  11124 83242 31496 81802 10254 20202 39661 40151 705// 8751/ 333 20204 59011;EQDQ01  00002PRCP06
0179832420999992003011118004-12570-041380FM-12+042799999V0202301N001010450019N0040001N1+03331+01831100881ADDAA106000091GF106991011011004501051021MA1999999096041MD1999999-0021MW1041REMSYN076AAXX  11184 83242 31496 62302 10333 20183 39604 40088 704// 81152 333 59002;EQDQ01  00002PRCP06
0198832420999992003011200004-12570-041380FM-12+042799999V0202701N001519999999N0020001N1+02521+01841101041ADDAA106000091GF107991001001999999001021KA1240M+03421MA1999999096161MD1999999-0131REMSYN088AAXX  12004 83242 32995 72703 10252 20184 39616 40104 80002 333 10342 29062 55071 59013;EQDQ01  00002PRCP06
0198832420999992003011212004-12570-041380FM-12+042799999V0201801N001510450019N0040001N1+02721+02051101311ADDAA106000091GF107991011011004501031061KA1240N+01961MA1999999096431MD1999999-0181MW1051REMSYN082AAXX  12124 83242 31496 71803 10272 20205 39643 40131 705// 81136 333 20196 59018;EQDQ01  00002PRCP06
0179832420999992003011218004-12570-041380FM-12+042799999V0201401N002110450019N0040001N1+03761+01481100551ADDAA106000091GF105991031071004501051031MA1999999095771MD1999999-0271MW1051REMSYN076AAXX  12184 83242 31496 51404 10376 20148 39577 40055 705// 83753 333 59027;EQDQ01  00002PRCP06
0198832420999992003011300004-12570-041380FM-12+042799999V0200501N001512200019N0020001N1+02741+01921100941ADDAA106000091GF102991011031004501001021KA1240M+03881MA1999999096111MD1999999-0051REMSYN088AAXX  13004 83242 32495 20503 10274 20192 39611 40094 81302 333 10388 29054 55105 59005;EQDQ01  00002PRCP06
0198832420999992003011312004-12570-041380FM-12+042799999V0201801N000510450019N0020001N1+02741+02051101191ADDAA106000091GF108991031021004501051071KA1240N+02111MA1999999096351MD1999999-0081MW1051REMSYN082AAXX  13124 83242 31495 81801 10274 20205 39635 40119 705// 83257 333 20211 59008;EQDQ01  00002PRCP06
0179832420999992003011318004-12570-041380FM-12+042799999V0201801N004110042019N0040001N1+03331+02021100681ADDAA106000091GF108991081071004501999999MA1999999095881MD1999999+0111MW1171REMSYN076AAXX  13184 83242 31496 81808 10333 20202 39588 40068 717// 887// 333 58011;EQDQ01  00002PRCP06
0198832420999992003011400004-12570-041380FM-12+042799999V0200501N001010042019N0020001N1+02561+02151100961ADDAA106000091GF108991081051004501999999KA1240M+03461MA1999999096111MD1999999+0001REMSYN088AAXX  14004 83242 32495 80502 10256 20215 39611 40096 885// 333 10346 29067 55067 58000;EQDQ01  00002PRCP06
0198832420999992003011412004-12570-041380FM-12+042799999V0201801N001510042019N0040001N1+02551+02081101291ADDAA106000091GF108991081061004501999999KA1240N+02321MA1999999096401MD1999999+0051MW1051REMSYN082AAXX  14124 83242 31496 81803 10255 20208 39640 40129 705// 886// 333 20232 58005;EQDQ01  00002PRCP06
0179832420999992003011418004-12570-041380FM-12+042799999V0203201N001510042019N0040001N1+03181+02041100821ADDAA106000091GF108991051071004501061071MA1999999095981MD1999999+0101MW1051REMSYN076AAXX  14184 83242 31496 83203 10318 20204 39598 40082 705// 85767 333 58010;EQDQ01  00002PRCP06
0202832420999992003011500004-12570-041380FM-12+042799999V0203601N001510450019N0020001N1+02381+02171101071ADDAY161061AY221061GF107991021051004501051051KA1240M+03321MA1999999096171MD1999999+0061MW1031REMSYN100AAXX  15004 83242 21495 73603 10238 20217 39617 40107 70362 82555 333 10332 29076 55046 58006 60061;
0190832420999992003011512004-12570-041380FM-12+042799999V0201801N001010042019N0040001N1+02331+02241101511ADDAY161061AY221061GF108991081071004501999999KA1240N+02151MA1999999096571MD1999999+0171MW1101REMSYN088AAXX  15124 83242 21496 81802 10233 20224 39657 40151 71062 887// 333 20215 58017 60334;
0179832420999992003011518004-12570-041380FM-12+042799999V0201401N001010042019N0040001N1+03051+02141101131ADDAA106000091GF108991051071004501031061MA1999999096141MD1999999+0161MW1051REMSYN076AAXX  15184 83242 31496 81402 10305 20214 39614 40113 705// 85736 333 58016;EQDQ01  00002PRCP06
0198832420999992003011600004-12570-041380FM-12+042799999V0203601N001510450019N0020001N1+02661+02241101201ADDAA106000091GF107991031051004501051021KA1240M+03201MA1999999096311MD1999999+0141REMSYN088AAXX  16004 83242 32495 73603 10266 20224 39631 40120 83552 333 10320 29077 55046 58014;EQDQ01  00002PRCP06
0190832420999992003011612004-12570-041380FM-12+042799999V0201801N001010042019N0020001N1+02321+02241101631ADDAY161061AY221061GF108991081071004501999999KA1240N+02191MA1999999096721MD1999999+0151MW1101REMSYN088AAXX  16124 83242 21495 81802 10232 20224 39672 40163 71062 887// 333 20219 58015 60104;
0167832420999992003011618004-12570-041380FM-12+042799999V0200501N001510042019N0100001N1+02741+02101101191ADDAA106000091GF108991081071004501999999MA1999999096291MD1999999+0151REMSYN070AAXX  16184 83242 32497 80503 10274 20210 39629 40119 887// 333 58015;EQDQ01  00002PRCP06
0198832420999992003011700004-12570-041380FM-12+042799999V0200901N001011050019N0020001N1+02331+02131101361ADDAA106000091GF107991021001022501051021KA1240M+02841MA1999999096421MD1999999+0111REMSYN088AAXX  17004 83242 32895 70902 10233 20213 39642 40136 82052 333 10284 29085 55026 58011;EQDQ01  00002PRCP06
0186832420999992003011712004-12570-041380FM-12+042799999V0201801N000510450019N0100001N1+02471+02011101461ADDAA106000091GF108991041041004501071071KA1240N+02011MA1999999096541MD1999999-0181REMSYN076AAXX  17124 83242 32497 81801 10247 20201 39654 40146 84477 333 20201 59018;EQDQ01  00002PRCP06
0179832420999992003011718004-12570-041380FM-12+042799999V0201801N000510042019N0100001N1+02941+02031101071ADDAA106000091GF107991051051004501051001MA1999999096151MD1999999-0141MW1051REMSYN076AAXX  17184 83242 31497 71801 10294 20203 39615 40107 705// 85550 333 59014;EQDQ01  00002PRCP06
0198832420999992003011800004-12570-041380FM-12+042799999V0200501N001510450019N0020001N1+02481+02191101321ADDAA106000091GF107991031051004501051021KA1240M+03021MA1999999096421MD1999999+0001REMSYN088AAXX  18004 83242 32495 70503 10248 20219 39642 40132 83552 333 10302 29075 55048 58000;EQDQ01  00002PRCP06
0198832420999992003011812004-12570-041380FM-12+042799999V0201401N001010042019N0040001N1+02441+01971101441ADDAA106000091GF108991081051004501999999KA1240N+02171MA1999999096531MD1999999-0011MW1051REMSYN082AAXX  18124 83242 31496 81402 10244 20197 39653 40144 705// 885// 333 20217 59001;EQDQ01  00002PRCP06
0179832420999992003011818004-12570-041380FM-12+042799999V0201401N001510450019N0100001N1+02931+02111101111ADDAA106000091GF107991041031004501081021MA1999999096211MD1999999+0061MW1051REMSYN076AAXX  18184 83242 31497 71403 10293 20211 39621 40111 705// 84382 333 58006;EQDQ01  00002PRCP06
0198832420999992003011900004-12570-041380FM-12+042799999V0203601N001010450019N0020001N1+02481+02091101211ADDAA106000091GF107991011011004501051021KA1240M+03021MA1999999096311MD1999999-0111REMSYN088AAXX  19004 83242 32495 73602 10248 20209 39631 40121 81152 333 10302 29074 55022 59011;EQDQ01  00002PRCP06
0186832420999992003011912004-12570-041380FM-12+042799999V0200501N001510042019N0040001N1+02401+01971101541ADDAA106000091GF108991081051004501999999KA1240N+02031MA1999999096621MD1999999+0091REMSYN076AAXX  19124 83242 32496 80503 10240 20197 39662 40154 885// 333 20203 58009;EQDQ01  00002PRCP06
0179832420999992003011918004-12570-041380FM-12+042799999V0200501N001510450019N0040001N1+03101+01841101001ADDAA106000091GF106991021071004501051021MA1999999096131MD1999999-0081MW1051REMSYN076AAXX  19184 83242 31496 60503 10310 20184 39613 40100 705// 82752 333 59008;EQDQ01  00002PRCP06
0198832420999992003012000004-12570-041380FM-12+042799999V0203601N001010042019N0020001N1+02541+02151101281ADDAA106000091GF107991051071004501081001KA1240M+03221MA1999999096371MD1999999+0061REMSYN088AAXX  20004 83242 32495 73602 10254 20215 39637 40128 85780 333 10322 29070 55032 58006;EQDQ01  00002PRCP06
0186832420999992003012012004-12570-041380FM-12+042799999V0201401N001010042019N0100001N1+02421+02071101481ADDAA106000091GF108991081071004501999999KA1240N+02071MA1999999096571MD1999999-0051REMSYN076AAXX  20124 83242 32497 81402 10242 20207 39657 40148 887// 333 20207 59005;EQDQ01  00002PRCP06
0167832420999992003012018004-12570-041380FM-12+042799999V0202301N001010042019N0100001N1+03061+01961100931ADDAA106000091GF106991051041004501011001MA1999999096071MD1999999-0061REMSYN070AAXX  20184 83242 32497 62302 10306 20196 39607 40093 85410 333 59006;EQDQ01  00002PRCP06
0198832420999992003012100004-12570-041380FM-12+042799999V0200901N001012200019N0020001N1+02621+02031101001ADDAA106000091GF104991011021004501001021KA1240M+03241MA1999999096121MD1999999-0251REMSYN088AAXX  21004 83242 32495 40902 10262 20203 39612 40100 81202 333 10324 29068 55068 59025;EQDQ01  00002PRCP06
0198832420999992003012112004-12570-041380FM-12+042799999V0201401N001010042019N0040001N1+02401+01991101351ADDAA106000091GF108991081071004501999999KA1240N+02211MA1999999096451MD1999999-0121MW1051REMSYN082AAXX  21124 83242 31496 81402 10240 20199 39645 40135 705// 887// 333 20221 59012;EQDQ01  00002PRCP06
0179832420999992003012118004-12570-041380FM-12+042799999V0202301N001510042019N0040001N1+02961+01991100831ADDAA106000091GF108991051041004501011071MA1999999095991MD1999999-0081MW1051REMSYN076AAXX  21184 83242 31496 82303 10296 20199 39599 40083 705// 85417 333 59008;EQDQ01  00002PRCP06
0328832420999992003012200004-12570-041380FM-12+042799999V0200201N030822200019N0020001N1+99999+99999101001ADDAA106000091GA1031+013209029GF199999011071004501001001KA1240M+03171MA1999999096121MD1999999+0001MW1131REMSYN164AAXX  22004 83242 31495 10260 20203 39612 40100 713// 81700 333 10317 29069 55056 58000 83244 32494 60000 10274 20234 39814 40093 86600 333 10344 29067 55074 58005;EQDQ01+000012SCOTCVQ02  00002PRCP06Q03  00003PRCP99
0190832420999992003012212004-12570-041380FM-12+042799999V0203201N000510042019N0040001N1+02261+02121101441ADDAY191061AY261061GF108991081071004501999999KA1240N+02041MA1999999096531MD1999999+0081MW1101REMSYN088AAXX  22124 83242 21496 83201 10226 20212 39653 40144 71096 887// 333 20204 58008 60114;
0179832420999992003012218004-12570-041380FM-12+042799999V0201401N001010042019N0040001N1+03021+02021101031ADDAA106000091GF108991051071004501011071MA1999999096171MD1999999+0211MW1051REMSYN076AAXX  22184 83242 31496 81402 10302 20202 39617 40103 705// 85717 333 58021;EQDQ01  00002PRCP06
0208832420999992003012300004-12570-041380FM-12+042799999V0200501N001512200019N0020001N1+02441+02091101171ADDAA106000091GA1001+999999999GF100991001001999999001001KA1240M+03121MA1999999096251MD1999999+0131REMSYN082AAXX  23004 83242 32995 00503 10244 20209 39625 40117 333 10312 29077 55046 58013;EQDQ01  00002PRCP06
0186832420999992003012312004-12570-041380FM-12+042799999V0201801N002111050019N0100001N1+02471+02011101661ADDAA106000091GF106991041071004501001051KA1240N+02051MA1999999096741MD1999999+0211REMSYN076AAXX  23124 83242 32497 61804 10247 20201 39674 40166 84705 333 20205 58021;EQDQ01  00002PRCP06
0167832420999992003012318004-12570-041380FM-12+042799999V0200901N002610450019N0100001N1+03201+01711101171ADDAA106000091GF106991041041004501061001MA1999999096341MD1999999+0171REMSYN070AAXX  23184 83242 32497 60905 10320 20171 39634 40117 84460 333 58017;EQDQ01  00002PRCP06
0198832420999992003012400004-12570-041380FM-12+042799999V0201401N000510042019N0020001N1+02561+01971101541ADDAA106000091GF107991071051004501001001KA1240M+03331MA1999999096631MD1999999+0381REMSYN088AAXX  24004 83242 32495 71401 10256 20197 39663 40154 87500 333 10333 29064 55095 58038;EQDQ01  00002PRCP06
0186832420999992003012412004-12570-041380FM-12+042799999V0202301N000510042019N0100001N1+02441+02091101641ADDAA106000091GF107991061071004501041001KA1240N+02191MA1999999096731MD1999999-0011REMSYN076AAXX  24124 83242 32497 72301 10244 20209 39673 40164 86740 333 20219 59001;EQDQ01  00002PRCP06
0179832420999992003012418004-12570-041380FM-12+042799999V0200501N002110042019N0040001N1+03241+01891101001ADDAA106000091GF106991051051004501061001MA1999999096191MD1999999-0151MW1051REMSYN076AAXX  24184 83242 31496 60504 10324 20189 39619 40100 705// 85560 333 59015;EQDQ01  00002PRCP06
0208832420999992003012500004-12570-041380FM-12+042799999V0200501N001512200019N0020001N1+02621+02061101271ADDAA106000091GA1001+999999999GF100991001001999999001001KA1240M+03361MA1999999096371MD1999999-0261REMSYN082AAXX  25004 83242 32995 00503 10262 20206 39637 40127 333 10336 29068 55074 59026;EQDQ01  00002PRCP06
0198832420999992003012512004-12570-041380FM-12+042799999V0200501N001510042019N0040001N1+02401+01931101501ADDAA106000091GF108991061071004501081091KA1240N+02191MA1999999096591MD1999999-0141MW1051REMSYN082AAXX  25124 83242 31496 80503 10240 20193 39659 40150 705// 86789 333 20219 59014;EQDQ01  00002PRCP06
0179832420999992003012518004-12570-041380FM-12+042799999V0201801N002111050019N0040001N1+03201+01671100891ADDAA106000091GF108991021011004501001071MA1999999096081MD1999999-0111MW1051REMSYN076AAXX  25184 83242 31496 81804 10320 20167 39608 40089 705// 82107 333 59011;EQDQ01  00002PRCP06
0208832420999992003012600004-12570-041380FM-12+042799999V0201401N000512200019N0020001N1+02621+01811101051ADDAA106000091GA1001+999999999GF100991001001999999001001KA1240M+03341MA1999999096161MD1999999-0211REMSYN082AAXX  26004 83242 32995 01401 10262 20181 39616 40105 333 10334 29059 55084 59021;EQDQ01  00002PRCP06
0190832420999992003012612004-12570-041380FM-12+042799999V0201401N001510042019N0040001N1+02561+02021101301ADDAY161061AY241061GF107991051071004501081021KA1240N+02171MA1999999096421MD1999999-0171MW1031REMSYN088AAXX  26124 83242 21496 71403 10256 20202 39642 40130 70364 85782 333 20217 59017 60044;
0167832420999992003012618004-12570-041380FM-12+042799999V0201801N002110450019N0100001N1+03071+01881100811ADDAA106000091GF106991031011004501081061MA1999999095971MD1999999-0111REMSYN070AAXX  26184 83242 32497 61804 10307 20188 39597 40081 83186 333 59011;EQDQ01  00002PRCP06
0198832420999992003012700004-12570-041380FM-12+042799999V0201801N000510042019N0020001N1+02641+02001100961ADDAA106000091GF107991071051004501001001KA1240M+03221MA1999999096101MD1999999-0061REMSYN088AAXX  27004 83242 32495 71801 10264 20200 39610 40096 87500 333 10322 29064 55094 59006;EQDQ01  00002PRCP06
0186832420999992003012712004-12570-041380FM-12+042799999V0201401N001510042019N0040001N1+02521+02001101211ADDAA106000091GF107991061071004501081001KA1240N+02131MA1999999096341MD1999999-0081REMSYN076AAXX  27124 83242 32496 71403 10252 20200 39634 40121 86780 333 20213 59008;EQDQ01  00002PRCP06
0167832420999992003012718004-12570-041380FM-12+042799999V0202301N001510450019N0100001N1+03261+01881100701ADDAA106000091GF105991031011004501081011MA1999999095891MD1999999-0081REMSYN070AAXX  27184 83242 32497 52303 10326 20188 39589 40070 83181 333 59008;EQDQ01  00002PRCP06
0208832420999992003012800004-12570-041380FM-12+042799999V0203601N001512200019N0020001N1+02561+02021100971ADDAA106000091GA1001+999999999GF100991001001999999001001KA1240M+03371MA1999999096101MD1999999+0001REMSYN082AAXX  28004 83242 32995 03603 10256 20202 39610 40097 333 10337 29065 55097 58000;EQDQ01  00002PRCP06
0190832420999992003012812004-12570-041380FM-12+042799999V0201801N002110042019N0040001N1+02561+02081101431ADDAY161061AY211061GF107991051051004501081011KA1240N+02281MA1999999096541MD1999999+0201MW1031REMSYN088AAXX  28124 83242 21496 71804 10256 20208 39654 40143 70361 85581 333 20228 58020 60024;
0171832420999992003012818004-12570-041380FM-12+042799999V0201801N001510042019N0040001N1+02411+02251101221ADDAY191061AY261061GF107991051051004501051011MA1999999096301MD1999999+0411MW1501REMSYN082AAXX  28184 83242 21496 71803 10241 20225 39630 40122 75096 85551 333 58041 60311;
0179832420999992003012900004-12570-041380FM-12+042799999V0200901N001012200019N0020001N1+02331+02201101281ADDAA106000021GF101991011071004501001001KA1240M+03021MA1999999096371MD1999999+0271REMSYN088AAXX  29004 83242 32495 10902 10233 20220 39637 40128 81700 333 10302 29087 55055 58027;
0190832420999992003012912004-12570-041380FM-12+042799999V0201801N000510042019N0100001N1+02501+02111101501ADDAY161061AY221061GF108991081071004501999999KA1240N+02151MA1999999096571MD1999999+0031MW1031REMSYN088AAXX  29124 83242 21497 81801 10250 20211 39657 40150 70362 887// 333 20215 58003 60314;
0179832420999992003012918004-12570-041380FM-12+042799999V0201401N003110042019N0040001N1+03051+02221100931ADDAA106000091GF107991061071004501041001MA1999999096071MD1999999-0231MW1161REMSYN076AAXX  29184 83242 31496 71406 10305 20222 39607 40093 716// 86740 333 59023;EQDQ01  00002PRCP06
0202832420999992003013000004-12570-041380FM-12+042799999V0202001N005110042019N0010001N1+02341+02171101181ADDAY191061AY221061GF108991081071004501999999KA1240M+03201MA1999999096271MD1999999-0101MW1211REMSYN100AAXX  30004 83242 21494 82010 10234 20217 39627 40118 72192 887// 333 10320 29079 55069 59010 60091;
0190832420999992003013012004-12570-041380FM-12+042799999V0202301N000510042019N0040001N1+02401+02211101431ADDAY191061AY261061GF108991081071004501999999KA1240N+02051MA1999999096501MD1999999-0071MW1101REMSYN088AAXX  30124 83242 21496 82301 10240 20221 39650 40143 71096 887// 333 20205 59007 60394;
0179832420999992003013018004-12570-041380FM-12+042799999V0202301N001010450019N0040001N1+03081+01981100931ADDAA106000091GF106991041071004501031001MA1999999096071MD1999999+0001MW1161REMSYN076AAXX  30184 83242 31496 62302 10308 20198 39607 40093 716// 84730 333 58000;EQDQ01  00002PRCP06
0198832420999992003013100004-12570-041380FM-12+042799999V0201801N000512200019N0020001N1+02511+02131101081ADDAA106000091GF104991041061004501001001KA1240M+03161MA1999999096181MD1999999-0091REMSYN088AAXX  31004 83242 32495 41801 10251 20213 39618 40108 84600 333 10316 29075 55066 59009;EQDQ01  00002PRCP06
0186832420999992003013112004-12570-041380FM-12+042799999V0201801N002110042019N0100001N1+02501+02001101401ADDAA106000091GF107991051071004501081001KA1240N+01951MA1999999096501MD1999999+0001REMSYN076AAXX  31124 83242 32497 71804 10250 20200 39650 40140 85780 333 20195 58000;EQDQ01  00002PRCP06
0171832420999992003013118004-12570-041380FM-12+042799999V0202301N001510042019N0100001N1+02481+02191101161ADDAY161061AY221061GF107991061071004501081001MA1999999096231MD1999999+0161MW1171REMSYN082AAXX  31184 83242 21497 72303 10248 20219 39623 40116 71762 86780 333 58016 60041;
0198832420999992003020100004-12570-041380FM-12+042799999V0209999C000012200019N0020001N1+02321+02051101301ADDAA106000091GF104991041061004501001001KA1240M+03001MA1999999096381MD1999999+0201REMSYN088AAXX  01004 83242 32495 40000 10232 20205 39638 40130 84600 333 10300 29082 55062 58020;EQDQ01  00002PRCP06
0193832420999992003020112004-12570-041380FM-12+042799999V0201801N001010090019N0040001N1+02321+02051101561ADDGF108991999081004501071999KA1240N+01891MA1999999096611MD1999999+0111MW1101REMSYN088AAXX  01124 83242 21496 81802 10232 20205 39661 40156 710// 8887/ 333 20189 58011 60044;EQDQ01+000082SCOTLC
0171832420999992003020118004-12570-041380FM-12+042799999V0201801N001510450019N0040001N1+02761+02211101271ADDAY151061AY221061GF106991041041004501031021MA1999999096351MD1999999+0121MW1051REMSYN082AAXX  01184 83242 21496 61803 10276 20221 39635 40127 70552 84432 333 58012 69901;
0202832420999992003020200004-12570-041380FM-12+042799999V0203601N002110042019N0020001N1+02041+01891101581ADDAY191061AY261061GF108991081071004501999999KA1240M+03021MA1999999096611MD1999999+0231MW1131REMSYN100AAXX  02004 83242 21495 83604 10204 20189 39661 40158 71396 887// 333 10302 29085 55043 58023 60081;
0190832420999992003020212004-12570-041380FM-12+042799999V0201801N003110042019N0040001N1+02421+02111101741ADDAY161061AY221061GF107991051071004501081081KA1240N+01931MA1999999096771MD1999999+0161MW1031REMSYN088AAXX  02124 83242 21496 71806 10242 20211 39677 40174 70362 85788 333 20193 58016 60104;
0171832420999992003020218004-12570-041380FM-12+042799999V0201801N004119999999N0040001N1+02821+02121101291ADDAY151061AY221061GF107991051001004501081021MA1999999096381MD1999999+0031MW1501REMSYN082AAXX  02184 83242 21496 71808 10282 20212 39638 40129 75052 85082 333 58003 69901;
0202832420999992003020300004-12570-041380FM-12+042799999V0201401N001510042019N0005001N1+02301+02201101571ADDAY161061AY251061GF108991081071004501999999KA1240M+03021MA1999999096631MD1999999+0021MW1211REMSYN100AAXX  03004 83242 21493 81403 10230 20220 39663 40157 72165 887// 333 10302 29084 55021 58002 60021;
0190832420999992003020312004-12570-041380FM-12+042799999V0201801N002610042019N0020001N1+02221+02141101721ADDAY161061AY241061GF108991081071004501999999KA1240N+02071MA1999999096751MD1999999-0021MW1501REMSYN088AAXX  03124 83242 21495 81805 10222 20214 39675 40172 75064 887// 333 20207 59002 60044;
0171832420999992003020318004-12570-041380FM-12+042799999V0201801N003110042019N0100001N1+02981+02041101311ADDAY151061AY241061GF107991051071004501081011MA1999999096411MD1999999+0031MW1031REMSYN082AAXX  03184 83242 21497 71806 10298 20204 39641 40131 70354 85781 333 58003 69901;
0207832420999992003020400004-12570-041380FM-12+042799999V0200901N000510042019N0020001N1+02481+02051999999ADDAA106000091GF107991071051004501001001KA1240M+03121MA1999999096491MD1999999-0141ME1425009REMSYN088AAXX  04004 83242 32495 70901 10248 20205 39649 47500 87500 333 10312 29076 55053 59014;EQDQ01  00002PRCP06
0190832420999992003020412004-12570-041380FM-12+042799999V0201801N002110042019N0040001N1+02401+02151101531ADDAY161061AY241061GF106991051071004501081021KA1240N+02091MA1999999096611MD1999999-0141MW1101REMSYN088AAXX  04124 83242 21496 61804 10240 20215 39661 40153 71064 85782 333 20209 59014 60024;
0167832420999992003020418004-12570-041380FM-12+042799999V0202301N000512200019N0100001N1+03031+02061101071ADDAA106000091GF104991031041004501001011MA1999999096211MD1999999-0201REMSYN070AAXX  04184 83242 32497 42301 10303 20206 39621 40107 83401 333 59020;EQDQ01  00002PRCP06
0202832420999992003020500004-12570-041380FM-12+042799999V0203601N000510042019N0020001N1+02461+02171101291ADDAY151061AY241061GF108991081071004501999999KA1240M+03241MA1999999096381MD1999999-0111MW1031REMSYN100AAXX  05004 83242 21495 83601 10246 20217 39638 40129 70354 887// 333 10324 29078 55077 59011 69901;
0181832420999992003020512004-12570-041380FM-12+042799999V0201401N001512200019N0100001N1+02601+01991101511ADDGF103991999071004501041001KA1240N+02131MA1999999096611MD1999999+0001REMSYN082AAXX  05124 83242 22497 31403 10260 20199 39661 40151 85740 333 20213 58000 69904;EQDQ01+000052SCOTLC
0167832420999992003020518004-12570-041380FM-12+042799999V0202301N002111050019N0100001N1+03131+01941101031ADDAA106000091GF105991041051004501001021MA1999999096181MD1999999-0031REMSYN070AAXX  05184 83242 32497 52304 10313 20194 39618 40103 84502 333 59003;EQDQ01  00002PRCP06
0198832420999992003020600004-12570-041380FM-12+042799999V0201801N001510042019N0020001N1+02721+01951101181ADDAA106000091GF108991081071004501999999KA1240M+03321MA1999999096321MD1999999-0061REMSYN088AAXX  06004 83242 32495 81803 10272 20195 39632 40118 887// 333 10332 29061 55112 59006;EQDQ01  00002PRCP06
0186832420999992003020612004-12570-041380FM-12+042799999V0201401N001510042019N0100001N1+02521+02001101551ADDAA106000091GF106991051071004501031001KA1240N+02141MA1999999096661MD1999999+0051REMSYN076AAXX  06124 83242 32497 61403 10252 20200 39666 40155 85730 333 20214 58005;EQDQ01  00002PRCP06
0167832420999992003020618004-12570-041380FM-12+042799999V0201401N001010042019N0100001N1+03081+01971101101ADDAA106000091GF106991061041004501001001MA1999999096241MD1999999+0061REMSYN070AAXX  06184 83242 32497 61402 10308 20197 39624 40110 86400 333 58006;EQDQ01  00002PRCP06
0198832420999992003020700004-12570-041380FM-12+042799999V0201801N001010042019N0020001N1+02551+02081101211ADDAA106000091GF106991051051004501081001KA1240M+03221MA1999999096331MD1999999+0011REMSYN088AAXX  07004 83242 32495 61802 10255 20208 39633 40121 85580 333 10322 29068 55079 58001;EQDQ01  00002PRCP06
0179832420999992003020718004-12570-041380FM-12+042799999V0201801N003110450019N0100001N1+03141+01911101121ADDAA106000091GF108991021031004501081071MA1999999096261MD1999999+0021MW1051REMSYN076AAXX  07184 83242 31497 81806 10314 20191 39626 40112 705// 82387 333 58002;EQDQ01  00002PRCP06
0202832420999992003020800004-12570-041380FM-12+042799999V0201401N001510042019N0010001N1+02461+02011101351ADDAY151061AY241061GF108991081071004501999999KA1240M+03301MA1999999096441MD1999999+0111MW1501REMSYN100AAXX  08004 83242 21494 81403 10246 20201 39644 40135 75054 887// 333 10330 29068 55082 58011 69951;
0190832420999992003020812004-12570-041380FM-12+042799999V0201801N002110042019N0040001N1+02541+01951101551ADDAY151061AY241061GF107991061071004501081001KA1240N+01991MA1999999096641MD1999999-0041MW1031REMSYN088AAXX  08124 83242 21496 71804 10254 20195 39664 40155 70354 86780 333 20199 59004 60014;
0202832420999992003020900004-12570-041380FM-12+042799999V0201801N001510042019N0020001N1+02581+01971101281ADDAY151061AY221061GF107991061071004501081001KA1240M+03301MA1999999096391MD1999999-0051MW1031REMSYN100AAXX  09004 83242 21495 71803 10258 20197 39639 40128 70352 86780 333 10330 29063 55109 59005 69961;
0162832420999992003020912004-12570-041380FM-12+042799999V0201401N001510042019N0100001N1+02541+01811101531ADDGF106991051021004501081001KA1240N+02081MA1999999096631MD1999999-0011REMSYN082AAXX  09124 83242 22497 61403 10254 20181 39663 40153 85280 333 20208 59001 69964;
0167832420999992003020918004-12570-041380FM-12+042799999V0201401N002610450019N0100001N1+03191+01551100981ADDAA106000091GF105991041011004501051001MA1999999096131MD1999999-0121REMSYN070AAXX  09184 83242 32497 51405 10319 20155 39613 40098 84150 333 59012;EQDQ01  00002PRCP06
0198832420999992003021000004-12570-041380FM-12+042799999V0202301N003110042019N0020001N1+02621+01621101181ADDAA106000091GF107991061031004501081001KA1240M+03341MA1999999096311MD1999999-0081REMSYN088AAXX  10004 83242 32495 72306 10262 20162 39631 40118 86380 333 10334 29082 55111 59008;EQDQ01  00002PRCP06
0186832420999992003021012004-12570-041380FM-12+042799999V0201401N001510450019N0040001N1+02561+01931101371ADDAA106000091GF106991041071004501051051KA1240N+02281MA1999999096491MD1999999-0141REMSYN076AAXX  10124 83242 32496 61403 10256 20193 39649 40137 84755 333 20228 59014;EQDQ01  00002PRCP06
0167832420999992003021018004-12570-041380FM-12+042799999V0201801N001512200019N0100001N1+03281+01781100791ADDAA106000091GF104991021021004501081021MA1999999095981MD1999999-0151REMSYN070AAXX  10184 83242 32497 41803 10328 20178 39598 40079 82282 333 59015;EQDQ01  00002PRCP06
0198832420999992003021100004-12570-041380FM-12+042799999V0202301N001012200019N0020001N1+02601+01921100961ADDAA106000091GF104991011001022501051041KA1240M+03421MA1999999096101MD1999999-0211REMSYN088AAXX  11004 83242 32895 42302 10260 20192 39610 40096 81054 333 10342 29060 55101 59021;EQDQ01  00002PRCP06
0186832420999992003021112004-12570-041380FM-12+042799999V0201401N001510042019N0040001N1+02551+01971101371ADDAA106000091GF107991051071004501081021KA1240N+02171MA1999999096491MD1999999+0001REMSYN076AAXX  11124 83242 32496 71403 10255 20197 39649 40137 85782 333 20217 58000;EQDQ01  00002PRCP06
0167832420999992003021118004-12570-041380FM-12+042799999V0201401N001510450019N0100001N1+03141+01771100821ADDAA106000091GF107991031031004501031021MA1999999095981MD1999999+0001REMSYN070AAXX  11184 83242 32497 71403 10314 20177 39598 40082 83332 333 58000;EQDQ01  00002PRCP06
0202832420999992003021200004-12570-041380FM-12+042799999V0201801N001510042019N0010001N1+02601+01871101071ADDAY151061AY221061GF108991081071004501999999KA1240M+03281MA1999999096211MD1999999+0111MW1021REMSYN100AAXX  12004 83242 21494 81803 10260 20187 39621 40107 70252 887// 333 10328 29058 55072 58011 69901;
0162832420999992003021212004-12570-041380FM-12+042799999V0201801N001510450019N0100001N1+02481+01801101501ADDGF106991041041004501051001KA1240N+02071MA1999999096601MD1999999+0111REMSYN082AAXX  12124 83242 22497 61803 10248 20180 39660 40150 84450 333 20207 58011 69904;
0167832420999992003021218004-12570-041380FM-12+042799999V0201801N002610042019N0100001N1+03141+01541100921ADDAA106000091GF107991051011004501011021MA1999999096081MD1999999+0101REMSYN070AAXX  12184 83242 32497 71805 10314 20154 39608 40092 85112 333 58010;EQDQ01  00002PRCP06
0198832420999992003021300004-12570-041380FM-12+042799999V0201401N001519999999N0020001N1+02431+01761101211ADDAA106000091GF107991001001999999001021KA1240M+03261MA1999999096311MD1999999+0101REMSYN088AAXX  13004 83242 32995 71403 10243 20176 39631 40121 80002 333 10326 29059 55102 58010;EQDQ01  00002PRCP06
0190832420999992003021312004-12570-041380FM-12+042799999V0203601N000510042019N0040001N1+02161+02021101621ADDAY151061AY211061GF108991081071004501999999KA1240N+02131MA1999999096661MD1999999+0061MW1511REMSYN088AAXX  13124 83242 21496 83601 10216 20202 39666 40162 75151 887// 333 20213 58006 69974;
0171832420999992003021318004-12570-041380FM-12+042799999V0202301N001510450019N0100001N1+03041+01781100991ADDAY151061AY221061GF106991041041004501051021MA1999999096131MD1999999+0051MW1031REMSYN082AAXX  13184 83242 21497 62303 10304 20178 39613 40099 70352 84452 333 58005 69971;
0198832420999992003021400004-12570-041380FM-12+042799999V0201401N000510042019N0020001N1+02621+02011101231ADDAA106000091GF106991051071004501031001KA1240M+03241MA1999999096321MD1999999+0011REMSYN088AAXX  14004 83242 32495 61401 10262 20201 39632 40123 85730 333 10324 29069 55032 58001;EQDQ01  00002PRCP06
0174832420999992003021412004-12570-041380FM-12+042799999V0202301N001510075019N0040001N1+02481+02031101371ADDGF107991061071008001081001KA1240N+02031MA1999999096481MD1999999-0181MW1051REMSYN088AAXX  14124 83242 21596 72303 10248 20203 39648 40137 705// 86780 333 20203 59018 69974;
0171832420999992003021418004-12570-041380FM-12+042799999V0201801N002610042019N0040001N1+02561+02191101091ADDAY151061AY241061GF107991051071004501081021MA1999999096181MD1999999+0021MW1291REMSYN082AAXX  14184 83242 21496 71805 10256 20219 39618 40109 72954 85782 333 58002 69901;
0198832420999992003021500004-12570-041380FM-12+042799999V0203601N000512200019N0020001N1+02471+02071100981ADDAA106000091GF103991011011004501001021KA1240M+03121MA1999999096191MD1999999-0131REMSYN088AAXX  15004 83242 32495 33601 10247 20207 39619 40098 81102 333 10312 29078 55062 59013;EQDQ01  00002PRCP06
0127832420999992003021512004-12570-041380FM-12+042799999V0201801N003119999999N0040001N1+02401+01891999999ADDGF107991999999004501999999REMSYN089AAXX  15124 83242 22496 71806 10240 201895 39645 40136 85730 333 20218 59003 69904 19999;
0167832420999992003021518004-12570-041380FM-12+042799999V0201801N002610450019N0100001N1+03001+01911100901ADDAA106000091GF107991031031004501081021MA1999999096041MD1999999-0141REMSYN070AAXX  15184 83242 32497 71805 10300 20191 39604 40090 83382 333 59014;EQDQ01  00002PRCP06
0186832420999992003021612004-12570-041380FM-12+042799999V0201401N001010042019N0040001N1+02501+02001101371ADDAA106000091GF107991061071004501081001KA1240N+02301MA1999999095481MD1999999+0031REMSYN076AAXX  16124 83242 32496 71402 10250 20200 39548 40137 86780 333 20230 58003;EQDQ01  00002PRCP06
0167832420999992003021618004-12570-041380FM-12+042799999V0201801N001510450019N0100001N1+03331+01751100751ADDAA106000091GF105991031021004501081031MA1999999095931MD1999999-0111REMSYN070AAXX  16184 83242 32497 51803 10333 20175 39593 40075 83283 333 59011;EQDQ01  00002PRCP06
0186832420999992003021712004-12570-041380FM-12+042799999V0201801N001010042019N0100001N1+02541+02021101321ADDAA106000091GF106991051071004501041001KA1240N+02211MA1999999096441MD1999999-0041REMSYN076AAXX  17124 83242 32497 61802 10254 20202 39644 40132 85740 333 20221 59004;EQDQ01  00002PRCP06
0195832420999992003021718004-12570-041380FM-12+042799999V0201401N002111050019N0040001N1+03461+01731100522ADDAA106000091GF105991021031004501071041MA1999999095931MD1999999+0001MW1051REMSYN076AAXX  17184 83242 31496 51404 10346 20173 39593 40052 705// 82374 333 58000;EQDQ01+100523APOSLPQ02  00002PRCP06
0198832420999992003021800004-12570-041380FM-12+042799999V0200501N000510450019N0020001N1+02741+01701100991ADDAA106000091GF105991011011004501051001KA1240M+03491MA1999999096141MD1999999+0081REMSYN088AAXX  18004 83242 32495 50501 10274 20170 39614 40099 81150 333 10349 29054 55085 58008;EQDQ01  00002PRCP06
0198832420999992003021812004-12570-041380FM-12+042799999V0201801N001010042019N0040001N1+02431+02011101401ADDAA106000091GF108991081071004501999999KA1240N+02271MA1999999096521MD1999999+0081MW1051REMSYN082AAXX  18124 83242 31496 81802 10243 20201 39652 40140 705// 887// 333 20227 58008;EQDQ01  00002PRCP06
0179832420999992003021818004-12570-041380FM-12+042799999V0201801N000510042019N0040001N1+02901+02021101031ADDAA106000091GF108991051061004501051071MA1999999096151MD1999999+0221MW1051REMSYN076AAXX  18184 83242 31496 81801 10290 20202 39615 40103 705// 85657 333 58022;EQDQ01  00002PRCP06
0198832420999992003021900004-12570-041380FM-12+042799999V0200501N001012200019N0020001N1+02481+01951101131ADDAA106000091GF102991021001022501061001KA1240M+03061MA1999999096231MD1999999+0091REMSYN088AAXX  19004 83242 32895 20502 10248 20195 39623 40113 82060 333 10306 29071 55040 58009;EQDQ01  00002PRCP06
0198832420999992003021912004-12570-041380FM-12+042799999V0201401N001010042019N0040001N1+02491+02031101531ADDAA106000091GF108991061061004501051091KA1240N+02131MA1999999096621MD1999999+0101MW1051REMSYN082AAXX  19124 83242 31496 81402 10249 20203 39662 40153 705// 86659 333 20213 58010;EQDQ01  00002PRCP06
0179832420999992003021918004-12570-041380FM-12+042799999V0201401N002110042019N0040001N1+03411+01701100911ADDAA106000091GF108991061021004501061021MA1999999096101MD1999999-0051MW1051REMSYN076AAXX  19184 83242 31496 81404 10341 20170 39610 40091 705// 86262 333 59005;EQDQ01  00002PRCP06
0198832420999992003022000004-12570-041380FM-12+042799999V0200501N001012200019N0020001N1+02661+01681101121ADDAA106000091GF103991031001022501061001KA1240M+03481MA1999999096251MD1999999+0021REMSYN088AAXX  20004 83242 32895 30502 10266 20168 39625 40112 83060 333 10348 29055 55091 58002;EQDQ01  00002PRCP06
0198832420999992003022012004-12570-041380FM-12+042799999V0201401N002610042019N0040001N1+02601+02121101391ADDAA106000091GF106991051071004501041001KA1240N+02421MA1999999096521MD1999999-0101MW1051REMSYN082AAXX  20124 83242 31496 61405 10260 20212 39652 40139 705// 85740 333 20242 59010;EQDQ01  00002PRCP06
0179832420999992003022018004-12570-041380FM-12+042799999V0201801N002110450019N0040001N1+03411+01911100891ADDAA106000091GF106991041051004501051041MA1999999096091MD1999999-0011MW1051REMSYN076AAXX  20184 83242 31496 61804 10341 20191 39609 40089 705// 84554 333 59001;EQDQ01  00002PRCP06
0202832420999992003022100004-12570-041380FM-12+042799999V0209999C000010042019N0020001N1+02401+02111101271ADDAY161061AY241061GF108991081071004501999999KA1240M+03431MA1999999096371MD1999999+0121MW1291REMSYN100AAXX  21004 83242 21495 80000 10240 20211 39637 40127 72964 887// 333 10343 29071 55092 58012 60031;
0162832420999992003022112004-12570-041380FM-12+042799999V0201801N002110042019N0100001N1+02521+02001101381ADDGF106991051071004501041001KA1240N+02151MA1999999096471MD1999999-0051REMSYN082AAXX  21124 83242 22497 61804 10252 20200 39647 40138 85740 333 20215 59005 60034;
0167832420999992003022118004-12570-041380FM-12+042799999V0201801N002112200019N0100001N1+03101+01731100991ADDAA106000091GF104991021041004501031091MA1999999096141MD1999999+0051REMSYN070AAXX  21184 83242 32497 41804 10310 20173 39614 40099 82439 333 58005;EQDQ01  00002PRCP06
0198832420999992003022200004-12570-041380FM-12+042799999V0203601N000510042019N0020001N1+02621+01761101101ADDAA106000091GF105991051061004501001001KA1240M+03241MA1999999096221MD1999999-0151REMSYN088AAXX  22004 83242 32495 53601 10262 20176 39622 40110 85600 333 10324 29059 55095 59015;EQDQ01  00002PRCP06
0186832420999992003022212004-12570-041380FM-12+042799999V0201801N000510042019N0100001N1+03381+01911101471ADDAA106000091GF108991081071004501999999KA1240N+02111MA1999999096561MD1999999+0091REMSYN076AAXX  22124 83242 32497 81801 10338 20191 39656 40147 887// 333 20211 58009;EQDQ01  00002PRCP06
0171832420999992003022218004-12570-041380FM-12+042799999V0201801N001010042019N0100001N1+02861+02011101121ADDAY151061AY221061GF107991061071004501061001MA1999999096241MD1999999+0101MW1031REMSYN082AAXX  22184 83242 21497 71802 10286 20201 39624 40112 70352 86760 333 58010 69921;
0198832420999992003022300004-12570-041380FM-12+042799999V0201401N001010042019N0020001N1+02541+02091101341ADDAA106000091GF108991081071004501999999KA1240M+02981MA1999999096431MD1999999+0211REMSYN088AAXX  23004 83242 32495 81402 10254 20209 39643 40134 887// 333 10298 29072 55009 58021;EQDQ01  00002PRCP06
0202832420999992003022400004-12570-041380FM-12+042799999V0201801N003110042019N0020001N1+02331+02071101531ADDAY151061AY221061GF105991051071004501001001KA1240M+03141MA1999999096611MD1999999+0181MW1031REMSYN100AAXX  24004 83242 21495 51806 10233 20207 39661 40153 70352 85700 333 10314 29073 55061 58018 69901;
0179832420999992003022418004-12570-041380FM-12+042799999V0201801N002612200019N0040001N1+03391+01681101101ADDAA106000091GF104991021041004501031051MA1999999096301MD1999999-0161MW1051REMSYN076AAXX  24184 83242 31496 41805 10339 20168 39630 40110 705// 82435 333 59016;EQDQ01  00002PRCP06
0198832420999992003022500004-12570-041380FM-12+042799999V0200901N003110042019N0020001N1+02741+01921101471ADDAA106000091GF108991081061004501999999KA1240M+03401MA1999999096571MD1999999-0041REMSYN088AAXX  25004 83242 32495 80906 10274 20192 39657 40147 886// 333 10340 29061 55094 59004;EQDQ01  00002PRCP06
0186832420999992003022512004-12570-041380FM-12+042799999V0201801N002110042019N0100001N1+02541+01981101401ADDAA106000091GF107991061071004501031001KA1240N+02261MA1999999096531MD1999999-0241REMSYN076AAXX  25124 83242 32497 71804 10254 20198 39653 40140 86730 333 20226 59024;EQDQ01  00002PRCP06
0179832420999992003022518004-12570-041380FM-12+042799999V0201801N002112200019N0040001N1+03331+01671100911ADDAA106000091GF104991021041004501071051MA1999999096111MD1999999-0191MW1051REMSYN076AAXX  25184 83242 31496 41804 10333 20167 39611 40091 705// 82475 333 59019;EQDQ01  00002PRCP06
0198832420999992003022600004-12570-041380FM-12+042799999V0201801N001010042019N0020001N1+02721+01851101091ADDAA106000091GF105991051061004501001001KA1240M+03331MA1999999096231MD1999999-0341REMSYN088AAXX  26004 83242 32495 51802 10272 20185 39623 40109 85600 333 10333 29056 55072 59034;EQDQ01  00002PRCP06
0186832420999992003022612004-12570-041380FM-12+042799999V0201401N001510042019N0100001N1+02601+01791101351ADDAA106000091GF106991051051004501031001KA1240N+02071MA1999999096481MD1999999-0051REMSYN076AAXX  26124 83242 32497 61403 10260 20179 39648 40135 85530 333 20207 59005;EQDQ01  00002PRCP06
0179832420999992003022618004-12570-041380FM-12+042799999V0202301N001510450019N0040001N1+03531+01571100781ADDAA106000091GF108991031021004501031071MA1999999095991MD1999999-0121MW1051REMSYN076AAXX  26184 83242 31496 82303 10353 20157 39599 40078 705// 83237 333 59012;EQDQ01  00002PRCP06
0198832420999992003022700004-12570-041380FM-12+042799999V0209999C000012200019N0020001N1+02701+01601101021ADDAA106000091GF102991021011004501001001KA1240M+03541MA1999999096161MD1999999-0071REMSYN088AAXX  27004 83242 32495 20000 10270 20160 39616 40102 82100 333 10354 29048 55114 59007;EQDQ01  00002PRCP06
0186832420999992003022712004-12570-041380FM-12+042799999V0202301N001012200019N0100001N1+02531+01651101351ADDAA106000091GF103991031011004501001001KA1240N+02111MA1999999096471MD1999999-0011REMSYN076AAXX  27124 83242 32497 32302 10253 20165 39647 40135 83100 333 20211 59001;EQDQ01  00002PRCP06
0167832420999992003022718004-12570-041380FM-12+042799999V0202301N002112200019N0100001N1+03431+01761100791ADDAA106000091GF104991041011004501001001MA1999999096011MD1999999+0021REMSYN070AAXX  27184 83242 32497 42304 10343 20176 39601 40079 84100 333 58002;EQDQ01  00002PRCP06
0208832420999992003022800004-12570-041380FM-12+042799999V0202301N000512200019N0020001N1+02721+01421101181ADDAA106000091GA1001+999999999GF100991001001999999001001KA1240M+03561MA1999999096311MD1999999+0151REMSYN082AAXX  28004 83242 32995 02301 10272 20142 39631 40118 333 10356 29046 55114 58015;EQDQ01  00002PRCP06
0186832420999992003022812004-12570-041380FM-12+042799999V0201401N002110042019N0100001N1+02601+01891101561ADDAA106000091GF106991061051004501001001KA1240N+01971MA1999999096681MD1999999+0211REMSYN076AAXX  28124 83242 32497 61404 10260 20189 39668 40156 86500 333 20197 58021;EQDQ01  00002PRCP06
0167832420999992003022818004-12570-041380FM-12+042799999V0200501N002112200019N0100001N1+03341+01491100911ADDAA106000091GF102991021011004501001001MA1999999096081MD1999999+0071REMSYN070AAXX  28184 83242 32497 20504 10334 20149 39608 40091 82100 333 58007;EQDQ01  00002PRCP06
0208832420999992003030100004-12570-041380FM-12+042799999V0201801N000512200019N0020001N1+02821+01711101131ADDAA106000091GA1001+999999999GF100991001001999999001001KA1240M+03461MA1999999096281MD1999999-0041REMSYN082AAXX  01004 83242 32995 01801 10282 20171 39628 40113 333 10346 29050 55108 59004;EQDQ01  00002PRCP06
0186832420999992003030112004-12570-041380FM-12+042799999V0201401N001510075019N0020001N1+02561+02041101451ADDAA106000091GF106991061061008001001001KA1240N+02131MA1999999096581MD1999999-0101REMSYN076AAXX  01124 83242 32595 61403 10256 20204 39658 40145 86600 333 20213 59010;EQDQ01  00002PRCP06
0179832420999992003030118004-12570-041380FM-12+042799999V0201801N002110450019N0040001N1+03161+01691100961ADDAA106000091GF108991031041004501061011MA1999999096121MD1999999+0041MW1051REMSYN076AAXX  01184 83242 31496 81804 10316 20169 39612 40096 705// 83461 333 58004;EQDQ01  00002PRCP06
0198832420999992003030200004-12570-041380FM-12+042799999V0202301N000510042019N0020001N1+02721+01821101071ADDAA106000091GF105991051051004501001001KA1240M+03261MA1999999096211MD1999999-0071REMSYN088AAXX  02004 83242 32495 52301 10272 20182 39621 40107 85500 333 10326 29058 55058 59007;EQDQ01  00002PRCP06
0198832420999992003030212004-12570-041380FM-12+042799999V0201401N001010042019N0040001N1+02581+01991101311ADDAA106000091GF108991081061004501999999KA1240N+02301MA1999999096441MD1999999-0141MW1051REMSYN082AAXX  02124 83242 31496 81402 10258 20199 39644 40131 705// 886// 333 20230 59014;EQDQ01  00002PRCP06
0179832420999992003030218004-12570-041380FM-12+042799999V0201801N001010042019N0040001N1+03061+01991100841ADDAA106000091GF108991081071004501999999MA1999999096011MD1999999-0111MW1051REMSYN076AAXX  02184 83242 31496 81802 10306 20199 39601 40084 705// 887// 333 59011;EQDQ01  00002PRCP06
0198832420999992003030300004-12570-041380FM-12+042799999V0201401N000510042019N0020001N1+02751+02041101011ADDAA106000091GF106991061061004501001001KA1240M+03161MA1999999096151MD1999999-0061REMSYN088AAXX  03004 83242 32495 61401 10275 20204 39615 40101 86600 333 10316 29063 55020 59006;EQDQ01  00002PRCP06
0186832420999992003030312004-12570-041380FM-12+042799999V0201801N001510042019N0100001N1+02661+01971101301ADDAA106000091GF106991051051004501061001KA1240N+02051MA1999999096441MD1999999+0001REMSYN076AAXX  03124 83242 32497 61803 10266 20197 39644 40130 85560 333 20205 58000;EQDQ01  00002PRCP06
0195832420999992003030318004-12570-041380FM-12+042799999V0201401N001510042019N0040001N1+03371+01791100751ADDAA106000091GF108991999061004501051061MA1999999095971MD1999999-0041MW1051REMSYN076AAXX  03184 83242 31496 81403 10337 20179 39597 40075 705// 88656 333 59004;EQDQ01+000082SCOTLCQ02  00002PRCP06
0198832420999992003030400004-12570-041380FM-12+042799999V0201801N001512200019N0020001N1+02841+01961101041ADDAA106000091GF103991031051004501001001KA1240M+03441MA1999999096201MD1999999+0051REMSYN088AAXX  04004 83242 32495 31803 10284 20196 39620 40104 83500 333 10344 29056 55071 58005;EQDQ01  00002PRCP06
0186832420999992003030412004-12570-041380FM-12+042799999V0201801N002110042019N0100001N1+02631+01951101451ADDAA106000091GF106991051051004501051001KA1240N+02071MA1999999096611MD1999999+0171REMSYN076AAXX  04124 83242 32497 61804 10263 20195 39661 40145 85550 333 20207 58017;EQDQ01  00002PRCP06
0167832420999992003030418004-12570-041380FM-12+042799999V0201401N002110042019N0100001N1+03331+01541101001ADDAA106000091GF108991061051004501031061MA1999999096181MD1999999+0211REMSYN070AAXX  04184 83242 32497 81404 10333 20154 39618 40100 86536 333 58021;EQDQ01  00002PRCP06
0186832420999992003030512004-12570-041380FM-12+042799999V0201801N002110042019N0100001N1+02521+02021101471ADDAA106000091GF107991061071004501031001KA1240N+02261MA1999999096591MD1999999-0021REMSYN076AAXX  05124 83242 32497 71804 10252 20202 39659 40147 86730 333 20226 59002;EQDQ01  00002PRCP06
0179832420999992003030518004-12570-041380FM-12+042799999V0201401N001510450019N0040001N1+03461+01781100791ADDAA106000091GF105991041051004501031001MA1999999096001MD1999999-0181MW1051REMSYN076AAXX  05184 83242 31496 51403 10346 20178 39600 40079 705// 84530 333 59018;EQDQ01  00002PRCP06
0198832420999992003030600004-12570-041380FM-12+042799999V0201801N001512200019N0020001N1+02601+01891101071ADDAA106000091GF103991031071004501001001KA1240M+03461MA1999999096211MD1999999-0061REMSYN088AAXX  06004 83242 32495 31803 10260 20189 39621 40107 83700 333 10346 29060 55083 59006;EQDQ01  00002PRCP06
0186832420999992003030612004-12570-041380FM-12+042799999V0202001N001010042019N0100001N1+02521+01911101321ADDAA106000091GF107991061071004501031001KA1240N+02051MA1999999096431MD1999999-0161REMSYN076AAXX  06124 83242 32497 72002 10252 20191 39643 40132 86730 333 20205 59016;EQDQ01  00002PRCP06
0179832420999992003030618004-12570-041380FM-12+042799999V0202301N001012200019N0040001N1+03371+01711100671ADDAA106000091GF104991021041004501091011MA1999999095841MD1999999-0161MW1051REMSYN076AAXX  06184 83242 31496 42302 10337 20171 39584 40067 705// 82491 333 59016;EQDQ01  00002PRCP06
0198832420999992003030700004-12570-041380FM-12+042799999V0200501N000512200019N0020001N1+02741+01891101061ADDAA106000091GF104991041071004501001001KA1240M+03441MA1999999096201MD1999999-0011REMSYN088AAXX  07004 83242 32495 40501 10274 20189 39620 40106 84700 333 10344 29057 55097 59001;EQDQ01  00002PRCP06
0186832420999992003030712004-12570-041380FM-12+042799999V0200501N001010042019N0100001N1+02581+01921101381ADDAA106000091GF106991051071004501031001KA1240N+02191MA1999999096491MD1999999+0061REMSYN076AAXX  07124 83242 32497 60502 10258 20192 39649 40138 85730 333 20219 58006;EQDQ01  00002PRCP06
0179832420999992003030718004-12570-041380FM-12+042799999V0201401N002110450019N0040001N1+03371+01751100841ADDAA106000091GF105991031051004501091081MA1999999096031MD1999999+0191MW1051REMSYN076AAXX  07184 83242 31496 51404 10337 20175 39603 40084 705// 83598 333 58019;EQDQ01  00002PRCP06
0202832420999992003030800004-12570-041380FM-12+042799999V0201801N001510042019N0020001N1+02541+02141101181ADDAY151061AY211061GF108991081071004501999999KA1240M+03451MA1999999096301MD1999999+0101MW1031REMSYN100AAXX  08004 83242 21495 81803 10254 20214 39630 40118 70351 887// 333 10345 29062 55102 58010 69901;
0198832420999992003030812004-12570-041380FM-12+042799999V0201801N000510042019N0040001N1+02471+01941101441ADDAA106000091GF107991061071004501041001KA1240N+02131MA1999999096541MD1999999+0071MW1051REMSYN082AAXX  08124 83242 31496 71801 10247 20194 39654 40144 705// 86740 333 20213 58007;EQDQ01  00002PRCP06
0198832420999992003030900004-12570-041380FM-12+042799999V0202301N000512200019N0020001N1+02621+01531101051ADDAA106000091GF102991021011004501001001KA1240M+03421MA1999999096171MD1999999-0131REMSYN088AAXX  09004 83242 32495 22301 10262 20153 39617 40105 82100 333 10342 29051 55100 59013;EQDQ01  00002PRCP06
0186832420999992003030912004-12570-041380FM-12+042799999V0201801N001510042019N0100001N1+02541+01911101411ADDAA106000091GF107991051051004501031011KA1240N+02071MA1999999096531MD1999999-0011REMSYN076AAXX  09124 83242 32497 71803 10254 20191 39653 40141 85531 333 20207 59001;EQDQ01  00002PRCP06
0167832420999992003030918004-12570-041380FM-12+042799999V0201801N002110450019N0100001N1+03361+01601100811ADDAA106000091GF106991031021004501051061MA1999999096031MD1999999-0091REMSYN070AAXX  09184 83242 32497 61804 10336 20160 39603 40081 83256 333 59009;EQDQ01  00002PRCP06
0198832420999992003031000004-12570-041380FM-12+042799999V0202301N000512200019N0020001N1+02861+01721101091ADDAA106000091GF103991031001022501051001KA1240M+03481MA1999999096241MD1999999+0071REMSYN088AAXX  10004 83242 32895 32301 10286 20172 39624 40109 83050 333 10348 29051 55097 58007;EQDQ01  00002PRCP06
0186832420999992003031012004-12570-041380FM-12+042799999V0201801N001010042019N0100001N1+02561+01951101271ADDAA106000091GF108991061071004501051001KA1240N+02111MA1999999096411MD1999999-0121REMSYN076AAXX  10124 83242 32497 81802 10256 20195 39641 40127 86750 333 20211 59012;EQDQ01  00002PRCP06
0167832420999992003031018004-12570-041380FM-12+042799999V0201801N002110042019N0100001N1+03281+01701100811ADDAA106000091GF107991061061004501081001MA1999999096011MD1999999-0021REMSYN070AAXX  10184 83242 32497 71804 10328 20170 39601 40081 86680 333 59002;EQDQ01  00002PRCP06
0198832420999992003031100004-12570-041380FM-12+042799999V0201801N001510042019N0020001N1+02741+01871101181ADDAA106000091GF108991081071004501999999KA1240M+03281MA1999999096321MD1999999+0081REMSYN088AAXX  11004 83242 32495 81803 10274 20187 39632 40118 887// 333 10328 29057 55038 58008;EQDQ01  00002PRCP06
0190832420999992003031112004-12570-041380FM-12+042799999V0201801N002110042019N0040001N1+02581+02101101371ADDAY151061AY221061GF108991081071004501999999KA1240N+02261MA1999999096501MD1999999+0091MW1051REMSYN088AAXX  11124 83242 21496 81804 10258 20210 39650 40137 70552 887// 333 20226 58009 69924;
0195832420999992003031118004-12570-041380FM-12+042799999V0201801N001510042019N0040001N1+03371+01871100681ADDAA106000091AY151061AY221061GF107991051061004501031041MA1999999095881MD1999999-0131MW1151REMSYN076AAXX  11184 83242 31496 71803 10337 20187 39588 40068 71552 85634 333 59013;EQDQ01  00002PRCP06
0202832420999992003031200004-12570-041380FM-12+042799999V0200901N000510042019N0020001N1+02321+02201101381ADDAY191061AY261061GF108991081071004501999999KA1240M+03401MA1999999096371MD1999999+0051MW1031REMSYN100AAXX  12004 83242 21495 80901 10232 20220 39637 40138 70396 887// 333 10340 29076 55061 58005 60041;
0174832420999992003031212004-12570-041380FM-12+042799999V0201801N001510042019N0040001N1+02521+02021101351ADDGF107991061071004501051001KA1240N+02091MA1999999096431MD1999999-0071MW1051REMSYN088AAXX  12124 83242 21496 71803 10252 20202 39643 40135 705// 86750 333 20209 59007 60044;
0179832420999992003031218004-12570-041380FM-12+042799999V0203201N001010042019N0040001N1+03281+01741100761ADDAA106000091GF108991051061004501031071MA1999999095921MD1999999+0041MW1051REMSYN076AAXX  12184 83242 31496 83202 10328 20174 39592 40076 705// 85637 333 58004;EQDQ01  00002PRCP06
0198832420999992003031300004-12570-041380FM-12+042799999V0200501N001010450019N0020001N1+02641+02091100991ADDAA106000091GF107991031071004501081001KA1240M+03361MA1999999096131MD1999999-0241REMSYN088AAXX  13004 83242 32495 70502 10264 20209 39613 40099 83780 333 10336 29064 55082 59024;EQDQ01  00002PRCP06
0198832420999992003031312004-12570-041380FM-12+042799999V0201801N001510042019N0040001N1+02441+02061101291ADDAA106000091GF108991081071004501999999KA1240N+02091MA1999999096401MD1999999-0041MW1101REMSYN082AAXX  13124 83242 31496 81803 10244 20206 39640 40129 710// 887// 333 20209 59004;EQDQ01  00002PRCP06
0179832420999992003031318004-12570-041380FM-12+042799999V0202301N001510450019N0040001N1+03261+01761100731ADDAA106000091GF108991041041004501091071MA1999999095921MD1999999+0001MW1051REMSYN076AAXX  13184 83242 31496 82303 10326 20176 39592 40073 705// 84497 333 58000;EQDQ01  00002PRCP06
0198832420999992003031400004-12570-041380FM-12+042799999V0202701N000510042019N0020001N1+02761+02041101041ADDAA106000091GF107991051061004501051001KA1240M+03321MA1999999096171MD1999999+0041REMSYN088AAXX  14004 83242 32495 72701 10276 20204 39617 40104 85650 333 10332 29063 55052 58004;EQDQ01  00002PRCP06
0179832420999992003031418004-12570-041380FM-12+042799999V0201401N001010450019N0040001N1+03401+01811100671ADDAA106000091GF106991041061004501051081MA1999999095871MD1999999-0051MW1051REMSYN076AAXX  14184 83242 31496 61402 10340 20181 39587 40067 705// 84658 333 59005;EQDQ01  00002PRCP06
0198832420999992003031500004-12570-041380FM-12+042799999V0202301N001510450019N0020001N1+02781+01931101001ADDAA106000091GF105991041071004501031001KA1240M+03461MA1999999096201MD1999999+0031REMSYN088AAXX  15004 83242 32495 52303 10278 20193 39620 40100 84730 333 10346 29059 55070 58003;EQDQ01  00002PRCP06
0186832420999992003031512004-12570-041380FM-12+042799999V0201801N002110042019N0100001N1+02661+02021101481ADDAA106000091GF108991051051004501041071KA1240N+02271MA1999999096611MD1999999+0151REMSYN076AAXX  15124 83242 32497 81804 10266 20202 39661 40148 85547 333 20227 58015;EQDQ01  00002PRCP06
0179832420999992003031518004-12570-041380FM-12+042799999V0201401N002110450019N0040001N1+03591+01771100771ADDAA106000091GF108991031021004501051071MA1999999095991MD1999999+0021MW1051REMSYN076AAXX  15184 83242 31496 81404 10359 20177 39599 40077 705// 83257 333 58002;EQDQ01  00002PRCP06
0196832420999992003031600004-12570-041380FM-12+042799999V0209999C000019999999N0020001N1+02501+02251101271ADDAY161061AY221061GF107991999999004501999999KA1240M+03561MA1999999096391MD1999999+0191MW1031REMSYN094AAXX  16004 83242 21495 70000 10250 20225 39639 40127 70362 333 10356 29068 55096 58019 60051;
0162832420999992003031612004-12570-041380FM-12+042799999V0201801N001510042019N0100001N1+02551+02081101521ADDGF107991061071004501041001KA1240N+02111MA1999999096611MD1999999+0001REMSYN082AAXX  16124 83242 22497 71803 10255 20208 39661 40152 86740 333 20211 58000 60054;
0179832420999992003031618004-12570-041380FM-12+042799999V0201801N002110450019N0040001N1+03491+01771100751ADDAA106000091GF108991031041004501041071MA1999999095941MD1999999-0051MW1051REMSYN076AAXX  16184 83242 31496 81804 10349 20177 39594 40075 705// 83447 333 59005;EQDQ01  00002PRCP06
0198832420999992003031700004-12570-041380FM-12+042799999V0209999C000010042019N0020001N1+02661+02021101261ADDAA106000091GF107991071071004501001001KA1240M+03501MA1999999096381MD1999999-0011REMSYN088AAXX  17004 83242 32495 70000 10266 20202 39638 40126 87700 333 10350 29062 55089 59001;EQDQ01  00002PRCP06
0190832420999992003031712004-12570-041380FM-12+042799999V0201801N001510042019N0040001N1+02541+02091101341ADDAY151061AY221061GF107991061071004501031001KA1240N+02151MA1999999096461MD1999999-0151MW1051REMSYN088AAXX  17124 83242 21496 71803 10254 20209 39646 40134 70552 86730 333 20215 59015 69914;
0179832420999992003031718004-12570-041380FM-12+042799999V0201801N001010042019N0040001N1+03511+01741100551ADDAA106000091GF106991051071004501051001MA1999999095751MD1999999-0191MW1151REMSYN076AAXX  17184 83242 31496 61802 10351 20174 39575 40055 715// 85750 333 59019;EQDQ01  00002PRCP06
0198832420999992003031800004-12570-041380FM-12+042799999V0201801N000510450019N0020001N1+02781+01931100971ADDAA106000091GF106991041071004501061001KA1240M+03521MA1999999096121MD1999999-0261REMSYN088AAXX  18004 83242 32495 61801 10278 20193 39612 40097 84760 333 10352 29058 55089 59026;EQDQ01  00002PRCP06
0190832420999992003031812004-12570-041380FM-12+042799999V0201801N001510042019N0040001N1+02421+02171101351ADDAY191061AY261061GF107991061071004501051001KA1240N+01891MA1999999096471MD1999999+0011MW1101REMSYN088AAXX  18124 83242 21496 71803 10242 20217 39647 40135 71096 86750 333 20189 58001 60534;
0179832420999992003031818004-12570-041380FM-12+042799999V0202301N001510450019N0040001N1+03241+01861100781ADDAA106000091GF105991041061004501031081MA1999999095941MD1999999+0191MW1051REMSYN076AAXX  18184 83242 31496 52303 10324 20186 39594 40078 705// 84638 333 58019;EQDQ01  00002PRCP06
0198832420999992003032000004-12570-041380FM-12+042799999V0200501N000510042019N0020001N1+02451+02071101341ADDAA106000091GF107991061071004501051001KA1240M+03041MA1999999096431MD1999999+0061REMSYN088AAXX  20004 83242 32495 70501 10245 20207 39643 40134 86750 333 10304 29074 55047 58006;EQDQ01  00002PRCP06
0186832420999992003032012004-12570-041380FM-12+042799999V0201801N002110042019N0100001N1+02421+02011101561ADDAA106000091GF107991061071004501041001KA1240N+02151MA1999999096641MD1999999-0011REMSYN076AAXX  20124 83242 32497 71804 10242 20201 39664 40156 86740 333 20215 59001;EQDQ01  00002PRCP06
0179832420999992003032018004-12570-041380FM-12+042799999V0201801N002110042019N0040001N1+03161+01791101041ADDAA106000091GF106991051061004501091001MA1999999096181MD1999999-0061MW1151REMSYN076AAXX  20184 83242 31496 61804 10316 20179 39618 40104 715// 85690 333 59006;EQDQ01  00002PRCP06
0202832420999992003032100004-12570-041380FM-12+042799999V0202701N001010042019N0020001N1+02251+02111101391ADDAY161061AY221061GF108991081071004501999999KA1240M+03241MA1999999096461MD1999999+0031MW1031REMSYN100AAXX  21004 83242 21495 82702 10225 20211 39646 40139 70362 887// 333 10324 29076 55053 58003 60201;
0162832420999992003032112004-12570-041380FM-12+042799999V0202301N001510042019N0100001N1+02441+02031101441ADDGF108991081071004501999999KA1240N+02051MA1999999096511MD1999999-0131REMSYN082AAXX  21124 83242 22497 82303 10244 20203 39651 40144 887// 333 20205 59013 60204;
0179832420999992003032118004-12570-041380FM-12+042799999V0203201N001510450019N0040001N1+03121+01791100811ADDAA106000091GF106991041061004501081031MA1999999095961MD1999999-0221MW1051REMSYN076AAXX  21184 83242 31496 63203 10312 20179 39596 40081 705// 84683 333 59022;EQDQ01  00002PRCP06
0190832420999992003032812004-12570-041380FM-12+042799999V0201801N002110042019N0100001N1+02531+01981101511ADDAY151061AY211061GF108991051071004501001061KA1240N+02141MA1999999096601MD1999999+0051MW1031REMSYN088AAXX  28124 83242 21497 81804 10253 20198 39660 40151 70351 85706 333 20214 58005 69994;
0167832420999992003032818004-12570-041380FM-12+042799999V0201801N002110042019N0100001N1+03181+01941100971ADDAA106000091GF106991051031004501081021MA1999999096131MD1999999-0071REMSYN070AAXX  28184 83242 32497 61804 10318 20194 39613 40097 85382 333 59007;EQDQ01  00002PRCP06
0198832420999992003032900004-12570-041380FM-12+042799999V0200501N001010042019N0020001N1+02701+02081101291ADDAA106000091GF108991081071004501999999KA1240M+03281MA1999999096411MD1999999+0041REMSYN088AAXX  29004 83242 32495 80502 10270 20208 39641 40129 887// 333 10328 29064 55110 58004;EQDQ01  00002PRCP06
0186832420999992003032912004-12570-041380FM-12+042799999V0201801N003110042019N0040001N1+02441+02071101501ADDAA106000091GF107991061071004501081001KA1240N+02301MA1999999096601MD1999999+0001REMSYN076AAXX  29124 83242 32496 71806 10244 20207 39660 40150 86780 333 20230 58000;EQDQ01  00002PRCP06
0167832420999992003032918004-12570-041380FM-12+042799999V0201801N001510042019N0100001N1+02951+02051100981ADDAA106000091GF107991061071004501081001MA1999999096121MD1999999-0011REMSYN070AAXX  29184 83242 32497 71803 10295 20205 39612 40098 86780 333 59001;EQDQ01  00002PRCP06
0198832420999992003033000004-12570-041380FM-12+042799999V0201801N000510042019N0020001N1+02581+02061101161ADDAA106000091GF107991071071004501001001KA1240M+03021MA1999999096121MD1999999-0141REMSYN088AAXX  30004 83242 32495 71801 10258 20206 39612 40116 87700 333 10302 29071 55037 59014;EQDQ01  00002PRCP06
0198832420999992003033012004-12570-041380FM-12+042799999V0203601N000510042019N0040001N1+02441+02071101381ADDAA106000091GF107991071071004501001001KA1240N+02321MA1999999096481MD1999999-0121MW1051REMSYN082AAXX  30124 83242 31496 73601 10244 20207 39648 40138 705// 87700 333 20232 59012;EQDQ01  00002PRCP06
0167832420999992003033018004-12570-041380FM-12+042799999V0201401N001010450019N0100001N1+02901+01991100921ADDAA106000091GF106991031071004501031031MA1999999096061MD1999999-0061REMSYN070AAXX  30184 83242 32497 61402 10290 20199 39606 40092 83733 333 59006;EQDQ01  00002PRCP06
0208832420999992003033100004-12570-041380FM-12+042799999V0201801N000512200019N0020001N1+02601+02061101121ADDAA106000091GA1001+999999999GF100991001001999999001001KA1240M+03071MA1999999096231MD1999999+0111REMSYN082AAXX  31004 83242 32995 01801 10260 20206 39623 40112 333 10307 29070 55035 58011;EQDQ01  00002PRCP06
0186832420999992003033112004-12570-041380FM-12+042799999V0201801N001510042019N0040001N1+02421+01971101351ADDAA106000091GF107991071071004501001001KA1240N+02211MA1999999096451MD1999999-0031REMSYN076AAXX  31124 83242 32496 71803 10242 20197 39645 40135 87700 333 20221 59003;EQDQ01  00002PRCP06
0167832420999992003033118004-12570-041380FM-12+042799999V0201801N001010450019N0100001N1+02981+02011100931ADDAA106000091GF106991021031004501051021MA1999999096081MD1999999+0021REMSYN070AAXX  31184 83242 32497 61802 10298 20201 39608 40093 82352 333 58002;EQDQ01  00002PRCP06
0198832420999992003040100004-12570-041380FM-12+042799999V0202701N001012200019N0020001N1+02611+02011101111ADDAA106000091GF104991041051004501001001KA1240M+03101MA1999999096221MD1999999-0011REMSYN088AAXX  01004 83242 32495 42702 10261 20201 39622 40111 84500 333 10310 29068 55029 59001;EQDQ01  00002PRCP06
0186832420999992003040112004-12570-041380FM-12+042799999V0201401N001010042019N0100001N1+02581+02041101471ADDAA106000091GF107991061071004501031001KA1240N+02051MA1999999096581MD1999999+0131REMSYN076AAXX  01124 83242 32497 71402 10258 20204 39658 40147 86730 333 20205 58013;EQDQ01  00002PRCP06
0167832420999992003040118004-12570-041380FM-12+042799999V0200501N001010042019N0100001N1+03001+01911101111ADDAA106000091GF106991051061004501051001MA1999999096241MD1999999+0161REMSYN070AAXX  01184 83242 32497 60502 10300 20191 39624 40111 85650 333 58016;EQDQ01  00002PRCP06
0198832420999992003040200004-12570-041380FM-12+042799999V0201401N001010042019N0020001N1+02601+02011101201ADDAA106000091GF105991051061004501001001KA1240M+03101MA1999999096331MD1999999+0111REMSYN088AAXX  02004 83242 32495 51402 10260 20201 39633 40120 85600 333 10310 29066 55061 58011;EQDQ01  00002PRCP06
0186832420999992003040212004-12570-041380FM-12+042799999V0201801N001510450019N0100001N1+02551+02021101521ADDAA106000091GF106991041071004501031001KA1240N+02151MA1999999096631MD1999999+0051REMSYN076AAXX  02124 83242 32497 61803 10255 20202 39663 40152 84730 333 20215 58005;EQDQ01  00002PRCP06
0179832420999992003040218004-12570-041380FM-12+042799999V0201801N001512200019N0040001N1+03241+01751101041ADDAA106000091GF104991031041004501021001MA1999999096201MD1999999-0041MW1051REMSYN076AAXX  02184 83242 31496 41803 10324 20175 39620 40104 705// 83420 333 59004;EQDQ01  00002PRCP06
0198832420999992003040300004-12570-041380FM-12+042799999V0202301N001012200019N0020001N1+02581+01851101201ADDAA106000091GF103991031061004501001001KA1240M+03331MA1999999096321MD1999999-0011REMSYN088AAXX  03004 83242 32495 32302 10258 20185 39632 40120 83600 333 10333 29060 55100 59001;EQDQ01  00002PRCP06
0186832420999992003040312004-12570-041380FM-12+042799999V0202301N000510042019N0100001N1+02501+01961101461ADDAA106000091GF106991051071004501031001KA1240N+01951MA1999999096561MD1999999-0071REMSYN076AAXX  03124 83242 32497 62301 10250 20196 39656 40146 85730 333 20195 59007;EQDQ01  00002PRCP06
0179832420999992003040318004-12570-041380FM-12+042799999V0201401N001511050019N0040001N1+03201+01751100881ADDAA106000091GF108991031041004501001071MA1999999096041MD1999999-0161MW1051REMSYN076AAXX  03184 83242 31496 81403 10320 20175 39604 40088 705// 83407 333 59016;EQDQ01  00002PRCP06
0198832420999992003040400004-12570-041380FM-12+042799999V0201401N000510042019N0020001N1+02801+01721101121ADDAA106000091GF108991081061004501999999KA1240M+03251MA1999999096261MD1999999-0061REMSYN088AAXX  04004 83242 32495 81401 10280 20172 39626 40112 886// 333 10325 29054 55090 59006;EQDQ01  00002PRCP06
0198832420999992003040412004-12570-041380FM-12+042799999V0201401N001010042019N0040001N1+02481+01851101351ADDAA106000091GF108991051041004501081051KA1240N+02011MA1999999096481MD1999999-0081MW1051REMSYN082AAXX  04124 83242 31496 81402 10248 20185 39648 40135 705// 85485 333 20201 59008;EQDQ01  00002PRCP06
0179832420999992003040418004-12570-041380FM-12+042799999V0202301N000510450019N0040001N1+03091+01871100811ADDAA106000091GF106991041041004501011011MA1999999095961MD1999999-0081MW1051REMSYN076AAXX  04184 83242 31496 62301 10309 20187 39596 40081 705// 84411 333 59008;EQDQ01  00002PRCP06
0198832420999992003040500004-12570-041380FM-12+042799999V0202701N001012200019N0020001N1+02591+01841101301ADDAA106000091GF103991031061004501001001KA1240M+03281MA1999999096151MD1999999-0111REMSYN088AAXX  05004 83242 32495 32702 10259 20184 39615 40130 83600 333 10328 29061 55108 59011;EQDQ01  00002PRCP06
0186832420999992003040512004-12570-041380FM-12+042799999V0201401N000510042019N0100001N1+02601+01961101371ADDAA106000091GF106991051071004501041001KA1240N+02171MA1999999096491MD1999999+0011REMSYN076AAXX  05124 83242 32497 61401 10260 20196 39649 40137 85740 333 20217 58001;EQDQ01  00002PRCP06
0179832420999992003040518004-12570-041380FM-12+042799999V0202301N001010450019N0040001N1+03251+01801100721ADDAA106000091GF106991031021004501061061MA1999999095911MD1999999-0051MW1051REMSYN076AAXX  05184 83242 31496 62302 10325 20180 39591 40072 705// 83266 333 59005;EQDQ01  00002PRCP06
0208832420999992003040600004-12570-041380FM-12+042799999V0209999C000012200019N0020001N1+02691+01881100981ADDAA106000091GA1001+999999999GF100991001001999999001001KA1240M+03381MA1999999096041MD1999999-0111REMSYN082AAXX  06004 83242 31995 00000 10269 20188 39604 40098 333 10338 29058 55093 59011;EQDQ01  00002PRCP06
0198832420999992003040612004-12570-041380FM-12+042799999V0200501N001010042019N0200001N1+02601+02011101301ADDAA106000091GF106991051061004501021071KA1240N+02281MA1999999096431MD1999999-0061MW1051REMSYN082AAXX  06124 83242 31498 60502 10260 20201 39643 40130 705// 85627 333 20228 59006;EQDQ01  00002PRCP06
0179832420999992003040618004-12570-041380FM-12+042799999V0201401N002111050019N0040001N1+03341+01801100591ADDAA106000091GF108991031041004501001071MA1999999095791MD1999999-0011MW1051REMSYN076AAXX  06184 83242 31496 81404 10334 20180 39579 40059 705// 83407 333 59001;EQDQ01  00002PRCP06
0198832420999992003040700004-12570-041380FM-12+042799999V0200501N001010042019N0020001N1+02951+02021100711ADDAA106000091GF106991061061004501001001KA1240M+03501MA1999999095901MD1999999-0141REMSYN088AAXX  07004 83242 32495 60502 10295 20202 39590 40071 86600 333 10350 29054 55088 59014;EQDQ01  00002PRCP06
0198832420999992003040712004-12570-041380FM-12+042799999V0202301N001510450019N0040001N1+02601+02141100961ADDAA106000091GF107991041071004501031051KA1240N+02341MA1999999096141MD1999999-0291MW1051REMSYN082AAXX  07124 83242 31496 72303 10260 20214 39614 40096 705// 84735 333 20234 59029;EQDQ01  00002PRCP06
0179832420999992003040718004-12570-041380FM-12+042799999V0201401N002110450019N0040001N1+03571+01791100341ADDAA106000091GF108991041061004501091071MA1999999095611MD1999999-0181MW1051REMSYN076AAXX  07184 83242 31496 81404 10357 20179 39561 40034 705// 84697 333 59018;EQDQ01  00002PRCP06
0210832420999992003040800004-12570-041380FM-12+042799999V0200501N001510042019N0020001N1+02961+01991100611ADDAA106000091GF106991061071004501001001KA1240M+03581MA1999999095811MD1999999-0091MW1131REMSYN094AAXX  08004 83242 31495 60503 10296 20199 39581 40061 713// 86700 333 10358 29056 55070 59009;EQDQ01  00002PRCP06
0190832420999992003040812004-12570-041380FM-12+042799999V0202701N001010042019N0020001N1+02461+02171101181ADDAY151061AY221061GF108991081071004501999999KA1240N+02381MA1999999096331MD1999999+0191MW1101REMSYN088AAXX  08124 83242 21495 82702 10246 20217 39633 40118 71052 887// 333 20238 58019 69904;
0171832420999992003040818004-12570-041380FM-12+042799999V0202301N002110450019N0040001N1+03001+02031100661ADDAY151061AY221061GF108991041061004501031071MA1999999095831MD1999999+0221MW1051REMSYN082AAXX  08184 83242 21496 82304 10300 20203 39583 40066 70552 84637 333 58022 69901;
0210832420999992003040900004-12570-041380FM-12+042799999V0201801N001510042019N0020001N1+02641+02121101051ADDAA106000091GF107991071071004501001001KA1240M+03121MA1999999096171MD1999999+0361MW1131REMSYN094AAXX  09004 83242 31495 71803 10264 20212 39617 40105 713// 87700 333 10312 29073 55055 58036;EQDQ01  00002PRCP06
0186832420999992003040912004-12570-041380FM-12+042799999V0201801N002110042019N0040001N1+02541+02021101401ADDAA106000091GF107991061071004501081001KA1240N+02341MA1999999096521MD1999999+0191REMSYN076AAXX  09124 83242 32496 71804 10254 20202 39652 40140 86780 333 20234 58019;EQDQ01  00002PRCP06
0179832420999992003040918004-12570-041380FM-12+042799999V0201801N002110042019N0040001N1+03221+01731100921ADDAA106000091GF106991051071004501021001MA1999999096111MD1999999+0281MW1151REMSYN076AAXX  09184 83242 31496 61804 10322 20173 39611 40092 715// 85720 333 58028;EQDQ01  00002PRCP06
0198832420999992003041000004-12570-041380FM-12+042799999V0209999C000012200019N0020001N1+02681+01991101191ADDAA106000091GF104991021071004501081001KA1240M+03261MA1999999096321MD1999999+0151REMSYN088AAXX  10004 83242 32495 40000 10268 20199 39632 40119 82780 333 10326 29062 55087 58015;EQDQ01  00002PRCP06
0198832420999992003041012004-12570-041380FM-12+042799999V0202701N000510450019N0040001N1+02521+02001101471ADDAA106000091GF106991041051004501041001KA1240N+02321MA1999999096581MD1999999-0061MW1051REMSYN082AAXX  10124 83242 31496 62701 10252 20200 39658 40147 705// 84540 333 20232 59006;EQDQ01  00002PRCP06
0179832420999992003041018004-12570-041380FM-12+042799999V0203201N001510450019N0040001N1+03371+01621100871ADDAA106000091GF108991031051004501011071MA1999999096071MD1999999-0041MW1051REMSYN076AAXX  10184 83242 31496 83203 10337 20162 39607 40087 705// 83517 333 59004;EQDQ01  00002PRCP06
0208832420999992003041100004-12570-041380FM-12+042799999V0201801N001012200019N0020001N1+02591+01821101111ADDAA106000091GA1001+999999999GF100991001001999999001001KA1240M+03381MA1999999096231MD1999999-0091REMSYN082AAXX  11004 83242 32995 01802 10259 20182 39623 40111 333 10338 29058 55097 59009;EQDQ01  00002PRCP06
0186832420999992003041112004-12570-041380FM-12+042799999V0201401N001010450019N0100001N1+02521+01981101451ADDAA106000091GF105991031021004501081001KA1240N+02051MA1999999096551MD1999999-0031REMSYN076AAXX  11124 83242 32497 51402 10252 20198 39655 40145 83280 333 20205 59003;EQDQ01  00002PRCP06
0179832420999992003041118004-12570-041380FM-12+042799999V0203201N000512200019N0040001N1+03371+01711100841ADDAA106000091GF103991031031004501001001MA1999999096031MD1999999-0041MW1051REMSYN076AAXX  11184 83242 31496 33201 10337 20171 39603 40084 705// 83300 333 59004;EQDQ01  00002PRCP06
0208832420999992003041200004-12570-041380FM-12+042799999V0200501N000512200019N0020001N1+02651+01921101121ADDAA106000091GA1001+999999999GF100991001001999999001001KA1240M+03391MA1999999096251MD1999999+0021REMSYN082AAXX  12004 83242 32995 00501 10265 20192 39625 40112 333 10339 29059 55107 58002;EQDQ01  00002PRCP06
0198832420999992003041212004-12570-041380FM-12+042799999V0201401N001011050019N0040001N1+02701+02031101421ADDAA106000091GF108991041011004501001071KA1240N+02081MA1999999096551MD1999999+0001MW1051REMSYN082AAXX  12124 83242 31496 81402 10270 20203 39655 40142 705// 84107 333 20208 58000;EQDQ01  00002PRCP06
0179832420999992003041218004-12570-041380FM-12+042799999V0202301N001011050019N0040001N1+03581+01751100821ADDAA106000091GF108991041031004501001071MA1999999096031MD1999999+0001MW1051REMSYN076AAXX  12184 83242 31496 82302 10358 20175 39603 40082 705// 84307 333 58000;EQDQ01  00002PRCP06
0198832420999992003041300004-12570-041380FM-12+042799999V0201801N003112200019N0020001N1+02931+01911101251ADDAA106000091GF104991031051004501011001KA1240M+03591MA1999999096421MD1999999+0171REMSYN088AAXX  13004 83242 32495 41806 10293 20191 39642 40125 83510 333 10359 29052 55103 58017;EQDQ01  00002PRCP06
0198832420999992003041312004-12570-041380FM-12+042799999V0201801N000510042019N0040001N1+02501+02071101661ADDAA106000091GF106991061071004501021001KA1240N+02321MA1999999096781MD1999999+0231MW1051REMSYN082AAXX  13124 83242 31496 61801 10250 20207 39678 40166 705// 86720 333 20232 58023;EQDQ01  00002PRCP06
0179832420999992003041318004-12570-041380FM-12+042799999V0201801N003110450019N0040001N1+03221+01951101101ADDAA106000091GF106991031031004501081021MA1999999096271MD1999999+0241MW1041REMSYN076AAXX  13184 83242 31496 61806 10322 20195 39627 40110 704// 83382 333 58024;EQDQ01  00002PRCP06
0210832420999992003041400004-12570-041380FM-12+042799999V0201401N001010450019N0010001N1+02841+01821101411ADDAA106000091GF106991041061004501031001KA1240M+03361MA1999999096541MD1999999+0121MW1041REMSYN094AAXX  14004 83242 31494 61402 10284 20182 39654 40141 704// 84630 333 10336 29058 55068 58012;EQDQ01  00002PRCP06
0190832420999992003041412004-12570-041380FM-12+042799999V0201801N003110042019N0020001N1+02321+02131101741ADDAY151061AY221061GF108991081071004501999999KA1240N+02211MA1999999096841MD1999999+0061MW1161REMSYN088AAXX  14124 83242 21495 81806 10232 20213 39684 40174 71652 887// 333 20221 58006 69904;
0190832420999992003041512004-12570-041380FM-12+042799999V0201801N001510042019N0040001N1+02281+02161101621ADDAY161061AY221061GF108991081071004501999999KA1240N+02071MA1999999096691MD1999999-0151MW1161REMSYN088AAXX  15124 83242 21496 81803 10228 20216 39669 40162 71662 887// 333 20207 59015 60034;
0167832420999992003041518004-12570-041380FM-12+042799999V0201801N002110042019N0100001N1+03161+01861101021ADDAA106000091GF106991051071004501031001MA1999999096221MD1999999-0151REMSYN070AAXX  15184 83242 32497 61804 10316 20186 39622 40102 85730 333 59015;EQDQ01  00002PRCP06
0198832420999992003041600004-12570-041380FM-12+042799999V0201801N000510042019N0020001N1+02501+02031101371ADDAA106000091GF106991051071004501051001KA1240M+03181MA1999999096451MD1999999-0191REMSYN088AAXX  16004 83242 32495 61801 10250 20203 39645 40137 85750 333 10318 29072 55065 59019;EQDQ01  00002PRCP06
0186832420999992003041612004-12570-041380FM-12+042799999V0201801N002110450019N0100001N1+02451+01941101631ADDAA106000091GF106991041071004501051061KA1240N+02091MA1999999096711MD1999999+0021REMSYN076AAXX  16124 83242 32497 61804 10245 20194 39671 40163 84756 333 20209 58002;EQDQ01  00002PRCP06
0167832420999992003041618004-12570-041380FM-12+042799999V0201801N002110042019N0100001N1+03041+01751100971ADDAA106000091GF107991051061004501051001MA1999999096121MD1999999-0101REMSYN070AAXX  16184 83242 32497 71804 10304 20175 39612 40097 85650 333 59010;EQDQ01  00002PRCP06
0202832420999992003041700004-12570-041380FM-12+042799999V0201801N002110042019N0020001N1+02531+02041101331ADDAY151061AY221061GF108991081071004501999999KA1240M+03131MA1999999096431MD1999999-0021MW1031REMSYN100AAXX  17004 83242 21495 81804 10253 20204 39643 40133 70352 887// 333 10313 29066 55054 59002 69911;
0174832420999992003041712004-12570-041380FM-12+042799999V0201401N001510450019N0100001N1+02581+01941101531ADDGF105991031021004501031031KA1240N+02221MA1999999096631MD1999999-0081REMSYN094AAXX  17124 83242 22497 51403 10258 20194 39663 40153 83233 333 20222 29066 55054 59008 69914;
0167832420999992003041718004-12570-041380FM-12+042799999V0201801N003110042019N0100001N1+03001+01881101051ADDAA106000091GF107991061071004501081001MA1999999096191MD1999999+0071REMSYN070AAXX  17184 83242 32497 71806 10300 20188 39619 40105 86780 333 58007;EQDQ01  00002PRCP06
0198832420999992003041800004-12570-041380FM-12+042799999V0200901N001510042019N0020001N1+02581+01971101391ADDAA106000091GF107991061071004501031001KA1240M+03141MA1999999096511MD1999999+0081REMSYN088AAXX  18004 83242 32495 70903 10258 20197 39651 40139 86730 333 10314 29064 55064 58008;EQDQ01  00002PRCP06
0184832420999992003041812004-12570-041380FM-12+042799999V0201801N003110042019N0040001N1+02381+01911101591ADDAA106000091GF108991081051004501999999KA1240N+02171MA1999999096681REMSYN088AAXX  18124 83242 32496 81806 10238 20191 39668 40159 885// 333 20217 29066 55054 58005;EQDQ01  00002PRCP06
0171832420999992003041818004-12570-041380FM-12+042799999V0200901N001010042019N0040001N1+02871+02001101211ADDAY121061AY221061GF107991061071004501081001MA1999999096331MD1999999+0141MW1151REMSYN082AAXX  18184 83242 21496 70902 10287 20200 39633 40121 71522 86780 333 58014 69921;
0190832420999992003041912004-12570-041380FM-12+042799999V0201801N001010042019N0040001N1+02181+02011101701ADDAY151061AY241061GF107991061071004501081001KA1240N+02051MA1999999096751MD1999999+0071MW1101REMSYN088AAXX  19124 83242 21496 71802 10218 20201 39675 40170 71054 86780 333 20205 58007 69944;
0171832420999992003041918004-12570-041380FM-12+042799999V0203601N001510042019N0040001N1+02721+02171101231ADDAY151061AY221061GF107991061071004501081001MA1999999096321MD1999999+0011MW1501REMSYN082AAXX  19184 83242 21496 73603 10272 20217 39632 40123 75052 86780 333 58001 69941;
0202832420999992003042000004-12570-041380FM-12+042799999V0200501N001510042019N0020001N1+02181+01921101431ADDAY191061AY261061GF108991081071004501999999KA1240M+03021MA1999999096461MD1999999-0121MW1031REMSYN100AAXX  20004 83242 21495 80503 10218 20192 39646 40143 70396 887// 333 10302 29083 55031 59012 60021;
0190832420999992003042012004-12570-041380FM-12+042799999V0201801N003112200019N0040001N1+02421+02051101571ADDAY151061AY241061GF104991031071004501081001KA1240N+02111MA1999999096621MD1999999-0131MW1031REMSYN088AAXX  20124 83242 21496 41806 10242 20205 39662 40157 70354 83780 333 20211 59013 60024;
0167832420999992003042018004-12570-041380FM-12+042799999V0201401N003110042019N0100001N1+03081+01851100971ADDAA106000091GF106991051031004501051001MA1999999096111MD1999999-0211REMSYN070AAXX  20184 83242 32497 61406 10308 20185 39611 40097 85350 333 59021;EQDQ01  00002PRCP06
0198832420999992003042100004-12570-041380FM-12+042799999V0201801N001012200019N0020001N1+02461+01991101271ADDAA106000091GF102991021071004501001001KA1240M+03161MA1999999096361MD1999999-0101REMSYN088AAXX  21004 83242 32495 21802 10246 20199 39636 40127 82700 333 10316 29070 55094 59010;EQDQ01  00002PRCP06
0186832420999992003042112004-12570-041380FM-12+042799999V0201801N002610042019N0040001N1+02381+01951101601ADDAA106000091GF107991061071004501081001KA1240N+02011MA1999999096671MD1999999+0051REMSYN076AAXX  21124 83242 32496 71805 10238 20195 39667 40160 86780 333 20201 58005;EQDQ01  00002PRCP06
0167832420999992003042118004-12570-041380FM-12+042799999V0201401N003110042019N0100001N1+03021+01691101111ADDAA106000091GF107991061071004501081001MA1999999096251MD1999999+0141REMSYN070AAXX  21184 83242 32497 71406 10302 20169 39625 40111 86780 333 58014;EQDQ01  00002PRCP06
0198832420999992003042200004-12570-041380FM-12+042799999V0201801N003110042019N0020001N1+02521+01861101481ADDAA106000091GF108991081071004501999999KA1240M+03121MA1999999096561MD1999999+0201REMSYN088AAXX  22004 83242 32495 81806 10252 20186 39656 40148 887// 333 10312 29064 55061 58020;EQDQ01  00002PRCP06
0198832420999992003042212004-12570-041380FM-12+042799999V0201801N002610450019N0040001N1+02311+01811101581ADDAA106000091GF106991041071004501031001KA1240N+01971MA1999999096651MD1999999-0021MW1051REMSYN082AAXX  22124 83242 31496 61805 10231 20181 39665 40158 705// 84730 333 20197 59002;EQDQ01  00002PRCP06
0179832420999992003042218004-12570-041380FM-12+042799999V0201401N002112200019N0040001N1+03181+01531101061ADDAA106000091GF104991031031004501031001MA1999999096191MD1999999-0061MW1051REMSYN076AAXX  22184 83242 31496 41404 10318 20153 39619 40106 705// 83330 333 59006;EQDQ01  00002PRCP06
0198832420999992003042300004-12570-041380FM-12+042799999V0201801N000512200019N0020001N1+02491+01621101461ADDAA106000091GF104991041031004501001001KA1240M+03251MA1999999096541MD1999999-0021REMSYN088AAXX  23004 83242 32495 41801 10249 20162 39654 40146 84300 333 10325 29056 55064 59002;EQDQ01  00002PRCP06
0186832420999992003042312004-12570-041380FM-12+042799999V0201801N001510042019N0100001N1+02341+01851101541ADDAA106000091GF107991061071004501041001KA1240N+01871MA1999999096611MD1999999-0041REMSYN076AAXX  23124 83242 32497 71803 10234 20185 39661 40154 86740 333 20187 59004;EQDQ01  00002PRCP06
0179832420999992003042318004-12570-041380FM-12+042799999V0201801N002110450019N0040001N1+03101+01801101051ADDAA106000091GF105991041041004501031001MA1999999096171MD1999999-0021MW1051REMSYN076AAXX  23184 83242 31496 51804 10310 20180 39617 40105 705// 84430 333 59002;EQDQ01  00002PRCP06
0208832420999992003042400004-12570-041380FM-12+042799999V0201801N001012200019N0020001N1+02511+01711101341ADDAA106000091GA1001+999999999GF100991001001999999001001KA1240M+03181MA1999999096421MD1999999-0121REMSYN082AAXX  24004 83242 32995 01802 10251 20171 39642 40134 333 10318 29061 55056 59012;EQDQ01  00002PRCP06
0190832420999992003042412004-12570-041380FM-12+042799999V0201801N000510042019N0100001N1+02271+01961101641ADDAY161061AY251061GF107991061071004501061001KA1240N+01911MA1999999096711MD1999999+0111MW1031REMSYN088AAXX  24124 83242 21497 71801 10227 20196 39671 40164 70365 86760 333 20191 58011 60024;
0171832420999992003042418004-12570-041380FM-12+042799999V0201401N001510042019N0040001N1+02701+01911101281ADDAY151061AY221061GF108991081071004501999999MA1999999096331MD1999999+0161MW1501REMSYN082AAXX  24184 83242 21496 81403 10270 20191 39633 40128 75052 887// 333 58016 69901;
0202832420999992003042500004-12570-041380FM-12+042799999V0200501N000510042019N0020001N1+02391+02031101391ADDAY151061AY221061GF107991071071004501001001KA1240M+02891MA1999999096461MD1999999+0041MW1031REMSYN100AAXX  25004 83242 21495 70501 10239 20203 39646 40139 70352 87700 333 10289 29076 55024 58004 69901;
0190832420999992003042512004-12570-041380FM-12+042799999V0201401N001010042019N0040001N1+02191+02081101571ADDAY161061AY221061GF108991081071004501999999KA1240N+01951MA1999999096621MD1999999-0091MW1101REMSYN088AAXX  25124 83242 21496 81402 10219 20208 39662 40157 71062 887// 333 20195 59009 60024;
0167832420999992003042518004-12570-041380FM-12+042799999V0202301N000510450019N0100001N1+03081+01781101051ADDAA106000091GF106991031041004501081081MA1999999096181MD1999999-0151REMSYN070AAXX  25184 83242 32497 62301 10308 20178 39618 40105 83488 333 59015;EQDQ01  00002PRCP06
0198832420999992003042600004-12570-041380FM-12+042799999V0201401N000510042019N0020001N1+02601+01921101391ADDAA106000091GF108991081071004501999999KA1240M+03181MA1999999096471MD1999999+0011REMSYN088AAXX  26004 83242 32495 81401 10260 20192 39647 40139 887// 333 10318 29068 55062 58001;EQDQ01  00002PRCP06
0190832420999992003042612004-12570-041380FM-12+042799999V0201801N000510042019N0100001N1+02431+02011101651ADDAY151061AY221061GF108991081071004501999999KA1240N+01951MA1999999096741MD1999999+0121MW1031REMSYN088AAXX  26124 83242 21497 81801 10243 20201 39674 40165 70352 887// 333 20195 58012 69914;
0167832420999992003042618004-12570-041380FM-12+042799999V0201401N001510042019N0100001N1+02841+01881101301ADDAA106000091GF108991081061004501999999MA1999999096411MD1999999+0231REMSYN070AAXX  26184 83242 32497 81403 10284 20188 39641 40130 886// 333 58023;EQDQ01  00002PRCP06
0208832420999992003042700004-12570-041380FM-12+042799999V0202301N000512200019N0020001N1+02411+01911101571ADDAA106000091GA1001+999999999GF100991001001999999001001KA1240M+02921MA1999999096641MD1999999+0171REMSYN082AAXX  27004 83242 32995 02301 10241 20191 39664 40157 333 10292 29070 55007 58017;EQDQ01  00002PRCP06
0186832420999992003042712004-12570-041380FM-12+042799999V0201801N000510042019N0100001N1+02391+02011101731ADDAA106000091GF107991071071004501001001KA1240N+02111MA1999999096791MD1999999+0051REMSYN076AAXX  27124 83242 32497 71801 10239 20201 39679 40173 87700 333 20211 58005;EQDQ01  00002PRCP06
0167832420999992003042718004-12570-041380FM-12+042799999V0202301N002111050019N0100001N1+03181+01731101141ADDAA106000091GF105991021041004501021061MA1999999096281MD1999999-0131REMSYN070AAXX  27184 83242 32497 52304 10318 20173 39628 40114 82426 333 59013;EQDQ01  00002PRCP06
0198832420999992003042800004-12570-041380FM-12+042799999V0201401N000510042019N0020001N1+02681+01971101491ADDAA106000091GF108991081071004501999999KA1240M+03221MA1999999096501MD1999999+0141REMSYN088AAXX  28004 83242 32495 81401 10268 20197 39650 40149 887// 333 10322 29063 55060 58014;EQDQ01  00002PRCP06
0190832420999992003042812004-12570-041380FM-12+042799999V0201401N001510042019N0100001N1+02441+02151101501ADDAY161061AY221061GF108991081071004501999999KA1240N+02051MA1999999096601MD1999999-0191MW1031REMSYN088AAXX  28124 83242 21497 81403 10244 20215 39660 40150 70362 887// 333 20205 59019 60044;
0167832420999992003042818004-12570-041380FM-12+042799999V0202301N001510450019N0100001N1+03061+01931101041ADDAA106000091GF106991021051004501091081MA1999999096181MD1999999-0101REMSYN070AAXX  28184 83242 32497 62303 10306 20193 39618 40104 82598 333 59010;EQDQ01  00002PRCP06
0198832420999992003042900004-12570-041380FM-12+042799999V0202301N001010042019N0020001N1+02381+01891101341ADDAA106000091GF108991081071004501999999KA1240M+03061MA1999999096421MD1999999-0081REMSYN088AAXX  29004 83242 32495 82302 10238 20189 39642 40134 887// 333 10306 29071 55057 59008;EQDQ01  00002PRCP06
0186832420999992003042912004-12570-041380FM-12+042799999V0202301N001510042019N0100001N1+02481+02011101551ADDAA106000091GF106991051071004501031001KA1240N+02151MA1999999096631MD1999999+0031REMSYN076AAXX  29124 83242 32497 62303 10248 20201 39663 40155 85730 333 20215 58003;EQDQ01  00002PRCP06
0179832420999992003042918004-12570-041380FM-12+042799999V0202301N001512200019N0040001N1+03261+01721101001ADDAA106000091GF103991031031004501001001MA1999999096161MD1999999-0021MW1051REMSYN076AAXX  29184 83242 31496 32303 10326 20172 39616 40100 705// 83300 333 59002;EQDQ01  00002PRCP06
0198832420999992003043000004-12570-041380FM-12+042799999V0202301N001012200019N0020001N1+02601+01961101351ADDAA106000091GF102991021001022501081001KA1240M+03261MA1999999096461MD1999999+0041REMSYN088AAXX  30004 83242 32895 22302 10260 20196 39646 40135 82080 333 10326 29063 55089 58004;EQDQ01  00002PRCP06
0190832420999992003043012004-12570-041380FM-12+042799999V0201801N001010042019N0040001N1+02421+02051101631ADDAY151061AY211061GF108991081071004501999999KA1240N+02151MA1999999096721MD1999999+0091MW1101REMSYN088AAXX  30124 83242 21496 81802 10242 20205 39672 40163 71051 887// 333 20215 58009 69964;
0179832420999992003043018004-12570-041380FM-12+042799999V0202301N001512200019N0040001N1+03261+01721101061ADDAA106000091GF103991031021004501001001MA1999999096221MD1999999+0061MW1051REMSYN076AAXX  30184 83242 31496 32303 10326 20172 39622 40106 705// 83200 333 58006;EQDQ01  00002PRCP06
0198832420999992003050100004-12570-041380FM-12+042799999V0202301N001012200019N0020001N1+02481+01751101431ADDAA106000091GF101991011011004501001001KA1240M+03321MA1999999096521MD1999999+0061REMSYN088AAXX  01004 83242 32495 12302 10248 20175 39652 40143 81100 333 10332 29062 55069 58006;EQDQ01  00002PRCP06
0186832420999992003050112004-12570-041380FM-12+042799999V0201801N000510042019N0100001N1+02461+01941101691ADDAA106000091GF108991081061004501999999KA1240N+02181MA1999999096761MD1999999+0041REMSYN076AAXX  01124 83242 32497 81801 10246 20194 39676 40169 886// 333 20218 58004;EQDQ01  00002PRCP06
0167832420999992003050118004-12570-041380FM-12+042799999V0202301N001012200019N0100001N1+03231+01781101001ADDAA106000091GF106991021021004501001061MA1999999096161MD1999999-0061REMSYN070AAXX  01184 83242 32497 62302 10323 20178 39616 40100 82206 333 59006;EQDQ01  00002PRCP06
0208832420999992003050200004-12570-041380FM-12+042799999V0200501N001012200019N0020001N1+02581+01771101251ADDAA106000091GA1001+999999999GF100991001001999999001001KA1240M+03321MA1999999096351MD1999999-0171REMSYN082AAXX  02004 83242 32995 00502 10258 20177 39635 40125 333 10332 29059 55077 59017;EQDQ01  00002PRCP06
0198832420999992003050212004-12570-041380FM-12+042799999V0200901N001510450019N0040001N1+02401+01911101441ADDAA106000091GF105991041011004501031001KA1240N+01911MA1999999096541MD1999999-0221MW1051REMSYN082AAXX  02124 83242 31496 50903 10240 20191 39654 40144 705// 84130 333 20191 59022;EQDQ01  00002PRCP06
0179832420999992003050218004-12570-041380FM-12+042799999V0201401N000511050019N0040001N1+03351+01691100721ADDAA106000091GF108991041011004501001071MA1999999095881MD1999999-0281MW1051REMSYN076AAXX  02184 83242 31496 81401 10335 20169 39588 40072 705// 84107 333 59028;EQDQ01  00002PRCP06
0198832420999992003050300004-12570-041380FM-12+042799999V0201401N001512200019N0020001N1+02761+01831100901ADDAA106000091GF101991011001022501081001KA1240M+03461MA1999999096041MD1999999-0311REMSYN088AAXX  03004 83242 32895 11403 10276 20183 39604 40090 81080 333 10346 29056 55093 59031;EQDQ01  00002PRCP06
0186832420999992003050312004-12570-041380FM-12+042799999V0202301N001010450019N0100001N1+02691+01911101141ADDAA106000091GF106991031041004501031051KA1240N+02071MA1999999096291MD1999999-0251REMSYN076AAXX  03124 83242 32497 62302 10269 20191 39629 40114 83435 333 20207 59025;EQDQ01  00002PRCP06
0179832420999992003050318004-12570-041380FM-12+042799999V0203201N000510450019N0040001N1+03371+01831100561ADDAA106000091GF106991031051004501031011MA1999999095761MD1999999-0121MW1051REMSYN076AAXX  03184 83242 31496 63201 10337 20183 39576 40056 705// 83531 333 59012;EQDQ01  00002PRCP06
0226832420999992003050400004-12570-041380FM-12+042799999V0201401N001012200019N0020001N1+02731+01971100931ADDAA106000091GF104991999051004501001001KA1240M+03481MA1999999096091MD1999999+0051MW1131REMSYN094AAXX  04004 83242 31495 41402 10273 20197 39609 40093 713// 83500 333 10348 29057 55061 58005;EQDQ01+000032SCOTLCQ02  00002PRCP06
0190832420999992003050412004-12570-041380FM-12+042799999V0201801N002610042019N0020001N1+02061+02011101691ADDAY191061AY261061GF108991081071004501999999KA1240N+01931MA1999999096661MD1999999+0371MW1211REMSYN088AAXX  04124 83242 21495 81805 10206 20201 39666 40169 72196 887// 333 20193 58037 60254;
0171832420999992003050418004-12570-041380FM-12+042799999V0201801N001510042019N0020001N1+02381+01951101331ADDAY151061AY241061GF108991081051004501999999MA1999999096401MD1999999+0641MW1051REMSYN082AAXX  04184 83242 21495 81803 10238 20195 39640 40133 70554 885// 333 58064 69921;
0202832420999992003050500004-12570-041380FM-12+042799999V0201801N000510042019N0005001N1+02241+02031101621ADDAY151061AY241061GF108991081071004501999999KA1240M+02821MA1999999096641MD1999999+0551MW1501REMSYN100AAXX  05004 83242 21493 81801 10224 20203 39664 40162 75054 887// 333 10282 29088 55000 58055 69901;
0190832420999992003050512004-12570-041380FM-12+042799999V0201801N001010042019N0040001N1+02251+02071101721ADDAY161061AY221061GF108991081071004501999999KA1240N+01871MA1999999096751MD1999999+0091MW1101REMSYN088AAXX  05124 83242 21496 81802 10225 20207 39675 40172 71062 887// 333 20187 58009 60024;
0171832420999992003050518004-12570-041380FM-12+042799999V0201401N001010042019N0040001N1+02581+01991101371ADDAY151061AY221061GF108991081071004501999999MA1999999096431MD1999999+0031MW1151REMSYN082AAXX  05184 83242 21496 81402 10258 20199 39643 40137 71552 887// 333 58003 69901;
0202832420999992003050600004-12570-041380FM-12+042799999V0209999C000010042019N0020001N1+02261+02071101511ADDAY151061AY221061GF108991081071004501999999KA1240M+02621MA1999999096551MD1999999-0051MW1611REMSYN100AAXX  06004 83242 21495 80000 10226 20207 39655 40151 76152 887// 333 10262 29084 55000 59005 69921;
0190832420999992003050612004-12570-041380FM-12+042799999V0200901N000510042019N0040001N1+02371+02031101531ADDAY161061AY221061GF107991071071004501001001KA1240N+01971MA1999999096581MD1999999-0171MW1101REMSYN088AAXX  06124 83242 21496 70901 10237 20203 39658 40153 71062 87700 333 20197 59017 60024;
0179832420999992003050618004-12570-041380FM-12+042799999V0200501N001510450019N0040001N1+03001+01641101011ADDAA106000091GF106991041041004501041021MA1999999096141MD1999999-0291MW1051REMSYN076AAXX  06184 83242 31496 60503 10300 20164 39614 40101 705// 84442 333 59029;EQDQ01  00002PRCP06
0208832420999992003050700004-12570-041380FM-12+042799999V0200901N000512200019N0020001N1+02281+02011101261ADDAA106000091GA1001+999999999GF100991001001999999001001KA1240M+03061MA1999999096321MD1999999-0171REMSYN082AAXX  07004 83242 32995 00901 10228 20201 39632 40126 333 10306 29075 55078 59017;EQDQ01  00002PRCP06
0198832420999992003050712004-12570-041380FM-12+042799999V0200501N001010042019N0040001N1+02391+02011101391ADDAA106000091GF108991081071004501999999KA1240N+01951MA1999999096461MD1999999-0121MW1051REMSYN082AAXX  07124 83242 31496 80502 10239 20201 39646 40139 705// 887// 333 20195 59012;EQDQ01  00002PRCP06
0179832420999992003050718004-12570-041380FM-12+042799999V0201401N000510450019N0040001N1+03181+01731100911ADDAA106000091GF105991031041004501091081MA1999999096041MD1999999-0091MW1051REMSYN076AAXX  07184 83242 31496 51401 10318 20173 39604 40091 705// 83498 333 59009;EQDQ01  00002PRCP06
0198832420999992003050800004-12570-041380FM-12+042799999V0200901N001512200019N0020001N1+02441+01951101221ADDAA106000091GF101991011011004501001001KA1240M+03181MA1999999096311MD1999999-0011REMSYN088AAXX  08004 83242 32495 10903 10244 20195 39631 40122 81100 333 10318 29067 55063 59001;EQDQ01  00002PRCP06
0198832420999992003050812004-12570-041380FM-12+042799999V0201801N000510042019N0040001N1+02441+02131101451ADDAA106000091GF108991081071004501999999KA1240N+02011MA1999999096541MD1999999+0081MW1101REMSYN082AAXX  08124 83242 31496 81801 10244 20213 39654 40145 710// 887// 333 20201 58008;EQDQ01  00002PRCP06
0179832420999992003050818004-12570-041380FM-12+042799999V0202301N000510450019N0040001N1+03301+01871100921ADDAA106000091GF108991031021004501031071MA1999999096071MD1999999+0031MW1051REMSYN076AAXX  08184 83242 31496 82301 10330 20187 39607 40092 705// 83237 333 58003;EQDQ01  00002PRCP06
0198832420999992003050900004-12570-041380FM-12+042799999V0201401N000512200019N0020001N1+02481+01981101301ADDAA106000091GF101991001001999999001091KA1240M+03321MA1999999096391MD1999999+0081REMSYN088AAXX  09004 83242 32995 11401 10248 20198 39639 40130 80009 333 10332 29068 55081 58008;EQDQ01  00002PRCP06
0198832420999992003050912004-12570-041380FM-12+042799999V0201801N001010042019N0020001N1+02371+02111101631ADDAA106000091GF108991081071004501999999KA1240N+02211MA1999999096701MD1999999+0161MW1101REMSYN082AAXX  09124 83242 31495 81802 10237 20211 39670 40163 710// 887// 333 20221 58016;EQDQ01  00002PRCP06
0179832420999992003050918004-12570-041380FM-12+042799999V0201401N001510450019N0040001N1+02921+02011101121ADDAA106000091GF107991011011004501081021MA1999999096251MD1999999+0181MW1051REMSYN076AAXX  09184 83242 31496 71403 10292 20201 39625 40112 705// 81182 333 58018;EQDQ01  00002PRCP06
0198832420999992003051000004-12570-041380FM-12+042799999V0200501N001012200019N0020001N1+02341+01931101371ADDAA106000091GF102991011011004501001021KA1240M+03041MA1999999096441MD1999999+0051REMSYN088AAXX  10004 83242 32495 20502 10234 20193 39644 40137 81102 333 10304 29075 55044 58005;EQDQ01  00002PRCP06
0167832420999992003051018004-12570-041380FM-12+042799999V0201401N002610042019N0100001N1+02681+01971101401ADDAA106000091GF107991051071004501031011MA1999999096491MD1999999+0241REMSYN070AAXX  10184 83242 32497 71405 10268 20197 39649 40140 85731 333 58024;EQDQ01  00002PRCP06
0198832420999992003051100004-12570-041380FM-12+042799999V0201401N001010042019N0020001N1+02341+01961101741ADDAA106000091GF108991081071004501999999KA1240M+02861MA1999999096801MD1999999+0361REMSYN088AAXX  11004 83242 32495 81402 10234 20196 39680 40174 887// 333 10286 29074 55052 58036;EQDQ01  00002PRCP06
0190832420999992003051112004-12570-041380FM-12+042799999V0201401N002610450019N0100001N1+02321+01671101911ADDAY151061AY221061GF106991041041004501031021KA1240N+02071MA1999999096951MD1999999+0191MW1031REMSYN088AAXX  11124 83242 21497 61405 10232 20167 39695 40191 70352 84432 333 20207 58019 69914;
0167832420999992003051118004-12570-041380FM-12+042799999V0201801N001510042019N0100001N1+02921+01531101411ADDAA106000091GF106991051041004501031001MA1999999096511MD1999999+0021REMSYN070AAXX  11184 83242 32497 61803 10292 20153 39651 40141 85430 333 58002;EQDQ01  00002PRCP06
0198832420999992003051200004-12570-041380FM-12+042799999V0201801N003112200019N0020001N1+02461+01711101751ADDAA106000091GF104991021071004501051011KA1240M+03041MA1999999096811MD1999999+0011REMSYN088AAXX  12004 83242 32495 41806 10246 20171 39681 40175 82751 333 10304 29059 55076 58001;EQDQ01  00002PRCP06
0186832420999992003051212004-12570-041380FM-12+042799999V0201801N004110042019N0100001N1+02261+01641101911ADDAA106000091GF108991081061004501999999KA1240N+02011MA1999999096951MD1999999+0001REMSYN076AAXX  12124 83242 32497 81808 10226 20164 39695 40191 886// 333 20201 58000;EQDQ01  00002PRCP06
0167832420999992003051218004-12570-041380FM-12+042799999V0201801N003110042019N0100001N1+02641+01721101521ADDAA106000091GF107991061071004501061001MA1999999096581MD1999999+0071REMSYN070AAXX  12184 83242 32497 71806 10264 20172 39658 40152 86760 333 58007;EQDQ01  00002PRCP06
0198832420999992003051300004-12570-041380FM-12+042799999V0201801N000510042019N0020001N1+02401+01771101731ADDAA106000091GF107991051051004501031001KA1240M+02741MA1999999096781MD1999999-0031REMSYN088AAXX  13004 83242 32495 71801 10240 20177 39678 40173 85530 333 10274 29065 55006 59003;EQDQ01  00002PRCP06
0186832420999992003051312004-12570-041380FM-12+042799999V0201801N002110042019N0100001N1+02301+01751101771ADDAA106000091GF108991081071004501999999KA1240N+02011MA1999999096821MD1999999-0131REMSYN076AAXX  13124 83242 32497 81804 10230 20175 39682 40177 887// 333 20201 59013;EQDQ01  00002PRCP06
0167832420999992003051318004-12570-041380FM-12+042799999V0201801N002110042019N0100001N1+02781+01631101321ADDAA106000091GF108991081071004501999999MA1999999096411MD1999999-0171REMSYN070AAXX  13184 83242 32497 81804 10278 20163 39641 40132 887// 333 59017;EQDQ01  00002PRCP06
0198832420999992003051400004-12570-041380FM-12+042799999V0201801N000510042019N0020001N1+02421+01881101601ADDAA106000091GF107991051051004501081001KA1240M+02861MA1999999096651MD1999999-0131REMSYN088AAXX  14004 83242 32495 71801 10242 20188 39665 40160 85580 333 10286 29066 55012 59013;EQDQ01  00002PRCP06
0190832420999992003051412004-12570-041380FM-12+042799999V0201801N002610042019N0100001N1+02281+01881101711ADDAY151061AY221061GF108991081071004501999999KA1240N+01991MA1999999096761MD1999999-0061MW1031REMSYN088AAXX  14124 83242 21497 81805 10228 20188 39676 40171 70352 887// 333 20199 59006 69914;
0171832420999992003051418004-12570-041380FM-12+042799999V0203201N000510042019N0040001N1+02581+01871101361ADDAY151061AY221061GF108991081071004501999999MA1999999096431MD1999999+0021MW1151REMSYN082AAXX  14184 83242 21496 83201 10258 20187 39643 40136 71552 887// 333 58002 69901;
0202832420999992003051500004-12570-041380FM-12+042799999V0201801N002110042019N0005001N1+02101+02071101731ADDAY161061AY241061GF108991081071004501999999KA1240M+02701MA1999999096751MD1999999+0101MW1211REMSYN100AAXX  15004 83242 21493 81804 10210 20207 39675 40173 72164 887// 333 10270 29085 55003 58010 60111;
0190832420999992003051512004-12570-041380FM-12+042799999V0201801N001510042019N0040001N1+02241+02031101871ADDAY161061AY221061GF107991071071004501001001KA1240N+01971MA1999999096571MD1999999+0111MW1101REMSYN088AAXX  15124 83242 21496 71803 10224 20203 39657 40187 71062 87700 333 20197 58011 60294;
0179832420999992003051518004-12570-041380FM-12+042799999V0202301N002110042019N0040001N1+02801+01781101351ADDAA106000091GF106991051061004501031001MA1999999096431MD1999999+0001MW1151REMSYN076AAXX  15184 83242 31496 62304 10280 20178 39643 40135 715// 85630 333 58000;EQDQ01  00002PRCP06
0202832420999992003051600004-12570-041380FM-12+042799999V0201801N000510042019N0010001N1+02221+02081101691ADDAY161061AY221061GF108991081071004501999999KA1240M+02871MA1999999096721MD1999999-0031MW1501REMSYN100AAXX  16004 83242 21494 81801 10222 20208 39672 40169 75062 887// 333 10287 29082 55050 59003 60041;
0190832420999992003051612004-12570-041380FM-12+042799999V0201801N004610042019N0100001N1+02151+01971101801ADDAY161061AY221061GF107991061071004501061001KA1240N+01991MA1999999096811MD1999999-0061MW1031REMSYN088AAXX  16124 83242 21497 71809 10215 20197 39681 40180 70362 86760 333 20199 59006 60094;
0179832420999992003051618004-12570-041380FM-12+042799999V0201801N002110450019N0040001N1+02801+01661101361ADDAA106000091GF105991041051004501031001MA1999999096441MD1999999+0011MW1051REMSYN076AAXX  16184 83242 31496 51804 10280 20166 39644 40136 705// 84530 333 58001;EQDQ01  00002PRCP06
0198832420999992003051700004-12570-041380FM-12+042799999V0201801N004110042019N0020001N1+02281+01771101621ADDAA106000091GF108991081071004501999999KA1240M+02861MA1999999096651MD1999999-0071REMSYN088AAXX  17004 83242 32495 81808 10228 20177 39665 40162 887// 333 10286 29071 55043 59007;EQDQ01  00002PRCP06
0190832420999992003051712004-12570-041380FM-12+042799999V0201401N003110450019N0100001N1+02241+01821101651ADDAY151061AY221061GF107991041071004501051061KA1240N+01791MA1999999096681MD1999999-0131MW1031REMSYN088AAXX  17124 83242 21497 71406 10224 20182 39668 40165 70352 84756 333 20179 59013 69924;
0179832420999992003051718004-12570-041380FM-12+042799999V0201801N002610042019N0040001N1+02561+01751101231ADDAA106000091GF106991051071004501051001MA1999999096281MD1999999-0161MW1151REMSYN076AAXX  17184 83242 31496 61805 10256 20175 39628 40123 715// 85750 333 59016;EQDQ01  00002PRCP06
0198832420999992003051800004-12570-041380FM-12+042799999V0201801N000512200019N0020001N1+02261+01821101521ADDAA106000091GF104991031051004501031001KA1240M+02701MA1999999096561MD1999999-0091REMSYN088AAXX  18004 83242 32495 41801 10226 20182 39656 40152 83530 333 10270 29072 55044 59009;EQDQ01  00002PRCP06
0190832420999992003051812004-12570-041380FM-12+042799999V0201801N003110042019N0040001N1+02261+01861101671ADDAY151061AY211061GF108991081071004501999999KA1240N+01931MA1999999096701MD1999999-0021MW1161REMSYN088AAXX  18124 83242 21496 81806 10226 20186 39670 40167 71651 887// 333 20193 59002 69914;
0179832420999992003051818004-12570-041380FM-12+042799999V0201801N001510042019N0040001N1+02501+01771101371ADDAA106000091GF107991061071004501051001MA1999999096421MD1999999+0141MW1151REMSYN076AAXX  18184 83242 31496 71803 10250 20177 39642 40137 715// 86750 333 58014;EQDQ01  00002PRCP06
0202832420999992003051900004-12570-041380FM-12+042799999V0201801N000510042019N0020001N1+02221+01901101601ADDAY151061AY221061GF108991081071004501999999KA1240M+02601MA1999999096641MD1999999+0081MW1031REMSYN100AAXX  19004 83242 21495 81801 10222 20190 39664 40160 70352 887// 333 10260 29076 55017 58008 69901;
0214832420999992003051912004-12570-041380FM-12+042799999V0201801N001510042019N0020001N1+02121+01911101841ADDAA106000091AY151061AY221061GF108991081071004501999999KA1240N+01811MA1999999096851MD1999999+0151MW1101REMSYN082AAXX  19124 83242 31495 81803 10212 20191 39685 40184 71052 887// 333 20181 58015;EQDQ01  00002PRCP06
0171832420999992003051918004-12570-041380FM-12+042799999V0201801N001510042019N0020001N1+02461+01901101391ADDAY151061AY221061GF108991081071004501999999MA1999999096441MD1999999+0021MW1151REMSYN082AAXX  19184 83242 21495 81803 10246 20190 39644 40139 71552 887// 333 58002 69941;
0202832420999992003052000004-12570-041380FM-12+042799999V0201801N004110042019N0020001N1+02081+02031101731ADDAY161061AY241061GF108991081061004501999999KA1240M+02561MA1999999096731MD1999999+0091MW1021REMSYN100AAXX  20004 83242 21495 81808 10208 20203 39673 40173 70264 886// 333 10256 29088 55014 58009 60021;
0190832420999992003052012004-12570-041380FM-12+042799999V0201801N003110042019N0100001N1+02241+01861101811ADDAY161061AY221061GF107991061071004501061001KA1240N+01971MA1999999096821MD1999999-0031MW1031REMSYN088AAXX  20124 83242 21497 71806 10224 20186 39682 40181 70362 86760 333 20197 59003 60044;
0179832420999992003052018004-12570-041380FM-12+042799999V0201801N001510042019N0040001N1+02601+01601101301ADDAA106000091GF107991061071004501031001MA1999999096361MD1999999-0081MW1151REMSYN076AAXX  20184 83242 31496 71803 10260 20160 39636 40130 715// 86730 333 59008;EQDQ01  00002PRCP06
0208832420999992003052100004-12570-041380FM-12+042799999V0203601N000512200019N0020001N1+02041+01761101611ADDAA106000091GA1001+999999999GF100991001001999999001001KA1240M+02721MA1999999096631MD1999999-0101REMSYN082AAXX  21004 83242 32995 03601 10204 20176 39663 40161 333 10272 29075 55025 59010;EQDQ01  00002PRCP06
0198832420999992003052112004-12570-041380FM-12+042799999V0201401N001010042019N0040001N1+02101+01891101801ADDAA106000091GF107991071071004501001001KA1240N+01861MA1999999096791MD1999999-0031MW1101REMSYN082AAXX  21124 83242 31496 71402 10210 20189 39679 40180 710// 87700 333 20186 59003;EQDQ01  00002PRCP06
0179832420999992003052118004-12570-041380FM-12+042799999V0200901N000512200019N0040001N1+02901+01481101191ADDAA106000091GF104991031031004501061001MA1999999096291MD1999999-0071MW1051REMSYN076AAXX  21184 83242 31496 40901 10290 20148 39629 40119 705// 83360 333 59007;EQDQ01  00002PRCP06
0198832420999992003052200004-12570-041380FM-12+042799999V0200901N001012200019N0020001N1+02201+01781101501ADDAA106000091GF101991011001017501081001KA1240M+02941MA1999999096521MD1999999-0111REMSYN088AAXX  22004 83242 32795 10902 10220 20178 39652 40150 81080 333 10294 29072 55078 59011;EQDQ01  00002PRCP06
0186832420999992003052212004-12570-041380FM-12+042799999V0202301N000510042019N0100001N1+02321+02001101751ADDAA106000091GF106991051071004501041001KA1240N+01971MA1999999096781MD1999999-0011REMSYN076AAXX  22124 83242 32497 62301 10232 20200 39678 40175 85740 333 20197 59001;EQDQ01  00002PRCP06
0167832420999992003052218004-12570-041380FM-12+042799999V0202301N001012200019N0100001N1+02961+01931101211ADDAA106000091GF103991031011004501001001MA1999999096331MD1999999+0041REMSYN070AAXX  22184 83242 32497 32302 10296 20193 39633 40121 83100 333 58004;EQDQ01  00002PRCP06
0208832420999992003052300004-12570-041380FM-12+042799999V0200501N001012200019N0020001N1+02341+01931101531ADDAA106000091GA1001+999999999GF100991001001999999001001KA1240M+03041MA1999999096591MD1999999+0071REMSYN082AAXX  23004 83242 32995 00502 10234 20193 39659 40153 333 10304 29073 55078 58007;EQDQ01  00002PRCP06
0198832420999992003052312004-12570-041380FM-12+042799999V0200501N001010042019N0040001N1+02381+01911101631ADDAA106000091GF107991061071004501031001KA1240N+02071MA1999999096681MD1999999-0101MW1051REMSYN082AAXX  23124 83242 31496 70502 10238 20191 39668 40163 705// 86730 333 20207 59010;EQDQ01  00002PRCP06
0179832420999992003052318004-12570-041380FM-12+042799999V0202301N001010450019N0040001N1+02701+01831101211ADDAA106000091GF106991041061004501031001MA1999999096311MD1999999-0021MW1051REMSYN076AAXX  23184 83242 31496 62302 10270 20183 39631 40121 705// 84630 333 59002;EQDQ01  00002PRCP06
0208832420999992003052400004-12570-041380FM-12+042799999V0209999C000012200019N0020001N1+02201+01901101481ADDAA106000091GA1001+999999999GF100991001001999999001001KA1240M+02821MA1999999096531MD1999999-0061REMSYN082AAXX  24004 83242 32995 00000 10220 20190 39653 40148 333 10282 29075 55028 59006;EQDQ01  00002PRCP06
0198832420999992003052412004-12570-041380FM-12+042799999V0209999C000010042019N0040001N1+02321+02001101471ADDAA106000091GF108991081071004501999999KA1240N+02011MA1999999096511MD1999999-0171MW1101REMSYN082AAXX  24124 83242 31496 80000 10232 20200 39651 40147 710// 887// 333 20201 59017;EQDQ01  00002PRCP06
0195832420999992003052418004-12570-041380FM-12+042799999V0200901N001011050019N0040001N1+03201+01421100642ADDAA106000091GF108991021011004501001071MA1999999095761MD1999999-0551MW1051REMSYN076AAXX  24184 83242 31496 80902 10320 20142 39576 40064 705// 82107 333 59055;EQDQ01+100643APOSLPQ02  00002PRCP06
0208832420999992003052500004-12570-041380FM-12+042799999V0203601N000512200019N0020001N1+02441+01901101041ADDAA106000091GA1001+999999999GF100991001001999999001001KA1240M+03201MA1999999096141MD1999999-0391REMSYN082AAXX  25004 83242 32995 03601 10244 20190 39614 40104 333 10320 29066 55070 59039;EQDQ01  00002PRCP06
0186832420999992003052512004-12570-041380FM-12+042799999V0201801N001011050019N0100001N1+02481+02051101291ADDAA106000091GF106991021011004501051061KA1240N+01971MA1999999096381MD1999999-0131REMSYN076AAXX  25124 83242 32497 61802 10248 20205 39638 40129 82156 333 20197 59013;EQDQ01  00002PRCP06
0179832420999992003052518004-12570-041380FM-12+042799999V0202301N001010450019N0040001N1+03301+01761100711ADDAA106000091GF106991041061004501031001MA1999999095881MD1999999+0121MW1051REMSYN076AAXX  25184 83242 31496 62302 10330 20176 39588 40071 705// 84630 333 58012;EQDQ01  00002PRCP06
0208832420999992003052600004-12570-041380FM-12+042799999V0209999C000012200019N0020001N1+02521+02021101071ADDAA106000091GA1001+999999999GF100991001001999999001001KA1240M+03271MA1999999096181MD1999999+0041REMSYN082AAXX  26004 83242 32995 00000 10252 20202 39618 40107 333 10327 29066 55086 58004;EQDQ01  00002PRCP06
0090832420999992003052612004-12570-041380FM-12+042799999V02099999999999999999N9999999N1+99999+99999999999REMSYN081AAXX  26124 83242 31496 7802 10254 20215 39653 40142 705// 84655 333 20193 58015;
0195832420999992003052618004-12570-041380FM-12+042799999V0203201N002610042019N0040001N1+03001+01971100991ADDAA106000091AY151061AY221061GF107991061071004501031001MA1999999096121MD1999999+0241MW1151REMSYN076AAXX  26184 83242 31496 73205 10300 20197 39612 40099 71552 86730 333 58024;EQDQ01  00002PRCP06
0202832420999992003052700004-12570-041380FM-12+042799999V0200501N001510042019N0020001N1+02561+02081101351ADDAY151061AY221061GF108991081071004501999999KA1240M+03161MA1999999096461MD1999999+0281MW1021REMSYN100AAXX  27004 83242 21495 80503 10256 20208 39646 40135 70252 887// 333 10316 29071 55050 58028 69901;
0190832420999992003052712004-12570-041380FM-12+042799999V0200501N000510042019N0040001N1+02151+02081101821ADDAY151061AY221061GF108991081071004501999999KA1240N+02011MA1999999096861MD1999999+0331MW1101REMSYN088AAXX  27124 83242 21496 80501 10215 20208 39686 40182 71052 887// 333 20201 58033 69974;
0171832420999992003052718004-12570-041380FM-12+042799999V0202301N001010042019N0040001N1+02501+01821101471ADDAY161061AY221061GF107991061071004501081001MA1999999096521MD1999999+0041MW1151REMSYN082AAXX  27184 83242 21496 72302 10250 20182 39652 40147 71562 86780 333 58004 60031;
0202832420999992003052800004-12570-041380FM-12+042799999V0201401N001010042019N0010001N1+02121+02071101891ADDAY161061AY241061GF108991081071004501999999KA1240M+02681MA1999999096891MD1999999+0431MW1501REMSYN100AAXX  28004 83242 21494 81402 10212 20207 39689 40189 75064 887// 333 10268 29090 55021 58043 60081;
0190832420999992003052812004-12570-041380FM-12+042799999V0202301N000510042019N0040001N1+02221+02081101831ADDAY161061AY221061GF108991081071004501999999KA1240N+02011MA1999999096841MD1999999-0021MW1101REMSYN088AAXX  28124 83242 21496 82301 10222 20208 39684 40183 71062 887// 333 20201 59002 60134;
0171832420999992003052818004-12570-041380FM-12+042799999V0202301N001010042019N0020001N1+02201+01971101561ADDAY151061AY221061GF108991081071004501999999MA1999999096561MD1999999+0041MW1501REMSYN082AAXX  28184 83242 21495 82302 10220 20197 39656 40156 75052 887// 333 58004 69961;
0202832420999992003052900004-12570-041380FM-12+042799999V0202301N001010042019N0020001N1+02181+02101101721ADDAY151061AY241061GF108991081071004501999999KA1240M+02701MA1999999096741MD1999999-0151MW1021REMSYN100AAXX  29004 83242 21495 82302 10218 20210 39674 40172 70254 887// 333 10270 29094 55007 59015 69901;
0190832420999992003052912004-12570-041380FM-12+042799999V0201801N001510042019N0040001N1+02011+01951101951ADDAY161061AY221061GF108991081071004501999999KA1240N+01871MA1999999096941MD1999999+0101MW1101REMSYN088AAXX  29124 83242 21496 81803 10201 20195 39694 40195 71062 887// 333 20187 58010 60114;
0171832420999992003052918004-12570-041380FM-12+042799999V0201801N000510042019N0040001N1+02401+01821101541ADDAY151061AY221061GF107991061071004501031001MA1999999096561MD1999999+0001MW1401REMSYN082AAXX  29184 83242 21496 71801 10240 20182 39656 40154 74052 86730 333 58000 69901;
0198832420999992003053000004-12570-041380FM-12+042799999V0201801N001010042019N0020001N1+02201+01901101791ADDAA106000091GF108991081071004501999999KA1240M+02461MA1999999096791MD1999999+0051REMSYN088AAXX  30004 83242 32495 81802 10220 20190 39679 40179 887// 333 10246 29083 55001 58005;EQDQ01  00002PRCP06
0198832420999992003053012004-12570-041380FM-12+042799999V0201801N000510042019N0040001N1+02121+01861101901ADDAA106000091GF107991051071004501061001KA1240N+01831MA1999999096901MD1999999-0041MW1101REMSYN082AAXX  30124 83242 31496 71801 10212 20186 39690 40190 710// 85760 333 20183 59004;EQDQ01  00002PRCP06
0179832420999992003053018004-12570-041380FM-12+042799999V0201401N001010042019N0040001N1+02781+01911101441ADDAA106000091GF107991061071004501091001MA1999999096511MD1999999-0051MW1151REMSYN076AAXX  30184 83242 31496 71402 10278 20191 39651 40144 715// 86790 333 59005;EQDQ01  00002PRCP06
0202832420999992003053100004-12570-041380FM-12+042799999V0201801N001510042019N0010001N1+02361+01781101751ADDAY151061AY221061GF108991081071004501999999KA1240M+02821MA1999999096781MD1999999-0011MW1501REMSYN100AAXX  31004 83242 21494 81803 10236 20178 39678 40175 75052 887// 333 10282 29071 55030 59001 69901;
0186832420999992003053112004-12570-041380FM-12+042799999V0201801N002110042019N0040001N1+02181+01801101831ADDAA106000091GF107991071071004501001001KA1240N+02011MA1999999096951MD1999999+0051REMSYN076AAXX  31124 83242 32496 71804 10218 20180 39695 40183 87700 333 20201 58005;EQDQ01  00002PRCP06
0179832420999992003053118004-12570-041380FM-12+042799999V0201801N002610042019N0040001N1+02401+01821101631ADDAA106000091GF108991081071004501999999MA1999999096661MD1999999+0151MW1151REMSYN076AAXX  31184 83242 31496 81805 10240 20182 39666 40163 715// 887// 333 58015;EQDQ01  00002PRCP06
0202832420999992003060100004-12570-041380FM-12+042799999V0202301N000510042019N0020001N1+02141+01901101771ADDAY151061AY221061GF108991081071004501999999KA1240M+02571MA1999999096781MD1999999+0001MW1031REMSYN100AAXX  01004 83242 21495 82301 10214 20190 39678 40177 70352 887// 333 10257 29080 55001 58000 69901;
0190832420999992003060112004-12570-041380FM-12+042799999V0201401N001010042019N0040001N1+02101+01861101971ADDAY151061AY241061GF108991081071004501999999KA1240N+01871MA1999999096961MD1999999+0011MW1101REMSYN088AAXX  01124 83242 21496 81402 10210 20186 39696 40197 71054 887// 333 20187 58001 69944;
0179832420999992003060118004-12570-041380FM-12+042799999V0201801N001510042019N0040001N1+02621+01701101511ADDAA106000091GF106991051071004501031001MA1999999096561MD1999999-0101MW1151REMSYN076AAXX  01184 83242 31496 61803 10262 20170 39656 40151 715// 85730 333 59010;EQDQ01  00002PRCP06
0202832420999992003060200004-12570-041380FM-12+042799999V0203601N000510042019N0020001N1+02161+02081101771ADDAY151061AY221061GF108991081071004501999999KA1240M+02701MA1999999096781MD1999999+0001MW1511REMSYN100AAXX  02004 83242 21495 83601 10216 20208 39678 40177 75152 887// 333 10270 29083 55025 58000 69951;
0171832420999992003060218004-12570-041380FM-12+042799999V0201401N000510042019N0020001N1+02261+02031101431ADDAY161061AY241061GF108991081071004501999999MA1999999096461MD1999999-0101MW1501REMSYN082AAXX  02184 83242 21495 81401 10226 20203 39646 40143 75064 887// 333 59010 60031;
0202832420999992003060300004-12570-041380FM-12+042799999V0201801N000510042019N0020001N1+02181+02131101671ADDAY161061AY251061GF108991081071004501999999KA1240M+02541MA1999999096691MD1999999-0091MW1021REMSYN100AAXX  03004 83242 21495 81801 10218 20213 39669 40167 70265 887// 333 10254 29093 55002 59009 60041;
0190832420999992003060312004-12570-041380FM-12+042799999V0201801N002110042019N0020001N1+02071+02031101781ADDAY161061AY221061GF108991081071004501999999KA1240N+02071MA1999999096781MD1999999-0051MW1101REMSYN088AAXX  03124 83242 21495 81804 10207 20203 39678 40178 71062 887// 333 20207 59005 60124;
0171832420999992003060318004-12570-041380FM-12+042799999V0201801N001010042019N0040001N1+02501+01941101371ADDAY151061AY221061GF107991061071004501031001MA1999999096421MD1999999-0041MW1401REMSYN082AAXX  03184 83242 21496 71802 10250 20194 39642 40137 74052 86730 333 59004 69961;
0214832420999992003060400004-12570-041380FM-12+042799999V0203201N001512200019N0020001N1+02001+01881101581ADDAA106000091GF102991999051004501001001KA1240M+02601MA1999999096581MD1999999-0111REMSYN088AAXX  04004 83242 32495 23203 10200 20188 39658 40158 84500 333 10260 29088 55011 59011;EQDQ01+000042SCOTLCQ02  00002PRCP06
0190832420999992003060412004-12570-041380FM-12+042799999V0201401N001510042019N0040001N1+02221+01961101771ADDAY151061AY221061GF108991081071004501999999KA1240N+01951MA1999999096771MD1999999-0011MW1101REMSYN088AAXX  04124 83242 21496 81403 10222 20196 39677 40177 71052 887// 333 20195 59001 69964;
0171832420999992003060418004-12570-041380FM-12+042799999V0201801N001010042019N0040001N1+02541+02021101421ADDAY151061AY241061GF106991051071004501041001MA1999999096461MD1999999+0041MW1151REMSYN082AAXX  04184 83242 21496 61802 10254 20202 39646 40142 71554 85740 333 58004 69981;
0202832420999992003060500004-12570-041380FM-12+042799999V0202301N001510042019N0010001N1+02141+02091101671ADDAY161061AY241061GF108991081071004501999999KA1240M+02701MA1999999096691MD1999999+0111MW1501REMSYN100AAXX  05004 83242 21494 82303 10214 20209 39669 40167 75064 887// 333 10270 29088 55031 58011 60011;
0190832420999992003060512004-12570-041380FM-12+042799999V0201801N001010042019N0040001N1+02201+02031101781ADDAY161061AY251061GF108991081071004501999999KA1240N+01991MA1999999096801MD1999999+0031MW1161REMSYN088AAXX  05124 83242 21496 81802 10220 20203 39680 40178 71665 887// 333 20199 58003 60034;
0179832420999992003060518004-12570-041380FM-12+042799999V0200501N002610042019N0100001N1+02681+01971101421ADDAA106000091GF106991051071004501041001MA1999999096461MD1999999+0001MW1151REMSYN076AAXX  05184 83242 31497 60505 10268 20197 39646 40142 715// 85740 333 58000;EQDQ01  00002PRCP06
0202832420999992003060600004-12570-041380FM-12+042799999V0203601N001510042019N0020001N1+02211+01971101791ADDAY151061AY221061GF108991081071004501999999KA1240M+02741MA1999999096811MD1999999+0121MW1021REMSYN100AAXX  06004 83242 21495 83603 10221 20197 39681 40179 70252 887// 333 10274 29082 55034 58012 69901;
0214832420999992003060612004-12570-041380FM-12+042799999V0201801N001510042019N0040001N1+02141+01931101811ADDAA106000091AY151061AY221061GF108991081071004501999999KA1240N+01931MA1999999096831MD1999999+0031MW1101REMSYN082AAXX  06124 83242 31496 81803 10214 20193 39683 40181 71052 887// 333 20193 58003;EQDQ01  00002PRCP06
0171832420999992003060618004-12570-041380FM-12+042799999V0201401N001510042019N0100001N1+02461+01971101451ADDAY151061AY241061GF106991051071004501041001MA1999999096481MD1999999+0021MW1031REMSYN082AAXX  06184 83242 21497 61403 10246 20197 39648 40145 70354 85740 333 58002 69951;
0202832420999992003060700004-12570-041380FM-12+042799999V0200501N001510042019N0020001N1+01961+01881101581ADDAY151061AY221061GF108991081071004501999999KA1240M+02621MA1999999096581MD1999999-0131MW1021REMSYN100AAXX  07004 83242 21495 80503 10196 20188 39658 40158 70252 887// 333 10262 29088 55032 59013 69901;
0174832420999992003060712004-12570-041380FM-12+042799999V0201801N001010042019N0040001N1+02181+01901101861ADDGF108991081071004501999999KA1240N+01871MA1999999096851MD1999999+0021MW1101REMSYN088AAXX  07124 83242 21496 81802 10218 20190 39685 40186 710// 887// 333 20187 58002 69954;
0167832420999992003060718004-12570-041380FM-12+042799999V0201401N001510450019N0100001N1+02621+01861101371ADDAA106000091GF105991041061004501031001MA1999999096431MD1999999-0051REMSYN070AAXX  07184 83242 32497 51403 10262 20186 39643 40137 84630 333 59005;EQDQ01  00002PRCP06
0202832420999992003060800004-12570-041380FM-12+042799999V0202701N001010042019N0020001N1+02171+01991101601ADDAY151061AY211061GF108991081071004501999999KA1240M+02771MA1999999096631MD1999999-0051MW1501REMSYN100AAXX  08004 83242 21495 82702 10217 20199 39663 40160 75051 887// 333 10277 29081 55063 59005 69921;
0190832420999992003060812004-12570-041380FM-12+042799999V0202301N001510042019N0040001N1+02021+01871101781ADDAY151061AY221061GF108991081071004501999999KA1240N+01871MA1999999096781MD1999999-0071MW1101REMSYN088AAXX  08124 83242 21496 82303 10202 20187 39678 40178 71052 887// 333 20187 59007 69924;
0171832420999992003060818004-12570-041380FM-12+042799999V0201801N001010042019N0020001N1+02261+01901101521ADDAY141061AY221061GF108991081071004501999999MA1999999096531MD1999999+0101MW1501REMSYN082AAXX  08184 83242 21495 81802 10226 20190 39653 40152 75042 887// 333 58010 69901;
0190832420999992003060912004-12570-041380FM-12+042799999V0201801N001010042019N0020001N1+02021+01941101881ADDAY161061AY251061GF108991081071004501999999KA1240N+01801MA1999999096851MD1999999+0071MW1101REMSYN088AAXX  09124 83242 21495 81802 10202 20194 39685 40188 71065 887// 333 20180 58007 60074;
0171832420999992003060918004-12570-041380FM-12+042799999V0201801N001510042019N0100001N1+02221+02051101571ADDAY161061AY241061GF106991051071004501041001MA1999999096571MD1999999+0041MW1031REMSYN082AAXX  09184 83242 21497 61803 10222 20205 39657 40157 70364 85740 333 58004 60031;
0202832420999992003061000004-12570-041380FM-12+042799999V0201801N000510042019N0020001N1+02101+01951101841ADDAY151061AY241061GF106991051071004501031001KA1240M+02421MA1999999096831MD1999999+0081MW1031REMSYN100AAXX  10004 83242 21495 61801 10210 20195 39683 40184 70354 85730 333 10242 29092 55001 58008 69911;
0162832420999992003061012004-12570-041380FM-12+042799999V0201801N002110042019N0100001N1+02121+01781101961ADDGF106991051071004501041001KA1240N+01811MA1999999096951MD1999999+0101REMSYN082AAXX  10124 83242 22497 61804 10212 20178 39695 40196 85740 333 20181 58010 60034;
0171832420999992003061018004-12570-041380FM-12+042799999V0201801N001510042019N0040001N1+02501+01941101611ADDAY151061AY221061GF106991051061004501041001MA1999999096641MD1999999+0071MW1151REMSYN082AAXX  10184 83242 21496 61803 10250 20194 39664 40161 71552 85640 333 58007 69901;
0202832420999992003061100004-12570-041380FM-12+042799999V0201801N003110042019N0010001N1+02021+01951101831ADDAY151061AY221061GF108991081071004501999999KA1240M+02541MA1999999096821MD1999999-0011MW1501REMSYN100AAXX  11004 83242 21494 81806 10202 20195 39682 40183 75052 887// 333 10254 29086 55046 59001 69931;
0190832420999992003061112004-12570-041380FM-12+042799999V0201801N000510042019N0040001N1+02081+01931101911ADDAY161061AY221061GF107991061071004501041001KA1240N+02131MA1999999096891MD1999999-0061MW1101REMSYN088AAXX  11124 83242 21496 71801 10208 20193 39689 40191 71062 86740 333 20213 59006 60034;
0167832420999992003061118004-12570-041380FM-12+042799999V0201801N001010450019N0100001N1+02821+01651101361ADDAA106000091GF105991031041004501031011MA1999999096431MD1999999-0181REMSYN070AAXX  11184 83242 32497 51802 10282 20165 39643 40136 83431 333 59018;EQDQ01  00002PRCP06
0198832420999992003061200004-12570-041380FM-12+042799999V0201801N000510042019N0020001N1+02261+01881101671ADDAA106000091GF107991071071004501001001KA1240M+02821MA1999999096681MD1999999-0141REMSYN088AAXX  12004 83242 32495 71801 10226 20188 39668 40167 87700 333 10282 29074 55059 59014;EQDQ01  00002PRCP06
0190832420999992003061212004-12570-041380FM-12+042799999V0201801N000510042019N0100001N1+02251+01961101671ADDAY151061AY221061GF106991051071004501031001KA1240N+01931MA1999999096701MD1999999-0191MW1031REMSYN088AAXX  12124 83242 21497 61801 10225 20196 39670 40167 70352 85730 333 20193 59019 69934;
0167832420999992003061218004-12570-041380FM-12+042799999V0201401N001010042019N0100001N1+02661+01771101371ADDAA106000091GF106991051071004501031001MA1999999096451MD1999999+0021REMSYN070AAXX  12184 83242 32497 61402 10266 20177 39645 40137 85730 333 58002;EQDQ01  00002PRCP06
0208832420999992003061300004-12570-041380FM-12+042799999V0203601N001012200019N0020001N1+02021+01831101551ADDAA106000091GA1001+999999999GF100991001001999999001001KA1240M+02741MA1999999096571MD1999999-0111REMSYN082AAXX  13004 83242 32995 03602 10202 20183 39657 40155 333 10274 29080 55025 59011;EQDQ01  00002PRCP06
0186832420999992003061312004-12570-041380FM-12+042799999V0202301N000510450019N0100001N1+02111+01931101691ADDAA106000091GF108991021011004501031071KA1240N+01641MA1999999096681MD1999999-0021REMSYN076AAXX  13124 83242 32497 82301 10211 20193 39668 40169 82137 333 20164 59002;EQDQ01  00002PRCP06
0179832420999992003061318004-12570-041380FM-12+042799999V0201801N002111050019N0040001N1+02881+01461101061ADDAA106000091GF108991011011004501001071MA1999999096151MD1999999-0301MW1051REMSYN076AAXX  13184 83242 31496 81804 10288 20146 39615 40106 705// 81107 333 59030;EQDQ01  00002PRCP06
0198832420999992003061400004-12570-041380FM-12+042799999V0201401N000512200019N0020001N1+02001+01581101611ADDAA106000091GF102991011041004501081001KA1240M+02861MA1999999096611MD1999999+0041REMSYN088AAXX  14004 83242 32495 21401 10200 20158 39661 40161 81480 333 10286 29070 55096 58004;EQDQ01  00002PRCP06
0186832420999992003061412004-12570-041380FM-12+042799999V0201801N000511050019N0100001N1+02021+01681101801ADDAA106000091GF108991031011004501001071KA1240N+01441MA1999999096781MD1999999+0101REMSYN076AAXX  14124 83242 32497 81801 10202 20168 39678 40180 83107 333 20144 58010;EQDQ01  00002PRCP06
0179832420999992003061418004-12570-041380FM-12+042799999V0201801N002111050019N0040001N1+02861+01411101311ADDAA106000091GF108991011011004501001071MA1999999096371MD1999999+0221MW1051REMSYN076AAXX  14184 83242 31496 81804 10286 20141 39637 40131 705// 81107 333 58022;EQDQ01  00002PRCP06
0186832420999992003061512004-12570-041380FM-12+042799999V0201801N001012200019N0100001N1+02021+01741101871ADDAA106000091GF103991021021004501081001KA1240N+01691MA1999999096851MD1999999+0071REMSYN076AAXX  15124 83242 32497 31802 10202 20174 39685 40187 82280 333 20169 58007;EQDQ01  00002PRCP06
0179832420999992003061518004-12570-041380FM-12+042799999V0201801N001010450019N0040001N1+02861+01411101401ADDAA106000091GF108991021021004501081071MA1999999096451MD1999999+0081MW1051REMSYN076AAXX  15184 83242 31496 81802 10286 20141 39645 40140 705// 82287 333 58008;EQDQ01  00002PRCP06
0198832420999992003061600004-12570-041380FM-12+042799999V0200501N001012200019N0020001N1+01971+01441101741ADDAA106000091GF102991021011004501001001KA1240M+02861MA1999999096721MD1999999+0151REMSYN088AAXX  16004 83242 32495 20502 10197 20144 39672 40174 82100 333 10286 29067 55092 58015;EQDQ01  00002PRCP06
0198832420999992003061612004-12570-041380FM-12+042799999V0202301N001511050019N0040001N1+02001+01541101931ADDAA106000091GF108991021011004501001071KA1240N+01371MA1999999096901MD1999999+0051MW1051REMSYN082AAXX  16124 83242 31496 82303 10200 20154 39690 40193 705// 82107 333 20137 58005;EQDQ01  00002PRCP06
0179832420999992003061618004-12570-041380FM-12+042799999V0201401N002611050019N0040001N1+02701+01411101501ADDAA106000091GF106991021011004501081061MA1999999096521MD1999999+0071MW1051REMSYN076AAXX  16184 83242 31496 61405 10270 20141 39652 40150 705// 82186 333 58007;EQDQ01  00002PRCP06
0198832420999992003061700004-12570-041380FM-12+042799999V0209999C000010450019N0020001N1+02101+01621101611ADDAA106000091GF106991031051004501081001KA1240M+02801MA1999999096611MD1999999-0111REMSYN088AAXX  17004 83242 32495 60000 10210 20162 39661 40161 83580 333 10280 29067 55097 59011;EQDQ01  00002PRCP06
0198832420999992003061712004-12570-041380FM-12+042799999V0201801N000510450019N0040001N1+02001+01721101721ADDAA106000091GF107991031061004501051001KA1240N+01671MA1999999096831MD1999999-0071MW1101REMSYN082AAXX  17124 83242 31496 71801 10200 20172 39683 40172 710// 83650 333 20167 59007;EQDQ01  00002PRCP06
0179832420999992003061718004-12570-041380FM-12+042799999V0201401N001010450019N0040001N1+02731+01671101341ADDAA106000091GF105991041041004501011001MA1999999096391MD1999999-0131MW1051REMSYN076AAXX  17184 83242 31496 51402 10273 20167 39639 40134 705// 84410 333 59013;EQDQ01  00002PRCP06
0210832420999992003061800004-12570-041380FM-12+042799999V0201801N000510042019N0010001N1+02201+01841101641ADDAA106000091GF106991061051004501001001KA1240M+02861MA1999999096651MD1999999+0041MW1051REMSYN094AAXX  18004 83242 31494 61801 10220 20184 39665 40164 705// 86500 333 10286 29074 55061 58004;EQDQ01  00002PRCP06
0198832420999992003061812004-12570-041380FM-12+042799999V0201801N000510042019N0040001N1+02141+01841101811ADDAA106000091GF107991051061004501031001KA1240N+01851MA1999999096821MD1999999-0011MW1101REMSYN082AAXX  18124 83242 31496 71801 10214 20184 39682 40181 710// 85630 333 20185 59001;EQDQ01  00002PRCP06
0167832420999992003061818004-12570-041380FM-12+042799999V0201801N000512200019N0100001N1+02781+01671101381ADDAA106000091GF103991031011004501001001MA1999999096451MD1999999+0061REMSYN070AAXX  18184 83242 32497 31801 10278 20167 39645 40138 83100 333 58006;EQDQ01  00002PRCP06
0208832420999992003061900004-12570-041380FM-12+042799999V0203601N000512200019N0020001N1+02071+01701101661ADDAA106000091GA1001+999999999GF100991001001999999001001KA1240M+02941MA1999999096661MD1999999+0011REMSYN082AAXX  19004 83242 32995 03601 10207 20170 39666 40166 333 10294 29073 55071 58001;EQDQ01  00002PRCP06
0190832420999992003061912004-12570-041380FM-12+042799999V0203601N001010042019N0040001N1+02181+01941101821ADDAY151061AY201061GF108991081071004501999999KA1240N+01911MA1999999096821MD1999999+0001MW1101REMSYN088AAXX  19124 83242 21496 83602 10218 20194 39682 40182 71050 887// 333 20191 58000 69934;
0171832420999992003061918004-12570-041380FM-12+042799999V0201801N000510042019N0040001N1+02441+01881101541ADDAY151061AY221061GF107991071071004501999999MA1999999096571MD1999999+0121MW1031REMSYN082AAXX  19184 83242 21496 71801 10244 20188 39657 40154 70352 877// 333 58012 69901;
0202832420999992003062000004-12570-041380FM-12+042799999V0202701N000510042019N0005001N1+02141+02041101761ADDAY151061AY241061GF108991081071004501999999KA1240M+02561MA1999999096771MD1999999+0111MW1101REMSYN100AAXX  20004 83242 21493 82701 10214 20204 39677 40176 71054 887// 333 10256 29086 55014 58011 69931;
0190832420999992003062012004-12570-041380FM-12+042799999V0200901N000510042019N0100001N1+02171+01941101781ADDAY151061AY221061GF107991051071004501041061KA1240N+01951MA1999999096791MD1999999-0031MW1031REMSYN088AAXX  20124 83242 21497 70901 10217 20194 39679 40178 70352 85746 333 20195 59003 69954;
0167832420999992003062018004-12570-041380FM-12+042799999V0202301N001010450019N0100001N1+02651+01681101391ADDAA106000091GF106991041021004501051021MA1999999096451MD1999999-0121REMSYN070AAXX  20184 83242 32497 62302 10265 20168 39645 40139 84252 333 59012;EQDQ01  00002PRCP06
0210832420999992003062100004-12570-041380FM-12+042799999V0201801N001010042019N0005001N1+02101+01861101631ADDAA106000091GF107991071051004501001001KA1240M+02781MA1999999096651MD1999999-0121MW1101REMSYN094AAXX  21004 83242 31493 71802 10210 20186 39665 40163 710// 87500 333 10278 29078 55041 59012;EQDQ01  00002PRCP06
0198832420999992003062112004-12570-041380FM-12+042799999V0201801N001510042019N0040001N1+02201+01901101841ADDAA106000091GF108991081071004501999999KA1240N+02011MA1999999096851MD1999999+0061MW1101REMSYN082AAXX  21124 83242 31496 81803 10220 20190 39685 40184 710// 887// 333 20201 58006;EQDQ01  00002PRCP06
0167832420999992003062118004-12570-041380FM-12+042799999V0203201N001010450019N0100001N1+02831+01791101321ADDAA106000091GF105991031031004501081021MA1999999096401MD1999999-0051REMSYN070AAXX  21184 83242 32497 53202 10283 20179 39640 40132 83382 333 59005;EQDQ01  00002PRCP06
0198832420999992003062212004-12570-041380FM-12+042799999V0200901N001510042019N0040001N1+02241+01821101691ADDAA106000091GF107991061071004501081001KA1240N+01981MA1999999096721MD1999999-0131MW1051REMSYN082AAXX  22124 83242 31496 70903 10224 20182 39672 40169 705// 86780 333 20198 59013;EQDQ01  00002PRCP06
0198832420999992003062312004-12570-041380FM-12+042799999V0201801N000510450019N0040001N1+02191+01801101791ADDAA106000091GF106991041051004501071001KA1240N+01771MA1999999096821MD1999999+0101MW1051REMSYN082AAXX  23124 83242 31496 61801 10219 20180 39682 40179 705// 84570 333 20177 58010;EQDQ01  00002PRCP06
0179832420999992003062318004-12570-041380FM-12+042799999V0201801N001510450019N0040001N1+02661+01531101511ADDAA106000091GF107991041041004501021021MA1999999096551MD1999999+0221MW1051REMSYN076AAXX  23184 83242 31496 71803 10266 20153 39655 40151 705// 84422 333 58022;EQDQ01  00002PRCP06
0210832420999992003062400004-12570-041380FM-12+042799999V0201801N000512200019N0005001N1+02081+01721101741ADDAA106000091GF104991041051022501001001KA1240M+02771MA1999999096751MD1999999+0231MW1051REMSYN094AAXX  24004 83242 31893 41801 10208 20172 39675 40174 705// 84500 333 10277 29072 55076 58023;EQDQ01  00002PRCP06
0198832420999992003062412004-12570-041380FM-12+042799999V0201801N001510450019N0040001N1+02081+01681102031ADDAA106000091GF108991021011004501021071KA1240N+01731MA1999999097021MD1999999+0201MW1051REMSYN082AAXX  24124 83242 31496 81803 10208 20168 39702 40203 705// 82127 333 20173 58020;EQDQ01  00002PRCP06
0179832420999992003062418004-12570-041380FM-12+042799999V0201401N002110450019N0040001N1+02841+01671101531ADDAA106000091GF106991021021004501051001MA1999999096601MD1999999+0051MW1051REMSYN076AAXX  24184 83242 31496 61404 10284 20167 39660 40153 705// 82250 333 58005;EQDQ01  00002PRCP06
0210832420999992003062500004-12570-041380FM-12+042799999V0202301N001010042019N0005001N1+02181+01651101841ADDAA106000091GF107991071071004501001001KA1240M+02921MA1999999096851MD1999999+0101MW1051REMSYN094AAXX  25004 83242 31493 72302 10218 20165 39685 40184 705// 87700 333 10292 29068 55092 58010;EQDQ01  00002PRCP06
0190832420999992003062512004-12570-041380FM-12+042799999V0201801N001510042019N0040001N1+02161+01931102001ADDAY151061AY221061GF107991061071004501031001KA1240N+01911MA1999999097001MD1999999-0021MW1101REMSYN088AAXX  25124 83242 21496 71803 10216 20193 39700 40200 71052 86730 333 20191 59002 69944;
0171832420999992003062518004-12570-041380FM-12+042799999V0201801N002610450019N0100001N1+02661+01771101491ADDAY151061AY241061GF106991041051004501051001MA1999999096561MD1999999-0041MW1021REMSYN082AAXX  25184 83242 21497 61805 10266 20177 39656 40149 70254 84550 333 59004 69921;
0202832420999992003062600004-12570-041380FM-12+042799999V0201801N001510042019N0010001N1+02341+01871101731ADDAY151061AY221061GF108991081071004501999999KA1240M+02721MA1999999096761MD1999999-0091MW1501REMSYN100AAXX  26004 83242 21494 81803 10234 20187 39676 40173 75052 887// 333 10272 29074 55042 59009 69911;
0190832420999992003062612004-12570-041380FM-12+042799999V0202301N001510042019N0020001N1+02011+01971101981ADDAY161061AY221061GF108991081071004501999999KA1240N+01911MA1999999096991MD1999999-0011MW1501REMSYN088AAXX  26124 83242 21495 82303 10201 20197 39699 40198 75062 887// 333 20191 59001 60174;
0171832420999992003062618004-12570-041380FM-12+042799999V0201801N002112200019N0100001N1+02471+01801101491ADDAY151061AY221061GF104991021041004501041001MA1999999096521MD1999999-0041MW1021REMSYN082AAXX  26184 83242 21497 41804 10247 20180 39652 40149 70252 82440 333 59004 69951;
0162832420999992003062712004-12570-041380FM-12+042799999V0201401N001519999999N0040001N1+02071+01761101921ADDGF107991011001004501999999KA1240N+01851MA1999999096911MD1999999-0081REMSYN082AAXX  27124 83242 22496 71403 10207 20176 39691 40192 810// 333 20185 59008 69954;
0183832420999992003062718004-12570-041380FM-12+042799999V0201401N000519999999N0100001N1+02601+01411101471ADDAA106000091GF108991001001999999001071MA1999999096521MD1999999+0001REMSYN070AAXX  27184 83242 32997 81401 10260 20141 39652 40147 88007 333 58000;EQDQ01+000082SCOTLCQ02  00002PRCP06
0208832420999992003062800004-12570-041380FM-12+042799999V0203201N000512200019N0020001N1+02021+01061101771ADDAA106000091GA1001+999999999GF100991001001999999001001KA1240M+02721MA1999999096761MD1999999+0011REMSYN082AAXX  28004 83242 32995 03201 10202 20106 39676 40177 333 10272 29060 55091 58001;EQDQ01  00002PRCP06
0186832420999992003062812004-12570-041380FM-12+042799999V0201801N001010042019N0100001N1+01981+01521102031ADDAA106000091GF107991061011004501031001KA1240N+01591MA1999999097001MD1999999+0091REMSYN076AAXX  28124 83242 32497 71802 10198 20152 39700 40203 86130 333 20159 58009;EQDQ01  00002PRCP06
0167832420999992003062818004-12570-041380FM-12+042799999V0203201N001010450019N0100001N1+02741+01411101531ADDAA106000091GF105991021031004501031001MA1999999096561MD1999999+0041REMSYN070AAXX  28184 83242 32497 53202 10274 20141 39656 40153 82330 333 58004;EQDQ01  00002PRCP06
0198832420999992003062912004-12570-041380FM-12+042799999V0200901N001511050019N0040001N1+02181+01651101901ADDAA106000091GF107991041021004501001021KA1240N+01791MA1999999096901MD1999999-0101MW1051REMSYN082AAXX  29124 83242 31496 70903 10218 20165 39690 40190 705// 84202 333 20179 59010;EQDQ01  00002PRCP06
0179832420999992003062918004-12570-041380FM-12+042799999V0201401N001510450019N0100001N1+02701+01541101401ADDAA106000091GF106991041011004501051001MA1999999096471MD1999999-0091MW1051REMSYN076AAXX  29184 83242 31497 61403 10270 20154 39647 40140 705// 84150 333 59009;EQDQ01  00002PRCP06
0198832420999992003063012004-12570-041380FM-12+042799999V0201801N001510042019N0040001N1+01901+01691102061ADDAA106000091GF107991071071004501001001KA1240N+01611MA1999999097011MD1999999+0111MW1101REMSYN082AAXX  30124 83242 31496 71803 10190 20169 39701 40206 710// 87700 333 20161 58011;EQDQ01  00002PRCP06
0167832420999992003063018004-12570-041380FM-12+042799999V0201801N000510450019N0100001N1+02601+01411101621ADDAA106000091GF106991041051004501031001MA1999999096651MD1999999+0181REMSYN070AAXX  30184 83242 32497 61801 10260 20141 39665 40162 84530 333 58018;EQDQ01  00002PRCP06
0208832420999992003070100004-12570-041380FM-12+042799999V0202701N001012200019N0020001N1+02011+01341101901ADDAA106000091GA1001+999999999GF100991001001999999001001KA1240M+02751MA1999999096861MD1999999+0131REMSYN082AAXX  01004 83242 32995 02702 10201 20134 39686 40190 333 10275 29067 55061 58013;EQDQ01  00002PRCP06
0198832420999992003070112004-12570-041380FM-12+042799999V0201801N001012200019N0040001N1+01901+01251102161ADDAA106000091GF104991021011004501031001KA1240N+01201MA1999999097111MD1999999+0101MW1051REMSYN082AAXX  01124 83242 31496 41802 10190 20125 39711 40216 705// 82130 333 20120 58010;EQDQ01  00002PRCP06
0179832420999992003070118004-12570-041380FM-12+042799999V0201801N002610450019N0040001N1+02721+01491101711ADDAA106000091GF105991041051004501031001MA1999999096691MD1999999+0041MW1051REMSYN076AAXX  01184 83242 31496 51805 10272 20149 39669 40171 705// 84530 333 58004;EQDQ01  00002PRCP06
0221832420999992003070200004-12570-041380FM-12+042799999V0201801N001010042019N0020001N1+02101+01601102011ADDAY151061AY241061GF105991051071004501001001KA1240M+02741MA1999999999999MD1999999+0121MW1031REMSYN100AAXX  02004 83242 21495 51802 10210 20160 30020 40201 70354 85700 333 10274 29065 55101 58012 69901;EQDQ01 100203APOSP 
0174832420999992003070212004-12570-041380FM-12+042799999V0202301N002610450019N0040001N1+02121+01511102051ADDGF106991041071004501031001KA1240N+01711MA1999999097011MD1999999-0101MW1051REMSYN088AAXX  02124 83242 21496 62305 10212 20151 39701 40205 705// 84730 333 20171 59010 60004;
0167832420999992003070218004-12570-041380FM-12+042799999V0202301N001010042019N0100001N1+02601+01481101651ADDAA106000091GF107991071071004501001001MA1999999096661MD1999999-0041REMSYN070AAXX  02184 83242 32497 72302 10260 20148 39666 40165 87700 333 59004;EQDQ01  00002PRCP06
0208832420999992003070300004-12570-041380FM-12+042799999V0209999C000012200019N0020001N1+01941+01531101741ADDAA106000091GA1001+999999999GF100991001001999999001001KA1240M+03261MA1999999096731MD1999999-0251REMSYN082AAXX  03004 83242 32995 00000 10194 20153 39673 40174 333 10326 29068 55045 59025;EQDQ01  00002PRCP06
0190832420999992003070312004-12570-041380FM-12+042799999V0201401N001010042019N0040001N1+02111+01761101951ADDAY151061AY201061GF106991051071004501041001KA1240N+01731MA1999999096921MD1999999-0091MW1101REMSYN088AAXX  03124 83242 21496 61402 10211 20176 39692 40195 71050 85740 333 20173 59009 69904;
0179832420999992003070318004-12570-041380FM-12+042799999V0203201N000512200019N0040001N1+03001+01331101401ADDAA106000091GF102991021021004501001001MA1999999096491MD1999999-0171MW1051REMSYN076AAXX  03184 83242 31496 23201 10300 20133 39649 40140 705// 82200 333 59017;EQDQ01  00002PRCP06
0198832420999992003070400004-12570-041380FM-12+042799999V0202301N001512200019N0020001N1+02101+01551101701ADDAA106000091GF104991041001022501081001KA1240M+03001MA1999999096701MD1999999-0031REMSYN088AAXX  04004 83242 32895 42303 10210 20155 39670 40170 84080 333 10300 29064 55078 59003;EQDQ01  00002PRCP06
0198832420999992003070412004-12570-041380FM-12+042799999V0200501N000510042019N0040001N1+02041+01621101991ADDAA106000091GF107991061071004501081001KA1240N+01871MA1999999096971MD1999999+0051MW1401REMSYN082AAXX  04124 83242 31496 70501 10204 20162 39697 40199 740// 86780 333 20187 58005;EQDQ01  00002PRCP06
0179832420999992003070418004-12570-041380FM-12+042799999V0201801N002112200019N0040001N1+02801+01241101451ADDAA106000091GF103991021041004501071001MA1999999096531MD1999999+0061MW1051REMSYN076AAXX  04184 83242 31496 31804 10280 20124 39653 40145 705// 82470 333 58006;EQDQ01  00002PRCP06
0198832420999992003070500004-12570-041380FM-12+042799999V0203601N002612200019N0020001N1+01921+01321101621ADDAA106000091GF101991011001022501051001KA1240M+02801MA1999999096611MD1999999-0091REMSYN088AAXX  05004 83242 32895 13605 10192 20132 39661 40162 81050 333 10280 29063 55060 59009;EQDQ01  00002PRCP06
0198832420999992003070512004-12570-041380FM-12+042799999V0201801N001010450019N0040001N1+01941+01441101851ADDAA106000091GF108991031011004501051071KA1240N+01411MA1999999096821MD1999999-0151MW1051REMSYN082AAXX  05124 83242 31496 81802 10194 20144 39682 40185 705// 83157 333 20141 59015;EQDQ01  00002PRCP06
0179832420999992003070518004-12570-041380FM-12+042799999V0202301N002112200019N0040001N1+02701+01231101361ADDAA106000091GF104991031041004501031001MA1999999096371MD1999999-0161MW1051REMSYN076AAXX  05184 83242 31496 42304 10270 20123 39637 40136 705// 83430 333 59016;EQDQ01  00002PRCP06
0198832420999992003070600004-12570-041380FM-12+042799999V0201401N000510042019N0020001N1+02201+01461101491ADDAA106000091GF106991061071004501001001KA1240M+02701MA1999999096491MD1999999-0121REMSYN088AAXX  06004 83242 32495 61401 10220 20146 39649 40149 86700 333 10270 29060 55100 59012;EQDQ01  00002PRCP06
0198832420999992003070612004-12570-041380FM-12+042799999V0201801N001010042019N0040001N1+02121+01621101731ADDAA106000091GF108991051071004501041061KA1240N+01751MA1999999096741MD1999999-0081MW1051REMSYN082AAXX  06124 83242 31496 81802 10212 20162 39674 40173 705// 85746 333 20175 59008;EQDQ01  00002PRCP06
0179832420999992003070618004-12570-041380FM-12+042799999V0201401N001510450019N0040001N1+02801+01311101241ADDAA106000091GF108991031011004501041071MA1999999096331MD1999999-0041MW1051REMSYN076AAXX  06184 83242 31496 81403 10280 20131 39633 40124 705// 83147 333 59004;EQDQ01  00002PRCP06
0186832420999992003070712004-12570-041380FM-12+042799999V0200901N001010042019N0100001N1+02221+01711101851ADDAA106000091GF106991051071004501041001KA1240N+01591MA1999999096851MD1999999+0111REMSYN076AAXX  07124 83242 32497 60902 10222 20171 39685 40185 85740 333 20159 58011;EQDQ01  00002PRCP06
0167832420999992003070718004-12570-041380FM-12+042799999V0203601N001012200019N0100001N1+02861+01411101301ADDAA106000091GF104991021011004501031001MA1999999096391MD1999999+0061REMSYN070AAXX  07184 83242 32497 43602 10286 20141 39639 40130 82130 333 58006;EQDQ01  00002PRCP06
0198832420999992003070800004-12570-041380FM-12+042799999V0203201N000512200019N0020001N1+02081+01581101611ADDAA106000091GF102991021001022501051001KA1240M+02921MA1999999096631MD1999999+0021REMSYN088AAXX  08004 83242 32895 23201 10208 20158 39663 40161 82050 333 10292 29065 55083 58002;EQDQ01  00002PRCP06
0198832420999992003070812004-12570-041380FM-12+042799999V0201401N001510042019N0040001N1+02201+01721101911ADDAA106000091GF107991051051004501081001KA1240N+01781MA1999999096911MD1999999-0191MW1051REMSYN082AAXX  08124 83242 31496 71403 10220 20172 39691 40191 705// 85580 333 20178 59019;EQDQ01  00002PRCP06
0179832420999992003070818004-12570-041380FM-12+042799999V0201401N002610450019N0100001N1+02701+01541101421ADDAA106000091GF106991041021004501081011MA1999999096491MD1999999+0101MW1051REMSYN076AAXX  08184 83242 31497 61405 10270 20154 39649 40142 705// 84281 333 58010;EQDQ01  00002PRCP06
0198832420999992003070900004-12570-041380FM-12+042799999V0203601N001010210019N0020001N1+02081+01681101611ADDAA106000091GF106991061001022501031001KA1240M+02801MA1999999096631MD1999999+0001REMSYN088AAXX  09004 83242 32895 63602 10208 20168 39663 40161 86030 333 10280 29070 55077 58000;EQDQ01  00002PRCP06
0186832420999992003070912004-12570-041380FM-12+042799999V0200501N001010450019N0100001N1+02071+01601101841ADDAA106000091GF106991041041004501081001KA1240N+01431MA1999999096841MD1999999-0071REMSYN076AAXX  09124 83242 32497 60502 10207 20160 39684 40184 84480 333 20143 59007;EQDQ01  00002PRCP06
0179832420999992003070918004-12567-041383FM-12+042799999V0201801N001011050019N0040001N1+02861+01161101261ADDAA106000091GF108991021021004501001071MA1999999096311MD1999999-0181MW1051REMSYN076AAXX  09184 83242 31496 81802 10286 20116 39631 40126 705// 82207 333 59018;EQDQ01  00002PRCP06
0208832420999992003071000004-12567-041383FM-12+042799999V0201401N001512200019N0020001N1+02011+01291101611ADDAA106000091GA1001+999999999GF100991001001999999001001KA1240M+02861MA1999999096611MD1999999-0021REMSYN082AAXX  10004 83242 32995 01403 10201 20129 39661 40161 333 10286 29059 55087 59002;EQDQ01  00002PRCP06
0198832420999992003071012004-12567-041383FM-12+042799999V0202301N000511050019N0040001N1+02081+01581101781ADDAA106000091GF108991021011004501001071KA1240N+01551MA1999999096771MD1999999-0071MW1051REMSYN082AAXX  10124 83242 31496 82301 10208 20158 39677 40178 705// 82107 333 20155 59007;EQDQ01  00002PRCP06
0179832420999992003071018004-12567-041383FM-12+042799999V0203601N002112200019N0040001N1+02901+01161101321ADDAA106000091GF104991021041004501031041MA1999999096371MD1999999+0061MW1051REMSYN076AAXX  10184 83242 31496 43604 10290 20116 39637 40132 705// 82434 333 58006;EQDQ01  00002PRCP06
0198832420999992003071100004-12567-041383FM-12+042799999V0209999C000010042019N0020001N1+02441+01691101641ADDAA106000091GF108991081071004501999999KA1240M+03021MA1999999096671MD1999999+0061REMSYN088AAXX  11004 83242 32495 80000 10244 20169 39667 40164 887// 333 10302 29058 55098 58006;EQDQ01  00002PRCP06
0190832420999992003071112004-12567-041383FM-12+042799999V0201801N001010042019N0020001N1+02041+01941101891ADDAY151061AY241061GF108991081071004501999999KA1240N+01951MA1999999096911MD1999999+0141MW1501REMSYN088AAXX  11124 83242 21495 81802 10204 20194 39691 40189 75054 887// 333 20195 58014 69914;
0176832420999992003071118004-12567-041383FM-12+042799999V0202301N001510042019N0040001N1+02601+01961101541ADDAA106000021AY151061AY221061GF107991061071004501031001MA1999999096591MD1999999+0221MW1151REMSYN076AAXX  11184 83242 31496 72303 10260 20196 39659 40154 71552 86730 333 58022;
0226832420999992003071200004-12567-041383FM-12+042799999V0203601N000510042019N0020001N1+02181+02011101791ADDAA106000091AY151061AY221061GF107991061071004501031001KA1240M+02661MA1999999096791MD1999999+0121MW1031REMSYN094AAXX  12004 83242 31495 73601 10218 20201 39679 40179 70352 86730 333 10266 29086 55009 58012;EQDQ01  00002PRCP06
0198832420999992003071212004-12567-041383FM-12+042799999V0201401N001510042019N0040001N1+02201+01821102061ADDAA106000091GF107991061071004501081001KA1240N+01891MA1999999097061MD1999999+0151MW1051REMSYN082AAXX  12124 83242 31496 71403 10220 20182 39706 40206 705// 86780 333 20189 58015;EQDQ01  00002PRCP06
0167832420999992003071218004-12567-041383FM-12+042799999V0201801N003110450019N0100001N1+02911+01301101491ADDAA106000091GF105991041011004501051001MA1999999096581MD1999999-0011REMSYN070AAXX  12184 83242 32497 51806 10291 20130 39658 40149 84150 333 59001;EQDQ01  00002PRCP06
0186832420999992003071312004-12567-041383FM-12+042799999V0201801N002610450019N0100001N1+02121+01571102111ADDAA106000091GF107991011031004501031031KA1240N+01641MA1999999097111MD1999999+0051REMSYN076AAXX  13124 83242 32497 71805 10212 20157 39711 40211 81333 333 20164 58005;EQDQ01  00002PRCP06
0171832420999992003071318004-12567-041383FM-12+042799999V0201801N003110042019N0040001N1+02401+01701101781ADDAY151061AY221061GF108991081071004501999999MA1999999096801MD1999999+0221MW1151REMSYN082AAXX  13184 83242 21496 81806 10240 20170 39680 40178 71552 887// 333 58022 69901;
0190832420999992003071412004-12567-041383FM-12+042799999V0202301N000510450019N0100001N1+01961+01681102181ADDAY151061AY241061GF108991011011004501081071KA1240N+01571MA1999999097131MD1999999+0021MW1031REMSYN088AAXX  14124 83242 21497 82301 10196 20168 39713 40218 70354 81187 333 20157 58002 60084;
0167832420999992003071418004-12567-041383FM-12+042799999V0201401N004610450019N0100001N1+02821+01411101601ADDAA106000091GF105991041021004501081001MA1999999096671MD1999999-0151REMSYN070AAXX  14184 83242 32497 51409 10282 20141 39667 40160 84280 333 59015;EQDQ01  00002PRCP06
0198832420999992003071500004-12567-041383FM-12+042799999V0203601N002610450019N0020001N1+02021+01501101901ADDAA106000091GF106991041051004501081001KA1240M+02921MA1999999096871MD1999999-0191REMSYN088AAXX  15004 83242 32495 63605 10202 20150 39687 40190 84580 333 10292 29068 55091 59019;EQDQ01  00002PRCP06
0186832420999992003071512004-12567-041383FM-12+042799999V0201801N002610042019N0100001N1+02131+01501102131ADDAA106000091GF107991051071004501061001KA1240N+01691MA1999999097111MD1999999-0021REMSYN076AAXX  15124 83242 32497 71805 10213 20150 39711 40213 85760 333 20169 59002;EQDQ01  00002PRCP06
0167832420999992003071518004-12567-041383FM-12+042799999V0201801N004110042019N0100001N1+02511+01581101711ADDAA106000091GF108991081071004501999999MA1999999096721MD1999999+0071REMSYN070AAXX  15184 83242 32497 81808 10251 20158 39672 40171 887// 333 58007;EQDQ01  00002PRCP06
0202832420999992003071600004-12567-041383FM-12+042799999V0201801N002610042019N0010001N1+01961+01881102001ADDAY121061AY211061GF108991081071004501999999KA1240M+02601MA1999999096981MD1999999-0081MW1501REMSYN100AAXX  16004 83242 21494 81805 10196 20188 39698 40200 75021 887// 333 10260 29078 55017 59008 69951;
0190832420999992003071612004-12567-041383FM-12+042799999V0201801N001510042019N0040001N1+01941+01701102191ADDAY161061AY251061GF108991081071004501999999KA1240N+01671MA1999999097141MD1999999+0031MW1101REMSYN088AAXX  16124 83242 21496 81803 10194 20170 39714 40219 71065 887// 333 20167 58003 60024;
0179832420999992003071618004-12567-041383FM-12+042799999V0201801N002110042019N0040001N1+02361+01461101731ADDAA106000091GF108991081071004501999999MA1999999096891MD1999999+0171MW1151REMSYN076AAXX  16184 83242 31496 81804 10236 20146 39689 40173 715// 887// 333 58017;EQDQ01  00002PRCP06
0198832420999992003071700004-12567-041383FM-12+042799999V0201801N001510042019N0020001N1+02181+01591102071ADDAA106000091GF108991081071004501999999KA1240M+02451MA1999999097051MD1999999+0071REMSYN088AAXX  17004 83242 32495 81803 10218 20159 39705 40207 887// 333 10245 29070 55000 58007;EQDQ01  00002PRCP06
0186832420999992003071712004-12567-041383FM-12+042799999V0201801N004110042019N0040001N1+02101+01661102161ADDAA106000091GF108991081051004501999999KA1240N+01821MA1999999097151MD1999999+0011REMSYN076AAXX  17124 83242 32496 81808 10210 20166 39715 40216 885// 333 20182 58001;EQDQ01  00002PRCP06
0171832420999992003071718004-12567-041383FM-12+042799999V0202301N001010042019N0020001N1+01941+01791101971ADDAY161061AY221061GF108991081071004501999999MA1999999096911MD1999999+0021MW1201REMSYN082AAXX  17184 83242 21495 82302 10194 20179 39691 40197 72062 887// 333 58002 60021;
0202832420999992003071800004-12567-041383FM-12+042799999V0201801N001510042019N0010001N1+01961+01891102171ADDAY161061AY241061GF108991081071004501999999KA1240M+02421MA1999999097141MD1999999+0091MW1511REMSYN100AAXX  18004 83242 21494 81803 10196 20189 39714 40217 75164 887// 333 10242 29090 55000 58009 60151;
0190832420999992003071812004-12567-041383FM-12+042799999V0201801N001510450019N0100001N1+02021+01641102351ADDAY161061AY251061GF106991041071004501051051KA1240N+01711MA1999999097301MD1999999+0151MW1031REMSYN088AAXX  18124 83242 21497 61803 10202 20164 39730 40235 70365 84755 333 20171 58015 60184;
0179832420999992003071818004-12567-041383FM-12+042799999V0201801N002610450019N0040001N1+02401+01501101981ADDAA106000091GF105991041071004501051001MA1999999096961MD1999999+0051MW1151REMSYN076AAXX  18184 83242 31496 51805 10240 20150 39696 40198 715// 84750 333 58005;EQDQ01  00002PRCP06
0198832420999992003071900004-12567-041383FM-12+042799999V0202301N000510042019N0020001N1+02141+01741102151ADDAA106000091GF108991081071004501999999KA1240M+02581MA1999999097131MD1999999+0011REMSYN088AAXX  19004 83242 32495 82301 10214 20174 39713 40215 887// 333 10258 29073 55017 58001;EQDQ01  00002PRCP06
0186832420999992003071912004-12567-041383FM-12+042799999V0202301N003110042019N0100001N1+02111+01601102351ADDAA106000091GF107991061071004501081001KA1240N+01731MA1999999097321MD1999999+0021REMSYN076AAXX  19124 83242 32497 72306 10211 20160 39732 40235 86780 333 20173 58002;EQDQ01  00002PRCP06
0167832420999992003071918004-12567-041383FM-12+042799999V0201801N001510042019N0100001N1+02401+01441102001ADDAA106000091GF106991051061004501031001MA1999999096991MD1999999+0031REMSYN070AAXX  19184 83242 32497 61803 10240 20144 39699 40200 85630 333 58003;EQDQ01  00002PRCP06
0186832420999992003072012004-12567-041383FM-12+042799999V0202301N002110042019N0040001N1+02001+01581102241ADDAA106000091GF107991061061004501051001KA1240N+01621MA1999999097171MD1999999-0151REMSYN076AAXX  20124 83242 32496 72304 10200 20158 39717 40224 86650 333 20162 59015;EQDQ01  00002PRCP06
0179832420999992003072018004-12567-041383FM-12+042799999V0201801N001512200019N0040001N1+02801+01241101711ADDAA106000091GF104991031041004501031001MA1999999096721MD1999999-0271MW1051REMSYN076AAXX  20184 83242 31496 41803 10280 20124 39672 40171 705// 83430 333 59027;EQDQ01  00002PRCP06
0186832420999992003072112004-12567-041383FM-12+042799999V0201401N001010450019N0100001N1+01891+01431102141ADDAA106000091GF106991041061004501051001KA1240N+01341MA1999999097081MD1999999-0091REMSYN076AAXX  21124 83242 32497 61402 10189 20143 39708 40214 84650 333 20134 59009;EQDQ01  00002PRCP06
0179832420999992003072118004-12567-041383FM-12+042799999V0201401N002110042019N0040001N1+02601+01381101771ADDAA106000091GF106991051071004501031001MA1999999096741MD1999999+0021MW1151REMSYN076AAXX  21184 83242 31496 61404 10260 20138 39674 40177 715// 85730 333 58002;EQDQ01  00002PRCP06
0202832420999992003072200004-12567-041383FM-12+042799999V0202701N000510042019N0010001N1+02001+01921102001ADDAY161061AY251061GF107991071071004501001001KA1240M+02681MA1999999096951MD1999999-0011MW1101REMSYN100AAXX  22004 83242 21494 72701 10200 20192 39695 40200 71065 87700 333 10268 29078 55042 59001 60011;
0190832420999992003072212004-12567-041383FM-12+042799999V0201801N002610042019N0020001N1+02011+01871102241ADDAY161061AY241061GF107991061071004501081001KA1240N+01781MA1999999097191MD1999999+0111MW1101REMSYN088AAXX  22124 83242 21495 71805 10201 20187 39719 40224 71064 86780 333 20178 58011 60044;
0167832420999992003072218004-12567-041383FM-12+042799999V0201801N001510450019N0100001N1+02601+01411101701ADDAA106000091GF106991041061004501051001MA1999999096741MD1999999+0001REMSYN070AAXX  22184 83242 32497 61803 10260 20141 39674 40170 84650 333 58000;EQDQ01  00002PRCP06
0198832420999992003072300004-12567-041383FM-12+042799999V0201801N001012200019N0020001N1+02061+01431102001ADDAA106000091GF103991031001012501031001KA1240M+02751MA1999999096981MD1999999+0031REMSYN088AAXX  23004 83242 32695 31802 10206 20143 39698 40200 83030 333 10275 29068 55050 58003;EQDQ01  00002PRCP06
0186832420999992003072312004-12567-041383FM-12+042799999V0201801N003110450019N0040001N1+02121+01231102171ADDAA106000091GF107991031051004501031001KA1240N+01741MA1999999097151MD1999999-0051REMSYN076AAXX  23124 83242 32496 71806 10212 20123 39715 40217 83530 333 20174 59005;EQDQ01  00002PRCP06
0179832420999992003072318004-12567-041383FM-12+042799999V0201801N002110042019N0040001N1+02801+01551101751ADDAA106000091GF107991061071004501031001MA1999999096801MD1999999+0141MW1151REMSYN076AAXX  23184 83242 31496 71804 10280 20155 39680 40175 715// 86730 333 58014;EQDQ01  00002PRCP06
0202832420999992003072400004-12567-041383FM-12+042799999V0201401N002110042019N0010001N1+02021+01901102041ADDAY161061AY221061GF108991081071004501999999KA1240M+02801MA1999999097021MD1999999+0041MW1501REMSYN100AAXX  24004 83242 21494 81404 10202 20190 39702 40204 75062 887// 333 10280 29072 55053 58004 60021;
0190832420999992003072412004-12567-041383FM-12+042799999V0201801N001510042019N0100001N1+02061+01821102051ADDAY161061AY251061GF106991051071004501051001KA1240N+01791MA1999999097031MD1999999-0121MW1031REMSYN088AAXX  24124 83242 21497 61803 10206 20182 39703 40205 70365 85750 333 20179 59012 60044;
0179832420999992003072418004-12567-041383FM-12+042799999V0201401N001510042019N0040001N1+02601+01641101621ADDAA106000091GF106991051061004501091001MA1999999096661MD1999999-0141MW1151REMSYN076AAXX  24184 83242 31496 61403 10260 20164 39666 40162 715// 85690 333 59014;EQDQ01  00002PRCP06
0198832420999992003072500004-12567-041383FM-12+042799999V0202301N001512200019N0020001N1+02021+01661101901ADDAA106000091GF102991021001022501081001KA1240M+02761MA1999999096881MD1999999-0141REMSYN088AAXX  25004 83242 32895 22303 10202 20166 39688 40190 82080 333 10276 29075 55054 59014;EQDQ01  00002PRCP06
0190832420999992003072512004-12567-041383FM-12+042799999V0202301N002610042019N0040001N1+02101+01841102191ADDAY161061AY241061GF108991081071004501999999KA1240N+01851MA1999999097161MD1999999+0121MW1101REMSYN088AAXX  25124 83242 21496 82305 10210 20184 39716 40219 71064 887// 333 20185 58012 60014;
0171832420999992003072518004-12567-041383FM-12+042799999V0201801N002110042019N0040001N1+02601+01681101681ADDAY151061AY221061GF106991051071004501091001MA1999999096721MD1999999+0061MW1151REMSYN082AAXX  25184 83242 21496 61804 10260 20168 39672 40168 71552 85790 333 58006 69901;
0198832420999992003072600004-12567-041383FM-12+042799999V0200501N001010042019N0020001N1+02021+01871102051ADDAA106000091GF105991051061004501001001KA1240M+02621MA1999999097031MD1999999+0151REMSYN088AAXX  26004 83242 32495 50502 10202 20187 39703 40205 85600 333 10262 29081 55023 58015;EQDQ01  00002PRCP06
0202832420999992003072612004-12567-041383FM-12+042799999V0201801N002619999999N0040001N1+02121+01741102241ADDAA106000091GF107991999051004501999999KA1240N+01871MA1999999097211MD1999999+0051REMSYN076AAXX  26124 83242 31496 71805 10212 20174 39721 40224 805// 333 20187 58005;EQDQ01+000002SCOTLCQ02  00002PRCP06
0179832420999992003072618004-12567-041383FM-12+042799999V0201801N002110450019N0040001N1+02721+01491101711ADDAA106000091GF105991031041004501091001MA1999999096761MD1999999+0041MW1051REMSYN076AAXX  26184 83242 31496 51804 10272 20149 39676 40171 705// 83490 333 58004;EQDQ01  00002PRCP06
0202832420999992003072700004-12567-041383FM-12+042799999V0202301N003110042019N0005001N1+02121+00171102011ADDAY141061AY211061GF108991081071004501999999KA1240M+02761MA1999999097001MD1999999-0031MW1631REMSYN100AAXX  27004 83242 21493 82306 10212 20017 39700 40201 76341 887// 333 10276 29070 55055 59003 60011;
0190832420999992003072712004-12567-041383FM-12+042799999V0202301N003110042019N0020001N1+01921+01721102021ADDAY161061AY251061GF108991081071004501999999KA1240N+01731MA1999999096991MD1999999-0221MW1101REMSYN088AAXX  27124 83242 21495 82306 10192 20172 39699 40202 71065 887// 333 20173 59022 60074;
0179832420999992003072718004-12567-041383FM-12+042799999V0201401N001510450019N0040001N1+02761+01281101641ADDAA106000091GF105991031051004501031001MA1999999096681MD1999999-0081MW1051REMSYN076AAXX  27184 83242 31496 51403 10276 20128 39668 40164 705// 83530 333 59008;EQDQ01  00002PRCP06
0198832420999992003072800004-12567-041383FM-12+042799999V0201801N002110042019N0020001N1+02201+01651101951ADDAA106000091GF108991081071004501999999KA1240M+02781MA1999999096931MD1999999-0071REMSYN088AAXX  28004 83242 32495 81804 10220 20165 39693 40195 887// 333 10278 29068 55060 59007;EQDQ01  00002PRCP06
0186832420999992003072812004-12567-041383FM-12+042799999V0201801N002110042019N0040001N1+02021+01721102161ADDAA106000091GF108991081071004501999999KA1240N+01691MA1999999097141MD1999999+0151REMSYN076AAXX  28124 83242 32496 81804 10202 20172 39714 40216 887// 333 20169 58015;EQDQ01  00002PRCP06
0179832420999992003072818004-12567-041383FM-12+042799999V0201801N002110450019N0040001N1+02601+01481101681ADDAA106000091GF106991031071004501041091MA1999999096701MD1999999+0021MW1151REMSYN076AAXX  28184 83242 31496 61804 10260 20148 39670 40168 715// 83749 333 58002;EQDQ01  00002PRCP06
0202832420999992003072900004-12567-041383FM-12+042799999V0200901N001510042019N0005001N1+02021+01811102081ADDAY151061AY221061GF108991081071004501999999KA1240M+02661MA1999999097051MD1999999+0121MW1501REMSYN100AAXX  29004 83242 21493 80903 10202 20181 39705 40208 75052 887// 333 10266 29077 55049 58012 69931;
0190832420999992003072912004-12567-041383FM-12+042799999V0201801N002610042019N0040001N1+02011+01641102241ADDAY151061AY221061GF107991061071004501061001KA1240N+01731MA1999999097191MD1999999+0051MW1051REMSYN088AAXX  29124 83242 21496 71805 10201 20164 39719 40224 70552 86760 333 20173 58005 60014;
0167832420999992003072918004-12567-041383FM-12+042799999V0201801N001510042019N0100001N1+02501+01391101791ADDAA106000091GF106991051071004501091001MA1999999096821MD1999999+0121REMSYN070AAXX  29184 83242 32497 61803 10250 20139 39682 40179 85790 333 58012;EQDQ01  00002PRCP06
0198832420999992003073000004-12567-041383FM-12+042799999V0201801N000510042019N0020001N1+02041+01641102041ADDAA106000091GF108991081071004501999999KA1240M+02501MA1999999097011MD1999999-0041REMSYN088AAXX  30004 83242 32495 81801 10204 20164 39701 40204 887// 333 10250 29071 55019 59004;EQDQ01  00002PRCP06
0190832420999992003073012004-12567-041383FM-12+042799999V0201801N001010042019N0040001N1+01931+01771102151ADDAY151061AY221061GF107991061071004501031001KA1240N+01661MA1999999097111MD1999999-0081MW1101REMSYN088AAXX  30124 83242 21496 71802 10193 20177 39711 40215 71052 86730 333 20166 59008 69954;
0179832420999992003073018004-12567-041383FM-12+042799999V0201801N001510042019N0040001N1+02641+01451101691ADDAA106000091GF107991071071004501001001MA1999999096721MD1999999-0121MW1151REMSYN076AAXX  30184 83242 31496 71803 10264 20145 39672 40169 715// 87700 333 59012;EQDQ01  00002PRCP06
0198832420999992003073100004-12567-041383FM-12+042799999V0209999C000010042019N0020001N1+02181+01761101781ADDAA106000091GF108991081071004501999999KA1240M+02631MA1999999096771MD1999999-0241REMSYN088AAXX  31004 83242 32495 80000 10218 20176 39677 40178 887// 333 10263 29073 55035 59024;EQDQ01  00002PRCP06
0171832420999992003073118004-12567-041383FM-12+042799999V0202301N001010042019N0040001N1+02381+01681101601ADDAY161061AY221061GF108991081071004501999999MA1999999096621MD1999999-0101MW1151REMSYN082AAXX  31184 83242 21496 82302 10238 20168 39662 40160 71562 887// 333 59010 60021;
0214832420999992003080100004-12567-041383FM-12+042799999V0203201N000519999999N0020001N1+01941+01751101821ADDAA106000091GF108991999001004501081001KA1240M+02521MA1999999096801MD1999999+0031REMSYN088AAXX  01004 83242 32495 83201 10194 20175 39680 40182 82080 333 10252 29082 55006 58003;EQDQ01+000022SCOTLCQ02  00002PRCP06
0162832420999992003080112004-12567-041383FM-12+042799999V0201801N001510042019N0040001N1+02121+01721102031ADDGF106991051071004501031001KA1240N+01671MA1999999097011MD1999999+0041REMSYN082AAXX  01124 83242 22496 61803 10212 20172 39701 40203 85730 333 20167 58004 60024;
0179832420999992003080118004-12567-041383FM-12+042799999V0202301N001512200019N0040001N1+02881+01531101431ADDAA106000091GF104991031041004501091001MA1999999096521MD1999999-0101MW1051REMSYN076AAXX  01184 83242 31496 42303 10288 20153 39652 40143 705// 83490 333 59010;EQDQ01  00002PRCP06
0198832420999992003080200004-12567-041383FM-12+042799999V0200501N001510042019N0020001N1+02241+01571101861ADDAA106000091GF108991081071004501999999KA1240M+02921MA1999999096871MD1999999+0071REMSYN088AAXX  02004 83242 32495 80503 10224 20157 39687 40186 887// 333 10292 29064 55091 58007;EQDQ01  00002PRCP06
0084832420999992003080212004-12567-041383FM-12+042799999V02099999999999999999N9999999N1+99999+99999999999REMSYN075AAXX  02124 83242 3247 72303 10200 20162 39713 40215 86750 333 20161 58012;
0167832420999992003080218004-12567-041383FM-12+042799999V0201801N002610042019N0100001N1+02601+01381101731ADDAA106000091GF106991051071004501091001MA1999999096761MD1999999+0141REMSYN070AAXX  02184 83242 32497 61805 10260 20138 39676 40173 85790 333 58014;EQDQ01  00002PRCP06
0162832420999992003080312004-12567-041383FM-12+042799999V0201401N001510042019N0100001N1+02031+01821102171ADDGF107991061071004501031001KA1240N+01761MA1999999097131MD1999999+0001REMSYN082AAXX  03124 83242 22497 71403 10203 20182 39713 40217 86730 333 20176 58000 60024;
0179832420999992003080318004-12567-041383FM-12+042799999V0201801N002110042019N0040001N1+02501+01621101731ADDAA106000091GF106991051061004501051001MA1999999096771MD1999999+0011MW1051REMSYN076AAXX  03184 83242 31496 61804 10250 20162 39677 40173 705// 85650 333 58001;EQDQ01  00002PRCP06
0186832420999992003080412004-12567-041383FM-12+042799999V0201801N002110042019N0040001N1+02051+01681102041ADDAA106000091GF107991051071004501081001KA1240N+01671MA1999999097041MD1999999-0091REMSYN076AAXX  04124 83242 32496 71804 10205 20168 39704 40204 85780 333 20167 59009;EQDQ01  00002PRCP06
0179832420999992003080418004-12567-041383FM-12+042799999V0201801N002110042019N0040001N1+02741+01301101521ADDAA106000091GF106991051061004501081001MA1999999096571MD1999999-0101MW1051REMSYN076AAXX  04184 83242 31496 61804 10274 20130 39657 40152 705// 85680 333 59010;EQDQ01  00002PRCP06
0198832420999992003080500004-12567-041383FM-12+042799999V0201801N000510042019N0020001N1+02221+01551101781ADDAA106000091GF108991081071004501999999KA1240M+02741MA1999999096791MD1999999-0111REMSYN088AAXX  05004 83242 32495 81801 10222 20155 39679 40178 887// 333 10274 29063 55081 59011;EQDQ01  00002PRCP06
0190832420999992003080512004-12567-041383FM-12+042799999V0201801N001010042019N0100001N1+02061+01701101901ADDAY151061AY221061GF106991051071004501081001KA1240N+01731MA1999999096901MD1999999-0101MW1031REMSYN088AAXX  05124 83242 21497 61802 10206 20170 39690 40190 70352 85780 333 20173 59010 69954;
0202832420999992003080600004-12567-041383FM-12+042799999V0201801N001510042019N0020001N1+02161+01781101881ADDAY151061AY221061GF108991081071004501999999KA1240M+02731MA1999999096871MD1999999+0081MW1021REMSYN100AAXX  06004 83242 21495 81803 10216 20178 39687 40188 70252 887// 333 10273 29072 55058 58008 69901;
0162832420999992003080612004-12567-041383FM-12+042799999V0200901N001010042019N0100001N1+02101+01621102041ADDGF108991081071004501999999KA1240N+01751MA1999999097041MD1999999-0141REMSYN082AAXX  06124 83242 22497 80902 10210 20162 39704 40204 887// 333 20175 59014 69924;
0179832420999992003080618004-12567-041383FM-12+042799999V0202301N000512200019N0040001N1+02801+01241101431ADDAA106000091GF103991021041004501091001MA1999999096511MD1999999+0001MW1051REMSYN076AAXX  06184 83242 31496 32301 10280 20124 39651 40143 705// 82490 333 58000;EQDQ01  00002PRCP06
0198832420999992003080700004-12567-041383FM-12+042799999V0202301N001010450019N0020001N1+02061+01521101751ADDAA106000091GF105991041071004501021001KA1240M+02841MA1999999096751MD1999999-0121REMSYN088AAXX  07004 83242 32495 52302 10206 20152 39675 40175 84720 333 10284 29064 55064 59012;EQDQ01  00002PRCP06
0190832420999992003080712004-12567-041383FM-12+042799999V0201401N001010042019N0040001N1+02181+01561101951ADDAY151061AY211061GF106991051071004501031001KA1240N+01751MA1999999096941MD1999999-0101MW1021REMSYN088AAXX  07124 83242 21496 61402 10218 20156 39694 40195 70251 85730 333 20175 59010 69914;
0179832420999992003080718004-12567-041383FM-12+042799999V0201801N001512200019N0040001N1+02801+01241101401ADDAA106000091GF103991021021004501051001MA1999999096471MD1999999-0041MW1051REMSYN076AAXX  07184 83242 31496 31803 10280 20124 39647 40140 705// 82250 333 59004;EQDQ01  00002PRCP06
0198832420999992003080800004-12567-041383FM-12+042799999V0200901N000512200019N0020001N1+02021+01541101711ADDAA106000091GF101991011001022501051001KA1240M+02881MA1999999096711MD1999999-0041REMSYN088AAXX  08004 83242 32895 10901 10202 20154 39671 40171 81050 333 10288 29064 55067 59004;EQDQ01  00002PRCP06
0198832420999992003080812004-12567-041383FM-12+042799999V0201801N001010042019N0040001N1+01981+01641101971ADDAA106000091GF108991081071004501999999KA1240N+01771MA1999999096941MD1999999+0001MW1101REMSYN082AAXX  08124 83242 31496 81802 10198 20164 39694 40197 710// 887// 333 20177 58000;EQDQ01  00002PRCP06
0179832420999992003080818004-12567-041383FM-12+042799999V0202301N002611050019N0100001N1+02841+01571101361ADDAA106000091GF108991021011004501001071MA1999999096431MD1999999-0041MW1051REMSYN076AAXX  08184 83242 31497 82305 10284 20157 39643 40136 705// 82107 333 59004;EQDQ01  00002PRCP06
0198832420999992003080900004-12567-041383FM-12+042799999V0202701N000512200019N0020001N1+02181+01561101781ADDAA106000091GF102991021061004501001001KA1240M+02961MA1999999096781MD1999999+0071REMSYN088AAXX  09004 83242 32495 22701 10218 20156 39678 40178 82600 333 10296 29066 55069 58007;EQDQ01  00002PRCP06
0190832420999992003080912004-12567-041383FM-12+042799999V0201801N002610042019N0040001N1+02021+01721102121ADDAY161061AY211061GF107991061071004501011001KA1240N+01791MA1999999097101MD1999999+0161MW1101REMSYN088AAXX  09124 83242 21496 71805 10202 20172 39710 40212 71061 86710 333 20179 58016 60064;
0171832420999992003080918004-12567-041383FM-12+042799999V0202301N002610450019N0100001N1+02661+01621101551ADDAY151061AY221061GF106991041021004501051001MA1999999096601MD1999999+0171MW1031REMSYN082AAXX  09184 83242 21497 62305 10266 20162 39660 40155 70352 84250 333 58017 69901;
0186832420999992003081012004-12567-041383FM-12+042799999V0201401N001010042019N0040001N1+02011+01701102071ADDAA106000091GF108991081071004501999999KA1240N+01551MA1999999097041MD1999999-0051REMSYN076AAXX  10124 83242 32496 81402 10201 20170 39704 40207 887// 333 20155 59005;EQDQ01  00002PRCP06
0167832420999992003081018004-12567-041383FM-12+042799999V0201801N001010042019N0100001N1+02541+01711101651ADDAA106000091GF107991051071004501031001MA1999999096651MD1999999+0051REMSYN070AAXX  10184 83242 32497 71802 10254 20171 39665 40165 85730 333 58005;EQDQ01  00002PRCP06
0186832420999992003081112004-12567-041383FM-12+042799999V0201401N001510450019N0040001N1+02101+01741102021ADDAA106000091GF106991041021004501051001KA1240N+01591MA1999999097001MD1999999-0041REMSYN076AAXX  11124 83242 32496 61403 10210 20174 39700 40202 84250 333 20159 59004;EQDQ01  00002PRCP06
0198832420999992003081200004-12567-041383FM-12+042799999V0201801N001510042019N0020001N1+02261+01751101761ADDAA106000091GF108991081071004501999999KA1240M+02981MA1999999096781MD1999999-0011REMSYN088AAXX  12004 83242 32495 81803 10226 20175 39678 40176 887// 333 10298 29068 55091 59001;EQDQ01  00002PRCP06
0186832420999992003081212004-12567-041383FM-12+042799999V0202301N000510042019N0100001N1+02181+01741101981ADDAA106000091GF108991081071004501999999KA1240N+01931MA1999999096991MD1999999-0011REMSYN076AAXX  12124 83242 32497 82301 10218 20174 39699 40198 887// 333 20193 59001;EQDQ01  00002PRCP06
0179832420999992003081218004-12567-041383FM-12+042799999V0203601N001512200019N0040001N1+03001+01331101311ADDAA106000091GF104991031041004501051001MA1999999096411MD1999999-0061MW1051REMSYN076AAXX  12184 83242 31496 43603 10300 20133 39641 40131 705// 83450 333 59006;EQDQ01  00002PRCP06
0198832420999992003081300004-12567-041383FM-12+042799999V0201401N000510042019N0020001N1+02261+01621101791ADDAA106000091GF108991081071004501999999KA1240M+03041MA1999999096811MD1999999+0031REMSYN088AAXX  13004 83242 32495 81401 10226 20162 39681 40179 887// 333 10304 29063 55070 58003;EQDQ01  00002PRCP06
0186832420999992003081312004-12567-041383FM-12+042799999V0201401N001010450019N0100001N1+02121+01761102021ADDAA106000091GF106991041071004501051001KA1240N+01871MA1999999097031MD1999999+0041REMSYN076AAXX  13124 83242 32497 61402 10212 20176 39703 40202 84750 333 20187 58004;EQDQ01  00002PRCP06
0179832420999992003081318004-12567-041383FM-12+042799999V0201401N000512200019N0040001N1+02801+01431101501ADDAA106000091GF104991031041004501091001MA1999999096571MD1999999+0161MW1051REMSYN076AAXX  13184 83242 31496 41401 10280 20143 39657 40150 705// 83490 333 58016;EQDQ01  00002PRCP06
0198832420999992003081400004-12567-041383FM-12+042799999V0201801N002610042019N0020001N1+02261+01771101881ADDAA106000091GF108991081071004501999999KA1240M+02921MA1999999096891MD1999999+0081REMSYN088AAXX  14004 83242 32495 81805 10226 20177 39689 40188 887// 333 10292 29068 55085 58008;EQDQ01  00002PRCP06
0184832420999992003081412004-12567-041383FM-12+042799999V0200901N000510042019N0020001N1+01961+01841102021ADDAY161061AY251061GF108991081071004501999999KA1240N+01851MA1999999097011MD1999999-0021MW1101REMSYN082AAXX  14124 83242 21495 80901 10196 20184 39701 40202 71065 887// 333 20185 59002;
0179832420999992003081418004-12567-041383FM-12+042799999V0203201N000510450019N0040001N1+02701+01511101461ADDAA106000091GF108991041031004501031071MA1999999096511MD1999999-0051MW1051REMSYN076AAXX  14184 83242 31496 83201 10270 20151 39651 40146 705// 84337 333 59005;EQDQ01  00002PRCP06
0198832420999992003081500004-12567-041383FM-12+042799999V0200501N001010450019N0020001N1+02221+01781101761ADDAA106000091GF106991041071004501061001KA1240M+02791MA1999999096761MD1999999-0131REMSYN088AAXX  15004 83242 32495 60502 10222 20178 39676 40176 84760 333 10279 29073 55046 59013;EQDQ01  00002PRCP06
0190832420999992003081512004-12567-041383FM-12+042799999V0200501N001510042019N0040001N1+02211+01781101891ADDAY151061AY221061GF107991061071004501041001KA1240N+01791MA1999999096901MD1999999-0111MW1051REMSYN088AAXX  15124 83242 21496 70503 10221 20178 39690 40189 70552 86740 333 20179 59011 69934;
0179832420999992003081518004-12567-041383FM-12+042799999V0201801N001510450019N0040001N1+03001+01491101311ADDAA106000091GF108991021041004501081071MA1999999096411MD1999999-0101MW1051REMSYN076AAXX  15184 83242 31496 81803 10300 20149 39641 40131 705// 82487 333 59010;EQDQ01  00002PRCP06
0208832420999992003081600004-12567-041383FM-12+042799999V0202301N001012200019N0020001N1+02201+01671101571ADDAA106000091GA1001+999999999GF100991001001999999001001KA1240M+03041MA1999999096601MD1999999-0161REMSYN082AAXX  16004 83242 32995 02302 10220 20167 39660 40157 333 10304 29065 55095 59016;EQDQ01  00002PRCP06
0186832420999992003081612004-12567-041383FM-12+042799999V0201401N001510450019N0040001N1+02361+01781101741ADDAA106000091GF106991041041004501081001KA1240N+01951MA1999999096781MD1999999-0121REMSYN076AAXX  16124 83242 32496 61403 10236 20178 39678 40174 84480 333 20195 59012;EQDQ01  00002PRCP06
0179832420999992003081618004-12567-041383FM-12+042799999V0202301N000510450019N0040001N1+03161+01471101131ADDAA106000091GF108991041051004501081071MA1999999096261MD1999999-0121MW1051REMSYN076AAXX  16184 83242 31496 82301 10316 20147 39626 40113 705// 84587 333 59012;EQDQ01  00002PRCP06
0186832420999992003081712004-12567-041383FM-12+042799999V0200501N001510042019N0100001N1+02351+01951101741ADDAA106000091GF106991051071004501051001KA1240N+02031MA1999999096791MD1999999+0011REMSYN076AAXX  17124 83242 32497 60503 10235 20195 39679 40174 85750 333 20203 58001;EQDQ01  00002PRCP06
0167832420999992003081718004-12567-041383FM-12+042799999V0202301N000510450019N0100001N1+03261+01641101121ADDAA106000091GF106991031071004501041021MA1999999096271MD1999999+0011REMSYN070AAXX  17184 83242 32497 62301 10326 20164 39627 40112 83742 333 58001;EQDQ01  00002PRCP06
0174832420999992003081812004-12567-041383FM-12+042799999V0201801N001510042019N0020001N1+02281+01921101951ADDGF108991081071004501999999KA1240N+01931MA1999999096991MD1999999+0201MW1101REMSYN088AAXX  18124 83242 21495 81803 10228 20192 39699 40195 710// 887// 333 20193 58020 69914;
0179832420999992003081818004-12567-041383FM-12+042799999V0201401N001510042019N0040001N1+02881+01771101621ADDAA106000091GF108991071071004501051001MA1999999096701MD1999999+0431MW1051REMSYN076AAXX  18184 83242 31496 81403 10288 20177 39670 40162 705// 87750 333 58043;EQDQ01  00002PRCP06
0202832420999992003081900004-12567-041383FM-12+042799999V0201801N004610042019N0010001N1+02021+01991102101ADDAY161061AY241061GF108991081071004501999999KA1240M+02911MA1999999097091MD1999999+0401MW1501REMSYN100AAXX  19004 83242 21494 81809 10202 20199 39709 40210 75064 887// 333 10291 29082 55019 58040 60011;
0190832420999992003081912004-12567-041383FM-12+042799999V0201801N002110042019N0040001N1+02061+01851102301ADDAY161061AY221061GF108991081071004501999999KA1240N+01891MA1999999097261MD1999999+0271MW1101REMSYN088AAXX  19124 83242 21496 81804 10206 20185 39726 40230 71062 887// 333 20189 58027 60064;
0171832420999992003081918004-12567-041383FM-12+042799999V0201801N003610042019N0040001N1+02261+01821101971ADDAY151061AY221061GF108991081071004501999999MA1999999096951MD1999999+0251MW1151REMSYN082AAXX  19184 83242 21496 81807 10226 20182 39695 40197 71552 887// 333 58025 69901;
0202832420999992003082000004-12567-041383FM-12+042799999V0200901N001510042019N0020001N1+02041+01761102331ADDAY151061AY221061GF108991081071004501999999KA1240M+02521MA1999999097291MD1999999+0201MW1021REMSYN100AAXX  20004 83242 21495 80903 10204 20176 39729 40233 70252 887// 333 10252 29083 55010 58020 69901;
0190832420999992003082012004-12567-041383FM-12+042799999V0201801N001510042019N0040001N1+01971+01791102261ADDAY161061AY251061GF108991061071004501081001KA1240N+01691MA1999999097211MD1999999-0051MW1101REMSYN088AAXX  20124 83242 21496 81803 10197 20179 39721 40226 71065 86780 333 20169 59005 60014;
0167832420999992003082018004-12567-041383FM-12+042799999V0201801N003112200019N0100001N1+02701+01511101721ADDAA106000091GF105991021031004501051091MA1999999096741MD1999999+0211REMSYN070AAXX  20184 83242 32497 51806 10270 20151 39674 40172 82359 333 58021;EQDQ01  00002PRCP06
0208832420999992003082100004-12567-041383FM-12+042799999V0201801N002112200019N0020001N1+02021+01481101961ADDAA106000091GA1001+999999999GF100991001001999999001001KA1240M+02721MA1999999096931MD1999999-0361REMSYN082AAXX  21004 83242 32995 01804 10202 20148 39693 40196 333 10272 29070 55055 59036;EQDQ01  00002PRCP06
0186832420999992003082112004-12567-041383FM-12+042799999V0201801N003610042019N0100001N1+02071+01581102001ADDAA106000091GF108991061071004501061001KA1240N+01691MA1999999096981MD1999999-0231REMSYN076AAXX  21124 83242 32497 81807 10207 20158 39698 40200 86760 333 20169 59023;EQDQ01  00002PRCP06
0179832420999992003082118004-12567-041383FM-12+042799999V0201801N002110042019N0040001N1+02461+01471101571ADDAA106000091GF106991051071004501051001MA1999999096581MD1999999-0161MW1151REMSYN076AAXX  21184 83242 31496 61804 10246 20147 39658 40157 715// 85750 333 59016;EQDQ01  00002PRCP06
0202832420999992003082200004-12567-041383FM-12+042799999V0201801N000510042019N0020001N1+02021+01831101881ADDAY151061AY221061GF108991081071004501999999KA1240M+02581MA1999999096861MD1999999-0071MW1031REMSYN100AAXX  22004 83242 21495 81801 10202 20183 39686 40188 70352 887// 333 10258 29076 55009 59007 69901;
0190832420999992003082212004-12567-041383FM-12+042799999V0201801N001510042019N0100001N1+02161+01861101941ADDAY161061AY251061GF107991061071004501041001KA1240N+01851MA1999999096931MD1999999-0051MW1021REMSYN088AAXX  22124 83242 21497 71803 10216 20186 39693 40194 70265 86740 333 20185 59005 60084;
0171832420999992003082218004-12567-041383FM-12+042799999V0201801N001510042019N0040001N1+02301+01791101581ADDAY161061AY221061GF106991051071004501031001MA1999999096581MD1999999+0001MW1151REMSYN082AAXX  22184 83242 21496 61803 10230 20179 39658 40158 71562 85730 333 58000 60011;
0202832420999992003082300004-12567-041383FM-12+042799999V0201801N001510042019N0010001N1+02081+02031101851ADDAY141061AY221061GF108991081071004501999999KA1240M+02601MA1999999096851MD1999999-0011MW1511REMSYN100AAXX  23004 83242 21494 81803 10208 20203 39685 40185 75142 887// 333 10260 29088 55015 59001 69991;
0190832420999992003082312004-12567-041383FM-12+042799999V0201801N001510042019N0020001N1+02021+01831102051ADDAY161061AY221061GF108991081071004501999999KA1240N+01791MA1999999097031MD1999999+0101MW1101REMSYN088AAXX  23124 83242 21495 81803 10202 20183 39703 40205 71062 887// 333 20179 58010 60144;
0171832420999992003082318004-12567-041383FM-12+042799999V0209999C000010042019N0040001N1+02201+01781101741ADDAY151061AY221061GF108991081071004501999999MA1999999096761MD1999999+0181MW1151REMSYN082AAXX  23184 83242 21496 80000 10220 20178 39676 40174 71552 887// 333 58018 69901;
0198832420999992003082412004-12567-041383FM-12+042799999V0201801N002110042019N0040001N1+02001+01811102061ADDAA106000091GF107991061071004501061001KA1240N+01671MA1999999097031MD1999999+0001MW1101REMSYN082AAXX  24124 83242 31496 71804 10200 20181 39703 40206 710// 86760 333 20167 58000;EQDQ01  00002PRCP06
0179832420999992003082418004-12567-041383FM-12+042799999V0201801N002110042019N0040001N1+02621+01531101471ADDAA106000091GF106991051051004501031001MA1999999096501MD1999999-0261MW1051REMSYN076AAXX  24184 83242 31496 61804 10262 20153 39650 40147 705// 85530 333 59026;EQDQ01  00002PRCP06
0195832420999992003082512004-12567-041383FM-12+042799999V0202301N001010042019N0040001N1+02161+01901101831ADDAA106000021AY151061AY241061GF107991071071004501001001KA1240N+01851MA1999999096831MD1999999-0201MW1501REMSYN082AAXX  25124 83242 31496 72302 10216 20190 39683 40183 75054 87700 333 20185 59020;
0160832420999992003082518004-12567-041383FM-12+042799999V0202701N000512200019N0040001N1+02881+01571101231ADDAA106000021GF104991031031004501011001MA1999999096331MD1999999-0101MW1051REMSYN076AAXX  25184 83242 31496 42701 10288 20157 39633 40123 705// 83310 333 59010;
0198832420999992003082600004-12567-041383FM-12+042799999V0202301N000510042019N0020001N1+02321+01911101561ADDAA106000091GF107991061071004501081001KA1240M+02941MA1999999096601MD1999999-0111REMSYN088AAXX  26004 83242 32495 72301 10232 20191 39660 40156 86780 333 10294 29072 55052 59011;EQDQ01  00002PRCP06
0198832420999992003082612004-12567-041383FM-12+042799999V0200901N000510450019N0040001N1+02301+01791101681ADDAA106000091GF106991041071004501031001KA1240N+02011MA1999999096721MD1999999+0121MW1051REMSYN082AAXX  26124 83242 31496 60901 10230 20179 39672 40168 705// 84730 333 20201 58012;EQDQ01  00002PRCP06
0179832420999992003082618004-12567-041383FM-12+042799999V0201801N001010450019N0040001N1+03061+01701101041ADDAA106000091GF108991021021004501031071MA1999999096161MD1999999-0171MW1051REMSYN076AAXX  26184 83242 31496 81802 10306 20170 39616 40104 705// 82237 333 59017;EQDQ01  00002PRCP06
0198832420999992003082700004-12567-041383FM-12+042799999V0202301N001512200019N0020001N1+02321+01871101571ADDAA106000091GF102991021001022501011001KA1240M+03061MA1999999096621MD1999999+0021REMSYN088AAXX  27004 83242 32895 22303 10232 20187 39662 40157 82010 333 10306 29066 55078 58002;EQDQ01  00002PRCP06
0198832420999992003082712004-12567-041383FM-12+042799999V0201801N001010042019N0040001N1+02301+01961101831ADDAA106000091GF106991051071004501041001KA1240N+02011MA1999999096861MD1999999+0141MW1101REMSYN082AAXX  27124 83242 31496 61802 10230 20196 39686 40183 710// 85740 333 20201 58014;EQDQ01  00002PRCP06
0167832420999992003082718004-12567-041383FM-12+042799999V0203601N000510042019N0100001N1+02801+01781101381ADDAA106000091GF106991061061004501001001MA1999999096471MD1999999+0311REMSYN070AAXX  27184 83242 32497 63601 10280 20178 39647 40138 86600 333 58031;EQDQ01  00002PRCP06
0198832420999992003082800004-12567-041383FM-12+042799999V0201401N000510042019N0020001N1+02181+01821101641ADDAA106000091GF107991061051004501081001KA1240M+02881MA1999999096671MD1999999+0051REMSYN088AAXX  28004 83242 32495 71401 10218 20182 39667 40164 86580 333 10288 29074 55043 58005;EQDQ01  00002PRCP06
0198832420999992003082812004-12567-041383FM-12+042799999V0201801N002110042019N0040001N1+02261+01941101891ADDAA106000091GF107991061071004501031001KA1240N+02011MA1999999096901MD1999999+0041MW1151REMSYN082AAXX  28124 83242 31496 71804 10226 20194 39690 40189 715// 86730 333 20201 58004;EQDQ01  00002PRCP06
0168832420999992003082818004-12567-041383FM-12+042799999V0201801N001019999999N0100001N1+02661+01971101331ADDAA106000091GF107991999999004501999999MA1999999096411REMSYN069AAXX  28184 83242 32497 71802 10266 20197 39641 4034 87300 333 59006;EQDQ01+999990APOSLPQ02  00002PRCP06
0207832420999992003082900004-12567-041383FM-12+042799999V0203601N001512200019N0020001N1+02201+01781101611ADDAA106000091GA1001+999999999GF100991001001999999001001KA1240M+02801MA1999999096651MD1999999-0021REMSYN081AAXX  29004 83242 32995 03603 10220 2017839665 40161 333 10280 29074 55042 59002;EQDQ01  00002PRCP06
0190832420999992003082912004-12567-041383FM-12+042799999V0201801N001510042019N0040001N1+02141+01901101901ADDAY161061AY251061GF108991081071004501999999KA1240N+01891MA1999999096901MD1999999+0001MW1101REMSYN088AAXX  29124 83242 21496 81803 10214 20190 39690 40190 71065 887// 333 20189 58000 60014;
0179832420999992003082918004-12567-041383FM-12+042799999V0201401N002110042019N0040001N1+02721+01821101431ADDAA106000091GF107991051071004501031031MA1999999096511MD1999999+0101MW1051REMSYN076AAXX  29184 83242 31496 71404 10272 20182 39651 40143 705// 85733 333 58010;EQDQ01  00002PRCP06
0208832420999992003083000004-12567-041383FM-12+042799999V0200501N001012200019N0020001N1+02181+01861101681ADDAA106000091GA1001+999999999GF100991001001999999001001KA1240M+02281MA1999999096691MD1999999+0041REMSYN082AAXX  30004 83242 32995 00502 10218 20186 39669 40168 333 10228 29077 55014 58004;EQDQ01  00002PRCP06
0186832420999992003083012004-12567-041383FM-12+042799999V0201801N002110042019N0040001N1+02261+01821101931ADDAA106000091GF107991061071004501051001KA1240N+01971MA1999999096941MD1999999+0041REMSYN076AAXX  30124 83242 32496 71804 10226 20182 39694 40193 86750 333 20197 58004;EQDQ01  00002PRCP06
0167832420999992003083018004-12567-041383FM-12+042799999V0200901N001510450019N0100001N1+02821+01771101531ADDAA106000091GF106991041071004501081021MA1999999096601MD1999999+0091REMSYN070AAXX  30184 83242 32497 60903 10282 20177 39660 40153 84782 333 58009;EQDQ01  00002PRCP06
0190832420999992003083112004-12567-041383FM-12+042799999V0201801N001510042019N0040001N1+02151+02021102101ADDAY161061AY241061GF108991081071004501999999KA1240N+01951MA1999999097091MD1999999+0151MW1151REMSYN088AAXX  31124 83242 21496 81803 10215 20202 39709 40210 71564 887// 333 20195 58015 60064;
0176832420999992003083118004-12567-041383FM-12+042799999V0201801N003110042019N0020001N1+02641+02031101591ADDAA106000021AY151061AY241061GF107991061071004501081001MA1999999096641MD1999999+0041MW1501REMSYN076AAXX  31184 83242 31495 71806 10264 20203 39664 40159 75054 86780 333 58004;
0174832420999992003090112004-12567-041383FM-12+042799999V0201801N001510042019N0040001N1+02181+01861102071ADDGF108991081071004501999999KA1240N+01911MA1999999097061MD1999999-0031MW1101REMSYN088AAXX  01124 83242 21496 81803 10218 20186 39706 40207 710// 887// 333 20191 59003 60104;
0179832420999992003090118004-12567-041383FM-12+042799999V0201401N002610450019N0100001N1+02701+01831101711ADDAA106000091GF106991041071004501081071MA1999999096761MD1999999+0121MW1051REMSYN076AAXX  01184 83242 31497 61405 10270 20183 39676 40171 705// 84787 333 58012;EQDQ01  00002PRCP06
0198832420999992003090200004-12567-041383FM-12+042799999V0201801N001512200019N0020001N1+02281+01831101911ADDAA106000091GF104991041071004501001001KA1240M+02821MA1999999096931MD1999999-0021REMSYN088AAXX  02004 83242 32495 41803 10228 20183 39693 40191 84700 333 10282 29073 55067 59002;EQDQ01  00002PRCP06
0198832420999992003090212004-12567-041383FM-12+042799999V0201801N001510042019N0040001N1+02201+01781102151ADDAA106000091GF107991061071004501061001KA1240N+01901MA1999999097161MD1999999+0101MW1051REMSYN082AAXX  02124 83242 31496 71803 10220 20178 39716 40215 705// 86760 333 20190 58010;EQDQ01  00002PRCP06
0179832420999992003090218004-12567-041383FM-12+042799999V0201401N001510450019N0040001N1+02901+01551101621ADDAA106000091GF108991041041004501051071MA1999999096711MD1999999-0051MW1051REMSYN076AAXX  02184 83242 31496 81403 10290 20155 39671 40162 705// 84457 333 59005;EQDQ01  00002PRCP06
0198832420999992003090300004-12567-041383FM-12+042799999V0201801N001010042019N0020001N1+02331+01601101891ADDAA106000091GF107991071071004501001001KA1240M+02981MA1999999096911MD1999999-0021REMSYN088AAXX  03004 83242 32495 71802 10233 20160 39691 40189 87700 333 10298 29062 55083 59002;EQDQ01  00002PRCP06
0198832420999992003090312004-12567-041383FM-12+042799999V0201801N001510450019N0040001N1+02021+01641102251ADDAA106000091GF107991041071004501031021KA1240N+01551MA1999999097251MD1999999+0091MW1051REMSYN082AAXX  03124 83242 31496 71803 10202 20164 39725 40225 705// 84732 333 20155 58009;EQDQ01  00002PRCP06
0179832420999992003090318004-12567-041383FM-12+042799999V0201801N002610450019N0040001N1+02801+01281101801ADDAA106000091GF106991041061004501081041MA1999999096831MD1999999+0121MW1051REMSYN076AAXX  03184 83242 31496 61805 10280 20128 39683 40180 705// 84684 333 58012;EQDQ01  00002PRCP06
0214832420999992003090400004-12567-041383FM-12+042799999V0201801N001510090019N0020001N1+02231+01691102121ADDAA106000091GF108991999081004501061999KA1240M+02871MA1999999097101MD1999999+0191REMSYN088AAXX  04004 83242 32495 81803 10223 20169 39710 40212 8886/ 333 10287 29065 55082 58019;EQDQ01+000082SCOTLCQ02  00002PRCP06
0198832420999992003090412004-12567-041383FM-12+042799999V0202301N003110042019N0040001N1+02181+01701102271ADDAA106000091GF108991081071004501999999KA1240N+01731MA1999999097261MD1999999+0011MW1051REMSYN082AAXX  04124 83242 31496 82306 10218 20170 39726 40227 705// 887// 333 20173 58001;EQDQ01  00002PRCP06
0179832420999992003090418004-12567-041383FM-12+042799999V0201801N000510042019N0040001N1+02741+01541101731ADDAA106000091GF106991051061004501031001MA1999999096781MD1999999-0051MW1051REMSYN076AAXX  04184 83242 31496 61801 10274 20154 39678 40173 705// 85630 333 59005;EQDQ01  00002PRCP06
0202832420999992003090500004-12567-041383FM-12+042799999V0201801N001510042019N0010001N1+02021+01951102211ADDAY161061AY241061GF108991081071004501999999KA1240M+02801MA1999999097191MD1999999+0091MW1631REMSYN100AAXX  05004 83242 21494 81803 10202 20195 39719 40221 76364 887// 333 10280 29078 55038 58009 60091;
0190832420999992003090512004-12567-041383FM-12+042799999V0202301N004110042019N0040001N1+02061+01581102381ADDAY161061AY221061GF108991071071004501041001KA1240N+01741MA1999999097341MD1999999+0081MW1051REMSYN088AAXX  05124 83242 21496 82308 10206 20158 39734 40238 70562 87740 333 20174 58008 60134;
0179832420999992003090518004-12567-041383FM-12+042799999V0201801N002110042019N0040001N1+02501+01391101871ADDAA106000091GF108991081071004501999999MA1999999096861MD1999999+0081MW1151REMSYN076AAXX  05184 83242 31496 81804 10250 20139 39686 40187 715// 887// 333 58008;EQDQ01  00002PRCP06
0198832420999992003090600004-12567-041383FM-12+042799999V0201801N001510042019N0020001N1+02161+01661102091ADDAA106000091GF108991081071004501999999KA1240M+02701MA1999999097071MD1999999-0121REMSYN088AAXX  06004 83242 32495 81803 10216 20166 39707 40209 887// 333 10270 29068 55033 59012;EQDQ01  00002PRCP06
0198832420999992003090612004-12567-041383FM-12+042799999V0201801N004110042019N0040001N1+02021+01541102181ADDAA106000091GF108991071071004501061001KA1240N+01831MA1999999097161MD1999999-0031MW1051REMSYN082AAXX  06124 83242 31496 81808 10202 20154 39716 40218 705// 87760 333 20183 59003;EQDQ01  00002PRCP06
0179832420999992003090618004-12567-041383FM-12+042799999V0201801N002610042019N0040001N1+02401+01441101731ADDAA106000091GF108991081071004501999999MA1999999096741MD1999999-0121MW1151REMSYN076AAXX  06184 83242 31496 81805 10240 20144 39674 40173 715// 887// 333 59012;EQDQ01  00002PRCP06
0186832420999992003090712004-12567-041383FM-12+042799999V0201801N003610042019N0100001N1+02091+01531102091ADDAA106000091GF107991061071004501061001KA1240N+01631MA1999999097071MD1999999-0091REMSYN076AAXX  07124 83242 32497 71807 10209 20153 39707 40209 86760 333 20163 59009;EQDQ01  00002PRCP06
0167832420999992003090718004-12567-041383FM-12+042799999V0201801N002110042019N0100001N1+02401+01411101671ADDAA106000091GF107991061071004501071001MA1999999096671MD1999999-0071REMSYN070AAXX  07184 83242 32497 71804 10240 20141 39667 40167 86770 333 59007;EQDQ01  00002PRCP06
0202832420999992003090800004-12567-041383FM-12+042799999V0209999C000010042019N0020001N1+02021+01721101941ADDAY151061AY241061GF106991051071004501031001KA1240M+02621MA1999999096921MD1999999+0001MW1021REMSYN100AAXX  08004 83242 21495 60000 10202 20172 39692 40194 70254 85730 333 10262 29072 55031 58000 69901;
0198832420999992003090812004-12567-041383FM-12+042799999V0201801N002110042019N0040001N1+02121+01551102071ADDAA106000091GF107991051071004501081001KA1240N+01591MA1999999097051MD1999999-0021MW1051REMSYN082AAXX  08124 83242 31496 71804 10212 20155 39705 40207 705// 85780 333 20159 59002;EQDQ01  00002PRCP06
0179832420999992003090818004-12567-041383FM-12+042799999V0201401N002110042019N0040001N1+02741+01261101481ADDAA106000091GF106991051071004501031001MA1999999096521MD1999999-0151MW1051REMSYN076AAXX  08184 83242 31496 61404 10274 20126 39652 40148 705// 85730 333 59015;EQDQ01  00002PRCP06
0198832420999992003090900004-12567-041383FM-12+042799999V0202301N001010042019N0020001N1+02121+01641101821ADDAA106000091GF107991061051004501081001KA1240M+02821MA1999999096821MD1999999-0101REMSYN088AAXX  09004 83242 32495 72302 10212 20164 39682 40182 86580 333 10282 29064 55077 59010;EQDQ01  00002PRCP06
0198832420999992003091000004-12567-041383FM-12+042799999V0203601N001510450019N0020001N1+02141+01761101831ADDAA106000091GF106991041071004501061001KA1240M+02781MA1999999096851MD1999999+0031REMSYN088AAXX  10004 83242 32495 63603 10214 20176 39685 40183 84760 333 10278 29070 55054 58003;EQDQ01  00002PRCP06
0190832420999992003091012004-12567-041383FM-12+042799999V0201401N001510042019N0040001N1+02241+01801101861ADDAY151061AY221061GF107991071071004501001001KA1240N+01881MA1999999096871MD1999999-0201MW1051REMSYN088AAXX  10124 83242 21496 71403 10224 20180 39687 40186 70552 87700 333 20188 59020 69934;
0179832420999992003091018004-12567-041383FM-12+042799999V0201401N002110450019N0040001N1+03101+01421101331ADDAA106000091GF105991031051004501051011MA1999999096451MD1999999-0151MW1051REMSYN076AAXX  10184 83242 31496 51404 10310 20142 39645 40133 705// 83551 333 59015;EQDQ01  00002PRCP06
0214832420999992003091100004-12567-041383FM-12+042799999V0201401N001510090019N0020001N1+02381+01871101721ADDAA106000091GF108991999081004501071999KA1240M+03101MA1999999096761MD1999999-0091REMSYN088AAXX  11004 83242 32495 81403 10238 20187 39676 40172 8887/ 333 10310 29064 55072 59009;EQDQ01+000082SCOTLCQ02  00002PRCP06
0190832420999992003091112004-12567-041383FM-12+042799999V0200901N001010042019N0020001N1+02281+01901101861ADDAY151061AY221061GF108991081071004501999999KA1240N+01951MA1999999096871MD1999999+0001MW1101REMSYN088AAXX  11124 83242 21495 80902 10228 20190 39687 40186 71052 887// 333 20195 58000 69934;
0179832420999992003091118004-12567-041383FM-12+042799999V0202301N001510450019N0040001N1+02781+01731101211ADDAA106000091GF105991031051004501031001MA1999999096311MD1999999-0141MW1051REMSYN076AAXX  11184 83242 31496 52303 10278 20173 39631 40121 705// 83530 333 59014;EQDQ01  00002PRCP06
0198832420999992003091200004-12567-041383FM-12+042799999V0202301N001510042019N0020001N1+02361+01781101631ADDAA106000091GF107991071071004501001001KA1240M+02961MA1999999096671MD1999999-0091REMSYN088AAXX  12004 83242 32495 72303 10236 20178 39667 40163 87700 333 10296 29069 55050 59009;EQDQ01  00002PRCP06
0198832420999992003091212004-12567-041383FM-12+042799999V0201801N001510042019N0040001N1+02571+01841102091ADDAA106000091GF108991081071004501999999KA1240N+01951MA1999999097051MD1999999+0141MW1101REMSYN082AAXX  12124 83242 31496 81803 10257 20184 39705 40209 710// 887// 333 20195 58014;EQDQ01  00002PRCP06
0210832420999992003091300004-12567-041383FM-12+042799999V0200501N001510042019N0010001N1+02421+01621101851ADDAA106000091GF108991081071004501999999KA1240M+02961MA1999999096881MD1999999+0211MW1051REMSYN094AAXX  13004 83242 31494 80503 10242 20162 39688 40185 705// 887// 333 10296 29060 55055 58021;EQDQ01  00002PRCP06
0198832420999992003091312004-12567-041383FM-12+042799999V0201801N001510042019N0040001N1+02121+01511102071ADDAA106000091GF107991071071004501001001KA1240N+01891MA1999999097081MD1999999+0071MW1051REMSYN082AAXX  13124 83242 31496 71803 10212 20151 39708 40207 705// 87700 333 20189 58007;EQDQ01  00002PRCP06
0179832420999992003091318004-12567-041383FM-12+042799999V0202301N001512200019N0040001N1+02901+01361101381ADDAA106000091GF104991021041004501031011MA1999999096471MD1999999+0021MW1051REMSYN076AAXX  13184 83242 31496 42303 10290 20136 39647 40138 705// 82431 333 58002;EQDQ01  00002PRCP06
0179832420999992003091418004-12567-041383FM-12+042799999V0201801N001510450019N0040001N1+03001+01241101381ADDAA106000091GF108991031031004501081071MA1999999096471MD1999999+0001MW1051REMSYN076AAXX  14184 83242 31496 81803 10300 20124 39647 40138 705// 83387 333 58000;EQDQ01  00002PRCP06
0179832420999992003091618004-12567-041383FM-12+042799999V0202301N002112200019N0040001N1+02861+01551101321ADDAA106000091GF104991031021004501081001MA1999999096371MD1999999-0061MW1051REMSYN076AAXX  16184 83242 31496 42304 10286 20155 39637 40132 705// 83280 333 59006;EQDQ01  00002PRCP06
0208832420999992003091700004-12567-041383FM-12+042799999V0200901N000512200019N0020001N1+02341+01641101601ADDAA106000091GA1001+999999999GF100991001001999999001001KA1240M+03071MA1999999096631MD1999999-0131REMSYN082AAXX  17004 83242 32995 00901 10234 20164 39663 40160 333 10307 29063 55050 59013;EQDQ01  00002PRCP06
0190832420999992003091712004-12567-041383FM-12+042799999V0201401N001010042019N0100001N1+02301+01831101741ADDAY161061AY201061GF106991051071004501031001KA1240N+01851MA1999999096781MD1999999-0141MW1021REMSYN088AAXX  17124 83242 21497 61402 10230 20183 39678 40174 70260 85730 333 20185 59014 69934;
0179832420999992003091718004-12567-041383FM-12+042799999V0201801N002112200019N0040001N1+03001+01611101161ADDAA106000091GF103991011021004501031061MA1999999096261MD1999999-0111MW1051REMSYN076AAXX  17184 83242 31496 31804 10300 20161 39626 40116 705// 81236 333 59011;EQDQ01  00002PRCP06
0208832420999992003091800004-12567-041383FM-12+042799999V0200901N000512200019N0020001N1+02281+01541101471ADDAA106000091GA1001+999999999GF100991001001999999001001KA1240M+03141MA1999999096521MD1999999-0111REMSYN082AAXX  18004 83242 32995 00901 10228 20154 39652 40147 333 10314 29061 55089 59011;EQDQ01  00002PRCP06
0186832420999992003091812004-12567-041383FM-12+042799999V0201801N001510042019N0100001N1+02271+01771101751ADDAA106000091GF108991081071004501999999KA1240N+01851MA1999999096791MD1999999+0041REMSYN076AAXX  18124 83242 32497 81803 10227 20177 39679 40175 887// 333 20185 58004;EQDQ01  00002PRCP06
0179832420999992003091818004-12567-041383FM-12+042799999V0201801N001510450019N0040001N1+03001+01491101211ADDAA106000091GF108991031021004501031071MA1999999096311MD1999999+0051MW1051REMSYN076AAXX  18184 83242 31496 81803 10300 20149 39631 40121 705// 83237 333 58005;EQDQ01  00002PRCP06
0198832420999992003091900004-12567-041383FM-12+042799999V0201401N002110042019N0020001N1+02441+01591101551ADDAA106000091GF108991081051004501999999KA1240M+03081MA1999999096611MD1999999+0091REMSYN088AAXX  19004 83242 32495 81404 10244 20159 39661 40155 885// 333 10308 29058 55065 58009;EQDQ01  00002PRCP06
0186832420999992003091912004-12567-041383FM-12+042799999V0201401N002110042019N0100001N1+02341+01691101651ADDAA106000091GF107991061051004501041001KA1240N+02011MA1999999096721MD1999999-0071REMSYN076AAXX  19124 83242 32497 71404 10234 20169 39672 40165 86540 333 20201 59007;EQDQ01  00002PRCP06
0167832420999992003091918004-12567-041383FM-12+042799999V0201801N002110450019N0100001N1+02801+01351101171ADDAA106000091GF105991021051004501031051MA1999999096261MD1999999-0051REMSYN070AAXX  19184 83242 32497 51804 10280 20135 39626 40117 82535 333 59005;EQDQ01  00002PRCP06
0198832420999992003092000004-12567-041383FM-12+042799999V0201401N003110042019N0020001N1+02541+01681101481ADDAA106000091GF107991071071004501001001KA1240M+03021MA1999999096561MD1999999-0051REMSYN088AAXX  20004 83242 32495 71406 10254 20168 39656 40148 87700 333 10302 29058 55073 59005;EQDQ01  00002PRCP06
0190832420999992003092012004-12567-041383FM-12+042799999V0201801N003610042019N0040001N1+02261+01821101761ADDAY151061AY261061GF107991071071004501001001KA1240N+01951MA1999999096821MD1999999+0101MW1151REMSYN088AAXX  20124 83242 21496 71807 10226 20182 39682 40176 71556 87700 333 20195 58010 69934;
0171832420999992003092018004-12567-041383FM-12+042799999V0201801N003110450019N0100001N1+02781+01731101311ADDAY151061AY211061GF106991041071004501081021MA1999999096371MD1999999+0111MW1001REMSYN082AAXX  20184 83242 21497 61806 10278 20173 39637 40131 70051 84782 333 58011 69901;
0202832420999992003092100004-12567-041383FM-12+042799999V0201401N003110042019N0005001N1+02151+01931101811ADDAY121061AY221061GF108991081071004501999999KA1240M+03001MA1999999096831MD1999999+0271MW1601REMSYN100AAXX  21004 83242 21493 81406 10215 20193 39683 40181 76022 887// 333 10300 29076 55047 58027 60011;
0190832420999992003092112004-12567-041383FM-12+042799999V0201801N001510042019N0020001N1+02091+01931101961ADDAY161061AY221061GF108991081071004501999999KA1240N+01911MA1999999096951MD1999999+0131MW1101REMSYN088AAXX  21124 83242 21495 81803 10209 20193 39695 40196 71062 887// 333 20191 58013 60064;
0206832420999992003092118004-12567-041383FM-12+042799999V0201801N002610450019N9999999N1+02581+01821101471ADDAY161061AY201061GF108991021031004501031021MA1999999096501MD1999999+0131MW1001REMSYN082AAXX  21184 83242 21496 81805 10258 20182 39650 40147 70067 82332 333 58013 60051;EQDQ01+040002VODIS Q02+000072PSTWM2
0198832420999992003092200004-12567-041383FM-12+042799999V0201801N001010042019N0020001N1+02321+01811101781ADDAA106000091GF108991081071004501999999KA1240M+02751MA1999999096801MD1999999-0031REMSYN088AAXX  22004 83242 32495 81802 10232 20181 39680 40178 887// 333 10275 29075 55030 59003;EQDQ01  00002PRCP06
0190832420999992003092212004-12567-041383FM-12+042799999V0201801N002110042019N0040001N1+02211+01781101911ADDAY161061AY221061GF106991051041004501081001KA1240N+01841MA1999999096931MD1999999-0021MW1001REMSYN088AAXX  22124 83242 21496 61804 10221 20178 39693 40191 70062 85480 333 20184 59002 60054;
0167832420999992003092218004-12567-041383FM-12+042799999V0201801N003110042019N0040001N1+02791+01631101291ADDAA106000091GF107991061051004501021001MA1999999096411MD1999999-0091REMSYN070AAXX  22184 83242 32496 71806 10279 20163 39641 40129 86520 333 59009;EQDQ01  00002PRCP06
0208832420999992003092400004-12567-041383FM-12+042799999V0200501N000512200019N0020001N1+02101+01391101491ADDAA106000091GA1001+999999999GF100991001001999999001001KA1240M+03021MA1999999096501MD1999999-0201REMSYN082AAXX  24004 83242 32995 00501 10210 20139 39650 40149 333 10302 29058 55083 59020;EQDQ01  00002PRCP06
0186832420999992003092412004-12567-041383FM-12+042799999V0202301N001010450019N0100001N1+02241+01641101751ADDAA106000091GF105991031041004501031001KA1240N+01611MA1999999096761MD1999999-0121REMSYN076AAXX  24124 83242 32497 52302 10224 20164 39676 40175 83430 333 20161 59012;EQDQ01  00002PRCP06
0179832420999992003092418004-12567-041383FM-12+042799999V0201801N001511050019N0040001N1+03181+01211100971ADDAA106000091GF108991011011004501001071MA1999999096061MD1999999-0181MW1051REMSYN076AAXX  24184 83242 31496 81803 10318 20121 39606 40097 705// 81107 333 59018;EQDQ01  00002PRCP06
0208832420999992003092500004-12567-041383FM-12+042799999V0201401N000512200019N0020001N1+02221+01331101311ADDAA106000091GA1001+999999999GF100991001001999999001001KA1240M+03241MA1999999096361MD1999999-0041REMSYN082AAXX  25004 83242 32995 01401 10222 20133 39636 40131 333 10324 29053 55088 59004;EQDQ01  00002PRCP06
0186832420999992003092512004-12567-041383FM-12+042799999V0200501N000510042019N0100001N1+02261+01691101571ADDAA106000091GF106991051051004501041001KA1240N+01691MA1999999096611MD1999999-0151REMSYN076AAXX  25124 83242 32497 60501 10226 20169 39661 40157 85540 333 20169 59015;EQDQ01  00002PRCP06
0179832420999992003092518004-12567-041383FM-12+042799999V0201801N00211220001CN0040001N1+03341+01241100921ADDAA106000091GF108991011011004501001041MA1999999096041MD1999999+0021MW1051REMSYN076AAXX  25184 83242 31496 81804 10334 20124 39604 40092 705// 81104 333 58002;EQDQ01  00002PRCP06
0208832420999992003092600004-12567-041383FM-12+042799999V0200501N000512200019N0020001N1+02321+01311101281ADDAA106000091GA1001+999999999GF100991001001999999001001KA1240M+03361MA1999999096341MD1999999-0021REMSYN082AAXX  26004 83242 32995 00501 10232 20131 39634 40128 333 10336 29051 55091 59002;EQDQ01  00002PRCP06
0186832420999992003092612004-12567-041383FM-12+042799999V0200901N001010042019N0100001N1+02441+01531101561ADDAA106000091GF106991051051004501031001KA1240N+01731MA1999999096631MD1999999+0021REMSYN076AAXX  26124 83242 32497 60902 10244 20153 39663 40156 85530 333 20173 58002;EQDQ01  00002PRCP06
0195832420999992003092618004-12567-041383FM-12+042799999V0201801N002119999999N0040001N1+03241+01361101361ADDAA106000091GF108991001001999999001071MA1999999096011MD1999999-0031MW1051REMSYN076AAXX  26184 83242 31996 81804 10324 20136 39601 40136 705// 88007 333 59003;EQDQ01+000082SCOTLCQ02  00002PRCP06
0208832420999992003092700004-12567-041383FM-12+042799999V0201401N001512200019N0020001N1+02281+01301101231ADDAA106000091GA1001+999999999GF100991001001999999001001KA1240M+03341MA1999999096311MD1999999-0031REMSYN082AAXX  27004 83242 32995 01403 10228 20130 39631 40123 333 10334 29049 55091 59003;EQDQ01  00002PRCP06
0186832420999992003092712004-12567-041383FM-12+042799999V0200901N000510042019N0100001N1+02181+01721101481ADDAA106000091GF108991081071004501999999KA1240N+01791MA1999999096521MD1999999-0111REMSYN076AAXX  27124 83242 32497 80901 10218 20172 39652 40148 887// 333 20179 59011;EQDQ01  00002PRCP06
0211832420999992003092718004-12567-041383FM-12+042799999V0201401N001519999999N0040001N1+03301+01091100632ADDAA106000091GF108991001001999999001071MA1999999095771MD1999999-0241MW1051REMSYN076AAXX  27184 83242 31496 81403 10330 20109 39577 40063 705// 80007 333 59024;EQDQ01+004502SCOLCBQ02+100633APOSLPQ03  00002PRCP06
0208832420999992003092800004-12567-041383FM-12+042799999V0209999C000012200019N0020001N1+02481+01511100931ADDAA106000091GA1001+999999999GF100991001001999999001001KA1240M+03381MA1999999096021MD1999999-0291REMSYN082AAXX  28004 83242 32995 00000 10248 20151 39602 40093 333 10338 29053 55069 59029;EQDQ01  00002PRCP06
0198832420999992003092812004-12567-041383FM-12+042799999V0202301N000510042019N0040001N1+02551+02081101281ADDAA106000091GF108991081071004501999999KA1240N+02061MA1999999096381MD1999999-0141MW1051REMSYN082AAXX  28124 83242 31496 82301 10255 20208 39638 40128 705// 887// 333 20206 59014;EQDQ01  00002PRCP06
0179832420999992003092818004-12567-041383FM-12+042799999V0201801N002110450019N0020001N1+03561+01731100641ADDAA106000091GF108991041071004501021071MA1999999095841MD1999999+0071MW1051REMSYN076AAXX  28184 83242 31495 81804 10356 20173 39584 40064 705// 84727 333 58007;EQDQ01  00002PRCP06
0208832420999992003092900004-12567-041383FM-12+042799999V0202701N000512200019N0020001N1+02511+02001101081ADDAA106000091GA1001+999999999GF100991001001999999001001KA1240M+03561MA1999999096201MD1999999+0181REMSYN082AAXX  29004 83242 32995 02701 10251 20200 39620 40108 333 10356 29064 55057 58018;EQDQ01  00002PRCP06
0190832420999992003092912004-12567-041383FM-12+042799999V0201801N000510042019N0040001N1+02301+02011101531ADDAY191061AY251061GF108991081071004501999999KA1240N+02261MA1999999096601MD1999999+0221MW1101REMSYN088AAXX  29124 83242 21496 81801 10230 20201 39660 40153 71095 887// 333 20226 58022 69924;
0179832420999992003092918004-12567-041383FM-12+042799999V0201801N002111050019N0040001N1+03141+01661100951ADDAA106000091GF108991021021004501001071MA1999999096121MD1999999+0281MW1051REMSYN076AAXX  29184 83242 31496 81804 10314 20166 39612 40095 705// 82207 333 58028;EQDQ01  00002PRCP06
0208832420999992003093000004-12567-041383FM-12+042799999V0201401N001012200019N0020001N1+02441+01761101281ADDAA106000091GA1001+999999999GF100991001001999999001001KA1240M+03221MA1999999096351MD1999999+0151REMSYN082AAXX  30004 83242 32995 01402 10244 20176 39635 40128 333 10322 29064 55053 58015;EQDQ01  00002PRCP06
0186832420999992003093012004-12567-041383FM-12+042799999V0201401N001010042019N0100001N1+02461+01971101551ADDAA106000091GF108991081071004501999999KA1240N+02211MA1999999096631MD1999999+0031REMSYN076AAXX  30124 83242 32497 81402 10246 20197 39663 40155 887// 333 20221 58003;EQDQ01  00002PRCP06
0179832420999992003093018004-12567-041383FM-12+042799999V0202301N001010450019N0040001N1+03101+01731101151ADDAA106000091GF108991041071004501031071MA1999999096301MD1999999+0181MW1051REMSYN076AAXX  30184 83242 31496 82302 10310 20173 39630 40115 705// 84737 333 58018;EQDQ01  00002PRCP06
0198832420999992003100100004-12567-041383FM-12+042799999V0203601N001012200019N0020001N1+02491+01821101311ADDAA106000091GF104991041041004501001001KA1240M+03181MA1999999096411MD1999999+0061REMSYN088AAXX  01004 83242 32495 43602 10249 20182 39641 40131 84400 333 10318 29062 55036 58006;EQDQ01  00002PRCP06
0198832420999992003100112004-12567-041383FM-12+042799999V0201801N001010042019N0040001N1+02401+01931101541ADDAA106000091GF108991081071004501999999KA1240N+02211MA1999999096621MD1999999-0011MW1051REMSYN082AAXX  01124 83242 31496 81802 10240 20193 39662 40154 705// 887// 333 20221 59001;EQDQ01  00002PRCP06
0179832420999992003100118004-12567-041383FM-12+042799999V0201801N002110450019N0040001N1+02981+01691100931ADDAA106000091GF108991041061004501031071MA1999999096081MD1999999-0221MW1051REMSYN076AAXX  01184 83242 31496 81804 10298 20169 39608 40093 705// 84637 333 59022;EQDQ01  00002PRCP06
0198832420999992003100200004-12567-041383FM-12+042799999V0201401N002110042019N0020001N1+02641+01721101411ADDAA106000091GF107991071071004501001001KA1240M+03171MA1999999096511MD1999999+0101REMSYN088AAXX  02004 83242 32495 71404 10264 20172 39651 40141 87700 333 10317 29059 55010 58010;EQDQ01  00002PRCP06
0190832420999992003100212004-12567-041383FM-12+042799999V0201801N002110042019N0040001N1+02381+01871101601ADDAY151061AY221061GF108991081071004501999999KA1240N+02151MA1999999096691MD1999999+0071MW1051REMSYN088AAXX  02124 83242 21496 81804 10238 20187 39669 40160 70552 887// 333 20215 58007 69904;
0179832420999992003100218004-12567-041383FM-12+042799999V0200901N001510450019N0040001N1+02981+01591100951ADDAA106000091GF108991041071004501031071MA1999999096091MD1999999+0011MW1051REMSYN076AAXX  02184 83242 31496 80903 10298 20159 39609 40095 705// 84737 333 58001;EQDQ01  00002PRCP06
0198832420999992003100300004-12567-041383FM-12+042799999V0201801N001510042019N0020001N1+02501+01641101401ADDAA106000091GF108991081071004501999999KA1240M+03101MA1999999096491MD1999999-0021REMSYN088AAXX  03004 83242 32495 81803 10250 20164 39649 40140 887// 333 10310 29058 55047 59002;EQDQ01  00002PRCP06
0186832420999992003100312004-12567-041383FM-12+042799999V0201401N002110042019N0100001N1+02401+01731101741ADDAA106000091GF106991051071004501031001KA1240N+02051MA1999999096811MD1999999+0121REMSYN076AAXX  03124 83242 32497 61404 10240 20173 39681 40174 85730 333 20205 58012;EQDQ01  00002PRCP06
0179832420999992003100318004-12567-041383FM-12+042799999V0201801N002110450019N0040001N1+03081+01481101201ADDAA106000091GF108991041061004501051071MA1999999096311MD1999999+0221MW1051REMSYN076AAXX  03184 83242 31496 81804 10308 20148 39631 40120 705// 84657 333 58022;EQDQ01  00002PRCP06
0208832420999992003100400004-12567-041383FM-12+042799999V0201801N001512200019N0020001N1+02441+01421101431ADDAA106000091GA1001+999999999GF100991001001999999001001KA1240M+03201MA1999999096511MD1999999+0021REMSYN082AAXX  04004 83242 32995 01803 10244 20142 39651 40143 333 10320 29052 55078 58002;EQDQ01  00002PRCP06
0186832420999992003100412004-12567-041383FM-12+042799999V0201801N002110042019N0100001N1+02431+01641101821ADDAA106000091GF107991051071004501051001KA1240N+01751MA1999999096891MD1999999+0081REMSYN076AAXX  04124 83242 32497 71804 10243 20164 39689 40182 85750 333 20175 58008;EQDQ01  00002PRCP06
0179832420999992003100418004-12567-041383FM-12+042799999V0201401N002110450019N0040001N1+03201+01321101121ADDAA106000091GF108991041051004501051071MA1999999096231MD1999999-0081MW1051REMSYN076AAXX  04184 83242 31496 81404 10320 20132 39623 40112 705// 84557 333 59008;EQDQ01  00002PRCP06
0198832420999992003100500004-12567-041383FM-12+042799999V0201801N001012200019N0020001N1+02501+01531101531ADDAA106000091GF103991021071004501031001KA1240M+03271MA1999999096611MD1999999+0101REMSYN088AAXX  05004 83242 32495 31802 10250 20153 39661 40153 82730 333 10327 29051 55089 58010;EQDQ01  00002PRCP06
0186832420999992003100512004-12567-041383FM-12+042799999V0201801N001010042019N0100001N1+02271+01751101611ADDAA106000091GF108991081071004501999999KA1240N+01991MA1999999096731MD1999999-0161REMSYN076AAXX  05124 83242 32497 81802 10227 20175 39673 40161 887// 333 20199 59016;EQDQ01  00002PRCP06
0179832420999992003100518004-12567-041383FM-12+042799999V0202301N001510450019N0040001N1+03201+01371100931ADDAA106000091GF108991031041004501031071MA1999999096081MD1999999-0261MW1051REMSYN076AAXX  05184 83242 31496 82303 10320 20137 39608 40093 705// 83437 333 59026;EQDQ01  00002PRCP06
0198832420999992003100600004-12567-041383FM-12+042799999V0201801N002110042019N0020001N1+02421+01841101471ADDAA106000091GF108991081071004501999999KA1240M+03281MA1999999096541MD1999999-0071REMSYN088AAXX  06004 83242 32495 81804 10242 20184 39654 40147 887// 333 10328 29061 55073 59007;EQDQ01  00002PRCP06
0190832420999992003100612004-12567-041383FM-12+042799999V0201801N001510042019N0100001N1+02241+01901101551ADDAY161061AY251061GF108991081071004501999999KA1240N+01911MA1999999096611MD1999999-0121MW1031REMSYN088AAXX  06124 83242 21497 81803 10224 20190 39661 40155 70365 887// 333 20191 59012 60074;
0179832420999992003100618004-12567-041383FM-12+042799999V0202301N002110042019N0040001N1+03001+01611101071ADDAA106000091GF106991051061004501051001MA1999999096171MD1999999+0091MW1051REMSYN076AAXX  06184 83242 31496 62304 10300 20161 39617 40107 705// 85650 333 58009;EQDQ01  00002PRCP06
0198832420999992003100700004-12567-041383FM-12+042799999V0200901N001510042019N0020001N1+02481+01801101381ADDAA106000091GF106991051071004501051001KA1240M+03101MA1999999096451MD1999999-0091REMSYN088AAXX  07004 83242 32495 60903 10248 20180 39645 40138 85750 333 10310 29064 55054 59009;EQDQ01  00002PRCP06
0186832420999992003100712004-12567-041383FM-12+042799999V0201801N001510450019N0100001N1+02411+01911101701ADDAA106000091GF106991041071004501031001KA1240N+02071MA1999999096771MD1999999+0161REMSYN076AAXX  07124 83242 32497 61803 10241 20191 39677 40170 84730 333 20207 58016;EQDQ01  00002PRCP06
0195832420999992003100718004-12567-041383FM-12+042799999V0201801N001011050019N0040001N1+03301+01501100872ADDAA106000091GF108991011011004501001071MA1999999096041MD1999999-0131MW1051REMSYN076AAXX  07184 83242 31496 81802 10330 20150 39604 40087 705// 81107 333 59013;EQDQ01+100873APOSLPQ02  00002PRCP06
0208832420999992003100800004-12567-041383FM-12+042799999V0201401N001012200019N0020001N1+02501+01451101371ADDAA106000091GA1001+999999999GF100991001001999999001001KA1240M+03341MA1999999096471MD1999999+0021REMSYN082AAXX  08004 83242 32995 01402 10250 20145 39647 40137 333 10334 29052 55097 58002;EQDQ01  00002PRCP06
0179832420999992003100812004-12567-041383FM-12+042799999V0201801N002119999999N0040001N1+03241+01361101361ADDAA106000091GF108991001001999999001071MA1999999096011MD1999999-0031MW1051REMSYN076AAXX  08124 83242 31996 81804 10324 20136 39601 40136 705// 80007 333 59003;EQDQ01  00002PRCP06
0179832420999992003100818004-12567-041383FM-12+042799999V0201801N001011050019N0040001N1+03371+01481100921ADDAA106000091GF108991011011004501001071MA1999999096111MD1999999-0071MW1051REMSYN076AAXX  08184 83242 31496 81802 10337 20148 39611 40092 705// 81107 333 59007;EQDQ01  00002PRCP06
0198832420999992003100900004-12567-041383FM-12+042799999V0202701N001010210019N0020001N1+02481+01491101411ADDAA106000091GF106991061001022501031001KA1240M+03371MA1999999096511MD1999999+0041REMSYN088AAXX  09004 83242 32895 62702 10248 20149 39651 40141 86030 333 10337 29049 55108 58004;EQDQ01  00002PRCP06
0186832420999992003100912004-12567-041383FM-12+042799999V0200501N001510042019N0100001N1+02441+01681101661ADDAA106000091GF106991051051004501031001KA1240N+02071MA1999999096741MD1999999+0031REMSYN076AAXX  09124 83242 32497 60503 10244 20168 39674 40166 85530 333 20207 58003;EQDQ01  00002PRCP06
0167832420999992003100918004-12567-041383FM-12+042799999V0200901N003111050019N0100001N1+03261+01231100901ADDAA106000091GF106991021011004501021061MA1999999096071MD1999999-0041REMSYN070AAXX  09184 83242 32497 60906 10326 20123 39607 40090 82126 333 59004;EQDQ01  00002PRCP06
0198832420999992003101000004-12567-041383FM-12+042799999V0202301N001010450019N0020001N1+02501+01561101361ADDAA106000091GF105991041051004501081001KA1240M+03361MA1999999096451MD1999999-0061REMSYN088AAXX  10004 83242 32495 52302 10250 20156 39645 40136 84580 333 10336 29051 55103 59006;EQDQ01  00002PRCP06
0186832420999992003101012004-12567-041383FM-12+042799999V0201801N003110042019N0040001N1+02531+01731101551ADDAA106000091GF106991051051004501081001KA1240N+02171MA1999999096641MD1999999-0101REMSYN076AAXX  10124 83242 32496 61806 10253 20173 39664 40155 85580 333 20217 59010;EQDQ01  00002PRCP06
0167832420999992003101018004-12567-041383FM-12+042799999V0203601N002110450019N0100001N1+03221+01241100911ADDAA106000091GF107991031011004501081021MA1999999096071MD1999999+0001REMSYN070AAXX  10184 83242 32497 73604 10322 20124 39607 40091 83182 333 58000;EQDQ01  00002PRCP06
0198832420999992003101100004-12567-041383FM-12+042799999V0202701N001512200019N0020001N1+02441+01301101191ADDAA106000091GF101991001001999999001011KA1240M+03361MA1999999096301MD1999999-0151REMSYN088AAXX  11004 83242 32995 12703 10244 20130 39630 40119 80001 333 10336 29047 55098 59015;EQDQ01  00002PRCP06
0186832420999992003101112004-12567-041383FM-12+042799999V0200901N002110042019N0040001N1+02361+01591101621ADDAA106000091GF107991061041004501081001KA1240N+01931MA1999999096691MD1999999+0051REMSYN076AAXX  11124 83242 32496 70904 10236 20159 39669 40162 86480 333 20193 58005;EQDQ01  00002PRCP06
0167832420999992003101118004-12567-041383FM-12+042799999V0202301N002619999999N0100001N1+03281+01241100921ADDAA106000091GF108991001001999999001071MA1999999096081MD1999999+0011REMSYN070AAXX  11184 83242 32997 82305 10328 20124 39608 40092 80007 333 58001;EQDQ01  00002PRCP06
0208832420999992003101200004-12567-041383FM-12+042799999V0201801N001012200019N0020001N1+02361+01261101281ADDAA106000091GA1001+999999999GF100991001001999999001001KA1240M+03401MA1999999096351MD1999999+0051REMSYN082AAXX  12004 83242 32995 01802 10236 20126 39635 40128 333 10340 29048 55094 58005;EQDQ01  00002PRCP06
0186832420999992003101212004-12567-041383FM-12+042799999V0200901N001510042019N0040001N1+02321+01651101491ADDAA106000091GF108991081071004501999999KA1240N+01781MA1999999096551MD1999999-0141REMSYN076AAXX  12124 83242 32496 80903 10232 20165 39655 40149 887// 333 20178 59014;EQDQ01  00002PRCP06
0167832420999992003101218004-12567-041383FM-12+042799999V0202301N002119999999N0100001N1+03221+01571100851ADDAA106000091GF108991001001999999001071MA1999999095991MD1999999-0091REMSYN070AAXX  12184 83242 32997 82304 10322 20157 39599 40085 80007 333 59009;EQDQ01  00002PRCP06
0208832420999992003101300004-12567-041383FM-12+042799999V0201801N001012200019N0020001N1+02581+01491101301ADDAA106000091GA1001+999999999GF100991001001999999001001KA1240M+03361MA1999999096391MD1999999+0041REMSYN082AAXX  13004 83242 32995 01802 10258 20149 39639 40130 333 10336 29051 55064 58004;EQDQ01  00002PRCP06
0186832420999992003101312004-12567-041383FM-12+042799999V0201801N002610042019N0040001N1+02501+01641101511ADDAA106000091GF108991051041004501081001KA1240N+02111MA1999999096611MD1999999+0061REMSYN076AAXX  13124 83242 32496 81805 10250 20164 39661 40151 85480 333 20211 58006;EQDQ01  00002PRCP06
0167832420999992003101318004-12567-041383FM-12+042799999V0201401N002110450019N0100001N1+03161+01551101021ADDAA106000091GF108991011011004501051071MA1999999096151MD1999999+0161REMSYN070AAXX  13184 83242 32497 81404 10316 20155 39615 40102 81157 333 58016;EQDQ01  00002PRCP06
0198832420999992003101400004-12567-041383FM-12+042799999V0201801N002610042019N0020001N1+02721+01591101331ADDAA106000091GF106991051051004501081001KA1240M+03261MA1999999096451MD1999999+0061REMSYN088AAXX  14004 83242 32495 61805 10272 20159 39645 40133 85580 333 10326 29049 55100 58006;EQDQ01  00002PRCP06
0186832420999992003101412004-12567-041383FM-12+042799999V0201401N001010042019N0100001N1+02401+01861101551ADDAA106000091GF108991051071004501061001KA1240N+02151MA1999999096651MD1999999+0041REMSYN076AAXX  14124 83242 32497 81402 10240 20186 39665 40155 85760 333 20215 58004;EQDQ01  00002PRCP06
0167832420999992003101418004-12567-041383FM-12+042799999V0201801N002610042019N0100001N1+02871+01761101251ADDAA106000091GF107991071071004501001001MA1999999096351MD1999999+0201REMSYN070AAXX  14184 83242 32497 71805 10287 20176 39635 40125 87700 333 58020;EQDQ01  00002PRCP06
0198832420999992003101500004-12567-041383FM-12+042799999V0201801N003610042019N0020001N1+02361+01731101561ADDAA106000091GF108991081071004501999999KA1240M+02971MA1999999096631MD1999999+0181REMSYN088AAXX  15004 83242 32495 81807 10236 20173 39663 40156 887// 333 10297 29066 55015 58018;EQDQ01  00002PRCP06
0186832420999992003101512004-12567-041383FM-12+042799999V0201801N003110450019N0100001N1+02421+01311101741ADDAA106000091GF106991041041004501031061KA1240N+02011MA1999999096801MD1999999+0151REMSYN076AAXX  15124 83242 32497 61806 10242 20131 39680 40174 84436 333 20201 58015;EQDQ01  00002PRCP06
0179832420999992003101518004-12567-041383FM-12+042799999V0201801N002610042019N0040001N1+03081+01171101311ADDAA106000091GF106991051061004501031001MA1999999096421MD1999999+0071MW1041REMSYN076AAXX  15184 83242 31496 61805 10308 20117 39642 40131 704// 85630 333 58007;EQDQ01  00002PRCP06
0198832420999992003101600004-12567-041383FM-12+042799999V0201401N002610042019N0020001N1+02551+01561101611ADDAA106000091GF108991081061004501999999KA1240M+03181MA1999999096701MD1999999+0071REMSYN088AAXX  16004 83242 32495 81405 10255 20156 39670 40161 886// 333 10318 29047 55090 58007;EQDQ01  00002PRCP06
0167832420999992003101618004-12567-041383FM-12+042799999V0201401N000510042019N0100001N1+02721+01561101351ADDAA106000091GF108991081071004501999999MA1999999096411MD1999999-0011REMSYN070AAXX  16184 83242 32497 81401 10272 20156 39641 40135 887// 333 59001;EQDQ01  00002PRCP06
0198832420999992003101700004-12567-041383FM-12+042799999V0200901N001010042019N0020001N1+02381+01501101731ADDAA106000091GF108991081071004501999999KA1240M+02881MA1999999096751MD1999999+0051REMSYN088AAXX  17004 83242 32495 80902 10238 20150 39675 40173 887// 333 10288 29062 55026 58005;EQDQ01  00002PRCP06
0186832420999992003101712004-12567-041383FM-12+042799999V0201801N000510042019N0100001N1+02121+01481101701ADDAA106000091GF108991081071004501999999KA1240N+01851MA1999999096781MD1999999-0151REMSYN076AAXX  17124 83242 32497 81801 10212 20148 39678 40170 887// 333 20185 59015;EQDQ01  00002PRCP06
0167832420999992003101718004-12567-041383FM-12+042799999V0203601N003011050019N0100001N1+03091+01541101041ADDAA106000091GF106991031011004501001021MA1999999096151MD1999999-0271REMSYN070AAXX  7184  83242 32497 63603 10309 20154 39615 40104 83102 333 59027;EQDQ01  00002PRCP06
0198832420999992003101800004-12567-041383FM-12+042799999V0200901N003112200019N0020001N1+02401+01501101561ADDAA106000091GF102991021051004501001001KA1240M+03201MA1999999096601MD1999999-0151REMSYN088AAXX  18004 83242 32495 20906 10240 20150 39660 40156 82500 333 10320 29055 55066 59015;EQDQ01  00002PRCP06
0186832420999992003101812004-12567-041383FM-12+042799999V0202701N001010042019N0040001N1+02221+01531101761ADDAA106000091GF108991081071004501999999KA1240N+01951MA1999999096801MD1999999+0021REMSYN076AAXX  18124 83242 32496 82702 10222 20153 39680 40176 887// 333 20195 58002;EQDQ01  00002PRCP06
0167832420999992003101818004-12567-041383FM-12+042799999V0201801N001511050019N0100001N1+03181+01611101091ADDAA106000091GF105991031031004501001021MA1999999096201MD1999999+0051REMSYN070AAXX  18184 83242 32497 51803 10318 20161 39620 40109 83302 333 58005;EQDQ01  00002PRCP06
0208832420999992003101900004-12567-041383FM-12+042799999V0200901N002112200019N0020001N1+02561+01591101541ADDAA106000091GA1001+999999999GF100991001001999999001001KA1240M+03301MA1999999096611MD1999999+0011REMSYN082AAXX  19004 83242 32995 00904 10256 20159 39661 40154 333 10330 29054 55063 58001;EQDQ01  00002PRCP06
0186832420999992003101912004-12567-041383FM-12+042799999V0201801N001510450019N0100001N1+02281+01441101831ADDAA106000091GF107991011011004501071001KA1240N+01911MA1999999096891MD1999999+0091REMSYN076AAXX  19124 83242 32497 71803 10228 20144 39689 40183 81170 333 20191 58009;EQDQ01  00002PRCP06
0167832420999992003101918004-12567-041383FM-12+042799999V0201801N001512200019N0100001N1+03241+01311101061ADDAA106000091GF102991001001999999001021MA1999999096181MD1999999-0021REMSYN070AAXX  19184 83242 32997 21803 10324 20131 39618 40106 80002 333 59002;EQDQ01  00002PRCP06
0186832420999992003102012004-12567-041383FM-12+042799999V0203201N001010450019N0100001N1+02301+01351101711ADDAA106000091GF106991041051004501031001KA1240N+01671MA1999999096781MD1999999-0111REMSYN076AAXX  20124 83242 32497 63202 10230 20135 39678 40171 84530 333 20167 59011;EQDQ01  00002PRCP06
0179832420999992003102018004-12567-041383FM-12+042799999V0202301N001510450019N0040001N1+03301+01041101041ADDAA106000091GF108991031011004501011071MA1999999096161MD1999999-0021MW1051REMSYN076AAXX  20184 83242 31496 82303 10330 20104 39616 40104 705// 83117 333 59002;EQDQ01  00002PRCP06
0208832420999992003102100004-12567-041383FM-12+042799999V0209999C000012200019N0020001N1+02541+01481101291ADDAA106000091GA1001+999999999GF100991001001999999001001KA1240M+03361MA1999999096371MD1999999-0101REMSYN082AAXX  21004 83242 32995 00000 10254 20148 39637 40129 333 10336 29046 55085 59010;EQDQ01  00002PRCP06
0186832420999992003102112004-12567-041383FM-12+042799999V0203201N001010450019N0100001N1+02571+01921101461ADDAA106000091GF106991041051004501031001KA1240N+02131MA1999999096561MD1999999-0221REMSYN076AAXX  21124 83242 32497 63202 10257 20192 39656 40146 84530 333 20213 59022;EQDQ01  00002PRCP06
0179832420999992003102118004-12567-041383FM-12+042799999V0202301N001510450019N0040001N1+03471+01711100731ADDAA106000091GF106991031041004501081041MA1999999095951MD1999999-0211MW1041REMSYN076AAXX  21184 83242 31496 62303 10347 20171 39595 40073 704// 83484 333 59021;EQDQ01  00002PRCP06
0208832420999992003102200004-12567-041383FM-12+042799999V0201801N000512200019N0020001N1+02581+01521101091ADDAA106000091GA1001+999999999GF100991001001999999001001KA1240M+03441MA1999999096221MD1999999-0151REMSYN082AAXX  22004 83242 32995 01801 10258 20152 39622 40109 333 10344 29052 55093 59015;EQDQ01  00002PRCP06
0186832420999992003102212004-12567-041383FM-12+042799999V0201801N001510042019N0100001N1+02461+01831101471ADDAA106000091GF108991081071004501999999KA1240N+02211MA1999999096561MD1999999+0001REMSYN076AAXX  22124 83242 32497 81803 10246 20183 39656 40147 887// 333 20221 58000;EQDQ01  00002PRCP06
0179832420999992003102218004-12567-041383FM-12+042799999V0201801N001510450019N0040001N1+03471+01751100731ADDAA106000091GF108991031041004501091071MA1999999095951MD1999999+0001MW1051REMSYN076AAXX  22184 83242 31496 81803 10347 20175 39595 40073 705// 83497 333 58000;EQDQ01  00002PRCP06
0208832420999992003102300004-12567-041383FM-12+042799999V0201401N001512200019N0020001N1+02621+01621101181ADDAA106000091GA1001+999999999GF100991001001999999001001KA1240M+03471MA1999999096301MD1999999+0081REMSYN082AAXX  23004 83242 32995 01403 10262 20162 39630 40118 333 10347 29053 55081 58008;EQDQ01  00002PRCP06
0186832420999992003102312004-12567-041383FM-12+042799999V0200901N001510042019N0100001N1+02601+01741101411ADDAA106000091GF108991051041004501001071KA1240N+02091MA1999999096531MD1999999-0031REMSYN076AAXX  23124 83242 32497 80903 10260 20174 39653 40141 85407 333 20209 59003;EQDQ01  00002PRCP06
0179832420999992003102318004-12567-041383FM-12+042799999V0201801N001510450019N0040001N1+03671+01691100851ADDAA106000091GF108991021011004501051071MA1999999096071MD1999999+0121MW1051REMSYN076AAXX  23184 83242 31496 81803 10367 20169 39607 40085 705// 82157 333 58012;EQDQ01  00002PRCP06
0162832420999992003102400004-12567-041383FM-12+042799999V0201401N000512200019N0020001N1+02681+01451999999ADDAA106000091GA1001+999999999GF100991001001999999001001REMSYN078AAXX  24004 83242 32995 01401 10268 20145 10367 29046 39640 40127 55112 58010;EQDQ01  00002PRCP06
0186832420999992003102412004-12567-041383FM-12+042799999V0202301N002610450019N0100001N1+02571+01821101721ADDAA106000091GF106991041051004501011001KA1240N+02281MA1999999096821MD1999999+0291REMSYN076AAXX  24124 83242 32497 62305 10257 20182 39682 40172 84510 333 20228 58029;EQDQ01  00002PRCP06
0179832420999992003102418004-12567-041383FM-12+042799999V0201801N002110450019N0040001N1+03491+01721101011ADDAA106000091GF108991041041004501031071MA1999999096221MD1999999+0151MW1051REMSYN076AAXX  24184 83242 31496 81804 10349 20172 39622 40101 705// 84437 333 58015;EQDQ01  00002PRCP06
0198832420999992003102500004-12567-041383FM-12+042799999V0200901N000512200019N0020001N1+02741+01811101541ADDAA106000091GF103991031011004501001001KA1240M+03491MA1999999096661MD1999999+0261REMSYN088AAXX  25004 83242 32495 30901 10274 20181 39666 40154 83100 333 10349 29053 55089 58026;EQDQ01  00002PRCP06
0190832420999992003102512004-12567-041383FM-12+042799999V0202301N003110042019N0040001N1+02461+01941101681ADDAY151061AY221061GF107991051071004501081081KA1240N+02011MA1999999096781MD1999999-0041MW1001REMSYN088AAXX  25124 83242 21496 72306 10246 20194 39678 40168 70052 85788 333 20201 59004 69924;
0167832420999992003102518004-12567-041383FM-12+042799999V0201801N002610450019N0040001N1+03181+01571101031ADDAA106000091GF107991041071004501031001MA1999999096191MD1999999-0031REMSYN070AAXX  25184 83242 32496 71805 10318 20157 39619 40103 84730 333 59003;EQDQ01  00002PRCP06
0198832420999992003102600004-12567-041383FM-12+042799999V0202301N003110042019N0020001N1+02641+01691101401ADDAA106000091GF108991081071004501999999KA1240M+03261MA1999999096511MD1999999-0151REMSYN088AAXX  26004 83242 32495 82306 10264 20169 39651 40140 887// 333 10326 29056 55050 59015;EQDQ01  00002PRCP06
0190832420999992003102612004-12567-041383FM-12+042799999V0201801N001510042019N0040001N1+02321+01811101481ADDAY161061AY221061GF107991071071004501001001KA1240N+01971MA1999999096571MD1999999-0211MW1001REMSYN088AAXX  26124 83242 21496 71803 10232 20181 39657 40148 70062 87700 333 20197 59021 60014;
0167832420999992003102618004-12567-041383FM-12+042799999V0201801N003110450019N0040001N1+03221+01341100841ADDAA106000091GF108991041011004501081071MA1999999096011MD1999999-0181REMSYN070AAXX  26184 83242 32496 81806 10322 20134 39601 40084 84187 333 59018;EQDQ01  00002PRCP06
0198832420999992003102700004-12567-041383FM-12+042799999V0200901N003112200019N0020001N1+02641+01171101261ADDAA106000091GF102991021041004501001001KA1240M+03361MA1999999096361MD1999999-0151REMSYN088AAXX  27004 83242 32495 20906 10264 20117 39636 40126 82400 333 10336 29046 55084 59015;EQDQ01  00002PRCP06
0186832420999992003102712004-12567-041383FM-12+042799999V0201401N001510450019N0100001N1+02421+01671101351ADDAA106000091GF106991041051004501031001KA1240N+01921MA1999999096461MD1999999-0111REMSYN076AAXX  27124 83242 32497 61403 10242 20167 39646 40135 84530 333 20192 59011;EQDQ01  00002PRCP06
0179832420999992003102718004-12567-041383FM-12+042799999V0201801N001512200019N0040001N1+03261+01421100871ADDAA106000091GF104991021031004501091001MA1999999096031MD1999999+0021MW1051REMSYN076AAXX  27184 83242 31496 41803 10326 20142 39603 40087 705// 82390 333 58002;EQDQ01  00002PRCP06
0202832420999992003102800004-12567-041383FM-12+042799999V0201801N004610042019N0010001N1+02291+01941101351ADDAY121061AY211061GF108991081071004501999999KA1240M+03321MA1999999096421MD1999999+0061MW1601REMSYN100AAXX  28004 83242 21494 81809 10229 20194 39642 40135 76021 887// 333 10332 29064 55085 58006 69931;
0162832420999992003102812004-12567-041383FM-12+042799999V0201401N002610042019N0100001N1+02311+01911101561ADDGF108991081071004501999999KA1240N+02011MA1999999096611MD1999999+0151REMSYN082AAXX  28124 83242 22497 81405 10231 20191 39661 40156 887// 333 20201 58015 69934;
0167832420999992003102818004-12567-041383FM-12+042799999V0201801N001510042019N0100001N1+02801+01781101091ADDAA106000091GF106991051061004501031001MA1999999096191MD1999999+0231REMSYN070AAXX  28184 83242 32497 61803 10280 20178 39619 40109 85630 333 58023;EQDQ01  00002PRCP06
0198832420999992003102900004-12567-041383FM-12+042799999V0201401N002110042019N0020001N1+02511+01741101501ADDAA106000091GF108991081071004501999999KA1240M+03061MA1999999096571MD1999999+0151REMSYN088AAXX  29004 83242 32495 81404 10251 20174 39657 40150 887// 333 10306 29064 55010 58015;EQDQ01  00002PRCP06
0198832420999992003102912004-12567-041383FM-12+042799999V0202301N002110042019N0100001N1+02341+01691101551ADDAA106000091GF108991081071004501999999KA1240N+02051MA1999999096621MD1999999+0011MW1151REMSYN082AAXX  29124 83242 31497 82304 10234 20169 39662 40155 715// 887// 333 20205 58001;EQDQ01  00002PRCP06
0179832420999992003102918004-12567-041383FM-12+042799999V0202301N002110042019N0040001N1+02801+01751101041ADDAA106000091GF106991051051004501031001MA1999999096161MD1999999-0031MW1041REMSYN076AAXX  29184 83242 31496 62304 10280 20175 39616 40104 704// 85530 333 59003;EQDQ01  00002PRCP06
0198832420999992003103000004-12567-041383FM-12+042799999V0201401N001010042019N0020001N1+02621+01701101351ADDAA106000091GF108991081071004501999999KA1240M+03121MA1999999096451MD1999999-0121REMSYN088AAXX  30004 83242 32495 81402 10262 20170 39645 40135 887// 333 10312 29058 55043 59012;EQDQ01  00002PRCP06
0186832420999992003103012004-12567-041383FM-12+042799999V0200901N001010042019N0100001N1+02401+01381101481ADDAA106000091GF108991081071004501999999KA1240N+01991MA1999999096571MD1999999-0051REMSYN076AAXX  30124 83242 32497 80902 10240 20138 39657 40148 887// 333 20199 59005;EQDQ01  00002PRCP06
0179832420999992003103018004-12567-041383FM-12+042799999V0201401N001512200019N0040001N1+03331+01541100761ADDAA106000091GF104991021061004501021041MA1999999095931MD1999999-0231MW1051REMSYN076AAXX  30184 83242 31496 41403 10333 20154 39593 40076 705// 82624 333 59023;EQDQ01  00002PRCP06
0198832420999992003103100004-12567-041383FM-12+042799999V0201401N001012200019N0020001N1+02621+01621101141ADDAA106000091GF102991011011004501051001KA1240M+03421MA1999999096251MD1999999-0201REMSYN088AAXX  31004 83242 32495 21402 10262 20162 39625 40114 81150 333 10342 29049 55084 59020;EQDQ01  00002PRCP06
0190832420999992003103112004-12567-041383FM-12+042799999V0201401N000510042019N0100001N1+02351+01871101391ADDAY161061AY251061GF108991081071004501999999KA1240N+01961MA1999999096491MD1999999-0071MW1031REMSYN088AAXX  31124 83242 21497 81401 10235 20187 39649 40139 70365 887// 333 20196 59007 60024;
0167832420999992003103118004-12567-041383FM-12+042799999V0201801N001010042019N0100001N1+03141+01661100831ADDAA106000091GF106991051061004501031001MA1999999095981MD1999999+0051REMSYN070AAXX  31184 83242 32497 61802 10314 20166 39598 40083 85630 333 58005;EQDQ01  00002PRCP06
0198832420999992003110100004-12567-041383FM-12+042799999V0202301N001512200019N0020001N1+02441+01691101061ADDAA106000091GF102991021001022501051001KA1240M+03261MA1999999096151MD1999999-0101REMSYN088AAXX  01004 83242 32895 22303 10244 20169 39615 40106 82050 333 10326 29060 55051 59010;EQDQ01  00002PRCP06
0186832420999992003110112004-12567-041383FM-12+042799999V0200501N001510042019N0100001N1+02501+01621101361ADDAA106000091GF107991051061004501031001KA1240N+02111MA1999999096451MD1999999-0041REMSYN076AAXX  01124 83242 32497 70503 10250 20162 39645 40136 85630 333 20211 59004;EQDQ01  00002PRCP06
0179832420999992003110118004-12567-041383FM-12+042799999V0202301N001010042019N0040001N1+02801+01751100901ADDAA106000091GF107991061071004501031001MA1999999096021MD1999999+0021MW1051REMSYN076AAXX  01184 83242 31496 72302 10280 20175 39602 40090 705// 86730 333 58002;EQDQ01  00002PRCP06
0198832420999992003110200004-12567-041383FM-12+042799999V0200901N000512200019N0020001N1+02521+01661101011ADDAA106000091GF103991021051004501031001KA1240M+03121MA1999999096131MD1999999-0021REMSYN088AAXX  02004 83242 32495 30901 10252 20166 39613 40101 82530 333 10312 29057 55046 59002;EQDQ01  00002PRCP06
0198832420999992003110212004-12567-041383FM-12+042799999V0201401N001010042019N0040001N1+02441+01741101281ADDAA106000091GF108991081071004501999999KA1240N+02151MA1999999096381MD1999999-0071MW1041REMSYN082AAXX  02124 83242 31496 81402 10244 20174 39638 40128 704// 887// 333 20215 59007;EQDQ01  00002PRCP06
0179832420999992003110218004-12567-041383FM-12+042799999V0202701N003110042019N0040001N1+03201+01751100601ADDAA106000091GF108991061061004501081001MA1999999095781MD1999999-0241MW1041REMSYN076AAXX  02184 83242 31496 82706 10320 20175 39578 40060 704// 86680 333 59024;EQDQ01  00002PRCP06
0210832420999992003110300004-12567-041383FM-12+042799999V0209999C000010042019N0010001N1+02701+01571100881ADDAA106000091GF108991081071004501999999KA1240M+03341MA1999999096021MD1999999-0111MW1041REMSYN094AAXX  03004 83242 31494 80000 10270 20157 39602 40088 704// 887// 333 10334 29052 55037 59011;EQDQ01  00002PRCP06
0190832420999992003110312004-12567-041383FM-12+042799999V0209999C000010042019N0040001N1+02281+02201101091ADDAY191061AY261061GF108991081071004501999999KA1240N+01971MA1999999096201MD1999999-0181MW1101REMSYN088AAXX  03124 83242 21496 80000 10228 20220 39620 40109 71096 887// 333 20197 59018 60144;
0171832420999992003110318004-12567-041383FM-12+042799999V0202701N001510042019N0040001N1+02701+02111100601ADDAY101061AY251061GF107991061071004501061001MA1999999095711MD1999999-0071MW1171REMSYN082AAXX  03184 83242 21496 72703 10270 20211 39571 40060 71705 86760 333 59007 69971;
0202832420999992003110400004-12567-041383FM-12+042799999V0203601N001510042019N0020001N1+02361+02171100991ADDAY151061AY221061GF108991081071004501999999KA1240M+03321MA1999999096071MD1999999+0051MW1131REMSYN100AAXX  04004 83242 21495 83603 10236 20217 39607 40099 71352 887// 333 10332 29086 55035 58005 69901;
0190832420999992003110412004-12567-041383FM-12+042799999V0201801N001510042019N0010001N1+02071+02031101371ADDAY191061AY261061GF108991081071004501999999KA1240N+01951MA1999999096411MD1999999+0211MW1611REMSYN088AAXX  04124 83242 21494 81803 10207 20203 39641 40137 76196 887// 333 20195 58021 60684;
0171832420999992003110418004-12567-041383FM-12+042799999V0201801N002110042019N0010001N1+01901+01781101151ADDAY161061AY221061GF108991081071004501999999MA1999999096151MD1999999+0041MW1511REMSYN082AAXX  04184 83242 21494 81804 10190 20178 39615 40115 75162 887// 333 58004 60041;
0202832420999992003110500004-12567-041383FM-12+042799999V0201801N002110042019N0010001N1+01941+01871101601ADDAY161061AY221061GF108991081071004501999999KA1240M+02501MA1999999096591MD1999999+0521MW1501REMSYN100AAXX  05004 83242 21494 81804 10194 20187 39659 40160 75062 887// 333 10250 29096 55000 58052 60151;
0190832420999992003110512004-12567-041383FM-12+042799999V0201401N001510042019N0020001N1+01921+01851101791ADDAY161061AY221061GF108991081071004501999999KA1240N+01771MA1999999096761MD1999999+0351MW1101REMSYN088AAXX  05124 83242 21495 81403 10192 20185 39676 40179 71062 887// 333 20177 58035 60274;
0171832420999992003110518004-12567-041383FM-12+042799999V0201401N002110042019N0020001N1+02101+01821101451ADDAY151061AY221061GF108991081071004501999999MA1999999096441MD1999999+0291MW1151REMSYN082AAXX  05184 83242 21495 81404 10210 20182 39644 40145 71552 887// 333 58029 69901;
0200832420999992003110600004-12567-041383FM-12+042799999V0202301N001519999999N0010001N1+02001+01921101701ADDAY151061AY221061GF108991999999004501999999KA1240M+02521MA1999999096671MD1999999+0081MW1501REMSYN098AAXX  06004 83242 21494 82303 10200 20192 39667 40170 7505287// 333 10252 29092 55000 58008 69951;
0190832420999992003110612004-12567-041383FM-12+042799999V0201801N001010042019N0040001N1+02021+01851101701ADDAY161061AY221061GF108991081071004501999999KA1240N+01751MA1999999096681MD1999999-0081MW1101REMSYN088AAXX  06124 83242 21496 81802 10202 20185 39668 40170 71062 887// 333 20175 59008 60024;
0167832420999992003110618004-12567-041383FM-12+042799999V0202301N000510042019N0100001N1+02561+01751101171ADDAA106000091GF106991051061004501031001MA1999999096231MD1999999-0211REMSYN070AAXX  06184 83242 32497 62301 10256 20175 39623 40117 85630 333 59021;EQDQ01  00002PRCP06
0198832420999992003110700004-12567-041383FM-12+042799999V0200901N000510042019N0020001N1+02301+01981101401ADDAA106000091GF108991081071004501999999KA1240M+02741MA1999999096431MD1999999-0241REMSYN088AAXX  07004 83242 32495 80901 10230 20198 39643 40140 887// 333 10274 29078 55019 59024;EQDQ01  00002PRCP06
0186832420999992003110712004-12567-041383FM-12+042799999V0201401N001010042019N0100001N1+02341+01891101371ADDAA106000091GF108991081071004501999999KA1240N+02011MA1999999096431MD1999999-0251REMSYN076AAXX  07124 83242 32497 81402 10234 20189 39643 40137 887// 333 20201 59025;EQDQ01  00002PRCP06
0167832420999992003110718004-12567-041383FM-12+042799999V0201401N001012200019N0100001N1+02921+01891100861ADDAA106000091GF104991021021004501081021MA1999999095981MD1999999-0251REMSYN070AAXX  07184 83242 32497 41402 10292 20189 39598 40086 82282 333 59025;EQDQ01  00002PRCP06
0198832420999992003110800004-12567-041383FM-12+042799999V0200501N000510042019N0020001N1+02561+01971101211ADDAA106000091GF108991081071004501999999KA1240M+03101MA1999999096311MD1999999-0121REMSYN088AAXX  08004 83242 32495 80501 10256 20197 39631 40121 887// 333 10310 29068 55052 59012;EQDQ01  00002PRCP06
0186832420999992003110812004-12567-041383FM-12+042799999V0200501N001010042019N0040001N1+02401+01971101331ADDAA106000091GF108991081071004501999999KA1240N+02111MA1999999096431MD1999999+0001REMSYN076AAXX  08124 83242 32496 80502 10240 20197 39643 40133 887// 333 20211 58000;EQDQ01  00002PRCP06
0171832420999992003110818004-12567-041383FM-12+042799999V0201801N002110042019N0100001N1+02761+02071101031ADDAY151061AY221061GF108991081071004501999999MA1999999096141MD1999999+0161MW1001REMSYN082AAXX  08184 83242 21497 81804 10276 20207 39614 40103 70052 887// 333 58016 69901;
0202832420999992003110900004-12567-041383FM-12+042799999V0200901N000510042019N0020001N1+02361+02131101211ADDAY151061AY221061GF107991061071004501081001KA1240M+02921MA1999999096301MD1999999-0011MW1001REMSYN100AAXX  09004 83242 21495 70901 10236 20213 39630 40121 70052 86780 333 10292 29079 55019 59001 69901;
0190832420999992003110912004-12567-041383FM-12+042799999V0201801N001510042019N0040001N1+02291+02091101441ADDAY151061AY241061GF108991081071004501999999KA1240N+02191MA1999999096491MD1999999+0061MW1501REMSYN088AAXX  09124 83242 21496 81803 10229 20209 39649 40144 75054 887// 333 20219 58006 69904;
0171832420999992003110918004-12567-041383FM-12+042799999V0201401N001510042019N0100001N1+02711+02081101011ADDAY151061AY221061GF107991071071004501001001MA1999999096131MD1999999-0011MW1001REMSYN082AAXX  09184 83242 21497 71403 10271 20208 39613 40101 70052 87700 333 59001 69911;
0198832420999992003111000004-12567-041383FM-12+042799999V0203601N000510042019N0020001N1+02341+02071101341ADDAA106000091GF108991081071004501999999KA1240M+02811MA1999999096401MD1999999+0101REMSYN088AAXX  10004 83242 32495 83601 10234 20207 39640 40134 887// 333 10281 29082 55000 58010;EQDQ01  00002PRCP06
0190832420999992003111012004-12567-041383FM-12+042799999V0202701N001010042019N0010001N1+02141+02061101541ADDAY161061AY221061GF108991081071004501999999KA1240N+02071MA1999999096581MD1999999+0091MW1101REMSYN088AAXX  10124 83242 21494 82702 10214 20206 39658 40154 71062 887// 333 20207 58009 60024;
0167832420999992003111018004-12567-041383FM-12+042799999V0202301N001512200019N0100001N1+02981+01951100961ADDAA106000091GF106991041051004501001061MA1999999096101MD1999999-0031REMSYN070AAXX  10184 83242 32497 62303 10298 20195 39610 40096 84506 333 59003;EQDQ01  00002PRCP06
0198832420999992003111100004-12567-041383FM-12+042799999V0201401N001010210019N0020001N1+02481+01961101261ADDAA106000091GF105991051001022501011001KA1240M+03181MA1999999096321MD1999999-0081REMSYN088AAXX  11004 83242 32895 51402 10248 20196 39632 40126 85010 333 10318 29074 55048 59008;EQDQ01  00002PRCP06
0186832420999992003111112004-12567-041383FM-12+042799999V0201401N001510450019N0100001N1+02521+01891101441ADDAA106000091GF106991041041004501081001KA1240N+01931MA1999999096541MD1999999-0041REMSYN076AAXX  11124 83242 32497 61403 10252 20189 39654 40144 84480 333 20193 59004;EQDQ01  00002PRCP06
0167832420999992003111118004-12567-041383FM-12+042799999V0201401N001010450019N0100001N1+03201+01591100851ADDAA106000091GF106991041051004501051001MA1999999096021MD1999999-0081REMSYN070AAXX  11184 83242 32497 61402 10320 20159 39602 40085 84550 333 59008;EQDQ01  00002PRCP06
0214832420999992003111200004-12567-041383FM-12+042799999V0201401N002610042019N0020001N1+02601+01961101341ADDAA106000091GF107991071071004501001001KA1240M+99999MA1999999096451MD1999999+0131REMSYN088AAXX  12004 83242 32495 71405 10260 20196 39645 40134 87700 333 10228 29060 55101 58013;EQDQ01  00002PRCP06Q02 +02282ATMX  
0186832420999992003111212004-12567-041383FM-12+042799999V0201401N002610042019N0040001N1+02581+01771101511ADDAA106000091GF107991051071004501081001KA1240N+02051MA1999999096621MD1999999+0081REMSYN076AAXX  12124 83242 32496 71405 10258 20177 39662 40151 85780 333 20205 58008;EQDQ01  00002PRCP06
0167832420999992003111218004-12567-041383FM-12+042799999V0201801N003110450019N0100001N1+03201+01511100991ADDAA106000091GF105991031011004501031081MA1999999096141MD1999999+0121REMSYN070AAXX  12184 83242 32497 51806 10320 20151 39614 40099 83138 333 58012;EQDQ01  00002PRCP06
0095832420999992003111300004-12567-041383FM-12+042799999V02099999999999999999N9999999N1+99999+99999999999REMSYN086AAXX  13004 83242 325 40501 10258 20161 39642 40130 84400 333 10332 29052 55104 59003;
0186832420999992003111312004-12567-041383FM-12+042799999V0201401N001510042019N0100001N1+02481+01651101491ADDAA106000091GF106991051041004501031001KA1240N+01851MA1999999096591MD1999999-0031REMSYN076AAXX  13124 83242 32497 61403 10248 20165 39659 40149 85430 333 20185 59003;EQDQ01  00002PRCP06
0179832420999992003111318004-12567-041383FM-12+042799999V0201801N000512200019N0040001N1+03281+01531100841ADDAA106000091GF102991021011004501001001MA1999999095991MD1999999-0131MW1051REMSYN076AAXX  13184 83242 31496 21801 10328 20153 39599 40084 705// 82100 333 59013;EQDQ01  00002PRCP06
0208832420999992003111400004-12567-041383FM-12+042799999V0201801N001012200019N0020001N1+02521+01771101201ADDAA106000091GA1001+999999999GF100991001001999999001001KA1240M+03381MA1999999096311MD1999999-0111REMSYN082AAXX  14004 83242 32995 01802 10252 20177 39631 40120 333 10338 29055 55105 59011;EQDQ01  00002PRCP06
0186832420999992003111412004-12567-041383FM-12+042799999V0201401N001510042019N0040001N1+02741+01971101271ADDAA106000091GF106991051011004501081001KA1240N+02051MA1999999096401MD1999999-0191REMSYN076AAXX  14124 83242 32496 61403 10274 20197 39640 40127 85180 333 20205 59019;EQDQ01  00002PRCP06
0179832420999992003111418004-12567-041383FM-12+042799999V0200501N001510042019N0040001N1+03471+01881100741ADDAA106000091GF107991051041004501031071MA1999999095931MD1999999-0091MW1051REMSYN076AAXX  14184 83242 31496 70503 10347 20188 39593 40074 705// 85437 333 59009;EQDQ01  00002PRCP06
0208832420999992003111500004-12567-041383FM-12+042799999V0200901N001012200019N0020001N1+02661+01971101181ADDAA106000091GA1001+999999999GF100991001001999999001001KA1240M+03501MA1999999096331MD1999999+0021REMSYN082AAXX  15004 83242 32995 00902 10266 20197 39633 40118 333 10350 29058 55087 58002;EQDQ01  00002PRCP06
0186832420999992003111512004-12567-041383FM-12+042799999V0201401N003110042019N0040001N1+02661+01871101541ADDAA106000091GF107991061071004501081001KA1240N+02281MA1999999096661MD1999999+0261REMSYN076AAXX  15124 83242 32496 71406 10266 20187 39666 40154 86780 333 20228 58026;EQDQ01  00002PRCP06
0167832420999992003111518004-12567-041383FM-12+042799999V0201801N004110042019N0100001N1+03161+01751101091ADDAA106000091GF106991051041004501081001MA1999999096251MD1999999+0321REMSYN070AAXX  15184 83242 32497 61808 10316 20175 39625 40109 85480 333 58032;EQDQ01  00002PRCP06
0198832420999992003111600004-12567-041383FM-12+042799999V0201401N000510042019N0020001N1+02661+01741101401ADDAA106000091GF106991051041004501081001KA1240M+03311MA1999999096531MD1999999+0201REMSYN088AAXX  16004 83242 32495 61401 10266 20174 39653 40140 85480 333 10331 29055 55082 58020;EQDQ01  00002PRCP06
0190832420999992003111612004-12567-041383FM-12+042799999V0202301N003110042019N0020001N1+02261+01781101651ADDAY151061AY221061GF108991081071004501999999KA1240N+02051MA1999999096731MD1999999+0071MW1511REMSYN088AAXX  16124 83242 21495 82306 10226 20178 39673 40165 75152 887// 333 20205 58007 69904;
0171832420999992003111618004-12567-041383FM-12+042799999V0201401N000510042019N0040001N1+02961+01741101091ADDAY161061AY221061GF106991051071004501031001MA1999999096221MD1999999-0031MW1151REMSYN082AAXX  16184 83242 21496 61401 10296 20174 39622 40109 71562 85730 333 59003 69991;
0212832420999992003111700004-12567-041383FM-12+042799999V0200501N000512200019N0020001N1+02321+02201101271ADDAY161061AY221061GA1001+999999999GF100991001001999999001001KA1240M+03061MA1999999096331MD1999999-0201MW1001REMSYN094AAXX  17004 83242 21995 00501 10232 20220 39633 40127 70062 333 10306 29080 55031 59020 60011;
0162832420999992003111712004-12567-041383FM-12+042799999V0201801N001510042019N0100001N1+02421+01991101511ADDGF107991071071004501001001KA1240N+01911MA1999999096571MD1999999-0161REMSYN082AAXX  17124 83242 22497 71803 10242 20199 39657 40151 87700 333 20191 59016 60024;
0167832420999992003111718004-12567-041383FM-12+042799999V0202301N002110042019N0100001N1+03181+01771100971ADDAA106000091GF106991051051004501091001MA1999999096121MD1999999-0101REMSYN070AAXX  17184 83242 32497 62304 10318 20177 39612 40097 85590 333 59010;EQDQ01  00002PRCP06
0208832420999992003111800004-12567-041383FM-12+042799999V0200201N001512200019N0020001N1+02541+01811101201ADDAA106000091GA1001+999999999GF100991001001999999001001KA1240M+03271MA1999999096311MD1999999-0021REMSYN082AAXX  18004 83242 32995 00203 10254 20181 39631 40120 333 10327 29062 55068 59002;EQDQ01  00002PRCP06
0186832420999992003111812004-12567-041383FM-12+042799999V0201801N001510042019N0100001N1+02481+02091101441ADDAA106000091GF108991081071004501999999KA1240N+02171MA1999999096541MD1999999-0031REMSYN076AAXX  18124 83242 32497 81803 10248 20209 39654 40144 887// 333 20217 59003;EQDQ01  00002PRCP06
0179832420999992003111818004-12567-041383FM-12+042799999V0201801N001510450019N0040001N1+03281+01701100741ADDAA106000091GF108991031021004501031071MA1999999095921MD1999999-0201MW1051REMSYN076AAXX  18184 83242 31496 81803 10328 20170 39592 40074 705// 83237 333 59020;EQDQ01  00002PRCP06
0208832420999992003111900004-12567-041383FM-12+042799999V0203601N001512200019N0020001N1+02641+01661101071ADDAA106000091GA1001+999999999GF100991001001999999001001KA1240M+03321MA1999999096191MD1999999-0121REMSYN082AAXX  19004 83242 32995 03603 10264 20166 39619 40107 333 10332 29057 55081 59012;EQDQ01  00002PRCP06
0186832420999992003111912004-12567-041383FM-12+042799999V0202301N001010042019N0100001N1+02521+01891101331ADDAA106000091GF106991051041004501021001KA1240N+02131MA1999999096451MD1999999-0091REMSYN076AAXX  19124 83242 32497 62302 10252 20189 39645 40133 85420 333 20213 59009;EQDQ01  00002PRCP06
0179832420999992003111918004-12567-041383FM-12+042799999V0200501N001510450019N0040001N1+03391+01681100661ADDAA106000091GF108991031031004501051071MA1999999095841MD1999999-0081MW1051REMSYN076AAXX  19184 83242 31496 80503 10339 20168 39584 40066 705// 83357 333 59008;EQDQ01  00002PRCP06
0214832420999992003112000004-12567-041383FM-12+042799999V0202701N001512200019N0020001N1+02661+01741101021ADDAA106000091GF102991999021022501001051KA1240M+03421MA1999999096151MD1999999-0041REMSYN088AAXX  20004 83242 32895 22703 10266 20174 39615 40102 88205 333 10342 29054 55090 59004;EQDQ01+000082SCOTLCQ02  00002PRCP06
0186832420999992003112012004-12567-041383FM-12+042799999V0202301N001010042019N0100001N1+02421+01821101371ADDAA106000091GF107991061071004501061001KA1240N+02281MA1999999096491MD1999999+0041REMSYN076AAXX  20124 83242 32497 72302 10242 20182 39649 40137 86760 333 20228 58004;EQDQ01  00002PRCP06
0179832420999992003112018004-12567-041383FM-12+042799999V0202301N002111050019N0040001N1+03221+01521100751ADDAA106000091GF106991021011004501041061MA1999999095931MD1999999+0091MW1051REMSYN076AAXX  20184 83242 31496 62304 10322 20152 39593 40075 705// 82146 333 58009;EQDQ01  00002PRCP06
0208832420999992003112100004-12567-041383FM-12+042799999V0203601N001012200019N0020001N1+02461+01521101211ADDAA106000091GA1001+999999999GF100991001001999999001001KA1240M+03361MA1999999096311MD1999999+0161REMSYN082AAXX  21004 83242 32995 03602 10246 20152 39631 40121 333 10336 29054 55084 58016;EQDQ01  00002PRCP06
0179832420999992003112118004-12567-041383FM-12+042799999V0201801N002610450019N0040001N1+03281+01531100891ADDAA106000091GF108991021021004501031071MA1999999096051MD1999999+0121MW1051REMSYN076AAXX  21184 83242 31496 81805 10328 20153 39605 40089 705// 82237 333 58012;EQDQ01  00002PRCP06
0198832420999992003112200004-12567-041383FM-12+042799999V0202301N001512200019N0020001N1+02621+01641101311ADDAA106000091GF102991021051004501001001KA1240M+03371MA1999999096421MD1999999+0111REMSYN088AAXX  22004 83242 32495 22303 10262 20164 39642 40131 82500 333 10337 29054 55092 58011;EQDQ01  00002PRCP06
0190832420999992003112212004-12567-041383FM-12+042799999V0202301N002610042019N0100001N1+02201+02061101521ADDAY161061AY211061GF108991081071004501999999KA1240N+02031MA1999999096591MD1999999-0051MW1031REMSYN088AAXX  22124 83242 21497 82305 10220 20206 39659 40152 70361 887// 333 20203 59005 60024;
0179832420999992003112218004-12567-041383FM-12+042799999V0203601N000510042019N0040001N1+03001+01811100921ADDAA106000091GF106991051061004501031001MA1999999096061MD1999999+0011MW1051REMSYN076AAXX  22184 83242 31496 63601 10300 20181 39606 40092 705// 85630 333 58001;EQDQ01  00002PRCP06
0198832420999992003112300004-12567-041383FM-12+042799999V0201401N001510042019N0020001N1+02561+01751101301ADDAA106000091GF108991081051004501999999KA1240M+03201MA1999999096381MD1999999-0041REMSYN088AAXX  23004 83242 32495 81403 10256 20175 39638 40130 885// 333 10320 29066 55046 59004;EQDQ01  00002PRCP06
0186832420999992003112312004-12567-041383FM-12+042799999V0201401N001010042019N0100001N1+02261+01751101541ADDAA106000091GF108991081061004501999999KA1240N+01891MA1999999096611MD1999999+0021REMSYN076AAXX  23124 83242 32497 81402 10226 20175 39661 40154 886// 333 20189 58002;EQDQ01  00002PRCP06
0167832420999992003112318004-12567-041383FM-12+042799999V0202301N001510450019N0100001N1+02841+01601101001ADDAA106000091GF106991041051004501051001MA1999999096091MD1999999+0031REMSYN070AAXX  23184 83242 32497 62303 10284 20160 39609 40100 84550 333 58003;EQDQ01  00002PRCP06
0198832420999992003112400004-12567-041383FM-12+042799999V0201801N000510042019N0020001N1+02441+01901101261ADDAA106000091GF108991081061004501999999KA1240M+02981MA1999999096341MD1999999-0041REMSYN088AAXX  24004 83242 32495 81801 10244 20190 39634 40126 886// 333 10298 29066 55031 59004;EQDQ01  00002PRCP06
0198832420999992003112412004-12567-041383FM-12+042799999V0201801N001510042019N0040001N1+02321+01941101371ADDAA106000091GF108991081071004501999999KA1240N+01931MA1999999096451MD1999999-0161MW1151REMSYN082AAXX  24124 83242 31496 81803 10232 20194 39645 40137 715// 887// 333 20193 59016;EQDQ01  00002PRCP06
0179832420999992003112418004-12567-041383FM-12+042799999V0201801N001010450019N0040001N1+03071+01681100881ADDAA106000091GF106991041051004501081001MA1999999096021MD1999999-0081MW1051REMSYN076AAXX  24184 83242 31496 61802 10307 20168 39602 40088 705// 84580 333 59008;EQDQ01  00002PRCP06
0208832420999992003112500004-12567-041383FM-12+042799999V0202301N001512200019N0020001N1+02521+01631101201ADDAA106000091GA1001+999999999GF100991001001999999001001KA1240M+03181MA1999999096291MD1999999-0051REMSYN082AAXX  25004 83242 32995 02303 10252 20163 39629 40120 333 10318 29060 55068 59005;EQDQ01  00002PRCP06
0186832420999992003112512004-12567-041383FM-12+042799999V0201401N001510042019N0100001N1+02441+01901101481ADDAA106000091GF107991051071004501031001KA1240N+02111MA1999999096571MD1999999+0121REMSYN076AAXX  25124 83242 32497 71403 10244 20190 39657 40148 85730 333 20211 58012;EQDQ01  00002PRCP06
0167832420999992003112518004-12567-041383FM-12+042799999V0201801N001010450019N0100001N1+03181+01611100921ADDAA106000091GF106991031051004501021061MA1999999096081MD1999999+0061REMSYN070AAXX  25184 83242 32497 61802 10318 20161 39608 40092 83526 333 58006;EQDQ01  00002PRCP06
0198832420999992003112600004-12567-041383FM-12+042799999V0202301N001510042019N0020001N1+02621+01701101321ADDAA106000091GF106991061041004501001001KA1240M+03301MA1999999096431MD1999999+0141REMSYN088AAXX  26004 83242 32495 62303 10262 20170 39643 40132 86400 333 10330 29056 55084 58014;EQDQ01  00002PRCP06
0186832420999992003112612004-12567-041383FM-12+042799999V0201801N001510042019N0100001N1+02401+01801101561ADDAA106000091GF108991081071004501999999KA1240N+01951MA1999999096651MD1999999+0121REMSYN076AAXX  26124 83242 32497 81803 10240 20180 39665 40156 887// 333 20195 58012;EQDQ01  00002PRCP06
0179832420999992003112618004-12567-041383FM-12+042799999V0202301N001512200019N0040001N1+03001+01641101151ADDAA106000091GF104991021031004501041001MA1999999096261MD1999999+0181MW1051REMSYN076AAXX  26184 83242 31496 42303 10300 20164 39626 40115 705// 82340 333 58018;EQDQ01  00002PRCP06
0198832420999992003112700004-12567-041383FM-12+042799999V0202301N001512200019N0020001N1+02541+01881101291ADDAA106000091GF102991021041004501001001KA1240M+03141MA1999999096381MD1999999-0051REMSYN088AAXX  27004 83242 32495 22303 10254 20188 39638 40129 82400 333 10314 29062 55061 59005;EQDQ01  00002PRCP06
0186832420999992003112712004-12567-041383FM-12+042799999V0201401N001510042019N0100001N1+02461+01811101411ADDAA106000091GF107991061071004501031001KA1240N+02131MA1999999096511MD1999999-0141REMSYN076AAXX  27124 83242 32497 71403 10246 20181 39651 40141 86730 333 20213 59014;EQDQ01  00002PRCP06
0179832420999992003112718004-12567-041383FM-12+042799999V0201801N002110450019N0040001N1+03141+01581100731ADDAA106000091GF108991041041004501061001MA1999999095901MD1999999-0361MW1051REMSYN076AAXX  27184 83242 31496 81804 10314 20158 39590 40073 705// 84460 333 59036;EQDQ01  00002PRCP06
0198832420999992003112800004-12567-041383FM-12+042799999V0202301N001012200019N0020001N1+02521+01771101041ADDAA106000091GF102991021001022501051001KA1240M+03241MA1999999096151MD1999999-0231REMSYN088AAXX  28004 83242 32895 22302 10252 20177 39615 40104 82050 333 10324 29058 55072 59023;EQDQ01  00002PRCP06
0198832420999992003112812004-12567-041383FM-12+042799999V0201401N001510450019N0040001N1+02621+01881101161ADDAA106000091GF106991041051004501041001KA1240N+02131MA1999999096291MD1999999-0221MW1051REMSYN082AAXX  28124 83242 31496 61403 10262 20188 39629 40116 705// 84540 333 20213 59022;EQDQ01  00002PRCP06
0179832420999992003112818004-12567-041383FM-12+042799999V0201801N001510450019N0040001N1+03281+01781100561ADDAA106000091GF108991031021004501031071MA1999999096751MD1999999-0151MW1051REMSYN076AAXX  28184 83242 31496 81803 10328 20178 39675 40056 705// 83237 333 59015;EQDQ01  00002PRCP06
0198832420999992003112900004-12567-041383FM-12+042799999V0202301N001512200019N0020001N1+02601+01841100891ADDAA106000091GF102991021041004501001001KA1240M+03341MA1999999096031MD1999999-0121REMSYN088AAXX  29004 83242 32495 22303 10260 20184 39603 40089 82400 333 10334 29058 55010 59012;EQDQ01  00002PRCP06
0186832420999992003112912004-12567-041383FM-12+042799999V0200901N000510042019N0100001N1+02401+01891101191ADDAA106000091GF108991081071004501999999KA1240N+02171MA1999999096301MD1999999+0011REMSYN076AAXX  29124 83242 32497 80901 10240 20189 39630 40119 887// 333 20217 58001;EQDQ01  00002PRCP06
0179832420999992003112918004-12567-041383FM-12+042799999V0202301N000510450019N0040001N1+03161+01711100551ADDAA106000091GF108991041021004501051071MA1999999095741MD1999999-0011MW1051REMSYN076AAXX  29184 83242 31496 82301 10316 20171 39574 40055 705// 84257 333 59001;EQDQ01  00002PRCP06
0198832420999992003113000004-12567-041383FM-12+042799999V0203601N001510042019N0020001N1+02561+01831100891ADDAA106000091GF105991051051004501001001KA1240M+03241MA1999999096011MD1999999-0021REMSYN088AAXX  30004 83242 32495 53603 10256 20183 39601 40089 85500 333 10324 29061 55059 59002;EQDQ01  00002PRCP06
0190832420999992003113012004-12567-041383FM-12+042799999V0202301N001010042019N0100001N1+02461+01881101301ADDAY151061AY211061GF107991061071004501041001KA1240N+02171MA1999999096401MD1999999+0101MW1031REMSYN088AAXX  30124 83242 21497 72302 10246 20188 39640 40130 70351 86740 333 20217 58010 69964;
0179832420999992003113018004-12567-041383FM-12+042799999V0202301N002110450019N0040001N1+03281+01741100741ADDAA106000091GF108991021031004501031071MA1999999095911MD1999999+0171MW1051REMSYN076AAXX  30184 83242 31496 82304 10328 20174 39591 40074 705// 82337 333 58017;EQDQ01  00002PRCP06
0198832420999992003120100004-12567-041383FM-12+042799999V0202301N000510450019N0020001N1+02671+01811101021ADDAA106000091GF105991041051004501031001KA1240M+03321MA1999999096151MD1999999+0141REMSYN088AAXX  01004 83242 32495 52301 10267 20181 39615 40102 84530 333 10332 29057 55096 58014;EQDQ01  00002PRCP06
0186832420999992003120112004-12567-041383FM-12+042799999V0201401N001510042019N0100001N1+02451+01831101331ADDAA106000091GF108991061071004501061001KA1240N+02011MA1999999096441MD1999999+0041REMSYN076AAXX  01124 83242 32497 81403 10245 20183 39644 40133 86760 333 20201 58004;EQDQ01  00002PRCP06
0179832420999992003120118004-12567-041383FM-12+042799999V0201801N002610042019N0040001N1+03331+01631100681ADDAA106000091GF108991051051004501011071MA1999999095881MD1999999-0031MW1051REMSYN076AAXX  01184 83242 31496 81805 10333 20163 39588 40068 705// 85517 333 59003;EQDQ01  00002PRCP06
0208832420999992003120200004-12567-041383FM-12+042799999V0200501N000512200019N0020001N1+02601+01761100931ADDAA106000091GA1001+999999999GF100991001001999999001001KA1240M+03361MA1999999096051MD1999999-0101REMSYN082AAXX  02004 83242 32995 00501 10260 20176 39605 40093 333 10336 29056 55092 59010;EQDQ01  00002PRCP06
0186832420999992003120212004-12567-041383FM-12+042799999V0202301N001010042019N0100001N1+02471+02031101161ADDAA106000091GF107991071061004501061001KA1240N+02131MA1999999096281MD1999999-0161REMSYN076AAXX  02124 83242 32497 72302 10247 20203 39628 40116 87660 333 20213 59016;EQDQ01  00002PRCP06
0179832420999992003120218004-12567-041383FM-12+042799999V0201401N001010450019N0040001N1+03471+01711100381ADDAA106000091GF108991031041004501091071MA1999999095611MD1999999-0271MW1051REMSYN076AAXX  02184 83242 31496 81402 10347 20171 39561 40038 705// 83497 333 59027;EQDQ01  00002PRCP06
0208832420999992003120300004-12567-041383FM-12+042799999V0200501N001012200019N0020001N1+02681+01781100871ADDAA106000091GA1001+999999999GF100991001001999999001001KA1240M+03471MA1999999096011MD1999999-0041REMSYN082AAXX  03004 83242 32995 00502 10268 20178 39601 40087 333 10347 29057 55076 59004;EQDQ01  00002PRCP06
0190832420999992003120312004-12567-041383FM-12+042799999V0200901N001510042019N0020001N1+02381+02071101311ADDAY141061AY201061GF108991081071004501999999KA1240N+02071MA1999999096381MD1999999+0101MW1201REMSYN088AAXX  03124 83242 21495 80903 10238 20207 39638 40131 72040 887// 333 20207 58010 69904;
0160832420999992003120318004-12567-041383FM-12+042799999V0203601N000510450019N0040001N1+03221+01771100661ADDAA106000021GF108991021021004501051071MA1999999095831MD1999999+0221MW1051REMSYN076AAXX  03184 83242 31496 83601 10322 20177 39583 40066 705// 82257 333 58022;
0208832420999992003120400004-12567-041383FM-12+042799999V0203601N000512200019N0020001N1+02541+01861100951ADDAA106000091GA1001+999999999GF100991001001999999001001KA1240M+03321MA1999999096061MD1999999+0051REMSYN082AAXX  04004 83242 32995 03601 10254 20186 39606 40095 333 10332 29064 55063 58005;EQDQ01  00002PRCP06
0186832420999992003120412004-12567-041383FM-12+042799999V0201401N001510042019N0100001N1+02441+01971101291ADDAA106000091GF108991081071004501999999KA1240N+02091MA1999999096391MD1999999+0011REMSYN076AAXX  04124 83242 32497 81403 10244 20197 39639 40129 887// 333 20209 58001;EQDQ01  00002PRCP06
0179832420999992003120418004-12567-041383FM-12+042799999V0202301N001010450019N0040001N1+03261+01761100661ADDAA106000091GF108991021011004501021071MA1999999095831MD1999999+0001MW1051REMSYN076AAXX  04184 83242 31496 82302 10326 20176 39583 40066 705// 82127 333 58000;EQDQ01  00002PRCP06
0198832420999992003120500004-12567-041383FM-12+042799999V0200901N000512200019N0020001N1+02641+01901100971ADDAA106000091GF101991011001022501061001KA1240M+03381MA1999999096101MD1999999+0041REMSYN088AAXX  05004 83242 32895 10901 10264 20190 39610 40097 81060 333 10338 29061 55059 58004;EQDQ01  00002PRCP06
0186832420999992003120512004-12567-041383FM-12+042799999V0202301N001510042019N0100001N1+02381+01951101301ADDAA106000091GF108991081071004501999999KA1240N+02211MA1999999096401MD1999999+0011REMSYN076AAXX  05124 83242 32497 82303 10238 20195 39640 40130 887// 333 20221 58001;EQDQ01  00002PRCP06
0167832420999992003120518004-12567-041383FM-12+042799999V0200901N001512200019N0100001N1+03021+01891100741ADDAA106000091GF105991031001004501021061MA1999999095891MD1999999+0061REMSYN070AAXX  05184 83242 32497 50903 10302 20189 39589 40074 83026 333 58006;EQDQ01  00002PRCP06
0198832420999992003120600004-12567-041383FM-12+042799999V0200901N001512200019N0020001N1+02441+01901101011ADDAA106000091GF102991011001022501051021KA1240M+03201MA1999999096111MD1999999+0011REMSYN088AAXX  06004 83242 32895 20903 10244 20190 39611 40101 81052 333 10320 29068 55042 58001;EQDQ01  00002PRCP06
0186832420999992003120612004-12567-041383FM-12+042799999V0200501N000510042019N0100001N1+02401+02011101341ADDAA106000091GF108991081071004501999999KA1240N+01931MA1999999096421MD1999999+0021REMSYN076AAXX  06124 83242 32497 80501 10240 20201 39642 40134 887// 333 20193 58002;EQDQ01  00002PRCP06
0167832420999992003120618004-12567-041383FM-12+042799999V0202301N002110450019N0100001N1+03321+01891100721ADDAA106000091GF108991031011004501021071MA1999999095871MD1999999-0021REMSYN070AAXX  06184 83242 32497 82304 10332 20189 39587 40072 83127 333 59002;EQDQ01  00002PRCP06
0186832420999992003120712004-12567-041383FM-12+042799999V0200901N001510042019N0100001N1+02651+02041101331ADDAA106000091GF107991051071004501041001KA1240N+01991MA1999999096451MD1999999+0031REMSYN076AAXX  07124 83242 32497 70903 10265 20204 39645 40133 85740 333 20199 58003;EQDQ01  00002PRCP06
0167832420999992003120718004-12567-041383FM-12+042799999V0201401N001012200019N0100001N1+03241+01861100761ADDAA106000091GF104991021021004501041001MA1999999095931MD1999999+0061REMSYN070AAXX  07184 83242 32497 41402 10324 20186 39593 40076 82240 333 58006;EQDQ01  00002PRCP06
0198832420999992003120800004-12567-041383FM-12+042799999V0202701N001512200019N0020001N1+02661+01901101041ADDAA106000091GF103991021041004501021001KA1240M+03451MA1999999096181MD1999999+0151REMSYN088AAXX  08004 83242 32495 32703 10266 20190 39618 40104 82420 333 10345 29060 55079 58015;EQDQ01  00002PRCP06
0186832420999992003120812004-12567-041383FM-12+042799999V0201401N001510042019N0100001N1+02581+02061101471ADDAA106000091GF107991061071004501041001KA1240N+02091MA1999999096581MD1999999+0131REMSYN076AAXX  08124 83242 32497 71403 10258 20206 39658 40147 86740 333 20209 58013;EQDQ01  00002PRCP06
0179832420999992003120818004-12567-041383FM-12+042799999V0201401N001512200019N0040001N1+03321+01741100831ADDAA106000091GF104991021011004501021001MA1999999096001MD1999999+0071MW1051REMSYN076AAXX  08184 83242 31496 41403 10332 20174 39600 40083 705// 82120 333 58007;EQDQ01  00002PRCP06
0186832420999992003120912004-12567-041383FM-12+042799999V0201401N001010042019N0100001N1+02551+01971101531ADDAA106000091GF107991061061004501031001KA1240N+02321MA1999999096891MD1999999+0061REMSYN076AAXX  09124 83242 32497 71402 10255 20197 39689 40153 86630 333 20232 58006;EQDQ01  00002PRCP06
0179832420999992003120918004-12567-041383FM-12+042799999V0203601N000510450019N0040001N1+03471+01661100941ADDAA106000091GF108991021011004501081071MA1999999096161MD1999999+0161MW1051REMSYN076AAXX  09184 83242 31496 83601 10347 20166 39616 40094 705// 82187 333 58016;EQDQ01  00002PRCP06
0208832420999992003121000004-12567-041383FM-12+042799999V0202301N001512200019N0020001N1+02721+01651101221ADDAA106000091GA1001+999999999GF100991001001999999001001KA1240M+03561MA1999999096351MD1999999+0011REMSYN082AAXX  10004 83242 32995 02303 10272 20165 39635 40122 333 10356 29052 55084 58001;EQDQ01  00002PRCP06
0186832420999992003121012004-12567-041383FM-12+042799999V0202301N001510042019N0100001N1+02341+01871101461ADDAA106000091GF108991081071004501999999KA1240N+02211MA1999999096561MD1999999-0081REMSYN076AAXX  10124 83242 32497 82303 10234 20187 39656 40146 887// 333 20221 59008;EQDQ01  00002PRCP06
0179832420999992003121018004-12567-041383FM-12+042799999V0202301N001510450019N0040001N1+02981+01691101021ADDAA106000091GF106991041041004501031031MA1999999096171MD1999999+0011MW1051REMSYN076AAXX  10184 83242 31496 62303 10298 20169 39617 40102 705// 84433 333 58001;EQDQ01  00002PRCP06
0208832420999992003121100004-12567-041383FM-12+042799999V0203601N001512200019N0020001N1+02401+01701101241ADDAA106000091GA1001+999999999GF100991001001999999001001KA1240M+03201MA1999999096321MD1999999-0031REMSYN082AAXX  11004 83242 32995 03603 10240 20170 39632 40124 333 10320 29063 55053 59003;EQDQ01  00002PRCP06
0186832420999992003121112004-12567-041383FM-12+042799999V0202301N002610450019N0100001N1+02551+01751101531ADDAA106000091GF105991031021004501031001KA1240N+02031MA1999999096621MD1999999+0061REMSYN076AAXX  11124 83242 32497 52305 10255 20175 39662 40153 83230 333 20203 58006;EQDQ01  00002PRCP06
0179832420999992003121118004-12567-041383FM-12+042799999V0201401N001510450019N0040001N1+03471+01471100791ADDAA106000091GF106991041041004501051081MA1999999095961MD1999999-0211MW1051REMSYN076AAXX  11184 83242 31496 61403 10347 20147 39596 40079 705// 84458 333 59021;EQDQ01  00002PRCP06
0208832420999992003121200004-12567-041383FM-12+042799999V0203201N001012200019N0020001N1+02801+01721101211ADDAA106000091GA1001+999999999GF100991001001999999001001KA1240M+03521MA1999999096351MD1999999+0031REMSYN082AAXX  12004 83242 32995 03202 10280 20172 39635 40121 333 10352 29049 55107 58003;EQDQ01  00002PRCP06
0190832420999992003121212004-12567-041383FM-12+042799999V0202301N001510042019N0040001N1+02501+01981101411ADDAY161061AY201061GF107991051071004501031001KA1240N+02151MA1999999096541MD1999999-0081MW1051REMSYN088AAXX  12124 83242 21496 72303 10250 20198 39654 40141 70560 85730 333 20215 59008 69934;
0179832420999992003121218004-12567-041383FM-12+042799999V0201801N002110450019N0040001N1+03491+01631100701ADDAA106000091GF108991031021004501081081MA1999999095921MD1999999-0041MW1041REMSYN076AAXX  12184 83242 31496 81804 10349 20163 39592 40070 704// 83288 333 59004;EQDQ01  00002PRCP06
0208832420999992003121400004-12567-041383FM-12+042799999V0201401N001012200019N0020001N1+02601+01411100991ADDAA106000091GA1001+999999999GF100991001001999999001001KA1240M+03521MA1999999096131MD1999999-0101REMSYN082AAXX  14004 83242 32995 01402 10260 20141 39613 40099 333 10352 29047 55108 59010;EQDQ01  00002PRCP06
0186832420999992003121412004-12567-041383FM-12+042799999V0202301N002110042019N0040001N1+02581+01851101441ADDAA106000091GF106991051021004501081001KA1240N+02091MA1999999096551MD1999999+0081REMSYN076AAXX  14124 83242 32496 62304 10258 20185 39655 40144 85280 333 20209 58008;EQDQ01  00002PRCP06
0167832420999992003121418004-12567-041383FM-12+042799999V0201401N001512200019N0100001N1+03361+01261100801ADDAA106000091GF104991031011004501081001MA1999999095971MD1999999+0101REMSYN070AAXX  14184 83242 32497 41403 10336 20126 39597 40080 83180 333 58010;EQDQ01  00002PRCP06
0198832420999992003121500004-12567-041383FM-12+042799999V0200901N003110042019N0020001N1+02741+01841101231ADDAA106000091GF106991061061004501001001KA1240M+03521MA1999999096361MD1999999+0231REMSYN088AAXX  15004 83242 32495 60906 10274 20184 39636 40123 86600 333 10352 29052 55108 58023;EQDQ01  00002PRCP06
0186832420999992003121512004-12567-041383FM-12+042799999V0201401N001510042019N0100001N1+02531+01931101501ADDAA106000091GF107991051071004501061001KA1240N+02151MA1999999096621MD1999999+0071REMSYN076AAXX  15124 83242 32497 71403 10253 20193 39662 40150 85760 333 20215 58007;EQDQ01  00002PRCP06
0198832420999992003121600004-12567-041383FM-12+042799999V0200901N001510042019N0020001N1+02641+02001101291ADDAA106000091GF108991081071004501999999KA1240M+03441MA1999999096411MD1999999+0051REMSYN088AAXX  16004 83242 32495 80903 10264 20200 39641 40129 887// 333 10344 29061 55063 58005;EQDQ01  00002PRCP06
0186832420999992003121612004-12567-041383FM-12+042799999V0202301N001510042019N0100001N1+02501+01961101411ADDAA106000091GF107991061071004501041001KA1240N+02191MA1999999096531MD1999999-0091REMSYN076AAXX  16124 83242 32497 72303 10250 20196 39653 40141 86740 333 20219 59009;EQDQ01  00002PRCP06
0179832420999992003121618004-12567-041383FM-12+042799999V0201401N002610450019N0040001N1+03161+01751100911ADDAA106000091GF108991041041004501031071MA1999999096081MD1999999+0041MW1041REMSYN076AAXX  16184 83242 31496 81405 10316 20175 39608 40091 704// 84437 333 58004;EQDQ01  00002PRCP06
0208832420999992003121700004-12567-041383FM-12+042799999V0203601N001012200019N0020001N1+02521+01961101111ADDAA106000091GA1001+999999999GF100991001001999999001001KA1240M+03201MA1999999096221MD1999999-0191REMSYN082AAXX  17004 83242 32995 03602 10252 20196 39622 40111 333 10320 29062 55048 59019;EQDQ01  00002PRCP06
0186832420999992003121712004-12567-041383FM-12+042799999V0201401N001010450019N0100001N1+02521+01841101321ADDAA106000091GF106991041051004501031001KA1240N+02091MA1999999096421MD1999999-0111REMSYN076AAXX  17124 83242 32497 61402 10252 20184 39642 40132 84530 333 20209 59011;EQDQ01  00002PRCP06
0179832420999992003121718004-12567-041383FM-12+042799999V0201401N002610042019N0040001N1+03271+01701100851ADDAA106000091GF108991051011004501071081MA1999999096041MD1999999-0041MW1051REMSYN076AAXX  17184 83242 31496 81405 10327 20170 39604 40085 705// 85178 333 59004;EQDQ01  00002PRCP06
0208832420999992003121800004-12567-041383FM-12+042799999V0201801N001512200019N0020001N1+02641+01691101091ADDAA106000091GA1001+999999999GF100991001001999999001001KA1240M+03421MA1999999096221MD1999999+0001REMSYN082AAXX  18004 83242 32995 01803 10264 20169 39622 40109 333 10342 29054 55082 58000;EQDQ01  00002PRCP06
0186832420999992003121812004-12567-041383FM-12+042799999V0201801N002610450019N0100001N1+02621+01671101611ADDAA106000091GF106991041041004501031001KA1240N+02071MA1999999096731MD1999999+0311REMSYN076AAXX  18124 83242 32497 61805 10262 20167 39673 40161 84430 333 20207 58031;EQDQ01  00002PRCP06
0186832420999992003121912004-12567-041383FM-12+042799999V0201401N003110042019N0100001N1+02361+01831101761ADDAA106000091GF108991081071004501999999KA1240N+02051MA1999999096851MD1999999+0121REMSYN076AAXX  19124 83242 32497 81406 10236 20183 39685 40176 887// 333 20205 58012;EQDQ01  00002PRCP06
0179832420999992003121918004-12567-041383FM-12+042799999V0201801N002610450019N0040001N1+03041+01641101291ADDAA106000091GF105991041041004501061001MA1999999096401MD1999999+0181MW1051REMSYN076AAXX  19184 83242 31496 51805 10304 20164 39640 40129 705// 84460 333 58018;EQDQ01  00002PRCP06
0198832420999992003122000004-12567-041383FM-12+042799999V0201801N004110042019N0020001N1+02611+01881101681ADDAA106000091GF106991061071004501001001KA1240M+03261MA1999999096761MD1999999+0221REMSYN088AAXX  20004 83242 32495 61808 10261 20188 39676 40168 86700 333 10326 29061 55060 58022;EQDQ01  00002PRCP06
0190832420999992003122012004-12567-041383FM-12+042799999V0202301N001510042019N0020001N1+02221+02081101791ADDAY161061AY221061GF108991081071004501999999KA1240N+01991MA1999999096851MD1999999+0001MW1151REMSYN088AAXX  20124 83242 21495 82303 10222 20208 39685 40179 71562 887// 333 20199 58000 60034;
0183832420999992003122018004-12567-041383FM-12+042799999V0201401N002619999999N0040001N1+03471+01611101001ADDAA106000091GF105991999051004501999999MA1999999096201MD1999999-0201REMSYN070AAXX  20184 83242 32496 51405 10347 20161 39620 40100 805// 333 59020;EQDQ01+000002SCOTLCQ02  00002PRCP06
0210832420999992003122100004-12567-041383FM-12+042799999V0209999C000010042019N0020001N1+02801+01781101381ADDAA106000091GF106991061071004501001001KA1240M+03471MA1999999096481MD1999999-0281MW1131REMSYN094AAXX  21004 83242 31495 60000 10280 20178 39648 40138 713// 86700 333 10347 29058 55055 59028;EQDQ01  00002PRCP06
0186832420999992003122112004-12567-041383FM-12+042799999V0200901N002110450019N0100001N1+02651+01621101561ADDAA106000091GF106991041041004501031001KA1240N+01931MA1999999096691MD1999999-0161REMSYN076AAXX  21124 83242 32497 60904 10265 20162 39669 40156 84430 333 20193 59016;EQDQ01  00002PRCP06
0208832420999992003122200004-12567-041383FM-12+042799999V0209999C000012200019N0020001N1+02781+01581101011ADDAA106000091GA1001+999999999GF100991001001999999001001KA1240M+03581MA1999999096161MD1999999-0321REMSYN082AAXX  22004 83242 32995 00000 10278 20158 39616 40101 333 10358 29045 55111 59032;EQDQ01  00002PRCP06
0186832420999992003122212004-12567-041383FM-12+042799999V0201401N001010450019N0100001N1+02641+01801101331ADDAA106000091GF108991041011004501051071KA1240N+01711MA1999999096471MD1999999-0011REMSYN076AAXX  22124 83242 32497 81402 10264 20180 39647 40133 84157 333 20171 59001;EQDQ01  00002PRCP06
0195832420999992003122218004-12567-041383FM-12+042799999V0200501N002110450019N0040001N1+03771+01501100522ADDAA106000091GF108991021011004501081041MA1999999095751MD1999999-0251MW1051REMSYN076AAXX  22184 83242 31496 80504 10377 20150 39575 40052 705// 82184 333 59025;EQDQ01+100523APOSLPQ02  00002PRCP06
0198832420999992003122300004-12567-041383FM-12+042799999V0203601N001512200019N0020001N1+02961+01901100841ADDAA106000091GF102991021071004501001001KA1240M+03781MA1999999096031MD1999999-0131REMSYN088AAXX  23004 83242 32495 23603 10296 20190 39603 40084 82700 333 10378 29048 55105 59013;EQDQ01  00002PRCP06
0190832420999992003122312004-12567-041383FM-12+042799999V0201801N000510042019N0040001N1+02351+02241101311ADDAY161061AY211061GF108991081071004501999999KA1240N+02171MA1999999096441MD1999999-0031MW1501REMSYN088AAXX  23124 83242 21496 81801 10235 20224 39644 40131 75061 887// 333 20217 59003 60064;
0148832420999992003122318004-12567-041383FM-12+042799999V0201801N001510450019N0100001N1+03131+01971100701ADDAA106000021GF106991041071004501051021MA1999999095891MD1999999+0141REMSYN070AAXX  23184 83242 32497 61803 10313 20197 39589 40070 84752 333 58014;
0208832420999992003122400004-12567-041383FM-12+042799999V0203601N001512200019N0020001N1+02661+01951100921ADDAA106000091GA1001+999999999GF100991001001999999001001KA1240M+03381MA1999999096041MD1999999+0011REMSYN082AAXX  24004 83242 32995 03603 10266 20195 39604 40092 333 10338 29068 55038 58001;EQDQ01  00002PRCP06
0186832420999992003122412004-12567-041383FM-12+042799999V0201401N001510042019N0040001N1+02501+02001101301ADDAA106000091GF108991081071004501999999KA1240N+02211MA1999999096421MD1999999-0021REMSYN076AAXX  24124 83242 32496 81403 10250 20200 39642 40130 887// 333 20221 59002;EQDQ01  00002PRCP06
0167832420999992003122418004-12567-041383FM-12+042799999V0201801N001510450019N0100001N1+02921+01921100961ADDAA106000091GF105991031031004501051011MA1999999096121MD1999999+0231REMSYN070AAXX  24184 83242 32497 51803 10292 20192 39612 40096 83351 333 58023;EQDQ01  00002PRCP06
0208832420999992003122500004-12567-041383FM-12+042799999V0203601N000512200019N0020001N1+02481+01961101141ADDAA106000091GA1001+999999999GF100991001001999999001001KA1240M+03141MA1999999096251MD1999999+0211REMSYN082AAXX  25004 83242 32995 03601 10248 20196 39625 40114 333 10314 29069 55035 58021;EQDQ01  00002PRCP06
0186832420999992003122512004-12567-041383FM-12+042799999V0201401N001510042019N0100001N1+02601+01841101451ADDAA106000091GF107991051071004501081021KA1240N+02091MA1999999096551MD1999999+0131REMSYN076AAXX  25124 83242 32497 71403 10260 20184 39655 40145 85782 333 20209 58013;EQDQ01  00002PRCP06
0167832420999992003122518004-12567-041383FM-12+042799999V0201401N002612200019N0100001N1+03361+01561100801ADDAA106000091GF104991031011004501051001MA1999999095991MD1999999-0131REMSYN070AAXX  25184 83242 32497 41405 10336 20156 39599 40080 83150 333 59013;EQDQ01  00002PRCP06
0209832420999992003122612004-12567-041383FM-12+042799999V0203201N001510042019N0040001N1+02541+02021101311ADDAY101061AY201061GF107991061071004501031001KA1240N+02091MA1999999096441MD1999999-0111MW1001REMSYN088AAXX  26124 83242 21496 73203 10254 20202 39644 40131 70070 86730 333 20209 59011 60014;EQDQ01+000072PSTWM1
0151832420999992003122618004-12567-041383FM-12+042799999V0201401N001519999999N0100001N1+03481+01571100601ADDAA106000091GF106991999999004501999999MA1999999095831REMSYN068AAXX  26184 83242 32497 61403 10348 20157 39583 40060 852 333 59016;EQDQ01  00002PRCP06
0198832420999992003122700004-12567-041383FM-12+042799999V0201401N002112200019N0020001N1+02781+01821101071ADDAA106000091GF104991041071004501081001KA1240M+03571MA1999999096211MD1999999-0131REMSYN088AAXX  27004 83242 32495 41404 10278 20182 39621 40107 84780 333 10357 29054 55093 59013;EQDQ01  00002PRCP06
0186832420999992003122712004-12567-041383FM-12+042799999V0201401N003110042019N0040001N1+02701+01881101201ADDAA106000091GF107991061071004501051001KA1240N+02181MA1999999096351MD1999999-0091REMSYN076AAXX  27124 83242 32496 71406 10270 20188 39635 40120 86750 333 20218 59009;EQDQ01  00002PRCP06
0167832420999992003122718004-12567-041383FM-12+042799999V0201401N003110042019N0100001N1+03201+01751100661ADDAA106000091GF107991051071004501051021MA1999999095861MD1999999+0031REMSYN070AAXX  27184 83242 32497 71406 10320 20175 39586 40066 85752 333 58003;EQDQ01  00002PRCP06
0198832420999992003122800004-12567-041383FM-12+042799999V0201801N001010042019N0020001N1+02841+01701100881ADDAA106000091GF108991081071004501999999KA1240M+03421MA1999999096051MD1999999-0161REMSYN088AAXX  28004 83242 32495 81802 10284 20170 39605 40088 887// 333 10342 29051 55061 59016;EQDQ01  00002PRCP06
0214832420999992003122812004-12567-041383FM-12+042799999V0201801N001510042019N0040001N1+02421+01931101221ADDAA106000091AY121061AY251061GF108991081071004501999999KA1240N+02111MA1999999096351MD1999999+0001MW1051REMSYN082AAXX  28124 83242 31496 81803 10242 20193 39635 40122 70525 887// 333 20211 58000;EQDQ01  00002PRCP06
0167832420999992003122818004-12567-041383FM-12+042799999V0202301N002610450019N0100001N1+03121+01921100681ADDAA106000091GF107991041031004501031021MA1999999095871MD1999999+0011REMSYN070AAXX  28184 83242 32497 72305 10312 20192 39587 40068 84332 333 58001;EQDQ01  00002PRCP06
0198832420999992003122900004-12567-041383FM-12+042799999V0200501N001019999999N0020001N1+02651+01851100881ADDAA106000091GF108991081001999999011999KA1240M+03271MA1999999096011MD1999999-0041REMSYN088AAXX  29004 83242 32995 80502 10265 20185 39601 40088 8801/ 333 10327 29061 55036 59004;EQDQ01  00002PRCP06
0190832420999992003122912004-12567-041383FM-12+042799999V0201801N002110042019N0100001N1+02291+02091101331ADDAY161061AY221061GF108991081071004501999999KA1240N+02031MA1999999096421MD1999999+0071MW1031REMSYN088AAXX  29124 83242 21497 81804 10229 20209 39642 40133 70362 887// 333 20203 58007 60054;
0171832420999992003122918004-12567-041383FM-12+042799999V0203601N000510042019N0040001N1+02741+02141101031ADDAY161061AY221061GF108991081071004501999999MA1999999096151MD1999999+0281MW1041REMSYN082AAXX  29184 83242 21496 83601 10274 20214 39615 40103 70462 887// 333 58028 60011;
0202832420999992003123000004-12567-041383FM-12+042799999V0203601N001510042019N0020001N1+02181+02061101351ADDAY161061AY221061GF108991081071004501999999KA1240M+02821MA1999999096401MD1999999+0391MW1501REMSYN100AAXX  30004 83242 21495 83603 10218 20206 39640 40135 75062 887// 333 10282 29086 55000 58039 60021;
0190832420999992003123012004-12567-041383FM-12+042799999V0201801N001510042019N0100001N1+02381+02011101521ADDAY161061AY221061GF108991081071004501999999KA1240N+02091MA1999999096571MD1999999+0151MW1031REMSYN088AAXX  30124 83242 21497 81803 10238 20201 39657 40152 70362 887// 333 20209 58015 60044;
0183832420999992003123018004-12567-041383FM-12+042799999V0201801N001519999999N0040001N1+03121+01791101181ADDAA106000091GF106991999051004501999999MA1999999096221MD1999999+0031REMSYN070AAXX  30184 83242 32496 61803 10312 20179 39622 40118 805// 333 58003;EQDQ01+000002SCOTLCQ02  00002PRCP06
0198832420999992003123100004-12567-041383FM-12+042799999V0202701N001512200019N0020001N1+02621+01811101271ADDAA106000091GF103991031031999999001001KA1240M+03301MA1999999096371MD1999999-0031REMSYN088AAXX  31004 83242 32995 32703 10262 20181 39637 40127 83300 333 10330 29062 55041 59003;EQDQ01  00002PRCP06
0186832420999992003123112004-12567-041383FM-12+042799999V0201801N001510042019N0100001N1+02561+02021101301ADDAA106000091GF106991061051004501001001KA1240N+02011MA1999999096421MD1999999-0121REMSYN076AAXX  31124 83242 32497 61803 10256 20202 39642 40130 86500 333 20201 59012;EQDQ01  00002PRCP06
0167832420999992003123118004-12567-041383FM-12+042799999V0201801N001012200019N0100001N1+03361+01931100771ADDAA106000091GF102991021011004501001001MA1999999095971MD1999999-0251REMSYN070AAXX  31184 83242 32497 21802 10336 20193 39597 40077 82100 333 59025;EQDQ01  00002PRCP06
