0186832880999992003010112004-13270-043420FM-12+0458SBLP V0202701N001012200019N0200001N1+02691+02281102201ADDAA106000091GF104991021011008001001021KA1240N+02221MA1999999096331MD1999999-0181REMSYN076AAXX  01124 83288 32598 42702 10269 20228 39633 40220 82102 333 20222 59018;EQDQ01  00002PRCP06
0167832880999992003010118004-13270-043420FM-12+0458SBLP V0203601N002611050019N0200001N1+02991+02331101831ADDAA106000091GF106991031051008001001021MA1999999095981MD1999999+0011REMSYN070AAXX  01184 83288 32598 63605 10299 20233 39598 40183 83502 333 58001;EQDQ01  00002PRCP06
0198832880999992003010200004-13270-043420FM-12+0458SBLP V0202701N001010450019N0020001N1+02591+02341101161ADDAA106000091GF108991041081008001021999KA1240M+03231MA1999999096301MD1999999+0261REMSYN088AAXX  02004 83288 32595 82702 10259 20234 39630 40116 8482/ 333 10323 29078 55095 58026;EQDQ01  00002PRCP06
0190832880999992003010212004-13270-043420FM-12+0458SBLP V0209999C000010150019N0200001N1+02651+02351101141ADDAY151061AY251061GF107991071001017501071001KA1240N+02301MA1999999096271MD1999999-0061MW1031REMSYN088AAXX  02124 83288 21798 70000 10265 20235 39627 40114 70355 87070 333 20230 59006 69924;
0183832880999992003010218004-13270-043420FM-12+0458SBLP V0201401N002612200019N0200001N1+03011+01411100641ADDAA106000091GF104991999081008001071001MA1999999095811MD1999999-0171REMSYN070AAXX  02184 83288 32598 41405 10301 20141 39581 40064 85870 333 59017;EQDQ01+000052SCOTLCQ02  00002PRCP06
0198832880999992003010300004-13270-043420FM-12+0458SBLP V0209999C000019999999N0020001N1+02571+02401100901ADDAA106000091GF105991001001999999001021KA1240M+03211MA1999999096041MD1999999-0261REMSYN088AAXX  03004 83288 32995 50000 10257 20240 39604 40090 80002 333 10321 29080 55081 59026;EQDQ01  00002PRCP06
0186832880999992003010312004-13270-043420FM-12+0458SBLP V0203201N000510450019N0200001N1+02651+02231101031ADDAA106000091GF106991031051008001021041KA1240N+02181MA1999999096161MD1999999-0111REMSYN076AAXX  03124 83288 32598 63201 10265 20223 39616 40103 83524 333 20218 59011;EQDQ01  00002PRCP06
0167832880999992003010318004-13270-043420FM-12+0458SBLP V0203201N001510450019N0200001N1+03141+02381100541ADDAA106000091GF105991041021008001021041MA1999999095741MD1999999-0071REMSYN070AAXX  03184 83288 32598 53203 10314 20238 39574 40054 84224 333 59007;EQDQ01  00002PRCP06
0162832880999992003010412004-13270-043420FM-12+0458SBLP V0202701N000510450019N0200001N1+02551+02321101281ADDGF106991021081008001031001KA1240N+02201MA1999999096371MD1999999+0211REMSYN082AAXX  04124 83288 22598 62701 10255 20232 39637 40128 82830 333 20220 58021 60054;
0167832880999992003010418004-13270-043420FM-12+0458SBLP V0203201N002110450019N0200001N1+03111+02421100881ADDAA106000091GF108991041051008001011041MA1999999096041MD1999999-0121REMSYN070AAXX  04184 83288 32598 83204 10311 20242 39604 40088 84514 333 59012;EQDQ01  00002PRCP06
0202832880999992003010500004-13270-043420FM-12+0458SBLP V0201401N001510450019N0020001N1+02251+02171101071ADDAY161061AY221061GF108991031071008001021999KA1240M+03191MA1999999096131MD1999999+0281MW1501REMSYN100AAXX  05004 83288 21595 81403 10225 20217 39613 40107 75062 8372/ 333 10319 29083 55028 58028 69941;
0162832880999992003010512004-13270-043420FM-12+0458SBLP V0202701N001511050019N0200001N1+02571+02331101211ADDGF107991021051008001001021KA1240N+02171MA1999999096261MD1999999-0111REMSYN082AAXX  05124 83288 22598 72703 10257 20233 39626 40121 82502 333 20217 59011 69944;
0167832880999992003010518004-13270-043420FM-12+0458SBLP V0201801N003110120019N0200001N1+03021+02391100921ADDAA106000091GF107991051081008001001021MA1999999095981MD1999999-0061REMSYN070AAXX  05184 83288 32598 71806 10302 20239 39598 40092 85802 333 59006;EQDQ01  00002PRCP06
0208832880999992003010600004-13270-043420FM-12+0458SBLP V0209999C025712200019N0020001N1+02391+01911101171ADDAA106000091GA1001+999999999GF100991001001999999001001KA1240M+03051MA1999999096281MD1999999+0151REMSYN082AAXX  06004 83288 32995 00050 10239 20191 39628 40117 333 10305 29077 55071 58015;EQDQ01  00002PRCP06
0186832880999992003010612004-13270-043420FM-12+0458SBLP V0200901N000510450019N0200001N1+02491+02391101111ADDAA106000091GF105991041051008001021001KA1240N+02221MA1999999096281MD1999999+0021REMSYN076AAXX  06124 83288 32598 50901 10249 20239 39628 40111 84520 333 20222 58002;EQDQ01  00002PRCP06
0167832880999992003010618004-13270-043420FM-12+0458SBLP V0202701N001010450019N0200001N1+03261+02211100731ADDAA106000091GF105991031021008001021021MA1999999095931MD1999999+0051REMSYN070AAXX  06184 83288 32598 52702 10326 20221 39593 40073 83222 333 58005;EQDQ01  00002PRCP06
0221832880999992003010700004-13270-043420FM-12+0458SBLP V0200901N000512200019N0020001N1+02491+02481100811ADDAY161061AY251061GF102991999011008001021001KA1240M+03321MA1999999095941MD1999999-0341MW1031REMSYN100AAXX  07004 83288 21595 20901 10249 20248 39594 40081 70365 83120 333 10332 29082 55053 59034 60041;EQDQ01+000032SCOTLC
0162832880999992003010712004-13270-043420FM-12+0458SBLP V0203601N001510450019N0200001N1+02751+02351101071ADDGF106991021021008001031051KA1240N+02381MA1999999096231MD1999999-0051REMSYN082AAXX  07124 83288 22598 63603 10275 20235 39623 40107 82235 333 20238 59005 60044;
0167832880999992003010718004-13270-043420FM-12+0458SBLP V0203201N001511050019N0200001N1+03231+02541100611ADDAA106000091GF108991031021008001001071MA1999999095881MD1999999-0051REMSYN070AAXX  07184 83288 32598 83203 10323 20254 39588 40061 83207 333 59005;EQDQ01  00002PRCP06
0208832880999992003010800004-13270-043420FM-12+0458SBLP V0201801N001512200019N0020001N1+02711+02331101021ADDAA106000091GA1001+999999999GF100991001001999999001001KA1240M+03311MA1999999096171MD1999999+0231REMSYN082AAXX  08004 83288 32995 01803 10271 20233 39617 40102 333 10331 29075 55102 58023;EQDQ01  00002PRCP06
0167832880999992003010818004-13270-043420FM-12+0458SBLP V0202701N001511050019N0200001N1+03351+02401100771ADDAA106000091GF105991011021008001001021MA1999999095981MD1999999+0101REMSYN070AAXX  08184 83288 32598 52703 10335 20240 39598 40077 81202 333 58010;EQDQ01  00002PRCP06
0198832880999992003010900004-13270-043420FM-12+0458SBLP V0201801N001519999999N0020001N1+02791+02401101021ADDAA106000091GF106991001001999999001021KA1240M+03451MA1999999096201MD1999999+0031REMSYN088AAXX  09004 83288 32995 61803 10279 20240 39620 40102 80002 333 10345 29073 55077 58003;EQDQ01  00002PRCP06
0190832880999992003010912004-13270-043420FM-12+0458SBLP V0200901N000512200019N0200001N1+02841+02481101181ADDAY161061AY261061GF103991021011008001001041KA1240N+02321MA1999999096351MD1999999+0111MW1031REMSYN088AAXX  09124 83288 21598 30901 10284 20248 39635 40118 70366 82104 333 20232 58011 60074;
0167832880999992003010918004-13270-043420FM-12+0458SBLP V0202701N001511050019N0200001N1+03341+02371101021ADDAA106000091GF105991041021008001001021MA1999999096221MD1999999-0021REMSYN070AAXX  09184 83288 32598 52703 10334 20237 39622 40102 84202 333 59002;EQDQ01  00002PRCP06
0198832880999992003011000004-13270-043420FM-12+0458SBLP V0201801N001012200019N0020001N1+02951+02211100901ADDAA106000091GF104991041081008001021001KA1240M+03441MA1999999096121MD1999999-0081REMSYN088AAXX  10004 83288 32595 41802 10295 20221 39612 40090 84820 333 10344 29068 55107 59008;EQDQ01  00002PRCP06
0186832880999992003011012004-13270-043420FM-12+0458SBLP V0200901N001012200019N0200001N1+02831+02181101241ADDAA106000091GF102991001001999999001041KA1240N+02261MA1999999096431MD1999999+0081REMSYN076AAXX  10124 83288 32998 20902 10283 20218 39643 40124 80004 333 20226 58008;EQDQ01  00002PRCP06
0167832880999992003011018004-13270-043420FM-12+0458SBLP V0202301N001512200019N0200001N1+03341+02371100671ADDAA106000091GF103991031021008001001001MA1999999095971MD1999999-0251REMSYN070AAXX  10184 83288 32598 32303 10334 20237 39597 40067 83200 333 59025;EQDQ01  00002PRCP06
0198832880999992003011100004-13270-043420FM-12+0458SBLP V0209999C000012200019N0200001N1+02991+02611100871ADDAA106000091GF102991021021008001001001KA1240M+03441MA1999999096071MD1999999-0051REMSYN088AAXX  11004 83288 32598 20000 10299 20261 39607 40087 82200 333 10344 29068 55113 59005;EQDQ01  00002PRCP06
0186832880999992003011112004-13270-043420FM-12+0458SBLP V0209999C000019999999N0200001N1+02851+02141101141ADDAA106000091GF107991001001999999001071KA1240N+02241MA1999999096331MD1999999-0101REMSYN076AAXX  11124 83288 32998 70000 10285 20214 39633 40114 80007 333 20224 59010;EQDQ01  00002PRCP06
0167832880999992003011118004-13270-043420FM-12+0458SBLP V0202701N001512200019N0200001N1+03341+02051100901ADDAA106000091GF102991001001999999001091MA1999999096081MD1999999+0111REMSYN070AAXX  11184 83288 32998 22703 10334 20205 39608 40090 80009 333 58011;EQDQ01  00002PRCP06
0198832880999992003011200004-13270-043420FM-12+0458SBLP V0201801N002112200019N0020001N1+02491+02151100931ADDAA106000091GF102991001001999999001011KA1240M+03371MA1999999096081MD1999999-0011REMSYN088AAXX  12004 83288 32995 21804 10249 20215 39608 40093 80001 333 10337 29069 55081 59001;EQDQ01  00002PRCP06
0186832880999992003011212004-13270-043420FM-12+0458SBLP V0202301N001512200019N0200001N1+02631+02391101261ADDAA106000091GF104991031011008001021021KA1240N+02161MA1999999096371MD1999999-0041REMSYN076AAXX  12124 83288 32598 42303 10263 20239 39637 40126 83122 333 20216 59004;EQDQ01  00002PRCP06
0167832880999992003011218004-13270-043420FM-12+0458SBLP V0202701N000510450019N0200001N1+03281+02451100671ADDAA106000091GF106991041021008001021021MA1999999095851MD1999999-0231REMSYN070AAXX  12184 83288 32598 62701 10328 20245 39585 40067 84222 333 59023;EQDQ01  00002PRCP06
0198832880999992003011300004-13270-043420FM-12+0458SBLP V0200901N001010075019N0020001N1+02741+02281100771ADDAA106000091GF108991061051008001021001KA1240M+03391MA1999999095931MD1999999-0151REMSYN088AAXX  13004 83288 32595 80902 10274 20228 39593 40077 86520 333 10339 29075 55108 59015;EQDQ01  00002PRCP06
0186832880999992003011312004-13270-043420FM-12+0458SBLP V0201801N001510450019N0200001N1+02611+02221101141ADDAA106000091GF106991041021008001011001KA1240N+02181MA1999999096271MD1999999-0101REMSYN076AAXX  13124 83288 32598 61803 10261 20222 39627 40114 84210 333 20218 59010;EQDQ01  00002PRCP06
0190832880999992003011412004-13270-043420FM-12+0458SBLP V0200501N002110450019N0200001N1+02461+02271101241ADDAY151061AY251061GF108991041051008001021071KA1240N+02271MA1999999096341MD1999999+0071MW1021REMSYN088AAXX  14124 83288 21598 80504 10246 20227 39634 40124 70255 84527 333 20227 58007 69924;
0167832880999992003011418004-13270-043420FM-12+0458SBLP V0203201N001511050019N0200001N1+02961+02311100771ADDAA106000091GF107991041001017501071081MA1999999095931MD1999999+0071REMSYN070AAXX  14184 83288 32798 73203 10296 20231 39593 40077 84078 333 58007;EQDQ01  00002PRCP06
0198832880999992003011500004-13270-043420FM-12+0458SBLP V0201401N001510150019N0020001N1+02451+02091101031ADDAA106000091GF108991061001017501071071KA1240M+03051MA1999999096141MD1999999+0021REMSYN088AAXX  15004 83288 32795 81403 10245 20209 39614 40103 86077 333 10305 29080 55018 58002;EQDQ01  00002PRCP06
0186832880999992003011512004-13270-043420FM-12+0458SBLP V0203601N001010075019N0200001N1+02351+02201101321ADDAA106000091GF108991061051008001051001KA1240N+02201MA1999999096401MD1999999+0061REMSYN076AAXX  15124 83288 32598 83602 10235 20220 39640 40132 86550 333 20220 58006;EQDQ01  00002PRCP06
0167832880999992003011518004-13270-043420FM-12+0458SBLP V0203601N001010450019N0200001N1+03001+02341101011ADDAA106000091GF106991041081008001021021MA1999999096151MD1999999+0121REMSYN070AAXX  15184 83288 32598 63602 10300 20234 39615 40101 84822 333 58012;EQDQ01  00002PRCP06
0198832880999992003011600004-13270-043420FM-12+0458SBLP V0202701N001510450019N0020001N1+02631+02331101231ADDAA106000091GF105991031011008001021001KA1240M+03051MA1999999096341MD1999999+0201REMSYN088AAXX  16004 83288 32595 52703 10263 20233 39634 40123 83120 333 10305 29082 55027 58020;EQDQ01  00002PRCP06
0186832880999992003011612004-13270-043420FM-12+0458SBLP V0201401N001510450019N0200001N1+02561+02291101361ADDAA106000091GF108991041051004501071071KA1240N+02271MA1999999096481MD1999999+0081REMSYN076AAXX  16124 83288 32498 81403 10256 20229 39648 40136 84577 333 20227 58008;EQDQ01  00002PRCP06
0171832880999992003011618004-13270-043420FM-12+0458SBLP V0200901N001519999999N0200001N1+02691+02521101081ADDAY161061AY261061GF108991001001999999001071MA1999999096191MD1999999+0041MW1021REMSYN082AAXX  16184 83288 21998 80903 10269 20252 39619 40108 70266 80007 333 58004 60231;
0198832880999992003011700004-13270-043420FM-12+0458SBLP V0201401N001019999999N0020001N1+02441+02351101051ADDAA106000091GF107991001001999999001021KA1240M+03061MA1999999096161MD1999999-0181REMSYN088AAXX  17004 83288 32995 71402 10244 20235 39616 40105 80002 333 10306 29092 55012 59018;EQDQ01  00002PRCP06
0162832880999992003011712004-13270-043420FM-12+0458SBLP V0200901N001010450019N0200001N1+02491+02351101291ADDGF106991041021008001011001KA1240N+02141MA1999999096381MD1999999-0101REMSYN082AAXX  17124 83288 22598 60902 10249 20235 39638 40129 84210 333 20214 59010 60234;
0167832880999992003011718004-13270-043420FM-12+0458SBLP V0202701N001011050019N0200001N1+03051+02321100941ADDAA106000091GF107991021011008001001061MA1999999096101MD1999999-0091REMSYN070AAXX  17184 83288 32598 72702 10305 20232 39610 40094 82106 333 59009;EQDQ01  00002PRCP06
0198832880999992003011800004-13270-043420FM-12+0458SBLP V0201801N001510450019N0020001N1+02631+02431101151ADDAA106000091GF108991031021008001011071KA1240M+03111MA1999999096271MD1999999+0111REMSYN088AAXX  18004 83288 32595 81803 10263 20243 39627 40115 83217 333 10311 29082 55029 58011;EQDQ01  00002PRCP06
0186832880999992003011812004-13270-043420FM-12+0458SBLP V0202301N000510075019N0200001N1+02531+02311101171ADDAA106000091GF106991061051008001051001KA1240N+02181MA1999999096301MD1999999-0081REMSYN076AAXX  18124 83288 32598 62301 10253 20231 39630 40117 86550 333 20218 59008;EQDQ01  00002PRCP06
0167832880999992003011818004-13270-043420FM-12+0458SBLP V0202701N001010450019N0200001N1+03181+02521100771ADDAA106000091GF105991031021008001021021MA1999999095941MD1999999-0161REMSYN070AAXX  18184 83288 32598 52702 10318 20252 39594 40077 83222 333 59016;EQDQ01  00002PRCP06
0198832880999992003011900004-13270-043420FM-12+0458SBLP V0201401N000510450019N0020001N1+02431+02191101031ADDAA106000091GF108991041051008001021999KA1240M+03251MA1999999096151MD1999999-0121REMSYN088AAXX  19004 83288 32595 81401 10243 20219 39615 40103 8452/ 333 10325 29081 55062 59012;EQDQ01  00002PRCP06
0190832880999992003011912004-13270-043420FM-12+0458SBLP V0202701N001510075019N0200001N1+02331+02171101431ADDAY161061AY221061GF108991051051008001031011KA1240N+02201MA1999999096511MD1999999+0211MW1031REMSYN088AAXX  19124 83288 21598 82703 10233 20217 39651 40143 70362 85531 333 20220 58021 69954;
0167832880999992003011918004-13270-043420FM-12+0458SBLP V0202701N001010075019N0200001N1+02551+02221101111ADDAA106000091GF108991061051008001011999MA1999999096231MD1999999+0291REMSYN070AAXX  19184 83288 32598 82702 10255 20222 39623 40111 8651/ 333 58029;EQDQ01  00002PRCP06
0198832880999992003012000004-13270-043420FM-12+0458SBLP V0201801N001010450019N0020001N1+02431+02201101371ADDAA106000091GF106991031041008001011001KA1240M+02711MA1999999096451MD1999999+0301REMSYN088AAXX  20004 83288 32595 61802 10243 20220 39645 40137 83410 333 10271 29087 55000 58030;EQDQ01  00002PRCP06
0186832880999992003012012004-13270-043420FM-12+0458SBLP V0209999C000011050019N0200001N1+02601+02331101251ADDAA106000091GF106991011081008001001091KA1240N+02171MA1999999096351MD1999999+0121REMSYN076AAXX  20124 83288 32598 60000 10260 20233 39635 40125 81809 333 20217 58012;EQDQ01  00002PRCP06
0167832880999992003012018004-13270-043420FM-12+0458SBLP V0201401N002610120019N0200001N1+02711+02201100821ADDAA106000091GF107991071081008001001001MA1999999095941MD1999999-0291REMSYN070AAXX  20184 83288 32598 71405 10271 20220 39594 40082 87800 333 59029;EQDQ01  00002PRCP06
0198832880999992003012100004-13270-043420FM-12+0458SBLP V0200901N001011050019N0020001N1+02491+02321100931ADDAA106000091GF108991041001017501071071KA1240M+03171MA1999999096061MD1999999-0391REMSYN088AAXX  21004 83288 32795 80902 10249 20232 39606 40093 84077 333 10317 29085 55065 59039;EQDQ01  00002PRCP06
0186832880999992003012112004-13270-043420FM-12+0458SBLP V0201401N000510075019N0200001N1+02531+02311101081ADDAA106000091GF108991051051008001021041KA1240N+02281MA1999999096191MD1999999-0161REMSYN076AAXX  21124 83288 32598 81401 10253 20231 39619 40108 85524 333 20228 59016;EQDQ01  00002PRCP06
0167832880999992003012118004-13270-043420FM-12+0458SBLP V0203201N003111050019N0200001N1+03061+02351100641ADDAA106000091GF107991041041008001001081MA1999999095801MD1999999-0141REMSYN070AAXX  21184 83288 32598 73206 10306 20235 39580 40064 84408 333 59014;EQDQ01  00002PRCP06
0215832880999992003012200004-13270-043420FM-12+0458SBLP V0209999C000010450019N0200001N1+02211+02131101171ADDAY161061AY251061GF108991041051008001021071KA1240M+03131MA1999999096251MD1999999+0191REMSYN100AAXX  22004 83288 21598 80000 10221 20213 39625 40117 75665 84527 333 10313 29086 55027 58019 60071;EQDQ01+000562PRSWM1
0190832880999992003012212004-13270-043420FM-12+0458SBLP V0201801N001510450019N0200001N1+02491+02261101221ADDAY161061AY261061GF105991031011008001041001KA1240N+02121MA1999999096301MD1999999+0111MW1021REMSYN088AAXX  22124 83288 21598 51803 10249 20226 39630 40122 70266 83140 333 20212 58011 60184;
0167832880999992003012218004-13270-043420FM-12+0458SBLP V0202701N001510450019N0200001N1+02911+02131100991ADDAA106000091GF108991041021008001031011MA1999999096101MD1999999+0301REMSYN070AAXX  22184 83288 32598 82703 10291 20213 39610 40099 84231 333 58030;EQDQ01  00002PRCP06
0214832880999992003012300004-13270-043420FM-12+0458SBLP V0202701N001012200019N0020001N1+02531+02431101161ADDAA106000091GF102991001001999999001021KA1240M+03011MA1999999096271MD1999999+0021REMSYN088AAXX  23004 83288 32595 22702 10253 20243 39627 40116 80002 333 10301 29081 55042 58002;EQDQ01+008002SCOLCBQ02  00002PRCP06
0202832880999992003012312004-13270-043420FM-12+0458SBLP V0200501N001512200019N0200001N1+02651+02231101391ADDAA106000091GF102991999081008001001001KA1240N+02171MA1999999096511MD1999999+0211REMSYN076AAXX  23124 83288 32598 20503 10265 20223 39651 40139 83800 333 20217 58021;EQDQ01+000032SCOTLCQ02  00002PRCP06
0167832880999992003012318004-13270-043420FM-12+0458SBLP V0200501N001012200019N0200001N1+03161+01961101081ADDAA106000091GF102991021011008001001001MA1999999096221MD1999999+0121REMSYN070AAXX  23184 83288 32598 20502 10316 20196 39622 40108 82100 333 58012;EQDQ01  00002PRCP06
0208832880999992003012400004-13270-043420FM-12+0458SBLP V0209999C000012200019N0020001N1+02691+02281101171ADDAA106000091GA1001+999999999GF100991001001999999001001KA1240M+03281MA1999999096311MD1999999+0041REMSYN082AAXX  24004 83288 32995 00000 10269 20228 39631 40117 333 10328 29071 55113 58004;EQDQ01  00002PRCP06
0196832880999992003012412004-13270-043420FM-12+0458SBLP V0201401N001012200019N0200001N1+02651+02121101441ADDAA106000091GA1001+999999999GF100991001001999999001001KA1240N+02081MA1999999096561MD1999999+0241REMSYN070AAXX  24124 83288 32998 01402 10265 20212 39656 40144 333 20208 58024;EQDQ01  00002PRCP06
0167832880999992003012418004-13270-043420FM-12+0458SBLP V0203601N001012200019N0200001N1+03171+02291101001ADDAA106000091GF102991011021008001001021MA1999999096151MD1999999-0071REMSYN070AAXX  24184 83288 32598 23602 10317 20229 39615 40100 81202 333 59007;EQDQ01  00002PRCP06
0221832880999992003012500004-13270-043420FM-12+0458SBLP V0201801N001012200019N0020001N1+02371+02191101121ADDAY101061AY231061GF103991999061999999061051KA1240M+03591MA1999999096221MD1999999-0091MW1061REMSYN100AAXX  25004 83288 21995 31802 10237 20219 39622 40112 70603 85665 333 10359 29074 55117 59009 60081;EQDQ01+000052SCOTLC
0172832880999992003012512004-13270-043420FM-12+0458SBLP V0203601N001512200019N0200001N1+02691+02251101371ADDGA1001+999999999GF100991001001999999001001KA1240N+02201MA1999999096471MD1999999-0091REMSYN076AAXX  25124 83288 22998 03603 10269 20225 39647 40137 333 20220 59009 60014;
0208832880999992003012600004-13270-043420FM-12+0458SBLP V0201801N001012200019N0020001N1+02711+02161101021ADDAA106000091GA1001+999999999GF100991001001999999001001KA1240M+03321MA1999999096171MD1999999-0051REMSYN082AAXX  26004 83288 32995 01802 10271 20216 39617 40102 333 10332 29068 55116 59005;EQDQ01  00002PRCP06
0186832880999992003012612004-13270-043420FM-12+0458SBLP V0201401N001512200019N0200001N1+02751+01741101051ADDAA106000091GF101991001001999999001011KA1240N+02071MA1999999096211MD1999999-0261REMSYN076AAXX  26124 83288 32998 11403 10275 20174 39621 40105 80001 333 20207 59026;EQDQ01  00002PRCP06
0167832880999992003012618004-13270-043420FM-12+0458SBLP V0202301N003112200019N0200001N1+03161+02341100631ADDAA106000091GF104991041081008001001001MA1999999095801MD1999999+0271REMSYN070AAXX  26184 83288 32598 42306 10316 20234 39580 40063 84800 333 58027;EQDQ01  00002PRCP06
0198832880999992003012700004-13270-043420FM-12+0458SBLP V0201401N001012200019N0200001N1+02451+02151100731ADDAA106000091GF103991031081008001001001KA1240M+03251MA1999999095881MD1999999-0291REMSYN088AAXX  27004 83288 32598 31402 10245 20215 39588 40073 83800 333 10325 29075 55093 59029;EQDQ01  00002PRCP06
0196832880999992003012712004-13270-043420FM-12+0458SBLP V0200501N001512200019N0200001N1+02691+02161100901ADDAA106000091GA1001+999999999GF100991001001999999001001KA1240N+02131MA1999999096031MD1999999-0181REMSYN070AAXX  27124 83288 32998 00503 10269 20216 39603 40090 333 20213 59018;EQDQ01  00002PRCP06
0167832880999992003012718004-13270-043420FM-12+0458SBLP V0202701N001511050019N0200001N1+03231+02321100531ADDAA106000091GF105991031021008001001021MA1999999095731MD1999999-0071REMSYN070AAXX  27184 83288 32598 52703 10323 20232 39573 40053 83202 333 59007;EQDQ01  00002PRCP06
0208832880999992003012800004-13270-043420FM-12+0458SBLP V0201801N001512200019N0020001N1+02551+02111100781ADDAA106000091GA1001+999999999GF100991001001999999001001KA1240M+03341MA1999999095931MD1999999+0051REMSYN082AAXX  28004 83288 32995 01803 10255 20211 39593 40078 333 10334 29069 55102 58005;EQDQ01  00002PRCP06
0186832880999992003012812004-13270-043420FM-12+0458SBLP V0203201N002110120019N0200001N1+02451+02181101321ADDAA106000091GF107991051081008001021001KA1240N+02141MA1999999096421MD1999999+0391REMSYN076AAXX  28124 83288 32598 73204 10245 20218 39642 40132 85820 333 20214 58039;EQDQ01  00002PRCP06
0167832880999992003012818004-13270-043420FM-12+0458SBLP V0203601N001510450019N0200001N1+02891+02241100941ADDAA106000091GF107991021031008001051021MA1999999096081MD1999999+0351REMSYN070AAXX  28184 83288 32598 73603 10289 20224 39608 40094 82352 333 58035;EQDQ01  00002PRCP06
0198832880999992003012900004-13270-043420FM-12+0458SBLP V0200901N001012200019N0020001N1+02411+02061101241ADDAA106000091GF103991031081008001001001KA1240M+02951MA1999999096331MD1999999+0401REMSYN088AAXX  29004 83288 32595 30902 10241 20206 39633 40124 83800 333 10295 29078 55032 58040;EQDQ01  00002PRCP06
0186832880999992003012912004-13270-043420FM-12+0458SBLP V0203201N001512200019N0200001N1+02611+02211101351ADDAA106000091GF104991011011008001001091KA1240N+02171MA1999999096451MD1999999+0031REMSYN076AAXX  29124 83288 32598 43203 10261 20221 39645 40135 81109 333 20217 58003;EQDQ01  00002PRCP06
0167832880999992003012918004-13270-043420FM-12+0458SBLP V0203201N002612200019N0200001N1+03191+02221100811ADDAA106000091GF104991031081008001001011MA1999999095961MD1999999-0121REMSYN070AAXX  29184 83288 32598 43205 10319 20222 39596 40081 83801 333 59012;EQDQ01  00002PRCP06
0198832880999992003013000004-13270-043420FM-12+0458SBLP V0201401N001012200019N0020001N1+02531+02091100921ADDAA106000091GF103991001001999999001011KA1240M+03271MA1999999096051MD1999999-0281REMSYN088AAXX  30004 83288 32995 31402 10253 20209 39605 40092 80001 333 10327 29072 55101 59028;EQDQ01  00002PRCP06
0190832880999992003013012004-13270-043420FM-12+0458SBLP V0202301N000510075019N0200001N1+02181+02041101361ADDAY161061AY261061GF108991061051008001021999KA1240N+02031MA1999999096481MD1999999+0051MW1021REMSYN088AAXX  30124 83288 21598 82301 10218 20204 39648 40136 70266 8652/ 333 20203 58005 60294;
0167832880999992003013018004-13270-043420FM-12+0458SBLP V0202701N001012200019N0200001N1+02831+02361101061ADDAA106000091GF104991041051008001021001MA1999999096171MD1999999+0211REMSYN070AAXX  30184 83288 32598 42702 10283 20236 39617 40106 84520 333 58021;EQDQ01  00002PRCP06
0221832880999992003013100004-13270-043420FM-12+0458SBLP V0201801N000512200019N0020001N1+02171+02081101141ADDAY151061AY231061GF102991999051008001001001KA1240M+03241MA1999999096181MD1999999+0131MW1031REMSYN100AAXX  31004 83288 21595 21801 10217 20208 39618 40114 70353 81500 333 10324 29090 55032 58013 60011;EQDQ01+000012SCOTLC
0162832880999992003013112004-13270-043420FM-12+0458SBLP V0200901N000512200019N0200001N1+02531+02241101311ADDGF104991011011008001041021KA1240N+02101MA1999999096381MD1999999-0021REMSYN082AAXX  31124 83288 22598 40901 10253 20224 39638 40131 81142 333 20210 59002 60014;
0167832880999992003013118004-13270-043420FM-12+0458SBLP V0201801N001012200019N0200001N1+03091+02171100961ADDAA106000091GF103991031021008001001001MA1999999096101MD1999999-0071REMSYN070AAXX  31184 83288 32598 31802 10309 20217 39610 40096 83200 333 59007;EQDQ01  00002PRCP06
0212832880999992003020100004-13270-043420FM-12+0458SBLP V0202701N000512200019N0020001N1+02111+02041101271ADDAY161061AY291061GA1001+999999999GF100991001001999999001001KA1240M+03191MA1999999096331MD1999999+0151MW1001REMSYN094AAXX  01004 83288 21595 02701 10211 20204 39633 40127 70069 333 10319 29079 55109 58015 60071;
0172832880999992003020112004-13270-043420FM-12+0458SBLP V0200901N001512200019N0200001N1+02431+02091101441ADDGA1001+999999999GF100991001001999999001001KA1240N+01841MA1999999096481MD1999999+0101REMSYN076AAXX  01124 83288 22998 00903 10243 20209 39648 40144 333 20184 58010 60074;
0167832880999992003020118004-13270-043420FM-12+0458SBLP V0201401N001010120019N0200001N1+02851+02141101161ADDAA106000091GF106991061081008001001001MA1999999096231MD1999999+0131REMSYN070AAXX  01184 83288 32598 61402 10285 20214 39623 40116 86800 333 58013;EQDQ01  00002PRCP06
0198832880999992003020200004-13270-043420FM-12+0458SBLP V0209999C000010450019N0020001N1+02551+02301101231ADDAA106000091GF106991021021008001011001KA1240M+02971MA1999999096341MD1999999+0011REMSYN088AAXX  02004 83288 32595 60000 10255 20230 39634 40123 82210 333 10297 29078 55086 58001;EQDQ01  00002PRCP06
0186832880999992003020212004-13270-043420FM-12+0458SBLP V0201801N001510450019N0200001N1+02381+02081101431ADDAA106000091GF106991041051008001051001KA1240N+02051MA1999999096521MD1999999+0041REMSYN076AAXX  02124 83288 32598 61803 10238 20208 39652 40143 84550 333 20205 58004;EQDQ01  00002PRCP06
0167832880999992003020218004-13270-043420FM-12+0458SBLP V0201801N001010450019N0200001N1+02871+02251101291ADDAA106000091GF105991031011008001021001MA1999999096381MD1999999+0151REMSYN070AAXX  02184 83288 32598 51802 10287 20225 39638 40129 83120 333 58015;EQDQ01  00002PRCP06
0208832880999992003020300004-13270-043420FM-12+0458SBLP V0201401N001012200019N0020001N1+02581+02581101161ADDAA106000091GA1001+999999999GF100991001001999999001001KA1240M+03051MA1999999096261MD1999999-0081REMSYN082AAXX  03004 83288 32595 01402 10258 20258 39626 40116 333 10305 29079 55038 59008;EQDQ01  00002PRCP06
0186832880999992003020312004-13270-043420FM-12+0458SBLP V0201801N001510120019N0200001N1+02451+02081101441ADDAA106000091GF106991061081008001001001KA1240N+02101MA1999999096541MD1999999+0021REMSYN076AAXX  03124 83288 32598 61803 10245 20208 39654 40144 86800 333 20210 58002;EQDQ01  00002PRCP06
0167832880999992003020318004-13270-043420FM-12+0458SBLP V0201801N001510450019N0200001N1+02751+02181101221ADDAA106000091GF108991021041008001011999MA1999999096331MD1999999+0051REMSYN070AAXX  03184 83288 32598 81803 10275 20218 39633 40122 8241/ 333 58005;EQDQ01  00002PRCP06
0208832880999992003020400004-13270-043420FM-12+0458SBLP V0201801N000512200019N0200001N1+02471+02251101281ADDAA106000091GA1001+999999999GF100991001001999999001001KA1240M+02811MA1999999096371MD1999999+0111REMSYN082AAXX  04004 83288 32998 01801 10247 20225 39637 40128 333 10281 29082 55023 58011;EQDQ01  00002PRCP06
0186832880999992003020412004-13270-043420FM-12+0458SBLP V0201401N001512200019N0200001N1+02571+02111101331ADDAA106000091GF102991001001999999001011KA1240N+02041MA1999999096431MD1999999-0111REMSYN076AAXX  04124 83288 32998 21403 10257 20211 39643 40133 80001 333 20204 59011;EQDQ01  00002PRCP06
0167832880999992003020418004-13270-043420FM-12+0458SBLP V0201801N003112200019N0200001N1+03131+02111100941ADDAA106000091GF103991031011008001001001MA1999999096081MD1999999-0251REMSYN070AAXX  04184 83288 32598 31806 10313 20211 39608 40094 83100 333 59025;EQDQ01  00002PRCP06
0186832880999992003020512004-13270-043420FM-12+0458SBLP V0200901N001512200019N0200001N1+02651+02091101251ADDAA106000091GF102991001001999999001041KA1240N+02051MA1999999096381MD1999999-0051REMSYN076AAXX  05124 83288 32998 20903 10265 20209 39638 40125 80004 333 20205 59005;EQDQ01  00002PRCP06
0167832880999992003020518004-13270-043420FM-12+0458SBLP V0201801N001512200019N0200001N1+03191+02221100891ADDAA106000091GF105991031011008001001041MA1999999096051MD1999999-0031REMSYN070AAXX  05184 83288 32598 51803 10319 20222 39605 40089 83104 333 59003;EQDQ01  00002PRCP06
0208832880999992003020600004-13270-043420FM-12+0458SBLP V0201801N001512200019N0020001N1+02851+02311100751ADDAA106000091GA1001+999999999GF100991001001999999001001KA1240M+03351MA1999999095931MD1999999-0181REMSYN082AAXX  06004 83288 32995 01803 10285 20231 39593 40075 333 10335 29067 55115 59018;EQDQ01  00002PRCP06
0186832880999992003020612004-13270-043420FM-12+0458SBLP V0201401N001512200019N0200001N1+02711+02161101241ADDAA106000091GF102991001001999999001051KA1240N+02101MA1999999096411MD1999999+0031REMSYN076AAXX  06124 83288 32998 21403 10271 20216 39641 40124 80005 333 20210 58003;EQDQ01  00002PRCP06
0167832880999992003020618004-13270-043420FM-12+0458SBLP V0202301N001512200019N0200001N1+03301+02211100921ADDAA106000091GF103991031011008001001001MA1999999096081MD1999999+0031REMSYN070AAXX  06184 83288 32598 32303 10330 20221 39608 40092 83100 333 58003;EQDQ01  00002PRCP06
0198832880999992003020700004-13270-043420FM-12+0458SBLP V0200901N001012200019N0020001N1+02731+02201100921ADDAA106000091GF103991031021008001001001KA1240M+03371MA1999999096081MD1999999+0151REMSYN088AAXX  07004 83288 32595 30902 10273 20220 39608 40092 83200 333 10337 29066 55115 58015;EQDQ01  00002PRCP06
0167832880999992003020718004-13270-043420FM-12+0458SBLP V0202301N001512200019N0200001N1+03301+02151100921ADDAA106000091GF102991021021008001001001MA1999999096111MD1999999+0031REMSYN070AAXX  07184 83288 32598 22303 10330 20215 39611 40092 82200 333 58003;EQDQ01  00002PRCP06
0208832880999992003020800004-13270-043420FM-12+0458SBLP V0201401N001012200019N0020001N1+02551+02211100971ADDAA106000091GA1001+999999999GF100991001001999999001001KA1240M+03351MA1999999096121MD1999999+0041REMSYN082AAXX  08004 83288 32995 01402 10255 20221 39612 40097 333 10335 29070 55111 58004;EQDQ01  00002PRCP06
0196832880999992003020812004-13270-043420FM-12+0458SBLP V0201801N001512200019N0200001N1+02631+02051101361ADDAA106000091GA1001+999999999GF100991001001999999001001KA1240N+02121MA1999999096481MD1999999+0131REMSYN070AAXX  08124 83288 32998 01803 10263 20205 39648 40136 333 20212 58013;EQDQ01  00002PRCP06
0198832880999992003020900004-13270-043420FM-12+0458SBLP V0201401N002110150019N0020001N1+02711+01781100971ADDAA106000091GF105991051001017501031001KA1240M+03331MA1999999096121MD1999999+0001REMSYN088AAXX  09004 83288 32795 51404 10271 20178 39612 40097 85030 333 10333 29059 55117 58000;EQDQ01  00002PRCP06
0186832880999992003020912004-13270-043420FM-12+0458SBLP V0201401N002112200019N0200001N1+02681+02041101291ADDAA106000091GF102991021011008001001001KA1240N+02281MA1999999096431MD1999999-0051REMSYN076AAXX  09124 83288 32598 21404 10268 20204 39643 40129 82100 333 20228 59005;EQDQ01  00002PRCP06
0183832880999992003020918004-13270-043420FM-12+0458SBLP V0201801N002112200019N0200001N1+03271+02151100881ADDAA106000091GF103991999021008001001001MA1999999096061MD1999999-0111REMSYN070AAXX  09184 83288 32598 31804 10327 20215 39606 40088 82200 333 59011;EQDQ01+000022SCOTLCQ02  00002PRCP06
0198832880999992003021000004-13270-043420FM-12+0458SBLP V0200901N001012200019N0020001N1+02691+02001101021ADDAA106000091GF102991021011008001001001KA1240M+03371MA1999999096171MD1999999+0051REMSYN088AAXX  10004 83288 32595 20902 10269 20200 39617 40102 82100 333 10337 29062 55112 58005;EQDQ01  00002PRCP06
0186832880999992003021012004-13270-043420FM-12+0458SBLP V0203601N001012200019N0200001N1+02751+02171101111ADDAA106000091GF102991011011008001001041KA1240N+02081MA1999999096261MD1999999-0171REMSYN076AAXX  10124 83288 32598 23602 10275 20217 39626 40111 81104 333 20208 59017;EQDQ01  00002PRCP06
0183832880999992003021018004-13270-043420FM-12+0458SBLP V0202701N001512200019N0200001N1+03381+02021100841ADDAA106000091GF102991999021008001001001MA1999999095941MD1999999-0121REMSYN070AAXX  10184 83288 32598 22703 10338 20202 39594 40084 81200 333 59012;EQDQ01+000012SCOTLCQ02  00002PRCP06
0198832880999992003021100004-13270-043420FM-12+0458SBLP V0200901N001512200019N0020001N1+02751+02071100901ADDAA106000091GF102991011011008001021001KA1240M+03391MA1999999095941MD1999999-0231REMSYN088AAXX  11004 83288 32595 20903 10275 20207 39594 40090 81120 333 10339 29061 55114 59023;EQDQ01  00002PRCP06
0186832880999992003021112004-13270-043420FM-12+0458SBLP V0200901N000512200019N0200001N1+02651+01981101121ADDAA106000091GF103991011011008001021041KA1240N+02291MA1999999096251MD1999999-0011REMSYN076AAXX  11124 83288 32598 30901 10265 20198 39625 40112 81124 333 20229 59001;EQDQ01  00002PRCP06
0167832880999992003021118004-13270-043420FM-12+0458SBLP V0203601N001012200019N0200001N1+03341+02251100701ADDAA106000091GF106991031081008001001041MA1999999095811MD1999999-0131REMSYN070AAXX  11184 83288 32598 63602 10334 20225 39581 40070 83804 333 59013;EQDQ01  00002PRCP06
0202832880999992003021200004-13270-043420FM-12+0458SBLP V0200901N000510075019N0020001N1+02281+02231100941ADDAY161061AY211061GF108991061051008001021999KA1240M+03401MA1999999096031MD1999999+0091MW1031REMSYN100AAXX  12004 83288 21595 80901 10228 20223 39603 40094 70361 8652/ 333 10340 29075 55077 58009 60051;
0162832880999992003021212004-13270-043420FM-12+0458SBLP V0209999C000010450019N0200001N1+02591+02341101271ADDGF106991021011008001051091KA1240N+02201MA1999999096351MD1999999+0101REMSYN082AAXX  12124 83288 22598 60000 10259 20234 39635 40127 82159 333 20220 58010 60054;
0078832880999992003021218004-13270-043420FM-12+0458SBLP V02099999999999999999N9999999N1+99999+99999999999REMSYN069AAXX  12184 83288 32598 1403 10315 20236 39606 40091 8481/ 333 58025;
0198832880999992003021300004-13270-043420FM-12+0458SBLP V0203601N001511050019N0020001N1+02431+02161101051ADDAA106000091GF105991021021008001001071KA1240M+03231MA1999999096161MD1999999+0131REMSYN088AAXX  13004 83288 32595 53603 10243 20216 39616 40105 82207 333 10323 29078 55046 58013;EQDQ01  00002PRCP06
0186832880999992003021312004-13270-043420FM-12+0458SBLP V0203601N001010450019N0200001N1+02411+02211101371ADDAA106000091GF105991021021008001031001KA1240N+02141MA1999999096451MD1999999+0101REMSYN076AAXX  13124 83288 32598 53602 10241 20221 39645 40137 82230 333 20214 58010;EQDQ01  00002PRCP06
0167832880999992003021318004-13270-043420FM-12+0458SBLP V0203601N001512200019N0200001N1+03211+02331100841ADDAA106000091GF103991031021008001001001MA1999999096001MD1999999-0061REMSYN070AAXX  13184 83288 32598 33603 10321 20233 39600 40084 83200 333 59006;EQDQ01  00002PRCP06
0198832880999992003021400004-13270-043420FM-12+0458SBLP V0202701N001512200019N0020001N1+02671+02291100971ADDAA106000091GF101991001001999999001021KA1240M+03381MA1999999096101MD1999999-0061REMSYN088AAXX  14004 83288 32995 12703 10267 20229 39610 40097 80002 333 10338 29077 55090 59006;EQDQ01  00002PRCP06
0186832880999992003021412004-13270-043420FM-12+0458SBLP V0200901N001512200019N0200001N1+02541+02311101151ADDAA106000091GF102991011011008001001041KA1240N+02091MA1999999096271MD1999999-0181REMSYN076AAXX  14124 83288 32598 20903 10254 20231 39627 40115 81104 333 20209 59018;EQDQ01  00002PRCP06
0162832880999992003021414004-13270-043420FM-15+0458SBLP V0209999C000012200019N0112651N1+03101+02001999999ADDGA1041+009009999GA2041+090009999GF104991999999999999999999MA1101491999999MW1001REMMET052SBLP 141400Z 00000KT 9999 SCT030 SCT300 31/20 Q1015;EQDQ01+000000PRSWM2
0167832880999992003021418004-13270-043420FM-12+0458SBLP V0203601N000510450019N0200001N1+03321+02201100641ADDAA106000091GF106991041021008001021041MA1999999095841MD1999999-0161REMSYN070AAXX  14184 83288 32598 63601 10332 20220 39584 40064 84224 333 59016;EQDQ01  00002PRCP06
0198832880999992003021500004-13270-043420FM-12+0458SBLP V0202701N000510450019N0020001N1+02651+02311100661ADDAA106000091GF105991031021008001021041KA1240M+03371MA1999999095841MD1999999-0261REMSYN088AAXX  15004 83288 32595 52701 10265 20231 39584 40066 83224 333 10337 29074 55105 59026;EQDQ01  00002PRCP06
0186832880999992003021512004-13270-043420FM-12+0458SBLP V0203201N000510450019N0200001N1+02471+02241101191ADDAA106000091GF107991021011008001031071KA1240N+02121MA1999999096311MD1999999+0041REMSYN076AAXX  15124 83288 32598 73201 10247 20224 39631 40119 82137 333 20212 58004;EQDQ01  00002PRCP06
0167832880999992003021518004-13270-043420FM-12+0458SBLP V0201801N001512200019N0200001N1+03211+02221100831ADDAA106000091GF105991031021008001001061MA1999999095981MD1999999+0141REMSYN070AAXX  15184 83288 32598 51803 10321 20222 39598 40083 83206 333 58014;EQDQ01  00002PRCP06
0186832880999992003021612004-13270-043420FM-12+0458SBLP V0200901N001511050019N0200001N1+02691+02311101151ADDAA106000091GF105991011011008001031061KA1240N+02241MA1999999096301MD1999999-0011REMSYN076AAXX  16124 83288 32598 50903 10269 20231 39630 40115 81136 333 20224 59001;EQDQ01  00002PRCP06
0167832880999992003021618004-13270-043420FM-12+0458SBLP V0203201N002111050019N0200001N1+03081+02371100741ADDAA106000091GF106991011021008001001081MA1999999095911MD1999999-0071REMSYN070AAXX  16184 83288 32598 63204 10308 20237 39591 40074 81208 333 59007;EQDQ01  00002PRCP06
0186832880999992003021712004-13270-043420FM-12+0458SBLP V0203201N000512200019N0200001N1+02441+02191101151ADDAA106000091GF104991021011008001021021KA1240N+02081MA1999999096261MD1999999-0041REMSYN076AAXX  17124 83288 32598 43201 10244 20219 39626 40115 82122 333 20208 59004;EQDQ01  00002PRCP06
0167832880999992003021718004-13270-043420FM-12+0458SBLP V0203201N001012200019N0200001N1+03341+02291100731ADDAA106000091GF104991031021008001001041MA1999999095921MD1999999+0011REMSYN070AAXX  17184 83288 32598 43202 10334 20229 39592 40073 83204 333 58001;EQDQ01  00002PRCP06
0198832880999992003021800004-13270-043420FM-12+0458SBLP V0202701N001010450019N0020001N1+02781+02271100771ADDAA106000091GF106991041051008001021001KA1240M+03451MA1999999095921MD1999999-0141REMSYN088AAXX  18004 83288 32595 62702 10278 20227 39592 40077 84520 333 10345 29071 55088 59014;EQDQ01  00002PRCP06
0182832880999992003021812004-13270-043420FM-12+0458SBLP V0201801N001510450019N0200001N1+02391+02061101251ADDAY151061GF106991021011008001051001KA1240N+02101MA1999999096371MD1999999+0111MW1021REMSYN088AAXX  18124 83288 21598 61803 10239 20206 39637 40125 7025/ 82150 333 20210 58011 60014;
0167832880999992003021818004-13270-043420FM-12+0458SBLP V0202301N001512200019N0200001N1+03211+02391100851ADDAA106000091GF104991041021008001001001MA1999999095991MD1999999+0071REMSYN070AAXX  18184 83288 32598 42303 10321 20239 39599 40085 84200 333 58007;EQDQ01  00002PRCP06
0226832880999992003021900004-13270-043420FM-12+0458SBLP V0202301N001512200019N0020001N1+02811+02431100991ADDAA106000091AY111061AY201061GF104991031051008001001041KA1240M+03351MA1999999096131MD1999999+0211MW1131REMSYN094AAXX  19004 83288 31595 42303 10281 20243 39613 40099 71310 83504 333 10335 29075 55083 58021;EQDQ01  00002PRCP06
0162832880999992003021912004-13270-043420FM-12+0458SBLP V0202701N000512200019N0200001N1+02511+02291101321ADDGF102991011011008001001011KA1240N+02121MA1999999096451MD1999999+0081REMSYN082AAXX  19124 83288 22598 22701 10251 20229 39645 40132 81101 333 20212 58008 60074;
0167832880999992003021918004-13270-043420FM-12+0458SBLP V0202701N001512200019N0200001N1+03261+02351100851ADDAA106000091GF102991011021008001001021MA1999999096001MD1999999+0011REMSYN070AAXX  19184 83288 32598 22703 10326 20235 39600 40085 81202 333 58001;EQDQ01  00002PRCP06
0218832880999992003022000004-13270-043420FM-12+0458SBLP V0203601N002112200019N0020001N1+02771+02191101071ADDAA106000091AY111061GF104991011021008001021061KA1240M+03391MA1999999096211MD1999999+0081MW1131REMSYN094AAXX  20004 83288 31595 43604 10277 20219 39621 40107 7131/ 81226 333 10339 29072 55101 58008;EQDQ01  00002PRCP06
0186832880999992003022012004-13270-043420FM-12+0458SBLP V0202701N001012200019N0200001N1+02551+02131101241ADDAA106000091GF103991021011008001031041KA1240N+02161MA1999999096361MD1999999-0091REMSYN076AAXX  20124 83288 32598 32702 10255 20213 39636 40124 82134 333 20216 59009;EQDQ01  00002PRCP06
0167832880999992003022018004-13270-043420FM-12+0458SBLP V0202701N001510450019N0200001N1+03321+02141100851ADDAA106000091GF105991031021008001031041MA1999999096041MD1999999+0041REMSYN070AAXX  20184 83288 32598 52703 10332 20214 39604 40085 83234 333 58004;EQDQ01  00002PRCP06
0214832880999992003022100004-13270-043420FM-12+0458SBLP V0203201N001512200019N0020001N1+02721+02121100891ADDAA106000091GF102991999011008001001001KA1240M+03381MA1999999096031MD1999999-0181REMSYN088AAXX  21004 83288 32595 23203 10272 20212 39603 40089 81100 333 10338 29066 55082 59018;EQDQ01+000012SCOTLCQ02  00002PRCP06
0186832880999992003022112004-13270-043420FM-12+0458SBLP V0203601N001512200019N0200001N1+02651+02151101181ADDAA106000091GF103991011011008001001021KA1240N+02081MA1999999096331MD1999999-0031REMSYN076AAXX  21124 83288 32598 33603 10265 20215 39633 40118 81102 333 20208 59003;EQDQ01  00002PRCP06
0167832880999992003022118004-13270-043420FM-12+0458SBLP V0201801N001510075019N0200001N1+03351+02061100841ADDAA106000091GF105991051021008001001001MA1999999096031MD1999999+0011REMSYN070AAXX  21184 83288 32598 51803 10335 20206 39603 40084 85200 333 58001;EQDQ01  00002PRCP06
0198832880999992003022200004-13270-043420FM-12+0458SBLP V0203601N001012200019N0020001N1+02751+02241100941ADDAA106000091GF102991021021008001001001KA1240M+03411MA1999999096101MD1999999+0071REMSYN088AAXX  22004 83288 32595 23602 10275 20224 39610 40094 82200 333 10341 29065 55089 58007;EQDQ01  00002PRCP06
0202832880999992003022212004-13270-043420FM-12+0458SBLP V0200901N001512200019N0200001N1+02771+01941101241ADDAA106000091GF102991001001999999001021KA1240N+02161MA1999999096391MD1999999+0061REMSYN076AAXX  22124 83288 32598 20903 10277 20194 39639 40124 80002 333 20216 58006;EQDQ01+008002SCOLCBQ02  00002PRCP06
0167832880999992003022218004-13270-043420FM-12+0458SBLP V0201401N001511050019N0200001N1+03371+01871100791ADDAA106000091GF105991041021008001001021MA1999999095991MD1999999-0041REMSYN070AAXX  22184 83288 32598 51403 10337 20187 39599 40079 84202 333 59004;EQDQ01  00002PRCP06
0198832880999992003022300004-13270-043420FM-12+0458SBLP V0209999C000012200019N0020001N1+02651+02551101031ADDAA106000091GF104991041001017501071001KA1240M+03431MA1999999096181MD1999999+0081REMSYN088AAXX  23004 83288 32795 40000 10265 20255 39618 40103 84070 333 10343 29074 55107 58008;EQDQ01  00002PRCP06
0208832880999992003022400004-13270-043420FM-12+0458SBLP V0201401N001512200019N0020001N1+02751+02121101101ADDAA106000091GA1001+999999999GF100991001001999999001001KA1240M+03351MA1999999096221MD1999999+0041REMSYN082AAXX  24004 83288 32995 01403 10275 20212 39622 40110 333 10335 29070 55067 58004;EQDQ01  00002PRCP06
0167832880999992003022418004-13270-043420FM-12+0458SBLP V0201801N001012200019N0200001N1+03321+02011100931ADDAA106000091GF105991031021008001001041MA1999999096111MD1999999-0121REMSYN070AAXX  24184 83288 32598 51802 10332 20201 39611 40093 83204 333 59012;EQDQ01  00002PRCP06
0208832880999992003022500004-13270-043420FM-12+0458SBLP V0201801N001512200019N0020001N1+02711+01971101101ADDAA106000091GA1001+999999999GF100991001001999999001001KA1240M+03411MA1999999096251MD1999999+0031REMSYN082AAXX  25004 83288 32995 01803 10271 20197 39625 40110 333 10341 29058 55095 58003;EQDQ01  00002PRCP06
0196832880999992003022512004-13270-043420FM-12+0458SBLP V0201401N000512200019N0200001N1+02731+02001101191ADDAA106000091GA1001+999999999GF100991001001999999001001KA1240N+02121MA1999999096341MD1999999-0281REMSYN070AAXX  25124 83288 32998 01401 10273 20200 39634 40119 333 20212 59028;EQDQ01  00002PRCP06
0167832880999992003022518004-13270-043420FM-12+0458SBLP V0202301N002112200019N0200001N1+03401+02181100751ADDAA106000091GF104991041021008001001001MA1999999095951MD1999999-0161REMSYN070AAXX  25184 83288 32598 42304 10340 20218 39595 40075 84200 333 59016;EQDQ01  00002PRCP06
0208832880999992003022600004-13270-043420FM-12+0458SBLP V0201801N001012200019N0020001N1+02931+01891100801ADDAA106000091GA1001+999999999GF100991001001999999001001KA1240M+03511MA1999999096001MD1999999-0251REMSYN082AAXX  26004 83288 32995 01802 10293 20189 39600 40080 333 10351 29056 55097 59025;EQDQ01  00002PRCP06
0196832880999992003022612004-13270-043420FM-12+0458SBLP V0200901N001012200019N0200001N1+02571+02251101101ADDAA106000091GA1001+999999999GF100991001001999999001001KA1240N+01981MA1999999096301MD1999999-0021REMSYN070AAXX  26124 83288 32998 00902 10257 20225 39630 40110 333 20198 59002;EQDQ01  00002PRCP06
0183832880999992003022618004-13270-043420FM-12+0458SBLP V0203201N000512200019N0200001N1+03531+02151100601ADDAA106000091GF104991999011008001001001MA1999999095811MD1999999-0141REMSYN070AAXX  26184 83288 32598 43201 10353 20215 39581 40060 83100 333 59014;EQDQ01+000032SCOTLCQ02  00002PRCP06
0208832880999992003022700004-13270-043420FM-12+0458SBLP V0201801N001512200019N0020001N1+02931+02061100641ADDAA106000091GA1001+999999999GF100991001001999999001001KA1240M+03641MA1999999095821MD1999999-0181REMSYN082AAXX  27004 83288 32995 01803 10293 20206 39582 40064 333 10364 29063 55112 59018;EQDQ01  00002PRCP06
0196832880999992003022712004-13270-043420FM-12+0458SBLP V0203201N001512200019N0200001N1+02781+02131101141ADDAA106000091GA1001+999999999GF100991001001999999001001KA1240N+02161MA1999999096321MD1999999+0021REMSYN070AAXX  27124 83288 32998 03203 10278 20213 39632 40114 333 20216 58002;EQDQ01  00002PRCP06
0167832880999992003022718004-13270-043420FM-12+0458SBLP V0202701N002112200019N0200001N1+03541+02161100681ADDAA106000091GF104991041021008001001001MA1999999095891MD1999999+0071REMSYN070AAXX  27184 83288 32598 42704 10354 20216 39589 40068 84200 333 58007;EQDQ01  00002PRCP06
0208832880999992003022800004-13270-043420FM-12+0458SBLP V0200901N001012200019N0020001N1+02951+02011100831ADDAA106000091GA1001+999999999GF100991001001999999001001KA1240M+03711MA1999999096031MD1999999+0211REMSYN082AAXX  28004 83288 32995 00902 10295 20201 39603 40083 333 10371 29057 55113 58021;EQDQ01  00002PRCP06
0196832880999992003022812004-13270-043420FM-12+0458SBLP V0201401N001512200019N0200001N1+02891+02081101241ADDAA106000091GA1001+999999999GF100991001001999999001001KA1240N+02141MA1999999096431MD1999999+0111REMSYN070AAXX  28124 83288 32998 01403 10289 20208 39643 40124 333 20214 58011;EQDQ01  00002PRCP06
0167832880999992003022818004-13270-043420FM-12+0458SBLP V0202301N002112200019N0200001N1+03541+02301100681ADDAA106000091GF102991021021008001001001MA1999999095891MD1999999+0001REMSYN070AAXX  28184 83288 32598 22304 10354 20230 39589 40068 82200 333 58000;EQDQ01  00002PRCP06
0186832880999992003030112004-13270-043420FM-12+0458SBLP V0200901N001010450019N0200001N1+02551+02061101181ADDAA106000091GF106991041011008001021041KA1240N+02231MA1999999096341MD1999999-0091REMSYN076AAXX  01124 83288 32598 60902 10255 20206 39634 40118 84124 333 20223 59009;EQDQ01  00002PRCP06
0167832880999992003030118004-13270-043420FM-12+0458SBLP V0201401N001010075019N0200001N1+03181+02011100861ADDAA106000091GF108991061021008001021021MA1999999096021MD1999999+0131REMSYN070AAXX  01184 83288 32598 81402 10318 20201 39602 40086 86222 333 58013;EQDQ01  00002PRCP06
0208832880999992003030200004-13270-043420FM-12+0458SBLP V0200901N000512200019N0020001N1+02861+02091100781ADDAA106000091GA1001+999999999GF100991001001999999001001KA1240M+03281MA1999999095951MD1999999-0021REMSYN082AAXX  02004 83288 32995 00901 10286 20209 39595 40078 333 10328 29063 55024 59002;EQDQ01  00002PRCP06
0186832880999992003030212004-13270-043420FM-12+0458SBLP V0200901N001510450019N0200001N1+02831+02001101061ADDAA106000091GF107991021011008001031061KA1240N+02301MA1999999096251MD1999999-0091REMSYN076AAXX  02124 83288 32598 70903 10283 20200 39625 40106 82136 333 20230 59009;EQDQ01  00002PRCP06
0167832880999992003030218004-13270-043420FM-12+0458SBLP V0202301N001511050019N0200001N1+03421+02191100831ADDAA106000091GF106991031021008001001081MA1999999095851MD1999999-0171REMSYN070AAXX  02184 83288 32598 62303 10342 20219 39585 40083 83208 333 59017;EQDQ01  00002PRCP06
0198832880999992003030300004-13270-043420FM-12+0458SBLP V0200901N001012200019N0020001N1+02891+02161100771ADDAA106000091GF103991031001012501041001KA1240M+03511MA1999999095971MD1999999+0021REMSYN088AAXX  03004 83288 32695 30902 10289 20216 39597 40077 83040 333 10351 29058 55046 58002;EQDQ01  00002PRCP06
0186832880999992003030312004-13270-043420FM-12+0458SBLP V0200501N000512200019N0200001N1+02771+02141101051ADDAA106000091GF106991031081008001001061KA1240N+02441MA1999999096241MD1999999-0011REMSYN076AAXX  03124 83288 32598 60501 10277 20214 39624 40105 83806 333 20244 59001;EQDQ01  00002PRCP06
0187832880999992003030318004-13270-043420FM-12+0458SBLP V0203601N005110450019N0200001N1+02521+02151100861ADDAA106000091AY121061GF108991031081008001021061MA1999999096001MD1999999+0151MW1291REMSYN076AAXX  03184 83288 31598 83610 10252 20215 39600 40086 7292/ 83826 333 58015;EQDQ01  00002PRCP06
0096832880999992003030400004-13270-043420FM-12+0458SBLP V02099999999999999999N9999999N1+99999+99999999999REMSYN087AAXX  04004 83288 3255 81804 10241 20203 39610 40096 8472/ 333 10351 29077 55050 58013;
0190832880999992003030412004-13270-043420FM-12+0458SBLP V0201401N000512200019N0200001N1+02641+02251101281ADDAY151061AY211061GF103991021011008001001041KA1240N+02141MA1999999096381MD1999999+0141MW1031REMSYN088AAXX  04124 83288 21598 31401 10264 20225 39638 40128 70351 82104 333 20214 58014 60014;
0167832880999992003030418004-13270-043420FM-12+0458SBLP V0201801N001012200019N0200001N1+03521+02481100841ADDAA106000091GF104991031021008001031041MA1999999096041MD1999999+0041REMSYN070AAXX  04184 83288 32598 41802 10352 20248 39604 40084 83234 333 58004;EQDQ01  00002PRCP06
0186832880999992003030512004-13270-043420FM-12+0458SBLP V0200901N001512200019N0200001N1+02891+01921101191ADDAA106000091GF101991011011008001001001KA1240N+02101MA1999999096361MD1999999-0021REMSYN076AAXX  05124 83288 32598 10903 10289 20192 39636 40119 81100 333 20210 59002;EQDQ01  00002PRCP06
0167832880999992003030518004-13270-043420FM-12+0458SBLP V0201801N001012200019N0200001N1+03421+02091100671ADDAA106000091GF104991041021008001001001MA1999999095871MD1999999-0171REMSYN070AAXX  05184 83288 32598 41802 10342 20209 39587 40067 84200 333 59017;EQDQ01  00002PRCP06
0208832880999992003030600004-13270-043420FM-12+0458SBLP V0201401N001012200019N0020001N1+02711+02021100701ADDAA106000091GA1001+999999999GF100991001001999999001001KA1240M+03611MA1999999095891MD1999999+0031REMSYN082AAXX  06004 83288 32995 01402 10271 20202 39589 40070 333 10361 29055 55100 58003;EQDQ01  00002PRCP06
0196832880999992003030612004-13270-043420FM-12+0458SBLP V0200901N001512200019N0200001N1+02791+01881101071ADDAA106000091GA1001+999999999GF100991001001999999001001KA1240N+02241MA1999999096231MD1999999-0131REMSYN070AAXX  06124 83288 32998 00903 10279 20188 39623 40107 333 20224 59013;EQDQ01  00002PRCP06
0167832880999992003030618004-13270-043420FM-12+0458SBLP V0203201N001512200019N0200001N1+03521+01991100551ADDAA106000091GF102991021011008001001001MA1999999095771MD1999999-0101REMSYN070AAXX  06184 83288 32598 23203 10352 20199 39577 40055 82100 333 59010;EQDQ01  00002PRCP06
0198832880999992003030700004-13270-043420FM-12+0458SBLP V0201401N001012200019N0020001N1+02971+01871100731ADDAA106000091GF102991021011008001001001KA1240M+03631MA1999999095941MD1999999+0051REMSYN088AAXX  07004 83288 32595 21402 10297 20187 39594 40073 82100 333 10363 29051 55109 58005;EQDQ01  00002PRCP06
0190832880999992003030712004-13270-043420FM-12+0458SBLP V0202301N001010450019N0200001N1+02671+02371101061ADDAY101061AY251061GF105991031021008001011021KA1240N+02291MA1999999096241MD1999999+0011MW1031REMSYN088AAXX  07124 83288 21598 52302 10267 20237 39624 40106 70305 83212 333 20229 58001 69934;
0167832880999992003030718004-13270-043420FM-12+0458SBLP V0202701N000510450019N0200001N1+03461+02331100581ADDAA106000091GF106991041081008001021001MA1999999095811MD1999999+0041REMSYN070AAXX  07184 83288 32598 62701 10346 20233 39581 40058 84820 333 58004;EQDQ01  00002PRCP06
0198832880999992003030800004-13270-043420FM-12+0458SBLP V0203601N001010450019N0020001N1+02551+02191100861ADDAA106000091GF105991041021008001021001KA1240M+03641MA1999999096001MD1999999+0061REMSYN088AAXX  08004 83288 32595 53602 10255 20219 39600 40086 84220 333 10364 29073 55083 58006;EQDQ01  00002PRCP06
0186832880999992003030812004-13270-043420FM-12+0458SBLP V0202701N001512200019N0200001N1+02711+02211101201ADDAA106000091GF102991011011008001031001KA1240N+02141MA1999999096331MD1999999-0091REMSYN076AAXX  08124 83288 32598 22703 10271 20221 39633 40120 81130 333 20214 59009;EQDQ01  00002PRCP06
0171832880999992003030818004-13270-043420FM-12+0458SBLP V0202301N001510120019N0200001N1+03191+02171100851ADDAY151061AY211061GF105991051081008001001001MA1999999096001MD1999999+0191MW1021REMSYN082AAXX  08184 83288 21598 52303 10319 20217 39600 40085 70251 85800 333 58019 69921;
0198832880999992003030900004-13270-043420FM-12+0458SBLP V0202701N000512200019N0020001N1+02711+02161100901ADDAA106000091GF103991011011008001031001KA1240M+03291MA1999999096061MD1999999+0061REMSYN088AAXX  09004 83288 32595 32701 10271 20216 39606 40090 81130 333 10329 29067 55078 58006;EQDQ01  00002PRCP06
0162832880999992003030912004-13270-043420FM-12+0458SBLP V0203201N000512200019N0200001N1+02611+02081101231ADDGF102991001001999999001021KA1240N+02081MA1999999096371MD1999999+0041REMSYN082AAXX  09124 83288 22998 23201 10261 20208 39637 40123 80002 333 20208 58004 69924;
0167832880999992003030918004-13270-043420FM-12+0458SBLP V0201401N001012200019N0200001N1+03421+02131100701ADDAA106000091GF103991021021008001001021MA1999999095901MD1999999-0011REMSYN070AAXX  09184 83288 32598 31402 10342 20213 39590 40070 82202 333 59001;EQDQ01  00002PRCP06
0198832880999992003031000004-13270-043420FM-12+0458SBLP V0209999C000012200019N0020001N1+02831+02201100921ADDAA106000091GF101991011001017501031001KA1240M+03571MA1999999096041MD1999999+0021REMSYN088AAXX  10004 83288 32795 10000 10283 20220 39604 40092 81030 333 10357 29065 55095 58002;EQDQ01  00002PRCP06
0202832880999992003031012004-13270-043420FM-12+0458SBLP V0201801N001019999999N0200001N1+02471+02341101231ADDAA106000091GA1091+999999999GF109991091999999999999999KA1240N+02301MA1999999096361MD1999999-0011REMSYN076AAXX  10124 83288 32998 91802 10247 20234 39636 40123 84132 333 20230 59001;EQDQ01  00002PRCP06
0167832880999992003031018004-13270-043420FM-12+0458SBLP V0200901N000510075019N0200001N1+03431+02341100551ADDAA106000091GF106991061011008001001041MA1999999095791MD1999999-0111REMSYN070AAXX  10184 83288 32598 60901 10343 20234 39579 40055 86104 333 59011;EQDQ01  00002PRCP06
0198832880999992003031100004-13270-043420FM-12+0458SBLP V0200901N001010450019N0020001N1+02731+02221100781ADDAA106000091GF105991031081008001021001KA1240M+03631MA1999999095921MD1999999-0161REMSYN088AAXX  11004 83288 32595 50902 10273 20222 39592 40078 83820 333 10363 29074 55060 59016;EQDQ01  00002PRCP06
0186832880999992003031112004-13270-043420FM-12+0458SBLP V0200901N001512200019N0200001N1+02911+02051101151ADDAA106000091GF103991011011008001031051KA1240N+02221MA1999999096321MD1999999-0041REMSYN076AAXX  11124 83288 32598 30903 10291 20205 39632 40115 81135 333 20222 59004;EQDQ01  00002PRCP06
0171832880999992003031118004-13270-043420FM-12+0458SBLP V0200901N001010120019N0200001N1+03211+02251100651ADDAY161061AY211061GF105991051081008001001001MA1999999095851MD1999999+0061MW1021REMSYN082AAXX  11184 83288 21598 50902 10321 20225 39585 40065 70261 85800 333 58006 60021;
0198832880999992003031200004-13270-043420FM-12+0458SBLP V0201401N001010120019N0020001N1+02811+02141100781ADDAA106000091GF108991051081008001011999KA1240M+03531MA1999999095981MD1999999+0061REMSYN088AAXX  12004 83288 32595 81402 10281 20214 39598 40078 8581/ 333 10353 29061 55080 58006;EQDQ01  00002PRCP06
0162832880999992003031212004-13270-043420FM-12+0458SBLP V0200501N001010450019N0200001N1+02701+02111101141ADDGF107991011011008001031061KA1240N+02181MA1999999096301MD1999999-0021REMSYN082AAXX  12124 83288 22598 70502 10270 20211 39630 40114 81136 333 20218 59002 60024;
0167832880999992003031218004-13270-043420FM-12+0458SBLP V0202301N001011050019N0200001N1+03361+02141100691ADDAA106000091GF105991021021008001001021MA1999999095891MD1999999+0041REMSYN070AAXX  12184 83288 32598 52302 10336 20214 39589 40069 82202 333 58004;EQDQ01  00002PRCP06
0194832880999992003031300004-13270-043420FM-12+0458SBLP V0201801N002110075019N0020001N1+02231+02071101121ADDAY121061GF108991051071008001021999KA1240M+03511MA1999999096231MD1999999+0251MW1951REMSYN100AAXX  13004 83288 21595 81804 10223 20207 39623 40112 7952/ 8572/ 333 10351 29075 55080 58025 60031;
0190832880999992003031312004-13270-043420FM-12+0458SBLP V0201401N000510075019N0200001N1+02421+02221101211ADDAY161061AY251061GF106991061011008001051001KA1240N+02151MA1999999096271MD1999999-0031MW1031REMSYN088AAXX  13124 83288 21598 61401 10242 20222 39627 40121 70365 86150 333 20215 59003 60044;
0167832880999992003031318004-13270-043420FM-12+0458SBLP V0202301N000510450019N0200001N1+03331+02171100681ADDAA106000091GF105991041081008001021001MA1999999095841MD1999999-0051REMSYN070AAXX  13184 83288 32598 52301 10333 20217 39584 40068 84820 333 59005;EQDQ01  00002PRCP06
0198832880999992003031400004-13270-043420FM-12+0458SBLP V0201401N001010450019N0020001N1+02581+02291100871ADDAA106000091GF106991031051008001021001KA1240M+03431MA1999999096051MD1999999-0181REMSYN088AAXX  14004 83288 32595 61402 10258 20229 39605 40087 83520 333 10343 29077 55083 59018;EQDQ01  00002PRCP06
0167832880999992003031418004-13270-043420FM-12+0458SBLP V0202301N001012200019N0200001N1+03011+02351100801ADDAA106000091GF104991021021008001001041MA1999999096001MD1999999+0161REMSYN070AAXX  14184 83288 32598 42302 10301 20235 39600 40080 82204 333 58016;EQDQ01  00002PRCP06
0202832880999992003031500004-13270-043420FM-12+0458SBLP V0209999C000010450019N0020001N1+02411+02251101051ADDAY151061AY211061GF108991031051008001011999KA1240M+03131MA1999999096141MD1999999+0091MW1031REMSYN100AAXX  15004 83288 21595 80000 10241 20225 39614 40105 70351 8351/ 333 10313 29084 55073 58009 69941;
0172832880999992003031512004-13270-043420FM-12+0458SBLP V0200501N001512200019N0200001N1+02731+02121101461ADDGA1001+999999999GF100991001001999999001001KA1240N+02061MA1999999096561MD1999999+0031REMSYN076AAXX  15124 83288 22998 00503 10273 20212 39656 40146 333 20206 58003 69944;
0167832880999992003031518004-13270-043420FM-12+0458SBLP V0202301N002112200019N0200001N1+03401+02241100741ADDAA106000091GF102991011021008001001011MA1999999095931MD1999999-0071REMSYN070AAXX  15184 83288 32598 22304 10340 20224 39593 40074 81201 333 59007;EQDQ01  00002PRCP06
0198832880999992003031600004-13270-043420FM-12+0458SBLP V0202301N002111050019N0020001N1+02951+02191100801ADDAA106000091GF105991011011008001021061KA1240M+03471MA1999999096001MD1999999-0141REMSYN088AAXX  16004 83288 32595 52304 10295 20219 39600 40080 81126 333 10347 29062 55109 59014;EQDQ01  00002PRCP06
0186832880999992003031612004-13270-043420FM-12+0458SBLP V0203601N000512200019N0200001N1+02751+02071101261ADDAA106000091GF102991011011008001001021KA1240N+02191MA1999999096441MD1999999-0121REMSYN076AAXX  16124 83288 32598 23601 10275 20207 39644 40126 81102 333 20219 59012;EQDQ01  00002PRCP06
0167832880999992003031618004-13270-043420FM-12+0458SBLP V0203601N001012200019N0200001N1+03431+02361100791ADDAA106000091GF103991021011008001001041MA1999999095941MD1999999+0011REMSYN070AAXX  16184 83288 32598 33602 10343 20236 39594 40079 82104 333 58001;EQDQ01  00002PRCP06
0208832880999992003031700004-13270-043420FM-12+0458SBLP V0201801N000512200019N0020001N1+02841+02261100831ADDAA106000091GA1001+999999999GF100991001001999999001001KA1240M+03491MA1999999096021MD1999999-0021REMSYN082AAXX  17004 83288 32995 01801 10284 20226 39602 40083 333 10349 29064 55111 59002;EQDQ01  00002PRCP06
0186832880999992003031712004-13270-043420FM-12+0458SBLP V0203601N001512200019N0200001N1+02711+02071101161ADDAA106000091GF103991011011008001001021KA1240N+02141MA1999999096331MD1999999-0111REMSYN076AAXX  17124 83288 32598 33603 10271 20207 39633 40116 81102 333 20214 59011;EQDQ01  00002PRCP06
0167832880999992003031718004-13270-043420FM-12+0458SBLP V0203601N000512200019N0200001N1+03381+02161100751ADDAA106000091GF103991031021008001001001MA1999999095931MD1999999-0011REMSYN070AAXX  17184 83288 32598 33601 10338 20216 39593 40075 83200 333 59001;EQDQ01  00002PRCP06
0198832880999992003031800004-13270-043420FM-12+0458SBLP V0203201N001010120019N0020001N1+03131+02251100791ADDAA106000091GF108991081081008001999999KA1240M+03511MA1999999095991MD1999999-0031REMSYN088AAXX  18004 83288 32595 83202 10313 20225 39599 40079 888// 333 10351 29060 55105 59003;EQDQ01  00002PRCP06
0186832880999992003031812004-13270-043420FM-12+0458SBLP V0203601N003110450019N0200001N1+02561+02111101181ADDAA106000091GF105991041081008001031001KA1240N+02221MA1999999096351MD1999999+0021REMSYN076AAXX  18124 83288 32598 53606 10256 20211 39635 40118 84830 333 20222 58002;EQDQ01  00002PRCP06
0167832880999992003031818004-13270-043420FM-12+0458SBLP V0203201N002111050019N0200001N1+03221+02231100741ADDAA106000091GF105991021021008001001051MA1999999095921MD1999999-0011REMSYN070AAXX  18184 83288 32598 53204 10322 20223 39592 40074 82205 333 59001;EQDQ01  00002PRCP06
0198832880999992003032000004-13270-043420FM-12+0458SBLP V0203201N001510075019N0020001N1+02651+02371101161ADDAA106000091GF108991061051008001021999KA1240M+03171MA1999999096261MD1999999+0121REMSYN088AAXX  20004 83288 32595 83203 10265 20237 39626 40116 8652/ 333 10317 29087 55065 58012;EQDQ01  00002PRCP06
0182832880999992003032012004-13270-043420FM-12+0458SBLP V0200901N001010075019N0200001N1+02411+02221101461ADDAY161061GF105991051021008001001001KA1240N+02101MA1999999096551MD1999999-0031MW1021REMSYN088AAXX  20124 83288 21598 50902 10241 20222 39655 40146 7026/ 85200 333 20210 59003 60014;
0167832880999992003032018004-13270-043420FM-12+0458SBLP V0201801N001510120019N0200001N1+03191+02371100961ADDAA106000091GF106991061081008001001001MA1999999096101MD1999999-0141REMSYN070AAXX  20184 83288 32598 61803 10319 20237 39610 40096 86800 333 59014;EQDQ01  00002PRCP06
0202832880999992003032100004-13270-043420FM-12+0458SBLP V0209999C000012200019N0020001N1+02511+02371101121ADDAY161061AY221061GF103991021041008001001021KA1240M+03231MA1999999096221MD1999999-0041MW1011REMSYN100AAXX  21004 83288 21595 30000 10251 20237 39622 40112 70162 82402 333 10323 29081 55062 59004 60051;
0162832880999992003032112004-13270-043420FM-12+0458SBLP V0200501N001512200019N0200001N1+02611+02351101261ADDGF105991021011008001001061KA1240N+02201MA1999999096371MD1999999-0181REMSYN082AAXX  21124 83288 22598 50503 10261 20235 39637 40126 82106 333 20220 59018 60054;
0167832880999992003032118004-13270-043420FM-12+0458SBLP V0201801N002111050019N0200001N1+03241+02311100811ADDAA106000091GF106991041081008001001021MA1999999095981MD1999999-0121REMSYN070AAXX  21184 83288 32598 61804 10324 20231 39598 40081 84802 333 59012;EQDQ01  00002PRCP06
0186832880999992003032812004-13270-043420FM-12+0458SBLP V0201801N000512200019N0200001N1+02651+02141101341ADDAA106000091GF102991021011008001001041KA1240N+02131MA1999999096471MD1999999+0071REMSYN076AAXX  28124 83288 32598 21801 10265 20214 39647 40134 82104 333 20213 58007;EQDQ01  00002PRCP06
0167832880999992003032818004-13270-043420FM-12+0458SBLP V0201801N001012200019N0200001N1+03241+02361100881ADDAA106000091GF103991021011008001001021MA1999999096051MD1999999+0021REMSYN070AAXX  28184 83288 32598 31802 10324 20236 39605 40088 82102 333 58002;EQDQ01  00002PRCP06
0208832880999992003032900004-13270-043420FM-12+0458SBLP V0202301N001512200019N0020001N1+02741+02321100921ADDAA106000091GA1001+999999999GF100991001001999999001001KA1240M+03341MA1999999096041MD1999999-0101REMSYN082AAXX  29004 83288 32995 02303 10274 20232 39604 40092 333 10334 29071 55109 59010;EQDQ01  00002PRCP06
0186832880999992003032912004-13270-043420FM-12+0458SBLP V0200901N001010450019N0200001N1+02671+02191101271ADDAA106000091GF106991021011008001061051KA1240N+02141MA1999999096411MD1999999-0061REMSYN076AAXX  29124 83288 32598 60902 10267 20219 39641 40127 82165 333 20214 59006;EQDQ01  00002PRCP06
0167832880999992003032918004-13270-043420FM-12+0458SBLP V0201801N001011050019N0200001N1+03151+02361100841ADDAA106000091GF106991041051008001001051MA1999999095991MD1999999-0061REMSYN070AAXX  29184 83288 32598 61802 10315 20236 39599 40084 84505 333 59006;EQDQ01  00002PRCP06
0202832880999992003033000004-13270-043420FM-12+0458SBLP V0201801N001010450019N0020001N1+02551+02361101041ADDAY161061AY261061GF108991021051008001021999KA1240M+03211MA1999999096171MD1999999+0131MW1511REMSYN100AAXX  30004 83288 21595 81802 10255 20236 39617 40104 75166 8252/ 333 10321 29076 55059 58013 60011;
0162832880999992003033012004-13270-043420FM-12+0458SBLP V0201801N001012200019N0200001N1+02531+02291101301ADDGF103991011011008001031001KA1240N+02121MA1999999096361MD1999999-0051REMSYN082AAXX  30124 83288 22598 31802 10253 20229 39636 40130 81130 333 20212 59005 60024;
0198832880999992003033100004-13270-043420FM-12+0458SBLP V0201401N001510450019N0020001N1+02411+02281100951ADDAA106000091GF108991041051008001021999KA1240M+03071MA1999999096061MD1999999-0111REMSYN088AAXX  31004 83288 32595 81403 10241 20228 39606 40095 8452/ 333 10307 29088 55048 59011;EQDQ01  00002PRCP06
0186832880999992003033112004-13270-043420FM-12+0458SBLP V0201401N001512200019N0200001N1+02731+02241101161ADDAA106000091GF103991021011008001001021KA1240N+02191MA1999999096281MD1999999-0081REMSYN076AAXX  31124 83288 32598 31403 10273 20224 39628 40116 82102 333 20219 59008;EQDQ01  00002PRCP06
0167832880999992003033118004-13270-043420FM-12+0458SBLP V0201801N001011050019N0200001N1+03241+02551100651ADDAA106000091GF106991031021008001001021MA1999999095851MD1999999-0081REMSYN070AAXX  31184 83288 32598 61802 10324 20255 39585 40065 83202 333 59008;EQDQ01  00002PRCP06
0198832880999992003040100004-13270-043420FM-12+0458SBLP V0203601N001010450019N0020001N1+02451+02341100911ADDAA106000091GF105991041081008001021001KA1240M+03321MA1999999096051MD1999999-0011REMSYN088AAXX  01004 83288 32595 53602 10245 20234 39605 40091 84820 333 10332 29079 55091 59001;EQDQ01  00002PRCP06
0186832880999992003040112004-13270-043420FM-12+0458SBLP V0201801N001012200019N0200001N1+02711+02291101311ADDAA106000091GF104991011011008001031051KA1240N+02201MA1999999096431MD1999999+0151REMSYN076AAXX  01124 83288 32598 41802 10271 20229 39643 40131 81135 333 20220 58015;EQDQ01  00002PRCP06
0167832880999992003040118004-13270-043420FM-12+0458SBLP V0201801N001011050019N0200001N1+03211+02251100931ADDAA106000091GF105991031021008001001031MA1999999096091MD1999999+0241REMSYN070AAXX  01184 83288 32598 51802 10321 20225 39609 40093 83203 333 58024;EQDQ01  00002PRCP06
0198832880999992003040200004-13270-043420FM-12+0458SBLP V0202701N000512200019N0020001N1+02611+02381100991ADDAA106000091GF103991031081008001001001KA1240M+03231MA1999999096141MD1999999+0091REMSYN088AAXX  02004 83288 32595 32701 10261 20238 39614 40099 83800 333 10323 29074 55084 58009;EQDQ01  00002PRCP06
0196832880999992003040212004-13270-043420FM-12+0458SBLP V0201401N001512200019N0200001N1+02751+02191101311ADDAA106000091GA1001+999999999GF100991001001999999001001KA1240N+02201MA1999999096451MD1999999+0021REMSYN070AAXX  02124 83288 32998 01403 10275 20219 39645 40131 333 20220 58002;EQDQ01  00002PRCP06
0167832880999992003040218004-13270-043420FM-12+0458SBLP V0203601N002110120019N0200001N1+03131+02251100851ADDAA106000091GF105991051081008001001001MA1999999096001MD1999999-0091REMSYN070AAXX  02184 83288 32598 53604 10313 20225 39600 40085 85800 333 59009;EQDQ01  00002PRCP06
0198832880999992003040300004-13270-043420FM-12+0458SBLP V0209999C000010120019N0020001N1+02661+02351101031ADDAA106000091GF106991061081008001001001KA1240M+03291MA1999999096181MD1999999+0041REMSYN088AAXX  03004 83288 32595 60000 10266 20235 39618 40103 86800 333 10329 29074 55100 58004;EQDQ01  00002PRCP06
0202832880999992003040312004-13270-043420FM-12+0458SBLP V0203601N001512200019N0200001N1+02361+02351101221ADDAA106000091GF103991999011008001031021KA1240N+02301MA1999999096361MD1999999-0121REMSYN076AAXX  03124 83288 32598 33603 10236 20235 39636 40122 84132 333 20230 59012;EQDQ01+000042SCOTLCQ02  00002PRCP06
0167832880999992003040318004-13270-043420FM-12+0458SBLP V0202701N001512200019N0200001N1+03241+02521100611ADDAA106000091GF105991031021008001001041MA1999999095821MD1999999-0181REMSYN070AAXX  03184 83288 32598 52703 10324 20252 39582 40061 83204 333 59018;EQDQ01  00002PRCP06
0198832880999992003040400004-13270-043420FM-12+0458SBLP V0202701N001010450019N0020001N1+02851+02521100761ADDAA106000091GF106991041081008001021001KA1240M+03341MA1999999095941MD1999999-0241REMSYN088AAXX  04004 83288 32595 62702 10285 20252 39594 40076 84820 333 10334 29077 55099 59024;EQDQ01  00002PRCP06
0186832880999992003040412004-13270-043420FM-12+0458SBLP V0201801N001012200019N0200001N1+02711+02161101101ADDAA106000091GF103991001001999999001041KA1240N+02201MA1999999096271MD1999999-0091REMSYN076AAXX  04124 83288 32998 31802 10271 20216 39627 40110 80004 333 20220 59009;EQDQ01  00002PRCP06
0167832880999992003040418004-13270-043420FM-12+0458SBLP V0202701N001512200019N0200001N1+03331+02181100541ADDAA106000091GF102991021021008001001001MA1999999095721MD1999999-0101REMSYN070AAXX  04184 83288 32598 22703 10333 20218 39572 40054 82200 333 59010;EQDQ01  00002PRCP06
0208832880999992003040500004-13270-043420FM-12+0458SBLP V0202701N000512200019N0020001N1+02891+02401100741ADDAA106000091GA1001+999999999GF100991001001999999001001KA1240M+03411MA1999999095931MD1999999-0011REMSYN082AAXX  05004 83288 32995 02701 10289 20240 39593 40074 333 10341 29066 55107 59001;EQDQ01  00002PRCP06
0186832880999992003040512004-13270-043420FM-12+0458SBLP V0200901N001012200019N0200001N1+02731+02141101151ADDAA106000091GF103991001001999999001021KA1240N+02121MA1999999096321MD1999999-0051REMSYN076AAXX  05124 83288 32998 30902 10273 20214 39632 40115 80002 333 20212 59005;EQDQ01  00002PRCP06
0167832880999992003040518004-13270-043420FM-12+0458SBLP V0203601N001511050019N0200001N1+03261+02381100721ADDAA106000091GF105991011021008001001021MA1999999095911MD1999999+0251REMSYN070AAXX  05184 83288 32598 53603 10326 20238 39591 40072 81202 333 58025;EQDQ01  00002PRCP06
0208832880999992003040600004-13270-043420FM-12+0458SBLP V0209999C000012200019N0020001N1+02751+02401100801ADDAA106000091GA1001+999999999GF100991001001999999001001KA1240M+03371MA1999999095981MD1999999+0051REMSYN082AAXX  06004 83288 32995 00000 10275 20240 39598 40080 333 10337 29073 55107 58005;EQDQ01  00002PRCP06
0091832880999992003040611004-13270-043420FM-15+0458SBLP V0209999C00001220001CN0099001N1+02701+02101999999ADDMA1101391999999MW1001REMMET039SBLP 061100Z 00000KT CAVOK 27/21 Q1014;EQDQ01+000000PRSWM2
0186832880999992003040612004-13270-043420FM-12+0458SBLP V0202301N001510450019N0200001N1+02571+02421101141ADDAA106000091GF105991031011008001031021KA1240N+02221MA1999999096261MD1999999-0091REMSYN076AAXX  06124 83288 32598 52303 10257 20242 39626 40114 83132 333 20222 59009;EQDQ01  00002PRCP06
0167832880999992003040618004-13270-043420FM-12+0458SBLP V0202701N001510450019N0200001N1+03251+02721100541ADDAA106000091GF106991041021008001021041MA1999999095731MD1999999-0181REMSYN070AAXX  06184 83288 32598 62703 10325 20272 39573 40054 84224 333 59018;EQDQ01  00002PRCP06
0214832880999992003040700004-13270-043420FM-12+0458SBLP V0202701N001012200019N0200001N1+02641+02541100561ADDAA106000091GF102991999011008001001001KA1240M+03351MA1999999095731MD1999999-0251REMSYN088AAXX  07004 83288 32598 22702 10264 20254 39573 40056 81100 333 10335 29085 55077 59025;EQDQ01+000012SCOTLCQ02  00002PRCP06
0190832880999992003040712004-13270-043420FM-12+0458SBLP V0203601N000511050019N0200001N1+02411+02381100961ADDAY161061AY261061GF106991041081008001001051KA1240N+02261MA1999999096101MD1999999-0161MW1021REMSYN088AAXX  07124 83288 21598 63601 10241 20238 39610 40096 70266 84805 333 20226 59016 60244;
0167832880999992003040718004-13270-043420FM-12+0458SBLP V0203601N001011050019N0200001N1+03151+02461100491ADDAA106000091GF105991021021008001001021MA1999999095661MD1999999-0071REMSYN070AAXX  07184 83288 32598 53602 10315 20246 39566 40049 82202 333 59007;EQDQ01  00002PRCP06
0198832880999992003040800004-13270-043420FM-12+0458SBLP V0209999C000012200019N0020001N1+02611+02381100791ADDAA106000091GF103991021021008001001051KA1240M+03291MA1999999095921MD1999999+0191REMSYN088AAXX  08004 83288 32595 30000 10261 20238 39592 40079 82205 333 10329 29084 55070 58019;EQDQ01  00002PRCP06
0190832880999992003040812004-13270-043420FM-12+0458SBLP V0201801N001510075019N0200001N1+02201+02181101171ADDAY191061AY261061GF108991081061008001999999KA1240N+02081MA1999999096261MD1999999+0161MW1951REMSYN088AAXX  08124 83288 21598 81803 10220 20218 39626 40117 79596 886// 333 20208 58016 60214;
0171832880999992003040818004-13270-043420FM-12+0458SBLP V0200501N000510450019N0200001N1+02611+02211100721ADDAY161061AY261061GF107991031051008001031061MA1999999095851MD1999999+0191MW1011REMSYN082AAXX  08184 83288 21598 70501 10261 20221 39585 40072 70166 83536 333 58019 60091;
0198832880999992003040900004-13270-043420FM-12+0458SBLP V0202301N000512200019N0020001N1+02391+02291100981ADDAA106000091GF102991001001999999001051KA1240M+02751MA1999999096051MD1999999+0131REMSYN088AAXX  09004 83288 32995 22301 10239 20229 39605 40098 80005 333 10275 29092 55018 58013;EQDQ01  00002PRCP06
0190832880999992003040912004-13270-043420FM-12+0458SBLP V0200901N001010450019N0200001N1+02431+02421101371ADDAY161061AY261061GF105991041051008001021041KA1240N+02091MA1999999096451MD1999999+0191MW1031REMSYN088AAXX  09124 83288 21598 50902 10243 20242 39645 40137 70366 84524 333 20209 58019 60094;
0183832880999992003040918004-13270-043420FM-12+0458SBLP V0203201N001010075019N0200001N1+03181+02701101151ADDAA106000091GF106991999011008001001001MA1999999096111MD1999999+0251REMSYN070AAXX  09184 83288 32598 63202 10318 20270 39611 40115 85100 333 58025;EQDQ01+000052SCOTLCQ02  00002PRCP06
0214832880999992003041000004-13270-043420FM-12+0458SBLP V0202301N001012200019N0020001N1+02741+02621101001ADDAA106000091GF102991999011008001001001KA1240M+03351MA1999999096141MD1999999+0091REMSYN088AAXX  10004 83288 32595 22302 10274 20262 39614 40100 81100 333 10335 29088 55100 58009;EQDQ01+000012SCOTLCQ02  00002PRCP06
0186832880999992003041012004-13270-043420FM-12+0458SBLP V0203601N001012200019N0200001N1+02681+02351101291ADDAA106000091GF103991001001999999001021KA1240N+02141MA1999999096431MD1999999-0021REMSYN076AAXX  10124 83288 32998 33602 10268 20235 39643 40129 80002 333 20214 59002;EQDQ01  00002PRCP06
0167832880999992003041018004-13270-043420FM-12+0458SBLP V0203601N001512200019N0200001N1+03191+02501100891ADDAA106000091GF103991011001008001001041MA1999999096061MD1999999-0051REMSYN070AAXX  10184 83288 32598 33603 10319 20250 39606 40089 81004 333 59005;EQDQ01  00002PRCP06
0198832880999992003041100004-13270-043420FM-12+0458SBLP V0209999C000012200019N0020001N1+02631+02581101051ADDAA106000091GF104991041021008001001001KA1240M+03251MA1999999095191MD1999999+0051REMSYN088AAXX  11004 83288 32595 40000 10263 20258 39519 40105 84200 333 10325 29082 55102 58005;EQDQ01  00002PRCP06
0196832880999992003041112004-13270-043420FM-12+0458SBLP V0203201N001012200019N0200001N1+02671+02351101191ADDAA106000091GA1001+999999999GF100991001001999999001001KA1240N+02101MA1999999096331MD1999999-0101REMSYN070AAXX  11124 83288 32998 03202 10267 20235 39633 40119 333 20210 59010;EQDQ01  00002PRCP06
0167832880999992003041118004-13270-043420FM-12+0458SBLP V0203201N001012200019N0200001N1+03301+02511100761ADDAA106000091GF101991011021008001001001MA1999999095961MD1999999-0101REMSYN070AAXX  11184 83288 32598 13202 10330 20251 39596 40076 81200 333 59010;EQDQ01  00002PRCP06
0208832880999992003041200004-13270-043420FM-12+0458SBLP V0209999C000012200019N0020001N1+02711+02501100891ADDAA106000091GA1001+999999999GF100991001001999999001001KA1240M+03371MA1999999096051MD1999999-0141REMSYN082AAXX  12004 83288 32995 00000 10271 20250 39605 40089 333 10337 29080 55106 59014;EQDQ01  00002PRCP06
0186832880999992003041212004-13270-043420FM-12+0458SBLP V0203601N001010120019N0200001N1+02531+02381101151ADDAA106000091GF106991061081008001021041KA1240N+02211MA1999999096451MD1999999+0121REMSYN076AAXX  12124 83288 32598 63602 10253 20238 39645 40115 86824 333 20221 58012;EQDQ01  00002PRCP06
0167832880999992003041218004-13270-043420FM-12+0458SBLP V0202301N001012200019N0200001N1+03281+02661100851ADDAA106000091GF105991031021008001001041MA1999999096051MD1999999+0091REMSYN070AAXX  12184 83288 32598 52302 10328 20266 39605 40085 83204 333 58009;EQDQ01  00002PRCP06
0198832880999992003041300004-13270-043420FM-12+0458SBLP V0201801N001512200019N0020001N1+02611+02151101161ADDAA106000091GF103991021031999999001061KA1240M+03351MA1999999096291MD1999999+0241REMSYN088AAXX  13004 83288 32995 31803 10261 20215 39629 40116 82306 333 10335 29079 55067 58024;EQDQ01  00002PRCP06
0186832880999992003041312004-13270-043420FM-12+0458SBLP V0201801N001512200019N0200001N1+02551+02301101441ADDAA106000091GF104991021011008001031001KA1240N+02261MA1999999096551MD1999999+0101REMSYN076AAXX  13124 83288 32598 41803 10255 20230 39655 40144 82130 333 20226 58010;EQDQ01  00002PRCP06
0171832880999992003041318004-13270-043420FM-12+0458SBLP V0203601N001512200019N0200001N1+02851+02511101051ADDAY161061AY291061GF105991031051008001001041MA1999999096181MD1999999+0131MW1021REMSYN082AAXX  13184 83288 21598 53603 10285 20251 39618 40105 70269 83504 333 58013 60031;
0198832880999992003041400004-13270-043420FM-12+0458SBLP V0200901N001010450019N0020001N1+02351+02001101131ADDAA106000091GF107991041011008001021001KA1240M+03341MA1999999096231MD1999999-0061REMSYN088AAXX  14004 83288 32595 70902 10235 20200 39623 40113 84120 333 10334 29083 55074 59006;EQDQ01  00002PRCP06
0162832880999992003041412004-13270-043420FM-12+0458SBLP V0201401N001512200019N0200001N1+02751+02191101591ADDGF102991011011008001001041KA1240N+02221MA1999999096691MD1999999+0141REMSYN082AAXX  14124 83288 22598 21403 10275 20219 39669 40159 81104 333 20222 58014 60034;
0186832880999992003041512004-13270-043420FM-12+0458SBLP V0201801N001512200019N0200001N1+02441+02191101511ADDAA106000091GF103991021011008001001041KA1240N+02051MA1999999096601MD1999999-0091REMSYN076AAXX  15124 83288 32598 31803 10244 20219 39660 40151 82104 333 20205 59009;EQDQ01  00002PRCP06
0167832880999992003041518004-13270-043420FM-12+0458SBLP V0202301N001512200019N0200001N1+03151+02351100991ADDAA106000091GF106991041021008001001041MA1999999096151MD1999999-0151REMSYN070AAXX  15184 83288 32598 62303 10315 20235 39615 40099 84204 333 59015;EQDQ01  00002PRCP06
0198832880999992003041600004-13270-043420FM-12+0458SBLP V0201401N001012200019N0020001N1+02451+02191101161ADDAA106000091GF102991011011008001001021KA1240M+03251MA1999999096261MD1999999-0191REMSYN088AAXX  16004 83288 32595 21402 10245 20219 39626 40116 81102 333 10325 29078 55097 59019;EQDQ01  00002PRCP06
0186832880999992003041612004-13270-043420FM-12+0458SBLP V0201801N001512200019N0200001N1+02511+02121101481ADDAA106000091GF102991001001999999001021KA1240N+02061MA1999999096571MD1999999-0071REMSYN076AAXX  16124 83288 32998 21803 10251 20212 39657 40148 80002 333 20206 59007;EQDQ01  00002PRCP06
0167832880999992003041618004-13270-043420FM-12+0458SBLP V0201801N001012200019N0200001N1+03111+02321100901ADDAA106000091GF102991021021008001001001MA1999999096041MD1999999-0111REMSYN070AAXX  16184 83288 32598 21802 10311 20232 39604 40090 82200 333 59011;EQDQ01  00002PRCP06
0198832880999992003041700004-13270-043420FM-12+0458SBLP V0201401N001512200019N0020001N1+02611+02091101111ADDAA106000091GF103991031041008001001001KA1240M+03211MA1999999096231MD1999999-0031REMSYN088AAXX  17004 83288 32595 31403 10261 20209 39623 40111 83400 333 10321 29072 55105 59003;EQDQ01  00002PRCP06
0184832880999992003041712004-13270-043420FM-12+0458SBLP V0201801N001012200019N0200001N1+02531+02111101371ADDAA106000091GF104991041001022501081001KA1240N+02171MA1999999096481REMSYN088AAXX  17124 83288 32898 41802 10253 20211 39648 40137 84080 333 20217 29072 55105 59009;EQDQ01  00002PRCP06
0198832880999992003041800004-13270-043420FM-12+0458SBLP V0201801N001010210019N0020001N1+02591+02041101041ADDAA106000091GF105991051001022501051001KA1240M+03291MA1999999096161MD1999999-0071REMSYN088AAXX  18004 83288 32895 51802 10259 20204 39616 40104 85050 333 10329 29071 55085 59007;EQDQ01  00002PRCP06
0200832880999992003041812004-13270-043420FM-12+0458SBLP V0201801N001512200019N0200001N1+02451+02271101481ADDAA106000091GF102991999011008001001001KA1240N+02051MA1999999096481REMSYN088AAXX  18124 83288 32598 21803 10245 20227 39648 40148 81100 333 20205 29072 55105 58000;EQDQ01+000012SCOTLCQ02  00002PRCP06
0183832880999992003041818004-13270-043420FM-12+0458SBLP V0200901N005110450019N0100001N1+02611+01451101141ADDAA106000091GF105991041021004501031001MA1999999999999MD1999999+0071REMSYN070AAXX  18184 83288 32497 50910 10261 20145 39157 40114 84230 333 58007;EQDQ01  00002PRCP06Q02 091573APOSP 
0224832880999992003041900004-13270-043420FM-12+0458SBLP V0201801N001012200019N0020001N1+02641+02161101021ADDAA106000091GA1001+999999999GF100991001001999999001001KA1240M+03341MA1999999096242MD1999999+0081REMSYN082AAXX  19004 83288 32995 01802 10264 20216 39624 40102 333 10334 29075 55071 58008;EQDQ01+096243APOSP Q02  00002PRCP06
0186832880999992003041912004-13270-043420FM-12+0458SBLP V0201401N001512200019N0200001N1+02531+02001101471ADDAA106000091GF102991011011008001001021KA1240N+02001MA1999999096581MD1999999+0101REMSYN076AAXX  19124 83288 32598 21403 10253 20200 39658 40147 81102 333 20200 58010;EQDQ01  00002PRCP06
0183832880999992003041918004-13270-043420FM-12+0458SBLP V0202301N001012200019N0200001N1+03241+02361101271ADDAA106000091GF103991999021008001001001MA1999999096231MD1999999+0091REMSYN070AAXX  19184 83288 32598 32302 10324 20236 39623 40127 82200 333 58009;EQDQ01+000022SCOTLCQ02  00002PRCP06
0208832880999992003042000004-13270-043420FM-12+0458SBLP V0201401N001012200019N0020001N1+02651+02161101111ADDAA106000091GA1001+999999999GF100991001001999999001001KA1240M+03341MA1999999096241MD1999999+0001REMSYN082AAXX  20004 83288 32595 01402 10265 20216 39624 40111 333 10334 29069 55106 58000;EQDQ01  00002PRCP06
0196832880999992003042012004-13270-043420FM-12+0458SBLP V0201801N001012200019N0200001N1+02611+02091101361ADDAA106000091GA1001+999999999GF100991001001999999001001KA1240N+02081MA1999999096381MD1999999-0101REMSYN070AAXX  20124 83288 32998 01802 10261 20209 39638 40136 333 20208 59010;EQDQ01  00002PRCP06
0167832880999992003042018004-13270-043420FM-12+0458SBLP V0201401N001512200019N0200001N1+03301+02241100731ADDAA106000091GF104991021011008001001051MA1999999095921MD1999999-0311REMSYN070AAXX  20184 83288 32598 41403 10330 20224 39592 40073 82105 333 59031;EQDQ01  00002PRCP06
0208832880999992003042100004-13270-043420FM-12+0458SBLP V0200901N000512200019N0020001N1+02591+02261100921ADDAA106000091GA1001+999999999GF100991001001999999001001KA1240M+03411MA1999999096061MD1999999-0181REMSYN082AAXX  21004 83288 32995 00901 10259 20226 39606 40092 333 10341 29070 55102 59018;EQDQ01  00002PRCP06
0196832880999992003042112004-13270-043420FM-12+0458SBLP V0201401N002112200019N0200001N1+02591+01941101381ADDAA106000091GA1001+999999999GF100991001001999999001001KA1240N+02001MA1999999096501MD1999999+0121REMSYN070AAXX  21124 83288 32998 01404 10259 20194 39650 40138 333 20200 58012;EQDQ01  00002PRCP06
0167832880999992003042118004-13270-043420FM-12+0458SBLP V0201401N001512200019N0200001N1+03241+01781100931ADDAA106000091GF101991011011008001001001MA1999999096101MD1999999+0181REMSYN070AAXX  21184 83288 32598 11403 10324 20178 39610 40093 81100 333 58018;EQDQ01  00002PRCP06
0208832880999992003042200004-13270-043420FM-12+0458SBLP V0201401N001512200019N0020001N1+02471+01711101161ADDAA106000091GA1001+999999999GF100991001001999999001001KA1240M+03311MA1999999096281MD1999999+0221REMSYN082AAXX  22004 83288 32995 01403 10247 20171 39628 40116 333 10331 29059 55109 58022;EQDQ01  00002PRCP06
0196832880999992003042212004-13270-043420FM-12+0458SBLP V0201401N002112200019N0200001N1+02451+02021101491ADDAA106000091GA1001+999999999GF100991001001999999001001KA1240N+01781MA1999999096571MD1999999+0071REMSYN070AAXX  22124 83288 32998 01404 10245 20202 39657 40149 333 20178 58007;EQDQ01  00002PRCP06
0167832880999992003042218004-13270-043420FM-12+0458SBLP V0201801N001512200019N0200001N1+03211+02361100991ADDAA106000091GF104991041021008001001001MA1999999096141MD1999999+0041REMSYN070AAXX  22184 83288 32598 41803 10321 20236 39614 40099 84200 333 58004;EQDQ01  00002PRCP06
0208832880999992003042300004-13270-043420FM-12+0458SBLP V0201401N001512200019N0020001N1+02531+01921101281ADDAA106000091GA1001+999999999GF100991001001999999001001KA1240M+03271MA1999999096381MD1999999+0101REMSYN082AAXX  23004 83288 32995 01403 10253 20192 39638 40128 333 10327 29069 55108 58010;EQDQ01  00002PRCP06
0186832880999992003042312004-13270-043420FM-12+0458SBLP V0201401N002112200019N0200001N1+02621+02101101411ADDAA106000091GF101991011011008001001001KA1240N+02001MA1999999096531MD1999999-0041REMSYN076AAXX  23124 83288 32598 11404 10262 20210 39653 40141 81100 333 20200 59004;EQDQ01  00002PRCP06
0167832880999992003042318004-13270-043420FM-12+0458SBLP V0201401N001512200019N0200001N1+03091+02041100961ADDAA106000091GF102991021021008001001001MA1999999096101MD1999999-0041REMSYN070AAXX  23184 83288 32598 21403 10309 20204 39610 40096 82200 333 59004;EQDQ01  00002PRCP06
0208832880999992003042400004-13270-043420FM-12+0458SBLP V0201401N002112200019N0020001N1+02491+01681101171ADDAA106000091GA1001+999999999GF100991001001999999001001KA1240M+03221MA1999999096301MD1999999-0081REMSYN082AAXX  24004 83288 32995 01404 10249 20168 39630 40117 333 10322 29062 55102 59008;EQDQ01  00002PRCP06
0186832880999992003042412004-13270-043420FM-12+0458SBLP V0201801N001512200019N0200001N1+02551+01931101511ADDAA106000091GF104991021011008001041021KA1240N+01991MA1999999096601MD1999999+0071REMSYN076AAXX  24124 83288 32598 41803 10255 20193 39660 40151 82142 333 20199 58007;EQDQ01  00002PRCP06
0167832880999992003042418004-13270-043420FM-12+0458SBLP V0201801N001512200019N0200001N1+03141+02251101401ADDAA106000091GF102991021011008001001001MA1999999096031MD1999999-0101REMSYN070AAXX  24184 83288 32598 21803 10314 20225 39603 40140 82100 333 59010;EQDQ01  00002PRCP06
0208832880999992003042500004-13270-043420FM-12+0458SBLP V0201401N002112200019N0020001N1+02611+02081101101ADDAA106000091GA1001+999999999GF100991001001999999001001KA1240M+03271MA1999999096231MD1999999-0071REMSYN082AAXX  25004 83288 32995 01404 10261 20208 39623 40110 333 10327 29069 55102 59007;EQDQ01  00002PRCP06
0186832880999992003042512004-13270-043420FM-12+0458SBLP V0201801N001512200019N0200001N1+02511+01971101371ADDAA106000091GF104991011011008001001051KA1240N+02101MA1999999096481MD1999999-0121REMSYN076AAXX  25124 83288 32598 41803 10251 20197 39648 40137 81105 333 20210 59012;EQDQ01  00002PRCP06
0167832880999992003042518004-13270-043420FM-12+0458SBLP V0201801N001011050019N0200001N1+03171+02271100931ADDAA106000091GF105991031021008001001051MA1999999096101MD1999999+0071REMSYN070AAXX  25184 83288 32598 51802 10317 20227 39610 40093 83205 333 58007;EQDQ01  00002PRCP06
0208832880999992003042600004-13270-043420FM-12+0458SBLP V0201801N001512200019N0020001N1+02551+01981101221ADDAA106000091GA1001+999999999GF100991001001999999001001KA1240M+03231MA1999999096331MD1999999+0101REMSYN082AAXX  26004 83288 32995 01803 10255 20198 39633 40122 333 10323 29067 55097 58010;EQDQ01  00002PRCP06
0186832880999992003042612004-13270-043420FM-12+0458SBLP V0201801N001512200019N0200001N1+02511+02071101481ADDAA106000091GF101991001001999999001011KA1240N+02001MA1999999096601MD1999999+0121REMSYN076AAXX  26124 83288 32998 11803 10251 20207 39660 40148 80001 333 20200 58012;EQDQ01  00002PRCP06
0167832880999992003042618004-13270-043420FM-12+0458SBLP V0202301N001512200019N0200001N1+03311+02181101021ADDAA106000091GF104991021021008001001051MA1999999096201MD1999999+0101REMSYN070AAXX  26184 83288 32598 42303 10331 20218 39620 40102 82205 333 58010;EQDQ01  00002PRCP06
0208832880999992003042700004-13270-043420FM-12+0458SBLP V0200901N000512200019N0020001N1+02601+02121101301ADDAA106000091GA1001+999999999GF100991001001999999001001KA1240M+03351MA1999999096421MD1999999+0091REMSYN082AAXX  27004 83288 32995 00901 10260 20212 39642 40130 333 10335 29070 55105 58009;EQDQ01  00002PRCP06
0186832880999992003042712004-13270-043420FM-12+0458SBLP V0201801N001012200019N0200001N1+02551+02061101471ADDAA106000091GF105991031011008001001041KA1240N+01961MA1999999096571MD1999999-0031REMSYN076AAXX  27124 83288 32598 51802 10255 20206 39657 40147 83104 333 20196 59003;EQDQ01  00002PRCP06
0167832880999992003042718004-13270-043420FM-12+0458SBLP V0201801N001510120019N0200001N1+03341+02151100931ADDAA106000091GF106991061081008001021041MA1999999096141MD1999999-0061REMSYN070AAXX  27184 83288 32598 61803 10334 20215 39614 40093 86824 333 59006;EQDQ01  00002PRCP06
0208832880999992003042800004-13270-043420FM-12+0458SBLP V0201801N001012200019N0020001N1+02651+02181100991ADDAA106000091GA1001+999999999GF100991001001999999001001KA1240M+03251MA1999999096131MD1999999-0291REMSYN082AAXX  28004 83288 32595 01802 10265 20218 39613 40099 333 10325 29067 55102 59029;EQDQ01  00002PRCP06
0186832880999992003042812004-13270-043420FM-12+0458SBLP V0202301N001012200019N0200001N1+02591+02001101341ADDAA106000091GF102991001001999999001021KA1240N+02021MA1999999096461MD1999999-0111REMSYN076AAXX  28124 83288 32998 22302 10259 20200 39646 40134 80002 333 20202 59011;EQDQ01  00002PRCP06
0167832880999992003042818004-13270-043420FM-12+0458SBLP V0203201N002112200019N0200001N1+03341+02281100801ADDAA106000091GF103991011011008001001021MA1999999095961MD1999999-0181REMSYN070AAXX  28184 83288 32598 33204 10334 20228 39596 40080 81102 333 59018;EQDQ01  00002PRCP06
0198832880999992003042900004-13270-043420FM-12+0458SBLP V0201801N000512200019N0020001N1+02711+01971101021ADDAA106000091GF103991011011008001041001KA1240M+03431MA1999999096161MD1999999+0041REMSYN088AAXX  29004 83288 32595 31801 10271 20197 39616 40102 81140 333 10343 29063 55107 58004;EQDQ01  00002PRCP06
0196832880999992003042912004-13270-043420FM-12+0458SBLP V0200901N001012200019N0200001N1+02551+01981101391ADDAA106000091GA1001+999999999GF100991001001999999001001KA1240N+02021MA1999999096511MD1999999+0051REMSYN070AAXX  29124 83288 32998 00902 10255 20198 39651 40139 333 20202 58005;EQDQ01  00002PRCP06
0167832880999992003042918004-13270-043420FM-12+0458SBLP V0202701N001512200019N0200001N1+03381+02121100901ADDAA106000091GF103991031021008001001001MA1999999096081MD1999999+0121REMSYN070AAXX  29184 83288 32598 32703 10338 20212 39608 40090 83200 333 58012;EQDQ01  00002PRCP06
0208832880999992003043000004-13270-043420FM-12+0458SBLP V0201801N001012200019N0020001N1+02791+02141101011ADDAA106000091GA1001+999999999GF100991001001999999001001KA1240M+03431MA1999999096161MD1999999+0001REMSYN082AAXX  30004 83288 32995 01802 10279 20214 39616 40101 333 10343 29062 55106 58000;EQDQ01  00002PRCP06
0196832880999992003043012004-13270-043420FM-12+0458SBLP V0200901N000512200019N0200001N1+02841+02071101361ADDAA106000091GA1001+999999999GF100991001001999999001001KA1240N+02001MA1999999096521MD1999999+0011REMSYN070AAXX  30124 83288 32998 00901 10284 20207 39652 40136 333 20200 58001;EQDQ01  00002PRCP06
0167832880999992003043018004-13270-043420FM-12+0458SBLP V0202301N001012200019N0200001N1+03431+02231100831ADDAA106000091GF104991041021008001001001MA1999999096031MD1999999+0051REMSYN070AAXX  30184 83288 32598 42302 10343 20223 39603 40083 84200 333 58005;EQDQ01  00002PRCP06
0198832880999992003050100004-13270-043420FM-12+0458SBLP V0201801N000510075019N0020001N1+02881+02081100981ADDAA106000091GF108991061051008001021999KA1240M+03411MA1999999095841MD1999999-0321REMSYN088AAXX  01004 83288 32595 81801 10288 20208 39584 40098 8652/ 333 10341 29069 55096 59032;EQDQ01  00002PRCP06
0202832880999992003050112004-13270-043420FM-12+0458SBLP V0201401N001512200019N0200001N1+02751+02171101411ADDAA106000091GF101991001001999999001011KA1240N+02161MA1999999096571MD1999999+0051REMSYN076AAXX  01124 83288 32598 11403 10275 20217 39657 40141 80001 333 20216 58005;EQDQ01+008002SCOLCBQ02  00002PRCP06
0167832880999992003050118004-13270-043420FM-12+0458SBLP V0202301N001512200019N0200001N1+03381+02191100781ADDAA106000091GF101991011021008001001001MA1999999096001MD1999999-0031REMSYN070AAXX  01184 83288 32598 12303 10338 20219 39600 40078 81200 333 59003;EQDQ01  00002PRCP06
0208832880999992003050200004-13270-043420FM-12+0458SBLP V0201801N000512200019N0020001N1+02831+02151101041ADDAA106000091GA1001+999999999GF100991001001999999001001KA1240M+03491MA1999999096221MD1999999+0381REMSYN082AAXX  02004 83288 32995 01801 10283 20215 39622 40104 333 10349 29064 55105 58038;EQDQ01  00002PRCP06
0196832880999992003050212004-13270-043420FM-12+0458SBLP V0200501N000512200019N0200001N1+02691+02131101181ADDAA106000091GA1001+999999999GF100991001001999999001001KA1240N+02101MA1999999096341MD1999999-0171REMSYN070AAXX  02124 83288 32998 00501 10269 20213 39634 40118 333 20210 59017;EQDQ01  00002PRCP06
0167832880999992003050218004-13270-043420FM-12+0458SBLP V0203601N001012200019N0200001N1+03501+02161100621ADDAA106000091GF101991011021008001001001MA1999999095841MD1999999-0161REMSYN070AAXX  02184 83288 32598 13602 10350 20216 39584 40062 81200 333 59016;EQDQ01  00002PRCP06
0224832880999992003050300004-13270-043420FM-12+0458SBLP V0209999C000012200019N0020001N1+02771+02401999999ADDAA106000091GA1001+999999999GF100991001001999999001001KA1240M+03551MA1999999095951MD1999999-0271REMSYN082AAXX  03004 83288 32995 00000 10277 20240 39595 40478 333 10355 29070 55100 59027;EQDQ01  00002PRCP06Q02 104783APOSLP
0186832880999992003050312004-13270-043420FM-12+0458SBLP V0203201N001012200019N0200001N1+02571+02361101031ADDAA106000091GF103991021081008001021021KA1240N+02141MA1999999096171MD1999999-0171REMSYN076AAXX  03124 83288 32598 33202 10257 20236 39617 40103 82822 333 20214 59017;EQDQ01  00002PRCP06
0167832880999992003050318004-13270-043420FM-12+0458SBLP V0202701N001012200019N0200001N1+03151+02551100651ADDAA106000091GF102991011011008001001021MA1999999095811MD1999999-0031REMSYN070AAXX  03184 83288 32598 22702 10315 20255 39581 40065 81102 333 59003;EQDQ01  00002PRCP06
0208832880999992003050400004-13270-043420FM-12+0458SBLP V0203601N000512200019N0020001N1+02681+02331100801ADDAA106000091GA1001+999999999GF100991001001999999001001KA1240M+03441MA1999999095951MD1999999+0001REMSYN082AAXX  04004 83288 32995 03601 10268 20233 39595 40080 333 10344 29081 55060 58000;EQDQ01  00002PRCP06
0186832880999992003050412004-13270-043420FM-12+0458SBLP V0201801N001512200019N0200001N1+02551+02101101331ADDAA106000091GF103991011011008001031021KA1240N+02061MA1999999096451MD1999999+0281REMSYN076AAXX  04124 83288 32598 31803 10255 20210 39645 40133 81132 333 20206 58028;EQDQ01  00002PRCP06
0167832880999992003050418004-13270-043420FM-12+0458SBLP V0201801N001512200019N0200001N1+03221+02481100951ADDAA106000091GF104991021021008001001051MA1999999096101MD1999999+0291REMSYN070AAXX  04184 83288 32598 41803 10322 20248 39610 40095 82205 333 58029;EQDQ01  00002PRCP06
0202832880999992003050500004-13270-043420FM-12+0458SBLP V0203201N001010120019N0020001N1+02411+02291101251ADDAY151061AY251061GF106991061081008001001001KA1240M+03301MA1999999096351MD1999999+0401MW1021REMSYN100AAXX  05004 83288 21595 63202 10241 20229 39635 40125 70255 86800 333 10330 29078 55089 58040 69941;
0162832880999992003050512004-13270-043420FM-12+0458SBLP V0201401N001512200019N0200001N1+02571+02081101481ADDGF101991001001999999001041KA1240N+01961MA1999999096571MD1999999+0121REMSYN082AAXX  05124 83288 22998 11403 10257 20208 39657 40148 80004 333 20196 58012 69944;
0167832880999992003050518004-13270-043420FM-12+0458SBLP V0200501N001512200019N0200001N1+03121+02141100981ADDAA106000091GF103991031021008001001001MA1999999096131MD1999999+0031REMSYN070AAXX  05184 83288 32598 30503 10312 20214 39613 40098 83200 333 58003;EQDQ01  00002PRCP06
0208832880999992003050600004-13270-043420FM-12+0458SBLP V0200501N000512200019N0020001N1+02511+02131101161ADDAA106000091GA1001+999999999GF100991001001999999001001KA1240M+03211MA1999999096281MD1999999-0071REMSYN082AAXX  06004 83288 32995 00501 10251 20213 39628 40116 333 10321 29072 55103 59007;EQDQ01  00002PRCP06
0196832880999992003050612004-13270-043420FM-12+0458SBLP V0200501N000512200019N0200001N1+02671+02021101251ADDAA106000091GA1001+999999999GF100991001001999999001001KA1240N+01961MA1999999096371MD1999999-0101REMSYN070AAXX  06124 83288 32998 00501 10267 20202 39637 40125 333 20196 59010;EQDQ01  00002PRCP06
0167832880999992003050618004-13270-043420FM-12+0458SBLP V0202701N001010075019N0200001N1+03241+02481100781ADDAA106000091GF106991051011008001021041MA1999999095951MD1999999-0181REMSYN070AAXX  06184 83288 32598 62702 10324 20248 39595 40078 85124 333 59018;EQDQ01  00002PRCP06
0198832880999992003050700004-13270-043420FM-12+0458SBLP V0200501N000510450019N0020001N1+02791+02331100841ADDAA106000091GF105991041011008001021001KA1240M+03331MA1999999096011MD1999999-0271REMSYN088AAXX  07004 83288 32595 50501 10279 20233 39601 40084 84120 333 10333 29070 55092 59027;EQDQ01  00002PRCP06
0186832880999992003050712004-13270-043420FM-12+0458SBLP V0202701N001010120019N0200001N1+02691+02361101231ADDAA106000091GF106991061081008001001001KA1240N+02281MA1999999096381MD1999999+0011REMSYN076AAXX  07124 83288 32598 62702 10269 20236 39638 40123 86800 333 20228 58001;EQDQ01  00002PRCP06
0167832880999992003050718004-13270-043420FM-12+0458SBLP V0201801N001512200019N0200001N1+02361+02151100851ADDAA106000091GF104991021011008001001051MA1999999096021MD1999999+0071REMSYN070AAXX  07184 83288 32598 41803 10236 20215 39602 40085 82105 333 58007;EQDQ01  00002PRCP06
0198832880999992003050800004-13270-043420FM-12+0458SBLP V0201801N001012200019N0020001N1+02491+02241101101ADDAA106000091GF104991011011008001031051KA1240M+03211MA1999999096231MD1999999+0221REMSYN088AAXX  08004 83288 32595 41802 10249 20224 39623 40110 81135 333 10321 29077 55065 58022;EQDQ01  00002PRCP06
0186832880999992003050812004-13270-043420FM-12+0458SBLP V0201801N001510450019N0200001N1+02511+02171101341ADDAA106000091GF107991031081008001031081KA1240N+02161MA1999999096441MD1999999+0061REMSYN076AAXX  08124 83288 32598 71803 10251 20217 39644 40134 83838 333 20216 58006;EQDQ01  00002PRCP06
0167832880999992003050818004-13270-043420FM-12+0458SBLP V0202301N001512200019N0200001N1+03241+02331100841ADDAA106000091GF104991031021008001001091MA1999999096001MD1999999-0011REMSYN070AAXX  08184 83288 32598 42303 10324 20233 39600 40084 83209 333 59001;EQDQ01  00002PRCP06
0198832880999992003050900004-13270-043420FM-12+0458SBLP V0209999C000012200019N0020001N1+02751+02381101181ADDAA106000091GF104991021081008001001051KA1240M+03351MA1999999096291MD1999999+0061REMSYN088AAXX  09004 83288 32595 40000 10275 20238 39629 40118 82805 333 10335 29076 55051 58006;EQDQ01  00002PRCP06
0186832880999992003050912004-13270-043420FM-12+0458SBLP V0202301N008210450019N0200001N1+02391+01731101481ADDAA106000091GF105991031011008001031021KA1240N+02081MA1999999096571MD1999999+0031REMSYN076AAXX  09124 83288 32598 52316 10239 20173 39657 40148 83132 333 20208 58003;EQDQ01  00002PRCP06
0167832880999992003050918004-13270-043420FM-12+0458SBLP V0203201N005112200019N0200001N1+03281+02291100871ADDAA106000091GF104991021081008001001021MA1999999096061MD1999999+0061REMSYN070AAXX  09184 83288 32598 43210 10328 20229 39606 40087 82802 333 58006;EQDQ01  00002PRCP06
0202832880999992003051000004-13270-043420FM-12+0458SBLP V0201401N001510075019N0020001N1+02741+02171101141ADDAY151061AY251061GF108991061051008001021999KA1240M+03391MA1999999096261MD1999999+0031MW1031REMSYN100AAXX  10004 83288 21595 81403 10274 20217 39626 40114 70355 8652/ 333 10339 29064 55098 58003 69931;
0167832880999992003051018004-13270-043420FM-12+0458SBLP V0201801N002112200019N0200001N1+02891+02401101181ADDAA106000091GF104991021011008001001051MA1999999096291MD1999999+0231REMSYN070AAXX  10184 83288 32598 41804 10289 20240 39629 40118 82105 333 58023;EQDQ01  00002PRCP06
0198832880999992003051100004-13270-043420FM-12+0458SBLP V0201801N002110120019N0020001N1+02311+02021101541ADDAA106000091GF108991061081008001031999KA1240M+02951MA1999999096611MD1999999+0351REMSYN088AAXX  11004 83288 32595 81804 10231 20202 39661 40154 8683/ 333 10295 29082 55034 58035;EQDQ01  00002PRCP06
0186832880999992003051112004-13270-043420FM-12+0458SBLP V0201401N002112200019N0200001N1+02451+01931101791ADDAA106000091GF101991001001999999001091KA1240N+01861MA1999999096851MD1999999+0251REMSYN076AAXX  11124 83288 32998 11404 10245 20193 39685 40179 80009 333 20186 58025;EQDQ01  00002PRCP06
0167832880999992003051118004-13270-043420FM-12+0458SBLP V0201401N002112200019N0200001N1+03111+01801101311ADDAA106000091GF101991011011008001001001MA1999999096431MD1999999+0141REMSYN070AAXX  11184 83288 32598 11404 10311 20180 39643 40131 81100 333 58014;EQDQ01  00002PRCP06
0208832880999992003051200004-13270-043420FM-12+0458SBLP V0201401N002112200019N0020001N1+02331+01761101561ADDAA106000091GA1001+999999999GF100991001001999999001001KA1240M+03191MA1999999096631MD1999999+0021REMSYN082AAXX  12004 83288 32995 01404 10233 20176 39663 40156 333 10319 29064 55104 58002;EQDQ01  00002PRCP06
0196832880999992003051212004-13270-043420FM-12+0458SBLP V0201801N001512200019N0200001N1+02421+01821101751ADDAA106000091GA1001+999999999GF100991001001999999001001KA1240N+02041MA1999999096801MD1999999-0051REMSYN070AAXX  12124 83288 32998 01803 10242 20182 39680 40175 333 20204 59005;EQDQ01  00002PRCP06
0167832880999992003051218004-13270-043420FM-12+0458SBLP V0201401N000512200019N0200001N1+03151+02161101271ADDAA106000091GF103991021011008001001021MA1999999096391MD1999999-0041REMSYN070AAXX  12184 83288 32598 31401 10315 20216 39639 40127 82102 333 59004;EQDQ01  00002PRCP06
0208832880999992003051300004-13270-043420FM-12+0458SBLP V0201801N000512200019N0020001N1+02421+01841101321ADDAA106000091GA1001+999999999GF100991001001999999001001KA1240M+03351MA1999999096661MD1999999+0031REMSYN082AAXX  13004 83288 32595 01801 10242 20184 39666 40132 333 10335 29065 55103 58003;EQDQ01  00002PRCP06
0186832880999992003051312004-13270-043420FM-12+0458SBLP V0201801N001512200019N0200001N1+02371+01811101641ADDAA106000091GF105991021011008001001041KA1240N+01841MA1999999096711MD1999999-0091REMSYN076AAXX  13124 83288 32598 51803 10237 20181 39671 40164 82104 333 20184 59009;EQDQ01  00002PRCP06
0167832880999992003051318004-13270-043420FM-12+0458SBLP V0201801N001510450019N0200001N1+03091+02431101161ADDAA106000091GF107991021021008001081011MA1999999096271MD1999999-0121REMSYN070AAXX  13184 83288 32598 71803 10309 20243 39627 40116 82281 333 59012;EQDQ01  00002PRCP06
0198832880999992003051400004-13270-043420FM-12+0458SBLP V0201801N001512200019N0020001N1+02391+01961101311ADDAA106000091GF102991021011008001001001KA1240M+03151MA1999999096391MD1999999-0271REMSYN088AAXX  14004 83288 32595 21803 10239 20196 39639 40131 82100 333 10315 29072 55081 59027;EQDQ01  00002PRCP06
0186832880999992003051412004-13270-043420FM-12+0458SBLP V0201801N001512200019N0200001N1+02561+01881101561ADDAA106000091GF102991001001999999001011KA1240N+01821MA1999999096651MD1999999-0061REMSYN076AAXX  14124 83288 32998 21803 10256 20188 39665 40156 80001 333 20182 59006;EQDQ01  00002PRCP06
0167832880999992003051418004-13270-043420FM-12+0458SBLP V0201401N003110120019N0200001N1+03171+01921101151ADDAA106000091GF106991061081008001001001MA1999999096261MD1999999-0011REMSYN070AAXX  14184 83288 32598 61406 10317 20192 39626 40115 86800 333 59001;EQDQ01  00002PRCP06
0198832880999992003051500004-13270-043420FM-12+0458SBLP V0201401N001512200019N0020001N1+02531+01841101381ADDAA106000091GF102991011011008001031001KA1240M+03211MA1999999096491MD1999999+0101REMSYN088AAXX  15004 83288 32595 21403 10253 20184 39649 40138 81130 333 10321 29062 55072 58010;EQDQ01  00002PRCP06
0186832880999992003051512004-13270-043420FM-12+0458SBLP V0201401N001510450019N0200001N1+02571+02131101161ADDAA106000091GF106991041051008001021021KA1240N+02181MA1999999096711MD1999999+0061REMSYN076AAXX  15124 83288 32598 61403 10257 20213 39671 40116 84522 333 20218 58006;EQDQ01  00002PRCP06
0167832880999992003051518004-13270-043420FM-12+0458SBLP V0201401N001510075019N0200001N1+03141+02181101141ADDAA106000091GF106991051051008001021001MA1999999096281MD1999999+0021REMSYN070AAXX  15184 83288 32598 61403 10314 20218 39628 40114 85520 333 58002;EQDQ01  00002PRCP06
0198832880999992003051600004-13270-043420FM-12+0458SBLP V0201401N001012200019N0020001N1+02651+02031101341ADDAA106000091GF102991011011008001001021KA1240M+03191MA1999999096461MD1999999-0031REMSYN088AAXX  16004 83288 32595 21402 10265 20203 39646 40134 81102 333 10319 29068 55041 59003;EQDQ01  00002PRCP06
0186832880999992003051612004-13270-043420FM-12+0458SBLP V0201401N002112200019N0200001N1+02431+01801101601ADDAA106000091GF104991041021008001001001KA1240N+02021MA1999999096701MD1999999-0011REMSYN076AAXX  16124 83288 32598 41404 10243 20180 39670 40160 84200 333 20202 59001;EQDQ01  00002PRCP06
0167832880999992003051618004-13270-043420FM-12+0458SBLP V0201401N002112200019N0200001N1+03111+02131101151ADDAA106000091GF101991011011008001001001MA1999999096291MD1999999+0011REMSYN070AAXX  16184 83288 32598 11404 10311 20213 39629 40115 81100 333 58001;EQDQ01  00002PRCP06
0198832880999992003051700004-13270-043420FM-12+0458SBLP V0201801N001512200019N0020001N1+02331+01821101351ADDAA106000091GF101991011011008001001001KA1240M+03151MA1999999096431MD1999999-0031REMSYN088AAXX  17004 83288 32595 11803 10233 20182 39643 40135 81100 333 10315 29065 55103 59003;EQDQ01  00002PRCP06
0186832880999992003051712004-13270-043420FM-12+0458SBLP V0201801N003112200019N0200001N1+02351+01691101621ADDAA106000091GF103991021011008001001021KA1240N+01701MA1999999096671MD1999999-0031REMSYN076AAXX  17124 83288 32598 31806 10235 20169 39667 40162 82102 333 20170 59003;EQDQ01  00002PRCP06
0167832880999992003051718004-13270-043420FM-12+0458SBLP V0201401N003112200019N0200001N1+02951+01761101041ADDAA106000091GF104991041021008001001001MA1999999096151MD1999999-0141REMSYN070AAXX  17184 83288 32598 41406 10295 20176 39615 40104 84200 333 59014;EQDQ01  00002PRCP06
0208832880999992003051800004-13270-043420FM-12+0458SBLP V0201401N002112200019N0020001N1+02291+01791101391ADDAA106000091GA1001+999999999GF100991001001999999001001KA1240M+03051MA1999999096451MD1999999+0021REMSYN082AAXX  18004 83288 32995 01404 10229 20179 39645 40139 333 10305 29066 55099 58002;EQDQ01  00002PRCP06
0202832880999992003051812004-13270-043420FM-12+0458SBLP V0201801N001512200019N0200001N1+02431+01971101551ADDAA106000091GF102991999011008001001001KA1240N+01811MA1999999096621MD1999999-0051REMSYN076AAXX  18124 83288 32598 21803 10243 20197 39662 40155 81100 333 20181 59005;EQDQ01+000012SCOTLCQ02  00002PRCP06
0167832880999992003051818004-13270-043420FM-12+0458SBLP V0201401N001510075019N0200001N1+02921+02141101281ADDAA106000091GF106991061051008001001001MA1999999096361MD1999999+0211REMSYN070AAXX  18184 83288 32598 61403 10292 20214 39636 40128 86500 333 58021;EQDQ01  00002PRCP06
0214832880999992003051900004-13270-043420FM-12+0458SBLP V0201401N001019999999N0020001N1+02641+02201101271ADDAA106000091GF105991999051008001001001KA1240M+02951MA1999999096381MD1999999-0071REMSYN088AAXX  19004 83288 32595 51402 10264 20220 39638 40127 84500 333 10295 29071 55070 59007;EQDQ01+000042SCOTLCQ02  00002PRCP06
0186832880999992003051912004-13270-043420FM-12+0458SBLP V0201401N002612200019N0200001N1+02431+01891101621ADDAA106000091GF103991011011008001031001KA1240N+01921MA1999999096711MD1999999+0091REMSYN076AAXX  19124 83288 32598 31405 10243 20189 39671 40162 81130 333 20192 58009;EQDQ01  00002PRCP06
0167832880999992003051918004-13270-043420FM-12+0458SBLP V0201401N001510120019N0200001N1+03031+02221101231ADDAA106000091GF105991051081008001001001MA1999999096231MD1999999+0131REMSYN070AAXX  19184 83288 32598 51403 10303 20222 39623 40123 85800 333 58013;EQDQ01  00002PRCP06
0198832880999992003052000004-13270-043420FM-12+0458SBLP V0201401N002112200019N0020001N1+02611+02021101431ADDAA106000091GF103991031081008001001001KA1240M+03111MA1999999096531MD1999999+0151REMSYN088AAXX  20004 83288 32595 31404 10261 20202 39653 40143 83800 333 10311 29068 55047 58015;EQDQ01  00002PRCP06
0196832880999992003052012004-13270-043420FM-12+0458SBLP V0201401N001012200019N0200001N1+02601+01711101571ADDAA106000091GA1001+999999999GF100991001001999999001001KA1240N+02041MA1999999096681MD1999999-0031REMSYN070AAXX  20124 83288 32998 01402 10260 20171 39668 40157 333 20204 59003;EQDQ01  00002PRCP06
0167832880999992003052018004-13270-043420FM-12+0458SBLP V0201401N001512200019N0200001N1+03211+01711101041ADDAA106000091GF103991031021008001001001MA1999999096191MD1999999-0041REMSYN070AAXX  20184 83288 32598 31403 10321 20171 39619 40104 83200 333 59004;EQDQ01  00002PRCP06
0208832880999992003052100004-13270-043420FM-12+0458SBLP V0201801N001012200019N0020001N1+02531+01821101281ADDAA106000091GA1001+999999999GF100991001001999999001001KA1240M+03311MA1999999096391MD1999999-0141REMSYN082AAXX  21004 83288 32595 01802 10253 20182 39639 40128 333 10331 29057 55102 59014;EQDQ01  00002PRCP06
0186832880999992003052112004-13270-043420FM-12+0458SBLP V0201401N000512200019N0200001N1+02571+01981101561ADDAA106000091GF102991001001999999001021KA1240N+01811MA1999999096571MD1999999-0111REMSYN076AAXX  21124 83288 32998 21401 10257 20198 39657 40156 80002 333 20181 59011;EQDQ01  00002PRCP06
0183832880999992003052118004-13270-043420FM-12+0458SBLP V0202301N001012200019N0200001N1+03241+02481100951ADDAA106000091GF103991999011008001001001MA1999999096091MD1999999-0101REMSYN070AAXX  21184 83288 32598 32302 10324 20248 39609 40095 81100 333 59010;EQDQ01+000012SCOTLCQ02  00002PRCP06
0208832880999992003052200004-13270-043420FM-12+0458SBLP V0201801N001012200019N0020001N1+02631+01961101001ADDAA106000091GA1001+999999999GF100991001001999999001001KA1240M+03271MA1999999096151MD1999999-0241REMSYN082AAXX  22004 83288 32595 01802 10263 20196 39615 40100 333 10327 29062 55102 59024;EQDQ01  00002PRCP06
0196832880999992003052212004-13270-043420FM-12+0458SBLP V0200901N001012200019N0200001N1+02591+02001101551ADDAA106000091GA1001+999999999GF100991001001999999001001KA1240N+01821MA1999999096661MD1999999+0091REMSYN070AAXX  22124 83288 32998 00902 10259 20200 39666 40155 333 20182 58009;EQDQ01  00002PRCP06
0167832880999992003052218004-13270-043420FM-12+0458SBLP V0202301N001512200019N0200001N1+03281+02531100991ADDAA106000091GF103991031021008001001001MA1999999096131MD1999999+0041REMSYN070AAXX  22184 83288 32598 32303 10328 20253 39613 40099 83200 333 58004;EQDQ01  00002PRCP06
0208832880999992003052300004-13270-043420FM-12+0458SBLP V0201801N001512200019N0020001N1+02651+02171101221ADDAA106000091GA1001+999999999GF100991001001999999001001KA1240M+03431MA1999999096351MD1999999+0201REMSYN082AAXX  23004 83288 32995 01803 10265 20217 39635 40122 333 10343 29070 55101 58020;EQDQ01  00002PRCP06
0196832880999992003052312004-13270-043420FM-12+0458SBLP V0209999C000012200019N0200001N1+02511+01891101341ADDAA106000091GA1001+999999999GF100991001001999999001001KA1240N+01901MA1999999096461MD1999999-0201REMSYN070AAXX  23124 83288 32998 00000 10251 20189 39646 40134 333 20190 59020;EQDQ01  00002PRCP06
0167832880999992003052318004-13270-043420FM-12+0458SBLP V0202701N001012200019N0200001N1+03421+02231100831ADDAA106000091GF101991011011008001001001MA1999999096021MD1999999-0111REMSYN070AAXX  23184 83288 32598 12702 10342 20223 39602 40083 81100 333 59011;EQDQ01  00002PRCP06
0208832880999992003052400004-13270-043420FM-12+0458SBLP V0209999C000012200019N0020001N1+02711+02331101061ADDAA106000091GA1001+999999999GF100991001001999999001001KA1240M+03511MA1999999096191MD1999999-0161REMSYN082AAXX  24004 83288 32995 00000 10271 20233 39619 40106 333 10351 29070 55104 59016;EQDQ01  00002PRCP06
0196832880999992003052412004-13270-043420FM-12+0458SBLP V0202301N000512200019N0200001N1+02461+02191101171ADDAA106000091GA1001+999999999GF100991001001999999001001KA1240N+02031MA1999999096301MD1999999-0161REMSYN070AAXX  24124 83288 32598 02301 10246 20219 39630 40117 333 20203 59016;EQDQ01  00002PRCP06
0183832880999992003052418004-13270-043420FM-12+0458SBLP V0201801N000512200019N0200001N1+03511+02631100491ADDAA106000091GF102991999011008001001001MA1999999095721MD1999999-0301REMSYN070AAXX  24184 83288 32598 21801 10351 20263 39572 40049 81100 333 59030;EQDQ01+000012SCOTLCQ02  00002PRCP06
0239832880999992003052500004-13270-043420FM-12+0458SBLP V0202701N001512200019N0020001N1+02781+02301100671ADDAA106000091GF102991999011008001001001KA1240M+03551MA1999999095831MD1999999-0361ME1101009REMSYN088AAXX  25004 83288 32595 22703 10278 20230 39583 41100 81100 333 10355 29074 55103 59036;EQDQ01+000012SCOTLCQ02+999990APOSLPQ03  00002PRCP06
0186832880999992003052512004-13270-043420FM-12+0458SBLP V0202701N001012200019N0200001N1+02531+01971101201ADDAA106000091GF102991021011008001001001KA1240N+01861MA1999999096311MD1999999+0011REMSYN076AAXX  25124 83288 32598 22702 10253 20197 39631 40120 82100 333 20186 58001;EQDQ01  00002PRCP06
0167832880999992003052518004-13270-043420FM-12+0458SBLP V0201401N001012200019N0200001N1+03441+02251100731ADDAA106000091GF103991031011008001001001MA1999999095881MD1999999+0161REMSYN070AAXX  25184 83288 32598 31402 10344 20225 39588 40073 83100 333 58016;EQDQ01  00002PRCP06
0198832880999992003052600004-13270-043420FM-12+0458SBLP V0201801N001512200019N0020001N1+02791+02171100991ADDAA106000091GF101991011011008001001001KA1240M+03511MA1999999096141MD1999999+0311REMSYN088AAXX  26004 83288 32595 11803 10279 20217 39614 40099 81100 333 10351 29063 55103 58031;EQDQ01  00002PRCP06
0186832880999992003052612004-13270-043420FM-12+0458SBLP V0203201N001011050019N0200001N1+02661+02071101241ADDAA106000091GF106991011011008001041061KA1240N+02221MA1999999096381MD1999999+0071REMSYN076AAXX  26124 83288 32598 63202 10266 20207 39638 40124 81146 333 20222 58007;EQDQ01  00002PRCP06
0167832880999992003052618004-13270-043420FM-12+0458SBLP V0203201N000510450019N0200001N1+03341+02281100811ADDAA106000091GF107991021081008001031061MA1999999096021MD1999999+0141REMSYN070AAXX  26184 83288 32598 73201 10334 20228 39602 40081 82836 333 58014;EQDQ01  00002PRCP06
0208832880999992003052700004-13270-043420FM-12+0458SBLP V0200501N000512200019N0020001N1+02711+02111101081ADDAA106000091GA1001+999999999GF100991001001999999001001KA1240M+03411MA1999999096231MD1999999+0091REMSYN082AAXX  27004 83288 32995 00501 10271 20211 39623 40108 333 10341 29066 55060 58009;EQDQ01  00002PRCP06
0186832880999992003052712004-13270-043420FM-12+0458SBLP V0201401N001010450019N0200001N1+02561+02181101151ADDAA106000091GF105991041051008001021021KA1240N+02161MA1999999096551MD1999999+0171REMSYN076AAXX  27124 83288 32598 51402 10256 20218 39655 40115 84522 333 20216 58017;EQDQ01  00002PRCP06
0171832880999992003052718004-13270-043420FM-12+0458SBLP V0202701N001010450019N0200001N1+02441+02321101231ADDAY161061AY211061GF106991031051008001021001MA1999999096331MD1999999+0311MW1031REMSYN082AAXX  27184 83288 21598 62702 10244 20232 39633 40123 70361 83520 333 58031 60191;
0198832880999992003052800004-13270-043420FM-12+0458SBLP V0202701N001510075019N0020001N1+02481+02271101411ADDAA106000091GF108991061051008001021999KA1240M+03031MA1999999096511MD1999999+0281REMSYN088AAXX  28004 83288 32595 82703 10248 20227 39651 40141 8652/ 333 10303 29088 55013 58028;EQDQ01  00002PRCP06
0162832880999992003052812004-13270-043420FM-12+0458SBLP V0200901N001010450019N0200001N1+02311+02101101711ADDGF106991011011008001071051KA1240N+02081MA1999999096771MD1999999+0171REMSYN082AAXX  28124 83288 22598 60902 10231 20210 39677 40171 81175 333 20208 58017 60194;
0167832880999992003052818004-13270-043420FM-12+0458SBLP V0200901N000510075019N0200001N1+03051+02071101161ADDAA106000091GF108991051021008001001051MA1999999096301MD1999999-0031REMSYN070AAXX  28184 83288 32598 80901 10305 20207 39630 40116 85205 333 59003;EQDQ01  00002PRCP06
0198832880999992003052900004-13270-043420FM-12+0458SBLP V0200901N001010075019N0020001N1+02451+01911101481ADDAA106000091GF108991061051008001021999KA1240M+03131MA1999999096551MD1999999+0041REMSYN088AAXX  29004 83288 32595 80902 10245 20191 39655 40148 8652/ 333 10313 29072 55041 58004;EQDQ01  00002PRCP06
0162832880999992003052912004-13270-043420FM-12+0458SBLP V0201801N003110450019N0200001N1+02391+01911101641ADDGF108991021081008001071999KA1240N+02141MA1999999096711MD1999999-0061REMSYN082AAXX  29124 83288 22598 81806 10239 20191 39671 40164 8287/ 333 20214 59006 69944;
0167832880999992003052918004-13270-043420FM-12+0458SBLP V0202301N002110450019N0200001N1+03031+01991101151ADDAA106000091GF107991031081008001031091MA1999999096291MD1999999-0011REMSYN070AAXX  29184 83288 32598 72304 10303 20199 39629 40115 83839 333 59001;EQDQ01  00002PRCP06
0198832880999992003053000004-13270-043420FM-12+0458SBLP V0200901N001010450019N0020001N1+02561+01621101441ADDAA106000091GF108991041081008001021021KA1240M+03111MA1999999096531MD1999999-0021REMSYN088AAXX  30004 83288 32595 80902 10256 20162 39653 40144 84822 333 10311 29060 55014 59002;EQDQ01  00002PRCP06
0186832880999992003053012004-13270-043420FM-12+0458SBLP V0201401N001512200019N0200001N1+02391+01661101711ADDAA106000091GF102991011011008001001021KA1240N+01891MA1999999096731MD1999999+0021REMSYN076AAXX  30124 83288 32598 21403 10239 20166 39673 40171 81102 333 20189 58002;EQDQ01  00002PRCP06
0091832880999992003053014004-13270-043420FM-15+0458SBLP V0201801N00211220001CN0099001N1+02901+01301999999ADDMA1101901999999MW1001REMMET039SBLP 301400Z 18004KT CAVOK 29/13 Q1019;EQDQ01+000000PRSWM2
0091832880999992003053015004-13270-043420FM-15+0458SBLP V0202101N00211220001CN0099001N1+03101+01301999999ADDMA1101801999999MW1001REMMET039SBLP 301500Z 21004KT CAVOK 31/13 Q1018;EQDQ01+000000PRSWM2
0091832880999992003053016004-13270-043420FM-15+0458SBLP V0202501N00211220001CN0099001N1+03201+01201999999ADDMA1101691999999MW1001REMMET039SBLP 301600Z 25004KT CAVOK 32/12 Q1017;EQDQ01+000000PRSWM2
0091832880999992003053017004-13270-043420FM-15+0458SBLP V0202401N00311220001CN0099001N1+03201+01101999999ADDMA1101591999999MW1001REMMET039SBLP 301700Z 24006KT CAVOK 32/11 Q1016;EQDQ01+000000PRSWM2
0250832880999992003053018004-13270-043420SY-MT+0458SBLP V0203601N001010450019N0200001N1+03171+02282101111ADDAA106000091GF106991031011008001031021MA1101491096271MD1999999-0021MW1001REMSYN070AAXX  30184 83288 32598 63602 10317 20228 39627 40111 83132 333 59002;MET039SBLP 301800Z 18003KT CAVOK 33/13 Q1015;EQDQ01+002283ATOD  Q02+000000PRSWM2Q03  00002PRCP06
0208832880999992003053100004-13270-043420FM-12+0458SBLP V0201401N001512200019N0020001N1+02481+02011101251ADDAA106000091GA1001+999999999GF100991001001999999001001KA1240M+03251MA1999999096351MD1999999-0381REMSYN082AAXX  31004 83288 32995 01403 10248 20201 39635 40125 333 10325 29066 55092 59038;EQDQ01  00002PRCP06
0186832880999992003053112004-13270-043420FM-12+0458SBLP V0201801N001019999999N0200001N1+02311+01951101701ADDAA106000091GF106991001001999999001081KA1240N+01861MA1999999096761MD1999999+0031REMSYN076AAXX  31124 83288 32998 61802 10231 20195 39676 40170 80008 333 20186 58003;EQDQ01  00002PRCP06
0167832880999992003053118004-13270-043420FM-12+0458SBLP V0201401N001011050019N0200001N1+03031+02221101281ADDAA106000091GF106991041081008001001051MA1999999096391MD1999999+0121REMSYN070AAXX  31184 83288 32598 61402 10303 20222 39639 40128 84805 333 58012;EQDQ01  00002PRCP06
0198832880999992003060100004-13270-043420FM-12+0458SBLP V0200901N001512200019N0020001N1+02531+01921101621ADDAA106000091GF104991041081008001001001KA1240M+03131MA1999999096691MD1999999+0341REMSYN088AAXX  01004 83288 32595 40903 10253 20192 39669 40162 84800 333 10313 29070 55069 58034;EQDQ01  00002PRCP06
0186832880999992003060112004-13270-043420FM-12+0458SBLP V0201401N001512200019N0200001N1+02531+01711101631ADDAA106000091GF105991021081008001001061KA1240N+02081MA1999999096731MD1999999-0031REMSYN076AAXX  01124 83288 32598 51403 10253 20171 39673 40163 82806 333 20208 59003;EQDQ01  00002PRCP06
0167832880999992003060118004-13270-043420FM-12+0458SBLP V0201401N001510450019N0200001N1+03051+01881101211ADDAA106000091GF107991041081008001071051MA1999999096351MD1999999-0041REMSYN070AAXX  01184 83288 32598 71403 10305 20188 39635 40121 84875 333 59004;EQDQ01  00002PRCP06
0198832880999992003060200004-13270-043420FM-12+0458SBLP V0200901N001512200019N0020001N1+02551+01861101481ADDAA106000091GF102991001001999999001021KA1240M+03111MA1999999096581MD1999999-0111REMSYN088AAXX  02004 83288 32995 20903 10255 20186 39658 40148 80002 333 10311 29060 55025 59011;EQDQ01  00002PRCP06
0167832880999992003060218004-13270-043420FM-12+0458SBLP V0201401N001512200019N0200001N1+03181+02361101021ADDAA106000091GF104991021021008001021001MA1999999096171MD1999999-0181REMSYN070AAXX  02184 83288 32598 41403 10318 20236 39617 40102 82220 333 59018;EQDQ01  00002PRCP06
0139832880999992003060309004-13270-043420FM-15+0458SBLP V0209999C000012200019N0112651N1+02201+02001999999ADDGA1021+006009999GF102991999999999999999999MA1101591999999MW1001REMMET045SBLP 030900Z 00000KT 9999 FEW020 22/20 Q1016;EQDQ01+000000PRSWM2
0139832880999992003060310004-13270-043420FM-15+0458SBLP V0209999C000012200019N0112651N1+02101+01901999999ADDGA1021+007509999GF102991999999999999999999MA1101691999999MW1001REMMET045SBLP 031000Z 00000KT 9999 FEW025 21/19 Q1017;EQDQ01+000000PRSWM2
0081832880999992003060311004-13270-043420FM-15+0458SBLP V0209999C000012200019N0112651N1+99999+99999999999ADDMW1001REMMET044SBLP 031100Z 00000KT 9999 CAVOK 24/19 Q1018;EQDQ01+000000PRSWM2
0162832880999992003060312004-13270-043420FM-12+0458SBLP V0200901N001012200019N0200001N1+02591+02071101541ADDGF102991001001999999001021KA1240N+02081MA1999999096631MD1999999-0071REMSYN082AAXX  03124 83288 22998 20902 10259 20207 39663 40154 80002 333 20208 59007 69964;
0139832880999992003060316004-13270-043420FM-15+0458SBLP V0201801N003112200019N0112651N1+03301+01801999999ADDGA1041+009009999GF104991999999999999999999MA1101491999999MW1001REMMET045SBLP 031600Z 18006KT 9999 SCT030 33/18 Q1015;EQDQ01+000000PRSWM2
0139832880999992003060317004-13270-043420FM-15+0458SBLP V0202801N001010090019N0112651N1+03301+01801999999ADDGA1071+009009999GF107991999999999999999999MA1101391999999MW1001REMMET045SBLP 031700Z 28002KT 9999 BKN030 33/18 Q1014;EQDQ01+000000PRSWM2
0256832880999992003060318004-13270-043420SY-MT+0458SBLP V0201801N001010090019N0200001N1+03151+02191101021ADDAA106000091GA1071+009009999GF106991061081008001001001MA1101291096171MD1999999+0001MW1001REMSYN070AAXX  03184 83288 32598 61802 10315 20219 39617 40102 86800 333 58000;MET045SBLP 031800Z 21003KT 9999 BKN030 32/19 Q1013;EQDQ01+000000PRSWM2Q02  00002PRCP06
0162832880999992003060319004-13270-043420FM-15+0458SBLP V0202101N003110300019N0112651N1+03201+01901999999ADDGA1041+009009999GA2071+030009999GF107991999999999999999999MA1101291999999MW1001REMMET052SBLP 031900Z 21006KT 9999 SCT030 BKN100 32/19 Q1013;EQDQ01+000000PRSWM2
0162832880999992003060320004-13270-043420FM-15+0458SBLP V0209999C000012200019N0112651N1+03101+02001999999ADDGA1021+009009999GA2041+030009999GF104991999999999999999999MA1101291999999MW1001REMMET052SBLP 032000Z 00000KT 9999 FEW030 SCT100 31/20 Q1013;EQDQ01+000000PRSWM2
0208832880999992003060400004-13270-043420FM-12+0458SBLP V0200901N001512200019N0020001N1+02611+02021101201ADDAA106000091GA1001+999999999GF100991001001999999001001KA1240M+03251MA1999999096331MD1999999+0081REMSYN082AAXX  04004 83288 32995 00903 10261 20202 39633 40120 333 10325 29067 55074 58008;EQDQ01  00002PRCP06
0247832880999992003060412004-13270-043420SY-MT+0458SBLP V0200901N00051220001CN0200001N1+02571+02091101471ADDAA106000091GF100991001001999999001001KA1240N+01841MA1101801096581MD1999999-0051MW1001REMSYN070AAXX  04124 83288 32998 00901 10257 20209 39658 40147 333 20184 59005;MET039SBLP 041200Z 11003KT CAVOK 27/18 Q1018;EQDQ01+000000PRSWM2Q02  00002PRCP06
0091832880999992003060413004-13270-043420FM-15+0458SBLP V0201501N00311220001CN0099001N1+02901+01701999999ADDMA1101801999999MW1001REMMET039SBLP 041300Z 15006KT CAVOK 29/17 Q1018;EQDQ01+000000PRSWM2
0167832880999992003060418004-13270-043420FM-12+0458SBLP V0202301N000512200019N0200001N1+03241+01961100971ADDAA106000091GF103991031021008001001001MA1999999096121MD1999999-0051REMSYN070AAXX  04184 83288 32598 32301 10324 20196 39612 40097 83200 333 59005;EQDQ01  00002PRCP06
0208832880999992003060500004-13270-043420FM-12+0458SBLP V0201401N000512200019N0020001N1+02591+01901101171ADDAA106000091GA1001+999999999GF100991001001999999001001KA1240M+03351MA1999999096301MD1999999-0031REMSYN082AAXX  05004 83288 32995 01401 10259 20190 39630 40117 333 10335 29061 55099 59003;EQDQ01  00002PRCP06
0186832880999992003060512004-13270-043420FM-12+0458SBLP V0201401N000512200019N0200001N1+02451+02091101511ADDAA106000091GF103991031011008001001041KA1240N+02001MA1999999096601MD1999999+0021REMSYN076AAXX  05124 83288 32598 31401 10245 20209 39660 40151 83104 333 20200 58002;EQDQ01  00002PRCP06
0167832880999992003060518004-13270-043420FM-12+0458SBLP V0202301N000511050019N0200001N1+03241+02311101041ADDAA106000091GF106991041081008001001021MA1999999096201MD1999999+0081REMSYN070AAXX  05184 83288 32598 62301 10324 20231 39620 40104 84802 333 58008;EQDQ01  00002PRCP06
0198832880999992003060600004-13270-043420FM-12+0458SBLP V0201401N001010450019N0020001N1+02751+02051101181ADDAA106000091GF105991031011008001021001KA1240M+03341MA1999999096311MD1999999+0011REMSYN088AAXX  06004 83288 32595 51402 10275 20205 39631 40118 83120 333 10334 29068 55085 58001;EQDQ01  00002PRCP06
0196832880999992003060612004-13270-043420FM-12+0458SBLP V0201401N001012200019N0200001N1+02451+01931101511ADDAA106000091GA1001+999999999GF100991001001999999001001KA1240N+01921MA1999999096621MD1999999+0021REMSYN070AAXX  06124 83288 32998 01402 10245 20193 39662 40151 333 20192 58002;EQDQ01  00002PRCP06
0167832880999992003060618004-13270-043420FM-12+0458SBLP V0201801N001512200019N0200001N1+03191+02261101021ADDAA106000091GF104991041021008001001001MA1999999096151MD1999999-0051REMSYN070AAXX  06184 83288 32598 41803 10319 20226 39615 40102 84200 333 59005;EQDQ01  00002PRCP06
0198832880999992003060700004-13270-043420FM-12+0458SBLP V0201401N001512200019N0020001N1+02531+02011101391ADDAA106000091GF104991041021008001001001KA1240M+03291MA1999999096491MD1999999+0181REMSYN088AAXX  07004 83288 32595 41403 10253 20201 39649 40139 84200 333 10329 29068 55085 58018;EQDQ01  00002PRCP06
0196832880999992003060712004-13270-043420FM-12+0458SBLP V0201801N000512200019N0200001N1+02341+01871101591ADDAA106000091GA1001+999999999GF100991001001999999001001KA1240N+01841MA1999999096661MD1999999+0051REMSYN070AAXX  07124 83288 32998 01801 10234 20187 39666 40159 333 20184 58005;EQDQ01  00002PRCP06
0167832880999992003060718004-13270-043420FM-12+0458SBLP V0202301N001512200019N0200001N1+03191+01801101141ADDAA106000091GF102991021011008001001001MA1999999096191MD1999999+0041REMSYN070AAXX  07184 83288 32598 22303 10319 20180 39619 40114 82100 333 58004;EQDQ01  00002PRCP06
0208832880999992003060800004-13270-043420FM-12+0458SBLP V0201401N001512200019N0500001N1+02471+01521101281ADDAA106000091GA1001+999999999GF100991001001999999001001KA1240M+03231MA1999999096361MD1999999-0131REMSYN082AAXX  08004 83288 33299 01403 10247 20152 39636 40128 333 10323 29058 55101 59013;EQDQ01  00002PRCP06
0196832880999992003060812004-13270-043420FM-12+0458SBLP V0201401N000512200019N0200001N1+02291+01961101641ADDAA106000091GA1001+999999999GF100991001001999999001001KA1240N+01791MA1999999096681MD1999999+0021REMSYN070AAXX  08124 83288 32998 01401 10229 20196 39668 40164 333 20179 58002;EQDQ01  00002PRCP06
0183832880999992003060818004-13270-043420FM-12+0458SBLP V0201401N001512200019N0200001N1+03141+01971101111ADDAA106000091GF102991999011008001001001MA1999999096261MD1999999+0071REMSYN070AAXX  08184 83288 32598 21403 10314 20197 39626 40111 81100 333 58007;EQDQ01+000012SCOTLCQ02  00002PRCP06
0208832880999992003060900004-13270-043420FM-12+0458SBLP V0201401N001512200019N0020001N1+02471+01611101301ADDAA106000091GA1001+999999999GF100991001001999999001001KA1240M+03241MA1999999096381MD1999999+0021REMSYN082AAXX  09004 83288 32995 01403 10247 20161 39638 40130 333 10324 29064 55104 58002;EQDQ01  00002PRCP06
0186832880999992003060912004-13270-043420FM-12+0458SBLP V0201801N002112200019N0200001N1+02551+02111101631ADDAA106000091GF101991011011008001001001KA1240N+01941MA1999999096721MD1999999+0041REMSYN076AAXX  09124 83288 32598 11804 10255 20211 39672 40163 81100 333 20194 58004;EQDQ01  00002PRCP06
0167832880999992003060918004-13270-043420FM-12+0458SBLP V0200901N001510120019N0200001N1+03011+02171101181ADDAA106000091GF105991051081008001001001MA1999999096291MD1999999+0031REMSYN070AAXX  09184 83288 32598 50903 10301 20217 39629 40118 85800 333 58003;EQDQ01  00002PRCP06
0198832880999992003061000004-13270-043420FM-12+0458SBLP V0200901N001512200019N0020001N1+02491+01951101481ADDAA106000091GF103991011011008001041001KA1240M+03111MA1999999096571MD1999999+0191REMSYN088AAXX  10004 83288 32595 30903 10249 20195 39657 40148 81140 333 10311 29068 55091 58019;EQDQ01  00002PRCP06
0196832880999992003061012004-13270-043420FM-12+0458SBLP V0201401N002112200019N0200001N1+02331+01561101791ADDAA106000091GA1001+999999999GF100991001001999999001001KA1240N+01801MA1999999096851MD1999999+0131REMSYN070AAXX  10124 83288 32998 01404 10233 20156 39685 40179 333 20180 58013;EQDQ01  00002PRCP06
0167832880999992003061018004-13270-043420FM-12+0458SBLP V0200501N001512200019N0200001N1+03011+01751101191ADDAA106000091GF102991021011008001001001MA1999999096311MD1999999+0021REMSYN070AAXX  10184 83288 32598 20503 10301 20175 39631 40119 82100 333 58002;EQDQ01  00002PRCP06
0208832880999992003061100004-13270-043420FM-12+0458SBLP V0201401N001012200019N0020001N1+02471+01781101401ADDAA106000091GA1001+999999999GF100991001001999999001001KA1240M+03171MA1999999096481MD1999999+0091REMSYN082AAXX  11004 83288 32995 01402 10247 20178 39648 40140 333 10317 29059 55099 58009;EQDQ01  00002PRCP06
0091832880999992003061109004-13270-043420FM-15+0458SBLP V0209999C00001220001CN0099001N1+01901+01701999999ADDMA1101801999999MW1001REMMET039SBLP 110900Z 00000KT CAVOK 19/17 Q1018;EQDQ01+000000PRSWM2
0091832880999992003061110004-13270-043420FM-15+0458SBLP V0209999C00001220001CN0099001N1+02101+01701999999ADDMA1101801999999MW1001REMMET039SBLP 111000Z 00000KT CAVOK 21/17 Q1018;EQDQ01+000000PRSWM2
0091832880999992003061111004-13270-043420FM-15+0458SBLP V0209999C00001220001CN0099001N1+02301+01601999999ADDMA1101901999999MW1001REMMET039SBLP 111100Z 00000KT CAVOK 23/16 Q1019;EQDQ01+000000PRSWM2
0186832880999992003061112004-13270-043420FM-12+0458SBLP V0201801N001012200019N0200001N1+02331+01801101651ADDAA106000091GF103991001001999999001051KA1240N+01821MA1999999096721MD1999999-0131REMSYN076AAXX  11124 83288 32998 31802 10233 20180 39672 40165 80005 333 20182 59013;EQDQ01  00002PRCP06
0091832880999992003061113004-13270-043420FM-15+0458SBLP V0200901N00151220001CN0099001N1+02701+01601999999ADDMA1101901999999MW1001REMMET039SBLP 111300Z 09003KT CAVOK 27/16 Q1019;EQDQ01+000000PRSWM2
0167832880999992003061118004-13270-043420FM-12+0458SBLP V0201801N001012200019N0200001N1+03171+02181101021ADDAA106000091GF104991041021008001001001MA1999999096151MD1999999-0161REMSYN070AAXX  11184 83288 32598 41802 10317 20218 39615 40102 84200 333 59016;EQDQ01  00002PRCP06
0198832880999992003061200004-13270-043420FM-12+0458SBLP V0201801N001510075019N0020001N1+02611+02021101391ADDAA106000091GF105991051021008001001001KA1240M+03311MA1999999096491MD1999999+0011REMSYN088AAXX  12004 83288 32595 51803 10261 20202 39649 40139 85200 333 10331 29066 55093 58001;EQDQ01  00002PRCP06
0091832880999992003061209004-13270-043420FM-15+0458SBLP V0209999C00001220001CN0099001N1+01801+01601999999ADDMA1101491999999MW1001REMMET039SBLP 120900Z 00000KT CAVOK 18/16 Q1015;EQDQ01+000000PRSWM2
0091832880999992003061210004-13270-043420FM-15+0458SBLP V0202101N00151220001CN0099001N1+01801+01501999999ADDMA1101591999999MW1001REMMET039SBLP 121000Z 21003KT CAVOK 18/15 Q1016;EQDQ01+000000PRSWM2
0091832880999992003061211004-13270-043420FM-15+0458SBLP V0201501N00151220001CN0099001N1+02001+01701999999ADDMA1101691999999MW1001REMMET039SBLP 121100Z 15003KT CAVOK 20/17 Q1017;EQDQ01+000000PRSWM2
0253832880999992003061212004-13270-043420SY-MT+0458SBLP V0201801N001012200019N0200001N1+02431+01891101411ADDAA106000091GF103991001001999999001041KA1240N+01801MA1101691096511MD1999999-0211MW1001REMSYN076AAXX  12124 83288 32998 31802 10243 20189 39651 40141 80004 333 20180 59021;MET039SBLP 121200Z 27003KT CAVOK 25/17 Q1017;EQDQ01+000000PRSWM2Q02  00002PRCP06
0167832880999992003061218004-13270-043420FM-12+0458SBLP V0202701N001512200019N0200001N1+03291+01941100901ADDAA106000091GF104991031021008001001021MA1999999096051MD1999999-0101REMSYN070AAXX  12184 83288 32598 42703 10329 20194 39605 40090 83202 333 59010;EQDQ01  00002PRCP06
0198832880999992003061300004-13270-043420FM-12+0458SBLP V0201801N001512200019N0020001N1+02631+01621101151ADDAA106000091GF102991021011008001001001KA1240M+03371MA1999999096261MD1999999-0231REMSYN088AAXX  13004 83288 32595 21803 10263 20162 39626 40115 82100 333 10337 29057 55094 59023;EQDQ01  00002PRCP06
0196832880999992003061312004-13270-043420FM-12+0458SBLP V0202301N000512200019N0200001N1+02431+01721101291ADDAA106000091GA1001+999999999GF100991001001999999001001KA1240N+01801MA1999999096401MD1999999-0111REMSYN070AAXX  13124 83288 32998 02301 10243 20172 39640 40129 333 20180 59011;EQDQ01  00002PRCP06
0177832880999992003061318004-13270-043420FM-12+0458SBLP V0201801N001512200019N0200001N1+03421+01201100761ADDAA106000091GA1001+999999999GF100991001001999999001001MA1999999095941MD1999999-0111REMSYN064AAXX  13184 83288 32998 01803 10342 20120 39594 40076 333 59011;EQDQ01  00002PRCP06
0208832880999992003061400004-13270-043420FM-12+0458SBLP V0201401N001512200019N0020001N1+02431+01101101141ADDAA106000091GA1001+999999999GF100991001001999999001001KA1240M+03511MA1999999096241MD1999999-0021REMSYN082AAXX  14004 83288 32995 01403 10243 20110 39624 40114 333 10351 29044 55102 59002;EQDQ01  00002PRCP06
0196832880999992003061412004-13270-043420FM-12+0458SBLP V0201401N000512200019N0200001N1+02141+01741101581ADDAA106000091GA1001+999999999GF100991001001999999001001KA1240N+01601MA1999999096631MD1999999-0271REMSYN070AAXX  14124 83288 32898 01401 10214 20174 39663 40158 333 20160 59027;EQDQ01  00002PRCP06
0177832880999992003061418004-13270-043420FM-12+0458SBLP V0202701N000512200019N0200001N1+03191+01531101131ADDAA106000091GA1001+999999999GF100991001001999999001001MA1999999096271MD1999999+0231REMSYN064AAXX  14184 83288 32998 02701 10319 20153 39627 40113 333 58023;EQDQ01  00002PRCP06
0196832880999992003061512004-13270-043420FM-12+0458SBLP V0201401N001012200019N0200001N1+02371+01831101641ADDAA106000091GA1001+999999999GF100991001001999999001001KA1240N+01681MA1999999096721MD1999999+0091REMSYN070AAXX  15124 83288 32998 01402 10237 20183 39672 40164 333 20168 58009;EQDQ01  00002PRCP06
0167832880999992003061518004-13270-043420FM-12+0458SBLP V0201401N000512200019N0200001N1+03211+02161101201ADDAA106000091GF102991011011008001001021MA1999999096331MD1999999-0061REMSYN070AAXX  15184 83288 32598 21401 10321 20216 39633 40120 81102 333 59006;EQDQ01  00002PRCP06
0196832880999992003061612004-13270-043420FM-12+0458SBLP V0201401N001012200019N0200001N1+02271+01501101601ADDAA106000091GA1001+999999999GF100991001001999999001001KA1240N+01601MA1999999096671MD1999999-0051REMSYN070AAXX  16124 83288 32998 01402 10227 20150 39667 40160 333 20160 59005;EQDQ01  00002PRCP06
0091832880999992003061615004-13270-043420FM-15+0458SBLP V0209999C00001220001CN0099001N1+03001+01201999999ADDMA1101691999999MW1001REMMET039SBLP 161500Z 00000KT CAVOK 30/12 Q1017;EQDQ01+000000PRSWM2
0167832880999992003061618004-13270-043420FM-12+0458SBLP V0202301N001012200019N0200001N1+03211+01711101141ADDAA106000091GF103991001001999999001011MA1999999096251MD1999999-0081REMSYN070AAXX  16184 83288 32998 32302 10321 20171 39625 40114 80001 333 59008;EQDQ01  00002PRCP06
0208832880999992003061700004-13270-043420FM-12+0458SBLP V0201801N001512200019N0020001N1+02311+01191101141ADDAA106000091GA1001+999999999GF100991001001999999001001KA1240M+03291MA1999999096371MD1999999+0161REMSYN082AAXX  17004 83288 32995 01803 10231 20119 39637 40114 333 10329 29050 55102 58016;EQDQ01  00002PRCP06
0196832880999992003061712004-13270-043420FM-12+0458SBLP V0201801N001512200019N0200001N1+02181+01671101601ADDAA106000091GA1001+999999999GF100991001001999999001001KA1240N+01591MA1999999096641MD1999999-0031REMSYN070AAXX  17124 83288 32998 01803 10218 20167 39664 40160 333 20159 59003;EQDQ01  00002PRCP06
0091832880999992003061715004-13270-043420FM-15+0458SBLP V0209999C00001220001CN0099001N1+03001+01301999999ADDMA1101691999999MW1001REMMET039SBLP 171500Z 00000KT CAVOK 30/13 Q1017;EQDQ01+000000PRSWM2
0199832880999992003061718004-13270-043420FM-12+0458SBLP V0202301N001012200019N0200001N1+02971+02402101171ADDAA106000091GF102991999021008001001001MA1999999096261MD1999999+0011REMSYN070AAXX  17184 83288 32598 22302 10297 20240 39626 40117 81200 333 58001;EQDQ01+000012SCOTLCQ02+002403ATOD  Q03  00002PRCP06
0208832880999992003061800004-13270-043420FM-12+0458SBLP V0201801N001512200019N0020001N1+02531+02071101191ADDAA106000091GA1001+999999999GF100991001001999999001001KA1240M+03221MA1999999096271MD1999999-0101REMSYN082AAXX  18004 83288 32995 01803 10253 20207 39627 40119 333 10322 29074 55103 59010;EQDQ01  00002PRCP06
0196832880999992003061812004-13270-043420FM-12+0458SBLP V0201801N001512200019N0200001N1+02231+01701101581ADDAA106000091GA1001+999999999GF100991001001999999001001KA1240N+01601MA1999999096651MD1999999+0011REMSYN070AAXX  18124 83288 32998 01803 10223 20170 39665 40158 333 20160 58001;EQDQ01  00002PRCP06
0139832880999992003061816004-13270-043420FM-15+0458SBLP V0202701N004112200019N0112651N1+03101+01401999999ADDGA1021+009009999GF102991999999999999999999MA1101591999999MW1001REMMET045SBLP 181600Z 27008KT 9999 FEW030 31/14 Q1016;EQDQ01+000000PRSWM2
0091832880999992003061817004-13270-043420FM-15+0458SBLP V0202101N00411220001CN0099001N1+03101+01401999999ADDMA1101491999999MW1001REMMET039SBLP 181700Z 21008KT CAVOK 31/14 Q1015;EQDQ01+000000PRSWM2
0167832880999992003061818004-13270-043420FM-12+0458SBLP V0202301N001512200019N0200001N1+03101+01811101181ADDAA106000091GF103991031011008001001001MA1999999096291MD1999999+0031REMSYN070AAXX  18184 83288 32598 32303 10310 20181 39629 40118 83100 333 58003;EQDQ01  00002PRCP06
0208832880999992003061900004-13270-043420FM-12+0458SBLP V0201801N001012200019N0020001N1+02431+01781101331ADDAA106000091GA1001+999999999GF100991001001999999001001KA1240M+03151MA1999999096391MD1999999+0121REMSYN082AAXX  19004 83288 32995 01802 10243 20178 39639 40133 333 10315 29062 55101 58012;EQDQ01  00002PRCP06
0196832880999992003061912004-13270-043420FM-12+0458SBLP V0209999C000012200019N0200001N1+02291+01541101571ADDAA106000091GA1001+999999999GF100991001001999999001001KA1240N+01711MA1999999096631MD1999999+0341REMSYN070AAXX  19124 83288 32998 00000 10229 20154 39663 40157 333 20171 58034;EQDQ01  00002PRCP06
0167832880999992003061918004-13270-043420FM-12+0458SBLP V0202301N002112200019N0200001N1+03221+01651101101ADDAA106000091GF101991011011008001001001MA1999999096221MD1999999-0091REMSYN070AAXX  19184 83288 32598 12304 10322 20165 39622 40110 81100 333 59009;EQDQ01  00002PRCP06
0186832880999992003062012004-13270-043420FM-12+0458SBLP V0202301N000512200019N0200001N1+02351+01851101541ADDAA106000091GF102991021011008001001041KA1240N+02051MA1999999096621MD1999999-0011REMSYN076AAXX  20124 83288 32598 22301 10235 20185 39662 40154 82104 333 20205 59001;EQDQ01  00002PRCP06
0167832880999992003062018004-13270-043420FM-12+0458SBLP V0202701N001011050019N0200001N1+03221+02171101011ADDAA106000091GF105991031011008001001021MA1999999096161MD1999999-0061REMSYN070AAXX  20184 83288 32598 52702 10322 20217 39616 40101 83102 333 59006;EQDQ01  00002PRCP06
0208832880999992003062100004-13270-043420FM-12+0458SBLP V0201801N001012200019N0020001N1+02631+02141101141ADDAA106000091GA1001+999999999GF100991001001999999001001KA1240M+03351MA1999999096251MD1999999-0151REMSYN082AAXX  21004 83288 32995 01802 10263 20214 39625 40114 333 10335 29068 55101 59015;EQDQ01  00002PRCP06
0186832880999992003062112004-13270-043420FM-12+0458SBLP V0201401N001012200019N0200001N1+02411+01851101531ADDAA106000091GF104991001001999999001051KA1240N+01801MA1999999096621MD1999999+0001REMSYN076AAXX  21124 83288 32998 41402 10241 20185 39662 40153 80005 333 20180 58000;EQDQ01  00002PRCP06
0167832880999992003062118004-13270-043420FM-12+0458SBLP V0202701N001512200019N0200001N1+03241+02361101071ADDAA106000091GF103991031021008001001001MA1999999096211MD1999999+0051REMSYN070AAXX  21184 83288 32598 32703 10324 20236 39621 40107 83200 333 58005;EQDQ01  00002PRCP06
0186832880999992003062212004-13270-043420FM-12+0458SBLP V0202301N001012200019N0200001N1+02381+01801101441ADDAA106000091GF101991011011008001001001KA1240N+01881MA1999999096541MD1999999-0081REMSYN076AAXX  22124 83288 32598 12302 10238 20180 39654 40144 81100 333 20188 59008;EQDQ01  00002PRCP06
0186832880999992003062312004-13270-043420FM-12+0458SBLP V0201401N001512200019N0200001N1+02471+01831101511ADDAA106000091GF102991011011008001001021KA1240N+01791MA1999999096601MD1999999+0061REMSYN076AAXX  23124 83288 32598 21403 10247 20183 39660 40151 81102 333 20179 58006;EQDQ01  00002PRCP06
0167832880999992003062318004-13270-043420FM-12+0458SBLP V0202301N004111050019N0200001N1+03241+01891101151ADDAA106000091GF105991041011008001001021MA1999999096271MD1999999+0171REMSYN070AAXX  23184 83288 32598 52308 10324 20189 39627 40115 84102 333 58017;EQDQ01  00002PRCP06
0246832880999992003062400004-13270-043420FM-12+0458SBLP V0201801N001512200019N0020001N1+02651+01691101131ADDAA106000091GF102991999011008001001001KA1240M+03291MA1999999096241MD1999999+0031REMSYN088AAXX  24004 83288 32595 21803 10265 20169 32595 40113 81100 333 10329 29056 55104 58003;EQDQ01+000012SCOTLCQ02+025951APOSP Q03+999990APOSP Q04  00002PRCP06
0186832880999992003062412004-13270-043420FM-12+0458SBLP V0202301N001012200019N0200001N1+02291+01501101761ADDAA106000091GF101991011011008001001001KA1240N+01681MA1999999096841MD1999999+0241REMSYN076AAXX  24124 83288 32598 12302 10229 20150 39684 40176 81100 333 20168 58024;EQDQ01  00002PRCP06
0167832880999992003062418004-13270-043420FM-12+0458SBLP V0202301N002112200019N0200001N1+03111+01541101301ADDAA106000091GF101991011011008001001001MA1999999096371MD1999999+0101REMSYN070AAXX  24184 83288 32598 12304 10311 20154 39637 40130 81100 333 58010;EQDQ01  00002PRCP06
0208832880999992003062500004-13270-043420FM-12+0458SBLP V0202301N001512200019N0020001N1+02411+01451101531ADDAA106000091GA1001+999999999GF100991001001999999001001KA1240M+03131MA1999999096591MD1999999+0131REMSYN082AAXX  25004 83288 32995 02303 10241 20145 39659 40153 333 10313 29052 55102 58013;EQDQ01  00002PRCP06
0196832880999992003062512004-13270-043420FM-12+0458SBLP V0202301N001012200019N0200001N1+02311+01751101741ADDAA106000091GA1001+999999999GF100991001001999999001001KA1240N+01741MA1999999096791MD1999999-0051REMSYN070AAXX  25124 83288 32998 02302 10231 20175 39679 40174 333 20174 59005;EQDQ01  00002PRCP06
0167832880999992003062518004-13270-043420FM-12+0458SBLP V0202301N001510120019N0200001N1+02971+02021101291ADDAA106000091GF107991071081008001001001MA1999999096371MD1999999+0001REMSYN070AAXX  25184 83288 32598 72303 10297 20202 39637 40129 87800 333 58000;EQDQ01  00002PRCP06
0208832880999992003062600004-13270-043420FM-12+0458SBLP V0201401N001512200019N0020001N1+02491+01681101291ADDAA106000091GA1001+999999999GF100991001001999999001001KA1240M+03211MA1999999096471MD1999999-0121REMSYN082AAXX  26004 83288 32995 01403 10249 20168 39647 40129 333 10321 29062 55057 59012;EQDQ01  00002PRCP06
0186832880999992003062612004-13270-043420FM-12+0458SBLP V0201801N001012200019N0200001N1+02451+01551101631ADDAA106000091GF103991021011008001001041KA1240N+01801MA1999999096711MD1999999-0081REMSYN076AAXX  26124 83288 32598 31802 10245 20155 39671 40163 82104 333 20180 59008;EQDQ01  00002PRCP06
0183832880999992003062618004-13270-043420FM-12+0458SBLP V0201401N002612200019N0200001N1+03151+02241101151ADDAA106000091GF102991999011008001001001MA1999999096271MD1999999-0101REMSYN070AAXX  26184 83288 32598 21405 10315 20224 39627 40115 81100 333 59010;EQDQ01+000012SCOTLCQ02  00002PRCP06
0196832880999992003062712004-13270-043420FM-12+0458SBLP V0201401N001512200019N0200001N1+02171+01591101651ADDAA106000091GA1001+999999999GF100991001001999999001001KA1240N+01641MA1999999096721MD1999999+0011REMSYN070AAXX  27124 83288 32598 01403 10217 20159 39672 40165 333 20164 58001;EQDQ01  00002PRCP06
0177832880999992003062718004-13270-043420FM-12+0458SBLP V0201801N001512200019N0200001N1+03071+01151101141ADDAA106000091GA1001+999999999GF100991001001999999001001MA1999999096251MD1999999-0021REMSYN064AAXX  27184 83288 32598 01803 10307 20115 39625 40114 333 59002;EQDQ01  00002PRCP06
0208832880999992003062800004-13270-043420FM-12+0458SBLP V0201401N002112200019N0020001N1+02271+00921101431ADDAA106000091GA1001+999999999GF100991001001999999001001KA1240M+03131MA1999999096461MD1999999+0101REMSYN082AAXX  28004 83288 32995 01404 10227 20092 39646 40143 333 10313 29046 55102 58010;EQDQ01  00002PRCP06
0196832880999992003062812004-13270-043420FM-12+0458SBLP V0202301N001012200019N0200001N1+02151+01451101811ADDAA106000091GA1001+999999999GF100991001001999999001001KA1240N+01501MA1999999096831MD1999999+0111REMSYN070AAXX  28124 83288 32998 02302 10215 20145 39683 40181 333 20150 58011;EQDQ01  00002PRCP06
0177832880999992003062818004-13270-043420FM-12+0458SBLP V0202301N002112200019N0200001N1+03001+01451101291ADDAA106000091GA1001+999999999GF100991001001999999001001MA1999999096351MD1999999+0101REMSYN064AAXX  28184 83288 32998 02304 10300 20145 39635 40129 333 58010;EQDQ01  00002PRCP06
0186832880999992003062912004-13270-043420FM-12+0458SBLP V0201801N000512200019N0200001N1+02091+01511101721ADDAA106000091GF102991021011008001001021KA1240N+01481MA1999999096741MD1999999-0091REMSYN076AAXX  29124 83288 32598 21801 10209 20151 39674 40172 82102 333 20148 59009;EQDQ01  00002PRCP06
0167832880999992003062918004-13270-043420FM-12+0458SBLP V0201401N001512200019N0200001N1+03031+01831101281ADDAA106000091GF102991011011008001001021MA1999999096301MD1999999-0051REMSYN070AAXX  29184 83288 32598 21403 10303 20183 39630 40128 81102 333 59005;EQDQ01  00002PRCP06
0196832880999992003063012004-13270-043420FM-12+0458SBLP V0201401N001512200019N0200001N1+02351+01531101751ADDAA106000091GA1001+999999999GF100991001001999999001001KA1240N+01541MA1999999096811MD1999999+0071REMSYN070AAXX  30124 83288 32998 01403 10235 20153 39681 40175 333 20154 58007;EQDQ01  00002PRCP06
0167832880999992003063018004-13270-043420FM-12+0458SBLP V0201801N001012200019N0200001N1+03091+01451101311ADDAA106000091GF101991011011008001001001MA1999999096371MD1999999+0071REMSYN070AAXX  30184 83288 32598 11802 10309 20145 39637 40131 81100 333 58007;EQDQ01  00002PRCP06
0208832880999992003070100004-13270-043420FM-12+0458SBLP V0201801N001012200019N0020001N1+02311+01271101581ADDAA106000091GA1001+999999999GF100991001001999999001001KA1240M+03131MA1999999096631MD1999999+0151REMSYN082AAXX  01004 83288 32995 01802 10231 20127 39663 40158 333 10313 29050 55101 58015;EQDQ01  00002PRCP06
0196832880999992003070112004-13270-043420FM-12+0458SBLP V0201801N003112200019N0200001N1+02231+01401101921ADDAA106000091GA1001+999999999GF100991001001999999001001KA1240N+01541MA1999999096941MD1999999+0131REMSYN070AAXX  01124 83288 32998 01806 10223 20140 39694 40192 333 20154 58013;EQDQ01  00002PRCP06
0167832880999992003070118004-13270-043420FM-12+0458SBLP V0200501N001012200019N0200001N1+03041+02201101501ADDAA106000091GF101991011011008001001001MA1999999096571MD1999999+0201REMSYN070AAXX  01184 83288 32598 10502 10304 20220 39657 40150 81100 333 58020;EQDQ01  00002PRCP06
0208832880999992003070200004-13270-043420FM-12+0458SBLP V0201401N001012200019N0020001N1+02351+01411101591ADDAA106000091GA1001+999999999GF100991001001999999001001KA1240M+03111MA1999999096641MD1999999+0011REMSYN082AAXX  02004 83288 32995 01402 10235 20141 39664 40159 333 10311 29052 55102 58001;EQDQ01  00002PRCP06
0186832880999992003070212004-13270-043420FM-12+0458SBLP V0202301N000512200019N0200001N1+01971+01641101841ADDAA106000091GF104991031011008001001041KA1240N+01581MA1999999096851MD1999999-0091REMSYN076AAXX  02124 83288 32598 42301 10197 20164 39685 40184 83104 333 20158 59009;EQDQ01  00002PRCP06
0167832880999992003070218004-13270-043420FM-12+0458SBLP V0202301N000512200019N0200001N1+02941+01721101331ADDAA106000091GF102991011011008001001021MA1999999096411MD1999999-0041REMSYN070AAXX  02184 83288 32598 22301 10294 20172 39641 40133 81102 333 59004;EQDQ01  00002PRCP06
0208832880999992003070300004-13270-043420FM-12+0458SBLP V0201401N001012200019N0020001N1+02431+01281101341ADDAA106000091GA1001+999999999GF100991001001999999001001KA1240M+03031MA1999999096381MD1999999-0261REMSYN082AAXX  03004 83288 32995 01402 10243 20128 39638 40134 333 10303 29066 55093 59026;EQDQ01  00002PRCP06
0196832880999992003070312004-13270-043420FM-12+0458SBLP V0209999C000012200019N0200001N1+02091+01541101761ADDAA106000091GA1001+999999999GF100991001001999999001001KA1240N+01561MA1999999096791MD1999999-0061REMSYN070AAXX  03124 83288 32998 00000 10209 20154 39679 40176 333 20156 59006;EQDQ01  00002PRCP06
0177832880999992003070318004-13270-043420FM-12+0458SBLP V0202701N001512200019N0200001N1+03031+01771101291ADDAA106000091GA1001+999999999GF100991001001999999001001MA1999999096361MD1999999-0051REMSYN064AAXX  03184 83288 32998 02703 10303 20177 39636 40129 333 59005;EQDQ01  00002PRCP06
0208832880999992003070400004-13270-043420FM-12+0458SBLP V0201801N001012200019N0020001N1+02391+01741101421ADDAA106000091GA1001+999999999GF100991001001999999001001KA1240M+03111MA1999999096461MD1999999+0081REMSYN082AAXX  04004 83288 32995 01802 10239 20174 39646 40142 333 10311 29062 55104 58008;EQDQ01  00002PRCP06
0196832880999992003070412004-13270-043420FM-12+0458SBLP V0202301N001012200019N0200001N1+02221+01481101651ADDAA106000091GA1001+999999999GF100991001001999999001001KA1240N+01521MA1999999096691MD1999999-0101REMSYN070AAXX  04124 83288 32598 02302 10222 20148 39669 40165 333 20152 59010;EQDQ01  00002PRCP06
0177832880999992003070418004-13270-043420FM-12+0458SBLP V0202301N001512200019N0200001N1+03091+01401101111ADDAA106000091GA1001+999999999GF100991001001999999001001MA1999999096221MD1999999-0141REMSYN064AAXX  04184 83288 32998 02303 10309 20140 39622 40111 333 59014;EQDQ01  00002PRCP06
0208832880999992003070500004-13270-043420FM-12+0458SBLP V0201401N001512200019N0020001N1+02271+01041101291ADDAA106000091GA1001+999999999GF100991001001999999001001KA1240M+03151MA1999999096341MD1999999-0121REMSYN082AAXX  05004 83288 32995 01403 10227 20104 39634 40129 333 10315 29047 55103 59012;EQDQ01  00002PRCP06
0196832880999992003070512004-13270-043420FM-12+0458SBLP V0202701N001012200019N0200001N1+02251+01261101341ADDAA106000091GA1001+999999999GF100991001001999999001001KA1240N+01461MA1999999096671MD1999999-0021REMSYN070AAXX  05124 83288 32998 02702 10225 20126 39667 40134 333 20146 59002;EQDQ01  00002PRCP06
0177832880999992003070518004-13270-043420FM-12+0458SBLP V0202301N001512200019N0200001N1+02951+01511101181ADDAA106000091GA1001+999999999GF100991001001999999001001MA1999999096291MD1999999+0071REMSYN064AAXX  05184 83288 32998 02303 10295 20151 39629 40118 333 58007;EQDQ01  00002PRCP06
0208832880999992003070600004-13270-043420FM-12+0458SBLP V0202301N001512200019N0020001N1+02431+01461101121ADDAA106000091GA1001+999999999GF100991001001999999001001KA1240M+03071MA1999999096201MD1999999-0141REMSYN082AAXX  06004 83288 32995 02303 10243 20146 39620 40112 333 10307 29050 55103 59014;EQDQ01  00002PRCP06
0186832880999992003070612004-13270-043420FM-12+0458SBLP V0200901N001012200019N0200001N1+02251+01631101441ADDAA106000091GF102991001001999999001021KA1240N+01561MA1999999096511MD1999999-0161REMSYN076AAXX  06124 83288 32998 20902 10225 20163 39651 40144 80002 333 20156 59016;EQDQ01  00002PRCP06
0177832880999992003070618004-13270-043420FM-12+0458SBLP V0202701N001012200019N0200001N1+03091+01961101011ADDAA106000091GA1001+999999999GF100991001001999999001001MA1999999096101MD1999999-0191REMSYN064AAXX  06184 83288 32998 02702 10309 20196 39610 40101 333 59019;EQDQ01  00002PRCP06
0196832880999992003070712004-13270-043420FM-12+0458SBLP V0200901N001012200019N0200001N1+02221+01431101501ADDAA106000091GA1001+999999999GF100991001001999999001001KA1240N+01541MA1999999096631MD1999999+0121REMSYN070AAXX  07124 83288 32998 00902 10222 20143 39663 40150 333 20154 58012;EQDQ01  00002PRCP06
0177832880999992003070718004-13270-043420FM-12+0458SBLP V0202301N001512200019N0200001N1+03091+01441101141ADDAA106000091GA1001+999999999GF100991001001999999001001MA1999999096241MD1999999+0141REMSYN064AAXX  07184 83288 32998 02303 10309 20144 39624 40114 333 58014;EQDQ01  00002PRCP06
0196832880999992003070812004-13270-043420FM-12+0458SBLP V0202301N000512200019N0200001N1+02141+01721101591ADDAA106000091GA1001+999999999GF100991001001999999001001KA1240N+02191MA1999999096641MD1999999+0011REMSYN070AAXX  08124 83288 32998 02301 10214 20172 39664 40159 333 20219 58001;EQDQ01  00002PRCP06
0167832880999992003070818004-13270-043420FM-12+0458SBLP V0202301N001512200019N0200001N1+03001+01811100981ADDAA106000091GF102991011011008001001021MA1999999096071MD1999999-0171REMSYN070AAXX  08184 83288 32598 22303 10300 20181 39607 40098 81102 333 59017;EQDQ01  00002PRCP06
0208832880999992003070900004-13270-043420FM-12+0458SBLP V0201801N001512200019N0020001N1+02571+01281101201ADDAA106000091GA1001+999999999GF100991001001999999001001KA1240M+03251MA1999999096261MD1999999-0091REMSYN082AAXX  09004 83288 32995 01803 10257 20128 39626 40120 333 10325 29060 55102 59009;EQDQ01  00002PRCP06
0196832880999992003070912004-13270-043420FM-12+0458SBLP V0203601N000512200019N0200001N1+02331+01751101411ADDAA106000091GA1001+999999999GF100991001001999999001001KA1240N+01701MA1999999096501MD1999999-0141REMSYN070AAXX  09124 83288 32998 03601 10233 20175 39650 40141 333 20170 59014;EQDQ01  00002PRCP06
0177832880999992003070918004-13267-043417FM-12+0458SBLP V0202301N001512200019N0200001N1+03211+01471101071ADDAA106000091GA1001+999999999GF100991001001999999001001MA1999999096171MD1999999+0101REMSYN064AAXX  09184 83288 32998 02303 10321 20147 39617 40107 333 58010;EQDQ01  00002PRCP06
0208832880999992003071000004-13267-043417FM-12+0458SBLP V0201401N001512200019N0020001N1+02411+01301101261ADDAA106000091GA1001+999999999GF100991001001999999001001KA1240M+03251MA1999999096351MD1999999+0091REMSYN082AAXX  10004 83288 32995 01403 10241 20130 39635 40126 333 10325 29051 55103 58009;EQDQ01  00002PRCP06
0196832880999992003071012004-13267-043417FM-12+0458SBLP V0209999C000012200019N0200001N1+02251+01241101651ADDAA106000091GA1001+999999999GF100991001001999999001001KA1240N+01601MA1999999096701MD1999999+0201REMSYN070AAXX  10124 83288 32998 00000 10225 20124 39670 40165 333 20160 58020;EQDQ01  00002PRCP06
0177832880999992003071018004-13267-043417FM-12+0458SBLP V0200501N000512200019N0200001N1+03191+01071101081ADDAA106000091GA1001+999999999GF100991001001999999001001MA1999999096191MD1999999+0021REMSYN064AAXX  10184 83288 32998 00501 10319 20107 39619 40108 333 58002;EQDQ01  00002PRCP06
0208832880999992003071100004-13267-043417FM-12+0458SBLP V0202301N001512200019N0020001N1+02411+00861101361ADDAA106000091GA1001+999999999GF100991001001999999001001KA1240M+03241MA1999999096431MD1999999+0081REMSYN082AAXX  11004 83288 32995 02303 10241 20086 39643 40136 333 10324 29039 55103 58008;EQDQ01  00002PRCP06
0186832880999992003071112004-13267-043417FM-12+0458SBLP V0201801N002612200019N0200001N1+02331+01531101721ADDAA106000091GF103991021011008001001041KA1240N+01351MA1999999097021MD1999999+0061REMSYN076AAXX  11124 83288 32598 31805 10233 20153 39702 40172 82104 333 20135 58006;EQDQ01  00002PRCP06
0167832880999992003071118004-13267-043417FM-12+0458SBLP V0202701N000512200019N0200001N1+03241+01451101121ADDAA106000091GF103991011011008001001021MA1999999096251MD1999999+0061REMSYN070AAXX  11184 83288 32598 32701 10324 20145 39625 40112 81102 333 58006;EQDQ01  00002PRCP06
0214832880999992003071200004-13267-043417FM-12+0458SBLP V0201401N001512200019N0020001N1+02781+01321101131ADDAA106000091GF104991999011008001001001KA1240M+03341MA1999999096251MD1999999-0181REMSYN088AAXX  12004 83288 32595 41403 10278 20132 39625 40113 83100 333 10334 29046 55103 59018;EQDQ01+000032SCOTLCQ02  00002PRCP06
0196832880999992003071212004-13267-043417FM-12+0458SBLP V0201401N001012200019N0200001N1+02451+01611101701ADDAA106000091GA1001+999999999GF100991001001999999001001KA1240N+01881MA1999999096801MD1999999+0041REMSYN070AAXX  12124 83288 32998 01402 10245 20161 39680 40170 333 20188 58004;EQDQ01  00002PRCP06
0177832880999992003071218004-13267-043417FM-12+0458SBLP V0201401N001512200019N0200001N1+03241+01161101291ADDAA106000091GA1001+999999999GF100991001001999999001001MA1999999096411MD1999999+0161REMSYN064AAXX  12184 83288 32998 01403 10324 20116 39641 40129 333 58016;EQDQ01  00002PRCP06
0196832880999992003071312004-13267-043417FM-12+0458SBLP V0201401N003612200019N0200001N1+02311+01251101901ADDAA106000091GA1001+999999999GF100991001001999999001001KA1240N+01721MA1999999096951MD1999999+0151REMSYN070AAXX  13124 83288 32998 01407 10231 20125 39695 40190 333 20172 58015;EQDQ01  00002PRCP06
0167832880999992003071318004-13267-043417FM-12+0458SBLP V0201401N002112200019N0200001N1+03071+01301101451ADDAA106000091GF103991031011008001001001MA1999999096501MD1999999-0091REMSYN070AAXX  13184 83288 32598 31404 10307 20130 39650 40145 83100 333 59009;EQDQ01  00002PRCP06
0186832880999992003071412004-13267-043417FM-12+0458SBLP V0201401N001512200019N0200001N1+02281+01611101911ADDAA106000091GF102991011011008001001021KA1240N+01681MA1999999096951MD1999999+0001REMSYN076AAXX  14124 83288 32598 21403 10228 20161 39695 40191 81102 333 20168 58000;EQDQ01  00002PRCP06
0183832880999992003071418004-13267-043417FM-12+0458SBLP V0200501N001512200019N0200001N1+03111+01091101221ADDAA106000091GF102991999011008001001001MA1999999096391MD1999999-0151REMSYN070AAXX  14184 83288 32598 20503 10311 20109 39639 40122 81100 333 59015;EQDQ01+000012SCOTLCQ02  00002PRCP06
0208832880999992003071500004-13267-043417FM-12+0458SBLP V0201401N001012200019N0020001N1+02431+01721101691ADDAA106000091GA1001+999999999GF100991001001999999001001KA1240M+03171MA1999999096541MD1999999-0151REMSYN082AAXX  15004 83288 32995 01402 10243 20172 39654 40169 333 10317 29053 55103 59015;EQDQ01  00002PRCP06
0186832880999992003071512004-13267-043417FM-12+0458SBLP V0201801N002610075019N0200001N1+02171+01551102121ADDAA106000091GF108991081051008001999999KA1240N+01821MA1999999097141MD1999999+0191REMSYN076AAXX  15124 83288 32598 81805 10217 20155 39714 40212 885// 333 20182 58019;EQDQ01  00002PRCP06
0167832880999992003071518004-13267-043417FM-12+0458SBLP V0201401N003112200019N0200001N1+02811+01601101511ADDAA106000091GF102991021011008001001001MA1999999096571MD1999999+0181REMSYN070AAXX  15184 83288 32598 21406 10281 20160 39657 40151 82100 333 58018;EQDQ01  00002PRCP06
0198832880999992003071600004-13267-043417FM-12+0458SBLP V0201401N002110120019N0020001N1+02451+01621101721ADDAA106000091GF108991081081008001999999KA1240M+02911MA1999999096761MD1999999+0221REMSYN088AAXX  16004 83288 32595 81404 10245 20162 39676 40172 888// 333 10291 29059 55070 58022;EQDQ01  00002PRCP06
0186832880999992003071612004-13267-043417FM-12+0458SBLP V0201401N003110075019N0200001N1+02191+01391102071ADDAA106000091GF107991051051008001001021KA1240N+01921MA1999999097091MD1999999-0051REMSYN076AAXX  16124 83288 32598 71406 10219 20139 39709 40207 85502 333 20192 59005;EQDQ01  00002PRCP06
0167832880999992003071618004-13267-043417FM-12+0458SBLP V0201401N002119999999N0200001N1+02871+01461101691ADDAA106000091GF106991999999008001999999MA1999999096711MD1999999+0141REMSYN070AAXX  16184 83288 32598 61404 10287 20146 39671 40169 8//// 333 58014;EQDQ01  00002PRCP06
0208832880999992003071700004-13267-043417FM-12+0458SBLP V0201401N001012200019N0020001N1+02251+01231101831ADDAA106000091GA1001+999999999GF100991001001999999001001KA1240M+02881MA1999999096851MD1999999+0091REMSYN082AAXX  17004 83288 32995 01402 10225 20123 39685 40183 333 10288 29052 55045 58009;EQDQ01  00002PRCP06
0196832880999992003071712004-13267-043417FM-12+0458SBLP V0201801N001012200019N0200001N1+02251+01511101931ADDAA106000091GA1001+999999999GF100991001001999999001001KA1240N+01701MA1999999096951MD1999999-0141REMSYN070AAXX  17124 83288 32998 01802 10225 20151 39695 40193 333 20170 59014;EQDQ01  00002PRCP06
0183832880999992003071718004-13267-043417FM-12+0458SBLP V0201801N001510075019N0200001N1+02921+01671101511ADDAA106000091GF106991999021008001001001MA1999999096691MD1999999+0021REMSYN070AAXX  17184 83288 32598 61803 10292 20167 39669 40151 85200 333 58002;EQDQ01+000052SCOTLCQ02  00002PRCP06
0214832880999992003071800004-13267-043417FM-12+0458SBLP V0201401N001512200019N0020001N1+02421+01571101721ADDAA106000091GF102991001001999999001041KA1240M+03061MA1999999096781MD1999999-0071REMSYN088AAXX  18004 83288 32595 21403 10242 20157 39678 40172 80004 333 10306 29056 55100 59007;EQDQ01+008002SCOLCBQ02  00002PRCP06
0186832880999992003071812004-13267-043417FM-12+0458SBLP V0201401N001512200019N0200001N1+02231+01391102151ADDAA106000091GF102991001001999999001041KA1240N+01701MA1999999097171MD1999999+0221REMSYN076AAXX  18124 83288 32998 21403 10223 20139 39717 40215 80004 333 20170 58022;EQDQ01  00002PRCP06
0167832880999992003071818004-13267-043417FM-12+0458SBLP V0201401N002112200019N0200001N1+03011+01381101661ADDAA106000091GF103991031011008001001001MA1999999096741MD1999999+0051REMSYN070AAXX  18184 83288 32598 31404 10301 20138 39674 40166 83100 333 58005;EQDQ01  00002PRCP06
0208832880999992003071900004-13267-043417FM-12+0458SBLP V0201401N001512200019N0020001N1+02351+01481101851ADDAA106000091GA1001+999999999GF100991001001999999001001KA1240M+03071MA1999999096881MD1999999+0101REMSYN082AAXX  19004 83288 32995 01403 10235 20148 39688 40185 333 10307 29051 55103 58010;EQDQ01  00002PRCP06
0186832880999992003071912004-13267-043417FM-12+0458SBLP V0201801N001012200019N0200001N1+02281+01491102081ADDAA106000091GF102991011011008001001021KA1240N+01601MA1999999097131MD1999999-0041REMSYN076AAXX  19124 83288 32598 21802 10228 20149 39713 40208 81102 333 20160 59004;EQDQ01  00002PRCP06
0183832880999992003071918004-13267-043417FM-12+0458SBLP V0201401N001012200019N0200001N1+03121+01301101561ADDAA106000091GF102991999011008001001001MA1999999096701MD1999999-0041REMSYN070AAXX  19184 83288 32598 21402 10312 20130 39670 40156 81100 333 59004;EQDQ01+000012SCOTLCQ02  00002PRCP06
0196832880999992003072012004-13267-043417FM-12+0458SBLP V0201401N001012200019N0200001N1+02271+01391101901ADDAA106000091GA1001+999999999GF100991001001999999001001KA1240N+01481MA1999999096941MD1999999-0091REMSYN070AAXX  20124 83288 32998 01402 10227 20139 39694 40190 333 20148 59009;EQDQ01  00002PRCP06
0177832880999992003072018004-13267-043417FM-12+0458SBLP V0201401N001512200019N0200001N1+03151+01121101471ADDAA106000091GA1001+999999999GF100991001001999999001001MA1999999096521MD1999999-0181REMSYN064AAXX  20184 83288 32998 01403 10315 20112 39652 40147 333 59018;EQDQ01  00002PRCP06
0196832880999992003072112004-13267-043417FM-12+0458SBLP V0200901N001512200019N0200001N1+01981+01501101921ADDAA106000091GA1001+999999999GF100991001001999999001001KA1240N+01521MA1999999096931MD1999999-0011REMSYN070AAXX  21124 83288 32998 00903 10198 20150 39693 40192 333 20152 59001;EQDQ01  00002PRCP06
0177832880999992003072118004-13267-043417FM-12+0458SBLP V0201801N001512200019N0200001N1+03011+01301101491ADDAA106000091GA1001+999999999GF100991001001999999001001MA1999999096561MD1999999+0041REMSYN064AAXX  21184 83288 32998 01803 10301 20130 39656 40149 333 58004;EQDQ01  00002PRCP06
0208832880999992003072200004-13267-043417FM-12+0458SBLP V0201401N001512200019N0020001N1+02411+01481101561ADDAA106000091GA1001+999999999GF100991001001999999001001KA1240M+03051MA1999999096591MD1999999+0121REMSYN082AAXX  22004 83288 32995 01403 10241 20148 39659 40156 333 10305 29055 55105 58012;EQDQ01  00002PRCP06
0186832880999992003072212004-13267-043417FM-12+0458SBLP V0201401N001512200019N0200001N1+02471+01881101841ADDAA106000091GF102991021011008001001001KA1240N+01721MA1999999096911MD1999999-0021REMSYN076AAXX  22124 83288 32598 21403 10247 20188 39691 40184 82100 333 20172 59002;EQDQ01  00002PRCP06
0167832880999992003072218004-13267-043417FM-12+0458SBLP V0201401N001512200019N0200001N1+03121+01981101271ADDAA106000091GF103991031011008001001001MA1999999096351MD1999999-0211REMSYN070AAXX  22184 83288 32598 31403 10312 20198 39635 40127 83100 333 59021;EQDQ01  00002PRCP06
0208832880999992003072300004-13267-043417FM-12+0458SBLP V0201401N001512200019N0020001N1+02431+01171101571ADDAA106000091GA1001+999999999GF100991001001999999001001KA1240M+03201MA1999999096651MD1999999+0061REMSYN082AAXX  23004 83288 32995 01403 10243 20117 39665 40157 333 10320 29047 55095 58006;EQDQ01  00002PRCP06
0196832880999992003072312004-13267-043417FM-12+0458SBLP V0202701N000512200019N0200001N1+02231+01291101901ADDAA106000091GA1001+999999999GF100991001001999999001001KA1240N+01641MA1999999096941MD1999999+0031REMSYN070AAXX  23124 83288 32998 02701 10223 20129 39694 40190 333 20164 58003;EQDQ01  00002PRCP06
0177832880999992003072318004-13267-043417FM-12+0458SBLP V0201401N001012200019N0200001N1+03071+01381101321ADDAA106000091GA1001+999999999GF100991001001999999001001MA1999999096401MD1999999+0051REMSYN064AAXX  23184 83288 32998 01402 10307 20138 39640 40132 333 58005;EQDQ01  00002PRCP06
0208832880999992003072400004-13267-043417FM-12+0458SBLP V0201401N001012200019N0020001N1+02511+01321101671ADDAA106000091GA1001+999999999GF100991001001999999001001KA1240M+03181MA1999999096741MD1999999+0111REMSYN082AAXX  24004 83288 32995 01402 10251 20132 39674 40167 333 10318 29046 55105 58011;EQDQ01  00002PRCP06
0196832880999992003072412004-13267-043417FM-12+0458SBLP V0202301N001012200019N0200001N1+02221+01481101651ADDAA106000091GA1001+999999999GF100991001001999999001001KA1240N+01521MA1999999096691MD1999999-0101REMSYN070AAXX  24124 83288 32998 02302 10222 20148 39669 40165 333 20152 59010;EQDQ01  00002PRCP06
0167832880999992003072418004-13267-043417FM-12+0458SBLP V0200901N001512200019N0200001N1+03191+01541101271ADDAA106000091GF102991021011008001001001MA1999999096371MD1999999-0031REMSYN070AAXX  24184 83288 32598 20903 10319 20154 39637 40127 82100 333 59003;EQDQ01  00002PRCP06
0208832880999992003072500004-13267-043417FM-12+0458SBLP V0201401N001512200019N0020001N1+02531+01571101561ADDAA106000091GA1001+999999999GF100991001001999999001001KA1240M+03251MA1999999096651MD1999999-0091REMSYN082AAXX  25004 83288 32995 01403 10253 20157 39665 40156 333 10325 29053 55104 59009;EQDQ01  00002PRCP06
0186832880999992003072512004-13267-043417FM-12+0458SBLP V0201401N002112200019N0200001N1+02531+01631101881ADDAA106000091GF102991021011008001001001KA1240N+01761MA1999999096961MD1999999+0051REMSYN076AAXX  25124 83288 32598 21404 10253 20163 39696 40188 82100 333 20176 58005;EQDQ01  00002PRCP06
0167832880999992003072518004-13267-043417FM-12+0458SBLP V0201401N001512200019N0200001N1+03111+01641101521ADDAA106000091GF103991031021008001001001MA1999999096551MD1999999+0181REMSYN070AAXX  25184 83288 32598 31403 10311 20164 39655 40152 83200 333 58018;EQDQ01  00002PRCP06
0208832880999992003072600004-13267-043417FM-12+0458SBLP V0200901N001012200019N0020001N1+02511+01461101641ADDAA106000091GA1001+999999999GF100991001001999999001001KA1240M+03191MA1999999096731MD1999999+0081REMSYN082AAXX  26004 83288 32995 00902 10251 20146 39673 40164 333 10319 29050 55083 58008;EQDQ01  00002PRCP06
0202832880999992003072612004-13267-043417FM-12+0458SBLP V0201401N000512200019N0200001N1+02351+01721101851ADDAA106000091GF102991999011008001001001KA1240N+01691MA1999999096921MD1999999+0041REMSYN076AAXX  26124 83288 32598 21401 10235 20172 39692 40185 81100 333 20169 58004;EQDQ01+000012SCOTLCQ02  00002PRCP06
0208832880999992003072700004-13267-043417FM-12+0458SBLP V0201401N001512200019N0020001N1+02471+01191101721ADDAA106000091GA1001+999999999GF100991001001999999001001KA1240M+03071MA1999999096781MD1999999+0051REMSYN082AAXX  27004 83288 32995 01403 10247 20119 39678 40172 333 10307 29051 55098 58005;EQDQ01  00002PRCP06
0196832880999992003072712004-13267-043417FM-12+0458SBLP V0201401N001512200019N0200001N1+02381+01621101961ADDAA106000091GA1001+999999999GF100991001001999999001001KA1240N+01701MA1999999097011MD1999999+0091REMSYN070AAXX  27124 83288 32998 01403 10238 20162 39701 40196 333 20170 58009;EQDQ01  00002PRCP06
0167832880999992003072718004-13267-043417FM-12+0458SBLP V0201401N001512200019N0200001N1+02951+01491101461ADDAA106000091GF104991041021008001001001MA1999999096511MD1999999+0151REMSYN070AAXX  27184 83288 32598 41403 10295 20149 39651 40146 84200 333 58015;EQDQ01  00002PRCP06
0198832880999992003072800004-13267-043417FM-12+0458SBLP V0201401N002112200019N0020001N1+02251+01271101551ADDAA106000091GF102991021011008001001001KA1240M+03051MA1999999096601MD1999999-0181REMSYN088AAXX  28004 83288 32595 21404 10225 20127 39660 40155 82100 333 10305 29052 55084 59018;EQDQ01  00002PRCP06
0186832880999992003072812004-13267-043417FM-12+0458SBLP V0201401N001512200019N0200001N1+02331+01841101931ADDAA106000091GF104991041011008001001001KA1240N+01621MA1999999096961MD1999999-0051REMSYN076AAXX  28124 83288 32598 41403 10233 20184 39696 40193 84100 333 20162 59005;EQDQ01  00002PRCP06
0167832880999992003072818004-13267-043417FM-12+0458SBLP V0201401N002112200019N0200001N1+02911+01601101501ADDAA106000091GF104991041021008001001001MA1999999096471MD1999999-0041REMSYN070AAXX  28184 83288 32598 41404 10291 20160 39647 40150 84200 333 59004;EQDQ01  00002PRCP06
0198832880999992003072900004-13267-043417FM-12+0458SBLP V0201401N002112200019N0020001N1+02311+01531101721ADDAA106000091GF101991011011008001001001KA1240M+03011MA1999999096761MD1999999+0161REMSYN088AAXX  29004 83288 32595 11404 10231 20153 39676 40172 81100 333 10301 29057 55089 58016;EQDQ01  00002PRCP06
0186832880999992003072912004-13267-043417FM-12+0458SBLP V0201801N001012200019N0200001N1+02281+01541101891ADDAA106000091GF102991021011008001001041KA1240N+01541MA1999999096921MD1999999-0041REMSYN076AAXX  29124 83288 32598 21802 10228 20154 39692 40189 82104 333 20154 59004;EQDQ01  00002PRCP06
0167832880999992003072918004-13267-043417FM-12+0458SBLP V0201801N001012200019N0200001N1+03111+01091101391ADDAA106000091GF102991021011008001001001MA1999999096491MD1999999+0021REMSYN070AAXX  29184 83288 32598 21802 10311 20109 39649 40139 82100 333 58002;EQDQ01  00002PRCP06
0208832880999992003073000004-13267-043417FM-12+0458SBLP V0201401N001512200019N0020001N1+02451+01501101621ADDAA106000091GA1001+999999999GF100991001001999999001001KA1240M+03171MA1999999096671MD1999999-0091REMSYN082AAXX  30004 83288 32995 01403 10245 20150 39667 40162 333 10317 29049 55102 59009;EQDQ01  00002PRCP06
0196832880999992003073012004-13267-043417FM-12+0458SBLP V0201801N001512200019N0200001N1+02231+01661101891ADDAA106000091GA1001+999999999GF100991001001999999001001KA1240N+01521MA1999999096931MD1999999+0011REMSYN070AAXX  30124 83288 32998 01803 10223 20166 39693 40189 333 20152 58001;EQDQ01  00002PRCP06
0167832880999992003073018004-13267-043417FM-12+0458SBLP V0201801N001512200019N0200001N1+03131+01611101351ADDAA106000091GF104991041021008001001001MA1999999096431MD1999999-0061REMSYN070AAXX  30184 83288 32598 41803 10313 20161 39643 40135 84200 333 59006;EQDQ01  00002PRCP06
0198832880999992003073100004-13267-043417FM-12+0458SBLP V0201401N001512200019N0020001N1+02551+01581101491ADDAA106000091GF101991011011008001001001KA1240M+03211MA1999999096561MD1999999-0111REMSYN088AAXX  31004 83288 32595 11403 10255 20158 39656 40149 81100 333 10321 29055 55105 59011;EQDQ01  00002PRCP06
0167832880999992003073118004-13267-043417FM-12+0458SBLP V0202301N000510120019N0200001N1+02971+01511101231ADDAA106000091GF107991071081008001001001MA1999999096271MD1999999-0161REMSYN070AAXX  31184 83288 32598 72301 10297 20151 39627 40123 87800 333 59016;EQDQ01  00002PRCP06
0198832880999992003080100004-13267-043417FM-12+0458SBLP V0201401N001010120019N0020001N1+02611+01331101361ADDAA106000091GF106991061081008001001001KA1240M+03091MA1999999096441MD1999999-0121REMSYN088AAXX  01004 83288 32595 61402 10261 20133 39644 40136 86800 333 10309 29050 55046 59012;EQDQ01  00002PRCP06
0196832880999992003080112004-13267-043417FM-12+0458SBLP V0201401N001512200019N0200001N1+02471+01411101631ADDAA106000091GA1001+999999999GF100991001001999999001001KA1240N+01911MA1999999096731MD1999999+0001REMSYN070AAXX  01124 83288 32998 01403 10247 20141 39673 40163 333 20191 58000;EQDQ01  00002PRCP06
0167832880999992003080118004-13267-043417FM-12+0458SBLP V0201401N001512200019N0200001N1+03171+01341101151ADDAA106000091GF102991021011008001001001MA1999999096261MD1999999-0011REMSYN070AAXX  01184 83288 32598 21403 10317 20134 39626 40115 82100 333 59001;EQDQ01  00002PRCP06
0208832880999992003080200004-13267-043417FM-12+0458SBLP V0201401N001512200019N0020001N1+02671+01191101391ADDAA106000091GA1001+999999999GF100991001001999999001001KA1240M+03231MA1999999096501MD1999999-0061REMSYN082AAXX  02004 83288 32995 01403 10267 20119 39650 40139 333 10323 29041 55098 59006;EQDQ01  00002PRCP06
0196832880999992003080212004-13267-043417FM-12+0458SBLP V0200901N001512200019N0200001N1+02491+01521101791ADDAA106000091GA1001+999999999GF100991001001999999001001KA1240N+01821MA1999999096891MD1999999+0161REMSYN070AAXX  02124 83288 32998 00903 10249 20152 39689 40179 333 20182 58016;EQDQ01  00002PRCP06
0167832880999992003080218004-13267-043417FM-12+0458SBLP V0201401N001512200019N0200001N1+03191+01661101361ADDAA106000091GF103991031011008001001001MA1999999096451MD1999999+0191REMSYN070AAXX  02184 83288 32598 31403 10319 20166 39645 40136 83100 333 58019;EQDQ01  00002PRCP06
0196832880999992003080312004-13267-043417FM-12+0458SBLP V0201401N002112200019N0200001N1+02371+01581101921ADDAA106000091GA1001+999999999GF100991001001999999001001KA1240N+01801MA1999999086791MD1999999+0081REMSYN070AAXX  03124 83288 32998 01404 10237 20158 38679 40192 333 20180 58008;EQDQ01  00002PRCP06
0183832880999992003080318004-13267-043417FM-12+0458SBLP V0201401N001512200019N0200001N1+03051+01471101611ADDAA106000091GF103991031011008001001001MA1999999096622MD1999999+0171REMSYN070AAXX  03184 83288 32598 31403 10305 20147 39662 40161 83100 333 58017;EQDQ01+096623APOSP Q02  00002PRCP06
0196832880999992003080412004-13267-043417FM-12+0458SBLP V0201401N001512200019N0200001N1+02351+01471101751ADDAA106000091GA1001+999999999GF100991001001999999001001KA1240N+01751MA1999999096811MD1999999-0161REMSYN070AAXX  04124 83288 32998 01403 10235 20147 39681 40175 333 20175 59016;EQDQ01  00002PRCP06
0167832880999992003080418004-13267-043417FM-12+0458SBLP V0202701N001512200019N0200001N1+03091+01361101151ADDAA106000091GF101991011011999999001001MA1999999096281MD1999999-0341REMSYN070AAXX  04184 83288 32998 12703 10309 20136 39628 40115 81100 333 59034;EQDQ01  00002PRCP06
0208832880999992003080500004-13267-043417FM-12+0458SBLP V0201401N001512200019N0020001N1+02391+01391101331ADDAA106000091GA1001+999999999GF100991001001999999001001KA1240M+03151MA1999999096401MD1999999-0321REMSYN082AAXX  05004 83288 32995 01403 10239 20139 39640 40133 333 10315 29050 55106 59032;EQDQ01  00002PRCP06
0196832880999992003080512004-13267-043417FM-12+0458SBLP V0201401N001512200019N0200001N1+02411+01491101541ADDAA106000091GA1001+999999999GF100991001001999999001001KA1240N+01801MA1999999096611MD1999999-0201REMSYN070AAXX  05124 83288 32998 01403 10241 20149 39661 40154 333 20180 59020;EQDQ01  00002PRCP06
0196832880999992003080612004-13267-043417FM-12+0458SBLP V0201401N002112200019N0200001N1+02541+01711101691ADDAA106000091GA1001+999999999GF100991001001999999001001KA1240N+01921MA1999999096771MD1999999+0161REMSYN070AAXX  06124 83288 32998 01404 10254 20171 39677 40169 333 20192 58016;EQDQ01  00002PRCP06
0167832880999992003080618004-13267-043417FM-12+0458SBLP V0201401N002112200019N0200001N1+03261+01281101121ADDAA106000091GF101991011011008001001001MA1999999096251MD1999999+0001REMSYN070AAXX  06184 83288 32598 11404 10326 20128 39625 40112 81100 333 58000;EQDQ01  00002PRCP06
0208832880999992003080700004-13267-043417FM-12+0458SBLP V0201401N001512200019N0020001N1+02511+01221101311ADDAA106000091GA1001+999999999GF100991001001999999001001KA1240M+03341MA1999999096411MD1999999-0041REMSYN082AAXX  07004 83288 32995 01403 10251 20122 39641 40131 333 10334 29045 55104 59004;EQDQ01  00002PRCP06
0196832880999992003080712004-13267-043417FM-12+0458SBLP V0200901N001512200019N0200001N1+02511+01431101541ADDAA106000091GA1001+999999999GF100991001001999999001001KA1240N+01901MA1999999096631MD1999999-0141REMSYN070AAXX  07124 83288 32998 00903 10251 20143 39663 40154 333 20190 59014;EQDQ01  00002PRCP06
0167832880999992003080718004-13267-043417FM-12+0458SBLP V0201801N002112200019N0200001N1+03211+01481101141ADDAA106000091GF101991011011008001001001MA1999999096171MD1999999-0081REMSYN070AAXX  07184 83288 32598 11804 10321 20148 39617 40114 81100 333 59008;EQDQ01  00002PRCP06
0208832880999992003080800004-13267-043417FM-12+0458SBLP V0201401N001012200019N0020001N1+02521+01061101281ADDAA106000091GA1001+999999999GF100991001001999999001001KA1240M+03301MA1999999096381MD1999999-0031REMSYN082AAXX  08004 83288 32995 01402 10252 20106 39638 40128 333 10330 29041 55105 59003;EQDQ01  00002PRCP06
0196832880999992003080812004-13267-043417FM-12+0458SBLP V0202301N001012200019N0200001N1+02491+01511101511ADDAA106000091GA1001+999999999GF100991001001999999001001KA1240N+01741MA1999999096601MD1999999-0031REMSYN070AAXX  08124 83288 32998 02302 10249 20151 39660 40151 333 20174 59003;EQDQ01  00002PRCP06
0177832880999992003080818004-13267-043417FM-12+0458SBLP V0209999C000012200019N0200001N1+03341+01181100901ADDAA106000091GA1001+999999999GF100991001001999999001001MA1999999096051MD1999999-0121REMSYN064AAXX  08184 83288 32998 00000 10334 20118 39605 40090 333 59012;EQDQ01  00002PRCP06
0208832880999992003080900004-13267-043417FM-12+0458SBLP V0201401N000512200019N0020001N1+02561+01211101341ADDAA106000091GA1001+999999999GF100991001001999999001001KA1240M+03411MA1999999096441MD1999999+0061REMSYN082AAXX  09004 83288 32995 01401 10256 20121 39644 40134 333 10341 29042 55105 58006;EQDQ01  00002PRCP06
0196832880999992003080912004-13267-043417FM-12+0458SBLP V0201801N001012200019N0200001N1+02511+01551101721ADDAA106000091GA1001+999999999GF100991001001999999001001KA1240N+01841MA1999999096811MD1999999+0211REMSYN070AAXX  09124 83288 32998 01802 10251 20155 39681 40172 333 20184 58021;EQDQ01  00002PRCP06
0167832880999992003080918004-13267-043417FM-12+0458SBLP V0202701N001512200019N0200001N1+03241+01211101191ADDAA106000091GF101991011011008001001001MA1999999096311MD1999999+0261REMSYN070AAXX  09184 83288 32598 12703 10324 20121 39631 40119 81100 333 58026;EQDQ01  00002PRCP06
0196832880999992003081012004-13267-043417FM-12+0458SBLP V0200501N001012200019N0200001N1+02551+01451101591ADDAA106000091GA1001+999999999GF100991001001999999001001KA1240N+01791MA1999999096691MD1999999+0121REMSYN070AAXX  10124 83288 32998 00502 10255 20145 39669 40159 333 20179 58012;EQDQ01  00002PRCP06
0177832880999992003081018004-13267-043417FM-12+0458SBLP V0202301N002112200019N0200001N1+03261+01511101071ADDAA106000091GA1001+999999999GF100991001001999999001001MA1999999096201MD1999999-0111REMSYN064AAXX  10184 83288 32998 02304 10326 20151 39620 40107 333 59011;EQDQ01  00002PRCP06
0186832880999992003081112004-13267-043417FM-12+0458SBLP V0200901N001512200019N0200001N1+02521+01941101631ADDAA106000091GF103991001001999999001051KA1240N+01821MA1999999096721MD1999999+0031REMSYN076AAXX  11124 83288 32998 30903 10252 20194 39672 40163 80005 333 20182 58003;EQDQ01  00002PRCP06
0167832880999992003081118004-13267-043417FM-12+0458SBLP V0202701N001012200019N0200001N1+03341+01831101011ADDAA106000091GF102991001001999999001051MA1999999096211MD1999999+0011REMSYN070AAXX  11184 83288 32998 22702 10334 20183 39621 40101 80005 333 58001;EQDQ01  00002PRCP06
0208832880999992003081200004-13267-043417FM-12+0458SBLP V0201801N001512200019N0020001N1+02691+01681101231ADDAA106000091GA1001+999999999GF100991001001999999001001KA1240M+03411MA1999999096351MD1999999-0111REMSYN082AAXX  12004 83288 32995 01803 10269 20168 39635 40123 333 10341 29054 55106 59011;EQDQ01  00002PRCP06
0196832880999992003081212004-13267-043417FM-12+0458SBLP V0200501N001512200019N0200001N1+02571+01611101561ADDAA106000091GA1001+999999999GF100991001001999999001001KA1240N+01921MA1999999096681MD1999999-0041REMSYN070AAXX  12124 83288 32998 00503 10257 20161 39668 40156 333 20192 59004;EQDQ01  00002PRCP06
0167832880999992003081218004-13267-043417FM-12+0458SBLP V0202301N002112200019N0200001N1+03361+01461101151ADDAA106000091GF102991021011008001001001MA1999999096221MD1999999+0011REMSYN070AAXX  12184 83288 32598 22304 10336 20146 39622 40115 82100 333 58001;EQDQ01  00002PRCP06
0198832880999992003081300004-13267-043417FM-12+0458SBLP V0201401N001512200019N0020001N1+02611+01081101371ADDAA106000091GF101991011011008001001001KA1240M+03431MA1999999096491MD1999999+0141REMSYN088AAXX  13004 83288 32595 11403 10261 20108 39649 40137 81100 333 10343 29041 55106 58014;EQDQ01  00002PRCP06
0196832880999992003081312004-13267-043417FM-12+0458SBLP V0200901N001512200019N0200001N1+02531+01581101661ADDAA106000091GA1001+999999999GF100991001001999999001001KA1240N+01891MA1999999096751MD1999999+0071REMSYN070AAXX  13124 83288 32998 00903 10253 20158 39675 40166 333 20189 58007;EQDQ01  00002PRCP06
0167832880999992003081318004-13267-043417FM-12+0458SBLP V0201801N002112200019N0200001N1+03321+01651101081ADDAA106000091GF102991021011008001001001MA1999999096221MD1999999+0001REMSYN070AAXX  13184 83288 32598 21804 10332 20165 39622 40108 82100 333 58000;EQDQ01  00002PRCP06
0208832880999992003081400004-13267-043417FM-12+0458SBLP V0201801N001012200019N0020001N1+02591+01301101351ADDAA106000091GA1001+999999999GF100991001001999999001001KA1240M+03361MA1999999096461MD1999999-0031REMSYN082AAXX  14004 83288 32995 01802 10259 20130 39646 40135 333 10336 29046 55102 59003;EQDQ01  00002PRCP06
0186832880999992003081412004-13267-043417FM-12+0458SBLP V0201401N001512200019N0200001N1+02491+01761101641ADDAA106000091GF102991001001999999001021KA1240N+01781MA1999999096741MD1999999-0011REMSYN076AAXX  14124 83288 32998 21403 10249 20176 39674 40164 80002 333 20178 59001;EQDQ01  00002PRCP06
0167832880999992003081418004-13267-043417FM-12+0458SBLP V0201801N002112200019N0200001N1+03241+01781101181ADDAA106000091GF103991011011008001001021MA1999999096311MD1999999+0091REMSYN070AAXX  14184 83288 32598 31804 10324 20178 39631 40118 81102 333 58009;EQDQ01  00002PRCP06
0198832880999992003081500004-13267-043417FM-12+0458SBLP V0201801N001012200019N0020001N1+02691+01681101221ADDAA106000091GF104991011011008001031051KA1240M+03311MA1999999096351MD1999999-0111REMSYN088AAXX  15004 83288 32595 41802 10269 20168 39635 40122 81135 333 10331 29053 55105 59011;EQDQ01  00002PRCP06
0186832880999992003081512004-13267-043417FM-12+0458SBLP V0202301N000512200019N0200001N1+02571+01801101491ADDAA106000091GF104991001001999999001051KA1240N+01921MA1999999096631MD1999999-0111REMSYN076AAXX  15124 83288 32998 42301 10257 20180 39663 40149 80005 333 20192 59011;EQDQ01  00002PRCP06
0167832880999992003081518004-13267-043417FM-12+0458SBLP V0202301N001510450019N0200001N1+03341+01451101001ADDAA106000091GF106991011011008001031021MA1999999096161MD1999999-0151REMSYN070AAXX  15184 83288 32598 62303 10334 20145 39616 40100 81132 333 59015;EQDQ01  00002PRCP06
0208832880999992003081600004-13267-043417FM-12+0458SBLP V0201801N001012200019N0020001N1+02651+01261101161ADDAA106000091GA1001+999999999GF100991001001999999001001KA1240M+03351MA1999999096291MD1999999-0061REMSYN082AAXX  16004 83288 32995 01802 10265 20126 39629 40116 333 10335 29042 55089 59006;EQDQ01  00002PRCP06
0186832880999992003081612004-13267-043417FM-12+0458SBLP V0201801N001512200019N0200001N1+02571+01561101481ADDAA106000091GF102991001001999999001091KA1240N+01991MA1999999096591MD1999999-0041REMSYN076AAXX  16124 83288 32998 21803 10257 20156 39659 40148 80009 333 20199 59004;EQDQ01  00002PRCP06
0167832880999992003081618004-13267-043417FM-12+0458SBLP V0201401N001512200019N0200001N1+03301+01411100981ADDAA106000091GF101991011011008001001001MA1999999096101MD1999999-0061REMSYN070AAXX  16184 83288 32598 11403 10330 20141 39610 40098 81100 333 59006;EQDQ01  00002PRCP06
0190832880999992003081712004-13267-043417FM-12+0458SBLP V0203201N001010450019N0200001N1+02331+01881101611ADDAY161061AY261061GF106991021081008001021051KA1240N+02061MA1999999096701MD1999999+0111MW1021REMSYN088AAXX  17124 83288 21598 63202 10233 20188 39670 40161 70266 82825 333 20206 58011 60034;
0167832880999992003081718004-13267-043417FM-12+0458SBLP V0201801N001010450019N0200001N1+03011+01911101241ADDAA106000091GF108991041081008001031999MA1999999096391MD1999999+0291REMSYN070AAXX  17184 83288 32598 81802 10301 20191 39639 40124 8483/ 333 58029;EQDQ01  00002PRCP06
0186832880999992003081812004-13267-043417FM-12+0458SBLP V0201801N000510120019N0200001N1+02451+01781101661ADDAA106000091GF108991051081008001001051KA1240N+02221MA1999999096751MD1999999+0051REMSYN076AAXX  18124 83288 32598 81801 10245 20178 39675 40166 85805 333 20222 58005;EQDQ01  00002PRCP06
0167832880999992003081818004-13267-043417FM-12+0458SBLP V0201401N002110120019N0200001N1+02491+01961101581ADDAA106000091GF108991051081008001021999MA1999999096661MD1999999+0271REMSYN070AAXX  18184 83288 32598 81404 10249 20196 39666 40158 8582/ 333 58027;EQDQ01  00002PRCP06
0198832880999992003081900004-13267-043417FM-12+0458SBLP V0202301N001010075019N0020001N1+02251+01941101821ADDAA106000091GF108991051051008001021999KA1240M+03191MA1999999096861MD1999999+0441REMSYN088AAXX  19004 83288 32595 82302 10225 20194 39686 40182 8552/ 333 10319 29075 55027 58044;EQDQ01  00002PRCP06
0186832880999992003081912004-13267-043417FM-12+0458SBLP V0201401N002110150019N0200001N1+02171+01841102051ADDAA106000091GF107991071001017501071081KA1240N+02021MA1999999097041MD1999999+0011REMSYN076AAXX  19124 83288 32798 71404 10217 20184 39704 40205 87078 333 20202 58001;EQDQ01  00002PRCP06
0167832880999992003081918004-13267-043417FM-12+0458SBLP V0201401N002110075019N0200001N1+02771+01721101631ADDAA106000091GF107991051071008001001091MA1999999096711MD1999999+0051REMSYN070AAXX  19184 83288 32598 71404 10277 20172 39671 40163 85709 333 58005;EQDQ01  00002PRCP06
0198832880999992003082000004-13267-043417FM-12+0458SBLP V0201801N002112200019N0020001N1+02331+01601101971ADDAA106000091GF102991021001017501071001KA1240M+02861MA1999999096991MD1999999+0131REMSYN088AAXX  20004 83288 32795 21804 10233 20160 39699 40197 82070 333 10286 29066 55024 58013;EQDQ01  00002PRCP06
0186832880999992003082012004-13267-043417FM-12+0458SBLP V0201401N002110450019N0200001N1+02251+01611102011ADDAA106000091GF106991021011008001041021KA1240N+01901MA1999999097131MD1999999+0091REMSYN076AAXX  20124 83288 32598 61404 10225 20161 39713 40201 82142 333 20190 58009;EQDQ01  00002PRCP06
0167832880999992003082018004-13267-043417FM-12+0458SBLP V0201401N001511050019N0200001N1+02831+01691101521ADDAA106000091GF105991011011008001031021MA1999999096571MD1999999-0141REMSYN070AAXX  20184 83288 32598 51403 10283 20169 39657 40152 81132 333 59014;EQDQ01  00002PRCP06
0208832880999992003082100004-13267-043417FM-12+0458SBLP V0201401N001512200019N0020001N1+02211+01521101771ADDAA106000091GA1001+999999999GF100991001001999999001001KA1240M+02891MA1999999096791MD1999999-0201REMSYN082AAXX  21004 83288 32995 01403 10221 20152 39679 40177 333 10289 29061 55080 59020;EQDQ01  00002PRCP06
0186832880999992003082112004-13267-043417FM-12+0458SBLP V0201401N001512200019N0200001N1+02311+01471101891ADDAA106000091GF101991001001999999001021KA1240N+01641MA1999999096931MD1999999-0201REMSYN076AAXX  21124 83288 32998 11403 10231 20147 39693 40189 80002 333 20164 59020;EQDQ01  00002PRCP06
0167832880999992003082118004-13267-043417FM-12+0458SBLP V0201401N001011050019N0200001N1+03141+01541101301ADDAA106000091GF106991021011008001001021MA1999999096391MD1999999-0181REMSYN070AAXX  21184 83288 32598 61402 10314 20154 39639 40130 82102 333 59018;EQDQ01  00002PRCP06
0208832880999992003082200004-13267-043417FM-12+0458SBLP V0201401N001512200019N0020001N1+02451+01531101451ADDAA106000091GA1001+999999999GF100991001001999999001001KA1240M+03191MA1999999096531MD1999999-0131REMSYN082AAXX  22004 83288 32995 01403 10245 20153 39653 40145 333 10319 29053 55103 59013;EQDQ01  00002PRCP06
0196832880999992003082212004-13267-043417FM-12+0458SBLP V0201401N001512200019N0200001N1+02561+01731101701ADDAA106000091GA1001+999999999GF100991001001999999001001KA1240N+01891MA1999999096781MD1999999-0151REMSYN070AAXX  22124 83288 32998 01403 10256 20173 39678 40170 333 20189 59015;EQDQ01  00002PRCP06
0167832880999992003082218004-13267-043417FM-12+0458SBLP V0202701N002112200019N0200001N1+03251+01541101101ADDAA106000091GF101991011011008001001001MA1999999096491MD1999999-0161REMSYN070AAXX  22184 83288 32598 12704 10325 20154 39649 40110 81100 333 59016;EQDQ01  00002PRCP06
0208832880999992003082300004-13267-043417FM-12+0458SBLP V0201401N001012200019N0020001N1+02571+01751101371ADDAA106000091GA1001+999999999GF100991001001999999001001KA1240M+03281MA1999999096481MD1999999-0051REMSYN082AAXX  23004 83288 32995 01402 10257 20175 39648 40137 333 10328 29054 55107 59005;EQDQ01  00002PRCP06
0186832880999992003082312004-13267-043417FM-12+0458SBLP V0200901N001512200019N0200001N1+02591+01911101721ADDAA106000091GF104991041021008001001001KA1240N+02041MA1999999096821MD1999999+0041REMSYN076AAXX  23124 83288 32598 40903 10259 20191 39682 40172 84200 333 20204 58004;EQDQ01  00002PRCP06
0137832880999992003082318004-13267-043417FM-12+0458SBLP V0203601N001512200019N0200001N1+03131+99999999999ADDAA106000091GF104991999999008001999999REMSYN069AAXX  23184 83288 32598 43603 10313 2019 39639 40126 84200 333 58013;EQDQ01  00002PRCP06
0196832880999992003082412004-13267-043417FM-12+0458SBLP V0201401N001512200019N0200001N1+02471+01461101711ADDAA106000091GA1001+999999999GF100991001001999999001001KA1240N+01821MA1999999096781MD1999999-0041REMSYN070AAXX  24124 83288 32998 01403 10247 20146 39678 40171 333 20182 59004;EQDQ01  00002PRCP06
0177832880999992003082418004-13267-043417FM-12+0458SBLP V0202701N000512200019N0200001N1+03301+01261101021ADDAA106000091GA1001+999999999GF100991001001999999001001MA1999999096171MD1999999-0221REMSYN064AAXX  24184 83288 32998 02701 10330 20126 39617 40102 333 59022;EQDQ01  00002PRCP06
0196832880999992003082512004-13267-043417FM-12+0458SBLP V0201401N001512200019N0200001N1+02731+01651101431ADDAA106000091GA1001+999999999GF100991001001999999001001KA1240N+01961MA1999999096571MD1999999-0211REMSYN070AAXX  25124 83288 32998 01403 10273 20165 39657 40143 333 20196 59021;EQDQ01  00002PRCP06
0167832880999992003082518004-13267-043417FM-12+0458SBLP V0202301N003112200019N0200001N1+03361+01071100851ADDAA106000091GF101991011021008001001001MA1999999096041MD1999999-0131REMSYN070AAXX  25184 83288 32598 12306 10336 20107 39604 40085 81200 333 59013;EQDQ01  00002PRCP06
0208832880999992003082600004-13267-043417FM-12+0458SBLP V0201401N001512200019N0020001N1+02651+01091101071ADDAA106000091GA1001+999999999GF100991001001999999001001KA1240M+03471MA1999999096221MD1999999-0251REMSYN082AAXX  26004 83288 32995 01403 10265 20109 39622 40107 333 10347 29038 55108 59025;EQDQ01  00002PRCP06
0186832880999992003082612004-13267-043417FM-12+0458SBLP V0203201N001512200019N0200001N1+02811+01901101251ADDAA106000091GF103991001001999999001041KA1240N+01981MA1999999096391MD1999999-0181REMSYN076AAXX  26124 83288 32998 33203 10281 20190 39639 40125 80004 333 20198 59018;EQDQ01  00002PRCP06
0167832880999992003082618004-13267-043417FM-12+0458SBLP V0202701N001512200019N0200001N1+03441+02041100731ADDAA106000091GF105991031021008001001041MA1999999095921MD1999999-0121REMSYN070AAXX  26184 83288 32598 52703 10344 20204 39592 40073 83204 333 59012;EQDQ01  00002PRCP06
0208832880999992003082700004-13267-043417FM-12+0458SBLP V0200901N001012200019N0020001N1+02931+02071101011ADDAA106000091GA1001+999999999GF100991001001999999001001KA1240M+03551MA1999999096201MD1999999-0021REMSYN082AAXX  27004 83288 32995 00902 10293 20207 39620 40101 333 10355 29054 55105 59002;EQDQ01  00002PRCP06
0196832880999992003082712004-13267-043417FM-12+0458SBLP V0200901N001512200019N0200001N1+02851+01581101431ADDAA106000091GA1001+999999999GF100991001001999999001001KA1240N+02101MA1999999096611MD1999999+0221REMSYN070AAXX  27124 83288 32998 00903 10285 20158 39661 40143 333 20210 58022;EQDQ01  00002PRCP06
0167832880999992003082718004-13267-043417FM-12+0458SBLP V0202301N002110450019N0200001N1+03281+01581100961ADDAA106000091GF107991041081008001031021MA1999999096121MD1999999+0201REMSYN070AAXX  27184 83288 32598 72304 10328 20158 39612 40096 84832 333 58020;EQDQ01  00002PRCP06
0198832880999992003082800004-13267-043417FM-12+0458SBLP V0201401N001510150019N0020001N1+02631+01701101261ADDAA106000091GF106991061001017501071001KA1240M+03511MA1999999096411MD1999999+0211REMSYN088AAXX  28004 83288 32795 61403 10263 20170 39641 40126 86070 333 10351 29049 55083 58021;EQDQ01  00002PRCP06
0186832880999992003082812004-13267-043417FM-12+0458SBLP V0200901N001512200019N0200001N1+02811+01751101471ADDAA106000091GF104991001001999999001091KA1240N+02231MA1999999096601MD1999999-0011REMSYN076AAXX  28124 83288 32998 40903 10281 20175 39660 40147 80009 333 20223 59001;EQDQ01  00002PRCP06
0167832880999992003082818004-13267-043417FM-12+0458SBLP V0202301N001510120019N0200001N1+03301+01841100981ADDAA106000091GF105991051081008001001001MA1999999096171MD1999999+0051REMSYN070AAXX  28184 83288 32598 52303 10330 20184 39617 40098 85800 333 58005;EQDQ01  00002PRCP06
0198832880999992003082900004-13267-043417FM-12+0458SBLP V0201401N001512200019N0020001N1+02771+01721101201ADDAA106000091GF104991041081008001001001KA1240M+03371MA1999999096371MD1999999-0041REMSYN088AAXX  29004 83288 32595 41403 10277 20172 39637 40120 84800 333 10337 29050 55061 59004;EQDQ01  00002PRCP06
0186832880999992003082912004-13267-043417FM-12+0458SBLP V0202301N001010450019N0200001N1+02681+01941101431ADDAA106000091GF105991031051008001021011KA1240N+02291MA1999999096601MD1999999+0001REMSYN076AAXX  29124 83288 32598 52302 10268 20194 39660 40143 83521 333 20229 58000;EQDQ01  00002PRCP06
0167832880999992003082918004-13267-043417FM-12+0458SBLP V0202701N001510450019N0200001N1+03341+02091100961ADDAA106000091GF106991031021008001031001MA1999999096141MD1999999-0031REMSYN070AAXX  29184 83288 32598 62703 10334 20209 39614 40096 83230 333 59003;EQDQ01  00002PRCP06
0198832880999992003083000004-13267-043417FM-12+0458SBLP V0203201N001510450019N0020001N1+02851+02171101331ADDAA106000091GF108991041081008001021999KA1240M+03411MA1999999096471MD1999999+0101REMSYN088AAXX  30004 83288 32595 83203 10285 20217 39647 40133 8482/ 333 10341 29059 55067 58010;EQDQ01  00002PRCP06
0162832880999992003083012004-13267-043417FM-12+0458SBLP V0200901N001012200019N0200001N1+02541+01951101521ADDGF105991031001017501081041KA1240N+02101MA1999999096651MD1999999+0051REMSYN082AAXX  30124 83288 22798 50902 10254 20195 39665 40152 83084 333 20210 58005 60044;
0167832880999992003083018004-13267-043417FM-12+0458SBLP V0201401N001510450019N0200001N1+03221+01611101251ADDAA106000091GF107991031081008001031001MA1999999096311MD1999999+0171REMSYN070AAXX  30184 83288 32598 71403 10322 20161 39631 40125 83830 333 58017;EQDQ01  00002PRCP06
0171832880999992003083112004-13267-043417FM-12+0458SBLP V0201401N001019999999N0200001N1+02671+01871101211ADDAA106000091GF106991999999017501999999KA1240N+02131MA1999999096351REMSYN075AAXX  31124 83288 32798 61402 10267 20187 39635 40121 8108 333 20213 59030;EQDQ01  00002PRCP06
0143832880999992003083118004-13267-043417FM-12+0458SBLP V0201801N001510450019N0200001N1+02511+02271101331ADDGF108991041081008001071071MA1999999096401MD1999999+0091REMSYN076AAXX  31184 83288 22598 81803 10251 20227 39640 40133 84877 333 58009 60061;
0162832880999992003090112004-13267-043417FM-12+0458SBLP V0202301N001012200019N0200001N1+02531+01811101781ADDGF102991011011008001061041KA1240N+01961MA1999999096801MD1999999-0041REMSYN082AAXX  01124 83288 22598 22302 10253 20181 39680 40178 81164 333 20196 59004 60074;
0167832880999992003090118004-13267-043417FM-12+0458SBLP V0202301N001012200019N0200001N1+03371+01261101101ADDAA106000091GF103991021011008001001041MA1999999096261MD1999999-0141REMSYN070AAXX  01184 83288 32598 32302 10337 20126 39626 40110 82104 333 59014;EQDQ01  00002PRCP06
0198832880999992003090200004-13267-043417FM-12+0458SBLP V0202301N001019999999N0020001N1+02841+01501101401ADDAA106000091GF105991041021999999001021KA1240M+03501MA1999999096541MD1999999+0001REMSYN088AAXX  02004 83288 32995 52302 10284 20150 39654 40140 84202 333 10350 29044 55096 58000;EQDQ01  00002PRCP06
0186832880999992003090212004-13267-043417FM-12+0458SBLP V0200901N001012200019N0200001N1+02651+01731101761ADDAA106000091GF104991001001999999001021KA1240N+01981MA1999999096891MD1999999+0091REMSYN076AAXX  02124 83288 32998 40902 10265 20173 39689 40176 80002 333 20198 58009;EQDQ01  00002PRCP06
0167832880999992003090218004-13267-043417FM-12+0458SBLP V0201401N002111050019N0200001N1+03281+01821101291ADDAA106000091GF106991021011008001001071MA1999999096431MD1999999+0171REMSYN070AAXX  02184 83288 32598 61404 10328 20182 39643 40129 82107 333 58017;EQDQ01  00002PRCP06
0198832880999992003090300004-13267-043417FM-12+0458SBLP V0201401N001512200019N0020001N1+02651+01731101531ADDAA106000091GF103991001001999999001021KA1240M+03351MA1999999096651MD1999999+0111REMSYN088AAXX  03004 83288 32995 31403 10265 20173 39665 40153 80002 333 10335 29053 55066 58011;EQDQ01  00002PRCP06
0186832880999992003090312004-13267-043417FM-12+0458SBLP V0200901N001019999999N0200001N1+02471+01501101891ADDAA106000091GF107991001001999999001061KA1240N+02001MA1999999096971MD1999999+0081REMSYN076AAXX  03124 83288 32998 70902 10247 20150 39697 40189 80006 333 20200 58008;EQDQ01  00002PRCP06
0167832880999992003090318004-13267-043417FM-12+0458SBLP V0200901N001511050019N0200001N1+03131+01301101481ADDAA106000091GF106991011011008001001021MA1999999096531MD1999999+0101REMSYN070AAXX  03184 83288 32598 60903 10313 20130 39653 40148 81102 333 58010;EQDQ01  00002PRCP06
0198832880999992003090400004-13267-043417FM-12+0458SBLP V0201401N002119999999N0020001N1+02571+01311101671ADDAA106000091GF105991001001999999001061KA1240M+03211MA1999999096751MD1999999+0101REMSYN088AAXX  04004 83288 32995 51404 10257 20131 39675 40167 80006 333 10321 29045 55063 58010;EQDQ01  00002PRCP06
0186832880999992003090412004-13267-043417FM-12+0458SBLP V0201401N001512200019N0200001N1+02551+01571101721ADDAA106000091GF103991021011008001031001KA1240N+01951MA1999999096811MD1999999-0161REMSYN076AAXX  04124 83288 32598 31403 10255 20157 39681 40172 82130 333 20195 59016;EQDQ01  00002PRCP06
0166832880999992003090418004-13267-043417FM-12+0458SBLP V0201401N001512200019N0200001N1+03261+01331101331ADDAA106000091GF104991041011008001001001MA1999999096451MD1999999-0081REMSYN069AAXX  04184 83288 32598 41403 1032620133 39645 40133 84100 333 59008;EQDQ01  00002PRCP06
0198832880999992003090500004-13267-043417FM-12+0458SBLP V0201401N001512200019N0200001N1+02741+01341101511ADDAA106000091GF102991021011008001001001KA1240M+03351MA1999999096631MD1999999-0121REMSYN088AAXX  05004 83288 32598 21403 10274 20134 39663 40151 82100 333 10335 29043 55101 59012;EQDQ01  00002PRCP06
0186832880999992003090512004-13267-043417FM-12+0458SBLP V0201801N001012200019N0200001N1+02481+01431101201ADDAA106000091GF102991011011008001001021KA1240N+01961MA1999999097091MD1999999+0281REMSYN076AAXX  05124 83288 32598 21802 10248 20143 39709 40120 81102 333 20196 58028;EQDQ01  00002PRCP06
0167832880999992003090518004-13267-043417FM-12+0458SBLP V0201401N001512200019N0200001N1+02091+02021101521ADDAA106000091GF104991041021008001001001MA1999999096611MD1999999+0161REMSYN070AAXX  05184 83288 32598 41403 10209 20202 39661 40152 84200 333 58016;EQDQ01  00002PRCP06
0198832880999992003090600004-13267-043417FM-12+0458SBLP V0201401N001512200019N0020001N1+02651+01671101681ADDAA106000091GF102991021011008001001001KA1240M+03191MA1999999096771MD1999999+0141REMSYN088AAXX  06004 83288 32595 21403 10265 20167 39677 40168 82100 333 10319 29053 55090 58014;EQDQ01  00002PRCP06
0196832880999992003090612004-13267-043417FM-12+0458SBLP V0201401N002612200019N0200001N1+02371+01431101931ADDAA106000091GA1001+999999999GF100991001001999999001001KA1240N+01941MA1999999097001MD1999999-0091REMSYN070AAXX  06124 83288 32998 01405 10237 20143 39700 40193 333 20194 59009;EQDQ01  00002PRCP06
0167832880999992003090618004-13267-043417FM-12+0458SBLP V0201401N002112200019N0200001N1+03191+01441101351ADDAA106000091GF101991011011008001001001MA1999999096411MD1999999-0201REMSYN070AAXX  06184 83288 32598 11404 10319 20144 39641 40135 81100 333 59020;EQDQ01  00002PRCP06
0202832880999992003090712004-13267-043417FM-12+0458SBLP V0201401N001512200019N0200001N1+02401+01441101851ADDAA106000091GF102991999011008001001001KA1240N+01831MA1999999096911MD1999999-0091REMSYN076AAXX  07124 83288 32598 21403 10240 20144 39691 40185 81100 333 20183 59009;EQDQ01+000012SCOTLCQ02  00002PRCP06
0183832880999992003090718004-13267-043417FM-12+0458SBLP V0202301N001012200019N0200001N1+03171+01471101201ADDAA106000091GF102991999011008001001001MA1999999096341MD1999999-0071REMSYN070AAXX  07184 83288 32598 22302 10317 20147 39634 40120 81100 333 59007;EQDQ01+000012SCOTLCQ02  00002PRCP06
0208832880999992003090800004-13267-043417FM-12+0458SBLP V0201401N001512200019N0020001N1+02551+02111101451ADDAA106000091GA1001+999999999GF100991001001999999001001KA1240M+03181MA1999999096541MD1999999-0031REMSYN082AAXX  08004 83288 32995 01403 10255 20211 39654 40145 333 10318 29056 55108 59003;EQDQ01  00002PRCP06
0196832880999992003090812004-13267-043417FM-12+0458SBLP V0201401N001512200019N0200001N1+02331+01541101851ADDAA106000091GA1001+999999999GF100991001001999999001001KA1240N+01761MA1999999096921MD1999999+0011REMSYN070AAXX  08124 83288 32998 01403 10233 20154 39692 40185 333 20176 58001;EQDQ01  00002PRCP06
0167832880999992003090818004-13267-043417FM-12+0458SBLP V0202701N001012200019N0200001N1+03111+01881101221ADDAA106000091GF102991021011008001001001MA1999999096331MD1999999-0011REMSYN070AAXX  08184 83288 32598 22702 10311 20188 39633 40122 82100 333 59001;EQDQ01  00002PRCP06
0198832880999992003090900004-13267-043417FM-12+0458SBLP V0201401N001512200019N0020001N1+02651+01611101291ADDAA106000091GF102991021011008001001001KA1240M+03251MA1999999096491MD1999999-0051REMSYN088AAXX  09004 83288 32595 21403 10265 20161 39649 40129 82100 333 10325 29054 55108 59005;EQDQ01  00002PRCP06
0196832880999992003090912004-13267-043417FM-12+0458SBLP V0201401N001512200019N0200001N1+02551+01571101701ADDAA106000091GA1001+999999999GF100991001001999999001001KA1240N+01921MA1999999096781MD1999999-0141REMSYN070AAXX  09124 83288 32998 01403 10255 20157 39678 40170 333 20192 59014;EQDQ01  00002PRCP06
0198832880999992003091000004-13267-043417FM-12+0458SBLP V0201401N001512200019N0020001N1+02691+00961101411ADDAA106000091GF101991011011008001001001KA1240M+03431MA1999999096511MD1999999+0021REMSYN088AAXX  10004 83288 32595 11403 10269 20096 39651 40141 81100 333 10343 29036 55109 58002;EQDQ01  00002PRCP06
0196832880999992003091012004-13267-043417FM-12+0458SBLP V0201401N001012200019N0200001N1+02631+01561101551ADDAA106000091GA1001+999999999GF100991001001999999001001KA1240N+01961MA1999999096681MD1999999-0101REMSYN070AAXX  10124 83288 32998 01402 10263 20156 39668 40155 333 20196 59010;EQDQ01  00002PRCP06
0183832880999992003091018004-13267-043417FM-12+0458SBLP V0201401N000512200019N0200001N1+03271+01171100971ADDAA106000091GF102991999011008001001001MA1999999096141MD1999999-0111REMSYN070AAXX  10184 83288 32598 21401 10327 20117 39614 40097 81100 333 59011;EQDQ01+000012SCOTLCQ02  00002PRCP06
0214832880999992003091100004-13267-043417FM-12+0458SBLP V0201801N001512200019N0020001N1+02841+02111101061ADDAA106000091GF102991999011008001001001KA1240M+03481MA1999999096221MD1999999-0291REMSYN088AAXX  11004 83288 32595 21803 10284 20211 39622 40106 81100 333 10348 29039 55108 59029;EQDQ01+000012SCOTLCQ02  00002PRCP06
0196832880999992003091112004-13267-043417FM-12+0458SBLP V0201401N001512200019N0200001N1+02731+02011101411ADDAA106000091GA1001+999999999GF100991001001999999001001KA1240N+02061MA1999999096571MD1999999-0111REMSYN070AAXX  11124 83288 32998 01403 10273 20201 39657 40141 333 20206 59011;EQDQ01  00002PRCP06
0167832880999992003091118004-13267-043417FM-12+0458SBLP V0201801N002112200019N0200001N1+03401+01961100911ADDAA106000091GF104991041021008001001001MA1999999096101MD1999999-0041REMSYN070AAXX  11184 83288 32598 41804 10340 20196 39610 40091 84200 333 59004;EQDQ01  00002PRCP06
0208832880999992003091200004-13267-043417FM-12+0458SBLP V0201401N001512200019N0020001N1+02741+01761101151ADDAA106000091GA1001+999999999GF100991001001999999001001KA1240M+03531MA1999999096301MD1999999+0081REMSYN082AAXX  12004 83288 32995 01403 10274 20176 39630 40115 333 10353 29054 55096 58008;EQDQ01  00002PRCP06
0186832880999992003091212004-13267-043417FM-12+0458SBLP V0200901N002112200019N0200001N1+02751+01701101561ADDAA106000091GF101991011011008001001001KA1240N+02181MA1999999096701MD1999999+0131REMSYN076AAXX  12124 83288 32598 10904 10275 20170 39670 40156 81100 333 20218 58013;EQDQ01  00002PRCP06
0208832880999992003091300004-13267-043417FM-12+0458SBLP V0201401N001512200019N0020001N1+02651+01061101451ADDAA106000091GA1001+999999999GF100991001001999999001001KA1240M+03471MA1999999096581MD1999999+0281REMSYN082AAXX  13004 83288 32995 01403 10265 20106 39658 40145 333 10347 29040 55106 58028;EQDQ01  00002PRCP06
0196832880999992003091312004-13267-043417FM-12+0458SBLP V0201401N001512200019N0200001N1+02741+01571101721ADDAA106000091GA1001+999999999GF100991001001999999001001KA1240N+01941MA1999999096841MD1999999+0141REMSYN070AAXX  13124 83288 32598 01403 10274 20157 39684 40172 333 20194 58014;EQDQ01  00002PRCP06
0177832880999992003091318004-13267-043417FM-12+0458SBLP V0201401N001012200019N0200001N1+03411+01201101041ADDAA106000091GA1001+999999999GF100991001001999999001001MA1999999096231MD1999999+0011REMSYN064AAXX  13184 83288 32998 01402 10341 20120 39623 40104 333 58001;EQDQ01  00002PRCP06
0167832880999992003091418004-13267-043417FM-12+0458SBLP V0201401N001512200019N0200001N1+03681+02141100781ADDAA106000091GF102991021011008001001001MA1999999096021MD1999999-0211REMSYN070AAXX  14184 83288 32598 21403 10368 20214 39602 40078 82100 333 59021;EQDQ01  00002PRCP06
0196832880999992003091512004-13267-043417FM-12+0458SBLP V0201401N001512200019N0200001N1+02751+01511101511ADDAA106000091GA1001+999999999GF100991001001999999001001KA1240N+02241MA1999999096671MD1999999-0081REMSYN070AAXX  15124 83288 32998 01403 10275 20151 39667 40151 333 20224 59008;EQDQ01  00002PRCP06
0167832880999992003091618004-13267-043417FM-12+0458SBLP V0201401N001512200019N0200001N1+03371+01561101021ADDAA106000091GF103991021011008001001021MA1999999096201MD1999999-0021REMSYN070AAXX  16184 83288 32598 31403 10337 20156 39620 40102 82102 333 59002;EQDQ01  00002PRCP06
0214832880999992003091700004-13267-043417FM-12+0458SBLP V0201401N001512200019N0020001N1+02851+01331101141ADDAA106000091GF102991999011008001001001KA1240M+03471MA1999999096301MD1999999-0181REMSYN088AAXX  17004 83288 32595 21403 10285 20133 39630 40114 81100 333 10347 29040 55107 59018;EQDQ01+000012SCOTLCQ02  00002PRCP06
0196832880999992003091712004-13267-043417FM-12+0458SBLP V0200901N001012200019N0200001N1+02751+01851101321ADDAA106000091GA1001+999999999GF100991001001999999001001KA1240N+02021MA1999999096391MD1999999-0351REMSYN070AAXX  17124 83288 32998 00902 10275 20185 39639 40132 333 20202 59035;EQDQ01  00002PRCP06
0167832880999992003091718004-13267-043417FM-12+0458SBLP V0202701N001012200019N0200001N1+03501+02091100831ADDAA106000091GF102991021011008001001001MA1999999096031MD1999999-0171REMSYN070AAXX  17184 83288 32598 22702 10350 20209 39603 40083 82100 333 59017;EQDQ01  00002PRCP06
0198832880999992003091800004-13267-043417FM-12+0458SBLP V0201401N002112200019N0020001N1+02991+01771101011ADDAA106000091GF101991011011008001001001KA1240M+03591MA1999999096201MD1999999-0101REMSYN088AAXX  18004 83288 32595 11404 10299 20177 39620 40101 81100 333 10359 29050 55106 59010;EQDQ01  00002PRCP06
0186832880999992003091812004-13267-043417FM-12+0458SBLP V0201401N001512200019N0200001N1+02911+01501101221ADDAA106000091GF102991001001999999001011KA1240N+02101MA1999999096421MD1999999+0001REMSYN076AAXX  18124 83288 32998 21403 10291 20150 39642 40122 80001 333 20210 58000;EQDQ01  00002PRCP06
0167832880999992003091818004-13267-043417FM-12+0458SBLP V0202701N002112200019N0200001N1+03621+01591100581ADDAA106000091GF102991021021008001001001MA1999999095811MD1999999-0221REMSYN070AAXX  18184 83288 32598 22704 10362 20159 39581 40058 82200 333 59022;EQDQ01  00002PRCP06
0208832880999992003091900004-13267-043417FM-12+0458SBLP V0201401N001512200019N0020001N1+02951+01291100961ADDAA106000091GA1001+999999999GF100991001001999999001001KA1240M+03711MA1999999096171MD1999999-0031REMSYN082AAXX  19004 83288 32995 01403 10295 20129 39617 40096 333 10371 29036 55107 59003;EQDQ01  00002PRCP06
0186832880999992003091912004-13267-043417FM-12+0458SBLP V0201401N001012200019N0200001N1+02771+01691101351ADDAA106000091GF102991001001999999001021KA1240N+02171MA1999999096521MD1999999+0101REMSYN076AAXX  19124 83288 32998 21402 10277 20169 39652 40135 80002 333 20217 58010;EQDQ01  00002PRCP06
0167832880999992003091918004-13267-043417FM-12+0458SBLP V0201401N001512200019N0200001N1+03461+01601100951ADDAA106000091GF103991021021008001001021MA1999999095971MD1999999+0161REMSYN070AAXX  19184 83288 32598 31403 10346 20160 39597 40095 82202 333 58016;EQDQ01  00002PRCP06
0208832880999992003092000004-13267-043417FM-12+0458SBLP V0201401N001512200019N0020001N1+02891+01501100811ADDAA106000091GA1001+999999999GF100991001001999999001001KA1240M+03551MA1999999096011MD1999999-0161REMSYN082AAXX  20004 83288 32995 01403 10289 20150 39601 40081 333 10355 29043 55101 59016;EQDQ01  00002PRCP06
0186832880999992003092012004-13267-043417FM-12+0458SBLP V0200901N001512200019N0200001N1+02731+02011101391ADDAA106000091GF102991001001999999001021KA1240N+02131MA1999999096551MD1999999+0031REMSYN076AAXX  20124 83288 32998 20903 10273 20201 39655 40139 80002 333 20213 58003;EQDQ01  00002PRCP06
0167832880999992003092018004-13267-043417FM-12+0458SBLP V0201801N001512200019N0200001N1+03481+01961100801ADDAA106000091GF103991031011008001001001MA1999999096011MD1999999+0041REMSYN070AAXX  20184 83288 32598 31803 10348 20196 39601 40080 83100 333 58004;EQDQ01  00002PRCP06
0208832880999992003092100004-13267-043417FM-12+0458SBLP V0200901N001512200019N0020001N1+02751+01821101101ADDAA106000091GA1001+999999999GF100991001001999999001001KA1240M+03551MA1999999096261MD1999999+0251REMSYN082AAXX  21004 83288 32995 00903 10275 20182 39626 40110 333 10355 29054 55103 58025;EQDQ01  00002PRCP06
0186832880999992003092112004-13267-043417FM-12+0458SBLP V0200901N002112200019N0200001N1+02781+01701101511ADDAA106000091GF104991011011008001001051KA1240N+02041MA1999999096651MD1999999+0101REMSYN076AAXX  21124 83288 32598 40904 10278 20170 39665 40151 81105 333 20204 58010;EQDQ01  00002PRCP06
0167832880999992003092118004-13267-043417FM-12+0458SBLP V0201401N001511050019N0200001N1+03461+01451100891ADDAA106000091GF105991031021008001001051MA1999999096091MD1999999+0081REMSYN070AAXX  21184 83288 32598 51403 10346 20145 39609 40089 83205 333 58008;EQDQ01  00002PRCP06
0208832880999992003092200004-13267-043417FM-12+0458SBLP V0201401N001012200019N0020001N1+02791+01391101301ADDAA106000091GA1001+999999999GF100991001001999999001001KA1240M+03351MA1999999096461MD1999999+0201REMSYN082AAXX  22004 83288 32995 01402 10279 20139 39646 40130 333 10335 29042 55097 58020;EQDQ01  00002PRCP06
0202832880999992003092212004-13267-043417FM-12+0458SBLP V0201401N001512200019N0200001N1+02731+01561101531ADDAA106000091GF103991999011008001001041KA1240N+02111MA1999999096671MD1999999+0021REMSYN076AAXX  22124 83288 32598 31403 10273 20156 39667 40153 84104 333 20211 58002;EQDQ01+000042SCOTLCQ02  00002PRCP06
0167832880999992003092218004-13267-043417FM-12+0458SBLP V0201401N001511050019N0200001N1+03371+01411100981ADDAA106000091GF106991031011008001001021MA1999999096011MD1999999-0081REMSYN070AAXX  22184 83288 32598 61403 10337 20141 39601 40098 83102 333 59008;EQDQ01  00002PRCP06
0208832880999992003092400004-13267-043417FM-12+0458SBLP V0201801N001012200019N0020001N1+02791+01711100981ADDAA106000091GA1001+999999999GF100991001001999999001001KA1240M+03531MA1999999096151MD1999999+0001REMSYN082AAXX  24004 83288 32995 01802 10279 20171 39615 40098 333 10353 29049 55109 58000;EQDQ01  00002PRCP06
0196832880999992003092412004-13267-043417FM-12+0458SBLP V0202301N001012200019N0200001N1+02671+01301101261ADDAA106000091GA1001+999999999GF100991001001999999001001KA1240N+01961MA1999999096411MD1999999-0161REMSYN070AAXX  24124 83288 32998 02302 10267 20130 39641 40126 333 20196 59016;EQDQ01  00002PRCP06
0177832880999992003092418004-13267-043417FM-12+0458SBLP V0202301N000512200019N0200001N1+03621+00971100571ADDAA106000091GA1001+999999999GF100991001001999999001001MA1999999095781MD1999999-0211REMSYN064AAXX  24184 83288 32998 02301 10362 20097 39578 40057 333 59021;EQDQ01  00002PRCP06
0208832880999992003092500004-13267-043417FM-12+0458SBLP V0201401N001512200019N0020001N1+02811+00511100771ADDAA106000091GA1001+999999999GF100991001001999999001001KA1240M+03691MA1999999095971MD1999999-0181REMSYN082AAXX  25004 83288 32995 01403 10281 20051 39597 40077 333 10369 29027 55110 59018;EQDQ01  00002PRCP06
0196832880999992003092512004-13267-043417FM-12+0458SBLP V0202701N000512200019N0200001N1+02751+01391101271ADDAA106000091GA1001+999999999GF100991001001999999001001KA1240N+01931MA1999999096371MD1999999-0041REMSYN070AAXX  25124 83288 32598 02701 10275 20139 39637 40127 333 20193 59004;EQDQ01  00002PRCP06
0177832880999992003092518004-13267-043417FM-12+0458SBLP V0202701N001512200019N0200001N1+03721+01241100831ADDAA106000091GA1001+999999999GF100991001001999999001001MA1999999095711MD1999999-0071REMSYN064AAXX  25184 83288 32998 02703 10372 20124 39571 40083 333 59007;EQDQ01  00002PRCP06
0208832880999992003092600004-13267-043417FM-12+0458SBLP V0201401N000512200019N0020001N1+02791+00281100711ADDAA106000091GA1001+999999999GF100991001001999999001001KA1240M+03731MA1999999095891MD1999999-0081REMSYN082AAXX  26004 83288 32595 01401 10279 20028 39589 40071 333 10373 29029 55103 59008;EQDQ01  00002PRCP06
0196832880999992003092612004-13267-043417FM-12+0458SBLP V0202701N001012200019N0200001N1+02931+01541101091ADDAA106000091GA1001+999999999GF100991001001999999001001KA1240N+01921MA1999999096271MD1999999-0101REMSYN070AAXX  26124 83288 32998 02702 10293 20154 39627 40109 333 20192 59010;EQDQ01  00002PRCP06
0177832880999992003092618004-13267-043417FM-12+0458SBLP V0202701N001512200019N0200001N1+03721+01871100471ADDAA106000091GA1001+999999999GF100991001001999999001001MA1999999095711MD1999999+0001REMSYN064AAXX  26184 83288 32998 02703 10372 20187 39571 40047 333 58000;EQDQ01  00002PRCP06
0208832880999992003092700004-13267-043417FM-12+0458SBLP V0201801N001012200019N0020001N1+02951+01561100671ADDAA106000091GA1001+999999999GF100991001001999999001001KA1240M+03791MA1999999095871MD1999999-0021REMSYN082AAXX  27004 83288 32995 01802 10295 20156 39587 40067 333 10379 29040 55094 59002;EQDQ01  00002PRCP06
0196832880999992003092712004-13267-043417FM-12+0458SBLP V0200501N001512200019N0200001N1+02951+01021100991ADDAA106000091GA1001+999999999GF100991001001999999001001KA1240N+02021MA1999999096201MD1999999-0071REMSYN070AAXX  27124 83288 32998 00503 10295 20102 39620 40099 333 20202 59007;EQDQ01  00002PRCP06
0177832880999992003092718004-13267-043417FM-12+0458SBLP V0203601N000512200019N0200001N1+03761+01541100221ADDAA106000091GA1001+999999999GF100991001001999999001001MA1999999095481MD1999999-0231REMSYN064AAXX  27184 83288 32998 03601 10376 20154 39548 40022 333 59023;EQDQ01  00002PRCP06
0208832880999992003092800004-13267-043417FM-12+0458SBLP V0203601N001012200019N0020001N1+03011+00841100471ADDAA106000091GA1001+999999999GF100991001001999999001001KA1240M+03831MA1999999095711MD1999999-0161REMSYN082AAXX  28004 83288 32995 03602 10301 20084 39571 40047 333 10383 29026 55104 59016;EQDQ01  00002PRCP06
0253832880999992003092812004-13267-043417SY-MT+0458SBLP V0202701N00051220001CN0200001N1+03041+01571100931ADDAA106000091GF101991001001999999001041KA1240N+02361MA1101391096151MD1999999-0051MW1001REMSYN076AAXX  28124 83288 32998 12701 10304 20157 39615 40093 80004 333 20236 59005;MET039SBLP 281200Z 00000KT CAVOK 31/13 Q1014;EQDQ01+000000PRSWM2Q02  00002PRCP06
0091832880999992003092813004-13267-043417FM-15+0458SBLP V0209999C00001220001CN0099001N1+03401+01201999999ADDMA1101391999999MW1001REMMET039SBLP 281300Z 00000KT CAVOK 34/12 Q1014;EQDQ01+000000PRSWM2
0091832880999992003092814004-13267-043417FM-15+0458SBLP V0203601N00311220001CN0099001N1+03601+01201999999ADDMA1101291999999MW1001REMMET039SBLP 281400Z 36006KT CAVOK 36/12 Q1013;EQDQ01+000000PRSWM2
0139832880999992003092815004-13267-043417FM-15+0458SBLP V0203601N003112200019N0112651N1+03701+01101999999ADDGA1021+009009999GF102991999999999999999999MA1101191999999MW1001REMMET045SBLP 281500Z 36006KT 9999 FEW030 37/11 Q1012;EQDQ01+000000PRSWM2
0162832880999992003092816004-13267-043417FM-15+0458SBLP V0203601N002112200019N0112651N1+03801+01301999999ADDGA1021+009009999GA2041+030009999GF104991999999999999999999MA1101021999999MW1001REMMET052SBLP 281600Z 36004KT 9999 FEW030 SCT100 38/13 Q1010;EQDQ01+000000PRSWM2
0162832880999992003092817004-13267-043417FM-15+0458SBLP V0201901N002112200019N0112651N1+03701+01401999999ADDGA1021+009009999GA2041+030009999GF104991999999999999999999MA1100911999999MW1001REMMET052SBLP 281700Z 19004KT 9999 FEW030 SCT100 37/14 Q1009;EQDQ01+000000PRSWM2
0167832880999992003092818004-13267-043417FM-12+0458SBLP V0202701N001010450019N0200001N1+03681+01641100621ADDAA106000091GF106991041081008001021001MA1999999095861MD1999999+0381REMSYN070AAXX  28184 83288 32598 62702 10368 20164 39586 40062 84820 333 58038;EQDQ01  00002PRCP06
0198832880999992003092900004-13267-043417FM-12+0458SBLP V0202701N001510075019N0020001N1+03161+01631100551ADDAA106000091GF106991061001008001021001KA1240M+03731MA1999999095811MD1999999+0101REMSYN088AAXX  29004 83288 32595 62703 10316 20163 39581 40055 86020 333 10373 29036 55069 58010;EQDQ01  00002PRCP06
0186832880999992003092912004-13267-043417FM-12+0458SBLP V0209999C000010450019N0200001N1+02811+02041101781ADDAA106000091GF105991031081008001031001KA1240N+02381MA1999999096291MD1999999+0141REMSYN076AAXX  29124 83288 32598 50000 10281 20204 39629 40178 83830 333 20238 58014;EQDQ01  00002PRCP06
0198832880999992003093000004-13267-043417FM-12+0458SBLP V0201401N001010075019N0020001N1+02841+00221100951ADDAA106000091GF108991061021008001021999KA1240M+03751MA1999999096131MD1999999+0321REMSYN088AAXX  30004 83288 32595 81402 10284 20022 39613 40095 8622/ 333 10375 29056 55036 58032;EQDQ01  00002PRCP06
0186832880999992003093012004-13267-043417FM-12+0458SBLP V0209999C000010450019N0200001N1+02731+01951101181ADDAA106000091GF107991041081008001031001KA1240N+02321MA1999999096351MD1999999+0061REMSYN076AAXX  30124 83288 32598 70000 10273 20195 39635 40118 84830 333 20232 58006;EQDQ01  00002PRCP06
0091832880999992003093013004-13267-043417FM-15+0458SBLP V0209999C00001220001CN0099001N1+03001+01801999999ADDMA1101591999999MW1001REMMET039SBLP 301300Z 00000KT CAVOK 30/18 Q1016;EQDQ01+000000PRSWM2
0091832880999992003093014004-13267-043417FM-15+0458SBLP V0209999C00001220001CN0099001N1+03201+01801999999ADDMA1101491999999MW1001REMMET039SBLP 301400Z 00000KT CAVOK 32/18 Q1015;EQDQ01+000000PRSWM2
0167832880999992003093018004-13267-043417FM-12+0458SBLP V0201401N001010450019N0200001N1+03261+01881100841ADDAA106000091GF106991031021008001031061MA1999999096041MD1999999+0211REMSYN070AAXX  30184 83288 32598 61402 10326 20188 39604 40084 83236 333 58021;EQDQ01  00002PRCP06
0202832880999992003100100004-13267-043417FM-12+0458SBLP V0201801N001510150019N0020001N1+02651+01951101081ADDAY191061AY261061GF108991081001017501071999KA1240M+03351MA1999999096231MD1999999+0101MW1021REMSYN100AAXX  01004 83288 21795 81803 10265 20195 39623 40108 70296 8807/ 333 10335 29058 55019 58010 60121;
0190832880999992003100112004-13267-043417FM-12+0458SBLP V0202301N000510075019N0200001N1+02271+02071101581ADDAY151061AY251061GF108991061051008001021999KA1240N+02051MA1999999096661MD1999999+0311MW1021REMSYN088AAXX  01124 83288 21598 82301 10227 20207 39666 40158 70255 8652/ 333 20205 58031 60234;
0167832880999992003100118004-13267-043417FM-12+0458SBLP V0201801N000510450019N0200001N1+02951+01971101151ADDAA106000091GF105991041021008001021001MA1999999096271MD1999999+0231REMSYN070AAXX  01184 83288 32598 51801 10295 20197 39627 40115 84220 333 58023;EQDQ01  00002PRCP06
0198832880999992003100200004-13267-043417FM-12+0458SBLP V0201401N000510075019N0020001N1+02491+02071100981ADDAA106000091GF108991061051008001021999KA1240M+03041MA1999999096361MD1999999+0131REMSYN088AAXX  02004 83288 32595 81401 10249 20207 39636 40098 8652/ 333 10304 29074 55022 58013;EQDQ01  00002PRCP06
0186832880999992003100212004-13267-043417FM-12+0458SBLP V0200901N001012200019N0200001N1+02691+02071101481ADDAA106000091GF104991041021008001001001KA1240N+02161MA1999999096581MD1999999-0081REMSYN076AAXX  02124 83288 32598 40902 10269 20207 39658 40148 84200 333 20216 59008;EQDQ01  00002PRCP06
0167832880999992003100218004-13267-043417FM-12+0458SBLP V0201401N001512200019N0200001N1+03221+01771100871ADDAA106000091GF105991031021008001001041MA1999999096031MD1999999-0241REMSYN070AAXX  02184 83288 32598 51403 10322 20177 39603 40087 83204 333 59024;EQDQ01  00002PRCP06
0208832880999992003100300004-13267-043417FM-12+0458SBLP V0201401N001512200019N0020001N1+02651+01911100961ADDAA106000091GA1001+999999999GF100991001001999999001001KA1240M+03331MA1999999096141MD1999999-0221REMSYN082AAXX  03004 83288 32995 01403 10265 20191 39614 40096 333 10333 29058 55090 59022;EQDQ01  00002PRCP06
0186832880999992003100312004-13267-043417FM-12+0458SBLP V0201401N001512200019N0200001N1+02751+01591101431ADDAA106000091GF104991001001999999001011KA1240N+02041MA1999999096561MD1999999-0021REMSYN076AAXX  03124 83288 32998 41403 10275 20159 39656 40143 80001 333 20204 59002;EQDQ01  00002PRCP06
0167832880999992003100318004-13267-043417FM-12+0458SBLP V0201401N003112200019N0200001N1+03381+01571100901ADDAA106000091GF104991011011008001001021MA1999999096081MD1999999+0051REMSYN070AAXX  03184 83288 32598 41406 10338 20157 39608 40090 81102 333 58005;EQDQ01  00002PRCP06
0208832880999992003100400004-13267-043417FM-12+0458SBLP V0201401N002112200019N0020001N1+02691+01321101131ADDAA106000091GA1001+999999999GF100991001001999999001001KA1240M+03431MA1999999096281MD1999999+0141REMSYN082AAXX  04004 83288 32995 01404 10269 20132 39628 40113 333 10343 29042 55099 58014;EQDQ01  00002PRCP06
0186832880999992003100412004-13267-043417FM-12+0458SBLP V0201401N001512200019N0200001N1+02761+01691101451ADDAA106000091GF103991031011008001021041KA1240N+02021MA1999999096551MD1999999+0011REMSYN076AAXX  04124 83288 32598 31403 10276 20169 39655 40145 83124 333 20202 58001;EQDQ01  00002PRCP06
0167832880999992003100418004-13267-043417FM-12+0458SBLP V0202301N001012200019N0200001N1+03461+01551100931ADDAA106000091GF105991021011008001001041MA1999999096141MD1999999+0061REMSYN070AAXX  04184 83288 32598 52302 10346 20155 39614 40093 82104 333 58006;EQDQ01  00002PRCP06
0198832880999992003100500004-13267-043417FM-12+0458SBLP V0201401N000512200019N0020001N1+02891+01141100871ADDAA106000091GF102991011011008001001021KA1240M+03501MA1999999096111MD1999999-0171REMSYN088AAXX  05004 83288 32595 21401 10289 20114 39611 40087 81102 333 10350 29039 55109 59017;EQDQ01  00002PRCP06
0196832880999992003100512004-13267-043417FM-12+0458SBLP V0200901N001512200019N0200001N1+02831+01781101381ADDAA106000091GA1001+999999999GF100991001001999999001001KA1240N+01211MA1999999096551MD1999999+0001REMSYN070AAXX  05124 83288 32998 00903 10283 20178 39655 40138 333 20121 58000;EQDQ01  00002PRCP06
0167832880999992003100518004-13267-043417FM-12+0458SBLP V0201801N001012200019N0200001N1+03441+01881100631ADDAA106000091GF104991041021008001001001MA1999999095851MD1999999-0291REMSYN070AAXX  05184 83288 32598 41802 10344 20188 39585 40063 84200 333 59029;EQDQ01  00002PRCP06
0198832880999992003100600004-13267-043417FM-12+0458SBLP V0200901N001512200019N0020001N1+02831+01871100861ADDAA106000091GF103991031021008001001001KA1240M+03611MA1999999096051MD1999999-0061REMSYN088AAXX  06004 83288 32595 30903 10283 20187 39605 40086 83200 333 10361 29050 55106 59006;EQDQ01  00002PRCP06
0196832880999992003100612004-13267-043417FM-12+0458SBLP V0200901N001512200019N0200001N1+02851+01721101111ADDAA106000091GA1001+999999999GF100991001001999999001001KA1240N+02141MA1999999096291MD1999999-0261REMSYN070AAXX  06124 83288 32998 00903 10285 20172 39629 40111 333 20214 59026;EQDQ01  00002PRCP06
0167832880999992003100618004-13267-043417FM-12+0458SBLP V0202701N000512200019N0200001N1+03541+01571100501ADDAA106000091GF104991041021008001001001MA1999999095731MD1999999-0121REMSYN070AAXX  06184 83288 32598 42701 10354 20157 39573 40050 84200 333 59012;EQDQ01  00002PRCP06
0198832880999992003100700004-13267-043417FM-12+0458SBLP V0200901N002112200019N0020001N1+03011+01471100741ADDAA106000091GF102991021021008001001001KA1240M+03651MA1999999095961MD1999999-0091REMSYN088AAXX  07004 83288 32595 20904 10301 20147 39596 40074 82200 333 10365 29040 55107 59009;EQDQ01  00002PRCP06
0196832880999992003100712004-13267-043417FM-12+0458SBLP V0201801N000512200019N0200001N1+02901+01691101151ADDAA106000091GA1001+999999999GF100991001001999999001001KA1240N+02221MA1999999096351MD1999999+0061REMSYN070AAXX  07124 83288 32998 01801 10290 20169 39635 40115 333 20222 58006;EQDQ01  00002PRCP06
0167832880999992003100718004-13267-043417FM-12+0458SBLP V0202701N001012200019N0200001N1+03661+01401100611ADDAA106000091GF106991041021008001001041MA1999999095841MD1999999-0171REMSYN070AAXX  07184 83288 32598 62702 10366 20140 39584 40061 84204 333 59017;EQDQ01  00002PRCP06
0214832880999992003100800004-13267-043417FM-12+0458SBLP V0201401N001512200019N0020001N1+03031+01071100781ADDAA106000091GF102991999011008001011001KA1240M+03731MA1999999095991MD1999999+0031REMSYN088AAXX  08004 83288 32595 21403 10303 20107 39599 40078 88110 333 10373 29035 55094 58003;EQDQ01+000082SCOTLCQ02  00002PRCP06
0208832880999992003100812004-13267-043417FM-12+0458SBLP V0201401N001512200019N0020001N1+02791+00911100561ADDAA106000091GA1001+999999999GF100991001001999999001001KA1240M+03591MA1999999096321MD1999999-0261REMSYN082AAXX  08124 83288 32995 01403 10279 20091 39632 40056 333 10359 29035 55110 59026;EQDQ01  00002PRCP06
0167832880999992003100818004-13267-043417FM-12+0458SBLP V0203601N000512200019N0200001N1+03701+01601100531ADDAA106000091GF102991021011008001001001MA1999999095781MD1999999-0081REMSYN070AAXX  08184 83288 32598 23601 10370 20160 39578 40053 82100 333 59008;EQDQ01  00002PRCP06
0208832880999992003100900004-13267-043417FM-12+0458SBLP V0200901N001012200019N0200001N1+02931+01471100931ADDAA106000091GA1001+999999999GF100991001001999999001001KA1240M+03751MA1999999096131MD1999999+0141REMSYN082AAXX  09004 83288 32998 00902 10293 20147 39613 40093 333 10375 29042 55110 58014;EQDQ01  00002PRCP06
0186832880999992003100912004-13267-043417FM-12+0458SBLP V0200501N001512200019N0200001N1+02871+01641101091ADDAA106000091GF103991001001999999001011KA1240N+02121MA1999999096281MD1999999-0021REMSYN076AAXX  09124 83288 32998 30503 10287 20164 39628 40109 80001 333 20212 59002;EQDQ01  00002PRCP06
0167832880999992003100918004-13267-043417FM-12+0458SBLP V0200901N002112200019N0200001N1+03581+01751100581ADDAA106000091GF103991011011008001001041MA1999999095821MD1999999+0041REMSYN070AAXX  09184 83288 32598 30904 10358 20175 39582 40058 81104 333 58004;EQDQ01  00002PRCP06
0198832880999992003101000004-13267-043417FM-12+0458SBLP V0200501N001012200019N0020001N1+02771+00691100701ADDAA106000091GF102991001001999999001021KA1240M+03671MA1999999095891MD1999999-0241REMSYN088AAXX  10004 83288 32995 20502 10277 20069 39589 40070 80002 333 10367 29034 55108 59024;EQDQ01  00002PRCP06
0186832880999992003101012004-13267-043417FM-12+0458SBLP V0201401N001012200019N0200001N1+02951+01761101061ADDAA106000091GF103991021011008001001041KA1240N+02141MA1999999096251MD1999999-0031REMSYN076AAXX  10124 83288 32598 31402 10295 20176 39625 40106 82104 333 20214 59003;EQDQ01  00002PRCP06
0167832880999992003101018004-13267-043417FM-12+0458SBLP V0202301N001010075019N0200001N1+03561+01431100571ADDAA106000091GF106991061011008001021001MA1999999095811MD1999999+0011REMSYN070AAXX  10184 83288 32598 62302 10356 20143 39581 40057 86120 333 58001;EQDQ01  00002PRCP06
0198832880999992003101100004-13267-043417FM-12+0458SBLP V0201801N001510450019N0020001N1+03071+01931100631ADDAA106000091GF105991031011008001021001KA1240M+03071MA1999999095861MD1999999+0031REMSYN088AAXX  11004 83288 32595 51803 10307 20193 39586 40063 83120 333 10307 29041 55085 58003;EQDQ01  00002PRCP06
0196832880999992003101112004-13267-043417FM-12+0458SBLP V0201801N001512200019N0200001N1+02981+01591101061ADDAA106000091GA1001+999999999GF100991001001999999001001KA1240N+02161MA1999999096271MD1999999+0021REMSYN070AAXX  11124 83288 32998 01803 10298 20159 39627 40106 333 20216 58002;EQDQ01  00002PRCP06
0167832880999992003101118004-13267-043417FM-12+0458SBLP V0203201N001512200019N0200001N1+03701+01761100571ADDAA106000091GF102991021011008001001001MA1999999095831MD1999999+0021REMSYN070AAXX  11184 83288 32598 23203 10370 20176 39583 40057 82100 333 58002;EQDQ01  00002PRCP06
0208832880999992003101200004-13267-043417FM-12+0458SBLP V0200901N001512200019N0020001N1+02911+01591100771ADDAA106000091GA1001+999999999GF100991001001999999001001KA1240M+03751MA1999999095991MD1999999+0131REMSYN082AAXX  12004 83288 32995 00903 10291 20159 39599 40077 333 10375 29040 55112 58013;EQDQ01  00002PRCP06
0196832880999992003101212004-13267-043417FM-12+0458SBLP V0202301N002112200019N0200001N1+02911+01261101021ADDAA106000091GA1001+999999999GF100991001001999999001001KA1240N+02141MA1999999096221MD1999999-0051REMSYN070AAXX  12124 83288 32998 02304 10291 20126 39622 40102 333 20214 59005;EQDQ01  00002PRCP06
0167832880999992003101218004-13267-043417FM-12+0458SBLP V0202301N001012200019N0200001N1+03701+01431100501ADDAA106000091GF101991011011008001001001MA1999999095761MD1999999-0071REMSYN070AAXX  12184 83288 32598 12302 10370 20143 39576 40050 81100 333 59007;EQDQ01  00002PRCP06
0208832880999992003101300004-13267-043417FM-12+0458SBLP V0201401N002612200019N0020001N1+03091+01141100661ADDAA106000091GA1001+999999999GF100991001001999999001001KA1240M+03771MA1999999095891MD1999999-0101REMSYN082AAXX  13004 83288 32995 01405 10309 20114 39589 40066 333 10377 29031 55106 59010;EQDQ01  00002PRCP06
0186832880999992003101312004-13267-043417FM-12+0458SBLP V0201801N001511050019N0200001N1+02871+01811101501ADDAA106000091GF106991041011008001001021KA1240N+02431MA1999999096691MD1999999+0371REMSYN076AAXX  13124 83288 32598 61803 10287 20181 39669 40150 84102 333 20243 58037;EQDQ01  00002PRCP06
0199832880999992003101318004-13267-043417FM-12+0458SBLP V0201401N001510450019N0200001N1+03401+01411100672ADDAA106000091GF105991031051008001021001MA1999999095892MD1999999+0131REMSYN070AAXX  13184 83288 32598 51403 10340 20141 39589 40067 83520 333 58013;EQDQ01+095893APOSP Q02+100673APOSLPQ03  00002PRCP06
0198832880999992003101400004-13267-043417FM-12+0458SBLP V0201401N001012200019N0020001N1+02951+01191100991ADDAA106000091GF103991021021008001021001KA1240M+03531MA1999999096191MD1999999+0301REMSYN088AAXX  14004 83288 32595 31402 10295 20119 39619 40099 82220 333 10353 29039 55061 58030;EQDQ01  00002PRCP06
0190832880999992003101412004-13267-043417FM-12+0458SBLP V0201801N001510450019N0200001N1+02631+01941101391ADDAY161061AY261061GF106991031011008001051001KA1240N+02201MA1999999096531MD1999999-0161MW1021REMSYN088AAXX  14124 83288 21598 61803 10263 20194 39653 40139 70266 83150 333 20220 59016 60014;
0167832880999992003101418004-13267-043417FM-12+0458SBLP V0201801N002110075019N0200001N1+02811+01881101091ADDAA106000091GF108991051051008001011999MA1999999096201MD1999999+0311REMSYN070AAXX  14184 83288 32598 81804 10281 20188 39620 40109 8551/ 333 58031;EQDQ01  00002PRCP06
0198832880999992003101500004-13267-043417FM-12+0458SBLP V0201801N001510075019N0020001N1+02511+01811101451ADDAA106000091GF108991081051008001999999KA1240M+02971MA1999999096561MD1999999+0371REMSYN088AAXX  15004 83288 32595 81803 10251 20181 39656 40145 885// 333 10297 29063 55010 58037;EQDQ01  00002PRCP06
0186832880999992003101512004-13267-043417FM-12+0458SBLP V0201401N001511050019N0200001N1+02591+01551101491ADDAA106000091GF106991021001017501031051KA1240N+02221MA1999999096591MD1999999+0061REMSYN076AAXX  15124 83288 32798 61403 10259 20155 39659 40149 82035 333 20222 58006;EQDQ01  00002PRCP06
0167832880999992003101518004-13267-043417FM-12+0458SBLP V0201801N002110450019N0200001N1+03241+01581101051ADDAA106000091GF107991021081008001051061MA1999999096211MD1999999+0011REMSYN070AAXX  15184 83288 32598 71804 10324 20158 39621 40105 82856 333 58001;EQDQ01  00002PRCP06
0208832880999992003101600004-13267-043417FM-12+0458SBLP V0201401N001512200019N0020001N1+02731+01371101291ADDAA106000091GA1001+999999999GF100991001001999999001001KA1240M+03291MA1999999096421MD1999999-0141REMSYN082AAXX  16004 83288 32995 01403 10273 20137 39642 40129 333 10329 29044 55054 59014;EQDQ01  00002PRCP06
0167832880999992003101618004-13267-043417FM-12+0458SBLP V0201401N001510075019N0200001N1+03261+01601100941ADDAA106000091GF106991051011008001001041MA1999999096131MD1999999-0081REMSYN070AAXX  16184 83288 32598 61403 10326 20160 39613 40094 85104 333 59008;EQDQ01  00002PRCP06
0208832880999992003101700004-13267-043417FM-12+0458SBLP V0201801N001512200019N0020001N1+02851+01231101171ADDAA106000091GA1001+999999999GF100991001001999999001001KA1240M+03331MA1999999096331MD1999999-0091REMSYN082AAXX  17004 83288 32995 01803 10285 20123 39633 40117 333 10333 29043 55081 59009;EQDQ01  00002PRCP06
0196832880999992003101712004-13267-043417FM-12+0458SBLP V0201801N001512200019N0200001N1+02611+01721101431ADDAA106000091GA1001+999999999GF100991001001999999001001KA1240N+01981MA1999999096561MD1999999-0111REMSYN070AAXX  17124 83288 32998 01803 10261 20172 39656 40143 333 20198 59011;EQDQ01  00002PRCP06
0167832880999992003101718004-13267-043417FM-12+0458SBLP V0201401N003012200019N0200001N1+03321+01521100811ADDAA106000091GF104991021011008001001021MA1999999096011MD1999999-0121REMSYN070AAXX  7184  83288 32598 41403 10332 20152 39601 40081 82102 333 59012;EQDQ01  00002PRCP06
0208832880999992003101800004-13267-043417FM-12+0458SBLP V0201801N001012200019N0020001N1+02791+01591100981ADDAA106000091GA1001+999999999GF100991001001999999001001KA1240M+03451MA1999999096141MD1999999-0191REMSYN082AAXX  18004 83288 32995 01802 10279 20159 39614 40098 333 10345 29047 55115 59019;EQDQ01  00002PRCP06
0156832880999992003101812004-13267-043417FM-12+0458SBLP V0200901N001019999999N0200001N1+02811+01671999999ADDAA106000091GF105991999999999999999999KA1240N+02021REMSYN075AAXX  18124 83288 32998 50902 10281 20167 3645 40128 80005 333 20202 59011;EQDQ01  00002PRCP06
0167832880999992003101818004-13267-043417FM-12+0458SBLP V0203201N001511050019N0200001N1+03521+01651100731ADDAA106000091GF106991031021008001001081MA1999999095951MD1999999-0061REMSYN070AAXX  18184 83288 32598 63203 10352 20165 39595 40073 83208 333 59006;EQDQ01  00002PRCP06
0208832880999992003101900004-13267-043417FM-12+0458SBLP V0209999C000012200019N0020001N1+03031+01871101041ADDAA106000091GA1001+999999999GF100991001001999999001001KA1240M+03611MA1999999096241MD1999999+0101REMSYN082AAXX  19004 83288 32995 00000 10303 20187 39624 40104 333 10361 29044 55105 58010;EQDQ01  00002PRCP06
0186832880999992003101912004-13267-043417FM-12+0458SBLP V0201401N001512200019N0200001N1+02971+01841101251ADDAA106000091GF103991021011008001001041KA1240N+02181MA1999999096441MD1999999-0011REMSYN076AAXX  19124 83288 32598 31403 10297 20184 39644 40125 82104 333 20218 59001;EQDQ01  00002PRCP06
0167832880999992003101918004-13267-043417FM-12+0458SBLP V0202301N001512200019N0200001N1+03761+01001100691ADDAA106000091GF102991011011008001001041MA1999999095981MD1999999+0031REMSYN070AAXX  19184 83288 32598 22303 10376 20100 39598 40069 81104 333 58003;EQDQ01  00002PRCP06
0186832880999992003102012004-13267-043417FM-12+0458SBLP V0201401N001512200019N0200001N1+02911+01661101301ADDAA106000091GF103991001001999999001021KA1240N+02121MA1999999096571MD1999999+0261REMSYN076AAXX  20124 83288 32998 31403 10291 20166 39657 40130 80002 333 20212 58026;EQDQ01  00002PRCP06
0167832880999992003102018004-13267-043417FM-12+0458SBLP V0201801N001519999999N0200001N1+03681+01841100821ADDAA106000091GF106991001001999999001081MA1999999095891MD1999999-0091REMSYN070AAXX  20184 83288 32998 61803 10368 20184 39589 40082 80008 333 59009;EQDQ01  00002PRCP06
0208832880999992003102100004-13267-043417FM-12+0458SBLP V0201401N001512200019N0020001N1+02911+01491100861ADDAA106000091GA1001+999999999GF100991001001999999001001KA1240M+03751MA1999999096061MD1999999-0021REMSYN082AAXX  21004 83288 32995 01403 10291 20149 39606 40086 333 10375 29041 55107 59002;EQDQ01  00002PRCP06
0186832880999992003102112004-13267-043417FM-12+0458SBLP V0200501N001012200019N0200001N1+03051+01421101011ADDAA106000091GF102991001001999999001051KA1240N+02121MA1999999096231MD1999999-0271REMSYN076AAXX  21124 83288 32998 20502 10305 20142 39623 40101 80005 333 20212 59027;EQDQ01  00002PRCP06
0167832880999992003102118004-13267-043417FM-12+0458SBLP V0202301N001019999999N0200001N1+03851+01501100381ADDAA106000091GF105991001001999999001051MA1999999095631MD1999999-0261REMSYN070AAXX  21184 83288 32998 52302 10385 20150 39563 40038 80005 333 59026;EQDQ01  00002PRCP06
0208832880999992003102200004-13267-043417FM-12+0458SBLP V0202301N000512200019N0020001N1+02931+00731100561ADDAA106000091GA1001+999999999GF100991001001999999001001KA1240M+03851MA1999999095801MD1999999-0261REMSYN082AAXX  22004 83288 32995 02301 10293 20073 39580 40056 333 10385 29029 55094 59026;EQDQ01  00002PRCP06
0186832880999992003102212004-13267-043417FM-12+0458SBLP V0202301N001012200019N0200001N1+02931+01861101001ADDAA106000091GF103991021011008001001041KA1240N+02171MA1999999096321MD1999999+0091REMSYN076AAXX  22124 83288 32598 32302 10293 20186 39632 40100 82104 333 20217 58009;EQDQ01  00002PRCP06
0167832880999992003102218004-13267-043417FM-12+0458SBLP V0202701N001012200019N0200001N1+03841+01001100491ADDAA106000091GF106991031011008001001041MA1999999095761MD1999999+0131REMSYN070AAXX  22184 83288 32598 62702 10384 20100 39576 40049 83104 333 58013;EQDQ01  00002PRCP06
0214832880999992003102300004-13267-043417FM-12+0458SBLP V0201801N000512200019N0020001N1+03381+01101100521ADDAA106000091GF104991999011008001001001KA1240M+03821MA1999999095761MD1999999-0111REMSYN088AAXX  23004 83288 32595 41801 10338 20110 39576 40052 83100 333 10382 29028 55104 59011;EQDQ01+000032SCOTLCQ02  00002PRCP06
0186832880999992003102312004-13267-043417FM-12+0458SBLP V0203601N001512200019N0200001N1+03221+01981100961ADDAA106000091GF103991001001999999001091KA1240N+02561MA1999999096241MD1999999-0081REMSYN076AAXX  23124 83288 32998 33603 10322 20198 39624 40096 80009 333 20256 59008;EQDQ01  00002PRCP06
0167832880999992003102318004-13267-043417FM-12+0458SBLP V0200901N001512200019N0200001N1+03841+01831100451ADDAA106000091GF104991041021008001001001MA1999999095751MD1999999-0011REMSYN070AAXX  23184 83288 32598 40903 10384 20183 39575 40045 84200 333 59001;EQDQ01  00002PRCP06
0186832880999992003102412004-13267-043417FM-12+0458SBLP V0201801N001512200019N0200001N1+02831+01791101301ADDAA106000091GF103991001001999999001051KA1240N+02421MA1999999096511MD1999999+0271REMSYN076AAXX  24124 83288 32998 31803 10283 20179 39651 40130 80005 333 20242 58027;EQDQ01  00002PRCP06
0187832880999992003102418004-13267-043417FM-12+0458SBLP V0202301N002110450019N0200001N1+03381+02091100861ADDAA106000091AY111061GF108991041081008001021999MA1999999096091MD1999999+0341MW1171REMSYN076AAXX  24184 83288 31598 82304 10338 20209 39609 40086 7171/ 8482/ 333 58034;EQDQ01  00002PRCP06
0202832880999992003102500004-13267-043417FM-12+0458SBLP V0209999C000010075019N0020001N1+02211+01991101471ADDAY191061AY261061GF108991051051008001021999KA1240M+03551MA1999999096571MD1999999+0481MW1021REMSYN100AAXX  25004 83288 21595 80000 10221 20199 39657 40147 70296 8552/ 333 10355 29068 55066 58048 60061;
0190832880999992003102512004-13267-043417FM-12+0458SBLP V0201401N001010075019N0200001N1+02781+01611101471ADDAY191061AY261061GF107991061011008001001021KA1240N+02081MA1999999096561MD1999999+0051MW1021REMSYN088AAXX  25124 83288 21598 71402 10278 20161 39656 40147 70296 86102 333 20208 58005 60064;
0171832880999992003102518004-13267-043417FM-12+0458SBLP V0201401N000510450019N0200001N1+03331+01701100851ADDAY191061AY261061GF105991031081008001021001MA1999999096011MD1999999-0081MW1021REMSYN082AAXX  25184 83288 21598 51401 10333 20170 39601 40085 70296 83820 333 59008 60011;
0198832880999992003102600004-13267-043417FM-12+0458SBLP V0201401N001012200019N0020001N1+02771+01751100841ADDAA106000091GF103991021011008001021001KA1240M+03431MA1999999096011MD1999999+0441REMSYN088AAXX  26004 83288 32595 31402 10277 20175 39601 40084 82120 333 10343 29047 55095 58044;EQDQ01  00002PRCP06
0162832880999992003102612004-13267-043417FM-12+0458SBLP V0203301N005112200019N0200001N1+02551+02141100901ADDGF102991001001999999001011KA1240N+02251MA1999999094171MD1999999-0251REMSYN082AAXX  26124 83288 22970 23310 10255 20214 39417 40090 80001 333 20225 59025 69914;
0183832880999992003102618004-13267-043417FM-12+0458SBLP V0201801N001512200019N0200001N1+03501+01771100541ADDAA106000091GF104991031021008001001021MA1999999095772MD1999999-0241REMSYN070AAXX  26184 83288 32598 41803 10350 20177 39577 40054 83202 333 59024;EQDQ01+095773APOSP Q02  00002PRCP06
0186832880999992003102712004-13267-043417FM-12+0458SBLP V0200501N000512200019N0200001N1+02831+01611100961ADDAA106000091GF102991011011008001001021KA1240N+02161MA1999999096151MD1999999-0171REMSYN076AAXX  27124 83288 32598 20501 10283 20161 39615 40096 81102 333 20216 59017;EQDQ01  00002PRCP06
0183832880999992003102718004-13267-043417FM-12+0458SBLP V0202301N001019999999N0200001N1+03531+01701100501ADDAA106000091GF105991999021008001001001MA1999999095741MD1999999-0031REMSYN070AAXX  27184 83288 32598 52302 10353 20170 39574 40050 84200 333 59003;EQDQ01+000042SCOTLCQ02  00002PRCP06
0208832880999992003102800004-13267-043417FM-12+0458SBLP V0201401N001512200019N0020001N1+02951+01191100491ADDAA106000091GA1001+999999999GF100991001001999999001001KA1240M+03571MA1999999095711MD1999999-0141REMSYN082AAXX  28004 83288 32995 01403 10295 20119 39571 40049 333 10357 29037 55109 59014;EQDQ01  00002PRCP06
0186832880999992003102812004-13267-043417FM-12+0458SBLP V0200901N001519999999N0200001N1+02831+01571101181ADDAA106000091GF105991001001999999001021KA1240N+02201MA1999999096371MD1999999+0221REMSYN076AAXX  28124 83288 32998 50903 10283 20157 39637 40118 80002 333 20220 58022;EQDQ01  00002PRCP06
0167832880999992003102818004-13267-043417FM-12+0458SBLP V0202301N001012200019N0200001N1+03461+01691100721ADDAA106000091GF104991021001008001001021MA1999999095871MD1999999+0131REMSYN070AAXX  28184 83288 32598 42302 10346 20169 39587 40072 82002 333 58013;EQDQ01  00002PRCP06
0198832880999992003102900004-13267-043417FM-12+0458SBLP V0201401N002612200019N0020001N1+03071+01401100901ADDAA106000091GF103991031081008001001001KA1240M+03591MA1999999096111MD1999999+0401REMSYN088AAXX  29004 83288 32595 31405 10307 20140 39611 40090 83800 333 10359 29039 55102 58040;EQDQ01  00002PRCP06
0186832880999992003102912004-13267-043417FM-12+0458SBLP V0200901N001012200019N0200001N1+02871+01851101131ADDAA106000091GF102991001001999999001051KA1240N+02301MA1999999096341MD1999999-0031REMSYN076AAXX  29124 83288 32998 20902 10287 20185 39634 40113 80005 333 20230 59003;EQDQ01  00002PRCP06
0167832880999992003102918004-13267-043417FM-12+0458SBLP V0201401N001512200019N0200001N1+03501+02131100651ADDAA106000091GF105991031021008001001081MA1999999095871MD1999999+0001REMSYN070AAXX  29184 83288 32598 51403 10350 20213 39587 40065 83208 333 58000;EQDQ01  00002PRCP06
0198832880999992003103000004-13267-043417FM-12+0458SBLP V0200901N001512200019N0020001N1+02871+02021100921ADDAA106000091GF102991021021008001001001KA1240M+03551MA1999999096121MD1999999+0011REMSYN088AAXX  30004 83288 32595 20903 10287 20202 39612 40092 82200 333 10355 29053 55085 58001;EQDQ01  00002PRCP06
0186832880999992003103012004-13267-043417FM-12+0458SBLP V0200901N001512200019N0200001N1+02971+01921101091ADDAA106000091GF102991001001999999001091KA1240N+02201MA1999999096281MD1999999-0061REMSYN076AAXX  30124 83288 32998 20903 10297 20192 39628 40109 80009 333 20220 59006;EQDQ01  00002PRCP06
0167832880999992003103018004-13267-043417FM-12+0458SBLP V0202301N002110450019N0200001N1+03541+01621100631ADDAA106000091GF106991031021008001031051MA1999999095761MD1999999-0111REMSYN070AAXX  30184 83288 32598 62304 10354 20162 39576 40063 83235 333 59011;EQDQ01  00002PRCP06
0198832880999992003103100004-13267-043417FM-12+0458SBLP V0201801N001012200019N0020001N1+03031+01301100701ADDAA106000091GF103991031001017501051001KA1240M+03621MA1999999095931MD1999999-0191REMSYN088AAXX  31004 83288 32795 31802 10303 20130 39593 40070 83050 333 10362 29038 55085 59019;EQDQ01  00002PRCP06
0186832880999992003103112004-13267-043417FM-12+0458SBLP V0201401N001012200019N0200001N1+02981+01921100911ADDAA106000091GF105991041011008001001041KA1240N+02281MA1999999096131MD1999999-0151REMSYN076AAXX  31124 83288 32598 51402 10298 20192 39613 40091 84104 333 20228 59015;EQDQ01  00002PRCP06
0167832880999992003103118004-13267-043417FM-12+0458SBLP V0202701N001010450019N0200001N1+03481+01571100541ADDAA106000091GF106991041011008001021021MA1999999095781MD1999999+0021REMSYN070AAXX  31184 83288 32598 62702 10348 20157 39578 40054 84122 333 58002;EQDQ01  00002PRCP06
0214832880999992003110100004-13267-043417FM-12+0458SBLP V0201801N000512200019N0020001N1+03141+01541100651ADDAA106000091GF102991999011008001001001KA1240M+03641MA1999999095891MD1999999+0041REMSYN088AAXX  01004 83288 32595 21801 10314 20154 39589 40065 81100 333 10364 29041 55074 58004;EQDQ01+000012SCOTLCQ02  00002PRCP06
0186832880999992003110112004-13267-043417FM-12+0458SBLP V0200901N001510450019N0200001N1+02891+01921100991ADDAA106000091GF106991031081008001041091KA1240N+02541MA1999999096211MD1999999+0081REMSYN076AAXX  01124 83288 32598 60903 10289 20192 39621 40099 83849 333 20254 58008;EQDQ01  00002PRCP06
0167832880999992003110118004-13267-043417FM-12+0458SBLP V0201801N000511050019N0200001N1+03321+02231100651ADDAA106000091GF107991041081008001001091MA1999999095871MD1999999+0091REMSYN070AAXX  01184 83288 32598 71801 10332 20223 39587 40065 84809 333 58009;EQDQ01  00002PRCP06
0198832880999992003110200004-13267-043417FM-12+0458SBLP V0200501N000510450019N0020001N1+02711+01871100891ADDAA106000091GF106991031051008001031001KA1240M+03391MA1999999096071MD1999999+0181REMSYN088AAXX  02004 83288 32595 60501 10271 20187 39607 40089 83530 333 10339 29056 55011 58018;EQDQ01  00002PRCP06
0186832880999992003110212004-13267-043417FM-12+0458SBLP V0203201N000510150019N0200001N1+02771+02061100861ADDAA106000091GF108991081001017501071999KA1240N+02401MA1999999096021MD1999999-0191REMSYN076AAXX  02124 83288 32798 83201 10277 20206 39602 40086 8807/ 333 20240 59019;EQDQ01  00002PRCP06
0167832880999992003110218004-13267-043417FM-12+0458SBLP V0203201N000510450019N0200001N1+03341+01981100471ADDAA106000091GF107991031021008001021021MA1999999095631MD1999999-0241REMSYN070AAXX  02184 83288 32598 73201 10334 20198 39563 40047 83222 333 59024;EQDQ01  00002PRCP06
0202832880999992003110300004-13267-043417FM-12+0458SBLP V0201801N001010450019N0020001N1+02271+02121100991ADDAY191061AY261061GF108991041081008001021999KA1240M+03451MA1999999096111MD1999999+0041MW1511REMSYN100AAXX  03004 83288 21595 81802 10227 20212 39611 40099 75196 8482/ 333 10345 29073 55021 58004 60161;
0162832880999992003110312004-13267-043417FM-12+0458SBLP V0203201N000510075019N0200001N1+02511+02111100991ADDGF106991061051008001021001KA1240N+02051MA1999999096091MD1999999+0071REMSYN082AAXX  03124 83288 22598 63201 10251 20211 39609 40099 86520 333 20205 58007 60164;
0167832880999992003110318004-13267-043417FM-12+0458SBLP V0202701N000512200019N0200001N1+03221+01951100401ADDAA106000091GF104991031051008001021021MA1999999095551MD1999999-0081REMSYN070AAXX  03184 83288 32598 42701 10322 20195 39555 40040 83522 333 59008;EQDQ01  00002PRCP06
0202832880999992003110400004-13267-043417FM-12+0458SBLP V0201401N001010075019N0020001N1+02251+02121100731ADDAY191061AY261061GF108991061051008001021999KA1240M+03241MA1999999095841MD1999999-0271MW1511REMSYN100AAXX  04004 83288 21595 81402 10225 20212 39584 40073 75196 8652/ 333 10324 29073 55059 59027 60061;
0190832880999992003110412004-13267-043417FM-12+0458SBLP V0200901N001510075019N0200001N1+02191+02141101281ADDAY161061AY261061GF108991051051008001011999KA1240N+02101MA1999999096321MD1999999+0231MW1511REMSYN088AAXX  04124 83288 21598 80903 10219 20214 39632 40128 75166 8551/ 333 20210 58023 60384;
0148832880999992003110418004-13267-043417FM-12+0458SBLP V0200901N001510075019N0200001N1+02801+02281100711ADDAA106000021GF105991051051008001001001MA1999999095841MD1999999+0291REMSYN070AAXX  04184 83288 32598 50903 10280 20228 39584 40071 85500 333 58029;
0198832880999992003110500004-13267-043417FM-12+0458SBLP V0200901N001510450019N0020001N1+02351+02021101201ADDAA106000091GF108991041051008001021999KA1240M+02851MA1999999096261MD1999999+0421REMSYN088AAXX  05004 83288 32595 80903 10235 20202 39626 40120 8452/ 333 10285 29084 55017 58042;EQDQ01  00002PRCP06
0186832880999992003110512004-13267-043417FM-12+0458SBLP V0200901N001010075019N0200001N1+02471+01971101411ADDAA106000091GF108991051051008001021999KA1240N+02041MA1999999096491MD1999999+0171REMSYN076AAXX  05124 83288 32598 80902 10247 20197 39649 40141 8552/ 333 20204 58017;EQDQ01  00002PRCP06
0171832880999992003110518004-13267-043417FM-12+0458SBLP V0200901N001010450019N0200001N1+02511+02191101131ADDAY151061AY251061GF108991041081008001021999MA1999999096201MD1999999+0361MW1021REMSYN082AAXX  05184 83288 21598 80902 10251 20219 39620 40113 70255 8482/ 333 58036 69941;
0198832880999992003110600004-13267-043417FM-12+0458SBLP V0201401N000511050019N0020001N1+02351+01981101281ADDAA106000091GF106991041001017501071051KA1240M+02591MA1999999096361MD1999999+0101REMSYN088AAXX  06004 83288 32795 61401 10235 20198 39636 40128 84075 333 10259 29079 55005 58010;EQDQ01  00002PRCP06
0190832880999992003110612004-13267-043417FM-12+0458SBLP V0201801N001010075019N0200001N1+02291+01961101391ADDAY161061AY261061GF106991061051008001021001KA1240N+02011MA1999999096451MD1999999-0041MW1511REMSYN088AAXX  06124 83288 21598 61802 10229 20196 39645 40139 75166 86520 333 20201 59004 60024;
0148832880999992003110618004-13267-043417FM-12+0458SBLP V0202301N001510450019N0200001N1+02871+02011100851ADDAA106000021GF105991031051008001021021MA1999999095981MD1999999-0221REMSYN070AAXX  06184 83288 32598 52303 10287 20201 39598 40085 83522 333 59022;
0221832880999992003110700004-13267-043417FM-12+0458SBLP V0201801N001510075019N0020001N1+02231+01921101211ADDAY151061AY251061GF108991999051008001021999KA1240M+02831MA1999999096261MD1999999-0101MW1031REMSYN100AAXX  07004 83288 21595 81803 10223 20192 39626 40121 70355 8852/ 333 10283 29076 55023 59010 60011;EQDQ01+000082SCOTLC
0190832880999992003110712004-13267-043417FM-12+0458SBLP V0202701N001010450019N0200001N1+02311+02121101231ADDAY161061AY261061GF106991031081008001031001KA1240N+02001MA1999999096291MD1999999-0161MW1031REMSYN088AAXX  07124 83288 21598 62702 10231 20212 39629 40123 70366 83830 333 20200 59016 60184;
0167832880999992003110718004-13267-043417FM-12+0458SBLP V0201801N004110450019N0200001N1+02331+01921100991ADDAA106000091GF106991021031008001021001MA1999999096051MD1999999+0071REMSYN070AAXX  07184 83288 32598 61808 10233 20192 39605 40099 82320 333 58007;EQDQ01  00002PRCP06
0202832880999992003110800004-13267-043417FM-12+0458SBLP V0200901N001010450019N0020001N1+02111+02031101141ADDAY161061AY261061GF108991041071008001011999KA1240M+02451MA1999999096191MD1999999-0071MW1611REMSYN100AAXX  08004 83288 21595 80902 10211 20203 39619 40114 76166 8471/ 333 10245 29087 55012 59007 60051;
0162832880999992003110812004-13267-043417FM-12+0458SBLP V0200901N000511050019N0200001N1+02251+02051101361ADDGF105991021041008001081061KA1240N+01941MA1999999096401MD1999999+0111REMSYN082AAXX  08124 83288 22598 50901 10225 20205 39640 40136 82486 333 20194 58011 60104;
0167832880999992003110818004-13267-043417FM-12+0458SBLP V0200501N001012200019N0200001N1+03111+02181100961ADDAA106000091GF106991021021008001001061MA1999999095921MD1999999-0131REMSYN070AAXX  08184 83288 32598 60502 10311 20218 39592 40096 82206 333 59013;EQDQ01  00002PRCP06
0198832880999992003110900004-13267-043417FM-12+0458SBLP V0203601N001012200019N0020001N1+02571+02101100951ADDAA106000091GF102991001001999999001011KA1240M+03171MA1999999096051MD1999999-0141REMSYN088AAXX  09004 83288 32995 23602 10257 20210 39605 40095 80001 333 10317 29074 55077 59014;EQDQ01  00002PRCP06
0186832880999992003110912004-13267-043417FM-12+0458SBLP V0202701N001012200019N0200001N1+02951+02111101031ADDAA106000091GF105991031011008001001041KA1240N+02121MA1999999096191MD1999999-0211REMSYN076AAXX  09124 83288 32598 52702 10295 20211 39619 40103 83104 333 20212 59021;EQDQ01  00002PRCP06
0167832880999992003110918004-13267-043417FM-12+0458SBLP V0202701N000510450019N0200001N1+03641+01141100401ADDAA106000091GF106991041011008001021021MA1999999095721MD1999999-0201REMSYN070AAXX  09184 83288 32598 62701 10364 20114 39572 40040 84122 333 59020;EQDQ01  00002PRCP06
0198832880999992003111000004-13267-043417FM-12+0458SBLP V0202701N001010450019N0020001N1+02751+02051100871ADDAA106000091GF105991031011008001021021KA1240M+03431MA1999999096041MD1999999-0011REMSYN088AAXX  10004 83288 32595 52702 10275 20205 39604 40087 83122 333 10343 29056 55091 59001;EQDQ01  00002PRCP06
0186832880999992003111012004-13267-043417FM-12+0458SBLP V0200901N001011050019N0200001N1+02791+02191101101ADDAA106000091GF105991021021008001031021KA1240N+02321MA1999999096271MD1999999+0081REMSYN076AAXX  10124 83288 32598 50902 10279 20219 39627 40110 82232 333 20232 58008;EQDQ01  00002PRCP06
0167832880999992003111018004-13267-043417FM-12+0458SBLP V0202301N001010450019N0200001N1+03211+02391100701ADDAA106000091GF108991041051008001011999MA1999999095901MD1999999+0181REMSYN070AAXX  10184 83288 32598 82302 10321 20239 39590 40070 8451/ 333 58018;EQDQ01  00002PRCP06
0198832880999992003111100004-13267-043417FM-12+0458SBLP V0202301N000510075019N0020001N1+02591+02201101141ADDAA106000091GF108991051051008001011999KA1240M+03311MA1999999096291MD1999999+0251REMSYN088AAXX  11004 83288 32595 82301 10259 20220 39629 40114 8551/ 333 10331 29070 55046 58025;EQDQ01  00002PRCP06
0186832880999992003111112004-13267-043417FM-12+0458SBLP V0200501N002112200019N0200001N1+02891+02001101081ADDAA106000091GF103991011001017501031041KA1240N+02161MA1999999096241MD1999999-0031REMSYN076AAXX  11124 83288 32798 30504 10289 20200 39624 40108 81034 333 20216 59003;EQDQ01  00002PRCP06
0167832880999992003111118004-13267-043417FM-12+0458SBLP V0200501N002111050019N0200001N1+03501+01811100671ADDAA106000091GF105991021011008001001021MA1999999095781MD1999999-0121REMSYN070AAXX  11184 83288 32598 50504 10350 20181 39578 40067 82102 333 59012;EQDQ01  00002PRCP06
0198832880999992003111200004-13267-043417FM-12+0458SBLP V0200901N001012200019N0020001N1+02911+01591100861ADDAA106000091GF103991021041008001031001KA1240M+03571MA1999999096061MD1999999-0231REMSYN088AAXX  12004 83288 32595 30902 10291 20159 39606 40086 82430 333 10357 29046 55103 59023;EQDQ01  00002PRCP06
0186832880999992003111212004-13267-043417FM-12+0458SBLP V0200501N001012200019N0200001N1+02871+01851101151ADDAA106000091GF102991011011008001001041KA1240N+02161MA1999999096341MD1999999+0101REMSYN076AAXX  12124 83288 32598 20502 10287 20185 39634 40115 81104 333 20216 58010;EQDQ01  00002PRCP06
0167832880999992003111218004-13267-043417FM-12+0458SBLP V0200901N000512200019N0200001N1+03461+01401100791ADDAA106000091GF103991021011008001001021MA1999999096011MD1999999+0231REMSYN070AAXX  12184 83288 32598 30901 10346 20140 39601 40079 82102 333 58023;EQDQ01  00002PRCP06
0208832880999992003111300004-13267-043417FM-12+0458SBLP V0200901N000512200019N0020001N1+02881+01611100681ADDAA106000091GA1001+999999999GF100991001001999999001001KA1240M+03531MA1999999095891MD1999999-0171REMSYN082AAXX  13004 83288 32995 00901 10288 20161 39589 40068 333 10353 29044 55117 59017;EQDQ01  00002PRCP06
0186832880999992003111312004-13267-043417FM-12+0458SBLP V0200901N001512200019N0200001N1+02911+02031101071ADDAA106000091GF101991011011008001001001KA1240N+02181MA1999999096261MD1999999-0081REMSYN076AAXX  13124 83288 32598 10903 10291 20203 39626 40107 81100 333 20218 59008;EQDQ01  00002PRCP06
0167832880999992003111318004-13267-043417FM-12+0458SBLP V0202701N001512200019N0200001N1+03471+02061100801ADDAA106000091GF102991021011008001001001MA1999999096011MD1999999+0001REMSYN070AAXX  13184 83288 32598 22703 10347 20206 39601 40080 82100 333 58000;EQDQ01  00002PRCP06
0208832880999992003111400004-13267-043417FM-12+0458SBLP V0200901N000512200019N0020001N1+02891+02091100831ADDAA106000091GA1001+999999999GF100991001001999999001001KA1240M+03591MA1999999096041MD1999999+0181REMSYN082AAXX  14004 83288 32995 00901 10289 20209 39604 40083 333 10359 29055 55118 58018;EQDQ01  00002PRCP06
0186832880999992003111412004-13267-043417FM-12+0458SBLP V0203601N001512200019N0200001N1+03011+02071101001ADDAA106000091GF101991001001999999001011KA1240N+02321MA1999999096211MD1999999-0051REMSYN076AAXX  14124 83288 32998 13603 10301 20207 39621 40100 80001 333 20232 59005;EQDQ01  00002PRCP06
0167832880999992003111418004-13267-043417FM-12+0458SBLP V0200501N001011050019N0200001N1+03521+02031100531ADDAA106000091GF105991011021008001001021MA1999999095761MD1999999-0251REMSYN070AAXX  14184 83288 32598 50502 10352 20203 39576 40053 81202 333 59025;EQDQ01  00002PRCP06
0208832880999992003111500004-13267-043417FM-12+0458SBLP V0201801N000512200019N0020001N1+02911+02121100771ADDAA106000091GA1001+999999999GF100991001001999999001001KA1240M+03641MA1999999096001MD1999999-0041REMSYN082AAXX  15004 83288 32995 01801 10291 20212 39600 40077 333 10364 29056 55013 59004;EQDQ01  00002PRCP06
0186832880999992003111512004-13267-043417FM-12+0458SBLP V0201401N001012200019N0200001N1+02941+02211101141ADDAA106000091GF103991021011008001001021KA1240N+02331MA1999999096331MD1999999+0121REMSYN076AAXX  15124 83288 32598 31402 10294 20221 39633 40114 82102 333 20233 58012;EQDQ01  00002PRCP06
0183832880999992003111518004-13267-043417FM-12+0458SBLP V0200901N004119999999N0200001N1+03541+01991100521ADDAA106000091GF105991999011008001001001MA1999999095781MD1999999+0021REMSYN070AAXX  15184 83288 32598 50908 10354 20199 39578 40052 83100 333 58002;EQDQ01+000032SCOTLCQ02  00002PRCP06
0186832880999992003111612004-13267-043417FM-12+0458SBLP V0200901N001512200019N0200001N1+02831+02061101241ADDAA106000091GF102991011011008001041001KA1240N+02161MA1999999096421MD1999999+0091REMSYN076AAXX  16124 83288 32598 20903 10283 20206 39642 40124 81140 333 20216 58009;EQDQ01  00002PRCP06
0167832880999992003111618004-13267-043417FM-12+0458SBLP V0203601N001512200019N0200001N1+03501+02091100721ADDAA106000091GF104991041021008001001001MA1999999095951MD1999999+0171REMSYN070AAXX  16184 83288 32598 43603 10350 20209 39595 40072 84200 333 58017;EQDQ01  00002PRCP06
0208832880999992003111700004-13267-043417FM-12+0458SBLP V0200501N001512200019N0020001N1+02811+01961100901ADDAA106000091GA1001+999999999GF100991001001999999001001KA1240M+03571MA1999999096081MD1999999+0301REMSYN082AAXX  17004 83288 32995 00503 10281 20196 39608 40090 333 10357 29056 55108 58030;EQDQ01  00002PRCP06
0196832880999992003111712004-13267-043417FM-12+0458SBLP V0200501N001512200019N0200001N1+02871+01971101141ADDAA106000091GA1001+999999999GF100991001001999999001001KA1240N+02241MA1999999096311MD1999999-0111REMSYN070AAXX  17124 83288 32998 00503 10287 20197 39631 40114 333 20224 59011;EQDQ01  00002PRCP06
0167832880999992003111718004-13267-043417FM-12+0458SBLP V0200501N001512200019N0200001N1+03541+01971100511ADDAA106000091GF104991031021008001001011MA1999999095761MD1999999-0191REMSYN070AAXX  17184 83288 32598 40503 10354 20197 39576 40051 83201 333 59019;EQDQ01  00002PRCP06
0208832880999992003111800004-13267-043417FM-12+0458SBLP V0201401N001012200019N0020001N1+02651+01851100851ADDAA106000091GA1001+999999999GF100991001001999999001001KA1240M+03591MA1999999096021MD1999999-0061REMSYN082AAXX  18004 83288 32995 01402 10265 20185 39602 40085 333 10359 29055 55112 59006;EQDQ01  00002PRCP06
0158832880999992003111812004-13267-043417FM-12+0458SBLP V0201401N001012200019N0200001N1+02941+01851101041ADDAA106000091GF102991011011008001001041MA1999999096221REMSYN075AAXX  18124 83288 32598 21402 10294 20185 39622 40104 81104 333 2021 59009;EQDQ01  00002PRCP06
0167832880999992003111818004-13267-043417FM-12+0458SBLP V0200501N001012200019N0200001N1+03641+01441100451ADDAA106000091GF104991031011008001001021MA1999999095691MD1999999-0071REMSYN070AAXX  18184 83288 32598 40502 10364 20144 39569 40045 83102 333 59007;EQDQ01  00002PRCP06
0214832880999992003111900004-13267-043417FM-12+0458SBLP V0201401N002612200019N0020001N1+03111+01901100441ADDAA106000091GF104991999011008001001001KA1240M+03651MA1999999095591MD1999999-0431REMSYN088AAXX  19004 83288 32595 41405 10311 20190 39559 40044 83100 333 10365 29043 55118 59043;EQDQ01+000032SCOTLCQ02  00002PRCP06
0186832880999992003111912004-13267-043417FM-12+0458SBLP V0203601N001512200019N0200001N1+02911+02081100901ADDAA106000091GF104991021011008001001021KA1240N+02201MA1999999096121MD1999999-0101REMSYN076AAXX  19124 83288 32598 43603 10291 20208 39612 40090 82102 333 20220 59010;EQDQ01  00002PRCP06
0167832880999992003111918004-13267-043417FM-12+0458SBLP V0200501N001012200019N0200001N1+03581+02051100381ADDAA106000091GF104991011021008001001021MA1999999095641MD1999999-0051REMSYN070AAXX  19184 83288 32598 40502 10358 20205 39564 40038 81202 333 59005;EQDQ01  00002PRCP06
0208832880999992003112000004-13267-043417FM-12+0458SBLP V0209999C000012200019N0020001N1+02991+02041100581ADDAA106000091GA1001+999999999GF100991001001999999001001KA1240M+03631MA1999999095811MD1999999+0221REMSYN082AAXX  20004 83288 32995 00000 10299 20204 39581 40058 333 10363 29053 55093 58022;EQDQ01  00002PRCP06
0186832880999992003112012004-13267-043417FM-12+0458SBLP V0200501N001512200019N0200001N1+02931+01761100991ADDAA106000091GF104991001001999999001021KA1240N+02201MA1999999096201MD1999999+0081REMSYN076AAXX  20124 83288 32998 40503 10293 20176 39620 40099 80002 333 20220 58008;EQDQ01  00002PRCP06
0167832880999992003112018004-13267-043417FM-12+0458SBLP V0203201N001011050019N0200001N1+03421+01721100641ADDAA106000091GF105991021021008001001021MA1999999095851MD1999999+0211REMSYN070AAXX  20184 83288 32598 53202 10342 20172 39585 40064 82202 333 58021;EQDQ01  00002PRCP06
0208832880999992003112100004-13267-043417FM-12+0458SBLP V0201401N000512200019N0020001N1+02831+01731100811ADDAA106000091GA1001+999999999GF100991001001999999001001KA1240M+03521MA1999999096021MD1999999+0211REMSYN082AAXX  21004 83288 32995 01401 10283 20173 39602 40081 333 10352 29047 55073 58021;EQDQ01  00002PRCP06
0183832880999992003112118004-13267-043417FM-12+0458SBLP V0203601N001012200019N0200001N1+03641+01441100631ADDAA106000091GF102991999011008001001001MA1999999095861MD1999999+0011REMSYN070AAXX  21184 83288 32598 23602 10364 20144 39586 40063 81100 333 58001;EQDQ01+000012SCOTLCQ02  00002PRCP06
0208832880999992003112200004-13267-043417FM-12+0458SBLP V0201401N000512200019N0020001N1+02831+01251100561ADDAA106000091GA1001+999999999GF100991001001999999001001KA1240M+03671MA1999999095781MD1999999-0241REMSYN082AAXX  22004 83288 32995 01401 10283 20125 39578 40056 333 10367 29039 55118 59024;EQDQ01  00002PRCP06
0195832880999992003112212004-13267-043417FM-12+0458SBLP V0200901N002112200019N0200001N1+02831+01951101331ADDAA106000091GA1001+999999999GF100991001001999999001001KA1240N+02061MA1999999096491MD1999999+0051REMSYN069AAXX  22124 83288 32998 00904 10283 2019539649 40133 333 20206 58005;EQDQ01  00002PRCP06
0167832880999992003112218004-13267-043417FM-12+0458SBLP V0200501N002112200019N0200001N1+03441+01921100541ADDAA106000091GF103991021011008001001041MA1999999095771MD1999999-0091REMSYN070AAXX  22184 83288 32598 30504 10344 20192 39577 40054 82104 333 59009;EQDQ01  00002PRCP06
0208832880999992003112300004-13267-043417FM-12+0458SBLP V0200901N001012200019N0020001N1+02791+01991100821ADDAA106000091GA1001+999999999GF100991001001999999001001KA1240M+03491MA1999999096011MD1999999+0231REMSYN082AAXX  23004 83288 32995 00902 10279 20199 39601 40082 333 10349 29054 55119 58023;EQDQ01  00002PRCP06
0186832880999992003112312004-13267-043417FM-12+0458SBLP V0201401N002112200019N0200001N1+02721+01591101161ADDAA106000091GF104991001001999999001051KA1240N+02121MA1999999096331MD1999999-0161REMSYN076AAXX  23124 83288 32998 41404 10272 20159 39633 40116 80005 333 20212 59016;EQDQ01  00002PRCP06
0167832880999992003112318004-13267-043417FM-12+0458SBLP V0201401N001511050019N0200001N1+03381+01431100661ADDAA106000091GF107991011011008001001061MA1999999095871MD1999999+0101REMSYN070AAXX  23184 83288 32598 71403 10338 20143 39587 40066 81106 333 58010;EQDQ01  00002PRCP06
0208832880999992003112400004-13267-043417FM-12+0458SBLP V0201801N001512200019N0020001N1+02671+01581100831ADDAA106000091GA1001+999999999GF100991001001999999001001KA1240M+03471MA1999999095991MD1999999-0021REMSYN082AAXX  24004 83288 32995 01803 10267 20158 39599 40083 333 10347 29046 55093 59002;EQDQ01  00002PRCP06
0186832880999992003112412004-13267-043417FM-12+0458SBLP V0201401N001012200019N0200001N1+02831+01911100981ADDAA106000091GF103991011011008001001041KA1240N+02151MA1999999096151MD1999999-0181REMSYN076AAXX  24124 83288 32598 31402 10283 20191 39615 40098 81104 333 20215 59018;EQDQ01  00002PRCP06
0167832880999992003112418004-13267-043417FM-12+0458SBLP V0201401N001011050019N0200001N1+03521+01651100471ADDAA106000091GF105991041021008001001021MA1999999095701MD1999999-0171REMSYN070AAXX  24184 83288 32598 51402 10352 20165 39570 40047 84202 333 59017;EQDQ01  00002PRCP06
0214832880999992003112500004-13267-043417FM-12+0458SBLP V0201401N001012200019N0020001N1+03031+01431100501ADDAA106000091GF103991999021008001001001KA1240M+03591MA1999999095731MD1999999-0261REMSYN088AAXX  25004 83288 32595 31402 10303 20143 39573 40050 82200 333 10359 29043 55081 59026;EQDQ01+000022SCOTLCQ02  00002PRCP06
0186832880999992003112512004-13267-043417FM-12+0458SBLP V0200901N001512200019N0200001N1+02891+02011101061ADDAA106000091GF103991011011008001041051KA1240N+02261MA1999999096261MD1999999+0111REMSYN076AAXX  25124 83288 32598 30903 10289 20201 39626 40106 81145 333 20226 58011;EQDQ01  00002PRCP06
0167832880999992003112518004-13267-043417FM-12+0458SBLP V0202701N001512200019N0200001N1+03621+02341100541ADDAA106000091GF104991021021008001001081MA1999999095781MD1999999-0081REMSYN070AAXX  25184 83288 32598 42703 10362 20234 39578 40054 82208 333 59008;EQDQ01  00002PRCP06
0208832880999992003112600004-13267-043417FM-12+0458SBLP V0209999C000012200019N0020001N1+03011+01981100581ADDAA106000091GA1001+999999999GF100991001001999999001001KA1240M+03671MA1999999095811MD1999999+0081REMSYN082AAXX  26004 83288 32995 00000 10301 20198 39581 40058 333 10367 29054 55108 58008;EQDQ01  00002PRCP06
0186832880999992003112612004-13267-043417FM-12+0458SBLP V0203201N000512200019N0200001N1+03031+01861101081ADDAA106000091GF101991001001999999001041KA1240N+02421MA1999999096291MD1999999+0031REMSYN076AAXX  26124 83288 32998 13201 10303 20186 39629 40108 80004 333 20242 58003;EQDQ01  00002PRCP06
0167832880999992003112618004-13267-043417FM-12+0458SBLP V0202701N001012200019N0200001N1+03701+01851100571ADDAA106000091GF102991021021008001001001MA1999999095821MD1999999+0041REMSYN070AAXX  26184 83288 32598 22702 10370 20185 39582 40057 82200 333 58004;EQDQ01  00002PRCP06
0198832880999992003112700004-13267-043417FM-12+0458SBLP V0200901N001012200019N0020001N1+03091+01711100711ADDAA106000091GF102991021011008001001001KA1240M+03751MA1999999095951MD1999999+0141REMSYN088AAXX  27004 83288 32595 20902 10309 20171 39595 40071 82100 333 10375 29043 55118 58014;EQDQ01  00002PRCP06
0196832880999992003112712004-13267-043417FM-12+0458SBLP V0201401N001512200019N0200001N1+02941+01721100891ADDAA106000091GA1001+999999999GF100991001001999999001001KA1240N+02301MA1999999096111MD1999999-0181REMSYN070AAXX  27124 83288 32998 01403 10294 20172 39611 40089 333 20230 59018;EQDQ01  00002PRCP06
0167832880999992003112718004-13267-043417FM-12+0458SBLP V0201401N001511050019N0200001N1+03571+01871100431ADDAA106000091GF106991041021008001001021MA1999999095661MD1999999-0161REMSYN070AAXX  27184 83288 32598 61403 10357 20187 39566 40043 84202 333 59016;EQDQ01  00002PRCP06
0214832880999992003112800004-13267-043417FM-12+0458SBLP V0201401N001019999999N0020001N1+03121+01601100531ADDAA106000091GF105991999011008001001001KA1240M+03651MA1999999095781MD1999999-0171REMSYN088AAXX  28004 83288 32595 51402 10312 20160 39578 40053 84100 333 10365 29042 55106 59017;EQDQ01+000042SCOTLCQ02  00002PRCP06
0190832880999992003112812004-13267-043417FM-12+0458SBLP V0202701N001512200019N0200001N1+02851+02101100841ADDAY161061AY261061GF103991011011008001001051KA1240N+02301MA1999999096061MD1999999-0051MW1011REMSYN088AAXX  28124 83288 21598 32703 10285 20210 39606 40084 70166 81105 333 20230 59005 69944;
0167832880999992003112818004-13267-043417FM-12+0458SBLP V0203601N001012200019N0200001N1+03521+02451100271ADDAA106000091GF103991031021008001001001MA1999999095521MD1999999-0061REMSYN070AAXX  28184 83288 32598 33602 10352 20245 39552 40027 83200 333 59006;EQDQ01  00002PRCP06
0208832880999992003112900004-13267-043417FM-12+0458SBLP V0202701N000512200019N0020001N1+03111+02041100381ADDAA106000091GA1001+999999999GF100991001001999999001001KA1240M+03611MA1999999095631MD1999999-0151REMSYN082AAXX  29004 83288 32995 02701 10311 20204 39563 40038 333 10361 29058 55101 59015;EQDQ01  00002PRCP06
0186832880999992003112912004-13267-043417FM-12+0458SBLP V0200501N001512200019N0200001N1+03051+02031100701ADDAA106000091GF101991011021008001001001KA1240N+02461MA1999999095991MD1999999-0071REMSYN076AAXX  29124 83288 32598 10503 10305 20203 39599 40070 81200 333 20246 59007;EQDQ01  00002PRCP06
0167832880999992003112918004-13267-043417FM-12+0458SBLP V0203201N001512200019N0200001N1+03601+02071100231ADDAA106000091GF103991031021008001001001MA1999999095501MD1999999-0021REMSYN070AAXX  29184 83288 32598 33203 10360 20207 39550 40023 83200 333 59002;EQDQ01  00002PRCP06
0198832880999992003113000004-13267-043417FM-12+0458SBLP V0203201N001510075019N0020001N1+02911+01841100551ADDAA106000091GF105991051041008001001001KA1240M+03691MA1999999095791MD1999999+0161REMSYN088AAXX  30004 83288 32595 53203 10291 20184 39579 40055 85400 333 10369 29051 55098 58016;EQDQ01  00002PRCP06
0186832880999992003113012004-13267-043417FM-12+0458SBLP V0200901N001011050019N0200001N1+03021+02131100901ADDAA106000091GF105991031021008001001021KA1240N+02441MA1999999096111MD1999999+0121REMSYN076AAXX  30124 83288 32598 50902 10302 20213 39611 40090 83202 333 20244 58012;EQDQ01  00002PRCP06
0171832880999992003113018004-13267-043417FM-12+0458SBLP V0200501N001510120019N0200001N1+02651+02271100631ADDAY161061AY211061GF106991051081008001021001MA1999999095791MD1999999+0291MW1031REMSYN082AAXX  30184 83288 21598 60503 10265 20227 39579 40063 70361 85820 333 58029 60041;
0198832880999992003120100004-13267-043417FM-12+0458SBLP V0201801N000512200019N0020001N1+02831+02101100561ADDAA106000091GF102991011021008001001021KA1240M+03531MA1999999095781MD1999999-0011REMSYN088AAXX  01004 83288 32595 21801 10283 20210 39578 40056 81202 333 10353 29068 55065 59001;EQDQ01  00002PRCP06
0172832880999992003120112004-13267-043417FM-12+0458SBLP V0203201N001012200019N0200001N1+02951+01911100861ADDGA1001+999999999GF100991001001999999001001KA1240N+02251MA1999999096061MD1999999-0051REMSYN076AAXX  01124 83288 22998 03202 10295 20191 39606 40086 333 20225 59005 60044;
0167832880999992003120118004-13267-043417FM-12+0458SBLP V0202301N002612200019N0200001N1+03511+02131100271ADDAA106000091GF104991041081008001001001MA1999999095521MD1999999-0271REMSYN070AAXX  01184 83288 32598 42305 10351 20213 39552 40027 84800 333 59027;EQDQ01  00002PRCP06
0202832880999992003120200004-13267-043417FM-12+0458SBLP V0209999C000012200019N0020001N1+02651+01931100611ADDAY151061AY251061GF101991011081017501001001KA1240M+03641MA1999999095811MD1999999+0031MW1021REMSYN100AAXX  02004 83288 21795 10000 10265 20193 39581 40061 70255 81800 333 10364 29057 55105 58003 60021;
0162832880999992003120212004-13267-043417FM-12+0458SBLP V0203201N001012200019N0200001N1+02971+02231100861ADDGF102991011011008001001011KA1240N+02301MA1999999096061MD1999999+0001REMSYN082AAXX  02124 83288 22598 23202 10297 20223 39606 40086 81101 333 20230 58000 60024;
0167832880999992003120218004-13267-043417FM-12+0458SBLP V0200501N000512200019N0200001N1+03501+02051100271ADDAA106000091GF102991021021008001001001MA1999999095521MD1999999+0001REMSYN070AAXX  02184 83288 32598 20501 10350 20205 39552 40027 82200 333 58000;EQDQ01  00002PRCP06
0198832880999992003120300004-13267-043417FM-12+0458SBLP V0201401N001010450019N0020001N1+02911+01911100561ADDAA106000091GF107991031081008001071051KA1240M+03611MA1999999095791MD1999999-0021REMSYN088AAXX  03004 83288 32595 71402 10291 20191 39579 40056 83875 333 10361 29053 55107 59002;EQDQ01  00002PRCP06
0190832880999992003120312004-13267-043417FM-12+0458SBLP V0201401N001012200019N0200001N1+02771+02191100981ADDAY151061AY251061GF103991021051008001031041KA1240N+02161MA1999999096171MD1999999-0021MW1021REMSYN088AAXX  03124 83288 21598 31402 10277 20219 39617 40098 70255 82534 333 20216 59002 60034;
0167832880999992003120318004-13267-043417FM-12+0458SBLP V0203601N001011050019N0200001N1+03561+01781100261ADDAA106000091GF106991031081008001001021MA1999999095511MD1999999-0011REMSYN070AAXX  03184 83288 32598 63602 10356 20178 39551 40026 83802 333 59001;EQDQ01  00002PRCP06
0221832880999992003120400004-13267-043417FM-12+0458SBLP V0203201N001012200019N0020001N1+02841+02091100531ADDAY161061AY201061GF103991999081008001001001KA1240M+03691MA1999999095731MD1999999+0061MW1031REMSYN100AAXX  04004 83288 21595 33202 10284 20209 39573 40053 70360 81800 333 10369 29057 55087 58006 60011;EQDQ01+000012SCOTLC
0190832880999992003120412004-13267-043417FM-12+0458SBLP V0201801N001510090019N0200001N1+02651+02271101081ADDAY151061AY251061GF107991061081004501001091KA1240N+02151MA1999999096241MD1999999+0071MW1021REMSYN088AAXX  04124 83288 21498 71803 10265 20227 39624 40108 70255 86809 333 20215 58007 60124;
0167832880999992003120418004-13267-043417FM-12+0458SBLP V0201801N002119999999N0200001N1+03211+02181100521ADDAA106000091GF107991001001999999001081MA1999999095701MD1999999-0031REMSYN070AAXX  04184 83288 32998 71804 10321 20218 39570 40052 80008 333 59003;EQDQ01  00002PRCP06
0198832880999992003120500004-13267-043417FM-12+0458SBLP V0201801N001512200019N0020001N1+02681+02261100701ADDAA106000091GF107991041001017501071011KA1240M+03291MA1999999095861MD1999999+0131REMSYN088AAXX  05004 83288 32795 71803 10268 20226 39586 40070 84071 333 10329 29072 55074 58013;EQDQ01  00002PRCP06
0186832880999992003120512004-13267-043417FM-12+0458SBLP V0203201N001012200019N0200001N1+03011+02291100811ADDAA106000091GF103991021001017501071081KA1240N+02181MA1999999096021MD1999999-0221REMSYN076AAXX  05124 83288 32798 33202 10301 20229 39602 40081 82078 333 20218 59022;EQDQ01  00002PRCP06
0167832880999992003120518004-13267-043417FM-12+0458SBLP V0203201N001511050019N0200001N1+03601+02141100291ADDAA106000091GF105991021021008001011021MA1999999095561MD1999999-0141REMSYN070AAXX  05184 83288 32598 53203 10360 20214 39556 40029 82212 333 59014;EQDQ01  00002PRCP06
0215832880999992003120600004-13267-043417FM-12+0458SBLP V0209999C000019999999N0020001N1+02271+02181100881ADDAY191061AY261061GF107991001001999999001081KA1240M+03651MA1999999096031MD1999999+0171REMSYN100AAXX  06004 83288 21995 70000 10227 20218 39603 40088 75696 80008 333 10365 29074 55083 58017 60611;EQDQ01+000562PRSWM1
0203832880999992003120612004-13267-043417FM-12+0458SBLP V0202301N000512200019N0200001N1+02671+02221101021ADDAY161061AY261061GF103991021011008001031041KA1240N+02131MA1999999096171MD1999999-0151REMSYN088AAXX  06124 83288 21598 32301 10267 20222 39617 40102 75666 82134 333 20213 59015 60644;EQDQ01+000562PRSWM1
0167832880999992003120618004-13267-043417FM-12+0458SBLP V0202301N001010450019N0200001N1+03371+02171100411ADDAA106000091GF105991041081008001021041MA1999999095621MD1999999-0061REMSYN070AAXX  06184 83288 32598 52302 10337 20217 39562 40041 84824 333 59006;EQDQ01  00002PRCP06
0186832880999992003120712004-13267-043417FM-12+0458SBLP V0209999C000019999999N0200001N1+02631+02251101111ADDAA106000091GF108991001001999999001071KA1240N+02321MA1999999096261MD1999999+0091REMSYN076AAXX  07124 83288 32998 80000 10263 20225 39626 40111 80007 333 20232 58009;EQDQ01  00002PRCP06
0167832880999992003120718004-13267-043417FM-12+0458SBLP V0202301N001519999999N0200001N1+03011+02321100681ADDAA106000091GF108991001001999999001071MA1999999095851MD1999999+0231REMSYN070AAXX  07184 83288 32998 82303 10301 20232 39585 40068 80007 333 58023;EQDQ01  00002PRCP06
0198832880999992003120800004-13267-043417FM-12+0458SBLP V0201801N002111050019N0020001N1+02691+02181100891ADDAA106000091GF108991041001017501071071KA1240M+03071MA1999999096031MD1999999+0221REMSYN088AAXX  08004 83288 32795 81804 10269 20218 39603 40089 84077 333 10307 29074 55011 58022;EQDQ01  00002PRCP06
0190832880999992003120812004-13267-043417FM-12+0458SBLP V0201401N000512200019N0200001N1+02851+02311101171ADDAY151061AY251061GF101991011011008001001001KA1240N+02321MA1999999096331MD1999999+0071MW1031REMSYN088AAXX  08124 83288 21598 11401 10285 20231 39633 40117 70355 81100 333 20232 58007 69924;
0167832880999992003120818004-13267-043417FM-12+0458SBLP V0203601N001012200019N0200001N1+03501+02161100561ADDAA106000091GF102991011021008001001021MA1999999095791MD1999999-0061REMSYN070AAXX  08184 83288 32598 23602 10350 20216 39579 40056 81202 333 59006;EQDQ01  00002PRCP06
0186832880999992003120912004-13267-043417FM-12+0458SBLP V0201801N000512200019N0200001N1+02771+02231101271ADDAA106000091GF103991031011008001001021KA1240N+02171MA1999999096441MD1999999+0111REMSYN076AAXX  09124 83288 32598 31801 10277 20223 39644 40127 83102 333 20217 58011;EQDQ01  00002PRCP06
0167832880999992003120918004-13267-043417FM-12+0458SBLP V0203201N000512200019N0200001N1+03431+01941100951ADDAA106000091GF105991021021008001001041MA1999999095981MD1999999+0181REMSYN070AAXX  09184 83288 32598 53201 10343 20194 39598 40095 82204 333 58018;EQDQ01  00002PRCP06
0214832880999992003121000004-13267-043417FM-12+0458SBLP V0201801N001012200019N0020001N1+03021+01961100971ADDAA106000091GF103991999011008001001001KA1240M+03531MA1999999096001MD1999999-0161REMSYN088AAXX  10004 83288 32595 31802 10302 20196 39600 40097 82100 333 10353 29056 55101 59016;EQDQ01+000022SCOTLCQ02  00002PRCP06
0196832880999992003121012004-13267-043417FM-12+0458SBLP V0209999C000012200019N0200001N1+02911+02201101001ADDAA106000091GA1001+999999999GF100991001001999999001001KA1240N+02311MA1999999096211MD1999999-0231REMSYN070AAXX  10124 83288 32998 00000 10291 20220 39621 40100 333 20231 59023;EQDQ01  00002PRCP06
0167832880999992003121018004-13267-043417FM-12+0458SBLP V0202701N001512200019N0200001N1+03701+02031100501ADDAA106000091GF101991011021008001001001MA1999999095751MD1999999-0231REMSYN070AAXX  10184 83288 32598 12703 10370 20203 39575 40050 81200 333 59023;EQDQ01  00002PRCP06
0208832880999992003121100004-13267-043417FM-12+0458SBLP V0201401N002112200019N0020001N1+03031+02001100741ADDAA106000091GA1001+999999999GF100991001001999999001001KA1240M+03751MA1999999095961MD1999999-0041REMSYN082AAXX  11004 83288 32995 01404 10303 20200 39596 40074 333 10375 29054 55118 59004;EQDQ01  00002PRCP06
0091832880999992003121109004-13267-043417FM-15+0458SBLP V0209999C00001220001CN0099001N1+02401+01801999999ADDMA1101491999999MW1001REMMET039SBLP 110900Z 00000KT CAVOK 24/18 Q1015;EQDQ01+000000PRSWM2
0091832880999992003121110004-13267-043417FM-15+0458SBLP V0209999C00001220001CN0099001N1+02801+01601999999ADDMA1101591999999MW1001REMMET039SBLP 111000Z 00000KT CAVOK 28/16 Q1016;EQDQ01+000000PRSWM2
0196832880999992003121112004-13267-043417FM-12+0458SBLP V0201401N001512200019N0200001N1+02991+01681101191ADDAA106000091GA1001+999999999GF100991001001999999001001KA1240N+02181MA1999999096401MD1999999+0191REMSYN070AAXX  11124 83288 32998 01403 10299 20168 39640 40119 333 20218 58019;EQDQ01  00002PRCP06
0177832880999992003121118004-13267-043417FM-12+0458SBLP V0200901N001512200019N0200001N1+03601+01411100581ADDAA106000091GA1001+999999999GF100991001001999999001001MA1999999095821MD1999999+0071REMSYN064AAXX  11184 83288 32998 00903 10360 20141 39582 40058 333 58007;EQDQ01  00002PRCP06
0208832880999992003121200004-13267-043417FM-12+0458SBLP V0201401N000512200019N0020001N1+02951+01741100861ADDAA106000091GA1001+999999999GF100991001001999999001001KA1240M+03691MA1999999096071MD1999999+0111REMSYN082AAXX  12004 83288 32995 01401 10295 20174 39607 40086 333 10369 29042 55120 58011;EQDQ01  00002PRCP06
0186832880999992003121212004-13267-043417FM-12+0458SBLP V0201401N000512200019N0200001N1+02971+01841101011ADDAA106000091GF102991011011008001001021KA1240N+02061MA1999999096221MD1999999-0181REMSYN076AAXX  12124 83288 32598 21401 10297 20184 39622 40101 81102 333 20206 59018;EQDQ01  00002PRCP06
0167832880999992003121218004-13267-043417FM-12+0458SBLP V0202701N001011050019N0200001N1+03071+01481100781ADDAA106000091GF105991031021008001001021MA1999999095781MD1999999-0041REMSYN070AAXX  12184 83288 32598 52702 10307 20148 39578 40078 83202 333 59004;EQDQ01  00002PRCP06
0208832880999992003121400004-13267-043417FM-12+0458SBLP V0201801N001012200019N0020001N1+02861+01331100561ADDAA106000091GA1001+999999999GF100991001001999999001001KA1240M+03671MA1999999095791MD1999999+0101REMSYN082AAXX  14004 83288 32995 01802 10286 20133 39579 40056 333 10367 29040 55120 58010;EQDQ01  00002PRCP06
0196832880999992003121412004-13267-043417FM-12+0458SBLP V0200901N001512200019N0200001N1+02931+01671101111ADDAA106000091GA1001+999999999GF100991001001999999001001KA1240N+02141MA1999999096301MD1999999-0141REMSYN070AAXX  14124 83288 32998 00903 10293 20167 39630 40111 333 20214 59014;EQDQ01  00002PRCP06
0167832880999992003121418004-13267-043417FM-12+0458SBLP V0202301N001512200019N0200001N1+03561+01681100521ADDAA106000091GF102991021011008001001001MA1999999095771MD1999999+0171REMSYN070AAXX  14184 83288 32598 22303 10356 20168 39577 40052 82100 333 58017;EQDQ01  00002PRCP06
0208832880999992003121500004-13267-043417FM-12+0458SBLP V0201401N001012200019N0020001N1+02891+01111100781ADDAA106000091GA1001+999999999GF100991001001999999001001KA1240M+03611MA1999999095991MD1999999+0201REMSYN082AAXX  15004 83288 32995 01402 10289 20111 39599 40078 333 10361 29036 55120 58020;EQDQ01  00002PRCP06
0196832880999992003121512004-13267-043417FM-12+0458SBLP V0200901N001512200019N0200001N1+02931+01671101111ADDAA106000091GA1001+999999999GF100991001001999999001001KA1240N+02141MA1999999096301MD1999999+0131REMSYN070AAXX  15124 83288 32998 00903 10293 20167 39630 40111 333 20214 58013;EQDQ01  00002PRCP06
0167832880999992003121518004-13267-043417FM-12+0458SBLP V0202701N001011050019N0200001N1+03511+01631100551ADDAA106000091GF105991031021008001001021MA1999999095791MD1999999+0021REMSYN070AAXX  15184 83288 32598 52702 10351 20163 39579 40055 83202 333 58002;EQDQ01  00002PRCP06
0214832880999992003121600004-13267-043417FM-12+0458SBLP V0201801N001512200019N0020001N1+03261+01641100461ADDAA106000091GF103991999021008001001001KA1240M+03691MA1999999095721MD1999999-0271REMSYN088AAXX  16004 83288 32595 31803 10326 20164 39572 40046 82200 333 10369 29039 55120 59027;EQDQ01+000022SCOTLCQ02  00002PRCP06
0196832880999992003121612004-13267-043417FM-12+0458SBLP V0200501N001012200019N0200001N1+03031+02101101051ADDAA106000091GA1001+999999999GF100991001001999999001001KA1240N+02321MA1999999096281MD1999999-0021REMSYN070AAXX  16124 83288 32998 00502 10303 20210 39628 40105 333 20232 59002;EQDQ01  00002PRCP06
0167832880999992003121618004-13267-043417FM-12+0458SBLP V0202301N001512200019N0200001N1+03601+01771100511ADDAA106000091GF101991011021999999001001MA1999999095761MD1999999-0031REMSYN070AAXX  16184 83288 32998 12303 10360 20177 39576 40051 81200 333 59003;EQDQ01  00002PRCP06
0208832880999992003121700004-13267-043417FM-12+0458SBLP V0200901N001012200019N0020001N1+03011+02111100591ADDAA106000091GA1001+999999999GF100991001001999999001001KA1240M+03671MA1999999095831MD1999999+0111REMSYN082AAXX  17004 83288 32995 00902 10301 20211 39583 40059 333 10367 29052 55105 58011;EQDQ01  00002PRCP06
0170832880999992003121712004-13267-043417FM-12+0458SBLP V0203601N002612200019N0200001N1+03091+02071999999ADDAA106000091GF101991999999008001999999KA1240N+02341MA1999999096221REMSYN074AAXX  17124 83288 32598 13605 10309 20207 39622 409 81100 333 20234 59006;EQDQ01  00002PRCP06
0167832880999992003121718004-13267-043417FM-12+0458SBLP V0202301N002112200019N0200001N1+03701+01551100461ADDAA106000091GF103991031021008001001001MA1999999095731MD1999999-0031REMSYN070AAXX  17184 83288 32598 32304 10370 20155 39573 40046 83200 333 59003;EQDQ01  00002PRCP06
0208832880999992003121800004-13267-043417FM-12+0458SBLP V0203601N001012200019N0020001N1+02811+02091100691ADDAA106000091GA1001+999999999GF100991001001999999001001KA1240M+03771MA1999999095911MD1999999-0081REMSYN082AAXX  18004 83288 32995 03602 10281 20209 39591 40069 333 10377 29054 55110 59008;EQDQ01  00002PRCP06
0196832880999992003121812004-13267-043417FM-12+0458SBLP V0201401N001512200019N0200001N1+02941+01971100981ADDAA106000091GA1001+999999999GF100991001001999999001001KA1240N+02121MA1999999096251MD1999999+0031REMSYN070AAXX  18124 83288 32998 01403 10294 20197 39625 40098 333 20212 58003;EQDQ01  00002PRCP06
0196832880999992003121912004-13267-043417FM-12+0458SBLP V0200901N002612200019N0200001N1+02861+01551101391ADDAA106000091GA1001+999999999GF100991001001999999001001KA1240N+02171MA1999999096571MD1999999+0361REMSYN070AAXX  19124 83288 32998 00905 10286 20155 39657 40139 333 20217 58036;EQDQ01  00002PRCP06
0167832880999992003121918004-13267-043417FM-12+0458SBLP V0200901N002112200019N0200001N1+03621+01641100781ADDAA106000091GF101991011021008001001001MA1999999096001MD1999999-0091REMSYN070AAXX  19184 83288 32598 10904 10362 20164 39600 40078 81200 333 59009;EQDQ01  00002PRCP06
0208832880999992003122000004-13267-043417FM-12+0458SBLP V0201401N002612200019N0020001N1+03011+01781101141ADDAA106000091GA1001+999999999GF100991001001999999001001KA1240M+03731MA1999999096341MD1999999+0271REMSYN082AAXX  20004 83288 32995 01405 10301 20178 39634 40114 333 10373 29044 55107 58027;EQDQ01  00002PRCP06
0196832880999992003122012004-13267-043417FM-12+0458SBLP V0200901N001512200019N0500001N1+02871+01901101061ADDAA106000091GA1001+999999999GF100991001001999999001001KA1240N+02241MA1999999096261MD1999999-0311REMSYN070AAXX  20124 83288 33299 00903 10287 20190 39626 40106 333 20224 59031;EQDQ01  00002PRCP06
0208832880999992003122100004-13267-043417FM-12+0458SBLP V0201401N001012200019N0020001N1+03111+01561100881ADDAA106000091GA1001+999999999GF100991001001999999001001KA1240M+03711MA1999999096111MD1999999-0231REMSYN082AAXX  21004 83288 32995 01402 10311 20156 39611 40088 333 10371 29044 55103 59023;EQDQ01  00002PRCP06
0196832880999992003122112004-13267-043417FM-12+0458SBLP V0200501N001512200019N0200001N1+02951+01971101211ADDAA106000091GA1001+999999999GF100991001001999999001001KA1240N+02221MA1999999096431MD1999999+0171REMSYN070AAXX  21124 83288 32998 00503 10295 20197 39643 40121 333 20222 58017;EQDQ01  00002PRCP06
0214832880999992003122200004-13267-043417FM-12+0458SBLP V0202701N000512200019N0020001N1+03281+01661100441ADDAA106000091GF102991999011008001001001KA1240M+03651MA1999999095701MD1999999-0411REMSYN088AAXX  22004 83288 32595 22701 10328 20166 39570 40044 81100 333 10365 29041 55120 59041;EQDQ01+000012SCOTLCQ02  00002PRCP06
0186832880999992003122212004-13267-043417FM-12+0458SBLP V0203201N002619999999N0020001N1+03131+01901100901ADDAA106000091GF106991001001999999001021KA1240N+02551MA1999999096161MD1999999-0271REMSYN076AAXX  22124 83288 32995 63205 10313 20190 39616 40090 80002 333 20255 59027;EQDQ01  00002PRCP06
0167832880999992003122218004-13267-043417FM-12+0458SBLP V0203201N002112200019N0200001N1+03721+01771100241ADDAA106000091GF103991031021008001001021MA1999999095551MD1999999-0231REMSYN070AAXX  22184 83288 32598 33204 10372 20177 39555 40024 83202 333 59023;EQDQ01  00002PRCP06
0208832880999992003122300004-13267-043417FM-12+0458SBLP V0201401N001512200019N0020001N1+03071+01931100591ADDAA106000091GA1001+999999999GF100991001001999999001001KA1240M+03791MA1999999095851MD1999999+0151REMSYN082AAXX  23004 83288 32995 01403 10307 20193 39585 40059 333 10379 29046 55106 58015;EQDQ01  00002PRCP06
0190832880999992003122312004-13267-043417FM-12+0458SBLP V0201801N001510120019N0200001N1+02411+02211101171ADDAY161061AY261061GF107991071081008001001001KA1240N+01981MA1999999096271MD1999999+0111MW1011REMSYN088AAXX  23124 83288 21598 71803 10241 20221 39627 40117 70166 87800 333 20198 58011 60174;
0167832880999992003122318004-13267-043417FM-12+0458SBLP V0202701N001010450019N0200001N1+03051+02111100551ADDAA106000091GF107991041081008001071001MA1999999095811MD1999999+0261REMSYN070AAXX  23184 83288 32598 72702 10305 20211 39581 40055 84870 333 58026;EQDQ01  00002PRCP06
0208832880999992003122400004-13267-043417FM-12+0458SBLP V0201801N001512200019N0020001N1+02751+02261100711ADDAA106000091GA1001+999999999GF100991001001999999001001KA1240M+03091MA1999999095891MD1999999+0041REMSYN082AAXX  24004 83288 32995 01803 10275 20226 39589 40071 333 10309 29074 55019 58004;EQDQ01  00002PRCP06
0190832880999992003122412004-13267-043417FM-12+0458SBLP V0202701N000510075019N0200001N1+02351+02171101221ADDAY161061AY261061GF108991061051008001021999KA1240N+02131MA1999999096341MD1999999+0071MW1021REMSYN088AAXX  24124 83288 21598 82701 10235 20217 39634 40122 70266 8652/ 333 20213 58007 60034;
0171832880999992003122418004-13267-043417FM-12+0458SBLP V0201401N000510075019N0200001N1+02911+01571101571ADDAY191061AY211061GF106991061031008001091011MA1999999095681MD1999999+0131MW1031REMSYN082AAXX  24184 83288 21598 61401 10291 20157 39568 40157 70391 86391 333 58013 60011;
0202832880999992003122500004-13267-043417FM-12+0458SBLP V0202701N001510450019N0020001N1+02571+02231101141ADDAY151061AY211061GF108991041021008001021001KA1240M+02881MA1999999096241MD1999999+0351MW1031REMSYN100AAXX  25004 83288 21595 82703 10257 20223 39624 40114 70351 84220 333 10288 29081 55002 58035 60001;
0162832880999992003122512004-13267-043417FM-12+0458SBLP V0200901N001512200019N0200001N1+02791+02131101181ADDGF102991021021008001001001KA1240N+02221MA1999999096331MD1999999-0011REMSYN082AAXX  25124 83288 22598 20903 10279 20213 39633 40118 82200 333 20222 59001 60024;
0167832880999992003122518004-13267-043417FM-12+0458SBLP V0202301N002112200019N0200001N1+03301+02301100701ADDAA106000091GF102991021021008001001001MA1999999095891MD1999999+0211REMSYN070AAXX  25184 83288 32598 22304 10330 20230 39589 40070 82200 333 58021;EQDQ01  00002PRCP06
0186832880999992003122612004-13267-043417FM-12+0458SBLP V0200901N001512200019N0200001N1+02831+01881101051ADDAA106000091GF101991011001017501081001KA1240N+02121MA1999999096211MD1999999-0121REMSYN076AAXX  26124 83288 32798 10903 10283 20188 39621 40105 81080 333 20212 59012;EQDQ01  00002PRCP06
0167832880999992003122618004-13267-043417FM-12+0458SBLP V0202301N001012200019N0200001N1+03261+02111100521ADDAA106000091GF103991031021008001001001MA1999999095721MD1999999-0171REMSYN070AAXX  26184 83288 32598 32302 10326 20211 39572 40052 83200 333 59017;EQDQ01  00002PRCP06
0198832880999992003122700004-13267-043417FM-12+0458SBLP V0201401N002110120019N0020001N1+02851+01761100641ADDAA106000091GF106991061081008001001001KA1240M+03411MA1999999095851MD1999999-0191REMSYN088AAXX  27004 83288 32595 61404 10285 20176 39585 40064 86800 333 10341 29055 55094 59019;EQDQ01  00002PRCP06
0186832880999992003122712004-13267-043417FM-12+0458SBLP V0201801N001510075019N0200001N1+02451+02271101271ADDAA106000091GF106991051051008001021001KA1240N+02151MA1999999096401MD1999999+0191REMSYN076AAXX  27124 83288 32598 61803 10245 20227 39640 40127 85520 333 20215 58019;EQDQ01  00002PRCP06
0167832880999992003122718004-13267-043417FM-12+0458SBLP V0202301N001010450019N0200001N1+02651+02091100891ADDAA106000091GF105991031051008001021001MA1999999096011MD1999999-0291REMSYN070AAXX  27184 83288 32598 52302 10265 20209 39601 40089 83520 333 59029;EQDQ01  00002PRCP06
0198832880999992003122800004-13267-043417FM-12+0458SBLP V0202301N000510450019N0020001N1+02551+02211100921ADDAA106000091GF106991041051008001021001KA1240M+02851MA1999999096041MD1999999+0191REMSYN088AAXX  28004 83288 32595 62301 10255 20221 39604 40092 84520 333 10285 29081 55001 58019;EQDQ01  00002PRCP06
0186832880999992003122812004-13267-043417FM-12+0458SBLP V0200501N001512200019N0200001N1+02861+01951100941ADDAA106000091GF104991001001999999001021KA1240N+02131MA1999999096091MD1999999-0311REMSYN076AAXX  28124 83288 32998 40503 10286 20195 39609 40094 80002 333 20213 59031;EQDQ01  00002PRCP06
0167832880999992003122818004-13267-043417FM-12+0458SBLP V0209999C000011050019N0200001N1+03251+01781100441ADDAA106000091GF108991011011008001001021MA1999999095621MD1999999-0391REMSYN070AAXX  28184 83288 32598 80000 10325 20178 39562 40044 81102 333 59039;EQDQ01  00002PRCP06
0202832880999992003122900004-13267-043417FM-12+0458SBLP V0203601N001510150019N0020001N1+02281+02181100921ADDAY161061AY261061GF108991081001017501021999KA1240M+03311MA1999999096051MD1999999+0011MW1021REMSYN100AAXX  29004 83288 21795 83603 10228 20218 39605 40092 70266 8802/ 333 10331 29072 55053 58001 60031;
0162832880999992003122912004-13267-043417FM-12+0458SBLP V0202301N001511050019N0200001N1+02181+02051101311ADDGF108991041001017501021071KA1240N+02031MA1999999096361MD1999999+0271REMSYN082AAXX  29124 83288 22798 82303 10218 20205 39636 40131 84027 333 20203 58027 60074;
0171832880999992003122918004-13267-043417FM-12+0458SBLP V0209999C000010450019N0200001N1+02331+02131101141ADDAY151061AY251061GF108991041051004501021071MA1999999096191MD1999999+0571MW1021REMSYN082AAXX  29184 83288 21498 80000 10233 20213 39619 40114 70255 84527 333 58057 69951;
0198832880999992003123000004-13267-043417FM-12+0458SBLP V0201401N001511050019N0020001N1+02201+02101101171ADDAA106000091GF108991031001017501021071KA1240M+02371MA1999999096221MD1999999+0171REMSYN088AAXX  30004 83288 32795 81403 10220 20210 39622 40117 83027 333 10237 29092 55000 58017;EQDQ01  00002PRCP06
0162832880999992003123012004-13267-043417FM-12+0458SBLP V0201801N000510450019N0200001N1+02341+02031101241ADDGF105991041051008001021001KA1240N+02041MA1999999096321MD1999999-0041REMSYN082AAXX  30124 83288 22598 51801 10234 20203 39632 40124 84520 333 20204 59004 69954;
0167832880999992003123018004-13267-043417FM-12+0458SBLP V0202701N002612200019N0200001N1+03081+02071100621ADDAA106000091GF103991011021008001031001MA1999999095771MD1999999-0421REMSYN070AAXX  30184 83288 32598 32705 10308 20207 39577 40062 81230 333 59042;EQDQ01  00002PRCP06
0198832880999992003123100004-13267-043417FM-12+0458SBLP V0201401N001011050019N0020001N1+02451+01971101201ADDAA106000091GF105991041001008001021021KA1240M+03131MA1999999096291MD1999999+0071REMSYN088AAXX  31004 83288 32595 51402 10245 20197 39629 40120 84022 333 10313 29071 55012 58007;EQDQ01  00002PRCP06
0196832880999992003123112004-13267-043417FM-12+0458SBLP V0209999C000012200019N0200001N1+02911+02171101091ADDAA106000091GA1001+999999999GF100991001001999999001001KA1240N+02241MA1999999096241MD1999999-0081REMSYN070AAXX  31124 83288 32998 00000 10291 20217 39624 40109 333 20224 59008;EQDQ01  00002PRCP06
0167832880999992003123118004-13267-043417FM-12+0458SBLP V0201801N002612200019N0200001N1+03521+02031100481ADDAA106000091GF101991011021008001001001MA1999999095691MD1999999-0081REMSYN070AAXX  31184 83288 32598 11805 10352 20203 39569 40048 81200 333 59008;EQDQ01  00002PRCP06
