0208833440999992003010100004-14950-040880FM-12+0905SBQV V0200501N002112200019N0100001N1+02111+01841101171ADDAA106000091GA1001+999999999GF100991001001999999001001KA1240M+02691MA1999999091631MD1999999-0221REMSYN082AAXX  01004 83344 32997 00504 10211 20184 39163 40117 333 10269 29077 55046 59022;EQDQ01  00002PRCP06
0186833440999992003010112004-14950-040880FM-12+0905SBQV V0203601N003619999999N0200001N1+02351+01871101311ADDAA106000091GF107991021001004501081091KA1240N+01691MA1999999091771MD1999999-0141REMSYN076AAXX  01124 83344 32498 73607 10235 20187 39177 40131 82089 333 20169 59014;EQDQ01  00002PRCP06
0167833440999992003010118004-14950-040880FM-12+0905SBQV V0200501N003110042019N0200001N1+02691+01841100981ADDAA106000091GF108991081051004501999999MA1999999091471MD1999999-0141REMSYN070AAXX  01184 83344 32498 80506 10269 20184 39147 40098 885// 333 59014;EQDQ01  00002PRCP06
0208833440999992003010200004-14950-040880FM-12+0905SBQV V0200901N001012200019N0040001N1+02151+01971101241ADDAA106000091GA1001+999999999GF100991001001999999001001KA1240M+02911MA1999999091711MD1999999-0141REMSYN082AAXX  02004 83344 32996 00902 10215 20197 39171 40124 333 10291 29079 55067 59014;EQDQ01  00002PRCP06
0186833440999992003010212004-14950-040880FM-12+0905SBQV V0203601N002110450019N0200001N1+02411+02051101531ADDAA106000091GF106991041041004501051001KA1240N+01651MA1999999091721MD1999999-0051REMSYN076AAXX  02124 83344 32498 63604 10241 20205 39172 40153 84450 333 20165 59005;EQDQ01  00002PRCP06
0167833440999992003010218004-14950-040880FM-12+0905SBQV V0203601N003111050019N0200001N1+02861+02091100841ADDAA106000091GF105991031031004501001091MA1999999091351MD1999999-0121REMSYN070AAXX  02184 83344 32498 53606 10286 20209 39135 40084 83309 333 59012;EQDQ01  00002PRCP06
0198833440999992003010300004-14950-040880FM-12+0905SBQV V0209999C000012200019N0040001N1+02201+02131101111ADDAA106000091GF103991031001012501051001KA1240M+02951MA1999999091611MD1999999-0101REMSYN088AAXX  03004 83344 32696 30000 10220 20213 39161 40111 83050 333 10295 29084 55076 59010;EQDQ01  00002PRCP06
0186833440999992003010312004-14950-040880FM-12+0905SBQV V0203601N003110042019N0200001N1+02341+02051101251ADDAA106000091GF108991081071004501999999KA1240N+01941MA1999999091721MD1999999+0001REMSYN076AAXX  03124 83344 32498 83606 10234 20205 39172 40125 887// 333 20194 58000;EQDQ01  00002PRCP06
0167833440999992003010318004-14950-040880FM-12+0905SBQV V0203601N003110450019N0200001N1+02791+02161100891ADDAA106000091GF106991041041004501051001MA1999999091431MD1999999+0081REMSYN070AAXX  03184 83344 32498 63606 10279 20216 39143 40089 84450 333 58008;EQDQ01  00002PRCP06
0198833440999992003010400004-14950-040880FM-12+0905SBQV V0203201N001019999999N0040001N1+02331+02161101161ADDAA106000091GF106991061001004501051001KA1240M+02871MA1999999091711MD1999999+0101REMSYN088AAXX  04004 83344 32496 63202 10233 20216 39171 40116 86050 333 10287 29084 55049 58010;EQDQ01  00002PRCP06
0186833440999992003010412004-14950-040880FM-12+0905SBQV V0203601N003110450019N0200001N1+02411+01971101321ADDAA106000091GF107991041041004501051001KA1240N+01901MA1999999091821MD1999999+0101REMSYN076AAXX  04124 83344 32498 73606 10241 20197 39182 40132 84450 333 20190 58010;EQDQ01  00002PRCP06
0167833440999992003010418004-14950-040880FM-12+0905SBQV V0203601N003112200019N0200001N1+02781+01961100961ADDAA106000091GF103991031041004501001001MA1999999091491MD1999999+0061REMSYN070AAXX  04184 83344 32498 33606 10278 20196 39149 40096 83400 333 58006;EQDQ01  00002PRCP06
0214833440999992003010500004-14950-040880FM-12+0905SBQV V0200701N001019999999N0040001N1+02121+01931101301ADDAA106000091GF106991999061012501021001KA1240M+02911MA1999999091761MD1999999+0051REMSYN088AAXX  05004 83344 32696 60702 10212 20193 39176 40130 88620 333 10291 29079 55060 58005;EQDQ01+000082SCOTLCQ02  00002PRCP06
0186833440999992003010512004-14950-040880FM-12+0905SBQV V0203601N003110450019N0200001N1+02311+02001101251ADDAA106000091GF108991031021004501061999KA1240N+01891MA1999999091701MD1999999-0121REMSYN076AAXX  05124 83344 32498 83606 10231 20200 39170 40125 8326/ 333 20189 59012;EQDQ01  00002PRCP06
0167833440999992003010518004-14950-040880FM-12+0905SBQV V0202701N003110450019N0200001N1+02911+01901100851ADDAA106000091GF106991041041004501081001MA1999999091421MD1999999-0071REMSYN070AAXX  05184 83344 32498 62706 10291 20190 39142 40085 84480 333 59007;EQDQ01  00002PRCP06
0198833440999992003010600004-14950-040880FM-12+0905SBQV V0200901N001510042019N0040001N1+02231+01961101281ADDAA106000091GF106991061051004501001001KA1240M+03051MA1999999091731MD1999999-0031REMSYN088AAXX  06004 83344 32496 60903 10223 20196 39173 40128 86500 333 10305 29077 55027 59003;EQDQ01  00002PRCP06
0186833440999992003010612004-14950-040880FM-12+0905SBQV V0203201N002610450019N0200001N1+02561+02231101151ADDAA106000091GF107991031041004501031001KA1240N+01981MA1999999091681MD1999999-0021REMSYN076AAXX  06124 83344 32498 73205 10256 20223 39168 40115 83430 333 20198 59002;EQDQ01  00002PRCP06
0167833440999992003010618004-14950-040880FM-12+0905SBQV V0203601N004610450019N0200001N1+03011+02111100651ADDAA106000091GF106991031031004501051001MA1999999091271MD1999999-0151REMSYN070AAXX  06184 83344 32498 63609 10301 20211 39127 40065 83350 333 59015;EQDQ01  00002PRCP06
0208833440999992003010700004-14950-040880FM-12+0905SBQV V0200501N001012200019N0100001N1+02151+02001101051ADDAA106000091GA1001+999999999GF100991001001999999001001KA1240M+03131MA1999999091571MD1999999+0041REMSYN082AAXX  07004 83344 32997 00502 10215 20200 39157 40105 333 10313 29081 55029 58004;EQDQ01  00002PRCP06
0186833440999992003010712004-14950-040880FM-12+0905SBQV V0203201N003110450019N0200001N1+02751+02021101051ADDAA106000091GF106991031061004501081051KA1240N+01791MA1999999091631MD1999999-0051REMSYN076AAXX  07124 83344 32498 63206 10275 20202 39163 40105 83685 333 20179 59005;EQDQ01  00002PRCP06
0167833440999992003010718004-14950-040880FM-12+0905SBQV V0203201N003110450019N0200001N1+03071+01901100781ADDAA106000091GF107991041061004501081001MA1999999091371MD1999999+0101REMSYN070AAXX  07184 83344 32498 73206 10307 20190 39137 40078 84680 333 58010;EQDQ01  00002PRCP06
0208833440999992003010800004-14950-040880FM-12+0905SBQV V0209999C000012200019N0040001N1+02321+02151101051ADDAA106000091GA1001+999999999GF100991001001999999001001KA1240M+03171MA1999999091631MD1999999+0061REMSYN082AAXX  08004 83344 32996 00000 10232 20215 39163 40105 333 10317 29074 55056 58006;EQDQ01  00002PRCP06
0167833440999992003010818004-14950-040880FM-12+0905SBQV V0201401N003110450019N0200001N1+02841+02191101061ADDAA106000091GF107991041061004501081001MA1999999091611MD1999999+0241REMSYN070AAXX  08184 83344 32498 71406 10284 20219 39161 40106 84680 333 58024;EQDQ01  00002PRCP06
0208833440999992003010900004-14950-040880FM-12+0905SBQV V0201401N001012200019N0100001N1+02211+02051101411ADDAA106000091GA1001+999999999GF100991001001999999001001KA1240M+02971MA1999999091901MD1999999+0271REMSYN082AAXX  09004 83344 32997 01402 10221 20205 39190 40141 333 10297 29082 55038 58027;EQDQ01  00002PRCP06
0186833440999992003010912004-14950-040880FM-12+0905SBQV V0200501N003111050019N0200001N1+02491+01701101581ADDAA106000091GF107991031001012501011021KA1240N+01701MA1999999092051MD1999999+0211REMSYN076AAXX  09124 83344 32698 70506 10249 20170 39205 40158 83012 333 20170 58021;EQDQ01  00002PRCP06
0167833440999992003010918004-14950-040880FM-12+0905SBQV V0201401N003110450019N0200001N1+02781+02041101261ADDAA106000091GF105991031021004501041001MA1999999091781MD1999999+0171REMSYN070AAXX  09184 83344 32498 51406 10278 20204 39178 40126 83240 333 58017;EQDQ01  00002PRCP06
0208833440999992003011000004-14950-040880FM-12+0905SBQV V0201801N000512200019N0040001N1+02171+01991101491ADDAA106000091GA1001+999999999GF100991001001999999001001KA1240M+02971MA1999999091971MD1999999+0071REMSYN082AAXX  10004 83344 32996 01801 10217 20199 39197 40149 333 10297 29076 55081 58007;EQDQ01  00002PRCP06
0186833440999992003011012004-14950-040880FM-12+0905SBQV V0203601N003112200019N0200001N1+02411+01861101511ADDAA106000091GF104991021011004501001011KA1240N+01701MA1999999091971MD1999999-0081REMSYN076AAXX  10124 83344 32498 43606 10241 20186 39197 40151 82101 333 20170 59008;EQDQ01  00002PRCP06
0167833440999992003011018004-14950-040880FM-12+0905SBQV V0200501N003612200019N0200001N1+02961+02051100971ADDAA106000091GF104991041021004501001001MA1999999091531MD1999999-0251REMSYN070AAXX  10184 83344 32498 40507 10296 20205 39153 40097 84200 333 59025;EQDQ01  00002PRCP06
0208833440999992003011100004-14950-040880FM-12+0905SBQV V0200501N001512200019N0100001N1+02251+01941101191ADDAA106000091GA1001+999999999GF100991001001999999001001KA1240M+03051MA1999999091701MD1999999-0271REMSYN082AAXX  11004 83344 32997 00503 10225 20194 39170 40119 333 10305 29074 55111 59027;EQDQ01  00002PRCP06
0186833440999992003011112004-14950-040880FM-12+0905SBQV V0203601N002112200019N0200001N1+02671+01791101371ADDAA106000091GF104991041081012501001001KA1240N+01401MA1999999091911MD1999999-0061REMSYN076AAXX  11124 83344 32698 43604 10267 20179 39191 40137 84800 333 20140 59006;EQDQ01  00002PRCP06
0171833440999992003011118004-14950-040880FM-12+0905SBQV V0201801N006210042019N0100001N1+02251+01981101201ADDAY121061AY221061GF108991081071004501999999MA1999999091571MD1999999+0041MW1611REMSYN082AAXX  11184 83344 21497 81812 10225 20198 39157 40120 76122 887// 333 58004 60011;
0212833440999992003011200004-14950-040880FM-12+0905SBQV V0203601N001512200019N0040001N1+02051+01921101051ADDAY161061AY221061GA1001+999999999GF100991001001999999001001KA1240M+03091MA1999999091571MD1999999-0131MW1021REMSYN094AAXX  12004 83344 21996 03603 10205 20192 39157 40105 70262 333 10309 29083 55060 59013 60011;
0162833440999992003011212004-14950-040880FM-12+0905SBQV V0203601N003112200019N0200001N1+02671+01821101431ADDGF103991021011002501001061KA1240N+01501MA1999999091651MD1999999-0191REMSYN082AAXX  12124 83344 22398 33606 10267 20182 39165 40143 82106 333 20150 59019 60024;
0167833440999992003011218004-14950-040880FM-12+0905SBQV V0202301N003110450019N0200001N1+03211+01711100721ADDAA106000091GF107991041031004501031001MA1999999091301MD1999999-0271REMSYN070AAXX  12184 83344 32498 72306 10321 20171 39130 40072 84330 333 59027;EQDQ01  00002PRCP06
0214833440999992003011300004-14950-040880FM-12+0905SBQV V0200501N004110450019N0040001N1+02271+01941101021ADDAA106000091GF107991041041004501051001KA1240M+03281MA1999999999999MD1999999+0021REMSYN088AAXX  13004 83344 32496 70508 10227 20194 30159 40102 84450 333 10328 29067 55088 58002;EQDQ01  00002PRCP06Q02 101593APOSP 
0190833440999992003011312004-14950-040880FM-12+0905SBQV V0200901N001510042019N0100001N1+02181+01241101301ADDAY161061AY221061GF108991081071004501999999KA1240N+01891MA1999999091751MD1999999+0101MW1031REMSYN088AAXX  13124 83344 21497 80903 10218 20124 39175 40130 70362 887// 333 20189 58010 60014;
0167833440999992003011318004-14950-040880FM-12+0905SBQV V0201401N002112200019N0200001N1+02751+02051100811ADDAA106000091GF104991041041004501001001MA1999999091341MD1999999+0041REMSYN070AAXX  13184 83344 32498 41404 10275 20205 39134 40081 84400 333 58004;EQDQ01  00002PRCP06
0202833440999992003011400004-14950-040880FM-12+0905SBQV V0201801N000510042019N0040001N1+02051+01991101221ADDAY191061AY221061GF108991081071004501999999KA1240M+02851MA1999999091631MD1999999+0041MW1621REMSYN100AAXX  14004 83344 21496 81801 10205 20199 39163 40122 76292 887// 333 10285 29088 55011 58004 69981;
0190833440999992003011412004-14950-040880FM-12+0905SBQV V0203601N002610042019N0100001N1+02231+01991101341ADDAY151061AY221061GF108991081071004501999999KA1240N+01951MA1999999091761MD1999999+0011MW1021REMSYN088AAXX  14124 83344 21497 83605 10223 20199 39176 40134 70252 887// 333 20195 58001 60014;
0198833440999992003011500004-14950-040880FM-12+0905SBQV V0203201N001010042019N0040001N1+02211+02151101181ADDAA106000091GF108991081071004501999999KA1240M+02711MA1999999091641MD1999999+0011REMSYN088AAXX  15004 83344 32496 83202 10221 20215 39164 40118 887// 333 10271 29087 55005 58001;EQDQ01  00002PRCP06
0190833440999992003011512004-14950-040880FM-12+0905SBQV V0203601N003110042019N0100001N1+02191+01941101431ADDAY161061AY221061GF108991081051004501999999KA1240N+01961MA1999999091861MD1999999+0101MW1031REMSYN088AAXX  15124 83344 21497 83606 10219 20194 39186 40143 70362 885// 333 20196 58010 60014;
0167833440999992003011518004-14950-040880FM-12+0905SBQV V0203601N001510450019N0200001N1+02591+01941101171ADDAA106000091GF108991041061004501021999MA1999999091661MD1999999+0181REMSYN070AAXX  15184 83344 32498 83603 10259 20194 39166 40117 8462/ 333 58018;EQDQ01  00002PRCP06
0208833440999992003011600004-14950-040880FM-12+0905SBQV V0200901N001512200019N0100001N1+02201+02081101351ADDAA106000091GA1001+999999999GF100991001001999999001001KA1240M+02711MA1999999091791MD1999999+0141REMSYN082AAXX  16004 83344 32997 00903 10220 20208 39179 40135 333 10271 29085 55060 58014;EQDQ01  00002PRCP06
0186833440999992003011612004-14950-040880FM-12+0905SBQV V0200501N003110450019N0200001N1+02351+02001101521ADDAA106000091GF108991041041004501051999KA1240N+01951MA1999999091961MD1999999+0101REMSYN076AAXX  16124 83344 32498 80506 10235 20200 39196 40152 8445/ 333 20195 58010;EQDQ01  00002PRCP06
0167833440999992003011618004-14950-040880FM-12+0905SBQV V0201401N004111050019N0200001N1+02601+02061101161ADDAA106000091GF106991041041004501001021MA1999999091571MD1999999-0091REMSYN070AAXX  16184 83344 32498 61408 10260 20206 39157 40116 84402 333 59009;EQDQ01  00002PRCP06
0198833440999992003011700004-14950-040880FM-12+0905SBQV V0200501N001510021019N0040001N1+02201+01901101271ADDAA106000091GF108991061061002501051999KA1240M+02781MA1999999091741MD1999999-0051REMSYN088AAXX  17004 83344 32396 80503 10220 20190 39174 40127 8665/ 333 10278 29080 55028 59005;EQDQ01  00002PRCP06
0186833440999992003011712004-14950-040880FM-12+0905SBQV V0203601N002110450019N0200001N1+02341+01721101331ADDAA106000091GF108991041061004501081091KA1240N+01651MA1999999091791MD1999999-0111REMSYN076AAXX  17124 83344 32498 83604 10234 20172 39179 40133 84689 333 20165 59011;EQDQ01  00002PRCP06
0167833440999992003011718004-14950-040880FM-12+0905SBQV V0202301N002610450019N0200001N1+02871+02031101071ADDAA106000091GF108991041071004501081999MA1999999091591MD1999999+0021REMSYN070AAXX  17184 83344 32498 82305 10287 20203 39159 40107 8478/ 333 58002;EQDQ01  00002PRCP06
0198833440999992003011800004-14950-040880FM-12+0905SBQV V0200901N002112200019N0100001N1+02121+01881101311ADDAA106000091GF104991041061004501001001KA1240M+03091MA1999999091771MD1999999+0031REMSYN088AAXX  18004 83344 32497 40904 10212 20188 39177 40131 84600 333 10309 29075 55073 58003;EQDQ01  00002PRCP06
0186833440999992003011812004-14950-040880FM-12+0905SBQV V0200501N001511050019N0200001N1+02441+01991101321ADDAA106000091GF105991021011004501001021KA1240N+01771MA1999999091801MD1999999+0011REMSYN076AAXX  18124 83344 32498 50503 10244 20199 39180 40132 82102 333 20177 58001;EQDQ01  00002PRCP06
0167833440999992003011818004-14950-040880FM-12+0905SBQV V0201401N005112200019N0200001N1+02841+01991101061ADDAA106000091GF104991021001012501091021MA1999999091561MD1999999-0031REMSYN070AAXX  18184 83344 32698 41410 10284 20199 39156 40106 82092 333 59003;EQDQ01  00002PRCP06
0198833440999992003011900004-14950-040880FM-12+0905SBQV V0200901N001510450019N0100001N1+02111+01861101261ADDAA106000091GF106991021061012501031001KA1240M+02951MA1999999091731MD1999999-0041REMSYN088AAXX  19004 83344 32697 60903 10211 20186 39173 40126 82630 333 10295 29077 55076 59004;EQDQ01  00002PRCP06
0186833440999992003011912004-14950-040880FM-12+0905SBQV V0203601N002610042019N0200001N1+02501+02131101291ADDAA106000091GF106991061021004501001001KA1240N+01791MA1999999091771MD1999999-0031REMSYN076AAXX  19124 83344 32498 63605 10250 20213 39177 40129 86200 333 20179 59003;EQDQ01  00002PRCP06
0167833440999992003011918004-14950-040880FM-12+0905SBQV V0201401N003110042019N0200001N1+02631+02051101131ADDAA106000091GF108991081061004501999999MA1999999091591MD1999999+0031REMSYN070AAXX  19184 83344 32498 81406 10263 20205 39159 40113 886// 333 58003;EQDQ01  00002PRCP06
0202833440999992003012000004-14950-040880FM-12+0905SBQV V0201401N000510021019N0040001N1+02051+02021101351ADDAY161061AY251061GF108991061071002501051999KA1240M+02951MA1999999091811MD1999999+0081MW1021REMSYN100AAXX  20004 83344 21396 81401 10205 20202 39181 40135 70265 8675/ 333 10295 29087 55039 58008 60021;
0162833440999992003012012004-14950-040880FM-12+0905SBQV V0201401N002610450019N0200001N1+02401+01971101391ADDGF106991021011002501031091KA1240N+01761MA1999999091831MD1999999+0061REMSYN082AAXX  20124 83344 22398 61405 10240 20197 39183 40139 82139 333 20176 58006 60024;
0171833440999992003012018004-14950-040880FM-12+0905SBQV V0203601N002610021019N0100001N1+02011+01881101171ADDAY191061AY261061GF108991081091002501999999MA1999999091551MD1999999-0041MW1531REMSYN082AAXX  20184 83344 21397 83605 10201 20188 39155 40117 75396 889// 333 59004 60291;
0202833440999992003012100004-14950-040880FM-12+0905SBQV V0200501N001010450019N0040001N1+01971+01911101161ADDAY151061AY221061GF105991031041002501081001KA1240M+02671MA1999999091621MD1999999-0191MW1021REMSYN100AAXX  21004 83344 21396 50502 10197 20191 39162 40116 70252 83480 333 10267 29091 55029 59019 69921;
0190833440999992003012112004-14950-040880FM-12+0905SBQV V0203601N002610450019N0200001N1+02111+01911101371ADDAY151061AY221061GF106991031051004501021001KA1240N+01801MA1999999091751MD1999999-0081MW1021REMSYN088AAXX  21124 83344 21498 63605 10211 20191 39175 40137 70252 83520 333 20180 59008 69964;
0167833440999992003012118004-14950-040880FM-12+0905SBQV V0200501N003110450019N0200001N1+02591+01941100961ADDAA106000091GF106991021041004501081001MA1999999091451MD1999999-0101REMSYN070AAXX  21184 83344 32498 60506 10259 20194 39145 40096 82480 333 59010;EQDQ01  00002PRCP06
0208833440999992003012200004-14950-040880FM-12+0905SBQV V0200901N001012200019N0040001N1+01991+01901101241ADDAA106000091GA1001+999999999GF100991001001999999001001KA1240M+02691MA1999999091631MD1999999+0011REMSYN082AAXX  22004 83344 32996 00902 10199 20190 39163 40124 333 10269 29087 55025 58001;EQDQ01  00002PRCP06
0186833440999992003012212004-14950-040880FM-12+0905SBQV V0200901N002110042019N0200001N1+02291+01921101371ADDAA106000091GF108991061041004501031001KA1240N+01801MA1999999091791MD1999999+0041REMSYN076AAXX  22124 83344 32498 80904 10229 20192 39179 40137 86430 333 20180 58004;EQDQ01  00002PRCP06
0167833440999992003012218004-14950-040880FM-12+0905SBQV V0200501N004111050019N0200001N1+02661+01621101161ADDAA106000091GF106991041041004501001051MA1999999091641MD1999999+0191REMSYN070AAXX  22184 83344 32498 60508 10266 20162 39164 40116 84405 333 58019;EQDQ01  00002PRCP06
0208833440999992003012300004-14950-040880FM-12+0905SBQV V0200901N002612200019N0040001N1+02151+01801101361ADDAA106000091GA1001+999999999GF100991001001999999001001KA1240M+02871MA1999999091801MD1999999+0171REMSYN082AAXX  23004 83344 32996 00905 10215 20180 39180 40136 333 10287 29074 55069 58017;EQDQ01  00002PRCP06
0186833440999992003012312004-14950-040880FM-12+0905SBQV V0200901N002110450019N0200001N1+02131+01821101691ADDAA106000091GF105991021041004501091001KA1240N+01701MA1999999092071MD1999999+0281REMSYN076AAXX  23124 83344 32498 50904 10213 20182 39207 40169 82490 333 20170 58028;EQDQ01  00002PRCP06
0171833440999992003012318004-14950-040880FM-12+0905SBQV V0201401N001010450019N0200001N1+02531+02111101481ADDAY161061AY221061GF106991041061004501051001MA1999999091851MD1999999+0211MW1021REMSYN082AAXX  23184 83344 21498 61402 10253 20211 39185 40148 70262 84650 333 58021 60021;
0212833440999992003012400004-14950-040880FM-12+0905SBQV V0200901N003112200019N0040001N1+02131+01891101541ADDAY161061AY221061GA1001+999999999GF100991001001999999001001KA1240M+02731MA1999999091951MD1999999+0151MW1021REMSYN094AAXX  24004 83344 21996 00906 10213 20189 39195 40154 70262 333 10273 29084 55061 58015 69961;
0162833440999992003012412004-14950-040880FM-12+0905SBQV V0200901N001510042019N0040001N1+02381+01911101721ADDGF105991051021004501001001KA1240N+01621MA1999999092151MD1999999+0081REMSYN082AAXX  24124 83344 22496 50903 10238 20191 39215 40172 85200 333 20162 58008 60024;
0167833440999992003012418004-14950-040880FM-12+0905SBQV V0201401N002110450019N0040001N1+02801+01751101221ADDAA106000091GF106991041021004501081001MA1999999091691MD1999999-0161REMSYN070AAXX  24184 83344 32496 61404 10280 20175 39169 40122 84280 333 59016;EQDQ01  00002PRCP06
0208833440999992003012500004-14950-040880FM-12+0905SBQV V0209999C000012200019N0100001N1+02061+01841101381ADDAA106000091GA1001+999999999GF100991001001999999001001KA1240M+02861MA1999999091821MD1999999-0131REMSYN082AAXX  25004 83344 32997 00000 10206 20184 39182 40138 333 10286 29075 55108 59013;EQDQ01  00002PRCP06
0186833440999992003012512004-14950-040880FM-12+0905SBQV V0201401N002612200019N0200001N1+02441+01881101441ADDAA106000091GF102991021011004501001001KA1240N+01781MA1999999091891MD1999999-0261REMSYN076AAXX  25124 83344 32498 21405 10244 20188 39189 40144 82100 333 20178 59026;EQDQ01  00002PRCP06
0167833440999992003012518004-14950-040880FM-12+0905SBQV V0201401N003112200019N0200001N1+02751+01641101161ADDAA106000091GF104991041021004501001001MA1999999091641MD1999999-0051REMSYN070AAXX  25184 83344 32498 41406 10275 20164 39164 40116 84200 333 59005;EQDQ01  00002PRCP06
0208833440999992003012600004-14950-040880FM-12+0905SBQV V0200901N004612200019N0040001N1+02201+01881101201ADDAA106000091GA1001+999999999GF100991001001999999001001KA1240M+02851MA1999999091691MD1999999-0131REMSYN082AAXX  26004 83344 32996 00909 10220 20188 39169 40120 333 10285 29071 55115 59013;EQDQ01  00002PRCP06
0186833440999992003012612004-14950-040880FM-12+0905SBQV V0201401N003110042019N0200001N1+02291+01791101311ADDAA106000091GF106991061021004501001001KA1240N+01691MA1999999091771MD1999999-0121REMSYN076AAXX  26124 83344 32498 61406 10229 20179 39177 40131 86200 333 20169 59012;EQDQ01  00002PRCP06
0167833440999992003012618004-14950-040880FM-12+0905SBQV V0201401N002110450019N0200001N1+02571+01781101031ADDAA106000091GF106991041021004501051001MA1999999091501MD1999999-0141REMSYN070AAXX  26184 83344 32498 61404 10257 20178 39150 40103 84250 333 59014;EQDQ01  00002PRCP06
0208833440999992003012700004-14950-040880FM-12+0905SBQV V0200901N003112200019N0040001N1+02101+01861101101ADDAA106000091GA1001+999999999GF100991001001999999001001KA1240M+02781MA1999999091561MD1999999+0081REMSYN082AAXX  27004 83344 32996 00906 10210 20186 39156 40110 333 10278 29077 55108 58008;EQDQ01  00002PRCP06
0186833440999992003012712004-14950-040880FM-12+0905SBQV V0200501N003112200019N0200001N1+02191+01741101221ADDAA106000091GF104991041021004501001001KA1240N+01591MA1999999091651MD1999999-0121REMSYN076AAXX  27124 83344 32498 40506 10219 20174 39165 40122 84200 333 20159 59012;EQDQ01  00002PRCP06
0167833440999992003012718004-14950-040880FM-12+0905SBQV V0200901N002612200019N0200001N1+02791+01641100851ADDAA106000091GF104991041011004501001001MA1999999091371MD1999999-0131REMSYN070AAXX  27184 83344 32498 40905 10279 20164 39137 40085 84100 333 59013;EQDQ01  00002PRCP06
0208833440999992003012800004-14950-040880FM-12+0905SBQV V0200901N001512200019N0100001N1+02131+01881101151ADDAA106000091GA1001+999999999GF100991001001999999001001KA1240M+02911MA1999999091591MD1999999+0031REMSYN082AAXX  28004 83344 32497 00903 10213 20188 39159 40115 333 10291 29075 55098 58003;EQDQ01  00002PRCP06
0186833440999992003012812004-14950-040880FM-12+0905SBQV V0203601N004610450019N0200001N1+02361+01891101341ADDAA106000091GF106991031041004501081091KA1240N+01801MA1999999091801MD1999999+0151REMSYN076AAXX  28124 83344 32498 63609 10236 20189 39180 40134 83489 333 20180 58015;EQDQ01  00002PRCP06
0167833440999992003012818004-14950-040880FM-12+0905SBQV V0203601N003110042019N0200001N1+02931+01801100981ADDAA106000091GF106991061031004501001001MA1999999091511MD1999999+0141REMSYN070AAXX  28184 83344 32498 63606 10293 20180 39151 40098 86300 333 58014;EQDQ01  00002PRCP06
0198833440999992003012900004-14950-040880FM-12+0905SBQV V0200501N002612200019N0040001N1+02311+01901101291ADDAA106000091GF103991031021004501001001KA1240M+03011MA1999999091791MD1999999+0201REMSYN088AAXX  29004 83344 32496 30505 10231 20190 39179 40129 83200 333 10301 29070 55092 58020;EQDQ01  00002PRCP06
0186833440999992003012912004-14950-040880FM-12+0905SBQV V0200501N003110450019N0200001N1+02431+01881101421ADDAA106000091GF106991041041004501081001KA1240N+01891MA1999999091911MD1999999+0111REMSYN076AAXX  29124 83344 32498 60506 10243 20188 39191 40142 84480 333 20189 58011;EQDQ01  00002PRCP06
0171833440999992003012918004-14950-040880FM-12+0905SBQV V0201401N003110042019N0100001N1+02031+01921101251ADDAY191061AY261061GF108991051061004501091999MA1999999091621MD1999999+0111MW1621REMSYN082AAXX  29184 83344 21497 81406 10203 20192 39162 40125 76296 8569/ 333 58011 60161;
0212833440999992003013000004-14950-040880FM-12+0905SBQV V0200901N000512200019N0040001N1+02051+01961101431ADDAY161061AY221061GA1001+999999999GF100991001001999999001001KA1240M+02991MA1999999091801MD1999999+0011MW1021REMSYN094AAXX  30004 83344 21996 00901 10205 20196 39180 40143 70262 333 10299 29089 55049 58001 60011;
0162833440999992003013012004-14950-040880FM-12+0905SBQV V0200901N003610450019N0200001N1+02231+01801101431ADDGF106991041041004501031001KA1240N+01901MA1999999091851MD1999999-0061REMSYN082AAXX  30124 83344 22498 60907 10223 20180 39185 40143 84430 333 20190 59006 60174;
0167833440999992003013018004-14950-040880FM-12+0905SBQV V0201401N005711050019N0200001N1+02771+01561101051ADDAA106000091GF106991041021004501001091MA1999999091571MD1999999-0051REMSYN070AAXX  30184 83344 32498 61411 10277 20156 39157 40105 84209 333 59005;EQDQ01  00002PRCP06
0208833440999992003013100004-14950-040880FM-12+0905SBQV V0200901N003612200019N0040001N1+02151+01881101261ADDAA106000091GA1001+999999999GF100991001001999999001001KA1240M+02881MA1999999091711MD1999999+0051REMSYN082AAXX  31004 83344 32996 00907 10215 20188 39171 40126 333 10288 29074 55093 58005;EQDQ01  00002PRCP06
0202833440999992003013112004-14950-040880FM-12+0905SBQV V0201401N003119999999N0200001N1+02191+01841101461ADDAA106000091GA1091+999999999GF109991091999999999999999KA1240N+01681MA1999999091871MD1999999+0021REMSYN076AAXX  31124 83344 32598 91406 10219 20184 39187 40146 87300 333 20168 58002;EQDQ01  00002PRCP06
0171833440999992003013118004-14950-040880FM-12+0905SBQV V0201401N005710075019N0200001N1+02611+01871101211ADDAY161061AY251061GF106991061021008001001001MA1999999091661MD1999999+0091MW1021REMSYN082AAXX  31184 83344 21598 61411 10261 20187 39166 40121 70265 86200 333 58009 69981;
0208833440999992003020100004-14950-040880FM-12+0905SBQV V0200901N003612200019N0100001N1+02131+01821101341ADDAA106000091GA1001+999999999GF100991001001999999001001KA1240M+02751MA1999999091761MD1999999+0051REMSYN082AAXX  01004 83344 32997 00907 10213 20182 39176 40134 333 10275 29078 55077 58005;EQDQ01  00002PRCP06
0162833440999992003020112004-14950-040880FM-12+0905SBQV V0200901N004612200019N0200001N1+02221+01841101621ADDGF104991041021004501001001KA1240N+01701MA1999999092011MD1999999+0141REMSYN082AAXX  01124 83344 22498 40909 10222 20184 39201 40162 84200 333 20170 58014 69984;
0167833440999992003020118004-14950-040880FM-12+0905SBQV V0200901N006219999999N0200001N1+02681+01781101131ADDAA106000091GF106991021001004501081021MA1999999091781MD1999999+0121REMSYN070AAXX  01184 83344 32498 60912 10268 20178 39178 40113 82082 333 58012;EQDQ01  00002PRCP06
0198833440999992003020200004-14950-040880FM-12+0905SBQV V0200901N004112200019N0100001N1+02151+01901102181ADDAA106000091GF104991041001012501091001KA1240M+02771MA1999999091941MD1999999+0181REMSYN088AAXX  02004 83344 32697 40908 10215 20190 39194 40218 84090 333 10277 29077 55092 58018;EQDQ01  00002PRCP06
0186833440999992003020212004-14950-040880FM-12+0905SBQV V0201401N004610042019N0200001N1+02111+01861101621ADDAA106000091GF106991061071004501001001KA1240N+01861MA1999999092011MD1999999+0071REMSYN076AAXX  02124 83344 32498 61409 10211 20186 39201 40162 86700 333 20186 58007;EQDQ01  00002PRCP06
0171833440999992003020218004-14950-040880FM-12+0905SBQV V0201801N004110042019N0200001N1+02291+01941101561ADDAY151061AY221061GF107991051071004501051001MA1999999091961MD1999999+0181MW1021REMSYN082AAXX  02184 83344 21498 71808 10229 20194 39196 40156 70252 85750 333 58018 69921;
0202833440999992003020300004-14950-040880FM-12+0905SBQV V0201401N005710450019N0040001N1+01911+01821101741ADDAY151061AY211061GF105991021031004501051001KA1240M+02451MA1999999092061MD1999999+0121MW1021REMSYN100AAXX  03004 83344 21496 51411 10191 20182 39206 40174 70251 82350 333 10245 29089 55016 58012 69961;
0190833440999992003020312004-14950-040880FM-12+0905SBQV V0200901N005110450019N0200001N1+02101+01841101741ADDAY151061AY221061GF108991041071004501011999KA1240N+01871MA1999999092061MD1999999+0051MW1021REMSYN088AAXX  03124 83344 21498 80910 10210 20184 39206 40174 70252 8471/ 333 20187 58005 60014;
0171833440999992003020318004-14950-040880FM-12+0905SBQV V0201401N003110450019N0100001N1+02411+02011101491ADDAY151061AY221061GF108991041031008001021999MA1999999091901MD1999999-0061MW1501REMSYN082AAXX  03184 83344 21597 81406 10241 20201 39190 40149 75052 8432/ 333 59006 69911;
0202833440999992003020400004-14950-040880FM-12+0905SBQV V0201401N003610042019N0020001N1+02051+01991101591ADDAY161061AY251061GF108991081071004501999999KA1240M+02611MA1999999091951MD1999999-0111MW1501REMSYN100AAXX  04004 83344 21495 81407 10205 20199 39195 40159 75065 887// 333 10261 29089 55031 59011 60021;
0209833440999992003020412004-14950-040880FM-12+0905SBQV V0200901N002110042019N0100001N1+02091+01981101591ADDAY151061AY221061GF108991081071004501999999KA1240N+99999MA1999999091951MD1999999-0111MW1521REMSYN088AAXX  04124 83344 21497 80904 10209 20198 39195 40159 75252 887// 333 20280 59011 60034;EQDQ01 +02802ATMN  
0171833440999992003020418004-14950-040880FM-12+0905SBQV V0200901N006210042019N0100001N1+02151+01971101141ADDAY151061AY221061GF108991081071004501999999MA1999999091751MD1999999-0151MW1521REMSYN082AAXX  04184 83344 21497 80912 10215 20197 39175 40114 75252 887// 333 59015 69981;
0198833440999992003020500004-14950-040880FM-12+0905SBQV V0200901N003119999999N0100001N1+02151+01871101141ADDAA106000021GF106991999001012501081001KA1240M+02451MA1999999091841MD1999999-0111REMSYN088AAXX  05004 83344 32697 60906 10215 20187 39184 40114 82080 333 10245 29091 55021 59011;EQDQ01+000022SCOTLC
0190833440999992003020512004-14950-040880FM-12+0905SBQV V0200501N003610042019N0200001N1+02231+01621101561ADDAY161061AY251061GF106991061041004501001001KA1240N+01941MA1999999091981MD1999999+0031MW1031REMSYN088AAXX  05124 83344 21498 60507 10223 20162 39198 40156 70365 86400 333 20194 58003 60044;
0167833440999992003020518004-14950-040880FM-12+0905SBQV V0201401N004110450019N0200001N1+02611+01891101261ADDAA106000091GF106991031031004501031001MA1999999091711MD1999999-0041REMSYN070AAXX  05184 83344 32498 61408 10261 20189 39171 40126 83330 333 59004;EQDQ01  00002PRCP06
0198833440999992003020600004-14950-040880FM-12+0905SBQV V0201401N004110021019N0040001N1+01971+01911101451ADDAA106000091GF108991081071002501999999KA1240M+02831MA1999999091841MD1999999+0001REMSYN088AAXX  06004 83344 32396 81408 10197 20191 39184 40145 887// 333 10283 29082 55080 58000;EQDQ01  00002PRCP06
0186833440999992003020612004-14950-040880FM-12+0905SBQV V0200901N003610042019N0200001N1+02191+01781101611ADDAA106000091GF107991071071004501001001KA1240N+01691MA1999999091981MD1999999+0001REMSYN076AAXX  06124 83344 32498 70907 10219 20178 39198 40161 87700 333 20169 58000;EQDQ01  00002PRCP06
0167833440999992003020618004-14950-040880FM-12+0905SBQV V0201401N004610075019N0200001N1+02691+01781101231ADDAA106000091GF106991061021008001001001MA1999999091701MD1999999-0011REMSYN070AAXX  06184 83344 32598 61409 10269 20178 39170 40123 86200 333 59001;EQDQ01  00002PRCP06
0208833440999992003020700004-14950-040880FM-12+0905SBQV V0200901N002112200019N0100001N1+02071+01821101321ADDAA106000091GA1001+999999999GF100991001001999999001001KA1240M+02791MA1999999091751MD1999999-0091REMSYN082AAXX  07004 83344 32997 00904 10207 20182 39175 40132 333 10279 29077 55077 59009;EQDQ01  00002PRCP06
0167833440999992003020718004-14950-040880FM-12+0905SBQV V0201401N003110450019N0200001N1+02551+01881101131ADDAA106000091GF106991041041004501061001MA1999999091751MD1999999+0051REMSYN070AAXX  07184 83344 32498 61406 10255 20188 39175 40113 84460 333 58005;EQDQ01  00002PRCP06
0208833440999992003020800004-14950-040880FM-12+0905SBQV V0200901N002112200019N0500001N1+02051+01821101461ADDAA106000091GA1001+999999999GF100991001001999999001001KA1240M+02901MA1999999091871MD1999999+0121REMSYN082AAXX  08004 83344 32199 00904 10205 20182 39187 40146 333 10290 29078 55061 58012;EQDQ01  00002PRCP06
0186833440999992003020812004-14950-040880FM-12+0905SBQV V0201401N004110075019N0200001N1+02281+01861101621ADDAA106000091GF106991061021008001001001KA1240N+01791MA1999999092011MD1999999+0021REMSYN076AAXX  08124 83344 32598 61408 10228 20186 39201 40162 86200 333 20179 58002;EQDQ01  00002PRCP06
0202833440999992003020900004-14950-040880FM-12+0905SBQV V0200901N002110042019N0040001N1+01931+01901101151ADDAY161061AY221061GF108991081051004501999999KA1240M+02511MA1999999091911MD1999999+0041MW1011REMSYN100AAXX  09004 83344 21496 80904 10193 20190 39191 40115 70162 885// 333 10251 29091 55043 58004 60051;
0162833440999992003020912004-14950-040880FM-12+0905SBQV V0200901N002610042019N0200001N1+02111+01911101161ADDGF107991071061004501001001KA1240N+01601MA1999999091981MD1999999-0031REMSYN082AAXX  09124 83344 22498 70905 10211 20191 39198 40116 87600 333 20160 59003 60054;
0167833440999992003020918004-14950-040880FM-12+0905SBQV V0200901N002612200019N0200001N1+02491+01831101131ADDAA106000091GF104991041011004501001001MA1999999091651MD1999999-0191REMSYN070AAXX  09184 83344 32498 40905 10249 20183 39165 40113 84100 333 59019;EQDQ01  00002PRCP06
0208833440999992003021000004-14950-040880FM-12+0905SBQV V0200901N002612200019N0040001N1+01991+01781101141ADDAA106000091GA1001+999999999GF100991001001999999001001KA1240M+02731MA1999999091741MD1999999-0171REMSYN082AAXX  10004 83344 32996 00905 10199 20178 39174 40114 333 10273 29083 55066 59017;EQDQ01  00002PRCP06
0186833440999992003021012004-14950-040880FM-12+0905SBQV V0200501N001012200019N0200001N1+02251+01731101401ADDAA106000091GF104991041011008001001001KA1240N+01671MA1999999091791MD1999999-0191REMSYN076AAXX  10124 83344 32598 40502 10225 20173 39179 40140 84100 333 20167 59019;EQDQ01  00002PRCP06
0167833440999992003021018004-14950-040880FM-12+0905SBQV V0200901N003112200019N0200001N1+02731+01651100991ADDAA106000091GF103991031011008001001001MA1999999091481MD1999999-0171REMSYN070AAXX  10184 83344 32598 30906 10273 20165 39148 40099 83100 333 59017;EQDQ01  00002PRCP06
0198833440999992003021100004-14950-040880FM-12+0905SBQV V0200901N002612200019N0100001N1+02061+01741101121ADDAA106000091GF103991031001022501041001KA1240M+02861MA1999999091561MD1999999-0181REMSYN088AAXX  11004 83344 32897 30905 10206 20174 39156 40112 83040 333 10286 29073 55109 59018;EQDQ01  00002PRCP06
0186833440999992003021112004-14950-040880FM-12+0905SBQV V0200901N003110450019N0200001N1+02131+01801101141ADDAA106000091GF106991041021004501061001KA1240N+01561MA1999999091821MD1999999+0031REMSYN076AAXX  11124 83344 32498 60906 10213 20180 39182 40114 84260 333 20156 58003;EQDQ01  00002PRCP06
0167833440999992003021118004-14950-040880FM-12+0905SBQV V0200901N004110450019N0200001N1+02651+01691101101ADDAA106000091GF107991031011004501091021MA1999999091501MD1999999+0021REMSYN070AAXX  11184 83344 32498 70908 10265 20169 39150 40110 83192 333 58002;EQDQ01  00002PRCP06
0198833440999992003021200004-14950-040880FM-12+0905SBQV V0200901N002612200019N0100001N1+02071+01781101121ADDAA106000091GF103991031001012501081001KA1240M+02831MA1999999091651MD1999999+0091REMSYN088AAXX  12004 83344 32697 30905 10207 20178 39165 40112 83080 333 10283 29077 55063 58009;EQDQ01  00002PRCP06
0186833440999992003021212004-14950-040880FM-12+0905SBQV V0200501N003110450019N0200001N1+02171+01681101501ADDAA106000091GF106991031021008001081001KA1240N+01211MA1999999091881MD1999999+0061REMSYN076AAXX  12124 83344 32598 60506 10217 20168 39188 40150 83280 333 20121 58006;EQDQ01  00002PRCP06
0167833440999992003021218004-14950-040880FM-12+0905SBQV V0201401N003110450019N0200001N1+02751+01441101111ADDAA106000091GF107991021021008001041041MA1999999091551MD1999999+0051REMSYN070AAXX  12184 83344 32598 71406 10275 20144 39155 40111 82244 333 58005;EQDQ01  00002PRCP06
0198833440999992003021300004-14950-040880FM-12+0905SBQV V0200901N003112200019N0100001N1+02021+01851101341ADDAA106000091GF103991031001022501051001KA1240M+02871MA1999999091741MD1999999-0091REMSYN088AAXX  13004 83344 32897 30906 10202 20185 39174 40134 83050 333 10287 29074 55096 59009;EQDQ01  00002PRCP06
0186833440999992003021312004-14950-040880FM-12+0905SBQV V0201401N002611050019N0200001N1+02201+01611101531ADDAA106000091GF107991031001012501051061KA1240N+01551MA1999999091911MD1999999+0031REMSYN076AAXX  13124 83344 32698 71405 10220 20161 39191 40153 83056 333 20155 58003;EQDQ01  00002PRCP06
0167833440999992003021318004-14950-040880FM-12+0905SBQV V0201401N002110450019N0200001N1+02671+01651101151ADDAA106000091GF106991031041004501031061MA1999999091611MD1999999+0061REMSYN070AAXX  13184 83344 32498 61404 10267 20165 39161 40115 83436 333 58006;EQDQ01  00002PRCP06
0210833440999992003021400004-14950-040880FM-12+0905SBQV V0200901N003110120019N0100001N1+02011+01881101321ADDAA106000091GF106991061001012501051001KA1240M+02871MA1999999091721MD1999999-0021REMSYN100AAXX  14004 83344 32697 60906 10201 20188 39172 40132 86050 333 10287 29077 55066 59002 59009 69921;EQDQ01  00002PRCP06
0186833440999992003021412004-14950-040880FM-12+0905SBQV V0200501N003612200019N0200001N1+02331+01791101381ADDAA106000091GF102991021011004501001001KA1240N+01701MA1999999091801MD1999999-0111REMSYN076AAXX  14124 83344 32498 20507 10233 20179 39180 40138 82100 333 20170 59011;EQDQ01  00002PRCP06
0167833440999992003021418004-14950-040880FM-12+0905SBQV V0200901N005112200019N0200001N1+02731+01651101101ADDAA106000091GF103991031011012501001001MA1999999091501MD1999999-0111REMSYN070AAXX  14184 83344 32698 30910 10273 20165 39150 40110 83100 333 59011;EQDQ01  00002PRCP06
0198833440999992003021500004-14950-040880FM-12+0905SBQV V0200901N002612200019N0100001N1+02031+01721101241ADDAA106000091GF104991041001012501081001KA1240M+02951MA1999999091691MD1999999-0031REMSYN088AAXX  15004 83344 32697 40905 10203 20172 39169 40124 84080 333 10295 29071 55097 59003;EQDQ01  00002PRCP06
0186833440999992003021512004-14950-040880FM-12+0905SBQV V0200501N003110450019N0200001N1+02271+01691101341ADDAA106000091GF106991021011008001061011KA1240N+01361MA1999999091761MD1999999-0041REMSYN076AAXX  15124 83344 32598 60506 10227 20169 39176 40134 82161 333 20136 59004;EQDQ01  00002PRCP06
0167833440999992003021518004-14950-040880FM-12+0905SBQV V0200901N005110450019N0200001N1+02711+01601101231ADDAA106000091GF107991031011008001061001MA1999999091661MD1999999-0161REMSYN070AAXX  15184 83344 32598 70910 10271 20160 39166 40123 83160 333 59016;EQDQ01  00002PRCP06
0186833440999992003021612004-14950-040880FM-12+0905SBQV V0200901N002610450019N0200001N1+02251+01901101331ADDAA106000091GF106991041021004501051001KA1240N+01591MA1999999091771MD1999999+0011REMSYN076AAXX  16124 83344 32498 60905 10225 20190 39177 40133 84250 333 20159 58001;EQDQ01  00002PRCP06
0167833440999992003021618004-14950-040880FM-12+0905SBQV V0200501N002111050019N0200001N1+02561+01681100911ADDAA106000091GF106991041021004501001091MA1999999091431MD1999999-0231REMSYN070AAXX  16184 83344 32498 60504 10256 20168 39143 40091 84209 333 59023;EQDQ01  00002PRCP06
0186833440999992003021712004-14950-040880FM-12+0905SBQV V0200901N002612200019N0200001N1+02391+01821101191ADDAA106000091GF103991011011004501081001KA1240N+01701MA1999999091721MD1999999-0051REMSYN076AAXX  17124 83344 32498 30905 10239 20182 39172 40119 81180 333 20170 59005;EQDQ01  00002PRCP06
0167833440999992003021718004-14950-040880FM-12+0905SBQV V0201401N002612200019N0200001N1+03031+01731101081ADDAA106000091GF104991041021004501001001MA1999999091421MD1999999-0011REMSYN070AAXX  17184 83344 32498 41405 10303 20173 39142 40108 84200 333 59001;EQDQ01  00002PRCP06
0198833440999992003021800004-14950-040880FM-12+0905SBQV V0200901N000512200019N0100001N1+02171+01881101531ADDAA106000091GF104991021001012501091021KA1240M+03211MA1999999091631MD1999999+0081REMSYN088AAXX  18004 83344 32697 40901 10217 20188 39163 40153 82092 333 10321 29071 55094 58008;EQDQ01  00002PRCP06
0186833440999992003021812004-14950-040880FM-12+0905SBQV V0203601N002111050019N0200001N1+02311+01791101331ADDAA106000091GF107991031011008001001061KA1240N+01591MA1999999091791MD1999999+0071REMSYN076AAXX  18124 83344 32598 73604 10231 20179 39179 40133 83106 333 20159 58007;EQDQ01  00002PRCP06
0167833440999992003021818004-14950-040880FM-12+0905SBQV V0200501N001010450019N0200001N1+03091+01521100841ADDAA106000091GF107991021011008001031061MA1999999091431MD1999999+0011REMSYN070AAXX  18184 83344 32598 70502 10309 20152 39143 40084 82136 333 58001;EQDQ01  00002PRCP06
0214833440999992003021900004-14950-040880FM-12+0905SBQV V0200501N001519999999N9999999N1+02361+01971101231ADDAA106000091GA1091+999999999GF109991091999999999999999KA1240M+03191MA1999999091741MD1999999-0111REMSYN088AAXX  19004 83344 32/// 90503 10236 20197 39174 40123 8//// 333 10319 29067 55092 59011;EQDQ01  00002PRCP06
0186833440999992003021912004-14950-040880FM-12+0905SBQV V0203601N003110450019N0200001N1+02451+01831101401ADDAA106000091GF106991021011004501051001KA1240N+01781MA1999999091951MD1999999+0121REMSYN076AAXX  19124 83344 32498 63606 10245 20183 39195 40140 82150 333 20178 58012;EQDQ01  00002PRCP06
0167833440999992003021918004-14950-040880FM-12+0905SBQV V0201401N004110450019N0200001N1+02961+01741101001ADDAA106000091GF108991021011004501051091MA1999999091591MD1999999+0161REMSYN070AAXX  19184 83344 32498 81408 10296 20174 39159 40100 82159 333 58016;EQDQ01  00002PRCP06
0208833440999992003022000004-14950-040880FM-12+0905SBQV V0200901N003112200019N0100001N1+02251+01841101321ADDAA106000091GA1001+999999999GF100991001001999999001001KA1240M+03111MA1999999091821MD1999999+0081REMSYN082AAXX  20004 83344 32997 00906 10225 20184 39182 40132 333 10311 29068 55103 58008;EQDQ01  00002PRCP06
0186833440999992003022012004-14950-040880FM-12+0905SBQV V0200901N004110450019N0200001N1+02311+01771101461ADDAA106000091GF106991041041004501081001KA1240N+01601MA1999999091931MD1999999+0021REMSYN076AAXX  20124 83344 32498 60908 10231 20177 39193 40146 84480 333 20160 58002;EQDQ01  00002PRCP06
0167833440999992003022018004-14950-040880FM-12+0905SBQV V0200901N003112200019N0200001N1+02711+01691101181ADDAA106000091GF104991021091012501061001MA1999999091651MD1999999+0061REMSYN070AAXX  20184 83344 32698 40906 10271 20169 39165 40118 82960 333 58006;EQDQ01  00002PRCP06
0198833440999992003022100004-14950-040880FM-12+0905SBQV V0200901N002110120019N0040001N1+02211+01921101261ADDAA106000091GF106991061001012501061001KA1240M+02931MA1999999091731MD1999999-0091REMSYN088AAXX  21004 83344 32696 60904 10221 20192 39173 40126 86060 333 10293 29073 55057 59009;EQDQ01  00002PRCP06
0186833440999992003022112004-14950-040880FM-12+0905SBQV V0200901N005110450019N0200001N1+02291+01681101341ADDAA106000091GF106991031011008001081001KA1240N+01481MA1999999091801MD1999999-0131REMSYN076AAXX  21124 83344 32598 60910 10229 20168 39180 40134 83180 333 20148 59013;EQDQ01  00002PRCP06
0167833440999992003022118004-14950-040880FM-12+0905SBQV V0201401N004110075019N0200001N1+02811+01461101091ADDAA106000091GF106991061011008001001001MA1999999091551MD1999999-0101REMSYN070AAXX  21184 83344 32598 61408 10281 20146 39155 40109 86100 333 59010;EQDQ01  00002PRCP06
0198833440999992003022200004-14950-040880FM-12+0905SBQV V0200901N003112200019N0100001N1+02211+01581101251ADDAA106000091GF102991021011008001001001KA1240M+02971MA1999999091721MD1999999-0011REMSYN088AAXX  22004 83344 32597 20906 10221 20158 39172 40125 82100 333 10297 29062 55114 59001;EQDQ01  00002PRCP06
0186833440999992003022212004-14950-040880FM-12+0905SBQV V0200901N006210450019N0200001N1+02241+01721101471ADDAA106000091GF107991031031008001021091KA1240N+01771MA1999999091921MD1999999+0121REMSYN076AAXX  22124 83344 32598 70912 10224 20172 39192 40147 83329 333 20177 58012;EQDQ01  00002PRCP06
0167833440999992003022218004-14950-040880FM-12+0905SBQV V0201401N004610450019N0200001N1+02691+01731101251ADDAA106000091GF107991031071004501021001MA1999999091701MD1999999+0151REMSYN070AAXX  22184 83344 32498 71409 10269 20173 39170 40125 83720 333 58015;EQDQ01  00002PRCP06
0214833440999992003022300004-14950-040880FM-12+0905SBQV V0200901N003112200019N0040001N1+02091+01841101461ADDAA106000091GF102991001001999999001011KA1240M+02851MA1999999091891MD1999999+0171REMSYN088AAXX  23004 83344 32696 20906 10209 20184 39189 40146 80001 333 10285 29074 55044 58017;EQDQ01+012502SCOLCBQ02  00002PRCP06
0198833440999992003022400004-14950-040880FM-12+0905SBQV V0201401N002610021019N0040001N1+02081+01871101611ADDAA106000091GF106991061071002501001001KA1240M+02651MA1999999092001MD1999999+0111REMSYN088AAXX  24004 83344 32396 61405 10208 20187 39200 40161 86700 333 10265 29083 55051 58011;EQDQ01  00002PRCP06
0171833440999992003022418004-14950-040880FM-12+0905SBQV V0200901N001510450019N0100001N1+02011+01981101611ADDAY181061AY261061GF108991041071002501021999MA1999999091911MD1999999+0001MW1251REMSYN082AAXX  24184 83344 21397 80903 10201 20198 39191 40161 72586 8472/ 333 58000 60031;
0179833440999992003022500004-14950-040880FM-12+0905SBQV V0200901N004110021019N0100001N1+02031+01871101541ADDAA106000021GF107991071071002501001001KA1240M+02231MA1999999091921MD1999999-0081REMSYN088AAXX  25004 83344 32397 70908 10203 20187 39192 40154 87700 333 10223 29091 55034 59008;
0162833440999992003022512004-14950-040880FM-12+0905SBQV V0201401N003612200019N0200001N1+02311+01721101481ADDGF102991021011004501001001KA1240N+01501MA1999999091891MD1999999+0241REMSYN082AAXX  25124 83344 22498 21407 10231 20172 39189 40148 82100 333 20150 58024 60034;
0167833440999992003022518004-14950-040880FM-12+0905SBQV V0200901N003112200019N0200001N1+02711+01541101181ADDAA106000091GF103991031011004501001001MA1999999091621MD1999999-0291REMSYN070AAXX  25184 83344 32498 30906 10271 20154 39162 40118 83100 333 59029;EQDQ01  00002PRCP06
0208833440999992003022600004-14950-040880FM-12+0905SBQV V0200501N002612200019N0100001N1+02011+01501101241ADDAA106000091GA1001+999999999GF100991001001999999001001KA1240M+02811MA1999999091671MD1999999-0251REMSYN082AAXX  26004 83344 32997 00505 10201 20150 39167 40124 333 10281 29066 55114 59025;EQDQ01  00002PRCP06
0186833440999992003022612004-14950-040880FM-12+0905SBQV V0200501N001512200019N0200001N1+02341+01691101381ADDAA106000091GF101991011011004501001001KA1240N+01601MA1999999091801MD1999999-0091REMSYN076AAXX  26124 83344 32498 10503 10234 20169 39180 40138 81100 333 20160 59009;EQDQ01  00002PRCP06
0167833440999992003022618004-14950-040880FM-12+0905SBQV V0201401N003112200019N0200001N1+02831+01581101011ADDAA106000091GF102991021011004501001001MA1999999091521MD1999999-0101REMSYN070AAXX  26184 83344 32498 21406 10283 20158 39152 40101 82100 333 59010;EQDQ01  00002PRCP06
0208833440999992003022700004-14950-040880FM-12+0905SBQV V0200901N002612200019N0040001N1+02191+01741101141ADDAA106000091GA1001+999999999GF100991001001999999001001KA1240M+03011MA1999999091621MD1999999-0051REMSYN082AAXX  27004 83344 32996 00905 10219 20174 39162 40114 333 10301 29067 55110 59005;EQDQ01  00002PRCP06
0186833440999992003022712004-14950-040880FM-12+0905SBQV V0200501N002610120019N0200001N1+02391+01841101321ADDAA106000091GF106991061051012501001001KA1240N+01731MA1999999091801MD1999999+0001REMSYN076AAXX  27124 83344 32698 60505 10239 20184 39180 40132 86500 333 20173 58000;EQDQ01  00002PRCP06
0167833440999992003022718004-14950-040880FM-12+0905SBQV V0201401N003610075019N0200001N1+02861+01811100981ADDAA106000091GF106991061011008001001001MA1999999091541MD1999999+0021REMSYN070AAXX  27184 83344 32598 61407 10286 20181 39154 40098 86100 333 58002;EQDQ01  00002PRCP06
0208833440999992003022800004-14950-040880FM-12+0905SBQV V0200901N003612200019N0100001N1+02171+01921101341ADDAA106000091GA1001+999999999GF100991001001999999001001KA1240M+03051MA1999999091821MD1999999+0201REMSYN082AAXX  28004 83344 32997 00907 10217 20192 39182 40134 333 10305 29074 55096 58020;EQDQ01  00002PRCP06
0186833440999992003022812004-14950-040880FM-12+0905SBQV V0200901N004112200019N0200001N1+02441+01741101531ADDAA106000091GF103991031011004501001001KA1240N+01521MA1999999091991MD1999999+0191REMSYN076AAXX  28124 83344 32498 30908 10244 20174 39199 40153 83100 333 20152 58019;EQDQ01  00002PRCP06
0167833440999992003022818004-14950-040880FM-12+0905SBQV V0200901N004110042019N0200001N1+02911+01621101111ADDAA106000091GF105991051021004501001001MA1999999091611MD1999999+0071REMSYN070AAXX  28184 83344 32498 50908 10291 20162 39161 40111 85200 333 58007;EQDQ01  00002PRCP06
0208833440999992003030100004-14950-040880FM-12+0905SBQV V0200901N002112200019N0100001N1+02211+01781101251ADDAA106000091GA1001+999999999GF100991001001999999001001KA1240M+03071MA1999999091741MD1999999-0121REMSYN082AAXX  01004 83344 32997 00904 10221 20178 39174 40125 333 10307 29066 55109 59012;EQDQ01  00002PRCP06
0186833440999992003030112004-14950-040880FM-12+0905SBQV V0200501N003110042019N0200001N1+02241+01821101481ADDAA106000091GF108991081071004501999999KA1240N+01401MA1999999091911MD1999999-0081REMSYN076AAXX  01124 83344 32498 80506 10224 20182 39191 40148 887// 333 20140 59008;EQDQ01  00002PRCP06
0167833440999992003030118004-14950-040880FM-12+0905SBQV V0201401N003110450019N0200001N1+02751+01871101131ADDAA106000091GF107991041041004501071001MA1999999091591MD1999999-0021REMSYN070AAXX  01184 83344 32498 71406 10275 20187 39159 40113 84470 333 59002;EQDQ01  00002PRCP06
0208833440999992003030200004-14950-040880FM-12+0905SBQV V0200901N002112200019N0040001N1+02111+01881101251ADDAA106000091GA1001+999999999GF100991001001999999001001KA1240M+02861MA1999999091681MD1999999-0061REMSYN082AAXX  02004 83344 32996 00904 10211 20188 39168 40125 333 10286 29077 55042 59006;EQDQ01  00002PRCP06
0186833440999992003030212004-14950-040880FM-12+0905SBQV V0203601N002619999999N0200001N1+02391+01731101281ADDAA106000091GF106991001001999999001061KA1240N+01591MA1999999091751MD1999999-0161REMSYN076AAXX  02124 83344 32998 63605 10239 20173 39175 40128 80006 333 20159 59016;EQDQ01  00002PRCP06
0167833440999992003030218004-14950-040880FM-12+0905SBQV V0201401N003110450019N0200001N1+02911+01651100971ADDAA106000091GF107991021011004501071061MA1999999091501MD1999999-0091REMSYN070AAXX  02184 83344 32498 71406 10291 20165 39150 40097 82176 333 59009;EQDQ01  00002PRCP06
0208833440999992003030300004-14950-040880FM-12+0905SBQV V0200901N003112200019N0040001N1+02151+01971101191ADDAA106000091GA1001+999999999GF100991001001999999001001KA1240M+03051MA1999999091661MD1999999-0021REMSYN082AAXX  03004 83344 32996 00906 10215 20197 39166 40119 333 10305 29073 55072 59002;EQDQ01  00002PRCP06
0186833440999992003030312004-14950-040880FM-12+0905SBQV V0200901N003110450019N0200001N1+02501+01961101281ADDAA106000091GF106991031021004501031091KA1240N+01701MA1999999091761MD1999999+0011REMSYN076AAXX  03124 83344 32498 60906 10250 20196 39176 40128 83239 333 20170 58001;EQDQ01  00002PRCP06
0167833440999992003030318004-14950-040880FM-12+0905SBQV V0200901N006710450019N0200001N1+02661+01921101041ADDAA106000091GF106991041041004501051001MA1999999091531MD1999999+0031REMSYN070AAXX  03184 83344 32498 60913 10266 20192 39153 40104 84450 333 58003;EQDQ01  00002PRCP06
0198833440999992003030400004-14950-040880FM-12+0905SBQV V0201801N001012200019N0040001N1+02171+02021101231ADDAA106000091GF104991041041004501001001KA1240M+03131MA1999999091741MD1999999+0081REMSYN088AAXX  04004 83344 32496 41802 10217 20202 39174 40123 84400 333 10313 29080 55067 58008;EQDQ01  00002PRCP06
0186833440999992003030412004-14950-040880FM-12+0905SBQV V0200901N002612200019N0200001N1+02351+01811101531ADDAA106000091GF102991021011004501001001KA1240N+01691MA1999999091971MD1999999+0211REMSYN076AAXX  04124 83344 32498 20905 10235 20181 39197 40153 82100 333 20169 58021;EQDQ01  00002PRCP06
0167833440999992003030418004-14950-040880FM-12+0905SBQV V0200901N003110120019N0200001N1+02931+01641101151ADDAA106000091GF105991051001012501081001MA1999999091681MD1999999+0151REMSYN070AAXX  04184 83344 32698 50906 10293 20164 39168 40115 85080 333 58015;EQDQ01  00002PRCP06
0186833440999992003030512004-14950-040880FM-12+0905SBQV V0201401N002110450019N0200001N1+02321+01871101451ADDAA106000091GF106991041021008001071001KA1240N+01911MA1999999091861MD1999999-0111REMSYN076AAXX  05124 83344 32598 61404 10232 20187 39186 40145 84270 333 20191 59011;EQDQ01  00002PRCP06
0167833440999992003030518004-14950-040880FM-12+0905SBQV V0200901N005112200019N0200001N1+02831+01771101221ADDAA106000091GF106991041021008001001041MA1999999091751MD1999999+0071REMSYN070AAXX  05184 83344 32598 60910 10283 20177 39175 40122 84204 333 58007;EQDQ01  00002PRCP06
0197833440999992003030600004-14950-040880FM-12+0905SBQV V0200901N002112200019N0100001N1+02051+01831101271ADDAA106000091GF102991021041008001001001KA1240M+03011MA1999999091721MD1999999-0071REMSYN087AAXX  06004 8334432597 20904 10205 20183 39172 40127 82400 333 10301 29076 55095 59007;EQDQ01  00002PRCP06
0186833440999992003030612004-14950-040880FM-12+0905SBQV V0200901N002610042019N0200001N1+02251+01751101341ADDAA106000091GF106991061041004501001001KA1240N+01531MA1999999091761MD1999999-0101REMSYN076AAXX  06124 83344 32498 60905 10225 20175 39176 40134 86400 333 20153 59010;EQDQ01  00002PRCP06
0167833440999992003030618004-14950-040880FM-12+0905SBQV V0200901N002610042019N0200001N1+02761+01721100901ADDAA106000091GF106991061031004501001001MA1999999091361MD1999999-0391REMSYN070AAXX  06184 83344 32498 60905 10276 20172 39136 40090 86300 333 59039;EQDQ01  00002PRCP06
0208833440999992003030700004-14950-040880FM-12+0905SBQV V0200901N003112200019N0100001N1+02031+01941101211ADDAA106000091GA1001+999999999GF100991001001999999001001KA1240M+02991MA1999999091651MD1999999-0071REMSYN082AAXX  07004 83344 32997 00906 10203 20194 39165 40121 333 10299 29079 55093 59007;EQDQ01  00002PRCP06
0186833440999992003030712004-14950-040880FM-12+0905SBQV V0200501N003612200019N0200001N1+02331+01791101321ADDAA106000091GF104991041041004501001001KA1240N+01681MA1999999091741MD1999999+0001REMSYN076AAXX  07124 83344 32498 40507 10233 20179 39174 40132 84400 333 20168 58000;EQDQ01  00002PRCP06
0167833440999992003030718004-14950-040880FM-12+0905SBQV V0200901N003112200019N0200001N1+02531+01821101141ADDAA106000091GF104991021041004501081001MA1999999091581MD1999999+0221REMSYN070AAXX  07184 83344 32498 40906 10253 20182 39158 40114 82480 333 58022;EQDQ01  00002PRCP06
0208833440999992003030800004-14950-040880FM-12+0905SBQV V0200901N002612200019N0100001N1+02071+01721101221ADDAA106000091GA1001+999999999GF100991001001999999001001KA1240M+02841MA1999999091671MD1999999+0021REMSYN082AAXX  08004 83344 32997 00905 10207 20172 39167 40122 333 10284 29076 55063 58002;EQDQ01  00002PRCP06
0186833440999992003030812004-14950-040880FM-12+0905SBQV V0200501N002610075019N0200001N1+02401+01731101371ADDAA106000091GF106991061011008001001001KA1240N+01531MA1999999091831MD1999999+0071REMSYN076AAXX  08124 83344 32598 60505 10240 20173 39183 40137 86100 333 20153 58007;EQDQ01  00002PRCP06
0208833440999992003030900004-14950-040880FM-12+0905SBQV V0200901N003112200019N0100001N1+02211+01761101141ADDAA106000091GA1001+999999999GF100991001001999999001001KA1240M+03031MA1999999091641MD1999999-0031REMSYN082AAXX  09004 83344 32997 00906 10221 20176 39164 40114 333 10303 29065 55089 59003;EQDQ01  00002PRCP06
0186833440999992003030912004-14950-040880FM-12+0905SBQV V0200501N003110450019N0200001N1+02371+01731101401ADDAA106000091GF106991041041004501081001KA1240N+01571MA1999999091871MD1999999+0041REMSYN076AAXX  09124 83344 32498 60506 10237 20173 39187 40140 84480 333 20157 58004;EQDQ01  00002PRCP06
0167833440999992003030918004-14950-040880FM-12+0905SBQV V0201401N003110450019N0200001N1+02851+01631101091ADDAA106000091GF106991041021004501031021MA1999999091571MD1999999+0011REMSYN070AAXX  09184 83344 32498 61406 10285 20163 39157 40109 84232 333 58001;EQDQ01  00002PRCP06
0208833440999992003031000004-14950-040880FM-12+0905SBQV V0200901N002612200019N0100001N1+02151+01931101271ADDAA106000091GA1001+999999999GF100991001001999999001001KA1240M+02931MA1999999091741MD1999999+0101REMSYN082AAXX  10004 83344 32997 00905 10215 20193 39174 40127 333 10293 29073 55065 58010;EQDQ01  00002PRCP06
0186833440999992003031012004-14950-040880FM-12+0905SBQV V0200901N003110042019N0200001N1+02281+01901101441ADDAA106000091GF108991051061004501081001KA1240N+01701MA1999999091871MD1999999+0001REMSYN076AAXX  10124 83344 32498 80906 10228 20190 39187 40144 85680 333 20170 58000;EQDQ01  00002PRCP06
0167833440999992003031018004-14950-040880FM-12+0905SBQV V0200901N003110042019N0200001N1+02901+01871100971ADDAA106000091GF108991081061004501999999MA1999999091531MD1999999-0041REMSYN070AAXX  10184 83344 32498 80906 10290 20187 39153 40097 886// 333 59004;EQDQ01  00002PRCP06
0198833440999992003031100004-14950-040880FM-12+0905SBQV V0200901N002612200019N0040001N1+02071+01891101381ADDAA106000091GF104991041031004501001001KA1240M+03071MA1999999091801MD1999999+0061REMSYN088AAXX  11004 83344 32496 40905 10207 20189 39180 40138 84300 333 10307 29078 55051 58006;EQDQ01  00002PRCP06
0186833440999992003031112004-14950-040880FM-12+0905SBQV V0200501N003110042019N0200001N1+02311+01901101451ADDAA106000091GF107991071071004501001001KA1240N+01931MA1999999091881MD1999999+0011REMSYN076AAXX  11124 83344 32498 70506 10231 20190 39188 40145 87700 333 20193 58001;EQDQ01  00002PRCP06
0167833440999992003031118004-14950-040880FM-12+0905SBQV V0200901N005112200019N0200001N1+02931+01801100881ADDAA106000091GF106991041021008001001061MA1999999091461MD1999999-0071REMSYN070AAXX  11184 83344 32598 60910 10293 20180 39146 40088 84206 333 59007;EQDQ01  00002PRCP06
0198833440999992003031200004-14950-040880FM-12+0905SBQV V0200901N003612200019N0100001N1+02031+01811101341ADDAA106000091GF102991021001022501061001KA1240M+03051MA1999999091761MD1999999-0041REMSYN088AAXX  12004 83344 32897 20907 10203 20181 39176 40134 82060 333 10305 29076 55048 59004;EQDQ01  00002PRCP06
0186833440999992003031212004-14950-040880FM-12+0905SBQV V0200501N002610450019N0200001N1+02411+01701101321ADDAA106000091GF106991041021004501081001KA1240N+01641MA1999999091761MD1999999-0121REMSYN076AAXX  12124 83344 32498 60505 10241 20170 39176 40132 84280 333 20164 59012;EQDQ01  00002PRCP06
0167833440999992003031218004-14950-040880FM-12+0905SBQV V0201401N003110450019N0200001N1+02831+01741100921ADDAA106000091GF106991041021004501081001MA1999999091441MD1999999-0021REMSYN070AAXX  12184 83344 32498 61406 10283 20174 39144 40092 84280 333 59002;EQDQ01  00002PRCP06
0198833440999992003031300004-14950-040880FM-12+0905SBQV V0200901N002112200019N0100001N1+02191+01741101111ADDAA106000091GF104991041001012501011001KA1240M+03021MA1999999091611MD1999999-0151REMSYN088AAXX  13004 83344 32697 40904 10219 20174 39161 40111 84010 333 10302 29067 55068 59015;EQDQ01  00002PRCP06
0202833440999992003031312004-14950-040880FM-12+0905SBQV V0200501N001519999999N0200001N1+02261+01841101321ADDAA106000091GF108991999071012501999999KA1240N+01881MA1999999091761MD1999999+0001REMSYN076AAXX  13124 83344 32698 80503 10226 20184 39176 40132 807// 333 20188 58000;EQDQ01+000002SCOTLCQ02  00002PRCP06
0167833440999992003031318004-14950-040880FM-12+0905SBQV V0200901N004612200019N0200001N1+02851+01881100821ADDAA106000091GF104991021061004501081001MA1999999091361MD1999999-0081REMSYN070AAXX  13184 83344 32498 40909 10285 20188 39136 40082 82680 333 59008;EQDQ01  00002PRCP06
0167833440999992003031418004-14950-040880FM-12+0905SBQV V0200901N003112200019N0200001N1+02931+01671100821ADDAA106000091GF106991041021008001001061MA1999999091411MD1999999+0051REMSYN070AAXX  14184 83344 32598 60906 10293 20167 39141 40082 84206 333 58005;EQDQ01  00002PRCP06
0208833440999992003031500004-14950-040880FM-12+0905SBQV V0200901N003112200019N0100001N1+02211+01761101231ADDAA106000091GA1001+999999999GF100991001001999999001001KA1240M+03031MA1999999091721MD1999999+0001REMSYN082AAXX  15004 83344 32997 00906 10221 20176 39172 40123 333 10303 29068 55093 58000;EQDQ01  00002PRCP06
0186833440999992003031512004-14950-040880FM-12+0905SBQV V0200501N003610450019N0200001N1+02411+01801101541ADDAA106000091GF106991041021004501081001KA1240N+01681MA1999999092001MD1999999+0171REMSYN076AAXX  15124 83344 32498 60507 10241 20180 39200 40154 84280 333 20168 58017;EQDQ01  00002PRCP06
0167833440999992003031518004-14950-040880FM-12+0905SBQV V0200901N003112200019N0200001N1+02991+01551100991ADDAA106000091GF104991041021004501001001MA1999999091551MD1999999+0141REMSYN070AAXX  15184 83344 32498 40906 10299 20155 39155 40099 84200 333 58014;EQDQ01  00002PRCP06
0214833440999992003031600004-14950-040880FM-12+0905SBQV V0200901N003619999999N0100001N1+02311+01901101181ADDAA106000091GF106991001001999999001011KA1240M+03131MA1999999999999MD1999999-0031REMSYN088AAXX  16004 83344 32997 60907 10231 20190 30169 40118 80001 333 10313 29066 55108 59003;EQDQ01  00002PRCP06Q02 101693APOSP 
0186833440999992003031612004-14950-040880FM-12+0905SBQV V0200901N003112200019N0200001N1+02471+01711101431ADDAA106000091GF104991021011004501061001KA1240N+01751MA1999999091941MD1999999-0061REMSYN076AAXX  16124 83344 32498 40906 10247 20171 39194 40143 82160 333 20175 59006;EQDQ01  00002PRCP06
0167833440999992003031618004-14950-040880FM-12+0905SBQV V0201401N003610450019N0200001N1+03011+01491101021ADDAA106000091GF105991021011004501071001MA1999999091591MD1999999+0041REMSYN070AAXX  16184 83344 32498 51407 10301 20149 39159 40102 82170 333 58004;EQDQ01  00002PRCP06
0198833440999992003031700004-14950-040880FM-12+0905SBQV V0200901N003112200019N0100001N1+02131+01841101211ADDAA106000091GF104991041001012501011001KA1240M+03131MA1999999091771MD1999999+0081REMSYN088AAXX  17004 83344 32697 40906 10213 20184 39177 40121 84010 333 10313 29068 55093 58008;EQDQ01  00002PRCP06
0186833440999992003031712004-14950-040880FM-12+0905SBQV V0200501N002110075019N0200001N1+02471+01711101261ADDAA106000091GF106991061021008001001001KA1240N+01811MA1999999091751MD1999999-0191REMSYN076AAXX  17124 83344 32598 60504 10247 20171 39175 40126 86200 333 20181 59019;EQDQ01  00002PRCP06
0167833440999992003031718004-14950-040880FM-12+0905SBQV V0201401N002110075019N0200001N1+02911+01651100721ADDAA106000091GF105991051031008001001001MA1999999091301MD1999999-0291REMSYN070AAXX  17184 83344 32598 51404 10291 20165 39130 40072 85300 333 59029;EQDQ01  00002PRCP06
0208833440999992003031800004-14950-040880FM-12+0905SBQV V0200901N001512200019N0100001N1+02231+02101101271ADDAA106000091GA1001+999999999GF100991001001999999001001KA1240M+03151MA1999999091531MD1999999-0241REMSYN082AAXX  18004 83344 32997 00903 10223 20210 39153 40127 333 10315 29069 55081 59024;EQDQ01  00002PRCP06
0173833440999992003031812004-14950-040880FM-12+0905SBQV V0203601N003110042019N0200001N1+02391+01801101301ADDAA106000091GF106991061061004501001001MA1999999091781MD1999999+0031REMSYN076AAXX  18124 83344 32498 63606 10239 20180 39178 40130 86600 333 2//// 58003;EQDQ01  00002PRCP06
0171833440999992003031818004-14950-040880FM-12+0905SBQV V0202701N001010450019N0200001N1+02301+02201999999ADDAY181061AY261061GF106991041091004501031001MA1999999091481MD1999999+0181MW1021REMSYN082AAXX  18184 83344 21498 62702 10230 20220 39148 4//// 70286 84930 333 58018 60081;
0198833440999992003032000004-14950-040880FM-12+0905SBQV V0200901N003110120019N0040001N1+02091+01841101581ADDAA106000091GF107991071001012501021001KA1240M+02911MA1999999091971MD1999999+0211REMSYN088AAXX  20004 83344 32696 70906 10209 20184 39197 40158 87020 333 10291 29074 55086 58021;EQDQ01  00002PRCP06
0202833440999992003032012004-14950-040880FM-12+0905SBQV V0201401N003119999999N0200001N1+02371+01791101561ADDAA106000091GF107991999071008001001001KA1240N+01791MA1999999091981MD1999999-0041REMSYN076AAXX  20124 83344 32598 71406 10237 20179 39198 40156 83700 333 20179 59004;EQDQ01+000032SCOTLCQ02  00002PRCP06
0166833440999992003032018004-14950-040880FM-12+0905SBQV V0200901N005110075019N0200001N1+02491+01921101261ADDAA106000091GF107991071071008001001001MA1999999091691MD1999999+0021REMSYN069AAXX  20184 8334432598 70910 10249 20192 39169 40126 87700 333 58002;EQDQ01  00002PRCP06
0186833440999992003032112004-14950-040880FM-12+0905SBQV V0200501N003110042019N0200001N1+02301+01831101401ADDAA106000091GF106991061041004501001001KA1240N+01751MA1999999091821MD1999999-0161REMSYN076AAXX  21124 83344 32498 60506 10230 20183 39182 40140 86400 333 20175 59016;EQDQ01  00002PRCP06
0167833440999992003032118004-14950-040880FM-12+0905SBQV V0201401N003610450019N0200001N1+02711+01941100951ADDAA106000091GF106991041021004501031001MA1999999091451MD1999999-0241REMSYN070AAXX  21184 83344 32498 61407 10271 20194 39145 40095 84230 333 59024;EQDQ01  00002PRCP06
0186833440999992003032812004-14950-040880FM-12+0905SBQV V0200901N003110450019N0200001N1+02161+01761101611ADDAA106000091GF107991041051004501061001KA1240N+01701MA1999999091981MD1999999+0131REMSYN076AAXX  28124 83344 32498 70906 10216 20176 39198 40161 84560 333 20170 58013;EQDQ01  00002PRCP06
0167833440999992003032818004-14950-040880FM-12+0905SBQV V0201401N004612200019N0200001N1+02611+01711101191ADDAA106000091GF104991021021004501091001MA1999999091631MD1999999-0031REMSYN070AAXX  28184 83344 32498 41409 10261 20171 39163 40119 82290 333 59003;EQDQ01  00002PRCP06
0208833440999992003032900004-14950-040880FM-12+0905SBQV V0200901N003612200019N0100001N1+02231+01841101381ADDAA106000091GA1001+999999999GF100991001001999999001001KA1240M+02831MA1999999091821MD1999999-0051REMSYN082AAXX  29004 83344 32997 00907 10223 20184 39182 40138 333 10283 29073 55092 59005;EQDQ01  00002PRCP06
0186833440999992003032912004-14950-040880FM-12+0905SBQV V0201801N003612200019N0200001N1+02291+01861101441ADDAA106000091GF104991041051012501001001KA1240N+01801MA1999999091891MD1999999-0091REMSYN076AAXX  29124 83344 32698 41807 10229 20186 39189 40144 84500 333 20180 59009;EQDQ01  00002PRCP06
0167833440999992003032918004-14950-040880FM-12+0905SBQV V0200901N002610075019N0200001N1+02651+01831101081ADDAA106000091GF108991081091008001999999MA1999999091561MD1999999-0071REMSYN070AAXX  29184 83344 32598 80905 10265 20183 39156 40108 889// 333 59007;EQDQ01  00002PRCP06
0198833440999992003033000004-14950-040880FM-12+0905SBQV V0200901N001512200019N0100001N1+02201+01921101111ADDAA106000091GF102991021051008001001001KA1240M+02711MA1999999091591MD1999999-0231REMSYN088AAXX  30004 83344 32597 20903 10220 20192 39159 40111 82500 333 10271 29076 55037 59023;EQDQ01  00002PRCP06
0186833440999992003033012004-14950-040880FM-12+0905SBQV V0201401N003110042019N0200001N1+02071+01801101461ADDAA106000091GF108991081071004501999999KA1240N+01741MA1999999091871MD1999999-0021REMSYN076AAXX  30124 83344 32498 81406 10207 20180 39187 40146 887// 333 20174 59002;EQDQ01  00002PRCP06
0167833440999992003033018004-14950-040880FM-12+0905SBQV V0201801N003110042019N0200001N1+02731+01741100991ADDAA106000091GF107991051041004501051001MA1999999091481MD1999999-0081REMSYN070AAXX  30184 83344 32498 71806 10273 20174 39148 40099 85450 333 59008;EQDQ01  00002PRCP06
0208833440999992003033100004-14950-040880FM-12+0905SBQV V0200501N002112200019N0100001N1+02141+01741101241ADDAA106000091GA1001+999999999GF100991001001999999001001KA1240M+02871MA1999999091651MD1999999+0061REMSYN082AAXX  31004 83344 32997 00504 10214 20174 39165 40124 333 10287 29074 55049 58006;EQDQ01  00002PRCP06
0186833440999992003033112004-14950-040880FM-12+0905SBQV V0200901N004110450019N0200001N1+02251+01751101351ADDAA106000091GF106991041041004501061001KA1240N+01791MA1999999091791MD1999999-0081REMSYN076AAXX  31124 83344 32498 60908 10225 20175 39179 40135 84460 333 20179 59008;EQDQ01  00002PRCP06
0167833440999992003033118004-14950-040880FM-12+0905SBQV V0200901N003112200019N0200001N1+02751+01761100921ADDAA106000091GF104991021011004501051001MA1999999091451MD1999999-0031REMSYN070AAXX  31184 83344 32498 40906 10275 20176 39145 40092 82150 333 59003;EQDQ01  00002PRCP06
0208833440999992003040100004-14950-040880FM-12+0905SBQV V0200901N003112200019N0100001N1+02131+01881101271ADDAA106000091GA1001+999999999GF100991001001999999001001KA1240M+02871MA1999999091721MD1999999+0071REMSYN082AAXX  01004 83344 32997 00906 10213 20188 39172 40127 333 10287 29075 55072 58007;EQDQ01  00002PRCP06
0186833440999992003040112004-14950-040880FM-12+0905SBQV V0200901N003111050019N0200001N1+02381+01681101451ADDAA106000091GF106991021011008001001021KA1240N+01801MA1999999091901MD1999999+0111REMSYN076AAXX  01124 83344 32598 60906 10238 20168 39190 40145 82102 333 20180 58011;EQDQ01  00002PRCP06
0167833440999992003040118004-14950-040880FM-12+0905SBQV V0201401N003612200019N0200001N1+02871+01621101091ADDAA106000091GF106991041011008001001061MA1999999091611MD1999999+0161REMSYN070AAXX  01184 83344 32598 61407 10287 20162 39161 40109 84106 333 58016;EQDQ01  00002PRCP06
0208833440999992003040200004-14950-040880FM-12+0905SBQV V0200901N003112200019N0100001N1+02151+01861101731ADDAA106000091GA1001+999999999GF100991001001999999001001KA1240M+02951MA1999999091781MD1999999+0061REMSYN082AAXX  02004 83344 32997 00906 10215 20186 39178 40173 333 10295 29070 55099 58006;EQDQ01  00002PRCP06
0186833440999992003040212004-14950-040880FM-12+0905SBQV V0200901N002610450019N0200001N1+02411+01801101531ADDAA106000091GF106991021011004501051001KA1240N+01511MA1999999091991MD1999999+0091REMSYN076AAXX  02124 83344 32498 60905 10241 20180 39199 40153 82150 333 20151 58009;EQDQ01  00002PRCP06
0167833440999992003040218004-14950-040880FM-12+0905SBQV V0200901N002610042019N0200001N1+02781+01731101211ADDAA106000091GF106991061041004501001001MA1999999091661MD1999999+0051REMSYN070AAXX  02184 83344 32498 60905 10278 20173 39166 40121 86400 333 58005;EQDQ01  00002PRCP06
0208833440999992003040300004-14950-040880FM-12+0905SBQV V0200501N002612200019N0100001N1+02151+01661101301ADDAA106000091GA1001+999999999GF100991001001999999001001KA1240M+02951MA1999999091781MD1999999+0001REMSYN082AAXX  03004 83344 32997 00505 10215 20166 39178 40130 333 10295 29067 55080 58000;EQDQ01  00002PRCP06
0187833440999992003040312004-14950-040880FM-12+0905SBQV V0200901N003111050019N0200001N1+02431+01221101381ADDAA106000091GF106991021001012501051021KA1240N+01501MD1999999-0141REMSYN076AAXX  03124 83344 32698 60906 10243 20122 33918 40138 82052 333 20150 59014;EQDQ01+039181APOSP Q02  00002PRCP06
0167833440999992003040318004-14950-040880FM-12+0905SBQV V0201401N002612200019N0200001N1+02871+01651101281ADDAA106000091GF102991021011004501001001MA1999999091491MD1999999+0101REMSYN070AAXX  03184 83344 32498 21405 10287 20165 39149 40128 82100 333 58010;EQDQ01  00002PRCP06
0208833440999992003040400004-14950-040880FM-12+0905SBQV V0200901N002612200019N0100001N1+02151+01721101221ADDAA106000091GA1001+999999999GF100991001001999999001001KA1240M+02971MA1999999091711MD1999999-0071REMSYN082AAXX  04004 83344 32997 00905 10215 20172 39171 40122 333 10297 29062 55100 59007;EQDQ01  00002PRCP06
0186833440999992003040412004-14950-040880FM-12+0905SBQV V0201401N002112200019N0200001N1+02311+01561101351ADDAA106000091GF106991021001022501081011KA1240N+01611MA1999999091811MD1999999-0041REMSYN076AAXX  04124 83344 32898 61404 10231 20156 39181 40135 82081 333 20161 59004;EQDQ01  00002PRCP06
0167833440999992003040418004-14950-040880FM-12+0905SBQV V0201401N003112200019N0200001N1+02821+01291100931ADDAA106000091GF106991021011008001001011MA1999999091431MD1999999-0061REMSYN070AAXX  04184 83344 32598 61406 10282 20129 39143 40093 82101 333 59006;EQDQ01  00002PRCP06
0208833440999992003040500004-14950-040880FM-12+0905SBQV V0200901N002112200019N0100001N1+02041+01471101141ADDAA106000091GA1001+999999999GF100991001001999999001001KA1240M+02891MA1999999091581MD1999999-0131REMSYN082AAXX  05004 83344 32997 00904 10204 20147 39158 40114 333 10289 29061 55101 59013;EQDQ01  00002PRCP06
0186833440999992003040512004-14950-040880FM-12+0905SBQV V0200501N002111050019N0200001N1+02201+01741101351ADDAA106000091GF105991021011004501001091KA1240N+01541MA1999999091751MD1999999-0061REMSYN076AAXX  05124 83344 32498 50504 10220 20174 39175 40135 82109 333 20154 59006;EQDQ01  00002PRCP06
0167833440999992003040518004-14950-040880FM-12+0905SBQV V0201401N003111050019N0200001N1+03031+01431100781ADDAA106000091GF105991021011004501001091MA1999999091331MD1999999-0101REMSYN070AAXX  05184 83344 32498 51406 10303 20143 39133 40078 82109 333 59010;EQDQ01  00002PRCP06
0208833440999992003040600004-14950-040880FM-12+0905SBQV V0200501N002112200019N0100001N1+02231+01481101081ADDAA106000091GA1001+999999999GF100991001001999999001001KA1240M+03211MA1999999091551MD1999999-0031REMSYN082AAXX  06004 83344 32997 00504 10223 20148 39155 40108 333 10321 29060 55094 59003;EQDQ01  00002PRCP06
0186833440999992003040612004-14950-040880FM-12+0905SBQV V0203601N004112200019N0200001N1+02651+01601101121ADDAA106000091GF103991031001012501071001KA1240N+01651MA1999999091681MD1999999-0071REMSYN076AAXX  06124 83344 32698 33608 10265 20160 39168 40112 83070 333 20165 59007;EQDQ01  00002PRCP06
0167833440999992003040618004-14950-040880FM-12+0905SBQV V0200901N001512200019N0200001N1+03051+01781100681ADDAA106000091GF104991041031004501001001MA1999999091281MD1999999-0051REMSYN070AAXX  06184 83344 32498 40903 10305 20178 39128 40068 84300 333 59005;EQDQ01  00002PRCP06
0208833440999992003040700004-14950-040880FM-12+0905SBQV V0200901N001512200019N0100001N1+02331+01891100821ADDAA106000091GA1001+999999999GF100991001001999999001001KA1240M+03281MA1999999091431MD1999999-0121REMSYN082AAXX  07004 83344 32997 00903 10233 20189 39143 40082 333 10328 29065 55092 59012;EQDQ01  00002PRCP06
0186833440999992003040712004-14950-040880FM-12+0905SBQV V0203601N004111050019N0200001N1+02471+01991100871ADDAA106000091GF106991041041012501001051KA1240N+01891MA1999999091441MD1999999-0241REMSYN076AAXX  07124 83344 32698 63608 10247 20199 39144 40087 84405 333 20189 59024;EQDQ01  00002PRCP06
0167833440999992003040718004-14950-040880FM-12+0905SBQV V0203201N002110075019N0200001N1+03251+01881100341ADDAA106000091GF106991061031008001001001MA1999999091031MD1999999-0251REMSYN070AAXX  07184 83344 32598 63204 10325 20188 39103 40034 86300 333 59025;EQDQ01  00002PRCP06
0202833440999992003040800004-14950-040880FM-12+0905SBQV V0200901N000519999999N0040001N1+02291+02141100741ADDAY181061AY261061GF108991001001999999001091KA1240M+03351MA1999999091321MD1999999-0111MW1171REMSYN100AAXX  08004 83344 21996 80901 10229 20214 39132 40074 71786 80009 333 10335 29076 55094 59011 60191;
0190833440999992003040812004-14950-040880FM-12+0905SBQV V0201401N002110042019N0100001N1+02061+01991101241ADDAY181061AY261061GF108991081071004501999999KA1240N+01891MA1999999091671MD1999999+0231MW1031REMSYN088AAXX  08124 83344 21497 81404 10206 20199 39167 40124 70386 887// 333 20189 58023 60434;
0195833440999992003040818004-14950-040880FM-12+0905SBQV V0201801N003110450019N0200001N1+02431+02211100911ADDAA106000091AY191061AY211061GF107991041071004501051001MA1999999091391MD1999999+0361MW1171REMSYN076AAXX  08184 83344 31498 71806 10243 20221 39139 40091 71791 84750 333 58036;EQDQ01  00002PRCP06
0208833440999992003040900004-14950-040880FM-12+0905SBQV V0201401N001512200019N0100001N1+02211+01951101231ADDAA106000091GA1001+999999999GF100991001001999999001001KA1240M+02531MA1999999091661MD1999999+0341REMSYN082AAXX  09004 83344 32997 01403 10221 20195 39166 40123 333 10253 29089 55006 58034;EQDQ01  00002PRCP06
0186833440999992003040912004-14950-040880FM-12+0905SBQV V0201401N002612200019N0200001N1+02381+01971101401ADDAA106000091GF103991021021004501071001KA1240N+02001MA1999999091871MD1999999+0201REMSYN076AAXX  09124 83344 32498 31405 10238 20197 39187 40140 82270 333 20200 58020;EQDQ01  00002PRCP06
0167833440999992003040918004-14950-040880FM-12+0905SBQV V0201401N003112200019N0200001N1+02751+01951101021ADDAA106000091GF104991041041004501001001MA1999999091571MD1999999+0181REMSYN070AAXX  09184 83344 32498 41406 10275 20195 39157 40102 84400 333 58018;EQDQ01  00002PRCP06
0198833440999992003041000004-14950-040880FM-12+0905SBQV V0200901N001512200019N0100001N1+02251+01921101301ADDAA106000091GF104991041001012501071001KA1240M+02851MA1999999091781MD1999999+0121REMSYN088AAXX  10004 83344 32697 40903 10225 20192 39178 40130 84070 333 10285 29076 55070 58012;EQDQ01  00002PRCP06
0186833440999992003041012004-14950-040880FM-12+0905SBQV V0203601N003110120019N0200001N1+02331+01961101401ADDAA106000091GF107991071041012501001001KA1240N+01981MA1999999091871MD1999999+0001REMSYN076AAXX  10124 83344 32698 73606 10233 20196 39187 40140 87400 333 20198 58000;EQDQ01  00002PRCP06
0167833440999992003041018004-14950-040880FM-12+0905SBQV V0201401N001510120019N0200001N1+02771+01911101021ADDAA106000091GF106991061041012501001001MA1999999091571MD1999999+0001REMSYN070AAXX  10184 83344 32698 61403 10277 20191 39157 40102 86400 333 58000;EQDQ01  00002PRCP06
0214833440999992003041100004-14950-040880FM-12+0905SBQV V0200901N000510210019N0100001N1+02261+02011101151ADDAA106000091GF107991071001022501031001KA1240M+02931MA1999999999999MD1999999-0131REMSYN088AAXX  11004 83344 32897 70901 10226 20201 39565 40115 87030 333 10293 29078 55070 59013;EQDQ01  00002PRCP06Q02 095653APOSP 
0186833440999992003041112004-14950-040880FM-12+0905SBQV V0203601N003110450019N0200001N1+02451+01951101341ADDAA106000091GF107991021011004501051001KA1240N+01911MA1999999091841MD1999999-0031REMSYN076AAXX  11124 83344 32498 73606 10245 20195 39184 40134 82150 333 20191 59003;EQDQ01  00002PRCP06
0167833440999992003041118004-14950-040880FM-12+0905SBQV V0201801N000510042019N0200001N1+02801+02131100991ADDAA106000091GF105991051021004501001001MA1999999091451MD1999999-0121REMSYN070AAXX  11184 83344 32498 51801 10280 20213 39145 40099 85200 333 59012;EQDQ01  00002PRCP06
0208833440999992003041200004-14950-040880FM-12+0905SBQV V0200501N001012200019N0100001N1+02171+01991101131ADDAA106000091GA1001+999999999GF100991001001999999001001KA1240M+02951MA1999999091631MD1999999-0021REMSYN082AAXX  12004 83344 32997 00502 10217 20199 39163 40113 333 10295 29080 55047 59002;EQDQ01  00002PRCP06
0186833440999992003041212004-14950-040880FM-12+0905SBQV V0203601N001510042019N0200001N1+02871+01441101361ADDAA106000091GF106991061021004501001001KA1240N+01971MA1999999091901MD1999999+0061REMSYN076AAXX  12124 83344 32498 63603 10287 20144 39190 40136 86200 333 20197 58006;EQDQ01  00002PRCP06
0183833440999992003041218004-14950-040880FM-12+0905SBQV V0201801N003110042019N0200001N1+03091+02071999999ADDAA106000091GF105991051021004501001001MA1999999091581MD1999999-0131REMSYN070AAXX  12184 83344 32498 51806 10309 20207 39158 49118 85200 333 59013;EQDQ01  00002PRCP06Q02 091183APOSLP
0224833440999992003041300004-14950-040880FM-12+0905SBQV V0200901N002612200019N0200001N1+02311+01901101192ADDAA106000091GA1001+999999999GF100991001001999999001001KA1240M+03101MA1999999091791MD1999999+0161REMSYN082AAXX  13004 83344 32998 00905 10231 20190 39179 40119 333 10310 29063 55085 58016;EQDQ01+101193APOSLPQ02  00002PRCP06
0186833440999992003041312004-14950-040880FM-12+0905SBQV V0200501N003110075019N0200001N1+02411+01971101661ADDAA106000091GF106991061051008001001001KA1240N+01771MA1999999092131MD1999999+0231REMSYN076AAXX  13124 83344 32598 60506 10241 20197 39213 40166 86500 333 20177 58023;EQDQ01  00002PRCP06
0167833440999992003041318004-14950-040880FM-12+0905SBQV V0201401N003612200019N0200001N1+02821+01891101251ADDAA106000091GF102991021011004501001001MA1999999091771MD1999999-0191REMSYN070AAXX  13184 83344 32498 21407 10282 20189 39177 40125 82100 333 59019;EQDQ01  00002PRCP06
0202833440999992003041400004-14950-040880FM-12+0905SBQV V0201401N004610042019N0040001N1+02131+02021101711ADDAY151061AY221061GF108991081071004501999999KA1240M+02911MA1999999092141MD1999999+0351MW1031REMSYN100AAXX  14004 83344 21496 81409 10213 20202 39214 40171 70352 887// 333 10291 29081 55094 58035 69961;
0190833440999992003041412004-14950-040880FM-12+0905SBQV V0201401N004110021019N0040001N1+01931+01871101851ADDAY151061AY251061GF108991081071002501999999KA1240N+01791MA1999999092181MD1999999+0051MW1211REMSYN088AAXX  14124 83344 21396 81408 10193 20187 39218 40185 72155 887// 333 20179 58005 60034;
0190833440999992003041512004-14950-040880FM-12+0905SBQV V0201401N002610042019N0100001N1+01831+01771101801ADDAY151061AY221061GF108991081051004501999999KA1240N+01701MA1999999092071MD1999999-0111MW1021REMSYN088AAXX  15124 83344 21497 81405 10183 20177 39207 40180 70252 885// 333 20170 59011 60022;
0171833440999992003041518004-14950-040880FM-12+0905SBQV V0201401N004110042019N0100001N1+02031+01871101521ADDAY151061AY221061GF108991081051004501999999MA1999999091831MD1999999-0111MW1021REMSYN082AAXX  15184 83344 21497 81408 10203 20187 39183 40152 70252 885// 333 59011 69921;
0198833440999992003041600004-14950-040880FM-12+0905SBQV V0200901N003610042019N0040001N1+01851+01791101711ADDAA106000091GF108991081051004501999999KA1240M+02191MA1999999091971MD1999999-0121REMSYN088AAXX  16004 83344 32496 80907 10185 20179 39197 40171 885// 333 10219 29095 55003 59012;EQDQ01  00002PRCP06
0190833440999992003041612004-14950-040880FM-12+0905SBQV V0201401N004610042019N0100001N1+01971+01741101491ADDAY151061AY221061GF108991081071004501999999KA1240N+01681MA1999999091941MD1999999-0131MW1021REMSYN088AAXX  16124 83344 21497 81409 10197 20174 39194 40149 70252 887// 333 20168 59013 69944;
0167833440999992003041618004-14950-040880FM-12+0905SBQV V0201401N003110042019N0200001N1+02091+01841101381ADDAA106000091GF108991081071004501999999MA1999999091701MD1999999-0131REMSYN070AAXX  16184 83344 32498 81406 10209 20184 39170 40138 887// 333 59013;EQDQ01  00002PRCP06
0198833440999992003041700004-14950-040880FM-12+0905SBQV V0201401N003110042019N0100001N1+01951+01811101541ADDAA106000091GF108991081071004501999999KA1240M+02251MA1999999091861MD1999999-0111REMSYN088AAXX  17004 83344 32497 81406 10195 20181 39186 40154 887// 333 10225 29089 55008 59011;EQDQ01  00002PRCP06
0184833440999992003041712004-14950-040880FM-12+0905SBQV V0200901N004610450019N0200001N1+02091+01761101711ADDAA106000091GF106991031011004501081001KA1240N+01581MA1999999092041REMSYN088AAXX  17124 83344 32498 60909 10209 20176 39204 40171 83180 333 20158 29089 55008 58010;EQDQ01  00002PRCP06
0167833440999992003041718004-14950-040880FM-12+0905SBQV V0201401N004110042019N0100001N1+02151+01881101501ADDAA106000091GF108991081051004501999999MA1999999091811MD1999999+0111REMSYN070AAXX  17184 83344 32497 81408 10215 20188 39181 40150 885// 333 58011;EQDQ01  00002PRCP06
0202833440999992003041800004-14950-040880FM-12+0905SBQV V0200901N003110042019N0020001N1+01901+01831101591ADDAY151061AY221061GF108991081051004501999999KA1240M+02231MA1999999091931MD1999999+0071MW1031REMSYN100AAXX  18004 83344 21495 80906 10190 20183 39193 40159 70352 885// 333 10223 29090 55042 58007 69981;
0202833440999992003041812004-14950-040880FM-12+0905SBQV V0201401N004110042019N0200001N1+02011+01791101711ADDAY151061AY221061GF106991061071004501001001KA1240N+01701MA1999999092021MD1999999-0021MW1031REMSYN100AAXX  18124 83344 21498 61408 10201 20179 39202 40171 70352 86700 333 20170 29089 55008 59002 60014;
0167833440999992003041818004-14950-040880FM-12+0905SBQV V0200501N005110450019N0200001N1+02511+01481101411ADDAA106000091GF105991021021004501081001MA1999999091831MD1999999+0021REMSYN070AAXX  18184 83344 32498 50510 10251 20148 39183 40141 82280 333 58002;EQDQ01  00002PRCP06
0214833440999992003041900004-14950-040880FM-12+0905SBQV V0200901N003110021019N0040001N1+02051+01831101601ADDAA106000091GF108991999071002501071999KA1240M+02611MA1999999091971MD1999999+0041REMSYN088AAXX  19004 83344 32396 80906 10205 20183 39197 40160 8877/ 333 10261 29078 55087 58004;EQDQ01+000082SCOTLCQ02  00002PRCP06
0186833440999992003041912004-14950-040880FM-12+0905SBQV V0201401N004610042019N0100001N1+02051+01821101841ADDAA106000091GF108991081071004501999999KA1240N+01681MA1999999092111MD1999999+0091REMSYN076AAXX  19124 83344 32497 81409 10205 20182 39211 40184 887// 333 20168 58009;EQDQ01  00002PRCP06
0167833440999992003041918004-14950-040880FM-12+0905SBQV V0201401N004110450019N0200001N1+02511+01771101421ADDAA106000091GF105991031021008001081001MA1999999091841MD1999999-0021REMSYN070AAXX  19184 83344 32598 51408 10251 20177 39184 40142 83280 333 59002;EQDQ01  00002PRCP06
0208833440999992003042000004-14950-040880FM-12+0905SBQV V0201401N002112200019N9999999N1+02131+01881101421ADDAA106000091GA1001+999999999GF100991001001999999001001KA1240M+02591MA1999999091791MD1999999-0181REMSYN082AAXX  20004 83344 329// 01404 10213 20188 39179 40142 333 10259 29081 55051 59018;EQDQ01  00002PRCP06
0186833440999992003042012004-14950-040880FM-12+0905SBQV V0201801N002612200019N0200001N1+02161+01821101611ADDAA106000091GF103991031021004501001001KA1240N+01651MA1999999092001MD1999999-0101REMSYN076AAXX  20124 83344 32498 31805 10216 20182 39200 40161 83200 333 20165 59010;EQDQ01  00002PRCP06
0167833440999992003042018004-14950-040880FM-12+0905SBQV V0200901N004112200019N0200001N1+02581+01801101121ADDAA106000091GF104991031021004501031001MA1999999091581MD1999999-0231REMSYN070AAXX  20184 83344 32498 40908 10258 20180 39158 40112 83230 333 59023;EQDQ01  00002PRCP06
0208833440999992003042100004-14950-040880FM-12+0905SBQV V0200901N002112200019N0100001N1+01951+01741101411ADDAA106000091GA1001+999999999GF100991001001999999001001KA1240M+02691MA1999999091781MD1999999-0011REMSYN082AAXX  21004 83344 32997 00904 10195 20174 39178 40141 333 10269 29080 55099 59001;EQDQ01  00002PRCP06
0186833440999992003042112004-14950-040880FM-12+0905SBQV V0200901N003112200019N0200001N1+02101+01801101731ADDAA106000091GF104991041021004501001001KA1240N+01321MA1999999092071MD1999999+0071REMSYN076AAXX  21124 83344 32498 40906 10210 20180 39207 40173 84200 333 20132 58007;EQDQ01  00002PRCP06
0167833440999992003042118004-14950-040880FM-12+0905SBQV V0200901N004612200019N0200001N1+02571+01751101401ADDAA106000091GF102991021021004501001001MA1999999091791MD1999999+0211REMSYN070AAXX  21184 83344 32498 20909 10257 20175 39179 40140 82200 333 58021;EQDQ01  00002PRCP06
0221833440999992003042200004-14950-040880FM-12+0905SBQV V0200901N002112200019N0040001N1+02871+01781101691ADDAY151061AY221061GF102991021011004501001001KA1240M+99999MA1999999092021MD1999999+0241MW1021REMSYN100AAXX  22004 83344 21496 20904 10287 20178 39202 40169 70252 82100 333 10271 29083 55096 58024 69921;EQDQ01 +02712ATMX  
0190833440999992003042212004-14950-040880FM-12+0905SBQV V0201401N005110042019N0200001N1+02081+01861101711ADDAY151061AY221061GF108991081071004501999999KA1240N+01481MA1999999092021MD1999999-0051MW1201REMSYN088AAXX  22124 83344 21498 81410 10208 20186 39202 40171 72052 887// 333 20148 59005 69944;
0171833440999992003042218004-14950-040880FM-12+0905SBQV V0200901N003610450019N0200001N1+02291+01561101441ADDAY151061AY231061GF106991041051004501051001MA1999999091771MD1999999-0021MW1021REMSYN082AAXX  22184 83344 21498 60907 10229 20156 39177 40144 70253 84550 333 59002 69911;
0221833440999992003042300004-14950-040880FM-12+0905SBQV V0201401N003110090019N0020001N1+01991+01951101641ADDAY181061AY261061GF108991999081004501091999KA1240M+02621MA1999999091991MD1999999-0031MW1811REMSYN100AAXX  23004 83344 21495 81406 10199 20195 39199 40164 78186 8889/ 333 10262 29090 55067 59003 60041;EQDQ01+000082SCOTLC
0190833440999992003042312004-14950-040880FM-12+0905SBQV V0201401N003610042019N0100001N1+02031+01851101721ADDAY161061AY221061GF107991071071004501001001KA1240N+01801MA1999999092051MD1999999+0031MW1081REMSYN088AAXX  23124 83344 21497 71407 10203 20185 39205 40172 70862 87700 333 20180 58003 60104;
0167833440999992003042318004-14950-040880FM-12+0905SBQV V0201401N003110042019N0200001N1+02311+01941101421ADDAA106000091GF106991061071004501001001MA1999999091791MD1999999+0021REMSYN070AAXX  23184 83344 32498 61406 10231 20194 39179 40142 86700 333 58002;EQDQ01  00002PRCP06
0202833440999992003042400004-14950-040880FM-12+0905SBQV V0200901N003612200019N0100001N1+01951+01861101571ADDAY161061AY251061GF103991031021004501001001KA1240M+02381MA1999999091911MD1999999-0081MW1011REMSYN100AAXX  24004 83344 21497 30907 10195 20186 39191 40157 70165 83200 333 10238 29090 55051 59008 69961;
0190833440999992003042412004-14950-040880FM-12+0905SBQV V0201401N003110042019N0040001N1+01971+01761101751ADDAY151061AY221061GF108991081051004501999999KA1240N+01721MA1999999092051MD1999999+0001MW1521REMSYN088AAXX  24124 83344 21496 81406 10197 20176 39205 40175 75252 885// 333 20172 58000 60024;
0171833440999992003042418004-14950-040880FM-12+0905SBQV V0201401N003610042019N0100001N1+01991+01881101451ADDAY151061AY221061GF108991081051004501999999MA1999999091781MD1999999-0011MW1521REMSYN082AAXX  24184 83344 21497 81407 10199 20188 39178 40145 75252 885// 333 59001 60011;
0189833440999992003042500004-14950-040880FM-12+0905SBQV V0201801N001512200019N0040001N1+01791+01761101581ADDAA106000021GA1001+999999999GF100991001001999999001001KA1240M+02291MA1999999091881MD1999999-0031REMSYN082AAXX  25004 83344 32996 01803 10179 20176 39188 40158 333 10229 29095 55013 59003;
0162833440999992003042512004-14950-040880FM-12+0905SBQV V0201401N004610042019N0100001N1+01911+01781101721ADDGF108991081071004501999999KA1240N+01601MA1999999091981MD1999999-0071REMSYN082AAXX  25124 83344 22497 81409 10191 20178 39198 40172 887// 333 20160 59007 60014;
0195833440999992003042518004-14950-040880FM-12+0905SBQV V0200901N002111050019N0200001N1+02341+02051101351ADDAA106000091AY121061AY211061GF106991031031004501001021MA1999999091711MD1999999-0071MW1161REMSYN076AAXX  25184 83344 31498 60904 10234 20205 39171 40135 71621 83302 333 59007;EQDQ01  00002PRCP06
0208833440999992003042600004-14950-040880FM-12+0905SBQV V0200901N001512200019N0040001N1+01991+01881101601ADDAA106000091GA1001+999999999GF100991001001999999001001KA1240M+02471MA1999999091921MD1999999+0041REMSYN082AAXX  26004 83344 32996 00903 10199 20188 39192 40160 333 10247 29091 55050 58004;EQDQ01  00002PRCP06
0186833440999992003042612004-14950-040880FM-12+0905SBQV V0201401N003110042019N0100001N1+02111+01861101781ADDAA106000091GF108991081071004501999999KA1240N+01791MA1999999092121MD1999999+0141REMSYN076AAXX  26124 83344 32497 81406 10211 20186 39212 40178 887// 333 20179 58014;EQDQ01  00002PRCP06
0171833440999992003042618004-14950-040880FM-12+0905SBQV V0201401N003110450019N0200001N1+02381+02031101451ADDAY151061AY221061GF106991021021004501051051MA1999999091841MD1999999+0131MW1021REMSYN082AAXX  26184 83344 21498 61406 10238 20203 39184 40145 70252 82255 333 58013 69921;
0198833440999992003042700004-14950-040880FM-12+0905SBQV V0201401N002110042019N0040001N1+02051+01971101731ADDAA106000091GF105991051041004501001001KA1240M+02611MA1999999092091MD1999999+0171REMSYN088AAXX  27004 83344 32496 51404 10205 20197 39209 40173 85400 333 10261 29090 55045 58017;EQDQ01  00002PRCP06
0162833440999992003042712004-14950-040880FM-12+0905SBQV V0201401N002110042019N0100001N1+02131+01881101751ADDGF108991081051004501999999KA1240N+01801MA1999999092131MD1999999+0011REMSYN082AAXX  27124 83344 22497 81404 10213 20188 39213 40175 885// 333 20180 58001 69924;
0171833440999992003042718004-14950-040880FM-12+0905SBQV V0200901N003110042019N0200001N1+02171+01951101491ADDAY151061AY221061GF106991061051004501001001MA1999999091821MD1999999-0021MW1011REMSYN082AAXX  27184 83344 21498 60906 10217 20195 39182 40149 70152 86500 333 59002 60011;
0198833440999992003042800004-14950-040880FM-12+0905SBQV V0200901N002112200019N0040001N1+01931+01871101591ADDAA106000091GF103991031021012501061001KA1240M+02491MA1999999091951MD1999999-0141REMSYN088AAXX  28004 83344 32696 30904 10193 20187 39195 40159 83260 333 10249 29092 55026 59014;EQDQ01  00002PRCP06
0181833440999992003042812004-14950-040880FM-12+0905SBQV V0201401N001519999999N0200001N1+02131+01741101591ADDGF106991999001012501081001KA1240N+01501MA1999999091951MD1999999-0161REMSYN082AAXX  28124 83344 22698 61403 10213 20174 39195 40159 82080 333 20150 59016 60014;EQDQ01+000022SCOTLC
0167833440999992003042818004-14950-040880FM-12+0905SBQV V0201401N003112200019N0200001N1+02531+01591101231ADDAA106000091GF101991011001012501081001MA1999999091641MD1999999-0181REMSYN070AAXX  28184 83344 32698 11406 10253 20159 39164 40123 81080 333 59018;EQDQ01  00002PRCP06
0208833440999992003042900004-14950-040880FM-12+0905SBQV V0200901N001512200019N0040001N1+01891+01621101481ADDAA106000091GA1001+999999999GF100991001001999999001001KA1240M+02591MA1999999091831MD1999999-0121REMSYN082AAXX  29004 83344 32996 00903 10189 20162 39183 40148 333 10259 29077 55105 59012;EQDQ01  00002PRCP06
0186833440999992003042912004-14950-040880FM-12+0905SBQV V0200901N001512200019N0200001N1+02281+01751101611ADDAA106000091GF102991021011004501001001KA1240N+01581MA1999999091981MD1999999+0031REMSYN076AAXX  29124 83344 32498 20903 10228 20175 39198 40161 82100 333 20158 58003;EQDQ01  00002PRCP06
0167833440999992003042918004-14950-040880FM-12+0905SBQV V0201401N004612200019N0200001N1+02671+01901101191ADDAA106000091GF103991031021004501001001MA1999999091651MD1999999+0011REMSYN070AAXX  29184 83344 32498 31409 10267 20190 39165 40119 83200 333 58001;EQDQ01  00002PRCP06
0198833440999992003043000004-14950-040880FM-12+0905SBQV V0200901N001512200019N0100001N1+02061+01931101521ADDAA106000091GF102991021021004501001001KA1240M+02771MA1999999091881MD1999999+0051REMSYN088AAXX  30004 83344 32497 20903 10206 20193 39188 40152 82200 333 10277 29080 55093 58005;EQDQ01  00002PRCP06
0186833440999992003043012004-14950-040880FM-12+0905SBQV V0200501N002610042019N0200001N1+02091+01781101711ADDAA106000091GF108991081051004501999999KA1240N+01761MA1999999092051MD1999999+0071REMSYN076AAXX  30124 83344 32498 80505 10209 20178 39205 40171 885// 333 20176 58007;EQDQ01  00002PRCP06
0167833440999992003043018004-14950-040880FM-12+0905SBQV V0200901N003112200019N0200001N1+02691+01811101261ADDAA106000091GF101991011011004501001001MA1999999091751MD1999999+0101REMSYN070AAXX  30184 83344 32498 10906 10269 20181 39175 40126 81100 333 58010;EQDQ01  00002PRCP06
0208833440999992003050100004-14950-040880FM-12+0905SBQV V0200901N003112200019N0040001N1+02011+01761101611ADDAA106000091GA1001+999999999GF100991001001999999001001KA1240M+02811MA1999999091961MD1999999+0081REMSYN082AAXX  01004 83344 32996 00906 10201 20176 39196 40161 333 10281 29078 55077 58008;EQDQ01  00002PRCP06
0186833440999992003050112004-14950-040880FM-12+0905SBQV V0200901N002110075019N0200001N1+02331+01741101751ADDAA106000091GF106991061011008001001001KA1240N+01681MA1999999092101MD1999999+0051REMSYN076AAXX  01124 83344 32598 60904 10233 20174 39210 40175 86100 333 20168 58005;EQDQ01  00002PRCP06
0167833440999992003050118004-14950-040880FM-12+0905SBQV V0201401N002612200019N0200001N1+02731+01651101131ADDAA106000091GF105991021001022501081011MA1999999091611MD1999999-0141REMSYN070AAXX  01184 83344 32898 51405 10273 20165 39161 40113 82081 333 59014;EQDQ01  00002PRCP06
0208833440999992003050200004-14950-040880FM-12+0905SBQV V0200901N001012200019N0040001N1+01931+01701101271ADDAA106000091GA1001+999999999GF100991001001999999001001KA1240M+02811MA1999999091791MD1999999+0171REMSYN082AAXX  02004 83344 32996 00902 10193 20170 39179 40127 333 10281 29074 55098 58017;EQDQ01  00002PRCP06
0196833440999992003050212004-14950-040880FM-12+0905SBQV V0203601N002112200019N0200001N1+02451+01791101351ADDAA106000091GA1001+999999999GF100991001001999999001001KA1240N+01531MA1999999091791MD1999999-0311REMSYN070AAXX  02124 83344 32998 03604 10245 20179 39179 40135 333 20153 59031;EQDQ01  00002PRCP06
0167833440999992003050218004-14950-040880FM-12+0905SBQV V0201401N001512200019N0200001N1+02871+01681100801ADDAA106000091GF103991031021004501001001MA1999999091331MD1999999-0281REMSYN070AAXX  02184 83344 32498 31403 10287 20168 39133 40080 83200 333 59028;EQDQ01  00002PRCP06
0208833440999992003050300004-14950-040880FM-12+0905SBQV V0203601N002612200019N0100001N1+01951+01791100921ADDAA106000091GA1001+999999999GF100991001001999999001001KA1240M+03051MA1999999091401MD1999999-0391REMSYN082AAXX  03004 83344 32997 03605 10195 20179 39140 40092 333 10305 29074 55093 59039;EQDQ01  00002PRCP06
0186833440999992003050312004-14950-040880FM-12+0905SBQV V0203601N003610120019N0200001N1+02671+01791101121ADDAA106000091GF105991051001012501081001KA1240N+01891MA1999999091621MD1999999-0171REMSYN076AAXX  03124 83344 32698 53607 10267 20179 39162 40112 85080 333 20189 59017;EQDQ01  00002PRCP06
0167833440999992003050318004-14950-040880FM-12+0905SBQV V0201401N004112200019N0200001N1+02611+01791100811ADDAA106000091GF104991021011004501081001MA1999999091341MD1999999+0011REMSYN070AAXX  03184 83344 32498 41408 10261 20179 39134 40081 82180 333 58001;EQDQ01  00002PRCP06
0198833440999992003050400004-14950-040880FM-12+0905SBQV V0200901N003110120019N0040001N1+02031+01891101141ADDAA106000091GF107991071051012501001001KA1240M+02991MA1999999091651MD1999999+0241REMSYN088AAXX  04004 83344 32696 70906 10203 20189 39165 40114 87500 333 10299 29076 55078 58024;EQDQ01  00002PRCP06
0186833440999992003050412004-14950-040880FM-12+0905SBQV V0201401N003110042019N0200001N1+01771+01561101641ADDAA106000091GF108991081071004501999999KA1240N+01531MA1999999091941MD1999999+0321REMSYN076AAXX  04124 83344 32498 81406 10177 20156 39194 40164 887// 333 20153 58032;EQDQ01  00002PRCP06
0167833440999992003050418004-14950-040880FM-12+0905SBQV V0201401N003110450019N0200001N1+02271+01731101421ADDAA106000091GF106991031011008001081011MA1999999091741MD1999999+0401REMSYN070AAXX  04184 83344 32598 61406 10227 20173 39174 40142 83181 333 58040;EQDQ01  00002PRCP06
0198833440999992003050500004-14950-040880FM-12+0905SBQV V0200901N002112200019N0040001N1+01911+01711101711ADDAA106000091GF104991041001012501051001KA1240M+02351MA1999999091971MD1999999+0321REMSYN088AAXX  05004 83344 32696 40904 10191 20171 39197 40171 84050 333 10235 29085 55018 58032;EQDQ01  00002PRCP06
0190833440999992003050512004-14950-040880FM-12+0905SBQV V0201401N003110042019N0040001N1+01841+01761101821ADDAY151061AY241061GF108991081071004501999999KA1240N+01571MA1999999092071MD1999999+0131MW1051REMSYN088AAXX  05124 83344 21496 81406 10184 20176 39207 40182 70554 887// 333 20157 58013 69924;
0167833440999992003050518004-14950-040880FM-12+0905SBQV V0201401N003610042019N0100001N1+02201+01691101441ADDAA106000091GF108991081071004501999999MA1999999091771MD1999999+0031REMSYN070AAXX  05184 83344 32497 81407 10220 20169 39177 40144 887// 333 58003;EQDQ01  00002PRCP06
0198833440999992003050600004-14950-040880FM-12+0905SBQV V0201401N002112200019N0040001N1+01871+01711101571ADDAA106000091GF103991031021004501001001KA1240M+02351MA1999999091851MD1999999-0121REMSYN088AAXX  06004 83344 32496 31404 10187 20171 39185 40157 83200 333 10235 29087 55005 59012;EQDQ01  00002PRCP06
0186833440999992003050612004-14950-040880FM-12+0905SBQV V0200501N001512200019N0200001N1+02161+01631101541ADDAA106000091GF102991021011004501001001KA1240N+01421MA1999999091921MD1999999-0151REMSYN076AAXX  06124 83344 32498 20503 10216 20163 39192 40154 82100 333 20142 59015;EQDQ01  00002PRCP06
0167833440999992003050618004-14950-040880FM-12+0905SBQV V0200901N001512200019N0200001N1+02771+01801101011ADDAA106000091GF103991021011004501061001MA1999999091461MD1999999-0311REMSYN070AAXX  06184 83344 32498 30903 10277 20180 39146 40101 82160 333 59031;EQDQ01  00002PRCP06
0208833440999992003050700004-14950-040880FM-12+0905SBQV V0203601N001512200019N0040001N1+02011+01801101211ADDAA106000091GA1001+999999999GF100991001001999999001001KA1240M+02931MA1999999091621MD1999999-0231REMSYN082AAXX  07004 83344 32996 03603 10201 20180 39162 40121 333 10293 29076 55085 59023;EQDQ01  00002PRCP06
0186833440999992003050712004-14950-040880FM-12+0905SBQV V0203601N003119999999N0200001N1+02431+01911101241ADDAA106000091GF106991001001999999001041KA1240N+01741MA1999999091691MD1999999-0231REMSYN076AAXX  07124 83344 32998 63606 10243 20191 39169 40124 80004 333 20174 59023;EQDQ01  00002PRCP06
0167833440999992003050718004-14950-040880FM-12+0905SBQV V0201801N002110450019N0200001N1+02751+01951101021ADDAA106000091GF106991041021008001041001MA1999999091431MD1999999-0031REMSYN070AAXX  07184 83344 32598 61804 10275 20195 39143 40102 84240 333 59003;EQDQ01  00002PRCP06
0202833440999992003050800004-14950-040880FM-12+0905SBQV V0202301N001510021019N0100001N1+02121+01921101301ADDAY181061AY261061GF108991081071002501999999KA1240M+03051MA1999999091761MD1999999+0141MW1021REMSYN100AAXX  08004 83344 21397 82303 10212 20192 39176 40130 70286 887// 333 10305 29080 55064 58014 60031;
0162833440999992003050812004-14950-040880FM-12+0905SBQV V0203601N002610450019N0200001N1+02491+02051101351ADDGF107991021041004501031001KA1240N+01801MA1999999091831MD1999999+0141REMSYN082AAXX  08124 83344 22498 73605 10249 20205 39183 40135 82430 333 20180 58014 60034;
0171833440999992003050818004-14950-040880FM-12+0905SBQV V0200901N002110042019N0100001N1+02271+02121101121ADDAY161061AY221061GF107991071071004501001001MA1999999091551MD1999999+0121MW1011REMSYN082AAXX  08184 83344 21497 70904 10227 20212 39155 40112 70162 87700 333 58012 60131;
0202833440999992003050900004-14950-040880FM-12+0905SBQV V0200901N000510042019N0020001N1+02131+02101101601ADDAY161061AY251061GF108991081071004501999999KA1240M+02751MA1999999091851MD1999999+0091MW1621REMSYN100AAXX  09004 83344 21495 80901 10213 20210 39185 40160 76265 887// 333 10275 29092 55031 58009 60011;
0190833440999992003050912004-14950-040880FM-12+0905SBQV V0200501N002110042019N0100001N1+02211+01971101551ADDAY161061AY251061GF108991081071004501999999KA1240N+01871MA1999999091971MD1999999+0141MW1031REMSYN088AAXX  09124 83344 21497 80504 10221 20197 39197 40155 70365 887// 333 20187 58014 60164;
0167833440999992003050918004-14950-040880FM-12+0905SBQV V0201401N002610042019N0200001N1+02431+02211101211ADDAA106000091GF108991081071004501999999MA1999999091661MD1999999+0111REMSYN070AAXX  09184 83344 32498 81405 10243 20221 39166 40121 887// 333 58011;EQDQ01  00002PRCP06
0198833440999992003051000004-14950-040880FM-12+0905SBQV V0201401N004110021019N0020001N1+01891+01831101551ADDAA106000091GF108991081071002501999999KA1240M+02531MA1999999091951MD1999999+0101REMSYN088AAXX  10004 83344 32395 81408 10189 20183 39195 40155 887// 333 10253 29092 55018 58010;EQDQ01  00002PRCP06
0167833440999992003051018004-14950-040880FM-12+0905SBQV V0201401N004110042019N0100001N1+01951+01641101651ADDAA106000091GF108991081071004501999999MA1999999091951MD1999999+0291REMSYN070AAXX  10184 83344 32497 81408 10195 20164 39195 40165 887// 333 58029;EQDQ01  00002PRCP06
0198833440999992003051100004-14950-040880FM-12+0905SBQV V0201401N001510042019N0040001N1+01791+01631101851ADDAA106000091GF108991081071004501999999KA1240M+02051MA1999999092081MD1999999+0131REMSYN088AAXX  11004 83344 32496 81403 10179 20163 39208 40185 887// 333 10205 29087 55000 58013;EQDQ01  00002PRCP06
0190833440999992003051112004-14950-040880FM-12+0905SBQV V0201801N003110021019N0020001N1+01771+01611101131ADDAY151061AY221061GF108991081071002501999999KA1240N+01411MA1999999092341MD1999999+0151MW1501REMSYN088AAXX  11124 83344 21395 81806 10177 20161 39234 40113 75052 887// 333 20141 58015 69914;
0148833440999992003051118004-14950-040880FM-12+0905SBQV V0201401N005110042019N0200001N1+02001+01641101891ADDAA106000021GF107991071071004501001001MA1999999092081MD1999999+0131REMSYN070AAXX  11184 83344 32498 71410 10200 20164 39208 40189 87700 333 58013;
0198833440999992003051200004-14950-040880FM-12+0905SBQV V0201401N003110042019N0040001N1+01711+01651102021ADDAA106000091GF108991081071004501999999KA1240M+02091MA1999999092221MD1999999+0141REMSYN088AAXX  12004 83344 32496 81406 10171 20165 39222 40202 887// 333 10209 29091 55025 58014;EQDQ01  00002PRCP06
0186833440999992003051212004-14950-040880FM-12+0905SBQV V0201401N004610042019N0100001N1+01971+01941102021ADDAA106000091GF108991081051004501999999KA1240N+01401MA1999999092301MD1999999-0041REMSYN076AAXX  12124 83344 32497 81409 10197 20194 39230 40202 885// 333 20140 59004;EQDQ01  00002PRCP06
0167833440999992003051218004-14950-040880FM-12+0905SBQV V0201401N003110042019N0200001N1+02161+01571101751ADDAA106000091GF108991081051004501999999MA1999999092011MD1999999-0071REMSYN070AAXX  12184 83344 32498 81406 10216 20157 39201 40175 885// 333 59007;EQDQ01  00002PRCP06
0198833440999992003051300004-14950-040880FM-12+0905SBQV V0201401N001510120019N0040001N1+01631+01491101951ADDAA106000091GF105991051001012501091001KA1240M+02251MA1999999092111MD1999999-0111REMSYN088AAXX  13004 83344 32696 51403 10163 20149 39211 40195 85090 333 10225 29088 55033 59011;EQDQ01  00002PRCP06
0190833440999992003051312004-14950-040880FM-12+0905SBQV V0201401N003110042019N0040001N1+01771+01711102001ADDAY151061AY221061GF108991081071004501999999KA1240N+01581MA1999999092151MD1999999-0151MW1201REMSYN088AAXX  13124 83344 21496 81406 10177 20171 39215 40200 72052 887// 333 20158 59015 69924;
0171833440999992003051318004-14950-040880FM-12+0905SBQV V0201401N003110042019N0040001N1+02031+01801101631ADDAY151061AY221061GF108991081071004501999999MA1999999091901MD1999999-0111MW1021REMSYN082AAXX  13184 83344 21496 81406 10203 20180 39190 40163 70252 887// 333 59011 69911;
0202833440999992003051400004-14950-040880FM-12+0905SBQV V0201401N003110021019N0020001N1+01791+01761101861ADDAY151061AY221061GF108991081071002501999999KA1240M+02191MA1999999092191MD1999999-0021MW1511REMSYN100AAXX  14004 83344 21395 81406 10179 20176 39219 40186 75152 887// 333 10219 29096 55051 59002 69931;
0162833440999992003051412004-14950-040880FM-12+0905SBQV V0200901N005110450019N0100001N1+01871+01641101841ADDGF107991031061004501041081KA1240N+01701MA1999999092091MD1999999-0061REMSYN082AAXX  14124 83344 22497 70910 10187 20164 39209 40184 83648 333 20170 59006 69944;
0167833440999992003051418004-14950-040880FM-12+0905SBQV V0201801N003110042019N0200001N1+02091+01781101601ADDAA106000091GF108991081051004501999999MA1999999091901MD1999999+0001REMSYN070AAXX  14184 83344 32498 81806 10209 20178 39190 40160 885// 333 58000;EQDQ01  00002PRCP06
0198833440999992003051500004-14950-040880FM-12+0905SBQV V0201401N002110450019N0100001N1+01931+01801101821ADDAA106000091GF106991041041008001031001KA1240M+02211MA1999999092321MD1999999-0041REMSYN088AAXX  15004 83344 32597 61404 10193 20180 39232 40182 84430 333 10221 29089 55008 59004;EQDQ01  00002PRCP06
0190833440999992003051512004-14950-040880FM-12+0905SBQV V0201401N003110042019N0100001N1+01911+01781101941ADDAY151061AY221061GF108991081071004501999999KA1240N+01801MA1999999092201MD1999999+0111MW1031REMSYN088AAXX  15124 83344 21497 81406 10191 20178 39220 40194 70352 887// 333 20180 58011 69944;
0171833440999992003051518004-14950-040880FM-12+0905SBQV V0201401N003110042019N0100001N1+02031+01901101661ADDAY151061AY221061GF108991081071004501999999MA1999999091971MD1999999+0071MW1021REMSYN082AAXX  15184 83344 21497 81406 10203 20190 39197 40166 70252 887// 333 58007 69941;
0202833440999992003051600004-14950-040880FM-12+0905SBQV V0201401N003610021019N0020001N1+01821+01751101851ADDAY151061AY221061GF108991081071002501999999KA1240M+02391MA1999999092101MD1999999+0051MW1501REMSYN100AAXX  16004 83344 21395 81407 10182 20175 39210 40185 75052 887// 333 10239 29095 55037 58005 60011;
0190833440999992003051612004-14950-040880FM-12+0905SBQV V0201401N006210042019N0200001N1+02821+01581101961ADDAY151061AY221061GF106991061071004501001001KA1240N+01551MA1999999092181MD1999999-0021MW1021REMSYN088AAXX  16124 83344 21498 61412 10282 20158 39218 40196 70252 86700 333 20155 59002 60024;
0171833440999992003051618004-14950-040880FM-12+0905SBQV V0201401N004110042019N0100001N1+01911+01881101651ADDAY161061AY251061GF107991071071004501001001MA1999999091901MD1999999-0071MW1211REMSYN082AAXX  16184 83344 21497 71408 10191 20188 39190 40165 72165 87700 333 59007 60011;
0202833440999992003051700004-14950-040880FM-12+0905SBQV V0201401N003110042019N0020001N1+01751+01721101791ADDAY161061AY251061GF108991081071004501999999KA1240M+02131MA1999999092031MD1999999-0071MW1501REMSYN100AAXX  17004 83344 21495 81406 10175 20172 39203 40179 75065 887// 333 10213 29096 55039 59007 60051;
0190833440999992003051712004-14950-040880FM-12+0905SBQV V0201401N005110021019N0010001N1+01671+01611101211ADDAY161061AY251061GF108991081071002501999999KA1240N+01581MA1999999091461MD1999999-0721MW1501REMSYN088AAXX  17124 83344 21394 81410 10167 20161 39146 40121 75065 887// 333 20158 59072 60094;
0171833440999992003051718004-14950-040880FM-12+0905SBQV V0201401N004110021019N0010001N1+01811+01751101531ADDAY151061AY241061GF108991081071002501999999MA1999999091761MD1999999-0271MW1411REMSYN082AAXX  17184 83344 21394 81408 10181 20175 39176 40153 74154 887// 333 59027 69941;
0202833440999992003051800004-14950-040880FM-12+0905SBQV V0201401N004610021019N0020001N1+01711+01671101831ADDAY151061AY221061GF108991081071002501999999KA1240M+01971MA1999999092031MD1999999+0001MW1501REMSYN100AAXX  18004 83344 21395 81409 10171 20167 39203 40183 75052 887// 333 10197 29097 55001 58000 69951;
0190833440999992003051812004-14950-040880FM-12+0905SBQV V0201401N004110450019N0200001N1+01791+01511101901ADDAY151061AY231061GF106991031041004501041041KA1240N+01451MA1999999092111MD1999999+0081MW1021REMSYN088AAXX  18124 83344 21498 61408 10179 20151 39211 40190 70253 83444 333 20145 58008 60014;
0167833440999992003051818004-14950-040880FM-12+0905SBQV V0201801N003610042019N0200001N1+02111+01601101561ADDAA106000091GF106991061041004501001001MA1999999091841MD1999999+0081REMSYN070AAXX  18184 83344 32498 61807 10211 20160 39184 40156 86400 333 58008;EQDQ01  00002PRCP06
0198833440999992003051900004-14950-040880FM-12+0905SBQV V0201401N003112200019N0040001N1+01731+01611101851ADDAA106000091GF104991041041004501001001KA1240M+02271MA1999999092061MD1999999+0031REMSYN088AAXX  19004 83344 32496 41406 10173 20161 39206 40185 84400 333 10227 29086 55082 58003;EQDQ01  00002PRCP06
0190833440999992003051912004-14950-040880FM-12+0905SBQV V0201401N005110042019N0040001N1+01811+01721101921ADDAY151061AY221061GF108991081071004501999999KA1240N+01531MA1999999092131MD1999999+0021MW1511REMSYN088AAXX  19124 83344 21496 81410 10181 20172 39213 40192 75152 887// 333 20153 58002 69924;
0171833440999992003051918004-14950-040880FM-12+0905SBQV V0201401N004110042019N0040001N1+01851+01791101691ADDAY151061AY221061GF108991081071004501999999MA1999999091921MD1999999+0081MW1511REMSYN082AAXX  19184 83344 21496 81408 10185 20179 39192 40169 75152 887// 333 58008 60011;
0212833440999992003052000004-14950-040880FM-12+0905SBQV V0200901N003112200019N0100001N1+01711+01651101841ADDAY151061AY221061GA1001+999999999GF100991001001999999001001KA1240M+01931MA1999999092051MD1999999-0011MW1021REMSYN094AAXX  20004 83344 21997 00906 10171 20165 39205 40184 70252 333 10193 29096 55000 59001 69911;
0190833440999992003052012004-14950-040880FM-12+0905SBQV V0201401N002610021019N0020001N1+01811+01701101911ADDAY151061AY221061GF108991081071002501999999KA1240N+01621MA1999999092121MD1999999-0011MW1051REMSYN088AAXX  20124 83344 21395 81405 10181 20170 39212 40191 70552 887// 333 20162 59001 60104;
0167833440999992003052018004-14950-040880FM-12+0905SBQV V0201401N004110042019N0200001N1+02371+01661101411ADDAA106000091GF105991051021004501001001MA1999999091781MD1999999-0141REMSYN070AAXX  20184 83344 32498 51408 10237 20166 39178 40141 85200 333 59014;EQDQ01  00002PRCP06
0198833440999992003052100004-14950-040880FM-12+0905SBQV V0200501N001012200019N0040001N1+01701+01681101761ADDAA106000091GF102991021021004501001001KA1240M+02341MA1999999091981MD1999999-0071REMSYN088AAXX  21004 83344 32496 20502 10170 20168 39198 40176 82200 333 10234 29089 55072 59007;EQDQ01  00002PRCP06
0186833440999992003052112004-14950-040880FM-12+0905SBQV V0200901N002610042019N0200001N1+01921+01641101801ADDAA106000091GF108991081051004501999999KA1240N+01641MA1999999092041MD1999999-0081REMSYN076AAXX  21124 83344 32498 80905 10192 20164 39204 40180 885// 333 20164 59008;EQDQ01  00002PRCP06
0167833440999992003052118004-14950-040880FM-12+0905SBQV V0201401N003112200019N0200001N1+02411+01701101271ADDAA106000091GF102991021011004501001001MA1999999091671MD1999999-0111REMSYN070AAXX  21184 83344 32498 21406 10241 20170 39167 40127 82100 333 59011;EQDQ01  00002PRCP06
0208833440999992003052200004-14950-040880FM-12+0905SBQV V02099999999992200019N0040001N1+01731+01671101611ADDAA106000091GA1001+999999999GF100991001001999999001001KA1240M+02491MA1999999091861MD1999999-0121REMSYN082AAXX  22004 83344 32996 0//// 10173 20167 39186 40161 333 10249 29086 55066 59012;EQDQ01  00002PRCP06
0186833440999992003052212004-14950-040880FM-12+0905SBQV V0200501N003119999999N0200001N1+02161+01661101751ADDAA106000091GF105991001001999999001011KA1240N+01381MA1999999092051MD1999999+0011REMSYN076AAXX  22124 83344 32998 50506 10216 20166 39205 40175 80001 333 20138 58001;EQDQ01  00002PRCP06
0167833440999992003052218004-14950-040880FM-12+0905SBQV V0201401N004612200019N0200001N1+02531+01821101331ADDAA106000091GF103991031011008001001001MA1999999091691MD1999999+0021REMSYN070AAXX  22184 83344 32598 31409 10253 20182 39169 40133 83100 333 58002;EQDQ01  00002PRCP06
0208833440999992003052300004-14950-040880FM-12+0905SBQV V0200901N000512200019N0100001N1+01931+01771101581ADDAA106000091GA1001+999999999GF100991001001999999001001KA1240M+02711MA1999999091941MD1999999+0081REMSYN082AAXX  23004 83344 32997 00901 10193 20177 39194 40158 333 10271 29080 55099 58008;EQDQ01  00002PRCP06
0186833440999992003052312004-14950-040880FM-12+0905SBQV V0200501N002612200019N0200001N1+02191+01901101621ADDAA106000091GF103991021011004501051001KA1240N+01481MA1999999091971MD1999999-0081REMSYN076AAXX  23124 83344 32498 30505 10219 20190 39197 40162 82150 333 20148 59008;EQDQ01  00002PRCP06
0167833440999992003052318004-14950-040880FM-12+0905SBQV V0201401N003110042019N0200001N1+02521+01841101171ADDAA106000091GF105991051021004501001001MA1999999091561MD1999999-0081REMSYN070AAXX  23184 83344 32498 51406 10252 20184 39156 40117 85200 333 59008;EQDQ01  00002PRCP06
0208833440999992003052400004-14950-040880FM-12+0905SBQV V0200501N004112200019N0100001N1+01971+01811101421ADDAA106000091GA1001+999999999GF100991001001999999001001KA1240M+02751MA1999999091791MD1999999-0151REMSYN082AAXX  24004 83344 32497 00508 10197 20181 39179 40142 333 10275 29083 55079 59015;EQDQ01  00002PRCP06
0186833440999992003052412004-14950-040880FM-12+0905SBQV V0203601N005112200019N0100001N1+02331+01741101251ADDAA106000091GF103991001001999999001051KA1240N+01641MA1999999091681MD1999999-0291REMSYN076AAXX  24124 83344 32997 33610 10233 20174 39168 40125 80005 333 20164 59029;EQDQ01  00002PRCP06
0167833440999992003052418004-14950-040880FM-12+0905SBQV V0202701N001510042019N0200001N1+02921+01711100681ADDAA106000091GF106991061021004501001001MA1999999091221MD1999999-0341REMSYN070AAXX  24184 83344 32498 62703 10292 20171 39122 40068 86200 333 59034;EQDQ01  00002PRCP06
0208833440999992003052500004-14950-040880FM-12+0905SBQV V0200901N002112200019N0040001N1+02121+01801100981ADDAA106000091GA1001+999999999GF100991001001999999001001KA1240M+02681MA1999999091451MD1999999-0341REMSYN082AAXX  25004 83344 32996 00904 10212 20180 39145 40098 333 10268 29070 55093 59034;EQDQ01  00002PRCP06
0186833440999992003052512004-14950-040880FM-12+0905SBQV V0200501N004112200019N0200001N1+02411+01891101131ADDAA106000091GF102991001001999999001051KA1240N+01861MA1999999091611MD1999999-0071REMSYN076AAXX  25124 83344 32998 20508 10241 20189 39161 40113 80005 333 20186 59007;EQDQ01  00002PRCP06
0167833440999992003052518004-14950-040880FM-12+0905SBQV V0203201N002612200019N0200001N1+03111+01731100671ADDAA106000091GF105991031021008001001081MA1999999091291MD1999999+0071REMSYN070AAXX  25184 83344 32598 53205 10311 20173 39129 40067 83208 333 58007;EQDQ01  00002PRCP06
0206833440999992003052600004-14950-040880FM-12+0905SBQV V0201801N002112200019N0040001N1+02091+01841101101ADDAY191061AY211061GA1001+999999999GF100991001001999999001001KA1240M+03191MA1999999091581MD1999999+0131MW1131REMSYN088AAXX  26004 83344 21996 01804 10209 20184 39158 40110 71391 333 10319 29072 55091 58013;
0202833440999992003052612004-14950-040880FM-12+0905SBQV V0203601N003619999999N0200001N1+02491+02051101241ADDAA106000091GF105991001001999999001091KA1240N+01841MA1999999091731MD1999999+0121REMSYN076AAXX  26124 83344 32498 53607 10249 20205 39173 40124 80009 333 20184 58012;EQDQ01+004502SCOLCBQ02  00002PRCP06
0171833440999992003052618004-14950-040880FM-12+0905SBQV V0200901N002610450019N0200001N1+02401+01991101051ADDAY161061AY201061GF106991031041004501051051MA1999999091501MD1999999+0211MW1021REMSYN082AAXX  26184 83344 21498 60905 10240 20199 39150 40105 70260 83455 333 58021 60021;
0202833440999992003052700004-14950-040880FM-12+0905SBQV V0201401N003110042019N0040001N1+02051+01971101441ADDAY161061AY251061GF106991061091004501001001KA1240M+02951MA1999999091911MD1999999+0321MW1021REMSYN100AAXX  27004 83344 21496 61406 10205 20197 39191 40144 70265 86900 333 10295 29087 55065 58032 60111;
0190833440999992003052712004-14950-040880FM-12+0905SBQV V0200901N001510042019N0100001N1+01811+01771101921ADDAY121061AY221061GF108991081071004501999999KA1240N+01741MA1999999092211MD1999999+0481MW1161REMSYN088AAXX  27124 83344 21497 80903 10181 20177 39221 40192 71622 887// 333 20174 58048 60134;
0167833440999992003052718004-14950-040880FM-12+0905SBQV V0200901N002110042019N0200001N1+02171+01881101621ADDAA106000091GF105991051041004501001001MA1999999091941MD1999999+0441REMSYN070AAXX  27184 83344 32498 50904 10217 20188 39194 40162 85400 333 58044;EQDQ01  00002PRCP06
0208833440999992003052800004-14950-040880FM-12+0905SBQV V0200901N003112200019N0040001N1+01871+01741101891ADDAA106000091GA1001+999999999GF100991001001999999001001KA1240M+02281MA1999999092141MD1999999+0231REMSYN082AAXX  28004 83344 32996 00906 10187 20174 39214 40189 333 10228 29092 55014 58023;EQDQ01  00002PRCP06
0190833440999992003052812004-14950-040880FM-12+0905SBQV V0200901N002110042019N0040001N1+01971+01681101881ADDAY151061AY211061GF108991081071004501999999KA1240N+01801MA1999999092171MD1999999-0041MW1501REMSYN088AAXX  28124 83344 21496 80904 10197 20168 39217 40188 75051 887// 333 20180 59004 60014;
0171833440999992003052818004-14950-040880FM-12+0905SBQV V0201801N002110042019N0040001N1+01931+01891101661ADDAY151061AY221061GF108991081071004501999999MA1999999091971MD1999999+0031MW1521REMSYN082AAXX  28184 83344 21496 81804 10193 20189 39197 40166 75252 887// 333 58003 60021;
0179833440999992003052900004-14950-040880FM-12+0905SBQV V0200901N003112200019N0040001N1+01771+01681101851ADDAA106000021GF103991031001012501071001KA1240M+02291MA1999999092101MD1999999-0041REMSYN088AAXX  29004 83344 32696 30906 10177 20168 39210 40185 83070 333 10229 29096 55004 59004;
0190833440999992003052912004-14950-040880FM-12+0905SBQV V0201401N004110042019N0100001N1+01851+01621101971ADDAY151061AY221061GF108991081071004501999999KA1240N+01611MA1999999092211MD1999999+0041MW1601REMSYN088AAXX  29124 83344 21497 81408 10185 20162 39221 40197 76052 887// 333 20161 58004 60054;
0148833440999992003052918004-14950-040880FM-12+0905SBQV V0201401N004610042019N0100001N1+02111+01621101601ADDAA106000021GF108991081071004501999999MA1999999091871MD1999999+0101REMSYN070AAXX  29184 83344 32497 81409 10211 20162 39187 40160 887// 333 58010;
0198833440999992003053000004-14950-040880FM-12+0905SBQV V0201401N002610042019N0040001N1+01811+01631101871ADDAA106000091GF107991071071004501001001KA1240M+02251MA1999999092111MD1999999+0011REMSYN088AAXX  30004 83344 32496 71405 10181 20163 39211 40187 87700 333 10225 29085 55012 58001;EQDQ01  00002PRCP06
0186833440999992003053012004-14950-040880FM-12+0905SBQV V0201401N004110042019N0100001N1+01831+01551102001ADDAA106000091GF108991081071004501999999KA1240N+01541MA1999999092221MD1999999+0011REMSYN076AAXX  30124 83344 32497 81408 10183 20155 39222 40200 887// 333 20154 58001;EQDQ01  00002PRCP06
0139833440999992003053014004-14950-040880FM-15+0905SBQV V0201401N009312200019N0112651N1+02001+01501999999ADDGA1041+004809999GF104991999999999999999999MA1102401999999MW1001REMMET045SBQV 301400Z 14018KT 9999 SCT016 20/15 Q1024;EQDQ01+000000PRSWM2
0139833440999992003053015004-14950-040880FM-15+0905SBQV V0201601N007712200019N0112651N1+02101+01501999999ADDGA1041+004809999GF104991999999999999999999MA1102301999999MW1001REMMET045SBQV 301500Z 16015KT 9999 SCT016 21/15 Q1023;EQDQ01+000000PRSWM2
0139833440999992003053016004-14950-040880FM-15+0905SBQV V0201501N007212200019N0112651N1+02201+01501999999ADDGA1041+004809999GF104991999999999999999999MA1102301999999MW1001REMMET045SBQV 301600Z 15014KT 9999 SCT016 22/15 Q1023;EQDQ01+000000PRSWM2
0162833440999992003053017004-14950-040880FM-15+0905SBQV V0201501N008712200019N0112651N1+02301+01501999999ADDGA1021+004809999GA2041+027009999GF104991999999999999999999MA1102201999999MW1001REMMET052SBQV 301700Z 15017KT 9999 FEW016 SCT090 23/15 Q1022;EQDQ01+000000PRSWM2
0279833440999992003053018004-14950-040880SY-MT+0905SBQV V0201401N00511027001CN0200001N1+02171+01541101941ADDAA106000091GA1041+004809999GA2041+027009999GF106991031071004501071001MA1102101091971MD1999999+0101MW1001REMSYN070AAXX  30184 83344 32498 61410 10217 20154 39197 40194 83770 333 58010;MET052SBQV 301800Z 15010KT 9999 SCT016 SCT090 23/15 Q1021;EQDQ01+000000PRSWM2Q02  00002PRCP06
0198833440999992003053100004-14950-040880FM-12+0905SBQV V0201401N002610042019N0100001N1+01831+01641101871ADDAA106000091GF108991081071004501999999KA1240M+02251MA1999999092121MD1999999+0011REMSYN088AAXX  31004 83344 32497 81405 10183 20164 39212 40187 887// 333 10225 29083 55063 58001;EQDQ01  00002PRCP06
0186833440999992003053112004-14950-040880FM-12+0905SBQV V0201401N005110042019N0200001N1+01851+01491102061ADDAA106000091GF107991071071004501001001KA1240N+01581MA1999999092291MD1999999+0071REMSYN076AAXX  31124 83344 32498 71410 10185 20149 39229 40206 87700 333 20158 58007;EQDQ01  00002PRCP06
0167833440999992003053118004-14950-040880FM-12+0905SBQV V0201401N005110450019N0200001N1+02131+01551101781ADDAA106000091GF107991031071004501051001MA1999999092041MD1999999+0071REMSYN070AAXX  31184 83344 32498 71410 10213 20155 39204 40178 83750 333 58007;EQDQ01  00002PRCP06
0198833440999992003060100004-14950-040880FM-12+0905SBQV V0201401N002110042019N0100001N1+01851+01531101951ADDAA106000091GF108991081071004501999999KA1240M+02221MA1999999092191MD1999999+0071REMSYN088AAXX  01004 83344 32497 81404 10185 20153 39219 40195 887// 333 10222 29078 55059 58007;EQDQ01  00002PRCP06
0186833440999992003060112004-14950-040880FM-12+0905SBQV V0201401N003110042019N0100001N1+01781+01611102041ADDAA106000091GF108991081071004501999999KA1240N+01541MA1999999092241MD1999999-0051REMSYN076AAXX  01124 83344 32497 81406 10178 20161 39224 40204 887// 333 20154 59005;EQDQ01  00002PRCP06
0167833440999992003060118004-14950-040880FM-12+0905SBQV V0201401N002610042019N0100001N1+01871+01741101701ADDAA106000091GF108991081071004501999999MA1999999091951MD1999999-0091REMSYN070AAXX  01184 83344 32497 81405 10187 20174 39195 40170 887// 333 59009;EQDQ01  00002PRCP06
0198833440999992003060200004-14950-040880FM-12+0905SBQV V0201401N002110021019N0020001N1+01791+01681101891ADDAA106000091GF108991081071002501999999KA1240M+01961MA1999999092121MD1999999+0071REMSYN088AAXX  02004 83344 32395 81404 10179 20168 39212 40189 887// 333 10196 29093 55000 58007;EQDQ01  00002PRCP06
0186833440999992003060212004-14950-040880FM-12+0905SBQV V0201401N003110042019N0100001N1+01881+01731101951ADDAA106000091GF108991081051004501999999KA1240N+01701MA1999999092191MD1999999-0051REMSYN076AAXX  02124 83344 32497 81406 10188 20173 39219 40195 885// 333 20170 59005;EQDQ01  00002PRCP06
0167833440999992003060218004-14950-040880FM-12+0905SBQV V0201401N004110042019N0100001N1+02161+01801101561ADDAA106000091GF108991081071004501999999MA1999999091881MD1999999-0071REMSYN070AAXX  02184 83344 32497 81408 10216 20180 39188 40156 887// 333 59007;EQDQ01  00002PRCP06
0202833440999992003060300004-14950-040880FM-12+0905SBQV V0200901N002610042019N0020001N1+01851+01791101811ADDAY151061AY221061GF108991081051004501999999KA1240M+02191MA1999999092061MD1999999-0061MW1521REMSYN100AAXX  03004 83344 21495 80905 10185 20179 39206 40181 75252 885// 333 10219 29091 55000 59006 60011;
0152833440999992003060310004-14950-040880FM-15+0905SBQV V0201001N00411220001CN0112651N1+01801+01701999999ADDGA1071+001509999GA2041+021009999MA1102101999999MW1001REMMET052SBQV 031000Z 10008KT 9999 BKN005 SCT070 18/17 Q1021;EQDQ01+000042SCOTCVQ02+000000PRSWM2
0152833440999992003060311004-14950-040880FM-15+0905SBQV V0201001N00461220001CN0112651N1+01801+01801999999ADDGA1071+001809999GA2041+021009999MA1102201999999MW1001REMMET052SBQV 031100Z 10009KT 9999 BKN006 SCT070 18/18 Q1022;EQDQ01+000042SCOTCVQ02+000000PRSWM2
0190833440999992003060312004-14950-040880FM-12+0905SBQV V0201401N002610042019N0040001N1+01831+01771101861ADDAY151061AY221061GF108991081071004501999999KA1240N+01761MA1999999092111MD1999999-0081MW1161REMSYN088AAXX  03124 83344 21496 81405 10183 20177 39211 40186 71652 887// 333 20176 59008 60024;
0162833440999992003060316004-14950-040880FM-15+0905SBQV V0201001N004612200019N0112651N1+02401+01501999999ADDGA1041+006009999GA2041+090009999GF104991999999999999999999MA1102101999999MW1001REMMET052SBQV 031600Z 10009KT 9999 SCT020 SCT300 24/15 Q1021;EQDQ01+000000PRSWM2
0139833440999992003060317004-14950-040880FM-15+0905SBQV V0201301N005112200019N0112651N1+02501+01501999999ADDGA1021+006009999GF102991999999999999999999MA1102001999999MW1001REMMET045SBQV 031700Z 13010KT 9999 FEW020 25/15 Q1020;EQDQ01+000000PRSWM2
0256833440999992003060318004-14950-040880SY-MT+0905SBQV V0200901N003612200019N0200001N1+02371+01641101411ADDAA106000091GA1021+006009999GF106991031011008001001011MA1101901091781MD1999999-0101MW1001REMSYN070AAXX  03184 83344 32598 60907 10237 20164 39178 40141 83101 333 59010;MET045SBQV 031800Z 13006KT 9999 FEW020 25/14 Q1019;EQDQ01+000000PRSWM2Q02  00002PRCP06
0139833440999992003060319004-14950-040880FM-15+0905SBQV V0201301N006212200019N0112651N1+02401+01501999999ADDGA1021+006009999GF102991999999999999999999MA1101901999999MW1001REMMET045SBQV 031900Z 13012KT 9999 FEW020 24/15 Q1019;EQDQ01+000000PRSWM2
0091833440999992003060320004-14950-040880FM-15+0905SBQV V0201401N00621220001CN0099001N1+02301+01601999999ADDMA1102001999999MW1001REMMET039SBQV 032000Z 14012KT CAVOK 23/16 Q1020;EQDQ01+000000PRSWM2
0208833440999992003060400004-14950-040880FM-12+0905SBQV V0200901N003112200019N0100001N1+01691+01601101721ADDAA106000091GA1001+999999999GF100991001001999999001001KA1240M+02471MA1999999091951MD1999999-0111REMSYN082AAXX  04004 83344 32997 00906 10169 20160 39195 40172 333 10247 29088 55064 59011;EQDQ01  00002PRCP06
0186833440999992003060412004-14950-040880FM-12+0905SBQV V0201401N002610042019N0100001N1+01971+01791101821ADDAA106000091GF108991081071004501999999KA1240N+01451MA1999999092071MD1999999-0041REMSYN076AAXX  04124 83344 32497 81405 10197 20179 39207 40182 887// 333 20145 59004;EQDQ01  00002PRCP06
0088833440999992003060413004-14950-040880FM-15+0905SBQV V0201501N005112200019N0060001N1+99999+99999999999ADDMW1001REMMET051SBQV 041300Z 15010KT 6000E VCSH BKN010 20/18 Q1023;EQDQ01+000000PRSWM2
0167833440999992003060418004-14950-040880FM-12+0905SBQV V0201401N004610450019N0200001N1+02251+01901101551ADDAA106000091GF106991041041004501051001MA1999999091811MD1999999+0031REMSYN070AAXX  04184 83344 32498 61409 10225 20190 39181 40155 84450 333 58003;EQDQ01  00002PRCP06
0198833440999992003060500004-14950-040880FM-12+0905SBQV V0200901N002612200019N0040001N1+01731+01571101741ADDAA106000091GF104991041001012501091001KA1240M+02431MA1999999092001MD1999999+0051REMSYN088AAXX  05004 83344 32696 40905 10173 20157 39200 40174 84090 333 10243 29088 55046 58005;EQDQ01  00002PRCP06
0209833440999992003060512004-14950-040880FM-12+0905SBQV V0200901N003612200019N0200001N1+01931+01731101881ADDAY151061AY221061GF104991999021004501001001KA1240N+01601MA1999999092131MD1999999+0061MW1011REMSYN088AAXX  05124 83344 21498 40907 10193 20173 39213 40188 70152 83200 333 20160 58006 60014;EQDQ01+000032SCOTLC
0171833440999992003060518004-14950-040880FM-12+0905SBQV V0201401N003110021019N0040001N1+01911+01801101741ADDAY151061AY211061GF108991081071002501999999MA1999999091961MD1999999+0151MW1201REMSYN082AAXX  05184 83344 21396 81406 10191 20180 39196 40174 72051 887// 333 58015 69921;
0179833440999992003060600004-14950-040880FM-12+0905SBQV V0201401N002110042019N0100001N1+01761+01561101861ADDAA106000021GF106991061061004501001001KA1240M+02311MA1999999092111MD1999999+0111REMSYN088AAXX  06004 83344 32497 61404 10176 20156 39211 40186 86600 333 10231 29090 55021 58011;
0203833440999992003060612004-14950-040880FM-12+0905SBQV V0201401N003110021019N0040001N1+01721+99999999999ADDAY121061AY221061GF108991081071002501999999KA1240N+01581MD1999999+0001ME1431629MW1161REMSYN088AAXX  06124 83344 21396 81406 10172 2//// 34019 47162 71622 887// 333 20158 58000 69924;EQDQ01+040191APOSP 
0167833440999992003060618004-14950-040880FM-12+0905SBQV V0201401N002110450019N0200001N1+02151+01611101581ADDAA106000091GF107991041071002501071001MA1999999091881MD1999999-0081REMSYN070AAXX  06184 83344 32398 71404 10215 20161 39188 40158 84770 333 59008;EQDQ01  00002PRCP06
0202833440999992003060700004-14950-040880FM-12+0905SBQV V0201401N001010021019N0020001N1+01791+01761101841ADDAY161061AY251061GF108991081071002501999999KA1240M+02391MA1999999092071MD1999999-0041MW1211REMSYN100AAXX  07004 83344 21395 81402 10179 20176 39207 40184 72165 887// 333 10239 29091 55045 59004 60011;
0186833440999992003060712004-14950-040880FM-12+0905SBQV V0200901N004110042019N0200001N1+01941+01701101831ADDAA106000091GF105991051021004501001001KA1240N+01581MA1999999092081MD1999999-0051REMSYN076AAXX  07124 83344 32498 50908 10194 20170 39208 40183 85200 333 20158 59005;EQDQ01  00002PRCP06
0167833440999992003060718004-14950-040880FM-12+0905SBQV V0201401N003110042019N0200001N1+02071+01741101521ADDAA106000091GF108991081051004501999999MA1999999091801MD1999999-0081REMSYN070AAXX  07184 83344 32498 81406 10207 20174 39180 40152 885// 333 59008;EQDQ01  00002PRCP06
0202833440999992003060800004-14950-040880FM-12+0905SBQV V0201901N003110120019N0100001N1+01781+01681101711ADDAY151061AY221061GF106991061001012501051001KA1240M+02171MA1999999091971MD1999999-0101MW1021REMSYN100AAXX  08004 83344 21697 61906 10178 20168 39197 40171 70252 86050 333 10217 29089 55020 59010 60011;
0162833440999992003060812004-14950-040880FM-12+0905SBQV V0200901N003112200019N0200001N1+01951+01551101821ADDGF104991041001012501061001KA1240N+01301MA1999999092071MD1999999-0011REMSYN082AAXX  08124 83344 22698 40906 10195 20155 39207 40182 84060 333 20130 59001 60014;
0167833440999992003060818004-14950-040880FM-12+0905SBQV V0201401N004112200019N0200001N1+02301+01611101591ADDAA106000091GF104991041021004501001001MA1999999091861MD1999999+0061REMSYN070AAXX  08184 83344 32498 41408 10230 20161 39186 40159 84200 333 58006;EQDQ01  00002PRCP06
0198833440999992003060900004-14950-040880FM-12+0905SBQV V0201401N002112200019N0100001N1+01641+01531101831ADDAA106000091GF104991041001012501051001KA1240M+02391MA1999999092061MD1999999+0091REMSYN088AAXX  09004 83344 32697 41404 10164 20153 39206 40183 84050 333 10239 29082 55086 58009;EQDQ01  00002PRCP06
0190833440999992003060912004-14950-040880FM-12+0905SBQV V0201401N004110021019N0040001N1+01831+01771102201ADDAY161061AY251061GF108991081071002501999999KA1240N+01561MA1999999092201MD1999999+0131MW1201REMSYN088AAXX  09124 83344 21396 81408 10183 20177 39220 40220 72065 887// 333 20156 58013 60014;
0148833440999992003060918004-14950-040880FM-12+0905SBQV V0201401N004110075019N0200001N1+02171+01781101661ADDAA106000021GF105991051041008001001001MA1999999091931MD1999999+0071REMSYN070AAXX  09184 83344 32598 51408 10217 20178 39193 40166 85400 333 58007;
0202833440999992003061000004-14950-040880FM-12+0905SBQV V0200901N003110021019N0040001N1+01781+01721101881ADDAY161061AY251061GF108991081071002501999999KA1240M+02321MA1999999092111MD1999999-0051MW1201REMSYN100AAXX  10004 83344 21396 80906 10178 20172 39211 40188 72065 887// 333 10232 29092 55060 59005 60041;
0190833440999992003061012004-14950-040880FM-12+0905SBQV V0201401N003610450019N0200001N1+01831+01621102001ADDAY151061AY221061GF106991041021004501051001KA1240N+01501MA1999999092221MD1999999+0001MW1021REMSYN088AAXX  10124 83344 21498 61407 10183 20162 39222 40200 70252 84250 333 20150 58000 60064;
0167833440999992003061018004-14950-040880FM-12+0905SBQV V0201401N005110042019N0200001N1+02171+01631101611ADDAA106000091GF106991061071004501001001MA1999999091931MD1999999+0001REMSYN070AAXX  10184 83344 32498 61410 10217 20163 39193 40161 86700 333 58000;EQDQ01  00002PRCP06
0202833440999992003061100004-14950-040880FM-12+0905SBQV V0201401N002110021019N0040001N1+01751+01691101741ADDAY151061AY221061GF108991081071002501999999KA1240M+02231MA1999999092061MD1999999-0051MW1031REMSYN100AAXX  11004 83344 21396 81404 10175 20169 39206 40174 70352 887// 333 10223 29088 55030 59005 69961;
0139833440999992003061110004-14950-040880FM-15+0905SBQV V0201301N004110015019N0112651N1+01601+01601999999ADDGA1071+001509999GF107991999999999999999999MA1102201999999MW1001REMMET045SBQV 111000Z 13008KT 9999 BKN005 16/16 Q1022;EQDQ01+000000PRSWM2
0159833440999992003061111004-14950-040880FM-15+0905SBQV V0201301N003110015019N0050001N1+01701+01701999999ADDGA1071+001509999GF107991999999999999999999MA1102301999999MW1511REMMET049SBQV 111100Z 13006KT 5000 -DZ BKN005 17/17 Q1023;EQDQ01+000003PRSWM1Q02    003PRSWM1
0190833440999992003061112004-14950-040880FM-12+0905SBQV V0201401N003110042019N0100001N1+01831+01761102011ADDAY151061AY221061GF106991061051004501001001KA1240N+01451MA1999999092231MD1999999+0011MW1011REMSYN088AAXX  11124 83344 21497 61406 10183 20176 39223 40201 70152 86500 333 20145 58001 60014;
0139833440999992003061113004-14950-040880FM-15+0905SBQV V0201601N005112200019N0112651N1+02001+01701999999ADDGA1041+003909999GF104991999999999999999999MA1102301999999MW1001REMMET045SBQV 111300Z 16010KT 9999 SCT013 20/17 Q1023;EQDQ01+000000PRSWM2
0154833440999992003061118004-14950-040880FM-12+0905SBQV V0201401N003112200019N0200001N1+02311+01461999999ADDAA106000091GF101991999999004501999999REMSYN070AAXX  11184 83344 32498 11406 10231 20146 32170 39105 40153 333 59008;EQDQ01+021701APOSP Q02  00002PRCP06
0198833440999992003061200004-14950-040880FM-12+0905SBQV V0200901N000512200019N0040001N1+01571+01411101691ADDAA106000091GF104991041041004501001001KA1240M+02391MA1999999091901MD1999999-0161REMSYN088AAXX  12004 83344 32496 40901 10157 20141 39190 40169 84400 333 10239 29084 55078 59016;EQDQ01  00002PRCP06
0139833440999992003061210004-14950-040880FM-15+0905SBQV V0201101N001512200019N0112651N1+01601+01601999999ADDGA1041+002109999GF104991999999999999999999MA1102101999999MW1001REMMET045SBQV 121000Z 11003KT 9999 SCT007 16/16 Q1021;EQDQ01+000000PRSWM2
0152833440999992003061211004-14950-040880FM-15+0905SBQV V0201001N00621220001CN0112651N1+01801+01601999999ADDGA1071+002409999GA2041+021009999MA1102101999999MW1001REMMET052SBQV 121100Z 10012KT 9999 BKN008 SCT070 18/16 Q1021;EQDQ01+000042SCOTCVQ02+000000PRSWM2
0291833440999992003061212004-14950-040880SY-MT+0905SBQV V0200901N00311003301CN0200001N1+01851+01581101821ADDAA106000091GA1071+003309999GF199999021041004501091001KA1240N+01401MA1102201092021MD1999999-0211MW1001REMSYN076AAXX  12124 83344 32498 60906 10185 20158 39202 40182 82490 333 20140 59021;MET045SBQV 121200Z 10011KT 9999 BKN011 19/17 Q1022;EQDQ01+000062SCOTCVQ02+000000PRSWM2Q03  00002PRCP06
0167833440999992003061218004-14950-040880FM-12+0905SBQV V0201801N002612200019N0200001N1+02391+01581101331ADDAA106000091GF104991011011004501081011MA1999999091671MD1999999-0181REMSYN070AAXX  12184 83344 32498 41805 10239 20158 39167 40133 81181 333 59018;EQDQ01  00002PRCP06
0208833440999992003061300004-14950-040880FM-12+0905SBQV V0200901N001512200019N0040001N1+01631+01391101671ADDAA106000091GA1001+999999999GF100991001001999999001001KA1240M+02491MA1999999091901MD1999999+0001REMSYN082AAXX  13004 83344 32996 00903 10163 20139 39190 40167 333 10249 29079 55077 58000;EQDQ01  00002PRCP06
0186833440999992003061312004-14950-040880FM-12+0905SBQV V0200901N002612200019N0200001N1+01991+01501101591ADDAA106000091GF102991001001999999001091KA1240N+01101MA1999999091851MD1999999+0171REMSYN076AAXX  13124 83344 32998 20905 10199 20150 39185 40159 80009 333 20110 58017;EQDQ01  00002PRCP06
0177833440999992003061318004-14950-040880FM-12+0905SBQV V0201401N004112200019N0200001N1+02351+01331101341ADDAA106000091GA1001+999999999GF100991001001999999001001MA1999999091661MD1999999-0011REMSYN064AAXX  13184 83344 32998 01408 10235 20133 39166 40134 333 59001;EQDQ01  00002PRCP06
0208833440999992003061400004-14950-040880FM-12+0905SBQV V0200901N002112200019N0100001N1+01671+01291101701ADDAA106000091GA1001+999999999GF100991001001999999001001KA1240M+02461MA1999999091961MD1999999+0061REMSYN082AAXX  14004 83344 32997 00904 10167 20129 39196 40170 333 10246 29071 55101 58006;EQDQ01  00002PRCP06
0186833440999992003061412004-14950-040880FM-12+0905SBQV V0200501N001512200019N0200001N1+01931+01341101791ADDAA106000091GF102991021011004501001001KA1240N+00981MA1999999092031MD1999999+0181REMSYN076AAXX  14124 83344 32498 20503 10193 20134 39203 40179 82100 333 20098 58018;EQDQ01  00002PRCP06
0177833440999992003061418004-14950-040880FM-12+0905SBQV V0201401N001512200019N0200001N1+02351+01301101551ADDAA106000091GA1001+999999999GF100991001001999999001001MA1999999091791MD1999999+0131REMSYN064AAXX  14184 83344 32998 01403 10235 20130 39179 40155 333 58013;EQDQ01  00002PRCP06
0202833440999992003061512004-14950-040880FM-12+0905SBQV V0200901N003119999999N0200001N1+02031+01341101851ADDAA106000091GF100991001001999999001001KA1240N+01101MA1999999092101MD1999999+0071REMSYN076AAXX  15124 83344 32998 60906 10203 20134 39210 40185 80000 333 20110 58007;EQDQ01+000062SCOTCVQ02  00002PRCP06
0167833440999992003061518004-14950-040880FM-12+0905SBQV V0201401N004612200019N0200001N1+02251+01351101551ADDAA106000091GF102991021011004501001001MA1999999091891MD1999999+0101REMSYN070AAXX  15184 83344 32498 21409 10225 20135 39189 40155 82100 333 58010;EQDQ01  00002PRCP06
0186833440999992003061612004-14950-040880FM-12+0905SBQV V0201401N002610450019N0200001N1+01851+01581101851ADDAA106000091GF107991041061004501051001KA1240N+01221MA1999999092061MD1999999-0041REMSYN076AAXX  16124 83344 32498 71405 10185 20158 39206 40185 84650 333 20122 59004;EQDQ01  00002PRCP06
0182833440999992003061615004-14950-040880FM-15+0905SBQV V0201301N005110039019N0030001N1+01901+01701999999ADDGA1041+001809999GA2081+003909999GF108991999999999999999999MA1102201999999MW1511REMMET056SBQV 161500Z 13010KT 3000 -DZ SCT006 OVC013 19/17 Q1022;EQDQ01+000003PRSWM1Q02    003PRSWM1
0171833440999992003061618004-14950-040880FM-12+0905SBQV V0201401N003610021019N0040001N1+01871+01741101811ADDAY151061AY221061GF108991081071002501999999MA1999999091951MD1999999+0061MW1501REMSYN082AAXX  16184 83344 21396 81407 10187 20174 39195 40181 75052 887// 333 58006 69901;
0179833440999992003061700004-14950-040880FM-12+0905SBQV V0201401N001012200019N0100001N1+01701+01641101711ADDAA106000021GF103991031031004501001001KA1240M+02051MA1999999091941MD1999999-0181REMSYN088AAXX  17004 83344 32497 31402 10170 20164 39194 40171 83300 333 10205 29092 55014 59018;
0186833440999992003061712004-14950-040880FM-12+0905SBQV V0201401N003110042019N0100001N1+01831+01511101931ADDAA106000091GF106991061041004501001001KA1240N+01451MA1999999092141MD1999999+0081REMSYN076AAXX  17124 83344 32497 61406 10183 20151 39214 40193 86400 333 20145 58008;EQDQ01  00002PRCP06
0139833440999992003061715004-14950-040880FM-15+0905SBQV V0201301N004110045019N0112651N1+02201+01501999999ADDGA1071+004509999GF107991999999999999999999MA1102201999999MW1001REMMET045SBQV 171500Z 13008KT 9999 BKN015 22/15 Q1022;EQDQ01+000000PRSWM2
0167833440999992003061718004-14950-040880FM-12+0905SBQV V0200901N001512200019N0200001N1+02311+01431101451ADDAA106000091GF104991041011004501001001MA1999999091781MD1999999-0171REMSYN070AAXX  17184 83344 32498 40903 10231 20143 39178 40145 84100 333 59017;EQDQ01  00002PRCP06
0198833440999992003061800004-14950-040880FM-12+0905SBQV V0200901N001512200019N0040001N1+01451+01341101791ADDAA106000091GF102991021001012501031001KA1240M+02391MA1999999091971MD1999999+0031REMSYN088AAXX  18004 83344 32696 20903 10145 20134 39197 40179 82030 333 10239 29082 55054 58003;EQDQ01  00002PRCP06
0186833440999992003061812004-14950-040880FM-12+0905SBQV V0201401N001010042019N0100001N1+01671+01551102011ADDAA106000091GF108991081071004501999999KA1240N+01101MA1999999092111MD1999999-0031REMSYN076AAXX  18124 83344 32497 81402 10167 20155 39211 40201 887// 333 20110 59003;EQDQ01  00002PRCP06
0139833440999992003061816004-14950-040880FM-15+0905SBQV V0209999C000010060019N0112651N1+02401+01401999999ADDGA1071+006009999GF107991999999999999999999MA1102101999999MW1001REMMET045SBQV 181600Z 00000KT 9999 BKN020 24/14 Q1021;EQDQ01+000000PRSWM2
0139833440999992003061817004-14950-040880FM-15+0905SBQV V0201601N003612200019N0112651N1+02401+01501999999ADDGA1021+006009999GF102991999999999999999999MA1102001999999MW1001REMMET045SBQV 181700Z 16007KT 9999 FEW020 24/15 Q1020;EQDQ01+000000PRSWM2
0167833440999992003061818004-14950-040880FM-12+0905SBQV V0201401N002610075019N0200001N1+02421+01601101521ADDAA106000091GF105991051011008001001001MA1999999091831MD1999999-0051REMSYN070AAXX  18184 83344 32598 51405 10242 20160 39183 40152 85100 333 59005;EQDQ01  00002PRCP06
0208833440999992003061900004-14950-040880FM-12+0905SBQV V0201401N001512200019N0100001N1+01611+01521101821ADDAA106000091GA1001+999999999GF100991001001999999001001KA1240M+02591MA1999999092001MD1999999+0031REMSYN082AAXX  19004 83344 32997 01403 10161 20152 39200 40182 333 10259 29086 55074 58003;EQDQ01  00002PRCP06
0186833440999992003061912004-14950-040880FM-12+0905SBQV V0201401N002112200019N0200001N1+01951+01641101891ADDAA106000091GF103991031021004501001001KA1240N+01371MA1999999092121MD1999999-0011REMSYN076AAXX  19124 83344 32498 31404 10195 20164 39212 40189 83200 333 20137 59001;EQDQ01  00002PRCP06
0167833440999992003061918004-14950-040880FM-12+0905SBQV V0201401N002112200019N0200001N1+02331+01601101531ADDAA106000091GF103991021011004501081001MA1999999091841MD1999999+0011REMSYN070AAXX  19184 83344 32498 31404 10233 20160 39184 40153 82180 333 58001;EQDQ01  00002PRCP06
0208833440999992003062000004-14950-040880FM-12+0905SBQV V0201401N000512200019N0100001N1+01781+01631101741ADDAA106000091GA1001+999999999GF100991001001999999001001KA1240M+02421MA1999999092001MD1999999+0001REMSYN082AAXX  20004 83344 32997 01401 10178 20163 39200 40174 333 10242 29082 55074 58000;EQDQ01  00002PRCP06
0202833440999992003062012004-14950-040880FM-12+0905SBQV V0201401N002612200019N0200001N1+01821+01581101801ADDAA106000091GF103991999051008001001001KA1240N+01421MA1999999092041MD1999999-0081REMSYN076AAXX  20124 83344 32598 31405 10182 20158 39204 40180 84500 333 20142 59008;EQDQ01+000042SCOTLCQ02  00002PRCP06
0167833440999992003062018004-14950-040880FM-12+0905SBQV V0201401N003110075019N0200001N1+02251+01641101481ADDAA106000091GF106991061031008001001001MA1999999091791MD1999999-0051REMSYN070AAXX  20184 83344 32598 61406 10225 20164 39179 40148 86300 333 59005;EQDQ01  00002PRCP06
0208833440999992003062100004-14950-040880FM-12+0905SBQV V0201401N001012200019N0100001N1+01811+01701101671ADDAA106000091GA1001+999999999GF100991001001999999001001KA1240M+02211MA1999999091721MD1999999-0081REMSYN082AAXX  21004 83344 32997 01402 10181 20170 39172 40167 333 10221 29086 55038 59008;EQDQ01  00002PRCP06
0186833440999992003062112004-14950-040880FM-12+0905SBQV V0200501N001511050019N0200001N1+02151+01741101741ADDAA106000091GF106991021011004501001091KA1240N+01501MA1999999092061MD1999999+0021REMSYN076AAXX  21124 83344 32498 60503 10215 20174 39206 40174 82109 333 20150 58002;EQDQ01  00002PRCP06
0167833440999992003062118004-14950-040880FM-12+0905SBQV V0201401N003112200019N0200001N1+02411+01581101431ADDAA106000091GF104991041021004501001001MA1999999091761MD1999999-0031REMSYN070AAXX  21184 83344 32498 41406 10241 20158 39176 40143 84200 333 59003;EQDQ01  00002PRCP06
0190833440999992003062212004-14950-040880FM-12+0905SBQV V0201401N000512200019N0200001N1+02061+01661101621ADDAY151061AY221061GF102991001001999999001041KA1240N+01361MA1999999091941MD1999999-0121MW1021REMSYN088AAXX  22124 83344 21998 21401 10206 20166 39194 40162 70252 80004 333 20136 59012 69914;
0186833440999992003062312004-14950-040880FM-12+0905SBQV V0200901N002112200019N0200001N1+02011+01251101731ADDAA106000091GF102991021011004501001001KA1240N+01151MA1999999092021MD1999999+0081REMSYN076AAXX  23124 83344 32498 20904 10201 20125 39202 40173 82100 333 20115 58008;EQDQ01  00002PRCP06
0167833440999992003062318004-14950-040880FM-12+0905SBQV V0201401N004611050019N0200001N1+02221+01131101711ADDAA106000091GF106991031021004501001021MA1999999091921MD1999999+0191REMSYN070AAXX  23184 83344 32498 61409 10222 20113 39192 40171 83202 333 58019;EQDQ01  00002PRCP06
0208833440999992003062400004-14950-040880FM-12+0905SBQV V0200501N002612200019N0100001N1+01511+01021101871ADDAA106000091GA1001+999999999GF100991001001999999001001KA1240M+02371MA1999999092081MD1999999+0281REMSYN082AAXX  24004 83344 32997 00505 10151 20102 39208 40187 333 10237 29064 55095 58028;EQDQ01  00002PRCP06
0186833440999992003062412004-14950-040880FM-12+0905SBQV V0200901N003610075019N0200001N1+01891+01551102101ADDAA106000091GF106991061051008001001001KA1240N+00861MA1999999092271MD1999999+0251REMSYN076AAXX  24124 83344 32598 60907 10189 20155 39227 40210 86500 333 20086 58025;EQDQ01  00002PRCP06
0167833440999992003062418004-14950-040880FM-12+0905SBQV V0200901N003110042019N0200001N1+02111+01531101931ADDAA106000091GF108991081071004501999999MA1999999092051MD1999999+0131REMSYN070AAXX  24184 83344 32498 80906 10211 20153 39205 40193 887// 333 58013;EQDQ01  00002PRCP06
0198833440999992003062500004-14950-040880FM-12+0905SBQV V0201401N003112200019N0100001N1+01711+01671999999ADDAA106000091GF102991021051008001001001KA1240M+02251MA1999999092211MD1999999+0131REMSYN088AAXX  25004 83344 32597 21406 10171 20167 39221 4//// 82500 333 10225 29087 55016 58013;EQDQ01  00002PRCP06
0190833440999992003062512004-14950-040880FM-12+0905SBQV V0201401N002610021019N0010001N1+01831+01771102041ADDAY161061AY251061GF108991081071002501999999KA1240N+01511MA1999999092241MD1999999-0031MW1121REMSYN088AAXX  25124 83344 21394 81405 10183 20177 39224 40204 71265 887// 333 20151 59003 60024;
0167833440999992003062518004-14950-040880FM-12+0905SBQV V0201401N002610042019N0200001N1+02141+01681101671ADDAA106000091GF107991051071004501051001MA1999999091941MD1999999-0111REMSYN070AAXX  25184 83344 32498 71405 10214 20168 39194 40167 85750 333 59011;EQDQ01  00002PRCP06
0208833440999992003062600004-14950-040880FM-12+0905SBQV V0209999C000012200019N0040001N1+01631+01591101881ADDAA106000091GA1001+999999999GF100991001001999999001001KA1240M+02191MA1999999092091MD1999999-0121REMSYN082AAXX  26004 83344 32996 00000 10163 20159 39209 40188 333 10219 29092 55004 59012;EQDQ01  00002PRCP06
0186833440999992003062612004-14950-040880FM-12+0905SBQV V0201401N003110450019N0200001N1+01751+01351102021ADDAA106000091GF106991021041008001081021KA1240N+01281MA1999999092201MD1999999-0041REMSYN076AAXX  26124 83344 32598 61406 10175 20135 39220 40202 82482 333 20128 59004;EQDQ01  00002PRCP06
0183833440999992003062618004-14950-040880FM-12+0905SBQV V0201401N003119999999N0200001N1+02211+01281101641ADDAA106000091GF105991999011008001061001MA1999999091891MD1999999-0051REMSYN070AAXX  26184 83344 32598 51406 10221 20128 39189 40164 87160 333 59005;EQDQ01+000072SCOTLCQ02  00002PRCP06
0196833440999992003062712004-14950-040880FM-12+0905SBQV V0200901N002612200019N0200001N1+01831+01031102011ADDAA106000091GA1001+999999999GF100991001001999999001001KA1240N+00901MA1999999092561MD1999999-0041REMSYN070AAXX  27124 83344 32998 00905 10183 20103 39256 40201 333 20090 59004;EQDQ01  00002PRCP06
0167833440999992003062718004-14950-040880FM-12+0905SBQV V0201401N003112200019N0200001N1+02371+00851101651ADDAA106000091GF102991021001004501051001MA1999999091861MD1999999-0031REMSYN070AAXX  27184 83344 32498 21406 10237 20085 39186 40165 82050 333 59003;EQDQ01  00002PRCP06
0208833440999992003062800004-14950-040880FM-12+0905SBQV V0200901N002612200019N0100001N1+01471+01041101871ADDAA106000091GA1001+999999999GF100991001001999999001001KA1240M+02361MA1999999092051MD1999999+0021REMSYN082AAXX  28004 83344 32997 00905 10147 20104 39205 40187 333 10236 29063 55103 58002;EQDQ01  00002PRCP06
0186833440999992003062812004-14950-040880FM-12+0905SBQV V0200901N002610075019N0200001N1+01851+01351102081ADDAA106000091GF106991061051008001001001KA1240N+00921MA1999999092231MD1999999+0071REMSYN076AAXX  28124 83344 32598 60905 10185 20135 39223 40208 86500 333 20092 58007;EQDQ01  00002PRCP06
0167833440999992003062818004-14950-040880FM-12+0905SBQV V0200901N003110075019N0200001N1+02241+01261101611ADDAA106000091GF105991051011008001001001MA1999999091931MD1999999+0071REMSYN070AAXX  28184 83344 32598 50906 10224 20126 39193 40161 85100 333 58007;EQDQ01  00002PRCP06
0208833440999992003062900004-14950-040880FM-12+0905SBQV V0200901N001012200019N0100001N1+01441+01241101931ADDAA106000091GA1001+999999999GF100991001001999999001001KA1240M+02331MA1999999092091MD1999999+0041REMSYN082AAXX  29004 83344 32997 00902 10144 20124 39209 40193 333 10233 29076 55092 58004;EQDQ01  00002PRCP06
0196833440999992003062912004-14950-040880FM-12+0905SBQV V0200501N003112200019N0200001N1+01931+01201101891ADDAA106000091GA1001+999999999GF100991001001999999001001KA1240N+00931MA1999999092081MD1999999-0151REMSYN070AAXX  29124 83344 32998 00506 10193 20120 39208 40189 333 20093 59015;EQDQ01  00002PRCP06
0167833440999992003062918004-14950-040880FM-12+0905SBQV V0201401N002612200019N0200001N1+02481+01211101561ADDAA106000091GF102991021001004501031001MA1999999091781MD1999999-0151REMSYN070AAXX  29184 83344 32498 21405 10248 20121 39178 40156 82030 333 59015;EQDQ01  00002PRCP06
0196833440999992003063012004-14950-040880FM-12+0905SBQV V0200901N003112200019N0200001N1+01911+01161102141ADDAA106000091GA1001+999999999GF100991001001999999001001KA1240N+00811MA1999999096281MD1999999+0201REMSYN070AAXX  30124 83344 32998 00906 10191 20116 39628 40214 333 20081 58020;EQDQ01  00002PRCP06
0183833440999992003063018004-14950-040880FM-12+0905SBQV V0201401N005712200019N0200001N1+02211+00851101911ADDAA106000091GF102991021011008001001001MA1999999092052MD1999999+0271REMSYN070AAXX  30184 83344 32598 21411 10221 20085 39205 40191 82100 333 58027;EQDQ01+092053APOSP Q02  00002PRCP06
0208833440999992003070100004-14950-040880FM-12+0905SBQV V0200901N003112200019N0100001N1+01531+01101102081ADDAA106000091GA1001+999999999GF100991001001999999001001KA1240M+02311MA1999999092251MD1999999+0291REMSYN082AAXX  01004 83344 32997 00906 10153 20110 39225 40208 333 10231 29064 55097 58029;EQDQ01  00002PRCP06
0186833440999992003070112004-14950-040880FM-12+0905SBQV V0201401N004110042019N0100001N1+01551+01431102231ADDAA106000091GF108991081071004501999999KA1240N+01371MA1999999092331MD1999999+0281REMSYN076AAXX  01124 83344 32497 81408 10155 20143 39233 40223 887// 333 20137 58028;EQDQ01  00002PRCP06
0167833440999992003070118004-14950-040880FM-12+0905SBQV V0201401N003610042019N0100001N1+01971+01351101941ADDAA106000091GF108991081071004501999999MA1999999092101MD1999999+0051REMSYN070AAXX  01184 83344 32497 81407 10197 20135 39210 40194 887// 333 58005;EQDQ01  00002PRCP06
0208833440999992003070200004-14950-040880FM-12+0905SBQV V0200901N002612200019N0040001N1+01491+01321102151ADDAA106000091GA1001+999999999GF100991001001999999001001KA1240M+02151MA1999999092241MD1999999-0011REMSYN082AAXX  02004 83344 32996 00905 10149 20132 39224 40215 333 10215 29085 55001 59001;EQDQ01  00002PRCP06
0186833440999992003070212004-14950-040880FM-12+0905SBQV V0200901N005112200019N0200001N1+01851+01311102091ADDAA106000091GF103991021011008001001011KA1240N+01141MA1999999092241MD1999999-0091REMSYN076AAXX  02124 83344 32598 30910 10185 20131 39224 40209 82101 333 20114 59009;EQDQ01  00002PRCP06
0167833440999992003070218004-14950-040880FM-12+0905SBQV V0201401N003112200019N0200001N1+02351+01601101591ADDAA106000091GF104991021011008001001011MA1999999091851MD1999999-0251REMSYN070AAXX  02184 83344 32598 41406 10235 20160 39185 40159 82101 333 59025;EQDQ01  00002PRCP06
0208833440999992003070300004-14950-040880FM-12+0905SBQV V0200901N001512200019N0100001N1+01511+01321101771ADDAA106000091GA1001+999999999GF100991001001999999001001KA1240M+02431MA1999999091971MD1999999-0271REMSYN082AAXX  03004 83344 32997 00903 10151 20132 39197 40177 333 10243 29075 55046 59027;EQDQ01  00002PRCP06
0186833440999992003070312004-14950-040880FM-12+0905SBQV V0203601N001512200019N0200001N1+01891+01471101911ADDAA106000091GF102991021011004501001001KA1240N+01291MA1999999092101MD1999999-0141REMSYN076AAXX  03124 83344 32498 23603 10189 20147 39210 40191 82100 333 20129 59014;EQDQ01  00002PRCP06
0167833440999992003070318004-14950-040880FM-12+0905SBQV V0200501N003112200019N0200001N1+02351+01241101561ADDAA106000091GF102991021011004501001001MA1999999091841MD1999999-0011REMSYN070AAXX  03184 83344 32498 20506 10235 20124 39184 40156 82100 333 59001;EQDQ01  00002PRCP06
0208833440999992003070400004-14950-040880FM-12+0905SBQV V0200901N001012200019N0040001N1+01611+01121101711ADDAA106000091GA1001+999999999GF100991001001999999001001KA1240M+02431MA1999999091941MD1999999-0031REMSYN082AAXX  04004 83344 32996 00902 10161 20112 39194 40171 333 10243 29068 55097 59003;EQDQ01  00002PRCP06
0186833440999992003070412004-14950-040880FM-12+0905SBQV V0200901N003112200019N0200001N1+01871+01281102031ADDAA106000091GF103991031011008001001001KA1240N+01181MA1999999092231MD1999999+0131REMSYN076AAXX  04124 83344 32598 30906 10187 20128 39223 40203 83100 333 20118 58013;EQDQ01  00002PRCP06
0167833440999992003070418004-14950-040880FM-12+0905SBQV V0201401N003612200019N0200001N1+02221+01161101651ADDAA106000091GF103991031011008001001001MA1999999091881MD1999999+0041REMSYN070AAXX  04184 83344 32598 31407 10222 20116 39188 40165 83100 333 58004;EQDQ01  00002PRCP06
0208833440999992003070500004-14950-040880FM-12+0905SBQV V0200901N003112200019N0100001N1+01391+01221101791ADDAA106000091GA1001+999999999GF100991001001999999001001KA1240M+02331MA1999999091971MD1999999+0031REMSYN082AAXX  05004 83344 32997 00906 10139 20122 39197 40179 333 10233 29075 55090 58003;EQDQ01  00002PRCP06
0186833440999992003070512004-14950-040880FM-12+0905SBQV V0200901N001510042019N0200001N1+01821+01471101781ADDAA106000091GF106991061041004501001001KA1240N+01001MA1999999091941MD1999999-0291REMSYN076AAXX  05124 83344 32498 60903 10182 20147 39194 40178 86400 333 20100 59029;EQDQ01  00002PRCP06
0167833440999992003070518004-14950-040880FM-12+0905SBQV V0200501N002610042019N0200001N1+02231+01301101361ADDAA106000091GF105991051021004501001001MA1999999091701MD1999999-0181REMSYN070AAXX  05184 83344 32498 50505 10223 20130 39170 40136 85200 333 59018;EQDQ01  00002PRCP06
0208833440999992003070600004-14950-040880FM-12+0905SBQV V0200501N002112200019N0100001N1+01551+01391101591ADDAA106000091GA1001+999999999GF100991001001999999001001KA1240M+02351MA1999999091811MD1999999-0161REMSYN082AAXX  06004 83344 32997 00504 10155 20139 39181 40159 333 10235 29079 55073 59016;EQDQ01  00002PRCP06
0186833440999992003070612004-14950-040880FM-12+0905SBQV V0200501N002610075019N0200001N1+01941+01381101721ADDAA106000091GF106991061021008001001001KA1240N+01131MA1999999091951MD1999999+0011REMSYN076AAXX  06124 83344 32598 60505 10194 20138 39195 40172 86200 333 20113 58001;EQDQ01  00002PRCP06
0167833440999992003070618004-14950-040880FM-12+0905SBQV V0200901N003110075019N0200001N1+02421+01251101471ADDAA106000091GF105991051011008001001001MA1999999091711MD1999999+0011REMSYN070AAXX  06184 83344 32598 50906 10242 20125 39171 40147 85100 333 58001;EQDQ01  00002PRCP06
0196833440999992003070712004-14950-040880FM-12+0905SBQV V0203601N002112200019N0200001N1+02081+01281101761ADDAA106000091GA1001+999999999GF100991001001999999001001KA1240N+00961MA1999999092051MD1999999+0101REMSYN070AAXX  07124 83344 32998 03604 10208 20128 39205 40176 333 20096 58010;EQDQ01  00002PRCP06
0167833440999992003070718004-14950-040880FM-12+0905SBQV V0200501N002112200019N0200001N1+02591+00791101401ADDAA106000091GF102991021011004501001001MA1999999091741MD1999999+0031REMSYN070AAXX  07184 83344 32498 20504 10259 20079 39174 40140 82100 333 58003;EQDQ01  00002PRCP06
0208833440999992003070800004-14950-040880FM-12+0905SBQV V0209999C000012200019N0100001N1+01591+01381101741ADDAA106000091GA1001+999999999GF100991001001999999001001KA1240M+02671MA1999999092001MD1999999+0081REMSYN082AAXX  08004 83344 32997 02700 10159 20138 39200 40174 333 10267 29067 55100 58008;EQDQ01  00002PRCP06
0186833440999992003070812004-14950-040880FM-12+0905SBQV V0200501N002610450019N0200001N1+01911+01491101951ADDAA106000091GF108991041071004501021999KA1240N+01381MA1999999092151MD1999999+0101REMSYN076AAXX  08124 83344 32498 80505 10191 20149 39215 40195 8472/ 333 20138 58010;EQDQ01  00002PRCP06
0167833440999992003070818004-14950-040880FM-12+0905SBQV V0200901N003110075019N0200001N1+02411+01501101481ADDAA106000091GF106991061011008001001001MA1999999091791MD1999999+0051REMSYN070AAXX  08184 83344 32598 60906 10241 20150 39179 40148 86100 333 58005;EQDQ01  00002PRCP06
0208833440999992003070900004-14950-040880FM-12+0905SBQV V0200501N003612200019N0100001N1+01671+01511101691ADDAA106000091GA1001+999999999GF100991001001999999001001KA1240M+02531MA1999999091941MD1999999-0061REMSYN082AAXX  09004 83344 32997 00507 10167 20151 39194 40169 333 10253 29079 55055 59006;EQDQ01  00002PRCP06
0196833440999992003070912004-14950-040880FM-12+0905SBQV V0200501N003112200019N0200001N1+02021+01031101761ADDAA106000091GA1001+999999999GF100991001001999999001001KA1240N+00981MA1999999092021MD1999999-0131REMSYN070AAXX  09124 83344 32998 00506 10202 20103 39202 40176 333 20098 59013;EQDQ01  00002PRCP06
0167833440999992003070918004-14950-040883FM-12+0905SBQV V0201401N003612200019N0200001N1+02451+00991101471ADDAA106000091GF102991021011004501001001MA1999999091741MD1999999-0051REMSYN070AAXX  09184 83344 32498 21407 10245 20099 39174 40147 82100 333 59005;EQDQ01  00002PRCP06
0208833440999992003071000004-14950-040883FM-12+0905SBQV V0200501N001012200019N0100001N1+01641+01481101651ADDAA106000091GA1001+999999999GF100991001001999999001001KA1240M+02591MA1999999091921MD1999999-0021REMSYN082AAXX  10004 83344 32997 00502 10164 20148 39192 40165 333 10259 29068 55105 59002;EQDQ01  00002PRCP06
0186833440999992003071012004-14950-040883FM-12+0905SBQV V0203601N002112200019N0200001N1+02001+01481101861ADDAA106000091GF104991041001022501081001KA1240N+01001MA1999999092091MD1999999+0071REMSYN076AAXX  10124 83344 32898 43604 10200 20148 39209 40186 84080 333 20100 58007;EQDQ01  00002PRCP06
0208833440999992003071100004-14950-040883FM-12+0905SBQV V0200501N001512200019N0100001N1+01751+01501101771ADDAA106000091GA1001+999999999GF100991001001999999001001KA1240M+02611MA1999999092031MD1999999+0111REMSYN082AAXX  11004 83344 32997 00503 10175 20150 39203 40177 333 10261 29076 55092 58011;EQDQ01  00002PRCP06
0186833440999992003071112004-14950-040883FM-12+0905SBQV V0200901N002610042019N0100001N1+01851+01601101981ADDAA106000091GF108991081071004501999999KA1240N+01401MA1999999092201MD1999999+0111REMSYN076AAXX  11124 83344 32497 80905 10185 20160 39220 40198 887// 333 20140 58011;EQDQ01  00002PRCP06
0167833440999992003071118004-14950-040883FM-12+0905SBQV V0201401N002110042019N0200001N1+02411+01551101501ADDAA106000091GF105991051031004501001001MA1999999091831MD1999999+0071REMSYN070AAXX  11184 83344 32498 51404 10241 20155 39183 40150 85300 333 58007;EQDQ01  00002PRCP06
0208833440999992003071200004-14950-040883FM-12+0905SBQV V0200501N002612200019N0100001N1+01751+01631101851ADDAA106000091GA1001+999999999GF100991001001999999001001KA1240M+02491MA1999999092081MD1999999+0051REMSYN082AAXX  12004 83344 32997 00505 10175 20163 39208 40185 333 10249 29083 55021 58005;EQDQ01  00002PRCP06
0186833440999992003071212004-14950-040883FM-12+0905SBQV V0200901N004610042019N0200001N1+01981+01571102131ADDAA106000091GF106991061071004501001001KA1240N+00981MA1999999092351MD1999999+0151REMSYN076AAXX  12124 83344 32498 60909 10198 20157 39235 40213 86700 333 20098 58015;EQDQ01  00002PRCP06
0167833440999992003071218004-14950-040883FM-12+0905SBQV V0201401N005112200019N0200001N1+02351+01361101811ADDAA106000091GF104991041071004501001001MA1999999092061MD1999999+0231REMSYN070AAXX  12184 83344 32498 41410 10235 20136 39206 40181 84700 333 58023;EQDQ01  00002PRCP06
0186833440999992003071312004-14950-040883FM-12+0905SBQV V0201401N004110042019N0100001N1+01751+01451102191ADDAA106000091GF108991081071004501999999KA1240N+01201MA1999999092391MD1999999+0041REMSYN076AAXX  13124 83344 32497 81408 10175 20145 39239 40219 887// 333 20120 58004;EQDQ01  00002PRCP06
0167833440999992003071318004-14950-040883FM-12+0905SBQV V0201401N005110450019N0200001N1+02281+01561101851ADDAA106000091GF106991041021004501081001MA1999999092081MD1999999+0021REMSYN070AAXX  13184 83344 32498 61410 10228 20156 39208 40185 84280 333 58002;EQDQ01  00002PRCP06
0186833440999992003071412004-14950-040883FM-12+0905SBQV V0201401N002610450019N0100001N1+01701+01551102301ADDAA106000091GF108991041071004501021999KA1240N+01181MA1999999092431MD1999999+0041REMSYN076AAXX  14124 83344 32497 81405 10170 20155 39243 40230 8472/ 333 20118 58004;EQDQ01  00002PRCP06
0171833440999992003071418004-14950-040883FM-12+0905SBQV V0200901N003110042019N0100001N1+01901+01711101981ADDAY151061AY221061GF106991061071004501001001MA1999999092141MD1999999+0061MW1021REMSYN082AAXX  14184 83344 21497 60906 10190 20171 39214 40198 70252 86700 333 58006 60011;
0202833440999992003071500004-14950-040883FM-12+0905SBQV V0200901N003110042019N0040001N1+01611+01581102161ADDAY161061AY251061GF108991081071004501999999KA1240M+02151MA1999999092301MD1999999+0041MW1511REMSYN100AAXX  15004 83344 21496 80906 10161 20158 39230 40216 75165 887// 333 10215 29095 55016 58004 60041;
0190833440999992003071512004-14950-040883FM-12+0905SBQV V0201401N005110021019N0040001N1+01441+01411102351ADDAY161061AY251061GF108991081071002501999999KA1240N+01401MA1999999092421MD1999999-0011MW1511REMSYN088AAXX  15124 83344 21396 81410 10144 20141 39242 40235 75165 887// 333 20140 59001 60094;
0171833440999992003071518004-14950-040883FM-12+0905SBQV V0201401N004610042019N0100001N1+01781+01511101971ADDAY151061AY221061GF108991081071004501999999MA1999999092111MD1999999-0031MW1021REMSYN082AAXX  15184 83344 21497 81409 10178 20151 39211 40197 70252 887// 333 59003 69911;
0198833440999992003071600004-14950-040883FM-12+0905SBQV V0201401N003612200019N0100001N1+01531+01391102161ADDAA106000091GF103991021021004501081001KA1240M+01851MA1999999092251MD1999999-0051REMSYN088AAXX  16004 83344 32497 31407 10153 20139 39225 40216 82280 333 10185 29091 55002 59005;EQDQ01  00002PRCP06
0190833440999992003071612004-14950-040883FM-12+0905SBQV V0201401N005710075019N0200001N1+01571+01241102291ADDAY151061AY221061GF106991061051008001001001KA1240N+01361MA1999999092381MD1999999-0041MW1031REMSYN088AAXX  16124 83344 21598 61411 10157 20124 39238 40229 70352 86500 333 20136 59004 69914;
0167833440999992003071618004-14950-040883FM-12+0905SBQV V0201401N005110075019N0200001N1+02111+01271102031ADDAA106000091GF105991051011008001001001MA1999999092231MD1999999+0121REMSYN070AAXX  16184 83344 32598 51410 10211 20127 39223 40203 85100 333 58012;EQDQ01  00002PRCP06
0208833440999992003071700004-14950-040883FM-12+0905SBQV V0200901N002612200019N0100001N1+01561+01401102281ADDAA106000091GA1001+999999999GF100991001001999999001001KA1240M+02171MA1999999092371MD1999999+0121REMSYN082AAXX  17004 83344 32997 00905 10156 20140 39237 40228 333 10217 29080 55088 58012;EQDQ01  00002PRCP06
0190833440999992003071712004-14950-040883FM-12+0905SBQV V0201401N006210021019N0010001N1+01581+01521102341ADDAY151061AY221061GF108991081071002501999999KA1240N+01501MA1999999092431MD1999999+0051MW1501REMSYN088AAXX  17124 83344 21394 81412 10158 20152 39243 40234 75052 887// 333 20150 58005 60014;
0171833440999992003071718004-14950-040883FM-12+0905SBQV V0201401N005710021019N0040001N1+01771+01581102141ADDAY151061AY221061GF108991081071002501999999MA1999999092311MD1999999+0081MW1501REMSYN082AAXX  17184 83344 21396 81411 10177 20158 39231 40214 75052 887// 333 58008 69911;
0202833440999992003071800004-14950-040883FM-12+0905SBQV V0201401N002612200019N0040001N1+01511+01341102451ADDAY121061AY251061GF102991021041004501001001KA1240M+01831MA1999999092451MD1999999+0081MW1001REMSYN100AAXX  18004 83344 21496 21405 10151 20134 39245 40245 70025 82400 333 10183 29091 55007 58008 69921;
0190833440999992003071812004-14950-040883FM-12+0905SBQV V0201401N003110042019N0040001N1+01571+01541102501ADDAY161061AY251061GF108991081071004501999999KA1240N+01281MA1999999092571MD1999999+0141MW1511REMSYN088AAXX  18124 83344 21496 81406 10157 20154 39257 40250 75165 887// 333 20128 58014 60024;
0148833440999992003071818004-14950-040883FM-12+0905SBQV V0201401N003110075019N0200001N1+02031+01481102161ADDAA106000021GF106991061061008001001001MA1999999092331MD1999999+0021REMSYN070AAXX  18184 83344 32598 61406 10203 20148 39233 40216 86600 333 58002;
0198833440999992003071900004-14950-040883FM-12+0905SBQV V0200901N002612200019N0100001N1+01531+01341102371ADDAA106000091GF104991041061008001001001KA1240M+02111MA1999999092451MD1999999+0001REMSYN088AAXX  19004 83344 32597 40905 10153 20134 39245 40237 84600 333 10211 29087 55019 58000;EQDQ01  00002PRCP06
0186833440999992003071912004-14950-040883FM-12+0905SBQV V0201401N004610042019N0200001N1+01661+01371102481ADDAA106000091GF105991051041004501001001KA1240N+01361MA1999999092571MD1999999+0001REMSYN076AAXX  19124 83344 32498 51409 10166 20137 39257 40248 85400 333 20136 58000;EQDQ01  00002PRCP06
0167833440999992003071918004-14950-040883FM-12+0905SBQV V02099999999992200019N0200001N1+02201+01281102051ADDAA106000091GF104991021021004501081001MA1999999092261MD1999999-0071REMSYN070AAXX  19184 83344 32498 414// 10220 20128 39226 40205 82280 333 59007;EQDQ01  00002PRCP06
0186833440999992003072012004-14950-040883FM-12+0905SBQV V0200901N003612200019N0200001N1+01791+01601102301ADDAA106000091GF104991041021004501001001KA1240N+01301MA1999999092431MD1999999-0141REMSYN076AAXX  20124 83344 32498 40907 10179 20160 39243 40230 84200 333 20130 59014;EQDQ01  00002PRCP06
0167833440999992003072018004-14950-040883FM-12+0905SBQV V0200901N006210042019N0200001N1+02151+01201101921ADDAA106000091GF105991051041004501001001MA1999999092151MD1999999-0111REMSYN070AAXX  20184 83344 32498 50912 10215 20120 39215 40192 85400 333 59011;EQDQ01  00002PRCP06
0186833440999992003072112004-14950-040883FM-12+0905SBQV V0201401N003610450019N0200001N1+01821+01391102191ADDAA106000091GF107991041071004501021001KA1240N+00801MA1999999092331MD1999999-0141REMSYN076AAXX  21124 83344 32498 71407 10182 20139 39233 40219 84720 333 20080 59014;EQDQ01  00002PRCP06
0167833440999992003072118004-14950-040883FM-12+0905SBQV V0201801N003110450019N0200001N1+01931+01661102051ADDAA106000091GF108991041071004501011999MA1999999092131MD1999999-0021REMSYN070AAXX  21184 83344 32498 81806 10193 20166 39213 40205 8471/ 333 59002;EQDQ01  00002PRCP06
0202833440999992003072200004-14950-040883FM-12+0905SBQV V0209999C000010042019N0040001N1+01741+01721102061ADDAY151061AY221061GF108991081071004501999999KA1240M+02011MA1999999092271MD1999999+0001MW1021REMSYN100AAXX  22004 83344 21496 80000 10174 20172 39227 40206 70252 887// 333 10201 29090 55018 58000 69941;
0190833440999992003072212004-14950-040883FM-12+0905SBQV V0200901N004110042019N0100001N1+01811+01721102201ADDAY161061AY251061GF108991081071004501999999KA1240N+01631MA1999999092381MD1999999+0051MW1021REMSYN088AAXX  22124 83344 21497 80908 10181 20172 39238 40220 70265 887// 333 20163 58005 60054;
0167833440999992003072218004-14950-040883FM-12+0905SBQV V0201401N004610042019N0200001N1+02191+01341101821ADDAA106000091GF105991051041004501001001MA1999999092121MD1999999-0011REMSYN070AAXX  22184 83344 32498 51409 10219 20134 39212 40182 85400 333 59001;EQDQ01  00002PRCP06
0208833440999992003072300004-14950-040883FM-12+0905SBQV V0200901N004112200019N0100001N1+01551+01291102071ADDAA106000091GA1001+999999999GF100991001001999999001001KA1240M+02311MA1999999092251MD1999999-0021REMSYN082AAXX  23004 83344 32997 00908 10155 20129 39225 40207 333 10231 29081 55068 59002;EQDQ01  00002PRCP06
0190833440999992003072312004-14950-040883FM-12+0905SBQV V0200901N003112200019N0200001N1+01751+01471102271ADDAY151061AY221061GF103991021011004501031001KA1240N+01101MA1999999092401MD1999999+0021MW1011REMSYN088AAXX  23124 83344 21498 30906 10175 20147 39240 40227 70152 82130 333 20110 58002 69984;
0171833440999992003072318004-14950-040883FM-12+0905SBQV V0200901N003110042019N0100001N1+01891+01711102021ADDAY151061AY201061GF107991071051004501001001MA1999999092171MD1999999+0051MW1161REMSYN082AAXX  23184 83344 21497 70906 10189 20171 39217 40202 71650 87500 333 58005 69931;
0202833440999992003072400004-14950-040883FM-12+0905SBQV V0200901N003612200019N0040001N1+01611+01521102181ADDAY161061AY221061GF102991021001012501031001KA1240M+02231MA1999999092351MD1999999+0101MW1011REMSYN100AAXX  24004 83344 21696 20907 10161 20152 39235 40218 70162 82030 333 10223 29091 55045 58010 60011;
0190833440999992003072412004-14950-040883FM-12+0905SBQV V0200901N003110075019N0200001N1+01821+01451102141ADDAY161061AY251061GF106991061051008001001001KA1240N+01381MA1999999092311MD1999999-0091MW1031REMSYN088AAXX  24124 83344 21598 60906 10182 20145 39231 40214 70365 86500 333 20138 59009 60024;
0171833440999992003072418004-14950-040883FM-12+0905SBQV V0200901N003610075019N0200001N1+01991+01721101881ADDAY151061AY221061GF107991071071008001001001MA1999999092091MD1999999-0081MW1021REMSYN082AAXX  24184 83344 21598 70907 10199 20172 39209 40188 70252 87700 333 59008 69921;
0190833440999992003072512004-14950-040883FM-12+0905SBQV V0201401N002110042019N0200001N1+01751+01491102231ADDAY151061AY221061GF106991061061004501001001KA1240N+01511MA1999999092411MD1999999+0101MW1021REMSYN088AAXX  25124 83344 21498 61404 10175 20149 39241 40223 70252 86600 333 20151 58010 60014;
0167833440999992003072518004-14950-040883FM-12+0905SBQV V0201401N003110450019N0200001N1+02311+01381101841ADDAA106000091GF106991041041004501051001MA1999999092141MD1999999+0051REMSYN070AAXX  25184 83344 32498 61406 10231 20138 39214 40184 84450 333 58005;EQDQ01  00002PRCP06
0202833440999992003072600004-14950-040883FM-12+0905SBQV V0201401N002610021019N0040001N1+01681+01621102231ADDAY111061AY211061GF108991081071002501999999KA1240M+02411MA1999999092381MD1999999+0121MW1511REMSYN100AAXX  26004 83344 21396 81405 10168 20162 39238 40223 75111 887// 333 10241 29083 55076 58012 69911;
0190833440999992003072612004-14950-040883FM-12+0905SBQV V0201401N003110042019N0100001N1+01631+01511102421ADDAY161061AY221061GF106991061051004501001001KA1240N+01421MA1999999092541MD1999999+0131MW1011REMSYN088AAXX  26124 83344 21497 61406 10163 20151 39254 40242 70162 86500 333 20142 58013 60024;
0167833440999992003072618004-14950-040883FM-12+0905SBQV V0200901N003112200019N0200001N1+02181+01491102001ADDAA106000091GF103991031011004501001001MA1999999092231MD1999999+0091REMSYN070AAXX  26184 83344 32498 30906 10218 20149 39223 40200 83100 333 58009;EQDQ01  00002PRCP06
0190833440999992003072712004-14950-040883FM-12+0905SBQV V0200501N005110042019N0100001N1+01731+01481102311ADDAY161061AY251061GF108991081071004501999999KA1240N+01411MA1999999092451MD1999999+0091MW1031REMSYN088AAXX  27124 83344 21497 80510 10173 20148 39245 40231 70365 887// 333 20141 58009 60014;
0167833440999992003072718004-14950-040883FM-12+0905SBQV V0201401N005110450019N0200001N1+01871+01411101971ADDAA106000091GF108991041071004501011999MA1999999092151MD1999999-0081REMSYN070AAXX  27184 83344 32498 81410 10187 20141 39215 40197 8471/ 333 59008;EQDQ01  00002PRCP06
0202833440999992003072800004-14950-040883FM-12+0905SBQV V0201401N002110042019N0040001N1+01551+01441102111ADDAY151061AY221061GF108991081071004501999999KA1240M+02251MA1999999092251MD1999999-0161MW1501REMSYN100AAXX  28004 83344 21496 81404 10155 20144 39225 40211 75052 887// 333 10225 29087 55051 59016 69911;
0190833440999992003072812004-14950-040883FM-12+0905SBQV V0201401N004610042019N0100001N1+01591+01501102281ADDAY161061AY251061GF108991081071004501999999KA1240N+01391MA1999999092371MD1999999-0081MW1021REMSYN088AAXX  28124 83344 21497 81409 10159 20150 39237 40228 70265 887// 333 20139 59008 60034;
0171833440999992003072818004-14950-040883FM-12+0905SBQV V0201401N005110042019N0040001N1+01771+01711101981ADDAY151061AY221061GF108991081071004501999999MA1999999092121MD1999999-0031MW1501REMSYN082AAXX  28184 83344 21496 81410 10177 20171 39212 40198 75052 887// 333 59003 69911;
0202833440999992003072900004-14950-040883FM-12+0905SBQV V0201401N004110021019N0010001N1+01531+01471102221ADDAY161061AY251061GF108991081071002501999999KA1240M+02071MA1999999092321MD1999999+0071MW1511REMSYN100AAXX  29004 83344 21394 81408 10153 20147 39232 40222 75165 887// 333 10207 29096 55046 58007 69981;
0162833440999992003072912004-14950-040883FM-12+0905SBQV V0201401N003110042019N0100001N1+01591+01381102371ADDGF108991081051004501999999KA1240N+01381MA1999999092491MD1999999-0121REMSYN082AAXX  29124 83344 22497 81406 10159 20138 39249 40237 885// 333 20138 59012 69994;
0167833440999992003072918004-14950-040883FM-12+0905SBQV V0200901N005112200019N0200001N1+01931+01451102001ADDAA106000091GF104991041001012501041001MA1999999092181MD1999999+0061REMSYN070AAXX  29184 83344 32698 40910 10193 20145 39218 40200 84040 333 58006;EQDQ01  00002PRCP06
0202833440999992003073000004-14950-040883FM-12+0905SBQV V0201401N002610042019N0100001N1+01581+01551102271ADDAY151061AY221061GF108991081051004501999999KA1240M+02051MA1999999092381MD1999999+0011MW1521REMSYN100AAXX  30004 83344 21497 81405 10158 20155 39238 40227 75252 885// 333 10205 29089 55036 58001 69981;
0190833440999992003073012004-14950-040883FM-12+0905SBQV V0201401N005710042019N0200001N1+01791+01511102151ADDAY151061AY221061GF105991051071004501001001KA1240N+01381MA1999999092321MD1999999-0171MW1031REMSYN088AAXX  30124 83344 21498 51411 10179 20151 39232 40215 70352 85700 333 20138 59017 69934;
0167833440999992003073018004-14950-040883FM-12+0905SBQV V0201401N003110450019N0200001N1+02051+01681101841ADDAA106000091GF106991041071004501061001MA1999999092051MD1999999-0131REMSYN070AAXX  30184 83344 32498 61406 10205 20168 39205 40184 84760 333 59013;EQDQ01  00002PRCP06
0202833440999992003073100004-14950-040883FM-12+0905SBQV V0201401N001510042019N0040001N1+01741+01711101961ADDAY151061AY221061GF108991081071004501999999KA1240M+02111MA1999999092161MD1999999-0221MW1501REMSYN100AAXX  31004 83344 21496 81403 10174 20171 39216 40196 75052 887// 333 10211 29090 55047 59022 69911;
0167833440999992003073118004-14950-040883FM-12+0905SBQV V0201401N003610450019N0200001N1+02221+01551101591ADDAA106000091GF106991041041004501051001MA1999999091861MD1999999-0191REMSYN070AAXX  31184 83344 32498 61407 10222 20155 39186 40159 84450 333 59019;EQDQ01  00002PRCP06
0208833440999992003080100004-14950-040883FM-12+0905SBQV V0200501N003112200019N0100001N1+01651+01461101841ADDAA106000091GA1001+999999999GF100991001001999999001001KA1240M+02331MA1999999092041MD1999999-0121REMSYN082AAXX  01004 83344 32997 00506 10165 20146 39204 40184 333 10233 29083 55056 59012;EQDQ01  00002PRCP06
0186833440999992003080112004-14950-040883FM-12+0905SBQV V0200901N002610450019N0200001N1+01811+01511102071ADDAA106000091GF106991011011004501081021KA1240N+01201MA1999999092261MD1999999+0071REMSYN076AAXX  01124 83344 32498 60905 10181 20151 39226 40207 81182 333 20120 58007;EQDQ01  00002PRCP06
0167833440999992003080118004-14950-040883FM-12+0905SBQV V0201401N005112200019N0200001N1+02271+01311101671ADDAA106000091GF104991041051008001001001MA1999999091941MD1999999+0081REMSYN070AAXX  01184 83344 32598 41410 10227 20131 39194 40167 84500 333 58008;EQDQ01  00002PRCP06
0208833440999992003080200004-14950-040883FM-12+0905SBQV V0200901N001512200019N0040001N1+01591+01421102021ADDAA106000091GA1001+999999999GF100991001001999999001001KA1240M+02391MA1999999092201MD1999999+0161REMSYN082AAXX  02004 83344 32996 00903 10159 20142 39220 40202 333 10239 29079 55097 58016;EQDQ01  00002PRCP06
0186833440999992003080212004-14950-040883FM-12+0905SBQV V0200901N004610075019N0200001N1+01901+01451102211ADDAA106000091GF105991051051008001001001KA1240N+01131MA1999999092391MD1999999+0131REMSYN076AAXX  02124 83344 32598 50909 10190 20145 39239 40221 85500 333 20113 58013;EQDQ01  00002PRCP06
0167833440999992003080218004-14950-040883FM-12+0905SBQV V0201401N004610450019N0200001N1+02141+01381101921ADDAA106000091GF105991031051008001081001MA1999999092131MD1999999+0191REMSYN070AAXX  02184 83344 32598 51409 10214 20138 39213 40192 83580 333 58019;EQDQ01  00002PRCP06
0186833440999992003080312004-14950-040883FM-12+0905SBQV V0201401N003610042019N0200001N1+01711+01451102231ADDAA106000091GF106991061041004501001001KA1240N+01401MA1999999092361MD1999999-0031REMSYN076AAXX  03124 83344 32498 61407 10171 20145 39236 40223 86400 333 20140 59003;EQDQ01  00002PRCP06
0167833440999992003080318004-14950-040883FM-12+0905SBQV V0201401N004110450019N0200001N1+02151+01251101911ADDAA106000091GF105991031021004501081001MA1999999092121MD1999999-0011REMSYN070AAXX  03184 83344 32498 51408 10215 20125 39212 40191 83280 333 59001;EQDQ01  00002PRCP06
0190833440999992003080412004-14950-040883FM-12+0905SBQV V0200901N003110042019N0100001N1+01491+01381102201ADDAY151061AY221061GF108991081051004501999999KA1240N+01401MA1999999092321MD1999999-0041MW1521REMSYN088AAXX  04124 83344 21497 80906 10149 20138 39232 40220 75252 885// 333 20140 59004 69984;
0148833440999992003080418004-14950-040883FM-12+0905SBQV V0200901N002110042019N0100001N1+01811+01531101951ADDAA106000021GF108991081071004501999999MA1999999092091MD1999999-0031REMSYN070AAXX  04184 83344 32497 80904 10181 20153 39209 40195 887// 333 59003;
0202833440999992003080500004-14950-040883FM-12+0905SBQV V0200901N002110042019N0040001N1+01611+01571102051ADDAY151061AY221061GF108991081071004501999999KA1240M+01851MA1999999092161MD1999999-0081MW1521REMSYN100AAXX  05004 83344 21496 80904 10161 20157 39216 40205 75252 887// 333 10185 29093 55003 59008 69921;
0190833440999992003080512004-14950-040883FM-12+0905SBQV V0200901N003110042019N0040001N1+01691+01551102021ADDAY151061AY221061GF108991081071004501999999KA1240N+01401MA1999999092171MD1999999-0151MW1501REMSYN088AAXX  05124 83344 21496 80906 10169 20155 39217 40202 75052 887// 333 20140 59015 60014;
0198833440999992003080600004-14950-040883FM-12+0905SBQV V0201401N001510075019N0100001N1+01651+01541101931ADDAA106000091GF105991051051008001001001KA1240M+02191MA1999999092091MD1999999-0071REMSYN088AAXX  06004 83344 32597 51403 10165 20154 39209 40193 85500 333 10219 29087 55026 59007;EQDQ01  00002PRCP06
0186833440999992003080612004-14950-040883FM-12+0905SBQV V0200501N003110042019N0100001N1+01611+01551102021ADDAA106000091GF108991081071004501999999KA1240N+01471MA1999999092441MD1999999+0001REMSYN076AAXX  06124 83344 32497 80506 10161 20155 39244 40202 887// 333 20147 58000;EQDQ01  00002PRCP06
0167833440999992003080618004-14950-040883FM-12+0905SBQV V0201401N002110450019N0200001N1+02311+01431101541ADDAA106000091GF106991041021004501081001MA1999999091851MD1999999-0091REMSYN070AAXX  06184 83344 32498 61404 10231 20143 39185 40154 84280 333 59009;EQDQ01  00002PRCP06
0208833440999992003080700004-14950-040883FM-12+0905SBQV V0200501N001012200019N0100001N1+01691+01571101841ADDAA106000091GA1001+999999999GF100991001001999999001001KA1240M+02391MA1999999092021MD1999999-0071REMSYN082AAXX  07004 83344 32997 00502 10169 20157 39202 40184 333 10239 29085 55054 59007;EQDQ01  00002PRCP06
0186833440999992003080712004-14950-040883FM-12+0905SBQV V0200501N001512200019N0200001N1+01751+01331101941ADDAA106000091GF102991021011008001001001KA1240N+01101MA1999999092131MD1999999-0041REMSYN076AAXX  07124 83344 32598 20503 10175 20133 39213 40194 82100 333 20110 59004;EQDQ01  00002PRCP06
0167833440999992003080718004-14950-040883FM-12+0905SBQV V0201401N003112200019N0200001N1+02351+01241101541ADDAA106000091GF103991031011008001001001MA1999999091821MD1999999-0031REMSYN070AAXX  07184 83344 32598 31406 10235 20124 39182 40154 83100 333 59003;EQDQ01  00002PRCP06
0208833440999992003080800004-14950-040883FM-12+0905SBQV V0200901N000512200019N0040001N1+01571+01521101911ADDAA106000091GA1001+999999999GF100991001001999999001001KA1240M+02411MA1999999092041MD1999999+0021REMSYN082AAXX  08004 83344 32996 00901 10157 20152 39204 40191 333 10241 29077 55094 58002;EQDQ01  00002PRCP06
0186833440999992003080812004-14950-040883FM-12+0905SBQV V0200901N001512200019N0200001N1+02011+01251101911ADDAA106000091GF101991011011004501001001KA1240N+01021MA1999999092141MD1999999+0011REMSYN076AAXX  08124 83344 32498 10903 10201 20125 39214 40191 81100 333 20102 58001;EQDQ01  00002PRCP06
0167833440999992003080818004-14950-040883FM-12+0905SBQV V0200901N004612200019N0200001N1+02491+01341101531ADDAA106000091GF101991011011004501001001MA1999999091841MD1999999+0021REMSYN070AAXX  08184 83344 32498 10909 10249 20134 39184 40153 81100 333 58002;EQDQ01  00002PRCP06
0198833440999992003080900004-14950-040883FM-12+0905SBQV V0200901N001012200019N0100001N1+01751+01561101841ADDAA106000091GF102991021001022501061001KA1240M+02671MA1999999092111MD1999999+0071REMSYN088AAXX  09004 83344 32897 20902 10175 20156 39211 40184 82060 333 10267 29058 55105 58007;EQDQ01  00002PRCP06
0186833440999992003080912004-14950-040883FM-12+0905SBQV V0200901N004112200019N0200001N1+01921+01451102081ADDAA106000091GF102991021011004501001001KA1240N+01401MA1999999092311MD1999999+0171REMSYN076AAXX  09124 83344 32498 20908 10192 20145 39231 40208 82100 333 20140 58017;EQDQ01  00002PRCP06
0167833440999992003080918004-14950-040883FM-12+0905SBQV V0200901N004112200019N0200001N1+02371+01381101641ADDAA106000091GF104991021011004501031001MA1999999091971MD1999999+0131REMSYN070AAXX  09184 83344 32498 40908 10237 20138 39197 40164 82130 333 58013;EQDQ01  00002PRCP06
0186833440999992003081012004-14950-040883FM-12+0905SBQV V0200501N003612200019N0200001N1+01871+01371101961ADDAA106000091GF102991021001012501081001KA1240N+01381MA1999999092161MD1999999+0151REMSYN076AAXX  10124 83344 32698 20507 10187 20137 39216 40196 82080 333 20138 58015;EQDQ01  00002PRCP06
0167833440999992003081018004-14950-040883FM-12+0905SBQV V0201801N004110450019N0200001N1+02371+01321101641ADDAA106000091GF105991031011004501051001MA1999999091911MD1999999-0061REMSYN070AAXX  10184 83344 32498 51808 10237 20132 39191 40164 83150 333 59006;EQDQ01  00002PRCP06
0186833440999992003081112004-14950-040883FM-12+0905SBQV V0201401N003112200019N0200001N1+02051+01521101951ADDAA106000091GF106991021011008001001061KA1240N+01381MA1999999092191MD1999999-0031REMSYN076AAXX  11124 83344 32598 61406 10205 20152 39219 40195 82106 333 20138 59003;EQDQ01  00002PRCP06
0167833440999992003081118004-14950-040883FM-12+0905SBQV V0201401N005112200019N0200001N1+02471+01611101471ADDAA106000091GF106991041011008001001061MA1999999091821MD1999999-0091REMSYN070AAXX  11184 83344 32598 61410 10247 20161 39182 40147 84106 333 59009;EQDQ01  00002PRCP06
0198833440999992003081200004-14950-040883FM-12+0905SBQV V0200901N002110210019N0100001N1+01731+01471101831ADDAA106000091GF106991061001022501081001KA1240M+02691MA1999999092101MD1999999+0001REMSYN088AAXX  12004 83344 32897 60904 10173 20147 39210 40183 86080 333 10269 29075 55096 58000;EQDQ01  00002PRCP06
0167833440999992003081218004-14950-040883FM-12+0905SBQV V02099999999990042019N0200001N1+02111+01511101731ADDAA106000091GF106991061051004501001001MA1999999091991MD1999999+0171REMSYN070AAXX  12184 83344 32498 614// 10211 20151 39199 40173 86500 333 58017;EQDQ01  00002PRCP06
0198833440999992003081300004-14950-040883FM-12+0905SBQV V0201401N003110021019N0040001N1+01751+01641101921ADDAA106000091GF107991071071002501001001KA1240M+02251MA1999999092161MD1999999+0061REMSYN088AAXX  13004 83344 32396 71406 10175 20164 39216 40192 87700 333 10225 29084 55031 58006;EQDQ01  00002PRCP06
0190833440999992003081312004-14950-040883FM-12+0905SBQV V0201401N003110042019N0040001N1+01651+01561102141ADDAY151061AY221061GF108991081071004501999999KA1240N+01481MA1999999092311MD1999999+0041MW1211REMSYN088AAXX  13124 83344 21496 81406 10165 20156 39231 40214 72152 887// 333 20148 58004 69914;
0148833440999992003081318004-14950-040883FM-12+0905SBQV V0200901N003110075019N0200001N1+02061+01471101791ADDAA106000021GF106991061041008001001001MA1999999092031MD1999999+0041REMSYN070AAXX  13184 83344 32598 60906 10206 20147 39203 40179 86400 333 58004;
0198833440999992003081400004-14950-040883FM-12+0905SBQV V0201401N001512200019N0100001N1+01561+01451102031ADDAA106000091GF103991031001022501061001KA1240M+02131MA1999999092161MD1999999+0001REMSYN088AAXX  14004 83344 32897 31403 10156 20145 39216 40203 83060 333 10213 29087 55024 58000;EQDQ01  00002PRCP06
0186833440999992003081412004-14950-040883FM-12+0905SBQV V0200501N003110450019N0040001N1+01651+01411102151ADDAA106000091GF108991041071004501021999KA1240N+01361MA1999999092271MD1999999-0041REMSYN076AAXX  14124 83344 32496 80506 10165 20141 39227 40215 8472/ 333 20136 59004;EQDQ01  00002PRCP06
0167833440999992003081418004-14950-040883FM-12+0905SBQV V0201401N003112200019N0200001N1+02231+01511101541ADDAA106000091GF103991011011008001081001MA1999999091821MD1999999-0211REMSYN070AAXX  14184 83344 32598 31406 10223 20151 39182 40154 81180 333 59021;EQDQ01  00002PRCP06
0198833440999992003081500004-14950-040883FM-12+0905SBQV V0200901N002112200019N0100001N1+01671+01511101841ADDAA106000091GF102991001001999999001041KA1240M+02351MA1999999092021MD1999999+0041REMSYN088AAXX  15004 83344 32997 20904 10167 20151 39202 40184 80004 333 10235 29083 55071 58004;EQDQ01  00002PRCP06
0186833440999992003081512004-14950-040883FM-12+0905SBQV V0203601N003110450019N0200001N1+01971+01401101861ADDAA106000091GF107991021041008001081041KA1240N+01371MA1999999092091MD1999999-0181REMSYN076AAXX  15124 83344 32598 73606 10197 20140 39209 40186 82484 333 20137 59018;EQDQ01  00002PRCP06
0167833440999992003081518004-14950-040883FM-12+0905SBQV V0201401N005111050019N0200001N1+02531+01461101361ADDAA106000091GF106991011011008001061041MA1999999091721MD1999999-0101REMSYN070AAXX  15184 83344 32598 61410 10253 20146 39172 40136 81164 333 59010;EQDQ01  00002PRCP06
0208833440999992003081600004-14950-040883FM-12+0905SBQV V0200901N001512200019N0040001N1+01871+01571101611ADDAA106000091GA1001+999999999GF100991001001999999001001KA1240M+02711MA1999999091911MD1999999-0111REMSYN082AAXX  16004 83344 32996 00903 10187 20157 39191 40161 333 10271 29072 55081 59011;EQDQ01  00002PRCP06
0186833440999992003081612004-14950-040883FM-12+0905SBQV V0203601N005112200019N0200001N1+02091+01561101631ADDAA106000091GF103991001001999999001051KA1240N+01381MA1999999091961MD1999999-0131REMSYN076AAXX  16124 83344 32998 33610 10209 20156 39196 40163 80005 333 20138 59013;EQDQ01  00002PRCP06
0167833440999992003081618004-14950-040883FM-12+0905SBQV V0202701N003110450019N0200001N1+02891+01461101111ADDAA106000091GF107991031011008001031041MA1999999091571MD1999999-0151REMSYN070AAXX  16184 83344 32598 72706 10289 20146 39157 40111 83134 333 59015;EQDQ01  00002PRCP06
0186833440999992003081712004-14950-040883FM-12+0905SBQV V0203601N003119999999N0200001N1+02131+01721101611ADDAA106000091GF108991081001004501071999KA1240N+01401MA1999999092001MD1999999+0041REMSYN076AAXX  17124 83344 32498 83606 10213 20172 39200 40161 8807/ 333 20140 58004;EQDQ01  00002PRCP06
0167833440999992003081718004-14950-040883FM-12+0905SBQV V0203601N001510042019N0200001N1+02481+01681101371ADDAA106000091GF108991081051004501999999MA1999999091811MD1999999+0241REMSYN070AAXX  17184 83344 32498 83603 10248 20168 39181 40137 885// 333 58024;EQDQ01  00002PRCP06
0190833440999992003081812004-14950-040883FM-12+0905SBQV V0201401N003110042019N0040001N1+01891+01801102021ADDAY151061AY221061GF108991081071004501999999KA1240N+01691MA1999999092301MD1999999+0301MW1201REMSYN088AAXX  18124 83344 21496 81406 10189 20180 39230 40202 72052 887// 333 20169 58030 69964;
0171833440999992003081818004-14950-040883FM-12+0905SBQV V0201401N004110042019N0040001N1+01791+01681101971ADDAY151061AY221061GF108991081071004501999999MA1999999092191MD1999999+0381MW1161REMSYN082AAXX  18184 83344 21496 81408 10179 20168 39219 40197 71652 887// 333 58038 69951;
0202833440999992003081900004-14950-040883FM-12+0905SBQV V0200901N005110042019N0020001N1+01611+01551102291ADDAY151061AY221061GF108991081071004501999999KA1240M+02071MA1999999092461MD1999999+0391MW1511REMSYN100AAXX  19004 83344 21495 80910 10161 20155 39246 40229 75152 887// 333 10207 29096 55000 58039 69921;
0190833440999992003081912004-14950-040883FM-12+0905SBQV V0201401N003110042019N0100001N1+01561+01461102481ADDAY161061AY221061GF108991081071004501999999KA1240N+01451MA1999999092571MD1999999+0271MW1021REMSYN088AAXX  19124 83344 21497 81406 10156 20146 39257 40248 70262 887// 333 20145 58027 60034;
0171833440999992003081918004-14950-040883FM-12+0905SBQV V0201401N002110042019N0100001N1+01631+01571102281ADDAY151061AY221061GF108991081071004501999999MA1999999092411MD1999999+0221MW1521REMSYN082AAXX  19184 83344 21497 81404 10163 20157 39241 40228 75252 887// 333 58022 69941;
0202833440999992003082000004-14950-040883FM-12+0905SBQV V0200901N004110042019N0040001N1+01551+01481102391ADDAY151061AY221061GF108991081071004501999999KA1240M+01871MA1999999092471MD1999999+0011MW1021REMSYN100AAXX  20004 83344 21496 80908 10155 20148 39247 40239 70252 887// 333 10187 29095 55000 58001 69971;
0190833440999992003082012004-14950-040883FM-12+0905SBQV V0201401N003110042019N0040001N1+01521+01461102421ADDAY161061AY251061GF108991081071004501999999KA1240N+01381MA1999999092501MD1999999-0071MW1201REMSYN088AAXX  20124 83344 21496 81406 10152 20146 39250 40242 72065 887// 333 20138 59007 60034;
0171833440999992003082018004-14950-040883FM-12+0905SBQV V0201401N003110450019N0100001N1+01751+01501102231ADDAY151061AY221061GF108991041031004501021999MA1999999092331MD1999999-0081MW1021REMSYN082AAXX  20184 83344 21497 81406 10175 20150 39233 40223 70252 8432/ 333 59008 69911;
0202833440999992003082100004-14950-040883FM-12+0905SBQV V0201401N001510042019N0100001N1+01511+01451102231ADDAY151061AY221061GF108991081071004501999999KA1240M+01811MA1999999092311MD1999999-0161MW1201REMSYN100AAXX  21004 83344 21497 81403 10151 20145 39231 40223 72052 887// 333 10181 29094 55010 59016 69921;
0162833440999992003082112004-14950-040883FM-12+0905SBQV V0201401N005110042019N0200001N1+01591+01291102231ADDGF108991081051004501999999KA1240N+01381MA1999999092331MD1999999-0171REMSYN082AAXX  21124 83344 22498 81410 10159 20129 39233 40223 885// 333 20138 59017 69934;
0078833440999992003082118004-14950-040883FM-12+0905SBQV V02099999999999999999N9999999N1+99999+99999999999REMSYN069AAXX  21184 83344 32498 5140 10203 20154 39197 40177 85400 333 59036;
0198833440999992003082200004-14950-040883FM-12+0905SBQV V0200901N003610042019N0040001N1+01761+01611101911ADDAA106000091GF108991081051004501999999KA1240M+02101MA1999999092071MD1999999-0241REMSYN088AAXX  22004 83344 32496 80907 10176 20161 39207 40191 885// 333 10210 29085 55016 59024;EQDQ01  00002PRCP06
0190833440999992003082212004-14950-040883FM-12+0905SBQV V0201401N003110042019N0040001N1+01681+01581102061ADDAY151061AY221061GF108991081071004501999999KA1240N+01501MA1999999092241MD1999999-0091MW1161REMSYN088AAXX  22124 83344 21496 81406 10168 20158 39224 40206 71652 887// 333 20150 59009 69914;
0167833440999992003082218004-14950-040883FM-12+0905SBQV V0201401N003610450019N0200001N1+02031+01681101751ADDAA106000091GF107991041071004501021001MA1999999091991MD1999999+0021REMSYN070AAXX  22184 83344 32498 71407 10203 20168 39199 40175 84720 333 58002;EQDQ01  00002PRCP06
0202833440999992003082300004-14950-040883FM-12+0905SBQV V0201401N003110042019N0020001N1+01731+01671102031ADDAY161061AY251061GF108991081071004501999999KA1240M+02091MA1999999092211MD1999999+0141MW1501REMSYN100AAXX  23004 83344 21495 81406 10173 20167 39221 40203 75065 887// 333 10209 29092 55006 58014 60041;
0190833440999992003082312004-14950-040883FM-12+0905SBQV V0200901N005110042019N0200001N1+01851+01531102111ADDAY161061AY251061GF107991071071004501001001KA1240N+01651MA1999999092321MD1999999+0081MW1031REMSYN088AAXX  23124 83344 21498 70910 10185 20153 39232 40211 70365 87700 333 20165 58008 60044;
0167833440999992003082318004-14950-040883FM-12+0905SBQV V0201401N004110042019N0200001N1+02131+01411101791ADDAA106000091GF106991061071004501001001MA1999999092061MD1999999+0071REMSYN070AAXX  23184 83344 32498 61408 10213 20141 39206 40179 86700 333 58007;EQDQ01  00002PRCP06
0186833440999992003082412004-14950-040883FM-12+0905SBQV V0200901N002610042019N0100001N1+01791+01581102131ADDAA106000091GF108991081051004501999999KA1240N+01831MA1999999092301MD1999999-0021REMSYN076AAXX  24124 83344 32497 80905 10179 20158 39230 40213 885// 333 20183 59002;EQDQ01  00002PRCP06
0167833440999992003082418004-14950-040883FM-12+0905SBQV V0200901N003612200019N0200001N1+02351+01121101591ADDAA106000091GF102991021011004501001001MA1999999091861MD1999999-0201REMSYN070AAXX  24184 83344 32498 20907 10235 20112 39186 40159 82100 333 59020;EQDQ01  00002PRCP06
0186833440999992003082512004-14950-040883FM-12+0905SBQV V0200901N002612200019N0200001N1+01791+01631101871ADDAA106000091GF102991021041004501001001KA1240N+01321MA1999999092081MD1999999-0221REMSYN076AAXX  25124 83344 32498 20905 10179 20163 39208 40187 82400 333 20132 59022;EQDQ01  00002PRCP06
0171833440999992003082518004-14950-040883FM-12+0905SBQV V0200901N000510042019N0100001N1+02131+01841101451ADDAY161061AY221061GF108991081051004501999999MA1999999091721MD1999999-0141MW1021REMSYN082AAXX  25184 83344 21497 80901 10213 20184 39172 40145 70262 885// 333 59014 60031;
0208833440999992003082600004-14950-040883FM-12+0905SBQV V0200901N001512200019N0040001N1+01851+01691101611ADDAA106000091GA1001+999999999GF100991001001999999001001KA1240M+02651MA1999999091881MD1999999-0191REMSYN082AAXX  26004 83344 32496 00903 10185 20169 39188 40161 333 10265 29064 55064 59019;EQDQ01  00002PRCP06
0162833440999992003082612004-14950-040883FM-12+0905SBQV V0203601N005112200019N0200001N1+02191+01671101581ADDGF103991031011008001001001KA1240N+01611MA1999999091921MD1999999-0161REMSYN082AAXX  26124 83344 22598 33610 10219 20167 39192 40158 83100 333 20161 59016 60034;
0167833440999992003082618004-14950-040883FM-12+0905SBQV V0201401N001512200019N0200001N1+02711+01371101111ADDAA106000091GF105991041021008001001011MA1999999091551MD1999999-0171REMSYN070AAXX  26184 83344 32598 51403 10271 20137 39155 40111 84201 333 59017;EQDQ01  00002PRCP06
0208833440999992003082700004-14950-040883FM-12+0905SBQV V0209999C000012200019N0100001N1+01891+01681101561ADDAA106000091GA1001+999999999GF100991001001999999001001KA1240M+02841MA1999999091921MD1999999+0041REMSYN082AAXX  27004 83344 32997 00000 10189 20168 39192 40156 333 10284 29088 55098 58004;EQDQ01  00002PRCP06
0186833440999992003082712004-14950-040883FM-12+0905SBQV V0200901N002112200019N0200001N1+02271+01571101811ADDAA106000091GF102991021011004501001001KA1240N+01601MA1999999092161MD1999999+0241REMSYN076AAXX  27124 83344 32498 20904 10227 20157 39216 40181 82100 333 20160 58024;EQDQ01  00002PRCP06
0167833440999992003082718004-14950-040883FM-12+0905SBQV V0201401N004612200019N0200001N1+02481+01621101451ADDAA106000091GF104991021041004501081001MA1999999091841MD1999999+0291REMSYN070AAXX  27184 83344 32498 41409 10248 20162 39184 40145 82480 333 58029;EQDQ01  00002PRCP06
0198833440999992003082800004-14950-040883FM-12+0905SBQV V0200901N003110450019N0040001N1+01951+01751101711ADDAA106000091GF107991021041004501021011KA1240M+02631MA1999999092071MD1999999+0151REMSYN088AAXX  28004 83344 32496 70906 10195 20175 39207 40171 82421 333 10263 29075 55087 58015;EQDQ01  00002PRCP06
0186833440999992003082812004-14950-040883FM-12+0905SBQV V0200901N002610042019N0200001N1+01991+01681101841ADDAA106000091GF106991061061004501001001KA1240N+01571MA1999999092141MD1999999-0021REMSYN076AAXX  28124 83344 32498 60905 10199 20168 39214 40184 86600 333 20157 59002;EQDQ01  00002PRCP06
0167833440999992003082818004-14950-040883FM-12+0905SBQV V0200901N003110042019N0200001N1+02251+01691101171ADDAA106000091GF108991081071004501999999MA1999999091891MD1999999+0051REMSYN070AAXX  28184 83344 32498 80906 10225 20169 39189 40117 887// 333 58005;EQDQ01  00002PRCP06
0208833440999992003082900004-14950-040883FM-12+0905SBQV V0200501N001512200019N0100001N1+01771+01681101711ADDAA106000091GA1001+999999999GF100991001001999999001001KA1240M+02391MA1999999092001MD1999999-0071REMSYN082AAXX  29004 83344 32997 00503 10177 20168 39200 40171 333 10239 29086 55013 59007;EQDQ01  00002PRCP06
0186833440999992003082912004-14950-040883FM-12+0905SBQV V0200901N002110450019N0200001N1+02171+01741101851ADDAA106000091GF107991041041004501021001KA1240N+01581MA1999999092151MD1999999+0011REMSYN076AAXX  29124 83344 32498 70904 10217 20174 39215 40185 84420 333 20158 58001;EQDQ01  00002PRCP06
0167833440999992003082918004-14950-040883FM-12+0905SBQV V0200901N003110450019N0200001N1+02521+01691101471ADDAA106000091GF106991021011004501031001MA1999999091841MD1999999-0051REMSYN070AAXX  29184 83344 32498 60906 10252 20169 39184 40147 82130 333 59005;EQDQ01  00002PRCP06
0198833440999992003083000004-14950-040883FM-12+0905SBQV V0200901N002612200019N0040001N1+02011+01761101701ADDAA106000091GF104991041041004501001001KA1240M+02651MA1999999092061MD1999999+0061REMSYN088AAXX  30004 83344 32496 40905 10201 20176 39206 40170 84400 333 10265 29077 55016 58006;EQDQ01  00002PRCP06
0190833440999992003083112004-14950-040883FM-12+0905SBQV V0201401N005110042019N0100001N1+01891+01691102241ADDAY151061AY221061GF108991081071004501999999KA1240N+01671MA1999999092421MD1999999+0221MW1021REMSYN088AAXX  31124 83344 21497 81410 10189 20169 39242 40224 70252 887// 333 20167 58022 69954;
0167833440999992003083118004-14950-040883FM-12+0905SBQV V0200901N004110042019N0200001N1+02121+01721101881ADDAA106000091GF107991071071004501001001MA1999999092131MD1999999-0021REMSYN070AAXX  31184 83344 32498 70908 10212 20172 39213 40188 87700 333 59002;EQDQ01  00002PRCP06
0186833440999992003090112004-14950-040883FM-12+0905SBQV V0200901N003112200019N0200001N1+01871+01451102191ADDAA106000091GF104991021041004501081001KA1240N+01361MA1999999092371MD1999999-0051REMSYN076AAXX  01124 83344 32498 40906 10187 20145 39237 40219 82480 333 20136 59005;EQDQ01  00002PRCP06
0137833440999992003090118004-14950-040883FM-12+0905SBQV V0200901N003612200019N0200001N1+02351+01471999999ADDAA106000091GF102991999999012501999999REMSYN069AAXX  01184 83344 32698 20907 10235 20147 3217 40191 82080 333 58004;EQDQ01  00002PRCP06
0186833440999992003090212004-14950-040883FM-12+0905SBQV V0201401N003110450019N0200001N1+02171+01471102161ADDAA106000091GF107991021011008001031091KA1240N+01761MA1999999092421MD1999999+0051REMSYN076AAXX  02124 83344 32598 71406 10217 20147 39242 40216 82139 333 20176 58005;EQDQ01  00002PRCP06
0167833440999992003090218004-14950-040883FM-12+0905SBQV V0201401N004610450019N0200001N1+02391+01361101861ADDAA106000091GF107991041041004501051001MA1999999092131MD1999999-0041REMSYN070AAXX  02184 83344 32498 71409 10239 20136 39213 40186 84450 333 59004;EQDQ01  00002PRCP06
0208833440999992003090300004-14950-040883FM-12+0905SBQV V0200501N002612200019N0100001N1+01851+01641101901ADDAA106000091GA1001+999999999GF100991001001999999001001KA1240M+02511MA1999999092211MD1999999-0091REMSYN082AAXX  03004 83344 32997 00505 10185 20164 39221 40190 333 10251 29073 55070 59009;EQDQ01  00002PRCP06
0186833440999992003090312004-14950-040883FM-12+0905SBQV V0200901N005112200019N0200001N1+02011+01461102261ADDAA106000091GF106991031011008001001061KA1240N+01481MA1999999092511MD1999999+0091REMSYN076AAXX  03124 83344 32598 60910 10201 20146 39251 40226 83106 333 20148 58009;EQDQ01  00002PRCP06
0167833440999992003090318004-14950-040883FM-12+0905SBQV V0200901N005110450019N0200001N1+02311+01431101881ADDAA106000091GF107991021011008001031061MA1999999092171MD1999999+0041REMSYN070AAXX  03184 83344 32598 70910 10231 20143 39217 40188 82136 333 58004;EQDQ01  00002PRCP06
0198833440999992003090400004-14950-040883FM-12+0905SBQV V0200901N005719999999N0100001N1+01831+01581102251ADDAA106000091GF105991001001999999001051KA1240M+02471MA1999999092481MD1999999+0271REMSYN088AAXX  04004 83344 32997 50911 10183 20158 39248 40225 80005 333 10247 29075 55018 58027;EQDQ01  00002PRCP06
0190833440999992003090412004-14950-040883FM-12+0905SBQV V0200901N004110042019N0100001N1+01731+01641102391ADDAY161061AY221061GF108991081071004501999999KA1240N+01501MA1999999092571MD1999999+0061MW1521REMSYN088AAXX  04124 83344 21497 80908 10173 20164 39257 40239 75262 887// 333 20150 58006 60054;
0171833440999992003090418004-14950-040883FM-12+0905SBQV V0200901N002610042019N0100001N1+01641+01571102291ADDAY121061AY221061GF108991081071004501999999MA1999999092381MD1999999+0211MW1521REMSYN082AAXX  04184 83344 21497 80905 10164 20157 39238 40229 75222 887// 333 58021 69921;
0202833440999992003090500004-14950-040883FM-12+0905SBQV V0200901N004110042019N0040001N1+01541+01491102461ADDAY151061AY221061GF108991081071004501999999KA1240M+02031MA1999999092571MD1999999+0091MW1021REMSYN100AAXX  05004 83344 21496 80908 10154 20149 39257 40246 70252 887// 333 10203 29019 55014 58009 69941;
0162833440999992003090512004-14950-040883FM-12+0905SBQV V0201401N007710042019N0100001N1+01461+01261102461ADDGF108991081071004501999999KA1240N+01251MA1999999092521MD1999999-0051REMSYN082AAXX  05124 83344 22497 81415 10146 20126 39252 40246 887// 333 20125 59005 69964;
0167833440999992003090518004-14950-040883FM-12+0905SBQV V0201401N004610450019N0200001N1+01961+01311102141ADDAA106000091GF106991041021004501051001MA1999999092261MD1999999-0121REMSYN070AAXX  05184 83344 32498 61409 10196 20131 39226 40214 84250 333 59012;EQDQ01  00002PRCP06
0198833440999992003090600004-14950-040883FM-12+0905SBQV V0200901N003610042019N0100001N1+01591+01421102351ADDAA106000091GF105991051021004501001001KA1240M+02011MA1999999092421MD1999999-0121REMSYN088AAXX  06004 83344 32497 50907 10159 20142 39242 40235 85200 333 10201 29083 55033 59012;EQDQ01  00002PRCP06
0186833440999992003090612004-14950-040883FM-12+0905SBQV V0201401N005110450019N0200001N1+01701+01171102411ADDAA106000091GF107991041061004501011001KA1240N+01201MA1999999092531MD1999999+0011REMSYN076AAXX  06124 83344 32498 71410 10170 20117 39253 40241 84610 333 20120 58001;EQDQ01  00002PRCP06
0167833440999992003090618004-14950-040883FM-12+0905SBQV V0200901N005110450019N0200001N1+02161+01041102011ADDAA106000091GF108991031071004501011051MA1999999092191MD1999999-0071REMSYN070AAXX  06184 83344 32498 80910 10216 20104 39219 40201 83715 333 59007;EQDQ01  00002PRCP06
0186833440999992003090712004-14950-040883FM-12+0905SBQV V0200901N005110042019N0200001N1+01771+01451102211ADDAA106000091GF106991061051004501001001KA1240N+01201MA1999999092391MD1999999-0141REMSYN076AAXX  07124 83344 32498 60910 10177 20145 39239 40221 86500 333 20120 59014;EQDQ01  00002PRCP06
0167833440999992003090718004-14950-040883FM-12+0905SBQV V0200901N003112200019N0200001N1+02131+01481101861ADDAA106000091GF104991021041004501031001MA1999999092051MD1999999-0141REMSYN070AAXX  07184 83344 32498 40906 10213 20148 39205 40186 82430 333 59014;EQDQ01  00002PRCP06
0202833440999992003090800004-14950-040883FM-12+0905SBQV V0200901N003110042019N0040001N1+01541+01481102231ADDAY161061AY221061GF108991081051004501999999KA1240M+02231MA1999999092361MD1999999+0131MW1521REMSYN100AAXX  08004 83344 21496 80906 10154 20148 39236 40223 75262 885// 333 10223 29085 55076 58013 60031;
0190833440999992003090812004-14950-040883FM-12+0905SBQV V0200901N003110450019N0200001N1+01751+01391102211ADDAY151061AY221061GF105991031061004501091001KA1240N+01251MA1999999092351MD1999999-0041MW1011REMSYN088AAXX  08124 83344 21498 50906 10175 20139 39235 40221 70152 83690 333 20125 59004 60044;
0167833440999992003090818004-14950-040883FM-12+0905SBQV V0201401N003610450019N0200001N1+02351+01361101691ADDAA106000091GF106991031021004501081001MA1999999091941MD1999999-0111REMSYN070AAXX  08184 83344 32498 61407 10235 20136 39194 40169 83280 333 59011;EQDQ01  00002PRCP06
0198833440999992003090900004-14950-040883FM-12+0905SBQV V0201401N003610042019N0040001N1+01731+01611101921ADDAA106000091GF108991081071004501999999KA1240M+02391MA1999999092131MD1999999-0231REMSYN088AAXX  09004 83344 32496 81407 10173 20161 39213 40192 887// 333 10239 29080 55076 59023;EQDQ01  00002PRCP06
0186833440999992003090912004-14950-040883FM-12+0905SBQV V0201401N003110042019N0200001N1+01951+01591102151ADDAA106000091GF107991051071004501011001KA1240N+01601MA1999999092371MD1999999+0021REMSYN076AAXX  09124 83344 32498 71406 10195 20159 39237 40215 85710 333 20160 58002;EQDQ01  00002PRCP06
0198833440999992003091000004-14950-040883FM-12+0905SBQV V0200501N002610042019N0100001N1+01631+01541101961ADDAA106000091GF106991061071004501001001KA1240M+02271MA1999999092181MD1999999+0051REMSYN088AAXX  10004 83344 32497 60505 10163 20154 39218 40196 86700 333 10227 29086 55060 58005;EQDQ01  00002PRCP06
0186833440999992003091012004-14950-040883FM-12+0905SBQV V0200901N002610042019N0200001N1+01951+01591102011ADDAA106000091GF107991071061004501001001KA1240N+01601MA1999999092231MD1999999-0141REMSYN076AAXX  10124 83344 32498 70905 10195 20159 39223 40201 87600 333 20160 59014;EQDQ01  00002PRCP06
0167833440999992003091018004-14950-040883FM-12+0905SBQV V0200901N002610450019N0200001N1+02271+01641101471ADDAA106000091GF106991021011004501091001MA1999999091801MD1999999-0191REMSYN070AAXX  10184 83344 32498 60905 10227 20164 39180 40147 82190 333 59019;EQDQ01  00002PRCP06
0198833440999992003091100004-14950-040883FM-12+0905SBQV V0200501N003110450019N0100001N1+01771+01611101801ADDAA106000091GF107991021041012501041081KA1240M+02331MA1999999092051MD1999999-0131REMSYN088AAXX  11004 83344 32697 70506 10177 20161 39205 40180 82448 333 10233 29083 55029 59013;EQDQ01  00002PRCP06
0186833440999992003091112004-14950-040883FM-12+0905SBQV V0200501N004112200019N0200001N1+02001+01601101741ADDAA106000091GF104991021021004501051001KA1240N+01581MA1999999092031MD1999999-0201REMSYN076AAXX  11124 83344 32498 40508 10200 20160 39203 40174 82250 333 20158 59020;EQDQ01  00002PRCP06
0167833440999992003091118004-14950-040883FM-12+0905SBQV V0200501N003112200019N0200001N1+02731+01321101231ADDAA106000091GF104991041021004501001001MA1999999091661MD1999999-0141REMSYN070AAXX  11184 83344 32498 40506 10273 20132 39166 40123 84200 333 59014;EQDQ01  00002PRCP06
0208833440999992003091200004-14950-040883FM-12+0905SBQV V0200901N003112200019N0100001N1+01891+01661101621ADDAA106000091GA1001+999999999GF100991001001999999001001KA1240M+02791MA1999999091941MD1999999-0111REMSYN082AAXX  12004 83344 32497 00906 10189 20166 39194 40162 333 10279 29073 55103 59011;EQDQ01  00002PRCP06
0186833440999992003091212004-14950-040883FM-12+0905SBQV V0200901N005110042019N0200001N1+02101+01391102041ADDAA106000091GF107991071071004501001001KA1240N+01501MA1999999092311MD1999999+0281REMSYN076AAXX  12124 83344 32498 70910 10210 20139 39231 40204 87700 333 20150 58028;EQDQ01  00002PRCP06
0208833440999992003091300004-14950-040883FM-12+0905SBQV V0200901N003112200019N0100001N1+01751+01631101951ADDAA106000091GA1001+999999999GF100991001001999999001001KA1240M+02611MA1999999092241MD1999999+0301REMSYN082AAXX  13004 83344 32997 00906 10175 20163 39224 40195 333 10261 29075 55101 58030;EQDQ01  00002PRCP06
0186833440999992003091312004-14950-040883FM-12+0905SBQV V02099999999992200019N0200001N1+02051+01131102021ADDAA106000091GF102991021011004501001001KA1240N+01251MA1999999092271MD1999999-0041REMSYN076AAXX  13124 83344 32498 209// 10205 20113 39227 40202 82100 333 20125 59004;EQDQ01  00002PRCP06
0167833440999992003091318004-14950-040883FM-12+0905SBQV V0200901N003112200019N0200001N1+02491+01211101521ADDAA106000091GF101991011011004501001001MA1999999091861MD1999999-0091REMSYN070AAXX  13184 83344 32498 10906 10249 20121 39186 40152 81100 333 59009;EQDQ01  00002PRCP06
0167833440999992003091418004-14950-040883FM-12+0905SBQV V0200901N005112200019N0200001N1+02651+01451101321ADDAA106000091GF103991031001012501081001MA1999999091681MD1999999-0181REMSYN070AAXX  14184 83344 32698 30910 10265 20145 39168 40132 83080 333 59018;EQDQ01  00002PRCP06
0186833440999992003091512004-14950-040883FM-12+0905SBQV V0200501N004610450019N0200001N1+01931+01471101971ADDAA106000091GF107991041071004501021001KA1240N+01681MA1999999092231MD1999999+0111REMSYN076AAXX  15124 83344 32498 70509 10193 20147 39223 40197 84720 333 20168 58011;EQDQ01  00002PRCP06
0167833440999992003091618004-14950-040883FM-12+0905SBQV V0200901N004112200019N0200001N1+02391+01381101461ADDAA106000091GF103991031061004501041001MA1999999091811MD1999999-0161REMSYN070AAXX  16184 83344 32498 30908 10239 20138 39181 40146 83640 333 59016;EQDQ01  00002PRCP06
0208833440999992003091700004-14950-040883FM-12+0905SBQV V0200901N002612200019N0040001N1+01791+01471101801ADDAA106000091GA1001+999999999GF100991001001999999001001KA1240M+02531MA1999999092021MD1999999-0111REMSYN082AAXX  17004 83344 32996 00905 10179 20147 39202 40180 333 10253 29074 55068 59011;EQDQ01  00002PRCP06
0186833440999992003091712004-14950-040883FM-12+0905SBQV V0200501N002110042019N0200001N1+01801+01541101731ADDAA106000091GF105991051021004501001001KA1240N+01501MA1999999091971MD1999999-0221REMSYN076AAXX  17124 83344 32498 50504 10180 20154 39197 40173 85200 333 20150 59022;EQDQ01  00002PRCP06
0167833440999992003091718004-14950-040883FM-12+0905SBQV V0201801N000510042019N0200001N1+02631+01561101171ADDAA106000091GF105991051021004501001001MA1999999091581MD1999999-0231REMSYN070AAXX  17184 83344 32498 51801 10263 20156 39158 40117 85200 333 59023;EQDQ01  00002PRCP06
0208833440999992003091800004-14950-040883FM-12+0905SBQV V0200901N002112200019N0100001N1+01871+01491101591ADDAA106000091GA1001+999999999GF100991001001999999001001KA1240M+02571MA1999999091861MD1999999-0161REMSYN082AAXX  18004 83344 32997 00904 10187 20149 39186 40159 333 10257 29074 55096 59016;EQDQ01  00002PRCP06
0186833440999992003091812004-14950-040883FM-12+0905SBQV V0200901N003110042019N0200001N1+02201+01461101751ADDAA106000091GF107991071071004501001001KA1240N+01761MA1999999092091MD1999999+0121REMSYN076AAXX  18124 83344 32498 70906 10220 20146 39209 40175 87700 333 20176 58012;EQDQ01  00002PRCP06
0167833440999992003091818004-14950-040883FM-12+0905SBQV V0201401N004110450019N0200001N1+02631+01261101331ADDAA106000091GF106991041011008001081001MA1999999091771MD1999999+0191REMSYN070AAXX  18184 83344 32598 61408 10263 20126 39177 40133 84180 333 58019;EQDQ01  00002PRCP06
0208833440999992003091900004-14950-040883FM-12+0905SBQV V0201401N004612200019N0100001N1+01961+01721101611ADDAA106000091GA1001+999999999GF100991001001999999001001KA1240M+02691MA1999999091981MD1999999+0121REMSYN082AAXX  19004 83344 32997 01409 10196 20172 39198 40161 333 10269 29069 55089 58012;EQDQ01  00002PRCP06
0190833440999992003091912004-14950-040883FM-12+0905SBQV V0201401N003110042019N0040001N1+01851+01661101741ADDAY151061AY251061GF108991081071004501999999KA1240N+01651MA1999999092031MD1999999-0061MW1201REMSYN088AAXX  19124 83344 21496 81406 10185 20166 39203 40174 72055 887// 333 20165 59006 69964;
0176833440999992003091918004-14950-040883FM-12+0905SBQV V0201401N003610042019N0200001N1+02231+01781101431ADDAA106000021AY121061AY221061GF108991081051004501999999MA1999999091761MD1999999-0011MW1161REMSYN076AAXX  19184 83344 31498 81407 10223 20178 39176 40143 71622 885// 333 59001;
0202833440999992003092000004-14950-040883FM-12+0905SBQV V0201401N003610042019N0040001N1+02131+01721101761ADDAY151061AY221061GF108991081051004501999999KA1240M+02291MA1999999092001MD1999999+0021MW1521REMSYN100AAXX  20004 83344 21496 81407 10213 20172 39200 40176 75252 885// 333 10229 29080 55009 58002 69981;
0190833440999992003092012004-14950-040883FM-12+0905SBQV V0201401N002610042019N0040001N1+02061+01741101731ADDAY151061AY251061GF108991081071004501999999KA1240N+01711MA1999999092091MD1999999+0061MW1021REMSYN088AAXX  20124 83344 21496 81405 10206 20174 39209 40173 70255 887// 333 20171 58006 60014;
0167833440999992003092018004-14950-040883FM-12+0905SBQV V0201401N005110075019N0200001N1+02201+01691101461ADDAA106000091GF105991051021008001001001MA1999999091781MD1999999+0021REMSYN070AAXX  20184 83344 32598 51410 10220 20169 39178 40146 85200 333 58002;EQDQ01  00002PRCP06
0208833440999992003092100004-14950-040883FM-12+0905SBQV V0201401N003112200019N0100001N1+01791+01671101751ADDAA106000091GA1001+999999999GF100991001001999999001001KA1240M+02401MA1999999092041MD1999999+0041REMSYN082AAXX  21004 83344 32497 01406 10179 20167 39204 40175 333 10240 29085 55054 58004;EQDQ01  00002PRCP06
0186833440999992003092112004-14950-040883FM-12+0905SBQV V0201401N003110042019N0100001N1+01851+01581101911ADDAA106000091GF108991081071004501999999KA1240N+01521MA1999999092141MD1999999+0051REMSYN076AAXX  21124 83344 32497 81406 10185 20158 39214 40191 887// 333 20152 58005;EQDQ01  00002PRCP06
0167833440999992003092118004-14950-040883FM-12+0905SBQV V0201401N003110450019N0200001N1+02521+01551101461ADDAA106000091GF106991041031004501051001MA1999999091851MD1999999+0071REMSYN070AAXX  21184 83344 32498 61406 10252 20155 39185 40146 84350 333 58007;EQDQ01  00002PRCP06
0202833440999992003092200004-14950-040883FM-12+0905SBQV V0200901N003110021019N0040001N1+01811+01751101861ADDAY161061AY251061GF108991081071002501999999KA1240M+02571MA1999999092111MD1999999+0071MW1511REMSYN100AAXX  22004 83344 21396 80906 10181 20175 39211 40186 75165 887// 333 10257 29083 55047 58007 60011;
0190833440999992003092212004-14950-040883FM-12+0905SBQV V0201401N003110021019N0040001N1+01851+01761101941ADDAY161061AY251061GF108991081071002501999999KA1240N+01851MA1999999092181MD1999999+0041MW1541REMSYN088AAXX  22124 83344 21396 81406 10185 20176 39218 40194 75465 887// 333 20185 58004 60044;
0148833440999992003092218004-14950-040883FM-12+0905SBQV V0201401N004610450019N0200001N1+02451+01331101451ADDAA106000021GF106991021051004501031091MA1999999091821MD1999999-0031REMSYN070AAXX  22184 83344 32498 61409 10245 20133 39182 40145 82539 333 59003;
0208833440999992003092400004-14950-040883FM-12+0905SBQV V0200501N001512200019N0100001N1+01671+01221101441ADDAA106000091GA1001+999999999GF100991001001999999001001KA1240M+02651MA1999999095711MD1999999-0231REMSYN082AAXX  24004 83344 32997 00503 10167 20122 39571 40144 333 10265 29062 55105 59023;EQDQ01  00002PRCP06
0196833440999992003092412004-14950-040883FM-12+0905SBQV V0200501N003112200019N0200001N1+02171+01271101641ADDAA106000091GA1001+999999999GF100991001001999999001001KA1240N+01181MA1999999091931MD1999999-0091REMSYN070AAXX  24124 83344 32998 00506 10217 20127 39193 40164 333 20118 59009;EQDQ01  00002PRCP06
0177833440999992003092418004-14950-040883FM-12+0905SBQV V0201401N002112200019N0200001N1+02911+01021101001ADDAA106000091GA1001+999999999GF100991001001999999001001MA1999999091411MD1999999-0231REMSYN064AAXX  24184 83344 32998 01404 10291 20102 39141 40100 333 59023;EQDQ01  00002PRCP06
0208833440999992003092500004-14950-040883FM-12+0905SBQV V0200901N002112200019N0100001N1+01811+01431101321ADDAA106000091GA1001+999999999GF100991001001999999001001KA1240M+02951MA1999999091681MD1999999-0091REMSYN082AAXX  25004 83344 32997 00904 10181 20143 39168 40132 333 10295 29062 55108 59009;EQDQ01  00002PRCP06
0196833440999992003092512004-14950-040883FM-12+0905SBQV V0203601N002112200019N0200001N1+02531+01341101341ADDAA106000091GA1001+999999999GF100991001001999999001001KA1240N+01431MA1999999091761MD1999999-0171REMSYN070AAXX  25124 83344 32998 03604 10253 20134 39176 40134 333 20143 59017;EQDQ01  00002PRCP06
0167833440999992003092518004-14950-040883FM-12+0905SBQV V0201801N003112200019N0200001N1+02991+01351100931ADDAA106000091GF102991021011004501001001MA1999999091391MD1999999-0021REMSYN070AAXX  25184 83344 32498 21806 10299 20135 39139 40093 82100 333 59002;EQDQ01  00002PRCP06
0208833440999992003092600004-14950-040883FM-12+0905SBQV V0200901N002112200019N0040001N1+01881+01361101331ADDAA106000091GA1001+999999999GF100991001001999999001001KA1240M+03191MA1999999091691MD1999999+0011REMSYN082AAXX  26004 83344 32996 00904 10188 20136 39169 40133 333 10319 29058 55108 58001;EQDQ01  00002PRCP06
0186833440999992003092612004-14950-040883FM-12+0905SBQV V0203601N002112200019N0200001N1+02241+01291101511ADDAA106000091GF103991001001999999001051KA1240N+01181MA1999999091871MD1999999+0111REMSYN076AAXX  26124 83344 32998 33604 10224 20129 39187 40151 80005 333 20118 58011;EQDQ01  00002PRCP06
0167833440999992003092618004-14950-040883FM-12+0905SBQV V0201401N003112200019N0200001N1+02991+01181100921ADDAA106000091GF104991001001999999001051MA1999999091381MD1999999-0011REMSYN070AAXX  26184 83344 32998 41406 10299 20118 39138 40092 80005 333 59001;EQDQ01  00002PRCP06
0208833440999992003092700004-14950-040883FM-12+0905SBQV V0200901N001512200019N0100001N1+01871+01531101261ADDAA106000091GA1001+999999999GF100991001001999999001001KA1240M+03031MA1999999091651MD1999999-0041REMSYN082AAXX  27004 83344 32997 00903 10187 20153 39165 40126 333 10303 29063 55101 59004;EQDQ01  00002PRCP06
0196833440999992003092712004-14950-040883FM-12+0905SBQV V0203601N003112200019N0200001N1+02441+01451101191ADDAA106000091GA1001+999999999GF100991001001999999001001KA1240N+01251MA1999999091631MD1999999-0241REMSYN070AAXX  27124 83344 32998 03606 10244 20145 39163 40119 333 20125 59024;EQDQ01  00002PRCP06
0167833440999992003092718004-14950-040883FM-12+0905SBQV V0200501N002612200019N0200001N1+03111+01091100601ADDAA106000091GF104991001001999999001081MA1999999091131MD1999999-0051REMSYN070AAXX  27184 83344 32998 40505 10311 20109 39113 40060 80008 333 59005;EQDQ01  00002PRCP06
0208833440999992003092800004-14950-040883FM-12+0905SBQV V0200501N004612200019N0040001N1+02031+01521100901ADDAA106000091GA1001+999999999GF100991001001999999001001KA1240M+03151MA1999999091401MD1999999-0251REMSYN082AAXX  28004 83344 32996 00509 10203 20152 39140 40090 333 10315 29057 55103 59025;EQDQ01  00002PRCP06
0247833440999992003092812004-14950-040883SY-MT+0905SBQV V0203601N00361220001CN0200001N1+02431+01911101131ADDAA106000091GF100991001001999999001001KA1240N+01871MA1101801091611MD1999999-0021MW1001REMSYN070AAXX  28124 83344 32998 03607 10243 20191 39161 40113 333 20187 59002;MET039SBQV 281200Z 07009KT CAVOK 24/18 Q1018;EQDQ01+000000PRSWM2Q02  00002PRCP06
0091833440999992003092813004-14950-040883FM-15+0905SBQV V0200401N00671220001CN0099001N1+02701+01801999999ADDMA1101801999999MW1001REMMET039SBQV 281300Z 04013KT CAVOK 27/18 Q1018;EQDQ01+000000PRSWM2
0091833440999992003092814004-14950-040883FM-15+0905SBQV V0200501N00571220001CN0099001N1+02901+01601999999ADDMA1101801999999MW1001REMMET039SBQV 281400Z 05011KT CAVOK 29/16 Q1018;EQDQ01+000000PRSWM2
0139833440999992003092815004-14950-040883FM-15+0905SBQV V0200501N001512200019N0112651N1+03001+01601999999ADDGA1021+007509999GF102991999999999999999999MA1101691999999MW1001REMMET045SBQV 281500Z 05003KT 9999 FEW025 30/16 Q1017;EQDQ01+000000PRSWM2
0139833440999992003092816004-14950-040883FM-15+0905SBQV V0200801N000512200019N0112651N1+03101+01501999999ADDGA1021+007509999GF102991999999999999999999MA1101591999999MW1001REMMET045SBQV 281600Z 08001KT 9999 FEW025 31/15 Q1016;EQDQ01+000000PRSWM2
0139833440999992003092817004-14950-040883FM-15+0905SBQV V0200101N001012200019N0112651N1+03301+01301999999ADDGA1041+007509999GF104991999999999999999999MA1101491999999MW1001REMMET045SBQV 281700Z 01002KT 9999 SCT025 33/13 Q1015;EQDQ01+000000PRSWM2
0167833440999992003092818004-14950-040883FM-12+0905SBQV V0200901N003110450019N0200001N1+02721+01951100781ADDAA106000091GF106991021041004501091091MA1999999091311MD1999999+0181REMSYN070AAXX  28184 83344 32498 60906 10272 20195 39131 40078 82499 333 58018;EQDQ01  00002PRCP06
0208833440999992003092900004-14950-040883FM-12+0905SBQV V0200901N003112200019N0040001N1+02051+01821101101ADDAA106000091GA1001+999999999GF100991001001999999001001KA1240M+03231MA1999999091581MD1999999+0181REMSYN082AAXX  29004 83344 32996 00906 10205 20182 39158 40110 333 10323 29077 55079 58018;EQDQ01  00002PRCP06
0186833440999992003092912004-14950-040883FM-12+0905SBQV V02099999999990042019N0200001N1+02141+01641101441ADDAA106000091GF108991081071004501999999KA1240N+01731MA1999999091831MD1999999+0221REMSYN076AAXX  29124 83344 32498 805// 10214 20164 39183 40144 887// 333 20173 58022;EQDQ01  00002PRCP06
0167833440999992003092918004-14950-040883FM-12+0905SBQV V02099999999990450019N0200001N1+02951+01401100831ADDAA106000091GF106991021061004501011001MA1999999091421MD1999999+0111REMSYN070AAXX  29184 83344 32498 605// 10295 20140 39142 40083 82610 333 58011;EQDQ01  00002PRCP06
0193833440999992003093000004-14950-040883FM-12+0905SBQV V0200901N001512200019N0040001N1+02031+01661101391ADDAA106000091GA1001+999999999GF100991001001999999001001KA1240M+03051MA1999999091781REMSYN081AAXX  30004 83344 32996 00903 10203 20166 39178 40139 333 10305 2969 55042 58020;EQDQ01  00002PRCP06
0186833440999992003093012004-14950-040883FM-12+0905SBQV V0200501N003610450019N0200001N1+02311+01651101481ADDAA106000091GF108991041051008001021999KA1240N+01811MA1999999091891MD1999999+0061REMSYN076AAXX  30124 83344 32598 80507 10231 20165 39189 40148 8452/ 333 20181 58006;EQDQ01  00002PRCP06
0162833440999992003093013004-14950-040883FM-15+0905SBQV V0200601N003610300019N0112651N1+02501+01601999999ADDGA1021+004809999GA2071+030009999GF107991999999999999999999MA1102101999999MW1001REMMET052SBQV 301300Z 06007KT 9999 FEW016 BKN100 25/16 Q1021;EQDQ01+000000PRSWM2
0162833440999992003093014004-14950-040883FM-15+0905SBQV V0200501N001510300019N0112651N1+02601+01501999999ADDGA1021+006009999GA2071+030009999GF107991999999999999999999MA1102001999999MW1001REMMET052SBQV 301400Z 05003KT 9999 FEW020 BKN100 26/15 Q1020;EQDQ01+000000PRSWM2
0195833440999992003093018004-14950-040883FM-12+0905SBQV V0201801N002110042019N0040001N1+02411+01821102151ADDAA106000091AY121061AY221061GF108991081071004501999999MA1999999091671MD1999999+0251MW1151REMSYN076AAXX  30184 83344 31496 81804 10241 20182 39167 40215 71522 887// 333 58025;EQDQ01  00002PRCP06
0196833440999992003100100004-14950-040883FM-12+0905SBQV V0201401N000510042019N0100001N1+02021+01801101461ADDAY151061AY221061GF108991081071004501999999KA1240M+02831MA1999999091871MD1999999+0091MW1021REMSYN094AAXX  01004 83344 21497 81401 10202 20180 39187 40146 70252 887// 333 10283 29078 55008 58009;
0190833440999992003100112004-14950-040883FM-12+0905SBQV V0201401N003110450019N0200001N1+02131+01801101561ADDAY161061AY251061GF108991041071004501011999KA1240N+01791MA1999999091941MD1999999+0051MW1021REMSYN088AAXX  01124 83344 21498 81406 10213 20180 39194 40156 70265 8471/ 333 20179 58005 60014;
0167833440999992003100118004-14950-040883FM-12+0905SBQV V0200901N003610450019N0200001N1+02421+01671101281ADDAA106000091GF108991041071004501021999MA1999999091681MD1999999+0011REMSYN070AAXX  01184 83344 32498 80907 10242 20167 39168 40128 8472/ 333 58001;EQDQ01  00002PRCP06
0198833440999992003100200004-14950-040883FM-12+0905SBQV V0201401N004119999999N0100001N1+01941+01721101561ADDAA106000091GF108991081071999999999999KA1240M+02671MA1999999091921MD1999999+0051REMSYN088AAXX  02004 83344 32997 81408 10194 20172 39192 40156 887// 333 10267 29080 55013 58005;EQDQ01  00002PRCP06
0190833440999992003100212004-14950-040883FM-12+0905SBQV V0201401N003610042019N0200001N1+01951+01911101711ADDAY151061AY221061GF107991071051004501001001KA1240N+01751MA1999999092021MD1999999+0081MW1021REMSYN088AAXX  02124 83344 21498 71407 10195 20191 39202 40171 70252 87500 333 20175 58008 69944;
0171833440999992003100218004-14950-040883FM-12+0905SBQV V0200901N003610450019N0200001N1+02051+01781101401ADDAY161061AY221061GF106991041061004501081001MA1999999091721MD1999999+0041MW1021REMSYN082AAXX  02184 83344 21498 60907 10205 20178 39172 40140 70262 84680 333 58004 60021;
0202833440999992003100300004-14950-040883FM-12+0905SBQV V0201401N002610042019N0040001N1+01811+01721101591ADDAY161061AY221061GF108991081051004501999999KA1240M+02471MA1999999091891MD1999999-0031MW1011REMSYN100AAXX  03004 83344 21496 81405 10181 20172 39189 40159 70162 885// 333 10247 29093 55013 59003 60021;
0209833440999992003100312004-14950-040883FM-12+0905SBQV V0201401N003610021019N0040001N1+01791+01701101881ADDAY151061AY221061GF108991999071002501011011KA1240N+01731MA1999999092111MD1999999+0091MW1501REMSYN088AAXX  03124 83344 21396 81407 10179 20170 39211 40188 75052 88711 333 20173 58009 60044;EQDQ01+000082SCOTLC
0171833440999992003100318004-14950-040883FM-12+0905SBQV V0201401N003110042019N0200001N1+02271+01711101451ADDAY151061AY221061GF106991061021004501001001MA1999999091801MD1999999+0081MW1031REMSYN082AAXX  03184 83344 21498 61406 10227 20171 39180 40145 70352 86200 333 58008 60011;
0198833440999992003100400004-14950-040883FM-12+0905SBQV V0201401N002610021019N0040001N1+01861+01741101781ADDAA106000091GF108991081071002501999999KA1240M+02361MA1999999092021MD1999999+0131REMSYN088AAXX  04004 83344 32396 81405 10186 20174 39202 40178 887// 333 10236 29088 55041 58013;EQDQ01  00002PRCP06
0162833440999992003100412004-14950-040883FM-12+0905SBQV V0201401N003110042019N0200001N1+01971+01891101881ADDGF106991061051004501001001KA1240N+01671MA1999999092151MD1999999+0041REMSYN082AAXX  04124 83344 22498 61406 10197 20189 39215 40188 86500 333 20167 58004 60014;
0167833440999992003100418004-14950-040883FM-12+0905SBQV V0201801N005110450019N0200001N1+02311+01781101411ADDAA106000091GF106991041041004501061001MA1999999091761MD1999999-0041REMSYN070AAXX  04184 83344 32498 61810 10231 20178 39176 40141 84460 333 59004;EQDQ01  00002PRCP06
0198833440999992003100500004-14950-040883FM-12+0905SBQV V0201401N003110042019N0040001N1+01901+01711101691ADDAA106000091GF107991051071004501051001KA1240M+02671MA1999999092001MD1999999-0021REMSYN088AAXX  05004 83344 32496 71406 10190 20171 39200 40169 85750 333 10267 29087 55055 59002;EQDQ01  00002PRCP06
0186833440999992003100512004-14950-040883FM-12+0905SBQV V0201401N004110042019N0100001N1+02001+01661101701ADDAA106000091GF108991081071004501999999KA1240N+01661MA1999999092011MD1999999-0141REMSYN076AAXX  05124 83344 32497 81408 10200 20166 39201 40170 887// 333 20166 59014;EQDQ01  00002PRCP06
0167833440999992003100518004-14950-040883FM-12+0905SBQV V0201401N003612200019N0200001N1+02371+01541101231ADDAA106000091GF104991021021004501011001MA1999999091601MD1999999-0161REMSYN070AAXX  05184 83344 32498 41407 10237 20154 39160 40123 82210 333 59016;EQDQ01  00002PRCP06
0198833440999992003100600004-14950-040883FM-12+0905SBQV V0201401N001010120019N0100001N1+01841+01691101481ADDAA106000091GF106991061001012501051001KA1240M+02511MA1999999091791MD1999999-0211REMSYN088AAXX  06004 83344 32697 61402 10184 20169 39179 40148 86050 333 10251 29081 55052 59021;EQDQ01  00002PRCP06
0186833440999992003100612004-14950-040883FM-12+0905SBQV V0200501N003112200019N0200001N1+02371+01561101431ADDAA106000091GF102991021021004501001001KA1240N+01401MA1999999091821MD1999999-0191REMSYN076AAXX  06124 83344 32498 20506 10237 20156 39182 40143 82200 333 20140 59019;EQDQ01  00002PRCP06
0167833440999992003100618004-14950-040883FM-12+0905SBQV V0201401N004110450019N0200001N1+02691+01671100981ADDAA106000091GF106991021021004501081051MA1999999091441MD1999999-0161REMSYN070AAXX  06184 83344 32498 61408 10269 20167 39144 40098 82285 333 59016;EQDQ01  00002PRCP06
0198833440999992003100700004-14950-040883FM-12+0905SBQV V0200501N004112200019N0040001N1+01881+01691101291ADDAA106000091GF104991001001999999001091KA1240M+02771MA1999999091721MD1999999-0071REMSYN088AAXX  07004 83344 32996 40508 10188 20169 39172 40129 80009 333 10277 29073 55091 59007;EQDQ01  00002PRCP06
0186833440999992003100712004-14950-040883FM-12+0905SBQV V0200501N005112200019N0200001N1+02511+01221101481ADDAA106000091GF104991001001999999001051KA1240N+01451MA1999999091911MD1999999+0091REMSYN076AAXX  07124 83344 32998 40510 10251 20122 39191 40148 80005 333 20145 58009;EQDQ01  00002PRCP06
0167833440999992003100718004-14950-040883FM-12+0905SBQV V0201401N005110075019N0200001N1+02701+01511101121ADDAA106000091GF106991061011008001001001MA1999999091521MD1999999+0081REMSYN070AAXX  07184 83344 32598 61410 10270 20151 39152 40112 86100 333 58008;EQDQ01  00002PRCP06
0186833440999992003100812004-14950-040883FM-12+0905SBQV V0201401N004112200019N0200001N1+02161+01381101551ADDAA106000091GF103991031021004501001001KA1240N+01611MA1999999091891MD1999999-0021REMSYN076AAXX  08124 83344 32498 31408 10216 20138 39189 40155 83200 333 20161 59002;EQDQ01  00002PRCP06
0167833440999992003100818004-14950-040883FM-12+0905SBQV V0200901N004112200019N0200001N1+02851+01151101021ADDAA106000091GF104991021011004501001021MA1999999091491MD1999999+0431REMSYN070AAXX  08184 83344 32498 40908 10285 20115 39149 40102 82102 333 58043;EQDQ01  00002PRCP06
0208833440999992003100900004-14950-040883FM-12+0905SBQV V0200901N003112200019N0100001N1+01981+01461101511ADDAA106000091GA1001+999999999GF100991001001999999001001KA1240M+02931MA1999999091871MD1999999-0031REMSYN082AAXX  09004 83344 32997 00906 10198 20146 39187 40151 333 10293 29060 55108 59003;EQDQ01  00002PRCP06
0186833440999992003100912004-14950-040883FM-12+0905SBQV V0200501N004110042019N0200001N1+02251+01501101571ADDAA106000091GF106991061071004501001001KA1240N+01351MA1999999091951MD1999999+0061REMSYN076AAXX  09124 83344 32498 60508 10225 20150 39195 40157 86700 333 20135 58006;EQDQ01  00002PRCP06
0167833440999992003100918004-14950-040883FM-12+0905SBQV V0200501N003119999999N0200001N1+02771+01161101111ADDAA106000091GF108991001001999999001071MA1999999091511MD1999999+0021REMSYN070AAXX  09184 83344 32998 80506 10277 20116 39151 40111 80007 333 58002;EQDQ01  00002PRCP06
0198833440999992003101000004-14950-040883FM-12+0905SBQV V0200901N004119999999N0100001N1+01891+01641101351ADDAA106000091GF105991001001999999001061KA1240M+02871MA1999999091731MD1999999+0141REMSYN088AAXX  10004 83344 32997 50908 10189 20164 39173 40135 80006 333 10287 29068 55082 58014;EQDQ01  00002PRCP06
0202833440999992003101012004-14950-040883FM-12+0905SBQV V0203601N004619999999N0200001N1+02331+01421101481ADDAA106000091GF106991001001999999001091KA1240N+01571MA1999999091861MD1999999-0091REMSYN076AAXX  10124 83344 32698 63609 10233 20142 39186 40148 80009 333 20157 59009;EQDQ01+012502SCOLCBQ02  00002PRCP06
0167833440999992003101018004-14950-040883FM-12+0905SBQV V0201401N003112200019N0200001N1+02891+01311100941ADDAA106000091GF104991001001999999001021MA1999999091441MD1999999-0071REMSYN070AAXX  10184 83344 32998 41406 10289 20131 39144 40094 80002 333 59007;EQDQ01  00002PRCP06
0198833440999992003101100004-14950-040883FM-12+0905SBQV V0200901N003112200019N0100001N1+01911+01661101281ADDAA106000091GF102991001001999999001011KA1240M+02771MA1999999091681MD1999999-0051REMSYN088AAXX  11004 83344 32997 20906 10191 20166 39168 40128 80001 333 10277 29067 55100 59005;EQDQ01  00002PRCP06
0196833440999992003101112004-14950-040883FM-12+0905SBQV V0200901N003112200019N0200001N1+02231+01271101511ADDAA106000091GA1001+999999999GF100991001001999999001001KA1240N+02271MA1999999091871MD1999999-0011REMSYN070AAXX  11124 83344 32998 00906 10223 20127 39187 40151 333 20227 59001;EQDQ01  00002PRCP06
0177833440999992003101118004-14950-040883FM-12+0905SBQV V0200901N004112200019N0200001N1+02831+00951101051ADDAA106000091GA1001+999999999GF100991001001999999001001MA1999999091481MD1999999+0041REMSYN064AAXX  11184 83344 32998 00908 10283 20095 39148 40105 333 58004;EQDQ01  00002PRCP06
0208833440999992003101200004-14950-040883FM-12+0905SBQV V0200901N003112200019N0100001N1+01881+01531101251ADDAA106000091GA1001+999999999GF100991001001999999001001KA1240M+02891MA1999999091641MD1999999-0041REMSYN082AAXX  12004 83344 32997 00906 10188 20153 39164 40125 333 10289 29062 55114 59004;EQDQ01  00002PRCP06
0186833440999992003101212004-14950-040883FM-12+0905SBQV V0200501N002112200019N0200001N1+02501+01221101261ADDAA106000091GF103991001001999999001051KA1240N+01491MA1999999091711MD1999999-0161REMSYN076AAXX  12124 83344 32998 30504 10250 20122 39171 40126 80005 333 20149 59016;EQDQ01  00002PRCP06
0167833440999992003101218004-14950-040883FM-12+0905SBQV V0201401N005112200019N0200001N1+02771+01461101021ADDAA106000091GF104991001001999999001051MA1999999091471MD1999999-0011REMSYN070AAXX  12184 83344 32998 41410 10277 20146 39147 40102 80005 333 59001;EQDQ01  00002PRCP06
0208833440999992003101300004-14950-040883FM-12+0905SBQV V0201401N002612200019N0040001N1+02061+01561101281ADDAA106000091GA1001+999999999GF100991001001999999001001KA1240M+02951MA1999999091751MD1999999+0111REMSYN082AAXX  13004 83344 32996 01405 10206 20156 39175 40128 333 10295 29060 55104 58011;EQDQ01  00002PRCP06
0186833440999992003101312004-14950-040883FM-12+0905SBQV V0201401N004610450019N0200001N1+02121+01511101541ADDAA106000091GF106991041041004501051001KA1240N+01661MA1999999091901MD1999999+0191REMSYN076AAXX  13124 83344 32498 61409 10212 20151 39190 40154 84450 333 20166 58019;EQDQ01  00002PRCP06
0167833440999992003101318004-14950-040883FM-12+0905SBQV V0201401N005110450019N0200001N1+02241+01621101341ADDAA106000091GF108991041031004501021999MA1999999091681MD1999999+0211REMSYN070AAXX  13184 83344 32498 81410 10224 20162 39168 40134 8432/ 333 58021;EQDQ01  00002PRCP06
0198833440999992003101400004-14950-040883FM-12+0905SBQV V0201401N003110042019N0040001N1+01921+01661101541ADDAA106000091GF108991081071004501999999KA1240M+02561MA1999999091881MD1999999+0131REMSYN088AAXX  14004 83344 32496 81406 10192 20166 39188 40154 887// 333 10256 29077 55040 58013;EQDQ01  00002PRCP06
0190833440999992003101412004-14950-040883FM-12+0905SBQV V0201401N005110042019N0100001N1+01661+01561101841ADDAY151061AY221061GF108991081071004501999999KA1240N+01511MA1999999092081MD1999999+0181MW1021REMSYN088AAXX  14124 83344 21497 81410 10166 20156 39208 40184 70252 887// 333 20151 58018 69984;
0167833440999992003101418004-14950-040883FM-12+0905SBQV V0201401N005110042019N0200001N1+02111+01441101521ADDAA106000091GF108991081071004501999999MA1999999091831MD1999999+0151REMSYN070AAXX  14184 83344 32498 81410 10211 20144 39183 40152 887// 333 58015;EQDQ01  00002PRCP06
0198833440999992003101500004-14950-040883FM-12+0905SBQV V0200901N005112200019N0040001N1+01741+01471101841ADDAA106000091GF102991021021004501001001KA1240M+02211MA1999999092041MD1999999+0161REMSYN088AAXX  15004 83344 32496 20910 10174 20147 39204 40184 82200 333 10221 29082 55012 58016;EQDQ01  00002PRCP06
0186833440999992003101512004-14950-040883FM-12+0905SBQV V0201401N005110450019N0200001N1+01781+01351101901ADDAA106000091GF108991041061004501021999KA1240N+01531MA1999999092111MD1999999+0031REMSYN076AAXX  15124 83344 32498 81410 10178 20135 39211 40190 8462/ 333 20153 58003;EQDQ01  00002PRCP06
0167833440999992003101518004-14950-040883FM-12+0905SBQV V0201401N005110042019N0200001N1+02181+01441101591ADDAA106000091GF108991081071004501999999MA1999999091861MD1999999+0031REMSYN070AAXX  15184 83344 32498 81410 10218 20144 39186 40159 887// 333 58003;EQDQ01  00002PRCP06
0198833440999992003101600004-14950-040883FM-12+0905SBQV V0201401N003610042019N0100001N1+01701+01461101901ADDAA106000091GF108991081071004501999999KA1240M+02411MA1999999092111MD1999999+0071REMSYN088AAXX  16004 83344 32497 81407 10170 20146 39211 40190 887// 333 10241 29078 55034 58007;EQDQ01  00002PRCP06
0167833440999992003101618004-14950-040883FM-12+0905SBQV V0201401N004110042019N0200001N1+02191+01441101551ADDAA106000091GF108991081071004501999999MA1999999091811MD1999999-0051REMSYN070AAXX  16184 83344 32498 81408 10219 20144 39181 40155 887// 333 59005;EQDQ01  00002PRCP06
0208833440999992003101700004-14950-040883FM-12+0905SBQV V0200901N002612200019N0040001N1+01681+01441101711ADDAA106000091GA1001+999999999GF100991001001999999001001KA1240M+02371MA1999999092081MD1999999-0031REMSYN082AAXX  17004 83344 32996 00905 10168 20144 39208 40171 333 10237 29077 55020 59003;EQDQ01  00002PRCP06
0186833440999992003101712004-14950-040883FM-12+0905SBQV V0201401N003610075019N0200001N1+01851+01121101841ADDAA106000091GF105991051011008001001001KA1240N+01331MA1999999092051MD1999999-0131REMSYN076AAXX  17124 83344 32598 51407 10185 20112 39205 40184 85100 333 20133 59013;EQDQ01  00002PRCP06
0167833440999992003101718004-14950-040883FM-12+0905SBQV V0201401N008010450019N0200001N1+02631+01261101331ADDAA106000091GF106991041011008001081001MA1999999091771MD1999999+0191REMSYN070AAXX  7184  83344 32598 61408 10263 20126 39177 40133 84180 333 58019;EQDQ01  00002PRCP06
0208833440999992003101800004-14950-040883FM-12+0905SBQV V0200901N003112200019N0100001N1+01681+01211101601ADDAA106000091GA1001+999999999GF100991001001999999001001KA1240M+02591MA1999999091841MD1999999-0241REMSYN082AAXX  18004 83344 32997 00906 10168 20121 39184 40160 333 10259 29063 55099 59024;EQDQ01  00002PRCP06
0186833440999992003101812004-14950-040883FM-12+0905SBQV V0201401N003112200019N0200001N1+02001+01301101771ADDAA106000091GF102991021001022501081001KA1240N+01251MA1999999092031MD1999999-0021REMSYN076AAXX  18124 83344 32898 21406 10200 20130 39203 40177 82080 333 20125 59002;EQDQ01  00002PRCP06
0167833440999992003101818004-14950-040883FM-12+0905SBQV V0201401N004112200019N0200001N1+02661+01371101251ADDAA106000091GF102991021011008001001001MA1999999091621MD1999999+0051REMSYN070AAXX  18184 83344 32598 21408 10266 20137 39162 40125 82100 333 58005;EQDQ01  00002PRCP06
0208833440999992003101900004-14950-040883FM-12+0905SBQV V0201401N002112200019N0100001N1+01861+01281101581ADDAA106000091GA1001+999999999GF100991001001999999001001KA1240M+02821MA1999999091901MD1999999+0061REMSYN082AAXX  19004 83344 32997 01404 10186 20128 39190 40158 333 10282 29062 55093 58006;EQDQ01  00002PRCP06
0196833440999992003101912004-14950-040883FM-12+0905SBQV V0200501N002612200019N0200001N1+02411+01201101681ADDAA106000091GA1001+999999999GF100991001001999999001001KA1240N+01451MA1999999092061MD1999999+0031REMSYN070AAXX  19124 83344 32998 00505 10241 20120 39206 40168 333 20145 58003;EQDQ01  00002PRCP06
0167833440999992003101918004-14950-040883FM-12+0905SBQV V0201401N004112200019N0200001N1+02711+01411101171ADDAA106000091GF103991001001999999001081MA1999999091661MD1999999+0041REMSYN070AAXX  19184 83344 32998 31408 10271 20141 39166 40117 80008 333 58004;EQDQ01  00002PRCP06
0196833440999992003102012004-14950-040883FM-12+0905SBQV V0201401N002612200019N0200001N1+02131+01011101681ADDAA106000091GA1001+999999999GF100991001001999999001001KA1240N+01411MA1999999091991MD1999999-0071REMSYN070AAXX  20124 83344 32998 01405 10213 20101 39199 40168 333 20141 59007;EQDQ01  00002PRCP06
0167833440999992003102018004-14950-040883FM-12+0905SBQV V0201401N001019999999N0200001N1+02961+00281101011ADDAA106000091GF106991001001999999001091MA1999999091541MD1999999-0121REMSYN070AAXX  20184 83344 32998 61402 10296 20028 39154 40101 80009 333 59012;EQDQ01  00002PRCP06
0208833440999992003102100004-14950-040883FM-12+0905SBQV V0203201N001012200019N0100001N1+01801+00741101431ADDAA106000091GA1001+999999999GF100991001001999999001001KA1240M+03061MA1999999091761MD1999999-0091REMSYN082AAXX  21004 83344 32997 03202 10180 20074 39176 40143 333 10306 29042 55103 59009;EQDQ01  00002PRCP06
0202833440999992003102112004-14950-040883FM-12+0905SBQV V0203601N003612200019N0200001N1+02541+01291101341ADDAA106000091GF103991001001999999001051KA1240N+01271MA1999999091761MD1999999-0231REMSYN076AAXX  21124 83344 32998 33607 10254 20129 39176 40134 83005 333 20127 59023;EQDQ01+000032SCOTLCQ02  00002PRCP06
0167833440999992003102118004-14950-040883FM-12+0905SBQV V0201401N004612200019N0200001N1+02961+01421100811ADDAA106000091GF106991041011008001001011MA1999999091301MD1999999-0241REMSYN070AAXX  21184 83344 32598 61409 10296 20142 39130 40081 84101 333 59024;EQDQ01  00002PRCP06
0208833440999992003102200004-14950-040883FM-12+0905SBQV V0200901N003112200019N0100001N1+02051+01741101111ADDAA106000091GA1001+999999999GF100991001001999999001001KA1240M+03171MA1999999091611MD1999999-0151REMSYN082AAXX  22004 83344 32997 00906 10205 20174 39161 40111 333 10317 29063 55104 59015;EQDQ01  00002PRCP06
0196833440999992003102212004-14950-040883FM-12+0905SBQV V0203601N004112200019N0200001N1+02491+01681101241ADDAA106000091GA1001+999999999GF100991001001999999001001KA1240N+01711MA1999999091711MD1999999-0051REMSYN070AAXX  22124 83344 32998 03608 10249 20168 39171 40124 333 20171 59005;EQDQ01  00002PRCP06
0167833440999992003102218004-14950-040883FM-12+0905SBQV V0200501N002612200019N0200001N1+03101+01421100721ADDAA106000091GF102991021021004501001001MA1999999091301MD1999999+0001REMSYN070AAXX  22184 83344 32498 20505 10310 20142 39130 40072 82200 333 58000;EQDQ01  00002PRCP06
0208833440999992003102300004-14950-040883FM-12+0905SBQV V0200901N004112200019N0040001N1+02151+01741101111ADDAA106000091GA1001+999999999GF100991001001999999001001KA1240M+03211MA1999999091611MD1999999+0001REMSYN082AAXX  23004 83344 32996 00908 10215 20174 39161 40111 333 10321 29062 55112 58000;EQDQ01  00002PRCP06
0196833440999992003102312004-14950-040883FM-12+0905SBQV V0203601N002612200019N0200001N1+02331+01551101241ADDAA106000091GA1001+999999999GF100991001001999999001001KA1240N+01771MA1999999091711MD1999999+0001REMSYN070AAXX  23124 83344 32998 03605 10233 20155 39171 40124 333 20177 58000;EQDQ01  00002PRCP06
0177833440999992003102318004-14950-040883FM-12+0905SBQV V0200501N003112200019N0200001N1+03211+00551100801ADDAA106000091GA1001+999999999GF100991001001999999001001MA1999999091411MD1999999+0111REMSYN064AAXX  23184 83344 32998 00506 10321 20055 39141 40080 333 58011;EQDQ01  00002PRCP06
0162833440999992003102400004-14950-040883FM-12+0905SBQV V0200901N004112200019N0100001N1+02101+01321999999ADDAA106000091GA1001+999999999GF100991001001999999001001REMSYN078AAXX  24004 83344 32997 00908 10210 20132 10329 29051 39165 40119 55112 58004;EQDQ01  00002PRCP06
0146833440999992003102412004-14950-040883FM-12+0905SBQV V0200901N003119999999N0200001N1+02331+01451999999ADDAA106000091GF107991999999008001999999REMSYN078AAXX  24124 83344 32598 70906 10233 20145 20145 20167 38213 39213 58042 83366;EQDQ01  00002PRCP06
0138833440999992003102418004-14950-040883FM-12+0905SBQV V0201401N004619999999N0200001N1+02761+01561999999ADDAA106000091GF107991999999008001999999REMSYN070AAXX  24184 83344 32598 71409 10276 20156 03276 39177 40131 333 58036;EQDQ01  00002PRCP06
0208833440999992003102500004-14950-040883FM-12+0905SBQV V0200901N003612200019N0100001N1+02071+01741101581ADDAA106000091GA1001+999999999GF100991001001999999001001KA1240M+02911MA1999999092001MD1999999+0351REMSYN082AAXX  25004 83344 32997 00907 10207 20174 39200 40158 333 10291 29067 55074 58035;EQDQ01  00002PRCP06
0186833440999992003102512004-14950-040883FM-12+0905SBQV V0200901N003610042019N0200001N1+02151+01611101691ADDAA106000091GF108991081051004501999999KA1240N+01791MA1999999092051MD1999999-0111REMSYN076AAXX  25124 83344 32498 80907 10215 20161 39205 40169 885// 333 20179 59011;EQDQ01  00002PRCP06
0167833440999992003102518004-14950-040883FM-12+0905SBQV V0200901N002610450019N0200001N1+02631+01561101141ADDAA106000091GF106991021041004501091001MA1999999091601MD1999999-0171REMSYN070AAXX  25184 83344 32498 60905 10263 20156 39160 40114 82490 333 59017;EQDQ01  00002PRCP06
0202833440999992003102600004-14950-040883FM-12+0905SBQV V0200901N001010042019N0040001N1+01841+01711101571ADDAY161061AY221061GF106991061051004501001001KA1240M+02751MA1999999091911MD1999999-0091MW1011REMSYN100AAXX  26004 83344 21496 60902 10184 20171 39191 40157 70162 86500 333 10275 29076 55011 59009 60501;
0190833440999992003102612004-14950-040883FM-12+0905SBQV V0200501N003610042019N0200001N1+02371+01491101421ADDAY161061AY221061GF106991061031004501001001KA1240N+01621MA1999999091811MD1999999-0241MW1021REMSYN088AAXX  26124 83344 21498 60507 10237 20149 39181 40142 70262 86300 333 20162 59024 60064;
0167833440999992003102618004-14950-040883FM-12+0905SBQV V0201401N004610042019N0200001N1+02611+01451101011ADDAA106000091GF106991061021004501001001MA1999999091461MD1999999-0141REMSYN070AAXX  26184 83344 32498 61409 10261 20145 39146 40101 86200 333 59014;EQDQ01  00002PRCP06
0186833440999992003102712004-14950-040883FM-12+0905SBQV V0200901N003610075019N0200001N1+02271+01521101361ADDAA106000091GF106991061021008001001001KA1240N+01021MA1999999091741MD1999999-0071REMSYN076AAXX  27124 83344 32598 60907 10227 20152 39174 40136 86200 333 20102 59007;EQDQ01  00002PRCP06
0167833440999992003102718004-14950-040883FM-12+0905SBQV V0201401N005110450019N0200001N1+02731+01391101001ADDAA106000091GF106991041011008001041091MA1999999091451MD1999999-0011REMSYN070AAXX  27184 83344 32598 61410 10273 20139 39145 40100 84149 333 59001;EQDQ01  00002PRCP06
0208833440999992003102800004-14950-040883FM-12+0905SBQV V0200901N002612200019N0100001N1+01851+01621101301ADDAA106000091GA1001+999999999GF100991001001999999001001KA1240M+02761MA1999999091681MD1999999+0011REMSYN082AAXX  28004 83344 32997 00905 10185 20162 39168 40130 333 10276 29070 55069 58001;EQDQ01  00002PRCP06
0186833440999992003102812004-14950-040883FM-12+0905SBQV V0200901N003610042019N0200001N1+02011+01501101591ADDAA106000091GF108991081071004501999999KA1240N+01551MA1999999091911MD1999999+0171REMSYN076AAXX  28124 83344 32498 80907 10201 20150 39191 40159 887// 333 20155 58017;EQDQ01  00002PRCP06
0167833440999992003102818004-14950-040883FM-12+0905SBQV V0201401N005710042019N0200001N1+02491+01431101241ADDAA106000091GF106991061021004501001001MA1999999091611MD1999999+0161REMSYN070AAXX  28184 83344 32498 61411 10249 20143 39161 40124 86200 333 58016;EQDQ01  00002PRCP06
0089833440999992003102900004-14950-040883FM-12+0905SBQV V02099999999999999999N9999999N1+99999+99999999999REMSYN080AAXX  29004 83344 997 00906 10186 20164 39186 40154 333 10265 29076 55063 58025;
0186833440999992003102912004-14950-040883FM-12+0905SBQV V0201401N005112200019N0200001N1+02211+01251101561ADDAA106000091GF105991021001012501081081KA1240N+01651MA1999999091921MD1999999+0011REMSYN076AAXX  29124 83344 32698 51410 10221 20125 39192 40156 82088 333 20165 58001;EQDQ01  00002PRCP06
0167833440999992003102918004-14950-040883FM-12+0905SBQV V0201401N004110450019N0200001N1+02531+01371101191ADDAA106000091GF107991041061012501091001MA1999999091581MD1999999-0031REMSYN070AAXX  29184 83344 32698 71408 10253 20137 39158 40119 84690 333 59003;EQDQ01  00002PRCP06
0208833440999992003103000004-14950-040883FM-12+0905SBQV V0200901N003112200019N0040001N1+01961+01401101411ADDAA106000091GA1001+999999999GF100991001001999999001001KA1240M+02691MA1999999091801MD1999999-0061REMSYN082AAXX  30004 83344 32996 00906 10196 20140 39180 40141 333 10269 29062 55085 59006;EQDQ01  00002PRCP06
0186833440999992003103012004-14950-040883FM-12+0905SBQV V0200901N003110075019N0200001N1+02111+01511101501ADDAA106000091GF106991061011008001001001KA1240N+01511MA1999999091861MD1999999-0061REMSYN076AAXX  30124 83344 32598 60906 10211 20151 39186 40150 86100 333 20151 59006;EQDQ01  00002PRCP06
0167833440999992003103018004-14950-040883FM-12+0905SBQV V0201401N004610450019N0200001N1+02751+01181100961ADDAA106000091GF106991031011008001041011MA1999999091401MD1999999-0181REMSYN070AAXX  30184 83344 32598 61409 10275 20118 39140 40096 83141 333 59018;EQDQ01  00002PRCP06
0208833440999992003103100004-14950-040883FM-12+0905SBQV V0201401N015412200019N0100001N1+02051+01681101271ADDAA106000091GA1001+999999999GF100991001001999999001001KA1240M+02871MA1999999091671MD1999999-0131REMSYN082AAXX  31004 83344 32997 01430 10205 20168 39167 40127 333 10287 29067 55087 59013;EQDQ01  00002PRCP06
0186833440999992003103112004-14950-040883FM-12+0905SBQV V0200901N002110042019N0200001N1+02191+01561101341ADDAA106000091GF108991081051004501999999KA1240N+01831MA1999999091741MD1999999-0121REMSYN076AAXX  31124 83344 32498 80904 10219 20156 39174 40134 885// 333 20183 59012;EQDQ01  00002PRCP06
0167833440999992003103118004-14950-040883FM-12+0905SBQV V0201401N003112200019N0200001N1+02731+01491100891ADDAA106000091GF103991011021004501031001MA1999999091411MD1999999+0011REMSYN070AAXX  31184 83344 32498 31406 10273 20149 39141 40089 81230 333 58001;EQDQ01  00002PRCP06
0198833440999992003110100004-14950-040883FM-12+0905SBQV V0200901N003610075019N0100001N1+02081+01841101131ADDAA106000091GF107991071031008001001001KA1240M+02831MA1999999091571MD1999999-0101REMSYN088AAXX  01004 83344 32597 70907 10208 20184 39157 40113 87300 333 10283 29072 55036 59010;EQDQ01  00002PRCP06
0186833440999992003110112004-14950-040883FM-12+0905SBQV V0200501N003112200019N0200001N1+02211+01251101291ADDAA106000091GF104991041001012501031001KA1240N+01711MA1999999091721MD1999999-0021REMSYN076AAXX  01124 83344 32698 40506 10221 20125 39172 40129 84030 333 20171 59002;EQDQ01  00002PRCP06
0167833440999992003110118004-14950-040883FM-12+0905SBQV V0201401N003612200019N0200001N1+02771+01661100821ADDAA106000091GF104991041041004501001001MA1999999091361MD1999999-0051REMSYN070AAXX  01184 83344 32498 41407 10277 20166 39136 40082 84400 333 59005;EQDQ01  00002PRCP06
0198833440999992003110200004-14950-040883FM-12+0905SBQV V0200901N001512200019N0040001N1+02051+01641101101ADDAA106000091GF102991001001999999001081KA1240M+02871MA1999999091551MD1999999-0021REMSYN088AAXX  02004 83344 32996 20903 10205 20164 39155 40110 80008 333 10287 29064 55052 59002;EQDQ01  00002PRCP06
0190833440999992003110212004-14950-040883FM-12+0905SBQV V0203601N003110450019N0200001N1+02211+01581101181ADDAY151061AY221061GF108991041071004501011999KA1240N+01751MA1999999091621MD1999999-0101MW1021REMSYN088AAXX  02124 83344 21498 83606 10221 20158 39162 40118 70252 8471/ 333 20175 59010 69944;
0167833440999992003110218004-14950-040883FM-12+0905SBQV V0202701N000510042019N0200001N1+02761+01721100621ADDAA106000091GF108991081071004501999999MA1999999091161MD1999999-0201REMSYN070AAXX  02184 83344 32498 82701 10276 20172 39116 40062 887// 333 59020;EQDQ01  00002PRCP06
0198833440999992003110300004-14950-040883FM-12+0905SBQV V0200901N001512200019N0040001N1+02271+01791100921ADDAA106000091GF104991041001012501031001KA1240M+02861MA1999999091421MD1999999-0131REMSYN088AAXX  03004 83344 32696 40903 10227 20179 39142 40092 84030 333 10286 29068 55011 59013;EQDQ01  00002PRCP06
0190833440999992003110312004-14950-040883FM-12+0905SBQV V0203201N004110042019N0200001N1+02411+01891100891ADDAY151061AY221061GF108991081061004501999999KA1240N+01851MA1999999091411MD1999999-0211MW1021REMSYN088AAXX  03124 83344 21498 83208 10241 20189 39141 40089 70252 886// 333 20185 59021 69934;
0171833440999992003110318004-14950-040883FM-12+0905SBQV V0201401N003110042019N0040001N1+02051+01941100731ADDAY121061AY221061GF108991081071004501999999MA1999999091161MD1999999+0001MW1811REMSYN082AAXX  03184 83344 21496 81406 10205 20194 39116 40073 78122 887// 333 58000 60151;
0202833440999992003110400004-14950-040883FM-12+0905SBQV V0200901N004610042019N0040001N1+02841+01741101031ADDAY191061AY261061GF108991081071004501999999KA1240M+03091MA1999999091461MD1999999+0041MW1021REMSYN100AAXX  04004 83344 21496 80909 10284 20174 39146 40103 70296 887// 333 10309 29089 55026 58004 60251;
0190833440999992003110412004-14950-040883FM-12+0905SBQV V0201401N004610021019N0100001N1+01631+01511101491ADDAY161061AY251061GF108991081071002501999999KA1240N+01551MA1999999091741MD1999999+0331MW1021REMSYN088AAXX  04124 83344 21397 81409 10163 20151 39174 40149 70265 887// 333 20155 58033 60424;
0171833440999992003110418004-14950-040883FM-12+0905SBQV V0201401N003610021019N0100001N1+01681+01581101381ADDAY161061AY251061GF108991081071002501999999MA1999999091581MD1999999+0421MW1501REMSYN082AAXX  04184 83344 21397 81407 10168 20158 39158 40138 75065 887// 333 58042 60041;
0202833440999992003110500004-14950-040883FM-12+0905SBQV V0201401N004110021019N0040001N1+01581+01531101701ADDAY151061AY221061GF108991081071002501999999KA1240M+01891MA1999999091861MD1999999+0401MW1501REMSYN100AAXX  05004 83344 21396 81408 10158 20153 39186 40170 75052 887// 333 10189 29095 55000 58040 69921;
0190833440999992003110512004-14950-040883FM-12+0905SBQV V0201401N003110021019N0100001N1+01701+01521101831ADDAY151061AY221061GF108991081071002501999999KA1240N+01491MA1999999092011MD1999999+0271MW1021REMSYN088AAXX  05124 83344 21397 81406 10170 20152 39201 40183 70252 887// 333 20149 58027 60044;
0171833440999992003110518004-14950-040883FM-12+0905SBQV V0201401N001510021019N0100001N1+01701+01601101651ADDAY151061AY221061GF108991081071002501999999MA1999999091801MD1999999+0251MW1021REMSYN082AAXX  05184 83344 21397 81403 10170 20160 39180 40165 70252 887// 333 58025 69911;
0202833440999992003110600004-14950-040883FM-12+0905SBQV V0201401N003110021019N0200001N1+01901+01381101731ADDAY101061AY221061GF108991081071002501999999KA1240M+01911MA1999999091971MD1999999+0111MW1021REMSYN100AAXX  06004 83344 21398 81406 10190 20138 39197 40173 70202 887// 333 10191 29066 55000 58011 69951;
0190833440999992003110612004-14950-040883FM-12+0905SBQV V0200901N003110042019N0200001N1+01801+01431101621ADDAY151061AY221061GF108991081051004501999999KA1240N+01441MA1999999091891MD1999999-0121MW1021REMSYN088AAXX  06124 83344 21498 80906 10180 20143 39189 40162 70252 885// 333 20144 59012 60014;
0167833440999992003110618004-14950-040883FM-12+0905SBQV V0201801N004110021019N0100001N1+02031+01641101321ADDAA106000091GF107991071071002501001001MA1999999091581MD1999999-0221REMSYN070AAXX  06184 83344 32397 71808 10203 20164 39158 40132 87700 333 59022;EQDQ01  00002PRCP06
0198833440999992003110700004-14950-040883FM-12+0905SBQV V0201401N003110042019N0040001N1+01741+01641101541ADDAA106000091GF108991081051004501999999KA1240M+02151MA1999999091781MD1999999-0191REMSYN088AAXX  07004 83344 32496 81406 10174 20164 39178 40154 885// 333 10215 29086 55002 59019;EQDQ01  00002PRCP06
0186833440999992003110712004-14950-040883FM-12+0905SBQV V0200901N003110042019N0200001N1+01901+01661101411ADDAA106000091GF108991081071004501999999KA1240N+01611MA1999999091681MD1999999-0211REMSYN076AAXX  07124 83344 32498 80906 10190 20166 39168 40141 887// 333 20161 59021;EQDQ01  00002PRCP06
0167833440999992003110718004-14950-040883FM-12+0905SBQV V0201401N002110042019N0100001N1+02001+01741101191ADDAA106000091GF108991081071004501999999MA1999999091481MD1999999-0101REMSYN070AAXX  07184 83344 32497 81404 10200 20174 39148 40119 887// 333 59010;EQDQ01  00002PRCP06
0202833440999992003110800004-14950-040883FM-12+0905SBQV V0200901N002610450019N0100001N1+01631+01541101341ADDAY161061AY251061GF108991041071002501051001KA1240M+02171MA1999999091601MD1999999-0181MW1501REMSYN100AAXX  08004 83344 21397 80905 10163 20154 39160 40134 75065 84750 333 10217 29090 55000 59018 60021;
0190833440999992003110812004-14950-040883FM-12+0905SBQV V0200901N003110450019N0200001N1+02211+01691101411ADDAY161061AY251061GF106991031041008001041041KA1240N+01591MA1999999091731MD1999999+0051MW1031REMSYN088AAXX  08124 83344 21598 60906 10221 20169 39173 40141 70365 83444 333 20159 58005 60034;
0167833440999992003110818004-14950-040883FM-12+0905SBQV V0200501N002610075019N0200001N1+02651+01691101021ADDAA106000091GF108991051091008001041041MA1999999091431MD1999999-0051REMSYN070AAXX  08184 83344 32598 80505 10265 20169 39143 40102 85944 333 59005;EQDQ01  00002PRCP06
0202833440999992003110900004-14950-040883FM-12+0905SBQV V0201801N001511050019N0040001N1+02011+01931101261ADDAY161061AY221061GF106991021001012501071021KA1240M+02771MA1999999091661MD1999999+0061MW1011REMSYN100AAXX  09004 83344 21696 61803 10201 20193 39166 40126 70162 82072 333 10277 29079 55034 58006 60051;
0190833440999992003110912004-14950-040883FM-12+0905SBQV V0200501N002610042019N0200001N1+02171+01901101371ADDAY151061AY221061GF108991081051004501999999KA1240N+01791MA1999999091761MD1999999+0031MW1021REMSYN088AAXX  09124 83344 21498 80505 10217 20190 39176 40137 70252 885// 333 20179 58003 60054;
0167833440999992003110918004-14950-040883FM-12+0905SBQV V0201401N002110450019N0200001N1+02831+01651100921ADDAA106000091GF106991021021004501081051MA1999999091441MD1999999+0011REMSYN070AAXX  09184 83344 32498 61404 10283 20165 39144 40092 82285 333 58001;EQDQ01  00002PRCP06
0198833440999992003111000004-14950-040883FM-12+0905SBQV V0200901N002119999999N0040001N1+02091+01761101271ADDAA106000091GF106991001001999999001081KA1240M+02871MA1999999091701MD1999999+0041REMSYN088AAXX  10004 83344 32996 60904 10209 20176 39170 40127 80008 333 10287 29075 55035 58004;EQDQ01  00002PRCP06
0186833440999992003111012004-14950-040883FM-12+0905SBQV V0200501N004110042019N0200001N1+02351+01851101301ADDAA106000091GF105991051021004501001001KA1240N+01771MA1999999091751MD1999999-0011REMSYN076AAXX  10124 83344 32498 50508 10235 20185 39175 40130 85200 333 20177 59001;EQDQ01  00002PRCP06
0167833440999992003111018004-14950-040883FM-12+0905SBQV V0201401N003111050019N0200001N1+02851+01601100861ADDAA106000091GF105991031021004501001091MA1999999091381MD1999999-0061REMSYN070AAXX  10184 83344 32498 51406 10285 20160 39138 40086 83209 333 59006;EQDQ01  00002PRCP06
0198833440999992003111100004-14950-040883FM-12+0905SBQV V0200901N003619999999N0100001N1+02151+01781101151ADDAA106000091GF106991001001999999001091KA1240M+03011MA1999999091631MD1999999-0071REMSYN088AAXX  11004 83344 32997 60907 10215 20178 39163 40115 80009 333 10301 29070 55080 59007;EQDQ01  00002PRCP06
0186833440999992003111112004-14950-040883FM-12+0905SBQV V0200501N004610450019N0200001N1+02491+01571101311ADDAA106000091GF106991031011008001061011KA1240N+01551MA1999999091791MD1999999+0041REMSYN076AAXX  11124 83344 32598 60509 10249 20157 39179 40131 83161 333 20155 58004;EQDQ01  00002PRCP06
0167833440999992003111118004-14950-040883FM-12+0905SBQV V0200901N005112200019N0200001N1+02651+01601101081ADDAA106000091GF105991031031008001001011MA1999999091511MD1999999-0131REMSYN070AAXX  11184 83344 32598 50910 10265 20160 39151 40108 83301 333 59013;EQDQ01  00002PRCP06
0198833440999992003111200004-14950-040883FM-12+0905SBQV V0201401N003110075019N0100001N1+02051+01721101311ADDAA106000091GF105991051021008001001001KA1240M+02831MA1999999091771MD1999999+0141REMSYN088AAXX  12004 83344 32597 51406 10205 20172 39177 40131 85200 333 10283 29068 55098 58014;EQDQ01  00002PRCP06
0186833440999992003111212004-14950-040883FM-12+0905SBQV V0201401N005112200019N0200001N1+02351+01521101481ADDAA106000091GF104991041041004501001001KA1240N+01691MA1999999091911MD1999999+0121REMSYN076AAXX  12124 83344 32498 41410 10235 20152 39191 40148 84400 333 20169 58012;EQDQ01  00002PRCP06
0167833440999992003111218004-14950-040883FM-12+0905SBQV V0201401N004112200019N0200001N1+02651+01481101181ADDAA106000091GF102991021011004501001001MA1999999091621MD1999999+0111REMSYN070AAXX  12184 83344 32498 21408 10265 20148 39162 40118 82100 333 58011;EQDQ01  00002PRCP06
0208833440999992003111300004-14950-040883FM-12+0905SBQV V0200901N002612200019N0040001N1+01961+01641101311ADDAA106000091GA1001+999999999GF100991001001999999001001KA1240M+02791MA1999999091741MD1999999-0031REMSYN082AAXX  13004 83344 32996 00905 10196 20164 39174 40131 333 10279 29068 55109 59003;EQDQ01  00002PRCP06
0202833440999992003111312004-14950-040883FM-12+0905SBQV V0200501N002612200019N0200001N1+02191+01491101401ADDAA106000091GF102991999001012501081001KA1240N+01401MA1999999091771MD1999999-0141REMSYN076AAXX  13124 83344 32698 20505 10219 20149 39177 40140 83080 333 20140 59014;EQDQ01+000032SCOTLCQ02  00002PRCP06
0167833440999992003111318004-14950-040883FM-12+0905SBQV V0200501N002112200019N0200001N1+02911+01021100881ADDAA106000091GF102991001001999999001011MA1999999091361MD1999999-0261REMSYN070AAXX  13184 83344 32998 20504 10291 20102 39136 40088 80001 333 59026;EQDQ01  00002PRCP06
0208833440999992003111400004-14950-040883FM-12+0905SBQV V0200501N002112200019N0100001N1+02091+01681101171ADDAA106000091GA1001+999999999GF100991001001999999001001KA1240M+03071MA1999999091611MD1999999-0131REMSYN082AAXX  14004 83344 32997 00504 10209 20168 39161 40117 333 10307 29063 55116 59013;EQDQ01  00002PRCP06
0186833440999992003111412004-14950-040883FM-12+0905SBQV V0200501N005712200019N0200001N1+02661+01821101111ADDAA106000091GF102991001001999999001011KA1240N+01691MA1999999091631MD1999999-0141REMSYN076AAXX  14124 83344 32998 20511 10266 20182 39163 40111 80001 333 20169 59014;EQDQ01  00002PRCP06
0167833440999992003111418004-14950-040883FM-12+0905SBQV V0201401N005110450019N0200001N1+03011+01751100781ADDAA106000091GF107991031031008001091021MA1999999091351MD1999999-0011REMSYN070AAXX  14184 83344 32598 71410 10301 20175 39135 40078 83392 333 59001;EQDQ01  00002PRCP06
0208833440999992003111500004-14950-040883FM-12+0905SBQV V0200901N003112200019N0100001N1+02201+01951101161ADDAA106000091GA1001+999999999GF100991001001999999001001KA1240M+03251MA1999999091721MD1999999+0111REMSYN082AAXX  15004 83344 32997 00906 10220 20195 39172 40116 333 10325 29070 55087 58011;EQDQ01  00002PRCP06
0186833440999992003111512004-14950-040883FM-12+0905SBQV V0201401N003110042019N0200001N1+02131+02021101601ADDAA106000091GF108991081051004501999999KA1240N+01911MA1999999091991MD1999999+0361REMSYN076AAXX  15124 83344 32498 81406 10213 20202 39199 40160 885// 333 20191 58036;EQDQ01  00002PRCP06
0167833440999992003111518004-14950-040883FM-12+0905SBQV V0201401N005110450019N0200001N1+02671+01901101231ADDAA106000091GF106991021011004501031001MA1999999091721MD1999999+0371REMSYN070AAXX  15184 83344 32498 61410 10267 20190 39172 40123 82130 333 58037;EQDQ01  00002PRCP06
0198833440999992003111600004-14950-040883FM-12+0905SBQV V0200901N001512200019N0040001N1+02031+01781101521ADDAA106000091GF102991021001012501031001KA1240M+02831MA1999999091881MD1999999+0161REMSYN088AAXX  16004 83344 32696 20903 10203 20178 39188 40152 82030 333 10283 29082 55058 58016;EQDQ01  00002PRCP06
0186833440999992003111612004-14950-040883FM-12+0905SBQV V0201401N002610021019N0100001N1+02011+01811101681ADDAA106000091GF108991081071002501999999KA1240N+01731MA1999999092011MD1999999+0021REMSYN076AAXX  16124 83344 32397 81405 10201 20181 39201 40168 887// 333 20173 58002;EQDQ01  00002PRCP06
0167833440999992003111618004-14950-040883FM-12+0905SBQV V0201401N003110450019N0200001N1+02541+01721101391ADDAA106000091GF106991041041004501051001MA1999999091671MD1999999-0051REMSYN070AAXX  16184 83344 32498 61406 10254 20172 39167 40139 84450 333 59005;EQDQ01  00002PRCP06
0208833440999992003111700004-14950-040883FM-12+0905SBQV V0200901N002612200019N0100001N1+02001+01811101321ADDAA106000091GA1001+999999999GF100991001001999999001001KA1240M+02691MA1999999091681MD1999999-0201REMSYN082AAXX  17004 83344 32997 00905 10200 20181 39168 40132 333 10269 29082 55054 59020;EQDQ01  00002PRCP06
0186833440999992003111712004-14950-040883FM-12+0905SBQV V0201401N003110042019N0200001N1+02251+01841101471ADDAA106000091GF108991081071004501999999KA1240N+01531MA1999999091881MD1999999-0131REMSYN076AAXX  17124 83344 32498 81406 10225 20184 39188 40147 887// 333 20153 59013;EQDQ01  00002PRCP06
0167833440999992003111718004-14950-040883FM-12+0905SBQV V0201401N004611050019N0200001N1+02731+01711101061ADDAA106000091GF106991041041008001001081MA1999999091491MD1999999-0181REMSYN070AAXX  17184 83344 32598 61409 10273 20171 39149 40106 84408 333 59018;EQDQ01  00002PRCP06
0208833440999992003111800004-14950-040883FM-12+0905SBQV V0200901N001512200019N0100001N1+02061+01821101261ADDAA106000091GA1001+999999999GF100991001001999999001001KA1240M+02901MA1999999091691MD1999999-0011REMSYN082AAXX  18004 83344 32997 00903 10206 20182 39169 40126 333 10290 29076 55062 59001;EQDQ01  00002PRCP06
0186833440999992003111812004-14950-040883FM-12+0905SBQV V0200901N002612200019N0200001N1+02561+01671101341ADDAA106000091GF102991021011004501001001KA1240N+01671MA1999999091821MD1999999-0061REMSYN076AAXX  18124 83344 32498 20905 10256 20167 39182 40134 82100 333 20167 59006;EQDQ01  00002PRCP06
0167833440999992003111818004-14950-040883FM-12+0905SBQV V0201401N004112200019N0200001N1+02811+01561100951ADDAA106000091GF104991021001012501081051MA1999999091431MD1999999-0061REMSYN070AAXX  18184 83344 32698 41408 10281 20156 39143 40095 82085 333 59006;EQDQ01  00002PRCP06
0208833440999992003111900004-14950-040883FM-12+0905SBQV V0200901N003112200019N0040001N1+02091+01821101071ADDAA106000091GA1001+999999999GF100991001001999999001001KA1240M+03051MA1999999091571MD1999999-0121REMSYN082AAXX  19004 83344 32996 00906 10209 20182 39157 40107 333 10305 29069 55112 59012;EQDQ01  00002PRCP06
0186833440999992003111912004-14950-040883FM-12+0905SBQV V0200501N003110042019N0200001N1+02231+01841101191ADDAA106000091GF108991081071004501999999KA1240N+01751MA1999999091631MD1999999-0191REMSYN076AAXX  19124 83344 32498 80506 10223 20184 39163 40119 887// 333 20175 59019;EQDQ01  00002PRCP06
0167833440999992003111918004-14950-040883FM-12+0905SBQV V0201401N004110042019N0200001N1+02931+01641100681ADDAA106000091GF108991061041004501001061MA1999999091221MD1999999-0211REMSYN070AAXX  19184 83344 32498 81408 10293 20164 39122 40068 86406 333 59021;EQDQ01  00002PRCP06
0208833440999992003112000004-14950-040883FM-12+0905SBQV V0200901N002112200019N0100001N1+02031+01621101041ADDAA106000091GA1001+999999999GF100991001001999999001001KA1240M+03011MA1999999091491MD1999999-0081REMSYN082AAXX  20004 83344 32997 00904 10203 20162 39149 40104 333 10301 29070 55080 59008;EQDQ01  00002PRCP06
0186833440999992003112012004-14950-040883FM-12+0905SBQV V0200501N003112200019N0200001N1+02451+01641101221ADDAA106000091GF105991041011008001001011KA1240N+01761MA1999999091691MD1999999+0061REMSYN076AAXX  20124 83344 32598 50506 10245 20164 39169 40122 84101 333 20176 58006;EQDQ01  00002PRCP06
0167833440999992003112018004-14950-040883FM-12+0905SBQV V0201401N003112200019N0200001N1+02941+01481100891ADDAA106000091GF106991041011008001001011MA1999999091411MD1999999+0191REMSYN070AAXX  20184 83344 32598 61406 10294 20148 39141 40089 84101 333 58019;EQDQ01  00002PRCP06
0224833440999992003112100004-14950-040883FM-12+0905SBQV V0200901N041122200019N0200001N1+02081+01701101211ADDAA106000091GA1001+999999999GF100991001001999999001001KA1240M+03111MA1999999091681MD1999999+0191REMSYN082AAXX  21004 83344 32998 00980 10208 20170 39168 40121 333 10311 29065 55107 58019;EQDQ01+004113WOSPD Q02  00002PRCP06
0167833440999992003112118004-14950-040883FM-12+0905SBQV V0201401N003610450019N0200001N1+02791+01411101111ADDAA106000091GF105991011011004501011051MA1999999091571MD1999999+0161REMSYN070AAXX  21184 83344 32498 51407 10279 20141 39157 40111 81115 333 58016;EQDQ01  00002PRCP06
0198833440999992003112200004-14950-040883FM-12+0905SBQV V0200901N003112200019N0040001N1+02131+01761101401ADDAA106000091GF104991001001999999001081KA1240M+02911MA1999999091851MD1999999+0171REMSYN088AAXX  22004 83344 32996 40906 10213 20176 39185 40140 80008 333 10291 29066 55115 58017;EQDQ01  00002PRCP06
0186833440999992003112212004-14950-040883FM-12+0905SBQV V0201401N005110042019N0200001N1+02251+01551101451ADDAA106000091GF106991061041004501001001KA1240N+01641MA1999999091881MD1999999-0051REMSYN076AAXX  22124 83344 32498 61410 10225 20155 39188 40145 86400 333 20164 59005;EQDQ01  00002PRCP06
0167833440999992003112218004-14950-040883FM-12+0905SBQV V0201401N005110042019N0200001N1+02671+01681101091ADDAA106000091GF105991051021004501001001MA1999999091541MD1999999-0031REMSYN070AAXX  22184 83344 32498 51410 10267 20168 39154 40109 85200 333 59003;EQDQ01  00002PRCP06
0208833440999992003112300004-14950-040883FM-12+0905SBQV V0201401N005112200019N0100001N1+02091+01621101291ADDAA106000091GA1001+999999999GF100991001001999999001001KA1240M+02751MA1999999091721MD1999999+0131REMSYN082AAXX  23004 83344 32997 01410 10209 20162 39172 40129 333 10275 29066 55092 58013;EQDQ01  00002PRCP06
0186833440999992003112312004-14950-040883FM-12+0905SBQV V0201401N003611050019N0200001N1+02311+01581101401ADDAA106000091GF106991041031004501001081KA1240N+02351MA1999999091841MD1999999-0041REMSYN076AAXX  23124 83344 32498 61407 10231 20158 39184 40140 84308 333 20235 59004;EQDQ01  00002PRCP06
0167833440999992003112318004-14950-040883FM-12+0905SBQV V0201401N004610450019N0200001N1+02731+01651100991ADDAA106000091GF106991031021004501051091MA1999999091451MD1999999-0091REMSYN070AAXX  23184 83344 32498 61409 10273 20165 39145 40099 83259 333 59009;EQDQ01  00002PRCP06
0208833440999992003112400004-14950-040883FM-12+0905SBQV V0200901N003112200019N0100001N1+02001+01761101261ADDAA106000091GA1001+999999999GF100991001001999999001001KA1240M+02851MA1999999091691MD1999999-0031REMSYN082AAXX  24004 83344 32497 00906 10200 20176 39169 40126 333 10285 29072 55096 59003;EQDQ01  00002PRCP06
0186833440999992003112412004-14950-040883FM-12+0905SBQV V0201401N003110450019N0200001N1+02251+01571101311ADDAA106000091GF107991021041004501031081KA1240N+01731MA1999999091741MD1999999-0101REMSYN076AAXX  24124 83344 32498 71406 10225 20157 39174 40131 82438 333 20173 59010;EQDQ01  00002PRCP06
0167833440999992003112418004-14950-040883FM-12+0905SBQV V0200901N002110450019N0200001N1+02551+01651101001ADDAA106000091GF107991021041004501071021MA1999999091451MD1999999+0001REMSYN070AAXX  24184 83344 32498 70904 10255 20165 39145 40100 82472 333 58000;EQDQ01  00002PRCP06
0208833440999992003112500004-14950-040883FM-12+0905SBQV V0200901N003112200019N0040001N1+02011+01621101231ADDAA106000091GA1001+999999999GF100991001001999999001001KA1240M+02651MA1999999091661MD1999999-0031REMSYN082AAXX  25004 83344 32996 00906 10201 20162 39166 40123 333 10265 29071 55063 59003;EQDQ01  00002PRCP06
0186833440999992003112512004-14950-040883FM-12+0905SBQV V0200901N003112200019N0200001N1+02321+01601101371ADDAA106000091GF106991041051004501001061KA1240N+01571MA1999999091791MD1999999+0051REMSYN076AAXX  25124 83344 32498 60906 10232 20160 39179 40137 84506 333 20157 58005;EQDQ01  00002PRCP06
0167833440999992003112518004-14950-040883FM-12+0905SBQV V0200901N004112200019N0200001N1+02951+01441100971ADDAA106000091GF106991041031004501001011MA1999999091461MD1999999+0011REMSYN070AAXX  25184 83344 32498 60908 10295 20144 39146 40097 84301 333 58001;EQDQ01  00002PRCP06
0208833440999992003112600004-14950-040883FM-12+0905SBQV V0200901N002112200019N0100001N1+02051+01851101281ADDAA106000091GA1001+999999999GF100991001001999999001001KA1240M+02971MA1999999091731MD1999999+0071REMSYN082AAXX  26004 83344 32997 00904 10205 20185 39173 40128 333 10297 29071 55093 58007;EQDQ01  00002PRCP06
0186833440999992003112612004-14950-040883FM-12+0905SBQV V0200901N003110450019N0200001N1+02471+01611101381ADDAA106000091GF105991021011008001081001KA1240N+01571MA1999999091841MD1999999+0051REMSYN076AAXX  26124 83344 32598 50906 10247 20161 39184 40138 82180 333 20157 58005;EQDQ01  00002PRCP06
0167833440999992003112618004-14950-040883FM-12+0905SBQV V0201401N005110450019N0200001N1+02821+01411101051ADDAA106000091GF106991041011008001081001MA1999999091541MD1999999+0081REMSYN070AAXX  26184 83344 32598 61410 10282 20141 39154 40105 84180 333 58008;EQDQ01  00002PRCP06
0208833440999992003112700004-14950-040883FM-12+0905SBQV V0200901N003112200019N0100001N1+02101+01601101251ADDAA106000091GA1001+999999999GF100991001001999999001001KA1240M+03031MA1999999091741MD1999999+0011REMSYN082AAXX  27004 83344 32997 00906 10210 20160 39174 40125 333 10303 29062 55104 58001;EQDQ01  00002PRCP06
0186833440999992003112712004-14950-040883FM-12+0905SBQV V0200901N003610042019N0200001N1+02291+01641101341ADDAA106000091GF107991071071004501001001KA1240N+01651MA1999999091781MD1999999-0061REMSYN076AAXX  27124 83344 32498 70907 10229 20164 39178 40134 87700 333 20165 59006;EQDQ01  00002PRCP06
0167833440999992003112718004-14950-040883FM-12+0905SBQV V0201401N002612200019N0200001N1+02831+01331100911ADDAA106000091GF102991021011004501001001MA1999999091391MD1999999-0151REMSYN070AAXX  27184 83344 32498 21405 10283 20133 39139 40091 82100 333 59015;EQDQ01  00002PRCP06
0208833440999992003112800004-14950-040883FM-12+0905SBQV V0200901N002112200019N0040001N1+02091+01561101071ADDAA106000091GA1001+999999999GF100991001001999999001001KA1240M+02951MA1999999091541MD1999999-0201REMSYN082AAXX  28004 83344 32996 00904 10209 20156 39154 40107 333 10295 29063 55108 59020;EQDQ01  00002PRCP06
0186833440999992003112812004-14950-040883FM-12+0905SBQV V0200501N003110042019N0200001N1+02231+01731101131ADDAA106000091GF106991061031004501001001KA1240N+01671MA1999999091571MD1999999-0211REMSYN076AAXX  28124 83344 32498 60506 10223 20173 39157 40113 86300 333 20167 59021;EQDQ01  00002PRCP06
0167833440999992003112818004-14950-040883FM-12+0905SBQV V0200901N004110450019N0200001N1+02601+01821100711ADDAA106000091GF106991041021004501051001MA1999999091171MD1999999-0221REMSYN070AAXX  28184 83344 32498 60908 10260 20182 39117 40071 84250 333 59022;EQDQ01  00002PRCP06
0208833440999992003112900004-14950-040883FM-12+0905SBQV V0201401N002612200019N0100001N1+01981+01781100961ADDAA106000091GA1001+999999999GF100991001001999999001001KA1240M+02841MA1999999091401MD1999999-0141REMSYN082AAXX  29004 83344 32997 01405 10198 20178 39140 40096 333 10284 29078 55053 59014;EQDQ01  00002PRCP06
0186833440999992003112912004-14950-040883FM-12+0905SBQV V0200501N001510021019N0200001N1+02341+01761101131ADDAA106000091GF108991081071002501999999KA1240N+01891MA1999999091571MD1999999+0001REMSYN076AAXX  29124 83344 32398 80503 10234 20176 39157 40113 887// 333 20189 58000;EQDQ01  00002PRCP06
0208833440999992003113000004-14950-040883FM-12+0905SBQV V0200901N002112200019N0100001N1+02061+01851100991ADDAA106000091GA1001+999999999GF100991001001999999001001KA1240M+02911MA1999999091461MD1999999+0061REMSYN082AAXX  30004 83344 32997 00904 10206 20185 39146 40099 333 10291 29075 55043 58006;EQDQ01  00002PRCP06
0186833440999992003113012004-14950-040883FM-12+0905SBQV V0201401N004110042019N0200001N1+02311+01631101171ADDAA106000091GF108991081061004501999999KA1240N+01971MA1999999091631MD1999999+0061REMSYN076AAXX  30124 83344 32498 81408 10231 20163 39163 40117 886// 333 20197 58006;EQDQ01  00002PRCP06
0167833440999992003113018004-14950-040883FM-12+0905SBQV V0201401N003110075019N0200001N1+02551+01651100951ADDAA106000091GF105991051021008001001001MA1999999091451MD1999999+0281REMSYN070AAXX  30184 83344 32598 51406 10255 20165 39145 40095 85200 333 58028;EQDQ01  00002PRCP06
0208833440999992003120100004-14950-040883FM-12+0905SBQV V0200901N003112200019N0100001N1+02011+01781101141ADDAA106000091GA1001+999999999GF100991001001999999001001KA1240M+03021MA1999999091581MD1999999+0121REMSYN082AAXX  01004 83344 32997 00906 10201 20178 39158 40114 333 10302 29074 55071 58012;EQDQ01  00002PRCP06
0186833440999992003120112004-14950-040883FM-12+0905SBQV V0200501N004611050019N0200001N1+02341+01641101161ADDAA106000091GF106991031011004501001091KA1240N+01711MA1999999091601MD1999999-0031REMSYN076AAXX  01124 83344 32498 60509 10234 20164 39160 40116 83109 333 20171 59003;EQDQ01  00002PRCP06
0167833440999992003120118004-14950-040883FM-12+0905SBQV V0201401N003610042019N0200001N1+02981+01511100641ADDAA106000091GF105991051021004501001001MA1999999091161MD1999999+0021REMSYN070AAXX  01184 83344 32498 51407 10298 20151 39116 40064 85200 333 58002;EQDQ01  00002PRCP06
0208833440999992003120200004-14950-040883FM-12+0905SBQV V0200901N004112200019N0040001N1+02151+01741100901ADDAA106000091GA1001+999999999GF100991001001999999001001KA1240M+03091MA1999999091401MD1999999-0181REMSYN082AAXX  02004 83344 32996 00908 10215 20174 39140 40090 333 10309 29065 55089 59018;EQDQ01  00002PRCP06
0186833440999992003120212004-14950-040883FM-12+0905SBQV V0200501N003112200019N0200001N1+02571+01671100991ADDAA106000091GF103991011011008001001011KA1240N+01761MA1999999091521MD1999999-0081REMSYN076AAXX  02124 83344 32598 30506 10257 20167 39152 40099 81101 333 20176 59008;EQDQ01  00002PRCP06
0167833440999992003120218004-14950-040883FM-12+0905SBQV V0201401N002110075019N0200001N1+03311+01501100331ADDAA106000091GF106991061021008001001001MA1999999091001MD1999999-0161REMSYN070AAXX  02184 83344 32598 61404 10331 20150 39100 40033 86200 333 59016;EQDQ01  00002PRCP06
0198833440999992003120300004-14950-040883FM-12+0905SBQV V0200501N003112200019N0100001N1+02351+01721100771ADDAA106000091GF104991041031008001001001KA1240M+03211MA1999999091361MD1999999-0041REMSYN088AAXX  03004 83344 32597 40506 10235 20172 39136 40077 84300 333 10321 29057 55096 59004;EQDQ01  00002PRCP06
0186833440999992003120312004-14950-040883FM-12+0905SBQV V0200501N002110450019N0200001N1+02631+01761100991ADDAA106000091GF106991021011004501031021KA1240N+01891MA1999999091581MD1999999+0061REMSYN076AAXX  03124 83344 32498 60504 10263 20176 39158 40099 82132 333 20189 58006;EQDQ01  00002PRCP06
0167833440999992003120318004-14950-040883FM-12+0905SBQV V0200901N003112200019N0200001N1+03011+01781100551ADDAA106000091GF104991021011004501031001MA1999999091161MD1999999+0161REMSYN070AAXX  03184 83344 32498 40906 10301 20178 39116 40055 82130 333 58016;EQDQ01  00002PRCP06
0198833440999992003120400004-14950-040883FM-12+0905SBQV V0200901N003112200019N0040001N1+02351+01781100811ADDAA106000091GF102991021001012501031001KA1240M+03231MA1999999091421MD1999999+0061REMSYN088AAXX  04004 83344 32696 20906 10235 20178 39142 40081 82030 333 10323 29062 55079 58006;EQDQ01  00002PRCP06
0186833440999992003120412004-14950-040883FM-12+0905SBQV V0203601N002111050019N0200001N1+02511+01801101031ADDAA106000091GF106991021011004501001091KA1240N+01831MA1999999091601MD1999999+0021REMSYN076AAXX  04124 83344 32498 63604 10251 20180 39160 40103 82109 333 20183 58002;EQDQ01  00002PRCP06
0167833440999992003120418004-14950-040883FM-12+0905SBQV V0201401N003610450019N0200001N1+03051+01781100531ADDAA106000091GF106991021021004501051001MA1999999091151MD1999999-0011REMSYN070AAXX  04184 83344 32498 61407 10305 20178 39115 40053 82250 333 59001;EQDQ01  00002PRCP06
0202833440999992003120500004-14950-040883FM-12+0905SBQV V0201801N000512200019N0100001N1+02131+01951100891ADDAY161061AY201061GF103991031001012501051001KA1240M+03311MA1999999091411MD1999999-0011MW1011REMSYN100AAXX  05004 83344 21697 31801 10213 20195 39141 40089 70160 83050 333 10331 29073 55067 59001 60051;
0190833440999992003120512004-14950-040883FM-12+0905SBQV V0200501N003110450019N0200001N1+02361+01851101111ADDAY161061AY251061GF108991041071004501021999KA1240N+01871MA1999999091591MD1999999-0011MW1021REMSYN088AAXX  05124 83344 21498 80506 10236 20185 39159 40111 70265 8472/ 333 20187 59001 60054;
0078833440999992003120518004-14950-040883FM-12+0905SBQV V02099999999999999999N9999999N1+99999+99999999999REMSYN069AAXX  05184 83344 32598 6055 10320 20163 39109 40043 82240 333 59006;
0226833440999992003120600004-14950-040883FM-12+0905SBQV V0201401N000510075019N0040001N1+02371+01991100941ADDAA106000091AY191061AY231061GF106991061091008001001001KA1240M+03211MA1999999091471MD1999999+0061MW1171REMSYN094AAXX  06004 83344 31596 61401 10237 20199 39147 40094 71793 86900 333 10321 29068 55036 58006;EQDQ01  00002PRCP06
0186833440999992003120612004-14950-040883FM-12+0905SBQV V0200501N002619999999N0200001N1+02651+01801100931ADDAA106000091GF107991001001999999001091KA1240N+01871MA1999999091531MD1999999-0061REMSYN076AAXX  06124 83344 32998 70505 10265 20180 39153 40093 80009 333 20187 59006;EQDQ01  00002PRCP06
0167833440999992003120618004-14950-040883FM-12+0905SBQV V0203601N002610450019N0200001N1+03111+01821100471ADDAA106000091GF106991021021012501091001MA1999999091111MD1999999+0021REMSYN070AAXX  06184 83344 32698 63605 10311 20182 39111 40047 82290 333 58002;EQDQ01  00002PRCP06
0186833440999992003120712004-14950-040883FM-12+0905SBQV V0200501N003119999999N0200001N1+02721+01831101011ADDAA106000091GF105991001001999999001061KA1240N+01911MA1999999091621MD1999999+0091REMSYN076AAXX  07124 83344 32998 50506 10272 20183 39162 40101 80006 333 20191 58009;EQDQ01  00002PRCP06
0167833440999992003120718004-14950-040883FM-12+0905SBQV V0200901N003612200019N0200001N1+02781+01791100641ADDAA106000091GF105991021021004501001061MA1999999091231MD1999999+0121REMSYN070AAXX  07184 83344 32498 50907 10278 20179 39123 40064 82206 333 58012;EQDQ01  00002PRCP06
0198833440999992003120800004-14950-040883FM-12+0905SBQV V0200901N001510450019N0100001N1+02291+01831101001ADDAA106000091GF106991031041004501061001KA1240M+03291MA1999999091591MD1999999+0171REMSYN088AAXX  08004 83344 32497 60903 10229 20183 39159 40100 83460 333 10329 29066 55066 58017;EQDQ01  00002PRCP06
0186833440999992003120812004-14950-040883FM-12+0905SBQV V0200501N003110450019N0200001N1+02611+01761101221ADDAA106000091GF106991041021004501051001KA1240N+01941MA1999999091771MD1999999+0151REMSYN076AAXX  08124 83344 32498 60506 10261 20176 39177 40122 84250 333 20194 58015;EQDQ01  00002PRCP06
0167833440999992003120818004-14950-040883FM-12+0905SBQV V0200901N004112200019N0200001N1+03051+01641100891ADDAA106000091GF106991031021004501001061MA1999999091491MD1999999+0261REMSYN070AAXX  08184 83344 32498 60908 10305 20164 39149 40089 83206 333 58026;EQDQ01  00002PRCP06
0208833440999992003120900004-14950-040883FM-12+0905SBQV V0200501N003112200019N0100001N1+02261+01751101161ADDAA106000091GA1001+999999999GF100991001001999999001001KA1240M+03191MA1999999091721MD1999999+0131REMSYN082AAXX  09004 83344 32997 00506 10226 20175 39172 40116 333 10319 29062 55092 58013;EQDQ01  00002PRCP06
0186833440999992003120912004-14950-040883FM-12+0905SBQV V0200501N002112200019N0200001N1+02351+01691101431ADDAA106000091GF103991031041004501001001KA1240N+01731MA1999999091901MD1999999+0131REMSYN076AAXX  09124 83344 32498 30504 10235 20169 39190 40143 83400 333 20173 58013;EQDQ01  00002PRCP06
0208833440999992003121000004-14950-040883FM-12+0905SBQV V0200901N002112200019N0040001N1+02271+01621101341ADDAA106000091GA1001+999999999GF100991001001999999001001KA1240M+03331MA1999999091821MD1999999+0101REMSYN082AAXX  10004 83344 32996 00904 10227 20162 39182 40134 333 10333 29059 55109 58010;EQDQ01  00002PRCP06
0186833440999992003121012004-14950-040883FM-12+0905SBQV V0200501N003112200019N0200001N1+02491+01731101251ADDAA106000091GF102991021011004501001001KA1240N+01731MA1999999091771MD1999999-0131REMSYN076AAXX  10124 83344 32498 20506 10249 20173 39177 40125 82100 333 20173 59013;EQDQ01  00002PRCP06
0177833440999992003121018004-14950-040883FM-12+0905SBQV V0201401N003112200019N0200001N1+03151+01071100861ADDAA106000091GA1001+999999999GF100991001001999999001001MA1999999091451MD1999999+0001REMSYN064AAXX  10184 83344 32498 01406 10315 20107 39145 40086 333 58000;EQDQ01  00002PRCP06
0208833440999992003121100004-14950-040883FM-12+0905SBQV V0200901N003112200019N0100001N1+02251+01671101221ADDAA106000091GA1001+999999999GF100991001001999999001001KA1240M+03231MA1999999091731MD1999999-0091REMSYN082AAXX  11004 83344 32497 00906 10225 20167 39173 40122 333 10323 29058 55120 59009;EQDQ01  00002PRCP06
0091833440999992003121110004-14950-040883FM-15+0905SBQV V0201001N00411220001CN0099001N1+02001+01601999999ADDMA1102201999999MW1001REMMET039SBQV 111000Z 10008KT CAVOK 20/16 Q1022;EQDQ01+000000PRSWM2
0186833440999992003121112004-14950-040883FM-12+0905SBQV V0200901N004112200019N0200001N1+02451+01451101511ADDAA106000091GF103991031011008001001001KA1240N+01611MA1999999091991MD1999999+0221REMSYN076AAXX  11124 83344 32598 30908 10245 20145 39199 40151 83100 333 20161 58022;EQDQ01  00002PRCP06
0167833440999992003121118004-14950-040883FM-12+0905SBQV V0200901N003112200019N0200001N1+02991+01041100991ADDAA106000091GF103991031011008001001001MA1999999091521MD1999999+0071REMSYN070AAXX  11184 83344 32598 30906 10299 20104 39152 40099 83100 333 58007;EQDQ01  00002PRCP06
0208833440999992003121200004-14950-040883FM-12+0905SBQV V0200501N001512200019N0100001N1+02171+01721101231ADDAA106000091GA1001+999999999GF100991001001999999001001KA1240M+03071MA1999999091721MD1999999-0011REMSYN082AAXX  12004 83344 32997 00503 10217 20172 39172 40123 333 10307 29059 55115 59001;EQDQ01  00002PRCP06
0186833440999992003121212004-14950-040883FM-12+0905SBQV V0200901N003112200019N0200001N1+02571+01671101281ADDAA106000091GF102991021011004501001001KA1240N+01711MA1999999091781MD1999999-0211REMSYN076AAXX  12124 83344 32498 20906 10257 20167 39178 40128 82100 333 20171 59021;EQDQ01  00002PRCP06
0167833440999992003121218004-14950-040883FM-12+0905SBQV V0200901N003112200019N0200001N1+02991+01661100911ADDAA106000091GF104991041021004501001001MA1999999091411MD1999999-0111REMSYN070AAXX  12184 83344 32498 40906 10299 20166 39141 40091 84200 333 59011;EQDQ01  00002PRCP06
0208833440999992003121400004-14950-040883FM-12+0905SBQV V0200901N003112200019N0100001N1+02151+01551101061ADDAA106000091GA1001+999999999GF100991001001999999001001KA1240M+03051MA1999999091581MD1999999-0021REMSYN082AAXX  14004 83344 32997 00906 10215 20155 39158 40106 333 10305 29056 55120 59002;EQDQ01  00002PRCP06
0186833440999992003121412004-14950-040883FM-12+0905SBQV V0201401N003612200019N0200001N1+02531+01171101351ADDAA106000091GF103991031011008001001001KA1240N+01531MA1999999091851MD1999999+0181REMSYN076AAXX  14124 83344 32598 31407 10253 20117 39185 40135 83100 333 20153 58018;EQDQ01  00002PRCP06
0167833440999992003121418004-14950-040883FM-12+0905SBQV V0201401N003610075019N0200001N1+02891+01311101081ADDAA106000091GF105991051011008001001001MA1999999091531MD1999999+0161REMSYN070AAXX  14184 83344 32598 51407 10289 20131 39153 40108 85100 333 58016;EQDQ01  00002PRCP06
0208833440999992003121500004-14950-040883FM-12+0905SBQV V0200901N003112200019N0100001N1+02411+01651101101ADDAA106000091GA1001+999999999GF100991001001999999001001KA1240M+03071MA1999999091661MD1999999+0081REMSYN082AAXX  15004 83344 32997 00906 10241 20165 39166 40110 333 10307 29052 55117 58008;EQDQ01  00002PRCP06
0186833440999992003121512004-14950-040883FM-12+0905SBQV V0200901N004112200019N0200001N1+02571+01701101321ADDAA106000091GF104991021011004501031001KA1240N+01951MA1999999091881MD1999999+0031REMSYN076AAXX  15124 83344 32498 40908 10257 20170 39188 40132 82130 333 20195 58003;EQDQ01  00002PRCP06
0167833440999992003121518004-14950-040883FM-12+0905SBQV V0200901N003112200019N0200001N1+02831+01651101061ADDAA106000091GF104991021011004501031001MA1999999091531MD1999999+0001REMSYN070AAXX  15184 83344 32498 40906 10283 20165 39153 40106 82130 333 58000;EQDQ01  00002PRCP06
0208833440999992003121600004-14950-040883FM-12+0905SBQV V0200901N004612200019N0040001N1+02071+01931101231ADDAA106000091GA1001+999999999GF100991001001999999001001KA1240M+03011MA1999999091721MD1999999+0061REMSYN082AAXX  16004 83344 32996 00909 10207 20193 39172 40123 333 10301 29071 55064 58006;EQDQ01  00002PRCP06
0186833440999992003121612004-14950-040883FM-12+0905SBQV V0200501N001510042019N0200001N1+02391+01631101501ADDAA106000091GF105991051021004501001001KA1240N+01891MA1999999091951MD1999999+0071REMSYN076AAXX  16124 83344 32498 50503 10239 20163 39195 40150 85200 333 20189 58007;EQDQ01  00002PRCP06
0167833440999992003121618004-14950-040883FM-12+0905SBQV V0201801N004612200019N0200001N1+03151+01221100921ADDAA106000091GF104991021011004501001091MA1999999091501MD1999999-0031REMSYN070AAXX  16184 83344 32498 41809 10315 20122 39150 40092 82109 333 59003;EQDQ01  00002PRCP06
0208833440999992003121700004-14950-040883FM-12+0905SBQV V0200901N003112200019N0100001N1+02251+01691101061ADDAA106000091GA1001+999999999GF100991001001999999001001KA1240M+03221MA1999999091561MD1999999-0161REMSYN082AAXX  17004 83344 32997 00906 10225 20169 39156 40106 333 10322 29059 55108 59016;EQDQ01  00002PRCP06
0186833440999992003121712004-14950-040883FM-12+0905SBQV V0203601N001512200019N0200001N1+02651+01601101161ADDAA106000091GF103991031011008001001001KA1240N+01791MA1999999091721MD1999999-0231REMSYN076AAXX  17124 83344 32598 33603 10265 20160 39172 40116 83100 333 20179 59023;EQDQ01  00002PRCP06
0167833440999992003121718004-14950-040883FM-12+0905SBQV V0201401N003612200019N0200001N1+03011+01291100931ADDAA106000091GF102991021011008001001001MA1999999091461MD1999999-0041REMSYN070AAXX  17184 83344 32598 21407 10301 20129 39146 40093 82100 333 59004;EQDQ01  00002PRCP06
0208833440999992003121800004-14950-040883FM-12+0905SBQV V0201401N004112200019N0100001N1+02291+01461101071ADDAA106000091GA1001+999999999GF100991001001999999001001KA1240M+03091MA1999999091641MD1999999+0081REMSYN082AAXX  18004 83344 32997 01408 10229 20146 39164 40107 333 10309 29052 55113 58008;EQDQ01  00002PRCP06
0186833440999992003121812004-14950-040883FM-12+0905SBQV V0201401N004610042019N0200001N1+02231+01581101621ADDAA106000091GF107991071061004501001001KA1240N+01451MA1999999092051MD1999999+0331REMSYN076AAXX  18124 83344 32498 71409 10223 20158 39205 40162 87600 333 20145 58033;EQDQ01  00002PRCP06
0186833440999992003121912004-14950-040883FM-12+0905SBQV V0201401N004110042019N0200001N1+02351+01551101671ADDAA106000091GF106991061021004501001001KA1240N+01771MA1999999092081MD1999999+0031REMSYN076AAXX  19124 83344 32498 61408 10235 20155 39208 40167 86200 333 20177 58003;EQDQ01  00002PRCP06
0167833440999992003121918004-14950-040883FM-12+0905SBQV V0201401N003110042019N0200001N1+02881+01421101251ADDAA106000091GF106991061021004501001001MA1999999091741MD1999999+0001REMSYN070AAXX  19184 83344 32498 61406 10288 20142 39174 40125 86200 333 58000;EQDQ01  00002PRCP06
0208833440999992003122000004-14950-040883FM-12+0905SBQV V0200901N002612200019N0100001N1+02051+01761101731ADDAA106000091GA1001+999999999GF100991001001999999001001KA1240M+02931MA1999999092141MD1999999+0121REMSYN082AAXX  20004 83344 32997 00905 10205 20176 39214 40173 333 10293 29066 55059 58012;EQDQ01  00002PRCP06
0190833440999992003122012004-14950-040883FM-12+0905SBQV V0201401N005112200019N0200001N1+02291+01461101731ADDAY151061AY211061GF102991021021004501001001KA1240N+01811MA1999999092111MD1999999+0031MW1011REMSYN088AAXX  20124 83344 21498 21410 10229 20146 39211 40173 70151 82200 333 20181 58003 69924;
0167833440999992003122018004-14950-040883FM-12+0905SBQV V0201401N004112200019N0200001N1+02851+01701101221ADDAA106000091GF102991021041004501001001MA1999999091691MD1999999-0051REMSYN070AAXX  20184 83344 32498 21408 10285 20170 39169 40122 82400 333 59005;EQDQ01  00002PRCP06
0208833440999992003122100004-14950-040883FM-12+0905SBQV V0200901N001512200019N0040001N1+02031+01641101461ADDAA106000091GA1001+999999999GF100991001001999999001001KA1240M+03031MA1999999091871MD1999999-0271REMSYN082AAXX  21004 83344 32996 00903 10203 20164 39187 40146 333 10303 29067 55096 59027;EQDQ01  00002PRCP06
0186833440999992003122112004-14950-040883FM-12+0905SBQV V0200501N003112200019N0200001N1+02391+01561101481ADDAA106000091GF102991021011004501001001KA1240N+01611MA1999999091911MD1999999-0201REMSYN076AAXX  21124 83344 32498 20506 10239 20156 39191 40148 82100 333 20161 59020;EQDQ01  00002PRCP06
0208833440999992003122200004-14950-040883FM-12+0905SBQV V0200901N003112200019N0040001N1+02131+01721101131ADDAA106000091GA1001+999999999GF100991001001999999001001KA1240M+03091MA1999999091611MD1999999-0261REMSYN082AAXX  22004 83344 32996 00906 10213 20172 39161 40113 333 10309 29064 55097 59026;EQDQ01  00002PRCP06
0186833440999992003122212004-14950-040883FM-12+0905SBQV V0200501N003112200019N0200001N1+02371+01461101251ADDAA106000091GF106991031001012501011061KA1240N+01691MA1999999091721MD1999999-0191REMSYN076AAXX  22124 83344 32698 60506 10237 20146 39172 40125 83016 333 20169 59019;EQDQ01  00002PRCP06
0167833440999992003122218004-14950-040883FM-12+0905SBQV V0201401N003612200019N0200001N1+03191+01611100631ADDAA106000091GF103991031021004501001001MA1999999091221MD1999999-0291REMSYN070AAXX  22184 83344 32498 31407 10319 20161 39122 40063 83200 333 59029;EQDQ01  00002PRCP06
0208833440999992003122300004-14950-040883FM-12+0905SBQV V0200901N001512200019N0040001N1+02351+01721100901ADDAA106000091GA1001+999999999GF100991001001999999001001KA1240M+03291MA1999999091441MD1999999-0171REMSYN082AAXX  23004 83344 32996 00903 10235 20172 39144 40090 333 10329 29058 55096 59017;EQDQ01  00002PRCP06
0186833440999992003122312004-14950-040883FM-12+0905SBQV V0203601N001510042019N0200001N1+02341+01851101121ADDAA106000091GF108991081071004501999999KA1240N+01941MA1999999091641MD1999999-0081REMSYN076AAXX  23124 83344 32498 83603 10234 20185 39164 40112 887// 333 20194 59008;EQDQ01  00002PRCP06
0167833440999992003122318004-14950-040883FM-12+0905SBQV V0203601N003612200019N0200001N1+03101+01661100601ADDAA106000091GF104991041021004501001001MA1999999091191MD1999999-0031REMSYN070AAXX  23184 83344 32498 43607 10310 20166 39119 40060 84200 333 59003;EQDQ01  00002PRCP06
0208833440999992003122400004-14950-040883FM-12+0905SBQV V0200901N003612200019N0100001N1+02251+01901100891ADDAA106000091GA1001+999999999GF100991001001999999001001KA1240M+03151MA1999999091411MD1999999-0031REMSYN082AAXX  24004 83344 32997 00907 10225 20190 39141 40089 333 10315 29069 55032 59003;EQDQ01  00002PRCP06
0186833440999992003122412004-14950-040883FM-12+0905SBQV V0200501N003110042019N0100001N1+02411+01821101231ADDAA106000091GF108991081071004501999999KA1240N+01971MA1999999091741MD1999999+0101REMSYN076AAXX  24124 83344 32497 80506 10241 20182 39174 40123 887// 333 20197 58010;EQDQ01  00002PRCP06
0167833440999992003122418004-14950-040883FM-12+0905SBQV V0200901N003610042019N0200001N1+02791+01731100891ADDAA106000091GF106991061071004501001001MA1999999091451MD1999999+0261REMSYN070AAXX  24184 83344 32498 60907 10279 20173 39145 40089 86700 333 58026;EQDQ01  00002PRCP06
0198833440999992003122500004-14950-040883FM-12+0905SBQV V0200901N004112200019N0040001N1+02311+01631101211ADDAA106000091GF102991021001012501031001KA1240M+02831MA1999999091721MD1999999+0311REMSYN088AAXX  25004 83344 32696 20908 10231 20163 39172 40121 82030 333 10283 29064 55005 58031;EQDQ01  00002PRCP06
0186833440999992003122512004-14950-040883FM-12+0905SBQV V0200901N003610042019N0200001N1+02341+01641101371ADDAA106000091GF106991061041004501001001KA1240N+01721MA1999999091851MD1999999+0111REMSYN076AAXX  25124 83344 32498 60907 10234 20164 39185 40137 86400 333 20172 58011;EQDQ01  00002PRCP06
0167833440999992003122518004-14950-040883FM-12+0905SBQV V0201401N003112200019N0200001N1+03031+01551100941ADDAA106000091GF104991041021004501001001MA1999999091471MD1999999+0021REMSYN070AAXX  25184 83344 32498 41406 10303 20155 39147 40094 84200 333 58002;EQDQ01  00002PRCP06
0186833440999992003122612004-14950-040883FM-12+0905SBQV V0200901N004110042019N0200001N1+02411+01651101181ADDAA106000091GF108991081071004501999999KA1240N+01791MA1999999091741MD1999999-0111REMSYN076AAXX  26124 83344 32498 80908 10241 20165 39174 40118 887// 333 20179 59011;EQDQ01  00002PRCP06
0171833440999992003122618004-14950-040883FM-12+0905SBQV V0200901N004610042019N0200001N1+02391+01631101061ADDAY151061AY221061GF107991071071004501001001MA1999999091461MD1999999-0011MW1031REMSYN082AAXX  26184 83344 21498 70909 10239 20163 39146 40106 70352 87700 333 59001 69921;
0198833440999992003122700004-14950-040883FM-12+0905SBQV V0201401N003112200019N0100001N1+02051+01761101191ADDAA106000091GF102991021001004501051001KA1240M+02661MA1999999091661MD1999999-0111REMSYN088AAXX  27004 83344 32497 21406 10205 20176 39166 40119 82050 333 10266 29074 55041 59011;EQDQ01  00002PRCP06
0190833440999992003122712004-14950-040883FM-12+0905SBQV V0200901N001510042019N0100001N1+01981+01861101341ADDAY121061AY221061GF108991081071004501999999KA1240N+01851MA1999999091701MD1999999-0041MW1521REMSYN088AAXX  27124 83344 21497 80903 10198 20186 39170 40134 75222 887// 333 20185 59004 69934;
0148833440999992003122718004-14950-040883FM-12+0905SBQV V0200501N003110042019N0200001N1+02731+01391100801ADDAA106000021GF107991071071004501001001MA1999999091311MD1999999-0151REMSYN070AAXX  27184 83344 32498 70506 10273 20139 39131 40080 87700 333 59015;
0208833440999992003122800004-14950-040883FM-12+0905SBQV V0200901N004612200019N0040001N1+02111+01881101151ADDAA106000091GA1001+999999999GF100991001001999999001001KA1240M+02931MA1999999091551MD1999999-0111REMSYN082AAXX  28004 83344 32996 00909 10211 20188 39155 40115 333 10293 29078 55040 59011;EQDQ01  00002PRCP06
0186833440999992003122812004-14950-040883FM-12+0905SBQV V0200501N002110042019N0200001N1+02231+01671101121ADDAA106000091GF108991081071004501999999KA1240N+01761MA1999999091561MD1999999-0141REMSYN076AAXX  28124 83344 32498 80504 10223 20167 39156 40112 887// 333 20176 59014;EQDQ01  00002PRCP06
0167833440999992003122818004-14950-040883FM-12+0905SBQV V0200901N002610042019N0200001N1+02811+01431100641ADDAA106000091GF108991051071004501051001MA1999999091201MD1999999-0111REMSYN070AAXX  28184 83344 32498 80905 10281 20143 39120 40064 85750 333 59011;EQDQ01  00002PRCP06
0208833440999992003122900004-14950-040883FM-12+0905SBQV V0200901N003112200019N0100001N1+02171+01821101011ADDAA106000091GA1001+999999999GF100991001001999999001001KA1240M+02931MA1999999091481MD1999999-0071REMSYN082AAXX  29004 83344 32997 00906 10217 20182 39148 40101 333 10293 29065 55020 59007;EQDQ01  00002PRCP06
0186833440999992003122912004-14950-040883FM-12+0905SBQV V0200501N003110120019N0200001N1+02351+01741101181ADDAA106000091GF107991071001012501071001KA1240N+01911MA1999999091651MD1999999-0091REMSYN076AAXX  29124 83344 32698 70506 10235 20174 39165 40118 87070 333 20191 59009;EQDQ01  00002PRCP06
0171833440999992003122918004-14950-040883FM-12+0905SBQV V0200501N003110042019N0100001N1+01981+01791101191ADDAY191061AY221061GF108991081071004501999999MA1999999091511MD1999999+0311MW1621REMSYN082AAXX  29184 83344 21497 80506 10198 20179 39151 40119 76292 887// 333 58031 60081;
0202833440999992003123000004-14950-040883FM-12+0905SBQV V0201801N001510042019N0040001N1+01861+01831101371ADDAY161061AY221061GF108991081071004501999999KA1240M+02911MA1999999091761MD1999999+0281MW1021REMSYN100AAXX  30004 83344 21496 81803 10186 20183 39176 40137 70262 887// 333 10291 29088 55005 58028 60091;
0190833440999992003123012004-14950-040883FM-12+0905SBQV V0200901N002610042019N0200001N1+02351+01871101141ADDAY151061AY221061GF107991071071004501001001KA1240N+01791MA1999999091851MD1999999+0201MW1021REMSYN088AAXX  30124 83344 21498 70905 10235 20187 39185 40114 70252 87700 333 20179 58020 60184;
0167833440999992003123018004-14950-040883FM-12+0905SBQV V0200901N003112200019N0200001N1+02951+01761100981ADDAA106000091GF103991011011004501031001MA1999999091491MD1999999-0021REMSYN070AAXX  30184 83344 32498 30906 10295 20176 39149 40098 81130 333 59002;EQDQ01  00002PRCP06
0208833440999992003123100004-14950-040883FM-12+0905SBQV V0200901N003112200019N0040001N1+02151+01841101361ADDAA106000091GA1001+999999999GF100991001001999999001001KA1240M+03011MA1999999091851MD1999999+0061REMSYN082AAXX  31004 83344 32996 00906 10215 20184 39185 40136 333 10301 29071 55080 58006;EQDQ01  00002PRCP06
0186833440999992003123112004-14950-040883FM-12+0905SBQV V0201401N002110075019N0200001N1+02391+01871101391ADDAA106000091GF107991071071008001001001KA1240N+01791MA1999999091851MD1999999+0001REMSYN076AAXX  31124 83344 32598 71404 10239 20187 39185 40139 87700 333 20179 58000;EQDQ01  00002PRCP06
0167833440999992003123118004-14950-040883FM-12+0905SBQV V0201401N003110075019N0200001N1+02821+01771100911ADDAA106000091GF106991061021008001001001MA1999999091431MD1999999-0061REMSYN070AAXX  31184 83344 32598 61406 10282 20177 39143 40091 86200 333 59006;EQDQ01  00002PRCP06
