0198834980999992003010100004-17730-039250FM-12+000399999V0200501N002112200019N0020001N1+02521+02331101401ADDAA106000091GF101991001001999999001051KA1240M+03081MA1999999101351MD1999999-0141REMSYN088AAXX  01004 83498 32995 10504 10252 20233 30135 40140 80005 333 10308 29076 55103 59014;EQDQ01  00002PRCP06
0186834980999992003010112004-17730-039250FM-12+000399999V0203601N006212200019N0020001N1+02911+01991101391ADDAA106000091GF104991001001999999001051KA1240N+02301MA1999999101341MD1999999-0241REMSYN076AAXX  01124 83498 32995 43612 10291 20199 30134 40139 80005 333 20230 59024;EQDQ01  00002PRCP06
0167834980999992003010118004-17730-039250FM-12+000399999V0200501N006212200019N0020001N1+03011+02081101051ADDAA106000091GF102991001001999999001051MA1999999101001MD1999999-0201REMSYN070AAXX  01184 83498 32995 20512 10301 20208 30100 40105 80005 333 59020;EQDQ01  00002PRCP06
0208834980999992003010200004-17730-039250FM-12+000399999V0200501N003612200019N0020001N1+02541+02331101281ADDAA106000091GA1001+999999999GF100991001001999999001001KA1240M+03121MA1999999101231MD1999999-0121REMSYN082AAXX  02004 83498 32995 00507 10254 20233 30123 40128 333 10312 29073 55110 59012;EQDQ01  00002PRCP06
0186834980999992003010212004-17730-039250FM-12+000399999V0203601N005111050019N0020001N1+02921+02191101311ADDAA106000091GF106991041021008001001091KA1240N+02371MA1999999101261MD1999999-0081REMSYN076AAXX  02124 83498 32595 63610 10292 20219 30126 40131 84209 333 20237 59008;EQDQ01  00002PRCP06
0167834980999992003010218004-17730-039250FM-12+000399999V0200501N007712200019N0020001N1+02971+02331100941ADDAA106000091GF104991001001999999001081MA1999999100891MD1999999-0111REMSYN070AAXX  02184 83498 32995 40515 10297 20233 30089 40094 80008 333 59011;EQDQ01  00002PRCP06
0198834980999992003010300004-17730-039250FM-12+000399999V0202701N004110075019N0020001N1+02671+02411101341ADDAA106000091GF108991051071008001021999KA1240M+03041MA1999999101291MD1999999+0061REMSYN088AAXX  03004 83498 32595 82708 10267 20241 30129 40134 8572/ 333 10304 29077 55067 58006;EQDQ01  00002PRCP06
0190834980999992003010312004-17730-039250FM-12+000399999V0200501N003110120019N0020001N1+02841+02401101251ADDAY161061AY221061GF107991051081008001051091KA1240N+02281MA1999999101201MD1999999-0061MW1211REMSYN088AAXX  03124 83498 21595 70506 10284 20240 30120 40125 72162 85859 333 20228 59006 60074;
0176834980999992003010318004-17730-039250FM-12+000399999V0203201N004110075019N0020001N1+02541+02251101251ADDAA106000021AY191061AY291061GF108991051061008001021031MA1999999101201MD1999999+0311MW1951REMSYN076AAXX  03184 83498 31595 83208 10254 20225 30120 40125 79599 85623 333 58031;
0202834980999992003010400004-17730-039250FM-12+000399999V0209999C000010450019N0020001N1+02501+02411101351ADDAY161061AY221061GF108991031011008001021999KA1240M+03101MA1999999101301MD1999999+0011MW1211REMSYN100AAXX  04004 83498 21595 80000 10250 20241 30130 40135 72162 8312/ 333 10310 29088 55028 58001 60211;
0190834980999992003010412004-17730-039250FM-12+000399999V0203601N005710450019N0020001N1+02801+02311101281ADDAY161061AY221061GF106991041051008001041001KA1240N+02281MA1999999101331MD1999999+0131MW1211REMSYN088AAXX  04124 83498 21595 63611 10280 20231 30133 40128 72162 84540 333 20228 58013 60554;
0148834980999992003010418004-17730-039250FM-12+000399999V0203601N007212200019N0020001N1+02921+02221101031ADDAA106000021GF103991011011008001001051MA1999999100981MD1999999-0221REMSYN070AAXX  04184 83498 32595 33614 10292 20222 30098 40103 81105 333 59022;
0214834980999992003010500004-17730-039250FM-12+000399999V0203601N004610012019N0020001N1+02611+02311101211ADDAA106000091GA1091+999999999GF109991091999999999999999KA1240M+02941MA1999999101161MD1999999-0041REMSYN088AAXX  05004 83498 32/95 93609 10261 20231 30116 40121 81029 333 10294 29064 55094 59004;EQDQ01  00002PRCP06
0186834980999992003010512004-17730-039250FM-12+000399999V0203601N006710150019N0020001N1+02841+02171101181ADDAA106000091GF108991071001017501071011KA1240N+02501MA1999999101131MD1999999-0201REMSYN076AAXX  05124 83498 32795 83613 10284 20217 30113 40118 87071 333 20250 59020;EQDQ01  00002PRCP06
0176834980999992003010518004-17730-039250FM-12+000399999V0203201N004110075019N0020001N1+02721+02281101101ADDAA106000021AY191061AY291061GF107991051091008001021021MA1999999101051MD1999999+0071MW1951REMSYN076AAXX  05184 83498 31595 73208 10272 20228 30105 40110 79599 85922 333 58007;
0202834980999992003010600004-17730-039250FM-12+000399999V0200501N004112200019N0020001N1+02581+02381101101ADDAY161061AY211061GF102991011001017501031051KA1240M+03141MA1999999101051MD1999999-0111MW1211REMSYN100AAXX  06004 83498 21795 20508 10258 20238 30105 40110 72161 81035 333 10314 29081 55012 59011 60021;
0162834980999992003010612004-17730-039250FM-12+000399999V0203601N005112200019N0020001N1+02971+02451101111ADDGF106991031001012501021041KA1240N+02571MA1999999101061MD1999999-0071REMSYN082AAXX  06124 83498 22695 63610 10297 20245 30106 40111 83024 333 20257 59007 60024;
0167834980999992003010618004-17730-039250FM-12+000399999V0200501N007212200019N0020001N1+02931+02361100701ADDAA106000091GF103991011021008001031011MA1999999100651MD1999999-0401REMSYN070AAXX  06184 83498 32595 30514 10293 20236 30065 40070 81231 333 59040;EQDQ01  00002PRCP06
0198834980999992003010700004-17730-039250FM-12+000399999V0203601N004611050019N0020001N1+02611+02291100951ADDAA106000091GF105991011011008001021041KA1240M+03141MA1999999100901MD1999999-0151REMSYN088AAXX  07004 83498 32595 53609 10261 20229 30090 40095 81124 333 10314 29078 55087 59015;EQDQ01  00002PRCP06
0190834980999992003010712004-17730-039250FM-12+000399999V0203601N001510450019N0020001N1+02991+02351101151ADDAY161061AY221061GF107991021041008001041081KA1240N+02531MA1999999101101MD1999999+0041MW1211REMSYN088AAXX  07124 83498 21595 73603 10299 20235 30110 40115 72162 82448 333 20253 58004 60044;
0148834980999992003010718004-17730-039250FM-12+000399999V0200501N005710450019N0020001N1+02911+02391100911ADDAA106000021GF107991021041008001011081MA1999999100861MD1999999+0211REMSYN070AAXX  07184 83498 32595 70511 10291 20239 30086 40091 82418 333 58021;
0207834980999992003010800004-17730-039250FM-12+000399999V0200501N001010450019N0020001N1+02571+02361101311ADDAA106000021AY191061AY291061GF106991031081008001051001KA1240M+03091MA1999999101261MD1999999+0361MW1951REMSYN094AAXX  08004 83498 31595 60502 10257 20236 30126 40131 79599 83850 333 10309 29080 55030 58036;
0190834980999992003010818004-17730-039250FM-12+000399999V0201801N003110075019N0020001N1+02491+02451101461ADDAY161061AY261061GF108991999041008001071021MA1999999101411MD1999999+0551MW1211REMSYN082AAXX  08184 83498 21595 81806 10249 20245 30141 40146 72166 88472 333 58055 60031;EQDQ01+000082SCOTLC
0202834980999992003010900004-17730-039250FM-12+000399999V0201801N001510450019N0020001N1+02491+02431101671ADDAY161061AY261061GF108991031071008001021999KA1240M+02671MA1999999101621MD1999999+0361MW1211REMSYN100AAXX  09004 83498 21595 81803 10249 20243 30162 40167 72166 8372/ 333 10267 29097 55000 58036 60051;
0162834980999992003010912004-17730-039250FM-12+000399999V0202301N001011050019N0020001N1+02791+02361101731ADDGF106991041021008001001021KA1240N+02461MA1999999101681MD1999999+0161REMSYN082AAXX  09124 83498 22595 62302 10279 20236 30168 40173 84202 333 20246 58016 60074;
0167834980999992003010918004-17730-039250FM-12+000399999V0201401N001512200019N0020001N1+03011+02441101451ADDAA106000091GF103991011011008001001021MA1999999101401MD1999999-0011REMSYN070AAXX  09184 83498 32595 31403 10301 20244 30140 40145 81102 333 59001;EQDQ01  00002PRCP06
0208834980999992003011000004-17730-039250FM-12+000399999V0200501N001512200019N0020001N1+02581+02421101641ADDAA106000091GA1001+999999999GF100991001001999999001001KA1240M+03081MA1999999101591MD1999999-0031REMSYN082AAXX  10004 83498 32995 00503 10258 20242 30159 40164 333 10308 29083 55090 59003;EQDQ01  00002PRCP06
0186834980999992003011012004-17730-039250FM-12+000399999V0200501N003611050019N0020001N1+03021+02311101581ADDAA106000091GF107991031021008001001021KA1240N+02501MA1999999101531MD1999999-0151REMSYN076AAXX  10124 83498 32595 70507 10302 20231 30153 40158 83202 333 20250 59015;EQDQ01  00002PRCP06
0167834980999992003011018004-17730-039250FM-12+000399999V0200501N005112200019N0020001N1+03101+02181101101ADDAA106000091GF101991001001999999001021MA1999999101051MD1999999-0351REMSYN070AAXX  10184 83498 32995 10510 10310 20218 30105 40110 80002 333 59035;EQDQ01  00002PRCP06
0198834980999992003011100004-17730-039250FM-12+000399999V0200501N002612200019N0020001N1+02601+02331101251ADDAA106000091GF102991001001999999001081KA1240M+03201MA1999999101201MD1999999-0391REMSYN088AAXX  11004 83498 32995 20505 10260 20233 30120 40125 80008 333 10320 29074 55101 59039;EQDQ01  00002PRCP06
0186834980999992003011112004-17730-039250FM-12+000399999V0203601N006210450019N0020001N1+02831+02221101461ADDAA106000091GF108991041011008001031081KA1240N+02381MA1999999101411MD1999999-0121REMSYN076AAXX  11124 83498 32595 83612 10283 20222 30141 40146 84138 333 20238 59012;EQDQ01  00002PRCP06
0167834980999992003011118004-17730-039250FM-12+000399999V0200501N005719999999N0020001N1+02941+02261100951ADDAA106000091GF106991001001999999001041MA1999999100901MD1999999-0151REMSYN070AAXX  11184 83498 32995 60511 10294 20226 30090 40095 80004 333 59015;EQDQ01  00002PRCP06
0198834980999992003011200004-17730-039250FM-12+000399999V0203601N003112200019N0020001N1+02611+02311101111ADDAA106000091GF102991001001999999001081KA1240M+03161MA1999999101061MD1999999-0141REMSYN088AAXX  12004 83498 32995 23606 10261 20231 30106 40111 80008 333 10316 29076 55056 59014;EQDQ01  00002PRCP06
0186834980999992003011212004-17730-039250FM-12+000399999V0203601N003110450019N0020001N1+02941+02331101201ADDAA106000091GF106991021041008001031001KA1240N+02531MA1999999101151MD1999999-0261REMSYN076AAXX  12124 83498 32595 63606 10294 20233 30115 40120 82430 333 20253 59026;EQDQ01  00002PRCP06
0167834980999992003011218004-17730-039250FM-12+000399999V0200501N004611050019N0020001N1+02991+02421100851ADDAA106000091GF105991011041008001031081MA1999999100801MD1999999-0101REMSYN070AAXX  12184 83498 32595 50509 10299 20242 30080 40085 81438 333 59010;EQDQ01  00002PRCP06
0210834980999992003011300004-17730-039250FM-12+000399999V0202301N001510450019N0020001N1+02661+02331101241ADDAA106000091GF108991031071008001021999KA1240M+03331MA1999999101191MD1999999+0131MW1131REMSYN094AAXX  13004 83498 31595 82303 10266 20233 30119 40124 713// 8372/ 333 10333 29077 55043 58013;EQDQ01  00002PRCP06
0190834980999992003011312004-17730-039250FM-12+000399999V0201401N001510120019N0020001N1+02741+02321101251ADDAY191061AY221061GF108991051081008001051071KA1240N+02451MA1999999101201MD1999999+0051MW1211REMSYN088AAXX  13124 83498 21595 81403 10274 20232 30120 40125 72192 85857 333 20245 58005 60024;
0148834980999992003011318004-17730-039250FM-12+000399999V0200501N002110450019N0020001N1+03041+02411100931ADDAA106000021GF107991031081008001051021MA1999999100881MD1999999+0081REMSYN070AAXX  13184 83498 32595 70504 10304 20241 30088 40093 83852 333 58008;
0198834980999992003011400004-17730-039250FM-12+000399999V0200501N002119999999N0020001N1+02591+02421101131ADDAA106000091GF105991001001999999001071KA1240M+03121MA1999999101081MD1999999-0111REMSYN088AAXX  14004 83498 32995 50504 10259 20242 30108 40113 80007 333 10312 29082 55027 59011;EQDQ01  00002PRCP06
0186834980999992003011412004-17730-039250FM-12+000399999V0203601N003610450019N0020001N1+02801+02361101251ADDAA106000091GF108991021011008001031071KA1240N+02551MA1999999101201MD1999999+0001REMSYN076AAXX  14124 83498 32595 83607 10280 20236 30120 40125 82137 333 20255 58000;EQDQ01  00002PRCP06
0167834980999992003011418004-17730-039250FM-12+000399999V0203601N004110450019N0020001N1+02881+02301100981ADDAA106000091GF106991031031008001021001MA1999999100931MD1999999+0051REMSYN070AAXX  14184 83498 32595 63608 10288 20230 30093 40098 83320 333 58005;EQDQ01  00002PRCP06
0202834980999992003011500004-17730-039250FM-12+000399999V0203601N003111050019N0020001N1+02511+02381999999ADDAY161061AY221061GF108991031001008001021071KA1240M+03041MA1999999101201MD1999999+0121MW1211REMSYN100AAXX  15004 83498 21595 83606 10251 20238 30120 40912 72162 83027 333 10304 29084 55003 58012 69991;
0190834980999992003011512004-17730-039250FM-12+000399999V0203601N001510075019N0020001N1+02631+02441101431ADDAY161061AY221061GF108991051061008001021999KA1240N+02481MA1999999101381MD1999999+0181MW1211REMSYN088AAXX  15124 83498 21595 83603 10263 20244 30138 40143 72162 8562/ 333 20248 58018 60014;
0171834980999992003011518004-17730-039250FM-12+000399999V0200501N001510075019N0020001N1+02751+02431101281ADDAY161061AY221061GF108991051051008001021999MA1999999101231MD1999999+0301MW1211REMSYN082AAXX  15184 83498 21595 80503 10275 20243 30123 40128 72162 8552/ 333 58030 60101;
0179834980999992003011600004-17730-039250FM-12+000399999V0200501N003110450019N0020001N1+02611+02391101451ADDAA106000021GF108991041061008001021999KA1240M+02801MA1999999101401MD1999999+0201REMSYN088AAXX  16004 83498 32595 80506 10261 20239 30140 40145 8462/ 333 10280 29087 55000 58020;
0162834980999992003011612004-17730-039250FM-12+000399999V0200501N004610450019N0020001N1+02721+02391101641ADDGF108991031071008001011071KA1240N+02531MA1999999101591MD1999999+0211REMSYN082AAXX  16124 83498 22595 80509 10272 20239 30159 40164 83717 333 20253 58021 60104;
0167834980999992003011618004-17730-039250FM-12+000399999V0200501N003611050019N0020001N1+02801+02311101341ADDAA106000091GF108991021001017501011071MA1999999101291MD1999999+0061REMSYN070AAXX  16184 83498 32795 80507 10280 20231 30129 40134 82017 333 58006;EQDQ01  00002PRCP06
0198834980999992003011700004-17730-039250FM-12+000399999V0200501N003111050019N0020001N1+02541+02351101351ADDAA106000091GF108991011001017501031071KA1240M+02951MA1999999101301MD1999999-0101REMSYN088AAXX  17004 83498 32795 80506 10254 20235 30130 40135 81037 333 10295 29084 55000 59010;EQDQ01  00002PRCP06
0186834980999992003011712004-17730-039250FM-12+000399999V0203601N003611050019N0020001N1+02881+02211101471ADDAA106000091GF106991011011008001001081KA1240N+02391MA1999999101421MD1999999-0171REMSYN076AAXX  17124 83498 32595 63607 10288 20221 30142 40147 81108 333 20239 59017;EQDQ01  00002PRCP06
0167834980999992003011718004-17730-039250FM-12+000399999V0200501N004619999999N0020001N1+02851+02221101281ADDAA106000091GF106991001001999999001071MA1999999101231MD1999999-0061REMSYN070AAXX  17184 83498 32995 60509 10285 20222 30123 40128 80007 333 59006;EQDQ01  00002PRCP06
0198834980999992003011800004-17730-039250FM-12+000399999V0200501N001019999999N0020001N1+02491+02381101451ADDAA106000091GF108991001001999999001071KA1240M+03061MA1999999101401MD1999999+0101REMSYN088AAXX  18004 83498 32995 80502 10249 20238 30140 40145 80007 333 10306 29081 55013 58010;EQDQ01  00002PRCP06
0186834980999992003011812004-17730-039250FM-12+000399999V0203601N003111050019N0020001N1+02881+02371101511ADDAA106000091GF106991031021008001001081KA1240N+02351MA1999999101461MD1999999+0041REMSYN076AAXX  18124 83498 32595 63606 10288 20237 30146 40151 83208 333 20235 58004;EQDQ01  00002PRCP06
0167834980999992003011818004-17730-039250FM-12+000399999V0200501N005111050019N0020001N1+02991+02091101181ADDAA106000091GF106991011011008001001081MA1999999101131MD1999999-0101REMSYN070AAXX  18184 83498 32595 60510 10299 20209 30113 40118 81108 333 59010;EQDQ01  00002PRCP06
0198834980999992003011900004-17730-039250FM-12+000399999V0200501N002119999999N0020001N1+02551+02351101331ADDAA106000091GF106991021001008001031081KA1240M+03101MA1999999101281MD1999999-0121REMSYN088AAXX  19004 83498 32595 60504 10255 20235 30128 40133 82038 333 10310 29078 55088 59012;EQDQ01  00002PRCP06
0186834980999992003011912004-17730-039250FM-12+000399999V0200501N004611050019N0020001N1+02901+02221101451ADDAA106000091GF107991031021008001001021KA1240N+02401MA1999999101401MD1999999-0061REMSYN076AAXX  19124 83498 32595 70509 10290 20222 30140 40145 83202 333 20240 59006;EQDQ01  00002PRCP06
0167834980999992003011918004-17730-039250FM-12+000399999V0200501N005119999999N0020001N1+02901+02221101171ADDAA106000091GF107991001001999999001021MA1999999101121MD1999999-0011REMSYN070AAXX  19184 83498 32995 70510 10290 20222 30112 40117 80002 333 59001;EQDQ01  00002PRCP06
0198834980999992003012000004-17730-039250FM-12+000399999V0200501N002119999999N0020001N1+02581+02371101381ADDAA106000091GF107991001001999999001081KA1240M+03131MA1999999101331MD1999999+0051REMSYN088AAXX  20004 83498 32995 70504 10258 20237 30133 40138 80008 333 10313 29078 55068 58005;EQDQ01  00002PRCP06
0186834980999992003012012004-17730-039250FM-12+000399999V0203601N003611050019N0020001N1+02891+02301101431ADDAA106000091GF106991041021008001001091KA1240N+02461MA1999999101381MD1999999-0021REMSYN076AAXX  20124 83498 32595 63607 10289 20230 30138 40143 84209 333 20246 59002;EQDQ01  00002PRCP06
0167834980999992003012018004-17730-039250FM-12+000399999V0200501N005112200019N0020001N1+02991+02351101121ADDAA106000091GF105991011011008001001041MA1999999101071MD1999999-0051REMSYN070AAXX  20184 83498 32595 50510 10299 20235 30107 40112 81104 333 59005;EQDQ01  00002PRCP06
0198834980999992003012100004-17730-039250FM-12+000399999V0200501N002611050019N0020001N1+02611+02391101271ADDAA106000091GF108991031001012501021071KA1240M+03061MA1999999101221MD1999999-0111REMSYN088AAXX  21004 83498 32695 80505 10261 20239 30122 40127 83027 333 10306 29079 55051 59011;EQDQ01  00002PRCP06
0186834980999992003012112004-17730-039250FM-12+000399999V0200501N003110450019N0020001N1+02871+02351101361ADDAA106000091GF107991031021008001031081KA1240N+02401MA1999999101311MD1999999-0071REMSYN076AAXX  21124 83498 32595 70506 10287 20235 30131 40136 83238 333 20240 59007;EQDQ01  00002PRCP06
0167834980999992003012118004-17730-039250FM-12+000399999V0200501N006712200019N0020001N1+02991+02281101081ADDAA106000091GF105991011011008001001041MA1999999101031MD1999999-0041REMSYN070AAXX  21184 83498 32595 50513 10299 20228 30103 40108 81104 333 59004;EQDQ01  00002PRCP06
0198834980999992003012200004-17730-039250FM-12+000399999V0200501N002612200019N0020001N1+02601+02441101301ADDAA106000091GF103991001001999999001041KA1240M+03131MA1999999101251MD1999999+0031REMSYN088AAXX  22004 83498 32995 30505 10260 20244 30125 40130 80004 333 10313 29081 55077 58003;EQDQ01  00002PRCP06
0186834980999992003012212004-17730-039250FM-12+000399999V0203601N003611050019N0020001N1+03001+02321101471ADDAA106000091GF108991041021008001001021KA1240N+02431MA1999999101421MD1999999+0111REMSYN076AAXX  22124 83498 32595 83607 10300 20232 30142 40147 84202 333 20243 58011;EQDQ01  00002PRCP06
0167834980999992003012218004-17730-039250FM-12+000399999V0200501N004611050019N0100001N1+03001+02321101341ADDAA106000091GF107991011011008001001021MA1999999101291MD1999999+0261REMSYN070AAXX  22184 83498 32597 70509 10300 20232 30129 40134 81102 333 58026;EQDQ01  00002PRCP06
0198834980999992003012300004-17730-039250FM-12+000399999V0200501N002612200019N0020001N1+02601+02401101551ADDAA106000091GF102991011021008001001051KA1240M+03201MA1999999101501MD1999999+0251REMSYN088AAXX  23004 83498 32595 20505 10260 20240 30150 40155 81205 333 10320 29078 55087 58025;EQDQ01  00002PRCP06
0186834980999992003012312004-17730-039250FM-12+000399999V0200501N002110075019N0020001N1+02951+02261101761ADDAA106000091GF105991051021008001001001KA1240N+02291MA1999999101711MD1999999+0291REMSYN076AAXX  23124 83498 32595 50504 10295 20226 30171 40176 85200 333 20229 58029;EQDQ01  00002PRCP06
0167834980999992003012318004-17730-039250FM-12+000399999V0200501N004112200019N0020001N1+03091+02191101611ADDAA106000091GF103991021011008001001011MA1999999101561MD1999999+0271REMSYN070AAXX  23184 83498 32595 30508 10309 20219 30156 40161 82101 333 58027;EQDQ01  00002PRCP06
0198834980999992003012400004-17730-039250FM-12+000399999V0200501N001012200019N0020001N1+02551+02351101711ADDAA106000091GF101991011011008001001001KA1240M+03181MA1999999101661MD1999999+0161REMSYN088AAXX  24004 83498 32595 10502 10255 20235 30166 40171 81100 333 10318 29076 55108 58016;EQDQ01  00002PRCP06
0186834980999992003012412004-17730-039250FM-12+000399999V0200901N002112200019N0020001N1+02951+02261101791ADDAA106000091GF103991031021008001001001KA1240N+02361MA1999999101741MD1999999+0031REMSYN076AAXX  24124 83498 32595 30904 10295 20226 30174 40179 83200 333 20236 58003;EQDQ01  00002PRCP06
0167834980999992003012418004-17730-039250FM-12+000399999V0200901N003112200019N0020001N1+03051+02331101391ADDAA106000091GF103991011011008001001051MA1999999101341MD1999999-0221REMSYN070AAXX  24184 83498 32595 30906 10305 20233 30134 40139 81105 333 59022;EQDQ01  00002PRCP06
0208834980999992003012500004-17730-039250FM-12+000399999V0200901N001512200019N0020001N1+02591+02371101501ADDAA106000091GA1001+999999999GF100991001001999999001001KA1240M+03201MA1999999101451MD1999999-0211REMSYN082AAXX  25004 83498 32995 00903 10259 20237 30145 40150 333 10320 29077 55109 59021;EQDQ01  00002PRCP06
0186834980999992003012512004-17730-039250FM-12+000399999V0201801N000510075019N0020001N1+02841+02291101551ADDAA106000091GF105991051021008001001001KA1240N+02331MA1999999101501MD1999999-0241REMSYN076AAXX  25124 83498 32595 51801 10284 20229 30150 40155 85200 333 20233 59024;EQDQ01  00002PRCP06
0167834980999992003012518004-17730-039250FM-12+000399999V0201401N002610450019N0020001N1+02941+02331101301ADDAA106000091GF107991011091008001071031MA1999999101251MD1999999-0091REMSYN070AAXX  25184 83498 32595 71405 10294 20233 30125 40130 81973 333 59009;EQDQ01  00002PRCP06
0208834980999992003012600004-17730-039250FM-12+000399999V0200901N001512200019N0020001N1+02621+02351101451ADDAA106000091GA1001+999999999GF100991001001999999001001KA1240M+03101MA1999999101401MD1999999-0051REMSYN082AAXX  26004 83498 32995 00903 10262 20235 30140 40145 333 10310 29078 55064 59005;EQDQ01  00002PRCP06
0190834980999992003012612004-17730-039250FM-12+000399999V0200501N000510075019N0020001N1+02861+02161101401ADDAY161061AY261061GF105991051021008001001001KA1240N+02361MA1999999101351MD1999999-0151MW1011REMSYN088AAXX  26124 83498 21595 50501 10286 20216 30135 40140 70166 85200 333 20236 59015 60054;
0167834980999992003012618004-17730-039250FM-12+000399999V0200901N003112200019N0020001N1+02961+02281101161ADDAA106000091GF103991021011008001001041MA1999999101111MD1999999-0141REMSYN070AAXX  26184 83498 32595 30906 10296 20228 30111 40116 82104 333 59014;EQDQ01  00002PRCP06
0198834980999992003012700004-17730-039250FM-12+000399999V0200901N001512200019N0020001N1+02531+02191101291ADDAA106000091GF101991001001999999001011KA1240M+03121MA1999999101241MD1999999-0161REMSYN088AAXX  27004 83498 32995 10903 10253 20219 30124 40129 80001 333 10312 29074 55104 59016;EQDQ01  00002PRCP06
0186834980999992003012712004-17730-039250FM-12+000399999V0200501N003112200019N0020001N1+02811+02221101301ADDAA106000091GF105991041021008001001011KA1240N+02311MA1999999101251MD1999999-0101REMSYN076AAXX  27124 83498 32595 50506 10281 20222 30125 40130 84201 333 20231 59010;EQDQ01  00002PRCP06
0167834980999992003012718004-17730-039250FM-12+000399999V0200501N004112200019N0020001N1+02941+02211101141ADDAA106000091GF104991021011008001001011MA1999999101091MD1999999-0021REMSYN070AAXX  27184 83498 32595 40508 10294 20221 30109 40114 82101 333 59002;EQDQ01  00002PRCP06
0198834980999992003012800004-17730-039250FM-12+000399999V0200501N002112200019N0020001N1+02611+02351101331ADDAA106000091GF102991001001999999001011KA1240M+03081MA1999999101281MD1999999+0041REMSYN088AAXX  28004 83498 32995 20504 10261 20235 30128 40133 80001 333 10308 29077 55096 58004;EQDQ01  00002PRCP06
0186834980999992003012812004-17730-039250FM-12+000399999V0200501N003610075019N0020001N1+02901+02271101401ADDAA106000091GF107991051021008001001021KA1240N+02501MA1999999101351MD1999999+0101REMSYN076AAXX  28124 83498 32595 70507 10290 20227 30135 40140 85202 333 20250 58010;EQDQ01  00002PRCP06
0167834980999992003012818004-17730-039250FM-12+000399999V0200501N006219999999N0020001N1+03081+02211101201ADDAA106000091GF107991001001999999001021MA1999999101151MD1999999+0061REMSYN070AAXX  28184 83498 32995 70512 10308 20221 30115 40120 80002 333 58006;EQDQ01  00002PRCP06
0198834980999992003012900004-17730-039250FM-12+000399999V0200501N003619999999N0020001N1+02701+02431101401ADDAA106000091GF107991001001999999001081KA1240M+03141MA1999999101351MD1999999+0071REMSYN088AAXX  29004 83498 32995 70507 10270 20243 30135 40140 80008 333 10314 29075 55069 58007;EQDQ01  00002PRCP06
0186834980999992003012912004-17730-039250FM-12+000399999V0203601N004112200019N0020001N1+02991+02231101531ADDAA106000091GF106991041021008001001011KA1240N+02491MA1999999101481MD1999999+0131REMSYN076AAXX  29124 83498 32595 63608 10299 20223 30148 40153 84201 333 20249 58013;EQDQ01  00002PRCP06
0167834980999992003012918004-17730-039250FM-12+000399999V0200501N005119999999N0020001N1+03111+02231101221ADDAA106000091GF106991001001999999001021MA1999999101171MD1999999+0021REMSYN070AAXX  29184 83498 32995 60510 10311 20223 30117 40122 80002 333 58002;EQDQ01  00002PRCP06
0198834980999992003013000004-17730-039250FM-12+000399999V0200501N002112200019N0020001N1+02651+02501101451ADDAA106000091GF103991031021008001001001KA1240M+03231MA1999999101401MD1999999+0051REMSYN088AAXX  30004 83498 32595 30504 10265 20250 30140 40145 83200 333 10323 29077 55095 58005;EQDQ01  00002PRCP06
0186834980999992003013012004-17730-039250FM-12+000399999V0200501N004112200019N0020001N1+02991+02281101561ADDAA106000091GF105991031021008001001011KA1240N+02481MA1999999101511MD1999999+0031REMSYN076AAXX  30124 83498 32595 50508 10299 20228 30151 40156 83201 333 20248 58003;EQDQ01  00002PRCP06
0167834980999992003013018004-17730-039250FM-12+000399999V0200901N003612200019N0020001N1+03051+02231101311ADDAA106000091GF104991011011008001001011MA1999999101261MD1999999+0091REMSYN070AAXX  30184 83498 32595 40907 10305 20223 30126 40131 81101 333 58009;EQDQ01  00002PRCP06
0208834980999992003013100004-17730-039250FM-12+000399999V0200901N001512200019N0020001N1+02571+02331101521ADDAA106000091GA1001+999999999GF100991001001999999001001KA1240M+03251MA1999999101471MD1999999+0071REMSYN082AAXX  31004 83498 32995 00903 10257 20233 30147 40152 333 10325 29076 55097 58007;EQDQ01  00002PRCP06
0186834980999992003013112004-17730-039250FM-12+000399999V0200901N002610075019N0020001N1+02941+02381101601ADDAA106000091GF105991051021008001001001KA1240N+02531MA1999999101551MD1999999+0041REMSYN076AAXX  31124 83498 32595 50905 10294 20238 30155 40160 85200 333 20253 58004;EQDQ01  00002PRCP06
0167834980999992003013118004-17730-039250FM-12+000399999V0201401N002612200019N0020001N1+03021+02241101481ADDAA106000091GF104991041021008001001001MA1999999101431MD1999999+0171REMSYN070AAXX  31184 83498 32595 41405 10302 20224 30143 40148 84200 333 58017;EQDQ01  00002PRCP06
0198834980999992003020100004-17730-039250FM-12+000399999V0200901N002612200019N0020001N1+02701+02331101621ADDAA106000091GF101991011011008001001001KA1240M+03131MA1999999101571MD1999999+0101REMSYN088AAXX  01004 83498 32595 10905 10270 20233 30157 40162 81100 333 10313 29074 55107 58010;EQDQ01  00002PRCP06
0190834980999992003020112004-17730-039250FM-12+000399999V0201401N002110450019N0020001N1+02771+02401101771ADDAY161061AY221061GF107991041051008001021021KA1240N+02411MA1999999101721MD1999999+0171MW1211REMSYN088AAXX  01124 83498 21595 71404 10277 20240 30172 40177 72162 84522 333 20241 58017 60054;
0171834980999992003020118004-17730-039250FM-12+000399999V0201401N003110075019N0020001N1+02871+02351101611ADDAY161061AY261061GF106991051041008001021021MA1999999101561MD1999999+0131MW1021REMSYN082AAXX  01184 83498 21595 61406 10287 20235 30156 40161 70266 85422 333 58013 69961;
0198834980999992003020200004-17730-039250FM-12+000399999V0201401N002112200019N0020001N1+02661+02371101711ADDAA106000091GF103991011011008001001021KA1240M+03041MA1999999101661MD1999999+0091REMSYN088AAXX  02004 83498 32595 31404 10266 20237 30166 40171 81102 333 10304 29081 55045 58009;EQDQ01  00002PRCP06
0162834980999992003020212004-17730-039250FM-12+000399999V0201401N002610450019N0020001N1+02931+02391101881ADDGF106991021021008001041021KA1240N+02481MA1999999101831MD1999999+0111REMSYN082AAXX  02124 83498 22595 61405 10293 20239 30183 40188 82242 333 20248 58011 69964;
0167834980999992003020218004-17730-039250FM-12+000399999V0201401N002611050019N0020001N1+02981+02301101731ADDAA106000091GF106991031021008001001021MA1999999101681MD1999999+0121REMSYN070AAXX  02184 83498 32595 61405 10298 20230 30168 40173 83202 333 58012;EQDQ01  00002PRCP06
0198834980999992003020300004-17730-039250FM-12+000399999V0200901N001512200019N0020001N1+02601+02291101851ADDAA106000091GF102991021061008001001001KA1240M+03031MA1999999101801MD1999999+0141REMSYN088AAXX  03004 83498 32595 20903 10260 20229 30180 40185 82600 333 10303 29077 55055 58014;EQDQ01  00002PRCP06
0190834980999992003020312004-17730-039250FM-12+000399999V0200901N002110075019N0020001N1+02761+02441101851ADDAY161061AY261061GF108991051061008001051021KA1240N+02551MA1999999101801MD1999999-0031MW1621REMSYN088AAXX  03124 83498 21595 80904 10276 20244 30180 40185 76266 85652 333 20255 59003 69944;
0171834980999992003020318004-17730-039250FM-12+000399999V0201801N002110450019N0020001N1+02921+02431101721ADDAY161061AY221061GF107991041081008001051021MA1999999101671MD1999999-0011MW1211REMSYN082AAXX  03184 83498 21595 71804 10292 20243 30167 40172 72162 84852 333 59001 60021;
0179834980999992003020400004-17730-039250FM-12+000399999V0200901N001012200019N0020001N1+02621+02391101771ADDAA106000021GF101991001001999999001051KA1240M+03031MA1999999101721MD1999999-0081REMSYN088AAXX  04004 83498 32995 10902 10262 20239 30172 40177 80005 333 10303 29083 55020 59008;
0190834980999992003020412004-17730-039250FM-12+000399999V0201401N003110075019N0020001N1+02851+02401101711ADDAY161061AY261061GF106991061021008001001001KA1240N+02431MA1999999101661MD1999999-0141MW1211REMSYN088AAXX  04124 83498 21595 61406 10285 20240 30166 40171 72166 86200 333 20243 59014 60024;
0148834980999992003020418004-17730-039250FM-12+000399999V0200901N003112200019N0020001N1+03011+02241101481ADDAA106000021GF105991041021008001001011MA1999999101431MD1999999-0241REMSYN070AAXX  04184 83498 32595 50906 10301 20224 30143 40148 84201 333 59024;
0208834980999992003020500004-17730-039250FM-12+000399999V0200901N001012200019N0020001N1+02551+02291101561ADDAA106000091GA1001+999999999GF100991001001999999001001KA1240M+03101MA1999999101511MD1999999-0211REMSYN082AAXX  05004 83498 32995 00902 10255 20229 30151 40156 333 10310 29076 55084 59021;EQDQ01  00002PRCP06
0190834980999992003020512004-17730-039250FM-12+000399999V0203201N002110450019N0020001N1+02491+02341101721ADDAY161061AY261061GF108991031071008001021999KA1240N+02351MA1999999101671MD1999999+0011MW1631REMSYN088AAXX  05124 83498 21595 83204 10249 20234 30167 40172 76366 8372/ 333 20235 58001 60164;
0171834980999992003020518004-17730-039250FM-12+000399999V0200501N002610450019N0020001N1+02911+01931101521ADDAY161061AY221061GF106991021051008001041001MA1999999101471MD1999999+0041MW1211REMSYN082AAXX  05184 83498 21595 60505 10291 20193 30147 40152 72162 82540 333 58004 60081;
0179834980999992003020600004-17730-039250FM-12+000399999V0200501N001512200019N0020001N1+02521+02151101531ADDAA106000021GF102991021061008001001001KA1240M+02971MA1999999101481MD1999999-0031REMSYN088AAXX  06004 83498 32595 20503 10252 20215 30148 40153 82600 333 10297 29077 55014 59003;
0190834980999992003020612004-17730-039250FM-12+000399999V0201801N001512200019N0020001N1+02821+02201101731ADDAY161061AY261061GF105991021021008001051091KA1240N+02151MA1999999101681MD1999999+0011MW1601REMSYN088AAXX  06124 83498 21595 51803 10282 20220 30168 40173 76066 82259 333 20215 58001 60084;
0148834980999992003020618004-17730-039250FM-12+000399999V0201401N004612200019N0020001N1+03021+02241101491ADDAA106000021GF103991031021008001001001MA1999999101441MD1999999-0031REMSYN070AAXX  06184 83498 32595 31409 10302 20224 30144 40149 83200 333 59003;
0198834980999992003020700004-17730-039250FM-12+000399999V0200501N001512200019N0020001N1+02541+02171101571ADDAA106000091GF101991011021008001001001KA1240M+03101MA1999999101521MD1999999+0041REMSYN088AAXX  07004 83498 32595 10503 10254 20217 30152 40157 81200 333 10310 29073 55106 58004;EQDQ01  00002PRCP06
0171834980999992003020718004-17730-039250FM-12+000399999V0200901N003112200019N0020001N1+02951+02311101551ADDAY161061AY211061GF104991041021008001001001MA1999999101501MD1999999+0061MW1211REMSYN082AAXX  07184 83498 21595 40906 10295 20231 30150 40155 72161 84200 333 58006 69911;
0179834980999992003020800004-17730-039250FM-12+000399999V0200501N001512200019N0020001N1+02511+02291101641ADDAA106000021GF101991011021008001001001KA1240M+03021MA1999999101591MD1999999+0071REMSYN088AAXX  08004 83498 32595 10503 10251 20229 30159 40164 81200 333 10302 29082 55075 58007;
0190834980999992003020812004-17730-039250FM-12+000399999V0201401N002612200019N0020001N1+02891+02321101801ADDAY161061AY211061GF103991031021008001001001KA1240N+02371MA1999999101751MD1999999+0061MW1211REMSYN088AAXX  08124 83498 21595 31405 10289 20232 30175 40180 72161 83200 333 20237 58006 60074;
0208834980999992003020900004-17730-039250FM-12+000399999V0200901N001512200019N0020001N1+02571+02171101631ADDAA106000091GA1001+999999999GF100991001001999999001001KA1240M+03081MA1999999101581MD1999999-0011REMSYN082AAXX  09004 83498 32995 00903 10257 20217 30158 40163 333 10308 29075 55108 59001;EQDQ01  00002PRCP06
0186834980999992003020912004-17730-039250FM-12+000399999V0202301N001012200019N0020001N1+02821+02201101701ADDAA106000091GF103991021021008001001051KA1240N+02301MA1999999101651MD1999999-0101REMSYN076AAXX  09124 83498 32595 32302 10282 20220 30165 40170 82205 333 20230 59010;EQDQ01  00002PRCP06
0167834980999992003020918004-17730-039250FM-12+000399999V0201801N005112200019N0020001N1+02981+02091101351ADDAA106000091GF101991001001999999001051MA1999999101301MD1999999-0181REMSYN070AAXX  09184 83498 32995 11810 10298 20209 30130 40135 80005 333 59018;EQDQ01  00002PRCP06
0198834980999992003021000004-17730-039250FM-12+000399999V0201401N003112200019N0020001N1+02691+02281101391ADDAA106000091GF101991011011008001001001KA1240M+03061MA1999999101341MD1999999-0241REMSYN088AAXX  10004 83498 32595 11406 10269 20228 30134 40139 81100 333 10306 29072 55104 59024;EQDQ01  00002PRCP06
0190834980999992003021012004-17730-039250FM-12+000399999V0202701N001010075019N0020001N1+02791+02251101441ADDAY161061AY221061GF105991051011008001001001KA1240N+02251MA1999999101391MD1999999-0261MW1211REMSYN088AAXX  10124 83498 21595 52702 10279 20225 30139 40144 72162 85100 333 20225 59026 60054;
0148834980999992003021018004-17730-039250FM-12+000399999V0200901N003612200019N0020001N1+03131+02051101151ADDAA106000021GF102991021031008001001001MA1999999101101MD1999999-0201REMSYN070AAXX  10184 83498 32595 20907 10313 20205 30110 40115 82300 333 59020;
0208834980999992003021100004-17730-039250FM-12+000399999V0200901N001512200019N0020001N1+02541+02291101331ADDAA106000091GA1001+999999999GF100991001001999999001001KA1240M+03201MA1999999101281MD1999999-0061REMSYN082AAXX  11004 83498 32995 00903 10254 20229 30128 40133 333 10320 29075 55101 59006;EQDQ01  00002PRCP06
0186834980999992003021112004-17730-039250FM-12+000399999V0200501N002112200019N0020001N1+02871+02231101491ADDAA106000091GF104991041021008001001001KA1240N+02221MA1999999101441MD1999999+0051REMSYN076AAXX  11124 83498 32595 40504 10287 20223 30144 40149 84200 333 20222 58005;EQDQ01  00002PRCP06
0167834980999992003021118004-17730-039250FM-12+000399999V0200501N004112200019N0020001N1+03051+02231101171ADDAA106000091GF102991021011008001001001MA1999999101121MD1999999+0021REMSYN070AAXX  11184 83498 32595 20508 10305 20223 30112 40117 82100 333 58002;EQDQ01  00002PRCP06
0198834980999992003021200004-17730-039250FM-12+000399999V0200501N001512200019N0020001N1+02551+02251101371ADDAA106000091GF102991001001999999001021KA1240M+03141MA1999999101321MD1999999+0041REMSYN088AAXX  12004 83498 32995 20503 10255 20225 30132 40137 80002 333 10314 29075 55111 58004;EQDQ01  00002PRCP06
0186834980999992003021212004-17730-039250FM-12+000399999V0200501N002611050019N0020001N1+02901+02271101611ADDAA106000091GF105991041021008001001021KA1240N+02331MA1999999101561MD1999999+0121REMSYN076AAXX  12124 83498 32595 50505 10290 20227 30156 40161 84202 333 20233 58012;EQDQ01  00002PRCP06
0167834980999992003021218004-17730-039250FM-12+000399999V0200501N003112200019N0020001N1+02941+02241101331ADDAA106000091GF105991021011008001001041MA1999999101281MD1999999+0161REMSYN070AAXX  12184 83498 32595 50506 10294 20224 30128 40133 82104 333 58016;EQDQ01  00002PRCP06
0198834980999992003021300004-17730-039250FM-12+000399999V0200501N000512200019N0020001N1+02481+02191101541ADDAA106000091GF104991011001008001031041KA1240M+03041MA1999999101491MD1999999+0171REMSYN088AAXX  13004 83498 32595 40501 10248 20219 30149 40154 81034 333 10304 29076 55018 58017;EQDQ01  00002PRCP06
0186834980999992003021312004-17730-039250FM-12+000399999V0200901N002612200019N0020001N1+02891+02251101661ADDAA106000091GF106991041021008001001041KA1240N+02351MA1999999101611MD1999999+0051REMSYN076AAXX  13124 83498 32595 60905 10289 20225 30161 40166 84204 333 20235 58005;EQDQ01  00002PRCP06
0167834980999992003021318004-17730-039250FM-12+000399999V0200901N003610450019N0020001N1+02811+02181101371ADDAA106000091GF107991011021008001071081MA1999999101321MD1999999+0041REMSYN070AAXX  13184 83498 32595 70907 10281 20218 30132 40137 81278 333 58004;EQDQ01  00002PRCP06
0198834980999992003021400004-17730-039250FM-12+000399999V0200501N002112200019N0020001N1+02551+02311101451ADDAA106000091GF104991021001012501021081KA1240M+03121MA1999999101401MD1999999-0091REMSYN088AAXX  14004 83498 32695 40504 10255 20231 30140 40145 82028 333 10312 29079 55052 59009;EQDQ01  00002PRCP06
0186834980999992003021412004-17730-039250FM-12+000399999V0200501N003612200019N0020001N1+02951+02241101471ADDAA106000091GF104991031021008001001011KA1240N+02361MA1999999101421MD1999999-0191REMSYN076AAXX  14124 83498 32595 40507 10295 20224 30142 40147 83201 333 20236 59019;EQDQ01  00002PRCP06
0167834980999992003021418004-17730-039250FM-12+000399999V0200501N005112200019N0020001N1+03011+02111101281ADDAA106000091GF101991011011008001001001MA1999999101231MD1999999-0091REMSYN070AAXX  14184 83498 32595 10510 10301 20211 30123 40128 81100 333 59009;EQDQ01  00002PRCP06
0198834980999992003021500004-17730-039250FM-12+000399999V0200501N000512200019N0020001N1+02471+02251101401ADDAA106000091GF103991001001999999001081KA1240M+03101MA1999999101351MD1999999-0051REMSYN088AAXX  15004 83498 32995 30501 10247 20225 30135 40140 80008 333 10310 29075 55093 59005;EQDQ01  00002PRCP06
0186834980999992003021512004-17730-039250FM-12+000399999V0200501N002610450019N0020001N1+02861+02161101471ADDAA106000091GF106991041021008001041001KA1240N+02251MA1999999101421MD1999999+0001REMSYN076AAXX  15124 83498 32595 60505 10286 20216 30142 40147 84240 333 20225 58000;EQDQ01  00002PRCP06
0167834980999992003021518004-17730-039250FM-12+000399999V0200901N004111050019N0020001N1+03011+02291101181ADDAA106000091GF106991021021008001001081MA1999999101131MD1999999-0101REMSYN070AAXX  15184 83498 32595 60908 10301 20229 30113 40118 82208 333 59010;EQDQ01  00002PRCP06
0186834980999992003021612004-17730-039250FM-12+000399999V0200501N002610450019N0020001N1+02931+02391101401ADDAA106000091GF106991041021008001031051KA1240N+02431MA1999999101351MD1999999-0071REMSYN076AAXX  16124 83498 32595 60505 10293 20239 30135 40140 84235 333 20243 59007;EQDQ01  00002PRCP06
0167834980999992003021618004-17730-039250FM-12+000399999V0200901N004111050019N0020001N1+03091+02371101121ADDAA106000091GF106991021011008001001091MA1999999101071MD1999999-0061REMSYN070AAXX  16184 83498 32595 60908 10309 20237 30107 40112 82109 333 59006;EQDQ01  00002PRCP06
0186834980999992003021712004-17730-039250FM-12+000399999V0200501N005712200019N0020001N1+03021+02151101331ADDAA106000091GF103991021021008001001011KA1240N+02461MA1999999101281MD1999999-0071REMSYN076AAXX  17124 83498 32595 30511 10302 20215 30128 40133 82201 333 20246 59007;EQDQ01  00002PRCP06
0167834980999992003021718004-17730-039250FM-12+000399999V0200501N005112200019N0020001N1+03061+02171101061ADDAA106000091GF102991001001999999001041MA1999999101011MD1999999-0061REMSYN070AAXX  17184 83498 32995 20510 10306 20217 30101 40106 80004 333 59006;EQDQ01  00002PRCP06
0198834980999992003021800004-17730-039250FM-12+000399999V0200501N001512200019N0020001N1+02621+02311101311ADDAA106000091GF102991001001999999001041KA1240M+03181MA1999999101261MD1999999+0101REMSYN088AAXX  18004 83498 32995 20503 10262 20231 30126 40131 80004 333 10318 29072 55103 58010;EQDQ01  00002PRCP06
0186834980999992003021812004-17730-039250FM-12+000399999V0203601N003110450019N0020001N1+02911+02341101441ADDAA106000091GF105991031051008001041001KA1240N+02481MA1999999101391MD1999999+0111REMSYN076AAXX  18124 83498 32595 53606 10291 20234 30139 40144 83540 333 20248 58011;EQDQ01  00002PRCP06
0167834980999992003021818004-17730-039250FM-12+000399999V0200501N005112200019N0020001N1+03131+02171101151ADDAA106000091GF105991011011008001001041MA1999999101101MD1999999+0091REMSYN070AAXX  18184 83498 32595 50510 10313 20217 30110 40115 81104 333 58009;EQDQ01  00002PRCP06
0198834980999992003021900004-17730-039250FM-12+000399999V0200501N001519999999N0020001N1+02691+02451101321ADDAA106000091GF106991031001012501031041KA1240M+03211MA1999999101271MD1999999+0011REMSYN088AAXX  19004 83498 32695 60503 10269 20245 30127 40132 83034 333 10321 29076 55044 58001;EQDQ01  00002PRCP06
0186834980999992003021912004-17730-039250FM-12+000399999V0200501N004611050019N0020001N1+03011+02321101571ADDAA106000091GF106991041021008001001081KA1240N+02631MA1999999101521MD1999999+0131REMSYN076AAXX  19124 83498 32595 60509 10301 20232 30152 40157 84208 333 20263 58013;EQDQ01  00002PRCP06
0167834980999992003021918004-17730-039250FM-12+000399999V0200501N005119999999N0020001N1+03081+02191101351ADDAA106000091GF107991001001999999001081MA1999999101301MD1999999+0201REMSYN070AAXX  19184 83498 32995 70510 10308 20219 30130 40135 80008 333 58020;EQDQ01  00002PRCP06
0198834980999992003022000004-17730-039250FM-12+000399999V0200501N001012200019N0020001N1+02631+02391101611ADDAA106000091GF103991001001999999001011KA1240M+03201MA1999999101561MD1999999+0291REMSYN088AAXX  20004 83498 32995 30502 10263 20239 30156 40161 80001 333 10320 29075 55068 58029;EQDQ01  00002PRCP06
0186834980999992003022012004-17730-039250FM-12+000399999V0200901N002110450019N0020001N1+02861+02351101641ADDAA106000091GF105991041051008001011001KA1240N+02411MA1999999101591MD1999999+0071REMSYN076AAXX  20124 83498 32595 50904 10286 20235 30159 40164 84510 333 20241 58007;EQDQ01  00002PRCP06
0167834980999992003022018004-17730-039250FM-12+000399999V0200901N003612200019N0020001N1+03081+02191101391ADDAA106000091GF102991021011008001001001MA1999999101341MD1999999+0041REMSYN070AAXX  20184 83498 32595 20907 10308 20219 30134 40139 82100 333 58004;EQDQ01  00002PRCP06
0198834980999992003022100004-17730-039250FM-12+000399999V0200501N001012200019N0020001N1+02551+02291101491ADDAA106000091GF101991011011008001001001KA1240M+03181MA1999999101441MD1999999-0121REMSYN088AAXX  21004 83498 32595 10502 10255 20229 30144 40149 81100 333 10318 29076 55096 59012;EQDQ01  00002PRCP06
0186834980999992003022112004-17730-039250FM-12+000399999V0201401N001511050019N0020001N1+02871+02231101521ADDAA106000091GF105991031021008001001021KA1240N+02281MA1999999101471MD1999999-0121REMSYN076AAXX  21124 83498 32595 51403 10287 20223 30147 40152 83202 333 20228 59012;EQDQ01  00002PRCP06
0167834980999992003022118004-17730-039250FM-12+000399999V0201401N002611050019N0020001N1+02921+02291101351ADDAA106000091GF106991011011008001001081MA1999999101301MD1999999-0041REMSYN070AAXX  21184 83498 32595 61405 10292 20229 30130 40135 81108 333 59004;EQDQ01  00002PRCP06
0208834980999992003022200004-17730-039250FM-12+000399999V0200901N002112200019N0020001N1+02611+02311101401ADDAA106000091GA1001+999999999GF100991001001999999001001KA1240M+03081MA1999999101351MD1999999-0091REMSYN082AAXX  22004 83498 32995 00904 10261 20231 30135 40140 333 10308 29077 55064 59009;EQDQ01  00002PRCP06
0186834980999992003022212004-17730-039250FM-12+000399999V0202301N000510450019N0020001N1+02771+02381101691ADDAA106000091GF107991031051008001021051KA1240N+02411MA1999999101631MD1999999+0161REMSYN076AAXX  22124 83498 32595 72301 10277 20238 30163 40169 83525 333 20241 58016;EQDQ01  00002PRCP06
0208834980999992003022300004-17730-039250FM-12+000399999V0200901N002612200019N0020001N1+02661+02331101691ADDAA106000091GA1001+999999999GF100991001001999999001001KA1240M+03101MA1999999101641MD1999999+0291REMSYN082AAXX  23004 83498 32995 00905 10266 20233 30164 40169 333 10310 29079 55045 58029;EQDQ01  00002PRCP06
0198834980999992003022400004-17730-039250FM-12+000399999V0200901N002612200019N0020001N1+02731+02281101811ADDAA106000091GF102991021011008001001001KA1240M+03151MA1999999101761MD1999999+0121REMSYN088AAXX  24004 83498 32595 20905 10273 20228 30176 40181 82100 333 10315 29073 55075 58012;EQDQ01  00002PRCP06
0208834980999992003022500004-17730-039250FM-12+000399999V0201401N002112200019N0020001N1+02691+02311101651ADDAA106000091GA1001+999999999GF100991001001999999001001KA1240M+03141MA1999999101601MD1999999-0161REMSYN082AAXX  25004 83498 32995 01404 10269 20231 30160 40165 333 10314 29072 55111 59016;EQDQ01  00002PRCP06
0186834980999992003022512004-17730-039250FM-12+000399999V0202301N001010075019N0020001N1+02871+02191101561ADDAA106000091GF106991061021008001001001KA1240N+02331MA1999999101511MD1999999-0291REMSYN076AAXX  25124 83498 32595 62302 10287 20219 30151 40156 86200 333 20233 59029;EQDQ01  00002PRCP06
0183834980999992003022518004-17730-039250FM-12+000399999V0200901N003112200019N0020001N1+03051+02261101281ADDAA106000091GF103991999021008001001001MA1999999101231MD1999999-0361REMSYN070AAXX  25184 83498 32595 30906 10305 20226 30123 40128 81200 333 59036;EQDQ01+000012SCOTLCQ02  00002PRCP06
0198834980999992003022600004-17730-039250FM-12+000399999V0200901N001512200019N0020001N1+02671+02371101341ADDAA106000091GF101991001001999999001011KA1240M+03141MA1999999101291MD1999999-0311REMSYN088AAXX  26004 83498 32995 10903 10267 20237 30129 40134 80001 333 10314 29074 55104 59031;EQDQ01  00002PRCP06
0186834980999992003022612004-17730-039250FM-12+000399999V0202701N001012200019N0020001N1+02971+02281101441ADDAA106000091GF104991021021008001061001KA1240N+02361MA1999999101391MD1999999-0121REMSYN076AAXX  26124 83498 32595 42702 10297 20228 30139 40144 82260 333 20236 59012;EQDQ01  00002PRCP06
0167834980999992003022618004-17730-039250FM-12+000399999V0201401N002612200019N0020001N1+03031+02411101151ADDAA106000091GF103991001001999999001051MA1999999101101MD1999999-0131REMSYN070AAXX  26184 83498 32995 31405 10303 20241 30110 40115 80005 333 59013;EQDQ01  00002PRCP06
0208834980999992003022700004-17730-039250FM-12+000399999V0200501N001512200019N0020001N1+02531+02251101351ADDAA106000091GA1001+999999999GF100991001001999999001001KA1240M+03251MA1999999101301MD1999999+0011REMSYN082AAXX  27004 83498 32995 00503 10253 20225 30130 40135 333 10325 29077 55092 58001;EQDQ01  00002PRCP06
0190834980999992003022712004-17730-039250FM-12+000399999V0200501N002110450019N0020001N1+02711+02391101481ADDAY161061AY221061GF106991041051008001011001KA1240N+02411MA1999999101431MD1999999+0041MW1611REMSYN088AAXX  27124 83498 21595 60504 10271 20239 30143 40148 76162 84510 333 20241 58004 60144;
0148834980999992003022718004-17730-039250FM-12+000399999V0201401N003112200019N0020001N1+02991+02361101301ADDAA106000021GF103991011011008001001051MA1999999101251MD1999999+0151REMSYN070AAXX  27184 83498 32595 31406 10299 20236 30125 40130 81105 333 58015;
0208834980999992003022800004-17730-039250FM-12+000399999V0200501N001512200019N0020001N1+02651+02331101701ADDAA106000091GA1001+999999999GF100991001001999999001001KA1240M+03161MA1999999101651MD1999999+0351REMSYN082AAXX  28004 83498 32995 00503 10265 20233 30165 40170 333 10316 29080 55078 58035;EQDQ01  00002PRCP06
0209834980999992003022812004-17730-039250FM-12+000399999V0202701N001519999999N0020001N1+02851+02461101671ADDAY161061AY221061GF105991999031008001021021KA1240N+02481MA1999999101621MD1999999+0191MW1211REMSYN088AAXX  28124 83498 21595 52703 10285 20246 30162 40167 72162 88322 333 20248 58019 60014;EQDQ01+000082SCOTLC
0148834980999992003022818004-17730-039250FM-12+000399999V0200901N003612200019N0020001N1+03051+02181101351ADDAA106000021GF102991011011008001001051MA1999999101301MD1999999+0051REMSYN070AAXX  28184 83498 32595 20907 10305 20218 30130 40135 81105 333 58005;
0208834980999992003030100004-17730-039250FM-12+000399999V0200501N001012200019N0020001N1+02631+02211101491ADDAA106000091GA1001+999999999GF100991001001999999001001KA1240M+03201MA1999999101441MD1999999-0211REMSYN082AAXX  01004 83498 32995 00502 10263 20221 30144 40149 333 10320 29074 55096 59021;EQDQ01  00002PRCP06
0171834980999992003030112004-17730-039250FM-12+000399999V0200901N001012200019N0020001N1+03031+02181101591ADDAA106000091GF103991031021008001001001KA1240N+02361MA1999999101541REMSYN075AAXX  01124 83498 32595 30902 10303 20218 30154 40159 83200 333 20236 8008;EQDQ01  00002PRCP06
0167834980999992003030118004-17730-039250FM-12+000399999V0200501N003112200019N0020001N1+03061+02221101271ADDAA106000091GF102991021011008001001001MA1999999101221MD1999999-0081REMSYN070AAXX  01184 83498 32595 20506 10306 20222 30122 40127 82100 333 59008;EQDQ01  00002PRCP06
0208834980999992003030200004-17730-039250FM-12+000399999V0200501N002112200019N0020001N1+02651+02311101411ADDAA106000091GA1001+999999999GF100991001001999999001001KA1240M+03231MA1999999101361MD1999999-0081REMSYN082AAXX  02004 83498 32995 00504 10265 20231 30136 40141 333 10323 29072 55105 59008;EQDQ01  00002PRCP06
0186834980999992003030212004-17730-039250FM-12+000399999V0200501N002111050019N0020001N1+03001+02321101481ADDAA106000091GF106991041021008001001021KA1240N+02411MA1999999101431MD1999999-0111REMSYN076AAXX  02124 83498 32595 60504 10300 20232 30143 40148 84202 333 20241 59011;EQDQ01  00002PRCP06
0167834980999992003030218004-17730-039250FM-12+000399999V0200501N004611050019N0020001N1+03011+02291101191ADDAA106000091GF105991021021008001001051MA1999999101141MD1999999-0081REMSYN070AAXX  02184 83498 32595 50509 10301 20229 30114 40119 82205 333 59008;EQDQ01  00002PRCP06
0198834980999992003030300004-17730-039250FM-12+000399999V0200501N001012200019N0020001N1+02611+02371101321ADDAA106000091GF102991021061008001001001KA1240M+03201MA1999999101271MD1999999-0091REMSYN088AAXX  03004 83498 32595 20502 10261 20237 30127 40132 82600 333 10320 29077 55055 59009;EQDQ01  00002PRCP06
0186834980999992003030312004-17730-039250FM-12+000399999V0200501N003612200019N0020001N1+03061+02351101491ADDAA106000091GF106991041021008001001011KA1240N+02521MA1999999101441MD1999999+0011REMSYN076AAXX  03124 83498 32595 60507 10306 20235 30144 40149 84201 333 20252 58001;EQDQ01  00002PRCP06
0167834980999992003030318004-17730-039250FM-12+000399999V0200901N004612200019N0020001N1+02961+02281101311ADDAA106000091GF105991021031008001001081MA1999999101261MD1999999+0121REMSYN070AAXX  03184 83498 32595 50909 10296 20228 30126 40131 82308 333 58012;EQDQ01  00002PRCP06
0208834980999992003030400004-17730-039250FM-12+000399999V0200501N001012200019N0020001N1+02541+02381101451ADDAA106000091GA1001+999999999GF100991001001999999001001KA1240M+03201MA1999999101401MD1999999+0131REMSYN082AAXX  04004 83498 32995 00502 10254 20238 30140 40145 333 10320 29079 55058 58013;EQDQ01  00002PRCP06
0186834980999992003030412004-17730-039250FM-12+000399999V0200501N001012200019N0020001N1+02831+02401101661ADDAA106000091GF104991041021008001001001KA1240N+02381MA1999999101611MD1999999+0171REMSYN076AAXX  04124 83498 32595 40502 10283 20240 30161 40166 84200 333 20238 58017;EQDQ01  00002PRCP06
0167834980999992003030418004-17730-039250FM-12+000399999V0200901N003612200019N0020001N1+03101+02261101451ADDAA106000091GF102991011031008001001021MA1999999101401MD1999999+0141REMSYN070AAXX  04184 83498 32595 20907 10310 20226 30140 40145 81302 333 58014;EQDQ01  00002PRCP06
0186834980999992003030512004-17730-039250FM-12+000399999V0201401N001512200019N0020001N1+02951+02381101551ADDAA106000091GF105991041031008001001011KA1240N+02431MA1999999101501MD1999999-0111REMSYN076AAXX  05124 83498 32595 51403 10295 20238 30150 40155 84301 333 20243 59011;EQDQ01  00002PRCP06
0167834980999992003030518004-17730-039250FM-12+000399999V0201401N003112200019N0020001N1+03071+02431101331ADDAA106000091GF102991021011008001001001MA1999999101281MD1999999-0121REMSYN070AAXX  05184 83498 32595 21406 10307 20243 30128 40133 82100 333 59012;EQDQ01  00002PRCP06
0198834980999992003030600004-17730-039250FM-12+000399999V0200901N002112200019N0020001N1+02691+02351101421ADDAA106000091GF102991021011008001001001KA1240M+03181MA1999999101371MD1999999-0101REMSYN088AAXX  06004 83498 32595 20904 10269 20235 30137 40142 82100 333 10318 29076 55098 59010;EQDQ01  00002PRCP06
0186834980999992003030612004-17730-039250FM-12+000399999V0200901N001510075019N0020001N1+02811+02221101481ADDAA106000091GF106991051041008001001051KA1240N+02381MA1999999101431MD1999999-0071REMSYN076AAXX  06124 83498 32595 60903 10281 20222 30143 40148 85405 333 20238 59007;EQDQ01  00002PRCP06
0167834980999992003030618004-17730-039250FM-12+000399999V0200901N004112200019N0020001N1+03091+02161101171ADDAA106000091GF103991011011008001001051MA1999999101121MD1999999-0161REMSYN070AAXX  06184 83498 32595 30908 10309 20216 30112 40117 81105 333 59016;EQDQ01  00002PRCP06
0198834980999992003030700004-17730-039250FM-12+000399999V0200501N001012200019N0020001N1+02511+02211101381ADDAA106000091GF101991011011008001001001KA1240M+03201MA1999999101331MD1999999-0041REMSYN088AAXX  07004 83498 32595 10502 10251 20221 30133 40138 81100 333 10320 29076 55092 59004;EQDQ01  00002PRCP06
0186834980999992003030712004-17730-039250FM-12+000399999V0200501N003612200019N0020001N1+02991+02281101431ADDAA106000091GF106991041051008001001011KA1240N+02331MA1999999101381MD1999999-0051REMSYN076AAXX  07124 83498 32595 60507 10299 20228 30138 40143 84501 333 20233 59005;EQDQ01  00002PRCP06
0167834980999992003030718004-17730-039250FM-12+000399999V0200501N004612200019N0020001N1+03121+02251101211ADDAA106000091GF102991021011008001001001MA1999999101161MD1999999+0041REMSYN070AAXX  07184 83498 32595 20509 10312 20225 30116 40121 82100 333 58004;EQDQ01  00002PRCP06
0208834980999992003030800004-17730-039250FM-12+000399999V0200501N002612200019N0020001N1+02691+02221101421ADDAA106000091GA1001+999999999GF100991001001999999001001KA1240M+03261MA1999999101371MD1999999+0041REMSYN082AAXX  08004 83498 32995 00505 10269 20222 30137 40142 333 10326 29070 55104 58004;EQDQ01  00002PRCP06
0186834980999992003030812004-17730-039250FM-12+000399999V0200501N003112200019N0020001N1+03031+02181101561ADDAA106000091GF104991041021008001001001KA1240N+02401MA1999999101511MD1999999+0131REMSYN076AAXX  08124 83498 32595 40506 10303 20218 30151 40156 84200 333 20240 58013;EQDQ01  00002PRCP06
0198834980999992003030900004-17730-039250FM-12+000399999V0200501N001512200019N0020001N1+02641+02231101441ADDAA106000091GF103991011011008001001051KA1240M+03301MA1999999101391MD1999999+0021REMSYN088AAXX  09004 83498 32595 30503 10264 20223 30139 40144 81105 333 10330 29068 55090 58002;EQDQ01  00002PRCP06
0186834980999992003030912004-17730-039250FM-12+000399999V0200501N002610075019N0020001N1+02911+02271101551ADDAA106000091GF108991051051008001001081KA1240N+02391MA1999999101501MD1999999-0011REMSYN076AAXX  09124 83498 32595 80505 10291 20227 30150 40155 85508 333 20239 59001;EQDQ01  00002PRCP06
0171834980999992003030918004-17730-039250FM-12+000399999V0200501N003110450019N0020001N1+02851+02291101361ADDAY161061AY221061GF106991021051008001021081MA1999999101311MD1999999+0031MW1211REMSYN082AAXX  09184 83498 21595 60506 10285 20229 30131 40136 72162 82528 333 58003 69931;
0179834980999992003031000004-17730-039250FM-12+000399999V0200501N002112200019N0020001N1+02651+02201101491ADDAA106000021GF104991011021008001001081KA1240M+03141MA1999999101441MD1999999+0051REMSYN088AAXX  10004 83498 32595 40504 10265 20220 30144 40149 81208 333 10314 29074 55026 58005;
0190834980999992003031012004-17730-039250FM-12+000399999V0203201N001010450019N0020001N1+02751+02401101601ADDAY161061AY221061GF106991021051008001041011KA1240N+02401MA1999999101551MD1999999+0051MW1211REMSYN088AAXX  10124 83498 21595 63202 10275 20240 30155 40160 72162 82541 333 20240 58005 60014;
0171834980999992003031018004-17730-039250FM-12+000399999V0203601N005110075019N0020001N1+02171+02091101611ADDAY191061AY261061GF108991061071008001021999MA1999999101561MD1999999+0251MW1631REMSYN082AAXX  10184 83498 21595 83610 10217 20209 30156 40161 76396 8672/ 333 58025 60121;
0202834980999992003031100004-17730-039250FM-12+000399999V0203201N001010450019N0020001N1+02331+02251101541ADDAY161061AY221061GF106991041061008001011001KA1240M+03021MA1999999101491MD1999999+0051MW1611REMSYN100AAXX  11004 83498 21595 63202 10233 20225 30149 40154 76162 84610 333 10302 29093 55023 58005 60091;
0190834980999992003031112004-17730-039250FM-12+000399999V0201801N001012200019N0020001N1+02801+02441101601ADDAY161061AY221061GF106991041041008001001011KA1240N+02121MA1999999101551MD1999999+0001MW1211REMSYN088AAXX  11124 83498 21595 61802 10280 20244 30155 40160 72162 84401 333 20212 58000 60284;
0148834980999992003031118004-17730-039250FM-12+000399999V0200901N003610450019N0020001N1+02951+02241101341ADDAA106000021GF106991021051008001041011MA1999999101291MD1999999-0271REMSYN070AAXX  11184 83498 32595 60907 10295 20224 30129 40134 82541 333 59027;
0198834980999992003031200004-17730-039250FM-12+000399999V0200501N001012200019N0020001N1+02501+02341101481ADDAA106000091GF103991031021008001001001KA1240M+03131MA1999999101431MD1999999-0061REMSYN088AAXX  12004 83498 32595 30502 10250 20234 30143 40148 83200 333 10313 29082 55072 59006;EQDQ01  00002PRCP06
0186834980999992003031212004-17730-039250FM-12+000399999V0203601N001011050019N0020001N1+02851+02421101411ADDAA106000091GF107991041021008001001081KA1240N+02281MA1999999101361MD1999999-0191REMSYN076AAXX  12124 83498 32595 73602 10285 20242 30136 40141 84208 333 20228 59019;EQDQ01  00002PRCP06
0167834980999992003031218004-17730-039250FM-12+000399999V0200901N003111050019N0020001N1+03021+02241101171ADDAA106000091GF105991021021008001001021MA1999999101121MD1999999-0171REMSYN070AAXX  12184 83498 32595 50906 10302 20224 30112 40117 82202 333 59017;EQDQ01  00002PRCP06
0208834980999992003031300004-17730-039250FM-12+000399999V0200501N001512200019N0020001N1+02591+02351101261ADDAA106000091GA1001+999999999GF100991001001999999001001KA1240M+03211MA1999999101211MD1999999-0221REMSYN082AAXX  13004 83498 32995 00503 10259 20235 30121 40126 333 10321 29079 55081 59022;EQDQ01  00002PRCP06
0186834980999992003031312004-17730-039250FM-12+000399999V0203201N002110450019N0020001N1+02851+02401101381ADDAA106000091GF106991021051008001021021KA1240N+02401MA1999999101331MD1999999-0031REMSYN076AAXX  13124 83498 32595 63204 10285 20240 30133 40138 82522 333 20240 59003;EQDQ01  00002PRCP06
0167834980999992003031318004-17730-039250FM-12+000399999V0200501N004110450019N0020001N1+02951+02291101101ADDAA106000091GF107991031051008001011081MA1999999101051MD1999999-0071REMSYN070AAXX  13184 83498 32595 70508 10295 20229 30105 40110 83518 333 59007;EQDQ01  00002PRCP06
0214834980999992003031400004-17730-039250FM-12+000399999V0200501N002612200019N0020001N1+02641+02481101251ADDAA106000091GF103991001001999999001081KA1240M+03151MA1999999101201MD1999999-0011REMSYN088AAXX  14004 83498 32795 30505 10264 20248 30120 40125 80008 333 10315 29082 55018 59001;EQDQ01+017502SCOLCBQ02  00002PRCP06
0167834980999992003031418004-17730-039250FM-12+000399999V0200501N005112200019N0020001N1+03021+02361101111ADDAA106000091GF105991021011008001001081MA1999999101061MD1999999+0011REMSYN070AAXX  14184 83498 32595 50510 10302 20236 30106 40111 82108 333 58001;EQDQ01  00002PRCP06
0214834980999992003031500004-17730-039250FM-12+000399999V0200501N002612200019N0020001N1+02671+02481101431ADDAA106000091GF102991001001999999001081KA1240M+03161MA1999999101381MD1999999+0181REMSYN088AAXX  15004 83498 32795 20505 10267 20248 30138 40143 80008 333 10316 29080 55057 58018;EQDQ01+017502SCOLCBQ02  00002PRCP06
0167834980999992003031518004-17730-039250FM-12+000399999V0200501N003612200019N0020001N1+03101+02311101301ADDAA106000091GF103991011011008001001051MA1999999101251MD1999999+0191REMSYN070AAXX  15184 83498 32595 30507 10310 20231 30125 40130 81105 333 58019;EQDQ01  00002PRCP06
0198834980999992003031600004-17730-039250FM-12+000399999V0200901N001019999999N0020001N1+02641+02421101601ADDAA106000091GF107991001001999999001081KA1240M+03201MA1999999101551MD1999999+0171REMSYN088AAXX  16004 83498 32995 70902 10264 20242 30155 40160 80008 333 10320 29078 55010 58017;EQDQ01  00002PRCP06
0186834980999992003031612004-17730-039250FM-12+000399999V0202701N001510075019N0020001N1+02851+02501101591ADDAA106000091GF107991051051008001001041KA1240N+02441MA1999999101541MD1999999-0061REMSYN076AAXX  16124 83498 32595 72703 10285 20250 30154 40159 85504 333 20244 59006;EQDQ01  00002PRCP06
0167834980999992003031618004-17730-039250FM-12+000399999V0200901N002619999999N0020001N1+03051+02381101311ADDAA106000091GF105991001001999999001041MA1999999101261MD1999999+0011REMSYN070AAXX  16184 83498 32995 50905 10305 20238 30126 40131 80004 333 58001;EQDQ01  00002PRCP06
0198834980999992003031700004-17730-039250FM-12+000399999V0200501N001512200019N0020001N1+02551+02361101421ADDAA106000091GF101991001001999999001011KA1240M+03161MA1999999101371MD1999999-0181REMSYN088AAXX  17004 83498 32995 10503 10255 20236 30137 40142 80001 333 10316 29082 55066 59018;EQDQ01  00002PRCP06
0186834980999992003031712004-17730-039250FM-12+000399999V0203601N003111050019N0020001N1+02991+02251101371ADDAA106000091GF105991031021008001001021KA1240N+02381MA1999999101321MD1999999-0221REMSYN076AAXX  17124 83498 32595 53606 10299 20225 30132 40137 83202 333 20238 59022;EQDQ01  00002PRCP06
0183834980999992003031718004-17730-039250FM-12+000399999V0200501N004612200019N0020001N1+03111+02181101001ADDAA106000091GF103991001001999999001021MA1999999100951MD1999999-0311REMSYN070AAXX  17184 83498 32795 30509 10311 20218 30095 40100 80002 333 59031;EQDQ01+017502SCOLCBQ02  00002PRCP06
0198834980999992003031800004-17730-039250FM-12+000399999V0200501N001012200019N0020001N1+02671+02291101311ADDAA106000091GF103991011011008001001021KA1240M+03241MA1999999101261MD1999999-0111REMSYN088AAXX  18004 83498 32595 30502 10267 20229 30126 40131 81102 333 10324 29071 55103 59011;EQDQ01  00002PRCP06
0186834980999992003031812004-17730-039250FM-12+000399999V0202701N001512200019N0020001N1+02861+02481101431ADDAA106000091GF106991041021008001001011KA1240N+02381MA1999999101381MD1999999+0061REMSYN076AAXX  18124 83498 32595 62703 10286 20248 30138 40143 84201 333 20238 58006;EQDQ01  00002PRCP06
0167834980999992003031818004-17730-039250FM-12+000399999V0200501N004612200019N0020001N1+03001+02291101261ADDAA106000091GF105991021031008001001081MA1999999101211MD1999999+0261REMSYN070AAXX  18184 83498 32595 50509 10300 20229 30121 40126 82308 333 58026;EQDQ01  00002PRCP06
0198834980999992003032000004-17730-039250FM-12+000399999V0200901N000519999999N0020001N1+02581+02331101701ADDAA106000091GF107991001001999999001081KA1240M+03141MA1999999101651MD1999999+0211REMSYN088AAXX  20004 83498 32995 70901 10258 20233 30165 40170 80008 333 10314 29078 55050 58021;EQDQ01  00002PRCP06
0186834980999992003032012004-17730-039250FM-12+000399999V0202301N001012200019N0020001N1+02741+02301101761ADDAA106000091GF106991041041008001001011KA1240N+02461MA1999999101711MD1999999+0031REMSYN076AAXX  20124 83498 32595 62302 10274 20230 30171 40176 84401 333 20246 58003;EQDQ01  00002PRCP06
0167834980999992003032018004-17730-039250FM-12+000399999V0200901N003612200019N0020001N1+03001+02291101431ADDAA106000091GF105991031021008001001011MA1999999101381MD1999999-0111REMSYN070AAXX  20184 83498 32595 50907 10300 20229 30138 40143 83201 333 59011;EQDQ01  00002PRCP06
0198834980999992003032100004-17730-039250FM-12+000399999V0200901N002112200019N0020001N1+02611+02351101581ADDAA106000091GF103991001001999999001011KA1240M+03061MA1999999101531MD1999999-0121REMSYN088AAXX  21004 83498 32995 30904 10261 20235 30153 40158 80001 333 10306 29079 55094 59012;EQDQ01  00002PRCP06
0186834980999992003032112004-17730-039250FM-12+000399999V0200501N001512200019N0020001N1+02911+02271101461ADDAA106000091GF104991041021008001001001KA1240N+02401MA1999999101411MD1999999-0301REMSYN076AAXX  21124 83498 32595 40503 10291 20227 30141 40146 84200 333 20240 59030;EQDQ01  00002PRCP06
0167834980999992003032118004-17730-039250FM-12+000399999V0200501N003612200019N0020001N1+03071+02171101141ADDAA106000091GF102991021011008001001001MA1999999101091MD1999999-0291REMSYN070AAXX  21184 83498 32595 20507 10307 20217 30109 40114 82100 333 59029;EQDQ01  00002PRCP06
0186834980999992003032812004-17730-039250FM-12+000399999V0202301N003110075019N0020001N1+02731+02321101691ADDAA106000091GF107991051051008001031051KA1240N+02251MA1999999101641MD1999999+0071REMSYN076AAXX  28124 83498 32595 72306 10273 20232 30164 40169 85535 333 20225 58007;EQDQ01  00002PRCP06
0171834980999992003032818004-17730-039250FM-12+000399999V0201801N005710450019N0020001N1+02711+02331101391ADDAY161061AY221061GF107991021021008001031081MA1999999101341MD1999999-0061MW1211REMSYN082AAXX  28184 83498 21595 71811 10271 20233 30134 40139 72162 82238 333 59006 69921;
0179834980999992003032900004-17730-039250FM-12+000399999V0201801N002611050019N0020001N1+02651+02251101601ADDAA106000021GF106991011021008001001081KA1240M+02941MA1999999101551MD1999999-0051REMSYN088AAXX  29004 83498 32595 61805 10265 20225 30155 40160 81208 333 10294 29079 55038 59005;
0162834980999992003032912004-17730-039250FM-12+000399999V0202301N003110450019N0020001N1+02701+02351101601ADDGF106991031061008001051001KA1240N+02401MA1999999101551MD1999999-0091REMSYN082AAXX  29124 83498 22595 62306 10270 20235 30155 40160 83650 333 20240 59009 69924;
0167834980999992003032918004-17730-039250FM-12+000399999V0201801N004612200019N0020001N1+02821+02291101301ADDAA106000091GF103991031021008001001001MA1999999101251MD1999999-0091REMSYN070AAXX  29184 83498 32595 31809 10282 20229 30125 40130 83200 333 59009;EQDQ01  00002PRCP06
0198834980999992003033000004-17730-039250FM-12+000399999V0201801N003112200019N0020001N1+02671+02271101421ADDAA106000091GF102991001001999999001041KA1240M+02951MA1999999101371MD1999999-0181REMSYN088AAXX  30004 83498 32995 21806 10267 20227 30137 40142 80004 333 10295 29078 55092 59018;EQDQ01  00002PRCP06
0190834980999992003033012004-17730-039250FM-12+000399999V0202301N002610450019N0020001N1+02581+02381101481ADDAY161061AY221061GF106991021071008001011001KA1240N+02351MA1999999101431MD1999999-0121MW1211REMSYN088AAXX  30124 83498 21595 62305 10258 20238 30143 40148 72162 82710 333 20235 59012 69974;
0148834980999992003033018004-17730-039250FM-12+000399999V0201801N004110450019N0020001N1+02791+02381101181ADDAA106000021GF106991021051008001011081MA1999999101131MD1999999-0121REMSYN070AAXX  30184 83498 32595 61808 10279 20238 30113 40118 82518 333 59012;
0208834980999992003033100004-17730-039250FM-12+000399999V0201401N002112200019N0020001N1+02651+02351101371ADDAA106000091GA1001+999999999GF100991001001999999001001KA1240M+02961MA1999999101321MD1999999-0051REMSYN082AAXX  31004 83498 32995 01404 10265 20235 30132 40137 333 10296 29084 55028 59005;EQDQ01  00002PRCP06
0190834980999992003033112004-17730-039250FM-12+000399999V0201401N003610120019N0020001N1+02841+02331101471ADDAY161061AY221061GF107991051081008001001021KA1240N+02351MA1999999101421MD1999999-0011MW1211REMSYN088AAXX  31124 83498 21595 71407 10284 20233 30142 40147 72162 85802 333 20235 59001 69924;
0148834980999992003033118004-17730-039250FM-12+000399999V0201801N003111050019N0020001N1+02921+02221101221ADDAA106000021GF107991011011008001001021MA1999999101171MD1999999+0041REMSYN070AAXX  31184 83498 32595 71806 10292 20222 30117 40122 81102 333 58004;
0198834980999992003040100004-17730-039250FM-12+000399999V0200901N001512200019N0020001N1+02641+02271101401ADDAA106000091GF102991011011008001001051KA1240M+03101MA1999999101351MD1999999+0031REMSYN088AAXX  01004 83498 32595 20903 10264 20227 30135 40140 81105 333 10310 29075 55077 58003;EQDQ01  00002PRCP06
0186834980999992003040112004-17730-039250FM-12+000399999V0201801N001511050019N0020001N1+02871+02231101591ADDAA106000091GF106991041021008001001051KA1240N+02451MA1999999101541MD1999999+0121REMSYN076AAXX  01124 83498 32595 61803 10287 20223 30154 40159 84205 333 20245 58012;EQDQ01  00002PRCP06
0167834980999992003040118004-17730-039250FM-12+000399999V0200901N003612200019N0020001N1+02951+02211101361ADDAA106000091GF104991021011008001031011MA1999999101311MD1999999+0141REMSYN070AAXX  01184 83498 32595 40907 10295 20221 30131 40136 82131 333 58014;EQDQ01  00002PRCP06
0208834980999992003040200004-17730-039250FM-12+000399999V0200901N001512200019N0020001N1+02551+02131101481ADDAA106000091GA1001+999999999GF100991001001999999001001KA1240M+03061MA1999999101431MD1999999+0081REMSYN082AAXX  02004 83498 32995 00903 10255 20213 30143 40148 333 10306 29093 55073 58008;EQDQ01  00002PRCP06
0186834980999992003040212004-17730-039250FM-12+000399999V0201401N001512200019N0020001N1+02801+02521101701ADDAA106000091GF104991041021008001001001KA1240N+02211MA1999999101651MD1999999+0111REMSYN076AAXX  02124 83498 32595 41403 10280 20252 30165 40170 84200 333 20221 58011;EQDQ01  00002PRCP06
0183834980999992003040218004-17730-039250FM-12+000399999V0201401N003112200019N0020001N1+02891+02131101411ADDAA106000091GF102991001001999999001011MA1999999101361MD1999999+0051REMSYN070AAXX  02184 83498 32795 21406 10289 20213 30136 40141 80001 333 58005;EQDQ01+017502SCOLCBQ02  00002PRCP06
0208834980999992003040300004-17730-039250FM-12+000399999V0200901N001512200019N0020001N1+02621+02121101591ADDAA106000091GA1001+999999999GF100991001001999999001001KA1240M+03041MA1999999101541MD1999999+0091REMSYN082AAXX  03004 83498 32995 00903 10262 20212 30154 40159 333 10304 29074 55102 58009;EQDQ01  00002PRCP06
0187834980999992003040312004-17730-039250FM-12+000399999V0202301N001512200019N0020001N1+02831+02201101601ADDAA106000091GF103991011011008001001011KA1240N+02221MD1999999-0101REMSYN076AAXX  03124 83498 32595 32303 10283 20220 33015 40160 81101 333 20222 59010;EQDQ01+030151APOSP Q02  00002PRCP06
0167834980999992003040318004-17730-039250FM-12+000399999V0201401N003112200019N0020001N1+02871+02231101281ADDAA106000091GF102991001001999999001081MA1999999101251MD1999999-0131REMSYN070AAXX  03184 83498 32995 21406 10287 20223 30125 40128 80008 333 59013;EQDQ01  00002PRCP06
0208834980999992003040400004-17730-039250FM-12+000399999V0201401N001512200019N0020001N1+02621+02211101491ADDAA106000091GA1001+999999999GF100991001001999999001001KA1240M+03021MA1999999101441MD1999999-0101REMSYN082AAXX  04004 83498 32995 01403 10262 20221 30144 40149 333 10302 29074 55101 59010;EQDQ01  00002PRCP06
0186834980999992003040412004-17730-039250FM-12+000399999V0202701N002112200019N0020001N1+02741+02281101551ADDAA106000091GF107991021021008001001011KA1240N+02171MA1999999101501MD1999999-0051REMSYN076AAXX  04124 83498 32595 72704 10274 20228 30150 40155 82201 333 20217 59005;EQDQ01  00002PRCP06
0167834980999992003040418004-17730-039250FM-12+000399999V0201801N002611050019N0020001N1+02911+02201101151ADDAA106000091GF107991011021008001001021MA1999999101101MD1999999-0131REMSYN070AAXX  04184 83498 32595 71805 10291 20220 30110 40115 81202 333 59013;EQDQ01  00002PRCP06
0208834980999992003040500004-17730-039250FM-12+000399999V0200901N001512200019N0020001N1+02521+02211101351ADDAA106000091GA1001+999999999GF100991001001999999001001KA1240M+03041MA1999999101301MD1999999-0141REMSYN082AAXX  05004 83498 32995 00903 10252 20221 30130 40135 333 10304 29077 55093 59014;EQDQ01  00002PRCP06
0186834980999992003040512004-17730-039250FM-12+000399999V0200501N002112200019N0020001N1+02911+02151101421ADDAA106000091GF105991041011008001001011KA1240N+02231MA1999999101371MD1999999-0131REMSYN076AAXX  05124 83498 32595 50504 10291 20215 30137 40142 84101 333 20223 59013;EQDQ01  00002PRCP06
0167834980999992003040518004-17730-039250FM-12+000399999V0200501N004119999999N0020001N1+03071+02171101021ADDAA106000091GF106991001001999999001011MA1999999100971MD1999999-0131REMSYN070AAXX  05184 83498 32995 60508 10307 20217 30097 40102 80001 333 59013;EQDQ01  00002PRCP06
0186834980999992003040612004-17730-039250FM-12+000399999V0203601N003110450019N0020001N1+03001+02321101261ADDAA106000091GF105991021011008001031001KA1240N+02381MA1999999101211MD1999999-0161REMSYN076AAXX  06124 83498 32595 53606 10300 20232 30121 40126 82130 333 20238 59016;EQDQ01  00002PRCP06
0167834980999992003040618004-17730-039250FM-12+000399999V0200501N004112200019N0020001N1+03141+02301100861ADDAA106000091GF102991001001999999001011MA1999999100811MD1999999-0161REMSYN070AAXX  06184 83498 32995 20508 10314 20230 30081 40086 80001 333 59016;EQDQ01  00002PRCP06
0208834980999992003040700004-17730-039250FM-12+000399999V0200501N003112200019N0020001N1+02691+02371101001ADDAA106000091GA1001+999999999GF100991001001999999001001KA1240M+03331MA1999999100951MD1999999-0181REMSYN082AAXX  07004 83498 32995 00506 10269 20237 30095 40100 333 10333 29074 55087 59018;EQDQ01  00002PRCP06
0186834980999992003040712004-17730-039250FM-12+000399999V0203601N004110450019N0020001N1+02931+02271101031ADDAA106000091GF106991021021008001031011KA1240N+02481MA1999999100981MD1999999-0231REMSYN076AAXX  07124 83498 32595 63608 10293 20227 30098 40103 82231 333 20248 59023;EQDQ01  00002PRCP06
0167834980999992003040718004-17730-039250FM-12+000399999V0200501N003112200019N0020001N1+02961+02351100741ADDAA106000091GF104991021031008001031001MA1999999100691MD1999999-0121REMSYN070AAXX  07184 83498 32595 40506 10296 20235 30069 40074 82330 333 59012;EQDQ01  00002PRCP06
0226834980999992003040800004-17730-039250FM-12+000399999V0201401N001510075019N0020001N1+02771+02401101081ADDAA106000091AY191061AY291061GF108991061061008001021999KA1240M+03231MA1999999101031MD1999999+0081MW1131REMSYN094AAXX  08004 83498 31595 81403 10277 20240 30103 40108 71399 8662/ 333 10323 29075 55047 58008;EQDQ01  00002PRCP06
0190834980999992003040812004-17730-039250FM-12+000399999V0203201N002110075019N0020001N1+02381+02351101351ADDAY191061AY261061GF108991071061008001021999KA1240N+02221MA1999999101301MD1999999+0321MW1621REMSYN088AAXX  08124 83498 21595 83204 10238 20235 30130 40135 76296 8762/ 333 20222 58032 60814;
0171834980999992003040818004-17730-039250FM-12+000399999V0201801N002610120019N0020001N1+02721+02391101101ADDAY161061AY221061GF108991071081008001011999MA1999999101051MD1999999+0361MW1211REMSYN082AAXX  08184 83498 21595 81805 10272 20239 30105 40110 72162 8781/ 333 58036 60271;
0202834980999992003040900004-17730-039250FM-12+000399999V0201801N002610120019N0020001N1+02641+02371101361ADDAY161061AY221061GF107991051081008001011001KA1240M+02801MA1999999101311MD1999999+0281MW1211REMSYN100AAXX  09004 83498 21595 71805 10264 20237 30131 40136 72162 85810 333 10280 29088 55000 58028 69921;
0190834980999992003040912004-17730-039250FM-12+000399999V0202301N003610450019N0020001N1+02691+02451101511ADDAY161061AY261061GF106991031021008001021041KA1240N+02411MA1999999101461MD1999999+0161MW1211REMSYN088AAXX  09124 83498 21595 62307 10269 20245 30146 40151 72166 83224 333 20241 58016 60294;
0148834980999992003040918004-17730-039250FM-12+000399999V0201801N003110450019N0020001N1+02951+02491101271ADDAA106000021GF105991041021008001021041MA1999999101221MD1999999+0171REMSYN070AAXX  09184 83498 32595 51806 10295 20249 30122 40127 84224 333 58017;
0198834980999992003041000004-17730-039250FM-12+000399999V0201801N003610450019N0020001N1+02751+02471101431ADDAA106000091GF107991041051008001021001KA1240M+03041MA1999999101381MD1999999+0071REMSYN088AAXX  10004 83498 32595 71807 10275 20247 30138 40143 84520 333 10304 29084 55066 58007;EQDQ01  00002PRCP06
0186834980999992003041012004-17730-039250FM-12+000399999V0202301N002610450019N0020001N1+02661+02391101461ADDAA106000091GF108991041051008001011999KA1240N+02381MA1999999101411MD1999999+0051REMSYN076AAXX  10124 83498 32595 82305 10266 20239 30141 40146 8451/ 333 20238 58005;EQDQ01  00002PRCP06
0137834980999992003041018004-17730-039250FM-12+000399999V0201401N003119999999N0020001N1+03061+02301999999ADDAA106000091GF105991999999008001999999REMSYN069AAXX  10184 83498 32595 51406 10306 20230 3012 40117 82210 333 58010;EQDQ01  00002PRCP06
0198834980999992003041100004-17730-039250FM-12+000399999V0209999C000012200019N0020001N1+02601+02331101351ADDAA106000091GF104991011011008001051001KA1240M+03121MA1999999101301MD1999999-0081REMSYN088AAXX  11004 83498 32595 40000 10260 20233 30130 40135 81150 333 10312 29078 55066 59008;EQDQ01  00002PRCP06
0186834980999992003041112004-17730-039250FM-12+000399999V0203601N005112200019N0020001N1+03011+02341101361ADDAA106000091GF102991021011008001001001KA1240N+02501MA1999999101311MD1999999-0101REMSYN076AAXX  11124 83498 32595 23610 10301 20234 30131 40136 82100 333 20250 59010;EQDQ01  00002PRCP06
0167834980999992003041118004-17730-039250FM-12+000399999V0200501N005112200019N0020001N1+03051+02431101001ADDAA106000091GF102991021011008001001001MA1999999100951MD1999999-0171REMSYN070AAXX  11184 83498 32595 20510 10305 20243 30095 40100 82100 333 59017;EQDQ01  00002PRCP06
0208834980999992003041200004-17730-039250FM-12+000399999V0200501N002612200019N0020001N1+02711+02411101231ADDAA106000091GA1001+999999999GF100991001001999999001001KA1240M+03281MA1999999101181MD1999999-0121REMSYN082AAXX  12004 83498 32995 00505 10271 20241 30118 40123 333 10328 29077 55096 59012;EQDQ01  00002PRCP06
0186834980999992003041212004-17730-039250FM-12+000399999V0200501N004112200019N0020001N1+03011+02421101471ADDAA106000091GF103991031011008001001001KA1240N+02511MA1999999101421MD1999999+0111REMSYN076AAXX  12124 83498 32595 30508 10301 20242 30142 40147 83100 333 20251 58011;EQDQ01  00002PRCP06
0183834980999992003041218004-17730-039250FM-12+000399999V0200501N004112200019N0020001N1+03131+02361101161ADDAA106000091GF102991999021008001001001MA1999999101111MD1999999+0161REMSYN070AAXX  12184 83498 32595 20508 10313 20236 30111 40116 81200 333 58016;EQDQ01+000012SCOTLCQ02  00002PRCP06
0198834980999992003041300004-17730-039250FM-12+000399999V0200501N000510075019N0020001N1+02651+02501101611ADDAA106000091GF106991061021008001001001KA1240M+03271MA1999999101561MD1999999+0381REMSYN088AAXX  13004 83498 32595 60501 10265 20250 30156 40161 86200 333 10327 29080 55100 58038;EQDQ01  00002PRCP06
0186834980999992003041312004-17730-039250FM-12+000399999V0202301N002110450019N0020001N1+02831+02541101861ADDAA106000091GF107991041051008001021001KA1240N+02551MA1999999101811MD1999999+0391REMSYN076AAXX  13124 83498 32595 72304 10283 20254 30181 40186 84520 333 20255 58039;EQDQ01  00002PRCP06
0171834980999992003041318004-17730-039250FM-12+000399999V0201801N008210075019N0020001N1+02541+02381101821ADDAY191061AY261061GF108991061071008001021999MA1999999101771MD1999999+0661MW1621REMSYN082AAXX  13184 83498 21595 81816 10254 20238 30177 40182 76296 8672/ 333 58066 60041;
0164834980999992003041400004-17730-039250FM-12+000399999V0201801N007719999999N0020001N1+02651+02121102061ADDAA106000021GF108991999999008001999999KA1240M+02941MA1999999102011REMSYN087AAXX  14004 83498 32595 81815 10265 20212 30201 40206 847/ 333 10294 29080 55009 58045;
0190834980999992003041412004-17730-039250FM-12+000399999V0201801N005110075019N0020001N1+02671+02181102001ADDAY161061AY221061GF107991051051008001011001KA1240N+02401MA1999999101951MD1999999+0141MW1211REMSYN088AAXX  14124 83498 21595 71810 10267 20218 30195 40200 72162 85510 333 20240 58014 60044;
0190834980999992003041512004-17730-039250FM-12+000399999V0201801N006710450019N0020001N1+02721+01981101871ADDAY161061AY221061GF106991041051008001041001KA1240N+02431MA1999999101821MD1999999-0131MW1211REMSYN088AAXX  15124 83498 21595 61813 10272 20198 30182 40187 72162 84540 333 20243 59013 60014;
0148834980999992003041518004-17730-039250FM-12+000399999V0201801N005110450019N0020001N1+02731+02001101581ADDAA106000021GF106991031051008001041001MA1999999101531MD1999999-0191REMSYN070AAXX  15184 83498 32595 61810 10273 20200 30153 40158 83540 333 59019;
0198834980999992003041600004-17730-039250FM-12+000399999V0201801N004110075019N0020001N1+02621+02031101721ADDAA106000091GF108991051061008001021999KA1240M+02881MA1999999101671MD1999999-0181REMSYN088AAXX  16004 83498 32595 81808 10262 20203 30167 40172 8562/ 333 10288 29067 55027 59018;EQDQ01  00002PRCP06
0190834980999992003041612004-17730-039250FM-12+000399999V0202301N002610450019N0020001N1+02581+02191101731ADDAY161061AY221061GF107991021081008001031081KA1240N+02301MA1999999101681MD1999999-0181MW1211REMSYN088AAXX  16124 83498 21595 72305 10258 20219 30168 40173 72162 82838 333 20230 59018 60034;
0148834980999992003041618004-17730-039250FM-12+000399999V0201801N004610450019N0020001N1+02701+01961101451ADDAA106000021GF107991011011008001051051MA1999999101401MD1999999-0131REMSYN070AAXX  16184 83498 32595 71809 10270 20196 30140 40145 81155 333 59013;
0198834980999992003041700004-17730-039250FM-12+000399999V0201801N003110450019N0020001N1+02581+02101101671ADDAA106000091GF107991011011008001051001KA1240M+02831MA1999999101621MD1999999-0051REMSYN088AAXX  17004 83498 32595 71806 10258 20210 30162 40167 81150 333 10283 29073 55067 59005;EQDQ01  00002PRCP06
0202834980999992003041712004-17730-039250FM-12+000399999V0201801N002610450019N0020001N1+02601+02291101801ADDAY161061AY261061GF107991041081008001031091KA1240N+02251MA1999999101751MD1999999+0071MW1621REMSYN100AAXX  17124 83498 21595 71805 10260 20229 30175 40180 76266 84839 333 20225 29073 55067 58007 60034;
0148834980999992003041718004-17730-039250FM-12+000399999V0201801N004110450019N0020001N1+02781+02301101551ADDAA106000021GF105991041021008001031001MA1999999101501MD1999999+0101REMSYN070AAXX  17184 83498 32595 51808 10278 20230 30150 40155 84230 333 58010;
0198834980999992003041800004-17730-039250FM-12+000399999V0201401N002112200019N0020001N1+02621+02351101731ADDAA106000091GF102991011021008001001051KA1240M+02901MA1999999101681MD1999999+0061REMSYN088AAXX  18004 83498 32595 21404 10262 20235 30168 40173 81205 333 10290 29082 55062 58006;EQDQ01  00002PRCP06
0184834980999992003041812004-17730-039250FM-12+000399999V0200901N003612200019N0020001N1+02841+02291101801ADDAA106000091GF103991031011008001001001KA1240N+02401MA1999999101751REMSYN088AAXX  18124 83498 32595 30907 10284 20229 30175 40180 83100 333 20240 29073 55067 58000;EQDQ01  00002PRCP06
0167834980999992003041818004-17730-039250FM-12+000399999V0201401N002612200019N0020001N1+02941+02361101681ADDAA106000091GF102991021011008001001001MA1999999101631MD1999999+0131REMSYN070AAXX  18184 83498 32595 21405 10294 20236 30163 40168 82100 333 58013;EQDQ01  00002PRCP06
0190834980999992003041912004-17730-039250FM-12+000399999V0201401N002610450019N0020001N1+02701+02221101881ADDAY161061AY221061GF105991031051008001041001KA1240N+02261MA1999999101831MD1999999+0081MW1211REMSYN088AAXX  19124 83498 21595 51405 10270 20222 30183 40188 72162 83540 333 20226 58008 69934;
0171834980999992003041918004-17730-039250FM-12+000399999V0201401N002610450019N0020001N1+02561+02381101581ADDAY161061AY221061GF107991021071008001011001MA1999999101531MD1999999-0101MW1211REMSYN082AAXX  19184 83498 21595 71405 10256 20238 30153 40158 72162 82710 333 59010 60041;
0202834980999992003042000004-17730-039250FM-12+000399999V0209999C000010450019N0020001N1+02461+02371101571ADDAY161061AY201061GF105991031061008001011001KA1240M+02851MA1999999101521MD1999999-0211MW1211REMSYN100AAXX  20004 83498 21595 50000 10246 20237 30152 40157 72160 83610 333 10285 29089 55028 59021 60011;
0190834980999992003042012004-17730-039250FM-12+000399999V0202301N001010075019N0020001N1+02521+02381101731ADDAY161061AY221061GF108991071061008001021999KA1240N+02281MA1999999101681MD1999999-0151MW1211REMSYN088AAXX  20124 83498 21595 82302 10252 20238 30168 40173 72162 8762/ 333 20228 59015 60064;
0148834980999992003042018004-17730-039250FM-12+000399999V0200901N001511050019N0020001N1+02841+02261101351ADDAA106000021GF107991011011008001001021MA1999999101301MD1999999-0231REMSYN070AAXX  20184 83498 32595 70903 10284 20226 30130 40135 81102 333 59023;
0198834980999992003042100004-17730-039250FM-12+000399999V0200901N001012200019N0020001N1+02441+02391101551ADDAA106000091GF101991011021008001001001KA1240M+02941MA1999999101501MD1999999-0021REMSYN088AAXX  21004 83498 32595 10902 10244 20239 30150 40155 81200 333 10294 29089 55036 59002;EQDQ01  00002PRCP06
0190834980999992003042112004-17730-039250FM-12+000399999V0200901N001010120019N0020001N1+02681+02481101831ADDAY161061AY261061GF107991051081008001001091KA1240N+02351MA1999999101781MD1999999+0101MW1621REMSYN088AAXX  21124 83498 21595 70902 10268 20248 30178 40183 76266 85809 333 20235 58010 60034;
0148834980999992003042118004-17730-039250FM-12+000399999V0201401N002610075019N0020001N1+02881+02411101621ADDAA106000021GF107991071021008001001001MA1999999101571MD1999999+0271REMSYN070AAXX  21184 83498 32595 71405 10288 20241 30157 40162 87200 333 58027;
0198834980999992003042200004-17730-039250FM-12+000399999V0200901N001512200019N0020001N1+02641+02411101871ADDAA106000091GF101991011081008001001001KA1240M+02981MA1999999101821MD1999999+0321REMSYN088AAXX  22004 83498 32595 10903 10264 20241 30182 40187 81800 333 10298 29085 55071 58032;EQDQ01  00002PRCP06
0186834980999992003042212004-17730-039250FM-12+000399999V0201401N003110450019N0020001N1+02831+02311101821ADDAA106000091GF106991031081008001051001KA1240N+02491MA1999999101771MD1999999-0011REMSYN076AAXX  22124 83498 32595 61406 10283 20231 30177 40182 83850 333 20249 59001;EQDQ01  00002PRCP06
0171834980999992003042218004-17730-039250FM-12+000399999V0202301N001510450019N0020001N1+02441+02211101601ADDAY161061AY221061GF106991021071008001011001MA1999999101551MD1999999-0021MW1211REMSYN082AAXX  22184 83498 21595 62303 10244 20221 30155 40160 72162 82710 333 59002 69951;
0202834980999992003042300004-17730-039250FM-12+000399999V0200901N001510450019N0020001N1+02531+02361101761ADDAY161061AY261061GF108991031071008001021999KA1240M+02961MA1999999101711MD1999999-0111MW1611REMSYN100AAXX  23004 83498 21595 80903 10253 20236 30171 40176 76166 8372/ 333 10296 29086 55039 59011 60081;
0190834980999992003042312004-17730-039250FM-12+000399999V0201401N003110450019N0020001N1+02811+02131101841ADDAY161061AY221061GF106991011051008001041011KA1240N+02221MA1999999101791MD1999999+0021MW1211REMSYN088AAXX  23124 83498 21595 61406 10281 20213 30179 40184 72162 81541 333 20222 58002 60104;
0148834980999992003042318004-17730-039250FM-12+000399999V0201401N003612200019N0020001N1+02811+02291101561ADDAA106000021GF104991021021008001001011MA1999999101511MD1999999-0041REMSYN070AAXX  23184 83498 32595 41407 10281 20229 30151 40156 82201 333 59004;
0198834980999992003042400004-17730-039250FM-12+000399999V0200901N001512200019N0020001N1+02631+02271101711ADDAA106000091GF102991021061008001001001KA1240M+02951MA1999999101661MD1999999-0051REMSYN088AAXX  24004 83498 32595 20903 10263 20227 30166 40171 82600 333 10295 29076 55089 59005;EQDQ01  00002PRCP06
0190834980999992003042412004-17730-039250FM-12+000399999V0201401N003110075019N0020001N1+02841+02311101781ADDAY161061AY221061GF105991051021008001001001KA1240N+02481MA1999999101731MD1999999-0061MW1211REMSYN088AAXX  24124 83498 21595 51406 10284 20231 30173 40178 72162 85200 333 20248 59006 69964;
0148834980999992003042418004-17730-039250FM-12+000399999V0201401N004112200019N0020001N1+02821+02271101491ADDAA106000021GF104991041021008001001001MA1999999101441MD1999999-0071REMSYN070AAXX  24184 83498 32595 41408 10282 20227 30144 40149 84200 333 59007;
0198834980999992003042500004-17730-039250FM-12+000399999V0201401N003612200019N0020001N1+02591+02381101601ADDAA106000091GF103991031021008001001001KA1240M+02931MA1999999101551MD1999999-0111REMSYN088AAXX  25004 83498 32595 31407 10259 20238 30155 40160 83200 333 10293 29081 55092 59011;EQDQ01  00002PRCP06
0190834980999992003042512004-17730-039250FM-12+000399999V0200501N002610075019N0020001N1+02481+02341101651ADDAY191061AY261061GF107991051061008001071001KA1240N+02401MA1999999101601MD1999999-0131MW1631REMSYN088AAXX  25124 83498 21595 70505 10248 20234 30160 40165 76396 85670 333 20240 59013 60094;
0171834980999992003042518004-17730-039250FM-12+000399999V0201401N002610450019N0020001N1+02801+02361101351ADDAY191061AY221061GF108991021081008001071021MA1999999101301MD1999999-0141MW1211REMSYN082AAXX  25184 83498 21595 81405 10280 20236 30130 40135 72192 82872 333 59014 69941;
0202834980999992003042600004-17730-039250FM-12+000399999V0202301N001010120019N0020001N1+02421+02331101681ADDAY191061AY251061GF105991051081008001001001KA1240M+02901MA1999999101631MD1999999+0081MW1211REMSYN100AAXX  26004 83498 21595 52302 10242 20233 30163 40168 72195 85800 333 10290 29089 55025 58008 60101;
0190834980999992003042612004-17730-039250FM-12+000399999V0201401N003110450019N0020001N1+02771+02251101821ADDAY161061AY211061GF105991031051008001041001KA1240N+02381MA1999999101771MD1999999+0171MW1211REMSYN088AAXX  26124 83498 21595 51406 10277 20225 30177 40182 72161 83540 333 20238 58017 60104;
0148834980999992003042618004-17730-039250FM-12+000399999V0201401N002112200019N0020001N1+02791+02251101561ADDAA106000021GF104991021031008001031001MA1999999101511MD1999999+0211REMSYN070AAXX  26184 83498 32595 41404 10279 20225 30151 40156 82330 333 58021;
0208834980999992003042700004-17730-039250FM-12+000399999V0200501N000512200019N0020001N1+02481+02251101831ADDAA106000091GA1001+999999999GF100991001001999999001001KA1240M+02981MA1999999101781MD1999999+0151REMSYN082AAXX  27004 83498 32995 00501 10248 20225 30178 40183 333 10298 29080 55074 58015;EQDQ01  00002PRCP06
0186834980999992003042712004-17730-039250FM-12+000399999V0201401N001012200019N0020001N1+02751+02241101831ADDAA106000091GF105991041051008001001011KA1240N+02251MA1999999101781MD1999999+0181REMSYN076AAXX  27124 83498 32595 51402 10275 20224 30178 40183 84501 333 20225 58018;EQDQ01  00002PRCP06
0167834980999992003042718004-17730-039250FM-12+000399999V0201401N002112200019N0020001N1+02851+02221101531ADDAA106000091GF102991021011008001001001MA1999999101481MD1999999-0051REMSYN070AAXX  27184 83498 32595 21404 10285 20222 30148 40153 82100 333 59005;EQDQ01  00002PRCP06
0208834980999992003042800004-17730-039250FM-12+000399999V0200501N001512200019N0020001N1+02391+02131101661ADDAA106000091GA1001+999999999GF100991001001999999001001KA1240M+02961MA1999999101611MD1999999-0171REMSYN082AAXX  28004 83498 32995 00503 10239 20213 30161 40166 333 10296 29079 55092 59017;EQDQ01  00002PRCP06
0186834980999992003042812004-17730-039250FM-12+000399999V0202701N001012200019N0020001N1+02551+02291101681ADDAA106000091GF102991021021008001001001KA1240N+02121MA1999999101631MD1999999-0151REMSYN076AAXX  28124 83498 32595 22702 10255 20229 30163 40168 82200 333 20212 59015;EQDQ01  00002PRCP06
0167834980999992003042818004-17730-039250FM-12+000399999V0201401N002612200019N0020001N1+02821+02171101331ADDAA106000091GF103991021021008001001011MA1999999101281MD1999999-0181REMSYN070AAXX  28184 83498 32595 31405 10282 20217 30128 40133 82201 333 59018;EQDQ01  00002PRCP06
0208834980999992003042900004-17730-039250FM-12+000399999V0200501N001012200019N0020001N1+02151+01991101541ADDAA106000091GA1001+999999999GF100991001001999999001001KA1240M+02891MA1999999101491MD1999999-0121REMSYN082AAXX  29004 83498 32995 00502 10215 20199 30149 40154 333 10289 29084 55093 59012;EQDQ01  00002PRCP06
0186834980999992003042912004-17730-039250FM-12+000399999V0203601N002112200019N0020001N1+02741+02211101681ADDAA106000091GF103991031011008001001001KA1240N+02071MA1999999101631MD1999999+0001REMSYN076AAXX  29124 83498 32595 33604 10274 20221 30163 40168 83100 333 20207 58000;EQDQ01  00002PRCP06
0167834980999992003042918004-17730-039250FM-12+000399999V0200901N002612200019N0020001N1+02901+02151101371ADDAA106000091GF101991011011008001001001MA1999999101321MD1999999+0041REMSYN070AAXX  29184 83498 32595 10905 10290 20215 30132 40137 81100 333 58004;EQDQ01  00002PRCP06
0208834980999992003043000004-17730-039250FM-12+000399999V0200501N001512200019N0020001N1+02271+02011101611ADDAA106000091GA1001+999999999GF100991001001999999001001KA1240M+03181MA1999999101561MD1999999+0071REMSYN082AAXX  30004 83498 32995 00503 10227 20201 30156 40161 333 10318 29077 55099 58007;EQDQ01  00002PRCP06
0186834980999992003043012004-17730-039250FM-12+000399999V0202701N001012200019N0020001N1+02671+02271101791ADDAA106000091GF102991021011008001001001KA1240N+02021MA1999999101741MD1999999+0111REMSYN076AAXX  30124 83498 32595 22702 10267 20227 30174 40179 82100 333 20202 58011;EQDQ01  00002PRCP06
0167834980999992003043018004-17730-039250FM-12+000399999V0201401N002612200019N0020001N1+02831+02151101481ADDAA106000091GF102991021011008001001001MA1999999101431MD1999999+0111REMSYN070AAXX  30184 83498 32595 21405 10283 20215 30143 40148 82100 333 58011;EQDQ01  00002PRCP06
0208834980999992003050100004-17730-039250FM-12+000399999V0200501N001012200019N0020001N1+02311+02091101711ADDAA106000091GA1001+999999999GF100991001001999999001001KA1240M+02961MA1999999101661MD1999999+0101REMSYN082AAXX  01004 83498 32995 00502 10231 20209 30166 40171 333 10296 29081 55100 58010;EQDQ01  00002PRCP06
0186834980999992003050112004-17730-039250FM-12+000399999V0202701N001512200019N0020001N1+02831+02331101751ADDAA106000091GF103991021011008001001011KA1240N+02141MA1999999101701MD1999999-0041REMSYN076AAXX  01124 83498 32595 32703 10283 20233 30170 40175 82101 333 20214 59004;EQDQ01  00002PRCP06
0183834980999992003050118004-17730-039250FM-12+000399999V0203601N003612200019N0020001N1+02851+02211101261ADDAA106000091GF103991001001999999001011MA1999999101211MD1999999-0221REMSYN070AAXX  01184 83498 32595 33607 10285 20221 30121 40126 80001 333 59022;EQDQ01+008002SCOLCBQ02  00002PRCP06
0208834980999992003050200004-17730-039250FM-12+000399999V0200501N001012200019N0020001N1+02421+02261101431ADDAA106000091GA1001+999999999GF100991001001999999001001KA1240M+03201MA1999999101381MD1999999-0281REMSYN082AAXX  02004 83498 32995 00502 10242 20226 30138 40143 333 10320 29081 55048 59028;EQDQ01  00002PRCP06
0186834980999992003050212004-17730-039250FM-12+000399999V0203601N004112200019N0020001N1+02841+02291101351ADDAA106000091GF101991011011008001001001KA1240N+02291MA1999999101301MD1999999-0401REMSYN076AAXX  02124 83498 32595 13608 10284 20229 30130 40135 81100 333 20229 59040;EQDQ01  00002PRCP06
0167834980999992003050218004-17730-039250FM-12+000399999V0200501N003612200019N0020001N1+03001+02291100851ADDAA106000091GF101991011021008001001001MA1999999100801MD1999999-0411REMSYN070AAXX  02184 83498 32595 10507 10300 20229 30080 40085 81200 333 59041;EQDQ01  00002PRCP06
0208834980999992003050300004-17730-039250FM-12+000399999V0200501N003112200019N0020001N1+02641+02371100941ADDAA106000091GA1001+999999999GF100991001001999999001001KA1240M+03181MA1999999100891MD1999999-0491REMSYN082AAXX  03004 83498 32995 00506 10264 20237 30089 40094 333 10318 29077 55092 59049;EQDQ01  00002PRCP06
0202834980999992003050312004-17730-039250FM-12+000399999V0201801N007210075019N0020001N1+02651+02271101291ADDAA106000091GF107991999071008001001001KA1240N+02271MA1999999101241MD1999999-0061REMSYN076AAXX  03124 83498 32595 71814 10265 20227 30124 40129 86700 333 20227 59006;EQDQ01+000062SCOTLCQ02  00002PRCP06
0171834980999992003050318004-17730-039250FM-12+000399999V0201801N005710450019N0020001N1+02501+01891101221ADDAY161061AY221061GF107991011011008001021001MA1999999101171MD1999999+0371MW1211REMSYN082AAXX  03184 83498 21595 71811 10250 20189 30117 40122 72162 81120 333 58037 60041;
0179834980999992003050400004-17730-039250FM-12+000399999V0201801N006712200019N0020001N1+02541+01911101531ADDAA106000021GF104991021051008001021001KA1240M+02721MA1999999101481MD1999999+0591REMSYN088AAXX  04004 83498 32595 41813 10254 20191 30148 40153 82520 333 10272 29071 55008 58059;
0190834980999992003050412004-17730-039250FM-12+000399999V0202301N001510450019N0020001N1+02341+02051101761ADDAY161061AY221061GF106991021071008001011001KA1240N+02131MA1999999101711MD1999999+0471MW1211REMSYN088AAXX  04124 83498 21595 62303 10234 20205 30171 40176 72162 82710 333 20213 58047 60064;
0171834980999992003050418004-17730-039250FM-12+000399999V0201801N004610450019N0020001N1+02521+02001101601ADDAY161061AY221061GF106991041051008001011001MA1999999101551MD1999999+0381MW1211REMSYN082AAXX  04184 83498 21595 61809 10252 20200 30155 40160 72162 84510 333 58038 69971;
0179834980999992003050500004-17730-039250FM-12+000399999V0200901N001512200019N0020001N1+02381+01951101821ADDAA106000021GF104991041061008001001001KA1240M+02741MA1999999101771MD1999999+0291REMSYN088AAXX  05004 83498 32595 40903 10238 20195 30177 40182 84600 333 10274 29078 55023 58029;
0162834980999992003050512004-17730-039250FM-12+000399999V0201401N002112200019N0020001N1+02711+01941101861ADDGF104991021021008001001021KA1240N+02141MA1999999101811MD1999999-0101REMSYN082AAXX  05124 83498 22595 41404 10271 20194 30181 40186 82202 333 20214 59010 69974;
0167834980999992003050518004-17730-039250FM-12+000399999V0201401N002112200019N0020001N1+02741+01781101561ADDAA106000091GF104991031021008001031001MA1999999101511MD1999999-0041REMSYN070AAXX  05184 83498 32595 41404 10274 20178 30151 40156 83230 333 59004;EQDQ01  00002PRCP06
0208834980999992003050600004-17730-039250FM-12+000399999V0200501N000512200019N0020001N1+02221+01991101711ADDAA106000091GA1001+999999999GF100991001001999999001001KA1240M+02861MA1999999101661MD1999999-0111REMSYN082AAXX  06004 83498 32995 00501 10222 20199 30166 40171 333 10286 29073 55071 59011;EQDQ01  00002PRCP06
0186834980999992003050612004-17730-039250FM-12+000399999V0203201N001510450019N0020001N1+02621+02051101551ADDAA106000091GF107991041041008001031011KA1240N+01971MA1999999101501MD1999999-0311REMSYN076AAXX  06124 83498 32595 73203 10262 20205 30150 40155 84431 333 20197 59031;EQDQ01  00002PRCP06
0167834980999992003050618004-17730-039250FM-12+000399999V0200501N004112200019N0020001N1+02841+02011101101ADDAA106000091GF101991011011008001001001MA1999999101051MD1999999-0461REMSYN070AAXX  06184 83498 32595 10508 10284 20201 30105 40110 81100 333 59046;EQDQ01  00002PRCP06
0198834980999992003050700004-17730-039250FM-12+000399999V0200501N001512200019N0020001N1+02381+02131101251ADDAA106000091GF101991001001999999001051KA1240M+02981MA1999999101201MD1999999-0461REMSYN088AAXX  07004 83498 32995 10503 10238 20213 30120 40125 80005 333 10298 29076 55078 59046;EQDQ01  00002PRCP06
0186834980999992003050712004-17730-039250FM-12+000399999V0203601N003110450019N0020001N1+02691+02221101351ADDAA106000091GF106991011011008001031081KA1240N+02221MA1999999101301MD1999999-0201REMSYN076AAXX  07124 83498 32595 63606 10269 20222 30130 40135 81138 333 20222 59020;EQDQ01  00002PRCP06
0167834980999992003050718004-17730-039250FM-12+000399999V0200501N003110120019N0020001N1+03031+02391101011ADDAA106000091GF106991051081008001001041MA1999999100961MD1999999-0091REMSYN070AAXX  07184 83498 32595 60506 10303 20239 30096 40101 85804 333 59009;EQDQ01  00002PRCP06
0202834980999992003050800004-17730-039250FM-12+000399999V0203601N003110450019N0020001N1+02531+02421101291ADDAY161061AY221061GF108991031071008001021999KA1240M+03201MA1999999101241MD1999999+0041MW1211REMSYN100AAXX  08004 83498 21595 83606 10253 20242 30124 40129 72162 8372/ 333 10320 29083 55046 58004 69931;
0190834980999992003050812004-17730-039250FM-12+000399999V0203201N000510450019N0020001N1+02711+02241101491ADDAY161061AY221061GF106991041051008001011001KA1240N+02271MA1999999101441MD1999999+0141MW1211REMSYN088AAXX  08124 83498 21595 63201 10271 20224 30144 40149 72162 84510 333 20227 58014 69984;
0148834980999992003050818004-17730-039250FM-12+000399999V0201801N003110075019N0020001N1+02671+02371101281ADDAA106000021GF108991051051008001021999MA1999999101231MD1999999+0271REMSYN070AAXX  08184 83498 32595 81806 10267 20237 30123 40128 8552/ 333 58027;
0198834980999992003050900004-17730-039250FM-12+000399999V0201401N003610075019N0020001N1+02611+02371101581ADDAA106000091GF108991051061008001021999KA1240M+02941MA1999999101531MD1999999+0291REMSYN088AAXX  09004 83498 32595 81407 10261 20237 30153 40158 8562/ 333 10294 29084 55020 58029;EQDQ01  00002PRCP06
0190834980999992003050912004-17730-039250FM-12+000399999V0201801N005110075019N0020001N1+02501+02051101791ADDAY161061AY221061GF108991061061008001021999KA1240N+02311MA1999999101741MD1999999+0301MW1211REMSYN088AAXX  09124 83498 21595 81810 10250 20205 30174 40179 72162 8662/ 333 20231 58030 60384;
0148834980999992003050918004-17730-039250FM-12+000399999V0201801N003110075019N0020001N1+02521+01931101561ADDAA106000021GF108991061051008001021999MA1999999101511MD1999999+0281REMSYN070AAXX  09184 83498 32595 81806 10252 20193 30151 40156 8652/ 333 58028;
0198834980999992003051000004-17730-039250FM-12+000399999V0201401N004112200019N0020001N1+02481+01901101841ADDAA106000091GF103991031041008001001001KA1240M+02671MA1999999101791MD1999999+0261REMSYN088AAXX  10004 83498 32595 31408 10248 20190 30179 40184 83400 333 10267 29072 55000 58026;EQDQ01  00002PRCP06
0167834980999992003051018004-17730-039250FM-12+000399999V0201801N005110120019N0020001N1+02541+02041101801ADDAA106000091GF108991071081008001001091MA1999999101751MD1999999+0241REMSYN070AAXX  10184 83498 32595 81810 10254 20204 30175 40180 87809 333 58024;EQDQ01  00002PRCP06
0198834980999992003051100004-17730-039250FM-12+000399999V0201801N005710120019N0020001N1+02481+02091102051ADDAA106000091GF108991071081008001001091KA1240M+02701MA1999999102001MD1999999+0211REMSYN088AAXX  11004 83498 32595 81811 10248 20209 30200 40205 87809 333 10270 29076 55052 58021;EQDQ01  00002PRCP06
0190834980999992003051112004-17730-039250FM-12+000399999V0202301N002610075019N0020001N1+02461+02251102161ADDAY161061AY261061GF106991051021008001001041KA1240N+02131MA1999999102111MD1999999+0191MW1211REMSYN088AAXX  11124 83498 21595 62305 10246 20225 30211 40216 72166 85204 333 20213 58019 60024;
0148834980999992003051118004-17730-039250FM-12+000399999V0201401N003610450019N0020001N1+02641+01931101971ADDAA106000021GF106991021051008001021001MA1999999101921MD1999999+0171REMSYN070AAXX  11184 83498 32595 61407 10264 20193 30192 40197 82520 333 58017;
0198834980999992003051200004-17730-039250FM-12+000399999V0201401N004112200019N0020001N1+02501+01941102111ADDAA106000091GF104991041081008001001001KA1240M+02741MA1999999102061MD1999999+0061REMSYN088AAXX  12004 83498 32595 41408 10250 20194 30206 40211 84800 333 10274 29056 55066 58006;EQDQ01  00002PRCP06
0190834980999992003051212004-17730-039250FM-12+000399999V0202301N002612200019N0020001N1+02501+02211102151ADDAY161061AY211061GF104991021021008001001021KA1240N+02001MA1999999102101MD1999999-0011MW1211REMSYN088AAXX  12124 83498 21595 42305 10250 20221 30210 40215 72161 82202 333 20200 59001 60024;
0171834980999992003051218004-17730-039250FM-12+000399999V0201401N003610450019N0020001N1+02691+02061101841ADDAY161061AY221061GF106991041051008001011001MA1999999101791MD1999999-0131MW1211REMSYN082AAXX  12184 83498 21595 61407 10269 20206 30179 40184 72162 84510 333 59013 60021;
0202834980999992003051300004-17730-039250FM-12+000399999V0201401N002110075019N0020001N1+02461+02171102021ADDAY161061AY221061GF108991061061008001021999KA1240M+02791MA1999999101971MD1999999-0091MW1211REMSYN100AAXX  13004 83498 21595 81404 10246 20217 30197 40202 72162 8662/ 333 10279 29080 55032 59009 60031;
0190834980999992003051312004-17730-039250FM-12+000399999V0202301N003110450019N0020001N1+02461+02231101961ADDAY161061AY221061GF106991031081008001051001KA1240N+02151MA1999999101911MD1999999-0191MW1211REMSYN088AAXX  13124 83498 21595 62306 10246 20223 30191 40196 72162 83850 333 20215 59019 60064;
0148834980999992003051318004-17730-039250FM-12+000399999V0201801N004610450019N0020001N1+02551+02171101691ADDAA106000021GF106991041051008001011001MA1999999101641MD1999999-0151REMSYN070AAXX  13184 83498 32595 61809 10255 20217 30164 40169 84510 333 59015;
0198834980999992003051400004-17730-039250FM-12+000399999V0201801N003112200019N0020001N1+02451+02191101891ADDAA106000091GF104991041081008001001001KA1240M+02671MA1999999101841MD1999999-0131REMSYN088AAXX  14004 83498 32595 41806 10245 20219 30184 40189 84800 333 10267 29085 55027 59013;EQDQ01  00002PRCP06
0190834980999992003051412004-17730-039250FM-12+000399999V0202301N002610075019N0020001N1+02361+02261101851ADDAY161061AY261061GF108991071061008001021999KA1240N+02151MA1999999101801MD1999999-0111MW1621REMSYN088AAXX  14124 83498 21595 82305 10236 20226 30180 40185 76266 8762/ 333 20215 59011 60054;
0171834980999992003051418004-17730-039250FM-12+000399999V0201801N002610450019N0020001N1+02541+02291101671ADDAY161061AY261061GF107991041081008001021091MA1999999101621MD1999999-0021MW1611REMSYN082AAXX  14184 83498 21595 71805 10254 20229 30162 40167 76166 84829 333 59002 60021;
0202834980999992003051500004-17730-039250FM-12+000399999V0201801N001011050019N0020001N1+02401+02231101921ADDAY161061AY221061GF107991021081008001001021KA1240M+02591MA1999999101871MD1999999+0031MW1211REMSYN100AAXX  15004 83498 21595 71802 10240 20223 30187 40192 72162 82802 333 10259 29090 55000 58003 60071;
0190834980999992003051512004-17730-039250FM-12+000399999V0201401N001010450019N0020001N1+02461+02301102111ADDAY161061AY261061GF106991031071008001021001KA1240N+02171MA1999999102061MD1999999+0261MW1211REMSYN088AAXX  15124 83498 21595 61402 10246 20230 30206 40211 72166 83720 333 20217 58026 60254;
0148834980999992003051518004-17730-039250FM-12+000399999V0201801N005112200019N0020001N1+02651+01931101871ADDAA106000021GF103991021011008001001081MA1999999101821MD1999999+0201REMSYN070AAXX  15184 83498 32595 31810 10265 20193 30182 40187 82108 333 58020;
0198834980999992003051600004-17730-039250FM-12+000399999V0201801N003112200019N0020001N1+02481+02091102051ADDAA106000091GF102991021011008001001001KA1240M+02761MA1999999102001MD1999999+0131REMSYN088AAXX  16004 83498 32595 21806 10248 20209 30200 40205 82100 333 10276 29079 55066 58013;EQDQ01  00002PRCP06
0190834980999992003051612004-17730-039250FM-12+000399999V0201401N003110450019N0020001N1+02521+02111102081ADDAY161061AY261061GF106991031071008001011001KA1240N+02121MA1999999102031MD1999999-0031MW1211REMSYN088AAXX  16124 83498 21595 61406 10252 20211 30203 40208 72166 83710 333 20212 59003 60024;
0171834980999992003051618004-17730-039250FM-12+000399999V0201401N003612200019N0020001N1+02611+02121101751ADDAY161061AY211061GF103991031031008001001001MA1999999101701MD1999999-0121MW1211REMSYN082AAXX  16184 83498 21595 31407 10261 20212 30170 40175 72161 83300 333 59012 60041;
0179834980999992003051700004-17730-039250FM-12+000399999V0201401N004112200019N0020001N1+02481+02031101891ADDAA106000021GF104991041051008001001001KA1240M+02751MA1999999101841MD1999999-0161REMSYN088AAXX  17004 83498 32595 41408 10248 20203 30184 40189 84500 333 10275 29086 55046 59016;
0162834980999992003051712004-17730-039250FM-12+000399999V0201401N005112200019N0020001N1+02591+01821101931ADDGF104991031051008001041001KA1240N+02311MA1999999101881MD1999999-0151REMSYN082AAXX  17124 83498 22595 41410 10259 20182 30188 40193 83540 333 20231 59015 60044;
0167834980999992003051718004-17730-039250FM-12+000399999V0201401N004112200019N0020001N1+02561+01801101671ADDAA106000091GF102991021011008001001001MA1999999101621MD1999999-0081REMSYN070AAXX  17184 83498 32595 21408 10256 20180 30162 40167 82100 333 59008;EQDQ01  00002PRCP06
0208834980999992003051800004-17730-039250FM-12+000399999V0209999C000012200019N0020001N1+02001+01811101901ADDAA106000091GA1001+999999999GF100991001001999999001001KA1240M+02671MA1999999101851MD1999999+0011REMSYN082AAXX  18004 83498 32995 00000 10200 20181 30185 40190 333 10267 29076 55074 58001;EQDQ01  00002PRCP06
0186834980999992003051812004-17730-039250FM-12+000399999V0202301N002612200019N0020001N1+02381+02011101921ADDAA106000091GF101991011021008001001001KA1240N+01851MA1999999101871MD1999999-0011REMSYN076AAXX  18124 83498 32595 12305 10238 20201 30187 40192 81200 333 20185 59001;EQDQ01  00002PRCP06
0167834980999992003051818004-17730-039250FM-12+000399999V0201801N003110075019N0020001N1+02631+01961101681ADDAA106000091GF105991051021008001001001MA1999999101631MD1999999+0011REMSYN070AAXX  18184 83498 32595 51806 10263 20196 30163 40168 85200 333 58001;EQDQ01  00002PRCP06
0198834980999992003051900004-17730-039250FM-12+000399999V0201801N001012200019N0020001N1+02331+02071101871ADDAA106000091GF101991001001999999001041KA1240M+02721MA1999999101821MD1999999-0031REMSYN088AAXX  19004 83498 32995 11802 10233 20207 30182 40187 80004 333 10272 29080 55092 59003;EQDQ01  00002PRCP06
0162834980999992003051912004-17730-039250FM-12+000399999V0201801N003112200019N0020001N1+02591+02011102031ADDGF104991041021008001001001KA1240N+02091MA1999999101981MD1999999+0111REMSYN082AAXX  19124 83498 22595 41806 10259 20201 30198 40203 84200 333 20209 58011 60014;
0167834980999992003051918004-17730-039250FM-12+000399999V0201801N003611050019N0020001N1+02651+01981101721ADDAA106000091GF106991011011008001031041MA1999999101671MD1999999+0041REMSYN070AAXX  19184 83498 32595 61807 10265 20198 30167 40172 81134 333 58004;EQDQ01  00002PRCP06
0202834980999992003052000004-17730-039250FM-12+000399999V0201801N001510450019N0020001N1+02271+02191101871ADDAY161061AY221061GF108991021011008001021999KA1240M+02741MA1999999101821MD1999999+0001MW1211REMSYN100AAXX  20004 83498 21595 81803 10227 20219 30182 40187 72162 8212/ 333 10274 29082 55051 58000 60021;
0190834980999992003052012004-17730-039250FM-12+000399999V0202301N002610450019N0020001N1+02421+02321101931ADDAY161061AY261061GF106991021071008001011001KA1240N+02171MA1999999101881MD1999999-0101MW1601REMSYN088AAXX  20124 83498 21595 62305 10242 20232 30188 40193 76066 82710 333 20217 59010 60084;
0148834980999992003052018004-17730-039250FM-12+000399999V0201401N002612200019N0020001N1+02661+02181101601ADDAA106000021GF103991031021008001001001MA1999999101551MD1999999-0121REMSYN070AAXX  20184 83498 32595 31405 10266 20218 30155 40160 83200 333 59012;
0202834980999992003052100004-17730-039250FM-12+000399999V0201401N001510450019N0020001N1+02361+02221101781ADDAY161061AY261061GF106991031071008001011001KA1240M+02781MA1999999101731MD1999999-0091MW1211REMSYN100AAXX  21004 83498 21595 61403 10236 20222 30173 40178 72166 83710 333 10278 29088 55048 59009 60051;
0190834980999992003052112004-17730-039250FM-12+000399999V0200501N000510450019N0020001N1+02311+02181101811ADDAY161061AY261061GF107991031071008001011001KA1240N+02151MA1999999101761MD1999999-0121MW1611REMSYN088AAXX  21124 83498 21595 70501 10231 20218 30176 40181 76166 83710 333 20215 59012 60084;
0171834980999992003052118004-17730-039250FM-12+000399999V0201401N001510450019N0020001N1+02671+02291101491ADDAY161061AY211061GF105991031051008001041001MA1999999101441MD1999999-0111MW1211REMSYN082AAXX  21184 83498 21595 51403 10267 20229 30144 40149 72161 83540 333 59011 69931;
0189834980999992003052200004-17730-039250FM-12+000399999V0200901N001012200019N0020001N1+02341+02221101691ADDAA106000021GA1001+999999999GF100991001001999999001001KA1240M+02741MA1999999101641MD1999999-0091REMSYN082AAXX  22004 83498 32995 00902 10234 20222 30164 40169 333 10274 29090 55005 59009;
0162834980999992003052212004-17730-039250FM-12+000399999V0202301N001011050019N0020001N1+02581+02311101791ADDGF107991011011008001001021KA1240N+02071MA1999999101741MD1999999-0021REMSYN082AAXX  22124 83498 22595 72302 10258 20231 30174 40179 81102 333 20207 59002 69934;
0167834980999992003052218004-17730-039250FM-12+000399999V0200501N002611050019N0020001N1+02801+02151101501ADDAA106000091GF105991011011008001001021MA1999999101451MD1999999+0011REMSYN070AAXX  22184 83498 32595 50505 10280 20215 30145 40150 81102 333 58001;EQDQ01  00002PRCP06
0198834980999992003052300004-17730-039250FM-12+000399999V0200901N001012200019N0020001N1+02341+02221101701ADDAA106000091GF101991001001999999001021KA1240M+02941MA1999999101651MD1999999+0011REMSYN088AAXX  23004 83498 32995 10902 10234 20222 30165 40170 80002 333 10294 29086 55069 58001;EQDQ01  00002PRCP06
0186834980999992003052312004-17730-039250FM-12+000399999V0203601N002610075019N0020001N1+02701+02331101601ADDAA106000091GF107991051041008001001021KA1240N+02031MA1999999101551MD1999999-0191REMSYN076AAXX  23124 83498 32595 73605 10270 20233 30155 40160 85402 333 20203 59019;EQDQ01  00002PRCP06
0167834980999992003052318004-17730-039250FM-12+000399999V0200501N004111050019N0020001N1+02881+02161101301ADDAA106000091GF107991011021008001001021MA1999999101251MD1999999-0201REMSYN070AAXX  23184 83498 32595 70508 10288 20216 30125 40130 81202 333 59020;EQDQ01  00002PRCP06
0198834980999992003052400004-17730-039250FM-12+000399999V0200501N002112200019N0020001N1+02481+02291101471ADDAA106000091GF101991001001999999001021KA1240M+03031MA1999999101421MD1999999-0231REMSYN088AAXX  24004 83498 32995 10504 10248 20229 30142 40147 80002 333 10303 29081 55071 59023;EQDQ01  00002PRCP06
0186834980999992003052412004-17730-039250FM-12+000399999V0203601N005711050019N0020001N1+02731+02081101211ADDAA106000091GF105991011011008001001021KA1240N+02251MA1999999101161MD1999999-0261REMSYN076AAXX  24124 83498 32595 53611 10273 20208 30116 40121 81102 333 20225 59026;EQDQ01  00002PRCP06
0183834980999992003052418004-17730-039250FM-12+000399999V0203601N005112200019N0020001N1+02871+02311100751ADDAA106000091GF102991001001999999001021MA1999999100701MD1999999-0551REMSYN070AAXX  24184 83498 32795 23610 10287 20231 30070 40075 80002 333 59055;EQDQ01+017502SCOLCBQ02  00002PRCP06
0208834980999992003052500004-17730-039250FM-12+000399999V0203601N003112200019N0020001N1+02551+02311101021ADDAA106000091GA1001+999999999GF100991001001999999001001KA1240M+03101MA1999999100971MD1999999-0451REMSYN082AAXX  25004 83498 32995 03606 10255 20231 30097 40102 333 10310 29079 55073 59045;EQDQ01  00002PRCP06
0186834980999992003052512004-17730-039250FM-12+000399999V0203601N005112200019N0020001N1+02791+02181101121ADDAA106000091GF103991011011008001001021KA1240N+02401MA1999999101071MD1999999-0091REMSYN076AAXX  25124 83498 32595 33610 10279 20218 30107 40112 81102 333 20240 59009;EQDQ01  00002PRCP06
0167834980999992003052518004-17730-039250FM-12+000399999V0200501N003611050019N0020001N1+02971+02381100831ADDAA106000091GF106991021041008001011041MA1999999100781MD1999999+0081REMSYN070AAXX  25184 83498 32595 60507 10297 20238 30078 40083 82414 333 58008;EQDQ01  00002PRCP06
0202834980999992003052600004-17730-039250FM-12+000399999V0200501N000510450019N0020001N1+02531+02451101111ADDAY161061AY221061GF106991041061008001011001KA1240M+03331MA1999999101061MD1999999+0091MW1211REMSYN100AAXX  26004 83498 21595 60501 10253 20245 30106 40111 72162 84610 333 10333 29083 55064 58009 60071;
0162834980999992003052612004-17730-039250FM-12+000399999V0201801N005110120019N0020001N1+02681+02241101551ADDGF107991051081008001031011KA1240N+02351MA1999999101501MD1999999+0431REMSYN082AAXX  26124 83498 22595 71810 10268 20224 30150 40155 85831 333 20235 58043 60074;
0171834980999992003052618004-17730-039250FM-12+000399999V0201801N005110120019N0020001N1+02581+02061101471ADDAY161061AY221061GF108991051081008001021051MA1999999101421MD1999999+0641MW1211REMSYN082AAXX  26184 83498 21595 81810 10258 20206 30142 40147 72162 85825 333 58064 69911;
0179834980999992003052700004-17730-039250FM-12+000399999V0201801N002112200019N0020001N1+02501+02031101751ADDAA106000021GF104991021041008001001051KA1240M+02751MA1999999101701MD1999999+0641REMSYN088AAXX  27004 83498 32595 41804 10250 20203 30170 40175 82405 333 10275 29075 55002 58064;
0190834980999992003052712004-17730-039250FM-12+000399999V0201401N002610450019N0020001N1+02681+02131101931ADDAY161061AY221061GF107991031081008001031021KA1240N+02181MA1999999101881MD1999999+0381MW1211REMSYN088AAXX  27124 83498 21595 71405 10268 20213 30188 40193 72162 83832 333 20218 58038 69924;
0183834980999992003052718004-17730-039250FM-12+000399999V0200901N002110450019N0020001N1+02681+02131101751ADDAA106000021GF107991041041008001051051MA1999999999999MD1999999+0281REMSYN070AAXX  27184 83498 32595 70904 10268 20213 30017 40175 84455 333 58028;EQDQ01+100173APOSP Q02 100173APOSP 
0198834980999992003052800004-17730-039250FM-12+000399999V0200901N002610450019N0020001N1+02481+02131101981ADDAA106000091GF107991021011008001051051KA1240M+02841MA1999999101931MD1999999+0231REMSYN088AAXX  28004 83498 32595 70905 10248 20213 30193 40198 82155 333 10284 29077 55032 58023;EQDQ01  00002PRCP06
0190834980999992003052812004-17730-039250FM-12+000399999V0202701N001010450019N0020001N1+02361+02261102001ADDAY161061AY221061GF107991021071008001011001KA1240N+02171MA1999999101951MD1999999+0071MW1211REMSYN088AAXX  28124 83498 21595 72702 10236 20226 30195 40200 72162 82710 333 20217 58007 69914;
0148834980999992003052818004-17730-039250FM-12+000399999V0201401N002612200019N0020001N1+02651+01931101771ADDAA106000021GF104991021021008001001021MA1999999101721MD1999999+0021REMSYN070AAXX  28184 83498 32595 41405 10265 20193 30172 40177 82202 333 58002;
0198834980999992003052900004-17730-039250FM-12+000399999V0200901N002110075019N0020001N1+02441+01901101911ADDAA106000091GF107991051051008001011001KA1240M+02711MA1999999101861MD1999999-0071REMSYN088AAXX  29004 83498 32595 70904 10244 20190 30186 40191 85510 333 10271 29076 55005 59007;EQDQ01  00002PRCP06
0190834980999992003052912004-17730-039250FM-12+000399999V0203201N000510450019N0020001N1+02291+02161102021ADDAY161061AY261061GF108991031071008001021999KA1240N+02221MA1999999101971MD1999999+0021MW1601REMSYN088AAXX  29124 83498 21595 83201 10229 20216 30197 40202 76066 8372/ 333 20222 58002 69944;
0171834980999992003052918004-17730-039250FM-12+000399999V0200901N001010450019N0020001N1+02401+02091101831ADDAY161061AY221061GF108991031071008001021999MA1999999101781MD1999999+0061MW1211REMSYN082AAXX  29184 83498 21595 80902 10240 20209 30178 40183 72162 8372/ 333 58006 69961;
0179834980999992003053000004-17730-039250FM-12+000399999V0202701N000512200019N0020001N1+02181+02101101971ADDAA106000021GF104991041051008001001001KA1240M+02501MA1999999101921MD1999999+0061REMSYN088AAXX  30004 83498 32595 42701 10218 20210 30192 40197 84500 333 10250 29092 55000 58006;
0162834980999992003053012004-17730-039250FM-12+000399999V0202301N002110075019N0020001N1+02461+02171102071ADDGF106991061021008001001001KA1240N+02071MA1999999102021MD1999999+0051REMSYN082AAXX  30124 83498 22595 62304 10246 20217 30202 40207 86200 333 20207 58005 69964;
0167834980999992003053018004-17730-039250FM-12+000399999V0201801N005710450019N0020001N1+02611+01941101881ADDAA106000091GF105991041021008001021001MA1999999101831MD1999999+0051REMSYN070AAXX  30184 83498 32595 51811 10261 20194 30183 40188 84220 333 58005;EQDQ01  00002PRCP06
0198834980999992003053100004-17730-039250FM-12+000399999V0201801N003612200019N0020001N1+02441+01971102041ADDAA106000091GF103991031021008001001001KA1240M+02731MA1999999101991MD1999999+0071REMSYN088AAXX  31004 83498 32595 31807 10244 20197 30199 40204 83200 333 10273 29075 55061 58007;EQDQ01  00002PRCP06
0186834980999992003053112004-17730-039250FM-12+000399999V0201801N001012200019N0020001N1+02531+02021102151ADDAA106000091GF105991021021008001001081KA1240N+02011MA1999999102101MD1999999+0081REMSYN076AAXX  31124 83498 32595 51802 10253 20202 30210 40215 82208 333 20201 58008;EQDQ01  00002PRCP06
0167834980999992003053118004-17730-039250FM-12+000399999V0201801N003112200019N0020001N1+02591+01871101941ADDAA106000091GF105991041021008001001041MA1999999101891MD1999999+0061REMSYN070AAXX  31184 83498 32595 51806 10259 20187 30189 40194 84204 333 58006;EQDQ01  00002PRCP06
0198834980999992003060100004-17730-039250FM-12+000399999V0201801N001012200019N0020001N1+02301+01921102081ADDAA106000091GF101991011011008001001001KA1240M+02701MA1999999102031MD1999999+0041REMSYN088AAXX  01004 83498 32595 11802 10230 20192 30203 40208 81100 333 10270 29075 55063 58004;EQDQ01  00002PRCP06
0186834980999992003060112004-17730-039250FM-12+000399999V0202701N001011050019N0020001N1+02361+02071102131ADDAA106000091GF107991041051008001001021KA1240N+01901MA1999999102081MD1999999-0021REMSYN076AAXX  01124 83498 32595 72702 10236 20207 30208 40213 84502 333 20190 59002;EQDQ01  00002PRCP06
0167834980999992003060118004-17730-039250FM-12+000399999V0201401N002110450019N0020001N1+02661+02091101851ADDAA106000091GF108991021011008001051021MA1999999101801MD1999999-0091REMSYN070AAXX  01184 83498 32595 81404 10266 20209 30180 40185 82152 333 59009;EQDQ01  00002PRCP06
0198834980999992003060200004-17730-039250FM-12+000399999V0201401N000512200019N0020001N1+02241+02071102051ADDAA106000091GF102991021011008001001001KA1240M+02801MA1999999102001MD1999999-0031REMSYN088AAXX  02004 83498 32595 21401 10224 20207 30200 40205 82100 333 10280 29082 55030 59003;EQDQ01  00002PRCP06
0186834980999992003060212004-17730-039250FM-12+000399999V0202701N000511050019N0020001N1+02541+02171102051ADDAA106000091GF107991031021008001001021KA1240N+01971MA1999999102001MD1999999-0081REMSYN076AAXX  02124 83498 32595 72701 10254 20217 30200 40205 83202 333 20197 59008;EQDQ01  00002PRCP06
0167834980999992003060218004-17730-039250FM-12+000399999V0201401N001511050019N0020001N1+02741+02021101701ADDAA106000091GF107991021021008001001091MA1999999101651MD1999999-0151REMSYN070AAXX  02184 83498 32595 71403 10274 20202 30165 40170 82209 333 59015;EQDQ01  00002PRCP06
0208834980999992003060300004-17730-039250FM-12+000399999V0200901N001512200019N0020001N1+02241+01861101881ADDAA106000091GA1001+999999999GF100991001001999999001001KA1240M+02831MA1999999101831MD1999999-0171REMSYN082AAXX  03004 83498 32995 00903 10224 20186 30183 40188 333 10283 29076 55070 59017;EQDQ01  00002PRCP06
0186834980999992003060312004-17730-039250FM-12+000399999V0202701N000511050019N0020001N1+02481+02071101901ADDAA106000091GF107991011021008001001081KA1240N+01871MA1999999101851MD1999999-0151REMSYN076AAXX  03124 83498 32595 72701 10248 20207 30185 40190 81208 333 20187 59015;EQDQ01  00002PRCP06
0167834980999992003060318004-17730-039250FM-12+000399999V0200901N002112200019N0020001N1+02741+02121101631ADDAA106000091GF102991011011008001001021MA1999999101581MD1999999-0071REMSYN070AAXX  03184 83498 32595 20904 10274 20212 30158 40163 81102 333 59007;EQDQ01  00002PRCP06
0208834980999992003060400004-17730-039250FM-12+000399999V0209999C000012200019N0020001N1+02141+02091101751ADDAA106000091GA1001+999999999GF100991001001999999001001KA1240M+02851MA1999999101701MD1999999-0131REMSYN082AAXX  04004 83498 32995 00000 10214 20209 30170 40175 333 10285 29085 55062 59013;EQDQ01  00002PRCP06
0186834980999992003060412004-17730-039250FM-12+000399999V0201801N000512200019N0020001N1+02551+02231101881ADDAA106000091GF104991041041008001001001KA1240N+02061MA1999999101831MD1999999-0021REMSYN076AAXX  04124 83498 32595 41801 10255 20223 30183 40188 84400 333 20206 59002;EQDQ01  00002PRCP06
0167834980999992003060418004-17730-039250FM-12+000399999V0200901N003612200019N0020001N1+02831+02151101631ADDAA106000091GF104991031021008001001041MA1999999101581MD1999999+0001REMSYN070AAXX  04184 83498 32595 40907 10283 20215 30158 40163 83204 333 58000;EQDQ01  00002PRCP06
0198834980999992003060500004-17730-039250FM-12+000399999V0200901N001012200019N0020001N1+02321+02151101761ADDAA106000091GF101991011021008001001001KA1240M+02941MA1999999101711MD1999999+0011REMSYN088AAXX  05004 83498 32595 10902 10232 20215 30171 40176 81200 333 10294 29082 55050 58001;EQDQ01  00002PRCP06
0190834980999992003060512004-17730-039250FM-12+000399999V0200901N002112200019N0020001N1+02581+02211101961ADDAY161061AY221061GF102991021011008001001001KA1240N+02071MA1999999101911MD1999999+0081MW1211REMSYN088AAXX  05124 83498 21595 20904 10258 20221 30191 40196 72162 82100 333 20207 58008 60014;
0148834980999992003060518004-17730-039250FM-12+000399999V0200901N003112200019N0020001N1+02841+02171101731ADDAA106000021GF103991031011008001001001MA1999999101681MD1999999+0101REMSYN070AAXX  05184 83498 32595 30906 10284 20217 30168 40173 83100 333 58010;
0198834980999992003060600004-17730-039250FM-12+000399999V0200901N005111050019N0020001N1+02361+02131101991ADDAA106000091GF107991041051008001001091KA1240M+02901MA1999999101941MD1999999+0231REMSYN088AAXX  06004 83498 32595 70910 10236 20213 30194 40199 84509 333 10290 29078 55060 58023;EQDQ01  00002PRCP06
0186834980999992003060612004-17730-039250FM-12+000399999V0200901N001010450019N0020001N1+02731+02081101961ADDAA106000091GF106991041051008001041001KA1240N+02041MA1999999101911MD1999999+0001REMSYN076AAXX  06124 83498 32595 60902 10273 20208 30191 40196 84540 333 20204 58000;EQDQ01  00002PRCP06
0167834980999992003060618004-17730-039250FM-12+000399999V0201401N002112200019N0020001N1+02751+02141101691ADDAA106000091GF103991021021008001001041MA1999999101641MD1999999-0041REMSYN070AAXX  06184 83498 32595 31404 10275 20214 30164 40169 82204 333 59004;EQDQ01  00002PRCP06
0198834980999992003060700004-17730-039250FM-12+000399999V0200901N001512200019N0020001N1+02301+02111101851ADDAA106000091GF102991021011008001001001KA1240M+02901MA1999999101801MD1999999-0141REMSYN088AAXX  07004 83498 32595 20903 10230 20211 30180 40185 82100 333 10290 29079 55056 59014;EQDQ01  00002PRCP06
0186834980999992003060712004-17730-039250FM-12+000399999V0202301N001510450019N0020001N1+02541+02251101951ADDAA106000091GF107991041041008001031021KA1240N+02071MA1999999101901MD1999999-0011REMSYN076AAXX  07124 83498 32595 72303 10254 20225 30190 40195 84432 333 20207 59001;EQDQ01  00002PRCP06
0167834980999992003060718004-17730-039250FM-12+000399999V0201401N001512200019N0020001N1+02721+02241101651ADDAA106000091GF102991021021008001001001MA1999999101601MD1999999-0041REMSYN070AAXX  07184 83498 32595 21403 10272 20224 30160 40165 82200 333 59004;EQDQ01  00002PRCP06
0198834980999992003060800004-17730-039250FM-12+000399999V0200901N000512200019N0020001N1+02141+02021101801ADDAA106000091GF101991011001017501031001KA1240M+02841MA1999999101751MD1999999-0051REMSYN088AAXX  08004 83498 32795 10901 10214 20202 30175 40180 81030 333 10284 29086 55071 59005;EQDQ01  00002PRCP06
0186834980999992003060812004-17730-039250FM-12+000399999V0202301N001512200019N0020001N1+02531+02291101931ADDAA106000091GF104991031021008001001011KA1240N+02001MA1999999101881MD1999999-0021REMSYN076AAXX  08124 83498 32595 42303 10253 20229 30188 40193 83201 333 20200 59002;EQDQ01  00002PRCP06
0167834980999992003060818004-17730-039250FM-12+000399999V0201401N002112200019N0020001N1+02711+01991101741ADDAA106000091GF102991021011008001001001MA1999999101691MD1999999+0071REMSYN070AAXX  08184 83498 32595 21404 10271 20199 30169 40174 82100 333 58007;EQDQ01  00002PRCP06
0208834980999992003060900004-17730-039250FM-12+000399999V0200901N001512200019N0020001N1+02361+02011101911ADDAA106000091GA1001+999999999GF100991001001999999001001KA1240M+02821MA1999999101861MD1999999+0111REMSYN082AAXX  09004 83498 32995 00903 10236 20201 30186 40191 333 10282 29079 55074 58011;EQDQ01  00002PRCP06
0186834980999992003060912004-17730-039250FM-12+000399999V0201401N002110450019N0020001N1+02591+02171102081ADDAA106000091GF107991031051008001011011KA1240N+02091MA1999999102031MD1999999+0151REMSYN076AAXX  09124 83498 32595 71404 10259 20217 30203 40208 83511 333 20209 58015;EQDQ01  00002PRCP06
0167834980999992003060918004-17730-039250FM-12+000399999V0201401N002610450019N0020001N1+02731+02101101901ADDAA106000091GF106991031081008001051001MA1999999101851MD1999999+0181REMSYN070AAXX  09184 83498 32595 61405 10273 20210 30185 40190 83850 333 58018;EQDQ01  00002PRCP06
0202834980999992003061000004-17730-039250FM-12+000399999V0201401N000510450019N0020001N1+02401+02191102031ADDAY161061AY221061GF106991021071008001011001KA1240M+02801MA1999999101981MD1999999+0121MW1211REMSYN100AAXX  10004 83498 21595 61401 10240 20219 30198 40203 72162 82710 333 10280 29081 55052 58012 60011;
0190834980999992003061012004-17730-039250FM-12+000399999V0201801N003110450019N0020001N1+02581+02211102151ADDAY161061AY261061GF107991041081008001091001KA1240N+02131MA1999999102101MD1999999+0071MW1601REMSYN088AAXX  10124 83498 21595 71806 10258 20221 30210 40215 76066 84890 333 20213 58007 60034;
0148834980999992003061018004-17730-039250FM-12+000399999V0200901N002612200019N0020001N1+02701+02111101851ADDAA106000021GF102991011021008001031001MA1999999101801MD1999999-0051REMSYN070AAXX  10184 83498 32595 20905 10270 20211 30180 40185 81230 333 59005;
0198834980999992003061100004-17730-039250FM-12+000399999V0200901N001012200019N0020001N1+02201+02051101951ADDAA106000091GF101991011021008001001001KA1240M+02771MA1999999101901MD1999999-0081REMSYN088AAXX  11004 83498 32595 10902 10220 20205 30190 40195 81200 333 10277 29083 55042 59008;EQDQ01  00002PRCP06
0190834980999992003061112004-17730-039250FM-12+000399999V0202701N001012200019N0020001N1+02601+02251101981ADDAY161061AY211061GF103991011051008001041001KA1240N+02001MA1999999101931MD1999999-0171MW1211REMSYN088AAXX  11124 83498 21595 32702 10260 20225 30193 40198 72161 81540 333 20200 59017 69914;
0148834980999992003061118004-17730-039250FM-12+000399999V0200901N001512200019N0020001N1+02751+02171101611ADDAA106000021GF102991021011008001001001MA1999999101561MD1999999-0241REMSYN070AAXX  11184 83498 32595 20903 10275 20217 30156 40161 82100 333 59024;
0208834980999992003061200004-17730-039250FM-12+000399999V0200501N001512200019N0020001N1+02211+02061101711ADDAA106000091GA1001+999999999GF100991001001999999001001KA1240M+02801MA1999999101661MD1999999-0241REMSYN082AAXX  12004 83498 32995 00503 10221 20206 30166 40171 333 10280 29084 55051 59024;EQDQ01  00002PRCP06
0186834980999992003061212004-17730-039250FM-12+000399999V0202701N001512200019N0020001N1+02581+02211101751ADDAA106000091GF102991021011008001001001KA1240N+01951MA1999999101701MD1999999-0231REMSYN076AAXX  12124 83498 32595 22703 10258 20221 30170 40175 82100 333 20195 59023;EQDQ01  00002PRCP06
0167834980999992003061218004-17730-039250FM-12+000399999V0200501N002612200019N0020001N1+02791+01931101321ADDAA106000091GF101991011011008001001001MA1999999101271MD1999999-0291REMSYN070AAXX  12184 83498 32595 10505 10279 20193 30127 40132 81100 333 59029;EQDQ01  00002PRCP06
0208834980999992003061300004-17730-039250FM-12+000399999V0200501N000512200019N0020001N1+02071+02011101641ADDAA106000091GA1001+999999999GF100991001001999999001001KA1240M+02981MA1999999101591MD1999999-0071REMSYN082AAXX  13004 83498 32995 00501 10207 20201 30159 40164 333 10298 29084 55079 59007;EQDQ01  00002PRCP06
0186834980999992003061312004-17730-039250FM-12+000399999V0202701N001012200019N0020001N1+02521+02191101751ADDAA106000091GF102991011021008001001051KA1240N+01851MA1999999101701MD1999999+0001REMSYN076AAXX  13124 83498 32595 22702 10252 20219 30170 40175 81205 333 20185 58000;EQDQ01  00002PRCP06
0167834980999992003061318004-17730-039250FM-12+000399999V0201401N002112200019N0020001N1+02721+02051101501ADDAA106000091GF101991011011008001001001MA1999999101451MD1999999+0181REMSYN070AAXX  13184 83498 32595 11404 10272 20205 30145 40150 81100 333 58018;EQDQ01  00002PRCP06
0198834980999992003061400004-17730-039250FM-12+000399999V0201401N000512200019N0020001N1+02201+02061101751ADDAA106000091GF102991001001999999001081KA1240M+02831MA1999999101701MD1999999+0111REMSYN088AAXX  14004 83498 32995 21401 10220 20206 30170 40175 80008 333 10283 29083 55089 58011;EQDQ01  00002PRCP06
0186834980999992003061412004-17730-039250FM-12+000399999V0202701N001012200019N0020001N1+02481+02191101851ADDAA106000091GF102991021011008001001001KA1240N+01891MA1999999101801MD1999999+0101REMSYN076AAXX  14124 83498 32595 22702 10248 20219 30180 40185 82100 333 20189 58010;EQDQ01  00002PRCP06
0167834980999992003061418004-17730-039250FM-12+000399999V0200901N002112200019N0020001N1+02741+02121101531ADDAA106000091GF102991011011008001001011MA1999999101481MD1999999+0031REMSYN070AAXX  14184 83498 32595 20904 10274 20212 30148 40153 81101 333 58003;EQDQ01  00002PRCP06
0186834980999992003061512004-17730-039250FM-12+000399999V0202501N001012200019N0020001N1+02541+02191101881ADDAA106000091GF102991011011008001001011KA1240N+01871MA1999999101831MD1999999+0031REMSYN076AAXX  15124 83498 32595 22502 10254 20219 30183 40188 81101 333 20187 58003;EQDQ01  00002PRCP06
0167834980999992003061518004-17730-039250FM-12+000399999V0201801N004610450019N0020001N1+02581+02171101691ADDAA106000091GF105991031031008001011001MA1999999101641MD1999999+0161REMSYN070AAXX  15184 83498 32595 51809 10258 20217 30164 40169 83310 333 58016;EQDQ01  00002PRCP06
0198834980999992003061600004-17730-039250FM-12+000399999V0201801N004612200019N0020001N1+02501+02151101931ADDAA106000091GF104991031051008001041001KA1240M+02801MA1999999101881MD1999999+0201REMSYN088AAXX  16004 83498 32595 41809 10250 20215 30188 40193 83540 333 10280 29080 55028 58020;EQDQ01  00002PRCP06
0186834980999992003061612004-17730-039250FM-12+000399999V0201801N004110075019N0020001N1+02481+01961101931ADDAA106000091GF108991051051008001021999KA1240N+02411MA1999999101881MD1999999+0051REMSYN076AAXX  16124 83498 32595 81808 10248 20196 30188 40193 8552/ 333 20241 58005;EQDQ01  00002PRCP06
0167834980999992003061618004-17730-039250FM-12+000399999V0201401N003610450019N0020001N1+02531+01791101751ADDAA106000091GF105991031051008001011001MA1999999101701MD1999999+0061REMSYN070AAXX  16184 83498 32595 51407 10253 20179 30170 40175 83510 333 58006;EQDQ01  00002PRCP06
0208834980999992003061700004-17730-039250FM-12+000399999V0201401N001012200019N0020001N1+02241+01801101861ADDAA106000091GA1001+999999999GF100991001001999999001001KA1240M+02611MA1999999101811MD1999999+0071REMSYN082AAXX  17004 83498 32995 01402 10224 20180 30181 40186 333 10261 29072 55000 58007;EQDQ01  00002PRCP06
0186834980999992003061712004-17730-039250FM-12+000399999V0202701N001012200019N0020001N1+02501+01961101971ADDAA106000091GF103991011011008001041001KA1240N+02341MA1999999101921MD1999999+0041REMSYN076AAXX  17124 83498 32595 32702 10250 20196 30192 40197 81140 333 20234 58004;EQDQ01  00002PRCP06
0167834980999992003061718004-17730-039250FM-12+000399999V0201401N002612200019N0020001N1+02591+01821101651ADDAA106000091GF102991021011008001001001MA1999999101601MD1999999-0101REMSYN070AAXX  17184 83498 32595 21405 10259 20182 30160 40165 82100 333 59010;EQDQ01  00002PRCP06
0208834980999992003061800004-17730-039250FM-12+000399999V0200901N001012200019N0020001N1+02131+01551101801ADDAA106000091GA1001+999999999GF100991001001999999001001KA1240M+02841MA1999999101751MD1999999-0061REMSYN082AAXX  18004 83498 32995 00902 10213 20155 30175 40180 333 10284 29067 55082 59006;EQDQ01  00002PRCP06
0196834980999992003061812004-17730-039250FM-12+000399999V0202301N000512200019N0020001N1+02301+01831101951ADDAA106000091GA1001+999999999GF100991001001999999001001KA1240N+01571MA1999999101901MD1999999-0021REMSYN070AAXX  18124 83498 32995 02301 10230 20183 30190 40195 333 20157 59002;EQDQ01  00002PRCP06
0167834980999992003061818004-17730-039250FM-12+000399999V0201401N002112200019N0020001N1+02581+01801101651ADDAA106000091GF102991011011008001001051MA1999999101601MD1999999+0001REMSYN070AAXX  18184 83498 32595 21404 10258 20180 30160 40165 81105 333 58000;EQDQ01  00002PRCP06
0208834980999992003061900004-17730-039250FM-12+000399999V0200901N000512200019N0020001N1+01901+01681101851ADDAA106000091GA1001+999999999GF100991001001999999001001KA1240M+02781MA1999999101801MD1999999+0051REMSYN082AAXX  19004 83498 32995 00901 10190 20168 30180 40185 333 10278 29078 55080 58005;EQDQ01  00002PRCP06
0186834980999992003061912004-17730-039250FM-12+000399999V0202301N002112200019N0020001N1+02301+01871101991ADDAA106000091GF102991011041008001031001KA1240N+01641MA1999999101941MD1999999+0041REMSYN076AAXX  19124 83498 32595 22304 10230 20187 30194 40199 81430 333 20164 58004;EQDQ01  00002PRCP06
0167834980999992003061918004-17730-039250FM-12+000399999V0201401N000510450019N0020001N1+02601+01841101751ADDAA106000091GF105991031041008001031001MA1999999101701MD1999999+0101REMSYN070AAXX  19184 83498 32595 51401 10260 20184 30170 40175 83430 333 58010;EQDQ01  00002PRCP06
0208834980999992003062000004-17730-039250FM-12+000399999V0200901N001512200019N0020001N1+01981+01811101891ADDAA106000091GA1001+999999999GF100991001001999999001001KA1240M+02751MA1999999101841MD1999999+0041REMSYN082AAXX  20004 83498 32995 00903 10198 20181 30184 40189 333 10275 29080 55065 58004;EQDQ01  00002PRCP06
0186834980999992003062012004-17730-039250FM-12+000399999V0202301N001512200019N0020001N1+02201+02061101861ADDAA106000091GF102991021011008001001001KA1240N+01621MA1999999101811MD1999999-0131REMSYN076AAXX  20124 83498 32595 22303 10220 20206 30181 40186 82100 333 20162 59013;EQDQ01  00002PRCP06
0167834980999992003062018004-17730-039250FM-12+000399999V0201401N002112200019N0020001N1+02601+02121101671ADDAA106000091GF104991021011008001001021MA1999999101621MD1999999-0081REMSYN070AAXX  20184 83498 32595 41404 10260 20212 30162 40167 82102 333 59008;EQDQ01  00002PRCP06
0208834980999992003062100004-17730-039250FM-12+000399999V0209999C000012200019N0020001N1+02201+01921101711ADDAA106000091GA1001+999999999GF100991001001999999001001KA1240M+02781MA1999999101661MD1999999-0181REMSYN082AAXX  21004 83498 32995 00000 10220 20192 30166 40171 333 10278 29083 55069 59018;EQDQ01  00002PRCP06
0186834980999992003062112004-17730-039250FM-12+000399999V0202301N000512200019N0020001N1+02441+01991101911ADDAA106000091GF102991021011008001001001KA1240N+01751MA1999999101861MD1999999+0051REMSYN076AAXX  21124 83498 32595 22301 10244 20199 30186 40191 82100 333 20175 58005;EQDQ01  00002PRCP06
0167834980999992003062118004-17730-039250FM-12+000399999V0200901N002612200019N0020001N1+02711+02081101581ADDAA106000091GF102991021011008001001001MA1999999101531MD1999999-0091REMSYN070AAXX  21184 83498 32595 20905 10271 20208 30153 40158 82100 333 59009;EQDQ01  00002PRCP06
0186834980999992003062212004-17730-039250FM-12+000399999V0203201N002619999999N0020001N1+02521+02131101721ADDAA106000091GF105991001001999999001061KA1240N+01751MA1999999101671MD1999999-0191REMSYN076AAXX  22124 83498 32995 53205 10252 20213 30167 40172 80006 333 20175 59019;EQDQ01  00002PRCP06
0167834980999992003062318004-17730-039250FM-12+000399999V0200901N002112200019N0020001N1+02701+01991101831ADDAA106000091GF102991011011008001001011MA1999999101781MD1999999+0401REMSYN070AAXX  23184 83498 32595 20904 10270 20199 30178 40183 81101 333 58040;EQDQ01  00002PRCP06
0208834980999992003062400004-17730-039250FM-12+000399999V0209999C000012200019N0020001N1+01961+01761101951ADDAA106000091GA1001+999999999GF100991001001999999001001KA1240M+02881MA1999999101901MD1999999+0301REMSYN082AAXX  24004 83498 32995 00000 10196 20176 30190 40195 333 10288 29079 55080 58030;EQDQ01  00002PRCP06
0186834980999992003062412004-17730-039250FM-12+000399999V0202301N001012200019N0020001N1+02381+02011102131ADDAA106000091GF101991011011008001001001KA1240N+01781MA1999999102081MD1999999+0301REMSYN076AAXX  24124 83498 32595 12302 10238 20201 30208 40213 81100 333 20178 58030;EQDQ01  00002PRCP06
0167834980999992003062418004-17730-039250FM-12+000399999V0201401N002112200019N0020001N1+02701+01991101901ADDAA106000091GF102991011011008001051001MA1999999101851MD1999999+0071REMSYN070AAXX  24184 83498 32595 21404 10270 20199 30185 40190 81150 333 58007;EQDQ01  00002PRCP06
0198834980999992003062500004-17730-039250FM-12+000399999V0200901N000510120019N0020001N1+02441+01881102101ADDAA106000091GF107991071081008001001001KA1240M+02811MA1999999102051MD1999999+0151REMSYN088AAXX  25004 83498 32595 70901 10244 20188 30205 40210 87800 333 10281 29072 55081 58015;EQDQ01  00002PRCP06
0186834980999992003062512004-17730-039250FM-12+000399999V0202301N001512200019N0020001N1+02371+02031102161ADDAA106000091GF102991021011008001001001KA1240N+01821MA1999999102111MD1999999+0031REMSYN076AAXX  25124 83498 32595 22303 10237 20203 30211 40216 82100 333 20182 58003;EQDQ01  00002PRCP06
0167834980999992003062518004-17730-039250FM-12+000399999V0201401N002612200019N0020001N1+02631+02051101841ADDAA106000091GF102991021011008001001001MA1999999101791MD1999999-0061REMSYN070AAXX  25184 83498 32595 21405 10263 20205 30179 40184 82100 333 59006;EQDQ01  00002PRCP06
0208834980999992003062600004-17730-039250FM-12+000399999V0201401N001012200019N0020001N1+02281+01771102011ADDAA106000091GA1001+999999999GF100991001001999999001001KA1240M+02801MA1999999101961MD1999999-0091REMSYN082AAXX  26004 83498 32995 01402 10228 20177 30196 40201 333 10280 29075 55075 59009;EQDQ01  00002PRCP06
0186834980999992003062612004-17730-039250FM-12+000399999V0202301N002112200019N0020001N1+02341+01971102051ADDAA106000091GF102991001001999999001051KA1240N+01691MA1999999102001MD1999999-0111REMSYN076AAXX  26124 83498 32995 22304 10234 20197 30200 40205 80005 333 20169 59011;EQDQ01  00002PRCP06
0167834980999992003062618004-17730-039250FM-12+000399999V0201401N001512200019N0020001N1+02661+01761101721ADDAA106000091GF103991011011008001001021MA1999999101671MD1999999-0121REMSYN070AAXX  26184 83498 32595 31403 10266 20176 30167 40172 81102 333 59012;EQDQ01  00002PRCP06
0186834980999992003062712004-17730-039250FM-12+000399999V0202701N001012200019N0020001N1+02291+01981101991ADDAA106000091GF102991021011008001001001KA1240N+01651MA1999999101941MD1999999-0061REMSYN076AAXX  27124 83498 32595 22702 10229 20198 30194 40199 82100 333 20165 59006;EQDQ01  00002PRCP06
0167834980999992003062718004-17730-039250FM-12+000399999V0200901N001512200019N0020001N1+02641+01901101751ADDAA106000091GF102991021011008001001001MA1999999101701MD1999999+0031REMSYN070AAXX  27184 83498 32595 20903 10264 20190 30170 40175 82100 333 58003;EQDQ01  00002PRCP06
0208834980999992003062800004-17730-039250FM-12+000399999V0200901N001512200019N0020001N1+02041+01891101941ADDAA106000091GA1001+999999999GF100991001001999999001001KA1240M+02781MA1999999101891MD1999999+0081REMSYN082AAXX  28004 83498 32995 00903 10204 20189 30189 40194 333 10278 29082 55066 58008;EQDQ01  00002PRCP06
0196834980999992003062812004-17730-039250FM-12+000399999V0202701N002612200019N0020001N1+02301+02011102091ADDAA106000091GA1001+999999999GF100991001001999999001001KA1240N+01751MA1999999102041MD1999999+0101REMSYN070AAXX  28124 83498 32995 02705 10230 20201 30204 40209 333 20175 58010;EQDQ01  00002PRCP06
0167834980999992003062818004-17730-039250FM-12+000399999V0201401N001012200019N0020001N1+02641+01751101771ADDAA106000091GF102991011031008001031001MA1999999101721MD1999999+0021REMSYN070AAXX  28184 83498 32595 21402 10264 20175 30172 40177 81330 333 58002;EQDQ01  00002PRCP06
0208834980999992003062900004-17730-039250FM-12+000399999V0200501N002112200019N0020001N1+01901+01711101851ADDAA106000091GA1001+999999999GF100991001001999999001001KA1240M+02741MA1999999101801MD1999999-0091REMSYN082AAXX  29004 83498 32995 00504 10190 20171 30180 40185 333 10274 29080 55029 59009;EQDQ01  00002PRCP06
0186834980999992003062912004-17730-039250FM-12+000399999V0202701N001512200019N0020001N1+02361+02051101871ADDAA106000091GF102991011011008001001091KA1240N+01671MA1999999101821MD1999999-0221REMSYN076AAXX  29124 83498 32595 22703 10236 20205 30182 40187 81109 333 20167 59022;EQDQ01  00002PRCP06
0167834980999992003062918004-17730-039250FM-12+000399999V0200501N002112200019N0020001N1+02641+01851101571ADDAA106000091GF101991011011008001001001MA1999999101521MD1999999-0201REMSYN070AAXX  29184 83498 32595 10504 10264 20185 30152 40157 81100 333 59020;EQDQ01  00002PRCP06
0186834980999992003063012004-17730-039250FM-12+000399999V0202301N001510450019N0020001N1+02341+02001102131ADDAA106000091GF106991041081008001011001KA1240N+01571MA1999999102081MD1999999+0261REMSYN076AAXX  30124 83498 32595 62303 10234 20200 30208 40213 84810 333 20157 58026;EQDQ01  00002PRCP06
0171834980999992003063018004-17730-039250FM-12+000399999V0201801N004110450019N0020001N1+02341+02001101961ADDAY161061AY261061GF108991031071008001021999MA1999999101911MD1999999+0391MW1211REMSYN082AAXX  30184 83498 21595 81808 10234 20200 30191 40196 72166 8372/ 333 58039 60041;
0179834980999992003070100004-17730-039250FM-12+000399999V0201801N004612200019N0020001N1+02381+01781102141ADDAA106000021GF102991021061008001001001KA1240M+02521MA1999999102091MD1999999+0351REMSYN088AAXX  01004 83498 32595 21809 10238 20178 30209 40214 82600 333 10252 29075 55000 58035;
0162834980999992003070112004-17730-039250FM-12+000399999V0201801N005112200019N0020001N1+02481+01701102301ADDGF104991041081008001001001KA1240N+01881MA1999999102251MD1999999+0171REMSYN082AAXX  01124 83498 22595 41810 10248 20170 30225 40230 84800 333 20188 58017 60044;
0167834980999992003070118004-17730-039250FM-12+000399999V0201801N004110450019N0020001N1+02481+01511102101ADDAA106000091GF107991011021008001051001MA1999999102051MD1999999+0141REMSYN070AAXX  01184 83498 32595 71808 10248 20151 30205 40210 81250 333 58014;EQDQ01  00002PRCP06
0198834980999992003070200004-17730-039250FM-12+000399999V0201801N002610120019N0020001N1+02381+01731102221ADDAA106000091GF107991071081008001001001KA1240M+02581MA1999999102171MD1999999+0081REMSYN088AAXX  02004 83498 32595 71805 10238 20173 30217 40222 87800 333 10258 29061 55034 58008;EQDQ01  00002PRCP06
0186834980999992003070212004-17730-039250FM-12+000399999V0202701N002112200019N0020001N1+02301+01771102151ADDAA106000091GF103991011041008001001021KA1240N+01621MA1999999102101MD1999999-0151REMSYN076AAXX  02124 83498 32595 32704 10230 20177 30210 40215 81402 333 20162 59015;EQDQ01  00002PRCP06
0167834980999992003070218004-17730-039250FM-12+000399999V0201401N002612200019N0020001N1+02631+01561101741ADDAA106000091GF101991011011008001001001MA1999999101691MD1999999-0361REMSYN070AAXX  02184 83498 32595 11405 10263 20156 30169 40174 81100 333 59036;EQDQ01  00002PRCP06
0208834980999992003070300004-17730-039250FM-12+000399999V0200901N001012200019N0020001N1+01921+01641101871ADDAA106000091GA1001+999999999GF100991001001999999001001KA1240M+02801MA1999999101821MD1999999-0351REMSYN082AAXX  03004 83498 32995 00902 10192 20164 30182 40187 333 10280 29073 55083 59035;EQDQ01  00002PRCP06
0186834980999992003070312004-17730-039250FM-12+000399999V0202301N001512200019N0020001N1+02341+01811102051ADDAA106000091GF102991021041008001001001KA1240N+01601MA1999999102001MD1999999-0101REMSYN076AAXX  03124 83498 32595 22303 10234 20181 30200 40205 82400 333 20160 59010;EQDQ01  00002PRCP06
0167834980999992003070318004-17730-039250FM-12+000399999V0201401N002612200019N0020001N1+02621+01591101741ADDAA106000091GF102991021011008001001001MA1999999101691MD1999999+0001REMSYN070AAXX  03184 83498 32595 21405 10262 20159 30169 40174 82100 333 58000;EQDQ01  00002PRCP06
0208834980999992003070400004-17730-039250FM-12+000399999V0202301N000512200019N0020001N1+01921+01791101941ADDAA106000091GA1001+999999999GF100991001001999999001001KA1240M+02741MA1999999101891MD1999999+0071REMSYN082AAXX  04004 83498 32995 02301 10192 20179 30189 40194 333 10274 29076 55071 58007;EQDQ01  00002PRCP06
0186834980999992003070412004-17730-039250FM-12+000399999V0203201N001010450019N0020001N1+02221+01961102051ADDAA106000091GF107991031061008001051051KA1240N+01691MA1999999102001MD1999999+0001REMSYN076AAXX  04124 83498 32595 73202 10222 20196 30200 40205 83655 333 20169 58000;EQDQ01  00002PRCP06
0171834980999992003070418004-17730-039250FM-12+000399999V0200901N003612200019N0020001N1+02521+01771101771ADDAY161061AY211061GF104991011011008001001051MA1999999101721MD1999999+0031MW1211REMSYN082AAXX  04184 83498 21595 40907 10252 20177 30172 40177 72161 81105 333 58003 69911;
0189834980999992003070500004-17730-039250FM-12+000399999V0200501N000512200019N0020001N1+01901+01751101821ADDAA106000021GA1001+999999999GF100991001001999999001001KA1240M+02631MA1999999101771MD1999999-0121REMSYN082AAXX  05004 83498 32995 00501 10190 20175 30177 40182 333 10263 29083 55000 59012;
0180834980999992003070512004-17730-039250FM-12+000399999V0202301N001512200019N0020001N1+02281+01881101861ADDGF102991999999008001999999KA1240N+01641MA1999999101811MD1999999-0191REMSYN081AAXX  05124 83498 22595 22303 10228 20188 30181 4186 82100 333 20164 59019 69914;EQDQ01+999990APOSLP
0167834980999992003070518004-17730-039250FM-12+000399999V0200901N002112200019N0020001N1+02631+01831101531ADDAA106000091GF102991021011008001001001MA1999999101481MD1999999-0241REMSYN070AAXX  05184 83498 32595 20904 10263 20183 30148 40153 82100 333 59024;EQDQ01  00002PRCP06
0208834980999992003070600004-17730-039250FM-12+000399999V0200901N001012200019N0020001N1+01961+01771101681ADDAA106000091GA1001+999999999GF100991001001999999001001KA1240M+02701MA1999999101631MD1999999-0141REMSYN082AAXX  06004 83498 32995 00902 10196 20177 30163 40168 333 10270 29080 55068 59014;EQDQ01  00002PRCP06
0186834980999992003070612004-17730-039250FM-12+000399999V0200901N000510450019N0020001N1+02261+02071101761ADDAA106000091GF108991031071008001021999KA1240N+01951MA1999999101711MD1999999-0101REMSYN076AAXX  06124 83498 32595 80901 10226 20207 30171 40176 8372/ 333 20195 59010;EQDQ01  00002PRCP06
0171834980999992003070618004-17730-039250FM-12+000399999V0200901N001510450019N0020001N1+02551+02111101521ADDAY161061AY221061GF106991041051008001011001MA1999999101471MD1999999-0011MW1211REMSYN082AAXX  06184 83498 21595 60903 10255 20211 30147 40152 72162 84510 333 59001 69941;
0143834980999992003070700004-17730-039250FM-12+000399999V0200501N000512200019N0020001N1+02151+02041999999ADDAA106000021GA1001+999999999GF100991001001999999001001REMSYN078AAXX  07004 83498 32995 00501 10215 20204 10266 29089 30169 40174 55003 58006;
0162834980999992003070712004-17730-039250FM-12+000399999V0203601N001510450019N0020001N1+02541+02151101921ADDGF107991021021008001051001KA1240N+01921MA1999999101871MD1999999+0161REMSYN082AAXX  07124 83498 22595 73603 10254 20215 30187 40192 82250 333 20192 58016 69944;
0171834980999992003070718004-17730-039250FM-12+000399999V0200501N003610450019N0020001N1+02641+01981101641ADDAY161061AY221061GF107991021081008001051051MA1999999101591MD1999999+0121MW1211REMSYN082AAXX  07184 83498 21595 70507 10264 20198 30159 40164 72162 82855 333 58012 69911;
0179834980999992003070800004-17730-039250FM-12+000399999V0200501N001010450019N0020001N1+02281+02001101851ADDAA106000021GF107991021081008001051051KA1240M+02801MA1999999101801MD1999999+0111REMSYN088AAXX  08004 83498 32595 70502 10228 20200 30180 40185 82855 333 10280 29086 55015 58011;
0186834980999992003070812004-17730-039250FM-12+000399999V0203201N001010450019N0020001N1+02261+01981101971ADDAA106000091GF106991031051008001031001KA1240N+01871MA1999999101921MD1999999+0051REMSYN076AAXX  08124 83498 32595 63202 10226 20198 30192 40197 83530 333 20187 58005;EQDQ01  00002PRCP06
0167834980999992003070818004-17730-039250FM-12+000399999V0200501N003612200019N0020001N1+02701+01831101601ADDAA106000091GF101991001001999999001011MA1999999101551MD1999999-0041REMSYN070AAXX  08184 83498 32995 10507 10270 20183 30155 40160 80001 333 59004;EQDQ01  00002PRCP06
0208834980999992003070900004-17730-039250FM-12+000399999V0200501N001012200019N0020001N1+02041+01761101771ADDAA106000091GA1001+999999999GF100991001001999999001001KA1240M+02841MA1999999101721MD1999999-0081REMSYN082AAXX  09004 83498 32995 00502 10204 20176 30172 40177 333 10284 29078 55045 59008;EQDQ01  00002PRCP06
0186834980999992003070912004-17730-039250FM-12+000399999V0203201N001012200019N0020001N1+02571+02111101831ADDAA106000091GF102991001001999999001091KA1240N+01721MA1999999101781MD1999999-0141REMSYN076AAXX  09124 83498 32995 23202 10257 20211 30178 40183 80009 333 20172 59014;EQDQ01  00002PRCP06
0167834980999992003070918004-17733-039250FM-12+000399999V0200501N002612200019N0020001N1+02691+01731101621ADDAA106000091GF104991021021008001041001MA1999999101571MD1999999+0021REMSYN070AAXX  09184 83498 32595 40505 10269 20173 30157 40162 82240 333 58002;EQDQ01  00002PRCP06
0198834980999992003071000004-17733-039250FM-12+000399999V0200501N001512200019N0020001N1+02071+01931101801ADDAA106000091GF101991011011008001001001KA1240M+02901MA1999999101751MD1999999+0031REMSYN088AAXX  10004 83498 32595 10503 10207 20193 30175 40180 81100 333 10290 29079 55039 58003;EQDQ01  00002PRCP06
0186834980999992003071012004-17733-039250FM-12+000399999V0203201N001510450019N0020001N1+02531+02111101901ADDAA106000091GF105991021061008001041001KA1240N+01941MA1999999101851MD1999999+0071REMSYN076AAXX  10124 83498 32595 53203 10253 20211 30185 40190 82640 333 20194 58007;EQDQ01  00002PRCP06
0167834980999992003071018004-17733-039250FM-12+000399999V0200501N003112200019N0020001N1+02811+01901101621ADDAA106000091GF102991021011008001001001MA1999999101571MD1999999+0001REMSYN070AAXX  10184 83498 32595 20506 10281 20190 30157 40162 82100 333 58000;EQDQ01  00002PRCP06
0198834980999992003071100004-17733-039250FM-12+000399999V0209999C000019999999N0020001N1+02111+01871101921ADDAA106000091GF106991061001008001031001KA1240M+02901MA1999999101871MD1999999+0121REMSYN088AAXX  11004 83498 32595 60000 10211 20187 30187 40192 86030 333 10290 29080 55025 58012;EQDQ01  00002PRCP06
0186834980999992003071112004-17733-039250FM-12+000399999V0200501N001010450019N0020001N1+02441+02111101991ADDAA106000091GF107991011021008001051001KA1240N+01981MA1999999101941MD1999999+0091REMSYN076AAXX  11124 83498 32595 70502 10244 20211 30194 40199 81250 333 20198 58009;EQDQ01  00002PRCP06
0167834980999992003071118004-17733-039250FM-12+000399999V0200501N005112200019N0020001N1+02781+02041101621ADDAA106000091GF101991011011008001001001MA1999999101571MD1999999+0001REMSYN070AAXX  11184 83498 32595 10510 10278 20204 30157 40162 81100 333 58000;EQDQ01  00002PRCP06
0214834980999992003071200004-17733-039250FM-12+000399999V0200501N001019999999N0020001N1+02141+02001101901ADDAA106000091GF100991001001999999001001KA1240M+02941MA1999999101851MD1999999-0021REMSYN088AAXX  12004 83498 32995 50502 10214 20200 30185 40190 80000 333 10294 29079 55050 59002;EQDQ01+000052SCOTCVQ02  00002PRCP06
0186834980999992003071212004-17733-039250FM-12+000399999V0202301N003610450019N0020001N1+02321+02131102241ADDAA106000091GF107991041051008001021001KA1240N+01971MA1999999102191MD1999999+0251REMSYN076AAXX  12124 83498 32595 72307 10232 20213 30219 40224 84520 333 20197 58025;EQDQ01  00002PRCP06
0171834980999992003071218004-17733-039250FM-12+000399999V0201801N004110450019N0020001N1+02181+02041102041ADDAY161061AY261061GF108991021071008001021999MA1999999101991MD1999999+0421MW1211REMSYN082AAXX  12184 83498 21595 81808 10218 20204 30199 40204 72166 8272/ 333 58042 60151;
0190834980999992003071312004-17733-039250FM-12+000399999V0201801N002612200019N0020001N1+02221+01961102351ADDAY161061AY221061GF104991031051008001031001KA1240N+01871MA1999999102301MD1999999+0111MW1211REMSYN088AAXX  13124 83498 21595 41805 10222 20196 30230 40235 72162 83530 333 20187 58011 60164;
0171834980999992003071318004-17733-039250FM-12+000399999V0201801N002112200019N0020001N1+02181+02041102131ADDAY161061AY261061GF103991021011008001031001MA1999999102081MD1999999+0091MW1211REMSYN082AAXX  13184 83498 21595 31804 10218 20204 30208 40213 72166 82130 333 58009 60011;
0190834980999992003071412004-17733-039250FM-12+000399999V0201401N004110450019N0020001N1+02261+02051102371ADDAY161061AY261061GF108991031071008001021999KA1240N+02081MA1999999102321MD1999999+0021MW1611REMSYN088AAXX  14124 83498 21595 81408 10226 20205 30232 40237 76166 8372/ 333 20208 58002 60164;
0171834980999992003071418004-17733-039250FM-12+000399999V0201801N007210450019N0020001N1+02421+01971102171ADDAY161061AY221061GF106991031061008001071001MA1999999102121MD1999999+0041MW1211REMSYN082AAXX  14184 83498 21595 61814 10242 20197 30212 40217 72162 83670 333 58004 60321;
0162834980999992003071512004-17733-039250FM-12+000399999V0201801N006712200019N0020001N1+02441+01661102421ADDGF103991011081008001071091KA1240N+02001MA1999999102371MD1999999+0051REMSYN082AAXX  15124 83498 22595 31813 10244 20166 30237 40242 81879 333 20200 58005 60324;
0167834980999992003071518004-17733-039250FM-12+000399999V0201801N004610450019N0020001N1+02401+01751102251ADDAA106000091GF105991031081008001051001MA1999999102201MD1999999+0081REMSYN070AAXX  15184 83498 32595 51809 10240 20175 30220 40225 83850 333 58008;EQDQ01  00002PRCP06
0198834980999992003071600004-17733-039250FM-12+000399999V0201801N004112200019N0020001N1+02301+01701102351ADDAA106000091GF102991011011008001001051KA1240M+02581MA1999999102301MD1999999-0011REMSYN088AAXX  16004 83498 32595 21808 10230 20170 30230 40235 81105 333 10258 29067 55040 59001;EQDQ01  00002PRCP06
0186834980999992003071612004-17733-039250FM-12+000399999V0202301N004610450019N0020001N1+02141+01861102371ADDAA106000091GF106991031051008001021001KA1240N+01761MA1999999102321MD1999999-0051REMSYN076AAXX  16124 83498 32595 62309 10214 20186 30232 40237 83520 333 20176 59005;EQDQ01  00002PRCP06
0171834980999992003071618004-17733-039250FM-12+000399999V0201801N004110450019N0020001N1+02291+02011102261ADDAY161061AY221061GF107991031071008001021081MA1999999102211MD1999999+0011MW1211REMSYN082AAXX  16184 83498 21595 71808 10229 20201 30221 40226 72162 83728 333 58001 60051;
0202834980999992003071700004-17733-039250FM-12+000399999V0200901N001010450019N0020001N1+02121+01911102421ADDAY161061AY261061GF108991041071008001021999KA1240M+02401MA1999999102371MD1999999+0071MW1211REMSYN100AAXX  17004 83498 21595 80902 10212 20191 30237 40242 72166 8472/ 333 10240 29086 55001 58007 60011;
0190834980999992003071712004-17733-039250FM-12+000399999V0200901N003112200019N0020001N1+02551+01601102421ADDAY161061AY201061GF102991021011008001001001KA1240N+02071MA1999999102371MD1999999+0051MW1211REMSYN088AAXX  17124 83498 21595 20906 10255 20160 30237 40242 72160 82100 333 20207 58005 60074;
0148834980999992003071718004-17733-039250FM-12+000399999V0201401N002612200019N0020001N1+02531+01711102341ADDAA106000021GF102991021011008001001001MA1999999102291MD1999999+0081REMSYN070AAXX  17184 83498 32595 21405 10253 20171 30229 40234 82100 333 58008;
0224834980999992003071800004-17733-039250FM-12+000399999V0201401N000512200019N0020001N1+02081+01871102431ADDAA106000091GA1001+999999999GF100991001001999999001001KA1240M+02691MA1999999999999MD1999999+0011REMSYN082AAXX  18004 83498 32995 01401 10208 20187 30038 40243 333 10269 29073 55068 58001;EQDQ01  00002PRCP06Q02 100383APOSP 
0190834980999992003071812004-17733-039250FM-12+000399999V0202301N002110450019N0020001N1+02221+02051102541ADDAY161061AY261061GF106991041051008001041001KA1240N+01841MA1999999102491MD1999999+0121MW1211REMSYN088AAXX  18124 83498 21595 62304 10222 20205 30249 40254 72166 84540 333 20184 58012 69964;
0148834980999992003071818004-17733-039250FM-12+000399999V0201401N000510450019N0020001N1+02251+01921102341ADDAA106000021GF106991041051008001011001MA1999999102291MD1999999+0001REMSYN070AAXX  18184 83498 32595 61401 10225 20192 30229 40234 84510 333 58000;
0202834980999992003071900004-17733-039250FM-12+000399999V0202301N001010450019N0020001N1+02091+02011102461ADDAY161061AY221061GF105991031061008001011001KA1240M+02661MA1999999102411MD1999999+0031MW1211REMSYN100AAXX  19004 83498 21595 52302 10209 20201 30241 40246 72162 83610 333 10266 29091 55035 58003 60011;
0162834980999992003071912004-17733-039250FM-12+000399999V0202301N002110450019N0020001N1+02361+02131102571ADDGF107991021081008001031011KA1240N+01841MA1999999102521MD1999999+0031REMSYN082AAXX  19124 83498 22595 72304 10236 20213 30252 40257 82831 333 20184 58003 60014;
0171834980999992003071918004-17733-039250FM-12+000399999V0200501N002610450019N0020001N1+02401+01861102271ADDAY161061AY221061GF108991041081008001021021MA1999999102221MD1999999-0071MW1211REMSYN082AAXX  19184 83498 21595 80505 10240 20186 30222 40227 72162 84822 333 59007 69911;
0162834980999992003072012004-17733-039250FM-12+000399999V0202701N001010120019N0020001N1+02361+01991102331ADDGF106991061001012501021001KA1240N+01761MA1999999102281MD1999999-0241REMSYN082AAXX  20124 83498 22695 62702 10236 20199 30228 40233 86020 333 20176 59024 69914;
0167834980999992003072018004-17733-039250FM-12+000399999V0201401N002112200019N0020001N1+02551+01951102051ADDAA106000091GF102991021011008001001001MA1999999102001MD1999999-0221REMSYN070AAXX  20184 83498 32595 21404 10255 20195 30200 40205 82100 333 59022;EQDQ01  00002PRCP06
0186834980999992003072112004-17733-039250FM-12+000399999V0202301N001010450019N0020001N1+02221+02011102251ADDAA106000091GF106991021011008001051001KA1240N+01711MA1999999102201MD1999999-0081REMSYN076AAXX  21124 83498 32595 62302 10222 20201 30220 40225 82150 333 20171 59008;EQDQ01  00002PRCP06
0167834980999992003072118004-17733-039250FM-12+000399999V0200901N001010450019N0020001N1+02481+01981102081ADDAA106000091GF108991041051008001031091MA1999999102031MD1999999+0031REMSYN070AAXX  21184 83498 32595 80902 10248 20198 30203 40208 84539 333 58003;EQDQ01  00002PRCP06
0198834980999992003072200004-17733-039250FM-12+000399999V0209999C000012200019N0020001N1+02161+01861102251ADDAA106000091GF102991021011008001001001KA1240M+02641MA1999999102201MD1999999+0061REMSYN088AAXX  22004 83498 32595 20000 10216 20186 30220 40225 82100 333 10264 29082 55018 58006;EQDQ01  00002PRCP06
0186834980999992003072212004-17733-039250FM-12+000399999V0200901N003612200019N0020001N1+02611+01891102401ADDAA106000091GF103991031021008001001001KA1240N+02001MA1999999102351MD1999999+0151REMSYN076AAXX  22124 83498 32595 30907 10261 20189 30235 40240 83200 333 20200 58015;EQDQ01  00002PRCP06
0167834980999992003072218004-17733-039250FM-12+000399999V0200501N002612200019N0020001N1+02791+01581102131ADDAA106000091GF102991021021008001001001MA1999999102081MD1999999+0051REMSYN070AAXX  22184 83498 32595 20505 10279 20158 30208 40213 82200 333 58005;EQDQ01  00002PRCP06
0198834980999992003072300004-17733-039250FM-12+000399999V0200901N000512200019N0020001N1+02261+01881102321ADDAA106000091GF102991021061008001001001KA1240M+02901MA1999999102271MD1999999+0071REMSYN088AAXX  23004 83498 32595 20901 10226 20188 30227 40232 82600 333 10290 29068 55087 58007;EQDQ01  00002PRCP06
0190834980999992003072312004-17733-039250FM-12+000399999V0200901N003111050019N0020001N1+02621+02071102401ADDAY161061AY261061GF105991011021008001041021KA1240N+02051MA1999999102351MD1999999+0001MW1631REMSYN088AAXX  23124 83498 21595 50906 10262 20207 30235 40240 76366 81242 333 20205 58000 69954;
0171834980999992003072318004-17733-039250FM-12+000399999V0200901N002110450019N0020001N1+02521+02091102131ADDAY161061AY221061GF106991041021008001051051MA1999999102081MD1999999+0001MW1211REMSYN082AAXX  23184 83498 21595 60904 10252 20209 30208 40213 72162 84255 333 58000 69921;
0179834980999992003072400004-17733-039250FM-12+000399999V0200901N002612200019N0020001N1+02381+02071102321ADDAA106000021GF102991011001017501041051KA1240M+02771MA1999999102271MD1999999+0001REMSYN088AAXX  24004 83498 32795 20905 10238 20207 30227 40232 81045 333 10277 29079 55046 58000;
0190834980999992003072412004-17733-039250FM-12+000399999V0200901N004110450019N0020001N1+02451+02011102271ADDAY161061AY261061GF105991021051008001021001KA1240N+02011MA1999999102221MD1999999-0131MW1211REMSYN088AAXX  24124 83498 21595 50908 10245 20201 30222 40227 72166 82520 333 20201 59013 60014;
0148834980999992003072418004-17733-039250FM-12+000399999V0200901N003112200019N0020001N1+02731+01901102061ADDAA106000021GF104991021011008001031051MA1999999102011MD1999999-0071REMSYN070AAXX  24184 83498 32595 40906 10273 20190 30201 40206 82135 333 59007;
0198834980999992003072500004-17733-039250FM-12+000399999V0200901N000512200019N0020001N1+02111+01781102271ADDAA106000091GF101991011011008001001001KA1240M+02791MA1999999102201MD1999999-0071REMSYN088AAXX  25004 83498 32595 10901 10211 20178 30220 40227 81100 333 10279 29078 55054 59007;EQDQ01  00002PRCP06
0190834980999992003072512004-17733-039250FM-12+000399999V0200501N001510450019N0020001N1+02381+02031102331ADDAY161061AY221061GF108991041071008001021999KA1240N+01951MA1999999102281MD1999999+0061MW1211REMSYN088AAXX  25124 83498 21595 80503 10238 20203 30228 40233 72162 8472/ 333 20195 58006 60104;
0171834980999992003072518004-17733-039250FM-12+000399999V0200901N002110450019N0020001N1+02681+01971102191ADDAY161061AY261061GF106991031011008001031001MA1999999102141MD1999999+0131MW1211REMSYN082AAXX  25184 83498 21595 60904 10268 20197 30214 40219 72166 83130 333 58013 60121;
0179834980999992003072600004-17733-039250FM-12+000399999V0201401N001512200019N0020001N1+02101+01951102301ADDAA106000021GF103991031011008001031001KA1240M+02741MA1999999102251MD1999999+0051REMSYN088AAXX  26004 83498 32595 31403 10210 20195 30225 40230 83130 333 10274 29082 55033 58005;
0190834980999992003072612004-17733-039250FM-12+000399999V0200901N002612200019N0020001N1+02531+01821102451ADDAY161061AY211061GF103991021021008001041001KA1240N+02071MA1999999102401MD1999999+0121MW1211REMSYN088AAXX  26124 83498 21595 30905 10253 20182 30240 40245 72161 82240 333 20207 58012 60144;
0148834980999992003072618004-17733-039250FM-12+000399999V0201401N003112200019N0020001N1+02521+01981102231ADDAA106000021GF104991021021008001041001MA1999999102181MD1999999+0041REMSYN070AAXX  26184 83498 32595 41406 10252 20198 30218 40223 82240 333 58004;
0214834980999992003072700004-17733-039250FM-12+000399999V0200901N002610012019N0020001N1+02301+01961102391ADDAA106000091GA1091+999999999GF109991091999999999999999KA1240M+02631MA1999999102341MD1999999+0011REMSYN088AAXX  27004 83498 32/95 90905 10230 20196 30234 40239 81026 333 10263 29071 55032 58001;EQDQ01  00002PRCP06
0186834980999992003072712004-17733-039250FM-12+000399999V0201801N005712200019N0020001N1+02501+01721102401ADDAA106000091GF102991021021008001001001KA1240N+01991MA1999999102351MD1999999-0051REMSYN076AAXX  27124 83498 32595 21811 10250 20172 30235 40240 82200 333 20199 59005;EQDQ01  00002PRCP06
0167834980999992003072718004-17733-039250FM-12+000399999V0201801N003110450019N0020001N1+02501+01721102181ADDAA106000091GF107991021011008001031091MA1999999102131MD1999999-0051REMSYN070AAXX  27184 83498 32595 71806 10250 20172 30213 40218 82139 333 59005;EQDQ01  00002PRCP06
0198834980999992003072800004-17733-039250FM-12+000399999V0201801N004112200019N0020001N1+02341+02151102321ADDAA106000091GF102991011011008001001081KA1240M+02611MA1999999102271MD1999999-0071REMSYN088AAXX  28004 83498 32595 21808 10234 20215 30227 40232 81108 333 10261 29076 55082 59007;EQDQ01  00002PRCP06
0190834980999992003072812004-17733-039250FM-12+000399999V0201401N003112200019N0020001N1+02431+01791102381ADDAY161061AY261061GF103991031021008001001001KA1240N+02021MA1999999102331MD1999999-0021MW1211REMSYN088AAXX  28124 83498 21595 31406 10243 20179 30233 40238 72166 83200 333 20202 59002 60224;
0148834980999992003072818004-17733-039250FM-12+000399999V0201401N003112200019N0020001N1+02491+01871102121ADDAA106000021GF104991041021008001001001MA1999999102071MD1999999-0061REMSYN070AAXX  28184 83498 32595 41406 10249 20187 30207 40212 84200 333 59006;
0198834980999992003072900004-17733-039250FM-12+000399999V0201401N001512200019N0020001N1+02291+01881102321ADDAA106000091GF101991011011008001001001KA1240M+02601MA1999999102271MD1999999+0001REMSYN088AAXX  29004 83498 32595 11403 10229 20188 30227 40232 81100 333 10260 29073 55081 58000;EQDQ01  00002PRCP06
0186834980999992003072912004-17733-039250FM-12+000399999V0201401N001512200019N0020001N1+02421+01991102331ADDAA106000091GF103991031011008001001001KA1240N+01961MA1999999102281MD1999999-0051REMSYN076AAXX  29124 83498 32595 31403 10242 20199 30228 40233 83100 333 20196 59005;EQDQ01  00002PRCP06
0167834980999992003072918004-17733-039250FM-12+000399999V0201401N003110450019N0020001N1+02521+02071102091ADDAA106000091GF105991021011008001041001MA1999999102041MD1999999+0031REMSYN070AAXX  29184 83498 32595 51406 10252 20207 30204 40209 82140 333 58003;EQDQ01  00002PRCP06
0198834980999992003073000004-17733-039250FM-12+000399999V0201801N001512200019N0020001N1+02181+01951102261ADDAA106000091GF103991031011008001001001KA1240M+02691MA1999999102211MD1999999-0061REMSYN088AAXX  30004 83498 32595 31803 10218 20195 30221 40226 83100 333 10269 29082 55083 59006;EQDQ01  00002PRCP06
0190834980999992003073012004-17733-039250FM-12+000399999V0201401N001510450019N0020001N1+02341+02151102261ADDAY161061AY221061GF106991041051008001011001KA1240N+02081MA1999999102211MD1999999-0071MW1211REMSYN088AAXX  30124 83498 21595 61403 10234 20215 30221 40226 72162 84510 333 20208 59007 60064;
0148834980999992003073018004-17733-039250FM-12+000399999V0201401N003110450019N0020001N1+02301+02031102021ADDAA106000021GF108991031071008001021999MA1999999101921MD1999999-0071REMSYN070AAXX  30184 83498 32595 81406 10230 20203 30192 40202 8372/ 333 59007;
0202834980999992003073100004-17733-039250FM-12+000399999V0200901N001010075019N0020001N1+02181+02031102111ADDAY161061AY221061GF108991051061008001021999KA1240M+02681MA1999999102061MD1999999-0151MW1211REMSYN100AAXX  31004 83498 21595 80902 10218 20203 30206 40211 72162 8562/ 333 10268 29089 55015 59015 69931;
0162834980999992003073112004-17733-039250FM-12+000399999V0202301N001512200019N0020001N1+02381+02031102071ADDGF103991011021008001051051KA1240N+01921MA1999999102021MD1999999-0191REMSYN082AAXX  31124 83498 22595 32303 10238 20203 30202 40207 81255 333 20192 59019 69934;
0167834980999992003073118004-17733-039250FM-12+000399999V0200501N002610150019N0020001N1+02641+01801101771ADDAA106000091GF107991071001017501051001MA1999999101721MD1999999-0251REMSYN070AAXX  31184 83498 32795 70505 10264 20180 30172 40177 87050 333 59025;EQDQ01  00002PRCP06
0208834980999992003080100004-17733-039250FM-12+000399999V0200501N001012200019N0020001N1+02141+01931101951ADDAA106000091GA1001+999999999GF100991001001999999001001KA1240M+02821MA1999999101901MD1999999-0161REMSYN082AAXX  01004 83498 32995 00502 10214 20193 30190 40195 333 10282 29079 55067 59016;EQDQ01  00002PRCP06
0186834980999992003080112004-17733-039250FM-12+000399999V0202701N001010450019N0020001N1+02431+02051102111ADDAA106000091GF106991041051008001031091KA1240N+01821MA1999999102061MD1999999+0041REMSYN076AAXX  01124 83498 32595 62702 10243 20205 30206 40211 84539 333 20182 58004;EQDQ01  00002PRCP06
0167834980999992003080118004-17733-039250FM-12+000399999V0200501N002612200019N0020001N1+02671+01951101881ADDAA106000091GF104991011021008001031091MA1999999101831MD1999999+0111REMSYN070AAXX  01184 83498 32595 40505 10267 20195 30183 40188 81239 333 58011;EQDQ01  00002PRCP06
0198834980999992003080200004-17733-039250FM-12+000399999V0200901N001012200019N0020001N1+02221+01971102101ADDAA106000091GF102991011011008001001091KA1240M+02841MA1999999102051MD1999999+0151REMSYN088AAXX  02004 83498 32595 20902 10222 20197 30205 40210 81109 333 10284 29079 55087 58015;EQDQ01  00002PRCP06
0186834980999992003080212004-17733-039250FM-12+000399999V0201401N001510450019N0020001N1+02401+02051102251ADDAA106000091GF105991031021008001041001KA1240N+01941MA1999999102201MD1999999+0141REMSYN076AAXX  02124 83498 32595 51403 10240 20205 30220 40225 83240 333 20194 58014;EQDQ01  00002PRCP06
0167834980999992003080218004-17733-039250FM-12+000399999V0200901N002112200019N0020001N1+02681+01991102051ADDAA106000091GF104991021011008001041001MA1999999102001MD1999999+0171REMSYN070AAXX  02184 83498 32595 40904 10268 20199 30200 40205 82140 333 58017;EQDQ01  00002PRCP06
0190834980999992003080312004-17733-039250FM-12+000399999V0201401N004610450019N0020001N1+02281+01941102351ADDAY161061AY221061GF108991031071008001021999KA1240N+01971MA1999999102301MD1999999+0101MW1211REMSYN088AAXX  03124 83498 21595 81409 10228 20194 30230 40235 72162 8372/ 333 20197 58010 60034;
0148834980999992003080318004-17733-039250FM-12+000399999V0201801N008210450019N0020001N1+02441+01741102151ADDAA106000021GF108991041051008001021999MA1999999102101MD1999999+0101REMSYN070AAXX  03184 83498 32595 81816 10244 20174 30210 40215 8452/ 333 58010;
0152834980999992003080400004-17733-039250FM-12+000399999V0201401N002619999999N0020001N1+02361+01671999999ADDAA106000091GF108991999999008001999999REMSYN084AAXX  04004 83498 32595 81405 10236 20167 10258 29070 30219 40224 55000 59003 8652/;EQDQ01  00002PRCP06
0186834980999992003080412004-17733-039250FM-12+000399999V0201401N003610120019N0020001N1+02401+01771102251ADDAA106000091GF107991051081008001031051KA1240N+01991MA1999999102201MD1999999-0101REMSYN076AAXX  04124 83498 32595 71407 10240 20177 30220 40225 85835 333 20199 59010;EQDQ01  00002PRCP06
0167834980999992003080418004-17733-039250FM-12+000399999V0201401N003110450019N0020001N1+02541+01781101951ADDAA106000091GF107991011021008001051091MA1999999101901MD1999999-0201REMSYN070AAXX  04184 83498 32595 71406 10254 20178 30190 40195 81259 333 59020;EQDQ01  00002PRCP06
0198834980999992003080500004-17733-039250FM-12+000399999V0201401N001510120019N0020001N1+02361+01731102101ADDAA106000091GF108991081001012501021999KA1240M+02641MA1999999102051MD1999999-0141REMSYN088AAXX  05004 83498 32695 81403 10236 20173 30205 40210 8802/ 333 10264 29067 55042 59014;EQDQ01  00002PRCP06
0190834980999992003080512004-17733-039250FM-12+000399999V0202701N001010450019N0020001N1+02101+02031101781ADDAY161061AY261061GF108991041071008001021999KA1240N+02021MA1999999101731MD1999999-0471MW1211REMSYN088AAXX  05124 83498 21595 82702 10210 20203 30173 40178 72166 8472/ 333 20202 59047 60094;
0171834980999992003080518004-17733-039250FM-12+000399999V0200501N001510450019N0020001N1+02221+01991101851ADDAY161061AY261061GF108991041071008001021999MA1999999101801MD1999999-0101MW1511REMSYN082AAXX  05184 83498 21595 80503 10222 20199 30180 40185 75166 8472/ 333 59010 69931;
0179834980999992003080600004-17733-039250FM-12+000399999V0200501N001012200019N0020001N1+02001+01851102001ADDAA106000021GF101991001001999999001081KA1240M+02431MA1999999101951MD1999999-0101REMSYN088AAXX  06004 83498 32995 10502 10200 20185 30195 40200 80008 333 10243 29091 55000 59010;
0162834980999992003080612004-17733-039250FM-12+000399999V0203601N001012200019N0020001N1+02241+02031102091ADDGF102991021011008001001001KA1240N+01761MA1999999102041MD1999999+0311REMSYN082AAXX  06124 83498 22595 23602 10224 20203 30204 40209 82100 333 20176 58031 69934;
0167834980999992003080618004-17733-039250FM-12+000399999V0203601N002112200019N0020001N1+02401+02051101701ADDAA106000091GF104991021011008001001091MA1999999101651MD1999999-0151REMSYN070AAXX  06184 83498 32595 43604 10240 20205 30165 40170 82109 333 59015;EQDQ01  00002PRCP06
0208834980999992003080700004-17733-039250FM-12+000399999V0200501N001012200019N0020001N1+02021+01871101891ADDAA106000091GA1001+999999999GF100991001001999999001001KA1240M+02701MA1999999101841MD1999999-0111REMSYN082AAXX  07004 83498 32995 00502 10202 20187 30184 40189 333 10270 29088 55083 59011;EQDQ01  00002PRCP06
0186834980999992003080712004-17733-039250FM-12+000399999V0202701N002112200019N0020001N1+02401+01911102021ADDAA106000091GF102991021011008001001001KA1240N+02081MA1999999101971MD1999999-0071REMSYN076AAXX  07124 83498 32595 22704 10240 20191 30197 40202 82100 333 20208 59007;EQDQ01  00002PRCP06
0167834980999992003080718004-17733-039250FM-12+000399999V0200501N003612200019N0020001N1+02671+01651101641ADDAA106000091GF102991021011008001001001MA1999999101591MD1999999-0061REMSYN070AAXX  07184 83498 32595 20507 10267 20165 30159 40164 82100 333 59006;EQDQ01  00002PRCP06
0208834980999992003080800004-17733-039250FM-12+000399999V0209999C000012200019N0020001N1+01941+01751101891ADDAA106000091GA1001+999999999GF100991001001999999001001KA1240M+02781MA1999999101841MD1999999+0001REMSYN082AAXX  08004 83498 32995 00000 10194 20175 30184 40189 333 10278 29077 55079 58000;EQDQ01  00002PRCP06
0186834980999992003080812004-17733-039250FM-12+000399999V0200501N000512200019N0020001N1+02361+01991102001ADDAA106000091GF101991011021008001001001KA1240N+01651MA1999999101951MD1999999-0021REMSYN076AAXX  08124 83498 32595 10501 10236 20199 30195 40200 81200 333 20165 59002;EQDQ01  00002PRCP06
0167834980999992003080818004-17733-039250FM-12+000399999V0201401N002112200019N0020001N1+02621+02071101801ADDAA106000091GF101991011011008001001001MA1999999101751MD1999999+0161REMSYN070AAXX  08184 83498 32595 11404 10262 20207 30175 40180 81100 333 58016;EQDQ01  00002PRCP06
0198834980999992003080900004-17733-039250FM-12+000399999V0201401N000510450019N0020001N1+02281+02001102081ADDAA106000091GF105991011011008001051051KA1240M+02801MA1999999102031MD1999999+0191REMSYN088AAXX  09004 83498 32595 51401 10228 20200 30203 40208 81155 333 10280 29080 55094 58019;EQDQ01  00002PRCP06
0190834980999992003080912004-17733-039250FM-12+000399999V0200501N002610075019N0020001N1+02511+01961102161ADDAY161061AY261061GF105991051021008001001001KA1240N+02151MA1999999102111MD1999999+0161MW1031REMSYN088AAXX  09124 83498 21595 50505 10251 20196 30211 40216 70366 85200 333 20215 58016 60014;
0167834980999992003080918004-17733-039250FM-12+000399999V0200501N003112200019N0020001N1+02651+01901101841ADDAA106000091GF102991021011008001001001MA1999999101791MD1999999+0041REMSYN070AAXX  09184 83498 32595 20506 10265 20190 30179 40184 82100 333 58004;EQDQ01  00002PRCP06
0186834980999992003081012004-17733-039250FM-12+000399999V0201401N001512200019N0020001N1+02361+01991102061ADDAA106000091GF103991031011008001001001KA1240N+02131MA1999999102011MD1999999-0101REMSYN076AAXX  10124 83498 32595 31403 10236 20199 30201 40206 83100 333 20213 59010;EQDQ01  00002PRCP06
0167834980999992003081018004-17733-039250FM-12+000399999V0200901N003110450019N0020001N1+02661+02001101881ADDAA106000091GF106991021011008001041011MA1999999101831MD1999999+0041REMSYN070AAXX  10184 83498 32595 60906 10266 20200 30183 40188 82141 333 58004;EQDQ01  00002PRCP06
0190834980999992003081112004-17733-039250FM-12+000399999V0202301N002110450019N0020001N1+02041+01891102111ADDAY161061AY221061GF108991031071008001021999KA1240N+01961MA1999999102061MD1999999+0051MW1211REMSYN088AAXX  11124 83498 21595 82304 10204 20189 30206 40211 72162 8372/ 333 20196 58005 60164;
0148834980999992003081118004-17733-039250FM-12+000399999V0202301N003110450019N0020001N1+02241+01941101901ADDAA106000021GF108991041051008001021999MA1999999101851MD1999999+0031REMSYN070AAXX  11184 83498 32595 82306 10224 20194 30185 40190 8452/ 333 58003;
0202834980999992003081200004-17733-039250FM-12+000399999V0201401N002610450019N0020001N1+02261+01991102061ADDAY161061AY221061GF106991041061008001011001KA1240M+02241MA1999999102011MD1999999-0031MW1211REMSYN100AAXX  12004 83498 21595 61405 10226 20199 30201 40206 72162 84610 333 10224 29086 55000 59003 60021;
0190834980999992003081212004-17733-039250FM-12+000399999V0202701N001510075019N0020001N1+02141+02041102151ADDAY161061AY261061GF108991071061008001011999KA1240N+02051MA1999999102101MD1999999+0041MW1621REMSYN088AAXX  12124 83498 21595 82703 10214 20204 30210 40215 76266 8761/ 333 20205 58004 60144;
0148834980999992003081218004-17733-039250FM-12+000399999V0201801N005710075019N0020001N1+02401+01911101901ADDAA106000021GF107991051061008001011051MA1999999101851MD1999999+0001REMSYN070AAXX  12184 83498 32595 71811 10240 20191 30185 40190 85615 333 58000;
0198834980999992003081300004-17733-039250FM-12+000399999V0201401N003112200019N0020001N1+02271+01861102091ADDAA106000091GF102991021011008001001001KA1240M+02471MA1999999102041MD1999999+0031REMSYN088AAXX  13004 83498 32595 21406 10227 20186 30204 40209 82100 333 10247 29081 55006 58003;EQDQ01  00002PRCP06
0190834980999992003081312004-17733-039250FM-12+000399999V0201801N004110450019N0020001N1+02341+01691102201ADDAY161061AY221061GF107991041041008001031051KA1240N+01871MA1999999102151MD1999999+0051MW1211REMSYN088AAXX  13124 83498 21595 71808 10234 20169 30215 40220 72162 84435 333 20187 58005 69914;
0148834980999992003081318004-17733-039250FM-12+000399999V0201801N005112200019N0020001N1+02381+01681101981ADDAA106000021GF104991021021008001001081MA1999999101931MD1999999+0081REMSYN070AAXX  13184 83498 32595 41810 10238 20168 30193 40198 82208 333 58008;
0208834980999992003081400004-17733-039250FM-12+000399999V0201801N003612200019N0020001N1+02231+01711102101ADDAA106000091GA1001+999999999GF100991001001999999001001KA1240M+02521MA1999999102051MD1999999+0011REMSYN082AAXX  14004 83498 32995 01807 10223 20171 30205 40210 333 10252 29070 55055 58001;EQDQ01  00002PRCP06
0186834980999992003081412004-17733-039250FM-12+000399999V0202301N001512200019N0020001N1+02261+01821102161ADDAA106000091GF102991021011008001001001KA1240N+01621MA1999999102111MD1999999-0041REMSYN076AAXX  14124 83498 32595 22303 10226 20182 30211 40216 82100 333 20162 59004;EQDQ01  00002PRCP06
0167834980999992003081418004-17733-039250FM-12+000399999V0201401N003112200019N0020001N1+02421+01821101771ADDAA106000091GF102991021011008001001001MA1999999101721MD1999999-0211REMSYN070AAXX  14184 83498 32595 21406 10242 20182 30172 40177 82100 333 59021;EQDQ01  00002PRCP06
0198834980999992003081500004-17733-039250FM-12+000399999V0200501N001012200019N0020001N1+01901+01661101911ADDAA106000091GF102991021011008001001001KA1240M+02581MA1999999101861MD1999999-0191REMSYN088AAXX  15004 83498 32595 20502 10190 20166 30186 40191 82100 333 10258 29079 55084 59019;EQDQ01  00002PRCP06
0186834980999992003081512004-17733-039250FM-12+000399999V0202301N001510450019N0020001N1+02101+01801102001ADDAA106000091GF107991031051008001031001KA1240N+01631MA1999999101951MD1999999-0161REMSYN076AAXX  15124 83498 32595 72303 10210 20180 30195 40200 83530 333 20163 59016;EQDQ01  00002PRCP06
0167834980999992003081518004-17733-039250FM-12+000399999V0200501N002611050019N0020001N1+02421+01881101581ADDAA106000091GF108991031051008001001091MA1999999101531MD1999999-0191REMSYN070AAXX  15184 83498 32595 80505 10242 20188 30153 40158 83509 333 59019;EQDQ01  00002PRCP06
0198834980999992003081600004-17733-039250FM-12+000399999V0200501N001512200019N0020001N1+02101+01981101751ADDAA106000091GF103991021051008001001091KA1240M+02641MA1999999101701MD1999999-0161REMSYN088AAXX  16004 83498 32595 30503 10210 20198 30170 40175 82509 333 10264 29085 55015 59016;EQDQ01  00002PRCP06
0186834980999992003081612004-17733-039250FM-12+000399999V0203601N004612200019N0020001N1+02581+02061101681ADDAA106000091GF103991031011008001001001KA1240N+01871MA1999999101631MD1999999-0321REMSYN076AAXX  16124 83498 32595 33609 10258 20206 30163 40168 83100 333 20187 59032;EQDQ01  00002PRCP06
0167834980999992003081618004-17733-039250FM-12+000399999V0200501N007219999999N0020001N1+02621+02141101281ADDAA106000091GF107991041001999999051091MA1999999101231MD1999999-0301REMSYN070AAXX  16184 83498 32995 70514 10262 20214 30123 40128 84059 333 59030;EQDQ01  00002PRCP06
0190834980999992003081712004-17733-039250FM-12+000399999V0202701N002111050019N0020001N1+02731+02241101711ADDAY161061AY261061GF105991031021008001001091KA1240N+02241MA1999999101661MD1999999+0031MW1031REMSYN088AAXX  17124 83498 21595 52704 10273 20224 30166 40171 70366 83209 333 20224 58003 69934;
0167834980999992003081718004-17733-039250FM-12+000399999V0201801N003110075019N0020001N1+02351+02051101691ADDAA106000091GF108991061071008001021999MA1999999101641MD1999999+0411REMSYN070AAXX  17184 83498 32595 81806 10235 20205 30164 40169 8672/ 333 58041;EQDQ01  00002PRCP06
0186834980999992003081812004-17733-039250FM-12+000399999V0201801N005710075019N0020001N1+02301+01961102281ADDAA106000091GF108991051071008001011999KA1240N+01661MA1999999102231MD1999999+0571REMSYN076AAXX  18124 83498 32595 81811 10230 20196 30223 40228 8571/ 333 20166 58057;EQDQ01  00002PRCP06
0167834980999992003081818004-17733-039250FM-12+000399999V0201401N004110450019N0020001N1+02401+02111102251ADDAA106000091GF106991031051008001011001MA1999999102201MD1999999+0561REMSYN070AAXX  18184 83498 32595 61408 10240 20211 30220 40225 83510 333 58056;EQDQ01  00002PRCP06
0186834980999992003081912004-17733-039250FM-12+000399999V0201401N005110075019N0020001N1+02341+01741102581ADDAA106000091GF108991051051008001021999KA1240N+02091MA1999999102531MD1999999+0301REMSYN076AAXX  19124 83498 32595 81410 10234 20174 30253 40258 8552/ 333 20209 58030;EQDQ01  00002PRCP06
0167834980999992003081918004-17733-039250FM-12+000399999V0201801N004110075019N0020001N1+02311+01651102401ADDAA106000091GF108991051051008001021999MA1999999102351MD1999999+0151REMSYN070AAXX  19184 83498 32595 81808 10231 20165 30235 40240 8552/ 333 58015;EQDQ01  00002PRCP06
0198834980999992003082000004-17733-039250FM-12+000399999V0201401N003110075019N0020001N1+02261+01751102521ADDAA106000091GF108991051051008001021999KA1240M+02501MA1999999102471MD1999999+0061REMSYN088AAXX  20004 83498 32595 81406 10226 20175 30247 40252 8552/ 333 10250 29071 55000 58006;EQDQ01  00002PRCP06
0186834980999992003082012004-17733-039250FM-12+000399999V0201401N004610450019N0020001N1+02441+01421102501ADDAA106000091GF106991011011008001031021KA1240N+02031MA1999999102451MD1999999-0081REMSYN076AAXX  20124 83498 32595 61409 10244 20142 30245 40250 81132 333 20203 59008;EQDQ01  00002PRCP06
0167834980999992003082018004-17733-039250FM-12+000399999V0201401N003610450019N0020001N1+02421+01571102251ADDAA106000091GF107991011011008001051001MA1999999102201MD1999999-0151REMSYN070AAXX  20184 83498 32595 71407 10242 20157 30220 40225 81150 333 59015;EQDQ01  00002PRCP06
0198834980999992003082100004-17733-039250FM-12+000399999V0201401N002610450019N0020001N1+02241+01621102301ADDAA106000091GF106991011011008001011001KA1240M+02581MA1999999102251MD1999999-0221REMSYN088AAXX  21004 83498 32595 61405 10224 20162 30225 40230 81110 333 10258 29062 55067 59022;EQDQ01  00002PRCP06
0186834980999992003082112004-17733-039250FM-12+000399999V0202701N001510450019N0020001N1+02321+01851102261ADDAA106000091GF106991021021008001031091KA1240N+01821MA1999999102211MD1999999-0241REMSYN076AAXX  21124 83498 32595 62703 10232 20185 30221 40226 82239 333 20182 59024;EQDQ01  00002PRCP06
0167834980999992003082118004-17733-039250FM-12+000399999V0201401N003110450019N0020001N1+02421+01881101921ADDAA106000091GF107991041051008001031091MA1999999101871MD1999999-0331REMSYN070AAXX  21184 83498 32595 71406 10242 20188 30187 40192 84539 333 59033;EQDQ01  00002PRCP06
0198834980999992003082200004-17733-039250FM-12+000399999V0201401N002112200019N0020001N1+02241+01981102031ADDAA106000091GF102991021001012501031001KA1240M+02631MA1999999101981MD1999999-0271REMSYN088AAXX  22004 83498 32695 21404 10224 20198 30198 40203 82030 333 10263 29079 55045 59027;EQDQ01  00002PRCP06
0190834980999992003082212004-17733-039250FM-12+000399999V0202301N002110450019N0020001N1+02141+02021102191ADDAY161061AY261061GF107991031071008001011001KA1240N+01921MA1999999102141MD1999999-0071MW1211REMSYN088AAXX  22124 83498 21595 72304 10214 20202 30214 40219 72166 83710 333 20192 59007 69984;
0171834980999992003082218004-17733-039250FM-12+000399999V0201401N001010450019N0020001N1+02321+02131101961ADDAY161061AY221061GF106991031071008001011001MA1999999101911MD1999999+0041MW1211REMSYN082AAXX  22184 83498 21595 61402 10232 20213 30191 40196 72162 83710 333 58004 69941;
0189834980999992003082300004-17733-039250FM-12+000399999V0200901N000512200019N0020001N1+02021+01901102111ADDAA106000021GA1001+999999999GF100991001001999999001001KA1240M+02541MA1999999102061MD1999999+0081REMSYN082AAXX  23004 83498 32595 00901 10202 20190 30206 40211 333 10254 29092 55016 58008;
0190834980999992003082312004-17733-039250FM-12+000399999V0200901N002610450019N0020001N1+02531+01911102231ADDAY161061AY211061GF105991021021008001041001KA1240N+01881MA1999999102181MD1999999+0041MW1211REMSYN088AAXX  23124 83498 21595 50905 10253 20191 30218 40223 72161 82240 333 20188 58004 60014;
0148834980999992003082318004-17733-039250FM-12+000399999V0201401N003112200019N0020001N1+02571+01991101991ADDAA106000021GF104991041021008001001001MA1999999101941MD1999999+0031REMSYN070AAXX  23184 83498 32595 41406 10257 20199 30194 40199 84200 333 58003;
0190834980999992003082412004-17733-039250FM-12+000399999V0202701N000510120019N0020001N1+02401+02151102181ADDAY161061AY221061GF107991071081008001001001KA1240N+02071MA1999999102131MD1999999-0051MW1211REMSYN088AAXX  24124 83498 21595 72701 10240 20215 30213 40218 72162 87800 333 20207 59005 60064;
0171834980999992003082418004-17733-039250FM-12+000399999V0200501N004110075019N0020001N1+02601+02031101751ADDAY161061AY221061GF107991051021008001071021MA1999999101701MD1999999-0241MW1211REMSYN082AAXX  24184 83498 21595 70508 10260 20203 30170 40175 72162 85272 333 59024 60031;
0162834980999992003082512004-17733-039250FM-12+000399999V0200501N004110450019N0020001N1+02591+01971101831ADDGF106991041021008001031081KA1240N+01971MA1999999101781MD1999999-0351REMSYN082AAXX  25124 83498 22595 60508 10259 20197 30178 40183 84238 333 20197 59035 60034;
0167834980999992003082518004-17733-039250FM-12+000399999V0200501N004112200019N0020001N1+02691+01861101471ADDAA106000091GF102991011011008001021001MA1999999101421MD1999999-0281REMSYN070AAXX  25184 83498 32595 20508 10269 20186 30142 40147 81120 333 59028;EQDQ01  00002PRCP06
0186834980999992003082612004-17733-039250FM-12+000399999V0203601N004112200019N0020001N1+02601+02031101711ADDAA106000091GF102991021011008001001001KA1240N+02051MA1999999101661MD1999999-0121REMSYN076AAXX  26124 83498 32595 23608 10260 20203 30166 40171 82100 333 20205 59012;EQDQ01  00002PRCP06
0167834980999992003082618004-17733-039250FM-12+000399999V0200501N004612200019N0020001N1+02741+02021101361ADDAA106000091GF102991011011008001001091MA1999999101311MD1999999-0111REMSYN070AAXX  26184 83498 32595 20509 10274 20202 30131 40136 81109 333 59011;EQDQ01  00002PRCP06
0190834980999992003082712004-17733-039250FM-12+000399999V0201801N005110450019N0020001N1+02361+02071102021ADDAY161061AY221061GF108991031071008001021999KA1240N+02221MA1999999101971MD1999999+0311MW1211REMSYN088AAXX  27124 83498 21595 81810 10236 20207 30197 40202 72162 8372/ 333 20222 58031 60024;
0171834980999992003082718004-17733-039250FM-12+000399999V0201801N005110450019N0020001N1+02301+02131101791ADDAY161061AY221061GF108991041071008001021999MA1999999101741MD1999999+0431MW1211REMSYN082AAXX  27184 83498 21595 81810 10230 20213 30174 40179 72162 8472/ 333 58043 69911;
0202834980999992003082800004-17733-039250FM-12+000399999V0201801N003110450019N0020001N1+02281+02161101971ADDAY161061AY261061GF108991031071008001021999KA1240M+02501MA1999999101921MD1999999+0201MW1211REMSYN100AAXX  28004 83498 21595 81806 10228 20216 30192 40197 72166 8372/ 333 10250 29090 55000 58020 60111;
0162834980999992003082812004-17733-039250FM-12+000399999V0202301N001012200019N0020001N1+02461+02171101951ADDGF103991021051008001041001KA1240N+02041MA1999999101901MD1999999-0071REMSYN082AAXX  28124 83498 22595 32302 10246 20217 30190 40195 82540 333 20204 59007 60114;
0167834980999992003082818004-17733-039250FM-12+000399999V0200901N001510450019N0020001N1+02511+02151101661ADDAA106000091GF106991041051008001011001MA1999999101611MD1999999+0131REMSYN070AAXX  28184 83498 32595 60903 10251 20215 30161 40166 84510 333 58013;EQDQ01  00002PRCP06
0198834980999992003082900004-17733-039250FM-12+000399999V0200901N001010450019N0020001N1+02281+02141101821ADDAA106000091GF106991041051008001011001KA1240M+02741MA1999999101771MD1999999-0151REMSYN088AAXX  29004 83498 32595 60902 10228 20214 30177 40182 84510 333 10274 29087 55025 59015;EQDQ01  00002PRCP06
0186834980999992003082912004-17733-039250FM-12+000399999V0203201N002110450019N0020001N1+02591+02121101921ADDAA106000091GF107991041051008001031081KA1240N+02111MA1999999101871MD1999999-0031REMSYN076AAXX  29124 83498 32595 73204 10259 20212 30187 40192 84538 333 20211 59003;EQDQ01  00002PRCP06
0171834980999992003082918004-17733-039250FM-12+000399999V0201401N001510450019N0020001N1+02461+02271101681ADDAY161061AY221061GF108991041071008001021999MA1999999101631MD1999999+0021MW1501REMSYN082AAXX  29184 83498 21595 81403 10246 20227 30163 40168 75062 8472/ 333 58002 69921;
0237834980999992003083000004-17733-039250FM-12+000399999V0201801N007210450019N0020001N1+02241+02051101981ADDAY161061AY261061GF108991041071008001021999KA1240M+02881MA1999999101931MD1999999+0161MW1211REMSYN100AAXX  30004 83498 21595 81814 10224 20205 33019 40198 72166 8472/ 333 10288 29086 55005 58016 60051;EQDQ01+030191APOSP Q02+999990APOSP 
0190834980999992003083012004-17733-039250FM-12+000399999V0201801N005110075019N0020001N1+02321+02091102151ADDAY161061AY261061GF108991051071008001021999KA1240N+02081MA1999999102101MD1999999+0231MW1211REMSYN088AAXX  30124 83498 21595 81810 10232 20209 30210 40215 72166 8572/ 333 20208 58023 60104;
0171834980999992003083018004-17733-039250FM-12+000399999V0201401N004110450019N0020001N1+02401+02031102031ADDAY161061AY261061GF108991031071008001021999MA1999999101981MD1999999+0351MW1211REMSYN082AAXX  30184 83498 21595 81408 10240 20203 30198 40203 72166 8372/ 333 58035 60011;
0190834980999992003083112004-17733-039250FM-12+000399999V0201401N002110450019N0020001N1+02481+01531102321ADDAY161061AY221061GF107991011011008001071081KA1240N+02191MA1999999102271MD1999999+0181MW1211REMSYN088AAXX  31124 83498 21595 71404 10248 20153 30227 40232 72162 81178 333 20219 58018 60014;
0148834980999992003083118004-17733-039250FM-12+000399999V0201401N002110450019N0020001N1+02501+01891102031ADDAA106000021GF107991021081008001031081MA1999999101981MD1999999+0001REMSYN070AAXX  31184 83498 32595 71404 10250 20189 30198 40203 82838 333 58000;
0186834980999992003090112004-17733-039250FM-12+000399999V0202301N000510075019N0020001N1+02381+02011102241ADDAA106000091GF107991051051008001011001KA1240N+01951MA1999999102191MD1999999-0081REMSYN076AAXX  01124 83498 32595 72301 10238 20201 30219 40224 85510 333 20195 59008;EQDQ01  00002PRCP06
0167834980999992003090118004-17733-039250FM-12+000399999V0200501N002110450019N0020001N1+02511+02001102011ADDAA106000091GF106991041051008001041001MA1999999101961MD1999999-0021REMSYN070AAXX  01184 83498 32595 60504 10251 20200 30196 40201 84540 333 59002;EQDQ01  00002PRCP06
0198834980999992003090200004-17733-039250FM-12+000399999V0200901N000519999999N0020001N1+02101+01981102181ADDAA106000091GF105991001001999999001081KA1240M+02681MA1999999102131MD1999999+0101REMSYN088AAXX  02004 83498 32995 50901 10210 20198 30213 40218 80008 333 10268 29085 55021 58010;EQDQ01  00002PRCP06
0190834980999992003090212004-17733-039250FM-12+000399999V0202601N002110450019N0020001N1+02371+02281102301ADDAY161061AY221061GF107991031051008001021081KA1240N+01971MA1999999102251MD1999999+0061MW1211REMSYN088AAXX  02124 83498 21595 72604 10237 20228 30225 40230 72162 83528 333 20197 58006 60034;
0148834980999992003090218004-17733-039250FM-12+000399999V0201401N002110450019N0020001N1+02551+02131102061ADDAA106000021GF108991021051008001021081MA1999999102011MD1999999+0051REMSYN070AAXX  02184 83498 32595 81404 10255 20213 30201 40206 82528 333 58005;
0198834980999992003090300004-17733-039250FM-12+000399999V0201401N002112200019N0020001N1+02401+02131102261ADDAA106000091GF103991021051008001001081KA1240M+02741MA1999999102211MD1999999+0081REMSYN088AAXX  03004 83498 32595 31404 10240 20213 30221 40226 82508 333 10274 29086 55035 58008;EQDQ01  00002PRCP06
0190834980999992003090312004-17733-039250FM-12+000399999V0201401N005110075019N0020001N1+02481+02151102421ADDAY161061AY221061GF108991051051008001021999KA1240N+02351MA1999999102371MD1999999+0121MW1211REMSYN088AAXX  03124 83498 21595 81410 10248 20215 30237 40242 72162 8552/ 333 20235 58012 69914;
0148834980999992003090318004-17733-039250FM-12+000399999V0201801N007210075019N0020001N1+02381+02011102231ADDAA106000021GF108991051051008001021999MA1999999102181MD1999999+0171REMSYN070AAXX  03184 83498 32595 81814 10238 20201 30218 40223 8552/ 333 58017;
0202834980999992003090400004-17733-039250FM-12+000399999V0201801N006710450019N0020001N1+02311+01901102521ADDAY161061AY221061GF108991021071008001021999KA1240M+02571MA1999999102471MD1999999+0261MW1211REMSYN100AAXX  04004 83498 21595 81813 10231 20190 30247 40252 72162 8272/ 333 10257 29080 55000 58026 69941;
0162834980999992003090412004-17733-039250FM-12+000399999V0201801N005110450019N0020001N1+02341+01871102531ADDGF108991041081008001031011KA1240N+02201MA1999999102481MD1999999+0111REMSYN082AAXX  04124 83498 22595 81810 10234 20187 30248 40253 84831 333 20220 58011 69944;
0167834980999992003090418004-17733-039250FM-12+000399999V0201801N004112200019N0020001N1+02401+01581102451ADDAA106000091GF103991011011008001031051MA1999999102401MD1999999+0221REMSYN070AAXX  04184 83498 32595 31808 10240 20158 30240 40245 81135 333 58022;EQDQ01  00002PRCP06
0198834980999992003090500004-17733-039250FM-12+000399999V0201401N002612200019N0020001N1+02281+01511102601ADDAA106000091GF102991021041008001001001KA1240M+02501MA1999999102551MD1999999+0081REMSYN088AAXX  05004 83498 32595 21405 10228 20151 30255 40260 82400 333 10250 29065 55057 58008;EQDQ01  00002PRCP06
0186834980999992003090512004-17733-039250FM-12+000399999V0201801N006712200019N0020001N1+02421+01721102671ADDAA106000091GF103991021021008001001091KA1240N+02101MA1999999102621MD1999999+0141REMSYN076AAXX  05124 83498 32595 31813 10242 20172 30262 40267 82209 333 20210 58014;EQDQ01  00002PRCP06
0167834980999992003090518004-17733-039250FM-12+000399999V0201801N003112200019N0020001N1+02491+01541102371ADDAA106000091GF103991031021008001001001MA1999999102321MD1999999-0081REMSYN070AAXX  05184 83498 32595 31806 10249 20154 30232 40237 83200 333 59008;EQDQ01  00002PRCP06
0198834980999992003090600004-17733-039250FM-12+000399999V0201401N002112200019N0020001N1+02221+01601102471ADDAA106000091GF103991011021008001021081KA1240M+02631MA1999999102421MD1999999-0131REMSYN088AAXX  06004 83498 32595 31404 10222 20160 30242 40247 81228 333 10263 29064 55085 59013;EQDQ01  00002PRCP06
0186834980999992003090612004-17733-039250FM-12+000399999V0201401N002610450019N0020001N1+02481+01491102511ADDAA106000091GF105991031021008001031001KA1240N+02081MA1999999102461MD1999999-0161REMSYN076AAXX  06124 83498 32595 51405 10248 20149 30246 40251 83230 333 20208 59016;EQDQ01  00002PRCP06
0167834980999992003090618004-17733-039250FM-12+000399999V0201401N003612200019N0020001N1+02481+01731102181ADDAA106000091GF103991011011008001001081MA1999999102131MD1999999-0191REMSYN070AAXX  06184 83498 32595 31407 10248 20173 30213 40218 81108 333 59019;EQDQ01  00002PRCP06
0190834980999992003090712004-17733-039250FM-12+000399999V0201401N004110450019N0020001N1+02481+01901102371ADDAY161061AY261061GF107991021081008001071091KA1240N+02191MA1999999102321MD1999999-0141MW1631REMSYN088AAXX  07124 83498 21595 71408 10248 20190 30232 40237 76366 82879 333 20219 59014 60014;
0171834980999992003090718004-17733-039250FM-12+000399999V0201401N004612200019N0020001N1+02541+01781102101ADDAY161061AY201061GF102991011021008001001091MA1999999102051MD1999999-0081MW1211REMSYN082AAXX  07184 83498 21595 21409 10254 20178 30205 40210 72160 81209 333 59008 60041;
0179834980999992003090800004-17733-039250FM-12+000399999V0200901N001010075019N0020001N1+02281+01771102321ADDAA106000021GF107991051021008001031051KA1240M+02641MA1999999102271MD1999999+0011REMSYN088AAXX  08004 83498 32595 70902 10228 20177 30227 40232 85235 333 10264 29070 55051 58001;
0162834980999992003090812004-17733-039250FM-12+000399999V0201401N003110450019N0020001N1+02481+01921102271ADDGF107991041051008001021081KA1240N+02021MA1999999102221MD1999999-0101REMSYN082AAXX  08124 83498 22595 71406 10248 20192 30222 40227 84528 333 20202 59010 60044;
0202834980999992003090900004-17733-039250FM-12+000399999V0202701N001010450019N0020001N1+02121+02021102121ADDAY161061AY261061GF107991041051008001021001KA1240M+02681MA1999999102071MD1999999-0201MW1211REMSYN100AAXX  09004 83498 21595 72702 10212 20202 30207 40212 72166 84520 333 10268 29086 55030 59020 60021;
0190834980999992003090912004-17733-039250FM-12+000399999V0202301N000510075019N0020001N1+02141+01991102321ADDAY161061AY261061GF108991071061008001021999KA1240N+01971MA1999999102271MD1999999+0051MW1621REMSYN088AAXX  09124 83498 21595 82301 10214 20199 30227 40232 76266 8762/ 333 20197 58005 60174;
0198834980999992003091000004-17733-039250FM-12+000399999V0200901N000512200019N0020001N1+02141+02021102121ADDAA106000091GF102991011011008001001051KA1240M+02591MA1999999102071MD1999999+0001REMSYN088AAXX  10004 83498 32595 20901 10214 20202 30207 40212 81105 333 10259 29088 55002 58000;EQDQ01  00002PRCP06
0162834980999992003091012004-17733-039250FM-12+000399999V0202701N001010075019N0020001N1+02391+02011102111ADDGF106991051021008001001091KA1240N+01861MA1999999102061MD1999999-0211REMSYN082AAXX  10124 83498 22595 62702 10239 20201 30206 40211 85209 333 20186 59021 69914;
0167834980999992003091018004-17733-039250FM-12+000399999V0200501N004110450019N0020001N1+02651+01851101681ADDAA106000091GF105991021021008001021051MA1999999101631MD1999999-0251REMSYN070AAXX  10184 83498 32595 50508 10265 20185 30163 40168 82225 333 59025;EQDQ01  00002PRCP06
0198834980999992003091100004-17733-039250FM-12+000399999V0200501N001012200019N0020001N1+02061+01931101861ADDAA106000091GF102991021011008001001001KA1240M+02761MA1999999101811MD1999999-0261REMSYN088AAXX  11004 83498 32595 20502 10206 20193 30181 40186 82100 333 10276 29082 55084 59026;EQDQ01  00002PRCP06
0186834980999992003091112004-17733-039250FM-12+000399999V0203601N003610075019N0020001N1+02501+02051101881ADDAA106000091GF107991071021008001001001KA1240N+01901MA1999999101831MD1999999-0231REMSYN076AAXX  11124 83498 32595 73607 10250 20205 30183 40188 87200 333 20190 59023;EQDQ01  00002PRCP06
0167834980999992003091118004-17733-039250FM-12+000399999V0200501N003612200019N0020001N1+02721+02051101601ADDAA106000091GF104991041011008001001001MA1999999101551MD1999999-0081REMSYN070AAXX  11184 83498 32595 40507 10272 20205 30155 40160 84100 333 59008;EQDQ01  00002PRCP06
0198834980999992003091200004-17733-039250FM-12+000399999V0201401N002110450019N0020001N1+02341+02051102001ADDAA106000091GF107991041081008001051001KA1240M+02801MA1999999101951MD1999999+0141REMSYN088AAXX  12004 83498 32595 71404 10234 20205 30195 40200 84850 333 10280 29078 55094 58014;EQDQ01  00002PRCP06
0190834980999992003091212004-17733-039250FM-12+000399999V0202301N002110450019N0020001N1+02181+02101102211ADDAY161061AY261061GF108991031071008001021999KA1240N+02171MA1999999102161MD1999999+0331MW1211REMSYN088AAXX  12124 83498 21595 82304 10218 20210 30216 40221 72166 8372/ 333 20217 58033 69944;
0202834980999992003091300004-17733-039250FM-12+000399999V0202701N001510450019N0020001N1+02101+02051102131ADDAY161061AY261061GF107991021071008001011001KA1240M+02441MA1999999102081MD1999999+0131MW1211REMSYN100AAXX  13004 83498 21595 72703 10210 20205 30208 40213 72166 82710 333 10244 29094 55000 58013 69961;
0162834980999992003091312004-17733-039250FM-12+000399999V0200901N001512200019N0020001N1+02481+02171102051ADDGF104991031011008001031001KA1240N+01871MA1999999102001MD1999999-0161REMSYN082AAXX  13124 83498 22595 40903 10248 20217 30200 40205 83130 333 20187 59016 69994;
0167834980999992003091318004-17733-039250FM-12+000399999V0200501N002610075019N0020001N1+02721+01711101731ADDAA106000091GF107991071041008001001001MA1999999101681MD1999999-0251REMSYN070AAXX  13184 83498 32595 70505 10272 20171 30168 40173 87400 333 59025;EQDQ01  00002PRCP06
0167834980999992003091418004-17733-039250FM-12+000399999V0201401N003111050019N0020001N1+02631+02101101741ADDAA106000091GF105991021011008001001091MA1999999101691MD1999999+0011REMSYN070AAXX  14184 83498 32595 51406 10263 20210 30169 40174 82109 333 58001;EQDQ01  00002PRCP06
0190834980999992003091512004-17733-039250FM-12+000399999V0201801N005110450019N0020001N1+02381+01971102111ADDAY161061AY221061GF108991031071008001021001KA1240N+02221MA1999999102061MD1999999+0101MW1211REMSYN088AAXX  15124 83498 21595 81810 10238 20197 30206 40211 72162 83720 333 20222 58010 60094;
0167834980999992003091618004-17733-039250FM-12+000399999V0200901N002612200019N0020001N1+02701+01911101671ADDAA106000091GF101991011011008001001001MA1999999101621MD1999999-0241REMSYN070AAXX  16184 83498 32595 10905 10270 20191 30162 40167 81100 333 59024;EQDQ01  00002PRCP06
0208834980999992003091700004-17733-039250FM-12+000399999V0200501N002112200019N0020001N1+02181+01951101871ADDAA106000091GA1001+999999999GF100991001001999999001001KA1240M+02801MA1999999101821MD1999999-0181REMSYN082AAXX  17004 83498 32995 00504 10218 20195 30182 40187 333 10280 29079 55066 59018;EQDQ01  00002PRCP06
0186834980999992003091712004-17733-039250FM-12+000399999V0203601N001010450019N0020001N1+02531+01981101821ADDAA106000091GF106991041021008001021001KA1240N+01841MA1999999101771MD1999999-0201REMSYN076AAXX  17124 83498 32595 63602 10253 20198 30177 40182 84220 333 20184 59020;EQDQ01  00002PRCP06
0167834980999992003091718004-17733-039250FM-12+000399999V0200901N002112200019N0020001N1+02691+02111101571ADDAA106000091GF104991031021008001001011MA1999999101521MD1999999-0101REMSYN070AAXX  17184 83498 32595 40904 10269 20211 30152 40157 83201 333 59010;EQDQ01  00002PRCP06
0198834980999992003091800004-17733-039250FM-12+000399999V0201401N001510450019N0020001N1+02401+02091101881ADDAA106000091GF105991031071008001021001KA1240M+02841MA1999999101831MD1999999+0011REMSYN088AAXX  18004 83498 32595 51403 10240 20209 30183 40188 83720 333 10284 29077 55100 58001;EQDQ01  00002PRCP06
0190834980999992003091812004-17733-039250FM-12+000399999V0201401N003110450019N0020001N1+02381+02131101931ADDAY161061AY261061GF108991041071008001021999KA1240N+02171MA1999999101881MD1999999+0111MW1211REMSYN088AAXX  18124 83498 21595 81406 10238 20213 30188 40193 72166 8472/ 333 20217 58011 60074;
0171834980999992003091818004-17733-039250FM-12+000399999V0201801N007210075019N0020001N1+02401+02111101761ADDAY161061AY221061GF108991051051008001021999MA1999999101711MD1999999+0191MW1211REMSYN082AAXX  18184 83498 21595 81814 10240 20211 30171 40176 72162 8552/ 333 58019 60031;
0179834980999992003091900004-17733-039250FM-12+000399999V0201801N005110450019N0020001N1+02341+01831101941ADDAA106000021GF106991041051008001011001KA1240M+02641MA1999999101891MD1999999+0061REMSYN088AAXX  19004 83498 32595 61810 10234 20183 30189 40194 84510 333 10264 29079 55013 58006;
0190834980999992003091912004-17733-039250FM-12+000399999V0201401N004110120019N0020001N1+02481+01871101951ADDAY161061AY221061GF107991051081008001031091KA1240N+01991MA1999999101901MD1999999+0021MW1611REMSYN088AAXX  19124 83498 21595 71408 10248 20187 30190 40195 76162 85839 333 20199 58002 60044;
0148834980999992003091918004-17733-039250FM-12+000399999V0201801N002610120019N0020001N1+02421+01931101751ADDAA106000021GF107991071081008001001001MA1999999101701MD1999999-0011REMSYN070AAXX  19184 83498 32595 71805 10242 20193 30170 40175 87800 333 59001;
0208834980999992003092000004-17733-039250FM-12+000399999V0201801N002612200019N0020001N1+02301+01851101941ADDAA106000091GA1001+999999999GF100991001001999999001001KA1240M+02641MA1999999101891MD1999999+0001REMSYN082AAXX  20004 83498 32995 01805 10230 20185 30189 40194 333 10264 29074 55033 58000;EQDQ01  00002PRCP06
0186834980999992003092012004-17733-039250FM-12+000399999V0200901N002610450019N0020001N1+02461+01811102031ADDAA106000091GF106991041051008001021051KA1240N+02171MA1999999101981MD1999999+0081REMSYN076AAXX  20124 83498 32595 60905 10246 20181 30198 40203 84525 333 20217 58008;EQDQ01  00002PRCP06
0167834980999992003092018004-17733-039250FM-12+000399999V0200901N003112200019N0020001N1+02521+02211101771ADDAA106000091GF103991021011008001001081MA1999999101721MD1999999+0021REMSYN070AAXX  20184 83498 32595 30906 10252 20221 30172 40177 82108 333 58002;EQDQ01  00002PRCP06
0208834980999992003092100004-17733-039250FM-12+000399999V0200901N001512200019N0020001N1+01941+01751101931ADDAA106000091GA1001+999999999GF100991001001999999001001KA1240M+02641MA1999999101881MD1999999-0011REMSYN082AAXX  21004 83498 32995 00903 10194 20175 30188 40193 333 10264 29082 55101 59001;EQDQ01  00002PRCP06
0186834980999992003092112004-17733-039250FM-12+000399999V0202301N001012200019N0020001N1+02501+02031102101ADDAA106000091GF104991041021008001001001KA1240N+01791MA1999999102051MD1999999+0071REMSYN076AAXX  21124 83498 32595 42302 10250 20203 30205 40210 84200 333 20179 58007;EQDQ01  00002PRCP06
0167834980999992003092118004-17733-039250FM-12+000399999V0201401N003112200019N0020001N1+02571+02131101831ADDAA106000091GF103991031021008001001001MA1999999101781MD1999999+0061REMSYN070AAXX  21184 83498 32595 31406 10257 20213 30178 40183 83200 333 58006;EQDQ01  00002PRCP06
0186834980999992003092212004-17733-039250FM-12+000399999V0200901N002112200019N0020001N1+02591+01921102131ADDAA106000091GF103991031021008001001001KA1240N+02051MA1999999102081MD1999999+0031REMSYN076AAXX  22124 83498 32595 30904 10259 20192 30208 40213 83200 333 20205 58003;EQDQ01  00002PRCP06
0167834980999992003092218004-17733-039250FM-12+000399999V0200901N002610450019N0020001N1+02501+01721101791ADDAA106000091GF107991021011008001031081MA1999999101741MD1999999-0041REMSYN070AAXX  22184 83498 32595 70905 10250 20172 30174 40179 82138 333 59004;EQDQ01  00002PRCP06
0208834980999992003092400004-17733-039250FM-12+000399999V0200901N001012200019N0020001N1+02081+01721101701ADDAA106000091GA1001+999999999GF100991001001999999001001KA1240M+02791MA1999999101651MD1999999-0251REMSYN082AAXX  24004 83498 32995 00902 10208 20172 30165 40170 333 10279 29069 55097 59025;EQDQ01  00002PRCP06
0186834980999992003092412004-17733-039250FM-12+000399999V0203601N004112200019N0020001N1+02671+01901101671ADDAA106000091GF103991031021008001001001KA1240N+01751MA1999999101621MD1999999-0251REMSYN076AAXX  24124 83498 32595 33608 10267 20190 30162 40167 83200 333 20175 59025;EQDQ01  00002PRCP06
0167834980999992003092418004-17733-039250FM-12+000399999V0203601N005112200019N0020001N1+02711+02031101181ADDAA106000091GF102991021011008001001001MA1999999101131MD1999999-0331REMSYN070AAXX  24184 83498 32595 23610 10271 20203 30113 40118 82100 333 59033;EQDQ01  00002PRCP06
0208834980999992003092500004-17733-039250FM-12+000399999V0203601N003112200019N0020001N1+02361+02071101381ADDAA106000091GA1001+999999999GF100991001001999999001001KA1240M+02841MA1999999101331MD1999999-0321REMSYN082AAXX  25004 83498 32595 03606 10236 20207 30133 40138 333 10284 29075 55100 59032;EQDQ01  00002PRCP06
0196834980999992003092512004-17733-039250FM-12+000399999V0200501N007212200019N0020001N1+02701+01911101481ADDAA106000091GA1001+999999999GF100991001001999999001001KA1240N+02081MA1999999101431MD1999999-0191REMSYN070AAXX  25124 83498 32995 00514 10270 20191 30143 40148 333 20208 59019;EQDQ01  00002PRCP06
0177834980999992003092518004-17733-039250FM-12+000399999V0200501N006712200019N0020001N1+02741+02021101181ADDAA106000091GA1001+999999999GF100991001001999999001001MA1999999101131MD1999999+0001REMSYN064AAXX  25184 83498 32995 00513 10274 20202 30113 40118 333 58000;EQDQ01  00002PRCP06
0208834980999992003092600004-17733-039250FM-12+000399999V0200501N002112200019N0020001N1+02341+02111101501ADDAA106000091GA1001+999999999GF100991001001999999001001KA1240M+02901MA1999999101451MD1999999+0121REMSYN082AAXX  26004 83498 32995 00504 10234 20211 30145 40150 333 10290 29075 55092 58012;EQDQ01  00002PRCP06
0186834980999992003092612004-17733-039250FM-12+000399999V0200501N003112200019N0020001N1+02681+01891101641ADDAA106000091GF106991041021008001001011KA1240N+02061MA1999999101591MD1999999+0161REMSYN076AAXX  26124 83498 32595 60506 10268 20189 30159 40164 84201 333 20206 58016;EQDQ01  00002PRCP06
0167834980999992003092618004-17733-039250FM-12+000399999V0200501N004612200019N0020001N1+02741+01951101151ADDAA106000091GF103991011011008001001081MA1999999101101MD1999999-0031REMSYN070AAXX  26184 83498 32595 30509 10274 20195 30110 40115 81108 333 59003;EQDQ01  00002PRCP06
0208834980999992003092700004-17733-039250FM-12+000399999V0200501N002612200019N0020001N1+02401+02051101331ADDAA106000091GA1001+999999999GF100991001001999999001001KA1240M+02921MA1999999101281MD1999999-0171REMSYN082AAXX  27004 83498 32995 00505 10240 20205 30128 40133 333 10292 29072 55092 59017;EQDQ01  00002PRCP06
0186834980999992003092712004-17733-039250FM-12+000399999V0203601N005712200019N0020001N1+02741+01951101301ADDAA106000091GF101991011011008001001001KA1240N+02101MA1999999101251MD1999999-0341REMSYN076AAXX  27124 83498 32595 13611 10274 20195 30125 40130 81100 333 20210 59034;EQDQ01  00002PRCP06
0177834980999992003092718004-17733-039250FM-12+000399999V0203601N007712200019N0020001N1+02811+02061100771ADDAA106000091GA1001+999999999GF100991001001999999001001MA1999999100721MD1999999-0381REMSYN064AAXX  27184 83498 32995 03615 10281 20206 30072 40077 333 59038;EQDQ01  00002PRCP06
0208834980999992003092800004-17733-039250FM-12+000399999V0203601N005112200019N0020001N1+02481+02171101011ADDAA106000091GA1001+999999999GF100991001001999999001001KA1240M+02981MA1999999100961MD1999999-0321REMSYN082AAXX  28004 83498 32995 03610 10248 20217 30096 40101 333 10298 29073 55104 59032;EQDQ01  00002PRCP06
0186834980999992003092812004-17733-039250FM-12+000399999V0200501N005710075019N0020001N1+02801+02221101351ADDAA106000091GF107991051021008001001051KA1240N+02251MA1999999101301MD1999999+0051REMSYN076AAXX  28124 83498 32595 70511 10280 20222 30130 40135 85205 333 20225 58005;EQDQ01  00002PRCP06
0167834980999992003092818004-17733-039250FM-12+000399999V0200501N005111050019N0020001N1+02781+02301101131ADDAA106000091GF105991031011008001001091MA1999999101081MD1999999+0361REMSYN070AAXX  28184 83498 32595 50510 10278 20230 30108 40113 83109 333 58036;EQDQ01  00002PRCP06
0186834980999992003092912004-17733-039250FM-12+000399999V0200501N004110075019N0020001N1+02681+02261101541ADDAA106000091GF107991051041008001001081KA1240N+02391MA1999999101491MD1999999+0191REMSYN076AAXX  29124 83498 32595 70508 10268 20226 30149 40154 85408 333 20239 58019;EQDQ01  00002PRCP06
0167834980999992003092918004-17733-039250FM-12+000399999V0203601N006711050019N0020001N1+02771+02231101271ADDAA106000091GF106991031011008001001081MA1999999101221MD1999999+0141REMSYN070AAXX  29184 83498 32595 63613 10277 20223 30122 40127 83108 333 58014;EQDQ01  00002PRCP06
0198834980999992003093000004-17733-039250FM-12+000399999V0200501N002611050019N0020001N1+02551+02231101501ADDAA106000091GF108991011011008001001081KA1240M+02921MA1999999101451MD1999999+0181REMSYN088AAXX  30004 83498 32595 80505 10255 20223 30145 40150 81108 333 10292 29079 55031 58018;EQDQ01  00002PRCP06
0186834980999992003093012004-17733-039250FM-12+000399999V0203601N003610075019N0020001N1+02671+02331101581ADDAA106000091GF107991061051008001011001KA1240N+02411MA1999999101531MD1999999+0041REMSYN076AAXX  30124 83498 32595 73607 10267 20233 30153 40158 86510 333 20241 58004;EQDQ01  00002PRCP06
0171834980999992003093018004-17733-039250FM-12+000399999V0201801N005110450019N0020001N1+02281+02161101581ADDAY161061AY261061GF108991041071008001021999MA1999999101531MD1999999+0311MW1211REMSYN082AAXX  30184 83498 21595 81810 10228 20216 30153 40158 72166 8472/ 333 58031 60071;
0202834980999992003100100004-17733-039250FM-12+000399999V0201801N003110450019N0020001N1+02361+02071101781ADDAY161061AY221061GF108991021071008001021999KA1240M+02821MA1999999101731MD1999999+0281MW1211REMSYN100AAXX  01004 83498 21595 81806 10236 20207 30173 40178 72162 8272/ 333 10282 29086 55000 58028 60031;
0162834980999992003100112004-17733-039250FM-12+000399999V0201801N002610120019N0020001N1+02481+02191101801ADDGF108991071081008001071999KA1240N+02271MA1999999101751MD1999999+0221REMSYN082AAXX  01124 83498 22595 81805 10248 20219 30175 40180 8787/ 333 20227 58022 60104;
0167834980999992003100118004-17733-039250FM-12+000399999V0201401N005710075019N0020001N1+02481+02091101651ADDAA106000091GF108991071061008001021999MA1999999101601MD1999999+0071REMSYN070AAXX  01184 83498 32595 81411 10248 20209 30160 40165 8762/ 333 58007;EQDQ01  00002PRCP06
0202834980999992003100200004-17733-039250FM-12+000399999V0201401N004110075019N0020001N1+02321+02151101871ADDAY161061AY221061GF108991071061008001021999KA1240M+02581MA1999999101821MD1999999+0091MW1211REMSYN100AAXX  02004 83498 21595 81408 10232 20215 30182 40187 72162 8762/ 333 10258 29085 55000 58009 60021;
0162834980999992003100212004-17733-039250FM-12+000399999V0201401N003110450019N0020001N1+02581+02041101941ADDGF106991041051008001021051KA1240N+02311MA1999999101891MD1999999+0141REMSYN082AAXX  02124 83498 22595 61406 10258 20204 30189 40194 84525 333 20231 58014 60024;
0167834980999992003100218004-17733-039250FM-12+000399999V0201401N003111050019N0020001N1+02631+01931101651ADDAA106000091GF106991041021008001001081MA1999999101601MD1999999+0001REMSYN070AAXX  02184 83498 32595 61406 10263 20193 30160 40165 84208 333 58000;EQDQ01  00002PRCP06
0198834980999992003100300004-17733-039250FM-12+000399999V0200901N002111050019N0020001N1+02381+01891101871ADDAA106000091GF105991011011008001001091KA1240M+02721MA1999999101821MD1999999+0001REMSYN088AAXX  03004 83498 32595 50904 10238 20189 30182 40187 81109 333 10272 29072 55069 58000;EQDQ01  00002PRCP06
0186834980999992003100312004-17733-039250FM-12+000399999V0201401N002112200019N0020001N1+02611+01941102001ADDAA106000091GF105991041021008001001011KA1240N+02201MA1999999101951MD1999999+0061REMSYN076AAXX  03124 83498 32595 51404 10261 20194 30195 40200 84201 333 20220 58006;EQDQ01  00002PRCP06
0167834980999992003100318004-17733-039250FM-12+000399999V0201401N002612200019N0020001N1+02671+01951101711ADDAA106000091GF103991021011008001001011MA1999999101661MD1999999+0061REMSYN070AAXX  03184 83498 32595 31405 10267 20195 30166 40171 82101 333 58006;EQDQ01  00002PRCP06
0208834980999992003100400004-17733-039250FM-12+000399999V0200901N001512200019N0020001N1+02241+01881101931ADDAA106000091GA1001+999999999GF100991001001999999001001KA1240M+02851MA1999999101881MD1999999+0061REMSYN082AAXX  04004 83498 32595 00903 10224 20188 30188 40193 333 10285 29073 55104 58006;EQDQ01  00002PRCP06
0186834980999992003100412004-17733-039250FM-12+000399999V0200901N002610075019N0020001N1+02571+02041102061ADDAA106000091GF106991051051008001031051KA1240N+01961MA1999999102011MD1999999+0061REMSYN076AAXX  04124 83498 32595 60905 10257 20204 30201 40206 85535 333 20196 58006;EQDQ01  00002PRCP06
0167834980999992003100418004-17733-039250FM-12+000399999V0201401N002610075019N0020001N1+02581+01971101741ADDAA106000091GF106991061021008001001001MA1999999101691MD1999999+0031REMSYN070AAXX  04184 83498 32595 61405 10258 20197 30169 40174 86200 333 58003;EQDQ01  00002PRCP06
0198834980999992003100500004-17733-039250FM-12+000399999V0201401N002110075019N0020001N1+02351+01891101921ADDAA106000091GF105991051021008001001001KA1240M+02801MA1999999101781MD1999999-0011REMSYN088AAXX  05004 83498 32595 51404 10235 20189 30178 40192 85200 333 10280 29074 55075 59001;EQDQ01  00002PRCP06
0186834980999992003100512004-17733-039250FM-12+000399999V0202301N001510450019N0020001N1+02501+01941101881ADDAA106000091GF105991021051008001041001KA1240N+01901MA1999999101831MD1999999-0181REMSYN076AAXX  05124 83498 32595 52303 10250 20194 30183 40188 82540 333 20190 59018;EQDQ01  00002PRCP06
0167834980999992003100518004-17733-039250FM-12+000399999V0201401N001512200019N0020001N1+02671+01921101491ADDAA106000091GF102991021011008001001001MA1999999101441MD1999999-0251REMSYN070AAXX  05184 83498 32595 21403 10267 20192 30144 40149 82100 333 59025;EQDQ01  00002PRCP06
0198834980999992003100600004-17733-039250FM-12+000399999V0200901N001512200019N0020001N1+02301+01981101651ADDAA106000091GF101991011011008001001001KA1240M+02821MA1999999101601MD1999999-0271REMSYN088AAXX  06004 83498 32595 10903 10230 20198 30160 40165 81100 333 10282 29075 55074 59027;EQDQ01  00002PRCP06
0186834980999992003100612004-17733-039250FM-12+000399999V0200501N002610075019N0020001N1+02591+01971101701ADDAA106000091GF106991061041008001001001KA1240N+01981MA1999999101651MD1999999-0181REMSYN076AAXX  06124 83498 32595 60505 10259 20197 30165 40170 86400 333 20198 59018;EQDQ01  00002PRCP06
0167834980999992003100618004-17733-039250FM-12+000399999V0200501N004110075019N0020001N1+02681+01991101301ADDAA106000091GF105991051021008001001001MA1999999101251MD1999999-0171REMSYN070AAXX  06184 83498 32595 50508 10268 20199 30125 40130 85200 333 59017;EQDQ01  00002PRCP06
0198834980999992003100700004-17733-039250FM-12+000399999V0200501N003112200019N0020001N1+02401+02151101571ADDAA106000091GF104991031021008001001081KA1240M+02841MA1999999101521MD1999999-0081REMSYN088AAXX  07004 83498 32595 40506 10240 20215 30152 40157 83208 333 10284 29077 55099 59008;EQDQ01  00002PRCP06
0190834980999992003100712004-17733-039250FM-12+000399999V0200501N002610450019N0020001N1+02611+02291101721ADDAY161061AY221061GF107991041051008001011001KA1240N+02281MA1999999101671MD1999999+0021MW1211REMSYN088AAXX  07124 83498 21595 70505 10261 20229 30167 40172 72162 84510 333 20228 58002 60034;
0148834980999992003100718004-17733-039250FM-12+000399999V0203601N005112200019N0020001N1+02801+02181101391ADDAA106000021GF102991021011008001001001MA1999999101341MD1999999+0091REMSYN070AAXX  07184 83498 32595 23610 10280 20218 30134 40139 82100 333 58009;
0198834980999992003100800004-17733-039250FM-12+000399999V0200501N003112200019N0020001N1+02481+02211101621ADDAA106000091GF103991031021008001001001KA1240M+02901MA1999999101571MD1999999+0051REMSYN088AAXX  08004 83498 32595 30506 10248 20221 30157 40162 83200 333 10290 29081 55075 58005;EQDQ01  00002PRCP06
0186834980999992003100812004-17733-039250FM-12+000399999V0200501N006711050019N0020001N1+02761+02041101731ADDAA106000091GF106991041021008001001081KA1240N+02411MA1999999101681MD1999999+0011REMSYN076AAXX  08124 83498 32595 60513 10276 20204 30168 40173 84208 333 20241 58001;EQDQ01  00002PRCP06
0167834980999992003100818004-17733-039250FM-12+000399999V0200501N006711050019N0020001N1+02811+02081101401ADDAA106000091GF106991041021008001001081MA1999999101351MD1999999+0011REMSYN070AAXX  08184 83498 32595 60513 10281 20208 30135 40140 84208 333 58001;EQDQ01  00002PRCP06
0198834980999992003100900004-17733-039250FM-12+000399999V0200501N003112200019N0020001N1+02501+02191101731ADDAA106000091GF106991041021008001001011KA1240M+02921MA1999999101681MD1999999+0111REMSYN088AAXX  09004 83498 32595 60506 10250 20219 30168 40173 84201 333 10292 29074 55095 58011;EQDQ01  00002PRCP06
0186834980999992003100912004-17733-039250FM-12+000399999V0203601N006712200019N0020001N1+02771+02021101721ADDAA106000091GF105991031021008001001081KA1240N+02411MA1999999101671MD1999999-0011REMSYN076AAXX  09124 83498 32595 53613 10277 20202 30167 40172 83208 333 20241 59001;EQDQ01  00002PRCP06
0167834980999992003100918004-17733-039250FM-12+000399999V0200501N006712200019N0020001N1+02851+01881101301ADDAA106000091GF103991001001999999001081MA1999999101251MD1999999-0101REMSYN070AAXX  09184 83498 32995 30513 10285 20188 30125 40130 80008 333 59010;EQDQ01  00002PRCP06
0198834980999992003101000004-17733-039250FM-12+000399999V0200501N004119999999N0020001N1+02481+02111101551ADDAA106000091GF105991001001999999001081KA1240M+03001MA1999999101501MD1999999-0181REMSYN088AAXX  10004 83498 32995 50508 10248 20211 30150 40155 80008 333 10300 29070 55089 59018;EQDQ01  00002PRCP06
0186834980999992003101012004-17733-039250FM-12+000399999V0203601N006210075019N0020001N1+02771+01891101621ADDAA106000091GF106991051021008001001011KA1240N+02241MA1999999101571MD1999999-0101REMSYN076AAXX  10124 83498 32595 63612 10277 20189 30157 40162 85201 333 20224 59010;EQDQ01  00002PRCP06
0167834980999992003101018004-17733-039250FM-12+000399999V0200501N005712200019N0020001N1+02791+02041101321ADDAA106000091GF104991001001999999001051MA1999999101271MD1999999+0021REMSYN070AAXX  10184 83498 32995 40511 10279 20204 30127 40132 80005 333 58002;EQDQ01  00002PRCP06
0198834980999992003101100004-17733-039250FM-12+000399999V0200501N002119999999N0020001N1+02361+02091101551ADDAA106000091GF105991001001999999001011KA1240M+02961MA1999999101501MD1999999+0001REMSYN088AAXX  11004 83498 32995 50504 10236 20209 30150 40155 80001 333 10296 29073 55099 58000;EQDQ01  00002PRCP06
0186834980999992003101112004-17733-039250FM-12+000399999V0203601N004112200019N0020001N1+02811+01981101681ADDAA106000091GF103991031021008001001001KA1240N+02041MA1999999101631MD1999999+0061REMSYN076AAXX  11124 83498 32595 33608 10281 20198 30163 40168 83200 333 20204 58006;EQDQ01  00002PRCP06
0167834980999992003101118004-17733-039250FM-12+000399999V0200501N005112200019N0020001N1+02801+02081101351ADDAA106000091GF102991021011008001001001MA1999999101301MD1999999+0031REMSYN070AAXX  11184 83498 32595 20510 10280 20208 30130 40135 82100 333 58003;EQDQ01  00002PRCP06
0208834980999992003101200004-17733-039250FM-12+000399999V0200501N002112200019N0020001N1+02361+02071101481ADDAA106000091GA1001+999999999GF100991001001999999001001KA1240M+02981MA1999999101431MD1999999-0071REMSYN082AAXX  12004 83498 32995 00504 10236 20207 30143 40148 333 10298 29074 55080 59007;EQDQ01  00002PRCP06
0186834980999992003101212004-17733-039250FM-12+000399999V0200501N003111050019N0020001N1+02751+01921101581ADDAA106000091GF106991041021008001001081KA1240N+02211MA1999999101531MD1999999-0101REMSYN076AAXX  12124 83498 32595 60506 10275 20192 30153 40158 84208 333 20221 59010;EQDQ01  00002PRCP06
0167834980999992003101218004-17733-039250FM-12+000399999V0200901N002619999999N0020001N1+02741+01921101401ADDAA106000091GF107991001001999999001071MA1999999101351MD1999999-0051REMSYN070AAXX  12184 83498 32995 70905 10274 20192 30135 40140 80007 333 59005;EQDQ01  00002PRCP06
0198834980999992003101300004-17733-039250FM-12+000399999V0201801N005111050019N0020001N1+02461+02131101711ADDAA106000091GF108991041001002501021071KA1240M+02941MA1999999101661MD1999999+0231REMSYN088AAXX  13004 83498 32395 81810 10246 20213 30166 40171 84027 333 10294 29072 55033 58023;EQDQ01  00002PRCP06
0190834980999992003101312004-17733-039250FM-12+000399999V0201801N004610450019N0020001N1+02361+02261101761ADDAY161061AY261061GF108991031071008001021999KA1240N+02251MA1999999101711MD1999999+0181MW1211REMSYN088AAXX  13124 83498 21595 81809 10236 20226 30171 40176 72166 8372/ 333 20225 58018 60154;
0171834980999992003101318004-17733-039250FM-12+000399999V0201801N007210450019N0020001N1+02301+01601101601ADDAY161061AY261061GF108991031071008001021999MA1999999101551MD1999999+0201MW1211REMSYN082AAXX  13184 83498 21595 81814 10230 20160 30155 40160 72166 8372/ 333 58020 60061;
0202834980999992003101400004-17733-039250FM-12+000399999V0201801N005110075019N0020001N1+02201+01941101891ADDAY161061AY221061GF108991051061008001021999KA1240M+02621MA1999999101841MD1999999+0181MW1211REMSYN100AAXX  14004 83498 21595 81810 10220 20194 30184 40189 72162 8562/ 333 10262 29089 55000 58018 60081;
0190834980999992003101412004-17733-039250FM-12+000399999V0201801N006210450019N0020001N1+02481+01831101971ADDAY161061AY261061GF107991031051008001031001KA1240N+02181MA1999999101921MD1999999+0211MW1211REMSYN088AAXX  14124 83498 21595 71812 10248 20183 30192 40197 72166 83530 333 20218 58021 60144;
0148834980999992003101418004-17733-039250FM-12+000399999V0201801N005110450019N0020001N1+02501+01671101931ADDAA106000021GF107991021051008001021081MA1999999101881MD1999999+0331REMSYN070AAXX  14184 83498 32595 71810 10250 20167 30188 40193 82528 333 58033;
0198834980999992003101500004-17733-039250FM-12+000399999V0201801N006210450019N0020001N1+02381+01751102051ADDAA106000091GF108991021051008001021999KA1240M+02621MA1999999102001MD1999999+0161REMSYN088AAXX  15004 83498 32595 81812 10238 20175 30200 40205 8252/ 333 10262 29066 55020 58016;EQDQ01  00002PRCP06
0190834980999992003101512004-17733-039250FM-12+000399999V0201801N005110450019N0020001N1+02461+01781102071ADDAY161061AY221061GF107991021071008001011001KA1240N+02261MA1999999102021MD1999999+0101MW1211REMSYN088AAXX  15124 83498 21595 71810 10246 20178 30202 40207 72162 82710 333 20226 58010 60044;
0148834980999992003101518004-17733-039250FM-12+000399999V0201801N006710450019N0020001N1+02401+01601101941ADDAA106000021GF107991041051008001011001MA1999999101891MD1999999+0011REMSYN070AAXX  15184 83498 32595 71813 10240 20160 30189 40194 84510 333 58001;
0198834980999992003101600004-17733-039250FM-12+000399999V0201801N006210450019N0020001N1+02301+01651102161ADDAA106000091GF108991041061008001021999KA1240M+02521MA1999999102111MD1999999+0111REMSYN088AAXX  16004 83498 32595 81812 10230 20165 30211 40216 8462/ 333 10252 29065 55000 58011;EQDQ01  00002PRCP06
0167834980999992003101618004-17733-039250FM-12+000399999V0201801N005110075019N0020001N1+02421+01541101891ADDAA106000091GF105991051021008001001001MA1999999101841MD1999999-0051REMSYN070AAXX  16184 83498 32595 51810 10242 20154 30184 40189 85200 333 59005;EQDQ01  00002PRCP06
0198834980999992003101700004-17733-039250FM-12+000399999V0201801N005112200019N0020001N1+02231+01221102151ADDAA106000091GF103991011021008001001081KA1240M+02531MA1999999102101MD1999999-0011REMSYN088AAXX  17004 83498 32595 31810 10223 20122 30210 40215 81208 333 10253 29055 55064 59001;EQDQ01  00002PRCP06
0156834980999992003101712004-17733-039250FM-12+000399999V0202301N003119999999N0020001N1+02141+01661999999ADDAA106000091GF107991999999008001999999KA1240N+01871REMSYN075AAXX  17124 83498 32595 72306 10214 20166 3098 40203 84670 333 20187 59012;EQDQ01  00002PRCP06
0167834980999992003101718004-17733-039250FM-12+000399999V0201401N003112200019N0020001N1+02431+01541101661ADDAA106000091GF102991021011008001001001MA1999999101611MD1999999-0231REMSYN070AAXX  17184 83498 32595 21406 10243 20154 30161 40166 82100 333 59023;EQDQ01  00002PRCP06
0208834980999992003101800004-17733-039250FM-12+000399999V0200901N001012200019N0020001N1+02081+01371101881ADDAA106000091GA1001+999999999GF100991001001999999001001KA1240M+02491MA1999999101831MD1999999-0271REMSYN082AAXX  18004 83498 32995 00902 10208 20137 30183 40188 333 10249 29065 55056 59027;EQDQ01  00002PRCP06
0186834980999992003101812004-17733-039250FM-12+000399999V0201801N001012200019N0020001N1+02421+01541101961ADDAA106000091GF104991041011008001001001KA1240N+01541MA1999999101911MD1999999-0071REMSYN076AAXX  18124 83498 32595 41802 10242 20154 30191 40196 84100 333 20154 59007;EQDQ01  00002PRCP06
0167834980999992003101818004-17733-039250FM-12+000399999V0201401N002612200019N0020001N1+02511+01531101661ADDAA106000091GF102991021011008001001001MA1999999101611MD1999999+0001REMSYN070AAXX  18184 83498 32595 21405 10251 20153 30161 40166 82100 333 58000;EQDQ01  00002PRCP06
0208834980999992003101900004-17733-039250FM-12+000399999V0200901N001012200019N0020001N1+01901+01531101891ADDAA106000091GA1001+999999999GF100991001001999999001001KA1240M+02621MA1999999101841MD1999999+0011REMSYN082AAXX  19004 83498 32995 00902 10190 20153 30184 40189 333 10262 29068 55106 58001;EQDQ01  00002PRCP06
0186834980999992003101912004-17733-039250FM-12+000399999V0200901N002110075019N0020001N1+02571+01621102001ADDAA106000091GF105991051021008001001001KA1240N+01571MA1999999101951MD1999999+0041REMSYN076AAXX  19124 83498 32595 50904 10257 20162 30195 40200 85200 333 20157 58004;EQDQ01  00002PRCP06
0167834980999992003101918004-17733-039250FM-12+000399999V0200501N003612200019N0020001N1+02651+01511101601ADDAA106000091GF103991001001999999001021MA1999999101551MD1999999-0061REMSYN070AAXX  19184 83498 32995 30507 10265 20151 30155 40160 80002 333 59006;EQDQ01  00002PRCP06
0186834980999992003102012004-17733-039250FM-12+000399999V0203601N005712200019N0020001N1+02571+01621101761ADDAA106000091GF101991011011008001001001KA1240N+01571MA1999999101711MD1999999-0241REMSYN076AAXX  20124 83498 32595 13611 10257 20162 30171 40176 81100 333 20157 59024;EQDQ01  00002PRCP06
0183834980999992003102018004-17733-039250FM-12+000399999V0200501N005112200019N0020001N1+02741+01671101331ADDAA106000091GF102991001001999999001081MA1999999101281MD1999999-0271REMSYN070AAXX  20184 83498 32795 20510 10274 20167 30128 40133 80008 333 59027;EQDQ01+017502SCOLCBQ02  00002PRCP06
0208834980999992003102100004-17733-039250FM-12+000399999V0200501N002612200019N0020001N1+02221+01991101551ADDAA106000091GA1001+999999999GF100991001001999999001001KA1240M+02831MA1999999101501MD1999999-0191REMSYN082AAXX  21004 83498 32995 00505 10222 20199 30150 40155 333 10283 29071 55105 59019;EQDQ01  00002PRCP06
0186834980999992003102112004-17733-039250FM-12+000399999V0203601N005111050019N0020001N1+02771+02041101561ADDAA106000091GF105991031021008001001021KA1240N+02081MA1999999101511MD1999999-0201REMSYN076AAXX  21124 83498 32595 53610 10277 20204 30151 40156 83202 333 20208 59020;EQDQ01  00002PRCP06
0183834980999992003102118004-17733-039250FM-12+000399999V0203601N005712200019N0020001N1+02811+02061101121ADDAA106000091GF103991001001999999001021MA1999999101071MD1999999-0211REMSYN070AAXX  21184 83498 32795 33611 10281 20206 30107 40112 80002 333 59021;EQDQ01+017502SCOLCBQ02  00002PRCP06
0208834980999992003102200004-17733-039250FM-12+000399999V0200501N004112200019N0020001N1+02421+02111101331ADDAA106000091GA1001+999999999GF100991001001999999001001KA1240M+02951MA1999999101281MD1999999-0221REMSYN082AAXX  22004 83498 32995 00508 10242 20211 30128 40133 333 10295 29074 55100 59022;EQDQ01  00002PRCP06
0186834980999992003102212004-17733-039250FM-12+000399999V0203601N005710075019N0020001N1+02801+02181101421ADDAA106000091GF106991051041008001001081KA1240N+02301MA1999999101371MD1999999-0141REMSYN076AAXX  22124 83498 32595 63611 10280 20218 30137 40142 85408 333 20230 59014;EQDQ01  00002PRCP06
0167834980999992003102218004-17733-039250FM-12+000399999V0200501N008719999999N0200001N1+02811+02181100951ADDAA106000091GF106991001001999999001071MA1999999100901MD1999999-0171REMSYN070AAXX  22184 83498 32998 60517 10281 20218 30090 40095 80007 333 59017;EQDQ01  00002PRCP06
0198834980999992003102300004-17733-039250FM-12+000399999V0200501N005711050019N0020001N1+02511+02271101261ADDAA106000091GF106991021021008001001071KA1240M+02941MA1999999101211MD1999999-0071REMSYN088AAXX  23004 83498 32595 60511 10251 20227 30121 40126 82207 333 10294 29078 55100 59007;EQDQ01  00002PRCP06
0186834980999992003102312004-17733-039250FM-12+000399999V0203601N004610450019N0020001N1+02791+02091101581ADDAA106000091GF105991041021008001041001KA1240N+02401MA1999999101531MD1999999+0161REMSYN076AAXX  23124 83498 32595 53609 10279 20209 30153 40158 84240 333 20240 58016;EQDQ01  00002PRCP06
0183834980999992003102318004-17733-039250FM-12+000399999V0200501N005112200019N0020001N1+02801+02151101371ADDAA106000091GF102991001001999999001081MA1999999101321MD1999999+0421REMSYN070AAXX  23184 83498 32595 20510 10280 20215 30132 40137 80008 333 58042;EQDQ01+008002SCOLCBQ02  00002PRCP06
0206834980999992003102412004-17733-039250FM-12+000399999V0203201N002112200019N0020001N1+02571+02311102011ADDAY161061AY221061GA1001+999999999GF100991001001999999001001KA1240N+02281MA1999999101991MD1999999+0461MW1211REMSYN088AAXX  24124 83498 21595 03204 10257 20231 30199 40201 72162 8452/ 333 20228 58046 60014;
0148834980999992003102418004-17733-039250FM-12+000399999V0200901N003110450019N0020001N1+02621+02251101791ADDAA106000021GF106991031051008001021081MA1999999101741MD1999999+0421REMSYN070AAXX  24184 83498 32595 60906 10262 20225 30174 40179 83528 333 58042;
0198834980999992003102500004-17733-039250FM-12+000399999V0200901N002610450019N0020001N1+02461+02211101991ADDAA106000091GF108991021051008001021999KA1240M+02961MA1999999101941MD1999999+0201REMSYN088AAXX  25004 83498 32595 80905 10246 20221 30194 40199 8252/ 333 10296 29084 55018 58020;EQDQ01  00002PRCP06
0186834980999992003102512004-17733-039250FM-12+000399999V0200501N002610450019N0020001N1+02611+01941101931ADDAA106000091GF108991041051008001021999KA1240N+02411MA1999999101881MD1999999-0111REMSYN076AAXX  25124 83498 32595 80505 10261 20194 30188 40193 8452/ 333 20241 59011;EQDQ01  00002PRCP06
0167834980999992003102518004-17733-039250FM-12+000399999V0200901N002610450019N0020001N1+02611+02191101591ADDAA106000091GF108991031071008001021999MA1999999101541MD1999999-0201REMSYN070AAXX  25184 83498 32595 80905 10261 20219 30154 40159 8372/ 333 59020;EQDQ01  00002PRCP06
0202834980999992003102600004-17733-039250FM-12+000399999V0200901N001510450019N0020001N1+02401+02171101731ADDAY161061AY221061GF106991041061008001011001KA1240M+02691MA1999999101681MD1999999+0261MW1211REMSYN100AAXX  26004 83498 21595 60903 10240 20217 30168 40173 72162 84610 333 10269 29082 55000 58026 69961;
0190834980999992003102612004-17733-039250FM-12+000399999V0200501N004611050019N0020001N1+02691+02041101731ADDAY161061AY261061GF105991031051008001001021KA1240N+02331MA1999999101681MD1999999-0201MW1211REMSYN088AAXX  26124 83498 21595 50509 10269 20204 30168 40173 72166 83502 333 20233 59020 60014;
0148834980999992003102618004-17733-039250FM-12+000399999V0200501N004110075019N0020001N1+02751+02021101481ADDAA106000021GF106991061021008001001001MA1999999101431MD1999999-0111REMSYN070AAXX  26184 83498 32595 60508 10275 20202 30143 40148 86200 333 59011;
0198834980999992003102700004-17733-039250FM-12+000399999V0200501N001512200019N0020001N1+02331+02021101581ADDAA106000091GF103991011011008001001081KA1240M+02901MA1999999101531MD1999999-0151REMSYN088AAXX  27004 83498 32595 30503 10233 20202 30153 40158 81108 333 10290 29075 55100 59015;EQDQ01  00002PRCP06
0186834980999992003102712004-17733-039250FM-12+000399999V0200501N004112200019N0020001N1+02741+01781101621ADDAA106000091GF103991031021008001001001KA1240N+01971MA1999999101571MD1999999-0111REMSYN076AAXX  27124 83498 32595 30508 10274 20178 30157 40162 83200 333 20197 59011;EQDQ01  00002PRCP06
0167834980999992003102718004-17733-039250FM-12+000399999V0200501N002612200019N0020001N1+02821+02001101351ADDAA106000091GF102991021011008001001001MA1999999101301MD1999999-0131REMSYN070AAXX  27184 83498 32595 20505 10282 20200 30130 40135 82100 333 59013;EQDQ01  00002PRCP06
0208834980999992003102800004-17733-039250FM-12+000399999V0200501N001512200019N0020001N1+02371+02031101661ADDAA106000091GA1001+999999999GF100991001001999999001001KA1240M+02961MA1999999101611MD1999999+0081REMSYN082AAXX  28004 83498 32995 00503 10237 20203 30161 40166 333 10296 29070 55099 58008;EQDQ01  00002PRCP06
0186834980999992003102812004-17733-039250FM-12+000399999V0200901N003610075019N0020001N1+02771+02071101801ADDAA106000091GF106991061021008001001001KA1240N+02251MA1999999101751MD1999999+0181REMSYN076AAXX  28124 83498 32595 60907 10277 20207 30175 40180 86200 333 20225 58018;EQDQ01  00002PRCP06
0167834980999992003102818004-17733-039250FM-12+000399999V0200901N003612200019N0020001N1+02831+02001101581ADDAA106000091GF103991021021008001001021MA1999999101531MD1999999+0231REMSYN070AAXX  28184 83498 32595 30907 10283 20200 30153 40158 82202 333 58023;EQDQ01  00002PRCP06
0198834980999992003102900004-17733-039250FM-12+000399999V0200901N002111050019N0020001N1+02461+02011101831ADDAA106000091GF105991011011008001001021KA1240M+02921MA1999999101781MD1999999+0171REMSYN088AAXX  29004 83498 32595 50904 10246 20201 30178 40183 81102 333 10292 29070 55109 58017;EQDQ01  00002PRCP06
0190834980999992003102912004-17733-039250FM-12+000399999V0201401N003111050019N0020001N1+02651+02071101801ADDAY161061AY221061GF106991041021008001001021KA1240N+02281MA1999999101751MD1999999+0001MW1211REMSYN088AAXX  29124 83498 21595 61406 10265 20207 30175 40180 72162 84202 333 20228 58000 69944;
0148834980999992003102918004-17733-039250FM-12+000399999V0200901N003111050019N0020001N1+02731+01981101511ADDAA106000021GF105991031021008001001021MA1999999101461MD1999999-0071REMSYN070AAXX  29184 83498 32595 50906 10273 20198 30146 40151 83202 333 59007;
0198834980999992003103000004-17733-039250FM-12+000399999V0200901N001512200019N0020001N1+02461+02091101721ADDAA106000091GF103991031061008001001001KA1240M+02941MA1999999101671MD1999999-0111REMSYN088AAXX  30004 83498 32595 30903 10246 20209 30167 40172 83600 333 10294 29074 55103 59011;EQDQ01  00002PRCP06
0190834980999992003103012004-17733-039250FM-12+000399999V0200501N002110450019N0020001N1+02611+02031101681ADDAY161061AY221061GF107991031041008001021081KA1240N+02251MA1999999101631MD1999999-0121MW1211REMSYN088AAXX  30124 83498 21595 70504 10261 20203 30163 40168 72162 83428 333 20225 59012 69954;
0171834980999992003103018004-17733-039250FM-12+000399999V0200901N001510450019N0020001N1+02531+02231101391ADDAY161061AY261061GF108991031051008001021081MA1999999101341MD1999999-0121MW1211REMSYN082AAXX  30184 83498 21595 80903 10253 20223 30134 40139 72166 83528 333 59012 60021;
0179834980999992003103100004-17733-039250FM-12+000399999V0200501N001010450019N0020001N1+02441+02111101621ADDAA106000021GF108991021051008001021999KA1240M+02841MA1999999101571MD1999999-0101REMSYN088AAXX  31004 83498 32595 80502 10244 20211 30157 40162 8252/ 333 10284 29080 55012 59010;
0162834980999992003103112004-17733-039250FM-12+000399999V0200901N002110450019N0020001N1+02711+02131101571ADDGF106991041051008001041001KA1240N+02351MA1999999101521MD1999999-0111REMSYN082AAXX  31124 83498 22595 60904 10271 20213 30152 40157 84540 333 20235 59011 60024;
0167834980999992003103118004-17733-039250FM-12+000399999V0201401N002610450019N0020001N1+02711+02221101261ADDAA106000091GF106991031051008001041001MA1999999101211MD1999999-0131REMSYN070AAXX  31184 83498 32595 61405 10271 20222 30121 40126 83540 333 59013;EQDQ01  00002PRCP06
0198834980999992003110100004-17733-039250FM-12+000399999V0200501N002610450019N0020001N1+02451+02171101481ADDAA106000091GF106991021021008001031081KA1240M+02901MA1999999101431MD1999999-0141REMSYN088AAXX  01004 83498 32595 60505 10245 20217 30143 40148 82238 333 10290 29079 55057 59014;EQDQ01  00002PRCP06
0190834980999992003110112004-17733-039250FM-12+000399999V0203601N004110450019N0020001N1+02531+02171101521ADDAY161061AY261061GF106991031051008001021001KA1240N+02361MA1999999101141MD1999999-0051MW1211REMSYN088AAXX  01124 83498 21595 63608 10253 20217 30114 40152 72166 83520 333 20236 59005 60044;
0148834980999992003110118004-17733-039250FM-12+000399999V0200501N004112200019N0020001N1+02861+02161101211ADDAA106000021GF105991021021008001021091MA1999999101161MD1999999-0051REMSYN070AAXX  01184 83498 32595 50508 10286 20216 30116 40121 82229 333 59005;
0198834980999992003110200004-17733-039250FM-12+000399999V0200501N003112200019N0020001N1+02461+02151101331ADDAA106000091GF103991011011008001001011KA1240M+02941MA1999999101281MD1999999-0151REMSYN088AAXX  02004 83498 32595 30506 10246 20215 30128 40133 81101 333 10294 29078 55069 59015;EQDQ01  00002PRCP06
0186834980999992003110212004-17733-039250FM-12+000399999V0203601N004110450019N0020001N1+02791+02181101521ADDAA106000091GF106991041051008001041001KA1240N+02391MA1999999101471MD1999999+0001REMSYN076AAXX  02124 83498 32595 63608 10279 20218 30147 40152 84540 333 20239 58000;EQDQ01  00002PRCP06
0167834980999992003110218004-17733-039250FM-12+000399999V0200501N005112200019N0020001N1+02851+02171100861ADDAA106000091GF104991021021008001001021MA1999999100811MD1999999-0351REMSYN070AAXX  02184 83498 32595 40510 10285 20217 30081 40086 82202 333 59035;EQDQ01  00002PRCP06
0167834980999992003110300004-17733-039250FM-12+000399999V0203601N003619999999N0020001N1+99999+99999999999ADDAA106000091GF108991999999008001999999KA1240M+03041REMSYN086AAXX  03004 83498 32595 83607 102 20229 30116 40121 8372/ 333 10304 29077 55089 59012;EQDQ01  00002PRCP06
0190834980999992003110312004-17733-039250FM-12+000399999V0201801N008210450019N0020001N1+02481+02091101121ADDAY161061AY291061GF108991031071008001021999KA1240N+02221MA1999999101071MD1999999-0401MW1211REMSYN088AAXX  03124 83498 21595 81816 10248 20209 30107 40112 72169 8372/ 333 20222 59040 61084;
0171834980999992003110318004-17733-039250FM-12+000399999V0201801N008210450019N0020001N1+02441+02011101051ADDAY161061AY261061GF108991041071008001021999MA1999999101001MD1999999+0191MW1211REMSYN082AAXX  03184 83498 21595 81816 10244 20201 30100 40105 72166 8472/ 333 58019 69931;
0202834980999992003110400004-17733-039250FM-12+000399999V0201801N006210450019N0020001N1+02321+01871101461ADDAY161061AY261061GF108991031071008001021999KA1240M+02551MA1999999101411MD1999999+0251MW1211REMSYN100AAXX  04004 83498 21595 81812 10232 20187 30141 40146 72166 8372/ 333 10255 29077 55000 58025 69911;
0142834980999992003110412004-17733-039250FM-12+000399999V0201801N005710450019N0020001N1+02311+01721101681ADDGF108991031071008001021999KA1240N+02281MA1999999101631REMSYN076AAXX  04124 83498 22595 81811 10231 20172 30163 40168 8372/ 333 20228 69944;
0167834980999992003110418004-17733-039250FM-12+000399999V0201801N004110075019N0020001N1+02321+01791101501ADDAA106000091GF108991051051008001021999MA1999999101451MD1999999+0451REMSYN070AAXX  04184 83498 32595 81808 10232 20179 30145 40150 8552/ 333 58045;EQDQ01  00002PRCP06
0198834980999992003110500004-17733-039250FM-12+000399999V0201401N003110075019N0020001N1+02321+01791101851ADDAA106000091GF108991051061008001021999KA1240M+02521MA1999999101801MD1999999+0391REMSYN088AAXX  05004 83498 32595 81406 10232 20179 30180 40185 8562/ 333 10252 29072 55000 58039;EQDQ01  00002PRCP06
0186834980999992003110512004-17733-039250FM-12+000399999V0201401N003610075019N0020001N1+02401+01701101911ADDAA106000091GF108991061051008001021999KA1240N+02251MA1999999101861MD1999999+0231REMSYN076AAXX  05124 83498 32595 81407 10240 20170 30186 40191 8652/ 333 20225 58023;EQDQ01  00002PRCP06
0167834980999992003110518004-17733-039250FM-12+000399999V0201401N004110450019N0020001N1+02451+01561101711ADDAA106000091GF108991021051008001021999MA1999999101661MD1999999+0211REMSYN070AAXX  05184 83498 32595 81408 10245 20156 30166 40171 8252/ 333 58021;EQDQ01  00002PRCP06
0198834980999992003110600004-17733-039250FM-12+000399999V0201401N002610450019N0020001N1+02261+01711101911ADDAA106000091GF108991031051008001021999KA1240M+02491MA1999999101861MD1999999+0061REMSYN088AAXX  06004 83498 32595 81405 10226 20171 30186 40191 8352/ 333 10249 29066 55000 58006;EQDQ01  00002PRCP06
0190834980999992003110612004-17733-039250FM-12+000399999V0201801N002110450019N0020001N1+02461+01781101821ADDAY161061AY201061GF106991021051008001031081KA1240N+01971MA1999999101771MD1999999-0091MW1021REMSYN088AAXX  06124 83498 21595 61804 10246 20178 30177 40182 70260 82538 333 20197 59009 69944;
0167834980999992003110618004-17733-039250FM-12+000399999V0201401N002610450019N0020001N1+02561+01731101501ADDAA106000091GF106991021031008001031081MA1999999101451MD1999999-0211REMSYN070AAXX  06184 83498 32595 61405 10256 20173 30145 40150 82338 333 59021;EQDQ01  00002PRCP06
0198834980999992003110700004-17733-039250FM-12+000399999V0200901N001510075019N0020001N1+02361+01871101691ADDAA106000091GF108991051051008001021999KA1240M+02741MA1999999101641MD1999999-0221REMSYN088AAXX  07004 83498 32595 80903 10236 20187 30164 40169 8552/ 333 10274 29069 55050 59022;EQDQ01  00002PRCP06
0190834980999992003110712004-17733-039250FM-12+000399999V0202301N001010450019N0020001N1+02421+02051101631ADDAY161061AY221061GF108991031051008001021081KA1240N+02191MA1999999101581MD1999999-0191MW1211REMSYN088AAXX  07124 83498 21595 82302 10242 20205 30158 40163 72162 83528 333 20219 59019 60024;
0171834980999992003110718004-17733-039250FM-12+000399999V0200501N003110450019N0020001N1+02351+02011101351ADDAY161061AY261061GF108991041051008001021081MA1999999101301MD1999999-0151MW1211REMSYN082AAXX  07184 83498 21595 80506 10235 20201 30130 40135 72166 84528 333 59015 69931;
0202834980999992003110800004-17733-039250FM-12+000399999V0202701N000510450019N0020001N1+02101+02051101571ADDAY161061AY261061GF108991011051008001021081KA1240M+02541MA1999999101521MD1999999-0121MW1211REMSYN100AAXX  08004 83498 21595 82701 10210 20205 30152 40157 72166 81528 333 10254 29089 55000 59012 69991;
0162834980999992003110812004-17733-039250FM-12+000399999V0202701N001010450019N0020001N1+02421+02111101591ADDGF108991041051008001021999KA1240N+02001MA1999999101541MD1999999-0041REMSYN082AAXX  08124 83498 22595 82702 10242 20211 30154 40159 8452/ 333 20200 59004 60014;
0167834980999992003110818004-17733-039250FM-12+000399999V0200901N001510450019N0020001N1+02621+02161101231ADDAA106000091GF107991031051008001011081MA1999999101181MD1999999-0121REMSYN070AAXX  08184 83498 32595 70903 10262 20216 30118 40123 83518 333 59012;EQDQ01  00002PRCP06
0214834980999992003110900004-17733-039250FM-12+000399999V0200501N001512200019N0020001N1+02321+02131101381ADDAA106000091GF102991001001999999001021KA1240M+02701MA1999999101331MD1999999-0191REMSYN088AAXX  09004 83498 32795 20503 10232 20213 30133 40138 80002 333 10270 29085 55008 59019;EQDQ01+017502SCOLCBQ02  00002PRCP06
0186834980999992003110912004-17733-039250FM-12+000399999V0203601N004112200019N0020001N1+02911+02121101461ADDAA106000091GF104991021021008001031051KA1240N+02241MA1999999101411MD1999999-0131REMSYN076AAXX  09124 83498 32595 43608 10291 20212 30141 40146 82235 333 20224 59013;EQDQ01  00002PRCP06
0167834980999992003110918004-17733-039250FM-12+000399999V0200501N005712200019N0020001N1+02891+02251101131ADDAA106000091GF103991001001999999001081MA1999999101081MD1999999-0101REMSYN070AAXX  09184 83498 32995 30511 10289 20225 30108 40113 80008 333 59010;EQDQ01  00002PRCP06
0198834980999992003111000004-17733-039250FM-12+000399999V0200501N003612200019N0200001N1+02521+02361101451ADDAA106000091GF104991001001999999001081KA1240M+03121MA1999999101401MD1999999+0071REMSYN088AAXX  10004 83498 32998 40507 10252 20236 30140 40145 80008 333 10312 29078 55106 58007;EQDQ01  00002PRCP06
0186834980999992003111012004-17733-039250FM-12+000399999V0203601N005111050019N0020001N1+02811+02181101501ADDAA106000091GF105991021021008001031081KA1240N+02471MA1999999101451MD1999999+0041REMSYN076AAXX  10124 83498 32595 53610 10281 20218 30145 40150 82238 333 20247 58004;EQDQ01  00002PRCP06
0167834980999992003111018004-17733-039250FM-12+000399999V0200501N005712200019N0020001N1+02851+02191101231ADDAA106000091GF102991001001999999001051MA1999999101181MD1999999+0101REMSYN070AAXX  10184 83498 32995 20511 10285 20219 30118 40123 80005 333 58010;EQDQ01  00002PRCP06
0198834980999992003111100004-17733-039250FM-12+000399999V0200501N003610075019N0020001N1+02521+02311101511ADDAA106000091GF107991051051008001011001KA1240M+03001MA1999999101461MD1999999+0061REMSYN088AAXX  11004 83498 32595 70507 10252 20231 30146 40151 85510 333 10300 29078 55076 58006;EQDQ01  00002PRCP06
0186834980999992003111112004-17733-039250FM-12+000399999V0200501N003610075019N0020001N1+02791+02211101651ADDAA106000091GF106991051021008001001011KA1240N+02471MA1999999101601MD1999999+0151REMSYN076AAXX  11124 83498 32595 60507 10279 20221 30160 40165 85201 333 20247 58015;EQDQ01  00002PRCP06
0167834980999992003111118004-17733-039250FM-12+000399999V0200501N004112200019N0020001N1+02911+02151101421ADDAA106000091GF104991031021008001001011MA1999999101371MD1999999+0191REMSYN070AAXX  11184 83498 32595 40508 10291 20215 30137 40142 83201 333 58019;EQDQ01  00002PRCP06
0198834980999992003111200004-17733-039250FM-12+000399999V0200501N002112200019N0020001N1+02471+02251101641ADDAA106000091GF102991021021008001001001KA1240M+03021MA1999999101591MD1999999+0131REMSYN088AAXX  12004 83498 32595 20504 10247 20225 30159 40164 82200 333 10302 29078 55098 58013;EQDQ01  00002PRCP06
0190834980999992003111212004-17733-039250FM-12+000399999V0200501N003112200019N0020001N1+02831+02121101741ADDAY121061AY211061GF103991031021008001001001KA1240N+02281MA1999999101691MD1999999+0091MW1021REMSYN088AAXX  12124 83498 21595 30506 10283 20212 30169 40174 70221 83200 333 20228 58009 69934;
0167834980999992003111218004-17733-039250FM-12+000399999V0200501N003612200019N0020001N1+02791+02091101481ADDAA106000091GF103991021021008001001011MA1999999101431MD1999999+0061REMSYN070AAXX  12184 83498 32595 30507 10279 20209 30143 40148 82201 333 58006;EQDQ01  00002PRCP06
0208834980999992003111300004-17733-039250FM-12+000399999V0200501N001512200019N0020001N1+02411+02131101621ADDAA106000091GA1001+999999999GF100991001001999999001001KA1240M+03021MA1999999101571MD1999999-0021REMSYN082AAXX  13004 83498 32995 00503 10241 20213 30157 40162 333 10302 29076 55107 59002;EQDQ01  00002PRCP06
0186834980999992003111312004-17733-039250FM-12+000399999V0200501N003610075019N0020001N1+02831+02071101501ADDAA106000091GF106991061021008001001001KA1240N+02301MA1999999101451MD1999999-0241REMSYN076AAXX  13124 83498 32595 60507 10283 20207 30145 40150 86200 333 20230 59024;EQDQ01  00002PRCP06
0167834980999992003111318004-17733-039250FM-12+000399999V0200501N006212200019N0020001N1+02831+02051101151ADDAA106000091GF102991021011008001001001MA1999999101101MD1999999-0331REMSYN070AAXX  13184 83498 32595 20512 10283 20205 30110 40115 82100 333 59033;EQDQ01  00002PRCP06
0198834980999992003111400004-17733-039250FM-12+000399999V0200501N004112200019N0020001N1+02521+02271101301ADDAA106000091GF102991021021008001001001KA1240M+02991MA1999999101251MD1999999-0321REMSYN088AAXX  14004 83498 32595 20508 10252 20227 30125 40130 82200 333 10299 29075 55101 59032;EQDQ01  00002PRCP06
0186834980999992003111412004-17733-039250FM-12+000399999V0203601N003110450019N0020001N1+02851+02221101441ADDAA106000091GF107991041051008001011001KA1240N+02431MA1999999101391MD1999999-0061REMSYN076AAXX  14124 83498 32595 73606 10285 20222 30139 40144 84510 333 20243 59006;EQDQ01  00002PRCP06
0167834980999992003111418004-17733-039250FM-12+000399999V0200501N004110450019N0020001N1+02771+02341101241ADDAA106000091GF106991031031008001041001MA1999999101191MD1999999+0091REMSYN070AAXX  14184 83498 32595 60508 10277 20234 30119 40124 83340 333 58009;EQDQ01  00002PRCP06
0198834980999992003111500004-17733-039250FM-12+000399999V0209999C000010075019N0020001N1+02551+02421101601ADDAA106000091GF108991051061008001021999KA1240M+03061MA1999999101551MD1999999+0301REMSYN088AAXX  15004 83498 32595 80000 10255 20242 30155 40160 8562/ 333 10306 29083 55016 58030;EQDQ01  00002PRCP06
0190834980999992003111512004-17733-039250FM-12+000399999V0201401N003610450019N0020001N1+02531+02311101831ADDAY161061AY261061GF108991041071008001021999KA1240N+02381MA1999999101781MD1999999+0391MW1211REMSYN088AAXX  15124 83498 21595 81407 10253 20231 30178 40183 72166 8472/ 333 20238 58039 60044;
0148834980999992003111518004-17733-039250FM-12+000399999V0201401N003110450019N0020001N1+02691+02311101651ADDAA106000021GF107991041051008001021001MA1999999101601MD1999999+0411REMSYN070AAXX  15184 83498 32595 71406 10269 20231 30160 40165 84520 333 58041;
0198834980999992003111600004-17733-039250FM-12+000399999V0200901N001512200019N0020001N1+02461+02251101811ADDAA106000091GF102991021011008001001001KA1240M+02961MA1999999101761MD1999999+0211REMSYN088AAXX  16004 83498 32595 20903 10246 20225 30176 40181 82100 333 10296 29086 55023 58021;EQDQ01  00002PRCP06
0186834980999992003111612004-17733-039250FM-12+000399999V0200901N003112200019N0020001N1+02851+02191101841ADDAA106000091GF104991041021008001001001KA1240N+02221MA1999999101791MD1999999+0011REMSYN076AAXX  16124 83498 32595 40906 10285 20219 30179 40184 84200 333 20222 58001;EQDQ01  00002PRCP06
0167834980999992003111618004-17733-039250FM-12+000399999V0200501N003612200019N0020001N1+02891+02211101421ADDAA106000091GF103991031021008001001001MA1999999101371MD1999999-0231REMSYN070AAXX  16184 83498 32595 30507 10289 20221 30137 40142 83200 333 59023;EQDQ01  00002PRCP06
0208834980999992003111700004-17733-039250FM-12+000399999V0200501N001512200019N0020001N1+02461+02151101631ADDAA106000091GA1001+999999999GF100991001001999999001001KA1240M+02981MA1999999101581MD1999999-0181REMSYN082AAXX  17004 83498 32995 00503 10246 20215 30158 40163 333 10298 29075 55105 59018;EQDQ01  00002PRCP06
0190834980999992003111712004-17733-039250FM-12+000399999V0200501N004110075019N0020001N1+02791+02111101641ADDAY161061AY221061GF107991051051008001021021KA1240N+02331MA1999999101591MD1999999-0201MW1211REMSYN088AAXX  17124 83498 21595 70508 10279 20211 30159 40164 72162 85522 333 20233 59020 60014;
0148834980999992003111718004-17733-039250FM-12+000399999V0200501N004610450019N0020001N1+02951+02161101261ADDAA106000021GF105991031021008001021001MA1999999101211MD1999999-0181REMSYN070AAXX  17184 83498 32595 50509 10295 20216 30121 40126 83220 333 59018;
0198834980999992003111800004-17733-039250FM-12+000399999V0200501N002612200019N0020001N1+02541+02311101491ADDAA106000091GF101991011011008001001001KA1240M+03051MA1999999101441MD1999999-0141REMSYN088AAXX  18004 83498 32595 10505 10254 20231 30144 40149 81100 333 10305 29076 55078 59014;EQDQ01  00002PRCP06
0186834980999992003111812004-17733-039250FM-12+000399999V0203601N005112200019N0020001N1+02891+02231101531ADDAA106000091GF105991041021008001001011KA1240N+02361MA1999999101481MD1999999-0111REMSYN076AAXX  18124 83498 32595 53610 10289 20223 30148 40153 84201 333 20236 59011;EQDQ01  00002PRCP06
0167834980999992003111818004-17733-039250FM-12+000399999V0200501N005712200019N0020001N1+02951+02251101221ADDAA106000091GF103991011011008001001011MA1999999101171MD1999999-0041REMSYN070AAXX  18184 83498 32595 30511 10295 20225 30117 40122 81101 333 59004;EQDQ01  00002PRCP06
0198834980999992003111900004-17733-039250FM-12+000399999V0200501N003612200019N0020001N1+02551+02291101331ADDAA106000091GF102991021011008001001001KA1240M+03081MA1999999101281MD1999999-0161REMSYN088AAXX  19004 83498 32595 20507 10255 20229 30128 40133 82100 333 10308 29077 55106 59016;EQDQ01  00002PRCP06
0186834980999992003111912004-17733-039250FM-12+000399999V0200501N006211050019N0020001N1+02971+02071101371ADDAA106000091GF106991041021008001001021KA1240N+02551MA1999999101321MD1999999-0161REMSYN076AAXX  19124 83498 32595 60512 10297 20207 30132 40137 84202 333 20255 59016;EQDQ01  00002PRCP06
0167834980999992003111918004-17733-039250FM-12+000399999V0200501N006211050019N0020001N1+02921+02221101031ADDAA106000091GF106991041011008001001081MA1999999100981MD1999999-0191REMSYN070AAXX  19184 83498 32595 60512 10292 20222 30098 40103 84108 333 59019;EQDQ01  00002PRCP06
0198834980999992003112000004-17733-039250FM-12+000399999V0200501N004112200019N0020001N1+02541+02151101251ADDAA106000091GF102991011011008001001081KA1240M+03061MA1999999101201MD1999999-0081REMSYN088AAXX  20004 83498 32595 20508 10254 20215 30120 40125 81108 333 10306 29071 55089 59008;EQDQ01  00002PRCP06
0186834980999992003112012004-17733-039250FM-12+000399999V0203601N005111050019N0020001N1+02931+02141101471ADDAA106000091GF105991031021008001001021KA1240N+02461MA1999999101421MD1999999+0101REMSYN076AAXX  20124 83498 32595 53610 10293 20214 30142 40147 83202 333 20246 58010;EQDQ01  00002PRCP06
0167834980999992003112018004-17733-039250FM-12+000399999V0200501N005111050019N0020001N1+02751+02241101271ADDAA106000091GF105991021041008001001021MA1999999101221MD1999999+0241REMSYN070AAXX  20184 83498 32595 50510 10275 20224 30122 40127 82402 333 58024;EQDQ01  00002PRCP06
0208834980999992003112100004-17733-039250FM-12+000399999V0200501N001512200019N0020001N1+02481+02171101581ADDAA106000091GA1001+999999999GF100991001001999999001001KA1240M+03081MA1999999101531MD1999999+0331REMSYN082AAXX  21004 83498 32995 00503 10248 20217 30153 40158 333 10308 29076 55031 58033;EQDQ01  00002PRCP06
0167834980999992003112118004-17733-039250FM-12+000399999V0201401N003112200019N0020001N1+02871+02161101571ADDAA106000091GF106991031011008001001041MA1999999101521MD1999999+0301REMSYN070AAXX  21184 83498 32595 61406 10287 20216 30152 40157 83104 333 58030;EQDQ01  00002PRCP06
0198834980999992003112200004-17733-039250FM-12+000399999V0201401N003612200019N0020001N1+02591+02231101811ADDAA106000091GF102991021011008001001001KA1240M+03101MA1999999101761MD1999999+0231REMSYN088AAXX  22004 83498 32595 21407 10259 20223 30176 40181 82100 333 10310 29071 55091 58023;EQDQ01  00002PRCP06
0186834980999992003112212004-17733-039250FM-12+000399999V0200501N003112200019N0020001N1+02871+02161101761ADDAA106000091GF104991041021008001001001KA1240N+02481MA1999999101711MD1999999+0011REMSYN076AAXX  22124 83498 32595 40506 10287 20216 30171 40176 84200 333 20248 58001;EQDQ01  00002PRCP06
0167834980999992003112218004-17733-039250FM-12+000399999V0201401N003612200019N0020001N1+02811+02081101511ADDAA106000091GF104991021011008001001021MA1999999101461MD1999999-0061REMSYN070AAXX  22184 83498 32595 41407 10281 20208 30146 40151 82102 333 59006;EQDQ01  00002PRCP06
0208834980999992003112300004-17733-039250FM-12+000399999V0201401N002612200019N0020001N1+02571+02111101661ADDAA106000091GA1001+999999999GF100991001001999999001001KA1240M+03081MA1999999101611MD1999999-0151REMSYN082AAXX  23004 83498 32995 01405 10257 20211 30161 40166 333 10308 29071 55110 59015;EQDQ01  00002PRCP06
0186834980999992003112312004-17733-039250FM-12+000399999V0202701N001010075019N0020001N1+02611+02191101661ADDAA106000091GF106991051041008001001011KA1240N+02341MA1999999101611MD1999999-0101REMSYN076AAXX  23124 83498 32595 62702 10261 20219 30161 40166 85401 333 20234 59010;EQDQ01  00002PRCP06
0167834980999992003112318004-17733-039250FM-12+000399999V0201401N003112200019N0020001N1+02871+02111101391ADDAA106000091GF105991021011008001001081MA1999999101341MD1999999-0121REMSYN070AAXX  23184 83498 32595 51406 10287 20211 30134 40139 82108 333 59012;EQDQ01  00002PRCP06
0198834980999992003112400004-17733-039250FM-12+000399999V0200901N001512200019N0020001N1+02471+02011101521ADDAA106000091GF104991001001999999001081KA1240M+02951MA1999999101471MD1999999-0141REMSYN088AAXX  24004 83498 32995 40903 10247 20201 30147 40152 80008 333 10295 29074 55094 59014;EQDQ01  00002PRCP06
0186834980999992003112412004-17733-039250FM-12+000399999V0200501N004112200019N0020001N1+02911+02071101561ADDAA106000091GF104991021021008001001021KA1240N+02201MA1999999101511MD1999999-0101REMSYN076AAXX  24124 83498 32595 40508 10291 20207 30151 40156 82202 333 20220 59010;EQDQ01  00002PRCP06
0167834980999992003112418004-17733-039250FM-12+000399999V0200501N005111050019N0020001N1+02891+01941101301ADDAA106000091GF106991011011008001001081MA1999999101251MD1999999-0091REMSYN070AAXX  24184 83498 32595 60510 10289 20194 30125 40130 81108 333 59009;EQDQ01  00002PRCP06
0202834980999992003112500004-17733-039250FM-12+000399999V0200501N001512200019N0020001N1+02461+02171101491ADDAY121061AY211061GF103991031061008001001001KA1240M+03051MA1999999101441MD1999999-0031MW1031REMSYN100AAXX  25004 83498 21595 30503 10246 20217 30144 40149 70321 83600 333 10305 29072 55094 59003 69931;
0190834980999992003112512004-17733-039250FM-12+000399999V0203601N004111050019N0020001N1+02661+02241101641ADDAY161061AY221061GF107991041051008001001081KA1240N+02331MA1999999101591MD1999999+0081MW1211REMSYN088AAXX  25124 83498 21595 73608 10266 20224 30159 40164 72162 84508 333 20233 58008 60024;
0148834980999992003112518004-17733-039250FM-12+000399999V0200501N003611050019N0020001N1+02871+02221101381ADDAA106000021GF106991041021008001001091MA1999999101331MD1999999+0081REMSYN070AAXX  25184 83498 32595 60507 10287 20222 30133 40138 84209 333 58008;
0198834980999992003112600004-17733-039250FM-12+000399999V0200501N003112200019N0020001N1+02531+02231101511ADDAA106000091GF103991011011008001001011KA1240M+03001MA1999999101461MD1999999+0021REMSYN088AAXX  26004 83498 32595 30506 10253 20223 30146 40151 81101 333 10300 29078 55077 58002;EQDQ01  00002PRCP06
0186834980999992003112612004-17733-039250FM-12+000399999V0200501N004112200019N0020001N1+02891+02231101631ADDAA106000091GF105991031021008001001081KA1240N+02321MA1999999101581MD1999999-0011REMSYN076AAXX  26124 83498 32595 50508 10289 20223 30158 40163 83208 333 20232 59001;EQDQ01  00002PRCP06
0167834980999992003112618004-17733-039250FM-12+000399999V0200501N004612200019N0020001N1+02951+02081101451ADDAA106000091GF102991021011008001001001MA1999999101401MD1999999+0071REMSYN070AAXX  26184 83498 32595 20509 10295 20208 30140 40145 82100 333 58007;EQDQ01  00002PRCP06
0208834980999992003112700004-17733-039250FM-12+000399999V0200501N003612200019N0020001N1+02551+02231101631ADDAA106000091GA1001+999999999GF100991001001999999001001KA1240M+03081MA1999999101581MD1999999+0121REMSYN082AAXX  27004 83498 32995 00507 10255 20223 30158 40163 333 10308 29074 55108 58012;EQDQ01  00002PRCP06
0186834980999992003112712004-17733-039250FM-12+000399999V0200901N004610075019N0020001N1+02891+02181101581ADDAA106000091GF106991061041008001001001KA1240N+02401MA1999999101531MD1999999-0051REMSYN076AAXX  27124 83498 32595 60909 10289 20218 30153 40158 86400 333 20240 59005;EQDQ01  00002PRCP06
0167834980999992003112718004-17733-039250FM-12+000399999V0200501N005112200019N0020001N1+02931+02141101231ADDAA106000091GF105991031011008001001081MA1999999101181MD1999999-0221REMSYN070AAXX  27184 83498 32595 50510 10293 20214 30118 40123 83108 333 59022;EQDQ01  00002PRCP06
0198834980999992003112800004-17733-039250FM-12+000399999V0200501N003612200019N0020001N1+02531+02231101351ADDAA106000091GF103991031021008001001001KA1240M+03041MA1999999101301MD1999999-0281REMSYN088AAXX  28004 83498 32595 30507 10253 20223 30130 40135 83200 333 10304 29074 55107 59028;EQDQ01  00002PRCP06
0186834980999992003112812004-17733-039250FM-12+000399999V0203601N004611050019N0020001N1+02851+02141101321ADDAA106000091GF106991041021008001001081KA1240N+02471MA1999999101271MD1999999-0261REMSYN076AAXX  28124 83498 32595 63609 10285 20214 30127 40132 84208 333 20247 59026;EQDQ01  00002PRCP06
0167834980999992003112818004-17733-039250FM-12+000399999V0200501N006212200019N0020001N1+02891+01941100951ADDAA106000091GF103991011011008001001081MA1999999100901MD1999999-0281REMSYN070AAXX  28184 83498 32595 30512 10289 20194 30090 40095 81108 333 59028;EQDQ01  00002PRCP06
0198834980999992003112900004-17733-039250FM-12+000399999V0200501N003112200019N0020001N1+02531+02171101141ADDAA106000091GF103991011011008001001081KA1240M+03121MA1999999101091MD1999999-0211REMSYN088AAXX  29004 83498 32595 30506 10253 20217 30109 40114 81108 333 10312 29072 55090 59021;EQDQ01  00002PRCP06
0186834980999992003112912004-17733-039250FM-12+000399999V0203601N003610075019N0020001N1+02791+02211101361ADDAA106000091GF106991061041008001001001KA1240N+02481MA1999999101311MD1999999+0041REMSYN076AAXX  29124 83498 32595 63607 10279 20221 30131 40136 86400 333 20248 58004;EQDQ01  00002PRCP06
0167834980999992003112918004-17733-039250FM-12+000399999V0200501N005112200019N0020001N1+02931+02121101061ADDAA106000091GF105991041021008001001011MA1999999101011MD1999999+0111REMSYN070AAXX  29184 83498 32595 50510 10293 20212 30101 40106 84201 333 58011;EQDQ01  00002PRCP06
0208834980999992003113000004-17733-039250FM-12+000399999V0200501N003112200019N0020001N1+02541+02191101281ADDAA106000091GA1001+999999999GF100991001001999999001001KA1240M+03121MA1999999101231MD1999999+0141REMSYN082AAXX  30004 83498 32995 00506 10254 20219 30123 40128 333 10312 29074 55096 58014;EQDQ01  00002PRCP06
0186834980999992003113012004-17733-039250FM-12+000399999V0200501N005112200019N0020001N1+02911+02121101441ADDAA106000091GF103991031021008001001001KA1240N+02451MA1999999101391MD1999999+0081REMSYN076AAXX  30124 83498 32595 30510 10291 20212 30139 40144 83200 333 20245 58008;EQDQ01  00002PRCP06
0167834980999992003113018004-17733-039250FM-12+000399999V0200501N005112200019N0020001N1+02951+02141101161ADDAA106000091GF103991011011008001001011MA1999999101111MD1999999+0101REMSYN070AAXX  30184 83498 32595 30510 10295 20214 30111 40116 81101 333 58010;EQDQ01  00002PRCP06
0208834980999992003120100004-17733-039250FM-12+000399999V0200501N002612200019N0020001N1+02521+02151101381ADDAA106000091GA1001+999999999GF100991001001999999001001KA1240M+03141MA1999999101331MD1999999+0101REMSYN082AAXX  01004 83498 32995 00505 10252 20215 30133 40138 333 10314 29071 55115 58010;EQDQ01  00002PRCP06
0186834980999992003120112004-17733-039250FM-12+000399999V0200501N005110075019N0020001N1+02881+02181101401ADDAA106000091GF106991061041008001001001KA1240N+02371MA1999999101351MD1999999-0041REMSYN076AAXX  01124 83498 32595 60510 10288 20218 30135 40140 86400 333 20237 59004;EQDQ01  00002PRCP06
0167834980999992003120118004-17733-039250FM-12+000399999V0200501N006212200019N0020001N1+02951+02081100961ADDAA106000091GF103991011001012501031011MA1999999100911MD1999999-0201REMSYN070AAXX  01184 83498 32695 30512 10295 20208 30091 40096 81031 333 59020;EQDQ01  00002PRCP06
0208834980999992003120200004-17733-039250FM-12+000399999V0200501N005112200019N0020001N1+02561+02191101101ADDAA106000091GA1001+999999999GF100991001001999999001001KA1240M+03111MA1999999101051MD1999999-0321REMSYN082AAXX  02004 83498 32995 00510 10256 20219 30105 40110 333 10311 29072 55102 59032;EQDQ01  00002PRCP06
0186834980999992003120212004-17733-039250FM-12+000399999V0203601N005111050019N0020001N1+02941+02161101121ADDAA106000091GF106991021021008001001081KA1240N+02431MA1999999101071MD1999999-0281REMSYN076AAXX  02124 83498 32595 63610 10294 20216 30107 40112 82208 333 20243 59028;EQDQ01  00002PRCP06
0183834980999992003120218004-17733-039250FM-12+000399999V0200501N007212200019N0020001N1+02961+02181100721ADDAA106000091GF102991001001999999001081MA1999999100671MD1999999-0241REMSYN070AAXX  02184 83498 32795 20514 10296 20218 30067 40072 80008 333 59024;EQDQ01+017502SCOLCBQ02  00002PRCP06
0186834980999992003120312004-17733-039250FM-12+000399999V0203601N004110450019N0020001N1+02901+02201101231ADDAA106000091GF108991041051008001011999KA1240N+02391MA1999999101181MD1999999+0111REMSYN076AAXX  03124 83498 32595 83608 10290 20220 30118 40123 8451/ 333 20239 58011;EQDQ01  00002PRCP06
0167834980999992003120318004-17733-039250FM-12+000399999V0203601N007210450019N0020001N1+02941+02141100871ADDAA106000091GF106991031011008001051001MA1999999100821MD1999999+0151REMSYN070AAXX  03184 83498 32595 63614 10294 20214 30082 40087 83150 333 58015;EQDQ01  00002PRCP06
0198834980999992003120400004-17733-039250FM-12+000399999V0200501N004112200019N0020001N1+02621+02311101151ADDAA106000091GF104991021011008001051001KA1240M+03141MA1999999101101MD1999999+0071REMSYN088AAXX  04004 83498 32595 40508 10262 20231 30110 40115 82150 333 10314 29074 55025 58007;EQDQ01  00002PRCP06
0186834980999992003120412004-17733-039250FM-12+000399999V0200501N005710450019N0020001N1+02931+02321101301ADDAA106000091GF107991041051008001031001KA1240N+02581MA1999999101251MD1999999+0071REMSYN076AAXX  04124 83498 32595 70511 10293 20232 30125 40130 84530 333 20258 58007;EQDQ01  00002PRCP06
0171834980999992003120418004-17733-039250FM-12+000399999V0200501N004610450019N0020001N1+02661+02431101081ADDAY161061AY221061GF107991031051008001021001MA1999999101031MD1999999+0211MW1211REMSYN082AAXX  04184 83498 21595 70509 10266 20243 30103 40108 72162 83520 333 58021 60011;
0179834980999992003120500004-17733-039250FM-12+000399999V0203601N003119999999N0020001N1+02541+02331101191ADDAA106000021GF105991001001999999001021KA1240M+03041MA1999999101141MD1999999+0041REMSYN088AAXX  05004 83498 32995 53606 10254 20233 30114 40119 80002 333 10304 29083 55001 58004;
0162834980999992003120512004-17733-039250FM-12+000399999V0203601N005711050019N0020001N1+02971+02211101191ADDGF106991021021008001001081KA1240N+02531MA1999999101141MD1999999-0111REMSYN082AAXX  05124 83498 22595 63611 10297 20221 30114 40119 82208 333 20253 59011 60014;
0167834980999992003120518004-17733-039250FM-12+000399999V0203601N026212200019N0020001N1+02951+02141100821ADDAA106000091GF105991011011008001001081MA1999999101771MD1999999-0261REMSYN070AAXX  05184 83498 32595 53651 10295 20214 30177 40082 81108 333 59026;EQDQ01  00002PRCP06
0198834980999992003120600004-17733-039250FM-12+000399999V0203601N005111050019N0020001N1+02631+02251101011ADDAA106000091GF107991031001017501031081KA1240M+03101MA1999999100961MD1999999-0181REMSYN088AAXX  06004 83498 32795 73610 10263 20225 30096 40101 83038 333 10310 29072 55058 59018;EQDQ01  00002PRCP06
0186834980999992003120612004-17733-039250FM-12+000399999V0203601N005710075019N0020001N1+02941+02311101231ADDAA106000091GF106991061021008001001081KA1240N+02541MA1999999101181MD1999999+0041REMSYN076AAXX  06124 83498 32595 63611 10294 20231 30118 40123 86208 333 20254 58004;EQDQ01  00002PRCP06
0167834980999992003120618004-17733-039250FM-12+000399999V0203601N009312200019N0020001N1+02941+02141100781ADDAA106000091GF104991021011008001031001MA1999999100751MD1999999-0021REMSYN070AAXX  06184 83498 32595 43618 10294 20214 30075 40078 82130 333 59002;EQDQ01  00002PRCP06
0198834980999992003120700004-17733-039250FM-12+000399999V0203601N005110450019N0020001N1+02601+02191101091ADDAA106000091GF108991041051008001011999KA1240M+03161MA1999999101041MD1999999+0081REMSYN088AAXX  07004 83498 32595 83610 10260 20219 30104 40109 8451/ 333 10316 29070 55062 58008;EQDQ01  00002PRCP06
0186834980999992003120712004-17733-039250FM-12+000399999V0203601N004610450019N0020001N1+02831+02311101401ADDAA106000091GF108991041051008001021999KA1240N+02571MA1999999101351MD1999999+0171REMSYN076AAXX  07124 83498 32595 83609 10283 20231 30135 40140 8452/ 333 20257 58017;EQDQ01  00002PRCP06
0171834980999992003120718004-17733-039250FM-12+000399999V0201401N003610450019N0020001N1+02501+02401101291ADDAY191061AY251061GF108991031051008001021999MA1999999101241MD1999999+0491MW1291REMSYN082AAXX  07184 83498 21595 81407 10250 20240 30124 40129 72995 8352/ 333 58049 60561;
0198834980999992003120800004-17733-039250FM-12+000399999V0201801N001512200019N0020001N1+02441+02301101501ADDAA106000091GF104991021051008001001081KA1240M+03081MA1999999101451MD1999999+0411REMSYN088AAXX  08004 83498 32595 41803 10244 20230 30145 40150 82508 333 10308 29088 55003 58041;EQDQ01  00002PRCP06
0162834980999992003120812004-17733-039250FM-12+000399999V0200501N004110075019N0020001N1+02851+02351101571ADDGF106991061021008001041001KA1240N+02421MA1999999101521MD1999999+0171REMSYN082AAXX  08124 83498 22595 60508 10285 20235 30152 40157 86240 333 20242 58017 60564;
0167834980999992003120818004-17733-039250FM-12+000399999V0200501N005110450019N0020001N1+02831+02291101311ADDAA106000091GF106991011011008001041081MA1999999101261MD1999999+0021REMSYN070AAXX  08184 83498 32595 60510 10283 20229 30126 40131 81148 333 58002;EQDQ01  00002PRCP06
0198834980999992003120900004-17733-039250FM-12+000399999V0200501N003110450019N0020001N1+02591+02331101501ADDAA106000091GF107991041051008001051001KA1240M+03041MA1999999101451MD1999999+0081REMSYN088AAXX  09004 83498 32595 70506 10259 20233 30145 40150 84550 333 10304 29080 55022 58008;EQDQ01  00002PRCP06
0186834980999992003120912004-17733-039250FM-12+000399999V0203601N005112200019N0020001N1+02941+02031101631ADDAA106000091GF104991041021008001001001KA1240N+02391MA1999999101581MD1999999+0061REMSYN076AAXX  09124 83498 32595 43610 10294 20203 30158 40163 84200 333 20239 58006;EQDQ01  00002PRCP06
0167834980999992003120918004-17733-039250FM-12+000399999V0203601N008212200019N0020001N1+02941+02331101281ADDAA106000091GF102991021011008001001001MA1999999101231MD1999999-0031REMSYN070AAXX  09184 83498 32595 23616 10294 20233 30123 40128 82100 333 59003;EQDQ01  00002PRCP06
0198834980999992003121000004-17733-039250FM-12+000399999V0200501N004112200019N0020001N1+02601+02171101491ADDAA106000091GF103991031011008001001001KA1240M+03101MA1999999101441MD1999999-0011REMSYN088AAXX  10004 83498 32595 30508 10260 20217 30144 40149 83100 333 10310 29070 55/// 59001;EQDQ01  00002PRCP06
0186834980999992003121012004-17733-039250FM-12+000399999V0203601N005710075019N0020001N1+02911+02221101511ADDAA106000091GF106991061021008001001001KA1240N+02481MA1999999101461MD1999999-0121REMSYN076AAXX  10124 83498 32595 63611 10291 20222 30146 40151 86200 333 20248 59012;EQDQ01  00002PRCP06
0167834980999992003121018004-17733-039250FM-12+000399999V0200501N005712200019N0020001N1+02951+02161101411ADDAA106000091GF101991011011008001001001MA1999999101361MD1999999+0131REMSYN070AAXX  10184 83498 32595 10511 10295 20216 30136 40141 81100 333 58013;EQDQ01  00002PRCP06
0208834980999992003121100004-17733-039250FM-12+000399999V0200501N001512200019N0020001N1+02441+02271101691ADDAA106000091GA1001+999999999GF100991001001999999001001KA1240M+03101MA1999999101641MD1999999+0201REMSYN082AAXX  11004 83498 32995 00503 10244 20227 30164 40169 333 10310 29078 55115 58020;EQDQ01  00002PRCP06
0186834980999992003121112004-17733-039250FM-12+000399999V0200501N002612200019N0020001N1+02881+02051101781ADDAA106000091GF103991031021008001001001KA1240N+02311MA1999999101731MD1999999+0271REMSYN076AAXX  11124 83498 32595 30505 10288 20205 30173 40178 83200 333 20231 58027;EQDQ01  00002PRCP06
0167834980999992003121118004-17733-039250FM-12+000399999V0200501N005712200019N0020001N1+02921+02121101371ADDAA106000091GF101991011011008001001001MA1999999101321MD1999999-0041REMSYN070AAXX  11184 83498 32595 10511 10292 20212 30132 40137 81100 333 59004;EQDQ01  00002PRCP06
0198834980999992003121200004-17733-039250FM-12+000399999V0200501N002612200019N0020001N1+02531+02311101521ADDAA106000091GF101991011011008001001001KA1240M+03131MA1999999101471MD1999999-0171REMSYN088AAXX  12004 83498 32595 10505 10253 20231 30147 40152 81100 333 10313 29075 55103 59017;EQDQ01  00002PRCP06
0186834980999992003121212004-17733-039250FM-12+000399999V0203601N004112200019N0020001N1+02961+02181101461ADDAA106000091GF104991041021008001001001KA1240N+02361MA1999999101411MD1999999-0321REMSYN076AAXX  12124 83498 32595 43608 10296 20218 30141 40146 84200 333 20236 59032;EQDQ01  00002PRCP06
0167834980999992003121218004-17733-039250FM-12+000399999V0200501N005112200019N0020001N1+02981+02171101171ADDAA106000091GF102991021011008001001001MA1999999101121MD1999999-0201REMSYN070AAXX  12184 83498 32595 20510 10298 20217 30112 40117 82100 333 59020;EQDQ01  00002PRCP06
0198834980999992003121400004-17733-039250FM-12+000399999V0200501N001012200019N0020001N1+02421+02191101481ADDAA106000091GF101991011011008001001001KA1240M+03131MA1999999101431MD1999999+0091REMSYN088AAXX  14004 83498 32595 10502 10242 20219 30143 40148 81100 333 10313 29075 55101 58009;EQDQ01  00002PRCP06
0084834980999992003121412004-17733-039250FM-12+000399999V02099999999999999999N9999999N1+99999+99999999999REMSYN075AAXX  14124 83498 3259 61406 10290 20210 30164 40169 86200 333 20226 58019;
0167834980999992003121418004-17733-039250FM-12+000399999V0200901N003112200019N0020001N1+03001+02171101471ADDAA106000091GF103991011011008001001011MA1999999101421MD1999999+0231REMSYN070AAXX  14184 83498 32595 30906 10300 20217 30142 40147 81101 333 58023;EQDQ01  00002PRCP06
0198834980999992003121500004-17733-039250FM-12+000399999V0200501N001012200019N0020001N1+02561+02111101681ADDAA106000091GF101991011011008001001001KA1240M+03101MA1999999101631MD1999999+0201REMSYN088AAXX  15004 83498 32595 10502 10256 20211 30163 40168 81100 333 10310 29069 55082 58020;EQDQ01  00002PRCP06
0162834980999992003121512004-17733-039250FM-12+000399999V0200501N004110075019N0020001N1+02931+02091101691ADDGF106991061021008001001001KA1240N+02281MA1999999101641MD1999999+0001REMSYN082AAXX  15124 83498 22595 60508 10293 20209 30164 40169 86200 333 20228 58000 69944;
0167834980999992003121518004-17733-039250FM-12+000399999V0200901N003112200019N0020001N1+02991+02091101421ADDAA106000091GF102991021011008001001001MA1999999101371MD1999999-0051REMSYN070AAXX  15184 83498 32595 20906 10299 20209 30137 40142 82100 333 59005;EQDQ01  00002PRCP06
0208834980999992003121600004-17733-039250FM-12+000399999V0200501N002112200019N0020001N1+02441+02071101511ADDAA106000091GA1001+999999999GF100991001001999999001001KA1240M+03181MA1999999101461MD1999999-0171REMSYN082AAXX  16004 83498 32995 00504 10244 20207 30146 40151 333 10318 29070 55113 59017;EQDQ01  00002PRCP06
0186834980999992003121612004-17733-039250FM-12+000399999V0203601N001510075019N0020001N1+02861+02231101561ADDAA106000091GF105991051021008001001001KA1240N+02221MA1999999101511MD1999999-0131REMSYN076AAXX  16124 83498 32595 53603 10286 20223 30151 40156 85200 333 20222 59013;EQDQ01  00002PRCP06
0167834980999992003121618004-17733-039250FM-12+000399999V0200501N003112200019N0020001N1+02981+02041101281ADDAA106000091GF101991011011008001001001MA1999999101231MD1999999-0141REMSYN070AAXX  16184 83498 32595 10506 10298 20204 30123 40128 81100 333 59014;EQDQ01  00002PRCP06
0208834980999992003121700004-17733-039250FM-12+000399999V0200501N001012200019N0020001N1+02581+02151101401ADDAA106000091GA1001+999999999GF100991001001999999001001KA1240M+03121MA1999999101351MD1999999-0111REMSYN082AAXX  17004 83498 32995 00502 10258 20215 30135 40140 333 10312 29070 55106 59011;EQDQ01  00002PRCP06
0186834980999992003121712004-17733-039250FM-12+000399999V0200501N004110075019N0020001N1+02931+01981101541ADDAA106000091GF105991051021008001001001KA1240N+02321MA1999999101491MD1999999-0021REMSYN076AAXX  17124 83498 32595 50508 10293 20198 30149 40154 85200 333 20232 59002;EQDQ01  00002PRCP06
0167834980999992003121718004-17733-039250FM-12+000399999V0200501N003612200019N0020001N1+03041+02001101371ADDAA106000091GF102991021021008001001001MA1999999101321MD1999999+0091REMSYN070AAXX  17184 83498 32595 20507 10304 20200 30132 40137 82200 333 58009;EQDQ01  00002PRCP06
0208834980999992003121800004-17733-039250FM-12+000399999V0200901N001512200019N0020001N1+02521+02231101671ADDAA106000091GA1001+999999999GF100991001001999999001001KA1240M+03141MA1999999101621MD1999999+0271REMSYN082AAXX  18004 83498 32995 00903 10252 20223 30162 40167 333 10314 29070 55115 58027;EQDQ01  00002PRCP06
0186834980999992003121812004-17733-039250FM-12+000399999V0200901N003110075019N0020001N1+02901+02121101811ADDAA106000091GF105991051021008001001001KA1240N+02291MA1999999101761MD1999999+0271REMSYN076AAXX  18124 83498 32595 50906 10290 20212 30176 40181 85200 333 20229 58027;EQDQ01  00002PRCP06
0167834980999992003121918004-17733-039250FM-12+000399999V0201401N002612200019N0020001N1+02851+02241101751ADDAA106000091GF106991031021008001001041MA1999999101701MD1999999+0111REMSYN070AAXX  19184 83498 32595 61405 10285 20224 30170 40175 83204 333 58011;EQDQ01  00002PRCP06
0198834980999992003122000004-17733-039250FM-12+000399999V0200901N002112200019N0020001N1+02571+02231101991ADDAA106000091GF103991001001999999001041KA1240M+03001MA1999999101941MD1999999+0121REMSYN088AAXX  20004 83498 32995 30904 10257 20223 30194 40199 80004 333 10300 29078 55087 58012;EQDQ01  00002PRCP06
0186834980999992003122012004-17733-039250FM-12+000399999V0201401N001510075019N0020001N1+02881+02211101901ADDAA106000091GF105991051021008001001001KA1240N+02301MA1999999101851MD1999999-0041REMSYN076AAXX  20124 83498 32595 51403 10288 20221 30185 40190 85200 333 20230 59004;EQDQ01  00002PRCP06
0167834980999992003122018004-17733-039250FM-12+000399999V0200901N003112200019N0020001N1+03001+02191101541ADDAA106000091GF101991011011008001001001MA1999999101491MD1999999-0211REMSYN070AAXX  20184 83498 32595 10906 10300 20219 30149 40154 81100 333 59021;EQDQ01  00002PRCP06
0208834980999992003122100004-17733-039250FM-12+000399999V0200501N001512200019N0020001N1+02541+02251101781ADDAA106000091GA1001+999999999GF100991001001999999001001KA1240M+03061MA1999999101731MD1999999-0211REMSYN082AAXX  21004 83498 32995 00503 10254 20225 30173 40178 333 10306 29074 55108 59021;EQDQ01  00002PRCP06
0186834980999992003122112004-17733-039250FM-12+000399999V0200501N004110075019N0020001N1+02931+02091101671ADDAA106000091GF105991051021008001001001KA1240N+02271MA1999999101621MD1999999-0231REMSYN076AAXX  21124 83498 32595 50508 10293 20209 30162 40167 85200 333 20227 59023;EQDQ01  00002PRCP06
0198834980999992003122200004-17733-039250FM-12+000399999V0200501N003612200019N0020001N1+02561+02131101421ADDAA106000091GF101991011011008001001001KA1240M+03161MA1999999101371MD1999999-0361REMSYN088AAXX  22004 83498 32595 10507 10256 20213 30137 40142 81100 333 10316 29067 55109 59036;EQDQ01  00002PRCP06
0186834980999992003122212004-17733-039250FM-12+000399999V0203601N003610450019N0020001N1+02941+01881101391ADDAA106000091GF107991021011008001031021KA1240N+02301MA1999999101341MD1999999-0281REMSYN076AAXX  22124 83498 32595 73607 10294 20188 30134 40139 82132 333 20230 59028;EQDQ01  00002PRCP06
0167834980999992003122218004-17733-039250FM-12+000399999V0203601N005112200019N0020001N1+02961+02021101961ADDAA106000091GF102991021011008001001001MA1999999101911MD1999999-0361REMSYN070AAXX  22184 83498 32595 23610 10296 20202 30191 40196 82100 333 59036;EQDQ01  00002PRCP06
0208834980999992003122300004-17733-039250FM-12+000399999V0203601N005112200019N0020001N1+02661+02241101191ADDAA106000091GA1001+999999999GF100991001001999999001001KA1240M+03161MA1999999101141MD1999999-0231REMSYN082AAXX  23004 83498 32995 03610 10266 20224 30114 40119 333 10316 29066 55085 59023;EQDQ01  00002PRCP06
0186834980999992003122312004-17733-039250FM-12+000399999V0203601N006210450019N0020001N1+02951+02141101171ADDAA106000091GF107991011011008001021001KA1240N+02531MA1999999101121MD1999999-0221REMSYN076AAXX  23124 83498 32595 73612 10295 20214 30112 40117 81120 333 20253 59022;EQDQ01  00002PRCP06
0167834980999992003122318004-17733-039250FM-12+000399999V0200501N007710450019N0020001N1+02961+02351100891ADDAA106000091GF106991031011008001031041MA1999999100841MD1999999-0071REMSYN070AAXX  23184 83498 32595 60515 10296 20235 30084 40089 83134 333 59007;EQDQ01  00002PRCP06
0198834980999992003122400004-17733-039250FM-12+000399999V0200501N004110450019N0020001N1+02691+02391101231ADDAA106000091GF108991011011008001021999KA1240M+03191MA1999999101181MD1999999+0041REMSYN088AAXX  24004 83498 32595 80508 10269 20239 30118 40123 8112/ 333 10319 29075 55043 58004;EQDQ01  00002PRCP06
0186834980999992003122412004-17733-039250FM-12+000399999V0200501N004110450019N0020001N1+02781+02361101481ADDAA106000091GF108991041051008001011999KA1240N+02501MA1999999101431MD1999999+0311REMSYN076AAXX  24124 83498 32595 80508 10278 20236 30143 40148 8451/ 333 20250 58031;EQDQ01  00002PRCP06
0167834980999992003122418004-17733-039250FM-12+000399999V0200501N003610075019N0020001N1+02901+02121101361ADDAA106000091GF108991061051008001011999MA1999999101311MD1999999+0471REMSYN070AAXX  24184 83498 32595 80507 10290 20212 30131 40136 8651/ 333 58047;EQDQ01  00002PRCP06
0198834980999992003122500004-17733-039250FM-12+000399999V0200901N002110450019N0020001N1+02681+02311101631ADDAA106000091GF106991031051008001011001KA1240M+03081MA1999999101581MD1999999+0401REMSYN088AAXX  25004 83498 32595 60904 10268 20231 30158 40163 83510 333 10308 29075 55002 58040;EQDQ01  00002PRCP06
0186834980999992003122512004-17733-039250FM-12+000399999V0200901N003110450019N0020001N1+02951+02311101671ADDAA106000091GF106991041051008001031091KA1240N+02451MA1999999101621MD1999999+0191REMSYN076AAXX  25124 83498 32595 60906 10295 20231 30162 40167 84539 333 20245 58019;EQDQ01  00002PRCP06
0190834980999992003122612004-17733-039250FM-12+000399999V0202301N001010450019N0020001N1+02481+02231101601ADDAY161061AY261061GF108991041061008001021001KA1240N+02351MA1999999101551MD1999999-0071MW1601REMSYN088AAXX  26124 83498 21595 82302 10248 20223 30155 40160 76066 84620 333 20235 59007 60064;
0171834980999992003122618004-17733-039250FM-12+000399999V0200901N003110450019N0020001N1+02741+02321101451ADDAY161061AY261061GF108991031061008001021999MA1999999101401MD1999999-0051MW1211REMSYN082AAXX  26184 83498 21595 80906 10274 20232 30140 40145 72166 8362/ 333 59005 69961;
0179834980999992003122700004-17733-039250FM-12+000399999V0201401N001010450019N0020001N1+02661+02311101511ADDAA106000021GF106991031051008001011001KA1240M+02781MA1999999101461MD1999999-0171REMSYN088AAXX  27004 83498 32595 61402 10266 20231 30146 40151 83510 333 10278 29082 55000 59017;
0190834980999992003122712004-17733-039250FM-12+000399999V0200501N002610450019N0020001N1+02771+02231101431ADDAY161061AY261061GF108991041051008001021999KA1240N+02491MA1999999101381MD1999999-0171MW1021REMSYN088AAXX  27124 83498 21595 80505 10277 20223 30138 40143 70266 8452/ 333 20249 59017 60014;
0171834980999992003122718004-17733-039250FM-12+000399999V0200901N002610450019N0020001N1+02741+02301101211ADDAY161061AY251061GF108991031051008001021999MA1999999101161MD1999999-0241MW1021REMSYN082AAXX  27184 83498 21595 80905 10274 20230 30116 40121 70265 8352/ 333 59024 69921;
0198834980999992003122800004-17733-039250FM-12+000399999V0200501N000510450019N0020001N1+02511+02211101431ADDAA106000091GF108991021051008001021999KA1240M+02851MA1999999101381MD1999999-0081REMSYN088AAXX  28004 83498 32595 80501 10251 20221 30138 40143 8252/ 333 10285 29080 55001 59008;EQDQ01  00002PRCP06
0190834980999992003122812004-17733-039250FM-12+000399999V0200501N001010450019N0020001N1+02701+02281101391ADDAY161061AY261061GF108991041061008001021999KA1240N+02281MA1999999101341MD1999999-0041MW1211REMSYN088AAXX  28124 83498 21595 80502 10270 20228 30134 40139 72166 8462/ 333 20228 59004 60024;
0171834980999992003122818004-17733-039250FM-12+000399999V0200501N000510450019N0020001N1+02641+02311101171ADDAY161061AY261061GF108991031051008001011999MA1999999101121MD1999999-0041MW1211REMSYN082AAXX  28184 83498 21595 80501 10264 20231 30112 40117 72166 8351/ 333 59004 69911;
0179834980999992003122900004-17733-039250FM-12+000399999V0200901N002110450019N0020001N1+02541+02251101371ADDAA106000021GF108991031051008001011999KA1240M+02921MA1999999101321MD1999999-0061REMSYN088AAXX  29004 83498 32595 80904 10254 20225 30132 40137 8351/ 333 10292 29082 55006 59006;
0190834980999992003122912004-17733-039250FM-12+000399999V0200501N004110450019N0020001N1+02731+02341101401ADDAY161061AY261061GF108991041071008001021091KA1240N+02401MA1999999101351MD1999999+0011MW1211REMSYN088AAXX  29124 83498 21595 80508 10273 20234 30135 40140 72166 84729 333 20240 58001 60154;
0147834980999992003122918004-17733-039250FM-12+000399999V0200501N002610450019N0020001N1+02651+02311101291ADDAA106000021GF108991031051008001021081MA1999999101241MD1999999+0121REMSYN069AAXX  29184 83498 32595 80505 10265 2023130124 40129 83528 333 58012;
0198834980999992003123000004-17733-039250FM-12+000399999V0209999C000011050019N0020001N1+02431+02301101471ADDAA106000091GF108991021001012501021081KA1240M+02951MA1999999101421MD1999999+0101REMSYN088AAXX  30004 83498 32695 80000 10243 20230 30142 40147 82028 333 10295 29087 55006 58010;EQDQ01  00002PRCP06
0190834980999992003123012004-17733-039250FM-12+000399999V0200501N003110450019N0020001N1+02921+02291101601ADDAY161061AY221061GF106991031011008001041011KA1240N+02431MA1999999101551MD1999999+0201MW1211REMSYN088AAXX  30124 83498 21595 60506 10292 20229 30155 40160 72162 83141 333 20243 58020 60064;
0148834980999992003123018004-17733-039250FM-12+000399999V0200501N004110450019N0020001N1+02941+02261101351ADDAA106000021GF108991021011008001051011MA1999999101301MD1999999+0061REMSYN070AAXX  30184 83498 32595 80508 10294 20226 30130 40135 82151 333 58006;
0198834980999992003123100004-17733-039250FM-12+000399999V0200501N001512200019N0020001N1+02581+02251101591ADDAA106000091GF101991011011008001001001KA1240M+03081MA1999999101541MD1999999+0121REMSYN088AAXX  31004 83498 32595 10503 10258 20225 30154 40159 81100 333 10308 29075 55042 58012;EQDQ01  00002PRCP06
0186834980999992003123112004-17733-039250FM-12+000399999V0200501N005110450019N0020001N1+02851+02221101601ADDAA106000091GF106991041051008001041001KA1240N+02351MA1999999101551MD1999999+0001REMSYN076AAXX  31124 83498 32595 60510 10285 20222 30155 40160 84540 333 20235 58000;EQDQ01  00002PRCP06
0167834980999992003123118004-17733-039250FM-12+000399999V0200501N004612200019N0020001N1+02951+02111101241ADDAA106000091GF101991011011008001001001MA1999999101191MD1999999-0111REMSYN070AAXX  31184 83498 32595 10509 10295 20211 30119 40124 81100 333 59011;EQDQ01  00002PRCP06
